{
  "type": "FeatureCollection",
  "features": [
    {
      "type": "Feature",
      "id": "way/548616275",
      "properties": {
        "timestamp": "2020-10-20T16:58:00Z",
        "version": 2,
        "changeset": 92781764,
        "addr:city": "Sirinhaém",
        "addr:postcode": "55580-000",
        "addr:street": "Rua Sebastião Chaves",
        "addr:suburb": "Centro",
        "amenity": "pharmacy",
        "building": "yes",
        "dispensing": "yes",
        "healthcare": "pharmacy",
        "name": "Farmácia do Povo",
        "id": "way/548616275"
      },
      "geometry": {
        "type": "Polygon",
        "coordinates": [
          [
            [
              -35.1153995,
              -8.5918163
            ],
            [
              -35.1153472,
              -8.5918531
            ],
            [
              -35.1152844,
              -8.5917462
            ],
            [
              -35.1153485,
              -8.5917168
            ],
            [
              -35.1153995,
              -8.5918163
            ]
          ]
        ]
      }
    },
    {
      "type": "Feature",
      "id": "way/550929941",
      "properties": {
        "timestamp": "2020-10-20T16:58:00Z",
        "version": 2,
        "changeset": 92781764,
        "addr:city": "Sirinhaém",
        "addr:postcode": "55580-000",
        "addr:street": "Rua Marquês de Olinda",
        "addr:suburb": "Centro",
        "amenity": "pharmacy",
        "building": "yes",
        "dispensing": "yes",
        "healthcare": "pharmacy",
        "name": "Pharmavida",
        "id": "way/550929941"
      },
      "geometry": {
        "type": "Polygon",
        "coordinates": [
          [
            [
              -35.1146843,
              -8.5928774
            ],
            [
              -35.114674,
              -8.5929278
            ],
            [
              -35.1146027,
              -8.592859
            ],
            [
              -35.1146346,
              -8.5928277
            ],
            [
              -35.1146843,
              -8.5928774
            ]
          ]
        ]
      }
    }
  ]
}
