{
  "type": "FeatureCollection",
  "features": [
    {
      "type": "Feature",
      "id": "way/249905996",
      "properties": {
        "timestamp": "2019-07-15T06:04:38Z",
        "version": 3,
        "changeset": 72249265,
        "government": "administrative",
        "name": "Secretaria de Obras",
        "office": "government",
        "id": "way/249905996"
      },
      "geometry": {
        "type": "Polygon",
        "coordinates": [
          [
            [
              -49.8836206,
              -22.9596959
            ],
            [
              -49.8835363,
              -22.9602763
            ],
            [
              -49.8834042,
              -22.9611604
            ],
            [
              -49.8826528,
              -22.9611118
            ],
            [
              -49.8826384,
              -22.9614566
            ],
            [
              -49.8825208,
              -22.9614412
            ],
            [
              -49.8823215,
              -22.9614169
            ],
            [
              -49.8822951,
              -22.9595411
            ],
            [
              -49.8836206,
              -22.9596959
            ]
          ]
        ]
      }
    },
    {
      "type": "Feature",
      "id": "way/616896912",
      "properties": {
        "timestamp": "2023-04-04T17:24:52Z",
        "version": 2,
        "changeset": 134506100,
        "addr:city": "Ourinhos",
        "addr:housenumber": "528",
        "addr:postcode": "19900-071",
        "addr:street": "Rua Nove de Julho",
        "addr:suburb": "Centro",
        "building": "yes",
        "building:levels": "2",
        "government": "administrative",
        "name": "Diretoria de ensino da região de Ourinhos",
        "office": "government",
        "phone": "+55 14 3302-2700",
        "website": "https://deourinhos.educacao.sp.gov.br/",
        "id": "way/616896912"
      },
      "geometry": {
        "type": "Polygon",
        "coordinates": [
          [
            [
              -49.8672051,
              -22.9779013
            ],
            [
              -49.8671943,
              -22.9780453
            ],
            [
              -49.8671374,
              -22.9780417
            ],
            [
              -49.867136,
              -22.9780611
            ],
            [
              -49.867066,
              -22.9780566
            ],
            [
              -49.867065,
              -22.9780705
            ],
            [
              -49.8670022,
              -22.9780665
            ],
            [
              -49.867003,
              -22.9780555
            ],
            [
              -49.8669312,
              -22.9780509
            ],
            [
              -49.8669331,
              -22.9780251
            ],
            [
              -49.8668805,
              -22.9780218
            ],
            [
              -49.8668911,
              -22.9778813
            ],
            [
              -49.8672051,
              -22.9779013
            ]
          ]
        ]
      }
    },
    {
      "type": "Feature",
      "id": "way/617311222",
      "properties": {
        "timestamp": "2023-07-16T16:16:06Z",
        "version": 3,
        "changeset": 138585503,
        "addr:city": "Ourinhos",
        "addr:housenumber": "1550",
        "addr:postcode": "19901-630",
        "addr:street": "Rua dos Expedicionário",
        "addr:suburb": "Jardim Matilde",
        "building": "yes",
        "building:levels": "1",
        "government": "legislative",
        "name": "Câmara Municipal de Ourinhos",
        "office": "government",
        "wheelchair": "yes",
        "id": "way/617311222"
      },
      "geometry": {
        "type": "Polygon",
        "coordinates": [
          [
            [
              -49.8662565,
              -22.9898821
            ],
            [
              -49.8661352,
              -22.9898745
            ],
            [
              -49.8661363,
              -22.9898596
            ],
            [
              -49.8660228,
              -22.9898525
            ],
            [
              -49.8660301,
              -22.9897529
            ],
            [
              -49.8659743,
              -22.9897494
            ],
            [
              -49.8659985,
              -22.9894217
            ],
            [
              -49.8661857,
              -22.9894334
            ],
            [
              -49.8661814,
              -22.9894922
            ],
            [
              -49.8661973,
              -22.9895028
            ],
            [
              -49.8662106,
              -22.9895223
            ],
            [
              -49.866215,
              -22.9895353
            ],
            [
              -49.8662122,
              -22.9895733
            ],
            [
              -49.8662499,
              -22.9895757
            ],
            [
              -49.8662342,
              -22.9897903
            ],
            [
              -49.8662631,
              -22.9897921
            ],
            [
              -49.8662565,
              -22.9898821
            ]
          ]
        ]
      }
    },
    {
      "type": "Feature",
      "id": "way/736543992",
      "properties": {
        "timestamp": "2019-10-18T14:37:06Z",
        "version": 3,
        "changeset": 75899483,
        "addr:city": "Ourinhos",
        "addr:housenumber": "2520",
        "addr:postcode": "19907-510",
        "addr:street": "Avenida Luiz Saldanha Rodrigues",
        "addr:suburb": "Jardim Santos Dumont",
        "building": "yes",
        "building:levels": "3",
        "name": "Procuradoria da Republica em Ourinhos - MPF",
        "name:pt": "Procuradoria da República em Ourinhos - MPF",
        "office": "government",
        "website": "http://www.mpf.mp.br/sp/municipios/procuradoria-da-republica-no-municipio-de-ourinhos",
        "id": "way/736543992"
      },
      "geometry": {
        "type": "Polygon",
        "coordinates": [
          [
            [
              -49.8941971,
              -22.9751057
            ],
            [
              -49.8941587,
              -22.9747827
            ],
            [
              -49.8944355,
              -22.9747517
            ],
            [
              -49.8944702,
              -22.9750738
            ],
            [
              -49.8941971,
              -22.9751057
            ]
          ]
        ]
      }
    },
    {
      "type": "Feature",
      "id": "way/1125326204",
      "properties": {
        "timestamp": "2022-12-28T05:56:41Z",
        "version": 1,
        "changeset": 130583568,
        "addr:city": "Ourinhos",
        "addr:housenumber": "189",
        "addr:postcode": "19900-080",
        "addr:street": "Rua Antônio Carlos Mori",
        "addr:suburb": "Centro",
        "building": "yes",
        "description": "INSS é a sigla para Instituto Nacional do Seguro Social. Ligado à Previdência Social, é o órgão do governo responsável por administrar o dinheiro correspondente a uma série de benefícios dos cidadãos brasileiros.",
        "email": "aps21027040@inss.gov.br",
        "government": "social_security",
        "name": "INSS Instituto Nacional do Seguro Social",
        "office": "government",
        "opening_hours": "Mo-Fr 08:00-14:00",
        "operator": "Instituto Nacional do Seguro Social",
        "operator:short": "INSS",
        "operator:wikidata": "Q10302614",
        "phone": "+55 14 3322-5033",
        "website": "https://meu.inss.gov.br",
        "id": "way/1125326204"
      },
      "geometry": {
        "type": "Polygon",
        "coordinates": [
          [
            [
              -49.8707757,
              -22.9784517
            ],
            [
              -49.8707489,
              -22.9789178
            ],
            [
              -49.870594,
              -22.9789103
            ],
            [
              -49.8706209,
              -22.9784442
            ],
            [
              -49.8707757,
              -22.9784517
            ]
          ]
        ]
      }
    },
    {
      "type": "Feature",
      "id": "way/1167428285",
      "properties": {
        "timestamp": "2025-03-14T12:54:49Z",
        "version": 2,
        "changeset": 163609122,
        "building": "yes",
        "building:levels": "3",
        "government": "tax",
        "name": "Receita Federal",
        "office": "government",
        "operator": "Receita Federal do Brasil",
        "operator:wikidata": "Q10369254",
        "id": "way/1167428285"
      },
      "geometry": {
        "type": "Polygon",
        "coordinates": [
          [
            [
              -49.8702918,
              -22.9782463
            ],
            [
              -49.87028,
              -22.978424
            ],
            [
              -49.870058,
              -22.9784116
            ],
            [
              -49.8700697,
              -22.9782338
            ],
            [
              -49.8702918,
              -22.9782463
            ]
          ]
        ]
      }
    },
    {
      "type": "Feature",
      "id": "way/1193537749",
      "properties": {
        "timestamp": "2023-07-31T11:50:02Z",
        "version": 1,
        "changeset": 139250595,
        "addr:city": "Ourinhos",
        "addr:housenumber": "649",
        "addr:postcode": "19900-081",
        "addr:street": "Rua Antônio Carlos Mori",
        "addr:suburb": "Centro",
        "building": "yes",
        "building:levels": "1",
        "government": "register_office",
        "name": "2° Cartório Tabelião de Notas e Protesto de Letras e Títulos de Ourinhos",
        "office": "government",
        "opening_hours": "Mo-Fr 09:00-16:00",
        "phone": "+55 14 3326-1497",
        "id": "way/1193537749"
      },
      "geometry": {
        "type": "Polygon",
        "coordinates": [
          [
            [
              -49.866206,
              -22.9785707
            ],
            [
              -49.8660881,
              -22.9785649
            ],
            [
              -49.8660974,
              -22.9784033
            ],
            [
              -49.8662153,
              -22.9784091
            ],
            [
              -49.866206,
              -22.9785707
            ]
          ]
        ]
      }
    },
    {
      "type": "Feature",
      "id": "node/9683367387",
      "properties": {
        "timestamp": "2023-08-19T10:24:32Z",
        "version": 3,
        "changeset": 140088827,
        "addr:city": "Ourinhos",
        "addr:housenumber": "970",
        "addr:postcode": "19912-120",
        "addr:street": "Rua Cardoso RIbeiro",
        "addr:suburb": "Vila Boa Esperança",
        "government": "social_services",
        "name": "Poupatempo",
        "office": "government",
        "phone": "+55 11 4135-9700",
        "website": "https://www.poupatempo.sp.gov.br/wps/portal/portalpoupatempo/",
        "id": "node/9683367387"
      },
      "geometry": {
        "type": "Point",
        "coordinates": [
          -49.8634756,
          -22.9794945
        ]
      }
    },
    {
      "type": "Feature",
      "id": "node/10289053574",
      "properties": {
        "timestamp": "2022-12-27T07:51:03Z",
        "version": 1,
        "changeset": 130543716,
        "addr:city": "Ourinhos",
        "addr:housenumber": "170",
        "addr:postcode": "19907-270",
        "addr:street": "Avenida Conselheiro Rodrigues Alves",
        "addr:suburb": "Vila Sá",
        "government": "public_service",
        "name": "Secretaria Municipal de Cultura",
        "office": "government",
        "opening_hours": "Mo-Su 08:00-18:00",
        "phone": "+55 14 3302-3344",
        "website": "https://www.ourinhos.sp.gov.br/portal/secretarias/5/cultura",
        "id": "node/10289053574"
      },
      "geometry": {
        "type": "Point",
        "coordinates": [
          -49.8742798,
          -22.9780154
        ]
      }
    }
  ]
}
