{
  "type": "FeatureCollection",
  "features": [
    {
      "type": "Feature",
      "id": "node/12595664098",
      "properties": {
        "timestamp": "2025-02-17T12:55:08Z",
        "version": 1,
        "changeset": 162610927,
        "addr:city": "Euclides da Cunha",
        "addr:street": "Avenida José Renato Campos",
        "amenity": "clinic",
        "healthcare": "clinic",
        "healthcare:speciality": "general",
        "name": "Centro de Especialidades Médica Doutor Humberto Freire",
        "id": "node/12595664098"
      },
      "geometry": {
        "type": "Point",
        "coordinates": [
          -39.0108173,
          -10.5034565
        ]
      }
    },
    {
      "type": "Feature",
      "id": "node/12598475878",
      "properties": {
        "timestamp": "2025-02-18T13:27:46Z",
        "version": 1,
        "changeset": 162661420,
        "addr:city": "Euclides da Cunha",
        "addr:postcode": "48500-000",
        "addr:street": "Rua Jooaquim Santana Lima",
        "amenity": "clinic",
        "healthcare": "clinic",
        "healthcare:speciality": "psychiatry;child_psychiatry",
        "name": "Centro de Atenção Psicossocial",
        "operator": "Município de Euclides da Cunha",
        "operator:type": "public",
        "id": "node/12598475878"
      },
      "geometry": {
        "type": "Point",
        "coordinates": [
          -39.0227332,
          -10.5041206
        ]
      }
    }
  ]
}
