{
  "type": "FeatureCollection",
  "features": [
    {
      "type": "Feature",
      "id": "node/3999139404",
      "properties": {
        "timestamp": "2016-02-10T13:37:08Z",
        "version": 1,
        "changeset": 37124622,
        "addr:city": "Conceição da Barra",
        "addr:postcode": "29967-000",
        "addr:street": "Rua Joventino Gomes Pereira",
        "addr:suburb": "Floresta",
        "alt_name": "Centro de Referência de Assistência Social",
        "amenity": "social_facility",
        "contact:phone": "(27) 3762 3734",
        "name": "CRAS - Bairro Floresta",
        "social_facility": "outreach",
        "source": "IJSN",
        "id": "node/3999139404"
      },
      "geometry": {
        "type": "Point",
        "coordinates": [
          -39.7409667,
          -18.5759328
        ]
      }
    },
    {
      "type": "Feature",
      "id": "node/3999139411",
      "properties": {
        "timestamp": "2016-02-10T13:37:10Z",
        "version": 1,
        "changeset": 37124622,
        "addr:city": "Conceição da Barra",
        "addr:postcode": "29967-000",
        "addr:street": "Rua Sinval Marques de Brito",
        "addr:suburb": "Campo Verde II",
        "alt_name": "Centro de Referência de Assistência Social",
        "amenity": "social_facility",
        "contact:phone": "(27) 3762-4590",
        "name": "CRAS - Braço do Rio",
        "social_facility": "outreach",
        "source": "IJSN",
        "id": "node/3999139411"
      },
      "geometry": {
        "type": "Point",
        "coordinates": [
          -39.9310896,
          -18.4361018
        ]
      }
    },
    {
      "type": "Feature",
      "id": "node/3999140713",
      "properties": {
        "timestamp": "2016-02-10T13:37:28Z",
        "version": 1,
        "changeset": 37124622,
        "addr:city": "Conceição da Barra",
        "addr:postcode": "29460-000",
        "addr:street": "Rua Ernane Benson",
        "addr:suburb": "Santana",
        "alt_name": "Centro de Referência de Assistência Social",
        "amenity": "social_facility",
        "name": "CRAS Quilombola",
        "social_facility": "outreach",
        "source": "IJSN",
        "id": "node/3999140713"
      },
      "geometry": {
        "type": "Point",
        "coordinates": [
          -39.7565625,
          -18.5679552
        ]
      }
    }
  ]
}
