{
  "type": "FeatureCollection",
  "features": [
    {
      "type": "Feature",
      "id": "node/9509053987",
      "properties": {
        "timestamp": "2023-08-19T11:38:39Z",
        "version": 3,
        "changeset": 140091241,
        "addr:city": "Catanduva",
        "addr:housenumber": "1008",
        "addr:postcode": "15.800-290",
        "addr:street": "Rua Manaus",
        "addr:suburb": "Centro",
        "amenity": "dentist",
        "healthcare": "dentist",
        "healthcare:speciality": "dentist;orthodontics",
        "image": "https://lh5.googleusercontent.com/p/AF1QipNlA5hRACQcEf56Byi-UY278cCqmmnPl0ufxDFy=w1920-h912-k-no",
        "level": "sala_02",
        "name": "Dra. Raquel Peres Moraes - Cirurgiã Dentista/Ortodontia",
        "name:en": "Dr. Raquel Peres Moraes - Dental Surgeon/Orthodontics",
        "opening_hours": "Mo-Fr 08:00-19:00",
        "operator": "Rafael Accarini",
        "phone": "+55 17 996136974",
        "source": "local knowledge",
        "start_date": "2021-09-01",
        "wheelchair": "yes",
        "id": "node/9509053987"
      },
      "geometry": {
        "type": "Point",
        "coordinates": [
          -48.9805494,
          -21.1400438
        ]
      }
    },
    {
      "type": "Feature",
      "id": "node/9580744421",
      "properties": {
        "timestamp": "2023-08-19T11:38:40Z",
        "version": 4,
        "changeset": 140091241,
        "addr:city": "Catanduva",
        "addr:housenumber": "1008",
        "addr:postcode": "15.800-290",
        "addr:street": "Rua Manaus",
        "addr:suburb": "Centro",
        "amenity": "dentist",
        "description": "Consultório odontológico da dentista Dra. Talita Ribeiro em Catanduva/SP. Ela é especialista em Ortodontia(aparelhos dentários) e também presta serviço de restauração, cirurgia, profilaxia(limpeza), clareamento dental, próteses e implantes. Possui sala li",
        "healthcare": "dentist",
        "healthcare:speciality": "dentist",
        "image": "https://goo.gl/maps/pSHFSZZbCtjJDobq8",
        "level": "sala_05",
        "name": "Talita Ribeiro Odontologia",
        "name:en": "Talita Ribeiro Dentistry",
        "opening_hours": "Mo-Fr 08:00-19:00",
        "operator": "Rafael Accarini",
        "payment:cash": "yes",
        "payment:credit_cards": "yes",
        "payment:debit_cards": "yes",
        "phone": "+55 17 98828-9443",
        "source": "local knowledge",
        "start_date": "2021-09-01",
        "wheelchair": "yes",
        "id": "node/9580744421"
      },
      "geometry": {
        "type": "Point",
        "coordinates": [
          -48.980482,
          -21.1400598
        ]
      }
    },
    {
      "type": "Feature",
      "id": "node/10981575992",
      "properties": {
        "timestamp": "2023-06-16T22:47:09Z",
        "version": 1,
        "changeset": 137430829,
        "addr:city": "Catanduva",
        "addr:housenumber": "103",
        "addr:street": "Rua Minas Gerais",
        "addr:suburb": "Centro",
        "amenity": "dentist",
        "healthcare": "dentist",
        "name": "Odontologia AC",
        "id": "node/10981575992"
      },
      "geometry": {
        "type": "Point",
        "coordinates": [
          -48.9714731,
          -21.1383104
        ]
      }
    },
    {
      "type": "Feature",
      "id": "node/11292611176",
      "properties": {
        "timestamp": "2023-10-27T07:24:54Z",
        "version": 1,
        "changeset": 143197103,
        "addr:city": "Catanduva",
        "addr:housenumber": "218",
        "addr:postcode": "15800010",
        "addr:street": "Rua Treze de Maio",
        "addr:suburb": "Centro",
        "amenity": "dentist",
        "name": "GOU Odonto",
        "opening_hours": "Mo-Sa 09:00-19:00",
        "wheelchair": "yes",
        "id": "node/11292611176"
      },
      "geometry": {
        "type": "Point",
        "coordinates": [
          -48.9736432,
          -21.1337836
        ]
      }
    }
  ]
}
