{
  "type": "FeatureCollection",
  "features": [
    {
      "type": "Feature",
      "id": "way/231964263",
      "properties": {
        "timestamp": "2024-10-05T13:35:49Z",
        "version": 3,
        "changeset": 157501552,
        "addr:city": "Atibaia",
        "addr:housenumber": "km 44",
        "addr:street": "Rodovia Fern達o Dias",
        "amenity": "pharmacy",
        "building": "retail",
        "dispensing": "yes",
        "drive_through": "yes",
        "healthcare": "pharmacy",
        "height": "4",
        "name": "Droga Lucas",
        "phone": "+55 11 4413-2975",
        "id": "way/231964263"
      },
      "geometry": {
        "type": "Polygon",
        "coordinates": [
          [
            [
              -46.5728892,
              -23.1616252
            ],
            [
              -46.5728341,
              -23.161626
            ],
            [
              -46.5728327,
              -23.1615466
            ],
            [
              -46.5728878,
              -23.1615458
            ],
            [
              -46.5728892,
              -23.1616252
            ]
          ]
        ]
      }
    },
    {
      "type": "Feature",
      "id": "way/480023538",
      "properties": {
        "timestamp": "2021-11-11T00:45:15Z",
        "version": 4,
        "changeset": 113630942,
        "addr:city": "Atibaia",
        "addr:country": "BR",
        "addr:housenumber": "1898",
        "addr:postcode": "12947-000",
        "addr:state": "SP",
        "addr:street": "Alameda Professor Lucas Nogueira Garcez",
        "amenity": "pharmacy",
        "brand": "Droga Raia",
        "brand:wikidata": "Q10357101",
        "brand:wikipedia": "pt:RaiaDrogasil",
        "building": "yes",
        "dispensing": "yes",
        "healthcare": "pharmacy",
        "name": "Droga Raia",
        "id": "way/480023538"
      },
      "geometry": {
        "type": "Polygon",
        "coordinates": [
          [
            [
              -46.5539226,
              -23.1248349
            ],
            [
              -46.5539572,
              -23.1249436
            ],
            [
              -46.5537797,
              -23.1249945
            ],
            [
              -46.5537619,
              -23.1249387
            ],
            [
              -46.5537441,
              -23.124883
            ],
            [
              -46.5539226,
              -23.1248349
            ]
          ]
        ]
      }
    },
    {
      "type": "Feature",
      "id": "way/583351263",
      "properties": {
        "timestamp": "2021-11-11T00:45:15Z",
        "version": 2,
        "changeset": 113630942,
        "amenity": "pharmacy",
        "brand": "Drogasil",
        "brand:wikidata": "Q5308185",
        "brand:wikipedia": "pt:Drogasil",
        "building": "yes",
        "dispensing": "yes",
        "healthcare": "pharmacy",
        "name": "Drogasil",
        "wheelchair": "yes",
        "id": "way/583351263"
      },
      "geometry": {
        "type": "Polygon",
        "coordinates": [
          [
            [
              -46.554774,
              -23.120616
            ],
            [
              -46.5547188,
              -23.1207426
            ],
            [
              -46.5545256,
              -23.1206713
            ],
            [
              -46.5545808,
              -23.1205447
            ],
            [
              -46.554774,
              -23.120616
            ]
          ]
        ]
      }
    },
    {
      "type": "Feature",
      "id": "node/4602690373",
      "properties": {
        "timestamp": "2019-12-05T18:50:48Z",
        "version": 2,
        "changeset": 78013329,
        "amenity": "pharmacy",
        "brand": "Drogaria S達o Paulo",
        "brand:wikidata": "Q5308184",
        "brand:wikipedia": "en:Grupo DPSP",
        "healthcare": "pharmacy",
        "name": "Drogaria S達o Paulo",
        "id": "node/4602690373"
      },
      "geometry": {
        "type": "Point",
        "coordinates": [
          -46.5538327,
          -23.1285003
        ]
      }
    },
    {
      "type": "Feature",
      "id": "node/4730497291",
      "properties": {
        "timestamp": "2021-11-11T00:45:15Z",
        "version": 2,
        "changeset": 113630942,
        "addr:city": "Atibaia",
        "addr:country": "BR",
        "addr:housenumber": "122",
        "addr:postcode": "12040-500",
        "addr:state": "SP",
        "addr:street": "Rua Jo達o Pires",
        "amenity": "pharmacy",
        "brand": "Droga Raia",
        "brand:wikidata": "Q10357101",
        "brand:wikipedia": "pt:RaiaDrogasil",
        "contact:phone": "+55 11 4412-7242",
        "contact:website": "http://www.drogaraia.com.br",
        "healthcare": "pharmacy",
        "name": "Droga Raia",
        "opening_hours": "24/7",
        "id": "node/4730497291"
      },
      "geometry": {
        "type": "Point",
        "coordinates": [
          -46.5564501,
          -23.1144318
        ]
      }
    },
    {
      "type": "Feature",
      "id": "node/5583406313",
      "properties": {
        "timestamp": "2018-04-28T00:05:17Z",
        "version": 1,
        "changeset": 58492177,
        "addr:city": "Atibaia",
        "addr:street": "Alameda Professor Lucas Nogueira Garcez",
        "id": "node/5583406313"
      },
      "geometry": {
        "type": "Point",
        "coordinates": [
          -46.5537619,
          -23.1249387
        ]
      }
    }
  ]
}
