{
  "type": "FeatureCollection",
  "features": [
    {
      "type": "Feature",
      "id": "way/588409822",
      "properties": {
        "timestamp": "2022-07-29T23:34:24Z",
        "version": 3,
        "changeset": 124250982,
        "addr:city": "Mandaguari",
        "addr:housenumber": "610 - 728",
        "addr:postcode": "86975-000",
        "addr:street": "Rua Gumercindo Bortolanza",
        "addr:suburb": "Centro",
        "amenity": "school",
        "description": "Ensino Fundamental, Médio, Profissionalizante e Normal",
        "grades": "1-12",
        "name": "CEVEC - Colégio Estadual Vera Cruz",
        "phone": "+55 44 3233 2726",
        "id": "way/588409822"
      },
      "geometry": {
        "type": "Polygon",
        "coordinates": [
          [
            [
              -51.6686552,
              -23.532082
            ],
            [
              -51.6674705,
              -23.5326462
            ],
            [
              -51.6669477,
              -23.5317245
            ],
            [
              -51.6681139,
              -23.5311378
            ],
            [
              -51.6686552,
              -23.532082
            ]
          ]
        ]
      }
    },
    {
      "type": "Feature",
      "id": "way/1007479745",
      "properties": {
        "timestamp": "2021-11-29T21:41:26Z",
        "version": 1,
        "changeset": 114378331,
        "addr:city": "Mandaguari",
        "addr:housenumber": "300",
        "addr:postcode": "86975000",
        "addr:street": "Rua João Ernesto Ferreira",
        "addr:suburb": "Centro",
        "amenity": "school",
        "grades": "1-12",
        "name": "Colégio Estadual São Vicente Palotti",
        "operator": "Estado do Paraná",
        "operator:type": "public",
        "id": "way/1007479745"
      },
      "geometry": {
        "type": "Polygon",
        "coordinates": [
          [
            [
              -51.6739952,
              -23.5255898
            ],
            [
              -51.6728691,
              -23.5261435
            ],
            [
              -51.6723176,
              -23.5252085
            ],
            [
              -51.6734529,
              -23.5246505
            ],
            [
              -51.6739952,
              -23.5255898
            ]
          ]
        ]
      }
    },
    {
      "type": "Feature",
      "id": "way/1007479752",
      "properties": {
        "timestamp": "2021-11-29T21:41:26Z",
        "version": 1,
        "changeset": 114378331,
        "addr:city": "Mandaguari",
        "addr:housenumber": "625",
        "addr:postcode": "86975-000",
        "addr:street": "Avenida Presidente Vargas",
        "addr:suburb": "Centro",
        "amenity": "school",
        "grades": "1-12",
        "name": "Colégio Sagrada Família",
        "operator": "Colégio Sagrada Família",
        "operator:type": "private",
        "id": "way/1007479752"
      },
      "geometry": {
        "type": "Polygon",
        "coordinates": [
          [
            [
              -51.6692945,
              -23.5304886
            ],
            [
              -51.6681338,
              -23.5310682
            ],
            [
              -51.6675687,
              -23.530114
            ],
            [
              -51.6687457,
              -23.529525
            ],
            [
              -51.6692945,
              -23.5304886
            ]
          ]
        ]
      }
    },
    {
      "type": "Feature",
      "id": "way/1153088452",
      "properties": {
        "timestamp": "2023-03-10T01:23:56Z",
        "version": 1,
        "changeset": 133499686,
        "addr:housenumber": "138",
        "addr:postcode": "86975-000",
        "addr:street": "Rua Aroldo Ferreira",
        "addr:suburb": "Parque Independência",
        "amenity": "school",
        "name": "EEIEF Primeiro Passo",
        "phone": "+55 44 3233 1088",
        "ref": "INEP-41023110",
        "religion": "none",
        "source": "INEP",
        "id": "way/1153088452"
      },
      "geometry": {
        "type": "Polygon",
        "coordinates": [
          [
            [
              -51.6707811,
              -23.5217169
            ],
            [
              -51.6704753,
              -23.521862
            ],
            [
              -51.6702473,
              -23.5214636
            ],
            [
              -51.6705397,
              -23.521316
            ],
            [
              -51.6707811,
              -23.5217169
            ]
          ]
        ]
      }
    },
    {
      "type": "Feature",
      "id": "way/1353141504",
      "properties": {
        "timestamp": "2025-01-21T12:44:45Z",
        "version": 2,
        "changeset": 161599203,
        "addr:city": "Mandaguari",
        "addr:housenumber": "sn",
        "addr:postcode": "86975-000",
        "addr:street": "Rua Juscelino Kubitschek",
        "addr:suburb": "Centro",
        "amenity": "school",
        "building": "school",
        "email": "mdgjoseluizgori@seed.pr.gov.br",
        "fax": "+55 44 3233 2881",
        "grades": "1-12",
        "name": "Colégio Estadual José Luiz Gori",
        "official_name": "JOSE LUIZ GORI, C E-EF M PROFIS",
        "operator": "Colégio Estadual José Luiz Gori",
        "operator:type": "public",
        "phone": "+55 44 3233 2881",
        "polling_station": "yes",
        "id": "way/1353141504"
      },
      "geometry": {
        "type": "Polygon",
        "coordinates": [
          [
            [
              -51.6737764,
              -23.5194527
            ],
            [
              -51.6734978,
              -23.5200041
            ],
            [
              -51.6731174,
              -23.5207054
            ],
            [
              -51.672535,
              -23.5201154
            ],
            [
              -51.6721991,
              -23.5197688
            ],
            [
              -51.672759,
              -23.5187936
            ],
            [
              -51.6734929,
              -23.5192338
            ],
            [
              -51.6737764,
              -23.5194527
            ]
          ]
        ]
      }
    }
  ]
}
