{
  "type": "FeatureCollection",
  "features": [
    {
      "type": "Feature",
      "id": "way/485755179",
      "properties": {
        "timestamp": "2017-04-09T23:42:53Z",
        "version": 1,
        "changeset": 47606207,
        "building": "yes",
        "government": "register_office",
        "name": "Cartório Justinópolis",
        "office": "government",
        "id": "way/485755179"
      },
      "geometry": {
        "type": "Polygon",
        "coordinates": [
          [
            [
              -44.0096265,
              -19.8002358
            ],
            [
              -44.0095896,
              -19.8001662
            ],
            [
              -44.0096188,
              -19.8001532
            ],
            [
              -44.0095973,
              -19.8001097
            ],
            [
              -44.0096496,
              -19.8000851
            ],
            [
              -44.0097128,
              -19.8001952
            ],
            [
              -44.0096265,
              -19.8002358
            ]
          ]
        ]
      }
    },
    {
      "type": "Feature",
      "id": "node/5571903622",
      "properties": {
        "timestamp": "2018-10-25T00:28:58Z",
        "version": 3,
        "changeset": 63850414,
        "addr:street": "Rua Cataguases",
        "government": "legislative",
        "name": "Câmara Municipal",
        "name:pt": "Câmara Municipal Ribeirão das Neves",
        "office": "government",
        "id": "node/5571903622"
      },
      "geometry": {
        "type": "Point",
        "coordinates": [
          -44.0900049,
          -19.764757
        ]
      }
    },
    {
      "type": "Feature",
      "id": "node/5583604622",
      "properties": {
        "timestamp": "2018-04-28T04:05:46Z",
        "version": 1,
        "changeset": 58494668,
        "name": "Penitenciária José Maria Alckmin",
        "name:en": "Penitenciária José Maria Alkmin",
        "office": "government",
        "id": "node/5583604622"
      },
      "geometry": {
        "type": "Point",
        "coordinates": [
          -44.0905027,
          -19.7645806
        ]
      }
    },
    {
      "type": "Feature",
      "id": "node/7247603297",
      "properties": {
        "timestamp": "2020-02-27T13:09:35Z",
        "version": 1,
        "changeset": 81549201,
        "addr:city": "Ribeirão das Neves",
        "addr:housenumber": "71",
        "addr:postcode": "33900-450",
        "addr:street": "Rua Mário Aledandrino Rocha",
        "addr:suburb": "São Januário (Justinópolis)",
        "government": "register_office",
        "name": "Cartório da 321ª Zona Eleitoral",
        "office": "government",
        "opening_hours": "Mo-Fr 12:00-18:00",
        "operator": "TRE-MG",
        "id": "node/7247603297"
      },
      "geometry": {
        "type": "Point",
        "coordinates": [
          -44.0131744,
          -19.7997083
        ]
      }
    }
  ]
}
