{
  "type": "FeatureCollection",
  "features": [
    {
      "type": "Feature",
      "id": "way/1365005869",
      "properties": {
        "timestamp": "2025-03-06T13:46:59Z",
        "version": 1,
        "changeset": 163286336,
        "addr:city": "Poço Redondo",
        "addr:postcode": "49810-000",
        "addr:street": "Avenida Onze de Setembro",
        "addr:suburb": "Centro",
        "amenity": "social_facility",
        "building": "yes",
        "name": "Centro de Referência em Assistência Social Quilombola Felix Celestino dos Santos",
        "operator": "Município de Poço Redondo",
        "operator:type": "public",
        "social_facility": "group_home",
        "social_facility:for": "underprivileged",
        "id": "way/1365005869"
      },
      "geometry": {
        "type": "Polygon",
        "coordinates": [
          [
            [
              -37.7502222,
              -10.0004419
            ],
            [
              -37.7501479,
              -10.0005018
            ],
            [
              -37.7500296,
              -10.0003587
            ],
            [
              -37.7501056,
              -10.0002971
            ],
            [
              -37.7502222,
              -10.0004419
            ]
          ]
        ]
      }
    }
  ]
}
