{
  "type": "FeatureCollection",
  "features": [
    {
      "type": "Feature",
      "id": "node/4297375135",
      "properties": {
        "timestamp": "2016-07-12T04:24:05Z",
        "version": 1,
        "changeset": 40671625,
        "amenity": "clinic",
        "id": "node/4297375135"
      },
      "geometry": {
        "type": "Point",
        "coordinates": [
          -37.7137655,
          -8.5112484
        ]
      }
    },
    {
      "type": "Feature",
      "id": "node/12193123121",
      "properties": {
        "timestamp": "2024-09-22T17:59:29Z",
        "version": 1,
        "changeset": 156963387,
        "addr:city": "Inajá",
        "addr:postcode": "56560-000",
        "addr:street": "Sítio Manari Velho",
        "addr:suburb": "Zona Rural",
        "amenity": "clinic",
        "healthcare": "clinic",
        "name": "Unidade de Saúde da Família Alberto Freire de Azevedo",
        "opening_hours": "08h00 às 13h00",
        "operator": "Município de Inajá, Secretaria de Saúde",
        "operator:type": "public",
        "id": "node/12193123121"
      },
      "geometry": {
        "type": "Point",
        "coordinates": [
          -37.5872326,
          -8.8236319
        ]
      }
    }
  ]
}
