{
  "type": "FeatureCollection",
  "features": [
    {
      "type": "Feature",
      "id": "way/661608826",
      "properties": {
        "timestamp": "2023-08-06T23:36:34Z",
        "version": 2,
        "changeset": 139536160,
        "addr:city": "Pirapozinho",
        "addr:housenumber": "336",
        "addr:postcode": "19200-000",
        "addr:street": "Rua Oscar de Toledo Cesar",
        "addr:suburb": "Centro",
        "amenity": "clinic",
        "building": "yes",
        "email": "ubspirapo@outlook.com",
        "healthcare": "clinic",
        "healthcare:speciality": "general",
        "name": "Unidade Básica de Saúde II Doutor Plinio Arantes Barreto",
        "opening_hours": "Mo-Fr 08:00-17:00",
        "operator": "Prefeitura Municipal de Pirapozinho",
        "phone": "+55 18 3269 1080",
        "ref:CNES": "2751267",
        "id": "way/661608826"
      },
      "geometry": {
        "type": "Polygon",
        "coordinates": [
          [
            [
              -51.4945524,
              -22.2759874
            ],
            [
              -51.494429,
              -22.2761809
            ],
            [
              -51.4943808,
              -22.2761546
            ],
            [
              -51.4943598,
              -22.2761875
            ],
            [
              -51.4942361,
              -22.2761199
            ],
            [
              -51.4943805,
              -22.2758935
            ],
            [
              -51.4945524,
              -22.2759874
            ]
          ]
        ]
      }
    },
    {
      "type": "Feature",
      "id": "way/661920542",
      "properties": {
        "timestamp": "2023-08-06T23:36:34Z",
        "version": 2,
        "changeset": 139536160,
        "addr:city": "Pirapozinho",
        "addr:housenumber": "101",
        "addr:postcode": "19200-000",
        "addr:street": "Rua Francisco Ortiz Amigo",
        "addr:suburb": "Jardim Vantini",
        "amenity": "clinic",
        "building": "yes",
        "healthcare": "clinic",
        "healthcare:speciality": "general",
        "name": "ESF Jardim Vantini",
        "opening_hours": "Mo-Fr 07:00-17:00",
        "operator": "Prefeitura Municipal de Pirapozinho",
        "operator:ref:vatin": "BR54801121000161",
        "ref:CNES": "2750864",
        "id": "way/661920542"
      },
      "geometry": {
        "type": "Polygon",
        "coordinates": [
          [
            [
              -51.4898416,
              -22.2826527
            ],
            [
              -51.4898392,
              -22.2826927
            ],
            [
              -51.489825,
              -22.282692
            ],
            [
              -51.4898129,
              -22.2828965
            ],
            [
              -51.489696,
              -22.2828906
            ],
            [
              -51.4897082,
              -22.2826844
            ],
            [
              -51.4896891,
              -22.2826835
            ],
            [
              -51.4896913,
              -22.2826452
            ],
            [
              -51.4898416,
              -22.2826527
            ]
          ]
        ]
      }
    },
    {
      "type": "Feature",
      "id": "way/669201242",
      "properties": {
        "timestamp": "2020-07-22T05:45:03Z",
        "version": 2,
        "changeset": 88325198,
        "amenity": "clinic",
        "building": "yes",
        "healthcare": "clinic",
        "name": "PSF Arisa Berbert Chedid",
        "id": "way/669201242"
      },
      "geometry": {
        "type": "Polygon",
        "coordinates": [
          [
            [
              -51.5124812,
              -22.2848732
            ],
            [
              -51.5124424,
              -22.2850171
            ],
            [
              -51.5121619,
              -22.2847631
            ],
            [
              -51.5122434,
              -22.284672
            ],
            [
              -51.5124812,
              -22.2848732
            ]
          ]
        ]
      }
    }
  ]
}
