{
  "type": "FeatureCollection",
  "features": [
    {
      "type": "Feature",
      "id": "way/662561887",
      "properties": {
        "timestamp": "2019-01-12T06:47:31Z",
        "version": 1,
        "changeset": 66244831,
        "addr:city": "Pirapozinho",
        "addr:housenumber": "13",
        "addr:postcode": "19200000",
        "addr:street": "Praça Padre Hilário Pierik",
        "addr:suburb": "Centro",
        "amenity": "dentist",
        "building": "yes",
        "healthcare": "dentist",
        "name": "Carla Cabral Maturana",
        "id": "way/662561887"
      },
      "geometry": {
        "type": "Polygon",
        "coordinates": [
          [
            [
              -51.4998478,
              -22.2755771
            ],
            [
              -51.4999177,
              -22.2756192
            ],
            [
              -51.4998917,
              -22.2756562
            ],
            [
              -51.4998218,
              -22.2756141
            ],
            [
              -51.4998478,
              -22.2755771
            ]
          ]
        ]
      }
    },
    {
      "type": "Feature",
      "id": "way/662561888",
      "properties": {
        "timestamp": "2019-01-12T06:47:31Z",
        "version": 1,
        "changeset": 66244831,
        "addr:city": "Pirapozinho",
        "addr:housenumber": "35",
        "addr:postcode": "19200000",
        "addr:street": "Praça Padre Hilário Pierik",
        "addr:suburb": "Centro",
        "amenity": "dentist",
        "building": "yes",
        "healthcare": "dentist",
        "name": "Dr. Tadao Nishimura",
        "id": "way/662561888"
      },
      "geometry": {
        "type": "Polygon",
        "coordinates": [
          [
            [
              -51.5000512,
              -22.2757842
            ],
            [
              -51.5000339,
              -22.2758115
            ],
            [
              -51.499967,
              -22.2757751
            ],
            [
              -51.4999844,
              -22.2757478
            ],
            [
              -51.5000512,
              -22.2757842
            ]
          ]
        ]
      }
    },
    {
      "type": "Feature",
      "id": "way/668508718",
      "properties": {
        "timestamp": "2020-07-22T05:45:03Z",
        "version": 2,
        "changeset": 88325198,
        "addr:city": "Pirapozinho",
        "addr:housenumber": "1",
        "addr:postcode": "19200000",
        "addr:street": "Praça Padre Hilário Pierik",
        "addr:suburb": "Centro",
        "amenity": "dentist",
        "building": "yes",
        "healthcare": "dentist",
        "healthcare:speciality": "dentistry",
        "name": "Dr. Adilson Dias & Drª. Alba Cristina P. Dias",
        "id": "way/668508718"
      },
      "geometry": {
        "type": "Polygon",
        "coordinates": [
          [
            [
              -51.5006951,
              -22.2759469
            ],
            [
              -51.5006003,
              -22.2758879
            ],
            [
              -51.5006598,
              -22.2758061
            ],
            [
              -51.500749,
              -22.2758616
            ],
            [
              -51.5007546,
              -22.2758651
            ],
            [
              -51.5006951,
              -22.2759469
            ]
          ]
        ]
      }
    }
  ]
}
