{
  "type": "FeatureCollection",
  "features": [
    {
      "type": "Feature",
      "id": "node/10091945628",
      "properties": {
        "timestamp": "2022-10-11T11:15:09Z",
        "version": 1,
        "changeset": 127353757,
        "addr:city": "Nova Fátima",
        "addr:housenumber": "256",
        "addr:postcode": "44642-000",
        "addr:street": "Rua Gerolina Moreira de Oliveira",
        "addr:suburb": "Centro",
        "amenity": "school",
        "name": "Centro Educacional Nossa Senhora de Fátima",
        "phone": "+55 75 9 8155 4850",
        "polling_station": "yes",
        "id": "node/10091945628"
      },
      "geometry": {
        "type": "Point",
        "coordinates": [
          -39.6346012,
          -11.6068768
        ]
      }
    },
    {
      "type": "Feature",
      "id": "node/10091958357",
      "properties": {
        "timestamp": "2022-10-11T11:11:39Z",
        "version": 1,
        "changeset": 127353487,
        "addr:city": "Nova Fátima",
        "addr:postcode": "44642-000",
        "addr:street": "Praça Eliel Martins",
        "addr:suburb": "Nova Morada",
        "amenity": "school",
        "name": "Escola Pedro Paulo da Silva",
        "phone": "+55 75 3234 1082",
        "polling_station": "yes",
        "source": "TSE",
        "id": "node/10091958357"
      },
      "geometry": {
        "type": "Point",
        "coordinates": [
          -39.6317317,
          -11.6066249
        ]
      }
    },
    {
      "type": "Feature",
      "id": "node/10091958358",
      "properties": {
        "timestamp": "2022-10-11T11:15:23Z",
        "version": 1,
        "changeset": 127353775,
        "addr:city": "Nova Fátima",
        "addr:housenumber": "187",
        "addr:postcode": "44642-000",
        "addr:street": "Rua João Campos",
        "addr:suburb": "Centro",
        "amenity": "school",
        "name": "Escola Municipal João Campos",
        "phone": "+55 75 9 8186 0947",
        "polling_station": "yes",
        "id": "node/10091958358"
      },
      "geometry": {
        "type": "Point",
        "coordinates": [
          -39.633001,
          -11.6058573
        ]
      }
    },
    {
      "type": "Feature",
      "id": "node/10091964633",
      "properties": {
        "timestamp": "2022-10-11T11:19:43Z",
        "version": 1,
        "changeset": 127354062,
        "addr:city": "Nova Fátima",
        "addr:housenumber": "93",
        "addr:postcode": "44642-000",
        "addr:street": "Rua Pedro Maia de Matos",
        "addr:suburb": "Centro",
        "amenity": "school",
        "name": "Colégio Estadual Virgílio Francisco Pereira",
        "phone": "+55 3234 1108",
        "id": "node/10091964633"
      },
      "geometry": {
        "type": "Point",
        "coordinates": [
          -39.6318112,
          -11.6109061
        ]
      }
    },
    {
      "type": "Feature",
      "id": "node/10091964634",
      "properties": {
        "timestamp": "2022-10-11T11:19:43Z",
        "version": 1,
        "changeset": 127354062,
        "addr:city": "Nova Fátima",
        "addr:postcode": "44642-000",
        "addr:street": "Rua José Xavier dos Santos",
        "addr:suburb": "Centro",
        "amenity": "school",
        "name": "Educandário Municipal Santa Izabel",
        "phone": "+55 75981688711",
        "id": "node/10091964634"
      },
      "geometry": {
        "type": "Point",
        "coordinates": [
          -39.630735,
          -11.6093467
        ]
      }
    },
    {
      "type": "Feature",
      "id": "node/10091964635",
      "properties": {
        "timestamp": "2022-10-11T11:19:43Z",
        "version": 1,
        "changeset": 127354062,
        "addr:city": "Nova Fátima",
        "addr:housenumber": "56",
        "addr:postcode": "44642-000",
        "addr:street": "Rua Hamilton Lopes",
        "addr:suburb": "Centro",
        "amenity": "school",
        "name": "Escola Municipal Francisca Mendes Guimarães",
        "phone": "+55 75 9 8243 6561",
        "id": "node/10091964635"
      },
      "geometry": {
        "type": "Point",
        "coordinates": [
          -39.6349435,
          -11.60729
        ]
      }
    }
  ]
}
