{
  "type": "FeatureCollection",
  "features": [
    {
      "type": "Feature",
      "id": "way/1333742740",
      "properties": {
        "timestamp": "2024-11-14T14:52:08Z",
        "version": 1,
        "changeset": 159133585,
        "addr:city": "JALES",
        "addr:postcode": "15700000",
        "addr:suburb": "ROQUE VIOLA",
        "amenity": "clinic",
        "building": "yes",
        "healthcare": "clinic",
        "id": "way/1333742740"
      },
      "geometry": {
        "type": "Polygon",
        "coordinates": [
          [
            [
              -50.5269634,
              -20.2722312
            ],
            [
              -50.5271617,
              -20.2727686
            ],
            [
              -50.5269069,
              -20.2728717
            ],
            [
              -50.5265242,
              -20.272375
            ],
            [
              -50.5269634,
              -20.2722312
            ]
          ]
        ]
      }
    },
    {
      "type": "Feature",
      "id": "node/5590618856",
      "properties": {
        "timestamp": "2023-08-08T00:03:06Z",
        "version": 2,
        "changeset": 139587229,
        "addr:city": "Jales",
        "addr:housenumber": "2052",
        "addr:postcode": "15704-048",
        "addr:street": "Rua 12",
        "addr:suburb": "Centro",
        "amenity": "clinic",
        "healthcare": "clinic",
        "name": "Centro Médico de Especialidades - Unidade I",
        "phone": "+55 17 3632 7995",
        "ref:CNES": "2848392",
        "ref:vatin": "BR09375191000493",
        "id": "node/5590618856"
      },
      "geometry": {
        "type": "Point",
        "coordinates": [
          -50.5515112,
          -20.2718732
        ]
      }
    },
    {
      "type": "Feature",
      "id": "node/5617916358",
      "properties": {
        "timestamp": "2023-08-06T22:47:04Z",
        "version": 2,
        "changeset": 139534949,
        "addr:city": "Jales",
        "addr:housenumber": "2115",
        "addr:postcode": "15700-058",
        "addr:street": "Rua 4",
        "addr:suburb": "Centro",
        "amenity": "clinic",
        "healthcare": "clinic",
        "name": "San Corpus",
        "phone": "+55 17 3632 3344",
        "ref:CNES": "9364870",
        "ref:vatin": "BR09652990000117",
        "id": "node/5617916358"
      },
      "geometry": {
        "type": "Point",
        "coordinates": [
          -50.5489355,
          -20.2741793
        ]
      }
    },
    {
      "type": "Feature",
      "id": "node/5664442257",
      "properties": {
        "timestamp": "2023-08-06T22:47:04Z",
        "version": 2,
        "changeset": 139534949,
        "addr:city": "Jales",
        "addr:housenumber": "2231",
        "addr:postcode": "15700-086",
        "addr:street": "Rua 14",
        "addr:suburb": "Centro",
        "amenity": "clinic",
        "healthcare": "clinic",
        "name": "Clínica LC",
        "phone": "+55 17 3621 4617",
        "ref:CNES": "7641397",
        "ref:vatin": "BR10674310000145",
        "id": "node/5664442257"
      },
      "geometry": {
        "type": "Point",
        "coordinates": [
          -50.5517863,
          -20.2693893
        ]
      }
    },
    {
      "type": "Feature",
      "id": "node/6538567396",
      "properties": {
        "timestamp": "2023-08-08T00:03:06Z",
        "version": 2,
        "changeset": 139587229,
        "addr:street": "Avenida da Integração",
        "amenity": "clinic",
        "healthcare": "clinic",
        "name": "Posto de Saúde Uniamérica",
        "id": "node/6538567396"
      },
      "geometry": {
        "type": "Point",
        "coordinates": [
          -50.5409128,
          -20.2769944
        ]
      }
    },
    {
      "type": "Feature",
      "id": "node/6538567398",
      "properties": {
        "timestamp": "2019-06-11T01:41:08Z",
        "version": 1,
        "changeset": 71122612,
        "amenity": "clinic",
        "name": "AME Ambulatório de Especialidades Medicas",
        "id": "node/6538567398"
      },
      "geometry": {
        "type": "Point",
        "coordinates": [
          -50.5518964,
          -20.2694236
        ]
      }
    },
    {
      "type": "Feature",
      "id": "node/6538567399",
      "properties": {
        "timestamp": "2019-06-11T01:41:08Z",
        "version": 1,
        "changeset": 71122612,
        "amenity": "clinic",
        "name": "Posto de Saúde Rural",
        "id": "node/6538567399"
      },
      "geometry": {
        "type": "Point",
        "coordinates": [
          -50.5405104,
          -20.276778
        ]
      }
    }
  ]
}
