{
  "type": "FeatureCollection",
  "features": [
    {
      "type": "Feature",
      "id": "node/7201342163",
      "properties": {
        "timestamp": "2020-02-10T19:17:55Z",
        "version": 1,
        "changeset": 80812121,
        "addr:city": "Itabira",
        "addr:housenumber": "665",
        "addr:street": "Avenida João Pinheiro",
        "addr:suburb": "Centro",
        "amenity": "pharmacy",
        "dispensing": "yes",
        "healthcare": "pharmacy",
        "name": "Farmacia Indiana",
        "id": "node/7201342163"
      },
      "geometry": {
        "type": "Point",
        "coordinates": [
          -43.2255991,
          -19.6248015
        ]
      }
    },
    {
      "type": "Feature",
      "id": "node/7204168201",
      "properties": {
        "timestamp": "2020-02-11T18:10:07Z",
        "version": 1,
        "changeset": 80864625,
        "addr:city": "Itabira",
        "addr:housenumber": "665",
        "addr:postcode": "35900-539",
        "addr:street": "Avenida João Pinheiro",
        "addr:suburb": "Centro",
        "amenity": "pharmacy",
        "brand": "Drogasil",
        "brand:wikidata": "Q5308185",
        "brand:wikipedia": "pt:Drogasil",
        "dispensing": "yes",
        "healthcare": "pharmacy",
        "name": "Drogasil",
        "wheelchair": "yes",
        "id": "node/7204168201"
      },
      "geometry": {
        "type": "Point",
        "coordinates": [
          -43.2253864,
          -19.6246421
        ]
      }
    },
    {
      "type": "Feature",
      "id": "node/7204168202",
      "properties": {
        "timestamp": "2020-02-11T18:10:07Z",
        "version": 1,
        "changeset": 80864625,
        "addr:city": "Itabira",
        "addr:housenumber": "98",
        "addr:street": "Praça Doutor Acrísio Alvarenga",
        "addr:suburb": "Centro",
        "amenity": "pharmacy",
        "dispensing": "yes",
        "healthcare": "pharmacy",
        "name": "Rede Omega Drogaria",
        "id": "node/7204168202"
      },
      "geometry": {
        "type": "Point",
        "coordinates": [
          -43.2237587,
          -19.6238646
        ]
      }
    },
    {
      "type": "Feature",
      "id": "node/7208741665",
      "properties": {
        "timestamp": "2020-02-13T15:41:42Z",
        "version": 1,
        "changeset": 80965574,
        "addr:city": "Itabira",
        "addr:housenumber": "105",
        "addr:street": "Avenida Osório Sampaio",
        "addr:suburb": "Vila Santa Rosa",
        "amenity": "pharmacy",
        "dispensing": "yes",
        "healthcare": "pharmacy",
        "name": "Indiana",
        "id": "node/7208741665"
      },
      "geometry": {
        "type": "Point",
        "coordinates": [
          -43.2258366,
          -19.6324671
        ]
      }
    },
    {
      "type": "Feature",
      "id": "node/7208783442",
      "properties": {
        "timestamp": "2020-02-13T16:02:58Z",
        "version": 1,
        "changeset": 80966281,
        "addr:city": "Itabira",
        "addr:housenumber": "313",
        "addr:street": "Avenida João Pinheiro",
        "addr:suburb": "Centro",
        "amenity": "pharmacy",
        "dispensing": "yes",
        "healthcare": "pharmacy",
        "name": "Drogaria Pacheco",
        "id": "node/7208783442"
      },
      "geometry": {
        "type": "Point",
        "coordinates": [
          -43.2279816,
          -19.6260723
        ]
      }
    },
    {
      "type": "Feature",
      "id": "node/7208783443",
      "properties": {
        "timestamp": "2020-02-13T16:02:58Z",
        "version": 1,
        "changeset": 80966281,
        "addr:city": "Itabira",
        "addr:street": "Avenida João Pinheiro",
        "addr:suburb": "Centro",
        "amenity": "pharmacy",
        "dispensing": "yes",
        "healthcare": "pharmacy",
        "name": "Farmacia Ultra Popular",
        "id": "node/7208783443"
      },
      "geometry": {
        "type": "Point",
        "coordinates": [
          -43.2280865,
          -19.6261129
        ]
      }
    }
  ]
}
