{
  "type": "FeatureCollection",
  "features": [
    {
      "type": "Feature",
      "id": "way/770754045",
      "properties": {
        "timestamp": "2021-12-08T18:46:54Z",
        "version": 2,
        "changeset": 114713628,
        "addr:city": "Jerônimo Monteiro",
        "addr:postcode": "29550-000",
        "addr:suburb": "Gironda",
        "amenity": "clinic",
        "building": "yes",
        "healthcare": "clinic",
        "name": "Posto de Saúde da Gironda",
        "operator": "Município de Jerônimo Monteiro",
        "operator:type": "public",
        "id": "way/770754045"
      },
      "geometry": {
        "type": "Polygon",
        "coordinates": [
          [
            [
              -41.4250978,
              -20.879665
            ],
            [
              -41.4250466,
              -20.8797074
            ],
            [
              -41.4249874,
              -20.879645
            ],
            [
              -41.4250386,
              -20.8796026
            ],
            [
              -41.4250978,
              -20.879665
            ]
          ]
        ]
      }
    },
    {
      "type": "Feature",
      "id": "node/7162341739",
      "properties": {
        "timestamp": "2024-02-20T12:18:57Z",
        "version": 6,
        "changeset": 147689909,
        "addr:city": "Jerônimo Monteiro",
        "addr:housenumber": "33",
        "addr:postcode": "29550-000",
        "addr:province": "Espírito Santo",
        "addr:street": "Rua Nestor Ramos",
        "addr:suburb": "Centro",
        "amenity": "clinic",
        "healthcare": "clinic",
        "healthcare:speciality": "general",
        "name": "Laboratório Liparizi",
        "operator": "Liparizi Serviços Médicos e Laboratoriais Limitada",
        "operator:type": "private",
        "phone": "+55 28 99997 1111",
        "id": "node/7162341739"
      },
      "geometry": {
        "type": "Point",
        "coordinates": [
          -41.3908716,
          -20.7879872
        ]
      }
    },
    {
      "type": "Feature",
      "id": "node/9629084747",
      "properties": {
        "timestamp": "2022-08-22T17:08:45Z",
        "version": 2,
        "changeset": 125236973,
        "addr:city": "Jerônimo Monteiro",
        "addr:postcode": "29550-000",
        "addr:street": "Rua Zequinha Sapateiro",
        "addr:suburb": "Santo Antônio",
        "amenity": "clinic",
        "healthcare": "clinic",
        "healthcare:speciality": "general",
        "name": "Unidade de Saúde da Família Módulo Um e Quatro",
        "operator": "Município de Jerônimo Monteiro",
        "operator:type": "government",
        "ref": "Cnes-2447398;Cnes-2627884",
        "id": "node/9629084747"
      },
      "geometry": {
        "type": "Point",
        "coordinates": [
          -41.3975128,
          -20.7930827
        ]
      }
    },
    {
      "type": "Feature",
      "id": "node/9629084767",
      "properties": {
        "timestamp": "2022-08-03T14:24:29Z",
        "version": 2,
        "changeset": 124439844,
        "addr:city": "Jerônimo Monteiro",
        "addr:housenumber": "12",
        "addr:postcode": "29550-000",
        "addr:street": "Praça Prefeito Antônio Alves Duarte",
        "addr:suburb": "Centro",
        "amenity": "clinic",
        "healthcare": "clinic",
        "healthcare:speciality": "emergency",
        "name": "Pronto Socorro do Hospital Unidade Integrada Jerônimo Monteiro",
        "opening_hours": "24/7",
        "operator": "Governo do Estado do Espírito Santo",
        "operator:type": "government",
        "phone": "+552835581133",
        "wheelchair": "yes",
        "id": "node/9629084767"
      },
      "geometry": {
        "type": "Point",
        "coordinates": [
          -41.3918267,
          -20.7878832
        ]
      }
    },
    {
      "type": "Feature",
      "id": "node/9629084772",
      "properties": {
        "timestamp": "2022-08-22T17:08:45Z",
        "version": 2,
        "changeset": 125236973,
        "addr:city": "Jerônimo Monteiro",
        "addr:housenumber": "244",
        "addr:postcode": "29550-000",
        "addr:street": "Rua Nossa Senhora Aparecida",
        "addr:suburb": "Centro",
        "amenity": "clinic",
        "healthcare": "clinic",
        "healthcare:speciality": "general",
        "name": "Unidade Básica e de Vigilância em Saúde de Jerônimo Monteiro",
        "operator": "Município de Jerônim Monteiro",
        "operator:type": "public",
        "ref": "Cnes-9474153",
        "id": "node/9629084772"
      },
      "geometry": {
        "type": "Point",
        "coordinates": [
          -41.3955992,
          -20.7905119
        ]
      }
    },
    {
      "type": "Feature",
      "id": "node/9970475720",
      "properties": {
        "timestamp": "2022-08-22T17:08:45Z",
        "version": 1,
        "changeset": 125236973,
        "addr:city": "Jerônimo Monteiro",
        "addr:housenumber": "171",
        "addr:postcode": "29550-000",
        "addr:street": "Avenida Sebastião Carangola",
        "addr:suburb": "Vila Brito",
        "alt_name": "Unidade Básica de Saúde da Família Santa Clara",
        "amenity": "clinic",
        "healthcare": "clinic",
        "healthcare:speciality": "general",
        "name": "Unidade de Saúde da Família Módulo Dois e Três - Deputado Luiz Gonzaga Borges",
        "operator": "Município de Jerônimo Monteiro",
        "operator:type": "public",
        "ref": "Cnes-2447487;Cnes-2447444",
        "id": "node/9970475720"
      },
      "geometry": {
        "type": "Point",
        "coordinates": [
          -41.3795412,
          -20.7908068
        ]
      }
    },
    {
      "type": "Feature",
      "id": "node/11630218288",
      "properties": {
        "timestamp": "2024-02-16T12:04:42Z",
        "version": 1,
        "changeset": 147529581,
        "addr:city": "Jerônimo Monteiro",
        "addr:housenumber": "54",
        "addr:postcode": "29550-000",
        "addr:province": "Espírito Santo",
        "addr:street": "Rua Enivaldo Sessa",
        "addr:suburb": "Centro",
        "amenity": "clinic",
        "healthcare": "clinic",
        "healthcare:speciality": "general;fisioterapia;psicologia",
        "name": "Medicina & Saúde",
        "operator": "Clínica Médica Medicina e Saúde Limitada",
        "operator:type": "private",
        "id": "node/11630218288"
      },
      "geometry": {
        "type": "Point",
        "coordinates": [
          -41.392917,
          -20.7876091
        ]
      }
    }
  ]
}
