{
  "type": "FeatureCollection",
  "features": [
    {
      "type": "Feature",
      "id": "node/8941789764",
      "properties": {
        "timestamp": "2022-05-23T14:28:25Z",
        "version": 3,
        "changeset": 121372731,
        "addr:city": "Jerônimo Monteiro",
        "addr:housenumber": "245 A",
        "addr:postcode": "29550-000",
        "addr:street": "Avenida Doutor José Farah",
        "addr:suburb": "Centro",
        "amenity": "dentist",
        "healthcare": "dentist",
        "name": "Wesley Liparizi Gonçalves",
        "opening_hours": "Mo-Fr 08:00-17:00",
        "phone": "+55981150289",
        "wheelchair": "yes",
        "id": "node/8941789764"
      },
      "geometry": {
        "type": "Point",
        "coordinates": [
          -41.3945794,
          -20.7887254
        ]
      }
    },
    {
      "type": "Feature",
      "id": "node/9193323951",
      "properties": {
        "timestamp": "2022-04-01T14:06:43Z",
        "version": 3,
        "changeset": 119204078,
        "addr:city": "Jerônimo Monteiro",
        "addr:housenumber": "119-A",
        "addr:postcode": "29550-000",
        "addr:street": "Avenida Doutor José Farah",
        "addr:suburb": "Centro",
        "amenity": "dentist",
        "healthcare": "dentist",
        "healthcare:speciality": "general",
        "name": "Luciano Portella Lannes",
        "operator": "Luciano Portella Lannes",
        "id": "node/9193323951"
      },
      "geometry": {
        "type": "Point",
        "coordinates": [
          -41.3933009,
          -20.7883351
        ]
      }
    },
    {
      "type": "Feature",
      "id": "node/9246761486",
      "properties": {
        "timestamp": "2024-02-20T12:18:57Z",
        "version": 4,
        "changeset": 147689909,
        "addr:city": "Jerônimo Monteiro",
        "addr:housenumber": "12",
        "addr:postcode": "29550-000",
        "addr:street": "Rua Augustinho Breda",
        "addr:suburb": "Centro",
        "amenity": "dentist",
        "healthcare": "dentist",
        "healthcare:speciality": "general",
        "name": "Carla Fonseca Bernardo Caiado",
        "opening_hours": "Mo-Fr 08:00-17:00",
        "id": "node/9246761486"
      },
      "geometry": {
        "type": "Point",
        "coordinates": [
          -41.395356,
          -20.7887341
        ]
      }
    },
    {
      "type": "Feature",
      "id": "node/9290852805",
      "properties": {
        "timestamp": "2021-12-19T23:37:53Z",
        "version": 2,
        "changeset": 115142413,
        "addr:city": "Jerônimo Monteiro",
        "addr:housenumber": "89",
        "addr:postcode": "29550-000",
        "addr:street": "Rua Capitão Benício Macedo",
        "addr:suburb": "Centro",
        "amenity": "dentist",
        "healthcare": "dentist",
        "name": "Bárbara Aguiar Spala",
        "id": "node/9290852805"
      },
      "geometry": {
        "type": "Point",
        "coordinates": [
          -41.3963489,
          -20.7907056
        ]
      }
    },
    {
      "type": "Feature",
      "id": "node/9301538092",
      "properties": {
        "timestamp": "2022-04-01T14:06:43Z",
        "version": 2,
        "changeset": 119204078,
        "addr:city": "Jerônimo Monteiro",
        "addr:housenumber": "225",
        "addr:postcode": "29550-000",
        "addr:street": "Avenida Doutor José Farah",
        "addr:suburb": "Centro",
        "amenity": "dentist",
        "healthcare": "dentist",
        "healthcare:speciality": "general",
        "mobile": "+55 28 99923 3577",
        "name": "Consultório Odontológico",
        "operator": "Andressa Paiva Cock;Fernanda Lopes Cheng",
        "phone": "+55 28 3558 0302",
        "id": "node/9301538092"
      },
      "geometry": {
        "type": "Point",
        "coordinates": [
          -41.3943415,
          -20.7886366
        ]
      }
    },
    {
      "type": "Feature",
      "id": "node/9338345416",
      "properties": {
        "timestamp": "2022-05-23T14:28:25Z",
        "version": 2,
        "changeset": 121372731,
        "addr:city": "Jerônimo Monteiro",
        "addr:housenumber": "189",
        "addr:postcode": "29550-000",
        "addr:street": "Rua Nestor Ramos",
        "addr:suburb": "Centro",
        "amenity": "dentist",
        "healthcare": "dentist",
        "healthcare:speciality": "general",
        "level": "2",
        "name": "Alfredo Lucas Paris;Sara Cola Zucoloto",
        "opening_hours": "Mo-Fr 08:00-17:00",
        "id": "node/9338345416"
      },
      "geometry": {
        "type": "Point",
        "coordinates": [
          -41.390449,
          -20.7866613
        ]
      }
    },
    {
      "type": "Feature",
      "id": "node/9911710963",
      "properties": {
        "timestamp": "2023-02-06T11:27:57Z",
        "version": 2,
        "changeset": 132153288,
        "addr:city": "Jerônimo Monteiro",
        "addr:housenumber": "597",
        "addr:postcode": "29550-000",
        "addr:street": "Avenida Doutor José Farah",
        "addr:suburb": "Santo Antônio",
        "amenity": "dentist",
        "healthcare": "dentist",
        "healthcare:speciality": "general",
        "name": "Cláudia Fonseca Bernardo",
        "id": "node/9911710963"
      },
      "geometry": {
        "type": "Point",
        "coordinates": [
          -41.3975119,
          -20.7905059
        ]
      }
    },
    {
      "type": "Feature",
      "id": "node/9970475721",
      "properties": {
        "timestamp": "2024-04-18T12:05:36Z",
        "version": 2,
        "changeset": 150172077,
        "addr:city": "Jerônimo Monteiro",
        "addr:housenumber": "317",
        "addr:postcode": "29550-000",
        "addr:street": "Avenida Doutor José Farah",
        "addr:suburb": "Centro",
        "amenity": "dentist",
        "healthcare": "dentist",
        "healthcare:speciality": "general",
        "name": "Camila Néspoli Batista",
        "id": "node/9970475721"
      },
      "geometry": {
        "type": "Point",
        "coordinates": [
          -41.3952619,
          -20.7889585
        ]
      }
    },
    {
      "type": "Feature",
      "id": "node/10610789376",
      "properties": {
        "timestamp": "2023-02-06T11:27:57Z",
        "version": 1,
        "changeset": 132153288,
        "addr:city": "Jerônimo Monteiro",
        "addr:housenumber": "649",
        "addr:postcode": "29550-000",
        "addr:street": "Avenida Doutor José Farah",
        "addr:suburb": "Santo Antônio",
        "amenity": "dentist",
        "healthcare": "dentist",
        "healthcare:speciality": "orthodontics",
        "name": "Sorrir Mais",
        "operator": "Sorrimais Jm Limitada",
        "phone": "+55 28 99901 8597",
        "id": "node/10610789376"
      },
      "geometry": {
        "type": "Point",
        "coordinates": [
          -41.3979581,
          -20.7909108
        ]
      }
    }
  ]
}
