{
  "type": "FeatureCollection",
  "features": [
    {
      "type": "Feature",
      "id": "node/9260298896",
      "properties": {
        "timestamp": "2022-07-26T13:06:24Z",
        "version": 3,
        "changeset": 124096329,
        "addr:city": "Jerônimo Monteiro",
        "addr:housenumber": "98",
        "addr:postcode": "29550-000",
        "addr:street": "Rua José Ferreira",
        "addr:suburb": "Centro",
        "amenity": "doctors",
        "healthcare": "doctor",
        "healthcare:speciality": "gynaecology;general",
        "name": "Inêz Ventura Sessa",
        "operator": "Inêz Ventura Sessa",
        "id": "node/9260298896"
      },
      "geometry": {
        "type": "Point",
        "coordinates": [
          -41.3940224,
          -20.7893648
        ]
      }
    },
    {
      "type": "Feature",
      "id": "node/9911710961",
      "properties": {
        "timestamp": "2022-07-26T13:06:24Z",
        "version": 1,
        "changeset": 124096329,
        "addr:city": "Jerônimo Monteiro",
        "addr:housenumber": "228",
        "addr:postcode": "29550-000",
        "addr:street": "Rua Prefeito Searom Moraes",
        "addr:suburb": "Centro",
        "amenity": "doctors",
        "healthcare": "doctor",
        "healthcare:speciality": "general",
        "name": "Francisco Senna de Oliveira Neto",
        "id": "node/9911710961"
      },
      "geometry": {
        "type": "Point",
        "coordinates": [
          -41.3936029,
          -20.7889019
        ]
      }
    },
    {
      "type": "Feature",
      "id": "node/9911710962",
      "properties": {
        "timestamp": "2022-07-26T13:06:24Z",
        "version": 1,
        "changeset": 124096329,
        "addr:city": "Jerônimo Monteiro",
        "addr:housenumber": "603",
        "addr:postcode": "29550-000",
        "addr:street": "Avenida Doutor José Farah",
        "addr:suburb": "Santo Antônio",
        "amenity": "doctors",
        "healthcare": "doctor",
        "healthcare:speciality": "paediatrics",
        "name": "Soraya Fonseca Bernardo Alves",
        "id": "node/9911710962"
      },
      "geometry": {
        "type": "Point",
        "coordinates": [
          -41.3975719,
          -20.7905614
        ]
      }
    },
    {
      "type": "Feature",
      "id": "node/9911710964",
      "properties": {
        "timestamp": "2022-07-26T13:06:24Z",
        "version": 1,
        "changeset": 124096329,
        "addr:city": "Jerônimo Monteiro",
        "addr:postcode": "29550-000",
        "addr:street": "Rua Nossa Senhora Aparecida",
        "addr:suburb": "Centro",
        "amenity": "doctors",
        "healthcare": "doctor",
        "healthcare:speciality": "radiology",
        "name": "Pedro Nagibe Ferreira Sanches",
        "id": "node/9911710964"
      },
      "geometry": {
        "type": "Point",
        "coordinates": [
          -41.3945698,
          -20.789227
        ]
      }
    },
    {
      "type": "Feature",
      "id": "node/11828214429",
      "properties": {
        "timestamp": "2024-04-18T12:05:36Z",
        "version": 1,
        "changeset": 150172077,
        "addr:city": "Jerônimo Monteiro",
        "addr:postcode": "29550-000",
        "addr:street": "Avenida Doutor José Farah",
        "addr:suburb": "Centro",
        "amenity": "doctors",
        "healthcare": "doctor",
        "healthcare:speciality": "gynaecology",
        "name": "Leísa Moulin",
        "id": "node/11828214429"
      },
      "geometry": {
        "type": "Point",
        "coordinates": [
          -41.3952203,
          -20.7889405
        ]
      }
    }
  ]
}
