{
  "type": "FeatureCollection",
  "features": [
    {
      "type": "Feature",
      "id": "way/766279513",
      "properties": {
        "timestamp": "2022-08-03T14:24:29Z",
        "version": 5,
        "changeset": 124439844,
        "addr:city": "Jerônimo Monteiro",
        "addr:housenumber": "380",
        "addr:postcode": "29550-000",
        "addr:street": "Avenida Lourival Lougon Moulin",
        "addr:suburb": "Centro",
        "building": "civic",
        "building:levels": "2",
        "government": "administrative",
        "name": "Secretaria Municipal de Educação",
        "office": "government",
        "opening_hours": "Mo-Fr 08:00-17:00",
        "phone": "+55 28 3558 1850",
        "smoking": "outside",
        "id": "way/766279513"
      },
      "geometry": {
        "type": "Polygon",
        "coordinates": [
          [
            [
              -41.3870493,
              -20.7866853
            ],
            [
              -41.3868694,
              -20.78679
            ],
            [
              -41.3867984,
              -20.7866833
            ],
            [
              -41.3869783,
              -20.7865786
            ],
            [
              -41.3870493,
              -20.7866853
            ]
          ]
        ]
      }
    },
    {
      "type": "Feature",
      "id": "node/6622699432",
      "properties": {
        "timestamp": "2022-08-03T14:24:29Z",
        "version": 5,
        "changeset": 124439844,
        "addr:city": "Jerônimo Monteiro",
        "addr:postcode": "29550-000",
        "addr:street": "Parque de Exposições Dr. Edyval Lougon Moulin",
        "addr:suburb": "Centro",
        "government": "administrative",
        "name": "Secretaria Municipal de Desenvolvimento Rural",
        "office": "government",
        "opening_hours": "Mo-Fr 09:00-17:00",
        "phone": "+55 28 3558 1764",
        "id": "node/6622699432"
      },
      "geometry": {
        "type": "Point",
        "coordinates": [
          -41.3885952,
          -20.787307
        ]
      }
    },
    {
      "type": "Feature",
      "id": "node/9101958048",
      "properties": {
        "timestamp": "2021-12-14T16:57:25Z",
        "version": 2,
        "changeset": 114932191,
        "addr:city": "Jerônimo Monteiro",
        "addr:postcode": "29550-000",
        "addr:street": "Avenida Doutor José Farah",
        "addr:suburb": "Centro",
        "government": "administrative",
        "name": "Posto de Atendimento Veicular do Detran Espírito Santo",
        "office": "government",
        "id": "node/9101958048"
      },
      "geometry": {
        "type": "Point",
        "coordinates": [
          -41.3927721,
          -20.7881401
        ]
      }
    },
    {
      "type": "Feature",
      "id": "node/9243670282",
      "properties": {
        "timestamp": "2023-01-17T22:13:32Z",
        "version": 3,
        "changeset": 131398164,
        "addr:city": "Jerônimo Monteiro",
        "addr:housenumber": "21",
        "addr:postcode": "29550-000",
        "addr:street": "Rua Prefeito Searom Moraes",
        "addr:suburb": "Centro",
        "check_date": "2023-01-17",
        "government": "register_office",
        "name": "Cartório do Primeiro Ofício de Registro de Imóveis e Títulos da Comarca de Jerônimo Monteiro",
        "office": "government",
        "opening_hours": "Mo-Fr 08:00-17:00",
        "payment:mastercard": "yes",
        "payment:visa": "yes",
        "phone": "+55 28  3558 1221",
        "wheelchair": "limited",
        "id": "node/9243670282"
      },
      "geometry": {
        "type": "Point",
        "coordinates": [
          -41.3918905,
          -20.7883201
        ]
      }
    },
    {
      "type": "Feature",
      "id": "node/9243670283",
      "properties": {
        "timestamp": "2024-03-22T11:46:38Z",
        "version": 3,
        "changeset": 149009346,
        "addr:city": "Jerônimo Monteiro",
        "addr:housenumber": "472",
        "addr:postcode": "29550-000",
        "addr:street": "Avenida Doutor José Farah",
        "addr:suburb": "Centro",
        "government": "register_office",
        "name": "Cartório de Registro Civil e Tabelionato da Comarca de Jerônimo Monteiro",
        "office": "government",
        "opening_hours": "Mo-Fr 08:00-17:00",
        "phone": "+55 28 3558 1163",
        "id": "node/9243670283"
      },
      "geometry": {
        "type": "Point",
        "coordinates": [
          -41.3967745,
          -20.7895624
        ]
      }
    },
    {
      "type": "Feature",
      "id": "node/9626332301",
      "properties": {
        "timestamp": "2022-03-31T11:21:47Z",
        "version": 1,
        "changeset": 119155077,
        "addr:city": "Jerônimo Monteiro",
        "addr:postcode": "29550-000",
        "addr:street": "Rua América Delogo",
        "addr:suburb": "Santo Antônio",
        "email": "smds@jeronimomonteiro.es.gov.br",
        "government": "administrative",
        "name": "Secretaria Municipal de Desenvolvimento Social",
        "office": "government",
        "phone": "+55 28 3558 1759",
        "id": "node/9626332301"
      },
      "geometry": {
        "type": "Point",
        "coordinates": [
          -41.3996075,
          -20.7937841
        ]
      }
    },
    {
      "type": "Feature",
      "id": "node/9629084749",
      "properties": {
        "timestamp": "2022-06-13T12:44:45Z",
        "version": 2,
        "changeset": 122324571,
        "addr:city": "Jerônimo Monteiro",
        "addr:postcode": "29550-000",
        "addr:street": "Parque de Exposições Doutor Edyval Lougon Moulin",
        "addr:suburb": "Centro",
        "government": "administrative",
        "name": "Escritório Local do Idaf",
        "office": "government",
        "phone": "+55 28 3558 1678",
        "id": "node/9629084749"
      },
      "geometry": {
        "type": "Point",
        "coordinates": [
          -41.3884982,
          -20.7871912
        ]
      }
    },
    {
      "type": "Feature",
      "id": "node/9629084750",
      "properties": {
        "timestamp": "2022-06-13T12:44:45Z",
        "version": 2,
        "changeset": 122324571,
        "addr:city": "Jerônimo Monteiro",
        "addr:postcode": "29550-000",
        "addr:street": "Parque de Exposições Doutor Edyval Lougon Moulin",
        "addr:suburb": "Centro",
        "government": "administrative",
        "name": "Escritório Local do Incaper",
        "office": "government",
        "phone": "+55 28 3558 1131",
        "id": "node/9629084750"
      },
      "geometry": {
        "type": "Point",
        "coordinates": [
          -41.3885239,
          -20.7870755
        ]
      }
    },
    {
      "type": "Feature",
      "id": "node/9629084751",
      "properties": {
        "timestamp": "2022-08-03T14:24:29Z",
        "version": 2,
        "changeset": 124439844,
        "addr:city": "Jerônimo Monteiro",
        "addr:housenumber": "280",
        "addr:postcode": "29550-000",
        "addr:street": "Rua Nestor Ramos",
        "addr:suburb": "Centro",
        "government": "public_service",
        "name": "Secretaria Municipal de Desenvolvimento Urbano, Obras Públicas e Transportes",
        "office": "government",
        "opening_hours": "Mo-Fr 08:00-17:00",
        "phone": "+55 28 3558 2914",
        "id": "node/9629084751"
      },
      "geometry": {
        "type": "Point",
        "coordinates": [
          -41.3900493,
          -20.785779
        ]
      }
    },
    {
      "type": "Feature",
      "id": "node/9629084758",
      "properties": {
        "timestamp": "2022-08-03T14:24:29Z",
        "version": 2,
        "changeset": 124439844,
        "addr:city": "Jerônimo Monteiro",
        "addr:housenumber": "8",
        "addr:postcode": "29550-000",
        "addr:street": "Avenida Doutor José Farah",
        "addr:suburb": "Centro",
        "email": "saude@jeronimomonteiro.es.gov.br",
        "government": "government",
        "name": "Secretaria Municipal de Saúde",
        "office": "government",
        "opening_hours": "Mo-Fr 08:00-17:00",
        "phone": "+55 28 3558 1555;+55 28 3558 1048;+55 28 3558 1555",
        "wheelchair": "yes",
        "id": "node/9629084758"
      },
      "geometry": {
        "type": "Point",
        "coordinates": [
          -41.392296,
          -20.787918
        ]
      }
    }
  ]
}
