{
  "type": "FeatureCollection",
  "features": [
    {
      "type": "Feature",
      "id": "node/9629084766",
      "properties": {
        "timestamp": "2022-08-03T14:24:29Z",
        "version": 2,
        "changeset": 124439844,
        "addr:city": "Jerônimo Monteiro",
        "addr:housenumber": "34",
        "addr:postcode": "29550-000",
        "addr:street": "Praça Prefeito Antônio Alves Duarte",
        "addr:suburb": "Centro",
        "amenity": "hospital",
        "healthcare": "hospital",
        "healthcare:speciality": "general;orthopaedics;gynaecology;radiology",
        "name": "Hospital Unidade Integrada Jerônimo Monteiro",
        "operator": "Governo do Estado do Espírito Santo",
        "operator:type": "government",
        "phone": "+55 28 3558 2600;+55 28 3558 1133",
        "wheelchair": "yes",
        "id": "node/9629084766"
      },
      "geometry": {
        "type": "Point",
        "coordinates": [
          -41.3916041,
          -20.7877381
        ]
      }
    }
  ]
}
