{
  "type": "FeatureCollection",
  "features": [
    {
      "type": "Feature",
      "id": "node/8234737884",
      "properties": {
        "timestamp": "2021-12-15T18:56:22Z",
        "version": 5,
        "changeset": 114976055,
        "addr:city": "Jerônimo Monteiro",
        "addr:housenumber": "91",
        "addr:postcode": "29550-000",
        "addr:street": "Avenida Governador Carlos Lindenberg",
        "addr:suburb": "Centro",
        "amenity": "pharmacy",
        "dispensing": "yes",
        "healthcare": "pharmacy",
        "name": "Farmácia Rede Farmes",
        "operator": "Vita Express Farmácia de Manipulação Ltda.",
        "phone": "+55 28 3558 1157",
        "id": "node/8234737884"
      },
      "geometry": {
        "type": "Point",
        "coordinates": [
          -41.3904009,
          -20.7885016
        ]
      }
    },
    {
      "type": "Feature",
      "id": "node/8941789765",
      "properties": {
        "timestamp": "2022-12-27T19:12:46Z",
        "version": 4,
        "changeset": 130570305,
        "addr:city": "Jerônimo Monteiro",
        "addr:housenumber": "241",
        "addr:postcode": "29550-000",
        "addr:street": "Avenida Doutor José Farah",
        "addr:suburb": "Centro",
        "amenity": "pharmacy",
        "dispensing": "yes",
        "healthcare": "pharmacy",
        "name": "Farmacenter",
        "operator": "Farmácia Bello Farma Limitada",
        "id": "node/8941789765"
      },
      "geometry": {
        "type": "Point",
        "coordinates": [
          -41.3945454,
          -20.7887101
        ]
      }
    },
    {
      "type": "Feature",
      "id": "node/9175054006",
      "properties": {
        "timestamp": "2021-12-14T16:57:25Z",
        "version": 2,
        "changeset": 114932191,
        "addr:city": "Jerônimo Monteiro",
        "addr:housenumber": "128 b",
        "addr:postcode": "29550-000",
        "addr:street": "Avenida Doutor José Farah",
        "addr:suburb": "Centro",
        "amenity": "pharmacy",
        "dispensing": "yes",
        "healthcare": "pharmacy",
        "name": "Drogaria Nossa Senhora da Penha",
        "operator": "Drogaria Rvp Limitada Micro Empresa",
        "id": "node/9175054006"
      },
      "geometry": {
        "type": "Point",
        "coordinates": [
          -41.3934278,
          -20.788214
        ]
      }
    },
    {
      "type": "Feature",
      "id": "node/9193870688",
      "properties": {
        "timestamp": "2021-12-01T23:26:49Z",
        "version": 2,
        "changeset": 114462018,
        "addr:city": "Jerônimo Monteiro",
        "addr:housenumber": "207-B",
        "addr:postcode": "29550-000",
        "addr:street": "Avenida Doutor José Farah",
        "addr:suburb": "Centro",
        "amenity": "pharmacy",
        "dispensing": "yes",
        "healthcare": "pharmacy",
        "name": "Farmácia Saúde",
        "phone": "+55 28 3558 1437",
        "id": "node/9193870688"
      },
      "geometry": {
        "type": "Point",
        "coordinates": [
          -41.3942025,
          -20.7885841
        ]
      }
    },
    {
      "type": "Feature",
      "id": "node/9246761489",
      "properties": {
        "timestamp": "2021-12-01T19:21:08Z",
        "version": 3,
        "changeset": 114455204,
        "addr:city": "Jerônimo Monteiro",
        "addr:housenumber": "265",
        "addr:postcode": "29550-000",
        "addr:street": "Avenida Doutor José Farah",
        "addr:suburb": "Centro",
        "amenity": "pharmacy",
        "dispensing": "yes",
        "healthcare": "pharmacy",
        "name": "Farmácia e Drogaria Binotti",
        "id": "node/9246761489"
      },
      "geometry": {
        "type": "Point",
        "coordinates": [
          -41.3957333,
          -20.7891888
        ]
      }
    },
    {
      "type": "Feature",
      "id": "node/9290852766",
      "properties": {
        "timestamp": "2022-02-10T14:14:14Z",
        "version": 2,
        "changeset": 117248134,
        "addr:city": "Jerônimo Monteiro",
        "addr:housenumber": "517",
        "addr:postcode": "29550-000",
        "addr:street": "Avenida Doutor José Farah",
        "addr:suburb": "Centro",
        "amenity": "pharmacy",
        "dispensing": "yes",
        "healthcare": "pharmacy",
        "name": "Farmácia Trevo",
        "operator": "Drogaria Divino Espírito Santo Ltda-EPP",
        "id": "node/9290852766"
      },
      "geometry": {
        "type": "Point",
        "coordinates": [
          -41.3967815,
          -20.7900192
        ]
      }
    }
  ]
}
