{
  "type": "FeatureCollection",
  "features": [
    {
      "type": "Feature",
      "id": "node/9246761485",
      "properties": {
        "timestamp": "2023-01-26T18:48:52Z",
        "version": 3,
        "changeset": 131743966,
        "addr:city": "Jerônimo Monteiro",
        "addr:housenumber": "77",
        "addr:postcode": "29550-000",
        "addr:street": "Rua Ex-Combatente Oswaldo Martins",
        "addr:suburb": "Centro",
        "alt_name": "Centro de Referência Especializado de Assistência Social",
        "amenity": "social_facility",
        "name": "CREAS",
        "operator": "Município",
        "operator:type": "government",
        "social_facility": "outreach",
        "social_facility:for": "underprivileged;abused;victim",
        "id": "node/9246761485"
      },
      "geometry": {
        "type": "Point",
        "coordinates": [
          -41.3915084,
          -20.7890403
        ]
      }
    },
    {
      "type": "Feature",
      "id": "node/9624534501",
      "properties": {
        "timestamp": "2023-02-02T15:57:14Z",
        "version": 2,
        "changeset": 132009182,
        "addr:city": "Jerônimo Monteiro",
        "addr:postcode": "29550-000",
        "addr:street": "Rua Mário Pires",
        "addr:suburb": "Boa Esperança",
        "alt_name": "Centro de Referência de Assistência Social de Jerônimo Monteiro",
        "amenity": "social_facility",
        "contact:phone": "(28) 3558-1614",
        "name": "CRAS de Jerônimo Monteiro",
        "operator": "Municipío de Jerônimo Monteiro",
        "operator:type": "public",
        "social_facility": "outreach",
        "social_facility:for": "underprivileged",
        "source": "IJSN",
        "id": "node/9624534501"
      },
      "geometry": {
        "type": "Point",
        "coordinates": [
          -41.4012159,
          -20.797313
        ]
      }
    },
    {
      "type": "Feature",
      "id": "node/9629084779",
      "properties": {
        "timestamp": "2022-04-01T14:06:43Z",
        "version": 1,
        "changeset": 119204078,
        "addr:city": "Jerônimo Monteiro",
        "addr:housenumber": "383",
        "addr:postcode": "29550-000",
        "addr:street": "Rua Oliveiro de Oliveira Prata",
        "addr:suburb": "Santo Antônio",
        "amenity": "social_facility",
        "level": "2",
        "name": "Sociedade Pestalozzi de Jerônimo Monteiro",
        "id": "node/9629084779"
      },
      "geometry": {
        "type": "Point",
        "coordinates": [
          -41.3994734,
          -20.7938459
        ]
      }
    },
    {
      "type": "Feature",
      "id": "node/10188395290",
      "properties": {
        "timestamp": "2022-11-16T12:21:41Z",
        "version": 1,
        "changeset": 128988386,
        "addr:city": "Jerônimo Monteiro",
        "addr:housenumber": "81",
        "addr:postcode": "29550-000",
        "addr:street": "Rua Domingos Giry de Castro",
        "addr:suburb": "Paraná",
        "amenity": "social_facility",
        "email": "casadeamparoaoidosos@hotmail.com",
        "name": "Casa de Amparo aos Idosos Maria Bossoes Lannes",
        "operator": "Casa de Amparo Aos Idosos Maria Bossoes Lannes",
        "operator:type": "private",
        "phone": "+55 28 3558 1132",
        "social_facility": "day_care",
        "social_facility:for": "senior",
        "id": "node/10188395290"
      },
      "geometry": {
        "type": "Point",
        "coordinates": [
          -41.3930737,
          -20.7910181
        ]
      }
    }
  ]
}
