{
  "type": "FeatureCollection",
  "features": [
    {
      "type": "Feature",
      "id": "way/691052132",
      "properties": {
        "timestamp": "2021-10-10T23:29:22Z",
        "version": 2,
        "changeset": 112351508,
        "building": "yes",
        "government": "legislative",
        "name": "Poder Legislativo Municipal",
        "office": "government",
        "opening_hours": "Fr 09:00-12:00; PH closed",
        "wheelchair": "designated",
        "id": "way/691052132"
      },
      "geometry": {
        "type": "Polygon",
        "coordinates": [
          [
            [
              -38.2188415,
              -11.3111963
            ],
            [
              -38.2189842,
              -11.3114696
            ],
            [
              -38.2186923,
              -11.3115819
            ],
            [
              -38.2186339,
              -11.3113454
            ],
            [
              -38.2188415,
              -11.3111963
            ]
          ]
        ]
      }
    },
    {
      "type": "Feature",
      "id": "way/691052133",
      "properties": {
        "timestamp": "2024-04-29T22:42:19Z",
        "version": 4,
        "changeset": 150683636,
        "building": "yes",
        "name": "Prefeitura Municipal de Itapicuru",
        "office": "government",
        "opening_hours": "Mo-Fr 08:00-14:00; PH closed",
        "wheelchair": "designated",
        "id": "way/691052133"
      },
      "geometry": {
        "type": "Polygon",
        "coordinates": [
          [
            [
              -38.2202986,
              -11.3108588
            ],
            [
              -38.2201306,
              -11.3109125
            ],
            [
              -38.2200228,
              -11.3106414
            ],
            [
              -38.2200957,
              -11.3105999
            ],
            [
              -38.2201955,
              -11.310574
            ],
            [
              -38.2202986,
              -11.3108588
            ]
          ]
        ]
      }
    },
    {
      "type": "Feature",
      "id": "way/691058168",
      "properties": {
        "timestamp": "2019-05-19T15:36:41Z",
        "version": 1,
        "changeset": 70413686,
        "building": "yes",
        "office": "government",
        "id": "way/691058168"
      },
      "geometry": {
        "type": "Polygon",
        "coordinates": [
          [
            [
              -38.2138496,
              -11.3165614
            ],
            [
              -38.2137043,
              -11.3166995
            ],
            [
              -38.2136361,
              -11.3166282
            ],
            [
              -38.2134272,
              -11.3163743
            ],
            [
              -38.2133,
              -11.3162853
            ],
            [
              -38.2134544,
              -11.3161605
            ],
            [
              -38.2138496,
              -11.3165614
            ]
          ]
        ]
      }
    },
    {
      "type": "Feature",
      "id": "way/1206012068",
      "properties": {
        "timestamp": "2023-09-08T00:50:56Z",
        "version": 1,
        "changeset": 140962962,
        "addr:city": "Itapicuru",
        "addr:postcode": "48475000",
        "addr:street": "Praça José Epifanio de Souza",
        "addr:suburb": "Centro",
        "building": "yes",
        "government": "public_service",
        "name": "Secretaria de Cultura, Turismo, Esporte e Lazer - SECTEL",
        "office": "government",
        "id": "way/1206012068"
      },
      "geometry": {
        "type": "Polygon",
        "coordinates": [
          [
            [
              -38.2194011,
              -11.3109247
            ],
            [
              -38.2194226,
              -11.3109562
            ],
            [
              -38.2193823,
              -11.3109851
            ],
            [
              -38.2194145,
              -11.3110641
            ],
            [
              -38.2194547,
              -11.3111693
            ],
            [
              -38.2193716,
              -11.3112403
            ],
            [
              -38.2192804,
              -11.3109878
            ],
            [
              -38.2194011,
              -11.3109247
            ]
          ]
        ]
      }
    },
    {
      "type": "Feature",
      "id": "node/6483926019",
      "properties": {
        "timestamp": "2023-09-08T00:12:00Z",
        "version": 3,
        "changeset": 140962407,
        "addr:city": "Itapicuru",
        "addr:housenumber": "225",
        "addr:postcode": "48475000",
        "addr:street": "Rua Pedro Barreto do Rosário",
        "addr:suburb": "Centro",
        "email": "cartoriocampostorres@gmail.com",
        "government": "register_office",
        "name": "Cartório de Registro Civil",
        "office": "government",
        "opening_hours": "Mo-Fr 08:00-14:00; PH closed \"Plantões para registro de Óbito aos sábados, domingos e feriados.\"",
        "phone": "+55 75 3430-2284",
        "wheelchair": "designated",
        "wheelchair:description": "Rampas de acesso dedicadas a cadeirantes ♿",
        "id": "node/6483926019"
      },
      "geometry": {
        "type": "Point",
        "coordinates": [
          -38.2183753,
          -11.3110103
        ]
      }
    },
    {
      "type": "Feature",
      "id": "node/6483972345",
      "properties": {
        "timestamp": "2019-05-19T14:48:17Z",
        "version": 1,
        "changeset": 70412553,
        "addr:city": "Itapicuru",
        "addr:postcode": "48475000",
        "addr:street": "Rua Dulce Veloso",
        "addr:suburb": "Centro",
        "name": "INCRA",
        "office": "government",
        "id": "node/6483972345"
      },
      "geometry": {
        "type": "Point",
        "coordinates": [
          -38.2199075,
          -11.3104092
        ]
      }
    },
    {
      "type": "Feature",
      "id": "node/6484003565",
      "properties": {
        "timestamp": "2021-10-10T23:37:31Z",
        "version": 2,
        "changeset": 112351601,
        "addr:city": "Itapicuru",
        "addr:postcode": "48475000",
        "addr:street": "Rua Dulce Veloso",
        "addr:suburb": "Centro",
        "government": "legislative",
        "name": "Câmara de Vereadores - Poder Legislativo",
        "office": "government",
        "opening_hours": "Fr 09:00-12:00; PH closed",
        "wheelchair": "designated",
        "id": "node/6484003565"
      },
      "geometry": {
        "type": "Point",
        "coordinates": [
          -38.218774,
          -11.3113223
        ]
      }
    },
    {
      "type": "Feature",
      "id": "node/11175635830",
      "properties": {
        "timestamp": "2023-09-08T00:12:00Z",
        "version": 1,
        "changeset": 140962407,
        "addr:city": "Itapicuru",
        "addr:postcode": "48475000",
        "addr:street": "Avenida A.C.M.",
        "addr:suburb": "Centro",
        "government": "register_office",
        "name": "Cartório de Registro de Imóveis",
        "office": "government",
        "opening_hours": "Mo-Fr 08:00-17:00",
        "operator": "TJBA",
        "id": "node/11175635830"
      },
      "geometry": {
        "type": "Point",
        "coordinates": [
          -38.2192563,
          -11.3120083
        ]
      }
    },
    {
      "type": "Feature",
      "id": "node/11175635831",
      "properties": {
        "timestamp": "2023-09-08T00:12:00Z",
        "version": 1,
        "changeset": 140962407,
        "addr:city": "Itapicuru",
        "addr:postcode": "48475000",
        "addr:street": "Avenida A.C.M.",
        "addr:suburb": "Centro",
        "government": "register_office",
        "name": "Tabelionato de Notas com Funçao de Protesto",
        "office": "government",
        "opening_hours": "Mo-Fr 08:00-17:00",
        "operator": "TJBA",
        "id": "node/11175635831"
      },
      "geometry": {
        "type": "Point",
        "coordinates": [
          -38.2193501,
          -11.3119714
        ]
      }
    },
    {
      "type": "Feature",
      "id": "node/11175681788",
      "properties": {
        "timestamp": "2023-09-08T00:17:17Z",
        "version": 1,
        "changeset": 140962474,
        "addr:city": "Itapicuru",
        "addr:postcode": "48475000",
        "addr:street": "Rua José da Silva Rabelo",
        "addr:suburb": "Centro",
        "government": "administrative",
        "name": "Secretaria Municipal de Educaçao",
        "office": "government",
        "opening_hours": "seg-sex,08:00-14:00",
        "wheelchair": "yes",
        "id": "node/11175681788"
      },
      "geometry": {
        "type": "Point",
        "coordinates": [
          -38.2177998,
          -11.3093387
        ]
      }
    },
    {
      "type": "Feature",
      "id": "node/11175725278",
      "properties": {
        "timestamp": "2023-09-08T00:50:56Z",
        "version": 1,
        "changeset": 140962962,
        "addr:city": "Itapicuru",
        "addr:postcode": "48475000",
        "addr:street": "Praça José Epifanio de Souza",
        "addr:suburb": "Centro",
        "government": "public_service",
        "name": "Secretaria de Cultura, Turismo, Esporte e Lazer - SECTEL",
        "office": "government",
        "id": "node/11175725278"
      },
      "geometry": {
        "type": "Point",
        "coordinates": [
          -38.2193689,
          -11.3111167
        ]
      }
    }
  ]
}
