{
  "type": "FeatureCollection",
  "features": [
    {
      "type": "Feature",
      "id": "node/6483937016",
      "properties": {
        "timestamp": "2019-05-19T14:35:34Z",
        "version": 1,
        "changeset": 70412250,
        "addr:city": "Itapicuru",
        "addr:postcode": "48475000",
        "addr:street": "Praça da Bandeira",
        "addr:suburb": "Centro",
        "amenity": "pharmacy",
        "dispensing": "yes",
        "healthcare": "pharmacy",
        "name": "Farmácia Santa Rita",
        "id": "node/6483937016"
      },
      "geometry": {
        "type": "Point",
        "coordinates": [
          -38.2207033,
          -11.3109479
        ]
      }
    },
    {
      "type": "Feature",
      "id": "node/11175727102",
      "properties": {
        "timestamp": "2023-09-08T01:02:15Z",
        "version": 1,
        "changeset": 140963185,
        "addr:city": "Itapicuru",
        "addr:postcode": "48475000",
        "addr:street": "Rua Francisco Ferreira Linhares",
        "addr:suburb": "Centro",
        "amenity": "pharmacy",
        "healthcare": "pharmacy",
        "name": "Farmácia Santa Rita",
        "id": "node/11175727102"
      },
      "geometry": {
        "type": "Point",
        "coordinates": [
          -38.2207154,
          -11.3110246
        ]
      }
    },
    {
      "type": "Feature",
      "id": "node/11175727103",
      "properties": {
        "timestamp": "2023-09-08T01:02:15Z",
        "version": 1,
        "changeset": 140963185,
        "addr:city": "Itapicuru",
        "addr:postcode": "48475000",
        "addr:street": "Rua Dulce Veloso",
        "addr:suburb": "Centro",
        "amenity": "pharmacy",
        "healthcare": "pharmacy",
        "name": "Farmácia Municipal",
        "operator": "PMI",
        "id": "node/11175727103"
      },
      "geometry": {
        "type": "Point",
        "coordinates": [
          -38.2198651,
          -11.3107353
        ]
      }
    },
    {
      "type": "Feature",
      "id": "node/11175729363",
      "properties": {
        "timestamp": "2023-09-08T00:59:26Z",
        "version": 1,
        "changeset": 140963129,
        "amenity": "pharmacy",
        "healthcare": "pharmacy",
        "id": "node/11175729363"
      },
      "geometry": {
        "type": "Point",
        "coordinates": [
          -38.2198624,
          -11.3115112
        ]
      }
    },
    {
      "type": "Feature",
      "id": "node/11175729364",
      "properties": {
        "timestamp": "2023-09-08T00:59:26Z",
        "version": 1,
        "changeset": 140963129,
        "amenity": "pharmacy",
        "healthcare": "pharmacy",
        "id": "node/11175729364"
      },
      "geometry": {
        "type": "Point",
        "coordinates": [
          -38.2202701,
          -11.3118873
        ]
      }
    }
  ]
}
