{
  "type": "FeatureCollection",
  "features": [
    {
      "type": "Feature",
      "id": "way/687629383",
      "properties": {
        "timestamp": "2021-04-03T20:04:26Z",
        "version": 2,
        "changeset": 102249740,
        "addr:city": "Querência do Norte",
        "addr:postcode": "87930000",
        "addr:street": "Avenida Norman Prochet",
        "addr:suburb": "centro",
        "brand": "Homewood Suites",
        "brand:wikidata": "Q5890701",
        "brand:wikipedia": "en:Homewood Suites by Hilton",
        "building": "yes",
        "name": "HOTEL E RESTAURANTE DO KABEÇA",
        "official_name": "Homewood Suites by Hilton",
        "tourism": "hotel",
        "id": "way/687629383"
      },
      "geometry": {
        "type": "Polygon",
        "coordinates": [
          [
            [
              -53.4828686,
              -23.0839098
            ],
            [
              -53.4829418,
              -23.0841866
            ],
            [
              -53.4828198,
              -23.0841978
            ],
            [
              -53.4827751,
              -23.0839809
            ],
            [
              -53.4827873,
              -23.0839285
            ],
            [
              -53.4828686,
              -23.0839098
            ]
          ]
        ]
      }
    },
    {
      "type": "Feature",
      "id": "node/6446184906",
      "properties": {
        "timestamp": "2022-05-21T13:31:03Z",
        "version": 2,
        "changeset": 121282414,
        "addr:city": "Querência do Norte",
        "addr:postcode": "87930000",
        "addr:street": "Avenida Norman Prochet",
        "addr:suburb": "centro",
        "name": "Hotel e Restaurante do Kabeca",
        "tourism": "hotel",
        "id": "node/6446184906"
      },
      "geometry": {
        "type": "Point",
        "coordinates": [
          -53.4828239,
          -23.0839846
        ]
      }
    }
  ]
}
