{
  "type": "FeatureCollection",
  "features": [
    {
      "type": "Feature",
      "id": "node/9623984122",
      "properties": {
        "timestamp": "2022-03-30T13:57:53Z",
        "version": 1,
        "changeset": 119118068,
        "addr:housenumber": "276",
        "addr:street": "Avenida Lucas Nogueira Garcez",
        "amenity": "dentist",
        "healthcare": "dentist",
        "name": "CEO-  Centro de Especialidades Odontológico",
        "id": "node/9623984122"
      },
      "geometry": {
        "type": "Point",
        "coordinates": [
          -46.3492464,
          -23.5324022
        ]
      }
    },
    {
      "type": "Feature",
      "id": "node/11025412713",
      "properties": {
        "timestamp": "2023-07-04T11:45:57Z",
        "version": 1,
        "changeset": 138104530,
        "addr:housenumber": "93",
        "addr:postcode": "08562140",
        "addr:street": "Rua Vinte e Seis de Março",
        "amenity": "dentist",
        "internet_access": "wlan",
        "name": "Fjodontologia",
        "phone": "46396385",
        "id": "node/11025412713"
      },
      "geometry": {
        "type": "Point",
        "coordinates": [
          -46.344541,
          -23.527089
        ]
      }
    }
  ]
}
