{
  "type": "FeatureCollection",
  "features": [
    {
      "type": "Feature",
      "id": "way/421159466",
      "properties": {
        "timestamp": "2023-11-19T16:36:17Z",
        "version": 5,
        "changeset": 144215247,
        "addr:city": "Poá",
        "addr:housenumber": "199",
        "addr:postcode": "08553-120",
        "addr:street": "Rua Maria do Rosário",
        "addr:suburb": "Jardim Ivonete",
        "amenity": "school",
        "name": "Escola Estadual Professor Eliseu Jorge",
        "operator": "Secretaria de Educação do Estado de São Paulo",
        "operator:type": "government",
        "phone": "+55 11 4638 3037",
        "religion": "none",
        "id": "way/421159466"
      },
      "geometry": {
        "type": "Polygon",
        "coordinates": [
          [
            [
              -46.3665115,
              -23.5182955
            ],
            [
              -46.3663974,
              -23.5185217
            ],
            [
              -46.3662843,
              -23.5187445
            ],
            [
              -46.3659141,
              -23.5186579
            ],
            [
              -46.3654073,
              -23.5185268
            ],
            [
              -46.3654296,
              -23.5184037
            ],
            [
              -46.3652318,
              -23.5183819
            ],
            [
              -46.3654002,
              -23.518096
            ],
            [
              -46.3665115,
              -23.5182955
            ]
          ]
        ]
      }
    },
    {
      "type": "Feature",
      "id": "way/421159823",
      "properties": {
        "timestamp": "2018-10-05T19:43:10Z",
        "version": 5,
        "changeset": 63241312,
        "addr:city": "Poá",
        "addr:housenumber": "261",
        "addr:postcode": "08558-200",
        "addr:street": "Rua Portugal",
        "addr:suburb": "Vila Varela",
        "amenity": "school",
        "contact:phone": "+55 11 4636 0212",
        "email": "e007316a@educacao.sp.gov.br",
        "name": "Escola Estadual Margarida de Camillis",
        "operator": "Secretaria da Educação do Estado de São Paulo",
        "phone": "+55 11 4638 1245",
        "id": "way/421159823"
      },
      "geometry": {
        "type": "Polygon",
        "coordinates": [
          [
            [
              -46.3366155,
              -23.5089314
            ],
            [
              -46.3366155,
              -23.5091662
            ],
            [
              -46.3356659,
              -23.5091035
            ],
            [
              -46.3356887,
              -23.5087593
            ],
            [
              -46.336128,
              -23.5088256
            ],
            [
              -46.3361515,
              -23.5088847
            ],
            [
              -46.3366155,
              -23.5089314
            ]
          ]
        ]
      }
    },
    {
      "type": "Feature",
      "id": "way/421514554",
      "properties": {
        "timestamp": "2018-05-13T18:47:19Z",
        "version": 3,
        "changeset": 58931457,
        "addr:city": "Poá",
        "addr:country": "BR",
        "addr:housenumber": "55",
        "addr:postcode": "08557-130",
        "addr:street": "Rua Eneida Franco Pinto",
        "addr:suburb": "Vila Anita",
        "amenity": "school",
        "contact:phone": "+55 11 4636 0415",
        "email": "e007006a@educacao.gov.sp.br",
        "name": "Escola Estadual Bertha Corrêa e Castro da Rocha",
        "operator": "Secretaria da Educação do Estado de São Paulo",
        "phone": "+55 11 4638 1177",
        "id": "way/421514554"
      },
      "geometry": {
        "type": "Polygon",
        "coordinates": [
          [
            [
              -46.343433,
              -23.5169109
            ],
            [
              -46.3434733,
              -23.5172232
            ],
            [
              -46.343256,
              -23.5173216
            ],
            [
              -46.3429797,
              -23.5173905
            ],
            [
              -46.3427678,
              -23.5173806
            ],
            [
              -46.3427263,
              -23.5173106
            ],
            [
              -46.3428544,
              -23.5172436
            ],
            [
              -46.3427464,
              -23.5170191
            ],
            [
              -46.3428483,
              -23.5169023
            ],
            [
              -46.3430226,
              -23.5169201
            ],
            [
              -46.3432292,
              -23.5168248
            ],
            [
              -46.343433,
              -23.5169109
            ]
          ]
        ]
      }
    },
    {
      "type": "Feature",
      "id": "way/451612711",
      "properties": {
        "timestamp": "2021-01-27T15:23:43Z",
        "version": 6,
        "changeset": 98238071,
        "addr:city": "Poá",
        "addr:housenumber": "100",
        "addr:postcode": "08553-700",
        "addr:street": "Rua Fernando de Noronha",
        "addr:suburb": "Jardim Santa Helena",
        "amenity": "school",
        "email": "e043989A@educacao.sp.gov.br",
        "name": "Escola Estadual Professora Nanci Cristina do Espirito Santo",
        "operator": "Secretaria de Educação do Estado de São Paulo",
        "operator:type": "government",
        "phone": "+55 11 4638 1500",
        "ref": "INEP-35043989",
        "source": "CADMEC 2017",
        "id": "way/451612711"
      },
      "geometry": {
        "type": "Polygon",
        "coordinates": [
          [
            [
              -46.3588895,
              -23.5210416
            ],
            [
              -46.3576943,
              -23.5208326
            ],
            [
              -46.3576487,
              -23.5208087
            ],
            [
              -46.3576194,
              -23.5207758
            ],
            [
              -46.3576129,
              -23.5207251
            ],
            [
              -46.3576292,
              -23.5206863
            ],
            [
              -46.3580721,
              -23.520316
            ],
            [
              -46.3581079,
              -23.5202981
            ],
            [
              -46.3589957,
              -23.5204157
            ],
            [
              -46.3589225,
              -23.5207287
            ],
            [
              -46.3588895,
              -23.5210416
            ]
          ]
        ]
      }
    },
    {
      "type": "Feature",
      "id": "way/451612976",
      "properties": {
        "timestamp": "2019-09-23T14:22:01Z",
        "version": 5,
        "changeset": 74812185,
        "addr:city": "Poá",
        "addr:housenumber": "70",
        "addr:postcode": "08551-030",
        "addr:street": "Travessa Pasteur",
        "addr:suburb": "Vila Júlia",
        "amenity": "school",
        "contact:phone": "+55 11 4638 2699",
        "email": "e048896a@educacao.sp.gov.br",
        "name": "Escola Estadual Professora Ivone da Silva de Oliveira",
        "operator": "Secretaria da Educação do Estado de São Paulo",
        "operator:type": "government",
        "phone": "+55 11 4636 0737",
        "ref": "35048896",
        "id": "way/451612976"
      },
      "geometry": {
        "type": "Polygon",
        "coordinates": [
          [
            [
              -46.3474221,
              -23.5192434
            ],
            [
              -46.347611,
              -23.5193031
            ],
            [
              -46.3477054,
              -23.5190403
            ],
            [
              -46.347751,
              -23.5190224
            ],
            [
              -46.3481451,
              -23.5191001
            ],
            [
              -46.3477315,
              -23.5199541
            ],
            [
              -46.3473765,
              -23.5199541
            ],
            [
              -46.3471713,
              -23.5193808
            ],
            [
              -46.3473895,
              -23.5193449
            ],
            [
              -46.3474221,
              -23.5192434
            ]
          ]
        ]
      }
    },
    {
      "type": "Feature",
      "id": "way/451613403",
      "properties": {
        "timestamp": "2019-09-23T13:55:53Z",
        "version": 8,
        "changeset": 74810607,
        "addr:city": "Poá",
        "addr:housenumber": "90",
        "addr:postcode": "08551-230",
        "addr:street": "Rua Doutor Prudente de Moraes",
        "addr:suburb": "Vila Júlia",
        "amenity": "school",
        "contact:phone": "+55 11 4636 0582",
        "email": "e910193a@educacao.sp.gov.br",
        "name": "Escola Estadual Professora Vera Lúcia Torres Rodrigues Affonso",
        "operator": "Secretaria da Educação do Estado de São Paulo",
        "operator:type": "government",
        "phone": "+55 11 4636 6680",
        "ref": "35910193",
        "id": "way/451613403"
      },
      "geometry": {
        "type": "Polygon",
        "coordinates": [
          [
            [
              -46.3496859,
              -23.5238554
            ],
            [
              -46.3499834,
              -23.5240116
            ],
            [
              -46.3500003,
              -23.5240314
            ],
            [
              -46.3501054,
              -23.5243011
            ],
            [
              -46.34965,
              -23.5244128
            ],
            [
              -46.3496634,
              -23.5244597
            ],
            [
              -46.3495876,
              -23.5244834
            ],
            [
              -46.349205,
              -23.5242957
            ],
            [
              -46.3492832,
              -23.5239792
            ],
            [
              -46.3496859,
              -23.5238554
            ]
          ]
        ]
      }
    },
    {
      "type": "Feature",
      "id": "way/451613579",
      "properties": {
        "timestamp": "2021-01-27T19:57:33Z",
        "version": 5,
        "changeset": 98249590,
        "addr:city": "Poá",
        "addr:housenumber": "230",
        "addr:postcode": "08554-120",
        "addr:street": "Rua Deputado Nelson Fernandes",
        "addr:suburb": "Cidade Kernel",
        "amenity": "school",
        "email": "emebbortolozzo@educacao.poa.sp.gov.br",
        "name": "Complexo Educacional Poaense Professor José Antônio Bortolozzo",
        "operator": "Secretaria Municipal de Educação da Prefeitura Estãncia Hidromineral de Poá",
        "operator:type": "government",
        "phone": "+55 11 4636 7022",
        "ref": "INEP-35233648",
        "short_name": "CEP Professor José Antônio Bortolozzo",
        "id": "way/451613579"
      },
      "geometry": {
        "type": "Polygon",
        "coordinates": [
          [
            [
              -46.3619788,
              -23.5146435
            ],
            [
              -46.3620472,
              -23.5146644
            ],
            [
              -46.3623207,
              -23.5149959
            ],
            [
              -46.3623012,
              -23.5150676
            ],
            [
              -46.3614056,
              -23.5156917
            ],
            [
              -46.3610832,
              -23.5153095
            ],
            [
              -46.3619788,
              -23.5146435
            ]
          ]
        ]
      }
    },
    {
      "type": "Feature",
      "id": "way/451613922",
      "properties": {
        "timestamp": "2018-10-02T23:00:46Z",
        "version": 4,
        "changeset": 63141113,
        "addr:city": "Poá",
        "addr:housenumber": "333",
        "addr:postcode": "08555-400",
        "addr:street": "Rua Mongaguá",
        "addr:suburb": "Jardim América",
        "amenity": "school",
        "email": "e904417a@educacao.sp.gov.br",
        "name": "Escola Estadual Professora Lacy Lenski Lopes",
        "operator": "Secretaria da Educação do Estado de São Paulo",
        "phone": "+55 11 4638 3922",
        "id": "way/451613922"
      },
      "geometry": {
        "type": "Polygon",
        "coordinates": [
          [
            [
              -46.3546658,
              -23.5071101
            ],
            [
              -46.3557009,
              -23.5072685
            ],
            [
              -46.355547,
              -23.5083455
            ],
            [
              -46.3545073,
              -23.5082119
            ],
            [
              -46.3546658,
              -23.5071101
            ]
          ]
        ]
      }
    },
    {
      "type": "Feature",
      "id": "way/453546124",
      "properties": {
        "timestamp": "2022-03-29T15:53:02Z",
        "version": 4,
        "changeset": 119076863,
        "addr:city": "Poá",
        "addr:country": "BR",
        "addr:housenumber": "76",
        "addr:postcode": "08550-310",
        "addr:street": "Rua Capanema",
        "addr:suburb": "Centro",
        "amenity": "school",
        "contact:phone": "+55 11 4638-1888",
        "email": "e007298a@educacao.sp.gov.br",
        "name": "Escola Estadual Padre Simon Switzar",
        "operator": "Secretaria da Educação do Estado de São Paulo",
        "operator:type": "government",
        "phone": "+55 11 4636-0928",
        "religion": "none",
        "source": "CADMEC 2017;INEP",
        "id": "way/453546124"
      },
      "geometry": {
        "type": "Polygon",
        "coordinates": [
          [
            [
              -46.3413788,
              -23.5195272
            ],
            [
              -46.3418745,
              -23.5196393
            ],
            [
              -46.3415996,
              -23.5206246
            ],
            [
              -46.3410777,
              -23.5205064
            ],
            [
              -46.3413788,
              -23.5195272
            ]
          ]
        ]
      }
    },
    {
      "type": "Feature",
      "id": "way/503128567",
      "properties": {
        "timestamp": "2020-08-17T00:49:16Z",
        "version": 4,
        "changeset": 89486646,
        "addr:city": "Poá",
        "addr:housenumber": "29",
        "addr:postcode": "08563-540",
        "addr:street": "Rua Crisciúma",
        "addr:suburb": "Vila Cristelo",
        "amenity": "school",
        "contact:phone": "+55 11 4636 7788",
        "email": "e046188a@educacao.sp.gov.br",
        "name": "Escola Estadual Professora Maria Aparecida Ferreira",
        "operator": "Secretaria da Educação do Estado de São Paulo",
        "operator:type": "government",
        "phone": "+55 11 4638 1010",
        "ref": "INEP-35046188",
        "id": "way/503128567"
      },
      "geometry": {
        "type": "Polygon",
        "coordinates": [
          [
            [
              -46.3487821,
              -23.5345689
            ],
            [
              -46.3482754,
              -23.5353652
            ],
            [
              -46.3480353,
              -23.5352705
            ],
            [
              -46.3478972,
              -23.5353566
            ],
            [
              -46.3475176,
              -23.5352656
            ],
            [
              -46.3475431,
              -23.534087
            ],
            [
              -46.3477966,
              -23.5340926
            ],
            [
              -46.3477779,
              -23.5342739
            ],
            [
              -46.348038,
              -23.5343139
            ],
            [
              -46.3480165,
              -23.534582
            ],
            [
              -46.3481802,
              -23.5346041
            ],
            [
              -46.348156,
              -23.5343631
            ],
            [
              -46.3483035,
              -23.5343951
            ],
            [
              -46.3487821,
              -23.5345689
            ]
          ]
        ]
      }
    },
    {
      "type": "Feature",
      "id": "way/508036733",
      "properties": {
        "timestamp": "2019-09-26T00:01:39Z",
        "version": 3,
        "changeset": 74931903,
        "addr:city": "Poá",
        "addr:housenumber": "280",
        "addr:postcode": "08561-610",
        "addr:street": "Rua São Francisco",
        "addr:suburb": "Vila Ruth",
        "amenity": "school",
        "contact:phone": "+55 11 4638 3355",
        "email": "e913418a@educacao.sp.gov.br",
        "name": "Escola Estadual Jornalista Paulo Eduardo Olintho Rehder",
        "operator": "Secretaria da Educação do Estado de São Paulo",
        "operator:type": "government",
        "phone": "+55 11 4636 0102",
        "ref": "35913418",
        "id": "way/508036733"
      },
      "geometry": {
        "type": "Polygon",
        "coordinates": [
          [
            [
              -46.3439793,
              -23.53115
            ],
            [
              -46.3433007,
              -23.5309312
            ],
            [
              -46.3437138,
              -23.5303705
            ],
            [
              -46.3436092,
              -23.5303164
            ],
            [
              -46.3437942,
              -23.530068
            ],
            [
              -46.3441671,
              -23.530336
            ],
            [
              -46.3444997,
              -23.5305229
            ],
            [
              -46.3439793,
              -23.53115
            ]
          ]
        ]
      }
    },
    {
      "type": "Feature",
      "id": "way/630025693",
      "properties": {
        "timestamp": "2018-10-02T20:24:56Z",
        "version": 1,
        "changeset": 63137825,
        "addr:city": "Poá",
        "amenity": "school",
        "name": "Centro Educacional Poaense",
        "id": "way/630025693"
      },
      "geometry": {
        "type": "Polygon",
        "coordinates": [
          [
            [
              -46.3575288,
              -23.5118968
            ],
            [
              -46.3570836,
              -23.5130823
            ],
            [
              -46.3565203,
              -23.5129102
            ],
            [
              -46.3567188,
              -23.511764
            ],
            [
              -46.3575288,
              -23.5118968
            ]
          ]
        ]
      }
    },
    {
      "type": "Feature",
      "id": "way/630074091",
      "properties": {
        "timestamp": "2021-01-27T15:23:43Z",
        "version": 2,
        "changeset": 98238071,
        "addr:city": "Poá",
        "addr:housenumber": "301",
        "addr:postcode": "08553-720",
        "addr:street": "Rua Jorge Tibiriça",
        "addr:suburb": "Jardim Santa Helena",
        "amenity": "school",
        "email": "emebpetronilio@educacao.poa.sp.gov.br",
        "name": "Escola Municipal de Educação Básica Manoel Petronílio dos Santos",
        "operator": "Secretaria da Educação da Prefeitura Estância Hidromineral de Poá",
        "operator:type": "government",
        "phone": "+55 11 4638 3428",
        "ref": "INEP-35233638",
        "source": "CADMEC 2017",
        "id": "way/630074091"
      },
      "geometry": {
        "type": "Polygon",
        "coordinates": [
          [
            [
              -46.3597436,
              -23.5205457
            ],
            [
              -46.3597758,
              -23.5205703
            ],
            [
              -46.3596846,
              -23.5211679
            ],
            [
              -46.3592635,
              -23.5210941
            ],
            [
              -46.3594029,
              -23.5204793
            ],
            [
              -46.3597436,
              -23.5205457
            ]
          ]
        ]
      }
    },
    {
      "type": "Feature",
      "id": "way/630792059",
      "properties": {
        "timestamp": "2022-03-31T12:29:14Z",
        "version": 4,
        "changeset": 119157992,
        "addr:city": "Poá",
        "addr:street": "Rua Alfredo Diniz",
        "addr:suburb": "Biritiba",
        "amenity": "school",
        "contact:phone": "+55 11 4639 8910",
        "email": "smepoa@ig.com.br",
        "name": "Escola Municipal de Educação Básica Ana Maria Guerra Guida",
        "note": "Sem numeração",
        "phone": "+55 11 4639 8909",
        "ref": "INEP-35236724",
        "religion": "none",
        "id": "way/630792059"
      },
      "geometry": {
        "type": "Polygon",
        "coordinates": [
          [
            [
              -46.3391462,
              -23.5345885
            ],
            [
              -46.3391516,
              -23.5352524
            ],
            [
              -46.3389611,
              -23.5352647
            ],
            [
              -46.3389585,
              -23.5354639
            ],
            [
              -46.338591,
              -23.5354664
            ],
            [
              -46.3385937,
              -23.5346401
            ],
            [
              -46.3386232,
              -23.5345909
            ],
            [
              -46.3388807,
              -23.5345885
            ],
            [
              -46.33887,
              -23.5346524
            ],
            [
              -46.3390121,
              -23.534645
            ],
            [
              -46.3390202,
              -23.5345811
            ],
            [
              -46.3391462,
              -23.5345885
            ]
          ]
        ]
      }
    },
    {
      "type": "Feature",
      "id": "way/630798631",
      "properties": {
        "timestamp": "2019-09-23T14:37:09Z",
        "version": 2,
        "changeset": 74813104,
        "addr:city": "Poá",
        "addr:housenumber": "65",
        "addr:postcode": "08550-011",
        "addr:street": "Rua Sebastião de Almeida",
        "addr:suburb": "Jardim Nova Poá",
        "amenity": "school",
        "email": "emebxidieh@ig.com.br",
        "name": "Escola Municipal de Educação Básica Integral Roberto Elias Xidieh",
        "operator": "Secretaria da Educação",
        "operator:type": "government",
        "phone": "+55 11 4636 8465",
        "ref": "35131593",
        "id": "way/630798631"
      },
      "geometry": {
        "type": "Polygon",
        "coordinates": [
          [
            [
              -46.3457306,
              -23.5526284
            ],
            [
              -46.3459648,
              -23.552946
            ],
            [
              -46.3456401,
              -23.5531347
            ],
            [
              -46.3455348,
              -23.5532005
            ],
            [
              -46.3454312,
              -23.5532671
            ],
            [
              -46.3452266,
              -23.5529905
            ],
            [
              -46.345297,
              -23.5529354
            ],
            [
              -46.3453119,
              -23.5528846
            ],
            [
              -46.3457306,
              -23.5526284
            ]
          ]
        ]
      }
    },
    {
      "type": "Feature",
      "id": "way/631035972",
      "properties": {
        "timestamp": "2024-04-18T14:57:15Z",
        "version": 2,
        "changeset": 150179900,
        "addr:city": "Poá",
        "addr:housenumber": "65",
        "addr:postcode": "08567-360",
        "addr:street": "Rua Dobrada",
        "addr:suburb": "Jardim São José",
        "amenity": "school",
        "contact:phone": "+55 11 4636 6322",
        "email": "e907030a@educacao.sp.gov.br",
        "name": "Escola Estadual Américo Franco",
        "operator": "Secretaria da Educação do Estado de São Paulo",
        "operator:type": "government",
        "phone": "+55 11 4636 0433",
        "religion": "none",
        "id": "way/631035972"
      },
      "geometry": {
        "type": "Polygon",
        "coordinates": [
          [
            [
              -46.353739,
              -23.5497351
            ],
            [
              -46.3534539,
              -23.5499656
            ],
            [
              -46.3532144,
              -23.5501901
            ],
            [
              -46.3530001,
              -23.5500879
            ],
            [
              -46.3531225,
              -23.5497608
            ],
            [
              -46.3531289,
              -23.5495964
            ],
            [
              -46.35323,
              -23.549608
            ],
            [
              -46.3534508,
              -23.549429
            ],
            [
              -46.3536891,
              -23.5492864
            ],
            [
              -46.353756,
              -23.5492966
            ],
            [
              -46.3538083,
              -23.5493173
            ],
            [
              -46.3538913,
              -23.5494138
            ],
            [
              -46.3536356,
              -23.5496088
            ],
            [
              -46.3536478,
              -23.5496238
            ],
            [
              -46.353739,
              -23.5497351
            ]
          ]
        ]
      }
    },
    {
      "type": "Feature",
      "id": "way/631037512",
      "properties": {
        "timestamp": "2019-09-23T01:06:40Z",
        "version": 2,
        "changeset": 74784434,
        "addr:city": "Poá",
        "addr:housenumber": "95",
        "addr:postcode": "08561-060",
        "addr:street": "Rua Tupi",
        "addr:suburb": "Centro",
        "amenity": "school",
        "contact:phone": "+55 11 4638 1003",
        "email": "e007328a@educacao.sp.gov.br",
        "name": "Escola Estadual Batuíra",
        "operator": "Secretaria da Educação do Estado de São Paulo",
        "operator:type": "government",
        "phone": "+55 11 4636 0944",
        "ref": "35007328",
        "id": "way/631037512"
      },
      "geometry": {
        "type": "Polygon",
        "coordinates": [
          [
            [
              -46.3407225,
              -23.5241136
            ],
            [
              -46.3403846,
              -23.5245637
            ],
            [
              -46.3396362,
              -23.5243226
            ],
            [
              -46.3396979,
              -23.523725
            ],
            [
              -46.3399474,
              -23.5237865
            ],
            [
              -46.340221,
              -23.5238628
            ],
            [
              -46.340398,
              -23.5239316
            ],
            [
              -46.3407225,
              -23.5241136
            ]
          ]
        ]
      }
    },
    {
      "type": "Feature",
      "id": "way/631043196",
      "properties": {
        "timestamp": "2019-09-23T14:18:19Z",
        "version": 2,
        "changeset": 74811956,
        "addr:city": "Poá",
        "addr:housenumber": "115",
        "addr:postcode": "08560-250",
        "addr:street": "Rua Lilia",
        "addr:suburb": "Calmon Viana",
        "amenity": "school",
        "contact:phone": "+55 11 4638 1748",
        "email": "e007018a@educacao.sp.gov.br",
        "name": "Escola Estadual Professora Benedita Garcia da Cruz",
        "operator": "Secretaria da Educação do Estado de São Paulo",
        "operator:type": "government",
        "phone": "+55 11 4636 0390",
        "ref": "35007018",
        "id": "way/631043196"
      },
      "geometry": {
        "type": "Polygon",
        "coordinates": [
          [
            [
              -46.3376198,
              -23.5312137
            ],
            [
              -46.3377914,
              -23.5316415
            ],
            [
              -46.337196,
              -23.5318481
            ],
            [
              -46.3371316,
              -23.5318309
            ],
            [
              -46.3369841,
              -23.5314547
            ],
            [
              -46.3370243,
              -23.531403
            ],
            [
              -46.3376198,
              -23.5312137
            ]
          ]
        ]
      }
    },
    {
      "type": "Feature",
      "id": "way/631100449",
      "properties": {
        "timestamp": "2022-03-30T15:09:50Z",
        "version": 3,
        "changeset": 119121034,
        "addr:city": "Poá",
        "addr:housenumber": "10",
        "addr:postcode": "08565-130",
        "addr:street": "Rua Japão",
        "addr:suburb": "Jardim Obelisco",
        "amenity": "school",
        "contact:phone": "+55 11 4638 2383",
        "email": "e035524a@educacao.sp.gov.br",
        "name": "Escola Estadual Professor Elias Zugaib",
        "operator": "Secretaria da Educação do Estado de São Paulo",
        "operator:type": "government",
        "phone": "+55 11 4636 0673",
        "ref": "INEP-35035524",
        "religion": "none",
        "id": "way/631100449"
      },
      "geometry": {
        "type": "Polygon",
        "coordinates": [
          [
            [
              -46.3451512,
              -23.5404046
            ],
            [
              -46.3451834,
              -23.5404366
            ],
            [
              -46.3451807,
              -23.5405177
            ],
            [
              -46.3450895,
              -23.5408202
            ],
            [
              -46.3450385,
              -23.5410243
            ],
            [
              -46.3448427,
              -23.5411841
            ],
            [
              -46.3447408,
              -23.5412406
            ],
            [
              -46.3446684,
              -23.5412702
            ],
            [
              -46.343979,
              -23.5412849
            ],
            [
              -46.3440059,
              -23.5407439
            ],
            [
              -46.3443814,
              -23.5408103
            ],
            [
              -46.3445343,
              -23.5407759
            ],
            [
              -46.3451512,
              -23.5404046
            ]
          ]
        ]
      }
    },
    {
      "type": "Feature",
      "id": "way/631103053",
      "properties": {
        "timestamp": "2022-03-30T14:07:57Z",
        "version": 3,
        "changeset": 119118424,
        "addr:city": "Poá",
        "addr:housenumber": "80",
        "addr:postcode": "08564-060",
        "addr:street": "Rua Irapuã",
        "addr:suburb": "Jardim Selma Helena",
        "amenity": "school",
        "contact:phone": "+55 11 4636 6097",
        "email": "e007031a@educacao.sp.gov.br",
        "name": "Escola Estadual Padre Eustáquio",
        "operator": "Secretaria da Educação do Estado de São Paulo",
        "operator:type": "government",
        "phone": "+55 11 4636 0847",
        "ref": "INEP-35007031",
        "religion": "none",
        "id": "way/631103053"
      },
      "geometry": {
        "type": "Polygon",
        "coordinates": [
          [
            [
              -46.3526067,
              -23.5366985
            ],
            [
              -46.3522768,
              -23.5366715
            ],
            [
              -46.3522259,
              -23.5366321
            ],
            [
              -46.3522044,
              -23.5365928
            ],
            [
              -46.3523063,
              -23.5357223
            ],
            [
              -46.3528106,
              -23.535769
            ],
            [
              -46.3527355,
              -23.5362903
            ],
            [
              -46.3527033,
              -23.5363002
            ],
            [
              -46.3526604,
              -23.5366371
            ],
            [
              -46.352647,
              -23.536669
            ],
            [
              -46.3526067,
              -23.5366985
            ]
          ]
        ]
      }
    },
    {
      "type": "Feature",
      "id": "way/631106833",
      "properties": {
        "timestamp": "2022-03-31T00:11:45Z",
        "version": 2,
        "changeset": 119136467,
        "addr:city": "Poá",
        "addr:housenumber": "84",
        "addr:postcode": "08568-330",
        "addr:street": "Rua Azulão",
        "addr:suburb": "Jardim Nova Poá",
        "amenity": "school",
        "contact:phone": "+55 11 4636 2555",
        "email": "e923217a@educacao.sp.gov.br",
        "name": "Escola Estadual Professora Helena Loreiro Rossi",
        "operator": "Secretaria da Educação do Estado de São Paulo",
        "operator:type": "government",
        "phone": "+55 11 4636 0597",
        "ref": "INEP-35923217",
        "religion": "none",
        "source": "CADMEC 2017",
        "id": "way/631106833"
      },
      "geometry": {
        "type": "Polygon",
        "coordinates": [
          [
            [
              -46.3458591,
              -23.5583722
            ],
            [
              -46.3458296,
              -23.5584288
            ],
            [
              -46.3457357,
              -23.5584804
            ],
            [
              -46.3454997,
              -23.558532
            ],
            [
              -46.345084,
              -23.5578436
            ],
            [
              -46.34543,
              -23.5577256
            ],
            [
              -46.3458591,
              -23.5583722
            ]
          ]
        ]
      }
    },
    {
      "type": "Feature",
      "id": "way/631110693",
      "properties": {
        "timestamp": "2018-10-05T20:19:47Z",
        "version": 1,
        "changeset": 63242279,
        "addr:city": "Poá",
        "addr:housenumber": "575",
        "addr:postcode": "08559-120",
        "addr:street": "Rua Jair de Godoy",
        "addr:suburb": "Vila Jaú",
        "amenity": "school",
        "contact:phone": "+55 11 4638 1419",
        "email": "e041154a@educacao.sp.gov.br",
        "name": "Escola Estadual Professora Silvia Gama Balaben",
        "operator": "Secretaria da Educação do Estado de São Paulo",
        "phone": "+55 11 4636 0438",
        "id": "way/631110693"
      },
      "geometry": {
        "type": "Polygon",
        "coordinates": [
          [
            [
              -46.3371667,
              -23.5158991
            ],
            [
              -46.3373652,
              -23.5166148
            ],
            [
              -46.3371184,
              -23.5165975
            ],
            [
              -46.3368663,
              -23.5165631
            ],
            [
              -46.3367536,
              -23.5165361
            ],
            [
              -46.3365203,
              -23.5158179
            ],
            [
              -46.3371667,
              -23.5158991
            ]
          ]
        ]
      }
    },
    {
      "type": "Feature",
      "id": "way/681533172",
      "properties": {
        "timestamp": "2022-03-29T14:40:04Z",
        "version": 4,
        "changeset": 119073783,
        "amenity": "school",
        "name": "Escola Municipal de Educação Infantil Professor Edi Greenfield",
        "short_name": "EMEI Professor Edi Greenfield",
        "id": "way/681533172"
      },
      "geometry": {
        "type": "Polygon",
        "coordinates": [
          [
            [
              -46.3625737,
              -23.5221081
            ],
            [
              -46.3626402,
              -23.5225009
            ],
            [
              -46.3625322,
              -23.5225085
            ],
            [
              -46.3623974,
              -23.522518
            ],
            [
              -46.3623343,
              -23.5221337
            ],
            [
              -46.3625737,
              -23.5221081
            ]
          ]
        ]
      }
    },
    {
      "type": "Feature",
      "id": "way/727350185",
      "properties": {
        "timestamp": "2019-09-23T01:22:26Z",
        "version": 1,
        "changeset": 74784651,
        "amenity": "school",
        "id": "way/727350185"
      },
      "geometry": {
        "type": "Polygon",
        "coordinates": [
          [
            [
              -46.3531817,
              -23.5282035
            ],
            [
              -46.353289,
              -23.5287519
            ],
            [
              -46.3532756,
              -23.5287937
            ],
            [
              -46.3532541,
              -23.5288085
            ],
            [
              -46.35323,
              -23.5288183
            ],
            [
              -46.3527981,
              -23.5287814
            ],
            [
              -46.3527203,
              -23.528265
            ],
            [
              -46.3531817,
              -23.5282035
            ]
          ]
        ]
      }
    },
    {
      "type": "Feature",
      "id": "way/900801166",
      "properties": {
        "timestamp": "2021-06-01T15:41:28Z",
        "version": 3,
        "changeset": 105686336,
        "addr:housenumber": "2002",
        "addr:postcode": "08554-000",
        "addr:street": "Avenida Deputado Castro de Carvalho",
        "addr:suburb": "Vila Áurea",
        "alt_name": "EMEB Manoel da Silva Oliveira",
        "amenity": "school",
        "email": "emebmanoeldasilva@gmail.com",
        "name": "Escola Municipal de Educação Básica Manoel da Silva Oliveira",
        "operator": "Secretaria da Educação da Prefeitura Estância Hidromineral de Poá",
        "operator:type": "government",
        "phone": "+55 11 4638 6043",
        "ref": "INEP-35280963",
        "source": "INEP;CADMEC 2017",
        "id": "way/900801166"
      },
      "geometry": {
        "type": "Polygon",
        "coordinates": [
          [
            [
              -46.3601604,
              -23.518324
            ],
            [
              -46.3598706,
              -23.5183876
            ],
            [
              -46.3592967,
              -23.5185134
            ],
            [
              -46.35894,
              -23.5179551
            ],
            [
              -46.3597098,
              -23.5175838
            ],
            [
              -46.3601604,
              -23.518324
            ]
          ]
        ]
      }
    },
    {
      "type": "Feature",
      "id": "way/1273840560",
      "properties": {
        "timestamp": "2024-04-18T14:57:15Z",
        "version": 1,
        "changeset": 150179900,
        "addr:street": "Rua Dobrada",
        "amenity": "school",
        "name": "Escola Municipal de Educação Básica Benedito Rufino Lopes",
        "religion": "none",
        "id": "way/1273840560"
      },
      "geometry": {
        "type": "Polygon",
        "coordinates": [
          [
            [
              -46.3539438,
              -23.549406
            ],
            [
              -46.3540318,
              -23.5494926
            ],
            [
              -46.3540204,
              -23.5495299
            ],
            [
              -46.3537501,
              -23.549724
            ],
            [
              -46.3536478,
              -23.5496238
            ],
            [
              -46.3539438,
              -23.549406
            ]
          ]
        ]
      }
    },
    {
      "type": "Feature",
      "id": "node/2289834594",
      "properties": {
        "timestamp": "2018-05-13T18:47:19Z",
        "version": 3,
        "changeset": 58931457,
        "addr:city": "Poá",
        "addr:postcode": "08557-000",
        "addr:street": "Avenida Vital Brasil",
        "addr:suburb": "Vila Anita",
        "amenity": "school",
        "email": "emebcandido.balazaima@yahoo.com.br",
        "name": "Escola Municipal de Educação Básica Vereador Cândido José Balazaima",
        "id": "node/2289834594"
      },
      "geometry": {
        "type": "Point",
        "coordinates": [
          -46.3426997,
          -23.517163
        ]
      }
    },
    {
      "type": "Feature",
      "id": "node/8463471315",
      "properties": {
        "timestamp": "2021-02-27T12:13:27Z",
        "version": 1,
        "changeset": 100094947,
        "amenity": "school",
        "name": "EMEB Padre Eustáquio",
        "id": "node/8463471315"
      },
      "geometry": {
        "type": "Point",
        "coordinates": [
          -46.3455046,
          -23.5280818
        ]
      }
    },
    {
      "type": "Feature",
      "id": "node/8463471316",
      "properties": {
        "timestamp": "2021-02-27T12:13:27Z",
        "version": 1,
        "changeset": 100094947,
        "amenity": "school",
        "name": "EMEB Estância Hidromineral de Poá",
        "id": "node/8463471316"
      },
      "geometry": {
        "type": "Point",
        "coordinates": [
          -46.3462201,
          -23.5276121
        ]
      }
    },
    {
      "type": "Feature",
      "id": "node/8789604788",
      "properties": {
        "timestamp": "2021-06-01T15:41:28Z",
        "version": 1,
        "changeset": 105686336,
        "access": "permissive",
        "barrier": "gate",
        "id": "node/8789604788"
      },
      "geometry": {
        "type": "Point",
        "coordinates": [
          -46.3598706,
          -23.5183876
        ]
      }
    }
  ]
}
