{
  "type": "FeatureCollection",
  "features": [
    {
      "type": "Feature",
      "id": "node/10082478446",
      "properties": {
        "timestamp": "2022-10-07T18:12:10Z",
        "version": 1,
        "changeset": 127165887,
        "addr:city": "Virginópolis",
        "addr:postcode": "39730-000",
        "addr:street": "Rua São José",
        "addr:suburb": "Centro",
        "government": "administrative",
        "name": "Secretaria Municipal de Educação de Virginópolis",
        "office": "government",
        "id": "node/10082478446"
      },
      "geometry": {
        "type": "Point",
        "coordinates": [
          -42.7059435,
          -18.8228134
        ]
      }
    },
    {
      "type": "Feature",
      "id": "node/10082478455",
      "properties": {
        "timestamp": "2022-10-07T18:12:10Z",
        "version": 1,
        "changeset": 127165887,
        "addr:city": "Virginópolis",
        "addr:housenumber": "24",
        "addr:postcode": "39730-000",
        "addr:street": "Rua da Matriz",
        "addr:suburb": "Centro",
        "government": "register_office",
        "name": "Cartório da 283ª Zona Eleitora da Comarca de Virginópolis",
        "office": "government",
        "id": "node/10082478455"
      },
      "geometry": {
        "type": "Point",
        "coordinates": [
          -42.7046961,
          -18.822931
        ]
      }
    },
    {
      "type": "Feature",
      "id": "node/10082478457",
      "properties": {
        "timestamp": "2022-10-07T18:12:10Z",
        "version": 1,
        "changeset": 127165887,
        "addr:city": "Virginópolis",
        "addr:housenumber": "113",
        "addr:postcode": "39730-000",
        "addr:street": "Rua Francisco Dias",
        "addr:suburb": "Centro",
        "government": "register_office",
        "name": "Cartório do Registro Civil das Pessoas Naturais de Virginópolis",
        "office": "government",
        "phone": "+55 33 98836 4409",
        "id": "node/10082478457"
      },
      "geometry": {
        "type": "Point",
        "coordinates": [
          -42.7039055,
          -18.8208168
        ]
      }
    },
    {
      "type": "Feature",
      "id": "node/10090525061",
      "properties": {
        "timestamp": "2022-10-10T20:36:07Z",
        "version": 1,
        "changeset": 127322980,
        "addr:city": "Virginópolis",
        "addr:housenumber": "21",
        "addr:postcode": "39730-000",
        "addr:street": "Rua Padre Félix",
        "addr:suburb": "Centro",
        "government": "administrative",
        "name": "Secretaria Municipal de Saúde",
        "office": "government",
        "id": "node/10090525061"
      },
      "geometry": {
        "type": "Point",
        "coordinates": [
          -42.7083206,
          -18.8237635
        ]
      }
    },
    {
      "type": "Feature",
      "id": "node/10091055422",
      "properties": {
        "timestamp": "2022-10-11T00:22:16Z",
        "version": 1,
        "changeset": 127328551,
        "addr:city": "Virginópolis",
        "addr:housenumber": "20",
        "addr:postcode": "39730-000",
        "addr:street": "Rua Coronel João Batista Magalhães",
        "addr:suburb": "Centro",
        "government": "administrative",
        "name": "Almoraxifado Municipal",
        "office": "government",
        "id": "node/10091055422"
      },
      "geometry": {
        "type": "Point",
        "coordinates": [
          -42.704244,
          -18.8201381
        ]
      }
    },
    {
      "type": "Feature",
      "id": "node/10099404274",
      "properties": {
        "timestamp": "2022-10-13T22:58:05Z",
        "version": 1,
        "changeset": 127494485,
        "addr:city": "Virginópolis",
        "addr:housenumber": "109",
        "addr:postcode": "39730-000",
        "addr:street": "Rua Coronel João Batista Magalhães",
        "addr:suburb": "Centro",
        "government": "administrative",
        "name": "Escritório Seccional do Instituto Mineiro de Agropecuária - Ima",
        "office": "government",
        "id": "node/10099404274"
      },
      "geometry": {
        "type": "Point",
        "coordinates": [
          -42.7044767,
          -18.8194791
        ]
      }
    },
    {
      "type": "Feature",
      "id": "node/10099404275",
      "properties": {
        "timestamp": "2022-10-13T22:58:05Z",
        "version": 1,
        "changeset": 127494485,
        "addr:city": "Virginópolis",
        "addr:housenumber": "14",
        "addr:postcode": "39730-000",
        "addr:street": "Rua da Matriz",
        "addr:suburb": "Centro",
        "email": "virginopolis@emater.mg.gov.br",
        "government": "administrative",
        "name": "Escritório Local da Emater-MG",
        "office": "government",
        "phone": "+55 33 3416 1344",
        "id": "node/10099404275"
      },
      "geometry": {
        "type": "Point",
        "coordinates": [
          -42.7047566,
          -18.8229217
        ]
      }
    },
    {
      "type": "Feature",
      "id": "node/10114866188",
      "properties": {
        "timestamp": "2022-10-19T18:21:00Z",
        "version": 1,
        "changeset": 127799655,
        "addr:city": "Virginópolis",
        "addr:housenumber": "136",
        "addr:postcode": "39730-000",
        "addr:street": "Praça João Rodrigues Coelho",
        "addr:suburb": "Centro",
        "government": "register_office",
        "name": "Cartório do Segundo Ofício de Notas de Virginópolis",
        "office": "government",
        "id": "node/10114866188"
      },
      "geometry": {
        "type": "Point",
        "coordinates": [
          -42.7047469,
          -18.822449
        ]
      }
    }
  ]
}
