{
  "type": "FeatureCollection",
  "features": [
    {
      "type": "Feature",
      "id": "node/3765166626",
      "properties": {
        "timestamp": "2022-10-07T18:12:10Z",
        "version": 2,
        "changeset": 127165887,
        "addr:city": "Virginópolis",
        "addr:housenumber": "493",
        "addr:postcode": "39730-000",
        "addr:street": "Rua Nossa Senhora de Fátima",
        "addr:suburb": "Centro",
        "amenity": "school",
        "name": "Escola Estadual Nossa Senhora do Patrocínio",
        "operator": "Secretaria de Educação do Estado de Minas Gerais",
        "operator:type": "public",
        "id": "node/3765166626"
      },
      "geometry": {
        "type": "Point",
        "coordinates": [
          -42.6996082,
          -18.8179331
        ]
      }
    },
    {
      "type": "Feature",
      "id": "node/3765166640",
      "properties": {
        "timestamp": "2015-09-30T11:10:16Z",
        "version": 1,
        "changeset": 34344454,
        "amenity": "school",
        "id": "node/3765166640"
      },
      "geometry": {
        "type": "Point",
        "coordinates": [
          -42.6994643,
          -18.816944
        ]
      }
    },
    {
      "type": "Feature",
      "id": "node/8342157101",
      "properties": {
        "timestamp": "2022-10-07T18:12:10Z",
        "version": 2,
        "changeset": 127165887,
        "addr:city": "Virginópolis",
        "addr:postcode": "39730-000",
        "addr:street": "Rua Francisco Dias",
        "addr:suburb": "Centro",
        "amenity": "school",
        "name": "Escola Municipal Professora Enoe Maria de Oliveira",
        "operator": "Secretaria de Educação do Estado de Minas Gerais",
        "operator:type": "public",
        "id": "node/8342157101"
      },
      "geometry": {
        "type": "Point",
        "coordinates": [
          -42.7018087,
          -18.8197786
        ]
      }
    },
    {
      "type": "Feature",
      "id": "node/10082478418",
      "properties": {
        "timestamp": "2022-10-08T13:02:47Z",
        "version": 2,
        "changeset": 127200238,
        "addr:city": "Virginópolis",
        "addr:housenumber": "389",
        "addr:postcode": "39730-000",
        "addr:street": "Rua Nossa Senhora de Fátima",
        "addr:suburb": "Centro",
        "amenity": "school",
        "name": "Escola Cinetecista de Viginópolis",
        "operator": "Campanha Nacional de Escolas da Comunidade - Cnec",
        "operator:type": "private",
        "id": "node/10082478418"
      },
      "geometry": {
        "type": "Point",
        "coordinates": [
          -42.7012693,
          -18.8183808
        ]
      }
    },
    {
      "type": "Feature",
      "id": "node/10082478423",
      "properties": {
        "timestamp": "2022-10-08T13:02:47Z",
        "version": 2,
        "changeset": 127200238,
        "addr:city": "Virginópolis",
        "addr:housenumber": "389",
        "addr:postcode": "39730-000",
        "addr:street": "Rua Nossa Senhora de Fátima",
        "addr:suburb": "Centro",
        "amenity": "school",
        "name": "Centro Educacional Pequeno Aprendiz",
        "operator": "Campanha Nacional de Escolas da Comunidade - Cnec",
        "operator:type": "private",
        "id": "node/10082478423"
      },
      "geometry": {
        "type": "Point",
        "coordinates": [
          -42.7010444,
          -18.8182962
        ]
      }
    },
    {
      "type": "Feature",
      "id": "node/10082478426",
      "properties": {
        "timestamp": "2022-10-07T18:12:10Z",
        "version": 1,
        "changeset": 127165887,
        "addr:city": "Virginópolis",
        "addr:housenumber": "145",
        "addr:postcode": "39730-000",
        "addr:street": "Rua Padre Félix",
        "addr:suburb": "Centro",
        "amenity": "school",
        "name": "Escola Estadual Professor Francisco Dias",
        "operator": "Secretaria de Educação do Estado de Minas Gerais",
        "operator:type": "public",
        "id": "node/10082478426"
      },
      "geometry": {
        "type": "Point",
        "coordinates": [
          -42.7071715,
          -18.8235426
        ]
      }
    },
    {
      "type": "Feature",
      "id": "node/10082521869",
      "properties": {
        "timestamp": "2022-10-07T18:47:40Z",
        "version": 1,
        "changeset": 127167080,
        "addr:city": "Virginópolis",
        "addr:postcode": "39730-000",
        "addr:street": "Rua A",
        "addr:suburb": "Vila Santo Agostinho",
        "amenity": "school",
        "name": "Escola Municipal Professora Dona Helena Coelho",
        "operator": "Município de Virginópolis",
        "operator:type": "public",
        "id": "node/10082521869"
      },
      "geometry": {
        "type": "Point",
        "coordinates": [
          -42.6991243,
          -18.8330005
        ]
      }
    },
    {
      "type": "Feature",
      "id": "node/10089271546",
      "properties": {
        "timestamp": "2022-10-10T09:58:09Z",
        "version": 1,
        "changeset": 127292789,
        "addr:city": "Virginópolis",
        "addr:postcode": "39730-000",
        "addr:street": "Rua Bom Jesus",
        "addr:suburb": "Bom Jesus da Boa Vista",
        "amenity": "school",
        "name": "Escola Municipal Guilherme Machado",
        "operator": "Município de Virginópolis",
        "operator:type": "public",
        "id": "node/10089271546"
      },
      "geometry": {
        "type": "Point",
        "coordinates": [
          -42.6427693,
          -18.7073913
        ]
      }
    },
    {
      "type": "Feature",
      "id": "node/10089271635",
      "properties": {
        "timestamp": "2022-10-10T09:58:09Z",
        "version": 1,
        "changeset": 127292789,
        "addr:city": "Virginópolis",
        "addr:postcode": "39730-000",
        "addr:street": "Rua Bom Jesus",
        "addr:suburb": "Bom Jesus da Boa Vista",
        "amenity": "school",
        "email": "escola.218146@educacao.mg.gov.br",
        "name": "Escola Estatudual do Povoado de Bom Jesus da Boa Vista",
        "operator": "Secretaria de Educação do Estado de Minas Gerais",
        "operator:type": "public",
        "phone": "+55 33 3416 3027",
        "id": "node/10089271635"
      },
      "geometry": {
        "type": "Point",
        "coordinates": [
          -42.6454587,
          -18.7071631
        ]
      }
    },
    {
      "type": "Feature",
      "id": "node/10089747825",
      "properties": {
        "timestamp": "2022-10-10T13:37:56Z",
        "version": 1,
        "changeset": 127304819,
        "addr:city": "Virginópolis",
        "addr:postcode": "39730-000",
        "addr:suburb": "Ribeirão do Céu Aberto",
        "amenity": "school",
        "name": "Escola Municipal Amaro de Souza",
        "operator": "Município de Virginópolis",
        "operator:type": "public",
        "id": "node/10089747825"
      },
      "geometry": {
        "type": "Point",
        "coordinates": [
          -42.5679593,
          -18.8678758
        ]
      }
    },
    {
      "type": "Feature",
      "id": "node/10089747827",
      "properties": {
        "timestamp": "2022-10-10T13:37:56Z",
        "version": 1,
        "changeset": 127304819,
        "addr:city": "Virginópolis",
        "addr:postcode": "39730-000",
        "addr:suburb": "Fazenda São Luiz",
        "amenity": "school",
        "name": "Escola Municipal Castelo Branco",
        "operator": "Município de Virginópolis",
        "operator:type": "public",
        "id": "node/10089747827"
      },
      "geometry": {
        "type": "Point",
        "coordinates": [
          -42.7615758,
          -18.7505177
        ]
      }
    },
    {
      "type": "Feature",
      "id": "node/10089747831",
      "properties": {
        "timestamp": "2022-10-10T13:37:56Z",
        "version": 1,
        "changeset": 127304819,
        "addr:city": "Virginópolis",
        "addr:postcode": "39730-000",
        "addr:suburb": "Fazenda Monjolos",
        "amenity": "school",
        "name": "Escola Municipal Delfim Moreira",
        "operator": "Município de Virginópolis",
        "id": "node/10089747831"
      },
      "geometry": {
        "type": "Point",
        "coordinates": [
          -42.6469376,
          -18.8022588
        ]
      }
    },
    {
      "type": "Feature",
      "id": "node/10089747832",
      "properties": {
        "timestamp": "2022-10-10T13:37:56Z",
        "version": 1,
        "changeset": 127304819,
        "addr:city": "Virginópolis",
        "addr:postcode": "39730-000",
        "addr:suburb": "Ribeirão São Bento",
        "amenity": "school",
        "name": "Escola Municipal Dona Augusta Campos do Amaral",
        "id": "node/10089747832"
      },
      "geometry": {
        "type": "Point",
        "coordinates": [
          -42.7087161,
          -18.8775011
        ]
      }
    }
  ]
}
