{
  "type": "FeatureCollection",
  "features": [
    {
      "type": "Feature",
      "id": "way/406042343",
      "properties": {
        "timestamp": "2016-03-27T18:41:06Z",
        "version": 1,
        "changeset": 38105058,
        "IJSN:administra": "Municipal",
        "IJSN:classeCnae": "Infantil e Fundamental",
        "addr:city": "Água Doce do Norte",
        "addr:postcode": "29822-000",
        "addr:street": "Rua Antônio Pereira da Silva",
        "addr:suburb": "Vila Nelita",
        "alt_name": "Escola Municipal de Ensino Infantil e Fundamental",
        "amenity": "school",
        "building": "school",
        "contact:phone": "(27) 3759-5101 / 3759-5024",
        "name": "EMEIEF Vila Nelita",
        "source": "IJSN",
        "id": "way/406042343"
      },
      "geometry": {
        "type": "Polygon",
        "coordinates": [
          [
            [
              -41.0147236,
              -18.476921
            ],
            [
              -41.0144393,
              -18.4771092
            ],
            [
              -41.0142891,
              -18.4769108
            ],
            [
              -41.0145681,
              -18.4767276
            ],
            [
              -41.0147236,
              -18.476921
            ]
          ]
        ]
      }
    },
    {
      "type": "Feature",
      "id": "node/3058254211",
      "properties": {
        "timestamp": "2021-02-02T19:07:44Z",
        "version": 3,
        "changeset": 98596781,
        "IJSN:administra": "Municipal",
        "IJSN:classeCnae": "Infantil e Fundamental",
        "addr:city": "Água Doce do Norte",
        "addr:postcode": "29820-000",
        "addr:street": "Rua João Batista",
        "addr:suburb": "Centro",
        "alt_name": "Escola Municipal de Ensino Infantil e Fundamental",
        "amenity": "school",
        "name": "Escola Municipal de Ensino Infantil e Fundamental Professora Nilsa Alves Figueira",
        "source": "IJSN",
        "id": "node/3058254211"
      },
      "geometry": {
        "type": "Point",
        "coordinates": [
          -40.9777875,
          -18.550404
        ]
      }
    },
    {
      "type": "Feature",
      "id": "node/3058547632",
      "properties": {
        "timestamp": "2014-09-04T05:45:50Z",
        "version": 1,
        "changeset": 25219130,
        "amenity": "school",
        "id": "node/3058547632"
      },
      "geometry": {
        "type": "Point",
        "coordinates": [
          -41.0375082,
          -18.4113014
        ]
      }
    },
    {
      "type": "Feature",
      "id": "node/3058559106",
      "properties": {
        "timestamp": "2021-09-15T12:20:42Z",
        "version": 5,
        "changeset": 111242733,
        "IJSN:administra": "Municipal",
        "IJSN:classeCnae": "Infantil e Fundamental",
        "addr:city": "Água Doce do Norte",
        "addr:postcode": "29820-000",
        "addr:street": "Rua Mario de Oliveira Dias",
        "addr:suburb": "Santa Luzia do Azul",
        "alt_name": "Escola Municipal de Ensino Infantil e Fundamental",
        "amenity": "school",
        "contact:phone": "+55 27 3759-7179",
        "name": "Eescola Municipal de Ensino Infantil e Fundamental Santa Luzia do Azul",
        "source": "IJSN",
        "id": "node/3058559106"
      },
      "geometry": {
        "type": "Point",
        "coordinates": [
          -41.122181,
          -18.4184645
        ]
      }
    },
    {
      "type": "Feature",
      "id": "node/3058562469",
      "properties": {
        "timestamp": "2019-07-11T17:33:19Z",
        "version": 3,
        "changeset": 72146221,
        "IJSN:administra": "Municipal",
        "IJSN:classeCnae": "Infantil e Fundamental",
        "addr:city": "Água Doce do Norte",
        "addr:postcode": "29824-000",
        "addr:street": "Rua Professora Maria Vargas",
        "addr:suburb": "Santo Agostinho",
        "alt_name": "Escola Municipal de Ensino Infantil e Fundamental",
        "amenity": "school",
        "contact:phone": "+55 27 3756-6057",
        "name": "EMEIEF Professora Maria Vargas da Silva",
        "source": "IJSN",
        "id": "node/3058562469"
      },
      "geometry": {
        "type": "Point",
        "coordinates": [
          -41.0364745,
          -18.4129164
        ]
      }
    },
    {
      "type": "Feature",
      "id": "node/3058562504",
      "properties": {
        "timestamp": "2019-07-11T17:33:19Z",
        "version": 3,
        "changeset": 72146221,
        "IJSN:administra": "Estadual",
        "IJSN:classeCnae": "Fundamental e Médio",
        "addr:city": "Água Doce do Norte",
        "addr:postcode": "29824-990",
        "addr:suburb": "Santo Agostinho",
        "alt_name": "Escola Estadual de Ensino Fundamental e Médio",
        "amenity": "school",
        "contact:phone": "+55 27 3759-6097",
        "name": "EEEFM Dermeval Leite Ribeiro",
        "source": "IJSN",
        "id": "node/3058562504"
      },
      "geometry": {
        "type": "Point",
        "coordinates": [
          -41.0317201,
          -18.416233
        ]
      }
    },
    {
      "type": "Feature",
      "id": "node/3058563214",
      "properties": {
        "timestamp": "2019-07-11T17:33:19Z",
        "version": 3,
        "changeset": 72146221,
        "IJSN:administra": "Estadual",
        "IJSN:classeCnae": "Fundamental e Médio",
        "addr:city": "Água Doce do Norte",
        "addr:postcode": "29823-000",
        "addr:street": "Rua Antônio Vitorino de Oliveira",
        "addr:suburb": "Comunidade Santa Luzia do Córrego Azul",
        "alt_name": "Escola Estadual de Ensino Fundamental e Médio",
        "amenity": "school",
        "contact:phone": "+55 27 3759-7003;+55 27 3759-7024",
        "name": "EEEFM Olegário Martins",
        "source": "IJSN",
        "id": "node/3058563214"
      },
      "geometry": {
        "type": "Point",
        "coordinates": [
          -41.1236496,
          -18.4167971
        ]
      }
    },
    {
      "type": "Feature",
      "id": "node/4024904846",
      "properties": {
        "timestamp": "2021-02-02T19:07:44Z",
        "version": 2,
        "changeset": 98596781,
        "IJSN:administra": "Estadual",
        "IJSN:classeCnae": "Fundamental e Médio",
        "addr:city": "Água Doce do Norte",
        "addr:postcode": "29820-000",
        "addr:street": "Rua Protazio Elizeu",
        "addr:suburb": "Centro",
        "alt_name": "Escola Estadual de Ensino Fundamental e Médio",
        "amenity": "school",
        "contact:phone": "(27) 3759-1234 / 3759-1252",
        "name": "Escola Estadual de Ensino Fundamental e Médio Sebastião Coimbra Elizeu",
        "source": "IJSN",
        "id": "node/4024904846"
      },
      "geometry": {
        "type": "Point",
        "coordinates": [
          -40.9772396,
          -18.5503341
        ]
      }
    },
    {
      "type": "Feature",
      "id": "node/4024905753",
      "properties": {
        "timestamp": "2017-07-31T19:38:48Z",
        "version": 2,
        "changeset": 50731776,
        "IJSN:administra": "Municipal",
        "IJSN:classeCnae": "Infantil e Fundamental",
        "addr:city": "Água Doce do Norte",
        "addr:postcode": "29820-000",
        "addr:street": "Rua Adolfo Rosa Vienira",
        "addr:suburb": "Comunidade Governador Lacerda",
        "alt_name": "Escola Municipal de Ensino Infantil e Fundamental",
        "amenity": "school",
        "contact:phone": "+55-27-2759-4215",
        "name": "EMEIEF Adolfo Rosa Vieira",
        "source": "IJSN",
        "id": "node/4024905753"
      },
      "geometry": {
        "type": "Point",
        "coordinates": [
          -40.9397976,
          -18.6344918
        ]
      }
    },
    {
      "type": "Feature",
      "id": "node/4024905903",
      "properties": {
        "timestamp": "2016-02-25T02:01:12Z",
        "version": 1,
        "changeset": 37426154,
        "IJSN:administra": "Municipal",
        "IJSN:classeCnae": "Infantil e Fundamental",
        "addr:city": "Água Doce do Norte",
        "addr:postcode": "29820-000",
        "addr:street": "Rua Principal",
        "addr:suburb": "Comunidade Bom Destino",
        "alt_name": "Escola Municipal de Ensino Infantil e Fundamental",
        "amenity": "school",
        "contact:phone": "(27) 9823-6844",
        "name": "EMEIEF José Marques da Rocha",
        "source": "IJSN",
        "id": "node/4024905903"
      },
      "geometry": {
        "type": "Point",
        "coordinates": [
          -40.9845054,
          -18.4313975
        ]
      }
    },
    {
      "type": "Feature",
      "id": "node/4024905951",
      "properties": {
        "timestamp": "2016-02-25T02:01:20Z",
        "version": 1,
        "changeset": 37426154,
        "IJSN:administra": "Municipal",
        "IJSN:classeCnae": "Infantil e Fundamental",
        "addr:city": "Água Doce do Norte",
        "addr:postcode": "29820-000",
        "addr:suburb": "Comunidade Cafelândia",
        "alt_name": "Escola Municipal de Ensino Infantil e Fundamental",
        "amenity": "school",
        "contact:phone": "(27) 9837-4419",
        "name": "EMEIEF Soares Dutra",
        "source": "IJSN",
        "id": "node/4024905951"
      },
      "geometry": {
        "type": "Point",
        "coordinates": [
          -40.9993081,
          -18.6618092
        ]
      }
    },
    {
      "type": "Feature",
      "id": "node/4024906102",
      "properties": {
        "timestamp": "2016-02-25T02:01:28Z",
        "version": 1,
        "changeset": 37426154,
        "IJSN:administra": "Municipal",
        "IJSN:classeCnae": "Fundamental",
        "addr:city": "Água Doce do Norte",
        "addr:postcode": "29820-000",
        "addr:suburb": "Comunidade Santa Luzia do Córrego Azul",
        "alt_name": "Escola Municipal Pluridocente de Ensino Fundamental",
        "amenity": "school",
        "name": "EMPEF Cabeceira do Córrego Azul",
        "source": "IJSN",
        "id": "node/4024906102"
      },
      "geometry": {
        "type": "Point",
        "coordinates": [
          -41.1532182,
          -18.4232399
        ]
      }
    },
    {
      "type": "Feature",
      "id": "node/4024906152",
      "properties": {
        "timestamp": "2021-01-14T01:19:20Z",
        "version": 2,
        "changeset": 97469616,
        "IJSN:administra": "Municipal",
        "IJSN:classeCnae": "Fundamental",
        "addr:city": "Água Doce do Norte",
        "addr:postcode": "29820-000",
        "addr:suburb": "Comunidade Brejão",
        "alt_name": "Escola Municipal Pluridocente de Ensino Fundamental",
        "amenity": "school",
        "name": "EMPEF Professor João Batista",
        "source": "IJSN",
        "id": "node/4024906152"
      },
      "geometry": {
        "type": "Point",
        "coordinates": [
          -41.0751279,
          -18.3860162
        ]
      }
    },
    {
      "type": "Feature",
      "id": "node/4024906194",
      "properties": {
        "timestamp": "2016-02-25T02:01:42Z",
        "version": 1,
        "changeset": 37426154,
        "IJSN:administra": "Municipal",
        "IJSN:classeCnae": "Infantil e Fundamental",
        "addr:city": "Água Doce do Norte",
        "addr:postcode": "29820-000",
        "addr:suburb": "Comunidade Bom Jesus",
        "alt_name": "Escola Municipal de Primeiro Grau",
        "amenity": "school",
        "name": "EMPG João Antônio Moreira",
        "source": "IJSN",
        "id": "node/4024906194"
      },
      "geometry": {
        "type": "Point",
        "coordinates": [
          -40.9410271,
          -18.4588103
        ]
      }
    },
    {
      "type": "Feature",
      "id": "node/4024906236",
      "properties": {
        "timestamp": "2016-02-25T02:01:49Z",
        "version": 1,
        "changeset": 37426154,
        "IJSN:administra": "Municipal",
        "IJSN:classeCnae": "Fundamental",
        "addr:city": "Água Doce do Norte",
        "addr:postcode": "29820-000",
        "addr:suburb": "Comunidade do Garfo",
        "alt_name": "Escola Municipal Unidocente de Ensino Fundamental",
        "amenity": "school",
        "name": "EMUEF Cabeceira Córrego do Garfo",
        "source": "IJSN",
        "id": "node/4024906236"
      },
      "geometry": {
        "type": "Point",
        "coordinates": [
          -41.023526,
          -18.5761728
        ]
      }
    },
    {
      "type": "Feature",
      "id": "node/4024906661",
      "properties": {
        "timestamp": "2016-02-25T02:02:22Z",
        "version": 1,
        "changeset": 37426154,
        "IJSN:administra": "Municipal",
        "IJSN:classeCnae": "Fundamental",
        "addr:city": "Água Doce do Norte",
        "addr:postcode": "29820-000",
        "addr:suburb": "Comunidade Santa Cruz",
        "alt_name": "Escola Pluridocente",
        "amenity": "school",
        "name": "EP Fazenda João Nohia",
        "source": "IJSN",
        "id": "node/4024906661"
      },
      "geometry": {
        "type": "Point",
        "coordinates": [
          -40.9991723,
          -18.5151101
        ]
      }
    },
    {
      "type": "Feature",
      "id": "node/4024906671",
      "properties": {
        "timestamp": "2016-02-25T02:02:24Z",
        "version": 1,
        "changeset": 37426154,
        "IJSN:administra": "Municipal",
        "IJSN:classeCnae": "Fundamental",
        "addr:city": "Água Doce do Norte",
        "addr:postcode": "29820-000",
        "addr:suburb": "Comunidade São Domingos",
        "alt_name": "Escola Pluridocente",
        "amenity": "school",
        "name": "EP São Sebastião",
        "source": "IJSN",
        "id": "node/4024906671"
      },
      "geometry": {
        "type": "Point",
        "coordinates": [
          -40.9260425,
          -18.5059691
        ]
      }
    }
  ]
}
