{
  "type": "FeatureCollection",
  "features": [
    {
      "type": "Feature",
      "id": "node/10582337163",
      "properties": {
        "timestamp": "2023-01-25T18:14:57Z",
        "version": 1,
        "changeset": 131706100,
        "addr:city": "Monte Alegre",
        "addr:postcode": "68220000",
        "addr:street": "Avenida Presidente Getúlio Vargas",
        "addr:suburb": "Cidade Baixa",
        "amenity": "pharmacy",
        "dispensing": "no",
        "healthcare": "pharmacy",
        "image": "https://lh3.googleusercontent.com/p/AF1QipOwbOh_sPkXhY20sMe1jgr2OmTFYUijVcWEFOi5=s1360-w1360-h1020",
        "name": "Farma Luz",
        "opening_hours": "Mo-Sa 07:00-19:00",
        "phone": "+55 93 991300203",
        "id": "node/10582337163"
      },
      "geometry": {
        "type": "Point",
        "coordinates": [
          -54.0702733,
          -2.0089394
        ]
      }
    },
    {
      "type": "Feature",
      "id": "node/12053118369",
      "properties": {
        "timestamp": "2024-07-14T14:23:09Z",
        "version": 1,
        "changeset": 153932964,
        "amenity": "pharmacy",
        "name": "Farmacia Ribeiro",
        "opening_hours": "Mo-Fr 07:30-23:00; Sa-Su 07:30-22:00",
        "phone": "9335331334",
        "id": "node/12053118369"
      },
      "geometry": {
        "type": "Point",
        "coordinates": [
          -54.071995,
          -2.0051436
        ]
      }
    },
    {
      "type": "Feature",
      "id": "node/12056204573",
      "properties": {
        "timestamp": "2024-07-15T21:49:52Z",
        "version": 1,
        "changeset": 153990796,
        "amenity": "pharmacy",
        "name": "Farmacia Silva",
        "id": "node/12056204573"
      },
      "geometry": {
        "type": "Point",
        "coordinates": [
          -54.0711825,
          -2.0058913
        ]
      }
    },
    {
      "type": "Feature",
      "id": "node/12056204672",
      "properties": {
        "timestamp": "2024-07-15T21:50:04Z",
        "version": 1,
        "changeset": 153990796,
        "amenity": "pharmacy",
        "name": "Farmácia Lazzaretti",
        "id": "node/12056204672"
      },
      "geometry": {
        "type": "Point",
        "coordinates": [
          -54.0709062,
          -2.0074947
        ]
      }
    }
  ]
}
