{
  "type": "FeatureCollection",
  "features": [
    {
      "type": "Feature",
      "id": "node/10597841671",
      "properties": {
        "timestamp": "2023-02-01T03:48:04Z",
        "version": 1,
        "changeset": 131945339,
        "addr:street": "Rua Papa João XXIII",
        "amenity": "school",
        "name": "EMEB Constâncio João da Costa",
        "id": "node/10597841671"
      },
      "geometry": {
        "type": "Point",
        "coordinates": [
          -50.4946063,
          -20.9354992
        ]
      }
    },
    {
      "type": "Feature",
      "id": "node/10597841678",
      "properties": {
        "timestamp": "2024-05-30T14:37:46Z",
        "version": 2,
        "changeset": 152039306,
        "addr:housenumber": "119",
        "addr:street": "Rua Manoel Paulino",
        "amenity": "school",
        "name": "EE Prof. Lídia Perri Barbosa",
        "phone": "(18)36391127",
        "id": "node/10597841678"
      },
      "geometry": {
        "type": "Point",
        "coordinates": [
          -50.4956388,
          -20.9368724
        ]
      }
    }
  ]
}
