{
  "type": "FeatureCollection",
  "features": [
    {
      "type": "Feature",
      "id": "way/1037448084",
      "properties": {
        "timestamp": "2022-03-06T00:16:29Z",
        "version": 1,
        "changeset": 118144268,
        "addr:city": "Nova Olinda",
        "addr:housenumber": "885",
        "addr:postcode": "77790-000",
        "addr:street": "Rua Itaguatins",
        "addr:suburb": "São Pedro",
        "amenity": "school",
        "name": "Esc Mul Ladislau De Oliveira",
        "phone": "+55 63 3452 1687",
        "id": "way/1037448084"
      },
      "geometry": {
        "type": "Polygon",
        "coordinates": [
          [
            [
              -48.42534,
              -7.625793
            ],
            [
              -48.425349,
              -7.6262602
            ],
            [
              -48.4250319,
              -7.6262662
            ],
            [
              -48.4250229,
              -7.625799
            ],
            [
              -48.42534,
              -7.625793
            ]
          ]
        ]
      }
    },
    {
      "type": "Feature",
      "id": "way/1037448484",
      "properties": {
        "timestamp": "2022-03-06T00:22:08Z",
        "version": 2,
        "changeset": 118144351,
        "addr:city": "Nova Olinda",
        "addr:postcode": "77790-000",
        "addr:street": "Rua Ditador Costa e Silva",
        "addr:suburb": "Centro",
        "amenity": "school",
        "name": "Escola Municipal De Educacao Infantil Antonio Filemon Gomes",
        "phone": "+55 63 3452 1353",
        "id": "way/1037448484"
      },
      "geometry": {
        "type": "Polygon",
        "coordinates": [
          [
            [
              -48.420713,
              -7.6357344
            ],
            [
              -48.4207296,
              -7.6360848
            ],
            [
              -48.4201441,
              -7.636112
            ],
            [
              -48.4201275,
              -7.6357617
            ],
            [
              -48.420713,
              -7.6357344
            ]
          ]
        ]
      }
    },
    {
      "type": "Feature",
      "id": "way/1037448485",
      "properties": {
        "timestamp": "2022-03-06T00:23:11Z",
        "version": 2,
        "changeset": 118144361,
        "addr:city": "Nova Olinda",
        "addr:postcode": "77790-000",
        "addr:street": "Rua Brigadeiro Haroldo Veloso",
        "addr:suburb": "Centro",
        "amenity": "school",
        "name": "Centro Municipal De Educacao Infantil Professora Maria Liege Feitoza",
        "id": "way/1037448485"
      },
      "geometry": {
        "type": "Polygon",
        "coordinates": [
          [
            [
              -48.4204491,
              -7.6361273
            ],
            [
              -48.4204712,
              -7.6367092
            ],
            [
              -48.4201752,
              -7.6367203
            ],
            [
              -48.4201529,
              -7.6361384
            ],
            [
              -48.4204491,
              -7.6361273
            ]
          ]
        ]
      }
    },
    {
      "type": "Feature",
      "id": "way/1037448486",
      "properties": {
        "timestamp": "2022-03-06T00:21:30Z",
        "version": 1,
        "changeset": 118144341,
        "addr:city": "Nova Olinda",
        "addr:housenumber": "1486",
        "addr:postcode": "77790-000",
        "addr:street": "Rua Ditador Costa e Silva",
        "addr:suburb": "Centro",
        "amenity": "school",
        "name": "Col Est Dr Helio Souza Bueno",
        "phone": "+55 63 3452 1197",
        "id": "way/1037448486"
      },
      "geometry": {
        "type": "Polygon",
        "coordinates": [
          [
            [
              -48.4217341,
              -7.6346667
            ],
            [
              -48.4217843,
              -7.6357345
            ],
            [
              -48.4209116,
              -7.6357749
            ],
            [
              -48.4208613,
              -7.6347071
            ],
            [
              -48.4217341,
              -7.6346667
            ]
          ]
        ]
      }
    },
    {
      "type": "Feature",
      "id": "way/1037448582",
      "properties": {
        "timestamp": "2022-03-06T00:23:11Z",
        "version": 1,
        "changeset": 118144361,
        "addr:city": "Nova Olinda",
        "addr:housenumber": "1594",
        "addr:postcode": "77790-000",
        "addr:street": "Rua Ditador Costa e Silva",
        "addr:suburb": "Centro",
        "amenity": "school",
        "name": "Escola De Educacao Especial Renascer - Apae",
        "phone": "+55 63 3452 1502",
        "id": "way/1037448582"
      },
      "geometry": {
        "type": "Polygon",
        "coordinates": [
          [
            [
              -48.4212521,
              -7.6358407
            ],
            [
              -48.4212686,
              -7.6366669
            ],
            [
              -48.420933,
              -7.6366735
            ],
            [
              -48.4209164,
              -7.6358473
            ],
            [
              -48.4212521,
              -7.6358407
            ]
          ]
        ]
      }
    },
    {
      "type": "Feature",
      "id": "way/1037448655",
      "properties": {
        "timestamp": "2022-03-06T00:24:26Z",
        "version": 1,
        "changeset": 118144375,
        "addr:city": "Nova Olinda",
        "addr:housenumber": "1753",
        "addr:postcode": "77790-000",
        "addr:street": "Avenida Duque de Caxias",
        "addr:suburb": "Centro",
        "amenity": "school",
        "name": "Esc Mul Maria Lira",
        "phone": "+55 63 3452 1324",
        "id": "way/1037448655"
      },
      "geometry": {
        "type": "Polygon",
        "coordinates": [
          [
            [
              -48.4184268,
              -7.6382122
            ],
            [
              -48.4184429,
              -7.6384858
            ],
            [
              -48.4179647,
              -7.6385135
            ],
            [
              -48.4179486,
              -7.6382397
            ],
            [
              -48.4184268,
              -7.6382122
            ]
          ]
        ]
      }
    },
    {
      "type": "Feature",
      "id": "way/1037448707",
      "properties": {
        "timestamp": "2022-03-06T00:26:15Z",
        "version": 1,
        "changeset": 118144387,
        "addr:city": "Nova Olinda",
        "addr:housenumber": "1527",
        "addr:postcode": "77790-000",
        "addr:street": "Rua José de Moraes",
        "addr:suburb": "Centro",
        "amenity": "school",
        "name": "Escola Estadual Professora Hamedy Cury Queiroz",
        "phone": "+55 63 3452 1236",
        "id": "way/1037448707"
      },
      "geometry": {
        "type": "Polygon",
        "coordinates": [
          [
            [
              -48.4198101,
              -7.6318134
            ],
            [
              -48.4198669,
              -7.6327874
            ],
            [
              -48.419267,
              -7.6328217
            ],
            [
              -48.4192105,
              -7.6318477
            ],
            [
              -48.4198101,
              -7.6318134
            ]
          ]
        ]
      }
    },
    {
      "type": "Feature",
      "id": "way/1037448790",
      "properties": {
        "timestamp": "2022-03-06T00:28:28Z",
        "version": 1,
        "changeset": 118144417,
        "addr:city": "Nova Olinda",
        "addr:housenumber": "1145",
        "addr:postcode": "77790-000",
        "addr:street": "Rua TIradentes",
        "addr:suburb": "Centro",
        "amenity": "school",
        "name": "Esc Mul Pedro Chicou De Alencar",
        "id": "way/1037448790"
      },
      "geometry": {
        "type": "Polygon",
        "coordinates": [
          [
            [
              -48.4214132,
              -7.6319775
            ],
            [
              -48.4214314,
              -7.6324426
            ],
            [
              -48.4207893,
              -7.6324674
            ],
            [
              -48.420771,
              -7.6320023
            ],
            [
              -48.4214132,
              -7.6319775
            ]
          ]
        ]
      }
    },
    {
      "type": "Feature",
      "id": "way/1037448841",
      "properties": {
        "timestamp": "2022-03-06T00:29:10Z",
        "version": 1,
        "changeset": 118144430,
        "amenity": "school",
        "id": "way/1037448841"
      },
      "geometry": {
        "type": "Polygon",
        "coordinates": [
          [
            [
              -48.2872162,
              -7.6421505
            ],
            [
              -48.2874501,
              -7.642691
            ],
            [
              -48.2862968,
              -7.6431666
            ],
            [
              -48.2861001,
              -7.6425803
            ],
            [
              -48.2872162,
              -7.6421505
            ]
          ]
        ]
      }
    },
    {
      "type": "Feature",
      "id": "way/1037448842",
      "properties": {
        "timestamp": "2022-03-06T00:29:34Z",
        "version": 1,
        "changeset": 118144431,
        "amenity": "school",
        "name": "Escola Municipal Vereador Adriano Martins Brilhante",
        "id": "way/1037448842"
      },
      "geometry": {
        "type": "Polygon",
        "coordinates": [
          [
            [
              -48.3257876,
              -7.7481509
            ],
            [
              -48.3259968,
              -7.748523
            ],
            [
              -48.3254068,
              -7.7488047
            ],
            [
              -48.3252244,
              -7.7484645
            ],
            [
              -48.3257876,
              -7.7481509
            ]
          ]
        ]
      }
    },
    {
      "type": "Feature",
      "id": "node/9556953989",
      "properties": {
        "timestamp": "2022-03-06T00:29:10Z",
        "version": 1,
        "changeset": 118144430,
        "amenity": "school",
        "name": "Nucleo Escolar Mul Antonio Pereira Dos Santos",
        "phone": "+55 63 3452 1359",
        "id": "node/9556953989"
      },
      "geometry": {
        "type": "Point",
        "coordinates": [
          -48.2846506,
          -7.6419297
        ]
      }
    },
    {
      "type": "Feature",
      "id": "node/9556956768",
      "properties": {
        "timestamp": "2022-03-06T00:19:02Z",
        "version": 1,
        "changeset": 118144305,
        "addr:city": "Nova Olinda",
        "addr:housenumber": "976",
        "addr:postcode": "77790-000",
        "addr:street": "Rua José de Moraes",
        "addr:suburb": "Centro",
        "amenity": "school",
        "name": "Instituicao Educacional Messias Santos",
        "phone": "+55 63 3452 1551",
        "id": "node/9556956768"
      },
      "geometry": {
        "type": "Point",
        "coordinates": [
          -48.4246029,
          -7.6327901
        ]
      }
    },
    {
      "type": "Feature",
      "id": "node/9556957872",
      "properties": {
        "timestamp": "2022-03-06T00:21:30Z",
        "version": 1,
        "changeset": 118144341,
        "addr:city": "Nova Olinda",
        "addr:postcode": "77790-000",
        "addr:street": "Rua 7 de Setembro",
        "addr:suburb": "Centro",
        "amenity": "school",
        "name": "Escola Municipal De Educacao Infantil Joana Darque Ribeiro Da Silva",
        "phone": "+55 63 3452 1442",
        "id": "node/9556957872"
      },
      "geometry": {
        "type": "Point",
        "coordinates": [
          -48.4227414,
          -7.6347254
        ]
      }
    }
  ]
}
