{
  "type": "FeatureCollection",
  "features": [
    {
      "type": "Feature",
      "id": "way/437519478",
      "properties": {
        "timestamp": "2020-09-23T21:29:38Z",
        "version": 2,
        "changeset": 91391791,
        "addr:city": "Guaratinguetá",
        "addr:housenumber": "33",
        "addr:postcode": "12515-490",
        "addr:street": "Avenida Vaz de Caminha",
        "building": "yes",
        "name": "Merenda Escolar Celso Antonino Marcondes dos Santos",
        "office": "government",
        "source": "http://www.guiamais.com.br/guaratingueta-sp/servicos-e-processos/merenda-escolar/13938403-2/merenda-escola-de-guaratingueta",
        "id": "way/437519478"
      },
      "geometry": {
        "type": "Polygon",
        "coordinates": [
          [
            [
              -45.1863535,
              -22.8098847
            ],
            [
              -45.185905,
              -22.8098138
            ],
            [
              -45.1859485,
              -22.809542
            ],
            [
              -45.1859916,
              -22.8095458
            ],
            [
              -45.1860167,
              -22.8094501
            ],
            [
              -45.1862062,
              -22.8094743
            ],
            [
              -45.1861741,
              -22.8097547
            ],
            [
              -45.1862726,
              -22.8097654
            ],
            [
              -45.1862902,
              -22.8096933
            ],
            [
              -45.1863882,
              -22.8096952
            ],
            [
              -45.1863535,
              -22.8098847
            ]
          ]
        ]
      }
    },
    {
      "type": "Feature",
      "id": "way/438664049",
      "properties": {
        "timestamp": "2023-05-06T21:57:48Z",
        "version": 5,
        "changeset": 135792824,
        "addr:city": "Guaratinguetá",
        "addr:housenumber": "470",
        "addr:postcode": "12502-040",
        "addr:street": "Praça Joaquim Vilela de Oliveira Marcondes",
        "admin_level": "4",
        "government": "education",
        "name": "Núcleo Pedagógico - Diretoria de Ensino - Região de Guaratinguetá",
        "office": "government",
        "operator": "Secretaria da Educação do Estado de São Paulo",
        "operator:type": "government",
        "phone": "+55 12 3132-2606",
        "website": "http://deguara.blogspot.com.br/2013/08/alteracao-de-endereco.html",
        "id": "way/438664049"
      },
      "geometry": {
        "type": "Polygon",
        "coordinates": [
          [
            [
              -45.1878018,
              -22.8171127
            ],
            [
              -45.1876175,
              -22.8178359
            ],
            [
              -45.1873084,
              -22.8178187
            ],
            [
              -45.1874436,
              -22.8171124
            ],
            [
              -45.1874859,
              -22.8170851
            ],
            [
              -45.1875667,
              -22.8170677
            ],
            [
              -45.1876509,
              -22.8170601
            ],
            [
              -45.1877316,
              -22.8170751
            ],
            [
              -45.1878018,
              -22.8171127
            ]
          ]
        ]
      }
    },
    {
      "type": "Feature",
      "id": "way/538537067",
      "properties": {
        "timestamp": "2017-11-11T11:51:12Z",
        "version": 2,
        "changeset": 53688825,
        "addr:city": "Guaratinguetá",
        "addr:housenumber": "1302",
        "addr:postcode": "12516-410",
        "addr:street": "Avenida Doutor Ariberto Pereira da Cunha",
        "addr:suburb": "Portal das Colinas",
        "alt_name": "UR-14",
        "building": "yes",
        "name": "Tribunal de Contas do Estado de São Paulo",
        "office": "government",
        "phone": "+55 12 3122-1609",
        "phone_1": "+55 12 3132-2087",
        "short_name": "TCE SP",
        "shortest_name": "TCE",
        "id": "way/538537067"
      },
      "geometry": {
        "type": "Polygon",
        "coordinates": [
          [
            [
              -45.1901452,
              -22.804902
            ],
            [
              -45.1900253,
              -22.8054197
            ],
            [
              -45.1897939,
              -22.8053742
            ],
            [
              -45.189908,
              -22.8048817
            ],
            [
              -45.1899389,
              -22.8048878
            ],
            [
              -45.1899448,
              -22.8048625
            ],
            [
              -45.1901452,
              -22.804902
            ]
          ]
        ]
      }
    },
    {
      "type": "Feature",
      "id": "way/538537068",
      "properties": {
        "timestamp": "2017-11-05T15:07:12Z",
        "version": 1,
        "changeset": 53530624,
        "addr:city": "Guaratinguetá",
        "addr:housenumber": "310",
        "addr:postcode": "12516-410",
        "addr:street": "Avenida Doutor Ariberto Pereira da Cunha",
        "addr:suburb": "Portal das Colinas",
        "building": "yes",
        "email": "edr.guaratin@cati.sp.gov.br",
        "fax": "+55 12 3125 1991",
        "name": "Coordenadoria de Assistência Técnica Integral - EDR de Guaratinguetá",
        "office": "government",
        "phone": "+55 12 3125 3288",
        "short_name": "CATI Guaratinguetá",
        "shortest_name": "CATI",
        "id": "way/538537068"
      },
      "geometry": {
        "type": "Polygon",
        "coordinates": [
          [
            [
              -45.192494,
              -22.8054423
            ],
            [
              -45.1924386,
              -22.8057059
            ],
            [
              -45.1921173,
              -22.8056485
            ],
            [
              -45.1921722,
              -22.8053876
            ],
            [
              -45.1922833,
              -22.8054074
            ],
            [
              -45.1922548,
              -22.8055434
            ],
            [
              -45.1923594,
              -22.8055621
            ],
            [
              -45.1923885,
              -22.8054235
            ],
            [
              -45.192494,
              -22.8054423
            ]
          ]
        ]
      }
    },
    {
      "type": "Feature",
      "id": "way/538537072",
      "properties": {
        "timestamp": "2017-11-05T15:07:13Z",
        "version": 1,
        "changeset": 53530624,
        "addr:city": "Guaratinguetá",
        "addr:housenumber": "330",
        "addr:postcode": "12516-410",
        "addr:street": "Avenida Doutor Ariberto Pereira da Cunha",
        "addr:suburb": "Portal das Colinas",
        "building": "yes",
        "email": "aps21039040@inss.gov.br",
        "name": "Previdência Social",
        "office": "government",
        "opening_hours": "Mo-Fr 08:00-18:00",
        "id": "way/538537072"
      },
      "geometry": {
        "type": "Polygon",
        "coordinates": [
          [
            [
              -45.1913154,
              -22.8052365
            ],
            [
              -45.191267,
              -22.8054533
            ],
            [
              -45.1911439,
              -22.8054299
            ],
            [
              -45.1911396,
              -22.8054491
            ],
            [
              -45.1910532,
              -22.8054327
            ],
            [
              -45.1910583,
              -22.80541
            ],
            [
              -45.1909691,
              -22.8053931
            ],
            [
              -45.1910056,
              -22.8052298
            ],
            [
              -45.1910405,
              -22.8052364
            ],
            [
              -45.1910517,
              -22.8051864
            ],
            [
              -45.1913154,
              -22.8052365
            ]
          ]
        ]
      }
    },
    {
      "type": "Feature",
      "id": "way/944019854",
      "properties": {
        "timestamp": "2024-09-16T18:16:45Z",
        "version": 2,
        "changeset": 156700334,
        "addr:city": "Guaratinguetá",
        "addr:housenumber": "1880",
        "addr:postcode": "12512-010",
        "addr:street": "Rua Xavantes",
        "addr:suburb": "Jardim Aeroporto",
        "building": "industrial",
        "description": "Estação de Tratamento de Água - ETA Xavantes, onde se localiza também o escritório administrativo da SAEG.",
        "government": "administrative",
        "loc_name": "SAEG ETA",
        "name": "SAEG (Sede Administrativa)",
        "office": "government",
        "opening_hours": "24/7",
        "phone": "(12) 3122-7200",
        "website": "https://www.saeg.net.br/reservatorios/",
        "id": "way/944019854"
      },
      "geometry": {
        "type": "Polygon",
        "coordinates": [
          [
            [
              -45.2096806,
              -22.7845844
            ],
            [
              -45.2097315,
              -22.7860359
            ],
            [
              -45.2084897,
              -22.7857071
            ],
            [
              -45.2070439,
              -22.7853806
            ],
            [
              -45.2074738,
              -22.7845145
            ],
            [
              -45.2082791,
              -22.784546
            ],
            [
              -45.2096806,
              -22.7845844
            ]
          ]
        ]
      }
    },
    {
      "type": "Feature",
      "id": "way/951316193",
      "properties": {
        "timestamp": "2021-06-04T23:56:49Z",
        "version": 1,
        "changeset": 105864548,
        "addr:street": "Rua Henrique Dias",
        "addr:suburb": "Centro",
        "building": "yes",
        "government": "administrative",
        "name": "Secretaria Municipal de Assistência Social",
        "office": "government",
        "id": "way/951316193"
      },
      "geometry": {
        "type": "Polygon",
        "coordinates": [
          [
            [
              -45.1872837,
              -22.8170614
            ],
            [
              -45.187332,
              -22.8171183
            ],
            [
              -45.1872489,
              -22.8171925
            ],
            [
              -45.1873266,
              -22.8172394
            ],
            [
              -45.1872489,
              -22.8173235
            ],
            [
              -45.1871362,
              -22.8172172
            ],
            [
              -45.1872837,
              -22.8170614
            ]
          ]
        ]
      }
    },
    {
      "type": "Feature",
      "id": "node/4414284639",
      "properties": {
        "timestamp": "2020-12-12T20:40:22Z",
        "version": 4,
        "changeset": 95736138,
        "addr:city": "Guaratinguetá",
        "addr:housenumber": "100",
        "addr:postcode": "12511-290",
        "addr:street": "Praça Brito Broca",
        "addr:suburb": "Pedregulho",
        "government": "public_service",
        "name": "Poupatempo Guaratinguetá",
        "office": "government",
        "opening_hours": "Mo-Fr 08:00-17:00; Sa 08:00-20:00; Su,PH off",
        "phone": "0800 772 3633",
        "phone_1": "11 2930 3650",
        "website": "https://www.poupatempo.sp.gov.br",
        "wheelchair": "yes",
        "id": "node/4414284639"
      },
      "geometry": {
        "type": "Point",
        "coordinates": [
          -45.2071733,
          -22.7982815
        ]
      }
    },
    {
      "type": "Feature",
      "id": "node/5211418541",
      "properties": {
        "timestamp": "2020-09-23T20:34:48Z",
        "version": 2,
        "changeset": 91390375,
        "addr:city": "Guaratinguetá",
        "addr:housenumber": "27",
        "addr:street": "Praça Conselheiro Rodrigues Alves",
        "addr:suburb": "Centro",
        "government": "administrative",
        "name": "Diretoria de Ensino – Região de Guaratinguetá",
        "office": "government",
        "short_name": "DE Guaratinguetá",
        "website": "https://deguaratingueta.educacao.sp.gov.br/",
        "id": "node/5211418541"
      },
      "geometry": {
        "type": "Point",
        "coordinates": [
          -45.193199,
          -22.8163046
        ]
      }
    },
    {
      "type": "Feature",
      "id": "node/5272307622",
      "properties": {
        "timestamp": "2017-12-08T17:49:52Z",
        "version": 1,
        "changeset": 54465614,
        "addr:city": "Guaratinguetá",
        "addr:housenumber": "100",
        "addr:postcode": "12511-280",
        "addr:street": "Praça Brito Broca",
        "addr:suburb": "Pedregulho",
        "alt_name": "DETRAN",
        "alt_name_1": "9ª CIRETRAN (Unidade Poupatempo)",
        "government": "transportation",
        "name": "9ª CIRETRAN",
        "office": "government",
        "opening_hours": "Mo-Fr 8:00-17:00; Sa 08:00-12:00",
        "website": "http://www.detran.sp.gov.br/wps/portal/portaldetran/detran/enderecos/unidades_e_postos/unidades-do-interior-g-m/",
        "id": "node/5272307622"
      },
      "geometry": {
        "type": "Point",
        "coordinates": [
          -45.2074199,
          -22.798367
        ]
      }
    }
  ]
}
