{
  "type": "FeatureCollection",
  "features": [
    {
      "type": "Feature",
      "id": "way/437657306",
      "properties": {
        "timestamp": "2021-06-03T01:09:38Z",
        "version": 3,
        "changeset": 105745646,
        "addr:city": "Guaratinguetá",
        "addr:street": "Rua Haydee de Castro Oliveira",
        "addr:suburb": "Cohab Bandeirantes",
        "amenity": "social_facility",
        "name": "CEPNSA",
        "id": "way/437657306"
      },
      "geometry": {
        "type": "Polygon",
        "coordinates": [
          [
            [
              -45.1797094,
              -22.8047193
            ],
            [
              -45.1793655,
              -22.8048795
            ],
            [
              -45.1792745,
              -22.8049224
            ],
            [
              -45.1788682,
              -22.8051113
            ],
            [
              -45.1788682,
              -22.8050403
            ],
            [
              -45.1789329,
              -22.8049125
            ],
            [
              -45.1796077,
              -22.8046029
            ],
            [
              -45.1797094,
              -22.8047193
            ]
          ]
        ]
      }
    },
    {
      "type": "Feature",
      "id": "way/437657307",
      "properties": {
        "timestamp": "2021-05-16T15:10:44Z",
        "version": 2,
        "changeset": 104773306,
        "addr:city": "Guaratinguetá",
        "addr:street": "Rua Haydee de Castro Oliveira",
        "amenity": "social_facility",
        "name": "CEPNSA",
        "id": "way/437657307"
      },
      "geometry": {
        "type": "Polygon",
        "coordinates": [
          [
            [
              -45.1793655,
              -22.8048795
            ],
            [
              -45.1793883,
              -22.8049207
            ],
            [
              -45.1792973,
              -22.8049636
            ],
            [
              -45.1792745,
              -22.8049224
            ],
            [
              -45.1793655,
              -22.8048795
            ]
          ]
        ]
      }
    },
    {
      "type": "Feature",
      "id": "way/437660381",
      "properties": {
        "timestamp": "2021-06-03T01:09:38Z",
        "version": 4,
        "changeset": 105745646,
        "addr:city": "Guaratinguetá",
        "addr:housenumber": "6",
        "addr:postcode": "12516-630",
        "addr:street": "Rua Diogo Álvares",
        "amenity": "social_facility",
        "name": "Lar dos Velhinhos São Francisco de Assis",
        "phone": "+55 12 3125-1564",
        "social_facility": "group_home",
        "social_facility:for": "senior",
        "source": "http://www.ongsbrasil.com.br/default.asp?Pag=2&Destino=InstituicoesTemplate&CodigoInstituicao=14161&Instituicao=Lar%20dos%20Velhinhos",
        "wheelchair": "yes",
        "id": "way/437660381"
      },
      "geometry": {
        "type": "Polygon",
        "coordinates": [
          [
            [
              -45.1791281,
              -22.8070154
            ],
            [
              -45.1791635,
              -22.8071765
            ],
            [
              -45.178878,
              -22.8074012
            ],
            [
              -45.1787955,
              -22.8072269
            ],
            [
              -45.1787527,
              -22.8070288
            ],
            [
              -45.1791281,
              -22.8070154
            ]
          ]
        ]
      }
    },
    {
      "type": "Feature",
      "id": "way/545515732",
      "properties": {
        "timestamp": "2021-01-30T22:44:19Z",
        "version": 2,
        "changeset": 98431699,
        "addr:city": "Guaratinguetá",
        "addr:postcode": "12508-010",
        "addr:street": "Estrada Presidente Tancredo Neves",
        "addr:suburb": "Parque São Francisco",
        "amenity": "social_facility",
        "building": "yes",
        "building:levels": "1",
        "fax": "+55 12 3133 2997",
        "name": "CRIA – Centro de Referência A Infância e Adolescência",
        "phone": "+55 12 3133 7918",
        "website": "http://criaguara.blogspot.com.br/",
        "id": "way/545515732"
      },
      "geometry": {
        "type": "Polygon",
        "coordinates": [
          [
            [
              -45.2207684,
              -22.8004637
            ],
            [
              -45.2206934,
              -22.8006021
            ],
            [
              -45.220531,
              -22.8005329
            ],
            [
              -45.2206045,
              -22.8003931
            ],
            [
              -45.2207684,
              -22.8004637
            ]
          ]
        ]
      }
    },
    {
      "type": "Feature",
      "id": "node/4354517672",
      "properties": {
        "timestamp": "2023-11-15T12:18:02Z",
        "version": 3,
        "changeset": 144049287,
        "addr:city": "Guaratinguetá",
        "addr:housenumber": "260",
        "addr:postcode": "12517-120",
        "addr:street": "Rua Reverendo Eugênio Joaquim da Silveira",
        "addr:suburb": "Cohab Bandeirantes",
        "amenity": "social_facility",
        "name": "Narcóticos Anônimos",
        "opening_hours": "Mo 20:00; Th 20:00; Su 0930",
        "social_facility": "community_centre",
        "social_facility:for": "drug_addicted",
        "website": "https://www.na.org.br/grupo/esperanca_818.html",
        "wheelchair": "limited",
        "id": "node/4354517672"
      },
      "geometry": {
        "type": "Point",
        "coordinates": [
          -45.1807396,
          -22.8025298
        ]
      }
    }
  ]
}
