{
  "type": "FeatureCollection",
  "features": [
    {
      "type": "Feature",
      "id": "way/884362596",
      "properties": {
        "timestamp": "2020-12-13T15:16:46Z",
        "version": 1,
        "changeset": 95758879,
        "addr:housenumber": "1154",
        "addr:street": "Avenida João Pessoa",
        "addr:suburb": "Pedregulho",
        "amenity": "veterinary",
        "building": "yes",
        "name": "Guaravet Clínica Veterinária",
        "id": "way/884362596"
      },
      "geometry": {
        "type": "Polygon",
        "coordinates": [
          [
            [
              -45.202146,
              -22.8037173
            ],
            [
              -45.2020746,
              -22.8037832
            ],
            [
              -45.2019435,
              -22.8036596
            ],
            [
              -45.2020091,
              -22.8035965
            ],
            [
              -45.202146,
              -22.8037173
            ]
          ]
        ]
      }
    },
    {
      "type": "Feature",
      "id": "way/884364437",
      "properties": {
        "timestamp": "2020-12-13T15:25:55Z",
        "version": 1,
        "changeset": 95759174,
        "addr:housenumber": "726",
        "addr:street": "Avenida João Pessoa",
        "addr:suburb": "Pedregulho",
        "amenity": "veterinary",
        "building": "yes",
        "name": "Clinicão",
        "phone": "+55 12 3125 1676",
        "start_date": "1993",
        "id": "way/884364437"
      },
      "geometry": {
        "type": "Polygon",
        "coordinates": [
          [
            [
              -45.1992216,
              -22.8065174
            ],
            [
              -45.1991713,
              -22.8065594
            ],
            [
              -45.1990252,
              -22.8064335
            ],
            [
              -45.1990731,
              -22.8063938
            ],
            [
              -45.1992216,
              -22.8065174
            ]
          ]
        ]
      }
    },
    {
      "type": "Feature",
      "id": "way/953612221",
      "properties": {
        "timestamp": "2021-06-12T01:41:15Z",
        "version": 1,
        "changeset": 106237261,
        "addr:street": "Avenida Carlos Rabelo Júnior",
        "addr:suburb": "Vila Paraíba",
        "amenity": "veterinary",
        "building": "yes",
        "name": "Pet,cão",
        "phone": "+55 12 3013 5113",
        "id": "way/953612221"
      },
      "geometry": {
        "type": "Polygon",
        "coordinates": [
          [
            [
              -45.1917653,
              -22.8080725
            ],
            [
              -45.1916248,
              -22.8081808
            ],
            [
              -45.1915815,
              -22.808106
            ],
            [
              -45.1917086,
              -22.8080106
            ],
            [
              -45.1917653,
              -22.8080725
            ]
          ]
        ]
      }
    },
    {
      "type": "Feature",
      "id": "node/7679998185",
      "properties": {
        "timestamp": "2020-07-03T11:08:48Z",
        "version": 1,
        "changeset": 87500111,
        "addr:housenumber": "22",
        "addr:postcode": "12506130",
        "addr:street": "Rua Ronaldo Ottoni de Mesquita",
        "amenity": "veterinary",
        "name": "Clinica Animais",
        "name:en": "Animal's Clinic",
        "opening_hours": "Mo-Sa 08:00-19:00",
        "phone": "31224230",
        "id": "node/7679998185"
      },
      "geometry": {
        "type": "Point",
        "coordinates": [
          -45.2079793,
          -22.8044231
        ]
      }
    }
  ]
}
