{
  "type": "FeatureCollection",
  "features": [
    {
      "type": "Feature",
      "id": "way/806166884",
      "properties": {
        "timestamp": "2023-09-21T00:52:55Z",
        "version": 3,
        "changeset": 141535723,
        "addr:street": "Rua Francisco Glicério",
        "addr:suburb": "Nova Suíça",
        "amenity": "pharmacy",
        "brand": "Droga Raia",
        "brand:wikidata": "Q10357101",
        "building": "yes",
        "delivery": "+55 19 99989 5865",
        "dispensing": "yes",
        "drive_through": "no",
        "healthcare": "pharmacy",
        "name": "Droga Raia",
        "id": "way/806166884"
      },
      "geometry": {
        "type": "Polygon",
        "coordinates": [
          [
            [
              -47.0075341,
              -22.9743436
            ],
            [
              -47.0076149,
              -22.9744606
            ],
            [
              -47.007508,
              -22.9745215
            ],
            [
              -47.0073965,
              -22.974433
            ],
            [
              -47.0075341,
              -22.9743436
            ]
          ]
        ]
      }
    },
    {
      "type": "Feature",
      "id": "way/1199597623",
      "properties": {
        "timestamp": "2023-08-19T00:25:35Z",
        "version": 3,
        "changeset": 140077939,
        "addr:postcode": "13273-551",
        "addr:street": "Rua Pedro Gabetta",
        "addr:suburb": "Jardim Maria Rosa",
        "amenity": "pharmacy",
        "brand": "Drogasil",
        "brand:wikidata": "Q5308185",
        "building": "yes",
        "dispensing": "yes",
        "drive_through": "no",
        "healthcare": "pharmacy",
        "name": "Drogasil",
        "opening_hours": "Mo-Su,PH 07:00-23:00",
        "payment:cash": "yes",
        "payment:coins": "yes",
        "payment:credit_cards": "yes",
        "payment:debit_cards": "yes",
        "payment:notes": "yes",
        "website": "https://www.drogasil.com.br/",
        "wheelchair": "yes",
        "id": "way/1199597623"
      },
      "geometry": {
        "type": "Polygon",
        "coordinates": [
          [
            [
              -46.9758701,
              -22.9494406
            ],
            [
              -46.9758191,
              -22.9496382
            ],
            [
              -46.975677,
              -22.9496184
            ],
            [
              -46.9757199,
              -22.9494258
            ],
            [
              -46.9758701,
              -22.9494406
            ]
          ]
        ]
      }
    },
    {
      "type": "Feature",
      "id": "way/1199963293",
      "properties": {
        "timestamp": "2023-08-19T17:38:39Z",
        "version": 1,
        "changeset": 140104777,
        "addr:housenumber": "3986",
        "addr:street": "Avenida Joaquim Alves Corrêa",
        "amenity": "pharmacy",
        "building": "yes",
        "dispensing": "yes",
        "drive_through": "no",
        "healthcare": "pharmacy",
        "name": "FarmaCintra",
        "id": "way/1199963293"
      },
      "geometry": {
        "type": "Polygon",
        "coordinates": [
          [
            [
              -47.005324,
              -22.9760651
            ],
            [
              -47.0053714,
              -22.9761144
            ],
            [
              -47.0053454,
              -22.9761355
            ],
            [
              -47.0053423,
              -22.9761693
            ],
            [
              -47.0052811,
              -22.9762031
            ],
            [
              -47.0052169,
              -22.9761228
            ],
            [
              -47.0052536,
              -22.9760933
            ],
            [
              -47.005301,
              -22.9760806
            ],
            [
              -47.005324,
              -22.9760651
            ]
          ]
        ]
      }
    },
    {
      "type": "Feature",
      "id": "way/1202201028",
      "properties": {
        "timestamp": "2023-08-29T22:06:29Z",
        "version": 2,
        "changeset": 140561382,
        "addr:street": "Avenida Rosa Belmiro Ramos",
        "amenity": "pharmacy",
        "brand": "Droga Raia",
        "brand:wikidata": "Q10357101",
        "building": "yes",
        "dispensing": "yes",
        "drive_through": "no",
        "healthcare": "pharmacy",
        "name": "Droga Raia",
        "id": "way/1202201028"
      },
      "geometry": {
        "type": "Polygon",
        "coordinates": [
          [
            [
              -46.9881592,
              -22.9776565
            ],
            [
              -46.9881565,
              -22.9777227
            ],
            [
              -46.9879814,
              -22.9777259
            ],
            [
              -46.9879835,
              -22.9776876
            ],
            [
              -46.9880232,
              -22.9776837
            ],
            [
              -46.9880235,
              -22.9776488
            ],
            [
              -46.9880971,
              -22.9776483
            ],
            [
              -46.9881592,
              -22.9776565
            ]
          ]
        ]
      }
    },
    {
      "type": "Feature",
      "id": "way/1203379976",
      "properties": {
        "timestamp": "2023-08-30T01:16:38Z",
        "version": 1,
        "changeset": 140564296,
        "addr:housenumber": "617",
        "addr:street": "Rua João Bissoto Filho",
        "amenity": "pharmacy",
        "building": "yes",
        "dispensing": "yes",
        "drive_through": "no",
        "healthcare": "pharmacy",
        "phone": "+55 19 3871 7523",
        "id": "way/1203379976"
      },
      "geometry": {
        "type": "Polygon",
        "coordinates": [
          [
            [
              -46.9865802,
              -22.9799758
            ],
            [
              -46.9865732,
              -22.9800096
            ],
            [
              -46.9863638,
              -22.9799729
            ],
            [
              -46.9863838,
              -22.9799414
            ],
            [
              -46.9865802,
              -22.9799758
            ]
          ]
        ]
      }
    },
    {
      "type": "Feature",
      "id": "way/1212585495",
      "properties": {
        "timestamp": "2023-10-02T18:10:17Z",
        "version": 2,
        "changeset": 142051320,
        "addr:housenumber": "763",
        "addr:street": "Avenida dos Esportes",
        "addr:suburb": "Vila Bissoto",
        "amenity": "pharmacy",
        "building": "yes",
        "dispensing": "yes",
        "drive_through": "no",
        "healthcare": "pharmacy",
        "mobile": "+55 19 99118 6551",
        "name": "Drogarias Ultra Popular",
        "website": "https://www.drogariasultrapopular.com.br/",
        "id": "way/1212585495"
      },
      "geometry": {
        "type": "Polygon",
        "coordinates": [
          [
            [
              -46.9992205,
              -22.9763984
            ],
            [
              -46.9992612,
              -22.9764853
            ],
            [
              -46.9992189,
              -22.9765228
            ],
            [
              -46.9991944,
              -22.9765153
            ],
            [
              -46.9990821,
              -22.9763744
            ],
            [
              -46.9991668,
              -22.9763174
            ],
            [
              -46.9992205,
              -22.9763984
            ]
          ]
        ]
      }
    },
    {
      "type": "Feature",
      "id": "way/1212585496",
      "properties": {
        "timestamp": "2023-10-02T18:06:08Z",
        "version": 1,
        "changeset": 142051188,
        "addr:housenumber": "803",
        "addr:postcode": "13270-210",
        "addr:street": "Avenida dos Esportes",
        "addr:suburb": "Vila Bissoto",
        "amenity": "pharmacy",
        "brand": "Drogaria São Paulo",
        "brand:wikidata": "Q5308184",
        "building": "yes",
        "contact:phone": "+55 19 3244 6691",
        "dispensing": "yes",
        "drive_through": "no",
        "healthcare": "pharmacy",
        "name": "Drogaria São Paulo",
        "opening_hours": "24/7",
        "phone": "+55 19 3244 6689",
        "id": "way/1212585496"
      },
      "geometry": {
        "type": "Polygon",
        "coordinates": [
          [
            [
              -46.9993589,
              -22.9767717
            ],
            [
              -46.9993947,
              -22.9768361
            ],
            [
              -46.999227,
              -22.9769186
            ],
            [
              -46.9991814,
              -22.9768331
            ],
            [
              -46.9992352,
              -22.9767912
            ],
            [
              -46.9992466,
              -22.9768182
            ],
            [
              -46.9993589,
              -22.9767717
            ]
          ]
        ]
      }
    },
    {
      "type": "Feature",
      "id": "way/1213739564",
      "properties": {
        "timestamp": "2023-10-07T01:37:12Z",
        "version": 2,
        "changeset": 142252801,
        "addr:housenumber": "641",
        "addr:street": "Avenida Dom Nery",
        "addr:suburb": "Vila Embaré",
        "amenity": "pharmacy",
        "building": "yes",
        "healthcare": "pharmacy",
        "name": "Modherna Farmácia de Manipulação",
        "id": "way/1213739564"
      },
      "geometry": {
        "type": "Polygon",
        "coordinates": [
          [
            [
              -47.0039165,
              -22.9673817
            ],
            [
              -47.0040142,
              -22.9674837
            ],
            [
              -47.0039539,
              -22.9675392
            ],
            [
              -47.0038529,
              -22.9674222
            ],
            [
              -47.0039165,
              -22.9673817
            ]
          ]
        ]
      }
    },
    {
      "type": "Feature",
      "id": "way/1213741468",
      "properties": {
        "timestamp": "2023-10-07T01:43:54Z",
        "version": 1,
        "changeset": 142252861,
        "addr:housenumber": "575",
        "addr:street": "Avenida Dom Nery",
        "amenity": "pharmacy",
        "building": "yes",
        "healthcare": "pharmacy",
        "name": "Multidrogas",
        "id": "way/1213741468"
      },
      "geometry": {
        "type": "Polygon",
        "coordinates": [
          [
            [
              -47.0033319,
              -22.9677476
            ],
            [
              -47.0034247,
              -22.967881
            ],
            [
              -47.0033384,
              -22.9679275
            ],
            [
              -47.003257,
              -22.9677791
            ],
            [
              -47.0033319,
              -22.9677476
            ]
          ]
        ]
      }
    },
    {
      "type": "Feature",
      "id": "node/4524003391",
      "properties": {
        "timestamp": "2023-08-15T23:08:22Z",
        "version": 3,
        "changeset": 139938412,
        "amenity": "pharmacy",
        "healthcare": "pharmacy",
        "name": "Multi Farma",
        "name:en": "Multi Farma",
        "name:pt": "Multi Farma",
        "id": "node/4524003391"
      },
      "geometry": {
        "type": "Point",
        "coordinates": [
          -46.996751,
          -22.9737599
        ]
      }
    },
    {
      "type": "Feature",
      "id": "node/8908949805",
      "properties": {
        "timestamp": "2023-08-19T16:45:52Z",
        "version": 2,
        "changeset": 140102862,
        "addr:city": "Valinhos",
        "addr:housenumber": "586",
        "addr:postcode": "13276-000",
        "addr:street": "Rua Antônio Carlos",
        "addr:suburb": "Vila Olivo",
        "amenity": "pharmacy",
        "dispensing": "yes",
        "drive_through": "no",
        "healthcare": "pharmacy",
        "name": "Farmácia São Luiz",
        "id": "node/8908949805"
      },
      "geometry": {
        "type": "Point",
        "coordinates": [
          -46.9929012,
          -22.9735419
        ]
      }
    },
    {
      "type": "Feature",
      "id": "node/11123757220",
      "properties": {
        "timestamp": "2023-08-18T01:52:45Z",
        "version": 2,
        "changeset": 140035967,
        "addr:street": "Avenida João Antunes dos Santos",
        "amenity": "pharmacy",
        "delivery": "yes",
        "dispensing": "yes",
        "drive_through": "no",
        "healthcare": "pharmacy",
        "name": "Drogaria Pinheiros",
        "phone": "+55 19 3871 2054",
        "id": "node/11123757220"
      },
      "geometry": {
        "type": "Point",
        "coordinates": [
          -46.982599,
          -22.9640252
        ]
      }
    },
    {
      "type": "Feature",
      "id": "node/11128643060",
      "properties": {
        "timestamp": "2023-08-19T19:31:56Z",
        "version": 1,
        "changeset": 140108188,
        "addr:housenumber": "2745",
        "addr:street": "Avenida Onze de Agosto",
        "amenity": "pharmacy",
        "drive_through": "no",
        "healthcare": "pharmacy",
        "name": "Farmácia Drogamaxx",
        "opening_hours": "Mo-Su,PH 06:00-24:00",
        "phone": "+55 19 3829 2753",
        "id": "node/11128643060"
      },
      "geometry": {
        "type": "Point",
        "coordinates": [
          -47.0107215,
          -22.9637321
        ]
      }
    },
    {
      "type": "Feature",
      "id": "node/11149266461",
      "properties": {
        "timestamp": "2023-08-28T01:07:51Z",
        "version": 1,
        "changeset": 140472205,
        "addr:housenumber": "572",
        "addr:street": "Rua dos Amarílis",
        "amenity": "pharmacy",
        "healthcare": "pharmacy",
        "name": "ClickFarma",
        "id": "node/11149266461"
      },
      "geometry": {
        "type": "Point",
        "coordinates": [
          -46.9766279,
          -22.9500483
        ]
      }
    },
    {
      "type": "Feature",
      "id": "node/11175446357",
      "properties": {
        "timestamp": "2023-09-07T21:36:30Z",
        "version": 2,
        "changeset": 140959398,
        "addr:postcode": "13275-110",
        "addr:street": "Rua Luiz Bissoto",
        "addr:suburb": "Jardim Santa Rosa",
        "amenity": "pharmacy",
        "dispensing": "yes",
        "drive_through": "no",
        "email": "valedasaude@yahoo.com.br",
        "healthcare": "pharmacy",
        "name": "Vale da Saúde Farmácia e Perfumaria",
        "phone": "+55 19 3929 7770",
        "id": "node/11175446357"
      },
      "geometry": {
        "type": "Point",
        "coordinates": [
          -46.9859314,
          -22.9745264
        ]
      }
    },
    {
      "type": "Feature",
      "id": "node/11179309510",
      "properties": {
        "timestamp": "2023-09-09T20:11:25Z",
        "version": 1,
        "changeset": 141038586,
        "addr:street": "Rua Geraldo de Gasperi",
        "amenity": "pharmacy",
        "delivery": "yes",
        "dispensing": "yes",
        "drive_through": "no",
        "healthcare": "pharmacy",
        "mobile": "+55 19 98609 6719",
        "name": "Rede NovaBrasil Drogarias",
        "id": "node/11179309510"
      },
      "geometry": {
        "type": "Point",
        "coordinates": [
          -47.0204662,
          -23.0090446
        ]
      }
    },
    {
      "type": "Feature",
      "id": "node/11201325554",
      "properties": {
        "timestamp": "2023-09-19T02:15:24Z",
        "version": 1,
        "changeset": 141447027,
        "addr:housenumber": "416",
        "addr:postcode": "13274-465",
        "addr:street": "Rua Pedro Leardini",
        "addr:suburb": "Chácaras Silvania",
        "amenity": "pharmacy",
        "healthcare": "pharmacy",
        "name": "Drogaria Planalto",
        "id": "node/11201325554"
      },
      "geometry": {
        "type": "Point",
        "coordinates": [
          -47.0248833,
          -22.9772855
        ]
      }
    },
    {
      "type": "Feature",
      "id": "node/11246976479",
      "properties": {
        "timestamp": "2023-10-07T22:02:40Z",
        "version": 2,
        "changeset": 142285289,
        "addr:street": "Avenida Gessy Lever",
        "amenity": "pharmacy",
        "branch": "Loja UPA",
        "dispensing": "yes",
        "drive_through": "no",
        "healthcare": "pharmacy",
        "mobile": "+55 19 99118 6134",
        "name": "Rede Max Farma",
        "phone": "+55 19 3871 5494",
        "id": "node/11246976479"
      },
      "geometry": {
        "type": "Point",
        "coordinates": [
          -46.9935533,
          -22.9626659
        ]
      }
    },
    {
      "type": "Feature",
      "id": "node/11249823981",
      "properties": {
        "timestamp": "2023-10-08T22:55:44Z",
        "version": 1,
        "changeset": 142322475,
        "addr:housenumber": "447",
        "addr:street": "Rua Campos Salles",
        "amenity": "pharmacy",
        "delivery": "yes",
        "dispensing": "yes",
        "drive_through": "no",
        "healthcare": "pharmacy",
        "name": "Campos Salles",
        "payment:credit_cards": "yes",
        "payment:debit_cards": "yes",
        "phone": "+55 19 3871 5746",
        "id": "node/11249823981"
      },
      "geometry": {
        "type": "Point",
        "coordinates": [
          -47.0010164,
          -22.9660617
        ]
      }
    },
    {
      "type": "Feature",
      "id": "node/11269164724",
      "properties": {
        "timestamp": "2023-10-17T13:23:58Z",
        "version": 1,
        "changeset": 142713251,
        "addr:street": "Rua 12 de Outubro",
        "addr:suburb": "Vila Santana",
        "amenity": "pharmacy",
        "dispensing": "yes",
        "drive_through": "no",
        "healthcare": "pharmacy",
        "mobile": "+55 19 99219 7218",
        "name": "Rede Inova",
        "operator": "Farma Rafah",
        "phone": "+55 19 3871 2881",
        "id": "node/11269164724"
      },
      "geometry": {
        "type": "Point",
        "coordinates": [
          -46.9894908,
          -22.9633036
        ]
      }
    },
    {
      "type": "Feature",
      "id": "node/11273318749",
      "properties": {
        "timestamp": "2023-10-18T22:50:59Z",
        "version": 1,
        "changeset": 142785917,
        "addr:street": "Rua Valmir Antônio Capelari",
        "amenity": "pharmacy",
        "branch": "Loja Centenário",
        "dispensing": "yes",
        "drive_through": "no",
        "healthcare": "pharmacy",
        "mobile": "+55 19 97416 2876",
        "name": "Rede MaxFarma",
        "phone": "+55 19 3849 6954",
        "id": "node/11273318749"
      },
      "geometry": {
        "type": "Point",
        "coordinates": [
          -46.9757426,
          -22.9501685
        ]
      }
    }
  ]
}
