{
  "type": "FeatureCollection",
  "features": [
    {
      "type": "Feature",
      "id": "way/1204339557",
      "properties": {
        "timestamp": "2023-09-02T02:28:27Z",
        "version": 1,
        "changeset": 140702005,
        "addr:street": "Rua João Previtale",
        "amenity": "veterinary",
        "building": "yes",
        "name": "Costa Arruda Medicamentos Veterinários",
        "id": "way/1204339557"
      },
      "geometry": {
        "type": "Polygon",
        "coordinates": [
          [
            [
              -46.9977899,
              -22.9466349
            ],
            [
              -46.9978346,
              -22.9466888
            ],
            [
              -46.9976851,
              -22.9467867
            ],
            [
              -46.9976651,
              -22.9467157
            ],
            [
              -46.9977899,
              -22.9466349
            ]
          ]
        ]
      }
    },
    {
      "type": "Feature",
      "id": "way/1206487569",
      "properties": {
        "timestamp": "2023-09-09T23:03:53Z",
        "version": 1,
        "changeset": 141042598,
        "addr:housenumber": "672",
        "addr:postcode": "13279-020",
        "addr:street": "Avenida Hélio Pires de Camargo",
        "addr:suburb": "Vale Verde",
        "amenity": "veterinary",
        "building": "yes",
        "name": "Espaço Kão",
        "opening_hours": "Mo-Fr 09:00-19:00; Sa 09:00-16:00; PH off",
        "phone": "+55 19 3881 2101",
        "id": "way/1206487569"
      },
      "geometry": {
        "type": "Polygon",
        "coordinates": [
          [
            [
              -47.0298,
              -23.0194017
            ],
            [
              -47.029809,
              -23.0195378
            ],
            [
              -47.0296723,
              -23.0195563
            ],
            [
              -47.0296746,
              -23.019412
            ],
            [
              -47.0298,
              -23.0194017
            ]
          ]
        ]
      }
    },
    {
      "type": "Feature",
      "id": "way/1207786580",
      "properties": {
        "timestamp": "2023-09-14T14:43:00Z",
        "version": 1,
        "changeset": 141261522,
        "addr:street": "Avenida Independência",
        "amenity": "veterinary",
        "building": "yes",
        "mobile": "+55 19 98237 2520",
        "name": "VitalVet Clínica Veterinária",
        "phone": "+55 19 3849 3702",
        "id": "way/1207786580"
      },
      "geometry": {
        "type": "Polygon",
        "coordinates": [
          [
            [
              -47.0004924,
              -22.9809188
            ],
            [
              -47.0005334,
              -22.9809792
            ],
            [
              -47.000407,
              -22.981052
            ],
            [
              -47.000366,
              -22.9809916
            ],
            [
              -47.0004924,
              -22.9809188
            ]
          ]
        ]
      }
    },
    {
      "type": "Feature",
      "id": "node/11126142123",
      "properties": {
        "timestamp": "2023-08-18T19:31:59Z",
        "version": 1,
        "changeset": 140071479,
        "addr:housenumber": "54",
        "addr:street": "Rua Pedro Gabetta",
        "addr:suburb": "Jardim Centenário",
        "amenity": "veterinary",
        "mobile": "+55 19 99797 4344",
        "name": "Pet Shop São Francisco",
        "id": "node/11126142123"
      },
      "geometry": {
        "type": "Point",
        "coordinates": [
          -46.9753766,
          -22.949821
        ]
      }
    },
    {
      "type": "Feature",
      "id": "node/11139901326",
      "properties": {
        "timestamp": "2023-08-23T20:53:46Z",
        "version": 1,
        "changeset": 140292988,
        "addr:street": "Rua das Vitórias Régias",
        "amenity": "veterinary",
        "mobile": "+55 19 98977 7130",
        "name": "Consultório Veterinário",
        "operator": "Vanessa Musolini",
        "id": "node/11139901326"
      },
      "geometry": {
        "type": "Point",
        "coordinates": [
          -46.9824207,
          -22.9544785
        ]
      }
    }
  ]
}
