{
  "type": "FeatureCollection",
  "features": [
    {
      "type": "Feature",
      "id": "way/326847977",
      "properties": {
        "timestamp": "2023-06-21T21:37:08Z",
        "version": 6,
        "changeset": 137623018,
        "addr:city": "Torres",
        "addr:housenumber": "260",
        "addr:postcode": "95560-000",
        "addr:street": "Rua Manoel Jos√© de Matos Pereira",
        "addr:suburb": "Centro",
        "amenity": "hospital",
        "emergency": "yes",
        "healthcare": "hospital",
        "name": "Hospital Nossa Senhora dos Navegantes",
        "phone": "+55 51 3626-9300",
        "ref:CNES": "2707950",
        "ref:vatin": "BR88625686003504",
        "website": "https://www.maededeus.com.br/2010/Institucional/Hospital-NS-Navegantes.aspx",
        "id": "way/326847977"
      },
      "geometry": {
        "type": "Polygon",
        "coordinates": [
          [
            [
              -49.7284041,
              -29.3346128
            ],
            [
              -49.7287259,
              -29.3352543
            ],
            [
              -49.7278842,
              -29.3355751
            ],
            [
              -49.7275624,
              -29.3349336
            ],
            [
              -49.7284041,
              -29.3346128
            ]
          ]
        ]
      }
    }
  ]
}
