{
  "type": "FeatureCollection",
  "features": [
    {
      "type": "Feature",
      "id": "node/9458847343",
      "properties": {
        "timestamp": "2022-01-29T19:39:25Z",
        "version": 1,
        "changeset": 116757500,
        "addr:city": "Cachoeiro de Itapemirim",
        "addr:housenumber": "529",
        "addr:postcode": "29313-656",
        "addr:street": "Rodovia Engenheiro Fabiano Vivacqua",
        "addr:suburb": "Marbrasa",
        "name": "Correia Bike",
        "phone": "+55 28 99908 3627",
        "shop": "bicycle",
        "id": "node/9458847343"
      },
      "geometry": {
        "type": "Point",
        "coordinates": [
          -41.1571493,
          -20.8287667
        ]
      }
    },
    {
      "type": "Feature",
      "id": "node/9584029473",
      "properties": {
        "timestamp": "2022-03-16T23:37:17Z",
        "version": 1,
        "changeset": 118570790,
        "addr:city": "Cachoeiro de Itapemirim",
        "addr:housenumber": "75",
        "addr:postcode": "29310-290",
        "addr:street": "Avenida Mauro Miranda Madureira",
        "addr:suburb": "Teixeira Leite",
        "mobile": "+55 28 98111 3431",
        "name": "Cicle Genovez",
        "opening_hours": "Mo-Fr 08:00-17:00",
        "operator": "Cicle Genovez Cachoeiro Eireli",
        "phone": "+55 28 3521 3700",
        "service:bicycle:parts": "yes",
        "service:bicycle:repair": "yes",
        "shop": "bicycle",
        "id": "node/9584029473"
      },
      "geometry": {
        "type": "Point",
        "coordinates": [
          -41.123474,
          -20.8320905
        ]
      }
    },
    {
      "type": "Feature",
      "id": "node/9584029474",
      "properties": {
        "timestamp": "2022-03-16T23:37:17Z",
        "version": 1,
        "changeset": 118570790,
        "addr:city": "Cachoeiro de Itapemirim",
        "addr:housenumber": "568",
        "addr:postcode": "29310-270",
        "addr:street": "Avenida Mauro Miranda Madureira",
        "addr:suburb": "Elpidio Volpini",
        "mobile": "+55 28 99946 9160",
        "name": "Master Bike",
        "operator": "Jos√© Carlos da Silva",
        "shop": "bicycle",
        "id": "node/9584029474"
      },
      "geometry": {
        "type": "Point",
        "coordinates": [
          -41.1295948,
          -20.8236815
        ]
      }
    }
  ]
}
