{
  "type": "FeatureCollection",
  "features": [
    {
      "type": "Feature",
      "id": "way/227171855",
      "properties": {
        "timestamp": "2016-12-21T04:44:21Z",
        "version": 3,
        "changeset": 44556496,
        "IJSN:administra": "Privada",
        "IJSN:classeCnae": "Profissional",
        "addr:city": "Cachoeiro de Itapemirim",
        "addr:housenumber": "60",
        "addr:place": "Gilberto Machado",
        "addr:postcode": "29303-340",
        "addr:street": "Rua Dona Clarice Toledo de Carvalho",
        "alt_name": "Centro de Ensino Profissional Mário Rezende",
        "amenity": "college",
        "contact:phone": "(28) 3522-4015/3517-5048",
        "name": "SENAI",
        "short_name": "Serviço Nacional de Aprendizagem Industrial",
        "id": "way/227171855"
      },
      "geometry": {
        "type": "Polygon",
        "coordinates": [
          [
            [
              -41.122813,
              -20.8590207
            ],
            [
              -41.1220352,
              -20.8585942
            ],
            [
              -41.1226488,
              -20.8579481
            ],
            [
              -41.1233066,
              -20.8584638
            ],
            [
              -41.122813,
              -20.8590207
            ]
          ]
        ]
      }
    },
    {
      "type": "Feature",
      "id": "node/3477819884",
      "properties": {
        "timestamp": "2019-07-11T17:33:19Z",
        "version": 3,
        "changeset": 72146221,
        "IJSN:administra": "Privada",
        "IJSN:classeCnae": "Profissional",
        "addr:city": "Cachoeiro de Itapemirim",
        "addr:housenumber": "5",
        "addr:place": "Guandú",
        "addr:postcode": "29300-784",
        "addr:street": "Rua Joaquim Vieira",
        "alt_name": "Centro Técnico",
        "amenity": "college",
        "contact:phone": "+55 28 3522-2425",
        "name": "Centro Técnico Apogeu",
        "short_name": "CT",
        "id": "node/3477819884"
      },
      "geometry": {
        "type": "Point",
        "coordinates": [
          -41.1209898,
          -20.8465454
        ]
      }
    },
    {
      "type": "Feature",
      "id": "node/3477819885",
      "properties": {
        "timestamp": "2019-07-11T17:33:19Z",
        "version": 3,
        "changeset": 72146221,
        "IJSN:administra": "Privada",
        "IJSN:classeCnae": "Profissional",
        "addr:city": "Cachoeiro de Itapemirim",
        "addr:housenumber": "60",
        "addr:place": "Gilberto Machado",
        "addr:postcode": "29303-340",
        "addr:street": "Rua Dona Clarice Toledo de Carvalho",
        "alt_name": "Centro de Ensino Profissional",
        "amenity": "college",
        "contact:phone": "+55 28 3522-4015/3517-5048",
        "name": "Centro de Ensino Profissional Mário Rezende",
        "short_name": "CEP",
        "id": "node/3477819885"
      },
      "geometry": {
        "type": "Point",
        "coordinates": [
          -41.1223576,
          -20.858442
        ]
      }
    },
    {
      "type": "Feature",
      "id": "node/3477820425",
      "properties": {
        "timestamp": "2016-12-21T04:44:19Z",
        "version": 2,
        "changeset": 44556496,
        "IJSN:administra": "Privada",
        "IJSN:classeCnae": "Profissional",
        "addr:city": "Cachoeiro de Itapemirim",
        "addr:housenumber": "85",
        "addr:place": "Guandú",
        "addr:postcode": "29300-765",
        "addr:street": "Avenida Beira Rio",
        "amenity": "college",
        "contact:phone": "(28) 3521-7892",
        "name": "Simplincite Educacional",
        "short_name": "SE",
        "id": "node/3477820425"
      },
      "geometry": {
        "type": "Point",
        "coordinates": [
          -41.1194773,
          -20.8465041
        ]
      }
    }
  ]
}
