{
  "type": "FeatureCollection",
  "features": [
    {
      "type": "Feature",
      "id": "node/1018456688",
      "properties": {
        "timestamp": "2022-01-30T19:51:37Z",
        "version": 3,
        "changeset": 116794445,
        "amenity": "dentist",
        "healthcare": "dentist",
        "id": "node/1018456688"
      },
      "geometry": {
        "type": "Point",
        "coordinates": [
          -41.095409,
          -20.8525717
        ]
      }
    },
    {
      "type": "Feature",
      "id": "node/9461699159",
      "properties": {
        "timestamp": "2022-01-31T02:01:35Z",
        "version": 2,
        "changeset": 116802012,
        "addr:city": "Cachoeiro de Itapemirim",
        "addr:housenumber": "1372/1442",
        "addr:postcode": "29310-376",
        "addr:street": "Avenida Jones dos Santos Neves",
        "addr:suburb": "Caiçara",
        "amenity": "dentist",
        "healthcare": "dentist",
        "healthcare:speciality": "general",
        "name": "Letícia Fontoura Corrêa",
        "id": "node/9461699159"
      },
      "geometry": {
        "type": "Point",
        "coordinates": [
          -41.1560215,
          -20.8437259
        ]
      }
    }
  ]
}
