{
  "type": "FeatureCollection",
  "features": [
    {
      "type": "Feature",
      "id": "node/6229245385",
      "properties": {
        "timestamp": "2024-04-09T19:30:13Z",
        "version": 2,
        "changeset": 149791973,
        "addr:street": "Rua José Paes Barreto",
        "amenity": "doctors",
        "healthcare": "doctor",
        "name": "Policlínica",
        "id": "node/6229245385"
      },
      "geometry": {
        "type": "Point",
        "coordinates": [
          -41.1143808,
          -20.8499247
        ]
      }
    },
    {
      "type": "Feature",
      "id": "node/6229440186",
      "properties": {
        "timestamp": "2024-04-09T19:30:13Z",
        "version": 2,
        "changeset": 149791973,
        "amenity": "doctors",
        "healthcare": "doctor",
        "name": "Clínica dos Olhos",
        "opening_hours": "Mo-Fr 08:00-17:00",
        "id": "node/6229440186"
      },
      "geometry": {
        "type": "Point",
        "coordinates": [
          -41.1135611,
          -20.849383
        ]
      }
    },
    {
      "type": "Feature",
      "id": "node/9458847336",
      "properties": {
        "timestamp": "2022-01-29T19:39:25Z",
        "version": 1,
        "changeset": 116757500,
        "addr:city": "Cachoeiro de Itapemirim",
        "addr:housenumber": "529",
        "addr:postcode": "29313-656",
        "addr:street": "Rodovia Engenheiro Fabiano Vivacqua",
        "addr:suburb": "Marbrasa",
        "amenity": "doctors",
        "healthcare": "doctor",
        "healthcare:speciality": "ophthalmology;psychiatry",
        "name": "Center Clínica",
        "operator": "Center Clínica Serviços Médicos e Psicológicos Limitada",
        "phone": "+55 28 3517 7500",
        "id": "node/9458847336"
      },
      "geometry": {
        "type": "Point",
        "coordinates": [
          -41.1572283,
          -20.8293851
        ]
      }
    }
  ]
}
