{
  "type": "FeatureCollection",
  "features": [
    {
      "type": "Feature",
      "id": "way/136557887",
      "properties": {
        "timestamp": "2024-07-04T01:35:09Z",
        "version": 5,
        "changeset": 153524248,
        "addr:city": "Cachoeiro de Itapemirim",
        "addr:housenumber": "70",
        "addr:postcode": "29300-170",
        "addr:street": "Praça Jerônimo Monteiro",
        "addr:suburb": "Centro",
        "building": "public",
        "email": "presidenciacmci@cachoeirodeitapemirim.es.leg.br",
        "government": "legislative",
        "name": "Câmara Municipal de Cachoeiro de Itapemirim",
        "office": "government",
        "opening_hours": "Mo-Fr 08:00-17:00",
        "phone": "+55 28 3526 5622",
        "website": "https://www.cachoeirodeitapemirim.es.leg.br/",
        "id": "way/136557887"
      },
      "geometry": {
        "type": "Polygon",
        "coordinates": [
          [
            [
              -41.1123854,
              -20.8490009
            ],
            [
              -41.1122272,
              -20.8491006
            ],
            [
              -41.1121264,
              -20.8489608
            ],
            [
              -41.1122846,
              -20.8488612
            ],
            [
              -41.1123854,
              -20.8490009
            ]
          ]
        ]
      }
    },
    {
      "type": "Feature",
      "id": "way/136559701",
      "properties": {
        "timestamp": "2022-01-30T11:15:36Z",
        "version": 3,
        "changeset": 116775107,
        "addr:city": "Cachoeiro de Itapemirim",
        "addr:housenumber": "116",
        "addr:postcode": "29300-100",
        "addr:street": "Rua Vinte e Cinco de Março",
        "addr:suburb": "Centro",
        "building": "public",
        "email": "aps07001040@inss.gov.br",
        "government": "administrative",
        "name": "Agência da Previdência Social (Inss) de Cachoeiro de Itapemirim",
        "office": "government",
        "phone": "+55 28 3526 4519",
        "id": "way/136559701"
      },
      "geometry": {
        "type": "Polygon",
        "coordinates": [
          [
            [
              -41.1103837,
              -20.8518208
            ],
            [
              -41.1104321,
              -20.8517459
            ],
            [
              -41.1106233,
              -20.8518538
            ],
            [
              -41.1104641,
              -20.8521002
            ],
            [
              -41.1102825,
              -20.8519977
            ],
            [
              -41.1103502,
              -20.851893
            ],
            [
              -41.1104294,
              -20.8519377
            ],
            [
              -41.1104725,
              -20.8518709
            ],
            [
              -41.1103837,
              -20.8518208
            ]
          ]
        ]
      }
    },
    {
      "type": "Feature",
      "id": "way/1025614260",
      "properties": {
        "timestamp": "2022-01-28T18:57:12Z",
        "version": 1,
        "changeset": 116719445,
        "addr:city": "Cachoeiro de Itapemirim",
        "addr:housenumber": "18",
        "addr:postcode": "29230-810",
        "addr:street": "Rua João Motta",
        "addr:suburb": "Ferroviários",
        "building": "yes",
        "building:levels": "2",
        "government": "tax",
        "name": "Agência da Receita Federal do Brasil",
        "office": "government",
        "id": "way/1025614260"
      },
      "geometry": {
        "type": "Polygon",
        "coordinates": [
          [
            [
              -41.1146062,
              -20.8447748
            ],
            [
              -41.1145147,
              -20.8448897
            ],
            [
              -41.1143928,
              -20.8448118
            ],
            [
              -41.1144863,
              -20.844694
            ],
            [
              -41.1146062,
              -20.8447748
            ]
          ]
        ]
      }
    },
    {
      "type": "Feature",
      "id": "way/1025614265",
      "properties": {
        "timestamp": "2022-01-28T18:57:12Z",
        "version": 1,
        "changeset": 116719445,
        "addr:city": "Cachoeiro de Itapemirim",
        "addr:housenumber": "25",
        "addr:postcode": "29.300-180",
        "addr:street": "Rua Siqueira Lima",
        "addr:suburb": "Centro",
        "building": "yes",
        "building:levels": "4",
        "email": "arecachoeiro@sefaz.es.gov.br",
        "government": "tax",
        "name": "Agência da Receita Estadual de Cachoeiro de Itapemirim",
        "office": "government",
        "opening_hours": "Mo-Fr 10:00-16:00",
        "phone": "+55 28 3636 2200",
        "id": "way/1025614265"
      },
      "geometry": {
        "type": "Polygon",
        "coordinates": [
          [
            [
              -41.1142375,
              -20.8479925
            ],
            [
              -41.1141558,
              -20.8480147
            ],
            [
              -41.1140944,
              -20.8478173
            ],
            [
              -41.1141761,
              -20.8477951
            ],
            [
              -41.1142375,
              -20.8479925
            ]
          ]
        ]
      }
    },
    {
      "type": "Feature",
      "id": "way/1025967694",
      "properties": {
        "timestamp": "2022-01-30T02:12:22Z",
        "version": 2,
        "changeset": 116764880,
        "addr:city": "Cachoeiro de Itapemirim",
        "addr:housenumber": "96",
        "addr:postcode": "29306-505",
        "addr:street": "Avenida Monte Castelo",
        "addr:suburb": "Independência",
        "building": "yes",
        "building:levels": "4",
        "government": "prosecutor",
        "name": "Ministério Público em Cachoeiro de Itapemirim",
        "office": "government",
        "operator": "Ministério Público do Estado do Espírito Santo",
        "phone": "+55 28 3522 6887",
        "id": "way/1025967694"
      },
      "geometry": {
        "type": "Polygon",
        "coordinates": [
          [
            [
              -41.1080463,
              -20.8481674
            ],
            [
              -41.1079296,
              -20.8482545
            ],
            [
              -41.1078457,
              -20.8481563
            ],
            [
              -41.1079624,
              -20.8480692
            ],
            [
              -41.1080463,
              -20.8481674
            ]
          ]
        ]
      }
    },
    {
      "type": "Feature",
      "id": "node/7010963708",
      "properties": {
        "timestamp": "2022-03-19T12:24:42Z",
        "version": 4,
        "changeset": 118664028,
        "addr:city": "Cachoeiro de Itapemirim",
        "addr:housenumber": "Km 03",
        "addr:place": "Pacotuba",
        "addr:postcode": "29323-000",
        "addr:street": "Rodovia Estadual Conselheiro Paulo Barros",
        "addr:suburb": "Fazenda do Estado",
        "email": "febn@incaper.es.gov.br",
        "government": "government",
        "name": "Fazenda Experimental Bananal do Norte - Febn",
        "office": "government",
        "operator": "Instituto Capixaba de Pesquisa, Assistência Técnica e Extensão Rural - Incaper",
        "phone": "+55 28 3539 7198",
        "source": "IBGE",
        "website": "https://incaper.es.gov.br/fazendas",
        "id": "node/7010963708"
      },
      "geometry": {
        "type": "Point",
        "coordinates": [
          -41.290849,
          -20.7540382
        ]
      }
    },
    {
      "type": "Feature",
      "id": "node/9588321141",
      "properties": {
        "timestamp": "2022-03-18T17:47:09Z",
        "version": 1,
        "changeset": 118642379,
        "addr:city": "Cachoeiro de Itapemirim",
        "addr:postcode": "29300-970",
        "addr:suburb": "Monte Líbano",
        "government": "government",
        "name": "Fazenda Experimental de Monte Líbano - Feml",
        "office": "government",
        "operator": "Instituto Capixaba de Pesquisa, Assistência Técnica e Extensão Rural - Incaper",
        "id": "node/9588321141"
      },
      "geometry": {
        "type": "Point",
        "coordinates": [
          -41.106774,
          -20.78238
        ]
      }
    },
    {
      "type": "Feature",
      "id": "node/9958901115",
      "properties": {
        "timestamp": "2022-08-17T10:19:48Z",
        "version": 1,
        "changeset": 125010398,
        "addr:city": "Cachoeiro de Itapemirim",
        "addr:housenumber": "1352",
        "addr:postcode": "29310-376",
        "addr:street": "Avenida Jones dos Santos Neves",
        "addr:suburb": "Caiçara",
        "government": "register_office",
        "name": "Quinto Cartório de Notas de Cachoeiro de Itapemirim",
        "office": "government",
        "phone": "+55 28 3054 1000",
        "id": "node/9958901115"
      },
      "geometry": {
        "type": "Point",
        "coordinates": [
          -41.1558335,
          -20.8443095
        ]
      }
    }
  ]
}
