{
  "type": "FeatureCollection",
  "features": [
    {
      "type": "Feature",
      "id": "way/340543940",
      "properties": {
        "timestamp": "2015-04-26T02:37:27Z",
        "version": 1,
        "changeset": 30489332,
        "IJSN:administra": "Municipal",
        "IJSN:classeCnae": "Infantil",
        "addr:city": "Cachoeiro de Itapemirim",
        "addr:place": "Comunidade Córrego dos Monos",
        "addr:postcode": "29328-000",
        "addr:street": "Rua José Ribeiro Avelar",
        "alt_name": "Escola Municipal de Ensino Básico",
        "amenity": "kindergarten",
        "contact:phone": "(28) 3511-9078",
        "name": "EMEB Teresa de Avelar Picoli",
        "short_name": "EMEB",
        "id": "way/340543940"
      },
      "geometry": {
        "type": "Polygon",
        "coordinates": [
          [
            [
              -41.2104152,
              -20.8681134
            ],
            [
              -41.2099702,
              -20.8684264
            ],
            [
              -41.2096428,
              -20.8680201
            ],
            [
              -41.2100878,
              -20.8677071
            ],
            [
              -41.2104152,
              -20.8681134
            ]
          ]
        ]
      }
    },
    {
      "type": "Feature",
      "id": "way/358982946",
      "properties": {
        "timestamp": "2015-07-06T23:23:17Z",
        "version": 1,
        "changeset": 32461082,
        "IJSN:administra": "Municipal",
        "IJSN:classeCnae": "Infantil",
        "addr:city": "Cachoeiro de Itapemirim",
        "addr:place": "Aeroporto",
        "addr:postcode": "29300-000",
        "addr:street": "Rodovia Ricardo Barbieri",
        "alt_name": "Escola Municipal de Ensino Básico",
        "amenity": "kindergarten",
        "contact:phone": "(28) 3521-4618 / 3521-4000",
        "name": "EMEB Angélica Magnago Lachini",
        "short_name": "EMEB",
        "id": "way/358982946"
      },
      "geometry": {
        "type": "Polygon",
        "coordinates": [
          [
            [
              -41.1803068,
              -20.8288758
            ],
            [
              -41.1804215,
              -20.8290383
            ],
            [
              -41.1802205,
              -20.8291835
            ],
            [
              -41.1801675,
              -20.8289519
            ],
            [
              -41.1803068,
              -20.8288758
            ]
          ]
        ]
      }
    },
    {
      "type": "Feature",
      "id": "way/390893137",
      "properties": {
        "timestamp": "2023-06-07T14:18:42Z",
        "version": 3,
        "changeset": 137058430,
        "IJSN:administra": "Municipal",
        "IJSN:classeCnae": "Infantil",
        "addr:city": "Cachoeiro de Itapemirim",
        "addr:district": "Itaoca",
        "addr:postcode": "29325-000",
        "addr:street": "Rua Pedro Vivacqua",
        "addr:suburb": "Centro",
        "alt_name": "EMEB José Pinto",
        "amenity": "kindergarten",
        "contact:phone": "+55 28 3539 1529",
        "name": "Escola Municipal de Ensino Básico José Pinto",
        "operator": "Município de Cachoeiro de Itapemirim",
        "operator:type": "public",
        "short_name": "EMEB",
        "id": "way/390893137"
      },
      "geometry": {
        "type": "Polygon",
        "coordinates": [
          [
            [
              -41.1294886,
              -20.7304881
            ],
            [
              -41.1291729,
              -20.7308403
            ],
            [
              -41.1289896,
              -20.7307213
            ],
            [
              -41.1292791,
              -20.7303296
            ],
            [
              -41.1294886,
              -20.7304881
            ]
          ]
        ]
      }
    },
    {
      "type": "Feature",
      "id": "way/1024843347",
      "properties": {
        "timestamp": "2022-01-26T11:20:10Z",
        "version": 1,
        "changeset": 116618571,
        "IJSN:administra": "Municipal",
        "IJSN:classeCnae": "Infantil",
        "addr:city": "Cachoeiro de Itapemirim",
        "addr:place": "Luiz Tinoco Fonseca",
        "addr:postcode": "29300-160",
        "addr:street": "Rua Pacífico Pezzodipane",
        "addr:suburb": "Doutor Luiz Tinoco da Fonseca",
        "alt_name": "Escola Municipal de Ensino Básico",
        "amenity": "kindergarten",
        "building": "yes",
        "building:levels": "1",
        "contact:phone": "(28) 3526-8910 / 3521-4372",
        "name": "EMEB Maria Siloti",
        "operator": "Município de Cachoeiro de Itapemirim",
        "operator:type": "public",
        "short_name": "EMEB",
        "id": "way/1024843347"
      },
      "geometry": {
        "type": "Polygon",
        "coordinates": [
          [
            [
              -41.1555818,
              -20.8318661
            ],
            [
              -41.1555879,
              -20.8319151
            ],
            [
              -41.1556499,
              -20.8319084
            ],
            [
              -41.155694,
              -20.8322615
            ],
            [
              -41.1554374,
              -20.8322895
            ],
            [
              -41.1553873,
              -20.8318872
            ],
            [
              -41.1555818,
              -20.8318661
            ]
          ]
        ]
      }
    },
    {
      "type": "Feature",
      "id": "way/1025158779",
      "properties": {
        "timestamp": "2022-01-27T11:13:49Z",
        "version": 1,
        "changeset": 116661539,
        "IJSN:administra": "Municipal",
        "IJSN:classeCnae": "Infantil",
        "addr:city": "Cachoeiro de Itapemirim",
        "addr:housenumber": "24",
        "addr:place": "Waldir Furtado Amorim",
        "addr:postcode": "29300-000",
        "addr:street": "Rua Raul Nassar",
        "addr:suburb": "Waldir Furtado Amorim",
        "alt_name": "Escola Municipal de Ensino Básico",
        "amenity": "kindergarten",
        "building": "yes",
        "building:levels": "2",
        "name": "EMEB Waldir Furtado Amorim",
        "operator": "Município de Cachoeiro de Itapemirim",
        "operator:type": "public",
        "short_name": "EMEB",
        "id": "way/1025158779"
      },
      "geometry": {
        "type": "Polygon",
        "coordinates": [
          [
            [
              -41.1583551,
              -20.839713
            ],
            [
              -41.1583648,
              -20.8397974
            ],
            [
              -41.1580512,
              -20.8398288
            ],
            [
              -41.1580415,
              -20.8397443
            ],
            [
              -41.1583551,
              -20.839713
            ]
          ]
        ]
      }
    },
    {
      "type": "Feature",
      "id": "node/3477820326",
      "properties": {
        "timestamp": "2021-12-20T17:27:42Z",
        "version": 2,
        "changeset": 115175391,
        "IJSN:administra": "Municipal",
        "IJSN:classeCnae": "Infantil",
        "addr:city": "Cachoeiro de Itapemirim",
        "addr:place": "Comunidade Pacotuba",
        "addr:postcode": "29323-000",
        "addr:street": "Rua Antero Soares",
        "addr:suburb": "Pacotuba",
        "alt_name": "Escola Municipal de Ensino Básico",
        "amenity": "kindergarten",
        "contact:phone": "(28) 3539-7019 / 3539-7128",
        "name": "EMEB Abigail dos Santos Simões",
        "short_name": "EMEB",
        "id": "node/3477820326"
      },
      "geometry": {
        "type": "Point",
        "coordinates": [
          -41.2735302,
          -20.7642928
        ]
      }
    },
    {
      "type": "Feature",
      "id": "node/3477820327",
      "properties": {
        "timestamp": "2022-08-12T23:26:32Z",
        "version": 3,
        "changeset": 124836782,
        "IJSN:administra": "Municipal",
        "IJSN:classeCnae": "Infantil",
        "addr:city": "Cachoeiro de Itapemirim",
        "addr:place": "Nova Brasília",
        "addr:postcode": "29301-816",
        "addr:street": "Rua José Dias Lobato",
        "alt_name": "Escola Municipal de Ensino Básico",
        "amenity": "kindergarten",
        "contact:phone": "(28) 3521-2262",
        "short_name": "EMEB",
        "id": "node/3477820327"
      },
      "geometry": {
        "type": "Point",
        "coordinates": [
          -41.1300799,
          -20.8475183
        ]
      }
    },
    {
      "type": "Feature",
      "id": "node/3477820328",
      "properties": {
        "timestamp": "2015-04-26T02:36:31Z",
        "version": 1,
        "changeset": 30489332,
        "IJSN:administra": "Municipal",
        "IJSN:classeCnae": "Infantil",
        "addr:city": "Cachoeiro de Itapemirim",
        "addr:place": "Santa Cecília",
        "addr:postcode": "29307-014",
        "addr:street": "Rua Leto Antônio Duarte",
        "alt_name": "Escola Municipal de Ensino Básico",
        "amenity": "kindergarten",
        "contact:phone": "(28) 3518-7959 / 3521-8100",
        "name": "EMEB Albertina Macedo",
        "short_name": "EMEB",
        "id": "node/3477820328"
      },
      "geometry": {
        "type": "Point",
        "coordinates": [
          -41.1087142,
          -20.8405492
        ]
      }
    },
    {
      "type": "Feature",
      "id": "node/3477820334",
      "properties": {
        "timestamp": "2016-12-21T04:44:14Z",
        "version": 2,
        "changeset": 44556496,
        "IJSN:administra": "Municipal",
        "IJSN:classeCnae": "Infantil",
        "addr:city": "Cachoeiro de Itapemirim",
        "addr:housenumber": "23",
        "addr:place": "Aquidaban",
        "addr:postcode": "29308-210",
        "addr:street": "Rua Cariri",
        "alt_name": "Escola Municipal de Ensino Básico",
        "amenity": "kindergarten",
        "contact:phone": "(28) 2930-8210",
        "name": "EMEB Aurora Estelita Herkenhoff",
        "short_name": "EMEB",
        "id": "node/3477820334"
      },
      "geometry": {
        "type": "Point",
        "coordinates": [
          -41.1171368,
          -20.8425362
        ]
      }
    },
    {
      "type": "Feature",
      "id": "node/3477820335",
      "properties": {
        "timestamp": "2016-12-21T04:44:14Z",
        "version": 2,
        "changeset": 44556496,
        "IJSN:administra": "Municipal",
        "IJSN:classeCnae": "Infantil",
        "addr:city": "Cachoeiro de Itapemirim",
        "addr:housenumber": "23",
        "addr:place": "Baiminas",
        "addr:postcode": "29305-200",
        "addr:street": "Rua Alfredo Martins Amaral",
        "alt_name": "Escola Municipal de Ensino Básico",
        "amenity": "kindergarten",
        "contact:phone": "(28) 3518-4130 / 3517-0186",
        "name": "EMEB Carim Tanure",
        "short_name": "EMEB",
        "id": "node/3477820335"
      },
      "geometry": {
        "type": "Point",
        "coordinates": [
          -41.1027848,
          -20.8605455
        ]
      }
    },
    {
      "type": "Feature",
      "id": "node/3477820337",
      "properties": {
        "timestamp": "2015-04-26T02:36:33Z",
        "version": 1,
        "changeset": 30489332,
        "IJSN:administra": "Municipal",
        "IJSN:classeCnae": "Infantil",
        "addr:city": "Cachoeiro de Itapemirim",
        "addr:place": "Comunidade Conduru",
        "addr:postcode": "29300-000",
        "addr:street": "Rua Coronel Francisco Athayde",
        "alt_name": "Escola Municipal de Ensino Básico",
        "amenity": "kindergarten",
        "name": "EMEB Dolores Gonzales Villa",
        "short_name": "EMEB",
        "id": "node/3477820337"
      },
      "geometry": {
        "type": "Point",
        "coordinates": [
          -41.2053508,
          -20.6743803
        ]
      }
    },
    {
      "type": "Feature",
      "id": "node/3477820338",
      "properties": {
        "timestamp": "2016-12-21T04:44:14Z",
        "version": 2,
        "changeset": 44556496,
        "IJSN:administra": "Municipal",
        "IJSN:classeCnae": "Infantil",
        "addr:city": "Cachoeiro de Itapemirim",
        "addr:housenumber": "49",
        "addr:place": "Rubem Braga",
        "addr:postcode": "29311-127",
        "addr:street": "Rua Plinio Vieira Machado",
        "alt_name": "Escola Municipal de Ensino Básico",
        "amenity": "kindergarten",
        "contact:phone": "(28) 3521-6540",
        "name": "EMEB Doutor João de Deus Madureira Filho",
        "short_name": "EMEB",
        "id": "node/3477820338"
      },
      "geometry": {
        "type": "Point",
        "coordinates": [
          -41.1207919,
          -20.8255454
        ]
      }
    },
    {
      "type": "Feature",
      "id": "node/3477820339",
      "properties": {
        "timestamp": "2016-12-21T04:44:14Z",
        "version": 2,
        "changeset": 44556496,
        "IJSN:administra": "Municipal",
        "IJSN:classeCnae": "Infantil",
        "addr:city": "Cachoeiro de Itapemirim",
        "addr:housenumber": "20",
        "addr:place": "Paraíso",
        "addr:postcode": "29304-785",
        "addr:street": "Rua Norma Pacheco Carreiro",
        "alt_name": "Escola Municipal de Ensino Básico",
        "amenity": "kindergarten",
        "contact:phone": "(28) 3521-6520",
        "name": "EMEB Doutor Pedro Nolasco Teixeira Rezende",
        "short_name": "EMEB",
        "id": "node/3477820339"
      },
      "geometry": {
        "type": "Point",
        "coordinates": [
          -41.1235397,
          -20.8633265
        ]
      }
    },
    {
      "type": "Feature",
      "id": "node/3477820340",
      "properties": {
        "timestamp": "2015-04-26T02:36:33Z",
        "version": 1,
        "changeset": 30489332,
        "IJSN:administra": "Municipal",
        "IJSN:classeCnae": "Infantil",
        "addr:city": "Cachoeiro de Itapemirim",
        "addr:place": "Doutor Gilson Carone",
        "addr:postcode": "29300-000",
        "addr:street": "Rua Marcionílio Alves",
        "alt_name": "Escola Municipal de Ensino Básico",
        "amenity": "kindergarten",
        "name": "EMEB Doutora Rita de Cássia Vieira Vereza",
        "short_name": "EMEB",
        "id": "node/3477820340"
      },
      "geometry": {
        "type": "Point",
        "coordinates": [
          -41.1469164,
          -20.8385818
        ]
      }
    },
    {
      "type": "Feature",
      "id": "node/3477820341",
      "properties": {
        "timestamp": "2015-04-26T02:36:33Z",
        "version": 1,
        "changeset": 30489332,
        "IJSN:administra": "Municipal",
        "IJSN:classeCnae": "Infantil",
        "addr:city": "Cachoeiro de Itapemirim",
        "addr:place": "Valão",
        "addr:postcode": "29209-780",
        "addr:street": "Rua Porfirio Biazatti",
        "alt_name": "Escola Municipal de Ensino Básico",
        "amenity": "kindergarten",
        "contact:phone": "(28) 3522-7948",
        "name": "EMEB Ena Coelho da Silva",
        "short_name": "EMEB",
        "id": "node/3477820341"
      },
      "geometry": {
        "type": "Point",
        "coordinates": [
          -41.1308853,
          -20.824583
        ]
      }
    },
    {
      "type": "Feature",
      "id": "node/3477820342",
      "properties": {
        "timestamp": "2015-04-26T02:36:34Z",
        "version": 1,
        "changeset": 30489332,
        "IJSN:administra": "Municipal",
        "IJSN:classeCnae": "Infantil",
        "addr:city": "Cachoeiro de Itapemirim",
        "addr:place": "Zumbi",
        "addr:postcode": "29308-210",
        "addr:street": "Rua Sérgio Gomes Costa",
        "alt_name": "Escola Municipal de Ensino Básico",
        "amenity": "kindergarten",
        "contact:phone": "(28) 3522-8150 / 3517-0019",
        "name": "EMEB Governador Eurico Vieira de Resende",
        "short_name": "EMEB",
        "id": "node/3477820342"
      },
      "geometry": {
        "type": "Point",
        "coordinates": [
          -41.1307975,
          -20.8528182
        ]
      }
    },
    {
      "type": "Feature",
      "id": "node/3477820343",
      "properties": {
        "timestamp": "2023-06-05T11:51:06Z",
        "version": 3,
        "changeset": 136968941,
        "IJSN:administra": "Municipal",
        "IJSN:classeCnae": "Infantil",
        "addr:city": "Cachoeiro de Itapemirim",
        "addr:place": "Comunidade Burarama",
        "addr:postcode": "29327-000",
        "addr:street": "Rodovia Estadual Conselheiro Paulo Barros",
        "addr:suburb": "Burarama",
        "alt_name": "Escola Municipal de Ensino Básico",
        "amenity": "kindergarten",
        "contact:phone": "(28) 3539-3003 / 3539-3144",
        "name": "EMEB Hylsen Darci Perim",
        "short_name": "EMEB",
        "id": "node/3477820343"
      },
      "geometry": {
        "type": "Point",
        "coordinates": [
          -41.3484517,
          -20.6836669
        ]
      }
    },
    {
      "type": "Feature",
      "id": "node/3477820344",
      "properties": {
        "timestamp": "2015-04-26T02:36:34Z",
        "version": 1,
        "changeset": 30489332,
        "IJSN:administra": "Municipal",
        "IJSN:classeCnae": "Infantil",
        "addr:city": "Cachoeiro de Itapemirim",
        "addr:place": "Monte Belo",
        "addr:postcode": "29300-970",
        "addr:street": "Rua Leonardo Melo da Silva",
        "alt_name": "Escola Municipal de Ensino Básico",
        "amenity": "kindergarten",
        "contact:phone": "(28) 3518-5890 / 3521-8104",
        "name": "EMEB Irmã Margarida",
        "short_name": "EMEB",
        "id": "node/3477820344"
      },
      "geometry": {
        "type": "Point",
        "coordinates": [
          -41.1038167,
          -20.877047
        ]
      }
    },
    {
      "type": "Feature",
      "id": "node/3477820346",
      "properties": {
        "timestamp": "2016-12-21T04:44:14Z",
        "version": 2,
        "changeset": 44556496,
        "IJSN:administra": "Municipal",
        "IJSN:classeCnae": "Infantil",
        "addr:city": "Cachoeiro de Itapemirim",
        "addr:housenumber": "1",
        "addr:place": "Vilage da Luz",
        "addr:postcode": "29309-350",
        "addr:street": "Rua Corinto Barbosa Lima",
        "alt_name": "Escola Municipal de Ensino Básico",
        "amenity": "kindergarten",
        "contact:phone": "(28) 3517-1871",
        "name": "EMEB José Peixoto",
        "short_name": "EMEB",
        "id": "node/3477820346"
      },
      "geometry": {
        "type": "Point",
        "coordinates": [
          -41.1187952,
          -20.822552
        ]
      }
    },
    {
      "type": "Feature",
      "id": "node/3477820350",
      "properties": {
        "timestamp": "2015-04-26T02:36:35Z",
        "version": 1,
        "changeset": 30489332,
        "IJSN:administra": "Municipal",
        "IJSN:classeCnae": "Infantil",
        "addr:city": "Cachoeiro de Itapemirim",
        "addr:place": "Comunidade Alto Gironda",
        "addr:postcode": "29326-000",
        "addr:street": "Rua Principal",
        "alt_name": "Escola Municipal de Ensino Básico",
        "amenity": "kindergarten",
        "contact:phone": "(28) 3523-1565 / 3523-1008",
        "name": "EMEB Laurindo Sasso",
        "short_name": "EMEB",
        "id": "node/3477820350"
      },
      "geometry": {
        "type": "Point",
        "coordinates": [
          -41.0841087,
          -20.7233884
        ]
      }
    },
    {
      "type": "Feature",
      "id": "node/3477820351",
      "properties": {
        "timestamp": "2016-12-21T04:44:15Z",
        "version": 2,
        "changeset": 44556496,
        "IJSN:administra": "Municipal",
        "IJSN:classeCnae": "Infantil",
        "addr:city": "Cachoeiro de Itapemirim",
        "addr:housenumber": "6",
        "addr:place": "Monte Cristo",
        "addr:postcode": "29312-240",
        "addr:street": "Rua Godofredo Adverci",
        "alt_name": "Escola Municipal de Ensino Básico",
        "amenity": "kindergarten",
        "contact:phone": "(28) 3526-8688 / 3521-3588",
        "name": "EMEB Lions Clube Frade e a Freira",
        "short_name": "EMEB",
        "id": "node/3477820351"
      },
      "geometry": {
        "type": "Point",
        "coordinates": [
          -41.1537009,
          -20.8499676
        ]
      }
    },
    {
      "type": "Feature",
      "id": "node/3477820352",
      "properties": {
        "timestamp": "2022-01-30T02:12:22Z",
        "version": 3,
        "changeset": 116764880,
        "IJSN:administra": "Municipal",
        "IJSN:classeCnae": "Infantil",
        "addr:city": "Cachoeiro de Itapemirim",
        "addr:housenumber": "143",
        "addr:place": "Independência",
        "addr:postcode": "29306-505",
        "addr:street": "Avenida Monte Castelo",
        "alt_name": "Escola Municipal de Ensino Básico",
        "amenity": "kindergarten",
        "contact:phone": "(28) 3522-8034 / 3517-0244",
        "name": "EMEB Lorenzo Alves Cassoli",
        "short_name": "EMEB",
        "id": "node/3477820352"
      },
      "geometry": {
        "type": "Point",
        "coordinates": [
          -41.1075671,
          -20.8478534
        ]
      }
    },
    {
      "type": "Feature",
      "id": "node/3477820358",
      "properties": {
        "timestamp": "2015-04-26T02:36:37Z",
        "version": 1,
        "changeset": 30489332,
        "IJSN:administra": "Municipal",
        "IJSN:classeCnae": "Infantil",
        "addr:city": "Cachoeiro de Itapemirim",
        "addr:place": "Basiléia",
        "addr:postcode": "29302-580",
        "addr:street": "Rua Pedro Estelita Herkenhoff",
        "alt_name": "Escola Municipal de Ensino Básico",
        "amenity": "kindergarten",
        "contact:phone": "(28) 3522-8047 / 3521-7968",
        "name": "EMEB Maria Tereza Brandão de Mello",
        "short_name": "EMEB",
        "id": "node/3477820358"
      },
      "geometry": {
        "type": "Point",
        "coordinates": [
          -41.1232559,
          -20.8534383
        ]
      }
    },
    {
      "type": "Feature",
      "id": "node/3477820360",
      "properties": {
        "timestamp": "2023-03-17T22:19:49Z",
        "version": 2,
        "changeset": 133806401,
        "IJSN:administra": "Municipal",
        "IJSN:classeCnae": "Infantil",
        "addr:city": "Cachoeiro de Itapemirim",
        "addr:place": "Alto União",
        "addr:postcode": "29315-010",
        "addr:street": "Rua José Nunes Sobrinho",
        "addr:suburb": "Alto União",
        "alt_name": "Escola Municipal de Ensino Básico",
        "amenity": "kindergarten",
        "contact:phone": "+55 28 3522 8045;+55 28 3521 1803",
        "name": "EMEB Maria das Neves Soares de Albuquerque Espíndula",
        "short_name": "EMEB",
        "id": "node/3477820360"
      },
      "geometry": {
        "type": "Point",
        "coordinates": [
          -41.0999127,
          -20.8827207
        ]
      }
    },
    {
      "type": "Feature",
      "id": "node/3477820361",
      "properties": {
        "timestamp": "2015-04-26T02:36:37Z",
        "version": 1,
        "changeset": 30489332,
        "IJSN:administra": "Municipal",
        "IJSN:classeCnae": "Infantil",
        "addr:city": "Cachoeiro de Itapemirim",
        "addr:place": "Jardim Itapemirim",
        "addr:postcode": "29312-220",
        "addr:street": "Rua João Antônio Vasques",
        "alt_name": "Escola Municipal de Ensino Básico",
        "amenity": "kindergarten",
        "contact:phone": "(28) 3526-8880 / 3521-9096",
        "name": "EMEB Maria das Vitórias Oliveira de Andrade",
        "short_name": "EMEB",
        "id": "node/3477820361"
      },
      "geometry": {
        "type": "Point",
        "coordinates": [
          -41.1536819,
          -20.8544905
        ]
      }
    },
    {
      "type": "Feature",
      "id": "node/3477820362",
      "properties": {
        "timestamp": "2015-04-26T02:36:38Z",
        "version": 1,
        "changeset": 30489332,
        "IJSN:administra": "Municipal",
        "IJSN:classeCnae": "Infantil",
        "addr:city": "Cachoeiro de Itapemirim",
        "addr:place": "Ilha da Luz",
        "addr:postcode": "29308-210",
        "addr:street": "Ilha da Luz",
        "alt_name": "Escola Municipal de Ensino Básico",
        "amenity": "kindergarten",
        "contact:phone": "(28) 3522-8120 / 3511-2100",
        "name": "EMEB Mario Augusto Rocha",
        "short_name": "EMEB",
        "id": "node/3477820362"
      },
      "geometry": {
        "type": "Point",
        "coordinates": [
          -41.1207384,
          -20.8365039
        ]
      }
    },
    {
      "type": "Feature",
      "id": "node/3477820368",
      "properties": {
        "timestamp": "2016-12-21T04:44:15Z",
        "version": 2,
        "changeset": 44556496,
        "IJSN:administra": "Municipal",
        "IJSN:classeCnae": "Infantil",
        "addr:city": "Cachoeiro de Itapemirim",
        "addr:housenumber": "54",
        "addr:place": "Coronel Borges",
        "addr:postcode": "29306-210",
        "addr:street": "Rua Amilcar Figliuzzi",
        "alt_name": "Escola Municipal de Ensino Básico",
        "amenity": "kindergarten",
        "contact:phone": "(28) 3522-8129 / 3521-7316",
        "name": "EMEB Olga Dias da Costa Mendes",
        "short_name": "EMEB",
        "id": "node/3477820368"
      },
      "geometry": {
        "type": "Point",
        "coordinates": [
          -41.0948074,
          -20.8521764
        ]
      }
    },
    {
      "type": "Feature",
      "id": "node/3477820379",
      "properties": {
        "timestamp": "2016-12-21T04:44:16Z",
        "version": 2,
        "changeset": 44556496,
        "IJSN:administra": "Municipal",
        "IJSN:classeCnae": "Infantil",
        "addr:city": "Cachoeiro de Itapemirim",
        "addr:housenumber": "34",
        "addr:place": "Santa Helena",
        "addr:postcode": "29307-015",
        "addr:street": "Rua Dona Bibiana",
        "alt_name": "Escola Municipal de Ensino Básico",
        "amenity": "kindergarten",
        "contact:phone": "(28) 3518-2347 / 3517-8018",
        "name": "EMEB Professor Manoel Gonçalves Maciel",
        "short_name": "EMEB",
        "id": "node/3477820379"
      },
      "geometry": {
        "type": "Point",
        "coordinates": [
          -41.1042344,
          -20.8453413
        ]
      }
    },
    {
      "type": "Feature",
      "id": "node/3477820380",
      "properties": {
        "timestamp": "2015-04-26T02:36:41Z",
        "version": 1,
        "changeset": 30489332,
        "IJSN:administra": "Municipal",
        "IJSN:classeCnae": "Infantil",
        "addr:city": "Cachoeiro de Itapemirim",
        "addr:place": "Recanto",
        "addr:postcode": "29303-040",
        "addr:street": "Rua Álvaro Ramos",
        "alt_name": "Escola Municipal de Ensino Básico",
        "amenity": "kindergarten",
        "contact:phone": "(28) 3522-8378 / 3522-8378",
        "name": "EMEB Professor Paulo Estellita Herkenhoff",
        "short_name": "EMEB",
        "id": "node/3477820380"
      },
      "geometry": {
        "type": "Point",
        "coordinates": [
          -41.1174471,
          -20.8505451
        ]
      }
    },
    {
      "type": "Feature",
      "id": "node/3477820384",
      "properties": {
        "timestamp": "2015-04-26T02:36:41Z",
        "version": 1,
        "changeset": 30489332,
        "IJSN:administra": "Municipal",
        "IJSN:classeCnae": "Infantil",
        "addr:city": "Cachoeiro de Itapemirim",
        "addr:place": "Comunidade Coutinho",
        "addr:postcode": "29302-890",
        "addr:street": "Rua Carlos Viana",
        "alt_name": "Escola Municipal de Ensino Básico",
        "amenity": "kindergarten",
        "contact:phone": "(28) 3539-8269",
        "name": "EMEB Professora Cibélia Teixeira Zippinoti",
        "short_name": "EMEB",
        "id": "node/3477820384"
      },
      "geometry": {
        "type": "Point",
        "coordinates": [
          -41.1932798,
          -20.7547075
        ]
      }
    },
    {
      "type": "Feature",
      "id": "node/3477820386",
      "properties": {
        "timestamp": "2015-04-26T02:36:42Z",
        "version": 1,
        "changeset": 30489332,
        "IJSN:administra": "Municipal",
        "IJSN:classeCnae": "Infantil",
        "addr:city": "Cachoeiro de Itapemirim",
        "addr:place": "Zumbi",
        "addr:postcode": "29302-190",
        "addr:street": "Rua Edith Santana Machado",
        "alt_name": "Escola Municipal de Ensino Básico",
        "amenity": "kindergarten",
        "contact:phone": "(28) 3522-8595",
        "name": "EMEB Professora Idalina Cunha Moraes",
        "short_name": "EMEB",
        "id": "node/3477820386"
      },
      "geometry": {
        "type": "Point",
        "coordinates": [
          -41.1339089,
          -20.8533171
        ]
      }
    },
    {
      "type": "Feature",
      "id": "node/3477820387",
      "properties": {
        "timestamp": "2015-04-26T02:36:42Z",
        "version": 1,
        "changeset": 30489332,
        "IJSN:administra": "Municipal",
        "IJSN:classeCnae": "Infantil",
        "addr:city": "Cachoeiro de Itapemirim",
        "addr:place": "Parque das Laranjeiras",
        "addr:postcode": "29311-130",
        "addr:street": "Rua Maria Rosa Brum de Matos",
        "alt_name": "Escola Municipal de Ensino Básico",
        "amenity": "kindergarten",
        "contact:phone": "(28) 3526-8684 / 3521-8468",
        "name": "EMEB Professora Lucilla Araújo Moreira",
        "short_name": "EMEB",
        "id": "node/3477820387"
      },
      "geometry": {
        "type": "Point",
        "coordinates": [
          -41.1428205,
          -20.8471568
        ]
      }
    },
    {
      "type": "Feature",
      "id": "node/3477820390",
      "properties": {
        "timestamp": "2015-04-26T02:36:42Z",
        "version": 1,
        "changeset": 30489332,
        "IJSN:administra": "Municipal",
        "IJSN:classeCnae": "Infantil",
        "addr:city": "Cachoeiro de Itapemirim",
        "addr:place": "Agostinho Simonato",
        "addr:postcode": "29311-736",
        "addr:street": "Rua Gilvan Almeida",
        "alt_name": "Escola Municipal de Ensino Básico",
        "amenity": "kindergarten",
        "contact:phone": "(28) 3526-8848 / 3521-5132",
        "name": "EMEB Raul Sampaio Cocco",
        "short_name": "EMEB",
        "id": "node/3477820390"
      },
      "geometry": {
        "type": "Point",
        "coordinates": [
          -41.1495817,
          -20.8446567
        ]
      }
    },
    {
      "type": "Feature",
      "id": "node/3477820392",
      "properties": {
        "timestamp": "2016-12-21T04:44:17Z",
        "version": 2,
        "changeset": 44556496,
        "IJSN:administra": "Municipal",
        "IJSN:classeCnae": "Infantil",
        "addr:city": "Cachoeiro de Itapemirim",
        "addr:housenumber": "10",
        "addr:place": "Aquidaban",
        "addr:postcode": "29308-210",
        "addr:street": "Rua Cariri",
        "alt_name": "Escola Municipal de Ensino Básico",
        "amenity": "kindergarten",
        "contact:phone": "(28) 3522-8992 / 3511-2055",
        "name": "EMEB Sandra Monteiro Vargas Piassi",
        "short_name": "EMEB",
        "id": "node/3477820392"
      },
      "geometry": {
        "type": "Point",
        "coordinates": [
          -41.1166146,
          -20.842889
        ]
      }
    },
    {
      "type": "Feature",
      "id": "node/3477820394",
      "properties": {
        "timestamp": "2016-12-21T04:44:17Z",
        "version": 2,
        "changeset": 44556496,
        "IJSN:administra": "Municipal",
        "IJSN:classeCnae": "Infantil",
        "addr:city": "Cachoeiro de Itapemirim",
        "addr:housenumber": "29",
        "addr:place": "Arariguara",
        "addr:postcode": "29305-456",
        "addr:street": "Rua Sebastião Castilho",
        "alt_name": "Escola Municipal de Ensino Básico",
        "amenity": "kindergarten",
        "contact:phone": "(28) 3522-8798 / 3517-0061",
        "name": "EMEB Saturnino Rangel Mauro",
        "short_name": "EMEB",
        "id": "node/3477820394"
      },
      "geometry": {
        "type": "Point",
        "coordinates": [
          -41.0980344,
          -20.8599446
        ]
      }
    },
    {
      "type": "Feature",
      "id": "node/3477820395",
      "properties": {
        "timestamp": "2015-04-26T02:36:43Z",
        "version": 1,
        "changeset": 30489332,
        "IJSN:administra": "Municipal",
        "IJSN:classeCnae": "Infantil",
        "addr:city": "Cachoeiro de Itapemirim",
        "addr:place": "Comunidade Vargem Grande do Soturno",
        "addr:postcode": "29300-000",
        "addr:street": "Rua Principal",
        "alt_name": "Escola Municipal de Ensino Básico",
        "amenity": "kindergarten",
        "name": "EMEB Sebastião da Rosa Machado",
        "short_name": "EMEB",
        "id": "node/3477820395"
      },
      "geometry": {
        "type": "Point",
        "coordinates": [
          -41.0622842,
          -20.7674895
        ]
      }
    },
    {
      "type": "Feature",
      "id": "node/3477820397",
      "properties": {
        "timestamp": "2016-12-21T04:44:17Z",
        "version": 2,
        "changeset": 44556496,
        "IJSN:administra": "Municipal",
        "IJSN:classeCnae": "Infantil",
        "addr:city": "Cachoeiro de Itapemirim",
        "addr:housenumber": "5",
        "addr:place": "Nossa Senhora de Fátima",
        "addr:postcode": "29300-090",
        "addr:street": "Olga Cantarini",
        "alt_name": "Escola Municipal de Ensino Básico",
        "amenity": "kindergarten",
        "name": "EMEB Sirda Rocha dos Santos",
        "short_name": "EMEB",
        "id": "node/3477820397"
      },
      "geometry": {
        "type": "Point",
        "coordinates": [
          -41.1110682,
          -20.8377096
        ]
      }
    },
    {
      "type": "Feature",
      "id": "node/3477820400",
      "properties": {
        "timestamp": "2015-04-26T02:36:44Z",
        "version": 1,
        "changeset": 30489332,
        "IJSN:administra": "Municipal",
        "IJSN:classeCnae": "Infantil",
        "addr:city": "Cachoeiro de Itapemirim",
        "addr:place": "Comunidade Retiro",
        "addr:postcode": "29300-000",
        "alt_name": "Escola Municipal de Ensino Básico",
        "amenity": "kindergarten",
        "name": "EMEB São João da Lancha",
        "short_name": "EMEB",
        "id": "node/3477820400"
      },
      "geometry": {
        "type": "Point",
        "coordinates": [
          -41.0704556,
          -20.9072954
        ]
      }
    },
    {
      "type": "Feature",
      "id": "node/3477820408",
      "properties": {
        "timestamp": "2016-12-21T04:44:18Z",
        "version": 2,
        "changeset": 44556496,
        "IJSN:administra": "Municipal",
        "IJSN:classeCnae": "Infantil",
        "addr:city": "Cachoeiro de Itapemirim",
        "addr:housenumber": "4",
        "addr:place": "Alto Amarelo",
        "addr:postcode": "29305-420",
        "addr:street": "Rua Coronel Jarbas Athaude Coelho",
        "alt_name": "Escola Municipal de Ensino Básico",
        "amenity": "kindergarten",
        "contact:phone": "(28) 3522-8166 / 3517-0184",
        "name": "EMEB Virgínia Athayde Coelho",
        "short_name": "EMEB",
        "id": "node/3477820408"
      },
      "geometry": {
        "type": "Point",
        "coordinates": [
          -41.111395,
          -20.8568529
        ]
      }
    },
    {
      "type": "Feature",
      "id": "node/3477820410",
      "properties": {
        "timestamp": "2015-04-26T02:36:46Z",
        "version": 1,
        "changeset": 30489332,
        "IJSN:administra": "Municipal",
        "IJSN:classeCnae": "Infantil",
        "addr:city": "Cachoeiro de Itapemirim",
        "addr:place": "Amaral",
        "addr:postcode": "29305-160",
        "addr:street": "Rua Coronel Lincoln Vieira Rezende",
        "alt_name": "Escola Municipal de Ensino Básico",
        "amenity": "kindergarten",
        "contact:phone": "(28) 3522-8291 / 3521-7720",
        "name": "EMEB Zeni Pires Ferreira",
        "short_name": "EMEB",
        "id": "node/3477820410"
      },
      "geometry": {
        "type": "Point",
        "coordinates": [
          -41.1065081,
          -20.857321
        ]
      }
    },
    {
      "type": "Feature",
      "id": "node/3477820412",
      "properties": {
        "timestamp": "2015-04-26T02:36:46Z",
        "version": 1,
        "changeset": 30489332,
        "IJSN:administra": "Municipal",
        "IJSN:classeCnae": "Infantil",
        "addr:city": "Cachoeiro de Itapemirim",
        "addr:place": "Vilage da Luz",
        "addr:postcode": "29309-560",
        "addr:street": "Rua Papa Paulo VI",
        "alt_name": "Escola Municipal de Ensino Básico",
        "amenity": "kindergarten",
        "contact:phone": "(28) 3518-9390 / 3517-0160",
        "name": "EMEB Zilda Soares Moura",
        "short_name": "EMEB",
        "id": "node/3477820412"
      },
      "geometry": {
        "type": "Point",
        "coordinates": [
          -41.1185471,
          -20.826758
        ]
      }
    },
    {
      "type": "Feature",
      "id": "node/3477820413",
      "properties": {
        "timestamp": "2015-04-26T02:36:46Z",
        "version": 1,
        "changeset": 30489332,
        "IJSN:administra": "Municipal",
        "IJSN:classeCnae": "Infantil",
        "addr:city": "Cachoeiro de Itapemirim",
        "addr:place": "Ferroviários",
        "addr:postcode": "29308-070",
        "addr:street": "Rua Carlos Fornazier",
        "alt_name": "Escola Municipal de Ensino Básico",
        "amenity": "kindergarten",
        "contact:phone": "(28) 3252-8851 / 3517-2853",
        "name": "EMEB Zilma Coelho Pinto",
        "short_name": "EMEB",
        "id": "node/3477820413"
      },
      "geometry": {
        "type": "Point",
        "coordinates": [
          -41.1147753,
          -20.8453757
        ]
      }
    }
  ]
}
