{
  "type": "FeatureCollection",
  "features": [
    {
      "type": "Feature",
      "id": "way/682521116",
      "properties": {
        "timestamp": "2019-04-08T19:36:54Z",
        "version": 1,
        "changeset": 69020467,
        "amenity": "pharmacy",
        "building": "yes",
        "dispensing": "yes",
        "healthcare": "pharmacy",
        "id": "way/682521116"
      },
      "geometry": {
        "type": "Polygon",
        "coordinates": [
          [
            [
              -41.17457,
              -20.8304214
            ],
            [
              -41.1744855,
              -20.8304402
            ],
            [
              -41.1744895,
              -20.8303261
            ],
            [
              -41.1745807,
              -20.8303186
            ],
            [
              -41.17457,
              -20.8304214
            ]
          ]
        ]
      }
    },
    {
      "type": "Feature",
      "id": "way/685942592",
      "properties": {
        "timestamp": "2019-04-25T18:01:44Z",
        "version": 1,
        "changeset": 69575837,
        "amenity": "pharmacy",
        "building": "yes",
        "dispensing": "yes",
        "healthcare": "pharmacy",
        "id": "way/685942592"
      },
      "geometry": {
        "type": "Polygon",
        "coordinates": [
          [
            [
              -41.1781074,
              -20.831884
            ],
            [
              -41.1779653,
              -20.8318163
            ],
            [
              -41.1780162,
              -20.831711
            ],
            [
              -41.1781637,
              -20.8317888
            ],
            [
              -41.1781074,
              -20.831884
            ]
          ]
        ]
      }
    },
    {
      "type": "Feature",
      "id": "way/1355241334",
      "properties": {
        "timestamp": "2025-01-29T19:39:57Z",
        "version": 1,
        "changeset": 161911379,
        "addr:city": "Cachoeiro de Itapemirim",
        "addr:housenumber": "25",
        "addr:postcode": "29304-500",
        "addr:street": "Praça Gilberto Machado",
        "addr:suburb": "Sumaré",
        "amenity": "pharmacy",
        "building": "yes",
        "dispensing": "yes",
        "healthcare": "pharmacy",
        "mobile": "2835228511",
        "name": "USIMED Sul Capixaba",
        "operator": "Cooperativa de Usuários de Assistência Médica",
        "id": "way/1355241334"
      },
      "geometry": {
        "type": "Polygon",
        "coordinates": [
          [
            [
              -41.1145454,
              -20.8519434
            ],
            [
              -41.1145086,
              -20.8520162
            ],
            [
              -41.114341,
              -20.8519424
            ],
            [
              -41.1143778,
              -20.8518695
            ],
            [
              -41.1144442,
              -20.8518988
            ],
            [
              -41.1145454,
              -20.8519434
            ]
          ]
        ]
      }
    },
    {
      "type": "Feature",
      "id": "node/9448715502",
      "properties": {
        "timestamp": "2022-01-26T00:36:16Z",
        "version": 1,
        "changeset": 116605967,
        "addr:city": "Cachoeiro de Itapemirim",
        "addr:street": "Avenida Alan Kardec",
        "addr:suburb": "Doutor Luiz Tinoco da Fonseca",
        "amenity": "pharmacy",
        "dispensing": "yes",
        "healthcare": "pharmacy",
        "name": "Farmácia Nossa Senhora da Penha",
        "phone": "+55 28 3521 5058",
        "id": "node/9448715502"
      },
      "geometry": {
        "type": "Point",
        "coordinates": [
          -41.157249,
          -20.8318216
        ]
      }
    },
    {
      "type": "Feature",
      "id": "node/9451141613",
      "properties": {
        "timestamp": "2022-01-27T00:13:16Z",
        "version": 2,
        "changeset": 116643590,
        "addr:city": "Cachoeiro de Itapemirim",
        "addr:housenumber": "4",
        "addr:postcode": "29313-236",
        "addr:street": "Avenida Raul Nassar",
        "addr:suburb": "Waldir Furtado Amorim",
        "amenity": "pharmacy",
        "dispensing": "yes",
        "healthcare": "pharmacy",
        "name": "Farmácia Trevo",
        "phone": "+55 28 3521 3697",
        "id": "node/9451141613"
      },
      "geometry": {
        "type": "Point",
        "coordinates": [
          -41.1585106,
          -20.8411616
        ]
      }
    },
    {
      "type": "Feature",
      "id": "node/9455276074",
      "properties": {
        "timestamp": "2022-01-28T11:41:23Z",
        "version": 1,
        "changeset": 116704048,
        "addr:city": "Cachoeiro de Itapemirim",
        "addr:street": "Avenida Doutor Edmar Soares da Silva",
        "addr:suburb": "Doutor Luiz Tinoco Fonseca",
        "amenity": "pharmacy",
        "dispensing": "yes",
        "healthcare": "pharmacy",
        "mobile": "+55 28 99904 9594",
        "name": "Drogaria Coramara",
        "operator": "Itamar Silva Drogaria",
        "phone": "+55 28 3521 9243",
        "id": "node/9455276074"
      },
      "geometry": {
        "type": "Point",
        "coordinates": [
          -41.1538474,
          -20.8296783
        ]
      }
    },
    {
      "type": "Feature",
      "id": "node/9456211473",
      "properties": {
        "timestamp": "2022-01-28T18:57:12Z",
        "version": 1,
        "changeset": 116719445,
        "addr:city": "Cachoeiro de Itapemirim",
        "addr:postcode": "29306-500",
        "addr:street": "Avenida Francisco Lacerda de Aguiar",
        "addr:suburb": "Gilberto Machado",
        "amenity": "pharmacy",
        "brand": "Pague Menos",
        "brand:wikidata": "Q7124466",
        "brand:wikipedia": "pt:Pague Menos",
        "dispensing": "yes",
        "healthcare": "pharmacy",
        "name": "Pague Menos",
        "id": "node/9456211473"
      },
      "geometry": {
        "type": "Point",
        "coordinates": [
          -41.1163795,
          -20.8532717
        ]
      }
    },
    {
      "type": "Feature",
      "id": "node/9456211479",
      "properties": {
        "timestamp": "2022-01-28T18:57:12Z",
        "version": 1,
        "changeset": 116719445,
        "addr:city": "Cachoeiro de Itapemirim",
        "addr:street": "Avenida Francisco Lacerda de Aguiar",
        "addr:suburb": "Gilberto Machado",
        "amenity": "pharmacy",
        "brand": "Drogasil",
        "brand:wikidata": "Q5308185",
        "brand:wikipedia": "pt:Drogasil",
        "dispensing": "yes",
        "healthcare": "pharmacy",
        "name": "Drogasil",
        "wheelchair": "yes",
        "id": "node/9456211479"
      },
      "geometry": {
        "type": "Point",
        "coordinates": [
          -41.1182552,
          -20.8547676
        ]
      }
    },
    {
      "type": "Feature",
      "id": "node/9456211482",
      "properties": {
        "timestamp": "2022-01-28T18:57:12Z",
        "version": 1,
        "changeset": 116719445,
        "addr:city": "Cachoeiro de Itapemirim",
        "addr:housenumber": "2",
        "addr:postcode": "29300-050",
        "addr:street": "Rua Lauro Viana",
        "addr:suburb": "Gilberto Machado",
        "amenity": "pharmacy",
        "dispensing": "yes",
        "healthcare": "pharmacy",
        "name": "Drogaria Mauri",
        "operator": "Drogaria Mauri Limitada",
        "id": "node/9456211482"
      },
      "geometry": {
        "type": "Point",
        "coordinates": [
          -41.1149837,
          -20.8514285
        ]
      }
    },
    {
      "type": "Feature",
      "id": "node/9457864084",
      "properties": {
        "timestamp": "2022-01-29T12:40:45Z",
        "version": 1,
        "changeset": 116742405,
        "addr:city": "Cachoeiro de Itapemirim",
        "addr:housenumber": "30",
        "addr:postcode": "29313-226",
        "addr:street": "Avenida Allan Kardec",
        "addr:suburb": "Doutor Luiz Tinoco da Fonseca",
        "amenity": "pharmacy",
        "dispensing": "yes",
        "healthcare": "pharmacy",
        "mobile": "+55 28 99953 4077",
        "name": "Drogaria Central",
        "phone": "+55 28 3014 0419",
        "id": "node/9457864084"
      },
      "geometry": {
        "type": "Point",
        "coordinates": [
          -41.1574832,
          -20.8335042
        ]
      }
    },
    {
      "type": "Feature",
      "id": "node/9461699146",
      "properties": {
        "timestamp": "2022-01-31T02:01:35Z",
        "version": 2,
        "changeset": 116802012,
        "addr:city": "Cachoeiro de Itapemirim",
        "addr:housenumber": "1372/1442",
        "addr:postcode": "29310-376",
        "addr:street": "Avenida Jones dos Santos Neves",
        "addr:suburb": "Caiçara",
        "amenity": "pharmacy",
        "dispensing": "yes",
        "healthcare": "pharmacy",
        "name": "Drogaria Carla",
        "phone": "+55 28 99994 0275",
        "id": "node/9461699146"
      },
      "geometry": {
        "type": "Point",
        "coordinates": [
          -41.1559727,
          -20.8433574
        ]
      }
    },
    {
      "type": "Feature",
      "id": "node/9584029475",
      "properties": {
        "timestamp": "2022-03-16T23:37:17Z",
        "version": 1,
        "changeset": 118570790,
        "addr:city": "Cachoeiro de Itapemirim",
        "addr:postcode": "29310-270",
        "addr:street": "Avenida Mauro Miranda Madureira",
        "addr:suburb": "Elpidio Volpini",
        "amenity": "pharmacy",
        "dispensing": "yes",
        "healthcare": "pharmacy",
        "name": "Drogaria Consolação",
        "id": "node/9584029475"
      },
      "geometry": {
        "type": "Point",
        "coordinates": [
          -41.1297137,
          -20.8237759
        ]
      }
    },
    {
      "type": "Feature",
      "id": "node/10972187086",
      "properties": {
        "timestamp": "2023-06-12T22:44:54Z",
        "version": 1,
        "changeset": 137262479,
        "addr:city": "Cachoeiro de Itapemirim",
        "addr:district": "Itaoca",
        "addr:postcode": "29325-000",
        "addr:street": "Rua Deoclécio Cossi",
        "addr:suburb": "Centro",
        "amenity": "pharmacy",
        "email": "hiperfarma.melhorpreco@gmail.com",
        "healthcare": "pharmacy",
        "name": "Hiper Farma Melhor Preço",
        "operator": "Hiper Farma Melhor Preço Limitada",
        "phone": "+55 28 3539 1688;+55 28 99902 1703",
        "id": "node/10972187086"
      },
      "geometry": {
        "type": "Point",
        "coordinates": [
          -41.1328626,
          -20.7273035
        ]
      }
    }
  ]
}
