{
  "type": "FeatureCollection",
  "features": [
    {
      "type": "Feature",
      "id": "way/1024692846",
      "properties": {
        "timestamp": "2023-09-07T21:00:14Z",
        "version": 2,
        "changeset": 140958338,
        "addr:city": "Cachoeiro de Itapemirim",
        "addr:postcode": "29313-669",
        "addr:street": "Rua Irmã Giovanna Menechini",
        "addr:suburb": "Marbrasa",
        "amenity": "social_facility",
        "branch": "Diocesana de Cachoeiro de Itapemirim",
        "brand": "Caritas",
        "brand:wikidata": "Q533143",
        "name": "Caritas",
        "operator": "Diocese de Cachoeiro de Itapemirim",
        "operator:type": "religious",
        "phone": "+55 28 3521 184",
        "social_facility": "shelter",
        "social_facility:for": "homeless",
        "id": "way/1024692846"
      },
      "geometry": {
        "type": "Polygon",
        "coordinates": [
          [
            [
              -41.1606535,
              -20.8332107
            ],
            [
              -41.1606295,
              -20.8332363
            ],
            [
              -41.160596,
              -20.8332463
            ],
            [
              -41.160018,
              -20.8331811
            ],
            [
              -41.1599338,
              -20.8322823
            ],
            [
              -41.160701,
              -20.8324695
            ],
            [
              -41.1606535,
              -20.8332107
            ]
          ]
        ]
      }
    },
    {
      "type": "Feature",
      "id": "node/3491299259",
      "properties": {
        "timestamp": "2019-07-07T03:34:18Z",
        "version": 2,
        "changeset": 71972740,
        "IJSN:tipoUnidad": "Hospital Especializado",
        "addr:city": "Cachoeiro de Itapemirim",
        "addr:housenumber": "130",
        "addr:place": "Alto Amarelo",
        "addr:postcode": "29301-280",
        "addr:street": "Rua Professor Gilceu Machado",
        "amenity": "social_facility",
        "contact:phone": "(28) 3521-1944",
        "name": "Clínica de Repouso Santa Izabel LTDA",
        "social_facility": "group_home",
        "id": "node/3491299259"
      },
      "geometry": {
        "type": "Point",
        "coordinates": [
          -41.1093443,
          -20.8592146
        ]
      }
    },
    {
      "type": "Feature",
      "id": "node/3999139400",
      "properties": {
        "timestamp": "2016-02-10T13:37:07Z",
        "version": 1,
        "changeset": 37124622,
        "addr:city": "Cachoeiro de Itapemirim",
        "addr:postcode": "29315-010",
        "addr:street": "Rua José Nunes Sobrinho",
        "addr:suburb": "Alto União",
        "alt_name": "Centro de Referência de Assistência Social",
        "amenity": "social_facility",
        "contact:phone": "(28) 3155-5413",
        "name": "CRAS - Alto União",
        "social_facility": "outreach",
        "source": "IJSN",
        "id": "node/3999139400"
      },
      "geometry": {
        "type": "Point",
        "coordinates": [
          -41.0998949,
          -20.8826914
        ]
      }
    },
    {
      "type": "Feature",
      "id": "node/3999139413",
      "properties": {
        "timestamp": "2023-06-05T11:51:06Z",
        "version": 3,
        "changeset": 136968941,
        "addr:city": "Cachoeiro de Itapemirim",
        "addr:postcode": "29327-000",
        "addr:street": "Rodovia Estadual Conselheiro Paulo Barros",
        "addr:suburb": "Burarama",
        "alt_name": "Centro de Referência de Assistência Social",
        "amenity": "social_facility",
        "contact:phone": "(28) 9919-6109",
        "name": "CRAS - Burarama",
        "social_facility": "outreach",
        "source": "IJSN",
        "id": "node/3999139413"
      },
      "geometry": {
        "type": "Point",
        "coordinates": [
          -41.348656,
          -20.6834617
        ]
      }
    },
    {
      "type": "Feature",
      "id": "node/3999139442",
      "properties": {
        "timestamp": "2016-02-10T13:37:16Z",
        "version": 1,
        "changeset": 37124622,
        "addr:city": "Cachoeiro de Itapemirim",
        "addr:postcode": "29315-745",
        "addr:street": "Rua Aryo Sardemberg",
        "addr:suburb": "Jardim Itapemirim",
        "alt_name": "Centro de Referência de Assistência Social",
        "amenity": "social_facility",
        "contact:phone": "(28) 3155-5329",
        "name": "CRAS - Jardim Itapemirim",
        "social_facility": "outreach",
        "source": "IJSN",
        "id": "node/3999139442"
      },
      "geometry": {
        "type": "Point",
        "coordinates": [
          -41.1527444,
          -20.853579
        ]
      }
    },
    {
      "type": "Feature",
      "id": "node/3999140706",
      "properties": {
        "timestamp": "2016-02-10T13:37:27Z",
        "version": 1,
        "changeset": 37124622,
        "addr:city": "Cachoeiro de Itapemirim",
        "addr:postcode": "29309-357",
        "addr:street": "Rua Pedro Vieira",
        "addr:suburb": "Village da Luz",
        "alt_name": "Centro de Referência de Assistência Social",
        "amenity": "social_facility",
        "contact:phone": "(28) 3155-5259",
        "name": "CRAS - Village da Luz",
        "social_facility": "outreach",
        "source": "IJSN",
        "id": "node/3999140706"
      },
      "geometry": {
        "type": "Point",
        "coordinates": [
          -41.1163924,
          -20.8292322
        ]
      }
    },
    {
      "type": "Feature",
      "id": "node/10970828053",
      "properties": {
        "timestamp": "2023-06-14T21:53:13Z",
        "version": 2,
        "changeset": 137346404,
        "addr:city": "Cachoeiro de Itapemirim",
        "addr:postcode": "29325-000",
        "addr:street": "Rua Pedro Vivacqua",
        "addr:suburb": "Centro",
        "alt": "Cras Itaoca",
        "amenity": "social_facility",
        "email": "crasitaoca@cachoeiro.es.gov.br",
        "name": "Centro de Referência em Assistência Social de Itaoca",
        "operator": "Município de Cachoeiro de Itapemirim",
        "operator:type": "public",
        "phone": "+55 28 3522 9535",
        "social_facility": "day_care",
        "id": "node/10970828053"
      },
      "geometry": {
        "type": "Point",
        "coordinates": [
          -41.1323088,
          -20.7275847
        ]
      }
    }
  ]
}
