{
  "type": "FeatureCollection",
  "features": [
    {
      "type": "Feature",
      "id": "node/5207380949",
      "properties": {
        "timestamp": "2017-11-02T23:07:14Z",
        "version": 1,
        "changeset": 53465424,
        "addr:city": "Muniz Freire",
        "addr:postcode": "29380-000",
        "addr:street": "Rua Ercílio José Areias",
        "addr:suburb": "Centro",
        "name": "Sebastião da Garagem",
        "service:bicycle:repair": "yes",
        "shop": "bicycle",
        "id": "node/5207380949"
      },
      "geometry": {
        "type": "Point",
        "coordinates": [
          -41.4141616,
          -20.4633296
        ]
      }
    },
    {
      "type": "Feature",
      "id": "node/5735253119",
      "properties": {
        "timestamp": "2018-07-03T00:02:47Z",
        "version": 1,
        "changeset": 60361289,
        "addr:city": "Muniz Freire",
        "addr:postcode": "29380-000",
        "addr:street": "Rua Antônio Bazzarella",
        "addr:suburb": "Centro",
        "name": "Alan Bike",
        "shop": "bicycle",
        "id": "node/5735253119"
      },
      "geometry": {
        "type": "Point",
        "coordinates": [
          -41.4131908,
          -20.465544
        ]
      }
    }
  ]
}
