{
  "type": "FeatureCollection",
  "features": [
    {
      "type": "Feature",
      "id": "way/338076449",
      "properties": {
        "timestamp": "2019-07-07T03:34:18Z",
        "version": 5,
        "changeset": 71972740,
        "addr:city": "Muniz Freire",
        "addr:postcode": "29380-000",
        "addr:street": "Rua Cônego José Bazzarella",
        "addr:suburb": "Centro",
        "amenity": "clinic",
        "building": "yes",
        "building:levels": "2",
        "healthcare": "clinic",
        "name": "Unidade de Saúde",
        "id": "way/338076449"
      },
      "geometry": {
        "type": "Polygon",
        "coordinates": [
          [
            [
              -41.4116865,
              -20.4652984
            ],
            [
              -41.4117644,
              -20.4654396
            ],
            [
              -41.4115589,
              -20.4655687
            ],
            [
              -41.411418,
              -20.4654714
            ],
            [
              -41.4116865,
              -20.4652984
            ]
          ]
        ]
      }
    },
    {
      "type": "Feature",
      "id": "way/871500616",
      "properties": {
        "timestamp": "2020-11-13T23:19:13Z",
        "version": 1,
        "changeset": 94090204,
        "addr:city": "Muniz Freire",
        "addr:street": "Rua Maria Ascenção Soares",
        "addr:suburb": "Vieira Machado",
        "amenity": "clinic",
        "building": "yes",
        "healthcare": "clinic",
        "name": "Unidade de Saúde de Vieira Machado",
        "id": "way/871500616"
      },
      "geometry": {
        "type": "Polygon",
        "coordinates": [
          [
            [
              -41.3342205,
              -20.4973205
            ],
            [
              -41.334127,
              -20.497132
            ],
            [
              -41.3342062,
              -20.4970977
            ],
            [
              -41.3342998,
              -20.4972882
            ],
            [
              -41.3342205,
              -20.4973205
            ]
          ]
        ]
      }
    },
    {
      "type": "Feature",
      "id": "node/3474305835",
      "properties": {
        "timestamp": "2018-06-27T21:41:24Z",
        "version": 2,
        "changeset": 60229796,
        "addr:city": "Muniz Freire",
        "addr:street": "Rua Moisés Côgo",
        "addr:suburb": "São Pedro",
        "amenity": "clinic",
        "healthcare": "clinic",
        "name": "Posto de Saúde",
        "id": "node/3474305835"
      },
      "geometry": {
        "type": "Point",
        "coordinates": [
          -41.4460112,
          -20.4345049
        ]
      }
    },
    {
      "type": "Feature",
      "id": "node/11368583239",
      "properties": {
        "timestamp": "2023-11-22T13:32:04Z",
        "version": 1,
        "changeset": 144326851,
        "addr:city": "Muniz Freire",
        "addr:street": "Avenida Argemiro José da Silva",
        "addr:suburb": "Piaçu",
        "amenity": "clinic",
        "healthcare": "clinic",
        "healthcare:speciality": "community;vaccination;dentist",
        "name": "UBS Piaçú",
        "operator": "Prefeitura Municipal de Muniz Freire",
        "operator:type": "government",
        "wheelchair": "yes",
        "id": "node/11368583239"
      },
      "geometry": {
        "type": "Point",
        "coordinates": [
          -41.3917498,
          -20.3379926
        ]
      }
    },
    {
      "type": "Feature",
      "id": "node/11368607074",
      "properties": {
        "timestamp": "2023-11-22T13:43:07Z",
        "version": 1,
        "changeset": 144327273,
        "addr:city": "Muniz Freire",
        "addr:postcode": "29380-000",
        "addr:street": "Rua das Acácias",
        "addr:suburb": "Santa Cecília",
        "amenity": "clinic",
        "healthcare": "clinic",
        "healthcare:speciality": "vaccination;community",
        "name": "ESF Muniz Freire",
        "operator": "Prefeitura Municipal de Muniz Freire",
        "operator:type": "government",
        "id": "node/11368607074"
      },
      "geometry": {
        "type": "Point",
        "coordinates": [
          -41.4111461,
          -20.4627682
        ]
      }
    }
  ]
}
