{
  "type": "FeatureCollection",
  "features": [
    {
      "type": "Feature",
      "id": "way/460121302",
      "properties": {
        "timestamp": "2016-12-17T02:11:21Z",
        "version": 1,
        "changeset": 44461788,
        "addr:city": "Muniz Freire",
        "addr:postcode": "29380-000",
        "addr:street": "Praça Divino Espírito Santo",
        "addr:suburb": "Centro",
        "amenity": "pharmacy",
        "building": "yes",
        "level": "1",
        "name": "Preço Baixo",
        "id": "way/460121302"
      },
      "geometry": {
        "type": "Polygon",
        "coordinates": [
          [
            [
              -41.4134479,
              -20.4636073
            ],
            [
              -41.4133115,
              -20.463528
            ],
            [
              -41.4133412,
              -20.4634593
            ],
            [
              -41.413479,
              -20.4635359
            ],
            [
              -41.4134479,
              -20.4636073
            ]
          ]
        ]
      }
    },
    {
      "type": "Feature",
      "id": "node/5205311677",
      "properties": {
        "timestamp": "2020-04-09T02:51:57Z",
        "version": 2,
        "changeset": 83277660,
        "addr:city": "Muniz Freire",
        "addr:postcode": "29380-000",
        "addr:street": "Praça Divino Espírito Santo",
        "addr:suburb": "Centro",
        "amenity": "pharmacy",
        "healthcare": "pharmacy",
        "name": "Manipulart",
        "id": "node/5205311677"
      },
      "geometry": {
        "type": "Point",
        "coordinates": [
          -41.4139659,
          -20.4632709
        ]
      }
    },
    {
      "type": "Feature",
      "id": "node/5205311708",
      "properties": {
        "timestamp": "2017-11-22T22:38:11Z",
        "version": 2,
        "changeset": 54013848,
        "addr:city": "Muniz Freire",
        "addr:housenumber": "41",
        "addr:postcode": "29380-000",
        "addr:street": "Rua Ercílio José Areias",
        "addr:suburb": "Centro",
        "amenity": "pharmacy",
        "healthcare": "pharmacy",
        "name": "Farmácia Aguiar",
        "id": "node/5205311708"
      },
      "geometry": {
        "type": "Point",
        "coordinates": [
          -41.4144372,
          -20.46327
        ]
      }
    },
    {
      "type": "Feature",
      "id": "node/5205311836",
      "properties": {
        "timestamp": "2020-04-09T02:51:57Z",
        "version": 2,
        "changeset": 83277660,
        "addr:city": "Muniz Freire",
        "addr:postcode": "29380-000",
        "addr:street": "Praça Divino Espírito Santo",
        "addr:suburb": "Centro",
        "amenity": "pharmacy",
        "healthcare": "pharmacy",
        "id": "node/5205311836"
      },
      "geometry": {
        "type": "Point",
        "coordinates": [
          -41.4135984,
          -20.4631917
        ]
      }
    },
    {
      "type": "Feature",
      "id": "node/5207380958",
      "properties": {
        "timestamp": "2020-04-10T22:00:56Z",
        "version": 2,
        "changeset": 83383671,
        "addr:city": "Muniz Freire",
        "addr:housenumber": "22",
        "addr:postcode": "29380-000",
        "addr:street": "Praça Divino Espírito Santo",
        "addr:suburb": "Centro",
        "amenity": "pharmacy",
        "healthcare": "pharmacy",
        "name": "Drogaria Barbosa",
        "id": "node/5207380958"
      },
      "geometry": {
        "type": "Point",
        "coordinates": [
          -41.4131831,
          -20.4639924
        ]
      }
    },
    {
      "type": "Feature",
      "id": "node/5207380990",
      "properties": {
        "timestamp": "2017-11-09T13:02:04Z",
        "version": 2,
        "changeset": 53638691,
        "addr:city": "Muniz Freire",
        "addr:postcode": "29380-000",
        "addr:street": "Praça Divino Espírito Santo",
        "addr:suburb": "Centro",
        "amenity": "pharmacy",
        "healthcare": "pharmacy",
        "name": "Pague Fácil",
        "id": "node/5207380990"
      },
      "geometry": {
        "type": "Point",
        "coordinates": [
          -41.413825,
          -20.463805
        ]
      }
    },
    {
      "type": "Feature",
      "id": "node/5735253094",
      "properties": {
        "timestamp": "2018-07-03T00:02:46Z",
        "version": 1,
        "changeset": 60361289,
        "addr:city": "Muniz Freire",
        "addr:postcode": "29380-000",
        "addr:street": "Rua Cel. Francisco Rocha",
        "addr:suburb": "Centro",
        "amenity": "pharmacy",
        "dispensing": "yes",
        "healthcare": "pharmacy",
        "name": "Saúde Farma",
        "id": "node/5735253094"
      },
      "geometry": {
        "type": "Point",
        "coordinates": [
          -41.4135564,
          -20.4644982
        ]
      }
    }
  ]
}
