{
  "type": "FeatureCollection",
  "features": [
    {
      "type": "Feature",
      "id": "way/338173418",
      "properties": {
        "timestamp": "2016-02-25T02:03:17Z",
        "version": 4,
        "changeset": 37426154,
        "IJSN:administra": "Municipal",
        "IJSN:classeCnae": "Fundamental",
        "addr:city": "Muniz Freire",
        "addr:housenumber": "146",
        "addr:postcode": "29380-000",
        "addr:street": "Rua Manoel Alonso Portela",
        "addr:suburb": "Centro",
        "alt_name": "Escola Municipal de Ensino Fundamental",
        "amenity": "school",
        "contact:phone": "(28) 3544-1164 / 3544-1135",
        "name": "EMEF Professora Lia Therezinha Merçon Rocha",
        "source": "IJSN",
        "id": "way/338173418"
      },
      "geometry": {
        "type": "Polygon",
        "coordinates": [
          [
            [
              -41.4147572,
              -20.4669273
            ],
            [
              -41.415341,
              -20.4668816
            ],
            [
              -41.4153696,
              -20.4671731
            ],
            [
              -41.4148172,
              -20.4672045
            ],
            [
              -41.4147874,
              -20.4670644
            ],
            [
              -41.4147572,
              -20.4669273
            ]
          ]
        ]
      }
    },
    {
      "type": "Feature",
      "id": "way/459473599",
      "properties": {
        "timestamp": "2017-03-23T17:56:57Z",
        "version": 4,
        "changeset": 47103312,
        "addr:city": "Muniz Freire",
        "addr:housenumber": "60",
        "addr:postcode": "29380-000",
        "addr:street": "Rua Capitão João Alves",
        "addr:suburb": "Centro",
        "amenity": "school",
        "description": "Escola Viva",
        "name": "Escola Viva (Bráulio Franco)",
        "note": "Centro Estadual de Ensino Fundamental e Médio em Tempo Integral Bráulio Franco (CEEFMTI Bráulio Franco)",
        "id": "way/459473599"
      },
      "geometry": {
        "type": "Polygon",
        "coordinates": [
          [
            [
              -41.4134814,
              -20.4628362
            ],
            [
              -41.4134006,
              -20.462928
            ],
            [
              -41.4132188,
              -20.4631344
            ],
            [
              -41.4131969,
              -20.4631248
            ],
            [
              -41.4131007,
              -20.4630826
            ],
            [
              -41.4130668,
              -20.4631057
            ],
            [
              -41.4128331,
              -20.4630122
            ],
            [
              -41.4131398,
              -20.4625772
            ],
            [
              -41.4134814,
              -20.4628362
            ]
          ]
        ]
      }
    },
    {
      "type": "Feature",
      "id": "way/603899475",
      "properties": {
        "timestamp": "2020-05-09T18:38:49Z",
        "version": 2,
        "changeset": 84947948,
        "addr:city": "Muniz Freire",
        "addr:postcode": "29380-000",
        "addr:suburb": "Comunidade Assunção",
        "amenity": "school",
        "name": "EMEF Santa Joana",
        "id": "way/603899475"
      },
      "geometry": {
        "type": "Polygon",
        "coordinates": [
          [
            [
              -41.3650152,
              -20.2377289
            ],
            [
              -41.365055,
              -20.2376482
            ],
            [
              -41.3651128,
              -20.2376736
            ],
            [
              -41.3651717,
              -20.2375439
            ],
            [
              -41.3650962,
              -20.2375126
            ],
            [
              -41.3651575,
              -20.2373875
            ],
            [
              -41.3653323,
              -20.2374638
            ],
            [
              -41.3653033,
              -20.2375261
            ],
            [
              -41.3652612,
              -20.2376164
            ],
            [
              -41.3652266,
              -20.2375992
            ],
            [
              -41.3651433,
              -20.2377862
            ],
            [
              -41.3650152,
              -20.2377289
            ]
          ]
        ]
      }
    },
    {
      "type": "Feature",
      "id": "node/3474305836",
      "properties": {
        "timestamp": "2019-07-11T17:33:19Z",
        "version": 5,
        "changeset": 72146221,
        "IJSN:administra": "Municipal",
        "IJSN:classeCnae": "Infantil e Fundamental",
        "addr:city": "Muniz Freire",
        "addr:postcode": "29380-000",
        "addr:street": "Rua Moisés Côgo",
        "addr:suburb": "São Pedro",
        "alt_name": "Escola Municipal de Ensino Fundamental",
        "amenity": "school",
        "contact:phone": "+55 28 9886-5536",
        "name": "EMEF Leovegilia Emiliano da Silva",
        "source": "IJSN",
        "id": "node/3474305836"
      },
      "geometry": {
        "type": "Point",
        "coordinates": [
          -41.4462453,
          -20.4355294
        ]
      }
    },
    {
      "type": "Feature",
      "id": "node/3474305847",
      "properties": {
        "timestamp": "2019-07-11T17:33:19Z",
        "version": 3,
        "changeset": 72146221,
        "IJSN:administra": "Municipal",
        "IJSN:classeCnae": "Infantil e Fundamental",
        "addr:city": "Muniz Freire",
        "addr:housenumber": "67",
        "addr:postcode": "29380-000",
        "addr:street": "Rua Sebastião Costa",
        "addr:suburb": "Itaici",
        "alt_name": "Escola Municipal de Ensino Fundamental",
        "amenity": "school",
        "contact:phone": "+55 28 3544-6015",
        "name": "EMEF Sebastião Costa",
        "source": "IJSN",
        "id": "node/3474305847"
      },
      "geometry": {
        "type": "Point",
        "coordinates": [
          -41.5104553,
          -20.5306408
        ]
      }
    },
    {
      "type": "Feature",
      "id": "node/4024904483",
      "properties": {
        "timestamp": "2018-06-27T12:00:10Z",
        "version": 2,
        "changeset": 60214895,
        "IJSN:administra": "Estadual",
        "IJSN:classeCnae": "Fundamental e Médio",
        "addr:city": "Muniz Freire",
        "addr:postcode": "29380-000",
        "addr:street": "Rua Nossa Senhora da Conceição",
        "addr:suburb": "Piaçu",
        "alt_name": "Escola Estadual de Ensino Fundamental e Médio",
        "amenity": "school",
        "contact:phone": "(28) 3544-5131",
        "name": "EEEFM Arquimimo Mattos",
        "source": "IJSN",
        "id": "node/4024904483"
      },
      "geometry": {
        "type": "Point",
        "coordinates": [
          -41.390078,
          -20.3367828
        ]
      }
    },
    {
      "type": "Feature",
      "id": "node/4024904868",
      "properties": {
        "timestamp": "2016-02-25T01:59:44Z",
        "version": 1,
        "changeset": 37426154,
        "IJSN:administra": "Estadual",
        "IJSN:classeCnae": "Médio",
        "addr:city": "Muniz Freire",
        "addr:housenumber": "67",
        "addr:postcode": "29380-000",
        "addr:street": "Rua Sebastião Costa",
        "addr:suburb": "Itaici",
        "alt_name": "Escola Estadual de Ensino Médio",
        "amenity": "school",
        "contact:phone": "(28) 3544-6015 / 3544-6002",
        "name": "EEEM Judith Viana Guedes",
        "source": "IJSN",
        "id": "node/4024904868"
      },
      "geometry": {
        "type": "Point",
        "coordinates": [
          -41.5107079,
          -20.530392
        ]
      }
    },
    {
      "type": "Feature",
      "id": "node/4024904871",
      "properties": {
        "timestamp": "2018-06-27T12:58:03Z",
        "version": 2,
        "changeset": 60217211,
        "IJSN:administra": "Estadual",
        "IJSN:classeCnae": "Médio",
        "addr:city": "Muniz Freire",
        "addr:housenumber": "76",
        "addr:postcode": "29380-000",
        "addr:street": "Rua José Roberto Pimentel",
        "addr:suburb": "Menino Jesus",
        "alt_name": "Escola Estadual de Ensino Médio",
        "amenity": "school",
        "contact:phone": "(28) 3544-4059 / 3544-4024",
        "name": "EEEM Menino Jesus",
        "source": "IJSN",
        "id": "node/4024904871"
      },
      "geometry": {
        "type": "Point",
        "coordinates": [
          -41.4274803,
          -20.4013565
        ]
      }
    },
    {
      "type": "Feature",
      "id": "node/4024904877",
      "properties": {
        "timestamp": "2023-05-21T21:52:11Z",
        "version": 3,
        "changeset": 136388606,
        "IJSN:administra": "Estadual",
        "IJSN:classeCnae": "Médio",
        "addr:city": "Muniz Freire",
        "addr:housenumber": "74",
        "addr:postcode": "29380-000",
        "addr:street": "Rua Maria da Ascensão Soares",
        "addr:suburb": "Vieira Machado",
        "alt_name": "Escola Estadual de Ensino Médio",
        "amenity": "school",
        "contact:phone": "+55 28 3544 8004 3544 8000",
        "name": "EEEM Professora Maria Cândido Kneipp",
        "source": "IJSN",
        "id": "node/4024904877"
      },
      "geometry": {
        "type": "Point",
        "coordinates": [
          -41.3351219,
          -20.4965528
        ]
      }
    },
    {
      "type": "Feature",
      "id": "node/4024905436",
      "properties": {
        "timestamp": "2016-02-25T02:00:27Z",
        "version": 1,
        "changeset": 37426154,
        "IJSN:administra": "Municipal",
        "IJSN:classeCnae": "Infantil e Fundamental",
        "addr:city": "Muniz Freire",
        "addr:postcode": "29380-000",
        "addr:suburb": "Comunidade Ribeirão do Laje",
        "alt_name": "Escola Municipal de Ensino Fundamental",
        "amenity": "school",
        "name": "EMEF Durval Máximo",
        "source": "IJSN",
        "id": "node/4024905436"
      },
      "geometry": {
        "type": "Point",
        "coordinates": [
          -41.3503436,
          -20.4059938
        ]
      }
    },
    {
      "type": "Feature",
      "id": "node/4024905611",
      "properties": {
        "timestamp": "2018-06-27T12:58:02Z",
        "version": 2,
        "changeset": 60217211,
        "IJSN:administra": "Municipal",
        "IJSN:classeCnae": "Infantil e Fundamental",
        "addr:city": "Muniz Freire",
        "addr:housenumber": "76",
        "addr:postcode": "29380-000",
        "addr:street": "Rua José Roberto Pimentel",
        "addr:suburb": "Menino Jesus",
        "alt_name": "Escola Municipal de Ensino Fundamental",
        "amenity": "school",
        "contact:phone": "(28) 3544-4059 / 3544-4024",
        "name": "EMEF Maria Áurea Barroso",
        "source": "IJSN",
        "id": "node/4024905611"
      },
      "geometry": {
        "type": "Point",
        "coordinates": [
          -41.427531,
          -20.401433
        ]
      }
    },
    {
      "type": "Feature",
      "id": "node/4024905666",
      "properties": {
        "timestamp": "2023-05-21T21:45:41Z",
        "version": 3,
        "changeset": 136388501,
        "IJSN:administra": "Municipal",
        "IJSN:classeCnae": "Infantil e Fundamental",
        "addr:city": "Muniz Freire",
        "addr:housenumber": "134",
        "addr:postcode": "29380-000",
        "addr:street": "Rua Maria da Ascensão Soares",
        "addr:suburb": "Vieira Machado",
        "alt_name": "Escola Municipal de Ensino Fundamental",
        "amenity": "school",
        "contact:phone": "+55 28 3544 8004",
        "name": "EMEF Professor Paulo Fábio Sartore",
        "source": "IJSN",
        "id": "node/4024905666"
      },
      "geometry": {
        "type": "Point",
        "coordinates": [
          -41.3351108,
          -20.4963883
        ]
      }
    },
    {
      "type": "Feature",
      "id": "node/4024905696",
      "properties": {
        "timestamp": "2016-02-25T02:00:54Z",
        "version": 1,
        "changeset": 37426154,
        "IJSN:administra": "Municipal",
        "IJSN:classeCnae": "Infantil e Fundamental",
        "addr:city": "Muniz Freire",
        "addr:postcode": "29380-000",
        "addr:suburb": "Comunidade Assunção",
        "alt_name": "Escola Municipal de Ensino Fundamental",
        "amenity": "school",
        "name": "EMEF Santa Joana",
        "source": "IJSN",
        "id": "node/4024905696"
      },
      "geometry": {
        "type": "Point",
        "coordinates": [
          -41.3651924,
          -20.2375511
        ]
      }
    },
    {
      "type": "Feature",
      "id": "node/4024905729",
      "properties": {
        "timestamp": "2018-07-01T15:48:32Z",
        "version": 2,
        "changeset": 60324491,
        "IJSN:administra": "Municipal",
        "IJSN:classeCnae": "Infantil e Fundamental",
        "addr:city": "Muniz Freire",
        "addr:postcode": "29380-000",
        "addr:suburb": "Comunidade Tombos",
        "alt_name": "Escola Municipal de Ensino Fundamental",
        "amenity": "school",
        "name": "EMEF Tombos",
        "source": "IJSN",
        "id": "node/4024905729"
      },
      "geometry": {
        "type": "Point",
        "coordinates": [
          -41.4255739,
          -20.3433265
        ]
      }
    },
    {
      "type": "Feature",
      "id": "node/4024906680",
      "properties": {
        "timestamp": "2016-02-25T02:02:25Z",
        "version": 1,
        "changeset": 37426154,
        "IJSN:administra": "Municipal",
        "IJSN:classeCnae": "Infantil e Fundamental",
        "addr:city": "Muniz Freire",
        "addr:postcode": "29380-000",
        "addr:suburb": "Comunidade Alto Norte",
        "alt_name": "Escola Pluridocente Municipal",
        "amenity": "school",
        "name": "EPM Cabeceira do Norte",
        "source": "IJSN",
        "id": "node/4024906680"
      },
      "geometry": {
        "type": "Point",
        "coordinates": [
          -41.4035853,
          -20.2436543
        ]
      }
    },
    {
      "type": "Feature",
      "id": "node/4024906810",
      "properties": {
        "timestamp": "2016-02-25T02:02:30Z",
        "version": 1,
        "changeset": 37426154,
        "IJSN:administra": "Municipal",
        "IJSN:classeCnae": "Fundamental",
        "addr:city": "Muniz Freire",
        "addr:postcode": "29380-000",
        "addr:suburb": "Comunidade Mata Pau",
        "alt_name": "Escola Pluridocente Municipal",
        "amenity": "school",
        "name": "EPM Vargem Alegre",
        "source": "IJSN",
        "id": "node/4024906810"
      },
      "geometry": {
        "type": "Point",
        "coordinates": [
          -41.4048651,
          -20.2887167
        ]
      }
    },
    {
      "type": "Feature",
      "id": "node/4024906841",
      "properties": {
        "timestamp": "2016-02-25T02:02:34Z",
        "version": 1,
        "changeset": 37426154,
        "IJSN:administra": "Municipal",
        "IJSN:classeCnae": "Fundamental",
        "addr:city": "Muniz Freire",
        "addr:postcode": "29380-000",
        "addr:suburb": "Comunidade Assunção",
        "alt_name": "Escola Unidocente Municipal",
        "amenity": "school",
        "name": "EUM Alta Cachoeira",
        "source": "IJSN",
        "id": "node/4024906841"
      },
      "geometry": {
        "type": "Point",
        "coordinates": [
          -41.3541776,
          -20.2613243
        ]
      }
    },
    {
      "type": "Feature",
      "id": "node/4024906842",
      "properties": {
        "timestamp": "2016-02-25T02:02:35Z",
        "version": 1,
        "changeset": 37426154,
        "IJSN:administra": "Municipal",
        "IJSN:classeCnae": "Fundamental",
        "addr:city": "Muniz Freire",
        "addr:postcode": "29380-000",
        "addr:suburb": "Comunidade Tombos",
        "alt_name": "Escola Unidocente Municipal",
        "amenity": "school",
        "name": "EUM Alto Tombos",
        "source": "IJSN",
        "id": "node/4024906842"
      },
      "geometry": {
        "type": "Point",
        "coordinates": [
          -41.4581362,
          -20.3604462
        ]
      }
    },
    {
      "type": "Feature",
      "id": "node/4024906843",
      "properties": {
        "timestamp": "2020-10-28T00:02:21Z",
        "version": 2,
        "changeset": 93147365,
        "IJSN:administra": "Municipal",
        "IJSN:classeCnae": "Fundamental",
        "addr:city": "Muniz Freire",
        "addr:postcode": "29380-000",
        "addr:suburb": "Comunidade Cabeceira do Amorim",
        "alt_name": "Escola Unidocente Municipal",
        "amenity": "school",
        "name": "EUM Amorim (Desativada)",
        "source": "IJSN",
        "id": "node/4024906843"
      },
      "geometry": {
        "type": "Point",
        "coordinates": [
          -41.4030793,
          -20.5282204
        ]
      }
    },
    {
      "type": "Feature",
      "id": "node/4024906847",
      "properties": {
        "timestamp": "2016-02-25T02:02:35Z",
        "version": 1,
        "changeset": 37426154,
        "IJSN:administra": "Municipal",
        "IJSN:classeCnae": "Fundamental",
        "addr:city": "Muniz Freire",
        "addr:postcode": "29380-000",
        "addr:suburb": "Comunidade Fortaleza",
        "alt_name": "Escola Unidocente Municipal",
        "amenity": "school",
        "name": "EUM Boa Esperança de Tombos",
        "source": "IJSN",
        "id": "node/4024906847"
      },
      "geometry": {
        "type": "Point",
        "coordinates": [
          -41.4199458,
          -20.3632698
        ]
      }
    },
    {
      "type": "Feature",
      "id": "node/4024906851",
      "properties": {
        "timestamp": "2016-02-25T02:02:36Z",
        "version": 1,
        "changeset": 37426154,
        "IJSN:administra": "Municipal",
        "IJSN:classeCnae": "Fundamental",
        "addr:city": "Muniz Freire",
        "addr:postcode": "29380-000",
        "addr:suburb": "Comunidade Terra Corrida",
        "alt_name": "Escola Unidocente Municipal",
        "amenity": "school",
        "name": "EUM Cabeceiras de Terra Corrida",
        "source": "IJSN",
        "id": "node/4024906851"
      },
      "geometry": {
        "type": "Point",
        "coordinates": [
          -41.4919135,
          -20.4301532
        ]
      }
    },
    {
      "type": "Feature",
      "id": "node/4024906852",
      "properties": {
        "timestamp": "2016-02-25T02:02:36Z",
        "version": 1,
        "changeset": 37426154,
        "IJSN:administra": "Municipal",
        "IJSN:classeCnae": "Fundamental",
        "addr:city": "Muniz Freire",
        "addr:postcode": "29380-000",
        "addr:suburb": "Comunidade Bom Destino de Tombos",
        "alt_name": "Escola Unidocente Municipal",
        "amenity": "school",
        "name": "EUM Cabeceiras de Tombos",
        "source": "IJSN",
        "id": "node/4024906852"
      },
      "geometry": {
        "type": "Point",
        "coordinates": [
          -41.4364977,
          -20.3664462
        ]
      }
    },
    {
      "type": "Feature",
      "id": "node/4024906854",
      "properties": {
        "timestamp": "2016-02-25T02:02:36Z",
        "version": 1,
        "changeset": 37426154,
        "IJSN:administra": "Municipal",
        "IJSN:classeCnae": "Fundamental",
        "addr:city": "Muniz Freire",
        "addr:postcode": "29380-000",
        "addr:suburb": "Comunidade Mata Pau",
        "alt_name": "Escola Unidocente Municipal",
        "amenity": "school",
        "name": "EUM Cantagalo",
        "source": "IJSN",
        "id": "node/4024906854"
      },
      "geometry": {
        "type": "Point",
        "coordinates": [
          -41.4319353,
          -20.3058268
        ]
      }
    },
    {
      "type": "Feature",
      "id": "node/4024906862",
      "properties": {
        "timestamp": "2016-02-25T02:02:38Z",
        "version": 1,
        "changeset": 37426154,
        "IJSN:administra": "Municipal",
        "IJSN:classeCnae": "Fundamental",
        "addr:city": "Muniz Freire",
        "addr:postcode": "29380-000",
        "addr:suburb": "Comunidade Córrego Rico",
        "alt_name": "Escola Unidocente Municipal",
        "amenity": "school",
        "name": "EUM Córrego Rico",
        "source": "IJSN",
        "id": "node/4024906862"
      },
      "geometry": {
        "type": "Point",
        "coordinates": [
          -41.3720579,
          -20.4016843
        ]
      }
    },
    {
      "type": "Feature",
      "id": "node/4024906868",
      "properties": {
        "timestamp": "2020-05-24T20:28:50Z",
        "version": 2,
        "changeset": 85694094,
        "IJSN:administra": "Municipal",
        "IJSN:classeCnae": "Fundamental",
        "addr:city": "Muniz Freire",
        "addr:postcode": "29380-000",
        "addr:suburb": "Comunidade Alto Norte",
        "alt_name": "Escola Unidocente Municipal",
        "amenity": "school",
        "name": "EUM Estrela do Norte",
        "source": "IJSN",
        "id": "node/4024906868"
      },
      "geometry": {
        "type": "Point",
        "coordinates": [
          -41.373741,
          -20.2215407
        ]
      }
    },
    {
      "type": "Feature",
      "id": "node/4024906870",
      "properties": {
        "timestamp": "2016-02-25T02:02:39Z",
        "version": 1,
        "changeset": 37426154,
        "IJSN:administra": "Municipal",
        "IJSN:classeCnae": "Fundamental",
        "addr:city": "Muniz Freire",
        "addr:postcode": "29380-000",
        "addr:street": "Fazenda Fortaleza",
        "addr:suburb": "Comunidade Fortaleza",
        "alt_name": "Escola Unidocente Municipal",
        "amenity": "school",
        "contact:phone": "(28) 3544-1296",
        "name": "EUM Fazenda Fortaleza",
        "source": "IJSN",
        "id": "node/4024906870"
      },
      "geometry": {
        "type": "Point",
        "coordinates": [
          -41.4096664,
          -20.3659604
        ]
      }
    },
    {
      "type": "Feature",
      "id": "node/4024906871",
      "properties": {
        "timestamp": "2016-02-25T02:02:39Z",
        "version": 1,
        "changeset": 37426154,
        "IJSN:administra": "Municipal",
        "IJSN:classeCnae": "Fundamental",
        "addr:city": "Muniz Freire",
        "addr:postcode": "29380-000",
        "addr:street": "Fazenda Guanabara",
        "addr:suburb": "Comunidade Guanabara",
        "alt_name": "Escola Unidocente Municipal",
        "amenity": "school",
        "name": "EUM Fazenda Guanabara",
        "source": "IJSN",
        "id": "node/4024906871"
      },
      "geometry": {
        "type": "Point",
        "coordinates": [
          -41.3757364,
          -20.2927614
        ]
      }
    },
    {
      "type": "Feature",
      "id": "node/4024906872",
      "properties": {
        "timestamp": "2016-02-25T02:02:39Z",
        "version": 1,
        "changeset": 37426154,
        "IJSN:administra": "Municipal",
        "IJSN:classeCnae": "Fundamental",
        "addr:city": "Muniz Freire",
        "addr:postcode": "29380-000",
        "addr:suburb": "Comunidade Sossego",
        "alt_name": "Escola Unidocente Municipal",
        "amenity": "school",
        "name": "EUM Fazenda Laje",
        "source": "IJSN",
        "id": "node/4024906872"
      },
      "geometry": {
        "type": "Point",
        "coordinates": [
          -41.3739718,
          -20.3601631
        ]
      }
    },
    {
      "type": "Feature",
      "id": "node/4024906874",
      "properties": {
        "timestamp": "2016-02-25T02:02:40Z",
        "version": 1,
        "changeset": 37426154,
        "IJSN:administra": "Municipal",
        "IJSN:classeCnae": "Fundamental",
        "addr:city": "Muniz Freire",
        "addr:postcode": "29380-000",
        "addr:street": "Fazenda União",
        "addr:suburb": "Comunidade Amorim",
        "alt_name": "Escola Unidocente Municipal",
        "amenity": "school",
        "name": "EUM Fazenda União",
        "source": "IJSN",
        "id": "node/4024906874"
      },
      "geometry": {
        "type": "Point",
        "coordinates": [
          -41.4452743,
          -20.509036
        ]
      }
    },
    {
      "type": "Feature",
      "id": "node/4024906875",
      "properties": {
        "timestamp": "2016-02-25T02:02:40Z",
        "version": 1,
        "changeset": 37426154,
        "IJSN:administra": "Municipal",
        "IJSN:classeCnae": "Fundamental",
        "addr:city": "Muniz Freire",
        "addr:postcode": "29380-000",
        "addr:suburb": "Comunidade Ipê Peroba",
        "alt_name": "Escola Unidocente Municipal",
        "amenity": "school",
        "name": "EUM Ipê Peroba",
        "source": "IJSN",
        "id": "node/4024906875"
      },
      "geometry": {
        "type": "Point",
        "coordinates": [
          -41.4059719,
          -20.4903215
        ]
      }
    },
    {
      "type": "Feature",
      "id": "node/4024906880",
      "properties": {
        "timestamp": "2016-02-25T02:02:40Z",
        "version": 1,
        "changeset": 37426154,
        "IJSN:administra": "Municipal",
        "IJSN:classeCnae": "Fundamental",
        "addr:city": "Muniz Freire",
        "addr:postcode": "29380-000",
        "addr:suburb": "Comunidade Meia Quarta",
        "alt_name": "Escola Unidocente Municipal",
        "amenity": "school",
        "name": "EUM Meia Quarta",
        "source": "IJSN",
        "id": "node/4024906880"
      },
      "geometry": {
        "type": "Point",
        "coordinates": [
          -41.5190504,
          -20.4794445
        ]
      }
    },
    {
      "type": "Feature",
      "id": "node/4024906882",
      "properties": {
        "timestamp": "2016-02-25T02:02:41Z",
        "version": 1,
        "changeset": 37426154,
        "IJSN:administra": "Municipal",
        "IJSN:classeCnae": "Fundamental",
        "addr:city": "Muniz Freire",
        "addr:postcode": "29380-000",
        "addr:suburb": "Comunidade Águas Claras",
        "alt_name": "Escola Unidocente Municipal",
        "amenity": "school",
        "name": "EUM Paraíso",
        "source": "IJSN",
        "id": "node/4024906882"
      },
      "geometry": {
        "type": "Point",
        "coordinates": [
          -41.3576652,
          -20.2931898
        ]
      }
    },
    {
      "type": "Feature",
      "id": "node/4024906884",
      "properties": {
        "timestamp": "2020-10-10T01:54:53Z",
        "version": 2,
        "changeset": 92260459,
        "IJSN:administra": "Municipal",
        "IJSN:classeCnae": "Fundamental",
        "addr:city": "Muniz Freire",
        "addr:postcode": "29380-000",
        "addr:suburb": "Comunidade Águas Claras",
        "alt_name": "Escola Unidocente Municipal",
        "amenity": "school",
        "name": "EUM Pouso Alto",
        "source": "IJSN",
        "id": "node/4024906884"
      },
      "geometry": {
        "type": "Point",
        "coordinates": [
          -41.3274736,
          -20.2601176
        ]
      }
    },
    {
      "type": "Feature",
      "id": "node/4024906889",
      "properties": {
        "timestamp": "2016-02-25T02:02:42Z",
        "version": 1,
        "changeset": 37426154,
        "IJSN:administra": "Municipal",
        "IJSN:classeCnae": "Fundamental",
        "addr:city": "Muniz Freire",
        "addr:postcode": "29380-000",
        "addr:suburb": "Comunidade Santo Antônio do Amorim",
        "alt_name": "Escola Unidocente Municipal",
        "amenity": "school",
        "name": "EUM Santo Antônio do Amorim",
        "source": "IJSN",
        "id": "node/4024906889"
      },
      "geometry": {
        "type": "Point",
        "coordinates": [
          -41.4651403,
          -20.5280833
        ]
      }
    },
    {
      "type": "Feature",
      "id": "node/4024906891",
      "properties": {
        "timestamp": "2016-02-25T02:02:42Z",
        "version": 1,
        "changeset": 37426154,
        "IJSN:administra": "Municipal",
        "IJSN:classeCnae": "Fundamental",
        "addr:city": "Muniz Freire",
        "addr:postcode": "29380-000",
        "addr:suburb": "Comunidade Seio de Abraão",
        "alt_name": "Escola Unidocente Municipal",
        "amenity": "school",
        "name": "EUM Seio de Abraão",
        "source": "IJSN",
        "id": "node/4024906891"
      },
      "geometry": {
        "type": "Point",
        "coordinates": [
          -41.4671501,
          -20.4246126
        ]
      }
    },
    {
      "type": "Feature",
      "id": "node/4341946053",
      "properties": {
        "timestamp": "2016-08-09T01:48:29Z",
        "version": 1,
        "changeset": 41336152,
        "addr:city": "Muniz Freire",
        "amenity": "school",
        "name": "EPM Córrego Cristal",
        "id": "node/4341946053"
      },
      "geometry": {
        "type": "Point",
        "coordinates": [
          -41.4065146,
          -20.3066384
        ]
      }
    }
  ]
}
