{
  "type": "FeatureCollection",
  "features": [
    {
      "type": "Feature",
      "id": "way/338135172",
      "properties": {
        "timestamp": "2024-07-02T19:55:29Z",
        "version": 3,
        "changeset": 153474599,
        "addr:city": "Muniz Freire",
        "addr:postcode": "29380-000",
        "addr:street": "Rua Francisco Antônio Lúcio",
        "addr:suburb": "Santa Terezinha",
        "alt_name": "Centro de Referência de Assistência Social",
        "amenity": "social_facility",
        "building": "yes",
        "contact:phone": "(27) 3544-1405",
        "name": "CRAS - Muniz Freire",
        "social_facility": "outreach",
        "source": "IJSN",
        "id": "way/338135172"
      },
      "geometry": {
        "type": "Polygon",
        "coordinates": [
          [
            [
              -41.4097075,
              -20.4670084
            ],
            [
              -41.4095058,
              -20.4668759
            ],
            [
              -41.4096049,
              -20.4667433
            ],
            [
              -41.4098066,
              -20.4668758
            ],
            [
              -41.4097075,
              -20.4670084
            ]
          ]
        ]
      }
    },
    {
      "type": "Feature",
      "id": "way/604418449",
      "properties": {
        "timestamp": "2018-07-03T00:02:48Z",
        "version": 1,
        "changeset": 60361289,
        "addr:city": "Muniz Freire",
        "addr:postcode": "29380-000",
        "addr:street": "Rua Antônio Ribeiro de Almeida",
        "addr:suburb": "Centro",
        "amenity": "social_facility",
        "building": "yes",
        "name": "Casa Lar",
        "social_facility": "care_home",
        "social_facility:for": "child",
        "id": "way/604418449"
      },
      "geometry": {
        "type": "Polygon",
        "coordinates": [
          [
            [
              -41.4158895,
              -20.463629
            ],
            [
              -41.4157914,
              -20.4634857
            ],
            [
              -41.4159163,
              -20.4634376
            ],
            [
              -41.4159957,
              -20.46357
            ],
            [
              -41.4158895,
              -20.463629
            ]
          ]
        ]
      }
    },
    {
      "type": "Feature",
      "id": "way/785351688",
      "properties": {
        "timestamp": "2020-04-09T18:54:53Z",
        "version": 2,
        "changeset": 83324037,
        "addr:city": "Muniz Freire",
        "addr:postcode": "29380-000",
        "addr:street": "Rua João Ivo Aguilar",
        "addr:suburb": "Centro",
        "amenity": "social_facility",
        "building": "yes",
        "building:levels": "2",
        "name": "Secretaria de Assistência Social",
        "social_facility:for": "underprivileged",
        "source": "local knowledge",
        "wheelchair": "yes",
        "id": "way/785351688"
      },
      "geometry": {
        "type": "Polygon",
        "coordinates": [
          [
            [
              -41.4166477,
              -20.4628351
            ],
            [
              -41.4168184,
              -20.4628119
            ],
            [
              -41.4168423,
              -20.4629611
            ],
            [
              -41.4166689,
              -20.4629835
            ],
            [
              -41.4166477,
              -20.4628351
            ]
          ]
        ]
      }
    },
    {
      "type": "Feature",
      "id": "node/5243486299",
      "properties": {
        "timestamp": "2022-02-06T09:37:40Z",
        "version": 2,
        "changeset": 117072006,
        "addr:city": "Muniz Freire",
        "addr:housenumber": "261",
        "addr:postcode": "29380-000",
        "addr:street": "Rua João Ivo Aguilar",
        "addr:suburb": "Centro",
        "amenity": "social_facility",
        "name": "Conselho Tutelar",
        "social_facility:for": "juvenile",
        "id": "node/5243486299"
      },
      "geometry": {
        "type": "Point",
        "coordinates": [
          -41.4164978,
          -20.4628889
        ]
      }
    },
    {
      "type": "Feature",
      "id": "node/5735253143",
      "properties": {
        "timestamp": "2018-07-03T00:02:47Z",
        "version": 1,
        "changeset": 60361289,
        "addr:city": "Muniz Freire",
        "addr:postcode": "29380-000",
        "addr:street": "Rua José Cabriano de Aguiar",
        "addr:suburb": "Centro",
        "amenity": "social_facility",
        "name": "APAE",
        "social_facility:for": "mental_health",
        "wheelchair": "yes",
        "id": "node/5735253143"
      },
      "geometry": {
        "type": "Point",
        "coordinates": [
          -41.4126232,
          -20.4657003
        ]
      }
    },
    {
      "type": "Feature",
      "id": "node/7396237726",
      "properties": {
        "timestamp": "2020-04-12T22:56:01Z",
        "version": 1,
        "changeset": 83440948,
        "addr:city": "Muniz Freire",
        "addr:postcode": "29380-000",
        "addr:street": "Rua Samuel Gonçalves Bastos",
        "addr:suburb": "Piaçu",
        "amenity": "social_facility",
        "id": "node/7396237726"
      },
      "geometry": {
        "type": "Point",
        "coordinates": [
          -41.3903771,
          -20.3376338
        ]
      }
    }
  ]
}
