{
  "type": "FeatureCollection",
  "features": [
    {
      "type": "Feature",
      "id": "node/2925766189",
      "properties": {
        "timestamp": "2014-07-14T16:31:01Z",
        "version": 2,
        "changeset": 24143992,
        "addr:city": "Caldas Novas",
        "addr:postcode": "75690-000",
        "amenity": "doctors",
        "name": "ESF Holiday",
        "opening_hours": "07:00-17:00",
        "id": "node/2925766189"
      },
      "geometry": {
        "type": "Point",
        "coordinates": [
          -48.5849549,
          -17.7447829
        ]
      }
    },
    {
      "type": "Feature",
      "id": "node/2925766191",
      "properties": {
        "timestamp": "2014-07-14T16:31:01Z",
        "version": 2,
        "changeset": 24143992,
        "addr:city": "Caldas Novas",
        "addr:postcode": "75690-000",
        "amenity": "doctors",
        "name": "ESF Jequitimar",
        "opening_hours": "07:00-17:00",
        "id": "node/2925766191"
      },
      "geometry": {
        "type": "Point",
        "coordinates": [
          -48.6052508,
          -17.7653035
        ]
      }
    }
  ]
}
