{
  "type": "FeatureCollection",
  "features": [
    {
      "type": "Feature",
      "id": "node/2925766190",
      "properties": {
        "timestamp": "2014-06-21T11:01:58Z",
        "version": 1,
        "changeset": 23059587,
        "addr:city": "Caldas Novas",
        "addr:postcode": "75690-000",
        "amenity": "kindergarten",
        "name": "Escola Municipal Professora Celina Belo",
        "id": "node/2925766190"
      },
      "geometry": {
        "type": "Point",
        "coordinates": [
          -48.5835767,
          -17.7447441
        ]
      }
    },
    {
      "type": "Feature",
      "id": "node/2925771203",
      "properties": {
        "timestamp": "2014-06-21T11:01:58Z",
        "version": 1,
        "changeset": 23059587,
        "addr:city": "Caldas Novas",
        "addr:postcode": "75690-000",
        "amenity": "kindergarten",
        "name": "Escola Municipal Dona Abelina",
        "id": "node/2925771203"
      },
      "geometry": {
        "type": "Point",
        "coordinates": [
          -48.618793,
          -17.7717025
        ]
      }
    },
    {
      "type": "Feature",
      "id": "node/2925771204",
      "properties": {
        "timestamp": "2014-06-21T11:01:59Z",
        "version": 1,
        "changeset": 23059587,
        "addr:city": "Caldas Novas",
        "addr:postcode": "75690-000",
        "amenity": "kindergarten",
        "name": "CMEI Dona Sugio Kato",
        "id": "node/2925771204"
      },
      "geometry": {
        "type": "Point",
        "coordinates": [
          -48.620556,
          -17.7732167
        ]
      }
    }
  ]
}
