{
  "type": "FeatureCollection",
  "features": [
    {
      "type": "Feature",
      "id": "node/5309393241",
      "properties": {
        "timestamp": "2018-12-22T22:00:38Z",
        "version": 2,
        "changeset": 65703909,
        "shop": "bicycle",
        "id": "node/5309393241"
      },
      "geometry": {
        "type": "Point",
        "coordinates": [
          -51.1079592,
          -29.3743634
        ]
      }
    },
    {
      "type": "Feature",
      "id": "node/11570433921",
      "properties": {
        "timestamp": "2024-01-30T19:47:57Z",
        "version": 1,
        "changeset": 146877209,
        "addr:city": "Nova Petr√≥polis",
        "addr:housenumber": "857",
        "addr:postcode": "95150-000",
        "addr:street": "Avenida 15 de Novembro",
        "addr:suburb": "Centro",
        "email": "rumosstore@gmail.com",
        "name": "Rumos Store",
        "opening_hours": "Mo-Sa 09:00-18:30",
        "phone": "+55 54 981 297 327",
        "shop": "bicycle",
        "id": "node/11570433921"
      },
      "geometry": {
        "type": "Point",
        "coordinates": [
          -51.1143737,
          -29.3801719
        ]
      }
    }
  ]
}
