{
  "type": "FeatureCollection",
  "features": [
    {
      "type": "Feature",
      "id": "node/12729371462",
      "properties": {
        "timestamp": "2025-04-16T13:17:26Z",
        "version": 4,
        "changeset": 165029087,
        "addr:city": "Nova Petrópolis",
        "addr:housenumber": "555",
        "addr:postcode": "95150-000",
        "addr:street": "Clinica Leben - R. Pres. Lucena",
        "addr:suburb": "Centro",
        "amenity": "dentist",
        "currency:XBT": "yes",
        "healthcare": "dentist",
        "healthcare:speciality": "endodontia;prótese;implantodontia;general",
        "mobile": "+55 54 99963-3456",
        "name": "Dr Rodrigo Ferrari Endodontia/prótese e Implantodontia",
        "opening_hours": "Friday 09:00–18:00  Saturday 09:00–12:00  Sunday 24 hour service  Monday 13:30–18:00  Tuesday 09:00–18:00  Wednesday 09:00–18:00  Thursday 09:00–18:00",
        "operator": "Rodrigo Ferrari",
        "payment:bitcoin": "yes",
        "payment:lightning": "yes",
        "payment:lightning_contactless": "yes",
        "website": "https://www.instagram.com/consultoriorodrigoferrari/",
        "id": "node/12729371462"
      },
      "geometry": {
        "type": "Point",
        "coordinates": [
          -51.113213,
          -29.3797463
        ]
      }
    }
  ]
}
