{
  "type": "FeatureCollection",
  "features": [
    {
      "type": "Feature",
      "id": "way/403694259",
      "properties": {
        "timestamp": "2019-08-02T19:41:35Z",
        "version": 4,
        "changeset": 72954611,
        "amenity": "school",
        "building:levels": "2",
        "id": "way/403694259"
      },
      "geometry": {
        "type": "Polygon",
        "coordinates": [
          [
            [
              -54.0955931,
              -25.2999362
            ],
            [
              -54.0953299,
              -25.3008726
            ],
            [
              -54.0942829,
              -25.3006322
            ],
            [
              -54.0945461,
              -25.2996957
            ],
            [
              -54.0955931,
              -25.2999362
            ]
          ]
        ]
      }
    },
    {
      "type": "Feature",
      "id": "way/702501692",
      "properties": {
        "timestamp": "2022-07-29T22:03:53Z",
        "version": 3,
        "changeset": 124249532,
        "addr:city": "Medianeira",
        "addr:housenumber": "1789",
        "addr:postcode": "85.884-000",
        "addr:street": "Rua Santa Catarina",
        "addr:suburb": "Centro",
        "amenity": "school",
        "name": "Colégio Estadual Marechal Arthur da Costa e Silva",
        "website": "http://www.mdnarthursilva.seed.pr.gov.br/modules/liaise/",
        "id": "way/702501692"
      },
      "geometry": {
        "type": "Polygon",
        "coordinates": [
          [
            [
              -54.0927175,
              -25.2923897
            ],
            [
              -54.092578,
              -25.2928723
            ],
            [
              -54.0916339,
              -25.2926322
            ],
            [
              -54.0917599,
              -25.2921544
            ],
            [
              -54.0927175,
              -25.2923897
            ]
          ]
        ]
      }
    },
    {
      "type": "Feature",
      "id": "way/702506425",
      "properties": {
        "timestamp": "2019-08-02T19:17:30Z",
        "version": 2,
        "changeset": 72953941,
        "amenity": "school",
        "id": "way/702506425"
      },
      "geometry": {
        "type": "Polygon",
        "coordinates": [
          [
            [
              -54.0809197,
              -25.2751158
            ],
            [
              -54.0817732,
              -25.2753296
            ],
            [
              -54.0815589,
              -25.2760079
            ],
            [
              -54.0807127,
              -25.2757907
            ],
            [
              -54.0809197,
              -25.2751158
            ]
          ]
        ]
      }
    },
    {
      "type": "Feature",
      "id": "way/702513864",
      "properties": {
        "timestamp": "2019-08-02T20:02:06Z",
        "version": 3,
        "changeset": 72955322,
        "amenity": "school",
        "id": "way/702513864"
      },
      "geometry": {
        "type": "Polygon",
        "coordinates": [
          [
            [
              -54.1012822,
              -25.2933094
            ],
            [
              -54.1011508,
              -25.2937459
            ],
            [
              -54.1001396,
              -25.2935131
            ],
            [
              -54.100263,
              -25.2930693
            ],
            [
              -54.1012822,
              -25.2933094
            ]
          ]
        ]
      }
    },
    {
      "type": "Feature",
      "id": "way/702515668",
      "properties": {
        "timestamp": "2019-08-02T19:25:57Z",
        "version": 2,
        "changeset": 72954146,
        "amenity": "school",
        "id": "way/702515668"
      },
      "geometry": {
        "type": "Polygon",
        "coordinates": [
          [
            [
              -54.0867738,
              -25.2937695
            ],
            [
              -54.086644,
              -25.2942344
            ],
            [
              -54.0861426,
              -25.294117
            ],
            [
              -54.0862724,
              -25.293643
            ],
            [
              -54.0867738,
              -25.2937695
            ]
          ]
        ]
      }
    },
    {
      "type": "Feature",
      "id": "way/702521441",
      "properties": {
        "timestamp": "2019-08-02T19:45:56Z",
        "version": 3,
        "changeset": 72954774,
        "amenity": "school",
        "id": "way/702521441"
      },
      "geometry": {
        "type": "Polygon",
        "coordinates": [
          [
            [
              -54.1383955,
              -25.2030738
            ],
            [
              -54.1392842,
              -25.2037575
            ],
            [
              -54.1389805,
              -25.2041027
            ],
            [
              -54.1380215,
              -25.2033804
            ],
            [
              -54.1383955,
              -25.2030738
            ]
          ]
        ]
      }
    },
    {
      "type": "Feature",
      "id": "way/702523743",
      "properties": {
        "timestamp": "2019-08-02T19:49:45Z",
        "version": 3,
        "changeset": 72954920,
        "amenity": "school",
        "id": "way/702523743"
      },
      "geometry": {
        "type": "Polygon",
        "coordinates": [
          [
            [
              -54.1149583,
              -25.2875405
            ],
            [
              -54.1162387,
              -25.2876859
            ],
            [
              -54.1161375,
              -25.2884074
            ],
            [
              -54.1153117,
              -25.2883177
            ],
            [
              -54.1153653,
              -25.2879551
            ],
            [
              -54.1149147,
              -25.2878959
            ],
            [
              -54.1149583,
              -25.2875405
            ]
          ]
        ]
      }
    },
    {
      "type": "Feature",
      "id": "way/702863507",
      "properties": {
        "timestamp": "2019-08-02T20:04:39Z",
        "version": 2,
        "changeset": 72955402,
        "addr:city": "Medianeira",
        "addr:housenumber": "4589",
        "addr:postcode": "85.884-000",
        "addr:street": "Rua Paraná",
        "addr:suburb": "Parque Independência",
        "amenity": "school",
        "id": "way/702863507"
      },
      "geometry": {
        "type": "Polygon",
        "coordinates": [
          [
            [
              -54.118791,
              -25.3015214
            ],
            [
              -54.1186248,
              -25.3021261
            ],
            [
              -54.1179855,
              -25.3019757
            ],
            [
              -54.1181592,
              -25.3013678
            ],
            [
              -54.118791,
              -25.3015214
            ]
          ]
        ]
      }
    },
    {
      "type": "Feature",
      "id": "node/2507181887",
      "properties": {
        "timestamp": "2013-10-24T12:25:22Z",
        "version": 1,
        "changeset": 18518761,
        "amenity": "school",
        "name": "Fisk",
        "id": "node/2507181887"
      },
      "geometry": {
        "type": "Point",
        "coordinates": [
          -54.0928917,
          -25.2936051
        ]
      }
    },
    {
      "type": "Feature",
      "id": "node/6597156181",
      "properties": {
        "timestamp": "2019-07-11T18:46:00Z",
        "version": 3,
        "changeset": 72148716,
        "addr:city": "Medianeira",
        "addr:housenumber": "1210",
        "addr:postcode": "85.884-000",
        "addr:street": "Rua Minas Gerais",
        "addr:suburb": "Nazaré",
        "amenity": "school",
        "name": "Escola de Educação Especial Bilíngue da Associação Medianeirense de Surdos e Fissurados (AMESFI)",
        "id": "node/6597156181"
      },
      "geometry": {
        "type": "Point",
        "coordinates": [
          -54.0855888,
          -25.2950868
        ]
      }
    },
    {
      "type": "Feature",
      "id": "node/6597217537",
      "properties": {
        "timestamp": "2019-08-08T19:12:34Z",
        "version": 5,
        "changeset": 73168345,
        "addr:city": "Medianeira",
        "addr:housenumber": "2641",
        "addr:postcode": "85.884-000",
        "addr:street": "Rua Pará",
        "addr:suburb": "São Cristóvão",
        "amenity": "school",
        "name": "CEEBJA de Medianeira",
        "website": "http://www.mdnceebjamedianeira.seed.pr.gov.br/modules/liaise/",
        "id": "node/6597217537"
      },
      "geometry": {
        "type": "Point",
        "coordinates": [
          -54.1010174,
          -25.2934145
        ]
      }
    },
    {
      "type": "Feature",
      "id": "node/6677555398",
      "properties": {
        "timestamp": "2019-08-02T19:17:30Z",
        "version": 1,
        "changeset": 72953941,
        "addr:city": "Medianeira",
        "addr:housenumber": "690",
        "addr:postcode": "85.884-000",
        "addr:street": "Rua Olavo Bilac",
        "addr:suburb": "Belo Horizonte",
        "amenity": "school",
        "name": "Colégio Estadual Belo Horizonte",
        "website": "http://www.mdnbelohorizonte.seed.pr.gov.br/modules/liaise/",
        "id": "node/6677555398"
      },
      "geometry": {
        "type": "Point",
        "coordinates": [
          -54.081244,
          -25.2755915
        ]
      }
    },
    {
      "type": "Feature",
      "id": "node/6677588920",
      "properties": {
        "timestamp": "2019-08-08T19:14:35Z",
        "version": 2,
        "changeset": 73168412,
        "addr:city": "Medianeira",
        "addr:housenumber": "1250",
        "addr:postcode": "85.884-000",
        "addr:street": "Avenida Rio Grande do Sul",
        "addr:suburb": "Nazaré",
        "amenity": "school",
        "name": "Escola de Educação Especial Espaço Amigo",
        "website": "http://www.mdnespacoamigo.seed.pr.gov.br/modules/liaise/",
        "id": "node/6677588920"
      },
      "geometry": {
        "type": "Point",
        "coordinates": [
          -54.0866697,
          -25.2938673
        ]
      }
    },
    {
      "type": "Feature",
      "id": "node/6677594040",
      "properties": {
        "timestamp": "2019-08-02T19:41:35Z",
        "version": 1,
        "changeset": 72954611,
        "addr:city": "Medianeira",
        "addr:housenumber": "2233",
        "addr:postcode": "85.884-000",
        "addr:street": "Rua Mato Grosso",
        "addr:suburb": "Cidade Alta",
        "amenity": "school",
        "name": "Colégio Estadual João Manoel Mondrone",
        "website": "http://www.mdnjoaommondrone.seed.pr.gov.br/modules/liaise/",
        "id": "node/6677594040"
      },
      "geometry": {
        "type": "Point",
        "coordinates": [
          -54.0949413,
          -25.30028
        ]
      }
    },
    {
      "type": "Feature",
      "id": "node/6677653016",
      "properties": {
        "timestamp": "2019-08-07T16:49:37Z",
        "version": 2,
        "changeset": 73120895,
        "addr:city": "Medianeira",
        "addr:housenumber": "360",
        "addr:postcode": "85.884-000",
        "addr:street": "Rua Ivo Darolt",
        "addr:suburb": "Distrito Maralúcia",
        "amenity": "school",
        "name": "Colégio Estadual do Campo Maralúcia",
        "website": "http://www.mdnmaralucia.seed.pr.gov.br/modules/liaise/",
        "id": "node/6677653016"
      },
      "geometry": {
        "type": "Point",
        "coordinates": [
          -54.1388069,
          -25.2035293
        ]
      }
    },
    {
      "type": "Feature",
      "id": "node/6677693786",
      "properties": {
        "timestamp": "2019-08-02T19:50:13Z",
        "version": 2,
        "changeset": 72954945,
        "addr:city": "Medianeira",
        "addr:housenumber": "312",
        "addr:postcode": "85.884-000",
        "addr:street": "Rua 11",
        "addr:suburb": "Jardim Irene",
        "amenity": "school",
        "name": "Colégio Estadual Naira Fellini",
        "website": "http://www.mdnnairafellini.seed.pr.gov.br/modules/liaise/",
        "id": "node/6677693786"
      },
      "geometry": {
        "type": "Point",
        "coordinates": [
          -54.115651,
          -25.2879093
        ]
      }
    },
    {
      "type": "Feature",
      "id": "node/6677697076",
      "properties": {
        "timestamp": "2019-08-02T20:04:39Z",
        "version": 1,
        "changeset": 72955402,
        "addr:city": "Medianeira",
        "addr:housenumber": "4589",
        "addr:postcode": "85.884-000",
        "addr:street": "Rua Paraná",
        "addr:suburb": "Parque Independência",
        "amenity": "school",
        "name": "Colégio Estadual Tancredo Neves",
        "website": "http://www.mdntancredoneves.seed.pr.gov.br/modules/liaise/",
        "id": "node/6677697076"
      },
      "geometry": {
        "type": "Point",
        "coordinates": [
          -54.1183913,
          -25.3017476
        ]
      }
    },
    {
      "type": "Feature",
      "id": "node/6677701622",
      "properties": {
        "timestamp": "2019-08-08T19:11:39Z",
        "version": 3,
        "changeset": 73168322,
        "addr:city": "Medianeira",
        "addr:housenumber": "2641",
        "addr:postcode": "85.884-000",
        "addr:street": "Rua Pará",
        "addr:suburb": "São Cristóvão",
        "amenity": "school",
        "name": "Escola Estadual Olavo Bilac",
        "website": "http://www.mdnolavobilac.seed.pr.gov.br/modules/liaise/",
        "id": "node/6677701622"
      },
      "geometry": {
        "type": "Point",
        "coordinates": [
          -54.1005278,
          -25.2934666
        ]
      }
    }
  ]
}
