{
  "type": "FeatureCollection",
  "features": [
    {
      "type": "Feature",
      "id": "node/12475691623",
      "properties": {
        "timestamp": "2025-01-05T14:25:22Z",
        "version": 1,
        "changeset": 161022360,
        "addr:city": "Santa Rosa",
        "addr:housenumber": "335",
        "addr:postcode": "98900-000",
        "addr:street": "Rua Fernando Ferrari",
        "addr:suburb": "Centro",
        "amenity": "doctors",
        "check_date": "2025-01-05",
        "contact:email": "marcelodevan@gmail.com",
        "currency:XBT": "yes",
        "healthcare": "doctor",
        "healthcare:speciality": "ophthalmology",
        "name": "Dr. Marcelo Devantier - MÃ©dico Oftalmologista",
        "payment:lightning": "yes",
        "payment:lightning_contactless": "no",
        "payment:onchain": "no",
        "id": "node/12475691623"
      },
      "geometry": {
        "type": "Point",
        "coordinates": [
          -54.4833691,
          -27.8660317
        ]
      }
    }
  ]
}
