{
  "type": "FeatureCollection",
  "features": [
    {
      "type": "Feature",
      "id": "way/681291879",
      "properties": {
        "timestamp": "2024-02-17T02:27:46Z",
        "version": 4,
        "changeset": 147554832,
        "addr:city": "maricá",
        "addr:street": "Rua Arley de Barros",
        "addr:suburb": "são jose",
        "amenity": "arts_centre",
        "building": "yes",
        "description": "Um projeto que trabalha com cursos, tem no seu espaço livraria e lanchonete e frequentado por jogadores de pokemon go",
        "name": "Centro de Cultura Jovem",
        "opening_hours": "Mo-Sa 08:00-20:00",
        "phone": "+55 21 97217 4033",
        "website": "https://www.facebook.com/centrodeculturajovem/",
        "wheelchair": "yes",
        "id": "way/681291879"
      },
      "geometry": {
        "type": "Polygon",
        "coordinates": [
          [
            [
              -42.8662158,
              -22.9254427
            ],
            [
              -42.8660582,
              -22.9256681
            ],
            [
              -42.8660461,
              -22.9256786
            ],
            [
              -42.8659556,
              -22.9256237
            ],
            [
              -42.866144,
              -22.9253976
            ],
            [
              -42.8662158,
              -22.9254427
            ]
          ]
        ]
      }
    }
  ]
}
