{
  "type": "FeatureCollection",
  "features": [
    {
      "type": "Feature",
      "id": "way/1317652692",
      "properties": {
        "timestamp": "2024-09-23T17:54:21Z",
        "version": 1,
        "changeset": 157007525,
        "addr:city": "Maricá",
        "addr:country": "BR",
        "addr:postcode": "24942-395",
        "addr:state": "RJ",
        "addr:street": "Rua da Antiga Via Ferrea",
        "addr:suburb": "São José de Imbassaí",
        "amenity": "school",
        "building": "yes",
        "name": "C.E. Euclydes Paulo da Silva",
        "nohousenumber": "yes",
        "operator": "Governo do Estado do Rio de Janeiro",
        "operator:type": "government",
        "phone": "+55 21 3731 2044",
        "source": "microsoft/BuildingFootprints",
        "id": "way/1317652692"
      },
      "geometry": {
        "type": "Polygon",
        "coordinates": [
          [
            [
              -42.8897017,
              -22.9333221
            ],
            [
              -42.8898525,
              -22.9333489
            ],
            [
              -42.8898315,
              -22.9334495
            ],
            [
              -42.8896806,
              -22.9334227
            ],
            [
              -42.8897017,
              -22.9333221
            ]
          ]
        ]
      }
    },
    {
      "type": "Feature",
      "id": "way/1320183290",
      "properties": {
        "timestamp": "2024-10-05T18:51:21Z",
        "version": 2,
        "changeset": 157513942,
        "amenity": "school",
        "name": "ESCOLA MUNICIPAL AMAURY GOMES",
        "id": "way/1320183290"
      },
      "geometry": {
        "type": "Polygon",
        "coordinates": [
          [
            [
              -42.9356712,
              -22.9657082
            ],
            [
              -42.9356765,
              -22.9661142
            ],
            [
              -42.9352566,
              -22.9661051
            ],
            [
              -42.9352447,
              -22.9656996
            ],
            [
              -42.9356712,
              -22.9657082
            ]
          ]
        ]
      }
    },
    {
      "type": "Feature",
      "id": "way/1321468390",
      "properties": {
        "timestamp": "2024-10-05T18:54:02Z",
        "version": 2,
        "changeset": 157514034,
        "amenity": "school",
        "name": "Instituto Federal Fluminense (IFF) - Campus Maricá",
        "id": "way/1321468390"
      },
      "geometry": {
        "type": "Polygon",
        "coordinates": [
          [
            [
              -42.7922883,
              -22.8750437
            ],
            [
              -42.7916093,
              -22.8759502
            ],
            [
              -42.7905361,
              -22.875437
            ],
            [
              -42.7900441,
              -22.8755569
            ],
            [
              -42.7897189,
              -22.8754745
            ],
            [
              -42.7898693,
              -22.8740436
            ],
            [
              -42.7903198,
              -22.874145
            ],
            [
              -42.7922883,
              -22.8750437
            ]
          ]
        ]
      }
    },
    {
      "type": "Feature",
      "id": "node/4187560997",
      "properties": {
        "timestamp": "2016-05-15T16:37:28Z",
        "version": 1,
        "changeset": 39334598,
        "amenity": "school",
        "name": "Soletrando",
        "id": "node/4187560997"
      },
      "geometry": {
        "type": "Point",
        "coordinates": [
          -42.961832,
          -22.9664412
        ]
      }
    },
    {
      "type": "Feature",
      "id": "node/9227577789",
      "properties": {
        "timestamp": "2024-02-04T01:12:12Z",
        "version": 2,
        "changeset": 147038657,
        "addr:city": "Maricá",
        "addr:country": "BR",
        "addr:postcode": "24933-465",
        "addr:state": "RJ",
        "addr:street": "Rua 83",
        "addr:suburb": "Inoã",
        "amenity": "school",
        "name": "E.M. Marquês de Maricá",
        "nohousenumber": "yes",
        "operator": "Prefeitura Municipal de Maricá",
        "operator:type": "government",
        "id": "node/9227577789"
      },
      "geometry": {
        "type": "Point",
        "coordinates": [
          -42.9268473,
          -22.9708467
        ]
      }
    },
    {
      "type": "Feature",
      "id": "node/11099357207",
      "properties": {
        "timestamp": "2024-02-04T16:02:11Z",
        "version": 4,
        "changeset": 147059767,
        "addr:city": "Maricá",
        "addr:country": "BR",
        "addr:housenumber": "57",
        "addr:postcode": "24900-000",
        "addr:state": "RJ",
        "addr:street": "Avenida Nossa Senhora do Amparo",
        "addr:suburb": "Centro",
        "amenity": "school",
        "name": "C.E.I.M Joana Benedita Rangel",
        "operator": "Prefeitura Municipal de Maricá",
        "operator:type": "government",
        "id": "node/11099357207"
      },
      "geometry": {
        "type": "Point",
        "coordinates": [
          -42.8186908,
          -22.9224198
        ]
      }
    },
    {
      "type": "Feature",
      "id": "node/11580778512",
      "properties": {
        "timestamp": "2024-02-03T04:18:17Z",
        "version": 3,
        "changeset": 147007412,
        "addr:city": "Maricá",
        "addr:country": "BR",
        "addr:postcode": "24930-258",
        "addr:state": "RJ",
        "addr:street": "Rua Ernestina de Olveira Viana",
        "addr:suburb": "Pindobas",
        "amenity": "school",
        "name": "E.M. Alcebíades Afonso Viana Filho",
        "nohousenumber": "yes",
        "old_addr:street": "Estrada Joaquim Afonso Viana",
        "operator": "Prefeitura de Maricá",
        "operator:type": "government",
        "id": "node/11580778512"
      },
      "geometry": {
        "type": "Point",
        "coordinates": [
          -42.8810287,
          -22.9186206
        ]
      }
    },
    {
      "type": "Feature",
      "id": "node/11580943590",
      "properties": {
        "timestamp": "2024-02-03T04:19:20Z",
        "version": 2,
        "changeset": 147007424,
        "addr:city": "Maricá",
        "addr:country": "BR",
        "addr:housenumber": "125",
        "addr:postcode": "24920-270",
        "addr:state": "RJ",
        "addr:street": "Avenida Balneário Bambuí",
        "addr:suburb": "Ponta Negra",
        "amenity": "school",
        "name": "E.M. Alcione Rangel da Silva",
        "old_addr:street": "Rua 82",
        "operator": "Prefeitura de Maricá",
        "operator:type": "government",
        "id": "node/11580943590"
      },
      "geometry": {
        "type": "Point",
        "coordinates": [
          -42.7521134,
          -22.9407865
        ]
      }
    },
    {
      "type": "Feature",
      "id": "node/11581044960",
      "properties": {
        "timestamp": "2024-02-03T04:49:46Z",
        "version": 1,
        "changeset": 147007714,
        "addr:city": "Maricá",
        "addr:country": "BR",
        "addr:postcode": "24900-000",
        "addr:state": "RJ",
        "addr:street": "Estrada da Gamboa",
        "addr:suburb": "Caju",
        "amenity": "school",
        "name": "E.M. Antonio Rufino de Souza Filho",
        "nohousenumber": "yes",
        "operator": "Prefeitura Municipal de Maricá",
        "operator:type": "government",
        "phone": "+55 21 2638 1711",
        "id": "node/11581044960"
      },
      "geometry": {
        "type": "Point",
        "coordinates": [
          -42.7773756,
          -22.9295814
        ]
      }
    },
    {
      "type": "Feature",
      "id": "node/11581109211",
      "properties": {
        "timestamp": "2024-02-04T16:35:40Z",
        "version": 2,
        "changeset": 147061057,
        "addr:city": "Maricá",
        "addr:country": "BR",
        "addr:district": "Itaipuaçu",
        "addr:postcode": "24934-225",
        "addr:state": "RJ",
        "addr:street": "Avenida Jardel Filho",
        "addr:suburb": "Jardim Atlântico Central",
        "amenity": "school",
        "name": "E.M. Anísio Teixeira",
        "nohousenumber": "yes",
        "operator": "Prefeitura Municipal de Maricá",
        "operator:type": "government",
        "id": "node/11581109211"
      },
      "geometry": {
        "type": "Point",
        "coordinates": [
          -42.9534399,
          -22.9590647
        ]
      }
    },
    {
      "type": "Feature",
      "id": "node/11581127680",
      "properties": {
        "timestamp": "2024-02-03T04:31:54Z",
        "version": 2,
        "changeset": 147007543,
        "addr:city": "Maricá",
        "addr:country": "BR",
        "addr:housenumber": "118",
        "addr:state": "RJ",
        "addr:street": "Rua Walter de Carvalho",
        "addr:suburb": "Bananal",
        "amenity": "school",
        "name": "E.M. Amanda Peña A Soares",
        "old_addr:street": "Estrada Ponta Negra",
        "operator": "Prefeitura Municipal de Maricá",
        "operator:type": "government",
        "id": "node/11581127680"
      },
      "geometry": {
        "type": "Point",
        "coordinates": [
          -42.7191957,
          -22.92715
        ]
      }
    },
    {
      "type": "Feature",
      "id": "node/11581138299",
      "properties": {
        "timestamp": "2024-02-03T04:26:16Z",
        "version": 1,
        "changeset": 147007495,
        "addr:city": "Maricá",
        "addr:country": "BR",
        "addr:postcode": "24943-255",
        "addr:state": "RJ",
        "addr:street": "Rua Leonardo José Antunes",
        "addr:suburb": "Inoã",
        "amenity": "school",
        "name": "E.M. Aniceto Elias",
        "nohousenumber": "yes",
        "operator": "Prefeitura Municipal de Maricá",
        "operator:type": "government",
        "id": "node/11581138299"
      },
      "geometry": {
        "type": "Point",
        "coordinates": [
          -42.9325997,
          -22.9125734
        ]
      }
    },
    {
      "type": "Feature",
      "id": "node/11581205685",
      "properties": {
        "timestamp": "2024-02-03T04:44:15Z",
        "version": 1,
        "changeset": 147007664,
        "addr:city": "Maricá",
        "addr:country": "BR",
        "addr:housenumber": "372",
        "addr:postcode": "24942-395",
        "addr:state": "RJ",
        "addr:street": "Avenida Portinari",
        "addr:suburb": "Itapeba",
        "amenity": "school",
        "name": "E.M. Antonio Lopes da Fontoura",
        "operator": "Prefeitura Municipal de Maricá",
        "operator:type": "government",
        "id": "node/11581205685"
      },
      "geometry": {
        "type": "Point",
        "coordinates": [
          -42.8266277,
          -22.9038585
        ]
      }
    },
    {
      "type": "Feature",
      "id": "node/11581210984",
      "properties": {
        "timestamp": "2024-02-03T04:59:57Z",
        "version": 1,
        "changeset": 147007810,
        "addr:city": "Maricá",
        "addr:country": "BR",
        "addr:housenumber": "16",
        "addr:postcode": "24942-395",
        "addr:state": "RJ",
        "addr:street": "Rua dos Pescadores",
        "addr:suburb": "Zacarias",
        "amenity": "school",
        "name": "E.M. Barra de Zacarias",
        "operator": "Prefeitura Municipal de Maricá",
        "id": "node/11581210984"
      },
      "geometry": {
        "type": "Point",
        "coordinates": [
          -42.8262322,
          -22.9577659
        ]
      }
    },
    {
      "type": "Feature",
      "id": "node/11581217693",
      "properties": {
        "timestamp": "2024-02-04T16:34:31Z",
        "version": 3,
        "changeset": 147061020,
        "addr:city": "Maricá",
        "addr:country": "BR",
        "addr:district": "Itaipuaçu",
        "addr:housenumber": "Qd 08;Lt 10",
        "addr:state": "RJ",
        "addr:street": "Rua das Turmalinas",
        "addr:suburb": "Morada das Águias",
        "amenity": "school",
        "name": "E.M. Professor Ataliba de Macedo Domingues",
        "operator": "Prefeitura Municipal de Maricá",
        "operator:type": "government",
        "id": "node/11581217693"
      },
      "geometry": {
        "type": "Point",
        "coordinates": [
          -42.9922795,
          -22.9490906
        ]
      }
    },
    {
      "type": "Feature",
      "id": "node/11581224893",
      "properties": {
        "timestamp": "2024-02-03T05:04:54Z",
        "version": 1,
        "changeset": 147007853,
        "addr:city": "Maricá",
        "addr:country": "BR",
        "addr:postcode": "24900-000",
        "addr:state": "RJ",
        "addr:street": "Rua Rio de Janeiro",
        "addr:suburb": "Ubatiba",
        "amenity": "school",
        "name": "E.M. Benvindo Taques Horta",
        "nohousenumber": "yes",
        "old_addr:street": "Rua José Fortes da Silva",
        "operator": "Prefeitura Municipal de Maricá",
        "operator:type": "government",
        "id": "node/11581224893"
      },
      "geometry": {
        "type": "Point",
        "coordinates": [
          -42.8014371,
          -22.892756
        ]
      }
    },
    {
      "type": "Feature",
      "id": "node/11581778428",
      "properties": {
        "timestamp": "2024-02-03T13:15:00Z",
        "version": 1,
        "changeset": 147019391,
        "addr:city": "Maricá",
        "addr:country": "BR",
        "addr:postcode": "24906-020",
        "addr:state": "RJ",
        "addr:street": "Estrada Comandante Celso",
        "addr:suburb": "Lagarto",
        "amenity": "school",
        "name": "E.M. Brasilina Coutinho",
        "nohousenumber": "yes",
        "operator": "Prefeitura Municipal de Maricá",
        "operator:type": "government",
        "id": "node/11581778428"
      },
      "geometry": {
        "type": "Point",
        "coordinates": [
          -42.7741934,
          -22.8625711
        ]
      }
    },
    {
      "type": "Feature",
      "id": "node/11581808047",
      "properties": {
        "timestamp": "2024-10-05T13:35:49Z",
        "version": 5,
        "changeset": 157501552,
        "addr:city": "Maricá",
        "addr:country": "BR",
        "addr:housenumber": "km 22",
        "addr:postcode": "24931-100",
        "addr:state": "RJ",
        "addr:street": "Avenida Guarujá",
        "addr:suburb": "São José do Embassaí",
        "amenity": "school",
        "name": "C.A.I.C. Elomir Silva",
        "old_addr:street": "Rua 1",
        "old_name": "Creche Municipal Pinguinhos de Luz",
        "operator:type": "private",
        "id": "node/11581808047"
      },
      "geometry": {
        "type": "Point",
        "coordinates": [
          -42.8771446,
          -22.9321027
        ]
      }
    },
    {
      "type": "Feature",
      "id": "node/11581822684",
      "properties": {
        "timestamp": "2024-02-03T13:34:27Z",
        "version": 1,
        "changeset": 147020077,
        "addr:city": "Maricá",
        "addr:country": "BR",
        "addr:housenumber": "100",
        "addr:postcode": "24906-020",
        "addr:state": "RJ",
        "addr:street": "Rua Barão de Inoã",
        "addr:suburb": "Centro",
        "amenity": "school",
        "name": "E.M. Carlos Magno Legentil de Mattos",
        "operator": "Prefeitura Municipal de Maricá",
        "operator:type": "government",
        "id": "node/11581822684"
      },
      "geometry": {
        "type": "Point",
        "coordinates": [
          -42.8202785,
          -22.9161077
        ]
      }
    },
    {
      "type": "Feature",
      "id": "node/11581835139",
      "properties": {
        "timestamp": "2024-10-18T02:52:36Z",
        "version": 2,
        "changeset": 158032119,
        "addr:city": "Maricá",
        "addr:country": "BR",
        "addr:postcode": "24942-285",
        "addr:state": "RJ",
        "addr:street": "Rua Caio Francisco Figueiredo",
        "addr:suburb": "Inoã",
        "amenity": "school",
        "name": "Colégio Estadual Caio Francisco de Figueiredo",
        "nohousenumber": "yes",
        "operator": "Governo do Estado do Rio de Janeiro",
        "operator:type": "government",
        "operator:wikidata": "Q48855361",
        "id": "node/11581835139"
      },
      "geometry": {
        "type": "Point",
        "coordinates": [
          -42.9347478,
          -22.9176473
        ]
      }
    },
    {
      "type": "Feature",
      "id": "node/11581845742",
      "properties": {
        "timestamp": "2024-02-03T13:58:15Z",
        "version": 2,
        "changeset": 147020950,
        "addr:city": "Maricá",
        "addr:country": "BR",
        "addr:housenumber": "2400",
        "addr:postcode": "24900-000",
        "addr:state": "RJ",
        "addr:street": "Avenida Roberto Silveira",
        "addr:suburb": "Flamengo",
        "amenity": "school",
        "name": "E.M. Clério Boechat de Oliveira",
        "operator": "Prefeitura Municipal de Maricá",
        "operator:type": "government",
        "phone": "+55 21 2637 5543",
        "id": "node/11581845742"
      },
      "geometry": {
        "type": "Point",
        "coordinates": [
          -42.801618,
          -22.9050776
        ]
      }
    },
    {
      "type": "Feature",
      "id": "node/11581848753",
      "properties": {
        "timestamp": "2024-10-05T13:35:49Z",
        "version": 3,
        "changeset": 157501552,
        "addr:city": "Maricá",
        "addr:country": "BR",
        "addr:county": "BR",
        "addr:housenumber": "km 17.5",
        "addr:postcode": "24942-375",
        "addr:state": "RJ",
        "addr:street": "Rodovia Ernani do Amaral Peixoto",
        "addr:suburb": "Inoã",
        "amenity": "school",
        "name": "E.M. Inoã",
        "old_name": "Casa da Criança de Inoã",
        "operator": "Prefeitura Municipal de Maricá",
        "operator:type": "government",
        "phone": "+55 21 99999 9998",
        "id": "node/11581848753"
      },
      "geometry": {
        "type": "Point",
        "coordinates": [
          -42.9239283,
          -22.9271339
        ]
      }
    },
    {
      "type": "Feature",
      "id": "node/11581860384",
      "properties": {
        "timestamp": "2024-02-04T16:37:26Z",
        "version": 3,
        "changeset": 147061120,
        "addr:city": "Maricá",
        "addr:country": "BR",
        "addr:district": "Inoã",
        "addr:postcode": "24906-020",
        "addr:state": "RJ",
        "addr:street": "Rua Áustria",
        "addr:suburb": "Chácaras de Inoã",
        "amenity": "school",
        "name": "E.M. Carlos Manoel Lima Costa",
        "nohousenumber": "yes",
        "old_addr:housenumber": "Sítio 100C",
        "old_addr:street": "Rua X",
        "operator": "Prefeitura Municipal de Maricá",
        "operator:type": "government",
        "id": "node/11581860384"
      },
      "geometry": {
        "type": "Point",
        "coordinates": [
          -42.9549813,
          -22.9445435
        ]
      }
    },
    {
      "type": "Feature",
      "id": "node/11581974267",
      "properties": {
        "timestamp": "2024-02-03T19:03:10Z",
        "version": 2,
        "changeset": 147030952,
        "addr:city": "Maricá",
        "addr:country": "BR",
        "addr:postcode": "24943-195",
        "addr:state": "RJ",
        "addr:street": "Rua Euclides Paulo da Silva",
        "addr:suburb": "Inoã",
        "amenity": "school",
        "name": "Escola Municipal Professor Darcy Ribeiro",
        "nohousenumber": "yes",
        "operator": "Prefeitura Municipal de Maricá",
        "operator:type": "government",
        "phone": "+55 21 2629 6495",
        "id": "node/11581974267"
      },
      "geometry": {
        "type": "Point",
        "coordinates": [
          -42.9287623,
          -22.913056
        ]
      }
    },
    {
      "type": "Feature",
      "id": "node/11582013291",
      "properties": {
        "timestamp": "2024-02-04T15:45:58Z",
        "version": 5,
        "changeset": 147059111,
        "addr:city": "Maricá",
        "addr:country": "BR",
        "addr:postcode": "24914-320",
        "addr:state": "RJ",
        "addr:street": "Rodovia Beth Carvalho",
        "addr:suburb": "Jaconé",
        "amenity": "school",
        "name": "E.M. Dilza da Silva Sá Rêgo",
        "nohousenumber": "yes",
        "old_addr:housenumber": "km 58",
        "operator": "Prefeitura Municipal de Maricá",
        "operator:type": "government",
        "ref": "RJ-118",
        "id": "node/11582013291"
      },
      "geometry": {
        "type": "Point",
        "coordinates": [
          -42.6581566,
          -22.9243189
        ]
      }
    },
    {
      "type": "Feature",
      "id": "node/11582034263",
      "properties": {
        "timestamp": "2024-02-04T16:04:30Z",
        "version": 2,
        "changeset": 147059867,
        "addr:city": "Maricá",
        "addr:country": "BR",
        "addr:housenumber": "44",
        "addr:postcode": "24901-020",
        "addr:state": "RJ",
        "addr:street": "Avenida Antônio Vieira Sobrinho",
        "addr:suburb": "Centro",
        "amenity": "school",
        "name": "C.E.I.M. Dó Ré Mi Haroldo Sant'anna Santini",
        "operator": "Prefeitura Municipal de Maricá",
        "operator:type": "government",
        "id": "node/11582034263"
      },
      "geometry": {
        "type": "Point",
        "coordinates": [
          -42.820954,
          -22.9168754
        ]
      }
    },
    {
      "type": "Feature",
      "id": "node/11582046028",
      "properties": {
        "timestamp": "2024-02-04T16:41:14Z",
        "version": 3,
        "changeset": 147061282,
        "addr:city": "Maricá",
        "addr:country": "BR",
        "addr:district": "Itaipuaçu",
        "addr:housenumber": "Qd 15;Lt 1",
        "addr:postcode": "24937-620",
        "addr:state": "RJ",
        "addr:street": "Avenida Prefeito Alcebíades Mendes",
        "addr:suburb": "Morada das Águias",
        "amenity": "school",
        "name": "Escola Indigena kyringue Arandua",
        "operator": "Prefeitura Municipal de Maricá",
        "operator:type": "government",
        "id": "node/11582046028"
      },
      "geometry": {
        "type": "Point",
        "coordinates": [
          -42.993028,
          -22.946784
        ]
      }
    },
    {
      "type": "Feature",
      "id": "node/11582122231",
      "properties": {
        "timestamp": "2024-02-03T16:16:28Z",
        "version": 1,
        "changeset": 147025967,
        "addr:city": "Maricá",
        "addr:country": "BR",
        "addr:postcode": "24919-395",
        "addr:state": "RJ",
        "addr:street": "Estrada Zilto Monteiro de Abreu",
        "addr:suburb": "Caju",
        "amenity": "school",
        "name": "E.M. Jacintho Luiz Caetano Filho",
        "nohousenumber": "yes",
        "operator": "Prefeitura Municipal de Maricá",
        "operator:type": "government",
        "id": "node/11582122231"
      },
      "geometry": {
        "type": "Point",
        "coordinates": [
          -42.7711983,
          -22.9139506
        ]
      }
    },
    {
      "type": "Feature",
      "id": "node/11582382296",
      "properties": {
        "timestamp": "2024-02-04T16:58:07Z",
        "version": 3,
        "changeset": 147061892,
        "addr:city": "Maricá",
        "addr:country": "BR",
        "addr:district": "Itaipuaçu",
        "addr:housenumber": "1",
        "addr:postcode": "24942-395",
        "addr:state": "RJ",
        "addr:street": "Rua Assis Coelho da Silva",
        "addr:suburb": "Zacarias",
        "amenity": "school",
        "name": "E.M. João da Silva Bezerra",
        "operator": "Prefeitura Municipal de Maricá",
        "operator:type": "government",
        "phone": "+55 21 7230 7850",
        "id": "node/11582382296"
      },
      "geometry": {
        "type": "Point",
        "coordinates": [
          -42.8112046,
          -22.9562071
        ]
      }
    },
    {
      "type": "Feature",
      "id": "node/11582418557",
      "properties": {
        "timestamp": "2024-02-04T16:43:17Z",
        "version": 3,
        "changeset": 147061375,
        "addr:city": "Maricá",
        "addr:country": "BR",
        "addr:district": "Itaipuaçu",
        "addr:postcode": "24942-395",
        "addr:state": "RJ",
        "addr:street": "Rua Waldemar Correa Martins",
        "addr:suburb": "Recanto de Itaipuaçu",
        "amenity": "school",
        "name": "E.M. João Monteiro",
        "nohousenumber": "yes",
        "old_name": "Escola Municipal Mata Atlântica",
        "operator": "Prefeitura Municipal de Maricá",
        "operator:type": "government",
        "phone": "+55 21 97368 3000",
        "id": "node/11582418557"
      },
      "geometry": {
        "type": "Point",
        "coordinates": [
          -43.0084779,
          -22.9668797
        ]
      }
    },
    {
      "type": "Feature",
      "id": "node/11582431167",
      "properties": {
        "timestamp": "2024-10-05T13:35:49Z",
        "version": 2,
        "changeset": 157501552,
        "addr:city": "Maricá",
        "addr:country": "BR",
        "addr:housenumber": "km 38",
        "addr:postcode": "24927-420",
        "addr:state": "RJ",
        "addr:street": "Rodovia Amaral Peixoto",
        "addr:suburb": "Manoel Ribeiro",
        "amenity": "school",
        "name": "E.M. João Pedro Machado",
        "operator": "Prefeitura Municipal de Maricá",
        "operator:type": "government",
        "phone": "+55 21 3731 2067",
        "id": "node/11582431167"
      },
      "geometry": {
        "type": "Point",
        "coordinates": [
          -42.7297798,
          -22.9071055
        ]
      }
    },
    {
      "type": "Feature",
      "id": "node/11582441178",
      "properties": {
        "timestamp": "2024-10-18T02:28:49Z",
        "version": 2,
        "changeset": 158031798,
        "addr:city": "Maricá",
        "addr:country": "BR",
        "addr:postcode": "24913-730",
        "addr:state": "RJ",
        "addr:street": "Rua Ledo Barroso Bittencourt",
        "addr:suburb": "Mumbuca",
        "amenity": "school",
        "name": "E.M. Joaquim Eugenio dos Santos",
        "nohousenumber": "yes",
        "operator": "Prefeitura de Maricá",
        "operator:type": "government",
        "id": "node/11582441178"
      },
      "geometry": {
        "type": "Point",
        "coordinates": [
          -42.8235927,
          -22.9116779
        ]
      }
    },
    {
      "type": "Feature",
      "id": "node/11582481173",
      "properties": {
        "timestamp": "2024-07-22T02:09:21Z",
        "version": 2,
        "changeset": 154241878,
        "addr:city": "Maricá",
        "addr:country": "BR",
        "addr:postcode": "24943-095",
        "addr:state": "RJ",
        "addr:street": "Rua 7",
        "addr:suburb": "Inoã",
        "amenity": "school",
        "internet_access": "yes",
        "name": "C.E.I.M. José Carlos de Almeida e Silva",
        "nohousenumber": "yes",
        "operator": "Prefeitura Municipal de Maricá",
        "operator:type": "government",
        "wheelchair": "yes",
        "id": "node/11582481173"
      },
      "geometry": {
        "type": "Point",
        "coordinates": [
          -42.9281841,
          -22.9146852
        ]
      }
    },
    {
      "type": "Feature",
      "id": "node/11582956614",
      "properties": {
        "timestamp": "2024-02-04T00:30:17Z",
        "version": 2,
        "changeset": 147038119,
        "addr:city": "Maricá",
        "addr:country": "BR",
        "addr:postcode": "24942-375",
        "addr:state": "RJ",
        "addr:street": "Rua Valdemar Motta",
        "addr:suburb": "Inoã",
        "amenity": "school",
        "name": "E.M. Lucimere Rodrigues de Melo",
        "nohousenumber": "yes",
        "old_addr:street": "Rua 20",
        "operator": "Prefeitura Municipal de Maricá",
        "operator:type": "government",
        "id": "node/11582956614"
      },
      "geometry": {
        "type": "Point",
        "coordinates": [
          -42.9297406,
          -22.8900712
        ]
      }
    },
    {
      "type": "Feature",
      "id": "node/11582984326",
      "properties": {
        "timestamp": "2024-02-04T00:23:01Z",
        "version": 1,
        "changeset": 147038009,
        "addr:city": "Maricá",
        "addr:country": "BR",
        "addr:postcode": "24942-395",
        "addr:state": "RJ",
        "addr:street": "Rua B",
        "addr:suburb": "São José de Imbassaí",
        "amenity": "school",
        "name": "E.M. Levy Carlos Ribeiro",
        "nohousenumber": "yes",
        "operator": "Prefeitura Municipal de Maricá",
        "operator:type": "government",
        "id": "node/11582984326"
      },
      "geometry": {
        "type": "Point",
        "coordinates": [
          -42.8932139,
          -22.9388376
        ]
      }
    },
    {
      "type": "Feature",
      "id": "node/11582987203",
      "properties": {
        "timestamp": "2024-02-04T00:40:01Z",
        "version": 1,
        "changeset": 147038265,
        "addr:city": "Maricá",
        "addr:country": "BR",
        "addr:postcode": "24921-624",
        "addr:state": "RJ",
        "addr:street": "Rua 11",
        "addr:suburb": "Cordeirinho",
        "amenity": "school",
        "loc_name": "Estrada de Cordeirinho",
        "name": "E.M. Lúcio Thomé Guerra Feteira",
        "nohousenumber": "yes",
        "operator": "Prefeitura Municipal de Maricá",
        "operator:type": "government",
        "id": "node/11582987203"
      },
      "geometry": {
        "type": "Point",
        "coordinates": [
          -42.7462613,
          -22.9529722
        ]
      }
    },
    {
      "type": "Feature",
      "id": "node/11583010885",
      "properties": {
        "timestamp": "2024-02-04T01:34:58Z",
        "version": 1,
        "changeset": 147038947,
        "addr:city": "Maricá",
        "addr:country": "BR",
        "addr:postcode": "24931-605",
        "addr:state": "RJ",
        "addr:street": "Rua Jornalista Alarico Maciel",
        "addr:suburb": "São José de Imbassaí",
        "amenity": "school",
        "name": "C.E.I.M. Nelson Mandela",
        "nohousenumber": "yes",
        "operator": "Prefeitura Municipal de Maricá",
        "operator:type": "government",
        "id": "node/11583010885"
      },
      "geometry": {
        "type": "Point",
        "coordinates": [
          -42.8860553,
          -22.9341795
        ]
      }
    },
    {
      "type": "Feature",
      "id": "node/11583011107",
      "properties": {
        "timestamp": "2024-02-04T16:44:45Z",
        "version": 2,
        "changeset": 147061424,
        "addr:city": "Maricá",
        "addr:country": "BR",
        "addr:district": "Itaipuaçu",
        "addr:postcode": "24931-870",
        "addr:state": "RJ",
        "addr:street": "Rua 8",
        "addr:suburb": "Jardim Atlântico Oeste",
        "amenity": "school",
        "name": "E.M. Maria Cristina de Lima Correa",
        "nohousenumber": "yes",
        "operator": "Prefeitura Municipal de Maricá",
        "operator:type": "government",
        "id": "node/11583011107"
      },
      "geometry": {
        "type": "Point",
        "coordinates": [
          -42.9688875,
          -22.9637992
        ]
      }
    },
    {
      "type": "Feature",
      "id": "node/11583011144",
      "properties": {
        "timestamp": "2024-10-18T02:19:49Z",
        "version": 2,
        "changeset": 158031669,
        "addr:city": "Maricá",
        "addr:country": "BR",
        "addr:postcode": "24931-870",
        "addr:state": "RJ",
        "addr:street": "Rua 8",
        "addr:suburb": "Itaipuaçu",
        "amenity": "school",
        "name": "C.E. Professor Darcy Ribeiro",
        "nohousenumber": "yes",
        "operator": "Governo do Estado do Rio de Janeiro",
        "operator:type": "government",
        "operator:wikidata": "Q48855361",
        "id": "node/11583011144"
      },
      "geometry": {
        "type": "Point",
        "coordinates": [
          -42.9689593,
          -22.9632205
        ]
      }
    },
    {
      "type": "Feature",
      "id": "node/11583016413",
      "properties": {
        "timestamp": "2024-02-13T10:59:55Z",
        "version": 4,
        "changeset": 147403605,
        "addr:city": "Maricá",
        "addr:country": "BR",
        "addr:district": "Inoã",
        "addr:housenumber": "Qd 19;Lt 19",
        "addr:postcode": "24942-375",
        "addr:state": "RJ",
        "addr:street": "Rua Esperança",
        "addr:suburb": "Chácaras de Inoã",
        "amenity": "school",
        "name": "E.M. Marisa Letícia Lula da Silva",
        "old_addr:street": "Rua Cinco",
        "operator": "Prefeitura Municipal de Maricá",
        "operator:type": "government",
        "id": "node/11583016413"
      },
      "geometry": {
        "type": "Point",
        "coordinates": [
          -42.9374834,
          -22.9220826
        ]
      }
    },
    {
      "type": "Feature",
      "id": "node/11583024728",
      "properties": {
        "timestamp": "2024-02-04T01:29:15Z",
        "version": 1,
        "changeset": 147038886,
        "addr:city": "Maricá",
        "addr:country": "BR",
        "addr:housenumber": "55",
        "addr:postcode": "24944-256",
        "addr:state": "RJ",
        "addr:street": "Avenida Orestes Vereza Luiz Genésio",
        "addr:suburb": "Inoã",
        "amenity": "school",
        "name": "E.M. Ministro Luiz Sparano",
        "operator": "Prefeitura Municipal de Maricá",
        "operator:type": "government",
        "id": "node/11583024728"
      },
      "geometry": {
        "type": "Point",
        "coordinates": [
          -42.9404881,
          -22.8980593
        ]
      }
    },
    {
      "type": "Feature",
      "id": "node/11583032543",
      "properties": {
        "timestamp": "2024-02-04T01:03:04Z",
        "version": 1,
        "changeset": 147038549,
        "addr:city": "Maricá",
        "addr:country": "BR",
        "addr:postcode": "24921-736",
        "addr:state": "RJ",
        "addr:street": "Rua Sete",
        "addr:suburb": "Corderinho",
        "amenity": "school",
        "name": "C.E.I.M. Marilza da Conceição Rocha Medina",
        "nohousenumber": "yes",
        "operator": "Prefitura Municipal de Maricá",
        "operator:type": "government",
        "id": "node/11583032543"
      },
      "geometry": {
        "type": "Point",
        "coordinates": [
          -42.7468243,
          -22.9538526
        ]
      }
    },
    {
      "type": "Feature",
      "id": "node/11583033537",
      "properties": {
        "timestamp": "2024-02-04T03:25:14Z",
        "version": 1,
        "changeset": 147040053,
        "addr:city": "Maricá",
        "addr:country": "BR",
        "addr:postcode": "24922-295",
        "addr:state": "RJ",
        "addr:street": "Rua São Pedro Apóstolo",
        "addr:suburb": "Ponta Negra",
        "amenity": "school",
        "name": "E.M. Reginaldo Domingues dos Santos",
        "nohousenumber": "yes",
        "operator": "Prefeitura Municipal de Maricá",
        "operator:type": "government",
        "id": "node/11583033537"
      },
      "geometry": {
        "type": "Point",
        "coordinates": [
          -42.6975536,
          -22.9504169
        ]
      }
    },
    {
      "type": "Feature",
      "id": "node/11583048408",
      "properties": {
        "timestamp": "2024-02-04T16:46:56Z",
        "version": 2,
        "changeset": 147061492,
        "addr:city": "Maricá",
        "addr:country": "BR",
        "addr:district": "Itaipuaçu",
        "addr:postcode": "24901-880",
        "addr:state": "RJ",
        "addr:street": "Rua Prefeito Ivan Mundim",
        "addr:suburb": "Zacarias",
        "amenity": "school",
        "name": "E.M. Mauricio Antunes de Carvalho",
        "nohousenumber": "yes",
        "operator": "Prefeitura Municipal de Maricá",
        "operator:type": "government",
        "id": "node/11583048408"
      },
      "geometry": {
        "type": "Point",
        "coordinates": [
          -42.825547,
          -22.9345681
        ]
      }
    },
    {
      "type": "Feature",
      "id": "node/11583140664",
      "properties": {
        "timestamp": "2024-02-04T02:39:22Z",
        "version": 1,
        "changeset": 147039614,
        "addr:city": "Maricá",
        "addr:country": "BR",
        "addr:postcode": "24900-000",
        "addr:state": "RJ",
        "addr:street": "Avenida Roberto Silveira",
        "addr:suburb": "Centro",
        "amenity": "school",
        "name": "C.E.I.M. Professora Ondina de Oliveira Coelho",
        "nohousenumber": "yes",
        "operator": "Prefeitura Municipal de Maricá",
        "operator:type": "government",
        "id": "node/11583140664"
      },
      "geometry": {
        "type": "Point",
        "coordinates": [
          -42.8155615,
          -22.9174499
        ]
      }
    },
    {
      "type": "Feature",
      "id": "node/11583144768",
      "properties": {
        "timestamp": "2024-02-04T03:05:24Z",
        "version": 1,
        "changeset": 147039869,
        "addr:city": "Maricá",
        "addr:country": "BR",
        "addr:housenumber": "65",
        "addr:postcode": "24910-750",
        "addr:state": "RJ",
        "addr:street": "Estrada de Pindobas",
        "addr:suburb": "Pindobas",
        "amenity": "school",
        "name": "E.M. Pindobas",
        "operator": "Prefeitura Municipal de Maricá",
        "operator:type": "government",
        "id": "node/11583144768"
      },
      "geometry": {
        "type": "Point",
        "coordinates": [
          -42.8372807,
          -22.8846483
        ]
      }
    },
    {
      "type": "Feature",
      "id": "node/11583273974",
      "properties": {
        "timestamp": "2024-10-18T01:47:42Z",
        "version": 2,
        "changeset": 158031286,
        "addr:city": "Maricá",
        "addr:country": "BR",
        "addr:postcode": "24944-660",
        "addr:state": "RJ",
        "addr:street": "Estrada de Cassorotiba",
        "addr:suburb": "Santa Paula",
        "amenity": "school",
        "name": "E.M. Osdevaldo Marins da Matta",
        "nohousenumber": "yes",
        "operator": "Prefeitura Municipal de Maricá",
        "operator:type": "government",
        "id": "node/11583273974"
      },
      "geometry": {
        "type": "Point",
        "coordinates": [
          -42.926187,
          -22.8918974
        ]
      }
    },
    {
      "type": "Feature",
      "id": "node/11583275840",
      "properties": {
        "timestamp": "2024-02-04T03:01:03Z",
        "version": 1,
        "changeset": 147039832,
        "addr:city": "Maricá",
        "addr:country": "BR",
        "addr:postcode": "24942-395",
        "addr:state": "RJ",
        "addr:street": "Estrada dos Cajueiros",
        "addr:suburb": "Itaipuaçu",
        "amenity": "school",
        "name": "E.M. Professor Oswaldo de Lima Rodrigues",
        "nohousenumber": "yes",
        "operator": "Prefeitura Municipal de Maricá",
        "operator:type": "government",
        "id": "node/11583275840"
      },
      "geometry": {
        "type": "Point",
        "coordinates": [
          -42.9407199,
          -22.9517021
        ]
      }
    },
    {
      "type": "Feature",
      "id": "node/11583341462",
      "properties": {
        "timestamp": "2024-02-04T03:30:51Z",
        "version": 1,
        "changeset": 147040106,
        "addr:city": "Maricá",
        "addr:country": "BR",
        "addr:postcode": "24911-850",
        "addr:state": "RJ",
        "addr:street": "Estrada do Retiro",
        "addr:suburb": "Retiro",
        "amenity": "school",
        "name": "E.M. Retiro",
        "nohousenumber": "yes",
        "operator": "Prefeitura Municipal de Maricá",
        "operator:type": "government",
        "id": "node/11583341462"
      },
      "geometry": {
        "type": "Point",
        "coordinates": [
          -42.8625429,
          -22.9164297
        ]
      }
    },
    {
      "type": "Feature",
      "id": "node/11584281163",
      "properties": {
        "timestamp": "2024-02-04T16:48:08Z",
        "version": 2,
        "changeset": 147061550,
        "addr:city": "Maricá",
        "addr:country": "BR",
        "addr:district": "Itaipuaçu",
        "addr:postcode": "24938-880",
        "addr:state": "RJ",
        "addr:street": "Rua Guarani",
        "addr:suburb": "Itaocaia Valley",
        "amenity": "school",
        "name": "E.M. Rita Sampaio Cartaxo",
        "nohousenumber": "yes",
        "operator": "Prefeitura Municipal de Maricá",
        "operator:type": "government",
        "id": "node/11584281163"
      },
      "geometry": {
        "type": "Point",
        "coordinates": [
          -42.9643897,
          -22.931267
        ]
      }
    },
    {
      "type": "Feature",
      "id": "node/11584302270",
      "properties": {
        "timestamp": "2024-02-04T13:46:21Z",
        "version": 1,
        "changeset": 147054666,
        "addr:city": "Maricá",
        "addr:country": "BR",
        "addr:housenumber": "438",
        "addr:postcode": "24900-155",
        "addr:state": "RJ",
        "addr:street": "Rua dos Quintanilhas",
        "addr:suburb": "Pedreiras",
        "amenity": "school",
        "name": "E.M. Romilda dos Santos",
        "operator": "Prefeitura Municipal de Maricá",
        "operator:type": "government",
        "id": "node/11584302270"
      },
      "geometry": {
        "type": "Point",
        "coordinates": [
          -42.8165534,
          -22.9123722
        ]
      }
    },
    {
      "type": "Feature",
      "id": "node/11584317799",
      "properties": {
        "timestamp": "2024-02-04T14:20:09Z",
        "version": 2,
        "changeset": 147055691,
        "addr:city": "Maricá",
        "addr:country": "BR",
        "addr:housenumber": "Qd 32;Lt 6",
        "addr:postcode": "24943-080",
        "addr:state": "RJ",
        "addr:street": "Estrada do Bosque Fundo",
        "addr:suburb": "Inoã",
        "amenity": "school",
        "name": "E.M. Romilda Nunes",
        "operator": "Prefeitura Municipal de Maricá",
        "operator:type": "government",
        "id": "node/11584317799"
      },
      "geometry": {
        "type": "Point",
        "coordinates": [
          -42.9215875,
          -22.907817
        ]
      }
    },
    {
      "type": "Feature",
      "id": "node/11584325666",
      "properties": {
        "timestamp": "2024-02-04T14:51:16Z",
        "version": 2,
        "changeset": 147057012,
        "addr:city": "Maricá",
        "addr:country": "BR",
        "addr:postcode": "24903-470",
        "addr:state": "RJ",
        "addr:street": "Rua Uirapurus",
        "addr:suburb": "Centro",
        "amenity": "school",
        "name": "E.M. Rynalda Rodrigues da Silva",
        "nohousenumber": "yes",
        "note": "Escola preparada para educação especial.",
        "operator": "Prefeitura Municipal de Maricá",
        "operator:type": "government",
        "id": "node/11584325666"
      },
      "geometry": {
        "type": "Point",
        "coordinates": [
          -42.8141571,
          -22.9159939
        ]
      }
    },
    {
      "type": "Feature",
      "id": "node/11584344547",
      "properties": {
        "timestamp": "2024-02-04T16:50:25Z",
        "version": 2,
        "changeset": 147061616,
        "addr:city": "Maricá",
        "addr:country": "BR",
        "addr:district": "Itaipuaçu",
        "addr:housenumber": "22",
        "addr:postcode": "24900-000",
        "addr:state": "RJ",
        "addr:street": "Rua 75",
        "addr:suburb": "Zacarias",
        "amenity": "school",
        "name": "C.E.I.M. Sidinéia da Silva Costa",
        "note": "Escola preparada para educação especial.",
        "operator": "Prefeitura Municipal de Maricá",
        "operator:type": "government",
        "id": "node/11584344547"
      },
      "geometry": {
        "type": "Point",
        "coordinates": [
          -42.8256122,
          -22.9364205
        ]
      }
    },
    {
      "type": "Feature",
      "id": "node/11584359363",
      "properties": {
        "timestamp": "2024-02-04T14:59:06Z",
        "version": 1,
        "changeset": 147057329,
        "addr:city": "Maricá",
        "addr:country": "BR",
        "addr:housenumber": "Qd 62;Lt 25",
        "addr:postcode": "24900-000",
        "addr:state": "RJ",
        "addr:street": "Rua 48",
        "addr:suburb": "Guaratiba",
        "amenity": "school",
        "name": "J.I.M. Trenzinho da Esperança",
        "note": "Creche. Jardim de Infância.",
        "operator": "Prefeitura Municipal de Maricá",
        "operator:type": "government",
        "id": "node/11584359363"
      },
      "geometry": {
        "type": "Point",
        "coordinates": [
          -42.7936445,
          -22.9570917
        ]
      }
    },
    {
      "type": "Feature",
      "id": "node/11584366008",
      "properties": {
        "timestamp": "2024-02-04T16:49:32Z",
        "version": 4,
        "changeset": 147061595,
        "addr:city": "Maricá",
        "addr:country": "BR",
        "addr:district": "Itaipuaçu",
        "addr:housenumber": "Lt 10",
        "addr:postcode": "24936-970",
        "addr:state": "RJ",
        "addr:street": "Rua Santa Beatriz",
        "addr:suburb": "Morada das Águias",
        "amenity": "school",
        "grades": "1-5",
        "name": "C.E.I.M. São Bento da Lagoa",
        "note": "Creche no Brasil - 0 a 5 anos.",
        "old_addr:street": "Rua 12",
        "operator:type": "privado",
        "phone": "+55 21 2639 6649",
        "phone:mobile": "+55 21 97036 2062",
        "id": "node/11584366008"
      },
      "geometry": {
        "type": "Point",
        "coordinates": [
          -42.9904211,
          -22.9665832
        ]
      }
    },
    {
      "type": "Feature",
      "id": "node/11584425028",
      "properties": {
        "timestamp": "2024-02-04T16:51:29Z",
        "version": 2,
        "changeset": 147061681,
        "addr:city": "Maricá",
        "addr:country": "BR",
        "addr:district": "Itaipuaçu",
        "addr:postcode": "24937-450",
        "addr:state": "RJ",
        "addr:street": "Rua Deoclécio Machado",
        "addr:suburb": "Jardim Atlântico Oeste",
        "amenity": "school",
        "name": "C.E.I.M. Valéria Ramos Passos",
        "old_addr:street": "Rua 8",
        "operator": "Prefeitura Municipal de Maricá",
        "operator:type": "government",
        "id": "node/11584425028"
      },
      "geometry": {
        "type": "Point",
        "coordinates": [
          -43.0011881,
          -22.9589742
        ]
      }
    },
    {
      "type": "Feature",
      "id": "node/11584425335",
      "properties": {
        "timestamp": "2024-02-04T15:13:02Z",
        "version": 1,
        "changeset": 147057873,
        "addr:city": "Maricá",
        "addr:country": "BR",
        "addr:housenumber": "137",
        "addr:postcode": "24901-010",
        "addr:state": "RJ",
        "addr:street": "Rua Barão de Inoã",
        "addr:suburb": "Centro",
        "amenity": "school",
        "name": "C.E.P.T. Professora Zilca Lopes",
        "operator": "Prefeitura Municipal de Maricá",
        "operator:type": "government",
        "id": "node/11584425335"
      },
      "geometry": {
        "type": "Point",
        "coordinates": [
          -42.8200594,
          -22.9182146
        ]
      }
    },
    {
      "type": "Feature",
      "id": "node/11584687046",
      "properties": {
        "timestamp": "2024-02-04T17:06:09Z",
        "version": 1,
        "changeset": 147062129,
        "addr:city": "Maricá",
        "addr:country": "BR",
        "addr:district": "Itaipuaçu",
        "addr:housenumber": "655",
        "addr:postcode": "24936-130",
        "addr:state": "RJ",
        "addr:street": "Rua das Acácias",
        "amenity": "school",
        "name": "Colégio Pinheiro Giannattasio",
        "id": "node/11584687046"
      },
      "geometry": {
        "type": "Point",
        "coordinates": [
          -42.9836984,
          -22.9576787
        ]
      }
    },
    {
      "type": "Feature",
      "id": "node/11584723517",
      "properties": {
        "timestamp": "2024-02-04T17:18:07Z",
        "version": 1,
        "changeset": 147062513,
        "addr:city": "Maricá",
        "addr:district": "Itaipuaçu",
        "addr:housenumber": "250",
        "addr:postcode": "24900-000",
        "addr:street": "Rua Van Lerbergue",
        "amenity": "school",
        "name": "Escola Santos Gueller",
        "id": "node/11584723517"
      },
      "geometry": {
        "type": "Point",
        "coordinates": [
          -42.9632234,
          -22.9648194
        ]
      }
    },
    {
      "type": "Feature",
      "id": "node/11584727464",
      "properties": {
        "timestamp": "2024-02-13T11:00:04Z",
        "version": 2,
        "changeset": 147403606,
        "addr:city": "Maricá",
        "addr:district": "Itaipuaçu",
        "addr:postcode": "24937-225",
        "addr:street": "Rua Waldemar Correa Martins",
        "addr:suburb": "Recanto de Itaipuaçu",
        "amenity": "school",
        "name": "Escola Municipal João Monteiro",
        "name:pt": "Escola Municipal João Monteiro",
        "opening_hours": "Mo-Fr 07:00-22:00",
        "phone": "+55 21 26384798",
        "id": "node/11584727464"
      },
      "geometry": {
        "type": "Point",
        "coordinates": [
          -43.009643,
          -22.9658004
        ]
      }
    },
    {
      "type": "Feature",
      "id": "node/11585056451",
      "properties": {
        "timestamp": "2024-02-04T19:59:56Z",
        "version": 1,
        "changeset": 147067520,
        "addr:city": "Maricá",
        "addr:country": "BR",
        "addr:housenumber": "Qd 90;Lt 18",
        "addr:postcode": "24902-760",
        "addr:state": "RJ",
        "addr:street": "Avenida 3",
        "addr:suburb": "Bairro da Amizade",
        "amenity": "school",
        "name": "C.E.I.M. Recanto da Amizade",
        "old_addr:street": "Rua 56",
        "old_name": "E.M. Marcus Vinícius Caetano Santana",
        "operator": "Prefeitura Municipal de Maricá",
        "operator:type": "government",
        "id": "node/11585056451"
      },
      "geometry": {
        "type": "Point",
        "coordinates": [
          -42.8159295,
          -22.9334632
        ]
      }
    },
    {
      "type": "Feature",
      "id": "node/11585078233",
      "properties": {
        "timestamp": "2024-02-04T19:54:47Z",
        "version": 1,
        "changeset": 147067372,
        "addr:city": "Maricá",
        "addr:country": "BR",
        "addr:housenumber": "115",
        "addr:postcode": "24900-000",
        "addr:state": "RJ",
        "addr:street": "Rua Abreu Rangel",
        "addr:suburb": "Centro",
        "amenity": "school",
        "name": "Colégio Estadual Elisiário da Matta",
        "operator": "Governo do Estado do Rio de Janeiro",
        "operator:type": "government",
        "id": "node/11585078233"
      },
      "geometry": {
        "type": "Point",
        "coordinates": [
          -42.8189658,
          -22.9180393
        ]
      }
    },
    {
      "type": "Feature",
      "id": "node/11585115128",
      "properties": {
        "timestamp": "2024-10-18T03:09:41Z",
        "version": 2,
        "changeset": 158032362,
        "addr:city": "Maricá",
        "addr:country": "BR",
        "addr:housenumber": "259",
        "addr:postcode": "24900-000",
        "addr:state": "RJ",
        "addr:street": "Avenida Roberto Silveira",
        "addr:suburb": "Centro",
        "amenity": "school",
        "name": "CIEP Professora Maria do Amparo Rangel e Souza",
        "operator": "Governo do Estado do Rio de Janeiro",
        "operator:type": "government",
        "operator:wikidata": "Q48855361",
        "phone": "+55 21 2637 4264",
        "id": "node/11585115128"
      },
      "geometry": {
        "type": "Point",
        "coordinates": [
          -42.8143587,
          -22.9167266
        ]
      }
    },
    {
      "type": "Feature",
      "id": "node/11585123347",
      "properties": {
        "timestamp": "2024-02-04T20:22:44Z",
        "version": 1,
        "changeset": 147068320,
        "addr:city": "Maricá",
        "addr:country": "BR",
        "addr:postcode": "24922-300",
        "addr:state": "RJ",
        "addr:street": "Rua Simão Luiz Da Costa",
        "addr:suburb": "Ponta Negra",
        "amenity": "school",
        "name": "Colégio Estadual Francisco José do Nascimento",
        "operator:type": "privado",
        "id": "node/11585123347"
      },
      "geometry": {
        "type": "Point",
        "coordinates": [
          -42.6974551,
          -22.9526634
        ]
      }
    },
    {
      "type": "Feature",
      "id": "node/11585130889",
      "properties": {
        "timestamp": "2024-02-04T20:11:44Z",
        "version": 1,
        "changeset": 147067978,
        "addr:city": "Maricá",
        "addr:country": "BR",
        "addr:housenumber": "147",
        "addr:postcode": "24900-000",
        "addr:state": "RJ",
        "addr:street": "Rua Professor Hilário Costa e Silva",
        "addr:suburb": "Eldorado",
        "amenity": "school",
        "name": "Colégio Opção A",
        "operator:type": "privado",
        "id": "node/11585130889"
      },
      "geometry": {
        "type": "Point",
        "coordinates": [
          -42.821972,
          -22.9185029
        ]
      }
    },
    {
      "type": "Feature",
      "id": "node/11585143960",
      "properties": {
        "timestamp": "2024-02-04T20:31:43Z",
        "version": 1,
        "changeset": 147068644,
        "addr:city": "Maricá",
        "addr:country": "BR",
        "addr:housenumber": "Qd E;Lt 13",
        "addr:postcode": "24900-000",
        "addr:state": "RJ",
        "addr:street": "Rua 4",
        "addr:suburb": "Guaratiba",
        "amenity": "school",
        "name": "E.M. Guaratiba",
        "operator": "Prefeitura Municipal de Maricá",
        "operator:type": "government",
        "id": "node/11585143960"
      },
      "geometry": {
        "type": "Point",
        "coordinates": [
          -42.7956654,
          -22.9563865
        ]
      }
    },
    {
      "type": "Feature",
      "id": "node/11585148184",
      "properties": {
        "timestamp": "2024-02-04T20:19:21Z",
        "version": 1,
        "changeset": 147068218,
        "addr:city": "Maricá",
        "addr:country": "BR",
        "addr:housenumber": "Qd 17",
        "addr:postcode": "24904-400",
        "addr:state": "RJ",
        "addr:street": "Rua Visconde de Itauna",
        "addr:suburb": "Marques",
        "amenity": "school",
        "name": "E.M. Alfredo Nicolau da Silva Junior",
        "operator": "Prefeitura Municipal de Maricá",
        "operator:type": "government",
        "phone": "+55 21 3731 4828",
        "id": "node/11585148184"
      },
      "geometry": {
        "type": "Point",
        "coordinates": [
          -42.7976152,
          -22.9065933
        ]
      }
    },
    {
      "type": "Feature",
      "id": "node/11585161616",
      "properties": {
        "timestamp": "2024-02-04T20:28:43Z",
        "version": 1,
        "changeset": 147068521,
        "addr:city": "Maricá",
        "addr:country": "BR",
        "addr:postcode": "24931-155",
        "addr:state": "RJ",
        "addr:street": "Estrada Real de Maricá",
        "addr:suburb": "Itapeba",
        "amenity": "school",
        "name": "E.M. Conego Batalha",
        "nohousenumber": "yes",
        "old_addr:street": "Estrada Velha de Maricá",
        "operator": "Prefeitura Municipal de Maricá",
        "operator:type": "government",
        "phone": "+55 21 2634 8252",
        "ref": "km 22",
        "id": "node/11585161616"
      },
      "geometry": {
        "type": "Point",
        "coordinates": [
          -42.8725938,
          -22.9351158
        ]
      }
    },
    {
      "type": "Feature",
      "id": "node/11585175423",
      "properties": {
        "timestamp": "2024-02-04T20:46:52Z",
        "version": 1,
        "changeset": 147069049,
        "addr:city": "Maricá",
        "addr:country": "BR",
        "addr:housenumber": "5",
        "addr:state": "RJ",
        "addr:street": "Rua D",
        "addr:suburb": "Inoã",
        "amenity": "school",
        "loc_name": "Brizolão",
        "name": "CIEP Professor Robson Mendonça Lou",
        "old_addr:street": "Leito da Estrada de Ferro",
        "phone": "+55 21 2636 2963",
        "id": "node/11585175423"
      },
      "geometry": {
        "type": "Point",
        "coordinates": [
          -42.9351199,
          -22.9187979
        ]
      }
    },
    {
      "type": "Feature",
      "id": "node/11585215586",
      "properties": {
        "timestamp": "2024-02-04T21:14:03Z",
        "version": 1,
        "changeset": 147069887,
        "addr:city": "Maricá",
        "addr:country": "BR",
        "addr:postcode": "24900-000",
        "addr:state": "RJ",
        "addr:suburb": "Espraiado",
        "amenity": "school",
        "loc_name": "E.M. do Espraiado",
        "name": "E.M. Pedro Augusto de Azevedo Costa",
        "nohousenumber": "yes",
        "operator": "Prefeitura Municipal de Maricá",
        "operator:type": "government",
        "phone": "+55 21 2648 6927",
        "id": "node/11585215586"
      },
      "geometry": {
        "type": "Point",
        "coordinates": [
          -42.7098484,
          -22.8888706
        ]
      }
    },
    {
      "type": "Feature",
      "id": "node/11585766733",
      "properties": {
        "timestamp": "2024-02-05T01:24:13Z",
        "version": 1,
        "changeset": 147074793,
        "addr:city": "Maricá",
        "addr:country": "BR",
        "addr:postcode": "24900-000",
        "addr:state": "RJ",
        "addr:street": "Avenida Clímaco de Figueiredo",
        "addr:suburb": "Itapeba",
        "amenity": "school",
        "name": "E.E. Cacilda da Silva",
        "nohousenumber": "yes",
        "operator": "Governo do Estado do Rio de Janeiro",
        "operator:type": "government",
        "id": "node/11585766733"
      },
      "geometry": {
        "type": "Point",
        "coordinates": [
          -42.8358773,
          -22.9102439
        ]
      }
    },
    {
      "type": "Feature",
      "id": "node/11837459964",
      "properties": {
        "timestamp": "2024-09-16T23:27:11Z",
        "version": 2,
        "changeset": 156708740,
        "addr:city": "Maricá",
        "addr:country": "Brasil",
        "addr:state": "Rio de Janeiro",
        "addr:street": "Rua Apolonio Elias da Cruz",
        "addr:suburb": "Inoã",
        "amenity": "school",
        "latitude": "-22.911428",
        "longitude": "-42.932278",
        "name": "Colégio Estadual Doutor João Gomes de Mattos Sobrinho",
        "operator:type": "government",
        "source": "IBGE",
        "id": "node/11837459964"
      },
      "geometry": {
        "type": "Point",
        "coordinates": [
          -42.9321836,
          -22.91146
        ]
      }
    },
    {
      "type": "Feature",
      "id": "node/12259898601",
      "properties": {
        "timestamp": "2024-10-18T00:39:08Z",
        "version": 1,
        "changeset": 158030503,
        "addr:city": "Maricá",
        "addr:postcode": "24900-360",
        "addr:street": "Rua Rodrigo Alves Rangel",
        "addr:suburb": "Centro",
        "amenity": "school",
        "name": "Colégio HMS",
        "nohousenumber": "yes",
        "id": "node/12259898601"
      },
      "geometry": {
        "type": "Point",
        "coordinates": [
          -42.8157729,
          -22.9152025
        ]
      }
    },
    {
      "type": "Feature",
      "id": "node/12374090037",
      "properties": {
        "timestamp": "2024-11-25T17:06:13Z",
        "version": 1,
        "changeset": 159582562,
        "addr:city": "Maricá",
        "addr:housenumber": "1138",
        "addr:postcode": "24903-815",
        "addr:street": "Avenida Roberto Silveira",
        "addr:suburb": "Flamengo",
        "amenity": "school",
        "country": "BR",
        "grades": "10-12",
        "name": "CE Domicio da Gama",
        "not:operator:wikidata": "Q48855361",
        "operator": "Governo do Estado do Rio de Janeiro",
        "operator:type": "public",
        "phone": "(21) 2637-4980",
        "religion": "none",
        "state": "Rio de Janeiro",
        "id": "node/12374090037"
      },
      "geometry": {
        "type": "Point",
        "coordinates": [
          -42.8066332,
          -22.915651
        ]
      }
    }
  ]
}
