{
  "type": "FeatureCollection",
  "features": [
    {
      "type": "Feature",
      "id": "way/1286591311",
      "properties": {
        "timestamp": "2024-05-25T14:38:01Z",
        "version": 1,
        "changeset": 151814780,
        "addr:city": "Nova Floresta",
        "addr:postcode": "58178-000",
        "addr:street": "Sítio Boi Morto",
        "amenity": "clinic",
        "building": "yes",
        "healthcare": "clinic",
        "name": "Posto de Saúde Nossa Senhora de Lourdes",
        "opening_hours": "Mo 07:00-11:00",
        "operator": "Sistema Único de Saúde",
        "operator:short": "SUS",
        "operator:type": "public",
        "operator:wikidata": "Q7531056",
        "ref:CNES": "2364190",
        "id": "way/1286591311"
      },
      "geometry": {
        "type": "Polygon",
        "coordinates": [
          [
            [
              -36.2239479,
              -6.5235053
            ],
            [
              -36.2239972,
              -6.5236294
            ],
            [
              -36.2239172,
              -6.5236608
            ],
            [
              -36.2238679,
              -6.5235367
            ],
            [
              -36.2239479,
              -6.5235053
            ]
          ]
        ]
      }
    },
    {
      "type": "Feature",
      "id": "way/1286591313",
      "properties": {
        "timestamp": "2024-05-25T14:38:01Z",
        "version": 1,
        "changeset": 151814780,
        "addr:city": "Nova Floresta",
        "addr:housenumber": "526",
        "addr:postcode": "58178-000",
        "addr:street": "Rua Elpídio Sabino de Oliveira",
        "amenity": "clinic",
        "building": "yes",
        "healthcare": "clinic",
        "name": "Unidade de Saúde da Família PSF III Nova Floresta",
        "operator": "Sistema Único de Saúde",
        "operator:short": "SUS",
        "operator:type": "public",
        "operator:wikidata": "Q7531056",
        "ref:CNES": "3603571",
        "id": "way/1286591313"
      },
      "geometry": {
        "type": "Polygon",
        "coordinates": [
          [
            [
              -36.208959,
              -6.4541158
            ],
            [
              -36.2089889,
              -6.4542856
            ],
            [
              -36.2088924,
              -6.4542889
            ],
            [
              -36.2088638,
              -6.4541192
            ],
            [
              -36.208959,
              -6.4541158
            ]
          ]
        ]
      }
    },
    {
      "type": "Feature",
      "id": "node/11913911211",
      "properties": {
        "timestamp": "2024-05-17T18:21:37Z",
        "version": 1,
        "changeset": 151467001,
        "addr:postcode": "58178000",
        "addr:street": "Rua 31 de Março",
        "addr:suburb": "Centro",
        "amenity": "clinic",
        "healthcare": "clinic",
        "name": "Unidade de Saúde da Família PSF IV Nova Floresta",
        "operator": "Sistema Único da Saúde",
        "operator:short": "SUS",
        "operator:wikidata": "Q7531056",
        "phone": "+558333741406",
        "ref:CNES": "3568792",
        "id": "node/11913911211"
      },
      "geometry": {
        "type": "Point",
        "coordinates": [
          -36.1989011,
          -6.4553076
        ]
      }
    },
    {
      "type": "Feature",
      "id": "node/11913911213",
      "properties": {
        "timestamp": "2024-05-25T14:38:01Z",
        "version": 2,
        "changeset": 151814780,
        "addr:postcode": "58178000",
        "addr:street": "Rua 7 de Setembro",
        "addr:suburb": "Centro",
        "amenity": "clinic",
        "healthcare": "clinic",
        "name": "Unidade de Saúde da Família PSF II Nova Floresta",
        "operator": "Sistema Único da Saúde",
        "operator:short": "SUS",
        "operator:wikidata": "Q7531056",
        "phone": "+55833741251",
        "ref:CNES": "2364360",
        "id": "node/11913911213"
      },
      "geometry": {
        "type": "Point",
        "coordinates": [
          -36.2045841,
          -6.457322
        ]
      }
    },
    {
      "type": "Feature",
      "id": "node/11913911214",
      "properties": {
        "timestamp": "2024-05-17T18:21:37Z",
        "version": 1,
        "changeset": 151467001,
        "addr:postcode": "58178000",
        "addr:street": "Rua Prefeito Menésio Dantas",
        "addr:suburb": "Centro",
        "amenity": "clinic",
        "healthcare": "clinic",
        "name": "Unidade de Saúde da Família PSF I Nova Floresta",
        "operator": "Sistema Único da Saúde",
        "operator:short": "SUS",
        "operator:wikidata": "Q7531056",
        "phone": "+55833741251",
        "ref:CNES": "2364182",
        "id": "node/11913911214"
      },
      "geometry": {
        "type": "Point",
        "coordinates": [
          -36.2008269,
          -6.4564123
        ]
      }
    },
    {
      "type": "Feature",
      "id": "node/11933170666",
      "properties": {
        "timestamp": "2024-05-25T14:38:01Z",
        "version": 1,
        "changeset": 151814780,
        "addr:city": "Nova Floresta",
        "addr:postcode": "58178-000",
        "addr:street": "Rua Presidente João Pessoa",
        "addr:suburb": "Centro",
        "amenity": "clinic",
        "healthcare": "clinic",
        "name": "Unidade Mista de Saúde Nossa Senhora das Graças",
        "opening_hours": "24/7",
        "operator": "Sistema Único de Saúde",
        "operator:short": "SUS",
        "operator:type": "public",
        "operator:wikidata": "Q7531056",
        "ref:CNES": "2343207",
        "id": "node/11933170666"
      },
      "geometry": {
        "type": "Point",
        "coordinates": [
          -36.2042515,
          -6.4542257
        ]
      }
    },
    {
      "type": "Feature",
      "id": "node/11933170667",
      "properties": {
        "timestamp": "2024-05-25T14:38:01Z",
        "version": 1,
        "changeset": 151814780,
        "addr:city": "Nova Floresta",
        "addr:postcode": "58178-000",
        "addr:street": "Rua Presidente João Pessoa",
        "addr:suburb": "Centro",
        "amenity": "clinic",
        "healthcare": "clinic",
        "name": "Unidade de Saúde da Família PSF V Nova Floresta",
        "operator": "Sistema Único de Saúde",
        "operator:short": "SUS",
        "operator:type": "public",
        "operator:wikidata": "Q7531056",
        "phone": "+558333741406",
        "ref:CNES": "7599617",
        "id": "node/11933170667"
      },
      "geometry": {
        "type": "Point",
        "coordinates": [
          -36.2019407,
          -6.454527
        ]
      }
    }
  ]
}
