{
  "type": "FeatureCollection",
  "features": [
    {
      "type": "Feature",
      "id": "way/466767203",
      "properties": {
        "timestamp": "2022-11-22T23:21:16Z",
        "version": 3,
        "changeset": 129257883,
        "addr:housenumber": "175",
        "addr:postcode": "11623-286",
        "addr:street": "Rua Benedito Izidoro de Moraes",
        "addr:suburb": "Juquehy",
        "amenity": "clinic",
        "building": "yes",
        "healthcare": "clinic",
        "name": "Unidade de Saúde da Família Juquehy I",
        "opening_hours": "Mo-Fr 08:00-17:00; Sa, Su, PH off",
        "operator": "Secretaria de Saúde de São Sebastião",
        "operator:type": "government",
        "phone": "+55 12 3863 2030",
        "ref": "CNES-2765810",
        "source": "CNES",
        "id": "way/466767203"
      },
      "geometry": {
        "type": "Polygon",
        "coordinates": [
          [
            [
              -45.7284634,
              -23.7661302
            ],
            [
              -45.7284614,
              -23.7663246
            ],
            [
              -45.7281828,
              -23.7663246
            ],
            [
              -45.7281847,
              -23.766132
            ],
            [
              -45.7284634,
              -23.7661302
            ]
          ]
        ]
      }
    },
    {
      "type": "Feature",
      "id": "way/1057422528",
      "properties": {
        "timestamp": "2024-01-29T19:11:20Z",
        "version": 3,
        "changeset": 146835022,
        "addr:housenumber": "34",
        "addr:postcode": "11604-186",
        "addr:street": "Rua Bernardo Cardim Neto",
        "addr:suburb": "Morro do Abrigo",
        "amenity": "clinic",
        "healthcare": "clinic",
        "name": "Centro de Saúde Doutor Antônio Carlos Braga",
        "opening_hours": "Mo-Fr 08:00-17:10; Sa,Su,PH off",
        "operator": "Secretaria de Saúde de São Sebastião",
        "operator:type": "government",
        "phone": "+55 12 3862 1812",
        "ref": "CNES-2765918",
        "source": "CNES",
        "id": "way/1057422528"
      },
      "geometry": {
        "type": "Polygon",
        "coordinates": [
          [
            [
              -45.4166995,
              -23.7596352
            ],
            [
              -45.4164815,
              -23.7599591
            ],
            [
              -45.4164113,
              -23.7599069
            ],
            [
              -45.4163785,
              -23.759778
            ],
            [
              -45.4166311,
              -23.7596406
            ],
            [
              -45.4166995,
              -23.7596352
            ]
          ]
        ]
      }
    },
    {
      "type": "Feature",
      "id": "way/1117458570",
      "properties": {
        "timestamp": "2023-11-30T01:55:25Z",
        "version": 3,
        "changeset": 144609099,
        "addr:housenumber": "280",
        "addr:postcode": "11610-172",
        "addr:street": "Rua Antônio Pereira da Silva",
        "addr:suburb": "Topolândia",
        "amenity": "clinic",
        "building": "yes",
        "healthcare": "clinic",
        "healthcare:speciality": "banco_de_leite_humano;odontologia;infectologia",
        "name": "Centro de Saúde Topolândia Josiane Pereira de Jesus",
        "opening_hours": "Mo-Fr 08:00-17:00; Sa,Su,PH off",
        "operator": "Secretaria da Saúde de São Sebastião",
        "operator:type": "government",
        "source": "CNES",
        "id": "way/1117458570"
      },
      "geometry": {
        "type": "Polygon",
        "coordinates": [
          [
            [
              -45.4146901,
              -23.8105857
            ],
            [
              -45.414593,
              -23.8103496
            ],
            [
              -45.4148393,
              -23.8102478
            ],
            [
              -45.4148502,
              -23.8101942
            ],
            [
              -45.414828,
              -23.8100409
            ],
            [
              -45.414973,
              -23.8099857
            ],
            [
              -45.4150257,
              -23.8100756
            ],
            [
              -45.4149952,
              -23.8100837
            ],
            [
              -45.4151684,
              -23.8104168
            ],
            [
              -45.4146901,
              -23.8105857
            ]
          ]
        ]
      }
    },
    {
      "type": "Feature",
      "id": "way/1117855563",
      "properties": {
        "timestamp": "2022-11-28T19:58:54Z",
        "version": 3,
        "changeset": 129490233,
        "addr:housenumber": "38",
        "addr:postcode": "11602-352",
        "addr:street": "Rua Maximiliano dos Santos",
        "addr:suburb": "Enseada",
        "amenity": "clinic",
        "building": "yes",
        "healthcare": "clinic",
        "name": "Unidade de Saúde da Família I",
        "opening_hours": "Mo-Fr 08:00-17:00; Sa,Su,PH off",
        "operator": "Secretaria da Saúde de São Sebastião",
        "operator:type": "government",
        "phone": "+55 12 3861 1100",
        "ref": "CNES-9597654",
        "source": "CNES",
        "id": "way/1117855563"
      },
      "geometry": {
        "type": "Polygon",
        "coordinates": [
          [
            [
              -45.4261065,
              -23.7287392
            ],
            [
              -45.4263157,
              -23.7289357
            ],
            [
              -45.4262433,
              -23.7290069
            ],
            [
              -45.4262164,
              -23.7289676
            ],
            [
              -45.4260984,
              -23.7290904
            ],
            [
              -45.425967,
              -23.7289062
            ],
            [
              -45.4259294,
              -23.7289258
            ],
            [
              -45.4259107,
              -23.7288915
            ],
            [
              -45.4259911,
              -23.7288473
            ],
            [
              -45.4260019,
              -23.7287417
            ],
            [
              -45.4260448,
              -23.7287711
            ],
            [
              -45.4261065,
              -23.7287392
            ]
          ]
        ]
      }
    },
    {
      "type": "Feature",
      "id": "way/1118473781",
      "properties": {
        "timestamp": "2022-11-30T22:27:17Z",
        "version": 2,
        "changeset": 129578481,
        "addr:housenumber": "610",
        "addr:postcode": "11612-550",
        "addr:street": "Rodovia Doutor Manoel Hippollyto Rego",
        "addr:suburb": "Barequeçaba",
        "amenity": "clinic",
        "building": "yes",
        "healthcare": "clinic",
        "healthcare:speciality": "general",
        "name": "Unidade de Saúde da Família Barequeçaba",
        "opening_hours": "Mo-Fr 08:00-17:00; Sa,Su,PH off",
        "operator": "Secretaria da Saúde de São Sebastião",
        "operator:type": "government",
        "phone": "+55 12 3862 7013",
        "ref": "CNES-2766124",
        "short_name": "USF Barequeçaba",
        "source": "CNES",
        "id": "way/1118473781"
      },
      "geometry": {
        "type": "Polygon",
        "coordinates": [
          [
            [
              -45.4340275,
              -23.8224209
            ],
            [
              -45.4340741,
              -23.8225767
            ],
            [
              -45.4339667,
              -23.8226008
            ],
            [
              -45.4339079,
              -23.8224571
            ],
            [
              -45.4340275,
              -23.8224209
            ]
          ]
        ]
      }
    },
    {
      "type": "Feature",
      "id": "way/1119654003",
      "properties": {
        "timestamp": "2022-12-05T17:40:49Z",
        "version": 1,
        "changeset": 129750796,
        "addr:housenumber": "750",
        "addr:postcode": "11628-228",
        "addr:street": "Rua Sebastião Romão César",
        "addr:suburb": "Maresias",
        "amenity": "clinic",
        "building": "public",
        "healthcare": "clinic",
        "name": "Unidade da Saúde de Família I e II",
        "opening_hours": "Mo-Fr 08:00-17:00: Sa,Su.PH off",
        "operator": "Secretaria da Saúde de São Sebastião",
        "operator:type": "government",
        "phone": "+55 12 3865 7879",
        "ref": "CNES-9597603",
        "source": "CNES",
        "id": "way/1119654003"
      },
      "geometry": {
        "type": "Polygon",
        "coordinates": [
          [
            [
              -45.5670018,
              -23.7892865
            ],
            [
              -45.5670331,
              -23.7894317
            ],
            [
              -45.5669114,
              -23.7895026
            ],
            [
              -45.5669391,
              -23.7895465
            ],
            [
              -45.5668321,
              -23.7895988
            ],
            [
              -45.5668025,
              -23.7895566
            ],
            [
              -45.56669,
              -23.7896224
            ],
            [
              -45.5666992,
              -23.7896596
            ],
            [
              -45.566666,
              -23.7896629
            ],
            [
              -45.5665867,
              -23.7895195
            ],
            [
              -45.5670018,
              -23.7892865
            ]
          ]
        ]
      }
    },
    {
      "type": "Feature",
      "id": "way/1119654004",
      "properties": {
        "timestamp": "2022-12-05T17:43:11Z",
        "version": 2,
        "changeset": 129750852,
        "addr:housenumber": "750",
        "addr:postcode": "11628-228",
        "addr:street": "Rua Sebastião Romão César",
        "addr:suburb": "Maresias",
        "amenity": "clinic",
        "building": "public",
        "healthcare": "clinic",
        "name": "Unidade da Saúde de Família I e II",
        "phone": "+55 12 3865 6605",
        "ref": "CNES-2765896",
        "smoking": "outside",
        "source": "CNES",
        "id": "way/1119654004"
      },
      "geometry": {
        "type": "Polygon",
        "coordinates": [
          [
            [
              -45.5666255,
              -23.7892663
            ],
            [
              -45.5666291,
              -23.7893118
            ],
            [
              -45.5664133,
              -23.789327
            ],
            [
              -45.5664115,
              -23.7892781
            ],
            [
              -45.5666255,
              -23.7892663
            ]
          ]
        ]
      }
    },
    {
      "type": "Feature",
      "id": "way/1148049180",
      "properties": {
        "timestamp": "2023-02-20T20:46:53Z",
        "version": 1,
        "changeset": 132808028,
        "addr:city": "São Sebastião",
        "addr:suburb": "Boracéia",
        "amenity": "clinic",
        "building": "yes",
        "healthcare": "clinic",
        "name": "Unidade de Saúde da Família de Boracéia",
        "id": "way/1148049180"
      },
      "geometry": {
        "type": "Polygon",
        "coordinates": [
          [
            [
              -45.8182714,
              -23.7524617
            ],
            [
              -45.8180927,
              -23.7523687
            ],
            [
              -45.8181488,
              -23.7522661
            ],
            [
              -45.818234,
              -23.7523153
            ],
            [
              -45.8182562,
              -23.7522693
            ],
            [
              -45.8183006,
              -23.7522928
            ],
            [
              -45.8182655,
              -23.7523559
            ],
            [
              -45.8183134,
              -23.7523815
            ],
            [
              -45.8182714,
              -23.7524617
            ]
          ]
        ]
      }
    },
    {
      "type": "Feature",
      "id": "node/4676691539",
      "properties": {
        "timestamp": "2022-11-24T17:29:45Z",
        "version": 6,
        "changeset": 129337881,
        "addr:city": "São Sebastião",
        "addr:housenumber": "55",
        "addr:postcode": "11619-368",
        "addr:street": "Rua Bandeirantes",
        "addr:suburb": "Camburi",
        "amenity": "clinic",
        "emergency": "no",
        "healthcare": "clinic",
        "name": "Unidade de Saúde da Família Camburi II",
        "opening_hours": "Mo-Fr 08:00-17:00; Sa,Su,PH off",
        "operator": "Secretaria de Saúde de São Sebastião",
        "operator:type": "government",
        "phone": "+55 12 3865 3069",
        "ref": "CNES-9982280",
        "short_name": "USF Camburi II",
        "source": "CNES",
        "id": "node/4676691539"
      },
      "geometry": {
        "type": "Point",
        "coordinates": [
          -45.6480024,
          -23.7672574
        ]
      }
    },
    {
      "type": "Feature",
      "id": "node/6874477604",
      "properties": {
        "timestamp": "2022-11-23T17:41:19Z",
        "version": 2,
        "changeset": 129291732,
        "addr:city": "São Sebastião",
        "addr:housenumber": "20",
        "addr:postcode": "11600-000",
        "addr:street": "Rua Imperatriz",
        "addr:suburb": "Boiçucanga",
        "air_conditioning": "yes",
        "amenity": "clinic",
        "healthcare": "clinic",
        "healthcare:speciality": "ophthalmology;general;psychiatry",
        "name": "Clinica Médica Pôr do Sol",
        "opening_hours": "Mo-Fr 09:00-17:00",
        "phone": "+55 12 3865 3088",
        "id": "node/6874477604"
      },
      "geometry": {
        "type": "Point",
        "coordinates": [
          -45.6279945,
          -23.7840389
        ]
      }
    },
    {
      "type": "Feature",
      "id": "node/10215193201",
      "properties": {
        "timestamp": "2022-11-24T17:29:45Z",
        "version": 1,
        "changeset": 129337881,
        "addr:housenumber": "35",
        "addr:postcode": "11619-368",
        "addr:street": "Rua Bandeirantes",
        "addr:suburb": "Camburi",
        "amenity": "clinic",
        "healthcare": "clinic",
        "name": "Unidade de Saúde da Família Camburi I",
        "opening_hours": "Mo-Fr 08:00-17:00; Sa,Su,PH off",
        "operator": "Secretaria de Saúde de São Sebastião",
        "operator:type": "government",
        "phone": "+55 12 3865 4121",
        "ref": "CNES-2765772",
        "source": "CNES",
        "id": "node/10215193201"
      },
      "geometry": {
        "type": "Point",
        "coordinates": [
          -45.6479859,
          -23.7677182
        ]
      }
    },
    {
      "type": "Feature",
      "id": "node/10681731806",
      "properties": {
        "timestamp": "2023-02-20T20:46:53Z",
        "version": 1,
        "changeset": 132808028,
        "addr:city": "São Sebastião",
        "addr:housenumber": "65",
        "addr:street": "Rua Luiz Basélio dos Santos",
        "addr:suburb": "Barra do Sahy",
        "amenity": "clinic",
        "healthcare": "clinic",
        "name": "Posto de Saúde de Barra do Sahy",
        "id": "node/10681731806"
      },
      "geometry": {
        "type": "Point",
        "coordinates": [
          -45.6918418,
          -23.7663273
        ]
      }
    }
  ]
}
