{
  "type": "FeatureCollection",
  "features": [
    {
      "type": "Feature",
      "id": "node/2308951411",
      "properties": {
        "timestamp": "2023-11-15T12:17:24Z",
        "version": 4,
        "changeset": 144049262,
        "addr:city": "São Sebastião",
        "addr:country": "BR",
        "addr:housenumber": "196",
        "addr:state": "SP",
        "addr:street": "Rua Expedicionários Brasileiros",
        "internet_access": "yes",
        "name": "Pousada Ana Doce",
        "phone": "+551238921615",
        "tourism": "guest_house",
        "website": "https://www.pousadaanadoce.com.br/sao.htm",
        "wifi": "yes",
        "id": "node/2308951411"
      },
      "geometry": {
        "type": "Point",
        "coordinates": [
          -45.3991717,
          -23.802271
        ]
      }
    },
    {
      "type": "Feature",
      "id": "node/2317678225",
      "properties": {
        "timestamp": "2013-05-23T21:14:51Z",
        "version": 1,
        "changeset": 16258297,
        "name": "Pousada da Sesmaria",
        "tourism": "guest_house",
        "id": "node/2317678225"
      },
      "geometry": {
        "type": "Point",
        "coordinates": [
          -45.4013441,
          -23.8036679
        ]
      }
    }
  ]
}
