{
  "type": "FeatureCollection",
  "features": [
    {
      "type": "Feature",
      "id": "way/660667536",
      "properties": {
        "timestamp": "2019-01-12T22:32:05Z",
        "version": 2,
        "changeset": 66262173,
        "addr:city": "São Sebastião",
        "addr:suburb": "Boiçucanga",
        "amenity": "pharmacy",
        "building": "yes",
        "dispensing": "yes",
        "healthcare": "pharmacy",
        "name": "Farmácia Drogacenter",
        "id": "way/660667536"
      },
      "geometry": {
        "type": "Polygon",
        "coordinates": [
          [
            [
              -45.6248765,
              -23.7834258
            ],
            [
              -45.6247418,
              -23.7833053
            ],
            [
              -45.6247853,
              -23.7832646
            ],
            [
              -45.62492,
              -23.7833851
            ],
            [
              -45.6248765,
              -23.7834258
            ]
          ]
        ]
      }
    },
    {
      "type": "Feature",
      "id": "way/888676756",
      "properties": {
        "timestamp": "2023-11-30T15:08:55Z",
        "version": 4,
        "changeset": 144628688,
        "addr:street": "Avenida Guarda Mor Lobo Viana",
        "addr:suburb": "Centro",
        "amenity": "pharmacy",
        "brand": "Drogaria São Paulo",
        "brand:wikidata": "Q5308184",
        "brand:wikipedia": "en:Grupo DPSP",
        "building": "yes",
        "dispensing": "yes",
        "drive_through": "no",
        "healthcare": "pharmacy",
        "name": "Drogaria São Paulo",
        "opening_hours": "24/7",
        "id": "way/888676756"
      },
      "geometry": {
        "type": "Polygon",
        "coordinates": [
          [
            [
              -45.4028914,
              -23.8024143
            ],
            [
              -45.4029368,
              -23.8024905
            ],
            [
              -45.4026974,
              -23.8025896
            ],
            [
              -45.4026593,
              -23.8025183
            ],
            [
              -45.4028914,
              -23.8024143
            ]
          ]
        ]
      }
    },
    {
      "type": "Feature",
      "id": "way/1117612424",
      "properties": {
        "timestamp": "2022-11-27T15:58:04Z",
        "version": 1,
        "changeset": 129440021,
        "amenity": "pharmacy",
        "building": "yes",
        "healthcare": "pharmacy",
        "name": "S.O.S Farma Ponte",
        "id": "way/1117612424"
      },
      "geometry": {
        "type": "Polygon",
        "coordinates": [
          [
            [
              -45.4032377,
              -23.8019791
            ],
            [
              -45.4032734,
              -23.8020524
            ],
            [
              -45.4031248,
              -23.8021131
            ],
            [
              -45.403089,
              -23.8020398
            ],
            [
              -45.4032377,
              -23.8019791
            ]
          ]
        ]
      }
    },
    {
      "type": "Feature",
      "id": "way/1148553673",
      "properties": {
        "timestamp": "2023-02-22T15:06:32Z",
        "version": 1,
        "changeset": 132886512,
        "addr:city": "São Sebastião",
        "addr:postcode": "11623-106",
        "addr:street": "Rua José Ferro",
        "addr:suburb": "Juquehy",
        "amenity": "pharmacy",
        "building": "yes",
        "dispensing": "yes",
        "healthcare": "pharmacy",
        "name": "Farmárcia Viemar",
        "phone": "+551238632483",
        "id": "way/1148553673"
      },
      "geometry": {
        "type": "Polygon",
        "coordinates": [
          [
            [
              -45.7212115,
              -23.7603037
            ],
            [
              -45.7212627,
              -23.7603037
            ],
            [
              -45.7212627,
              -23.7603605
            ],
            [
              -45.721171,
              -23.7603605
            ],
            [
              -45.7212115,
              -23.7603037
            ]
          ]
        ]
      }
    },
    {
      "type": "Feature",
      "id": "way/1227797689",
      "properties": {
        "timestamp": "2023-11-30T15:03:46Z",
        "version": 1,
        "changeset": 144628559,
        "addr:housenumber": "170",
        "addr:postcode": "11608-200",
        "addr:street": "Avenida Guarda Mor Lobo Viana",
        "amenity": "pharmacy",
        "building": "yes",
        "dispensing": "yes",
        "drive_through": "no",
        "healthcare": "pharmacy",
        "mobile": "+55 12 99649 8649",
        "name": "Ultrafarma Popular",
        "opening_hours": "24/7",
        "id": "way/1227797689"
      },
      "geometry": {
        "type": "Polygon",
        "coordinates": [
          [
            [
              -45.4029839,
              -23.8027667
            ],
            [
              -45.4030278,
              -23.8028455
            ],
            [
              -45.402825,
              -23.8029401
            ],
            [
              -45.4027811,
              -23.8028612
            ],
            [
              -45.4029839,
              -23.8027667
            ]
          ]
        ]
      }
    },
    {
      "type": "Feature",
      "id": "node/2493690623",
      "properties": {
        "timestamp": "2020-12-26T16:58:57Z",
        "version": 2,
        "changeset": 96459219,
        "addr:street": "Avenida Duque de Caxias",
        "amenity": "pharmacy",
        "brand": "Droga Raia",
        "brand:wikidata": "Q10357101",
        "brand:wikipedia": "pt:RaiaDrogasil",
        "healthcare": "pharmacy",
        "name": "Droga Raia",
        "id": "node/2493690623"
      },
      "geometry": {
        "type": "Point",
        "coordinates": [
          -45.402176,
          -23.8011507
        ]
      }
    },
    {
      "type": "Feature",
      "id": "node/2493690631",
      "properties": {
        "timestamp": "2022-11-27T15:58:04Z",
        "version": 3,
        "changeset": 129440021,
        "addr:street": "Avenida Guarda Mor Lobo Viana",
        "addr:suburb": "Centro",
        "amenity": "pharmacy",
        "contact:mobile": "+55 12 99772 6081",
        "dispensing": "yes",
        "drive_through": "no",
        "healthcare": "pharmacy",
        "name": "Farma Ponte",
        "id": "node/2493690631"
      },
      "geometry": {
        "type": "Point",
        "coordinates": [
          -45.4028411,
          -23.8021862
        ]
      }
    },
    {
      "type": "Feature",
      "id": "node/3198561078",
      "properties": {
        "timestamp": "2022-11-25T13:04:57Z",
        "version": 4,
        "changeset": 129367954,
        "addr:street": "Rodovia Doutor Manoel Hippollyto Rego",
        "amenity": "pharmacy",
        "delivery": "yes",
        "dispensing": "yes",
        "drive_through": "no",
        "healthcare": "pharmacy",
        "name": "Farmácia  Juquehy",
        "phone": "+55 12 99622 8840",
        "id": "node/3198561078"
      },
      "geometry": {
        "type": "Point",
        "coordinates": [
          -45.7262408,
          -23.7508567
        ]
      }
    },
    {
      "type": "Feature",
      "id": "node/3730990145",
      "properties": {
        "timestamp": "2022-12-05T16:31:24Z",
        "version": 2,
        "changeset": 129747965,
        "addr:street": "Avenida Doutor Francisco Loup",
        "amenity": "pharmacy",
        "dispensing": "yes",
        "drive_through": "no",
        "healthcare": "pharmacy",
        "name": "Drogaria do Chaim",
        "source": "survey",
        "id": "node/3730990145"
      },
      "geometry": {
        "type": "Point",
        "coordinates": [
          -45.564731,
          -23.7902976
        ]
      }
    },
    {
      "type": "Feature",
      "id": "node/10210761803",
      "properties": {
        "timestamp": "2022-11-22T23:21:16Z",
        "version": 1,
        "changeset": 129257883,
        "addr:street": "Rua Benedito Izidoro de Moraes",
        "addr:suburb": "Praia de Juqueí",
        "amenity": "pharmacy",
        "contact:phone": "+55 12 3863 1788",
        "dispensing": "yes",
        "drive_through": "no",
        "healthcare": "pharmacy",
        "name": "Droga Center",
        "phone": "+55 12 3863 1722",
        "id": "node/10210761803"
      },
      "geometry": {
        "type": "Point",
        "coordinates": [
          -45.7254774,
          -23.7653801
        ]
      }
    },
    {
      "type": "Feature",
      "id": "node/10220338159",
      "properties": {
        "timestamp": "2022-11-26T20:15:20Z",
        "version": 1,
        "changeset": 129414408,
        "addr:housenumber": "288",
        "addr:street": "Avenida Professor Doutor José Machado Rosa",
        "addr:suburb": "Topolândia",
        "amenity": "pharmacy",
        "branch": "065",
        "brand": "Farma Conde",
        "brand:wikidata": "Q100492677",
        "dispensing": "yes",
        "drive_through": "no",
        "healthcare": "pharmacy",
        "name": "Farma Conde",
        "phone": "+55 12 3892 1594",
        "website": "https://www.farmaconde.com.br/",
        "id": "node/10220338159"
      },
      "geometry": {
        "type": "Point",
        "coordinates": [
          -45.413198,
          -23.809573
        ]
      }
    },
    {
      "type": "Feature",
      "id": "node/10226747915",
      "properties": {
        "timestamp": "2023-12-01T13:45:32Z",
        "version": 2,
        "changeset": 144662962,
        "addr:housenumber": "2501",
        "addr:postcode": "11605-136",
        "addr:street": "Avenida Manoel Hipolito do Rego",
        "amenity": "pharmacy",
        "brand": "Farma Conde",
        "brand:wikidata": "Q100492677",
        "drive_through": "no",
        "healthcare": "pharmacy",
        "name": "Farma Conde",
        "website": "https://www.farmaconde.com.br/",
        "id": "node/10226747915"
      },
      "geometry": {
        "type": "Point",
        "coordinates": [
          -45.4048433,
          -23.7686032
        ]
      }
    },
    {
      "type": "Feature",
      "id": "node/10228632267",
      "properties": {
        "timestamp": "2022-11-30T15:43:15Z",
        "version": 1,
        "changeset": 129566834,
        "addr:housenumber": "1045",
        "addr:postcode": "11604-710",
        "addr:street": "Avenida Manoel Hipolito do Rego",
        "addr:suburb": "Portal da Olaria",
        "amenity": "pharmacy",
        "brand": "Droga Raia",
        "brand:wikidata": "Q10357101",
        "contact:mobile": "+55 12 99632 3503",
        "delivery": "yes",
        "dispensing": "yes",
        "drive_through": "no",
        "healthcare": "pharmacy",
        "name": "Droga Raia",
        "opening_hours": "Mo-Su , PH 07:00-23:00",
        "website": "https://www.drogaraia.com.br/",
        "wheelchair": "yes",
        "id": "node/10228632267"
      },
      "geometry": {
        "type": "Point",
        "coordinates": [
          -45.3991768,
          -23.7801295
        ]
      }
    },
    {
      "type": "Feature",
      "id": "node/10236259220",
      "properties": {
        "timestamp": "2022-12-03T20:55:37Z",
        "version": 1,
        "changeset": 129688941,
        "addr:street": "Rua Olímpio Faustino",
        "amenity": "pharmacy",
        "dispensing": "yes",
        "drive_through": "no",
        "healthcare": "pharmacy",
        "name": "Drogaria Camburi",
        "phone": "+55 12 3865 2882",
        "id": "node/10236259220"
      },
      "geometry": {
        "type": "Point",
        "coordinates": [
          -45.6492354,
          -23.7683341
        ]
      }
    },
    {
      "type": "Feature",
      "id": "node/10239299117",
      "properties": {
        "timestamp": "2022-12-05T00:22:41Z",
        "version": 1,
        "changeset": 129721804,
        "addr:street": "Avenida Francisco Loup",
        "amenity": "pharmacy",
        "dispensing": "yes",
        "drive_through": "no",
        "healthcare": "pharmacy",
        "name": "Drogaria Nova Opção",
        "phone": "+55 12 3865 6933",
        "id": "node/10239299117"
      },
      "geometry": {
        "type": "Point",
        "coordinates": [
          -45.5560857,
          -23.792719
        ]
      }
    },
    {
      "type": "Feature",
      "id": "node/10240400401",
      "properties": {
        "timestamp": "2022-12-05T15:55:21Z",
        "version": 1,
        "changeset": 129746808,
        "addr:street": "Avenida Doutor Francisco Loup",
        "amenity": "pharmacy",
        "dispensing": "yes",
        "drive_through": "no",
        "healthcare": "pharmacy",
        "name": "Drogaria galenus",
        "phone": "+55 12 98897 1339",
        "id": "node/10240400401"
      },
      "geometry": {
        "type": "Point",
        "coordinates": [
          -45.5632417,
          -23.7905471
        ]
      }
    },
    {
      "type": "Feature",
      "id": "node/10293476064",
      "properties": {
        "timestamp": "2022-12-29T15:29:50Z",
        "version": 1,
        "changeset": 130651360,
        "addr:street": "Avenida Odisseu",
        "amenity": "pharmacy",
        "dispensing": "yes",
        "drive_through": "no",
        "healthcare": "pharmacy",
        "name": "Dutra farma",
        "phone": "+55 12 3861 3399",
        "id": "node/10293476064"
      },
      "geometry": {
        "type": "Point",
        "coordinates": [
          -45.4310994,
          -23.7136384
        ]
      }
    },
    {
      "type": "Feature",
      "id": "node/11390094551",
      "properties": {
        "timestamp": "2023-12-02T16:52:46Z",
        "version": 1,
        "changeset": 144697891,
        "addr:street": "Avenida Magno Passos Bittencourt",
        "addr:suburb": "Barra do Una",
        "amenity": "pharmacy",
        "dispensing": "yes",
        "drive_through": "no",
        "healthcare": "pharmacy",
        "name": "Droga Una",
        "phone": "+55 12 3867 1711",
        "id": "node/11390094551"
      },
      "geometry": {
        "type": "Point",
        "coordinates": [
          -45.7595873,
          -23.7600775
        ]
      }
    },
    {
      "type": "Feature",
      "id": "node/11575048477",
      "properties": {
        "timestamp": "2024-01-31T22:21:00Z",
        "version": 1,
        "changeset": 146923640,
        "addr:street": "Avenida Adelino Tavares",
        "addr:suburb": "Barra do Sahy",
        "amenity": "pharmacy",
        "healthcare": "pharmacy",
        "name": "Drogaria da Barra",
        "id": "node/11575048477"
      },
      "geometry": {
        "type": "Point",
        "coordinates": [
          -45.6889096,
          -23.7711372
        ]
      }
    },
    {
      "type": "Feature",
      "id": "node/11579076726",
      "properties": {
        "timestamp": "2024-02-02T14:01:28Z",
        "version": 1,
        "changeset": 146986597,
        "addr:street": "Rua Tijucas",
        "addr:suburb": "Sertão de Camburi",
        "amenity": "pharmacy",
        "dispensing": "yes",
        "drive_through": "no",
        "healthcare": "pharmacy",
        "mobile": "+55 12 98864 6663",
        "name": "Nogueira Farma",
        "id": "node/11579076726"
      },
      "geometry": {
        "type": "Point",
        "coordinates": [
          -45.6373308,
          -23.7712879
        ]
      }
    }
  ]
}
