{
  "type": "FeatureCollection",
  "features": [
    {
      "type": "Feature",
      "id": "node/4645844736",
      "properties": {
        "timestamp": "2017-01-30T21:35:07Z",
        "version": 1,
        "changeset": 45666265,
        "addr:city": "Gavião",
        "addr:postcode": "44650000",
        "addr:street": "Praça Iolando Moura",
        "addr:suburb": "centro",
        "leisure": "stadium",
        "sport": "football",
        "id": "node/4645844736"
      },
      "geometry": {
        "type": "Point",
        "coordinates": [
          -39.7791113,
          -11.4685302
        ]
      }
    },
    {
      "type": "Feature",
      "id": "node/4645844738",
      "properties": {
        "timestamp": "2017-01-30T21:35:07Z",
        "version": 1,
        "changeset": 45666265,
        "addr:city": "Gavião",
        "addr:postcode": "44650000",
        "addr:street": "Praça Iolando Moura",
        "addr:suburb": "centro",
        "leisure": "pitch",
        "sport": "football",
        "id": "node/4645844738"
      },
      "geometry": {
        "type": "Point",
        "coordinates": [
          -39.7803183,
          -11.4681201
        ]
      }
    }
  ]
}
