{
  "type": "FeatureCollection",
  "features": [
    {
      "type": "Feature",
      "id": "node/8340306718",
      "properties": {
        "timestamp": "2021-01-20T00:12:29Z",
        "version": 1,
        "changeset": 97797361,
        "addr:street": "Rua José Pedro de Assis",
        "amenity": "pharmacy",
        "name": "Farmácia Popular",
        "name:en": "Drugstore",
        "id": "node/8340306718"
      },
      "geometry": {
        "type": "Point",
        "coordinates": [
          -49.3695423,
          -25.8667614
        ]
      }
    },
    {
      "type": "Feature",
      "id": "node/8340306818",
      "properties": {
        "timestamp": "2021-01-20T00:12:32Z",
        "version": 1,
        "changeset": 97797361,
        "addr:street": "Rua Francisco Assis Pereira Magalhães",
        "amenity": "pharmacy",
        "name": "Farmácia",
        "name:en": "Drugstore",
        "id": "node/8340306818"
      },
      "geometry": {
        "type": "Point",
        "coordinates": [
          -49.3695549,
          -25.8675208
        ]
      }
    }
  ]
}
