{
  "type": "FeatureCollection",
  "features": [
    {
      "type": "Feature",
      "id": "node/5641847978",
      "properties": {
        "timestamp": "2025-02-16T14:00:33Z",
        "version": 2,
        "changeset": 162571942,
        "amenity": "social_facility",
        "name": "AMAI - Associação Mandiritubense dos Amigos dos Idosos",
        "social_facility": "group_home",
        "social_facility:for": "senior",
        "id": "node/5641847978"
      },
      "geometry": {
        "type": "Point",
        "coordinates": [
          -49.3066437,
          -25.7950147
        ]
      }
    },
    {
      "type": "Feature",
      "id": "node/10768858750",
      "properties": {
        "timestamp": "2023-03-28T14:22:05Z",
        "version": 1,
        "changeset": 134223125,
        "addr:housenumber": "576",
        "addr:street": "Rua da Liberdade",
        "addr:suburb": "Centro",
        "amenity": "social_facility",
        "name": "Centro de Atenção Psicossocial I",
        "id": "node/10768858750"
      },
      "geometry": {
        "type": "Point",
        "coordinates": [
          -49.3270619,
          -25.7760357
        ]
      }
    },
    {
      "type": "Feature",
      "id": "node/10769145897",
      "properties": {
        "timestamp": "2023-03-28T17:39:18Z",
        "version": 1,
        "changeset": 134230365,
        "addr:housenumber": "85",
        "addr:street": "Rua Francisco Manoel de Oliveira Mendes",
        "addr:suburb": "Centro",
        "amenity": "social_facility",
        "name": "Centro de Referência Especializado de Assistência Social",
        "id": "node/10769145897"
      },
      "geometry": {
        "type": "Point",
        "coordinates": [
          -49.3276077,
          -25.7785953
        ]
      }
    },
    {
      "type": "Feature",
      "id": "node/10769145898",
      "properties": {
        "timestamp": "2023-03-28T17:39:18Z",
        "version": 1,
        "changeset": 134230365,
        "addr:housenumber": "74",
        "addr:street": "Rua Pedro Batista Barbosa",
        "addr:suburb": "Centro",
        "amenity": "social_facility",
        "name": "Centro de Referência de Assistência Social",
        "id": "node/10769145898"
      },
      "geometry": {
        "type": "Point",
        "coordinates": [
          -49.3274469,
          -25.7790213
        ]
      }
    }
  ]
}
