{
  "type": "FeatureCollection",
  "features": [
    {
      "type": "Feature",
      "id": "way/334520149",
      "properties": {
        "timestamp": "2021-03-12T19:12:19Z",
        "version": 4,
        "changeset": 100927342,
        "addr:city": "Teófilo Otoni",
        "addr:housenumber": "255",
        "addr:street": "Rua Detsi Gazzinelli",
        "addr:suburb": "Castro Pires",
        "amenity": "hospital",
        "emergency": "yes",
        "healthcare": "hospital",
        "name": "Pronto Atendimento e Hospital Unimed Três Vales",
        "operator": "Unimed Três Vales",
        "phone": "+55 33 3087 4100",
        "id": "way/334520149"
      },
      "geometry": {
        "type": "Polygon",
        "coordinates": [
          [
            [
              -41.4845697,
              -17.8670123
            ],
            [
              -41.4839282,
              -17.8675563
            ],
            [
              -41.4827221,
              -17.8661103
            ],
            [
              -41.4833697,
              -17.8656349
            ],
            [
              -41.4845697,
              -17.8670123
            ]
          ]
        ]
      }
    },
    {
      "type": "Feature",
      "id": "way/1175823062",
      "properties": {
        "timestamp": "2023-05-25T06:02:34Z",
        "version": 1,
        "changeset": 136526217,
        "addr:city": "Teófilo Otoni",
        "addr:housenumber": "925",
        "addr:postcode": "39800",
        "addr:street": "Rua Humberto Gessinger",
        "addr:suburb": "Manoel Pimenta",
        "amenity": "hospital",
        "healthcare": "hospital",
        "healthcare:speciality": "clinic;oncology",
        "name": "Hospital Bom Samaritano",
        "phone": "+55 33 3521-4443",
        "ref:CNES": "2184834",
        "ref:vatin": "BR25112574000182",
        "id": "way/1175823062"
      },
      "geometry": {
        "type": "Polygon",
        "coordinates": [
          [
            [
              -41.4981393,
              -17.871102
            ],
            [
              -41.4981717,
              -17.8704435
            ],
            [
              -41.4991293,
              -17.8704862
            ],
            [
              -41.4990968,
              -17.8711448
            ],
            [
              -41.4981393,
              -17.871102
            ]
          ]
        ]
      }
    },
    {
      "type": "Feature",
      "id": "node/2819280636",
      "properties": {
        "timestamp": "2020-03-11T02:51:45Z",
        "version": 2,
        "changeset": 82030726,
        "addr:city": "Teófilo Otoni",
        "addr:housenumber": "1290",
        "addr:street": "Avenida Getúlio Vargas",
        "amenity": "hospital",
        "emergency": "yes",
        "healthcare": "hospital",
        "healthcare:speciality": "general",
        "name": "UPA 24 Horas",
        "id": "node/2819280636"
      },
      "geometry": {
        "type": "Point",
        "coordinates": [
          -41.5084532,
          -17.8589669
        ]
      }
    },
    {
      "type": "Feature",
      "id": "node/2819280637",
      "properties": {
        "timestamp": "2023-05-25T06:02:34Z",
        "version": 3,
        "changeset": 136526217,
        "addr:city": "Teófilo Otoni",
        "addr:housenumber": "575",
        "addr:postcode": "39800-022",
        "addr:street": "Rua Doutor Onofre",
        "addr:suburb": "Centro",
        "amenity": "hospital",
        "emergency": "yes",
        "fax": "+55 33 3529 1620",
        "healthcare": "hospital",
        "name": "Hospital Santa Rosália",
        "ref:CNES": "2208172",
        "ref:vatin": "BR25104902000107",
        "id": "node/2819280637"
      },
      "geometry": {
        "type": "Point",
        "coordinates": [
          -41.5065668,
          -17.862821
        ]
      }
    },
    {
      "type": "Feature",
      "id": "node/2819280638",
      "properties": {
        "timestamp": "2023-05-25T06:02:34Z",
        "version": 3,
        "changeset": 136526217,
        "addr:city": "Teófilo Otoni",
        "addr:housenumber": "475",
        "addr:postcode": "39803-145",
        "addr:street": "Avenida Doutor Júlio Rodrigues",
        "addr:suburb": "Marajoara",
        "amenity": "hospital",
        "emergency": "yes",
        "healthcare": "hospital",
        "name": "Hospital Philadelfia",
        "operator:ref:vatin": "BR20942819000347",
        "phone": "+55 33 3529-5500",
        "ref:CNES": "2210924",
        "ref:vatin": "BR02267239000158",
        "id": "node/2819280638"
      },
      "geometry": {
        "type": "Point",
        "coordinates": [
          -41.5076889,
          -17.8767196
        ]
      }
    },
    {
      "type": "Feature",
      "id": "node/2819306293",
      "properties": {
        "timestamp": "2021-03-12T19:12:19Z",
        "version": 2,
        "changeset": 100927342,
        "addr:city": "Teófilo Otoni",
        "addr:housenumber": "50",
        "addr:postcode": "39800",
        "addr:street": "Av Adib Cadah",
        "amenity": "hospital",
        "emergency": "yes",
        "healthcare": "hospital",
        "name": "Hospital Municipal Raimundo Gobira",
        "phone": "+55 33 3529-2300",
        "id": "node/2819306293"
      },
      "geometry": {
        "type": "Point",
        "coordinates": [
          -41.5134781,
          -17.8693139
        ]
      }
    },
    {
      "type": "Feature",
      "id": "node/12463584835",
      "properties": {
        "timestamp": "2024-12-30T19:04:03Z",
        "version": 2,
        "changeset": 160804950,
        "addr:city": "Teófilo Otoni",
        "addr:housenumber": "568",
        "addr:postcode": "39800118",
        "addr:street": "Avenida Visconde do Rio Branco",
        "addr:suburb": "Centro",
        "amenity": "hospital",
        "email": "agendar@cardiovasc.com.br",
        "healthcare": "hospital",
        "healthcare:speciality": "cardiology;general;internal;eletrocardiograma;ecocardiograma",
        "internet_access": "yes",
        "mobile": "+5533988093454",
        "name": "Cardiovasc Cardiologia",
        "opening_hours": "Mo-Fr 09:00-18:00",
        "operator": "Leonardo Alves",
        "operator:type": "private",
        "payment:bitcoin": "yes",
        "payment:cash": "yes",
        "payment:credit_cards": "yes",
        "payment:debit_cards": "yes",
        "payment:money_order": "yes",
        "wheelchair": "yes",
        "id": "node/12463584835"
      },
      "geometry": {
        "type": "Point",
        "coordinates": [
          -41.5078308,
          -17.8606701
        ]
      }
    }
  ]
}
