{
  "type": "FeatureCollection",
  "features": [
    {
      "type": "Feature",
      "id": "node/2818861860",
      "properties": {
        "timestamp": "2014-04-26T18:12:46Z",
        "version": 1,
        "changeset": 21960523,
        "addr:city": "Teófilo Otoni",
        "addr:housenumber": "83",
        "addr:postcode": "39800",
        "addr:street": "Augusto Marx",
        "name": "Hotel das Palmeiras",
        "tourism": "hotel",
        "id": "node/2818861860"
      },
      "geometry": {
        "type": "Point",
        "coordinates": [
          -41.5158495,
          -17.8651922
        ]
      }
    },
    {
      "type": "Feature",
      "id": "node/2819354711",
      "properties": {
        "timestamp": "2014-04-26T21:31:05Z",
        "version": 1,
        "changeset": 21964672,
        "addr:city": "Teófilo Otoni",
        "addr:housenumber": "405",
        "addr:postcode": "39800",
        "addr:street": "R Adib Cadah",
        "name": "Hotel Capital das Pedras",
        "tourism": "hotel",
        "id": "node/2819354711"
      },
      "geometry": {
        "type": "Point",
        "coordinates": [
          -41.5156873,
          -17.8701275
        ]
      }
    },
    {
      "type": "Feature",
      "id": "node/2819358595",
      "properties": {
        "timestamp": "2023-07-03T03:57:16Z",
        "version": 7,
        "changeset": 138045644,
        "addr:city": "Teófilo Otoni",
        "addr:housenumber": "130",
        "addr:postcode": "39800",
        "addr:street": "Avenida Luis Boali Porto Salman",
        "addr:suburb": "Centro",
        "air_conditioning": "yes",
        "currency:XBT": "yes",
        "internet_access": "wlan",
        "internet_access:fee": "no",
        "name": "Hotel Beira Rio",
        "payment:cash": "yes",
        "payment:coins": "yes",
        "payment:contactless": "yes",
        "payment:cryptocurrencies": "yes",
        "payment:lightning": "yes",
        "payment:lightning_contactless": "yes",
        "payment:mastercard": "yes",
        "payment:onchain": "yes",
        "payment:visa": "yes",
        "phone": "+55 33 3522-3542",
        "smoking": "no",
        "survey:date": "2023-07-02",
        "tourism": "hotel",
        "website": "https://www.beirario.tur.br",
        "wheelchair": "yes",
        "id": "node/2819358595"
      },
      "geometry": {
        "type": "Point",
        "coordinates": [
          -41.5109388,
          -17.8681851
        ]
      }
    },
    {
      "type": "Feature",
      "id": "node/2819385484",
      "properties": {
        "timestamp": "2014-04-26T21:51:56Z",
        "version": 1,
        "changeset": 21965033,
        "name": "Hotel Real",
        "tourism": "hotel",
        "id": "node/2819385484"
      },
      "geometry": {
        "type": "Point",
        "coordinates": [
          -41.5118088,
          -17.8685101
        ]
      }
    },
    {
      "type": "Feature",
      "id": "node/2819393763",
      "properties": {
        "timestamp": "2014-04-26T21:58:29Z",
        "version": 1,
        "changeset": 21965157,
        "addr:housenumber": "142",
        "addr:street": "Rua Frei Gonzaga",
        "name": "Hotel Lancaster",
        "tourism": "hotel",
        "id": "node/2819393763"
      },
      "geometry": {
        "type": "Point",
        "coordinates": [
          -41.507597,
          -17.8637585
        ]
      }
    },
    {
      "type": "Feature",
      "id": "node/2819398452",
      "properties": {
        "timestamp": "2014-04-26T22:06:45Z",
        "version": 1,
        "changeset": 21965301,
        "addr:city": "Teófilo Otoni",
        "addr:housenumber": "392",
        "addr:postcode": "39800",
        "addr:street": "Rua Francisco Sá",
        "name": "Nobre Pálace Hotel",
        "tourism": "hotel",
        "id": "node/2819398452"
      },
      "geometry": {
        "type": "Point",
        "coordinates": [
          -41.5127845,
          -17.8598735
        ]
      }
    },
    {
      "type": "Feature",
      "id": "node/2819405246",
      "properties": {
        "timestamp": "2014-04-26T22:15:15Z",
        "version": 1,
        "changeset": 21965452,
        "addr:city": "Teófilo Otoni",
        "addr:housenumber": "6701",
        "addr:postcode": "39800",
        "addr:street": "Alfredo Sá",
        "name": "Hotel Teófilo Otoni",
        "tourism": "hotel",
        "id": "node/2819405246"
      },
      "geometry": {
        "type": "Point",
        "coordinates": [
          -41.5064749,
          -17.8259962
        ]
      }
    }
  ]
}
