{
  "type": "FeatureCollection",
  "features": [
    {
      "type": "Feature",
      "id": "way/1168422480",
      "properties": {
        "timestamp": "2023-05-04T20:14:51Z",
        "version": 2,
        "changeset": 135715750,
        "addr:city": "Afonso Cláudio",
        "addr:postcode": "29600-000",
        "addr:street": "Rua do Centro Cultural",
        "addr:suburb": "Chácara Providência",
        "amenity": "arts_centre",
        "building": "yes",
        "name": "Centro Cultural José Ribeiro Tristão",
        "id": "way/1168422480"
      },
      "geometry": {
        "type": "Polygon",
        "coordinates": [
          [
            [
              -41.1207655,
              -20.0813007
            ],
            [
              -41.1205227,
              -20.0814055
            ],
            [
              -41.1204506,
              -20.0812582
            ],
            [
              -41.1206934,
              -20.0811534
            ],
            [
              -41.1207655,
              -20.0813007
            ]
          ]
        ]
      }
    }
  ]
}
