{
  "type": "FeatureCollection",
  "features": [
    {
      "type": "Feature",
      "id": "node/3491299284",
      "properties": {
        "timestamp": "2019-07-11T00:11:10Z",
        "version": 3,
        "changeset": 72114458,
        "IJSN:tipoUnidad": "Hospital Geral",
        "addr:city": "Afonso Cláudio",
        "addr:housenumber": "68",
        "addr:place": "Centro",
        "addr:postcode": "29600-000",
        "addr:street": "Rua Benjamin Constant",
        "amenity": "clinic",
        "contact:phone": "(27) 3735-1260",
        "healthcare": "clinic",
        "name": "Policlínica Nossa Senhora de Lourdes",
        "id": "node/3491299284"
      },
      "geometry": {
        "type": "Point",
        "coordinates": [
          -41.1222271,
          -20.0756072
        ]
      }
    },
    {
      "type": "Feature",
      "id": "node/6773474041",
      "properties": {
        "timestamp": "2023-05-07T02:58:04Z",
        "version": 5,
        "changeset": 135796231,
        "addr:city": "Afonso Cláudio",
        "addr:postcode": "29600-000",
        "addr:street": "Praça Aderbal Galvão",
        "addr:suburb": "Centro",
        "alt_name": "Unidade Sanitária de Afonso Cláudio",
        "amenity": "clinic",
        "healthcare": "clinic",
        "healthcare:speciality": "general",
        "name": "Unidade Sanitária Hilton Lopes Vieira",
        "operator": "Município de Afonso Cláudio",
        "operator:type": "public",
        "id": "node/6773474041"
      },
      "geometry": {
        "type": "Point",
        "coordinates": [
          -41.1248913,
          -20.0748483
        ]
      }
    },
    {
      "type": "Feature",
      "id": "node/10868933630",
      "properties": {
        "timestamp": "2023-05-04T18:35:38Z",
        "version": 2,
        "changeset": 135712907,
        "addr:city": "Afonso Cláudio",
        "addr:postcode": "29600-000",
        "addr:street": "Rua João Batista de Araujo",
        "addr:suburb": "Amâncio Pimenta",
        "amenity": "clinic",
        "healthcare": "clinic",
        "healthcare:speciality": "general",
        "name": "Unidade de Saúde da Família Francisco Xavier de Azeredo Filho",
        "operator": "Município de Afonso Cláudio",
        "operator:type": "public",
        "phone": "+55 27 3735 4074",
        "id": "node/10868933630"
      },
      "geometry": {
        "type": "Point",
        "coordinates": [
          -41.1253468,
          -20.0845774
        ]
      }
    },
    {
      "type": "Feature",
      "id": "node/10870581253",
      "properties": {
        "timestamp": "2023-05-05T12:03:04Z",
        "version": 1,
        "changeset": 135738914,
        "addr:city": "Afonso Cláudio",
        "addr:postcode": "29600-000",
        "addr:street": "Rua João Vieira de Souza",
        "addr:suburb": "Chácara Providência",
        "amenity": "clinic",
        "healthcare": "clinic",
        "healthcare:speciality": "physiotherapy",
        "name": "Centro de Reabilitação Física",
        "operator": "Município de Afonso Cláudio",
        "operator:type": "public",
        "id": "node/10870581253"
      },
      "geometry": {
        "type": "Point",
        "coordinates": [
          -41.1215903,
          -20.0782496
        ]
      }
    },
    {
      "type": "Feature",
      "id": "node/10881840643",
      "properties": {
        "timestamp": "2023-05-09T19:30:46Z",
        "version": 1,
        "changeset": 135909674,
        "amenity": "clinic",
        "healthcare": "clinic",
        "healthcare:speciality": "general",
        "name": "Unidade de Saúde de São Luiz de Boa Sorte",
        "operator": "Município de Afonso Claúdio",
        "operator:type": "public",
        "id": "node/10881840643"
      },
      "geometry": {
        "type": "Point",
        "coordinates": [
          -41.0982708,
          -20.1664325
        ]
      }
    }
  ]
}
