{
  "type": "FeatureCollection",
  "features": [
    {
      "type": "Feature",
      "id": "node/2848845785",
      "properties": {
        "timestamp": "2023-05-10T13:50:31Z",
        "version": 6,
        "changeset": 135937979,
        "addr:city": "Afonso Cláudio",
        "addr:housenumber": "423",
        "addr:postcode": "29600-000",
        "addr:street": "Avenida Marfisa de Barros Leite",
        "addr:suburb": "Campo Vinte",
        "government": "administrative",
        "name": "Circunscrição Regional do Departamento Estadual de Trânsito - Ciretran",
        "office": "government",
        "operator": "Departamento Estadual de Trânsito do Espírito Santo- DETRAN",
        "phone": "+55 27 3145 6712;+55 27 3145 6713;+55 27 3145 6714",
        "id": "node/2848845785"
      },
      "geometry": {
        "type": "Point",
        "coordinates": [
          -41.121509,
          -20.0830401
        ]
      }
    },
    {
      "type": "Feature",
      "id": "node/10865840338",
      "properties": {
        "timestamp": "2023-11-13T22:29:48Z",
        "version": 3,
        "changeset": 143989089,
        "addr:city": "Afonso Cláudio",
        "addr:housenumber": "405",
        "addr:postcode": "29600-000",
        "addr:street": "Avenida Presidente Vargas",
        "addr:suburb": "Centro",
        "email": "p.aclaudio@mpes.mp.br",
        "government": "prosecutor",
        "name": "Promotoria de Justiça de Afonso Cláudio",
        "office": "government",
        "operator": "Ministério Público do Estado do Espírito Santo",
        "operator:wikidata": "Q20060323",
        "website": "https://mpes.mp.br/",
        "id": "node/10865840338"
      },
      "geometry": {
        "type": "Point",
        "coordinates": [
          -41.1226483,
          -20.0793421
        ]
      }
    },
    {
      "type": "Feature",
      "id": "node/10866477332",
      "properties": {
        "timestamp": "2023-05-05T14:39:03Z",
        "version": 4,
        "changeset": 135745147,
        "addr:city": "Afonso Cláudio",
        "addr:housenumber": "390",
        "addr:postcode": "29600-000",
        "addr:street": "Rua Quintino Bocaiúva",
        "addr:suburb": "Centro",
        "government": "administrative",
        "name": "Escritório Local do Idaf",
        "office": "government",
        "operator": "Instituto de Defesa Agropecuária e Florestal do Espírito Santo - Idaf",
        "phone": "+55 27 3735 1614;+55 27 98849 9639",
        "id": "node/10866477332"
      },
      "geometry": {
        "type": "Point",
        "coordinates": [
          -41.1224469,
          -20.0790137
        ]
      }
    },
    {
      "type": "Feature",
      "id": "node/10868933608",
      "properties": {
        "timestamp": "2023-05-04T18:34:29Z",
        "version": 1,
        "changeset": 135712879,
        "addr:city": "Afonso Cláudio",
        "addr:housenumber": "480",
        "addr:postcode": "29600-000",
        "addr:street": "Rua José Euzébio Correia",
        "addr:suburb": "Ipiranga",
        "email": "aps07001010@inss.gov.br",
        "government": "social_security",
        "name": "Agência da Previdência Social em Afonso Cláudio",
        "office": "government",
        "operator": "Instituto Nacional do Seguro Social",
        "operator:short": "INSS",
        "operator:wikidata": "Q10302614",
        "phone": "+55 27 3735 1522",
        "id": "node/10868933608"
      },
      "geometry": {
        "type": "Point",
        "coordinates": [
          -41.1197789,
          -20.0699888
        ]
      }
    },
    {
      "type": "Feature",
      "id": "node/10868933629",
      "properties": {
        "timestamp": "2023-05-05T18:21:06Z",
        "version": 4,
        "changeset": 135752525,
        "addr:city": "Afonso Cláudio",
        "addr:housenumber": "255",
        "addr:postcode": "29600-000",
        "addr:street": "Rua Anália Vieira de Souza",
        "addr:suburb": "Amâncio Pimenta",
        "email": "obras@afonsoclaudio.es.gov.br",
        "government": "administrative",
        "name": "Secretaria Municipal de Obras e Serviços Urbanos",
        "office": "government",
        "phone": "+55 27 3735 4000;+55 27 3735 4007",
        "id": "node/10868933629"
      },
      "geometry": {
        "type": "Point",
        "coordinates": [
          -41.1244107,
          -20.0835396
        ]
      }
    },
    {
      "type": "Feature",
      "id": "node/10869019613",
      "properties": {
        "timestamp": "2023-05-05T12:03:04Z",
        "version": 2,
        "changeset": 135738914,
        "addr:city": "Afonso Cláudio",
        "addr:housenumber": "34",
        "addr:postcode": "29600-000",
        "addr:street": "Travessa José dos Santos Sá",
        "addr:suburb": "Centro",
        "government": "agriculture",
        "name": "Escritório Local de Desenvolvimento Rural de Afonso Cláudio",
        "office": "government",
        "opera": "Instituto Capixaba de Pequisa e Extensão Rural - Incaper",
        "phone": "+55 27 3735 1124",
        "id": "node/10869019613"
      },
      "geometry": {
        "type": "Point",
        "coordinates": [
          -41.1225882,
          -20.0789978
        ]
      }
    },
    {
      "type": "Feature",
      "id": "node/10870581254",
      "properties": {
        "timestamp": "2023-05-05T14:39:03Z",
        "version": 2,
        "changeset": 135745147,
        "addr:city": "Afonso Cláudio",
        "addr:housenumber": "341",
        "addr:postcode": "29600-000",
        "addr:street": "Praça da Independência",
        "addr:suburb": "Centro",
        "email": "saude@afonsoclaudio.es.gov.br",
        "government": "administrative",
        "name": "Secretaria Municipal de Saúde",
        "office": "government",
        "phone": "+55 27 3735 4000;+55 27 3735 4007",
        "id": "node/10870581254"
      },
      "geometry": {
        "type": "Point",
        "coordinates": [
          -41.122812,
          -20.078683
        ]
      }
    },
    {
      "type": "Feature",
      "id": "node/10870975724",
      "properties": {
        "timestamp": "2023-05-05T14:39:03Z",
        "version": 1,
        "changeset": 135745147,
        "addr:city": "Afonso Cláudio",
        "addr:postcode": "29600-000",
        "addr:street": "Travessa Escopelli Gomes",
        "addr:suburb": "São Tarcísio",
        "government": "public_service",
        "name": "Casa do Cidadão",
        "office": "government",
        "id": "node/10870975724"
      },
      "geometry": {
        "type": "Point",
        "coordinates": [
          -41.1263346,
          -20.0753367
        ]
      }
    },
    {
      "type": "Feature",
      "id": "node/10870975725",
      "properties": {
        "timestamp": "2023-05-05T14:39:03Z",
        "version": 1,
        "changeset": 135745147,
        "addr:city": "Afonso Cláudio",
        "addr:housenumber": "275",
        "addr:postcode": "29600-000",
        "addr:street": "Rua Hermógenes Fafá",
        "addr:suburb": "São Tarcísio",
        "email": "meioambiente@afonsoclaudio.es.gov.br",
        "government": "administrative",
        "name": "Secretaria Municipal de Meio Ambiente",
        "office": "government",
        "phone": "+55 27 3735 4000;+55 27 3735 4007",
        "id": "node/10870975725"
      },
      "geometry": {
        "type": "Point",
        "coordinates": [
          -41.1264016,
          -20.075154
        ]
      }
    },
    {
      "type": "Feature",
      "id": "node/10870975726",
      "properties": {
        "timestamp": "2023-05-05T14:39:03Z",
        "version": 1,
        "changeset": 135745147,
        "addr:city": "Afonso Cláudio",
        "addr:housenumber": "233",
        "addr:postcode": "29600-000",
        "addr:street": "Rua Hermógenes Fafá",
        "addr:suburb": "São Tarcísio",
        "email": "administrativo.semas@afonsoclaudio.es.gov.br",
        "government": "administrative",
        "name": "Secretaria Municipal de Assistência Social",
        "office": "government",
        "phone": "+55 27 3735 4000;+55 27 3735 4007",
        "id": "node/10870975726"
      },
      "geometry": {
        "type": "Point",
        "coordinates": [
          -41.1232554,
          -20.0796899
        ]
      }
    },
    {
      "type": "Feature",
      "id": "node/10870975727",
      "properties": {
        "timestamp": "2023-05-05T14:39:03Z",
        "version": 1,
        "changeset": 135745147,
        "addr:city": "Afonso Cláudio",
        "addr:housenumber": "275",
        "addr:postcode": "29600-000",
        "addr:street": "Rua Hermógenes Fafá",
        "addr:suburb": "São Tarcísio",
        "email": "turismo@afonsoclaudio.es.gov.br",
        "government": "administrative",
        "name": "Secretaria Municipal de Cultura e Turismo",
        "office": "government",
        "phone": "+55 27 3735 4000;+55 27 3735 4007",
        "id": "node/10870975727"
      },
      "geometry": {
        "type": "Point",
        "coordinates": [
          -41.1263963,
          -20.0752107
        ]
      }
    },
    {
      "type": "Feature",
      "id": "node/10870975728",
      "properties": {
        "timestamp": "2023-05-05T14:39:03Z",
        "version": 1,
        "changeset": 135745147,
        "addr:city": "Afonso Cláudio",
        "addr:housenumber": "341",
        "addr:postcode": "29600-000",
        "addr:street": "Praça da Independência",
        "addr:suburb": "Centro",
        "email": "semed@afonsoclaudio.es.gov.br",
        "government": "administrative",
        "name": "Secretaria Municipal de Educação",
        "office": "government",
        "phone": "+55 27 3735 4000;+55 27 3735 4007",
        "id": "node/10870975728"
      },
      "geometry": {
        "type": "Point",
        "coordinates": [
          -41.1228745,
          -20.07872
        ]
      }
    },
    {
      "type": "Feature",
      "id": "node/10870975729",
      "properties": {
        "timestamp": "2023-05-05T14:39:03Z",
        "version": 1,
        "changeset": 135745147,
        "addr:city": "Afonso Cláudio",
        "addr:housenumber": "341",
        "addr:postcode": "29600-000",
        "addr:street": "Praça da Independência",
        "addr:suburb": "Centro",
        "email": "financas@afonsoclaudio.es.gov.br",
        "government": "administrative",
        "name": "Secretaria Municipal de Finanças",
        "office": "government",
        "phone": "+55 27 3735 4000;+55 27 3735 4007",
        "id": "node/10870975729"
      },
      "geometry": {
        "type": "Point",
        "coordinates": [
          -41.1229255,
          -20.0787578
        ]
      }
    },
    {
      "type": "Feature",
      "id": "node/10870975730",
      "properties": {
        "timestamp": "2023-05-05T14:39:03Z",
        "version": 1,
        "changeset": 135745147,
        "addr:city": "Afonso Cláudio",
        "addr:housenumber": "341",
        "addr:postcode": "29600-000",
        "addr:street": "Praça da Independência",
        "addr:suburb": "Centro",
        "email": "administracao@afonsoclaudio.es.gov.br",
        "government": "administrative",
        "name": "Secretaria Municipal de Administração",
        "office": "government",
        "phone": "+55 27 3735 4000;+55 27 3735 4007",
        "id": "node/10870975730"
      },
      "geometry": {
        "type": "Point",
        "coordinates": [
          -41.1229738,
          -20.0787905
        ]
      }
    },
    {
      "type": "Feature",
      "id": "node/10870975731",
      "properties": {
        "timestamp": "2023-05-05T14:39:03Z",
        "version": 1,
        "changeset": 135745147,
        "addr:city": "Afonso Cláudio",
        "addr:housenumber": "341",
        "addr:postcode": "29600-000",
        "addr:street": "Praça da Independência",
        "addr:suburb": "Centro",
        "email": "planejamento@afonsoclaudio.es.gov.br",
        "government": "administrative",
        "name": "Secretaria Municipal de Planejamento",
        "office": "government",
        "phone": "+55 27 3735 4000;+55 27 3735 4007",
        "id": "node/10870975731"
      },
      "geometry": {
        "type": "Point",
        "coordinates": [
          -41.1230167,
          -20.0788182
        ]
      }
    },
    {
      "type": "Feature",
      "id": "node/10870975732",
      "properties": {
        "timestamp": "2023-05-05T14:39:03Z",
        "version": 1,
        "changeset": 135745147,
        "addr:city": "Afonso Cláudio",
        "addr:housenumber": "275",
        "addr:postcode": "29600-000",
        "addr:street": "Rua Hermógenes Fafá",
        "addr:suburb": "São Tarcísio",
        "email": "esporte@afonsoclaudio.es.gov.br",
        "government": "administrative",
        "name": "Secretaria Municipal de Esporte e Lazer",
        "office": "government",
        "phone": "+55 27 3735 4000;+55 27 3735 4007",
        "id": "node/10870975732"
      },
      "geometry": {
        "type": "Point",
        "coordinates": [
          -41.1263882,
          -20.0752712
        ]
      }
    },
    {
      "type": "Feature",
      "id": "node/10870975733",
      "properties": {
        "timestamp": "2023-05-05T14:39:03Z",
        "version": 1,
        "changeset": 135745147,
        "addr:city": "Afonso Cláudio",
        "addr:housenumber": "168",
        "addr:postcode": "29600-000",
        "addr:street": "Avenida Presidente Vargas",
        "addr:suburb": "São Tarcísio",
        "email": "infraestrutura@afonsoclaudio.es.gov.br",
        "government": "administrative",
        "name": "Secretaria Municipal de Infra Estrutura",
        "office": "government",
        "phone": "+55 27 3735 4000;+55 27 3735 4007",
        "id": "node/10870975733"
      },
      "geometry": {
        "type": "Point",
        "coordinates": [
          -41.1244141,
          -20.0778559
        ]
      }
    },
    {
      "type": "Feature",
      "id": "node/10870975734",
      "properties": {
        "timestamp": "2023-05-05T14:39:03Z",
        "version": 1,
        "changeset": 135745147,
        "addr:city": "Afonso Cláudio",
        "addr:housenumber": "255",
        "addr:postcode": "29600-000",
        "addr:street": "Rua Anália Vieira de Souza",
        "addr:suburb": "São Vicente",
        "email": "agricultura@afonsoclaudio.es.gov.br",
        "government": "administrative",
        "name": "Secretaria Municipal de Agricultura e Desenvolvimento Econômico",
        "office": "government",
        "phone": "+55 27 3735 4000;+55 27 3735 4007",
        "id": "node/10870975734"
      },
      "geometry": {
        "type": "Point",
        "coordinates": [
          -41.1241781,
          -20.0835668
        ]
      }
    },
    {
      "type": "Feature",
      "id": "node/10881764803",
      "properties": {
        "timestamp": "2023-05-09T19:13:51Z",
        "version": 1,
        "changeset": 135909183,
        "addr:city": "Afonso Cláudio",
        "addr:housenumber": "72",
        "addr:postcode": "29600-000",
        "addr:street": "Avenida Marechal Deodoro",
        "addr:suburb": "Centro",
        "email": "sreafonsoclaudio@sedu.es.gov.br",
        "government": "education",
        "name": "Superintendência Regional de Educação de Afonsso Cláudio",
        "office": "government",
        "phone": "+55 27 3735 8700;+55 27 3735 8703",
        "id": "node/10881764803"
      },
      "geometry": {
        "type": "Point",
        "coordinates": [
          -41.1256286,
          -20.0757745
        ]
      }
    }
  ]
}
