{
  "type": "FeatureCollection",
  "features": [
    {
      "type": "Feature",
      "id": "node/10871674983",
      "properties": {
        "timestamp": "2023-05-05T19:16:37Z",
        "version": 1,
        "changeset": 135754005,
        "addr:city": "Afonso Cláudio",
        "addr:housenumber": "7",
        "addr:postcode": "29600-000",
        "addr:street": "Avenida Presidente Vargas",
        "addr:suburb": "Centro",
        "amenity": "pharmacy",
        "healthcare": "pharmacy",
        "name": "Farmácia Central",
        "operator": "Duilio Eutropio e Cia Limitada",
        "phone": "+55 27 3735 2235",
        "id": "node/10871674983"
      },
      "geometry": {
        "type": "Point",
        "coordinates": [
          -41.125144,
          -20.0767695
        ]
      }
    },
    {
      "type": "Feature",
      "id": "node/10871674989",
      "properties": {
        "timestamp": "2023-05-05T19:16:37Z",
        "version": 1,
        "changeset": 135754005,
        "addr:city": "Afonso Cláudio",
        "addr:housenumber": "140",
        "addr:postcode": "29600-000",
        "addr:street": "Praça da Bandeira",
        "addr:suburb": "Centro",
        "amenity": "pharmacy",
        "healthcare": "pharmacy",
        "name": "Farmácia do Wancley",
        "operator": "Drogaria Wancley Limitada",
        "id": "node/10871674989"
      },
      "geometry": {
        "type": "Point",
        "coordinates": [
          -41.1244681,
          -20.0730838
        ]
      }
    },
    {
      "type": "Feature",
      "id": "node/10871674990",
      "properties": {
        "timestamp": "2023-05-05T19:16:37Z",
        "version": 1,
        "changeset": 135754005,
        "addr:city": "Afonso Cláudio",
        "addr:housenumber": "49",
        "addr:postcode": "29600-000",
        "addr:street": "Rua Ramiro de Barros",
        "addr:suburb": "Centro",
        "amenity": "pharmacy",
        "healthcare": "pharmacy",
        "name": "Farmácia Brandão",
        "id": "node/10871674990"
      },
      "geometry": {
        "type": "Point",
        "coordinates": [
          -41.1246518,
          -20.073662
        ]
      }
    },
    {
      "type": "Feature",
      "id": "node/10871674991",
      "properties": {
        "timestamp": "2023-05-05T19:16:37Z",
        "version": 1,
        "changeset": 135754005,
        "addr:city": "Afonso Cláudio",
        "addr:postcode": "29600-000",
        "addr:street": "Avenida Otávio Saiter",
        "addr:suburb": "Centro",
        "amenity": "pharmacy",
        "healthcare": "pharmacy",
        "name": "Farmácia Pagotto",
        "id": "node/10871674991"
      },
      "geometry": {
        "type": "Point",
        "coordinates": [
          -41.1251735,
          -20.0737237
        ]
      }
    },
    {
      "type": "Feature",
      "id": "node/10871674992",
      "properties": {
        "timestamp": "2023-05-05T19:16:37Z",
        "version": 1,
        "changeset": 135754005,
        "addr:city": "Afonso Cláudio",
        "addr:housenumber": "58",
        "addr:postcode": "29600-000",
        "addr:street": "Avenida Otávio Saiter",
        "addr:suburb": "Centro",
        "amenity": "pharmacy",
        "healthcare": "pharmacy",
        "name": "Farmácia Preço Baixo",
        "id": "node/10871674992"
      },
      "geometry": {
        "type": "Point",
        "coordinates": [
          -41.125144,
          -20.0736431
        ]
      }
    },
    {
      "type": "Feature",
      "id": "node/10871674994",
      "properties": {
        "timestamp": "2023-05-05T19:16:37Z",
        "version": 1,
        "changeset": 135754005,
        "addr:city": "Afonso Cláudio",
        "addr:housenumber": "109",
        "addr:postcode": "29600-000",
        "addr:street": "Avenida Marechal Deodoro",
        "addr:suburb": "Centro",
        "amenity": "pharmacy",
        "healthcare": "pharmacy",
        "name": "Drogaria São Tomé",
        "operator": "Farmácia São Tomé Limitada",
        "id": "node/10871674994"
      },
      "geometry": {
        "type": "Point",
        "coordinates": [
          -41.1255034,
          -20.0758727
        ]
      }
    }
  ]
}
