{
  "type": "FeatureCollection",
  "features": [
    {
      "type": "Feature",
      "id": "node/3999139395",
      "properties": {
        "timestamp": "2023-05-04T18:35:38Z",
        "version": 4,
        "changeset": 135712907,
        "addr:city": "Afonso Cláudio",
        "addr:postcode": "29600-000",
        "addr:street": "Rua João Batista de Araujo",
        "addr:suburb": "Amâncio Pimenta",
        "alt_name": "Centro de Referência de Assistência Social",
        "amenity": "social_facility",
        "contact:phone": "(27) 3735-4056",
        "name": "Centro de Referência em Assistência Social de Afonso Cláudio",
        "operator": "Município de Afonso Cláudio",
        "operator:type": "public",
        "social_facility": "outreach",
        "source": "IJSN",
        "id": "node/3999139395"
      },
      "geometry": {
        "type": "Point",
        "coordinates": [
          -41.1254219,
          -20.0849422
        ]
      }
    },
    {
      "type": "Feature",
      "id": "node/10868933628",
      "properties": {
        "timestamp": "2023-05-04T18:34:29Z",
        "version": 1,
        "changeset": 135712879,
        "addr:city": "Afonso Cláudio",
        "addr:housenumber": "339",
        "addr:postcode": "29600-000",
        "addr:street": "Rua Anália Vieira de Souza",
        "addr:suburb": "São Vicente",
        "amenity": "social_facility",
        "name": "Asilo Ninho de Amor",
        "operator": "Sociedade Civil de Amparo a Velhice",
        "operator:type": "community",
        "social_facility": "group_home",
        "social_facility:for": "senior",
        "id": "node/10868933628"
      },
      "geometry": {
        "type": "Point",
        "coordinates": [
          -41.1251081,
          -20.0834489
        ]
      }
    },
    {
      "type": "Feature",
      "id": "node/10873400206",
      "properties": {
        "timestamp": "2023-05-06T20:27:02Z",
        "version": 2,
        "changeset": 135790904,
        "addr:city": "Afonso Cláudio",
        "addr:postcode": "29600-000",
        "addr:street": "Rodovia Estadual Sebastião Alves de Lima",
        "addr:suburb": "Campo Vinte",
        "amenity": "social_facility",
        "name": "Apae de Afonso Cláudio",
        "operator": "Associação de Pais e Amigos dos Excepcionais de Afonso Cláudio",
        "operator:short": "Apae",
        "operator:type": "private",
        "phone": "+55 27 3735 1144",
        "social_facility": "day_care",
        "website": "https://apaees.org.br/afonso-claudio/",
        "id": "node/10873400206"
      },
      "geometry": {
        "type": "Point",
        "coordinates": [
          -41.1201644,
          -20.096333
        ]
      }
    }
  ]
}
