{
  "type": "FeatureCollection",
  "features": [
    {
      "type": "Feature",
      "id": "way/944005322",
      "properties": {
        "timestamp": "2023-05-17T11:44:16Z",
        "version": 3,
        "changeset": 136209202,
        "addr:city": "Guaíra - PR",
        "addr:postcode": "85980-000",
        "addr:street": "Avenida Thomas Luiz Zeballos",
        "addr:suburb": "Centro",
        "building": "yes",
        "building:levels": "1",
        "description": "general_service;private",
        "opening_hours": "Mo-Fr 08:00-18:00; Sa 08:00-12:00",
        "operator": "Kubo Cycle",
        "payment:cash": "yes",
        "payment:contactless": "yes",
        "payment:credit_cards": "yes",
        "payment:debit_cards": "yes",
        "phone": "+55-44-997330311",
        "service:bicycle:repair": "yes",
        "service:bicycle:retail": "yes",
        "shop": "bicycle",
        "source": "cidi",
        "id": "way/944005322"
      },
      "geometry": {
        "type": "Polygon",
        "coordinates": [
          [
            [
              -54.252974,
              -24.0891156
            ],
            [
              -54.2530569,
              -24.0890563
            ],
            [
              -54.25309,
              -24.0890948
            ],
            [
              -54.2530072,
              -24.0891542
            ],
            [
              -54.252974,
              -24.0891156
            ]
          ]
        ]
      }
    },
    {
      "type": "Feature",
      "id": "way/944254092",
      "properties": {
        "timestamp": "2023-05-13T12:51:19Z",
        "version": 3,
        "changeset": 136052172,
        "addr:city": "Guaíra - PR",
        "addr:housenumber": "1040",
        "addr:postcode": "85980-000",
        "addr:street": "Avenida Thomas Luiz Zeballos",
        "addr:suburb": "Centro",
        "air_conditioning": "yes",
        "building": "commercial",
        "building:levels": "2",
        "currency:BRL": "yes",
        "opening_hours": "Mo-Fr 08:00-18:00; Sa 08:00-12:00",
        "operator": "Casa das Bicicletas",
        "payment:cash": "yes",
        "payment:contactless": "yes",
        "payment:credit_cards": "yes",
        "payment:debit_cards": "yes",
        "phone": "+55-44-91810200",
        "service:bicycle:repair": "yes",
        "service:bicycle:retail": "yes",
        "shop": "bicycle",
        "source": "cidi;local knowledge",
        "website": "https://www.instagram.com/casadabikeguaira/",
        "id": "way/944254092"
      },
      "geometry": {
        "type": "Polygon",
        "coordinates": [
          [
            [
              -54.2527849,
              -24.0884769
            ],
            [
              -54.2528656,
              -24.0883984
            ],
            [
              -54.2529422,
              -24.088464
            ],
            [
              -54.2528615,
              -24.0885425
            ],
            [
              -54.2527849,
              -24.0884769
            ]
          ]
        ]
      }
    }
  ]
}
