{
  "type": "FeatureCollection",
  "features": [
    {
      "type": "Feature",
      "id": "way/305863018",
      "properties": {
        "timestamp": "2021-08-04T21:32:21Z",
        "version": 2,
        "changeset": 109165345,
        "amenity": "clinic",
        "building": "yes",
        "healthcare": "clinic",
        "name": "Santa Clara",
        "id": "way/305863018"
      },
      "geometry": {
        "type": "Polygon",
        "coordinates": [
          [
            [
              -47.9825666,
              -16.053306
            ],
            [
              -47.9825232,
              -16.053097
            ],
            [
              -47.9830827,
              -16.0530115
            ],
            [
              -47.9831143,
              -16.0532186
            ],
            [
              -47.9825666,
              -16.053306
            ]
          ]
        ]
      }
    },
    {
      "type": "Feature",
      "id": "node/3205033207",
      "properties": {
        "timestamp": "2021-08-16T21:55:43Z",
        "version": 7,
        "changeset": 109774373,
        "addr:city": "Valparaiso de Goiás",
        "addr:housenumber": "Clínica Veterinária Uberaba",
        "addr:postcode": "72876-024",
        "addr:street": "Quadra 8",
        "addr:suburb": "Etapa \"A\"",
        "amenity": "clinic",
        "healthcare": "clinic",
        "name": "Clínica Veterinária Uberaba",
        "opening_hours": "08:00-17:30",
        "phone": "+55 61 3025-2121",
        "website": "http://www.veterinariauberaba.com",
        "id": "node/3205033207"
      },
      "geometry": {
        "type": "Point",
        "coordinates": [
          -47.982716,
          -16.0726936
        ]
      }
    },
    {
      "type": "Feature",
      "id": "node/3205040024",
      "properties": {
        "timestamp": "2021-08-16T21:55:43Z",
        "version": 7,
        "changeset": 109774373,
        "addr:city": "Valparaiso de Goiás",
        "addr:housenumber": "CLIMED",
        "addr:postcode": "72876-024",
        "addr:street": "Quadra 8",
        "addr:suburb": "Etapa A",
        "amenity": "clinic",
        "healthcare": "clinic",
        "name": "CLIMED",
        "opening_hours": "07:30-18:00",
        "id": "node/3205040024"
      },
      "geometry": {
        "type": "Point",
        "coordinates": [
          -47.982664,
          -16.0723839
        ]
      }
    },
    {
      "type": "Feature",
      "id": "node/3205042187",
      "properties": {
        "timestamp": "2021-08-04T21:32:21Z",
        "version": 8,
        "changeset": 109165345,
        "addr:city": "Valparaiso de Goias",
        "addr:postcode": "72876-015",
        "addr:street": "Quadra 7",
        "addr:suburb": "Etapa A",
        "amenity": "clinic",
        "healthcare": "clinic",
        "name": "Odontologia Uberaba",
        "opening_hours": "08:00-18:00",
        "phone": "+55 61 3025-0077",
        "id": "node/3205042187"
      },
      "geometry": {
        "type": "Point",
        "coordinates": [
          -47.9823642,
          -16.069654
        ]
      }
    },
    {
      "type": "Feature",
      "id": "node/3261697161",
      "properties": {
        "timestamp": "2015-11-01T00:37:21Z",
        "version": 3,
        "changeset": 35003496,
        "addr:city": "Valparaíso de Goiás",
        "addr:street": "Rua Getúlio Vargas",
        "addr:suburb": "Céu Azul",
        "amenity": "clinic",
        "name": "Posto de Saúde",
        "id": "node/3261697161"
      },
      "geometry": {
        "type": "Point",
        "coordinates": [
          -48.0082477,
          -16.0546641
        ]
      }
    },
    {
      "type": "Feature",
      "id": "node/3261698813",
      "properties": {
        "timestamp": "2015-10-14T16:31:50Z",
        "version": 2,
        "changeset": 34636741,
        "addr:city": "Valparaíso de Goiás",
        "addr:suburb": "Céu Azul",
        "amenity": "clinic",
        "name": "Unidade Básica de Saúde",
        "id": "node/3261698813"
      },
      "geometry": {
        "type": "Point",
        "coordinates": [
          -48.014626,
          -16.054994
        ]
      }
    },
    {
      "type": "Feature",
      "id": "node/7740362130",
      "properties": {
        "timestamp": "2020-07-23T11:44:38Z",
        "version": 1,
        "changeset": 88401508,
        "amenity": "clinic",
        "healthcare": "clinic",
        "id": "node/7740362130"
      },
      "geometry": {
        "type": "Point",
        "coordinates": [
          -47.9796339,
          -16.0602335
        ]
      }
    },
    {
      "type": "Feature",
      "id": "node/7740362131",
      "properties": {
        "timestamp": "2020-07-23T11:44:38Z",
        "version": 1,
        "changeset": 88401508,
        "amenity": "clinic",
        "healthcare": "clinic",
        "id": "node/7740362131"
      },
      "geometry": {
        "type": "Point",
        "coordinates": [
          -47.9726803,
          -16.051075
        ]
      }
    }
  ]
}
