{
  "type": "FeatureCollection",
  "features": [
    {
      "type": "Feature",
      "id": "node/2846795162",
      "properties": {
        "timestamp": "2015-05-27T04:15:45Z",
        "version": 3,
        "changeset": 31492893,
        "addr:city": "Valparaiso de Goias",
        "addr:housenumber": "Lote 55",
        "addr:street": "Avenida Senador Tancredo Neves",
        "amenity": "college",
        "name": "Colégio JK",
        "operator": "Rede de Ensino JK",
        "phone": "+55 61 3629 9900",
        "id": "node/2846795162"
      },
      "geometry": {
        "type": "Point",
        "coordinates": [
          -47.9732571,
          -16.0673586
        ]
      }
    },
    {
      "type": "Feature",
      "id": "node/2846801905",
      "properties": {
        "timestamp": "2015-05-27T04:15:45Z",
        "version": 2,
        "changeset": 31492893,
        "addr:city": "Valparaiso de Goias",
        "addr:housenumber": "Lote 56",
        "addr:street": "Avenida Senador Tancredo Neves",
        "amenity": "college",
        "name": "Colégio Santo Antonio",
        "id": "node/2846801905"
      },
      "geometry": {
        "type": "Point",
        "coordinates": [
          -47.9714579,
          -16.0668895
        ]
      }
    },
    {
      "type": "Feature",
      "id": "node/2846807227",
      "properties": {
        "timestamp": "2015-05-27T04:15:45Z",
        "version": 2,
        "changeset": 31492893,
        "addr:city": "Valparaiso de Goias",
        "addr:housenumber": "Lote 57",
        "addr:street": "Avenida Senador Tancredo Neves",
        "amenity": "college",
        "name": "Colégio Valparaiso",
        "operator": "Rede Pitágoras",
        "id": "node/2846807227"
      },
      "geometry": {
        "type": "Point",
        "coordinates": [
          -47.9696978,
          -16.0684761
        ]
      }
    },
    {
      "type": "Feature",
      "id": "node/2847146083",
      "properties": {
        "timestamp": "2016-08-29T14:35:57Z",
        "version": 4,
        "changeset": 41779314,
        "addr:city": "Valparaiso de Goias",
        "addr:street": "Avenida Senador Tancredo Neves",
        "amenity": "college",
        "name": "Colégio Estadual Valparaíso",
        "old_name": "Redondo",
        "operator": "Governo de Goiás",
        "id": "node/2847146083"
      },
      "geometry": {
        "type": "Point",
        "coordinates": [
          -47.9809083,
          -16.0706063
        ]
      }
    },
    {
      "type": "Feature",
      "id": "node/3829135387",
      "properties": {
        "timestamp": "2015-11-10T16:11:33Z",
        "version": 1,
        "changeset": 35219320,
        "amenity": "college",
        "name": "Gran Cursos",
        "id": "node/3829135387"
      },
      "geometry": {
        "type": "Point",
        "coordinates": [
          -47.9832761,
          -16.0575111
        ]
      }
    }
  ]
}
