{
  "type": "FeatureCollection",
  "features": [
    {
      "type": "Feature",
      "id": "way/1037237315",
      "properties": {
        "timestamp": "2022-03-04T23:24:48Z",
        "version": 1,
        "changeset": 118110667,
        "addr:city": "Cambuci",
        "addr:housenumber": "120",
        "addr:postcode": "28430000",
        "addr:street": "Praça da Bandeira",
        "addr:suburb": "Centro",
        "building": "yes",
        "government": "executive",
        "name": "Prefeitura Municipal de Cambuci",
        "office": "government",
        "phone": "+552227672581",
        "website": "http://prefeituradecambuci.rj.gov.br/",
        "id": "way/1037237315"
      },
      "geometry": {
        "type": "Polygon",
        "coordinates": [
          [
            [
              -41.9141518,
              -21.5759407
            ],
            [
              -41.9142752,
              -21.5760554
            ],
            [
              -41.9141492,
              -21.5762125
            ],
            [
              -41.9139989,
              -21.5760704
            ],
            [
              -41.9141518,
              -21.5759407
            ]
          ]
        ]
      }
    },
    {
      "type": "Feature",
      "id": "way/1037237316",
      "properties": {
        "timestamp": "2024-07-30T16:42:44Z",
        "version": 2,
        "changeset": 154614626,
        "addr:city": "Cambuci",
        "addr:housenumber": "278",
        "addr:postcode": "28430000",
        "addr:street": "Travessa José de Souza Faria",
        "addr:suburb": "Centro",
        "building": "yes",
        "government": "social_security",
        "name": "Defesa Civil-Cambuci/RJ",
        "office": "government",
        "phone": "+552227672651",
        "id": "way/1037237316"
      },
      "geometry": {
        "type": "Polygon",
        "coordinates": [
          [
            [
              -41.9136837,
              -21.578526
            ],
            [
              -41.9135175,
              -21.578506
            ],
            [
              -41.9135349,
              -21.5783738
            ],
            [
              -41.9137012,
              -21.5783801
            ],
            [
              -41.9136837,
              -21.578526
            ]
          ]
        ]
      }
    },
    {
      "type": "Feature",
      "id": "way/1304673034",
      "properties": {
        "timestamp": "2024-07-30T15:29:45Z",
        "version": 1,
        "changeset": 154611618,
        "building": "yes",
        "government": "social_security",
        "office": "government",
        "operator": "Instituto Nacional do Seguro Social",
        "operator:short": "INSS",
        "operator:wikidata": "Q10302614",
        "id": "way/1304673034"
      },
      "geometry": {
        "type": "Polygon",
        "coordinates": [
          [
            [
              -41.9115514,
              -21.5774914
            ],
            [
              -41.9117069,
              -21.5775401
            ],
            [
              -41.9116791,
              -21.5776025
            ],
            [
              -41.9116318,
              -21.5777084
            ],
            [
              -41.9114937,
              -21.5776323
            ],
            [
              -41.9115514,
              -21.5774914
            ]
          ]
        ]
      }
    }
  ]
}
