{
  "type": "FeatureCollection",
  "features": [
    {
      "type": "Feature",
      "id": "way/700690506",
      "properties": {
        "timestamp": "2023-08-28T20:26:56Z",
        "version": 2,
        "changeset": 140512019,
        "addr:city": "Agudo",
        "addr:country": "BR",
        "addr:housenumber": "35",
        "addr:state": "Rio Grande do Sul",
        "addr:street": "Rua Arnildo Ehle",
        "addr:suburb": "Caiçara",
        "amenity": "clinic",
        "contact:phone": "+55 55 3265-3274",
        "name": "UBS Tia Laurinha",
        "official_name": "Unidade Básica de Saúde Tia Laurinha",
        "ref:CNES": "3342247",
        "id": "way/700690506"
      },
      "geometry": {
        "type": "Polygon",
        "coordinates": [
          [
            [
              -53.2399875,
              -29.6397493
            ],
            [
              -53.2401123,
              -29.6397508
            ],
            [
              -53.2401082,
              -29.6401281
            ],
            [
              -53.2398944,
              -29.6400868
            ],
            [
              -53.2399128,
              -29.639939
            ],
            [
              -53.2399875,
              -29.6397493
            ]
          ]
        ]
      }
    }
  ]
}
