{
  "type": "FeatureCollection",
  "features": [
    {
      "type": "Feature",
      "id": "way/1027216601",
      "properties": {
        "timestamp": "2023-07-23T21:31:53Z",
        "version": 2,
        "changeset": 138911752,
        "addr:city": "Bagé",
        "addr:housenumber": "2990",
        "addr:postcode": "96400-010",
        "addr:street": "Rua Luiz Adão Médici",
        "amenity": "clinic",
        "building": "yes",
        "healthcare": "clinic",
        "healthcare:speciality": "general",
        "name": "ESF Ivo Ferronato",
        "operator": "Prefeitura Municipal de Bagé",
        "operator:ref:vatin": "BR88073291000199",
        "operator:type": "government",
        "phone": "+55 53 3247 6004",
        "ref:CNES": "2261405",
        "source": "https://www.bage.rs.gov.br/index.php/estrutura-administrativa/unidades-de-saude/",
        "id": "way/1027216601"
      },
      "geometry": {
        "type": "Polygon",
        "coordinates": [
          [
            [
              -54.0677427,
              -31.2966411
            ],
            [
              -54.0679288,
              -31.2962535
            ],
            [
              -54.0682076,
              -31.2966429
            ],
            [
              -54.0678526,
              -31.2968144
            ],
            [
              -54.0677427,
              -31.2966411
            ]
          ]
        ]
      }
    },
    {
      "type": "Feature",
      "id": "way/1027216602",
      "properties": {
        "timestamp": "2023-07-23T21:31:53Z",
        "version": 2,
        "changeset": 138911752,
        "addr:city": "Bagé",
        "addr:housenumber": "2290",
        "addr:postcode": "96400-320",
        "addr:street": "Rua Odilon Alvares",
        "amenity": "clinic",
        "building": "yes",
        "healthcare": "clinic",
        "healthcare:speciality": "general",
        "name": "ESF Malafaia",
        "operator": "Prefeitura Municipal de Bagé",
        "operator:ref:vatin": "BR88073291000199",
        "operator:type": "government",
        "phone": "+55 53 3242 3016",
        "ref:CNES": "5548918",
        "source": "https://www.bage.rs.gov.br/index.php/estrutura-administrativa/unidades-de-saude/",
        "id": "way/1027216602"
      },
      "geometry": {
        "type": "Polygon",
        "coordinates": [
          [
            [
              -54.0792001,
              -31.302374
            ],
            [
              -54.0796394,
              -31.3020956
            ],
            [
              -54.0797915,
              -31.3022647
            ],
            [
              -54.0793498,
              -31.3025452
            ],
            [
              -54.0792001,
              -31.302374
            ]
          ]
        ]
      }
    },
    {
      "type": "Feature",
      "id": "way/1049303583",
      "properties": {
        "timestamp": "2022-04-05T12:23:38Z",
        "version": 1,
        "changeset": 119342058,
        "amenity": "clinic",
        "building": "yes",
        "healthcare": "clinic",
        "name": "Posto de Saúde comunitário",
        "id": "way/1049303583"
      },
      "geometry": {
        "type": "Polygon",
        "coordinates": [
          [
            [
              -54.0908864,
              -31.3563026
            ],
            [
              -54.0907632,
              -31.3563815
            ],
            [
              -54.0906076,
              -31.3561894
            ],
            [
              -54.0907216,
              -31.3561224
            ],
            [
              -54.0908864,
              -31.3563026
            ]
          ]
        ]
      }
    },
    {
      "type": "Feature",
      "id": "way/1081796132",
      "properties": {
        "timestamp": "2022-07-27T13:09:54Z",
        "version": 1,
        "changeset": 124141106,
        "amenity": "clinic",
        "building": "yes",
        "healthcare": "clinic",
        "name": "CTSul",
        "id": "way/1081796132"
      },
      "geometry": {
        "type": "Polygon",
        "coordinates": [
          [
            [
              -54.091691,
              -31.3269815
            ],
            [
              -54.0917098,
              -31.3271965
            ],
            [
              -54.0916294,
              -31.3272009
            ],
            [
              -54.0916294,
              -31.3272945
            ],
            [
              -54.0914787,
              -31.3273047
            ],
            [
              -54.0914582,
              -31.326983
            ],
            [
              -54.091691,
              -31.3269815
            ]
          ]
        ]
      }
    },
    {
      "type": "Feature",
      "id": "node/9641103713",
      "properties": {
        "timestamp": "2023-07-23T21:31:53Z",
        "version": 2,
        "changeset": 138911752,
        "addr:city": "Bagé",
        "addr:housenumber": "275",
        "addr:postcode": "96405-370",
        "addr:street": "Rua Vereador Pompilio Nunes",
        "addr:suburb": "Tarumã",
        "amenity": "clinic",
        "email": "sms@bage.rs.gov.br",
        "healthcare": "clinic",
        "healthcare:speciality": "general",
        "name": "Bagé - Arvorezinha",
        "operator:ref:vatin": "BR88073291000199",
        "phone": "+55 53 3241 1588",
        "ref:CNES": "2261251",
        "id": "node/9641103713"
      },
      "geometry": {
        "type": "Point",
        "coordinates": [
          -54.1290351,
          -31.3121056
        ]
      }
    },
    {
      "type": "Feature",
      "id": "node/9641149106",
      "properties": {
        "timestamp": "2023-07-23T21:31:53Z",
        "version": 2,
        "changeset": 138911752,
        "addr:city": "Bagé",
        "addr:housenumber": "3298",
        "addr:postcode": "96408-700",
        "addr:street": "Avenida Tupy Silveira",
        "addr:suburb": "Centro",
        "amenity": "clinic",
        "email": "sms@bage.rs.gov.br",
        "healthcare": "clinic",
        "name": "Bagé - CACV",
        "operator:ref:vatin": "BR88073291000199",
        "phone": "+55 53 3241 1552",
        "ref:CNES": "2261383",
        "id": "node/9641149106"
      },
      "geometry": {
        "type": "Point",
        "coordinates": [
          -54.1082077,
          -31.310712
        ]
      }
    },
    {
      "type": "Feature",
      "id": "node/9641240388",
      "properties": {
        "timestamp": "2022-04-04T16:58:57Z",
        "version": 2,
        "changeset": 119310549,
        "addr:city": "Bagé",
        "addr:street": "Avenida Nice Nocchi",
        "addr:suburb": "Castro Alves",
        "amenity": "clinic",
        "healthcare": "clinic",
        "name": "Bagé - Castro",
        "id": "node/9641240388"
      },
      "geometry": {
        "type": "Point",
        "coordinates": [
          -54.0966922,
          -31.3471479
        ]
      }
    },
    {
      "type": "Feature",
      "id": "node/9641278369",
      "properties": {
        "timestamp": "2022-04-04T17:12:17Z",
        "version": 1,
        "changeset": 119310947,
        "addr:city": "Bagé",
        "addr:street": "Rua 93",
        "addr:suburb": "Floresta",
        "amenity": "clinic",
        "healthcare": "clinic",
        "name": "Bagé - DAMÉ",
        "id": "node/9641278369"
      },
      "geometry": {
        "type": "Point",
        "coordinates": [
          -54.140188,
          -31.3131142
        ]
      }
    },
    {
      "type": "Feature",
      "id": "node/9641535680",
      "properties": {
        "timestamp": "2022-04-04T19:14:29Z",
        "version": 1,
        "changeset": 119314924,
        "addr:postcode": "96400-550",
        "amenity": "clinic",
        "healthcare": "clinic",
        "name": "Laboratório municipal de Bagé",
        "id": "node/9641535680"
      },
      "geometry": {
        "type": "Point",
        "coordinates": [
          -54.1080135,
          -31.3309192
        ]
      }
    },
    {
      "type": "Feature",
      "id": "node/9643100637",
      "properties": {
        "timestamp": "2022-04-05T12:23:38Z",
        "version": 1,
        "changeset": 119342058,
        "amenity": "clinic",
        "healthcare": "clinic",
        "name": "Posto de Saúde Comunitário",
        "id": "node/9643100637"
      },
      "geometry": {
        "type": "Point",
        "coordinates": [
          -54.09074,
          -31.3562368
        ]
      }
    }
  ]
}
