{
  "type": "FeatureCollection",
  "features": [
    {
      "type": "Feature",
      "id": "way/1029872329",
      "properties": {
        "timestamp": "2022-02-09T22:06:34Z",
        "version": 1,
        "changeset": 117220976,
        "addr:city": "Altos",
        "addr:housenumber": "798",
        "addr:postcode": "64290-000",
        "addr:street": "Rua Cândido Almeida",
        "addr:suburb": "Centro",
        "amenity": "school",
        "name": "Unidade Escolar Maria Do O Barbosa",
        "phone": "+55 86 3262 1587",
        "id": "way/1029872329"
      },
      "geometry": {
        "type": "Polygon",
        "coordinates": [
          [
            [
              -42.4656695,
              -5.0448218
            ],
            [
              -42.4657309,
              -5.0452638
            ],
            [
              -42.4652837,
              -5.0452575
            ],
            [
              -42.4652186,
              -5.044812
            ],
            [
              -42.4656695,
              -5.0448218
            ]
          ]
        ]
      }
    },
    {
      "type": "Feature",
      "id": "way/1030067289",
      "properties": {
        "timestamp": "2022-02-10T14:42:10Z",
        "version": 1,
        "changeset": 117249204,
        "addr:city": "Altos",
        "addr:postcode": "64290-000",
        "addr:street": "Rua Anísio de Abreu",
        "addr:suburb": "São Luis",
        "amenity": "school",
        "name": "U E Hugo Napoleao",
        "phone": "+55 86 3262 1551",
        "id": "way/1030067289"
      },
      "geometry": {
        "type": "Polygon",
        "coordinates": [
          [
            [
              -42.4472205,
              -5.0432452
            ],
            [
              -42.4475772,
              -5.0431201
            ],
            [
              -42.447815,
              -5.0437476
            ],
            [
              -42.4474363,
              -5.0438842
            ],
            [
              -42.4472205,
              -5.0432452
            ]
          ]
        ]
      }
    },
    {
      "type": "Feature",
      "id": "way/1030067540",
      "properties": {
        "timestamp": "2022-02-10T14:43:32Z",
        "version": 1,
        "changeset": 117249265,
        "addr:city": "Altos",
        "addr:housenumber": "25",
        "addr:postcode": "64290-000",
        "addr:street": "Rua Ana Raulino",
        "addr:suburb": "Centro",
        "amenity": "school",
        "name": "U E Cazuza Barbosa",
        "phone": "+55 86 3262 2166",
        "id": "way/1030067540"
      },
      "geometry": {
        "type": "Polygon",
        "coordinates": [
          [
            [
              -42.4576247,
              -5.0393354
            ],
            [
              -42.4576611,
              -5.0396445
            ],
            [
              -42.457683,
              -5.039831
            ],
            [
              -42.4571427,
              -5.0397214
            ],
            [
              -42.4571045,
              -5.039396
            ],
            [
              -42.4576247,
              -5.0393354
            ]
          ]
        ]
      }
    },
    {
      "type": "Feature",
      "id": "way/1030067541",
      "properties": {
        "timestamp": "2022-02-10T14:44:16Z",
        "version": 2,
        "changeset": 117249303,
        "addr:city": "Altos",
        "addr:postcode": "64290-000",
        "addr:street": "Avenida Nossa Senhora de Fátima",
        "addr:suburb": "Centro",
        "amenity": "school",
        "name": "Ceep Pio Xii",
        "id": "way/1030067541"
      },
      "geometry": {
        "type": "Polygon",
        "coordinates": [
          [
            [
              -42.4576247,
              -5.0393354
            ],
            [
              -42.4580531,
              -5.0392926
            ],
            [
              -42.4580772,
              -5.0396038
            ],
            [
              -42.4576611,
              -5.0396445
            ],
            [
              -42.4576247,
              -5.0393354
            ]
          ]
        ]
      }
    },
    {
      "type": "Feature",
      "id": "way/1030067867",
      "properties": {
        "timestamp": "2022-02-10T14:46:03Z",
        "version": 1,
        "changeset": 117249369,
        "addr:city": "Altos",
        "addr:housenumber": "2181",
        "addr:postcode": "64290-000",
        "addr:street": "Rua Lucrécio Avelino",
        "addr:suburb": "Centro",
        "amenity": "school",
        "name": "U E Mario Raulino",
        "phone": "+55 86 3262 1626",
        "id": "way/1030067867"
      },
      "geometry": {
        "type": "Polygon",
        "coordinates": [
          [
            [
              -42.4576329,
              -5.0380869
            ],
            [
              -42.4576652,
              -5.0386203
            ],
            [
              -42.4570531,
              -5.0386739
            ],
            [
              -42.4570065,
              -5.0381417
            ],
            [
              -42.4576329,
              -5.0380869
            ]
          ]
        ]
      }
    },
    {
      "type": "Feature",
      "id": "way/1030068319",
      "properties": {
        "timestamp": "2022-02-10T14:48:58Z",
        "version": 1,
        "changeset": 117249483,
        "addr:city": "Altos",
        "addr:housenumber": "1995",
        "addr:postcode": "64290-000",
        "addr:street": "Rua Doze de Outubro",
        "addr:suburb": "Centro",
        "amenity": "school",
        "name": "U E Afonso Mafrense",
        "id": "way/1030068319"
      },
      "geometry": {
        "type": "Polygon",
        "coordinates": [
          [
            [
              -42.4627045,
              -5.0370586
            ],
            [
              -42.4628124,
              -5.0379523
            ],
            [
              -42.4623722,
              -5.0380075
            ],
            [
              -42.4622628,
              -5.0371165
            ],
            [
              -42.4627045,
              -5.0370586
            ]
          ]
        ]
      }
    },
    {
      "type": "Feature",
      "id": "way/1030068784",
      "properties": {
        "timestamp": "2022-02-10T14:51:27Z",
        "version": 1,
        "changeset": 117249588,
        "addr:city": "Altos",
        "addr:housenumber": "702",
        "addr:postcode": "64290-000",
        "addr:street": "Rua Monsenhor Lopes",
        "addr:suburb": "Batalhão",
        "amenity": "school",
        "name": "U E Altina Pestana",
        "id": "way/1030068784"
      },
      "geometry": {
        "type": "Polygon",
        "coordinates": [
          [
            [
              -42.4537715,
              -5.0323413
            ],
            [
              -42.4543103,
              -5.0322886
            ],
            [
              -42.4543728,
              -5.0328046
            ],
            [
              -42.4538516,
              -5.0328669
            ],
            [
              -42.4537715,
              -5.0323413
            ]
          ]
        ]
      }
    },
    {
      "type": "Feature",
      "id": "way/1030069367",
      "properties": {
        "timestamp": "2022-02-10T14:53:25Z",
        "version": 1,
        "changeset": 117249671,
        "addr:city": "Altos",
        "addr:housenumber": "2526",
        "addr:postcode": "64290-000",
        "addr:street": "Rua Ourinhos",
        "addr:suburb": "Baixão dos Paivas",
        "amenity": "school",
        "name": "Unidade Escolar Joao De Paiva Oliveira",
        "id": "way/1030069367"
      },
      "geometry": {
        "type": "Polygon",
        "coordinates": [
          [
            [
              -42.4806584,
              -5.0459606
            ],
            [
              -42.4807575,
              -5.0462628
            ],
            [
              -42.4803994,
              -5.046451
            ],
            [
              -42.4802415,
              -5.0462094
            ],
            [
              -42.4802518,
              -5.0461621
            ],
            [
              -42.4806584,
              -5.0459606
            ]
          ]
        ]
      }
    },
    {
      "type": "Feature",
      "id": "way/1292116705",
      "properties": {
        "timestamp": "2024-06-13T14:03:41Z",
        "version": 1,
        "changeset": 152635819,
        "amenity": "school",
        "name": "U.E. José Gil Barbosa",
        "id": "way/1292116705"
      },
      "geometry": {
        "type": "Polygon",
        "coordinates": [
          [
            [
              -42.4537628,
              -5.0462195
            ],
            [
              -42.453605,
              -5.0460182
            ],
            [
              -42.4537745,
              -5.0459101
            ],
            [
              -42.4539267,
              -5.0461041
            ],
            [
              -42.4537628,
              -5.0462195
            ]
          ]
        ]
      }
    },
    {
      "type": "Feature",
      "id": "node/9493836136",
      "properties": {
        "timestamp": "2022-02-09T21:20:04Z",
        "version": 1,
        "changeset": 117219793,
        "amenity": "school",
        "name": "Unidade Escolar Deputado Prado Junior",
        "id": "node/9493836136"
      },
      "geometry": {
        "type": "Point",
        "coordinates": [
          -42.5112708,
          -5.0974816
        ]
      }
    },
    {
      "type": "Feature",
      "id": "node/9493920827",
      "properties": {
        "timestamp": "2022-02-09T22:05:36Z",
        "version": 1,
        "changeset": 117220953,
        "amenity": "school",
        "name": "Centro De Educacao Infantil Municipal Os Amiguinhos",
        "id": "node/9493920827"
      },
      "geometry": {
        "type": "Point",
        "coordinates": [
          -42.4570741,
          -5.0505051
        ]
      }
    },
    {
      "type": "Feature",
      "id": "node/9495494150",
      "properties": {
        "timestamp": "2022-02-10T14:46:53Z",
        "version": 1,
        "changeset": 117249394,
        "addr:city": "Altos",
        "addr:postcode": "64290-000",
        "addr:street": "Rua Brasil",
        "addr:suburb": "Centro",
        "amenity": "school",
        "name": "Escolinha Tio Patinhas",
        "phone": "+55 86 3262 1113",
        "id": "node/9495494150"
      },
      "geometry": {
        "type": "Point",
        "coordinates": [
          -42.4600513,
          -5.0372075
        ]
      }
    },
    {
      "type": "Feature",
      "id": "node/9495498154",
      "properties": {
        "timestamp": "2022-02-10T14:52:03Z",
        "version": 1,
        "changeset": 117249622,
        "amenity": "school",
        "name": "U E Anisio Lima",
        "id": "node/9495498154"
      },
      "geometry": {
        "type": "Point",
        "coordinates": [
          -42.473406,
          -5.0276555
        ]
      }
    },
    {
      "type": "Feature",
      "id": "node/9495551385",
      "properties": {
        "timestamp": "2022-02-10T14:44:58Z",
        "version": 1,
        "changeset": 117249330,
        "addr:city": "Altos",
        "addr:housenumber": "2180",
        "addr:postcode": "64290-000",
        "addr:street": "Rua Lucrécio Avelino",
        "addr:suburb": "Centro",
        "amenity": "school",
        "name": "Inst De Desenv Educacional De Altos",
        "phone": "+55 86 3262 1399",
        "id": "node/9495551385"
      },
      "geometry": {
        "type": "Point",
        "coordinates": [
          -42.457294,
          -5.0388186
        ]
      }
    },
    {
      "type": "Feature",
      "id": "node/9495551438",
      "properties": {
        "timestamp": "2022-02-10T14:54:44Z",
        "version": 1,
        "changeset": 117249737,
        "amenity": "school",
        "name": "Unidade Escolar Vicente Delmiro De Oliveira",
        "id": "node/9495551438"
      },
      "geometry": {
        "type": "Point",
        "coordinates": [
          -42.5272755,
          -4.9122572
        ]
      }
    },
    {
      "type": "Feature",
      "id": "node/9495564252",
      "properties": {
        "timestamp": "2022-02-10T14:48:00Z",
        "version": 1,
        "changeset": 117249430,
        "amenity": "school",
        "name": "Educandario Sao Jose",
        "id": "node/9495564252"
      },
      "geometry": {
        "type": "Point",
        "coordinates": [
          -42.4615292,
          -5.0361147
        ]
      }
    },
    {
      "type": "Feature",
      "id": "node/9495574774",
      "properties": {
        "timestamp": "2022-02-10T14:49:26Z",
        "version": 1,
        "changeset": 117249501,
        "amenity": "school",
        "name": "Ceti Rama Boa",
        "id": "node/9495574774"
      },
      "geometry": {
        "type": "Point",
        "coordinates": [
          -42.4587987,
          -5.0316634
        ]
      }
    },
    {
      "type": "Feature",
      "id": "node/9495578281",
      "properties": {
        "timestamp": "2022-02-10T14:50:08Z",
        "version": 1,
        "changeset": 117249541,
        "addr:city": "Altos",
        "addr:postcode": "64290-000",
        "addr:street": "Rua Dom Pedro II",
        "addr:suburb": "Batalha",
        "amenity": "school",
        "name": "Centro De Educacao Infantil Municipal Os Baixinhos",
        "id": "node/9495578281"
      },
      "geometry": {
        "type": "Point",
        "coordinates": [
          -42.4574415,
          -5.0290342
        ]
      }
    },
    {
      "type": "Feature",
      "id": "node/9495579820",
      "properties": {
        "timestamp": "2022-02-10T14:53:50Z",
        "version": 1,
        "changeset": 117249689,
        "amenity": "school",
        "name": "Unidade Escolar Nossa Senhora De Fatima",
        "id": "node/9495579820"
      },
      "geometry": {
        "type": "Point",
        "coordinates": [
          -42.4748303,
          -4.9771522
        ]
      }
    }
  ]
}
