{
  "type": "FeatureCollection",
  "features": [
    {
      "type": "Feature",
      "id": "way/926208232",
      "properties": {
        "timestamp": "2023-08-30T23:53:00Z",
        "version": 3,
        "changeset": 140611183,
        "addr:housenumber": "135",
        "addr:postcode": "11690-165",
        "addr:street": "Rua Conceição",
        "addr:suburb": "Centro",
        "amenity": "hospital",
        "healthcare": "hospital",
        "healthcare:speciality": "paediatrics;obstetrics",
        "name": "Santa Casa de Misericórdia de Ubatuba",
        "operator": "Irmandade Senhor dos Passos de Ubatuba.",
        "operator:type": "private",
        "phone": "+55 12 3834 3230",
        "ref:CNES": "2702193",
        "ref:vatin": "BR72747967000142",
        "website": "https://santacasaubatuba.org.br/",
        "id": "way/926208232"
      },
      "geometry": {
        "type": "Polygon",
        "coordinates": [
          [
            [
              -45.071454,
              -23.4348414
            ],
            [
              -45.071499,
              -23.4353456
            ],
            [
              -45.0714067,
              -23.435363
            ],
            [
              -45.0714114,
              -23.4353152
            ],
            [
              -45.0711793,
              -23.4353391
            ],
            [
              -45.0711745,
              -23.4352022
            ],
            [
              -45.0712953,
              -23.435187
            ],
            [
              -45.0712906,
              -23.435087
            ],
            [
              -45.0713309,
              -23.4350892
            ],
            [
              -45.071319,
              -23.4348501
            ],
            [
              -45.071454,
              -23.4348414
            ]
          ]
        ]
      }
    },
    {
      "type": "Feature",
      "id": "way/1294873560",
      "properties": {
        "timestamp": "2024-11-21T18:14:50Z",
        "version": 2,
        "changeset": 159428298,
        "addr:city": "Ubatuba",
        "addr:housenumber": "3205",
        "addr:postcode": "11698201",
        "addr:street": "Estrada do Pasto Grande",
        "addr:suburb": "Sertão do Ubatumirim",
        "amenity": "hospital",
        "healthcare": "hospital",
        "healthcare:speciality": "community",
        "name": "ESF Maria Laurentina de Novais",
        "operator": "Sertão do Ubatumirim",
        "operator:type": "public",
        "id": "way/1294873560"
      },
      "geometry": {
        "type": "Polygon",
        "coordinates": [
          [
            [
              -44.8673059,
              -23.3044425
            ],
            [
              -44.8671872,
              -23.3044595
            ],
            [
              -44.8671687,
              -23.3043505
            ],
            [
              -44.8672651,
              -23.3043778
            ],
            [
              -44.8673059,
              -23.3044425
            ]
          ]
        ]
      }
    },
    {
      "type": "Feature",
      "id": "way/1372449200",
      "properties": {
        "timestamp": "2025-03-28T16:15:17Z",
        "version": 1,
        "changeset": 164215183,
        "addr:city": "Ubatuba",
        "addr:housenumber": "36",
        "addr:postcode": "11681-220",
        "addr:street": "Avenida do Engenho",
        "addr:suburb": "Maranduba",
        "amenity": "hospital",
        "emergency": "yes",
        "healthcare": "hospital",
        "healthcare:speciality": "general",
        "name": "UPA Maranduba",
        "opening_hours": "24/7",
        "phone": "+55 12 3849 5001",
        "id": "way/1372449200"
      },
      "geometry": {
        "type": "Polygon",
        "coordinates": [
          [
            [
              -45.2392931,
              -23.5439688
            ],
            [
              -45.2392408,
              -23.5441731
            ],
            [
              -45.239021,
              -23.544122
            ],
            [
              -45.2390761,
              -23.5439209
            ],
            [
              -45.2392931,
              -23.5439688
            ]
          ]
        ]
      }
    }
  ]
}
