{
  "type": "FeatureCollection",
  "features": [
    {
      "type": "Feature",
      "id": "way/926208228",
      "properties": {
        "timestamp": "2021-12-18T01:27:08Z",
        "version": 3,
        "changeset": 115077197,
        "addr:housenumber": "360",
        "addr:postcode": "11680-000",
        "addr:street": "Praça Treze de Maio",
        "addr:suburb": "Centro",
        "amenity": "pharmacy",
        "brand": "Farma Conde",
        "brand:wikidata": "Q100492677",
        "building": "yes",
        "dispensing": "yes",
        "drive_through": "no",
        "email": "oja02@farmaconde.com.br",
        "healthcare": "pharmacy",
        "name": "Farma Conde",
        "phone": "+55 12 3832 6197",
        "ref": "Loja 002",
        "website": "https://www.farmaconde.com.br/",
        "id": "way/926208228"
      },
      "geometry": {
        "type": "Polygon",
        "coordinates": [
          [
            [
              -45.0732662,
              -23.4357934
            ],
            [
              -45.0732685,
              -23.4358868
            ],
            [
              -45.0731856,
              -23.4358868
            ],
            [
              -45.0731619,
              -23.4357934
            ],
            [
              -45.0732662,
              -23.4357934
            ]
          ]
        ]
      }
    },
    {
      "type": "Feature",
      "id": "way/926328855",
      "properties": {
        "timestamp": "2021-04-05T19:42:57Z",
        "version": 2,
        "changeset": 102354848,
        "addr:housenumber": "443",
        "addr:postcode": "11680-000",
        "addr:street": "Rua Hans Staden",
        "addr:suburb": "Centro",
        "amenity": "pharmacy",
        "brand": "Droga Raia",
        "brand:wikidata": "Q10357101",
        "brand:wikipedia": "pt:RaiaDrogasil",
        "building": "yes",
        "contact:mobile": "+55 12 99611 1005",
        "dispensing": "yes",
        "drive_through": "no",
        "healthcare": "pharmacy",
        "name": "Droga Raia",
        "opening_hours": "24/7",
        "phone": "+55 12  3832 -5854",
        "id": "way/926328855"
      },
      "geometry": {
        "type": "Polygon",
        "coordinates": [
          [
            [
              -45.073611,
              -23.4337716
            ],
            [
              -45.0734447,
              -23.4337888
            ],
            [
              -45.0734205,
              -23.4336928
            ],
            [
              -45.0736002,
              -23.4336731
            ],
            [
              -45.073611,
              -23.4337716
            ]
          ]
        ]
      }
    },
    {
      "type": "Feature",
      "id": "way/926328856",
      "properties": {
        "timestamp": "2021-12-18T01:27:08Z",
        "version": 4,
        "changeset": 115077197,
        "addr:postcode": "11680-000",
        "addr:street": "Rua Hans Staden",
        "addr:suburb": "Centro",
        "amenity": "pharmacy",
        "brand": "Farma Conde",
        "brand:wikidata": "Q100492677",
        "building": "yes",
        "dispensing": "yes",
        "drive_through": "no",
        "healthcare": "pharmacy",
        "name": "Farma Conde",
        "phone": "+55 12 3833 9134",
        "id": "way/926328856"
      },
      "geometry": {
        "type": "Polygon",
        "coordinates": [
          [
            [
              -45.0740368,
              -23.4338644
            ],
            [
              -45.0740487,
              -23.4339397
            ],
            [
              -45.0738406,
              -23.4339796
            ],
            [
              -45.0738245,
              -23.4339033
            ],
            [
              -45.0740368,
              -23.4338644
            ]
          ]
        ]
      }
    },
    {
      "type": "Feature",
      "id": "way/926333773",
      "properties": {
        "timestamp": "2021-04-05T20:01:37Z",
        "version": 1,
        "changeset": 102355430,
        "addr:postcode": "11680-000",
        "addr:street": "Rua Hans Staden",
        "addr:suburb": "Centro",
        "amenity": "pharmacy",
        "building": "yes",
        "dispensing": "yes",
        "healthcare": "pharmacy",
        "name": "S.O.S Farma Drogarias",
        "id": "way/926333773"
      },
      "geometry": {
        "type": "Polygon",
        "coordinates": [
          [
            [
              -45.0740572,
              -23.4339742
            ],
            [
              -45.0740719,
              -23.4340433
            ],
            [
              -45.0739631,
              -23.4340625
            ],
            [
              -45.0739589,
              -23.4340778
            ],
            [
              -45.0738606,
              -23.4340989
            ],
            [
              -45.0738439,
              -23.4339953
            ],
            [
              -45.0740572,
              -23.4339742
            ]
          ]
        ]
      }
    },
    {
      "type": "Feature",
      "id": "way/926333775",
      "properties": {
        "timestamp": "2021-12-18T01:27:08Z",
        "version": 2,
        "changeset": 115077197,
        "addr:postcode": "11680-000",
        "addr:street": "Rua Hans Staden",
        "addr:suburb": "Centro",
        "amenity": "pharmacy",
        "brand": "Farma Conde",
        "brand:wikidata": "Q100492677",
        "building": "yes",
        "dispensing": "yes",
        "healthcare": "pharmacy",
        "name": "Farma Conde",
        "website": "https://www.farmaconde.com.br/",
        "id": "way/926333775"
      },
      "geometry": {
        "type": "Polygon",
        "coordinates": [
          [
            [
              -45.0737246,
              -23.4343312
            ],
            [
              -45.0737413,
              -23.4344032
            ],
            [
              -45.0735489,
              -23.4344483
            ],
            [
              -45.0735384,
              -23.4343638
            ],
            [
              -45.0737246,
              -23.4343312
            ]
          ]
        ]
      }
    },
    {
      "type": "Feature",
      "id": "way/926333777",
      "properties": {
        "timestamp": "2021-12-18T01:27:08Z",
        "version": 2,
        "changeset": 115077197,
        "addr:postcode": "11680-000",
        "addr:street": "Rua Hans Staden",
        "addr:suburb": "Centro",
        "amenity": "pharmacy",
        "brand": "Farma Conde",
        "brand:wikidata": "Q100492677",
        "building": "yes",
        "dispensing": "yes",
        "drive_through": "no",
        "healthcare": "pharmacy",
        "name": "Farma Conde",
        "phone": "+55 12 3832 4133",
        "id": "way/926333777"
      },
      "geometry": {
        "type": "Polygon",
        "coordinates": [
          [
            [
              -45.0736214,
              -23.433807
            ],
            [
              -45.0736329,
              -23.4338781
            ],
            [
              -45.0734734,
              -23.4338996
            ],
            [
              -45.073462,
              -23.4338286
            ],
            [
              -45.0736214,
              -23.433807
            ]
          ]
        ]
      }
    },
    {
      "type": "Feature",
      "id": "way/927928328",
      "properties": {
        "timestamp": "2021-04-08T20:52:35Z",
        "version": 1,
        "changeset": 102589781,
        "addr:housenumber": "203",
        "addr:postcode": "11680-000",
        "addr:street": "Rua Capitão Felipe",
        "addr:suburb": "Itaguá",
        "amenity": "pharmacy",
        "brand": "Droga Raia",
        "brand:wikidata": "Q10357101",
        "brand:wikipedia": "pt:RaiaDrogasil",
        "building": "yes",
        "contact:mobile": "+55 12 99635 0508",
        "dispensing": "yes",
        "drive_through": "no",
        "healthcare": "pharmacy",
        "name": "Droga Raia",
        "phone": "+55 12 3832 3423",
        "website": "https://www.drogaraia.com.br/",
        "id": "way/927928328"
      },
      "geometry": {
        "type": "Polygon",
        "coordinates": [
          [
            [
              -45.060922,
              -23.4582089
            ],
            [
              -45.0609597,
              -23.458292
            ],
            [
              -45.0608203,
              -23.4583482
            ],
            [
              -45.0607826,
              -23.4582715
            ],
            [
              -45.060922,
              -23.4582089
            ]
          ]
        ]
      }
    },
    {
      "type": "Feature",
      "id": "way/927931881",
      "properties": {
        "timestamp": "2023-07-24T03:00:21Z",
        "version": 2,
        "changeset": 138917579,
        "addr:housenumber": "548",
        "addr:postcode": "11680-000",
        "addr:street": "Rua Capitão Felipe",
        "addr:suburb": "Itaguá",
        "amenity": "pharmacy",
        "brand": "Farma Conde",
        "brand:wikidata": "Q100492677",
        "building": "yes",
        "dispensing": "yes",
        "healthcare": "pharmacy",
        "name": "Farma Conde",
        "phone": "+55 12 3835 3371",
        "ref": "Loja 003",
        "website": "https://www.farmaconde.com.br/institucional/",
        "id": "way/927931881"
      },
      "geometry": {
        "type": "Polygon",
        "coordinates": [
          [
            [
              -45.0630491,
              -23.460807
            ],
            [
              -45.0629,
              -23.4609809
            ],
            [
              -45.0628317,
              -23.4608812
            ],
            [
              -45.0629962,
              -23.4607111
            ],
            [
              -45.0630491,
              -23.460807
            ]
          ]
        ]
      }
    },
    {
      "type": "Feature",
      "id": "way/927972462",
      "properties": {
        "timestamp": "2023-07-24T04:00:15Z",
        "version": 2,
        "changeset": 138918428,
        "addr:housenumber": "404",
        "addr:postcode": "11680-000",
        "addr:street": "Rua Ari Vieira",
        "addr:suburb": "Estufa II",
        "amenity": "pharmacy",
        "brand": "Farma Conde",
        "brand:wikidata": "Q100492677",
        "building": "yes",
        "dispensing": "yes",
        "drive_through": "no",
        "email": "loja01@farmaconde.com.br",
        "healthcare": "pharmacy",
        "name": "Farma Conde",
        "phone": "+55 12 3832 5700",
        "ref": "Loja 001",
        "website": "https://www.farmaconde.com.br/",
        "id": "way/927972462"
      },
      "geometry": {
        "type": "Polygon",
        "coordinates": [
          [
            [
              -45.0769623,
              -23.4539692
            ],
            [
              -45.0769223,
              -23.4540778
            ],
            [
              -45.0768544,
              -23.4540567
            ],
            [
              -45.0768944,
              -23.4539482
            ],
            [
              -45.0769623,
              -23.4539692
            ]
          ]
        ]
      }
    },
    {
      "type": "Feature",
      "id": "way/1014462775",
      "properties": {
        "timestamp": "2021-12-22T21:36:09Z",
        "version": 1,
        "changeset": 115273348,
        "addr:street": "Avenida Professor Thomáz Galhardo",
        "addr:suburb": "Centro",
        "amenity": "pharmacy",
        "brand": "Drogasil",
        "brand:wikidata": "Q5308185",
        "brand:wikipedia": "pt:Drogasil",
        "building": "yes",
        "dispensing": "yes",
        "healthcare": "pharmacy",
        "name": "Drogasil",
        "wheelchair": "yes",
        "id": "way/1014462775"
      },
      "geometry": {
        "type": "Polygon",
        "coordinates": [
          [
            [
              -45.0814169,
              -23.4350787
            ],
            [
              -45.0814331,
              -23.4352322
            ],
            [
              -45.0813036,
              -23.4352388
            ],
            [
              -45.0813,
              -23.4350869
            ],
            [
              -45.0814169,
              -23.4350787
            ]
          ]
        ]
      }
    },
    {
      "type": "Feature",
      "id": "way/1273124709",
      "properties": {
        "timestamp": "2025-03-28T17:11:58Z",
        "version": 3,
        "changeset": 164217524,
        "addr:city": "Ubatuba",
        "addr:housenumber": "1440",
        "addr:postcode": "11682-168",
        "addr:street": "Rodovia Governador Mário Covas",
        "addr:suburb": "Maranduba",
        "amenity": "pharmacy",
        "brand": "Farma Conde",
        "brand:wikidata": "Q100492677",
        "building": "retail",
        "dispensing": "yes",
        "drive_through": "no",
        "healthcare": "pharmacy",
        "name": "Farma Conde",
        "opening_hours": "07:00-23:00",
        "phone": "+55 12 3849 8400",
        "website": "https://www.farmaconde.com.br/",
        "id": "way/1273124709"
      },
      "geometry": {
        "type": "Polygon",
        "coordinates": [
          [
            [
              -45.2280127,
              -23.5352863
            ],
            [
              -45.2281115,
              -23.5355304
            ],
            [
              -45.2279335,
              -23.5355909
            ],
            [
              -45.2278347,
              -23.5353468
            ],
            [
              -45.2280127,
              -23.5352863
            ]
          ]
        ]
      }
    },
    {
      "type": "Feature",
      "id": "way/1273124710",
      "properties": {
        "timestamp": "2025-03-28T17:11:58Z",
        "version": 4,
        "changeset": 164217524,
        "addr:city": "Ubatuba",
        "addr:housenumber": "340",
        "addr:postcode": "11681-296",
        "addr:street": "Avenida Tenente Manoel Barbosa da Silva",
        "addr:suburb": "Maranduba",
        "amenity": "pharmacy",
        "building": "retail",
        "dispensing": "yes",
        "drive_through": "no",
        "healthcare": "pharmacy",
        "name": "Farma Ponte",
        "opening_hours": "07:00-22:00",
        "phone": "+55 15 99749 5186",
        "website": "https://www.farmaponte.com.br/",
        "id": "way/1273124710"
      },
      "geometry": {
        "type": "Polygon",
        "coordinates": [
          [
            [
              -45.2298177,
              -23.5389416
            ],
            [
              -45.2298574,
              -23.5390554
            ],
            [
              -45.2295687,
              -23.5391402
            ],
            [
              -45.2295259,
              -23.5391234
            ],
            [
              -45.2294954,
              -23.5390362
            ],
            [
              -45.2298177,
              -23.5389416
            ]
          ]
        ]
      }
    },
    {
      "type": "Feature",
      "id": "node/5296655497",
      "properties": {
        "timestamp": "2021-12-18T01:27:08Z",
        "version": 2,
        "changeset": 115077197,
        "amenity": "pharmacy",
        "healthcare": "pharmacy",
        "name": "S.O.S. Farma",
        "id": "node/5296655497"
      },
      "geometry": {
        "type": "Point",
        "coordinates": [
          -45.0725223,
          -23.4341099
        ]
      }
    },
    {
      "type": "Feature",
      "id": "node/5362424191",
      "properties": {
        "timestamp": "2023-12-12T14:55:53Z",
        "version": 3,
        "changeset": 145041400,
        "amenity": "pharmacy",
        "dispensing": "yes",
        "drive_through": "no",
        "healthcare": "pharmacy",
        "name": "Drogaria Perequê",
        "id": "node/5362424191"
      },
      "geometry": {
        "type": "Point",
        "coordinates": [
          -45.0673402,
          -23.4253077
        ]
      }
    },
    {
      "type": "Feature",
      "id": "node/9359318210",
      "properties": {
        "timestamp": "2021-12-22T21:36:09Z",
        "version": 1,
        "changeset": 115273348,
        "addr:street": "Avenida Professor Thomáz Galhardo",
        "addr:suburb": "Centro",
        "amenity": "pharmacy",
        "brand": "Farma Conde",
        "brand:wikidata": "Q100492677",
        "dispensing": "yes",
        "drive_through": "no",
        "healthcare": "pharmacy",
        "name": "Farma Conde",
        "id": "node/9359318210"
      },
      "geometry": {
        "type": "Point",
        "coordinates": [
          -45.0808879,
          -23.4354551
        ]
      }
    }
  ]
}
