{
  "type": "FeatureCollection",
  "features": [
    {
      "type": "Feature",
      "id": "way/1372449202",
      "properties": {
        "timestamp": "2025-03-28T16:15:17Z",
        "version": 1,
        "changeset": 164215183,
        "addr:city": "Ubatuba",
        "addr:housenumber": "10",
        "addr:postcode": "11681-220",
        "addr:street": "Rua Cabo Oscár Rossin",
        "addr:suburb": "Maranduba",
        "alt_name": "Centro de Referência de Assistência Social Maria Balio",
        "amenity": "social_facility",
        "building": "yes",
        "name": "CRAS Maria Balio",
        "opening_hours": "Mo-Fr 08:00-17:00",
        "operator": "Ministério do Desenvolvimento Social",
        "operator:type": "government",
        "phone": "+55 12 3849 5800",
        "id": "way/1372449202"
      },
      "geometry": {
        "type": "Polygon",
        "coordinates": [
          [
            [
              -45.2387644,
              -23.5440864
            ],
            [
              -45.2386988,
              -23.5443435
            ],
            [
              -45.2385393,
              -23.5443093
            ],
            [
              -45.238605,
              -23.5440522
            ],
            [
              -45.2387644,
              -23.5440864
            ]
          ]
        ]
      }
    },
    {
      "type": "Feature",
      "id": "node/6726799152",
      "properties": {
        "timestamp": "2021-04-05T12:38:49Z",
        "version": 3,
        "changeset": 102334640,
        "amenity": "social_facility",
        "contact:phone": "+55 12 3834 3504",
        "description": "Reuniões de Acolhida Informativa (aberta ao público):\nToda 3ª feira às 9h (semanal)\n\nReuniões p/ jovens:\nSegunda 5ª feira do mês às 14h (mensal)",
        "email": "crascentro@ubatuba.sp.gov.br",
        "name": "CRAS Centro (Centro de Referência de Assitência Social)",
        "operator": "Prefeitura Ubatuba",
        "operator:type": "government",
        "phone": "+55 12 3834 3500",
        "id": "node/6726799152"
      },
      "geometry": {
        "type": "Point",
        "coordinates": [
          -45.0786255,
          -23.4360893
        ]
      }
    }
  ]
}
