{
  "type": "FeatureCollection",
  "features": [
    {
      "type": "Feature",
      "id": "way/505420596",
      "properties": {
        "timestamp": "2025-01-03T01:04:14Z",
        "version": 3,
        "changeset": 160931318,
        "addr:city": "Santa Isabel",
        "addr:housenumber": "57",
        "addr:postcode": "07500-000",
        "addr:street": "Rua  Professora Ana Moutinho Gonçalves",
        "addr:suburb": "Treze de Maio",
        "amenity": "college",
        "email": "etecsantaisabel@gmail.com",
        "name": "Escola Técnica de Santa Isabel",
        "operator": "Centro Paula Souza",
        "operator:type": "public",
        "operator:wikidata": "Q52637715",
        "phone": "+55 11 4656 4588",
        "phone_1": "+55 11 4656 6229",
        "phone_2": "+55 11 4656 6227",
        "start_date": "22 do mês de dezembro de 2009",
        "website": "https://www.etecsantaisabel.com.br/etecsi/index.php?option=com_content&view=article&id=46&Itemid=28",
        "id": "way/505420596"
      },
      "geometry": {
        "type": "Polygon",
        "coordinates": [
          [
            [
              -46.2344508,
              -23.327551
            ],
            [
              -46.2344615,
              -23.3278465
            ],
            [
              -46.2340458,
              -23.3278687
            ],
            [
              -46.2338688,
              -23.3276963
            ],
            [
              -46.2338849,
              -23.3275658
            ],
            [
              -46.2344508,
              -23.327551
            ]
          ]
        ]
      }
    }
  ]
}
