{
  "type": "FeatureCollection",
  "features": [
    {
      "type": "Feature",
      "id": "way/496389130",
      "properties": {
        "timestamp": "2020-09-17T19:28:41Z",
        "version": 2,
        "changeset": 91067243,
        "addr:city": "Santa Isabel",
        "addr:housenumber": "210",
        "addr:postcode": "07500-000",
        "addr:street": "Rua Massao Ogawa",
        "addr:suburb": "Jardim Eldorado",
        "amenity": "school",
        "contact:phone": "+55 11 4656 1279",
        "email": "e920332a@educacao.sp.gov.br",
        "loc_name": "E.E. Professora Brasilisia Machado Lobo",
        "name": "Escola Estadual Professora Brasilisia Machado Lobo",
        "operator": "Secretaria da Educação do Estado de São Paulo",
        "operator:type": "government",
        "phone": "+55 11 4656 4600",
        "ref": "INEP-35920332",
        "id": "way/496389130"
      },
      "geometry": {
        "type": "Polygon",
        "coordinates": [
          [
            [
              -46.2162718,
              -23.3069007
            ],
            [
              -46.2157031,
              -23.3074894
            ],
            [
              -46.2152766,
              -23.3072258
            ],
            [
              -46.2157272,
              -23.3065928
            ],
            [
              -46.2160008,
              -23.3067492
            ],
            [
              -46.2162718,
              -23.3069007
            ]
          ]
        ]
      }
    },
    {
      "type": "Feature",
      "id": "way/505421728",
      "properties": {
        "timestamp": "2018-01-13T21:17:26Z",
        "version": 2,
        "changeset": 55417008,
        "addr:city": "Santa Isabel",
        "addr:country": "BR",
        "addr:housenumber": "122",
        "addr:postcode": "07500-000",
        "addr:street": "Rua Nove de Julho",
        "addr:suburb": "Centro",
        "amenity": "school",
        "contact:phone": "+55 11 4656 4113",
        "email": "e006531a@educacao.gov.sp.br",
        "name": "Escola Estadual Major Guilhermino Mendes de Albuquerque",
        "operator": "Secretaria da Educação do Estado de São Paulo",
        "phone": "+55 11 4656 2556",
        "id": "way/505421728"
      },
      "geometry": {
        "type": "Polygon",
        "coordinates": [
          [
            [
              -46.2316794,
              -23.32324
            ],
            [
              -46.231843,
              -23.3237326
            ],
            [
              -46.2315131,
              -23.3239592
            ],
            [
              -46.2311536,
              -23.3234198
            ],
            [
              -46.2316794,
              -23.32324
            ]
          ]
        ]
      }
    },
    {
      "type": "Feature",
      "id": "way/505422582",
      "properties": {
        "timestamp": "2017-07-06T01:17:32Z",
        "version": 2,
        "changeset": 50071700,
        "addr:city": "Santa isabel",
        "addr:housenumber": "287",
        "addr:postcode": "07500-000",
        "addr:street": "Rua Cônego Bicudo",
        "addr:suburb": "Centro",
        "amenity": "school",
        "email": "e006567a@educacao.gov.sp.br",
        "name": "Escola Estadual Professora Gabriela Freire Lobo",
        "operator": "Secretaria da Educação do Estado de São Paulo",
        "phone": "+55 11 4656 3958",
        "phone_1": "+55 11 4656 2155",
        "id": "way/505422582"
      },
      "geometry": {
        "type": "Polygon",
        "coordinates": [
          [
            [
              -46.2305649,
              -23.3205555
            ],
            [
              -46.2299319,
              -23.320888
            ],
            [
              -46.229543,
              -23.3201713
            ],
            [
              -46.2298917,
              -23.3199767
            ],
            [
              -46.2305649,
              -23.3205555
            ]
          ]
        ]
      }
    },
    {
      "type": "Feature",
      "id": "way/587345375",
      "properties": {
        "timestamp": "2018-05-10T23:37:06Z",
        "version": 1,
        "changeset": 58864096,
        "addr:city": "Santa Isabel",
        "addr:housenumber": "57",
        "addr:street": "Rua  Professora Ana Moutinho Gonçalves",
        "addr:suburb": "Treze de Maio",
        "amenity": "school",
        "email": "educasi@aol.com.br",
        "name": "Escola Municipal de Educação Fundamental Oscar Ferreira de Godóy",
        "phone": "+55 11 4657 2510",
        "id": "way/587345375"
      },
      "geometry": {
        "type": "Polygon",
        "coordinates": [
          [
            [
              -46.2338968,
              -23.325683
            ],
            [
              -46.2340872,
              -23.3258505
            ],
            [
              -46.2340765,
              -23.3258653
            ],
            [
              -46.2340309,
              -23.3258283
            ],
            [
              -46.2339799,
              -23.32588
            ],
            [
              -46.2339531,
              -23.3258628
            ],
            [
              -46.2337814,
              -23.3260426
            ],
            [
              -46.2336473,
              -23.3259318
            ],
            [
              -46.2338968,
              -23.325683
            ]
          ]
        ]
      }
    },
    {
      "type": "Feature",
      "id": "way/848624572",
      "properties": {
        "timestamp": "2020-09-17T20:27:07Z",
        "version": 1,
        "changeset": 91069677,
        "addr:housenumber": "300",
        "addr:postcode": "07500-000",
        "addr:street": "Avenida Dirce de Souza Machado",
        "addr:suburb": "Jardim Eldorado",
        "amenity": "school",
        "name": "Escola Municipal de Educação Fundamental do Jardim Eldorado",
        "phone": "+55 11 4656 7964",
        "ref": "INEP-35220012",
        "id": "way/848624572"
      },
      "geometry": {
        "type": "Polygon",
        "coordinates": [
          [
            [
              -46.217255,
              -23.3026527
            ],
            [
              -46.2169975,
              -23.3029952
            ],
            [
              -46.216614,
              -23.3028153
            ],
            [
              -46.2167695,
              -23.3023596
            ],
            [
              -46.217255,
              -23.3026527
            ]
          ]
        ]
      }
    }
  ]
}
