{
  "type": "FeatureCollection",
  "features": [
    {
      "type": "Feature",
      "id": "way/645463380",
      "properties": {
        "timestamp": "2022-01-25T23:55:39Z",
        "version": 2,
        "changeset": 116605429,
        "addr:city": "Santa Luz",
        "addr:housenumber": "497",
        "addr:postcode": "64910-000",
        "addr:street": "Rua Louren√ßo Lopes",
        "addr:suburb": "Centro",
        "amenity": "kindergarten",
        "name": "Creche Menino Jesus Projeto Casulo",
        "id": "way/645463380"
      },
      "geometry": {
        "type": "Polygon",
        "coordinates": [
          [
            [
              -44.131313,
              -8.9498921
            ],
            [
              -44.1312714,
              -8.9500537
            ],
            [
              -44.1310461,
              -8.9500047
            ],
            [
              -44.1310233,
              -8.9498206
            ],
            [
              -44.131313,
              -8.9498921
            ]
          ]
        ]
      }
    }
  ]
}
