{
  "type": "FeatureCollection",
  "features": [
    {
      "type": "Feature",
      "id": "way/1038274015",
      "properties": {
        "timestamp": "2022-03-08T14:44:12Z",
        "version": 1,
        "changeset": 118239571,
        "addr:city": "Miranorte",
        "addr:postcode": "77660-000",
        "addr:street": "Rua Minas Gerais",
        "addr:suburb": "Vila João",
        "amenity": "school",
        "name": "Escola Municipal De Tempo Integral Felipe Fagundes De Carvalho",
        "phone": "+55 63 3355 2927",
        "id": "way/1038274015"
      },
      "geometry": {
        "type": "Polygon",
        "coordinates": [
          [
            [
              -48.593346,
              -9.51696
            ],
            [
              -48.5930939,
              -9.5175869
            ],
            [
              -48.5928498,
              -9.5174705
            ],
            [
              -48.5930885,
              -9.5168489
            ],
            [
              -48.593346,
              -9.51696
            ]
          ]
        ]
      }
    },
    {
      "type": "Feature",
      "id": "way/1038285294",
      "properties": {
        "timestamp": "2022-03-08T15:31:02Z",
        "version": 1,
        "changeset": 118241236,
        "addr:city": "Miranorte",
        "addr:housenumber": "382",
        "addr:postcode": "77660-000",
        "addr:street": "Avenida José Amancio de Carvalho",
        "addr:suburb": "Centro",
        "amenity": "school",
        "name": "Associação de Apoio a Esc Especial Coração de Maria",
        "phone": "+55 63 3355 1157",
        "id": "way/1038285294"
      },
      "geometry": {
        "type": "Polygon",
        "coordinates": [
          [
            [
              -48.5876707,
              -9.5233221
            ],
            [
              -48.5877572,
              -9.5236451
            ],
            [
              -48.5872093,
              -9.5237877
            ],
            [
              -48.5871228,
              -9.5234647
            ],
            [
              -48.5876707,
              -9.5233221
            ]
          ]
        ]
      }
    },
    {
      "type": "Feature",
      "id": "way/1038285444",
      "properties": {
        "timestamp": "2022-03-08T15:32:01Z",
        "version": 1,
        "changeset": 118241282,
        "addr:city": "Miranorte",
        "addr:housenumber": "200",
        "addr:postcode": "77660-000",
        "addr:street": "Avenida Alfredo Nasser",
        "addr:suburb": "Centro",
        "amenity": "school",
        "name": "Escola Municipal de Tempo Integral Antonio Pereira de Sousa",
        "id": "way/1038285444"
      },
      "geometry": {
        "type": "Polygon",
        "coordinates": [
          [
            [
              -48.5895534,
              -9.5255227
            ],
            [
              -48.5897116,
              -9.5261258
            ],
            [
              -48.5893951,
              -9.5262078
            ],
            [
              -48.5892503,
              -9.5255756
            ],
            [
              -48.5895534,
              -9.5255227
            ]
          ]
        ]
      }
    },
    {
      "type": "Feature",
      "id": "way/1038366814",
      "properties": {
        "timestamp": "2022-03-08T21:23:50Z",
        "version": 1,
        "changeset": 118253281,
        "amenity": "school",
        "name": "Escola Municipal De Tempo Integral Sao Jose",
        "phone": "+55 63 8445 8753",
        "id": "way/1038366814"
      },
      "geometry": {
        "type": "Polygon",
        "coordinates": [
          [
            [
              -48.7318794,
              -9.4328505
            ],
            [
              -48.7313108,
              -9.4330913
            ],
            [
              -48.7309246,
              -9.4326494
            ],
            [
              -48.7311311,
              -9.4321917
            ],
            [
              -48.7318794,
              -9.4328505
            ]
          ]
        ]
      }
    },
    {
      "type": "Feature",
      "id": "way/1038367295",
      "properties": {
        "timestamp": "2022-03-08T21:27:00Z",
        "version": 1,
        "changeset": 118253354,
        "addr:city": "Miranorte",
        "addr:housenumber": "635",
        "addr:postcode": "77660-000",
        "addr:street": "Rua Onze",
        "addr:suburb": "Centro",
        "amenity": "school",
        "name": "Colegio Estadual Nossa Senhora Da Providencia",
        "phone": "+55 63 3355 1543",
        "id": "way/1038367295"
      },
      "geometry": {
        "type": "Polygon",
        "coordinates": [
          [
            [
              -48.5900255,
              -9.5307602
            ],
            [
              -48.5902025,
              -9.5314982
            ],
            [
              -48.5893764,
              -9.5316807
            ],
            [
              -48.5891886,
              -9.5309586
            ],
            [
              -48.5900255,
              -9.5307602
            ]
          ]
        ]
      }
    },
    {
      "type": "Feature",
      "id": "way/1038367471",
      "properties": {
        "timestamp": "2022-03-08T21:27:59Z",
        "version": 1,
        "changeset": 118253384,
        "addr:city": "Miranorte",
        "addr:housenumber": "1914",
        "addr:postcode": "77660-000",
        "addr:street": "Avenida Castelo Branco",
        "addr:suburb": "Vila Maria",
        "amenity": "school",
        "name": "Centro De Ensino Medio Rui Brasil Cavalcante",
        "id": "way/1038367471"
      },
      "geometry": {
        "type": "Polygon",
        "coordinates": [
          [
            [
              -48.591506,
              -9.5367753
            ],
            [
              -48.5916401,
              -9.5373705
            ],
            [
              -48.5904251,
              -9.5376059
            ],
            [
              -48.5903339,
              -9.5369684
            ],
            [
              -48.591506,
              -9.5367753
            ]
          ]
        ]
      }
    },
    {
      "type": "Feature",
      "id": "way/1038367472",
      "properties": {
        "timestamp": "2022-03-08T21:27:59Z",
        "version": 1,
        "changeset": 118253384,
        "amenity": "school",
        "id": "way/1038367472"
      },
      "geometry": {
        "type": "Polygon",
        "coordinates": [
          [
            [
              -48.5913371,
              -9.5359871
            ],
            [
              -48.591506,
              -9.5367753
            ],
            [
              -48.5903339,
              -9.5369684
            ],
            [
              -48.5902642,
              -9.536524
            ],
            [
              -48.5906209,
              -9.5364447
            ],
            [
              -48.5905726,
              -9.5361299
            ],
            [
              -48.5913371,
              -9.5359871
            ]
          ]
        ]
      }
    },
    {
      "type": "Feature",
      "id": "way/1038367731",
      "properties": {
        "timestamp": "2022-03-08T21:29:13Z",
        "version": 1,
        "changeset": 118253421,
        "addr:city": "Miranorte",
        "addr:postcode": "77660-000",
        "addr:street": "Rua Trinta e Quatro",
        "addr:suburb": "Vila São José",
        "amenity": "school",
        "name": "Escola Municipal De Tempo Integral Antonio Uchoa Viana",
        "id": "way/1038367731"
      },
      "geometry": {
        "type": "Polygon",
        "coordinates": [
          [
            [
              -48.585139,
              -9.5395901
            ],
            [
              -48.5852251,
              -9.5400507
            ],
            [
              -48.5849433,
              -9.5401019
            ],
            [
              -48.5848572,
              -9.5396413
            ],
            [
              -48.585139,
              -9.5395901
            ]
          ]
        ]
      }
    },
    {
      "type": "Feature",
      "id": "node/9562794926",
      "properties": {
        "timestamp": "2022-03-08T14:45:41Z",
        "version": 1,
        "changeset": 118239627,
        "addr:city": "Miranorte",
        "addr:housenumber": "129",
        "addr:postcode": "77660-000",
        "addr:street": "Avenida Princesa Isabel",
        "addr:suburb": "Centro",
        "amenity": "school",
        "name": "Educandario Evangelico De Miranorte",
        "phone": "+55 63 3355 1242",
        "id": "node/9562794926"
      },
      "geometry": {
        "type": "Point",
        "coordinates": [
          -48.5875981,
          -9.5218696
        ]
      }
    }
  ]
}
