{
  "type": "FeatureCollection",
  "features": [
    {
      "type": "Feature",
      "id": "way/1280886599",
      "properties": {
        "timestamp": "2024-05-08T14:01:07Z",
        "version": 1,
        "changeset": 151058015,
        "addr:city": "Italva",
        "addr:street": "Avenida Valcy Costa",
        "addr:suburb": "Cimento Paraíso",
        "amenity": "school",
        "name": "Colégio Estadual Severino Pereira Da Silva",
        "operator": "Secretaria de Educação do Estado do Rio de Janeiro",
        "operator:type": "public",
        "id": "way/1280886599"
      },
      "geometry": {
        "type": "Polygon",
        "coordinates": [
          [
            [
              -41.6951171,
              -21.3733012
            ],
            [
              -41.6948466,
              -21.3740866
            ],
            [
              -41.6941241,
              -21.3738679
            ],
            [
              -41.6943875,
              -21.373099
            ],
            [
              -41.6951171,
              -21.3733012
            ]
          ]
        ]
      }
    },
    {
      "type": "Feature",
      "id": "node/2394380399",
      "properties": {
        "timestamp": "2024-02-05T18:58:53Z",
        "version": 3,
        "changeset": 147105727,
        "addr:city": "Italva",
        "addr:postcode": "28250-000",
        "addr:street": "Avenida Antonio Ferreira da Fonseca",
        "addr:suburb": "São Caetano",
        "amenity": "school",
        "email": "ciep_italva@yahoo.com",
        "name": "Ciep 141 Vereador Said Tanus Jose",
        "operator": "Secretaria de Educação do Estado do Rio de Janeiro",
        "operator:type": "public",
        "phone": "+55 22 2783 4084",
        "id": "node/2394380399"
      },
      "geometry": {
        "type": "Point",
        "coordinates": [
          -41.6906974,
          -21.4325534
        ]
      }
    },
    {
      "type": "Feature",
      "id": "node/11579493932",
      "properties": {
        "timestamp": "2024-02-02T16:24:59Z",
        "version": 1,
        "changeset": 146992130,
        "amenity": "school",
        "id": "node/11579493932"
      },
      "geometry": {
        "type": "Point",
        "coordinates": [
          -41.5569018,
          -21.4339199
        ]
      }
    },
    {
      "type": "Feature",
      "id": "node/11587766356",
      "properties": {
        "timestamp": "2024-02-05T18:58:53Z",
        "version": 2,
        "changeset": 147105727,
        "addr:city": "Italva",
        "addr:housenumber": "158",
        "addr:postcode": "28250-000",
        "addr:street": "Avenida José Luiz Marinho",
        "addr:suburb": "Centro",
        "amenity": "school",
        "name": "Colégio Estadual João Guimarães",
        "operator": "Secretaria de Educação do Estado do Rio de Janeiro",
        "operator:type": "public",
        "phone": "+55 22 2783 2010",
        "id": "node/11587766356"
      },
      "geometry": {
        "type": "Point",
        "coordinates": [
          -41.6927505,
          -21.418612
        ]
      }
    },
    {
      "type": "Feature",
      "id": "node/11587887816",
      "properties": {
        "timestamp": "2024-02-05T18:58:53Z",
        "version": 1,
        "changeset": 147105727,
        "amenity": "school",
        "id": "node/11587887816"
      },
      "geometry": {
        "type": "Point",
        "coordinates": [
          -41.6605187,
          -21.3945242
        ]
      }
    },
    {
      "type": "Feature",
      "id": "node/11587887823",
      "properties": {
        "timestamp": "2024-02-05T18:58:53Z",
        "version": 1,
        "changeset": 147105727,
        "addr:city": "Italva",
        "addr:postcode": "28250-000",
        "addr:street": "Avenida Doze de Junho",
        "addr:suburb": "São Caetano",
        "amenity": "school",
        "email": "italvaapae@ig.com.br",
        "name": "Escola Especial Gabino Sales De Almeida",
        "operator": "Apae Italva",
        "operator:type": "private",
        "phone": "+55 22 2783 4079",
        "id": "node/11587887823"
      },
      "geometry": {
        "type": "Point",
        "coordinates": [
          -41.6858512,
          -21.4356547
        ]
      }
    },
    {
      "type": "Feature",
      "id": "node/11587887844",
      "properties": {
        "timestamp": "2024-02-05T18:58:53Z",
        "version": 1,
        "changeset": 147105727,
        "addr:city": "Italva",
        "addr:housenumber": "133",
        "addr:postcode": "28250-000",
        "addr:street": "Rua Olívia Faria",
        "addr:suburb": "Centro",
        "amenity": "school",
        "email": "cebitalva2009@hotmail.com",
        "name": "Centro Educacional Batista De Italva",
        "phone": "+55 22 2783 1778",
        "id": "node/11587887844"
      },
      "geometry": {
        "type": "Point",
        "coordinates": [
          -41.6927338,
          -21.4244102
        ]
      }
    },
    {
      "type": "Feature",
      "id": "node/11587887845",
      "properties": {
        "timestamp": "2024-02-05T18:58:53Z",
        "version": 1,
        "changeset": 147105727,
        "addr:city": "Italva",
        "addr:housenumber": "26",
        "addr:postcode": "28250-000",
        "addr:street": "Avenida Portela Salles",
        "addr:suburb": "Centro",
        "amenity": "school",
        "name": "Escola Municipal Glycerio Salles",
        "operator": "Município de Italva",
        "operator:type": "public",
        "id": "node/11587887845"
      },
      "geometry": {
        "type": "Point",
        "coordinates": [
          -41.6932529,
          -21.4242452
        ]
      }
    }
  ]
}
