{
  "type": "FeatureCollection",
  "features": [
    {
      "type": "Feature",
      "id": "node/5288100276",
      "properties": {
        "timestamp": "2018-04-23T03:06:51Z",
        "version": 3,
        "changeset": 58324950,
        "amenity": "school",
        "description": "escola estadual José Edson Moyses",
        "name": "E.E. José Edson Moyses",
        "id": "node/5288100276"
      },
      "geometry": {
        "type": "Point",
        "coordinates": [
          -51.3541839,
          -21.5671585
        ]
      }
    },
    {
      "type": "Feature",
      "id": "node/5288113600",
      "properties": {
        "timestamp": "2018-04-23T03:07:11Z",
        "version": 2,
        "changeset": 58324954,
        "addr:city": "irapuru",
        "addr:housenumber": "367",
        "addr:postcode": "17880000",
        "addr:street": "Rua Rio Branco",
        "addr:suburb": "centro",
        "amenity": "school",
        "name": "Escola Municipal Pedro Leite Ribeiro",
        "id": "node/5288113600"
      },
      "geometry": {
        "type": "Point",
        "coordinates": [
          -51.3528582,
          -21.5681854
        ]
      }
    }
  ]
}
