{
  "type": "FeatureCollection",
  "features": [
    {
      "type": "Feature",
      "id": "relation/8890428",
      "properties": {
        "timestamp": "2018-11-04T23:28:46Z",
        "version": 2,
        "changeset": 64181018,
        "amenity": "cinema",
        "indoor": "room",
        "level": "2",
        "name": "Cinema Severiano Ribeiro",
        "type": "multipolygon",
        "id": "relation/8890428"
      },
      "geometry": {
        "type": "Polygon",
        "coordinates": [
          [
            [
              -38.5653525,
              -3.7349519
            ],
            [
              -38.5653844,
              -3.7349574
            ],
            [
              -38.5655135,
              -3.7349818
            ],
            [
              -38.5655088,
              -3.7350297
            ],
            [
              -38.5657319,
              -3.7350696
            ],
            [
              -38.5657191,
              -3.7351399
            ],
            [
              -38.565773,
              -3.7351498
            ],
            [
              -38.5657528,
              -3.7352621
            ],
            [
              -38.5657431,
              -3.7352602
            ],
            [
              -38.5656025,
              -3.7352326
            ],
            [
              -38.5654822,
              -3.7352089
            ],
            [
              -38.5654063,
              -3.7355975
            ],
            [
              -38.5652318,
              -3.7355631
            ],
            [
              -38.5653011,
              -3.7352123
            ],
            [
              -38.5653185,
              -3.7351245
            ],
            [
              -38.5653525,
              -3.7349519
            ]
          ]
        ]
      }
    },
    {
      "type": "Feature",
      "id": "node/571724629",
      "properties": {
        "timestamp": "2024-05-28T21:33:16Z",
        "version": 7,
        "changeset": 151963970,
        "addr:city": "Fortaleza",
        "addr:housenumber": "85",
        "addr:postcode": "60811-900",
        "addr:street": "Avenida Washington Soares",
        "addr:suburb": "Edson Queiroz",
        "amenity": "cinema",
        "branch": "Iguatemi Fortaleza",
        "brand": "UCI",
        "brand:wikidata": "Q521922",
        "level": "3",
        "name": "UCI Kinoplex",
        "opening_hours": "Mo-Su 12:00-22:00",
        "payment:elo": "yes",
        "payment:hipercard": "yes",
        "payment:maestro": "yes",
        "payment:mastercard": "yes",
        "payment:visa": "yes",
        "payment:visa_electron": "yes",
        "screen": "12",
        "website": "https://www.ucicinemas.com.br/Cinemas/UCI-Kinoplex-Iguatemi-Fortaleza/info",
        "id": "node/571724629"
      },
      "geometry": {
        "type": "Point",
        "coordinates": [
          -38.4879566,
          -3.7570322
        ]
      }
    },
    {
      "type": "Feature",
      "id": "node/623200407",
      "properties": {
        "timestamp": "2017-03-19T16:05:43Z",
        "version": 4,
        "changeset": 46986442,
        "amenity": "cinema",
        "level": "2",
        "name": "Arcoíris",
        "wheelchair": "yes",
        "id": "node/623200407"
      },
      "geometry": {
        "type": "Point",
        "coordinates": [
          -38.4969059,
          -3.7362064
        ]
      }
    },
    {
      "type": "Feature",
      "id": "node/627226828",
      "properties": {
        "timestamp": "2020-04-17T09:23:01Z",
        "version": 4,
        "changeset": 83695824,
        "addr:city": "Fortaleza",
        "addr:country": "BR",
        "addr:housenumber": "81",
        "addr:postcode": "60060-195",
        "addr:street": "Rua Dragão do Mar",
        "addr:suburb": "Centro",
        "amenity": "cinema",
        "name": "Cinema do Dragão",
        "wheelchair": "yes",
        "id": "node/627226828"
      },
      "geometry": {
        "type": "Point",
        "coordinates": [
          -38.5205058,
          -3.7214503
        ]
      }
    },
    {
      "type": "Feature",
      "id": "node/5150109497",
      "properties": {
        "timestamp": "2018-11-20T17:17:14Z",
        "version": 2,
        "changeset": 64707347,
        "amenity": "cinema",
        "level": "2",
        "name": "Cinemas Benfica",
        "id": "node/5150109497"
      },
      "geometry": {
        "type": "Point",
        "coordinates": [
          -38.5399343,
          -3.7388037
        ]
      }
    },
    {
      "type": "Feature",
      "id": "node/6579949939",
      "properties": {
        "timestamp": "2023-10-10T17:17:36Z",
        "version": 2,
        "changeset": 142403536,
        "addr:city": "Fortaleza",
        "addr:housenumber": "419",
        "addr:postcode": "60520-101",
        "addr:street": "Avenida Lineu Machado",
        "addr:suburb": "Jóquei Clube",
        "amenity": "cinema",
        "branch": "North Shopping Jóquei",
        "brand": "Cinepolis",
        "brand:wikidata": "Q5686673",
        "name": "Cinépolis",
        "screen": "5",
        "website": "https://www.northshoppingjoquei.com.br/cinema",
        "id": "node/6579949939"
      },
      "geometry": {
        "type": "Point",
        "coordinates": [
          -38.5744683,
          -3.7647379
        ]
      }
    },
    {
      "type": "Feature",
      "id": "node/7313731406",
      "properties": {
        "timestamp": "2020-03-20T20:18:50Z",
        "version": 1,
        "changeset": 82446138,
        "addr:city": "Fortaleza",
        "addr:housenumber": "500",
        "addr:postcode": "60025-100",
        "addr:street": "Rua Major Facundo",
        "addr:suburb": "Centro",
        "amenity": "cinema",
        "name": "Cineteatro São Luiz",
        "opening_hours": "Tu-Sa 10:00-18:30",
        "phone": "+55 85 3252 4138",
        "screen": "1",
        "website": "https://cineteatrosaoluiz.com.br/",
        "wheelchair": "yes",
        "id": "node/7313731406"
      },
      "geometry": {
        "type": "Point",
        "coordinates": [
          -38.5278686,
          -3.7274515
        ]
      }
    }
  ]
}
