{
  "type": "FeatureCollection",
  "features": [
    {
      "type": "Feature",
      "id": "relation/7795376",
      "properties": {
        "timestamp": "2022-08-05T00:07:58Z",
        "version": 6,
        "changeset": 124500672,
        "amenity": "doctors",
        "building:part": "yes",
        "healthcare": "doctor",
        "indoor": "room",
        "level": "0",
        "name": "Consultório Médico",
        "type": "multipolygon",
        "id": "relation/7795376"
      },
      "geometry": {
        "type": "Polygon",
        "coordinates": [
          [
            [
              -38.5729006,
              -3.7533164
            ],
            [
              -38.5729624,
              -3.7533581
            ],
            [
              -38.5729036,
              -3.7534419
            ],
            [
              -38.5728445,
              -3.7534006
            ],
            [
              -38.5729006,
              -3.7533164
            ]
          ]
        ]
      }
    },
    {
      "type": "Feature",
      "id": "way/442080872",
      "properties": {
        "timestamp": "2023-02-09T00:56:16Z",
        "version": 3,
        "changeset": 132283055,
        "addr:city": "Fortaleza",
        "addr:housenumber": "2000",
        "addr:street": "Rua Padre Valdevino",
        "addr:suburb": "Dionísio Torres",
        "amenity": "doctors",
        "building": "yes",
        "building:levels": "1",
        "healthcare": "doctor",
        "height": "4.3",
        "name": "Clínica Roriz Neto",
        "phone": "+55 85 3261-2100",
        "pmfsefin:idedif": "477397",
        "source": "survey",
        "id": "way/442080872"
      },
      "geometry": {
        "type": "Polygon",
        "coordinates": [
          [
            [
              -38.5066534,
              -3.7424644
            ],
            [
              -38.5066416,
              -3.7424267
            ],
            [
              -38.5067209,
              -3.7424012
            ],
            [
              -38.5067438,
              -3.742469
            ],
            [
              -38.5067661,
              -3.7424619
            ],
            [
              -38.5068057,
              -3.7425851
            ],
            [
              -38.5067664,
              -3.7425975
            ],
            [
              -38.5067016,
              -3.7426178
            ],
            [
              -38.5066852,
              -3.7425654
            ],
            [
              -38.5066966,
              -3.7425617
            ],
            [
              -38.5066758,
              -3.7424971
            ],
            [
              -38.5066649,
              -3.7425006
            ],
            [
              -38.5066534,
              -3.7424644
            ]
          ]
        ]
      }
    },
    {
      "type": "Feature",
      "id": "way/512347968",
      "properties": {
        "timestamp": "2023-02-09T00:56:16Z",
        "version": 4,
        "changeset": 132283055,
        "addr:city": "Fortaleza",
        "addr:housenumber": "2865",
        "addr:street": "Rua José Vilar",
        "addr:suburb": "Dionísio Torres",
        "amenity": "doctors",
        "building": "commercial",
        "building:levels": "1",
        "healthcare": "doctor",
        "height": "4.4",
        "pmfsefin:idedif": "479080",
        "roof:colour": "#C17855",
        "roof:material": "roof_tiles",
        "roof:orientation": "along",
        "roof:shape": "gabled",
        "id": "way/512347968"
      },
      "geometry": {
        "type": "Polygon",
        "coordinates": [
          [
            [
              -38.5082997,
              -3.7477239
            ],
            [
              -38.5083294,
              -3.7477145
            ],
            [
              -38.5083747,
              -3.7476999
            ],
            [
              -38.5083812,
              -3.7477216
            ],
            [
              -38.5084285,
              -3.7477068
            ],
            [
              -38.5084311,
              -3.7477147
            ],
            [
              -38.5084353,
              -3.7477274
            ],
            [
              -38.5084512,
              -3.7477767
            ],
            [
              -38.5082558,
              -3.7478394
            ],
            [
              -38.5082539,
              -3.7478337
            ],
            [
              -38.5082496,
              -3.7478351
            ],
            [
              -38.5082252,
              -3.7477576
            ],
            [
              -38.5083024,
              -3.7477322
            ],
            [
              -38.5082997,
              -3.7477239
            ]
          ]
        ]
      }
    },
    {
      "type": "Feature",
      "id": "way/554128828",
      "properties": {
        "timestamp": "2023-05-04T18:19:46Z",
        "version": 2,
        "changeset": 135712077,
        "amenity": "doctors",
        "building": "yes",
        "building:levels": "3",
        "healthcare": "doctor",
        "height": "9.3",
        "pmfsefin:idedif": "832712",
        "id": "way/554128828"
      },
      "geometry": {
        "type": "Polygon",
        "coordinates": [
          [
            [
              -38.5612265,
              -3.7687931
            ],
            [
              -38.5608828,
              -3.7686504
            ],
            [
              -38.5609395,
              -3.7685127
            ],
            [
              -38.5612924,
              -3.7686593
            ],
            [
              -38.5612357,
              -3.768797
            ],
            [
              -38.5612265,
              -3.7687931
            ]
          ]
        ]
      }
    },
    {
      "type": "Feature",
      "id": "way/736867296",
      "properties": {
        "timestamp": "2023-11-05T13:54:32Z",
        "version": 2,
        "changeset": 143651078,
        "addr:city": "Fortaleza",
        "addr:housenumber": "938",
        "addr:postcode": "60115-281",
        "addr:street": "Rua Doutor José Lourenço",
        "addr:suburb": "Aldeota",
        "amenity": "doctors",
        "healthcare": "doctor",
        "healthcare:speciality": "cardiology",
        "name": "Cardioclínica de Fortaleza",
        "opening_hours": "Mo-Fr 08:00-21:00; Sa 08:00-12:00",
        "phone": "+55 85 3261 5806",
        "id": "way/736867296"
      },
      "geometry": {
        "type": "Polygon",
        "coordinates": [
          [
            [
              -38.5076121,
              -3.7322382
            ],
            [
              -38.50767,
              -3.7324114
            ],
            [
              -38.5075218,
              -3.7324583
            ],
            [
              -38.5074877,
              -3.7324689
            ],
            [
              -38.5074776,
              -3.7324721
            ],
            [
              -38.5073118,
              -3.7325245
            ],
            [
              -38.5071982,
              -3.7325623
            ],
            [
              -38.5071443,
              -3.7323918
            ],
            [
              -38.5076121,
              -3.7322382
            ]
          ]
        ]
      }
    },
    {
      "type": "Feature",
      "id": "way/545724448",
      "properties": {
        "timestamp": "2018-12-01T17:43:49Z",
        "version": 2,
        "changeset": 65078254,
        "addr:city": "Fortaleza",
        "addr:country": "BR",
        "addr:place": "Campus do Pici Professor Prisco Bezerra",
        "addr:state": "Ceará",
        "addr:suburb": "Campus do Pici",
        "id": "way/545724448"
      },
      "geometry": {
        "type": "LineString",
        "coordinates": [
          [
            -38.5728445,
            -3.7534006
          ],
          [
            -38.5729036,
            -3.7534419
          ],
          [
            -38.5729624,
            -3.7533581
          ]
        ]
      }
    },
    {
      "type": "Feature",
      "id": "node/4193428868",
      "properties": {
        "timestamp": "2022-07-20T23:50:15Z",
        "version": 3,
        "changeset": 123869777,
        "addr:city": "Fortaleza",
        "addr:housenumber": "1430 A",
        "addr:postcode": "60125-035",
        "addr:street": "Rua Nunes Valente",
        "addr:suburb": "Aldeota",
        "amenity": "doctors",
        "healthcare": "doctor",
        "healthcare:speciality": "physiotherapy",
        "name": "Somnis",
        "phone": "+55 85 3109-5022",
        "id": "node/4193428868"
      },
      "geometry": {
        "type": "Point",
        "coordinates": [
          -38.5040687,
          -3.7370801
        ]
      }
    },
    {
      "type": "Feature",
      "id": "node/5108564466",
      "properties": {
        "timestamp": "2020-09-29T20:48:33Z",
        "version": 2,
        "changeset": 91729253,
        "addr:city": "Fortaleza",
        "addr:housenumber": "1419",
        "addr:street": "Avenida 13 de Maio",
        "addr:suburb": "Fátima",
        "amenity": "doctors",
        "healthcare": "doctor",
        "healthcare:speciality": "diagnostic_radiology;radiology",
        "name": "Sonimagem",
        "opening_hours": "08:00-18:00",
        "id": "node/5108564466"
      },
      "geometry": {
        "type": "Point",
        "coordinates": [
          -38.531298,
          -3.7478035
        ]
      }
    },
    {
      "type": "Feature",
      "id": "node/5590734365",
      "properties": {
        "timestamp": "2018-05-01T17:17:21Z",
        "version": 1,
        "changeset": 58590446,
        "addr:city": "Fortaleza",
        "addr:housenumber": "255",
        "addr:postcode": "60135-270",
        "addr:street": "Rua Vicente Linhares",
        "addr:suburb": "Aldeota",
        "amenity": "doctors",
        "healthcare": "doctor",
        "healthcare:speciality": "gastroenterology",
        "name": "Gastrocentro",
        "opening_hours": "Mo-Fr 06:15-19:30",
        "phone": "+55 85 3224 2255",
        "website": "http://www.gastrocentro-ce.com.br",
        "id": "node/5590734365"
      },
      "geometry": {
        "type": "Point",
        "coordinates": [
          -38.5020097,
          -3.7414107
        ]
      }
    },
    {
      "type": "Feature",
      "id": "node/5590734366",
      "properties": {
        "timestamp": "2023-04-13T20:45:22Z",
        "version": 4,
        "changeset": 134878583,
        "addr:city": "Fortaleza",
        "addr:housenumber": "647",
        "addr:postcode": "60160-140",
        "addr:street": "Rua República do Líbano",
        "addr:suburb": "Meireles",
        "amenity": "doctors",
        "check_date": "2023-04-13",
        "healthcare": "doctor",
        "healthcare:speciality": "endocrinology;diabetology",
        "name": "Climed",
        "opening_hours": "Mo-Fr 08:00-18:00",
        "phone": "+55 85 3242 4356",
        "id": "node/5590734366"
      },
      "geometry": {
        "type": "Point",
        "coordinates": [
          -38.4941362,
          -3.7320473
        ]
      }
    },
    {
      "type": "Feature",
      "id": "node/6085500585",
      "properties": {
        "timestamp": "2023-01-05T20:25:21Z",
        "version": 2,
        "changeset": 130922935,
        "amenity": "doctors",
        "healthcare": "doctor",
        "name": "CELAF",
        "id": "node/6085500585"
      },
      "geometry": {
        "type": "Point",
        "coordinates": [
          -38.512963,
          -3.8099745
        ]
      }
    },
    {
      "type": "Feature",
      "id": "node/6839487891",
      "properties": {
        "timestamp": "2019-10-01T22:30:00Z",
        "version": 2,
        "changeset": 75173032,
        "amenity": "doctors",
        "healthcare": "doctor",
        "id": "node/6839487891"
      },
      "geometry": {
        "type": "Point",
        "coordinates": [
          -38.5946511,
          -3.7927569
        ]
      }
    },
    {
      "type": "Feature",
      "id": "node/6841989160",
      "properties": {
        "timestamp": "2019-10-01T22:34:31Z",
        "version": 1,
        "changeset": 75173096,
        "amenity": "doctors",
        "healthcare": "doctor",
        "name": "Consultório Odontológico Benjamin",
        "id": "node/6841989160"
      },
      "geometry": {
        "type": "Point",
        "coordinates": [
          -38.6005043,
          -3.7931038
        ]
      }
    },
    {
      "type": "Feature",
      "id": "node/6841990603",
      "properties": {
        "timestamp": "2019-10-01T22:28:25Z",
        "version": 1,
        "changeset": 75172999,
        "amenity": "doctors",
        "healthcare": "doctor",
        "id": "node/6841990603"
      },
      "geometry": {
        "type": "Point",
        "coordinates": [
          -38.5939657,
          -3.7927313
        ]
      }
    },
    {
      "type": "Feature",
      "id": "node/6846081065",
      "properties": {
        "timestamp": "2019-10-03T03:36:31Z",
        "version": 1,
        "changeset": 75208694,
        "amenity": "doctors",
        "healthcare": "doctor",
        "id": "node/6846081065"
      },
      "geometry": {
        "type": "Point",
        "coordinates": [
          -38.5954773,
          -3.7948821
        ]
      }
    },
    {
      "type": "Feature",
      "id": "node/7073699959",
      "properties": {
        "timestamp": "2019-12-20T22:15:12Z",
        "version": 1,
        "changeset": 78700665,
        "addr:city": "Fortaleza",
        "addr:housenumber": "1271",
        "addr:postcode": "60720-015",
        "addr:street": "Avenida General Osório de Paiva",
        "addr:suburb": "Parangaba",
        "amenity": "doctors",
        "healthcare": "doctor",
        "healthcare:speciality": "nefrology",
        "name": "Clínica do Rim",
        "id": "node/7073699959"
      },
      "geometry": {
        "type": "Point",
        "coordinates": [
          -38.5725798,
          -3.7798865
        ]
      }
    },
    {
      "type": "Feature",
      "id": "node/8196322990",
      "properties": {
        "timestamp": "2020-12-05T13:13:52Z",
        "version": 1,
        "changeset": 95333573,
        "amenity": "doctors",
        "healthcare": "doctor",
        "name": "Clínica SIM Messejana",
        "id": "node/8196322990"
      },
      "geometry": {
        "type": "Point",
        "coordinates": [
          -38.4914102,
          -3.8321909
        ]
      }
    },
    {
      "type": "Feature",
      "id": "node/8328713027",
      "properties": {
        "timestamp": "2021-01-18T13:25:46Z",
        "version": 2,
        "changeset": 97702171,
        "amenity": "doctors",
        "healthcare": "doctor",
        "name": "Espaço Mais Saúde",
        "note": "Consultórios Integrados: Fisioterapia, Nutrição e Psicoterapia.",
        "id": "node/8328713027"
      },
      "geometry": {
        "type": "Point",
        "coordinates": [
          -38.5071977,
          -3.8505994
        ]
      }
    },
    {
      "type": "Feature",
      "id": "node/9325851039",
      "properties": {
        "timestamp": "2021-12-10T21:27:59Z",
        "version": 2,
        "changeset": 114799603,
        "amenity": "doctors",
        "healthcare": "doctor",
        "name": "Nutricionista Marina Fortes",
        "id": "node/9325851039"
      },
      "geometry": {
        "type": "Point",
        "coordinates": [
          -38.5899098,
          -3.7588127
        ]
      }
    },
    {
      "type": "Feature",
      "id": "node/9758331289",
      "properties": {
        "timestamp": "2023-03-31T19:52:28Z",
        "version": 2,
        "changeset": 134360125,
        "addr:city": "Fortaleza",
        "addr:housenumber": "2394",
        "addr:postcode": "60040-531",
        "addr:street": "Avenida 13 de Maio",
        "addr:suburb": "Benfica",
        "amenity": "doctors",
        "description": "A Clínica de Olhos Dr. Aldemir Carneiro, fundada há mais de 20 anos, preza pelo compromisso de prestar os melhores serviços nas áreas de oftalmologia e odontologia aos seus pacientes. Oferecemos consultas, exames especializados, adaptação de lentes etc.",
        "email": "clinicaaldemircarneiro@gmail.com",
        "healthcare": "doctor",
        "healthcare:speciality": "ophthalmology;dentist;dentistry",
        "level": "0",
        "name": "Clinica Dr. Aldemir Carneiro",
        "opening_hours": "seg à sex: 07:00 às 18:00 e sab: 08:00 às 12:00",
        "operator": "Clinica Dr. Aldemir Carneiro",
        "payment:cash": "yes",
        "payment:credit_cards": "yes",
        "payment:debit_cards": "yes",
        "phone": "+55 85 3281-3393",
        "start_date": "04/12/2003",
        "website": "https://www.clinicaaldemircarneiro.com.br/",
        "wheelchair": "yes",
        "id": "node/9758331289"
      },
      "geometry": {
        "type": "Point",
        "coordinates": [
          -38.5376211,
          -3.7419442
        ]
      }
    },
    {
      "type": "Feature",
      "id": "node/10148407880",
      "properties": {
        "timestamp": "2024-08-16T11:49:00Z",
        "version": 2,
        "changeset": 155324025,
        "addr:city": "Fortaleza",
        "addr:housenumber": "1298",
        "addr:postcode": "60125-048",
        "addr:street": "Rua Osvaldo Cruz",
        "addr:suburb": "Aldeota",
        "amenity": "doctors",
        "healthcare": "doctor",
        "healthcare:speciality": "dermatology",
        "name": "Gioia Estética e Saúde",
        "opening_hours": "Mo-Fr 09:00-19:00; Sa 09:00-13:00",
        "phone": "+55 85 99649 5108",
        "website": "https://gioiaesteticaesaude.com",
        "id": "node/10148407880"
      },
      "geometry": {
        "type": "Point",
        "coordinates": [
          -38.5009038,
          -3.7370171
        ]
      }
    },
    {
      "type": "Feature",
      "id": "node/10148408167",
      "properties": {
        "timestamp": "2022-11-12T17:47:24Z",
        "version": 2,
        "changeset": 128822234,
        "addr:city": "Fortaleza",
        "addr:housenumber": "701",
        "addr:postcode": "60150-170",
        "addr:street": "Rua Maria Tomásia",
        "addr:suburb": "Aldeota",
        "amenity": "doctors",
        "healthcare": "doctor",
        "name": "Sociedade Cearense de Pediatria",
        "id": "node/10148408167"
      },
      "geometry": {
        "type": "Point",
        "coordinates": [
          -38.4957006,
          -3.7357701
        ]
      }
    },
    {
      "type": "Feature",
      "id": "node/10647349541",
      "properties": {
        "timestamp": "2023-02-10T21:59:54Z",
        "version": 1,
        "changeset": 132383416,
        "addr:city": "Fortaleza",
        "addr:housenumber": "2511A",
        "addr:street": "Avenida Barão de Studart",
        "addr:suburb": "Dionísio Torres",
        "amenity": "doctors",
        "description": "Consultório de um médico e de uma nutricionista.",
        "healthcare": "doctor",
        "name": "Atual Estética",
        "pmfsefin:idedif": "491036",
        "id": "node/10647349541"
      },
      "geometry": {
        "type": "Point",
        "coordinates": [
          -38.5099342,
          -3.7456723
        ]
      }
    },
    {
      "type": "Feature",
      "id": "node/10650636225",
      "properties": {
        "timestamp": "2023-02-11T23:51:25Z",
        "version": 1,
        "changeset": 132427105,
        "addr:city": "Fortaleza",
        "addr:housenumber": "1870",
        "addr:street": "Rua Padre Valdevino",
        "addr:suburb": "Dionísio Torres",
        "amenity": "doctors",
        "healthcare": "doctor",
        "name": "Consultório Roriz Neto",
        "id": "node/10650636225"
      },
      "geometry": {
        "type": "Point",
        "coordinates": [
          -38.5076539,
          -3.7421835
        ]
      }
    },
    {
      "type": "Feature",
      "id": "node/10802143636",
      "properties": {
        "timestamp": "2024-03-06T14:15:05Z",
        "version": 4,
        "changeset": 148297407,
        "addr:city": "Fortaleza",
        "addr:housenumber": "150",
        "addr:postcode": "60170-265",
        "addr:street": "Avenida Senador Virgílio Távora",
        "addr:suburb": "Meireles",
        "amenity": "doctors",
        "check_date": "2023-10-12",
        "healthcare": "doctor",
        "healthcare:speciality": "plastic_surgery",
        "level": "7",
        "name": "Davi Pontes Transplante Capilar",
        "opening_hours": "Mo-Th 08:00-16:00; Fr 08:00-15:00",
        "website": "https://drdavipontes.com.br/",
        "id": "node/10802143636"
      },
      "geometry": {
        "type": "Point",
        "coordinates": [
          -38.4912879,
          -3.7303569
        ]
      }
    },
    {
      "type": "Feature",
      "id": "node/11294197869",
      "properties": {
        "timestamp": "2023-10-27T21:13:44Z",
        "version": 1,
        "changeset": 143230606,
        "addr:city": "Fortaleza",
        "addr:housenumber": "168",
        "addr:postcode": "60160-070",
        "addr:street": "Rua Antonele Bezerra",
        "addr:suburb": "Meireles",
        "amenity": "doctors",
        "healthcare": "doctor",
        "name": "Centro de Saúde Meireles",
        "opening_hours": "Mo-Fr 08:00-20:00",
        "phone": "+55 85 98847 0076",
        "website": "https://centrosaudemeireles.com/",
        "id": "node/11294197869"
      },
      "geometry": {
        "type": "Point",
        "coordinates": [
          -38.5065746,
          -3.7252749
        ]
      }
    },
    {
      "type": "Feature",
      "id": "node/11573346031",
      "properties": {
        "timestamp": "2024-01-31T14:58:02Z",
        "version": 1,
        "changeset": 146908694,
        "addr:city": "Fortaleza",
        "addr:housenumber": "1695",
        "addr:postcode": "60711-442",
        "addr:street": "Avenida Benjamim Brasil",
        "addr:suburb": "Mondubim",
        "amenity": "doctors",
        "healthcare": "doctor",
        "name": "Your Aesthetic - Estética e Saúde",
        "opening_hours": "Mo-Sa 08:00-18:00",
        "id": "node/11573346031"
      },
      "geometry": {
        "type": "Point",
        "coordinates": [
          -38.5577564,
          -3.8082358
        ]
      }
    },
    {
      "type": "Feature",
      "id": "node/11682190286",
      "properties": {
        "timestamp": "2024-03-01T17:29:44Z",
        "version": 1,
        "changeset": 148105417,
        "addr:city": "Fortaleza",
        "addr:housenumber": "62",
        "addr:postcode": "60160-100",
        "addr:street": "Rua Doutor Castro Medeiros",
        "addr:suburb": "Meireles",
        "amenity": "doctors",
        "healthcare": "doctor",
        "healthcare:speciality": "nephrology",
        "name": "Instituto do Rim",
        "opening_hours": "Mo-Sa 06:30-20:00",
        "phone": "+55 85 3466 6200",
        "id": "node/11682190286"
      },
      "geometry": {
        "type": "Point",
        "coordinates": [
          -38.506439,
          -3.7282744
        ]
      }
    },
    {
      "type": "Feature",
      "id": "node/11685243343",
      "properties": {
        "timestamp": "2024-03-02T18:52:43Z",
        "version": 1,
        "changeset": 148143059,
        "addr:city": "Fortaleza",
        "addr:housenumber": "761",
        "addr:postcode": "60110-370",
        "addr:street": "Rua Antônio Augusto",
        "addr:suburb": "Meireles",
        "amenity": "doctors",
        "contact:instagram": "vemcaviver",
        "healthcare": "doctor",
        "healthcare:speciality": "ophthalmology",
        "name": "Instituto CAVIVER",
        "opening_hours": "Mo-Fr 07:30-17:00",
        "phone": "+55 85 3099 2187",
        "website": "https://caviver.org.br",
        "id": "node/11685243343"
      },
      "geometry": {
        "type": "Point",
        "coordinates": [
          -38.5123191,
          -3.7271213
        ]
      }
    },
    {
      "type": "Feature",
      "id": "node/11783300980",
      "properties": {
        "timestamp": "2024-04-03T14:42:40Z",
        "version": 1,
        "changeset": 149529027,
        "addr:city": "Fortaleza",
        "addr:housenumber": "2545",
        "addr:postcode": "60125-151",
        "addr:street": "Rua Osvaldo Cruz",
        "addr:suburb": "Dionísio Torres",
        "amenity": "doctors",
        "healthcare": "doctor",
        "healthcare:speciality": "cardiology;physiotherapy;depth;gastroenterology;endocrinology",
        "name": "Instituto do Coração Fortaleza",
        "opening_hours": "Mo-Fr 08:00-18:00",
        "phone": "+55 85 98188 9234",
        "short_name": "InCORF",
        "website": "https://institutocoracaofortaleza.com.br/",
        "id": "node/11783300980"
      },
      "geometry": {
        "type": "Point",
        "coordinates": [
          -38.5041819,
          -3.7480018
        ]
      }
    },
    {
      "type": "Feature",
      "id": "node/11810458303",
      "properties": {
        "timestamp": "2024-04-11T22:22:24Z",
        "version": 1,
        "changeset": 149884256,
        "addr:city": "Fortaleza",
        "addr:housenumber": "609",
        "addr:postcode": "60115-190",
        "addr:street": "Rua Monsenhor Bruno",
        "addr:suburb": "Meireles",
        "amenity": "doctors",
        "healthcare": "doctor",
        "healthcare:speciality": "orthopaedics",
        "name": "Clínica Helládio de Vasconcellos",
        "id": "node/11810458303"
      },
      "geometry": {
        "type": "Point",
        "coordinates": [
          -38.5078282,
          -3.7278649
        ]
      }
    }
  ]
}
