{
  "type": "FeatureCollection",
  "features": [
    {
      "type": "Feature",
      "id": "way/731743952",
      "properties": {
        "timestamp": "2024-01-18T17:46:50Z",
        "version": 9,
        "changeset": 146414999,
        "access": "yes",
        "addr:city": "Fortaleza",
        "addr:housenumber": "60",
        "addr:postcode": "60020-000",
        "addr:street": "Rua 24 de Maio",
        "addr:suburb": "Centro",
        "building": "yes",
        "building:levels": "3",
        "check_date": "2024-01-18",
        "contact:instagram": "pinacotecadoceara",
        "fee": "no",
        "height": "8.8",
        "name": "Pinacoteca do Ceará",
        "name:de": "Pinakothek von Ceará",
        "name:en": "Ceará Pinacotheca",
        "name:es": "Pinacoteca de Ceará",
        "name:fr": "Pinacothèque du Ceará",
        "name:it": "Pinacoteca del Ceará",
        "name:nl": "Pinacotheek Ceará",
        "opening_hours": "Th-Sa 12:00-20:00; Su 10:00-18:00",
        "operator": "Instituto Mirante de Cultura e Arte",
        "operator:type": "ngo",
        "tourism": "gallery",
        "website": "https://pinacotecadoceara.org.br/",
        "wheelchair": "yes",
        "id": "way/731743952"
      },
      "geometry": {
        "type": "Polygon",
        "coordinates": [
          [
            [
              -38.5306163,
              -3.7224643
            ],
            [
              -38.5303949,
              -3.7217951
            ],
            [
              -38.5303639,
              -3.7216913
            ],
            [
              -38.5310113,
              -3.7214795
            ],
            [
              -38.5310445,
              -3.7215814
            ],
            [
              -38.5310804,
              -3.7216996
            ],
            [
              -38.53109,
              -3.7217286
            ],
            [
              -38.5309865,
              -3.7217629
            ],
            [
              -38.5309788,
              -3.7217328
            ],
            [
              -38.5305868,
              -3.7218611
            ],
            [
              -38.5306216,
              -3.7219683
            ],
            [
              -38.5311203,
              -3.7218051
            ],
            [
              -38.5312291,
              -3.7221395
            ],
            [
              -38.5312649,
              -3.7222474
            ],
            [
              -38.5306163,
              -3.7224643
            ]
          ]
        ]
      }
    },
    {
      "type": "Feature",
      "id": "way/1169920745",
      "properties": {
        "timestamp": "2023-06-27T20:04:56Z",
        "version": 2,
        "changeset": 137851118,
        "addr:city": "Fortaleza",
        "addr:housenumber": "1221",
        "addr:postcode": "60020-001",
        "addr:street": "Rua 24 de Maio",
        "addr:suburb": "Centro",
        "building": "yes",
        "building:levels": "4",
        "height": "11.1",
        "name": "Vila das Artes",
        "tourism": "gallery",
        "id": "way/1169920745"
      },
      "geometry": {
        "type": "Polygon",
        "coordinates": [
          [
            [
              -38.53363,
              -3.732538
            ],
            [
              -38.5336475,
              -3.7325865
            ],
            [
              -38.5335856,
              -3.7326097
            ],
            [
              -38.5335043,
              -3.7326371
            ],
            [
              -38.5334958,
              -3.7326109
            ],
            [
              -38.533458,
              -3.7326233
            ],
            [
              -38.5334241,
              -3.7325193
            ],
            [
              -38.5334152,
              -3.7324918
            ],
            [
              -38.5333619,
              -3.7325093
            ],
            [
              -38.5333384,
              -3.732437
            ],
            [
              -38.5334308,
              -3.7324067
            ],
            [
              -38.5335107,
              -3.7323805
            ],
            [
              -38.53359,
              -3.7323544
            ],
            [
              -38.5336121,
              -3.7324195
            ],
            [
              -38.53369,
              -3.7323939
            ],
            [
              -38.5337249,
              -3.7325013
            ],
            [
              -38.5337308,
              -3.7324993
            ],
            [
              -38.5337579,
              -3.7325826
            ],
            [
              -38.5336795,
              -3.7326084
            ],
            [
              -38.5336546,
              -3.7325317
            ],
            [
              -38.533645,
              -3.7325349
            ],
            [
              -38.5336106,
              -3.7324294
            ],
            [
              -38.533572,
              -3.7324427
            ],
            [
              -38.5335778,
              -3.7324607
            ],
            [
              -38.5335806,
              -3.7324595
            ],
            [
              -38.5336086,
              -3.7325457
            ],
            [
              -38.5336268,
              -3.7325391
            ],
            [
              -38.53363,
              -3.732538
            ]
          ]
        ]
      }
    },
    {
      "type": "Feature",
      "id": "node/7313158548",
      "properties": {
        "timestamp": "2020-03-20T18:28:05Z",
        "version": 1,
        "changeset": 82443388,
        "addr:city": "Fortaleza",
        "addr:street": "Rua Via Ferrea",
        "addr:suburb": "Mondubim",
        "name": "Minimuseu Firmeza",
        "tourism": "gallery",
        "id": "node/7313158548"
      },
      "geometry": {
        "type": "Point",
        "coordinates": [
          -38.5793659,
          -3.8097719
        ]
      }
    },
    {
      "type": "Feature",
      "id": "node/10148407038",
      "properties": {
        "timestamp": "2023-04-12T17:41:17Z",
        "version": 3,
        "changeset": 134829306,
        "addr:city": "Fortaleza",
        "addr:housenumber": "1022",
        "addr:postcode": "60170-151",
        "addr:street": "Rua Vicente Leite",
        "addr:suburb": "Aldeota",
        "fee": "no",
        "name": "Galeria de Arte Danielle Araújo",
        "opening_hours": "Mo-Sa 08:00-18:00",
        "tourism": "gallery",
        "id": "node/10148407038"
      },
      "geometry": {
        "type": "Point",
        "coordinates": [
          -38.4950868,
          -3.7356458
        ]
      }
    },
    {
      "type": "Feature",
      "id": "node/10148408323",
      "properties": {
        "timestamp": "2022-11-12T17:28:20Z",
        "version": 2,
        "changeset": 128821688,
        "addr:city": "Fortaleza",
        "addr:housenumber": "1512",
        "addr:postcode": "60170-041",
        "addr:street": "Rua Leonardo Mota",
        "addr:suburb": "Aldeota",
        "name": "Urban Arts",
        "tourism": "gallery",
        "id": "node/10148408323"
      },
      "geometry": {
        "type": "Point",
        "coordinates": [
          -38.4974185,
          -3.7393167
        ]
      }
    }
  ]
}
