{
  "type": "FeatureCollection",
  "features": [
    {
      "type": "Feature",
      "id": "way/658909907",
      "properties": {
        "timestamp": "2024-05-30T15:20:26Z",
        "version": 4,
        "changeset": 152041251,
        "addr:city": "Fortaleza",
        "addr:housenumber": "2",
        "addr:postcode": "60060-320",
        "addr:street": "Rua dos Arariús",
        "addr:suburb": "Praia de Iracema",
        "building": "hotel",
        "building:levels": "4",
        "height": "12.7",
        "internet_access": "wlan",
        "internet_access:fee": "no",
        "name": "Pousada Fortal Villa Praia",
        "phone": "+55 85 3013 0387",
        "rooms": "10",
        "tourism": "guest_house",
        "id": "way/658909907"
      },
      "geometry": {
        "type": "Polygon",
        "coordinates": [
          [
            [
              -38.5135168,
              -3.7198118
            ],
            [
              -38.5134393,
              -3.7198269
            ],
            [
              -38.5134199,
              -3.7197252
            ],
            [
              -38.5134489,
              -3.7197175
            ],
            [
              -38.5134415,
              -3.7196795
            ],
            [
              -38.5134122,
              -3.7196853
            ],
            [
              -38.5133995,
              -3.7196186
            ],
            [
              -38.5134011,
              -3.719608
            ],
            [
              -38.5134099,
              -3.7196016
            ],
            [
              -38.5134718,
              -3.7195916
            ],
            [
              -38.5134724,
              -3.7195964
            ],
            [
              -38.5134813,
              -3.7195943
            ],
            [
              -38.5134953,
              -3.7196661
            ],
            [
              -38.5134915,
              -3.7196671
            ],
            [
              -38.5134809,
              -3.7196063
            ],
            [
              -38.513477,
              -3.7196069
            ],
            [
              -38.513497,
              -3.7197096
            ],
            [
              -38.5135168,
              -3.7198118
            ]
          ]
        ]
      }
    },
    {
      "type": "Feature",
      "id": "way/700337404",
      "properties": {
        "timestamp": "2023-10-27T20:06:35Z",
        "version": 2,
        "changeset": 143228037,
        "addr:city": "Fortaleza",
        "addr:housenumber": "735",
        "addr:postcode": "60115-170",
        "addr:street": "Rua Carlos Vasconcelos",
        "addr:suburb": "Meireles",
        "breakfast": "free",
        "email": "pousadamalu@hotmail.com",
        "guest_house": "bed_and_breakfast",
        "internet_access": "wlan",
        "internet_access:fee": "no",
        "name": "Pousada Malu",
        "phone": "+55 85 3244 2151",
        "tourism": "guest_house",
        "website": "https://www.pousadamalu.com.br/",
        "id": "way/700337404"
      },
      "geometry": {
        "type": "Polygon",
        "coordinates": [
          [
            [
              -38.5087721,
              -3.7285612
            ],
            [
              -38.5089448,
              -3.7285084
            ],
            [
              -38.5090315,
              -3.7284804
            ],
            [
              -38.509204,
              -3.7284248
            ],
            [
              -38.5092454,
              -3.7284115
            ],
            [
              -38.5092767,
              -3.7285097
            ],
            [
              -38.5092337,
              -3.7285225
            ],
            [
              -38.5090616,
              -3.7285765
            ],
            [
              -38.5089763,
              -3.7286043
            ],
            [
              -38.508803,
              -3.7286592
            ],
            [
              -38.5087721,
              -3.7285612
            ]
          ]
        ]
      }
    },
    {
      "type": "Feature",
      "id": "way/786249328",
      "properties": {
        "timestamp": "2023-10-27T21:18:21Z",
        "version": 2,
        "changeset": 143230726,
        "addr:city": "Fortaleza",
        "addr:housenumber": "104",
        "addr:postcode": "60115-190",
        "addr:street": "Rua Monsenhor Bruno",
        "addr:suburb": "Meireles",
        "email": "pousada@pousadavillamarina.com.br",
        "name": "Pousada Villa Marina",
        "phone": "+55 85 3248 4141",
        "tourism": "guest_house",
        "website": "https://www.pousadavillamarina.com.br/",
        "id": "way/786249328"
      },
      "geometry": {
        "type": "Polygon",
        "coordinates": [
          [
            [
              -38.5069098,
              -3.7234619
            ],
            [
              -38.5066183,
              -3.7235489
            ],
            [
              -38.5065696,
              -3.7234044
            ],
            [
              -38.5068587,
              -3.7233083
            ],
            [
              -38.5069098,
              -3.7234619
            ]
          ]
        ]
      }
    },
    {
      "type": "Feature",
      "id": "way/816883476",
      "properties": {
        "timestamp": "2020-06-17T14:14:12Z",
        "version": 2,
        "changeset": 86778760,
        "addr:city": "Fortaleza",
        "addr:housenumber": "141",
        "addr:postcode": "60110-370",
        "addr:street": "Rua Antônio Augusto",
        "addr:suburb": "Meireles",
        "email": "reservas@pousadadosuico.com.br",
        "name": "Pousada do Suíço",
        "phone": "+55 85 3219 3873",
        "tourism": "guest_house",
        "website": "https://www.pousadadosuico.com.br/",
        "id": "way/816883476"
      },
      "geometry": {
        "type": "Polygon",
        "coordinates": [
          [
            [
              -38.5108181,
              -3.7222563
            ],
            [
              -38.5108323,
              -3.7223053
            ],
            [
              -38.5108421,
              -3.7223398
            ],
            [
              -38.5108484,
              -3.7223621
            ],
            [
              -38.5108786,
              -3.7224642
            ],
            [
              -38.5108147,
              -3.7224776
            ],
            [
              -38.5107898,
              -3.722483
            ],
            [
              -38.5106917,
              -3.7225043
            ],
            [
              -38.5106503,
              -3.7225133
            ],
            [
              -38.5106284,
              -3.7223992
            ],
            [
              -38.510599,
              -3.7224076
            ],
            [
              -38.510591,
              -3.7223819
            ],
            [
              -38.5105754,
              -3.7223327
            ],
            [
              -38.5106045,
              -3.7223236
            ],
            [
              -38.5106645,
              -3.7223047
            ],
            [
              -38.5107109,
              -3.7222901
            ],
            [
              -38.5107723,
              -3.7222708
            ],
            [
              -38.5107788,
              -3.7222687
            ],
            [
              -38.5108181,
              -3.7222563
            ]
          ]
        ]
      }
    },
    {
      "type": "Feature",
      "id": "way/905914261",
      "properties": {
        "timestamp": "2021-02-10T19:01:06Z",
        "version": 1,
        "changeset": 99060319,
        "addr:city": "Fortaleza",
        "addr:housenumber": "507",
        "addr:postcode": "60160-110",
        "addr:street": "Rua Ana Bilhar",
        "addr:suburb": "Meireles",
        "name": "Hotel Brisa do Meireles",
        "tourism": "guest_house",
        "id": "way/905914261"
      },
      "geometry": {
        "type": "Polygon",
        "coordinates": [
          [
            [
              -38.495376,
              -3.7291991
            ],
            [
              -38.4953608,
              -3.7291515
            ],
            [
              -38.4955067,
              -3.7291044
            ],
            [
              -38.4955151,
              -3.7291292
            ],
            [
              -38.4955238,
              -3.7291541
            ],
            [
              -38.4956239,
              -3.7294495
            ],
            [
              -38.4954658,
              -3.7295007
            ],
            [
              -38.4954064,
              -3.7293171
            ],
            [
              -38.4954131,
              -3.729315
            ],
            [
              -38.495376,
              -3.7291991
            ]
          ]
        ]
      }
    },
    {
      "type": "Feature",
      "id": "way/949168747",
      "properties": {
        "timestamp": "2021-05-31T18:40:58Z",
        "version": 1,
        "changeset": 105640079,
        "addr:city": "Fortaleza",
        "addr:housenumber": "140",
        "addr:postcode": "60125-160",
        "addr:street": "Rua Visconde de Mauá",
        "addr:suburb": "Meireles",
        "landuse": "residential",
        "name": "Pousada Mauá",
        "phone": "+55 85 3242 3313",
        "start_date": "1970",
        "tourism": "guest_house",
        "id": "way/949168747"
      },
      "geometry": {
        "type": "Polygon",
        "coordinates": [
          [
            [
              -38.4967153,
              -3.7275617
            ],
            [
              -38.4966873,
              -3.7274754
            ],
            [
              -38.4966797,
              -3.7274518
            ],
            [
              -38.4970542,
              -3.7273334
            ],
            [
              -38.4971016,
              -3.7273184
            ],
            [
              -38.4971071,
              -3.7273167
            ],
            [
              -38.4971262,
              -3.7273776
            ],
            [
              -38.4971392,
              -3.7274194
            ],
            [
              -38.4970908,
              -3.7274356
            ],
            [
              -38.4970624,
              -3.7274452
            ],
            [
              -38.4967153,
              -3.7275617
            ]
          ]
        ]
      }
    },
    {
      "type": "Feature",
      "id": "way/1035155816",
      "properties": {
        "timestamp": "2022-02-25T18:42:35Z",
        "version": 1,
        "changeset": 117859160,
        "addr:city": "Fortaleza",
        "addr:housenumber": "1622",
        "addr:postcode": "60182-126",
        "addr:street": "Avenida Dioguinho",
        "addr:suburb": "Vicente Pinzón",
        "addr:unit": "B",
        "guest_house": "guest_house",
        "name": "Vila do Paitití",
        "tourism": "guest_house",
        "id": "way/1035155816"
      },
      "geometry": {
        "type": "Polygon",
        "coordinates": [
          [
            [
              -38.4592561,
              -3.7309529
            ],
            [
              -38.4592745,
              -3.7309155
            ],
            [
              -38.4594127,
              -3.7309831
            ],
            [
              -38.4594425,
              -3.7309224
            ],
            [
              -38.4595713,
              -3.7309858
            ],
            [
              -38.4596926,
              -3.7307264
            ],
            [
              -38.4597695,
              -3.7307638
            ],
            [
              -38.4596093,
              -3.7310866
            ],
            [
              -38.4595936,
              -3.7311181
            ],
            [
              -38.4592561,
              -3.7309529
            ]
          ]
        ]
      }
    },
    {
      "type": "Feature",
      "id": "node/4322468742",
      "properties": {
        "timestamp": "2021-08-14T18:03:12Z",
        "version": 2,
        "changeset": 109678968,
        "addr:housenumber": "1297",
        "addr:street": "Rua Virgílio Távora",
        "name": "César filho",
        "phone": "+55 88 9 9244 0791",
        "tourism": "guest_house",
        "id": "node/4322468742"
      },
      "geometry": {
        "type": "Point",
        "coordinates": [
          -38.5053691,
          -3.8186359
        ]
      }
    },
    {
      "type": "Feature",
      "id": "node/5373465921",
      "properties": {
        "timestamp": "2018-08-01T15:47:16Z",
        "version": 3,
        "changeset": 61268119,
        "addr:city": "Fortaleza",
        "addr:housenumber": "814",
        "addr:postcode": "60060-610",
        "addr:street": "Avenida Beira Mar",
        "addr:suburb": "Praia de Iracema",
        "email": "pousadahotelareiadapraia@outlook.com",
        "internet_access": "wlan",
        "internet_access:fee": "no",
        "name": "Pousada Areia da Praia",
        "phone": "+55 85 3219 0755",
        "tourism": "guest_house",
        "website": "http://areiadapraiapousada.com.br",
        "id": "node/5373465921"
      },
      "geometry": {
        "type": "Point",
        "coordinates": [
          -38.5126033,
          -3.7201517
        ]
      }
    },
    {
      "type": "Feature",
      "id": "node/7629466139",
      "properties": {
        "timestamp": "2020-08-09T17:49:17Z",
        "version": 3,
        "changeset": 89160666,
        "addr:city": "Fortaleza",
        "addr:housenumber": "133",
        "addr:postcode": "60110-370",
        "addr:street": "Rua Antônio Augusto",
        "addr:suburb": "Meireles",
        "id": "node/7629466139"
      },
      "geometry": {
        "type": "Point",
        "coordinates": [
          -38.5108323,
          -3.7223053
        ]
      }
    },
    {
      "type": "Feature",
      "id": "node/11294197871",
      "properties": {
        "timestamp": "2024-02-16T14:46:51Z",
        "version": 2,
        "changeset": 147535520,
        "addr:city": "Fortaleza",
        "addr:housenumber": "1340",
        "addr:postcode": "60165-068",
        "addr:street": "Avenida Monsenhor Tabosa",
        "addr:suburb": "Meireles",
        "breakfast": "buffet",
        "internet_access": "wlan",
        "internet_access:fee": "no",
        "name": "Pousada Ideal Beach",
        "parking": "yes",
        "phone": "+55 85 3264 2470",
        "rooms": "10",
        "start_date": "2011",
        "tourism": "guest_house",
        "id": "node/11294197871"
      },
      "geometry": {
        "type": "Point",
        "coordinates": [
          -38.5071981,
          -3.7245194
        ]
      }
    },
    {
      "type": "Feature",
      "id": "node/12753388601",
      "properties": {
        "timestamp": "2025-04-14T02:12:06Z",
        "version": 1,
        "changeset": 164917907,
        "addr:housenumber": "444",
        "addr:street": "Rua Dragão do Mar",
        "internet_access": "wlan",
        "name": "Pousada Iracema Charme",
        "tourism": "guest_house",
        "id": "node/12753388601"
      },
      "geometry": {
        "type": "Point",
        "coordinates": [
          -38.5169551,
          -3.7218981
        ]
      }
    }
  ]
}
