{
  "type": "FeatureCollection",
  "features": [
    {
      "type": "Feature",
      "id": "node/11121718174",
      "properties": {
        "timestamp": "2023-08-17T10:00:03Z",
        "version": 1,
        "changeset": 140004411,
        "addr:city": "Canindé",
        "addr:housenumber": "1386",
        "addr:postcode": "6270000",
        "addr:street": "Rua José karam",
        "addr:suburb": "Santa Luzia",
        "amenity": "dentist",
        "healthcare": "dentist",
        "name": "Clínica Rocha Tavares",
        "operator": "Clinica Rocha Tavares",
        "id": "node/11121718174"
      },
      "geometry": {
        "type": "Point",
        "coordinates": [
          -39.3223585,
          -4.3520578
        ]
      }
    },
    {
      "type": "Feature",
      "id": "node/12652554811",
      "properties": {
        "timestamp": "2025-03-11T15:59:35Z",
        "version": 1,
        "changeset": 163491501,
        "addr:city": "Canindé",
        "addr:housenumber": "206",
        "addr:postcode": "62700000",
        "addr:street": "Travessa Monsenhor João Cruz",
        "addr:suburb": "Centro",
        "amenity": "dentist",
        "healthcare": "dentist",
        "healthcare:speciality": "clinica_o;dental_oral_maxillo_facial_surgery;dentist;dentistry",
        "level": "terreo",
        "mobile": "85981820726",
        "name": "Dr. Guiilherme Aguiar",
        "opening_hours": "Mo-Su 08:00-20:00",
        "wheelchair": "yes",
        "id": "node/12652554811"
      },
      "geometry": {
        "type": "Point",
        "coordinates": [
          -39.3134081,
          -4.3597136
        ]
      }
    }
  ]
}
