{
  "type": "FeatureCollection",
  "features": [
    {
      "type": "Feature",
      "id": "node/6732669215",
      "properties": {
        "timestamp": "2023-05-02T22:17:52Z",
        "version": 2,
        "changeset": 135635239,
        "addr:city": "Carlos Barbosa",
        "addr:housenumber": "343",
        "addr:postcode": "95185-000",
        "addr:street": "Avenida Presidente Kennedy",
        "addr:suburb": "Aurora",
        "amenity": "hospital",
        "email": "hospitalsaoroque@tacchini.com.br",
        "healthcare": "hospital",
        "name": "Hospital Beneficente Sao Roque",
        "ref:CNES": "2241137",
        "ref:vatin": "BR87547444001444",
        "id": "node/6732669215"
      },
      "geometry": {
        "type": "Point",
        "coordinates": [
          -51.497789,
          -29.2959994
        ]
      }
    },
    {
      "type": "Feature",
      "id": "node/6732669216",
      "properties": {
        "timestamp": "2019-08-21T17:42:43Z",
        "version": 1,
        "changeset": 73591310,
        "amenity": "hospital",
        "healthcare": "hospital",
        "name": "Casa de Idosos",
        "id": "node/6732669216"
      },
      "geometry": {
        "type": "Point",
        "coordinates": [
          -51.4976904,
          -29.2970527
        ]
      }
    }
  ]
}
