{
  "type": "FeatureCollection",
  "features": [
    {
      "type": "Feature",
      "id": "node/6910346362",
      "properties": {
        "timestamp": "2019-10-23T19:08:13Z",
        "version": 1,
        "changeset": 76120729,
        "addr:city": "Maca√©",
        "addr:housenumber": "372/Loja 2",
        "addr:postcode": "27925490",
        "addr:street": "Rua Nelson Carvalhaes",
        "addr:suburb": "Mirante da Lagoa",
        "name": "Bicicletas da Cidade",
        "opening_hours": "Mo-Sa 09:00-19:00",
        "shop": "bicycle",
        "id": "node/6910346362"
      },
      "geometry": {
        "type": "Point",
        "coordinates": [
          -41.8408868,
          -22.4079179
        ]
      }
    },
    {
      "type": "Feature",
      "id": "node/12579059627",
      "properties": {
        "timestamp": "2025-02-11T15:02:59Z",
        "version": 1,
        "changeset": 162394975,
        "shop": "bicycle",
        "id": "node/12579059627"
      },
      "geometry": {
        "type": "Point",
        "coordinates": [
          -41.7875138,
          -22.3944666
        ]
      }
    },
    {
      "type": "Feature",
      "id": "node/12579486030",
      "properties": {
        "timestamp": "2025-02-11T17:53:04Z",
        "version": 1,
        "changeset": 162400626,
        "name": "Hdm",
        "shop": "bicycle",
        "id": "node/12579486030"
      },
      "geometry": {
        "type": "Point",
        "coordinates": [
          -41.79045,
          -22.3666089
        ]
      }
    }
  ]
}
