{
  "type": "FeatureCollection",
  "features": [
    {
      "type": "Feature",
      "id": "way/1291575194",
      "properties": {
        "timestamp": "2024-06-11T21:45:08Z",
        "version": 1,
        "changeset": 152562651,
        "amenity": "clinic",
        "building": "yes",
        "healthcare": "clinic",
        "operator": "Prefeitura de Macaé",
        "operator:type": "public",
        "id": "way/1291575194"
      },
      "geometry": {
        "type": "Polygon",
        "coordinates": [
          [
            [
              -41.748909,
              -22.3328736
            ],
            [
              -41.7484328,
              -22.3333883
            ],
            [
              -41.7481784,
              -22.333221
            ],
            [
              -41.7486598,
              -22.3326952
            ],
            [
              -41.748909,
              -22.3328736
            ]
          ]
        ]
      }
    },
    {
      "type": "Feature",
      "id": "node/3786021457",
      "properties": {
        "timestamp": "2023-07-03T02:07:37Z",
        "version": 3,
        "changeset": 138044056,
        "addr:housenumber": "789",
        "addr:postcode": "27910-110",
        "addr:street": "Rua Teixeira de Gouveia",
        "amenity": "clinic",
        "healthcare": "clinic",
        "name": "Clínica São Lucas",
        "ref:CNES": "3978044",
        "ref:vatin": "BR29692829000184",
        "id": "node/3786021457"
      },
      "geometry": {
        "type": "Point",
        "coordinates": [
          -41.7784839,
          -22.3752091
        ]
      }
    },
    {
      "type": "Feature",
      "id": "node/3786028960",
      "properties": {
        "timestamp": "2023-07-03T02:07:37Z",
        "version": 3,
        "changeset": 138044056,
        "addr:city": "Macaé",
        "addr:housenumber": "750",
        "addr:postcode": "27910-290",
        "addr:street": "Rua Visconde de Quissamã",
        "amenity": "clinic",
        "healthcare": "clinic",
        "name": "Clínica CETRO Ortopedia",
        "ref:CNES": "5698871",
        "ref:vatin": "BR68711498000134",
        "id": "node/3786028960"
      },
      "geometry": {
        "type": "Point",
        "coordinates": [
          -41.77959,
          -22.375579
        ]
      }
    },
    {
      "type": "Feature",
      "id": "node/3786031858",
      "properties": {
        "timestamp": "2020-01-14T00:52:00Z",
        "version": 2,
        "changeset": 79537620,
        "amenity": "clinic",
        "healthcare": "clinic",
        "name": "Bioanálise",
        "id": "node/3786031858"
      },
      "geometry": {
        "type": "Point",
        "coordinates": [
          -41.77955,
          -22.375835
        ]
      }
    },
    {
      "type": "Feature",
      "id": "node/3786031859",
      "properties": {
        "timestamp": "2023-07-03T02:07:37Z",
        "version": 3,
        "changeset": 138044056,
        "addr:housenumber": "684",
        "addr:postcode": "27910-020",
        "addr:street": "Rua Visconde de Quissamã",
        "amenity": "clinic",
        "healthcare": "clinic",
        "name": "Hemolabes",
        "ref:CNES": "6037437",
        "ref:vatin": "BR04353185000330",
        "id": "node/3786031859"
      },
      "geometry": {
        "type": "Point",
        "coordinates": [
          -41.779694,
          -22.375011
        ]
      }
    },
    {
      "type": "Feature",
      "id": "node/3786050857",
      "properties": {
        "timestamp": "2023-07-03T02:07:37Z",
        "version": 3,
        "changeset": 138044056,
        "addr:housenumber": "766",
        "addr:postcode": "27910-290",
        "addr:street": "Rua Visconde de Quissamã",
        "amenity": "clinic",
        "healthcare": "clinic",
        "name": "CEDI Diagnósticos",
        "ref:CNES": "3274373",
        "ref:vatin": "BR36578565000106",
        "id": "node/3786050857"
      },
      "geometry": {
        "type": "Point",
        "coordinates": [
          -41.779572,
          -22.375698
        ]
      }
    },
    {
      "type": "Feature",
      "id": "node/3786050859",
      "properties": {
        "timestamp": "2023-07-03T02:07:37Z",
        "version": 3,
        "changeset": 138044056,
        "addr:city": "Macaé",
        "addr:housenumber": "681",
        "addr:postcode": "27910-200",
        "addr:street": "Rua Francisco Portela",
        "amenity": "clinic",
        "healthcare": "clinic",
        "name": "CEDI-COR",
        "ref:CNES": "5202639",
        "ref:vatin": "BR39232996000104",
        "id": "node/3786050859"
      },
      "geometry": {
        "type": "Point",
        "coordinates": [
          -41.780456,
          -22.375776
        ]
      }
    },
    {
      "type": "Feature",
      "id": "node/3786058557",
      "properties": {
        "timestamp": "2023-07-03T02:07:37Z",
        "version": 3,
        "changeset": 138044056,
        "addr:city": "Macaé",
        "addr:housenumber": "427",
        "addr:postcode": "27910-230",
        "addr:street": "Rua Eusébio de Queiroz",
        "amenity": "clinic",
        "healthcare": "clinic",
        "name": "Laboratório Qualidade",
        "ref:CNES": "6347061",
        "ref:vatin": "BR68641844000236",
        "id": "node/3786058557"
      },
      "geometry": {
        "type": "Point",
        "coordinates": [
          -41.780415,
          -22.375558
        ]
      }
    },
    {
      "type": "Feature",
      "id": "node/3786058558",
      "properties": {
        "timestamp": "2020-01-14T00:52:00Z",
        "version": 2,
        "changeset": 79537620,
        "addr:city": "Macaé",
        "addr:housenumber": "487",
        "addr:postcode": "27910-310",
        "addr:street": "Rua Marechal Deodoro",
        "amenity": "clinic",
        "healthcare": "clinic",
        "name": "Instituto de Olhos de Macaé",
        "id": "node/3786058558"
      },
      "geometry": {
        "type": "Point",
        "coordinates": [
          -41.781663,
          -22.374311
        ]
      }
    },
    {
      "type": "Feature",
      "id": "node/3792740857",
      "properties": {
        "timestamp": "2020-01-14T00:55:21Z",
        "version": 2,
        "changeset": 79537668,
        "addr:city": "Macaé",
        "addr:housenumber": "252",
        "addr:postcode": "27910-190",
        "addr:street": "Rua Alfredo Backer",
        "amenity": "clinic",
        "healthcare": "clinic",
        "name": "RHMED",
        "id": "node/3792740857"
      },
      "geometry": {
        "type": "Point",
        "coordinates": [
          -41.783552,
          -22.371595
        ]
      }
    },
    {
      "type": "Feature",
      "id": "node/3803696059",
      "properties": {
        "timestamp": "2015-10-26T15:51:26Z",
        "version": 1,
        "changeset": 34885068,
        "amenity": "clinic",
        "name": "Hemolabes Posto de Coleta",
        "id": "node/3803696059"
      },
      "geometry": {
        "type": "Point",
        "coordinates": [
          -41.797624,
          -22.403479
        ]
      }
    },
    {
      "type": "Feature",
      "id": "node/3816353463",
      "properties": {
        "timestamp": "2020-01-14T00:38:02Z",
        "version": 2,
        "changeset": 79537447,
        "addr:city": "Macaé",
        "addr:housenumber": "333",
        "addr:postcode": "27916-130",
        "addr:street": "Rua Doutor Júlio Olivier",
        "amenity": "clinic",
        "healthcare": "clinic",
        "name": "Pró-Imagem Medicina Diagnóstica",
        "id": "node/3816353463"
      },
      "geometry": {
        "type": "Point",
        "coordinates": [
          -41.775205,
          -22.378121
        ]
      }
    },
    {
      "type": "Feature",
      "id": "node/3816368157",
      "properties": {
        "timestamp": "2020-01-14T00:38:02Z",
        "version": 2,
        "changeset": 79537447,
        "addr:city": "Macaé",
        "addr:housenumber": "383",
        "addr:postcode": "27916-130",
        "addr:street": "Rua Doutor Júlio Olivier",
        "amenity": "clinic",
        "healthcare": "clinic",
        "name": "Ecoart Ultrassonografia",
        "id": "node/3816368157"
      },
      "geometry": {
        "type": "Point",
        "coordinates": [
          -41.775471,
          -22.378425
        ]
      }
    },
    {
      "type": "Feature",
      "id": "node/3816368457",
      "properties": {
        "timestamp": "2020-01-14T00:38:02Z",
        "version": 2,
        "changeset": 79537447,
        "amenity": "clinic",
        "healthcare": "clinic",
        "name": "Laboratório Bioanálise",
        "id": "node/3816368457"
      },
      "geometry": {
        "type": "Point",
        "coordinates": [
          -41.775563,
          -22.378385
        ]
      }
    },
    {
      "type": "Feature",
      "id": "node/3850163792",
      "properties": {
        "timestamp": "2020-01-14T00:32:36Z",
        "version": 2,
        "changeset": 79537374,
        "addr:housenumber": "611",
        "addr:postcode": "27913-300",
        "addr:street": "Avenida Agenor Caldas",
        "amenity": "clinic",
        "healthcare": "clinic",
        "name": "Angiocardio Serviços Médicos",
        "id": "node/3850163792"
      },
      "geometry": {
        "type": "Point",
        "coordinates": [
          -41.7726456,
          -22.3834328
        ]
      }
    },
    {
      "type": "Feature",
      "id": "node/5402676734",
      "properties": {
        "timestamp": "2018-02-10T02:53:32Z",
        "version": 1,
        "changeset": 56232048,
        "amenity": "clinic",
        "healthcare": "clinic",
        "name": "Hemocentro de Macaé",
        "id": "node/5402676734"
      },
      "geometry": {
        "type": "Point",
        "coordinates": [
          -41.7758645,
          -22.3778757
        ]
      }
    },
    {
      "type": "Feature",
      "id": "node/6892863745",
      "properties": {
        "timestamp": "2019-10-17T14:40:23Z",
        "version": 1,
        "changeset": 75846830,
        "addr:city": "Macaé",
        "addr:housenumber": "1536",
        "addr:street": "Rua Teixeira De Gouveia",
        "amenity": "clinic",
        "healthcare": "clinic",
        "name": "Centro Ortopedico Traumatologico COT",
        "id": "node/6892863745"
      },
      "geometry": {
        "type": "Point",
        "coordinates": [
          -41.7773783,
          -22.382251
        ]
      }
    },
    {
      "type": "Feature",
      "id": "node/6892863746",
      "properties": {
        "timestamp": "2019-10-17T14:40:23Z",
        "version": 1,
        "changeset": 75846830,
        "addr:city": "Macaé",
        "addr:housenumber": "1520",
        "addr:street": "Rua Teixeira De Gouveia",
        "amenity": "clinic",
        "healthcare": "clinic",
        "name": "Centro Ortopedico Fisioterapico COFISIO",
        "id": "node/6892863746"
      },
      "geometry": {
        "type": "Point",
        "coordinates": [
          -41.7773835,
          -22.3821667
        ]
      }
    }
  ]
}
