{
  "type": "FeatureCollection",
  "features": [
    {
      "type": "Feature",
      "id": "node/7846503016",
      "properties": {
        "timestamp": "2023-08-18T16:00:16Z",
        "version": 2,
        "changeset": 140064531,
        "addr:city": "Sana",
        "addr:housenumber": "101",
        "addr:postcode": "27995000",
        "addr:street": "Estrada do SÃ£o Bento",
        "addr:suburb": "Santa Helena",
        "description": "Hospedagem Gastronomia Arte airbnb <div class=\"airbnb-embed-frame\" data-id=\"16716116\" data-view=\"home\" style=\"width:450px;height:300px;margin:auto\"><a href=\"https://www.airbnb.com.br/rooms/16716116?s=66&amp;unique_share_id=9f637ef6-ff0b-41df-95ba-0d590f5e",
        "email": "ash@ateliersantahelena.com.br",
        "internet_access": "wlan",
        "name": "Atelier Santa Helena",
        "operator": "Luciano Mattos Bogado",
        "phone": "+55 21 999527939",
        "start_date": "01/01/2017",
        "tourism": "gallery",
        "website": "www.ateliersantahelena.com.br",
        "id": "node/7846503016"
      },
      "geometry": {
        "type": "Point",
        "coordinates": [
          -42.2030666,
          -22.3416487
        ]
      }
    }
  ]
}
