{
  "type": "FeatureCollection",
  "features": [
    {
      "type": "Feature",
      "id": "node/4659336491",
      "properties": {
        "timestamp": "2017-02-03T11:36:42Z",
        "version": 1,
        "changeset": 45775783,
        "addr:housenumber": "2163",
        "addr:street": "Avenida Nossa Senhora da Glória",
        "amenity": "veterinary",
        "name": "Auqmia",
        "id": "node/4659336491"
      },
      "geometry": {
        "type": "Point",
        "coordinates": [
          -41.7963117,
          -22.4031244
        ]
      }
    },
    {
      "type": "Feature",
      "id": "node/4685641290",
      "properties": {
        "timestamp": "2017-02-19T01:21:08Z",
        "version": 4,
        "changeset": 46205046,
        "addr:city": "Macaé",
        "addr:housenumber": "845",
        "addr:street": "Avenida Evaldo Costa",
        "amenity": "veterinary",
        "id": "node/4685641290"
      },
      "geometry": {
        "type": "Point",
        "coordinates": [
          -41.787225,
          -22.391773
        ]
      }
    },
    {
      "type": "Feature",
      "id": "node/4685655789",
      "properties": {
        "timestamp": "2017-02-14T18:24:04Z",
        "version": 2,
        "changeset": 46086309,
        "addr:city": "Macaé",
        "addr:housenumber": "165",
        "addr:postcode": "27940-420",
        "addr:street": "Rua Ônix",
        "amenity": "veterinary",
        "name": "CEV Centro de Especialidades Veterinárias Laboratório e Imagem",
        "id": "node/4685655789"
      },
      "geometry": {
        "type": "Point",
        "coordinates": [
          -41.786369,
          -22.391238
        ]
      }
    }
  ]
}
