{
  "type": "FeatureCollection",
  "features": [
    {
      "type": "Feature",
      "id": "way/256355742",
      "properties": {
        "timestamp": "2016-09-08T23:25:21Z",
        "version": 4,
        "changeset": 42014697,
        "addr:city": "Concórdia",
        "addr:housenumber": "340",
        "addr:postcode": "89700-000",
        "addr:street": "Rua Getúlio Vargas",
        "building": "hotel",
        "name": "Hotel Belmont",
        "tourism": "hotel",
        "id": "way/256355742"
      },
      "geometry": {
        "type": "Polygon",
        "coordinates": [
          [
            [
              -52.0263721,
              -27.2321205
            ],
            [
              -52.0263877,
              -27.2323488
            ],
            [
              -52.0262904,
              -27.2323541
            ],
            [
              -52.0262747,
              -27.2321258
            ],
            [
              -52.0263721,
              -27.2321205
            ]
          ]
        ]
      }
    },
    {
      "type": "Feature",
      "id": "way/256355743",
      "properties": {
        "timestamp": "2018-01-09T01:53:30Z",
        "version": 3,
        "changeset": 55280094,
        "addr:postcode": "89700-000",
        "addr:street": "Rodovia BR-153",
        "building": "hotel",
        "name": "Hotel Icaropê",
        "tourism": "hotel",
        "id": "way/256355743"
      },
      "geometry": {
        "type": "Polygon",
        "coordinates": [
          [
            [
              -51.9525362,
              -27.2524277
            ],
            [
              -51.9525089,
              -27.2525675
            ],
            [
              -51.9520979,
              -27.2525041
            ],
            [
              -51.9521252,
              -27.2523643
            ],
            [
              -51.9525362,
              -27.2524277
            ]
          ]
        ]
      }
    },
    {
      "type": "Feature",
      "id": "way/257620674",
      "properties": {
        "timestamp": "2017-07-22T22:11:19Z",
        "version": 7,
        "changeset": 50490060,
        "addr:housenumber": "34",
        "addr:postcode": "89700-000",
        "addr:street": "Rua Getúlio Vargas",
        "building": "hotel",
        "building:levels": "3",
        "internet_access": "wlan",
        "name": "Hotel Caitá",
        "phone": "+55 49 3442-1588",
        "tourism": "hotel",
        "id": "way/257620674"
      },
      "geometry": {
        "type": "Polygon",
        "coordinates": [
          [
            [
              -52.0264832,
              -27.2291609
            ],
            [
              -52.0265341,
              -27.2292578
            ],
            [
              -52.0261094,
              -27.2294343
            ],
            [
              -52.0260584,
              -27.2293374
            ],
            [
              -52.0264832,
              -27.2291609
            ]
          ]
        ]
      }
    },
    {
      "type": "Feature",
      "id": "way/375254229",
      "properties": {
        "timestamp": "2021-05-21T19:57:09Z",
        "version": 5,
        "changeset": 105109051,
        "addr:housenumber": "80",
        "addr:postcode": "89700-000",
        "addr:street": "Rua do Comércio",
        "building": "hotel",
        "building:levels": "10",
        "name": "Hotel Alvorada",
        "phone": "+55 49 3442-2244",
        "tourism": "hotel",
        "id": "way/375254229"
      },
      "geometry": {
        "type": "Polygon",
        "coordinates": [
          [
            [
              -52.0246075,
              -27.230651
            ],
            [
              -52.0246528,
              -27.2306078
            ],
            [
              -52.0247379,
              -27.2306746
            ],
            [
              -52.0248571,
              -27.2305233
            ],
            [
              -52.0248903,
              -27.2305391
            ],
            [
              -52.0249422,
              -27.2304684
            ],
            [
              -52.025014,
              -27.2305175
            ],
            [
              -52.0249875,
              -27.230543
            ],
            [
              -52.0250052,
              -27.2305744
            ],
            [
              -52.0252018,
              -27.2304998
            ],
            [
              -52.025289,
              -27.2306716
            ],
            [
              -52.0247401,
              -27.2309024
            ],
            [
              -52.0246075,
              -27.230651
            ]
          ]
        ]
      }
    },
    {
      "type": "Feature",
      "id": "node/2620183880",
      "properties": {
        "timestamp": "2022-07-14T14:36:48Z",
        "version": 6,
        "changeset": 123613306,
        "addr:city": "Concórdia",
        "addr:housename": "Hotel Colina Verde",
        "addr:housenumber": "6555",
        "addr:postcode": "89700-000",
        "addr:street": "Rua Tancredo De Almeida Neves",
        "name": "Colina Verde",
        "phone": "+55 49 3442 5109",
        "tourism": "hotel",
        "id": "node/2620183880"
      },
      "geometry": {
        "type": "Point",
        "coordinates": [
          -51.9591101,
          -27.225974
        ]
      }
    }
  ]
}
