{
  "type": "FeatureCollection",
  "features": [
    {
      "type": "Feature",
      "id": "node/6532524679",
      "properties": {
        "timestamp": "2019-06-07T18:19:42Z",
        "version": 1,
        "changeset": 71034056,
        "amenity": "community_centre",
        "name": "Centro de Tradições Gaúchas (CTG) Campeiros da Alvorada",
        "id": "node/6532524679"
      },
      "geometry": {
        "type": "Point",
        "coordinates": [
          -54.3985486,
          -25.4552795
        ]
      }
    },
    {
      "type": "Feature",
      "id": "node/7572499613",
      "properties": {
        "timestamp": "2020-05-30T13:04:09Z",
        "version": 1,
        "changeset": 85981326,
        "addr:city": "Santa Terezinha de Itaipu",
        "addr:postcode": "85875000",
        "addr:street": "Rua Rio de Janeiro",
        "addr:suburb": "Parque dos Estados",
        "amenity": "community_centre",
        "name": "Centro Comunitário de Eventos Tibério Nandi",
        "id": "node/7572499613"
      },
      "geometry": {
        "type": "Point",
        "coordinates": [
          -54.4017056,
          -25.4496133
        ]
      }
    }
  ]
}
