{
  "type": "FeatureCollection",
  "features": [
    {
      "type": "Feature",
      "id": "node/6532139255",
      "properties": {
        "timestamp": "2020-05-30T14:21:36Z",
        "version": 2,
        "changeset": 85983356,
        "addr:city": "Santa Terezinha de Itaipu",
        "addr:housenumber": "1700",
        "addr:postcode": "85875000",
        "addr:street": "Rua Rio de Janeiro",
        "addr:suburb": "Parque dos Estados",
        "amenity": "pharmacy",
        "dispensing": "yes",
        "drive_through": "no",
        "healthcare": "pharmacy",
        "name": "Farmácia Clarifarma",
        "phone": "+55 45 3541 2624",
        "id": "node/6532139255"
      },
      "geometry": {
        "type": "Point",
        "coordinates": [
          -54.3991164,
          -25.4485623
        ]
      }
    },
    {
      "type": "Feature",
      "id": "node/6532524669",
      "properties": {
        "timestamp": "2020-05-30T14:21:36Z",
        "version": 2,
        "changeset": 85983356,
        "addr:city": "Santa Terezinha de Itaipu",
        "addr:housenumber": "88",
        "addr:postcode": "85875000",
        "addr:street": "Avenida das Nações",
        "addr:suburb": "Centro",
        "amenity": "pharmacy",
        "dispensing": "yes",
        "drive_through": "no",
        "healthcare": "pharmacy",
        "name": "Farmácia Farmabelle",
        "id": "node/6532524669"
      },
      "geometry": {
        "type": "Point",
        "coordinates": [
          -54.3976595,
          -25.4426409
        ]
      }
    },
    {
      "type": "Feature",
      "id": "node/6532524670",
      "properties": {
        "timestamp": "2020-05-30T14:21:36Z",
        "version": 2,
        "changeset": 85983356,
        "amenity": "pharmacy",
        "dispensing": "yes",
        "healthcare": "pharmacy",
        "name": "Farmácia Biofarma",
        "id": "node/6532524670"
      },
      "geometry": {
        "type": "Point",
        "coordinates": [
          -54.3998147,
          -25.444285
        ]
      }
    },
    {
      "type": "Feature",
      "id": "node/6532524671",
      "properties": {
        "timestamp": "2020-05-30T14:21:36Z",
        "version": 2,
        "changeset": 85983356,
        "addr:city": "Santa Terezinha de Itaipu",
        "addr:housenumber": "76",
        "addr:postcode": "85875000",
        "addr:street": "Avenida Primeiro de Maio",
        "addr:suburb": "Centro",
        "amenity": "pharmacy",
        "dispensing": "yes",
        "drive_through": "no",
        "healthcare": "pharmacy",
        "name": "Cooperfarma",
        "opening_hours": "Mo-Fr 07:30-19:00; Sa 07:30-12:00",
        "phone": "+55 45 3541 0501",
        "id": "node/6532524671"
      },
      "geometry": {
        "type": "Point",
        "coordinates": [
          -54.4009544,
          -25.4440514
        ]
      }
    }
  ]
}
