{
  "type": "FeatureCollection",
  "features": [
    {
      "type": "Feature",
      "id": "way/702871196",
      "properties": {
        "timestamp": "2019-08-02T20:18:30Z",
        "version": 2,
        "changeset": 72955734,
        "amenity": "school",
        "id": "way/702871196"
      },
      "geometry": {
        "type": "Polygon",
        "coordinates": [
          [
            [
              -54.4173739,
              -25.4462772
            ],
            [
              -54.4171491,
              -25.44673
            ],
            [
              -54.4163479,
              -25.4463995
            ],
            [
              -54.4165871,
              -25.4459467
            ],
            [
              -54.4173739,
              -25.4462772
            ]
          ]
        ]
      }
    },
    {
      "type": "Feature",
      "id": "way/702878781",
      "properties": {
        "timestamp": "2019-08-02T20:23:30Z",
        "version": 2,
        "changeset": 72955858,
        "amenity": "school",
        "id": "way/702878781"
      },
      "geometry": {
        "type": "Polygon",
        "coordinates": [
          [
            [
              -54.4013877,
              -25.4408239
            ],
            [
              -54.40092,
              -25.4417351
            ],
            [
              -54.3999109,
              -25.4413103
            ],
            [
              -54.4003567,
              -25.4404115
            ],
            [
              -54.4013877,
              -25.4408239
            ]
          ]
        ]
      }
    },
    {
      "type": "Feature",
      "id": "way/702880188",
      "properties": {
        "timestamp": "2019-08-02T20:20:56Z",
        "version": 3,
        "changeset": 72955784,
        "amenity": "school",
        "id": "way/702880188"
      },
      "geometry": {
        "type": "Polygon",
        "coordinates": [
          [
            [
              -54.402208,
              -25.4547561
            ],
            [
              -54.403206,
              -25.455162
            ],
            [
              -54.4028598,
              -25.4558196
            ],
            [
              -54.4018798,
              -25.4554056
            ],
            [
              -54.402208,
              -25.4547561
            ]
          ]
        ]
      }
    },
    {
      "type": "Feature",
      "id": "way/703110027",
      "properties": {
        "timestamp": "2019-08-02T20:25:48Z",
        "version": 3,
        "changeset": 72955922,
        "amenity": "school",
        "id": "way/703110027"
      },
      "geometry": {
        "type": "Polygon",
        "coordinates": [
          [
            [
              -54.3995128,
              -25.4340206
            ],
            [
              -54.3990576,
              -25.4349154
            ],
            [
              -54.3980884,
              -25.4345016
            ],
            [
              -54.3985436,
              -25.4336123
            ],
            [
              -54.3995128,
              -25.4340206
            ]
          ]
        ]
      }
    },
    {
      "type": "Feature",
      "id": "way/711782684",
      "properties": {
        "timestamp": "2019-08-07T16:14:00Z",
        "version": 1,
        "changeset": 73119656,
        "amenity": "school",
        "id": "way/711782684"
      },
      "geometry": {
        "type": "Polygon",
        "coordinates": [
          [
            [
              -54.3956514,
              -25.4363846
            ],
            [
              -54.3954966,
              -25.4366755
            ],
            [
              -54.3950058,
              -25.4364937
            ],
            [
              -54.3951172,
              -25.4362602
            ],
            [
              -54.3952148,
              -25.4362952
            ],
            [
              -54.3952488,
              -25.4362169
            ],
            [
              -54.3956514,
              -25.4363846
            ]
          ]
        ]
      }
    },
    {
      "type": "Feature",
      "id": "way/809962769",
      "properties": {
        "timestamp": "2020-05-30T14:21:36Z",
        "version": 1,
        "changeset": 85983356,
        "amenity": "school",
        "id": "way/809962769"
      },
      "geometry": {
        "type": "Polygon",
        "coordinates": [
          [
            [
              -54.4008609,
              -25.4418036
            ],
            [
              -54.4005377,
              -25.4424654
            ],
            [
              -54.3999551,
              -25.4422284
            ],
            [
              -54.400288,
              -25.4415579
            ],
            [
              -54.4008609,
              -25.4418036
            ]
          ]
        ]
      }
    },
    {
      "type": "Feature",
      "id": "way/936785199",
      "properties": {
        "timestamp": "2021-04-29T15:17:05Z",
        "version": 1,
        "changeset": 103854217,
        "addr:city": "Santa Terezinha de Itaipu",
        "addr:housenumber": "800",
        "addr:postcode": "85875000",
        "addr:street": "Rua Manoel Moreira Pena",
        "addr:suburb": "Centro",
        "amenity": "school",
        "name": "CAIC",
        "id": "way/936785199"
      },
      "geometry": {
        "type": "Polygon",
        "coordinates": [
          [
            [
              -54.3958603,
              -25.433379
            ],
            [
              -54.3940798,
              -25.4326601
            ],
            [
              -54.3943265,
              -25.432108
            ],
            [
              -54.3947867,
              -25.4322628
            ],
            [
              -54.394922,
              -25.4320346
            ],
            [
              -54.3962933,
              -25.4325561
            ],
            [
              -54.3958603,
              -25.433379
            ]
          ]
        ]
      }
    },
    {
      "type": "Feature",
      "id": "node/6532524674",
      "properties": {
        "timestamp": "2020-05-30T14:21:36Z",
        "version": 2,
        "changeset": 85983356,
        "addr:city": "Santa Terezinha de Itaipu",
        "addr:housenumber": "303",
        "addr:postcode": "85875000",
        "addr:street": "Rua João XXIII",
        "addr:suburb": "Centro",
        "amenity": "school",
        "name": "Colégio Cesti",
        "operator:type": "private",
        "id": "node/6532524674"
      },
      "geometry": {
        "type": "Point",
        "coordinates": [
          -54.4007436,
          -25.4418803
        ]
      }
    },
    {
      "type": "Feature",
      "id": "node/6532524676",
      "properties": {
        "timestamp": "2020-05-30T13:04:09Z",
        "version": 2,
        "changeset": 85981326,
        "addr:city": "Santa Terezinha de Itaipu",
        "addr:housenumber": "118",
        "addr:postcode": "85875000",
        "addr:street": "Rua Acre",
        "addr:suburb": "Parque dos Estados",
        "amenity": "school",
        "name": "Escola Municipal Nossa Senhora do Carmo",
        "phone": "+55 45 3541 3623",
        "id": "node/6532524676"
      },
      "geometry": {
        "type": "Point",
        "coordinates": [
          -54.4016462,
          -25.4506317
        ]
      }
    },
    {
      "type": "Feature",
      "id": "node/6677702160",
      "properties": {
        "timestamp": "2019-08-02T20:18:30Z",
        "version": 1,
        "changeset": 72955734,
        "addr:city": "Santa Terezinha de Itaipu",
        "addr:housenumber": "515",
        "addr:postcode": "85.875-000",
        "addr:street": "Rua das Camelias",
        "addr:suburb": "Jardim Santa Mônica",
        "amenity": "school",
        "name": "Colégio Estadual Ângelo Antonio Benedet",
        "website": "http://www.shwangelobenedet.seed.pr.gov.br/modules/liaise/",
        "id": "node/6677702160"
      },
      "geometry": {
        "type": "Point",
        "coordinates": [
          -54.416864,
          -25.4463376
        ]
      }
    },
    {
      "type": "Feature",
      "id": "node/6677716642",
      "properties": {
        "timestamp": "2019-08-02T20:20:56Z",
        "version": 1,
        "changeset": 72955784,
        "addr:city": "Santa Terezinha de Itaipu",
        "addr:housenumber": "958",
        "addr:postcode": "85.875-000",
        "addr:street": "Rua Alagoas",
        "addr:suburb": "Parque dos Estados",
        "amenity": "school",
        "name": "Colégio Estadual Arcângelo Nandi",
        "website": "http://www.shwarcangelonandi.seed.pr.gov.br/modules/liaise/",
        "id": "node/6677716642"
      },
      "geometry": {
        "type": "Point",
        "coordinates": [
          -54.402544,
          -25.4552779
        ]
      }
    },
    {
      "type": "Feature",
      "id": "node/6677766602",
      "properties": {
        "timestamp": "2019-08-02T20:23:30Z",
        "version": 1,
        "changeset": 72955858,
        "addr:city": "Santa Terezinha de Itaipu",
        "addr:housenumber": "1800",
        "addr:postcode": "85.875-000",
        "addr:street": "Rua dos Estudantes",
        "addr:suburb": "Centro",
        "amenity": "school",
        "name": "Colégio Estadual Carlos Zewe Coimbra",
        "website": "http://www.shwcarloscoimbra.seed.pr.gov.br/modules/liaise/#",
        "id": "node/6677766602"
      },
      "geometry": {
        "type": "Point",
        "coordinates": [
          -54.4006487,
          -25.4410724
        ]
      }
    },
    {
      "type": "Feature",
      "id": "node/6677768615",
      "properties": {
        "timestamp": "2019-08-02T20:25:48Z",
        "version": 1,
        "changeset": 72955922,
        "addr:city": "Santa Terezinha de Itaipu",
        "addr:housenumber": "960",
        "addr:postcode": "85.875-000",
        "addr:street": "Rua Venâncio Smânia",
        "addr:suburb": "Centro",
        "amenity": "school",
        "name": "Colégio Estadual Dom Manoel Konner",
        "website": "http://www.shwmanoelkonner.seed.pr.gov.br/modules/liaise/",
        "id": "node/6677768615"
      },
      "geometry": {
        "type": "Point",
        "coordinates": [
          -54.3988013,
          -25.43426
        ]
      }
    },
    {
      "type": "Feature",
      "id": "node/6691640255",
      "properties": {
        "timestamp": "2019-08-07T16:14:00Z",
        "version": 1,
        "changeset": 73119656,
        "addr:city": "Santa Terezinha de Itaipu",
        "addr:housenumber": "600",
        "addr:postcode": "85.875-000",
        "addr:street": "Rua Criciúma",
        "addr:suburb": "Centro",
        "amenity": "school",
        "name": "Escola de Educação Especial Pequeno Polegar",
        "website": "http://www.shwpequenopolegar.seed.pr.gov.br/modules/liaise/",
        "id": "node/6691640255"
      },
      "geometry": {
        "type": "Point",
        "coordinates": [
          -54.395334,
          -25.4364392
        ]
      }
    }
  ]
}
