{
  "type": "FeatureCollection",
  "features": [
    {
      "type": "Feature",
      "id": "node/9448727068",
      "properties": {
        "timestamp": "2022-01-26T01:23:13Z",
        "version": 1,
        "changeset": 116606607,
        "addr:street": "Avenida Adhemar de Barros",
        "addr:suburb": "Abernéssia",
        "government": "administrative",
        "name": "Departamento de Sistema Viário",
        "office": "government",
        "id": "node/9448727068"
      },
      "geometry": {
        "type": "Point",
        "coordinates": [
          -45.5931889,
          -22.7382305
        ]
      }
    },
    {
      "type": "Feature",
      "id": "node/9448727069",
      "properties": {
        "timestamp": "2022-01-26T01:23:13Z",
        "version": 1,
        "changeset": 116606607,
        "addr:street": "Avenida Adhemar de Barros",
        "addr:suburb": "Abernéssia",
        "government": "administrative",
        "name": "Defesa Cívil",
        "office": "government",
        "phone": "199",
        "id": "node/9448727069"
      },
      "geometry": {
        "type": "Point",
        "coordinates": [
          -45.5931511,
          -22.7382465
        ]
      }
    },
    {
      "type": "Feature",
      "id": "node/9448727070",
      "properties": {
        "timestamp": "2022-01-26T01:23:13Z",
        "version": 1,
        "changeset": 116606607,
        "addr:street": "Avenida Adhemar de Barros",
        "addr:suburb": "Abernéssia",
        "government": "administrative",
        "name": "Comando da Guarda Municipal",
        "office": "government",
        "phone": "153",
        "id": "node/9448727070"
      },
      "geometry": {
        "type": "Point",
        "coordinates": [
          -45.5932897,
          -22.7381549
        ]
      }
    }
  ]
}
