{
  "type": "FeatureCollection",
  "features": [
    {
      "type": "Feature",
      "id": "way/1126795282",
      "properties": {
        "timestamp": "2023-01-03T22:38:52Z",
        "version": 1,
        "changeset": 130845283,
        "addr:city": "Campos do Jordão",
        "addr:housenumber": "172",
        "addr:postcode": "12460-000",
        "addr:street": "Rua Altino Arantes",
        "addr:suburb": "Abernéssia",
        "amenity": "library",
        "building": "yes",
        "name": "Biblioteca Municipal Prof. Harry Mauritz Lewin",
        "opening_hours": "Mo-Fr 08:00-17:00",
        "id": "way/1126795282"
      },
      "geometry": {
        "type": "Polygon",
        "coordinates": [
          [
            [
              -45.5897411,
              -22.7393465
            ],
            [
              -45.589683,
              -22.739429
            ],
            [
              -45.5897162,
              -22.7394692
            ],
            [
              -45.5897017,
              -22.7395171
            ],
            [
              -45.5895936,
              -22.7395804
            ],
            [
              -45.5894647,
              -22.7394922
            ],
            [
              -45.5896497,
              -22.7392871
            ],
            [
              -45.5897411,
              -22.7393465
            ]
          ]
        ]
      }
    }
  ]
}
