{
  "type": "FeatureCollection",
  "features": [
    {
      "type": "Feature",
      "id": "way/449115337",
      "properties": {
        "timestamp": "2019-07-18T03:16:10Z",
        "version": 3,
        "changeset": 72370527,
        "addr:city": "Arrozal",
        "addr:postcode": "27185000",
        "addr:street": "Rua Teodora Barbosa Ribeiro",
        "addr:suburb": "Centro",
        "amenity": "veterinary",
        "building": "yes",
        "name": "Clínica Veterinária VET+",
        "opening_hours": "24/7",
        "phone": "(24) 3333-1180",
        "id": "way/449115337"
      },
      "geometry": {
        "type": "Polygon",
        "coordinates": [
          [
            [
              -44.0386934,
              -22.5980388
            ],
            [
              -44.0387106,
              -22.5982418
            ],
            [
              -44.0385913,
              -22.5982504
            ],
            [
              -44.0385742,
              -22.5980474
            ],
            [
              -44.0386934,
              -22.5980388
            ]
          ]
        ]
      }
    },
    {
      "type": "Feature",
      "id": "way/475057712",
      "properties": {
        "timestamp": "2019-07-18T03:16:10Z",
        "version": 3,
        "changeset": 72370527,
        "addr:city": "Pirai",
        "addr:postcode": "27185000",
        "addr:street": "Rua Nossa Senhora da Conceição",
        "addr:suburb": "Centro",
        "amenity": "veterinary",
        "building": "yes",
        "name": "Veterinária Arrozal",
        "opening_hours": "24/7",
        "phone": "24 3333-1841",
        "website": "https://www.facebook.com/veterinariaarrozal",
        "id": "way/475057712"
      },
      "geometry": {
        "type": "Polygon",
        "coordinates": [
          [
            [
              -44.0345858,
              -22.6001831
            ],
            [
              -44.034528,
              -22.6001752
            ],
            [
              -44.0345403,
              -22.6000983
            ],
            [
              -44.0345981,
              -22.6001062
            ],
            [
              -44.0345858,
              -22.6001831
            ]
          ]
        ]
      }
    }
  ]
}
