{
  "type": "FeatureCollection",
  "features": [
    {
      "type": "Feature",
      "id": "way/583967507",
      "properties": {
        "timestamp": "2019-07-06T16:33:01Z",
        "version": 2,
        "changeset": 71963269,
        "addr:city": "Ibiporã",
        "addr:housenumber": "432",
        "addr:postcode": "86200-000",
        "addr:street": "Rua Padre Vitoriano Valente",
        "addr:suburb": "Centro",
        "amenity": "clinic",
        "building": "yes",
        "healthcare": "clinic",
        "healthcare:speciality": "general",
        "name": "Clínica e Cirurgia Geral - Doutor Walter Hugo Barreto de Pinho Tavares",
        "id": "way/583967507"
      },
      "geometry": {
        "type": "Polygon",
        "coordinates": [
          [
            [
              -51.0488563,
              -23.2667312
            ],
            [
              -51.0489095,
              -23.2666434
            ],
            [
              -51.0490825,
              -23.2667318
            ],
            [
              -51.0490293,
              -23.2668196
            ],
            [
              -51.0488563,
              -23.2667312
            ]
          ]
        ]
      }
    },
    {
      "type": "Feature",
      "id": "way/770533308",
      "properties": {
        "timestamp": "2020-02-07T01:03:58Z",
        "version": 1,
        "changeset": 80665121,
        "addr:city": "Ibiporã",
        "addr:postcode": "86200-000",
        "addr:street": "Rua Rio de Janeiro",
        "addr:suburb": "Conjunto Habitacional Henrique Alves Pereira",
        "amenity": "clinic",
        "building": "yes",
        "healthcare": "clinic",
        "healthcare:speciality": "general",
        "name": "Unidade Basica de Saúde Doutor Antonio Carlos Gomes",
        "operator": "Prefeitura Municipal",
        "operator:type": "public",
        "id": "way/770533308"
      },
      "geometry": {
        "type": "Polygon",
        "coordinates": [
          [
            [
              -51.0598326,
              -23.2580729
            ],
            [
              -51.0598149,
              -23.2580062
            ],
            [
              -51.0598552,
              -23.2579828
            ],
            [
              -51.0598518,
              -23.257969
            ],
            [
              -51.0598056,
              -23.2579786
            ],
            [
              -51.0597598,
              -23.2577928
            ],
            [
              -51.0598754,
              -23.2577688
            ],
            [
              -51.0599228,
              -23.2579614
            ],
            [
              -51.0598672,
              -23.257973
            ],
            [
              -51.0598703,
              -23.2579832
            ],
            [
              -51.0599444,
              -23.2579665
            ],
            [
              -51.0599581,
              -23.2580182
            ],
            [
              -51.0599455,
              -23.258021
            ],
            [
              -51.0599521,
              -23.2580461
            ],
            [
              -51.0598326,
              -23.2580729
            ]
          ]
        ]
      }
    },
    {
      "type": "Feature",
      "id": "node/4491995290",
      "properties": {
        "timestamp": "2016-11-20T02:01:02Z",
        "version": 2,
        "changeset": 43813482,
        "addr:housenumber": "921",
        "addr:street": "Avenida dos Estudantes",
        "amenity": "clinic",
        "name": "Hospital Cristo Rei",
        "name:en": "Cristo Rei Hospital",
        "id": "node/4491995290"
      },
      "geometry": {
        "type": "Point",
        "coordinates": [
          -51.0553801,
          -23.2688989
        ]
      }
    },
    {
      "type": "Feature",
      "id": "node/4511507017",
      "properties": {
        "timestamp": "2022-07-29T09:56:54Z",
        "version": 3,
        "changeset": 124222753,
        "addr:city": "Ibiporã",
        "addr:housenumber": "475",
        "addr:postcode": "86200-000",
        "addr:street": "Rua Padre Vitoriano Valente",
        "addr:suburb": "Centro",
        "amenity": "clinic",
        "healthcare": "clinic",
        "name": "Centro de saúde Doutor Eugênio Dal Molin",
        "id": "node/4511507017"
      },
      "geometry": {
        "type": "Point",
        "coordinates": [
          -51.0492871,
          -23.2672512
        ]
      }
    },
    {
      "type": "Feature",
      "id": "node/4511507018",
      "properties": {
        "timestamp": "2017-01-10T18:20:14Z",
        "version": 2,
        "changeset": 45057545,
        "addr:street": "Avenida Souza Naves",
        "amenity": "clinic",
        "name": "UPA 24 horas",
        "id": "node/4511507018"
      },
      "geometry": {
        "type": "Point",
        "coordinates": [
          -51.057935,
          -23.2630111
        ]
      }
    },
    {
      "type": "Feature",
      "id": "node/4585634816",
      "properties": {
        "timestamp": "2020-03-03T12:14:18Z",
        "version": 4,
        "changeset": 81726885,
        "addr:city": "Ibiporã",
        "addr:housenumber": "82",
        "addr:postcode": "86200-000",
        "addr:street": "Rua Léa",
        "addr:suburb": "Taquara do Reino",
        "amenity": "clinic",
        "healthcare": "clinic",
        "name": "UBS - Unidade Básica de Saúde - Prefº Mauro José Pierro",
        "operator": "Prefeitura Municipal de Ibiporã",
        "id": "node/4585634816"
      },
      "geometry": {
        "type": "Point",
        "coordinates": [
          -51.0241246,
          -23.1604802
        ]
      }
    },
    {
      "type": "Feature",
      "id": "node/4955108586",
      "properties": {
        "timestamp": "2022-08-16T19:41:55Z",
        "version": 2,
        "changeset": 124988146,
        "addr:city": "Ibiporã",
        "addr:housenumber": "242",
        "addr:postcode": "86200-000",
        "addr:street": "Avenida José Bonifácio",
        "addr:suburb": "Centro",
        "amenity": "clinic",
        "healthcare": "clinic",
        "name": "Clínica Agnus Dei",
        "id": "node/4955108586"
      },
      "geometry": {
        "type": "Point",
        "coordinates": [
          -51.0450185,
          -23.2684802
        ]
      }
    },
    {
      "type": "Feature",
      "id": "node/5007498624",
      "properties": {
        "timestamp": "2022-07-29T09:56:54Z",
        "version": 3,
        "changeset": 124222753,
        "addr:city": "Ibiporâ",
        "addr:housenumber": "216",
        "addr:postcode": "86200-000",
        "addr:street": "Rua Paulo Frontin",
        "addr:suburb": "Centro",
        "amenity": "clinic",
        "healthcare": "clinic",
        "name": "Lab Imagem - Posto de coleta de Exame Laboratoriais",
        "phone": "+55 43 3158 0222",
        "id": "node/5007498624"
      },
      "geometry": {
        "type": "Point",
        "coordinates": [
          -51.0499481,
          -23.2683865
        ]
      }
    },
    {
      "type": "Feature",
      "id": "node/6593424387",
      "properties": {
        "timestamp": "2019-07-06T16:33:01Z",
        "version": 1,
        "changeset": 71963269,
        "addr:city": "Ibiporã",
        "addr:postcode": "86200-000",
        "addr:street": "Rua Padre Vitoriano Valente",
        "addr:suburb": "Centro",
        "amenity": "clinic",
        "healthcare": "clinic",
        "name": "Clínica Movimente",
        "id": "node/6593424387"
      },
      "geometry": {
        "type": "Point",
        "coordinates": [
          -51.0483797,
          -23.2664629
        ]
      }
    },
    {
      "type": "Feature",
      "id": "node/6593424388",
      "properties": {
        "timestamp": "2019-07-06T16:33:01Z",
        "version": 1,
        "changeset": 71963269,
        "addr:city": "Ibiporã",
        "addr:postcode": "86200-000",
        "addr:street": "Rua Padre Vitoriano Valente",
        "addr:suburb": "Centro",
        "amenity": "clinic",
        "healthcare": "clinic",
        "name": "Neocardio - Clínica de Cardiologia",
        "id": "node/6593424388"
      },
      "geometry": {
        "type": "Point",
        "coordinates": [
          -51.0484854,
          -23.2665077
        ]
      }
    },
    {
      "type": "Feature",
      "id": "node/6593424389",
      "properties": {
        "timestamp": "2019-07-06T16:33:01Z",
        "version": 1,
        "changeset": 71963269,
        "addr:city": "Ibiporã",
        "addr:housenumber": "450",
        "addr:postcode": "86200-000",
        "addr:street": "Rua Padre Vitoriano Valente",
        "addr:suburb": "Centro",
        "amenity": "clinic",
        "healthcare": "clinic",
        "healthcare:speciality": "ophthalmology",
        "name": "Clínica dos Olhos",
        "id": "node/6593424389"
      },
      "geometry": {
        "type": "Point",
        "coordinates": [
          -51.0490831,
          -23.2668093
        ]
      }
    },
    {
      "type": "Feature",
      "id": "node/6616428685",
      "properties": {
        "timestamp": "2019-07-15T12:24:54Z",
        "version": 1,
        "changeset": 72262795,
        "amenity": "clinic",
        "healthcare": "clinic",
        "id": "node/6616428685"
      },
      "geometry": {
        "type": "Point",
        "coordinates": [
          -51.0463252,
          -23.2688799
        ]
      }
    },
    {
      "type": "Feature",
      "id": "node/7043967695",
      "properties": {
        "timestamp": "2019-12-09T13:11:36Z",
        "version": 1,
        "changeset": 78152002,
        "addr:city": "Ibiporã",
        "addr:housenumber": "235",
        "addr:postcode": "86200-000",
        "addr:street": "Avenida Engenheiro Francisco Beltrão",
        "addr:suburb": "Centro",
        "amenity": "clinic",
        "healthcare": "clinic",
        "name": "Gastro",
        "id": "node/7043967695"
      },
      "geometry": {
        "type": "Point",
        "coordinates": [
          -51.044789,
          -23.2674783
        ]
      }
    },
    {
      "type": "Feature",
      "id": "node/7141160456",
      "properties": {
        "timestamp": "2020-01-18T14:30:48Z",
        "version": 1,
        "changeset": 79732344,
        "addr:city": "Ibiporã",
        "addr:housenumber": "2054",
        "addr:street": "Avenida dos Estudantes",
        "amenity": "clinic",
        "healthcare": "clinic",
        "healthcare:speciality": "plastic_surgery",
        "name": "Cirurgia Plástica",
        "operator": "Doutor Marcelo Takeshi Ono",
        "operator:type": "private",
        "id": "node/7141160456"
      },
      "geometry": {
        "type": "Point",
        "coordinates": [
          -51.0631349,
          -23.2723558
        ]
      }
    },
    {
      "type": "Feature",
      "id": "node/7460518284",
      "properties": {
        "timestamp": "2020-06-15T18:42:50Z",
        "version": 2,
        "changeset": 86683559,
        "amenity": "clinic",
        "name": "AMIREV - Chácara Acolhida Santo Afonso",
        "id": "node/7460518284"
      },
      "geometry": {
        "type": "Point",
        "coordinates": [
          -51.0568678,
          -23.2425981
        ]
      }
    }
  ]
}
