{
  "type": "FeatureCollection",
  "features": [
    {
      "type": "Feature",
      "id": "way/454870537",
      "properties": {
        "timestamp": "2022-01-09T14:00:03Z",
        "version": 4,
        "changeset": 115943687,
        "addr:city": "Ibiporâ",
        "addr:housenumber": "230",
        "addr:postcode": "86200-000",
        "addr:street": "Rua Paulo Frontin",
        "addr:suburb": "Centro",
        "amenity": "dentist",
        "building": "yes",
        "building:levels": "1",
        "healthcare": "dentist",
        "id": "way/454870537"
      },
      "geometry": {
        "type": "Polygon",
        "coordinates": [
          [
            [
              -51.0489522,
              -23.2694649
            ],
            [
              -51.0489041,
              -23.2694392
            ],
            [
              -51.0489164,
              -23.2694198
            ],
            [
              -51.0488602,
              -23.2693899
            ],
            [
              -51.0488979,
              -23.2693304
            ],
            [
              -51.0490021,
              -23.269386
            ],
            [
              -51.0489522,
              -23.2694649
            ]
          ]
        ]
      }
    },
    {
      "type": "Feature",
      "id": "node/4824488626",
      "properties": {
        "timestamp": "2022-07-29T23:34:24Z",
        "version": 5,
        "changeset": 124250982,
        "addr:city": "Ibiporã",
        "addr:housenumber": "332",
        "addr:postcode": "86200-000",
        "addr:street": "Avenida Dom Pedro II",
        "addr:suburb": "Centro",
        "amenity": "dentist",
        "healthcare": "dentist",
        "name": "Cardiodonto",
        "phone": "+55 43 3258 5552",
        "id": "node/4824488626"
      },
      "geometry": {
        "type": "Point",
        "coordinates": [
          -51.0471931,
          -23.267633
        ]
      }
    },
    {
      "type": "Feature",
      "id": "node/6440496201",
      "properties": {
        "timestamp": "2022-07-29T23:34:24Z",
        "version": 3,
        "changeset": 124250982,
        "addr:city": "Ibiporâ",
        "addr:housenumber": "306",
        "addr:postcode": "86200-000",
        "addr:street": "Rua Xavier da Silva",
        "addr:suburb": "Centro",
        "amenity": "dentist",
        "healthcare": "dentist",
        "name": "Consultório Odontológico Drº Rubis Pomini",
        "phone": "+55 43 3258 3399",
        "id": "node/6440496201"
      },
      "geometry": {
        "type": "Point",
        "coordinates": [
          -51.0533164,
          -23.2694117
        ]
      }
    },
    {
      "type": "Feature",
      "id": "node/6616428784",
      "properties": {
        "timestamp": "2019-07-15T12:24:54Z",
        "version": 1,
        "changeset": 72262795,
        "addr:city": "Ibiporã",
        "addr:housenumber": "126",
        "addr:postcode": "86280-000",
        "addr:street": "Avenida Engenheiro Francisco Beltrão",
        "addr:suburb": "Centro",
        "amenity": "dentist",
        "healthcare": "dentist",
        "name": "Consultório Odontológico Evangelista",
        "id": "node/6616428784"
      },
      "geometry": {
        "type": "Point",
        "coordinates": [
          -51.045546,
          -23.2682707
        ]
      }
    },
    {
      "type": "Feature",
      "id": "node/7044064603",
      "properties": {
        "timestamp": "2020-05-18T19:19:26Z",
        "version": 2,
        "changeset": 85400028,
        "addr:housenumber": "235",
        "amenity": "dentist",
        "healthcare": "dentist",
        "id": "node/7044064603"
      },
      "geometry": {
        "type": "Point",
        "coordinates": [
          -51.0492696,
          -23.270124
        ]
      }
    },
    {
      "type": "Feature",
      "id": "node/11144274141",
      "properties": {
        "timestamp": "2023-08-25T15:39:57Z",
        "version": 1,
        "changeset": 140378651,
        "addr:city": "Ibiporã",
        "addr:housenumber": "316",
        "addr:postcode": "86200-000",
        "addr:street": "Avenida Dom Pedro II",
        "addr:suburb": "Centro",
        "amenity": "dentist",
        "healthcare": "dentist",
        "healthcare:speciality": "dentist",
        "name": "Odontosan - Tratamentos Odontológicos",
        "opening_hours": "Mo-Fr 08:00-20:00",
        "phone": "+55 43 3258-6532",
        "id": "node/11144274141"
      },
      "geometry": {
        "type": "Point",
        "coordinates": [
          -51.0471638,
          -23.2677548
        ]
      }
    }
  ]
}
