{
  "type": "FeatureCollection",
  "features": [
    {
      "type": "Feature",
      "id": "way/764395278",
      "properties": {
        "timestamp": "2020-01-18T14:30:48Z",
        "version": 1,
        "changeset": 79732344,
        "addr:city": "Ibiporã",
        "addr:housenumber": "2220",
        "addr:postcode": "86280-000",
        "addr:street": "Avenida dos Estudantes",
        "addr:suburb": "Parque Residencial Itamarati",
        "building": "yes",
        "building:levels": "1",
        "government": "register_office",
        "name": "Ofício de Registro de Imóveis",
        "office": "government",
        "id": "way/764395278"
      },
      "geometry": {
        "type": "Polygon",
        "coordinates": [
          [
            [
              -51.0649775,
              -23.273335
            ],
            [
              -51.0648932,
              -23.2732928
            ],
            [
              -51.064982,
              -23.273143
            ],
            [
              -51.0650663,
              -23.2731852
            ],
            [
              -51.0649775,
              -23.273335
            ]
          ]
        ]
      }
    },
    {
      "type": "Feature",
      "id": "node/4523439621",
      "properties": {
        "timestamp": "2016-11-26T15:07:27Z",
        "version": 1,
        "changeset": 43965277,
        "addr:city": "Ibiporã",
        "addr:postcode": "86200-000",
        "addr:street": "Avenida Parana",
        "addr:suburb": "Jardim Bom Pastor",
        "name": "7º D.E.R",
        "office": "government",
        "id": "node/4523439621"
      },
      "geometry": {
        "type": "Point",
        "coordinates": [
          -51.0320104,
          -23.2635116
        ]
      }
    },
    {
      "type": "Feature",
      "id": "node/5200147797",
      "properties": {
        "timestamp": "2024-10-05T13:35:27Z",
        "version": 2,
        "changeset": 157501518,
        "addr:city": "Ibiporã",
        "addr:housenumber": "km 45",
        "addr:postcode": "86200-000",
        "addr:street": "Rodovia BR-369",
        "addr:suburb": "Zona rural",
        "name": "IAP - Instituto Ambiental do Paraná",
        "office": "government",
        "id": "node/5200147797"
      },
      "geometry": {
        "type": "Point",
        "coordinates": [
          -51.0227386,
          -23.2622898
        ]
      }
    }
  ]
}
