{
  "type": "FeatureCollection",
  "features": [
    {
      "type": "Feature",
      "id": "way/454870616",
      "properties": {
        "timestamp": "2021-06-13T16:22:03Z",
        "version": 4,
        "changeset": 106289239,
        "amenity": "library",
        "building": "yes",
        "building:levels": "1",
        "id": "way/454870616"
      },
      "geometry": {
        "type": "Polygon",
        "coordinates": [
          [
            [
              -51.0465988,
              -23.2670376
            ],
            [
              -51.0464822,
              -23.2669835
            ],
            [
              -51.04653,
              -23.2669014
            ],
            [
              -51.0463289,
              -23.2668009
            ],
            [
              -51.0464021,
              -23.2666749
            ],
            [
              -51.0465623,
              -23.2667556
            ],
            [
              -51.04657,
              -23.2667443
            ],
            [
              -51.0467302,
              -23.2668264
            ],
            [
              -51.0466455,
              -23.2669806
            ],
            [
              -51.0466347,
              -23.266975
            ],
            [
              -51.0465988,
              -23.2670376
            ]
          ]
        ]
      }
    },
    {
      "type": "Feature",
      "id": "node/5216078572",
      "properties": {
        "timestamp": "2022-08-17T11:55:04Z",
        "version": 6,
        "changeset": 125014408,
        "addr:city": "Ibiporã",
        "addr:housenumber": "250",
        "addr:postcode": "86200-000",
        "addr:street": "Rua Iguaçu",
        "amenity": "library",
        "name": "Biblioteca Cidadã Zilda Arns",
        "opening_hours": "Mo-Fr 08:00-17:00",
        "operator": "Prefeitura Municipal de Ibiporã",
        "phone": "+55 43 3178 0215",
        "website": "https://culturaeturismo.ibipora.pr.gov.br/biblioteca/mostrar",
        "id": "node/5216078572"
      },
      "geometry": {
        "type": "Point",
        "coordinates": [
          -51.0422089,
          -23.2749749
        ]
      }
    },
    {
      "type": "Feature",
      "id": "node/6610644167",
      "properties": {
        "timestamp": "2019-07-12T18:33:46Z",
        "version": 1,
        "changeset": 72193866,
        "addr:city": "Ibiporã",
        "addr:housenumber": "950",
        "addr:postcode": "86200-000",
        "addr:street": "Rua Dezenove de Dezembro",
        "addr:suburb": "Las Vegas",
        "amenity": "library",
        "name": "Biblioteca Indústria do Conhecimento",
        "id": "node/6610644167"
      },
      "geometry": {
        "type": "Point",
        "coordinates": [
          -51.0506408,
          -23.2626101
        ]
      }
    },
    {
      "type": "Feature",
      "id": "node/8829795355",
      "properties": {
        "timestamp": "2021-06-13T16:22:03Z",
        "version": 1,
        "changeset": 106289239,
        "addr:city": "Ibiporã",
        "addr:state": "Paraná",
        "amenity": "library",
        "name": "Biblioteca Pública Municipal",
        "postal_code": "86200-000",
        "id": "node/8829795355"
      },
      "geometry": {
        "type": "Point",
        "coordinates": [
          -51.0465542,
          -23.2668226
        ]
      }
    }
  ]
}
