{
  "type": "FeatureCollection",
  "features": [
    {
      "type": "Feature",
      "id": "way/455737751",
      "properties": {
        "timestamp": "2020-07-04T16:54:00Z",
        "version": 3,
        "changeset": 87536279,
        "addr:city": "Ibiporã",
        "addr:housenumber": "277",
        "addr:postcode": "86200-000",
        "addr:street": "Avenida Paraná",
        "addr:suburb": "Centro",
        "amenity": "pharmacy",
        "atm": "yes",
        "building": "yes",
        "dispensing": "yes",
        "healthcare": "pharmacy",
        "name": "Farmácia Nissei",
        "id": "way/455737751"
      },
      "geometry": {
        "type": "Polygon",
        "coordinates": [
          [
            [
              -51.0445625,
              -23.2693316
            ],
            [
              -51.0445244,
              -23.2693719
            ],
            [
              -51.0444483,
              -23.2693761
            ],
            [
              -51.0444199,
              -23.2692357
            ],
            [
              -51.0444224,
              -23.2691994
            ],
            [
              -51.044489,
              -23.2691145
            ],
            [
              -51.04466,
              -23.2692259
            ],
            [
              -51.0445625,
              -23.2693316
            ]
          ]
        ]
      }
    },
    {
      "type": "Feature",
      "id": "node/4511391189",
      "properties": {
        "timestamp": "2020-08-23T18:08:25Z",
        "version": 2,
        "changeset": 89817486,
        "addr:street": "Avenida Paraná",
        "amenity": "pharmacy",
        "healthcare": "pharmacy",
        "name": "Drogamais",
        "id": "node/4511391189"
      },
      "geometry": {
        "type": "Point",
        "coordinates": [
          -51.0457133,
          -23.2691254
        ]
      }
    },
    {
      "type": "Feature",
      "id": "node/4511391190",
      "properties": {
        "timestamp": "2020-08-23T18:19:46Z",
        "version": 4,
        "changeset": 89817782,
        "addr:city": "Ibiporâ",
        "addr:postcode": "86200-000",
        "addr:street": "Rua Dezenove de Dezembro",
        "addr:suburb": "Centro",
        "amenity": "pharmacy",
        "healthcare": "pharmacy",
        "name": "Farmacias DrogaMais",
        "id": "node/4511391190"
      },
      "geometry": {
        "type": "Point",
        "coordinates": [
          -51.0481564,
          -23.2689483
        ]
      }
    },
    {
      "type": "Feature",
      "id": "node/4511391191",
      "properties": {
        "timestamp": "2020-01-14T23:16:49Z",
        "version": 2,
        "changeset": 79585580,
        "addr:city": "Ibiporâ",
        "addr:postcode": "86200-000",
        "addr:street": "Avenida Santos Dumont",
        "addr:suburb": "Centro",
        "amenity": "pharmacy",
        "name": "Farmácia Popular",
        "id": "node/4511391191"
      },
      "geometry": {
        "type": "Point",
        "coordinates": [
          -51.0484354,
          -23.2697109
        ]
      }
    },
    {
      "type": "Feature",
      "id": "node/4511391192",
      "properties": {
        "timestamp": "2016-11-20T01:18:43Z",
        "version": 1,
        "changeset": 43813185,
        "amenity": "pharmacy",
        "name": "Farmácia Vale Verde",
        "id": "node/4511391192"
      },
      "geometry": {
        "type": "Point",
        "coordinates": [
          -51.049514,
          -23.270249
        ]
      }
    },
    {
      "type": "Feature",
      "id": "node/4511391193",
      "properties": {
        "timestamp": "2022-07-29T10:00:28Z",
        "version": 4,
        "changeset": 124222976,
        "addr:city": "Ibiporâ",
        "addr:housenumber": "345",
        "addr:postcode": "86200-000",
        "addr:street": "Avenida Santos Dumont",
        "addr:suburb": "Centro",
        "amenity": "pharmacy",
        "dispensing": "yes",
        "drive_through": "no",
        "healthcare": "pharmacy",
        "name": "Farmatotal",
        "phone": "+55 42 3258 4503",
        "id": "node/4511391193"
      },
      "geometry": {
        "type": "Point",
        "coordinates": [
          -51.050243,
          -23.2706185
        ]
      }
    },
    {
      "type": "Feature",
      "id": "node/4511391195",
      "properties": {
        "timestamp": "2020-02-20T23:01:20Z",
        "version": 4,
        "changeset": 81293292,
        "addr:city": "Ibiporã",
        "addr:postcode": "86280-000",
        "addr:street": "Rua Dezenove de Dezembro",
        "addr:suburb": "Centro",
        "amenity": "pharmacy",
        "name": "Farmácia Drogamais",
        "id": "node/4511391195"
      },
      "geometry": {
        "type": "Point",
        "coordinates": [
          -51.0508731,
          -23.2644351
        ]
      }
    },
    {
      "type": "Feature",
      "id": "node/4511391196",
      "properties": {
        "timestamp": "2022-07-29T09:56:54Z",
        "version": 2,
        "changeset": 124222753,
        "addr:street": "Avenida Senador Souza Naves",
        "amenity": "pharmacy",
        "healthcare": "pharmacy",
        "name": "Farmácia Santa Maria",
        "id": "node/4511391196"
      },
      "geometry": {
        "type": "Point",
        "coordinates": [
          -51.0492618,
          -23.2688642
        ]
      }
    },
    {
      "type": "Feature",
      "id": "node/4511391197",
      "properties": {
        "timestamp": "2022-07-29T09:56:54Z",
        "version": 4,
        "changeset": 124222753,
        "addr:city": "Ibiporâ",
        "addr:housenumber": "608",
        "addr:postcode": "86200-000",
        "addr:street": "Rua Primeiro de Maio",
        "addr:suburb": "Centro",
        "amenity": "pharmacy",
        "healthcare": "pharmacy",
        "name": "Mauri Farma",
        "id": "node/4511391197"
      },
      "geometry": {
        "type": "Point",
        "coordinates": [
          -51.0498444,
          -23.2686671
        ]
      }
    },
    {
      "type": "Feature",
      "id": "node/4511391198",
      "properties": {
        "timestamp": "2016-11-20T01:18:44Z",
        "version": 1,
        "changeset": 43813185,
        "amenity": "pharmacy",
        "id": "node/4511391198"
      },
      "geometry": {
        "type": "Point",
        "coordinates": [
          -51.0522015,
          -23.2678071
        ]
      }
    },
    {
      "type": "Feature",
      "id": "node/4600173814",
      "properties": {
        "timestamp": "2022-08-16T19:41:55Z",
        "version": 3,
        "changeset": 124988146,
        "addr:city": "Ibiporã",
        "addr:postcode": "86200-000",
        "addr:street": "Avenida Paraná",
        "addr:suburb": "Centro",
        "amenity": "pharmacy",
        "healthcare": "pharmacy",
        "name": "Farmácia Nossa Senhora Aparecida",
        "id": "node/4600173814"
      },
      "geometry": {
        "type": "Point",
        "coordinates": [
          -51.0447388,
          -23.2695156
        ]
      }
    },
    {
      "type": "Feature",
      "id": "node/4813478445",
      "properties": {
        "timestamp": "2020-08-23T18:18:42Z",
        "version": 2,
        "changeset": 89817746,
        "addr:city": "Ibiporâ",
        "addr:housenumber": "210 B",
        "addr:postcode": "86200-000",
        "addr:street": "Avenida Santos Dumont",
        "addr:suburb": "Centro",
        "amenity": "pharmacy",
        "healthcare": "pharmacy",
        "name": "Farmacia Nissei",
        "id": "node/4813478445"
      },
      "geometry": {
        "type": "Point",
        "coordinates": [
          -51.0490886,
          -23.269717
        ]
      }
    },
    {
      "type": "Feature",
      "id": "node/4813478457",
      "properties": {
        "timestamp": "2017-04-24T12:54:22Z",
        "version": 1,
        "changeset": 48090326,
        "addr:city": "Ibiporã",
        "addr:postcode": "86200-000",
        "addr:street": "Avenida Paraná",
        "addr:suburb": "Centro",
        "amenity": "pharmacy",
        "name": "Farmacia Vale Verde",
        "id": "node/4813478457"
      },
      "geometry": {
        "type": "Point",
        "coordinates": [
          -51.0434468,
          -23.2697401
        ]
      }
    },
    {
      "type": "Feature",
      "id": "node/4813510628",
      "properties": {
        "timestamp": "2017-04-24T13:12:56Z",
        "version": 1,
        "changeset": 48090908,
        "amenity": "pharmacy",
        "id": "node/4813510628"
      },
      "geometry": {
        "type": "Point",
        "coordinates": [
          -51.0521035,
          -23.2713045
        ]
      }
    },
    {
      "type": "Feature",
      "id": "node/5185965474",
      "properties": {
        "timestamp": "2019-02-12T20:48:00Z",
        "version": 2,
        "changeset": 67143690,
        "addr:city": "Ibiporã",
        "addr:housenumber": "475",
        "addr:postcode": "86200-000",
        "addr:street": "Rua Padre Vitoriano Valente",
        "addr:suburb": "Centro",
        "amenity": "pharmacy",
        "drive_through": "no",
        "healthcare": "pharmacy",
        "name": "Farmácia Municipal",
        "opening_hours": "Mo-Fr 08:00-19:00",
        "id": "node/5185965474"
      },
      "geometry": {
        "type": "Point",
        "coordinates": [
          -51.0494264,
          -23.2673095
        ]
      }
    },
    {
      "type": "Feature",
      "id": "node/5672802368",
      "properties": {
        "timestamp": "2022-07-29T23:34:24Z",
        "version": 3,
        "changeset": 124250982,
        "addr:city": "Ibiporã",
        "addr:housenumber": "300",
        "addr:postcode": "86280-000",
        "addr:street": "Rua Ronat Walter Sodré",
        "addr:suburb": "Parque Industrial Castelo Branco",
        "amenity": "pharmacy",
        "dispensing": "yes",
        "healthcare": "pharmacy",
        "name": "Drogamais",
        "opening_hours": "Mo-Sa 09:00-22:00",
        "phone": "+55 43 3158 5898",
        "id": "node/5672802368"
      },
      "geometry": {
        "type": "Point",
        "coordinates": [
          -51.0599433,
          -23.2746336
        ]
      }
    },
    {
      "type": "Feature",
      "id": "node/5760854754",
      "properties": {
        "timestamp": "2018-07-14T23:06:58Z",
        "version": 1,
        "changeset": 60722283,
        "addr:city": "Ibiporâ",
        "addr:housenumber": "166",
        "addr:postcode": "86200-000",
        "addr:street": "Avenida Santos Dumont",
        "addr:suburb": "Centro",
        "amenity": "pharmacy",
        "dispensing": "yes",
        "healthcare": "pharmacy",
        "name": "Drgarias - Ultra Popular",
        "id": "node/5760854754"
      },
      "geometry": {
        "type": "Point",
        "coordinates": [
          -51.0484636,
          -23.2694324
        ]
      }
    },
    {
      "type": "Feature",
      "id": "node/6589582337",
      "properties": {
        "timestamp": "2022-07-29T10:00:28Z",
        "version": 3,
        "changeset": 124222976,
        "addr:city": "Ibiporâ",
        "addr:door": "Sala 2",
        "addr:housenumber": "329",
        "addr:postcode": "86200-000",
        "addr:street": "Avenida Santos Dumont",
        "addr:suburb": "Centro",
        "amenity": "pharmacy",
        "dispensing": "yes",
        "drive_through": "no",
        "healthcare": "pharmacy",
        "name": "Biogeo - Farmácia de Manipulação",
        "opening_hours": "Mo-Sa 08:00-18:00",
        "phone": "+55 43 3258 7105",
        "id": "node/6589582337"
      },
      "geometry": {
        "type": "Point",
        "coordinates": [
          -51.0501366,
          -23.2705659
        ]
      }
    },
    {
      "type": "Feature",
      "id": "node/7177258249",
      "properties": {
        "timestamp": "2020-02-01T14:02:51Z",
        "version": 1,
        "changeset": 80410692,
        "addr:city": "Ibiporâ",
        "addr:housenumber": "515",
        "addr:postcode": "86200-000",
        "addr:street": "Avenida Santos Dumont",
        "addr:suburb": "Centro",
        "amenity": "pharmacy",
        "brand": "Droga Raia",
        "brand:wikidata": "Q10357101",
        "brand:wikipedia": "pt:RaiaDrogasil",
        "dispensing": "yes",
        "healthcare": "pharmacy",
        "name": "Droga Raia",
        "id": "node/7177258249"
      },
      "geometry": {
        "type": "Point",
        "coordinates": [
          -51.0517702,
          -23.2714045
        ]
      }
    }
  ]
}
