{
  "type": "FeatureCollection",
  "features": [
    {
      "type": "Feature",
      "id": "node/4569324485",
      "properties": {
        "timestamp": "2016-12-23T20:21:27Z",
        "version": 1,
        "changeset": 44632723,
        "amenity": "school",
        "name": "Escola Municipal José Bento Bruzzi",
        "source:name": "IBGE",
        "id": "node/4569324485"
      },
      "geometry": {
        "type": "Point",
        "coordinates": [
          -42.9260099,
          -19.0575499
        ]
      }
    },
    {
      "type": "Feature",
      "id": "node/10078160494",
      "properties": {
        "timestamp": "2022-10-05T18:14:28Z",
        "version": 1,
        "changeset": 127061105,
        "addr:city": "Dores de Guanhães",
        "addr:postcode": "35894-000",
        "addr:state": "Minas Gerais",
        "addr:suburb": "Macaquinho",
        "amenity": "school",
        "name": "Escola Municipal Benedito de Castro",
        "operator": "Município de Dores de Guanhães",
        "id": "node/10078160494"
      },
      "geometry": {
        "type": "Point",
        "coordinates": [
          -42.8087398,
          -19.1154364
        ]
      }
    }
  ]
}
