{
  "type": "FeatureCollection",
  "features": [
    {
      "type": "Feature",
      "id": "way/1166269202",
      "properties": {
        "timestamp": "2023-04-28T02:01:36Z",
        "version": 1,
        "changeset": 135448229,
        "addr:city": "Barra do Quaraí",
        "addr:country": "BR",
        "addr:housenumber": "246",
        "addr:postcode": "97538-000",
        "addr:street": "Rua Francisca Godoy Rolim",
        "addr:suburb": "Centro",
        "amenity": "school",
        "name": "EEEM Nilza Corrêa Pereira",
        "operator": "Estado do Rio Grande do Sul",
        "phone": "+55 (55) 3419-1187",
        "id": "way/1166269202"
      },
      "geometry": {
        "type": "Polygon",
        "coordinates": [
          [
            [
              -57.549879,
              -30.20568
            ],
            [
              -57.5490475,
              -30.2055838
            ],
            [
              -57.5494351,
              -30.2047123
            ],
            [
              -57.5504141,
              -30.2051144
            ],
            [
              -57.549879,
              -30.20568
            ]
          ]
        ]
      }
    },
    {
      "type": "Feature",
      "id": "way/1166269204",
      "properties": {
        "timestamp": "2023-04-28T02:01:36Z",
        "version": 1,
        "changeset": 135448229,
        "addr:city": "Barra do Quaraí",
        "addr:country": "BR",
        "addr:housenumber": "546",
        "addr:postcode": "97538-000",
        "addr:street": "Rua General Neto",
        "addr:suburb": "Centro",
        "alt_name": "EMEF Vinte e Dois de Outubro",
        "amenity": "school",
        "name": "EMEF 22 De Outubro",
        "official_name": "Escola Municipal de Ensino Fundamental 22 de Outubro",
        "operator": "Prefeitura Municipal de Barra do Quaraí",
        "phone": "+55 (55) 3419-1008",
        "id": "way/1166269204"
      },
      "geometry": {
        "type": "Polygon",
        "coordinates": [
          [
            [
              -57.5484188,
              -30.2106066
            ],
            [
              -57.5480855,
              -30.2114318
            ],
            [
              -57.5472072,
              -30.211167
            ],
            [
              -57.5475404,
              -30.2103417
            ],
            [
              -57.5484188,
              -30.2106066
            ]
          ]
        ]
      }
    }
  ]
}
