{
  "type": "FeatureCollection",
  "features": [
    {
      "type": "Feature",
      "id": "node/8551547410",
      "properties": {
        "timestamp": "2021-03-22T20:50:32Z",
        "version": 1,
        "changeset": 101528751,
        "addr:city": "Colatina",
        "addr:housenumber": "05",
        "addr:postcode": "29700-012",
        "addr:street": "Praça Ademar Távora",
        "addr:suburb": "Centro",
        "amenity": "dentist",
        "healthcare": "dentist",
        "name": "Dra Daniele Ribon Galazi",
        "opening_hours": "Mo-Fr 09:00-17:00",
        "id": "node/8551547410"
      },
      "geometry": {
        "type": "Point",
        "coordinates": [
          -40.6317897,
          -19.5375008
        ]
      }
    },
    {
      "type": "Feature",
      "id": "node/8551547411",
      "properties": {
        "timestamp": "2021-03-22T20:50:32Z",
        "version": 1,
        "changeset": 101528751,
        "addr:city": "Colatina",
        "addr:housenumber": "05",
        "addr:postcode": "29700-012",
        "addr:street": "Praça Ademar Távora",
        "addr:suburb": "Centro",
        "amenity": "dentist",
        "healthcare": "dentist",
        "name": "Dr Fernando Schimidt",
        "opening_hours": "Mo-Fr 09:00-17:00",
        "id": "node/8551547411"
      },
      "geometry": {
        "type": "Point",
        "coordinates": [
          -40.6317535,
          -19.53747
        ]
      }
    },
    {
      "type": "Feature",
      "id": "node/8551547412",
      "properties": {
        "timestamp": "2021-03-22T20:50:32Z",
        "version": 1,
        "changeset": 101528751,
        "addr:city": "Colatina",
        "addr:housenumber": "05",
        "addr:postcode": "29700-012",
        "addr:street": "Praça Ademar Távora",
        "addr:suburb": "Centro",
        "amenity": "dentist",
        "healthcare": "dentist",
        "name": "Dr Luciano Barcellos Belizario",
        "opening_hours": "Mo-Fr 09:00-17:00",
        "id": "node/8551547412"
      },
      "geometry": {
        "type": "Point",
        "coordinates": [
          -40.6317488,
          -19.5375228
        ]
      }
    }
  ]
}
