{
  "type": "FeatureCollection",
  "features": [
    {
      "type": "Feature",
      "id": "way/654797897",
      "properties": {
        "timestamp": "2022-01-19T15:15:51Z",
        "version": 2,
        "changeset": 116346701,
        "addr:city": "Colatina",
        "addr:postcode": "29702-080",
        "addr:street": "Rua Aroldo Antolini",
        "addr:suburb": "Vila Nova",
        "building": "public",
        "building:levels": "4",
        "government": "public_service",
        "name": "Agência da Previdência Social Colatina",
        "office": "government",
        "id": "way/654797897"
      },
      "geometry": {
        "type": "Polygon",
        "coordinates": [
          [
            [
              -40.6345419,
              -19.538735
            ],
            [
              -40.6345349,
              -19.5389399
            ],
            [
              -40.6344232,
              -19.5389365
            ],
            [
              -40.6343005,
              -19.5389328
            ],
            [
              -40.6341214,
              -19.5389273
            ],
            [
              -40.6341284,
              -19.5387218
            ],
            [
              -40.6342697,
              -19.5387261
            ],
            [
              -40.6342677,
              -19.538786
            ],
            [
              -40.6343678,
              -19.538789
            ],
            [
              -40.6343698,
              -19.5387298
            ],
            [
              -40.6345419,
              -19.538735
            ]
          ]
        ]
      }
    },
    {
      "type": "Feature",
      "id": "node/6135760308",
      "properties": {
        "timestamp": "2022-01-21T21:36:25Z",
        "version": 2,
        "changeset": 116448655,
        "addr:city": "Colatina",
        "addr:housenumber": "273",
        "addr:postcode": "29702-060",
        "addr:street": "Avenida Ângelo Giuberti",
        "addr:suburb": "Esplanada",
        "government": "administrative",
        "name": "Agência da Receita Federal",
        "office": "government",
        "id": "node/6135760308"
      },
      "geometry": {
        "type": "Point",
        "coordinates": [
          -40.6337701,
          -19.5378304
        ]
      }
    },
    {
      "type": "Feature",
      "id": "node/6470495103",
      "properties": {
        "timestamp": "2019-05-13T16:42:48Z",
        "version": 1,
        "changeset": 70200860,
        "government": "administrative",
        "name": "Câmara Municipal",
        "office": "government",
        "id": "node/6470495103"
      },
      "geometry": {
        "type": "Point",
        "coordinates": [
          -40.6283051,
          -19.5347262
        ]
      }
    },
    {
      "type": "Feature",
      "id": "node/6470495105",
      "properties": {
        "timestamp": "2019-05-13T16:42:48Z",
        "version": 1,
        "changeset": 70200860,
        "government": "ministry",
        "name": "Ministério do Trabalho",
        "office": "government",
        "id": "node/6470495105"
      },
      "geometry": {
        "type": "Point",
        "coordinates": [
          -40.6282488,
          -19.5353455
        ]
      }
    },
    {
      "type": "Feature",
      "id": "node/9431062939",
      "properties": {
        "timestamp": "2022-01-19T14:04:56Z",
        "version": 1,
        "changeset": 116344239,
        "addr:city": "Colatina",
        "addr:housenumber": "151",
        "addr:postcode": "29700-012",
        "addr:street": "Rua Moacyr Avidos",
        "addr:suburb": "Centro",
        "government": "prosecutor",
        "name": "Ministério Público do Estado do Espírito Santo",
        "office": "government",
        "id": "node/9431062939"
      },
      "geometry": {
        "type": "Point",
        "coordinates": [
          -40.6322231,
          -19.538234
        ]
      }
    },
    {
      "type": "Feature",
      "id": "node/9433801958",
      "properties": {
        "timestamp": "2022-01-20T14:21:51Z",
        "version": 1,
        "changeset": 116387969,
        "addr:city": "Colatina",
        "addr:postcode": "29703-010",
        "addr:street": "Avenida Brasil",
        "addr:suburb": "Lacê",
        "government": "prosecutor",
        "name": "Procuradoria da República Subseção Colatina",
        "office": "government",
        "id": "node/9433801958"
      },
      "geometry": {
        "type": "Point",
        "coordinates": [
          -40.6310978,
          -19.526635
        ]
      }
    },
    {
      "type": "Feature",
      "id": "node/9438126627",
      "properties": {
        "timestamp": "2022-01-21T21:36:25Z",
        "version": 1,
        "changeset": 116448655,
        "addr:city": "Colatina",
        "addr:housenumber": "80",
        "addr:postcode": "29702-060",
        "addr:street": "Rua Bartovino Costa",
        "addr:suburb": "Vila Nova",
        "email": "arecolatina@sefaz.es.gov.br",
        "government": "administrative",
        "name": "Agência da Receita Estadual - Sefaz",
        "office": "government",
        "phone": "+55 27 3723 0514",
        "phone1": "+55 27 3723 0510",
        "phone2": "+55 27 3723 0511",
        "id": "node/9438126627"
      },
      "geometry": {
        "type": "Point",
        "coordinates": [
          -40.6320303,
          -19.5384493
        ]
      }
    },
    {
      "type": "Feature",
      "id": "node/9966234156",
      "properties": {
        "timestamp": "2022-08-20T15:40:27Z",
        "version": 1,
        "changeset": 125152848,
        "name": "COBE",
        "office": "government",
        "id": "node/9966234156"
      },
      "geometry": {
        "type": "Point",
        "coordinates": [
          -40.6311549,
          -19.5369052
        ]
      }
    }
  ]
}
