{
  "type": "FeatureCollection",
  "features": [
    {
      "type": "Feature",
      "id": "node/3919743562",
      "properties": {
        "timestamp": "2024-04-29T06:38:19Z",
        "version": 3,
        "changeset": 150646765,
        "IJSN:administra": "Municipal",
        "IJSN:classeCnae": "Infantil",
        "addr:city": "Colatina",
        "addr:housenumber": "4",
        "addr:postcode": "29702-200;29702170",
        "addr:street": "Rua Professor Aloísio Barros Leal;Rua Bruno Ceotto",
        "addr:suburb": "Maria Ismênia",
        "alt_name": "Creche Municipal",
        "amenity": "kindergarten",
        "contact:phone": "(27) 3721-8071",
        "name": "Creche Municipal Sagrada Família",
        "name:pt": "Casa da Dona Neide",
        "short_name": "CM",
        "source": "IJSN",
        "tourism": "guest_house",
        "id": "node/3919743562"
      },
      "geometry": {
        "type": "Point",
        "coordinates": [
          -40.6340513,
          -19.5423831
        ]
      }
    }
  ]
}
