{
  "type": "FeatureCollection",
  "features": [
    {
      "type": "Feature",
      "id": "node/2411051560",
      "properties": {
        "timestamp": "2013-08-08T12:47:48Z",
        "version": 1,
        "changeset": 17266457,
        "name": "Colatina Hotel",
        "tourism": "hotel",
        "id": "node/2411051560"
      },
      "geometry": {
        "type": "Point",
        "coordinates": [
          -40.6277271,
          -19.5337455
        ]
      }
    },
    {
      "type": "Feature",
      "id": "node/2411058527",
      "properties": {
        "timestamp": "2022-01-19T11:00:11Z",
        "version": 2,
        "changeset": 116336665,
        "addr:city": "Colatina",
        "addr:housenumber": "158",
        "addr:postcode": "29700-550",
        "addr:street": "Avenida das Nações",
        "addr:suburb": "Colatina Velha",
        "name": "Arco Hotel",
        "tourism": "hotel",
        "id": "node/2411058527"
      },
      "geometry": {
        "type": "Point",
        "coordinates": [
          -40.6231722,
          -19.532311
        ]
      }
    },
    {
      "type": "Feature",
      "id": "node/6470485859",
      "properties": {
        "timestamp": "2022-01-19T11:00:11Z",
        "version": 2,
        "changeset": 116336665,
        "addr:city": "Colatina",
        "addr:housenumber": "1524",
        "addr:postcode": "29712-412",
        "addr:street": "Rua Pedro Epichin",
        "addr:suburb": "Benjamim Carlos dos Santos",
        "brand": "Ibis",
        "brand:wikidata": "Q920166",
        "brand:wikipedia": "en:Ibis (hotel)",
        "name": "Ibis Hotel",
        "phone": "+55 27 2102 6102",
        "tourism": "hotel",
        "id": "node/6470485859"
      },
      "geometry": {
        "type": "Point",
        "coordinates": [
          -40.6153607,
          -19.5229689
        ]
      }
    },
    {
      "type": "Feature",
      "id": "node/6470485860",
      "properties": {
        "timestamp": "2022-01-19T11:00:11Z",
        "version": 2,
        "changeset": 116336665,
        "addr:city": "Colatina",
        "addr:housenumber": "19",
        "addr:postcode": "29700-550",
        "addr:street": "Rua Pedro Epichin",
        "addr:suburb": "Centro",
        "name": "Hotel Plenotel",
        "phone": "+55 27 3722 3355",
        "tourism": "hotel",
        "id": "node/6470485860"
      },
      "geometry": {
        "type": "Point",
        "coordinates": [
          -40.6254051,
          -19.5329407
        ]
      }
    },
    {
      "type": "Feature",
      "id": "node/6470485862",
      "properties": {
        "timestamp": "2019-05-13T16:42:46Z",
        "version": 1,
        "changeset": 70200860,
        "name": "Ágil Hotel",
        "tourism": "hotel",
        "id": "node/6470485862"
      },
      "geometry": {
        "type": "Point",
        "coordinates": [
          -40.6267065,
          -19.5327368
        ]
      }
    },
    {
      "type": "Feature",
      "id": "node/6470495094",
      "properties": {
        "timestamp": "2020-10-23T19:23:13Z",
        "version": 2,
        "changeset": 92967506,
        "name": "Hotel São Miguel",
        "tourism": "hotel",
        "id": "node/6470495094"
      },
      "geometry": {
        "type": "Point",
        "coordinates": [
          -40.6355229,
          -19.5412201
        ]
      }
    },
    {
      "type": "Feature",
      "id": "node/9430656913",
      "properties": {
        "timestamp": "2022-01-19T11:00:11Z",
        "version": 1,
        "changeset": 116336665,
        "addr:city": "Colatina",
        "addr:postcode": "29700-543",
        "addr:street": "Avenida das Nações",
        "addr:suburb": "Colatina Velha",
        "name": "Novo Hotel Girassol",
        "tourism": "hotel",
        "id": "node/9430656913"
      },
      "geometry": {
        "type": "Point",
        "coordinates": [
          -40.6185712,
          -19.5279336
        ]
      }
    },
    {
      "type": "Feature",
      "id": "node/9627556757",
      "properties": {
        "timestamp": "2024-07-01T12:59:57Z",
        "version": 2,
        "changeset": 153411613,
        "addr:city": "Colatina",
        "addr:housenumber": "73",
        "addr:postcode": "29700-040",
        "addr:street": "Rua Alexandre Calmon",
        "addr:suburb": "Centro",
        "name": "Plaza Hotel",
        "phone": "+55 27 3120-3333",
        "tourism": "hotel",
        "website": "https://www.colatinaplazahotel.com.br/",
        "id": "node/9627556757"
      },
      "geometry": {
        "type": "Point",
        "coordinates": [
          -40.6302592,
          -19.5347116
        ]
      }
    }
  ]
}
