{
  "type": "FeatureCollection",
  "features": [
    {
      "type": "Feature",
      "id": "way/561603473",
      "properties": {
        "timestamp": "2020-06-15T20:14:50Z",
        "version": 2,
        "changeset": 86686346,
        "IJSN:administra": "Municipal",
        "IJSN:classeCnae": "Infantil",
        "addr:city": "Colatina",
        "addr:postcode": "29708-110",
        "addr:street": "Rua Matilde Guerra Comério",
        "addr:suburb": "Vista da Serra",
        "alt_name": "Centro de Educação Infantil Municipal",
        "amenity": "kindergarten",
        "contact:phone": "(27) 3177-7057",
        "name": "CEIM Vista da Serra",
        "short_name": "CEIM",
        "source": "IJSN",
        "id": "way/561603473"
      },
      "geometry": {
        "type": "Polygon",
        "coordinates": [
          [
            [
              -40.6206858,
              -19.5489117
            ],
            [
              -40.620608,
              -19.549215
            ],
            [
              -40.620376,
              -19.5491891
            ],
            [
              -40.6204725,
              -19.5488719
            ],
            [
              -40.6206858,
              -19.5489117
            ]
          ]
        ]
      }
    },
    {
      "type": "Feature",
      "id": "node/3919743542",
      "properties": {
        "timestamp": "2015-12-31T03:24:31Z",
        "version": 1,
        "changeset": 36275345,
        "IJSN:administra": "Privada",
        "IJSN:classeCnae": "Infantil",
        "addr:city": "Colatina",
        "addr:postcode": "29701-280",
        "addr:street": "Rua Humberto de Campos",
        "addr:suburb": "Operário",
        "alt_name": "Centro de Educaçâo Infantil",
        "amenity": "kindergarten",
        "contact:phone": "(27) 3722-4442",
        "name": "CEI Doce Lar",
        "short_name": "CEI",
        "source": "IJSN",
        "id": "node/3919743542"
      },
      "geometry": {
        "type": "Point",
        "coordinates": [
          -40.6267024,
          -19.5390878
        ]
      }
    },
    {
      "type": "Feature",
      "id": "node/3919743543",
      "properties": {
        "timestamp": "2015-12-31T03:24:31Z",
        "version": 1,
        "changeset": 36275345,
        "IJSN:administra": "Privada",
        "IJSN:classeCnae": "Infantil",
        "addr:city": "Colatina",
        "addr:housenumber": "52",
        "addr:postcode": "29700-140",
        "addr:street": "Travessa José Toledo",
        "addr:suburb": "Centro",
        "alt_name": "Centro de Educação Infantil",
        "amenity": "kindergarten",
        "contact:phone": "(27) 3722-7000",
        "name": "CEI Mundo Mágico",
        "short_name": "CEI",
        "source": "IJSN",
        "id": "node/3919743543"
      },
      "geometry": {
        "type": "Point",
        "coordinates": [
          -40.6279682,
          -19.5343027
        ]
      }
    },
    {
      "type": "Feature",
      "id": "node/3919743544",
      "properties": {
        "timestamp": "2015-12-31T03:24:31Z",
        "version": 1,
        "changeset": 36275345,
        "IJSN:administra": "Municipal",
        "IJSN:classeCnae": "Infantil",
        "addr:city": "Colatina",
        "addr:postcode": "29701-050",
        "addr:street": "Rua Ricardo Zon",
        "addr:suburb": "Bela Vista",
        "alt_name": "Centro de Educação Infantil Municipal",
        "amenity": "kindergarten",
        "contact:phone": "(27) 3177-7058",
        "name": "CEIM Anjo da Guarda",
        "short_name": "CEIM",
        "source": "IJSN",
        "id": "node/3919743544"
      },
      "geometry": {
        "type": "Point",
        "coordinates": [
          -40.6240973,
          -19.5356104
        ]
      }
    },
    {
      "type": "Feature",
      "id": "node/3919743545",
      "properties": {
        "timestamp": "2015-12-31T03:24:31Z",
        "version": 1,
        "changeset": 36275345,
        "IJSN:administra": "Municipal",
        "IJSN:classeCnae": "Infantil",
        "addr:city": "Colatina",
        "addr:housenumber": "Km 07",
        "addr:postcode": "29705-200",
        "addr:street": "Rodovia do Café",
        "addr:suburb": "Carlos Germano Naumann",
        "alt_name": "Centro de Educação Infantil Municipal",
        "amenity": "kindergarten",
        "contact:phone": "(27) 3721-7461",
        "name": "CEIM Irmã Scheilla",
        "short_name": "CEIM",
        "source": "IJSN",
        "id": "node/3919743545"
      },
      "geometry": {
        "type": "Point",
        "coordinates": [
          -40.6692504,
          -19.4895523
        ]
      }
    },
    {
      "type": "Feature",
      "id": "node/3919743546",
      "properties": {
        "timestamp": "2015-12-31T03:24:32Z",
        "version": 1,
        "changeset": 36275345,
        "IJSN:administra": "Municipal",
        "IJSN:classeCnae": "Infantil",
        "addr:city": "Colatina",
        "addr:housenumber": "17",
        "addr:postcode": "29718-000",
        "addr:street": "Rua Santo Antônio",
        "addr:suburb": "Barbados",
        "alt_name": "Centro de Educação Infantil Municipal",
        "amenity": "kindergarten",
        "contact:phone": "(27) 3177-7142",
        "name": "CEIM José Baião",
        "short_name": "CEIM",
        "source": "IJSN",
        "id": "node/3919743546"
      },
      "geometry": {
        "type": "Point",
        "coordinates": [
          -40.5768203,
          -19.5209603
        ]
      }
    },
    {
      "type": "Feature",
      "id": "node/3919743547",
      "properties": {
        "timestamp": "2015-12-31T03:24:32Z",
        "version": 1,
        "changeset": 36275345,
        "IJSN:administra": "Municipal",
        "IJSN:classeCnae": "Infantil",
        "addr:city": "Colatina",
        "addr:housenumber": "7",
        "addr:postcode": "29701-230",
        "addr:street": "Praça Anita Costa",
        "addr:suburb": "Operário",
        "alt_name": "Centro de Educação Infantil Municipal",
        "amenity": "kindergarten",
        "contact:phone": "(27) 3711-5126",
        "name": "CEIM Luiza de Marilac",
        "short_name": "CEIM",
        "source": "IJSN",
        "id": "node/3919743547"
      },
      "geometry": {
        "type": "Point",
        "coordinates": [
          -40.6265097,
          -19.5392673
        ]
      }
    },
    {
      "type": "Feature",
      "id": "node/3919743548",
      "properties": {
        "timestamp": "2022-12-23T21:20:47Z",
        "version": 2,
        "changeset": 130437476,
        "IJSN:administra": "Municipal",
        "IJSN:classeCnae": "Infantil",
        "addr:city": "Colatina",
        "addr:housenumber": "126",
        "addr:postcode": "29703-240",
        "addr:street": "Rua Soldado Leonardo",
        "addr:suburb": "Nossa Senhora Aparecida",
        "alt_name": "Centro de Educação Infantil Municipal",
        "amenity": "kindergarten",
        "contact:phone": "+55 27 3721 2129",
        "name": "CEIM Nossa Senhora Aparecida",
        "short_name": "CEIM",
        "source": "IJSN",
        "id": "node/3919743548"
      },
      "geometry": {
        "type": "Point",
        "coordinates": [
          -40.6376021,
          -19.5259943
        ]
      }
    },
    {
      "type": "Feature",
      "id": "node/3919743549",
      "properties": {
        "timestamp": "2015-12-31T03:24:32Z",
        "version": 1,
        "changeset": 36275345,
        "IJSN:administra": "Municipal",
        "IJSN:classeCnae": "Infantil",
        "addr:city": "Colatina",
        "addr:postcode": "29704-630",
        "addr:street": "Avenida Nossa Senhora da Penha",
        "addr:suburb": "Honório Fraga",
        "alt_name": "Centro de Educação Infantil Municipal",
        "amenity": "kindergarten",
        "contact:phone": "(27) 3177-7056",
        "name": "CEIM Nossa Senhora da Penha",
        "short_name": "CEIM",
        "source": "IJSN",
        "id": "node/3919743549"
      },
      "geometry": {
        "type": "Point",
        "coordinates": [
          -40.6629253,
          -19.5281028
        ]
      }
    },
    {
      "type": "Feature",
      "id": "node/3919743550",
      "properties": {
        "timestamp": "2015-12-31T03:24:32Z",
        "version": 1,
        "changeset": 36275345,
        "IJSN:administra": "Municipal",
        "IJSN:classeCnae": "Infantil",
        "addr:city": "Colatina",
        "addr:housenumber": "375",
        "addr:postcode": "29702-570",
        "addr:street": "Rua São Mateus",
        "addr:suburb": "Santa Terezinha",
        "alt_name": "Centro de Educação Infantil Municipal",
        "amenity": "kindergarten",
        "contact:phone": "(27) 3721-0877",
        "name": "CEIM Padre José Bertollo",
        "short_name": "CEIM",
        "source": "IJSN",
        "id": "node/3919743550"
      },
      "geometry": {
        "type": "Point",
        "coordinates": [
          -40.6294569,
          -19.5517354
        ]
      }
    },
    {
      "type": "Feature",
      "id": "node/3919743551",
      "properties": {
        "timestamp": "2015-12-31T03:24:33Z",
        "version": 1,
        "changeset": 36275345,
        "IJSN:administra": "Municipal",
        "IJSN:classeCnae": "Infantil",
        "addr:city": "Colatina",
        "addr:postcode": "29705-080",
        "addr:street": "Travessa Antônio Zago",
        "addr:suburb": "Maria das Graças",
        "alt_name": "Centro de Educação Infantil Municipal",
        "amenity": "kindergarten",
        "contact:phone": "(27) 3721-2979",
        "name": "CEIM Pernalonga",
        "short_name": "CEIM",
        "source": "IJSN",
        "id": "node/3919743551"
      },
      "geometry": {
        "type": "Point",
        "coordinates": [
          -40.6207297,
          -19.5129807
        ]
      }
    },
    {
      "type": "Feature",
      "id": "node/3919743552",
      "properties": {
        "timestamp": "2015-12-31T03:24:33Z",
        "version": 1,
        "changeset": 36275345,
        "IJSN:administra": "Municipal",
        "IJSN:classeCnae": "Infantil",
        "addr:city": "Colatina",
        "addr:postcode": "29701-741",
        "addr:street": "Rua Fortunato Ribeiro Machado",
        "addr:suburb": "Jardim Planalto",
        "alt_name": "Centro de Educação Infantil Municipal",
        "amenity": "kindergarten",
        "contact:phone": "(27) 3177-7840 / 3711-0038",
        "name": "CEIM Professora Evanilda Pimenta Barbosa",
        "short_name": "CEIM",
        "source": "IJSN",
        "id": "node/3919743552"
      },
      "geometry": {
        "type": "Point",
        "coordinates": [
          -40.6230859,
          -19.5403748
        ]
      }
    },
    {
      "type": "Feature",
      "id": "node/3919743553",
      "properties": {
        "timestamp": "2015-12-31T03:24:33Z",
        "version": 1,
        "changeset": 36275345,
        "IJSN:administra": "Municipal",
        "IJSN:classeCnae": "Infantil",
        "addr:city": "Colatina",
        "addr:housenumber": "90",
        "addr:postcode": "29709-321",
        "addr:street": "Rua Tucano",
        "addr:suburb": "Columbia",
        "alt_name": "Centro de Educação Infantil Municipal",
        "amenity": "kindergarten",
        "contact:phone": "(27) 3711-4210",
        "name": "CEIM Professora Zita Botelho de Almeida",
        "short_name": "CEIM",
        "source": "IJSN",
        "id": "node/3919743553"
      },
      "geometry": {
        "type": "Point",
        "coordinates": [
          -40.703988,
          -19.5213217
        ]
      }
    },
    {
      "type": "Feature",
      "id": "node/3919743554",
      "properties": {
        "timestamp": "2015-12-31T03:24:33Z",
        "version": 1,
        "changeset": 36275345,
        "IJSN:administra": "Municipal",
        "IJSN:classeCnae": "Infantil",
        "addr:city": "Colatina",
        "addr:housenumber": "136",
        "addr:postcode": "29704-011",
        "addr:street": "Rua Aeroporto",
        "addr:suburb": "Santo Antônio",
        "alt_name": "Centro de Educação Infantil Municipal",
        "amenity": "kindergarten",
        "contact:phone": "(27) 3722-1185",
        "name": "CEIM Santo Antônio",
        "short_name": "CEIM",
        "source": "IJSN",
        "id": "node/3919743554"
      },
      "geometry": {
        "type": "Point",
        "coordinates": [
          -40.6568347,
          -19.5207528
        ]
      }
    },
    {
      "type": "Feature",
      "id": "node/3919743555",
      "properties": {
        "timestamp": "2015-12-31T03:24:33Z",
        "version": 1,
        "changeset": 36275345,
        "IJSN:administra": "Municipal",
        "IJSN:classeCnae": "Infantil",
        "addr:city": "Colatina",
        "addr:housenumber": "331",
        "addr:postcode": "29704-260",
        "addr:street": "Rua Afonso Cláudio",
        "addr:suburb": "São Marcos",
        "alt_name": "Centro de Educação Infantil Municipal",
        "amenity": "kindergarten",
        "contact:phone": "(27) 3721-5034",
        "name": "CEIM São Marcos",
        "short_name": "CEIM",
        "source": "IJSN",
        "id": "node/3919743555"
      },
      "geometry": {
        "type": "Point",
        "coordinates": [
          -40.6657798,
          -19.5222123
        ]
      }
    },
    {
      "type": "Feature",
      "id": "node/3919743556",
      "properties": {
        "timestamp": "2015-12-31T03:24:34Z",
        "version": 1,
        "changeset": 36275345,
        "IJSN:administra": "Municipal",
        "IJSN:classeCnae": "Infantil",
        "addr:city": "Colatina",
        "addr:housenumber": "85",
        "addr:postcode": "29700-455",
        "addr:street": "Rua José Ferdinando Chisté",
        "addr:suburb": "São Vicente",
        "alt_name": "Centro de Educação Infantil Municipal",
        "amenity": "kindergarten",
        "contact:phone": "(27) 3721-1592",
        "name": "CEIM Vicente de Paulo",
        "short_name": "CEIM",
        "source": "IJSN",
        "id": "node/3919743556"
      },
      "geometry": {
        "type": "Point",
        "coordinates": [
          -40.6212228,
          -19.5336262
        ]
      }
    },
    {
      "type": "Feature",
      "id": "node/3919743562",
      "properties": {
        "timestamp": "2024-04-29T06:38:19Z",
        "version": 3,
        "changeset": 150646765,
        "IJSN:administra": "Municipal",
        "IJSN:classeCnae": "Infantil",
        "addr:city": "Colatina",
        "addr:housenumber": "4",
        "addr:postcode": "29702-200;29702170",
        "addr:street": "Rua Professor Aloísio Barros Leal;Rua Bruno Ceotto",
        "addr:suburb": "Maria Ismênia",
        "alt_name": "Creche Municipal",
        "amenity": "kindergarten",
        "contact:phone": "(27) 3721-8071",
        "name": "Creche Municipal Sagrada Família",
        "name:pt": "Casa da Dona Neide",
        "short_name": "CM",
        "source": "IJSN",
        "tourism": "guest_house",
        "id": "node/3919743562"
      },
      "geometry": {
        "type": "Point",
        "coordinates": [
          -40.6340513,
          -19.5423831
        ]
      }
    },
    {
      "type": "Feature",
      "id": "node/3919743641",
      "properties": {
        "timestamp": "2015-12-31T03:24:48Z",
        "version": 1,
        "changeset": 36275345,
        "IJSN:administra": "Privada",
        "IJSN:classeCnae": "Infantil",
        "addr:city": "Colatina",
        "addr:housenumber": "7",
        "addr:postcode": "29701-230",
        "addr:street": "Praça Anita Costa",
        "addr:suburb": "Operário",
        "amenity": "kindergarten",
        "contact:phone": "(27) 3722-3394",
        "name": "Espaço Social e Cultural Luiza de Marilac",
        "source": "IJSN",
        "id": "node/3919743641"
      },
      "geometry": {
        "type": "Point",
        "coordinates": [
          -40.6263683,
          -19.5392155
        ]
      }
    },
    {
      "type": "Feature",
      "id": "node/3919743644",
      "properties": {
        "timestamp": "2015-12-31T03:24:49Z",
        "version": 1,
        "changeset": 36275345,
        "IJSN:administra": "Municipal",
        "IJSN:classeCnae": "Infantil",
        "addr:city": "Colatina",
        "addr:housenumber": "98",
        "addr:postcode": "29703-140",
        "addr:street": "Rua Jacinto Bassetti",
        "addr:suburb": "São Silvano",
        "alt_name": "Pré Escola Municipal",
        "amenity": "kindergarten",
        "contact:phone": "(27) 3177-7094",
        "name": "PEM Carlos Roberto Menegatti",
        "short_name": "PEM",
        "source": "IJSN",
        "id": "node/3919743644"
      },
      "geometry": {
        "type": "Point",
        "coordinates": [
          -40.6397567,
          -19.5214302
        ]
      }
    },
    {
      "type": "Feature",
      "id": "node/3919743645",
      "properties": {
        "timestamp": "2015-12-31T03:24:49Z",
        "version": 1,
        "changeset": 36275345,
        "IJSN:administra": "Municipal",
        "IJSN:classeCnae": "Infantil",
        "addr:city": "Colatina",
        "addr:postcode": "29701-440",
        "addr:street": "Rua São Braz",
        "addr:suburb": "Perpétuo Socorro",
        "alt_name": "Pré Escola Municipal",
        "amenity": "kindergarten",
        "contact:phone": "(27) 3721-1303 / 3721-9205",
        "name": "PEM Luiz Dalla Bernardina",
        "short_name": "PEM",
        "source": "IJSN",
        "id": "node/3919743645"
      },
      "geometry": {
        "type": "Point",
        "coordinates": [
          -40.6285793,
          -19.5423296
        ]
      }
    },
    {
      "type": "Feature",
      "id": "node/3919743646",
      "properties": {
        "timestamp": "2015-12-31T03:24:49Z",
        "version": 1,
        "changeset": 36275345,
        "IJSN:administra": "Municipal",
        "IJSN:classeCnae": "Infantil",
        "addr:city": "Colatina",
        "addr:housenumber": "188",
        "addr:postcode": "29700-090",
        "addr:street": "Avenida Luiz Dalla Bernardina",
        "addr:suburb": "Centro",
        "alt_name": "Pré Escola Municipal",
        "amenity": "kindergarten",
        "contact:phone": "(27) 3177-7012 / 3721-9242",
        "name": "PEM Marcelo Correa",
        "short_name": "PEM",
        "source": "IJSN",
        "id": "node/3919743646"
      },
      "geometry": {
        "type": "Point",
        "coordinates": [
          -40.6327897,
          -19.5363893
        ]
      }
    }
  ]
}
