{
  "type": "FeatureCollection",
  "features": [
    {
      "type": "Feature",
      "id": "way/546898603",
      "properties": {
        "timestamp": "2024-12-11T21:26:53Z",
        "version": 5,
        "changeset": 160185967,
        "addr:city": "Colatina",
        "addr:street": "Avenida Âgelo Giuberti",
        "addr:suburb": "Esplanada",
        "amenity": "library",
        "building": "yes",
        "internet_access": "no",
        "name": "Biblioteca Municipal",
        "nohousenumber": "yes",
        "opening_hours": "Mo-Fr 08:00-17:00",
        "operator": "Município de Colatina/ES",
        "id": "way/546898603"
      },
      "geometry": {
        "type": "Polygon",
        "coordinates": [
          [
            [
              -40.6360072,
              -19.537615
            ],
            [
              -40.636004,
              -19.5377224
            ],
            [
              -40.6355557,
              -19.5377107
            ],
            [
              -40.6355588,
              -19.5376034
            ],
            [
              -40.6360072,
              -19.537615
            ]
          ]
        ]
      }
    },
    {
      "type": "Feature",
      "id": "way/683442754",
      "properties": {
        "timestamp": "2019-04-12T20:49:06Z",
        "version": 1,
        "changeset": 69163343,
        "addr:city": "Colatina",
        "addr:street": "Rua Pardal",
        "addr:suburb": "Columbia",
        "amenity": "library",
        "building": "yes",
        "name": "Biblioteca do Bairro Colúmbia",
        "id": "way/683442754"
      },
      "geometry": {
        "type": "Polygon",
        "coordinates": [
          [
            [
              -40.7026897,
              -19.5219546
            ],
            [
              -40.702534,
              -19.5223712
            ],
            [
              -40.7024525,
              -19.5223441
            ],
            [
              -40.7026012,
              -19.5219207
            ],
            [
              -40.7026897,
              -19.5219546
            ]
          ]
        ]
      }
    }
  ]
}
