{
  "type": "FeatureCollection",
  "features": [
    {
      "type": "Feature",
      "id": "way/1340537634",
      "properties": {
        "timestamp": "2024-12-06T13:09:03Z",
        "version": 2,
        "changeset": 159993782,
        "addr:postcode": "29704-760",
        "addr:street": "Rua Maria Sesana Pancieri",
        "addr:suburb": "São Miguel",
        "amenity": "social_facility",
        "email": "crasarletegilberti@gmail.com;",
        "mobile": "+55 27 99904 9095",
        "name": "Centro de Referência de Assistência Social Arlete Tardin Giuberti",
        "short_name": "CRAS Arlete Tardin Giuberti",
        "social_facility:for": "crianças;pessoas_com_deficiência",
        "source": "https://setades.es.gov.br/Media/seadh/Anexos/CRAS%20_145%20unidades_2017_endere%C3%A7os%20e%20contatos.pdf",
        "id": "way/1340537634"
      },
      "geometry": {
        "type": "Polygon",
        "coordinates": [
          [
            [
              -40.6698142,
              -19.5146267
            ],
            [
              -40.6698921,
              -19.5147056
            ],
            [
              -40.6697537,
              -19.514836
            ],
            [
              -40.6696735,
              -19.5147625
            ],
            [
              -40.6698142,
              -19.5146267
            ]
          ]
        ]
      }
    },
    {
      "type": "Feature",
      "id": "node/3999139403",
      "properties": {
        "timestamp": "2016-02-10T13:37:08Z",
        "version": 1,
        "changeset": 37124622,
        "addr:city": "Colatina",
        "addr:housenumber": "893",
        "addr:postcode": "29700-000",
        "addr:street": "Rua João Batista do Vale",
        "addr:suburb": "Ayrton Senna",
        "alt_name": "Centro de Referência de Assistência Social",
        "amenity": "social_facility",
        "contact:phone": "(27) 3723-6358",
        "name": "CRAS - Ayrton Senna",
        "social_facility": "outreach",
        "source": "IJSN",
        "id": "node/3999139403"
      },
      "geometry": {
        "type": "Point",
        "coordinates": [
          -40.65545,
          -19.4941328
        ]
      }
    },
    {
      "type": "Feature",
      "id": "node/3999140660",
      "properties": {
        "timestamp": "2016-02-10T13:37:19Z",
        "version": 1,
        "changeset": 37124622,
        "addr:city": "Colatina",
        "addr:housenumber": "15",
        "addr:postcode": "29700-000",
        "addr:street": "Rua Fabiano Silva",
        "addr:suburb": "Operário",
        "alt_name": "Centro de Referência de Assistência Social",
        "amenity": "social_facility",
        "contact:phone": "(27) 3177-7036",
        "name": "CRAS - Operário",
        "social_facility": "outreach",
        "source": "IJSN",
        "id": "node/3999140660"
      },
      "geometry": {
        "type": "Point",
        "coordinates": [
          -40.6253573,
          -19.5394994
        ]
      }
    },
    {
      "type": "Feature",
      "id": "node/3999140698",
      "properties": {
        "timestamp": "2016-02-10T13:37:26Z",
        "version": 1,
        "changeset": 37124622,
        "addr:city": "Colatina",
        "addr:postcode": "29700-000",
        "addr:street": "Rua José Barroso",
        "addr:suburb": "São Vicente",
        "alt_name": "Centro de Referência de Assistência Social",
        "amenity": "social_facility",
        "contact:phone": "(27) 3721-8099",
        "name": "CRAS - São Vicente",
        "social_facility": "outreach",
        "source": "IJSN",
        "id": "node/3999140698"
      },
      "geometry": {
        "type": "Point",
        "coordinates": [
          -40.620721,
          -19.5332764
        ]
      }
    },
    {
      "type": "Feature",
      "id": "node/3999140703",
      "properties": {
        "timestamp": "2020-09-23T17:19:26Z",
        "version": 3,
        "changeset": 91382962,
        "addr:city": "Colatina",
        "addr:housenumber": "225",
        "addr:postcode": "29700-000",
        "addr:street": "Rua Adelina Spelta",
        "addr:suburb": "Vila Real",
        "alt_name": "Centro de Referência de Assistência Social",
        "amenity": "social_facility",
        "contact:phone": "(27) 3722-6114",
        "name": "CRAS - Vila Real",
        "social_facility": "outreach",
        "source": "IJSN",
        "id": "node/3999140703"
      },
      "geometry": {
        "type": "Point",
        "coordinates": [
          -40.6472119,
          -19.5203355
        ]
      }
    }
  ]
}
