{
  "type": "FeatureCollection",
  "features": [
    {
      "type": "Feature",
      "id": "way/479010723",
      "properties": {
        "timestamp": "2017-03-07T10:06:48Z",
        "version": 1,
        "changeset": 46646989,
        "amenity": "school",
        "id": "way/479010723"
      },
      "geometry": {
        "type": "Polygon",
        "coordinates": [
          [
            [
              -41.2670298,
              -20.1821896
            ],
            [
              -41.2667171,
              -20.1826844
            ],
            [
              -41.2663207,
              -20.1824892
            ],
            [
              -41.2665306,
              -20.181978
            ],
            [
              -41.2670298,
              -20.1821896
            ]
          ]
        ]
      }
    },
    {
      "type": "Feature",
      "id": "way/835008462",
      "properties": {
        "timestamp": "2020-08-07T11:37:53Z",
        "version": 1,
        "changeset": 89090064,
        "addr:city": "Brejetuba",
        "addr:postcode": "29630-000",
        "addr:street": "Fazenda Leogildo",
        "addr:suburb": "São Dominguinho",
        "amenity": "school",
        "name": "EEEFM Leogildo Severiano de Souza",
        "operator": "Secretaria de Estado da Educação",
        "operator:type": "public",
        "id": "way/835008462"
      },
      "geometry": {
        "type": "Polygon",
        "coordinates": [
          [
            [
              -41.3398529,
              -20.1105194
            ],
            [
              -41.3396172,
              -20.1106933
            ],
            [
              -41.3393546,
              -20.1103795
            ],
            [
              -41.3395902,
              -20.1102056
            ],
            [
              -41.3398529,
              -20.1105194
            ]
          ]
        ]
      }
    },
    {
      "type": "Feature",
      "id": "way/835882392",
      "properties": {
        "timestamp": "2020-08-10T20:55:47Z",
        "version": 1,
        "changeset": 89216735,
        "addr:city": "Brejetuba",
        "addr:housenumber": "120",
        "addr:postcode": "29630-000",
        "addr:street": "Rua Mariano Dutra Chaves",
        "addr:suburb": "Brejaubinha",
        "amenity": "school",
        "name": "EEEFM Marlene Brandão",
        "operator": "Secretaria de Estado da Educação",
        "id": "way/835882392"
      },
      "geometry": {
        "type": "Polygon",
        "coordinates": [
          [
            [
              -41.2668554,
              -20.1822056
            ],
            [
              -41.2667444,
              -20.182401
            ],
            [
              -41.2665768,
              -20.1823239
            ],
            [
              -41.266682,
              -20.1821264
            ],
            [
              -41.2668554,
              -20.1822056
            ]
          ]
        ]
      }
    },
    {
      "type": "Feature",
      "id": "way/837060883",
      "properties": {
        "timestamp": "2020-08-14T10:00:41Z",
        "version": 1,
        "changeset": 89402521,
        "amenity": "school",
        "name": "EMEF Patrimônio dos Silveiras",
        "operator": "Município de Brejetuba",
        "id": "way/837060883"
      },
      "geometry": {
        "type": "Polygon",
        "coordinates": [
          [
            [
              -41.3882345,
              -20.2032798
            ],
            [
              -41.3880967,
              -20.2033953
            ],
            [
              -41.388006,
              -20.2033
            ],
            [
              -41.3881438,
              -20.2031844
            ],
            [
              -41.3882345,
              -20.2032798
            ]
          ]
        ]
      }
    },
    {
      "type": "Feature",
      "id": "way/837068449",
      "properties": {
        "timestamp": "2020-12-01T20:46:39Z",
        "version": 3,
        "changeset": 95115870,
        "addr:city": "Brejetuba",
        "addr:postcode": "29630-000",
        "addr:street": "Praça 15 de Dezembro",
        "addr:suburb": "Belarmino Uliana",
        "amenity": "school",
        "building:levels": "3",
        "name": "Escola Estadual de Ensino Fundamental e Médio Álvaro Castelo",
        "operator": "Estadual",
        "id": "way/837068449"
      },
      "geometry": {
        "type": "Polygon",
        "coordinates": [
          [
            [
              -41.2877599,
              -20.1443474
            ],
            [
              -41.2878325,
              -20.1445097
            ],
            [
              -41.2874691,
              -20.1446529
            ],
            [
              -41.2873965,
              -20.1444905
            ],
            [
              -41.2877599,
              -20.1443474
            ]
          ]
        ]
      }
    },
    {
      "type": "Feature",
      "id": "node/2847210789",
      "properties": {
        "timestamp": "2014-05-09T22:19:57Z",
        "version": 1,
        "changeset": 22240824,
        "amenity": "school",
        "id": "node/2847210789"
      },
      "geometry": {
        "type": "Point",
        "coordinates": [
          -41.2900515,
          -20.1472738
        ]
      }
    },
    {
      "type": "Feature",
      "id": "node/2847212839",
      "properties": {
        "timestamp": "2014-05-09T22:20:06Z",
        "version": 1,
        "changeset": 22240824,
        "amenity": "school",
        "id": "node/2847212839"
      },
      "geometry": {
        "type": "Point",
        "coordinates": [
          -41.2923767,
          -20.1494567
        ]
      }
    },
    {
      "type": "Feature",
      "id": "node/4024904413",
      "properties": {
        "timestamp": "2016-02-25T01:59:17Z",
        "version": 1,
        "changeset": 37426154,
        "IJSN:administra": "Municipal",
        "IJSN:classeCnae": "Fundamental",
        "addr:city": "Brejetuba",
        "addr:postcode": "29630-000",
        "addr:street": "Rua José Olinto Badaró",
        "addr:suburb": "Centro",
        "alt_name": "Centro Municipal de Ensino Fundamental",
        "amenity": "school",
        "contact:phone": "(27) 3733-1000",
        "name": "CMEF Oswaldo Ribeiro da Silva",
        "source": "IJSN",
        "id": "node/4024904413"
      },
      "geometry": {
        "type": "Point",
        "coordinates": [
          -41.291354,
          -20.148619
        ]
      }
    },
    {
      "type": "Feature",
      "id": "node/4024904414",
      "properties": {
        "timestamp": "2016-02-25T01:59:17Z",
        "version": 1,
        "changeset": 37426154,
        "IJSN:administra": "Municipal",
        "IJSN:classeCnae": "Infantil e Fundamental",
        "addr:city": "Brejetuba",
        "addr:postcode": "29630-000",
        "addr:suburb": "Distrito Santa Rita de Brejetuba",
        "alt_name": "Centro Municipal de Ensino Fundamental",
        "amenity": "school",
        "contact:phone": "(27) 3733-1024",
        "name": "CMEF Saturnino Lourenço",
        "source": "IJSN",
        "id": "node/4024904414"
      },
      "geometry": {
        "type": "Point",
        "coordinates": [
          -41.240797,
          -20.1326198
        ]
      }
    },
    {
      "type": "Feature",
      "id": "node/4024904415",
      "properties": {
        "timestamp": "2016-02-25T01:59:17Z",
        "version": 1,
        "changeset": 37426154,
        "IJSN:administra": "Municipal",
        "IJSN:classeCnae": "Fundamental",
        "addr:city": "Brejetuba",
        "addr:postcode": "29635-000",
        "addr:street": "Avenida Joaquim Cândido de Oliveira",
        "addr:suburb": "São Jorge de Oliveira",
        "alt_name": "Centro Municipal de Ensino Fundamental",
        "amenity": "school",
        "contact:phone": "(27) 3733-4026",
        "name": "CMEF São Jorge",
        "source": "IJSN",
        "id": "node/4024904415"
      },
      "geometry": {
        "type": "Point",
        "coordinates": [
          -41.2829232,
          -19.9801037
        ]
      }
    },
    {
      "type": "Feature",
      "id": "node/4024904797",
      "properties": {
        "timestamp": "2016-02-25T01:59:31Z",
        "version": 1,
        "changeset": 37426154,
        "IJSN:administra": "Estadual",
        "IJSN:classeCnae": "Fundamental e Médio",
        "addr:city": "Brejetuba",
        "addr:postcode": "29630-000",
        "addr:suburb": "Comunidade Rancho Dantas",
        "alt_name": "Escola Estadual de Ensino Fundamental e Médio",
        "amenity": "school",
        "contact:phone": "(27) 9926-1960",
        "name": "EEEFM Fazenda Campores",
        "source": "IJSN",
        "id": "node/4024904797"
      },
      "geometry": {
        "type": "Point",
        "coordinates": [
          -41.2377545,
          -20.2530466
        ]
      }
    },
    {
      "type": "Feature",
      "id": "node/4024904850",
      "properties": {
        "timestamp": "2016-02-25T01:59:41Z",
        "version": 1,
        "changeset": 37426154,
        "IJSN:administra": "Estadual",
        "IJSN:classeCnae": "Fundamental e Médio",
        "addr:city": "Brejetuba",
        "addr:housenumber": "160",
        "addr:postcode": "29635-000",
        "addr:street": "Rua Nephtaly Antônio Caetano",
        "addr:suburb": "São Jorge de Oliveira",
        "alt_name": "Escola Estadual de Ensino Fundamental e Médio",
        "amenity": "school",
        "contact:phone": "(27) 3733-4084",
        "name": "EEEFM São Jorge",
        "source": "IJSN",
        "id": "node/4024904850"
      },
      "geometry": {
        "type": "Point",
        "coordinates": [
          -41.2803154,
          -19.9754624
        ]
      }
    },
    {
      "type": "Feature",
      "id": "node/4024904856",
      "properties": {
        "timestamp": "2020-12-01T20:45:43Z",
        "version": 2,
        "changeset": 95115824,
        "IJSN:administra": "Estadual",
        "IJSN:classeCnae": "Fundamental e Médio",
        "addr:city": "Brejetuba",
        "addr:housenumber": "100",
        "addr:postcode": "29630-000",
        "addr:street": "Rua Praça 15 de Dezembro",
        "addr:suburb": "Centro",
        "alt_name": "Escola Estadual de Ensino Fundamental e Médio",
        "amenity": "school",
        "contact:phone": "(27) 3733-1124",
        "name": "Escola Estadual de Ensino Fundamental e Médio Álvaro Castelo",
        "source": "IJSN",
        "id": "node/4024904856"
      },
      "geometry": {
        "type": "Point",
        "coordinates": [
          -41.2876002,
          -20.1444322
        ]
      }
    },
    {
      "type": "Feature",
      "id": "node/4024905065",
      "properties": {
        "timestamp": "2016-02-25T01:59:59Z",
        "version": 1,
        "changeset": 37426154,
        "IJSN:administra": "Municipal",
        "IJSN:classeCnae": "Fundamental",
        "addr:city": "Brejetuba",
        "addr:postcode": "29630-000",
        "addr:street": "Rodovia ES-462",
        "addr:suburb": "Vargem Grande",
        "alt_name": "Escola Família Agrícola",
        "amenity": "school",
        "contact:phone": "(27) 9937-6328",
        "name": "EFA de Brejetuba",
        "source": "IJSN",
        "id": "node/4024905065"
      },
      "geometry": {
        "type": "Point",
        "coordinates": [
          -41.3112216,
          -20.2077767
        ]
      }
    },
    {
      "type": "Feature",
      "id": "node/4024905416",
      "properties": {
        "timestamp": "2016-02-25T02:00:24Z",
        "version": 1,
        "changeset": 37426154,
        "IJSN:administra": "Municipal",
        "IJSN:classeCnae": "Infantil e Fundamental",
        "addr:city": "Brejetuba",
        "addr:postcode": "29630-000",
        "addr:suburb": "Comunidade Cedro",
        "alt_name": "Escola Municipal de Ensino Fundamental",
        "amenity": "school",
        "contact:phone": "(27) 3733-1024",
        "name": "EMEF Córrego do Cedro",
        "source": "IJSN",
        "id": "node/4024905416"
      },
      "geometry": {
        "type": "Point",
        "coordinates": [
          -41.2993115,
          -20.0864465
        ]
      }
    },
    {
      "type": "Feature",
      "id": "node/4024905450",
      "properties": {
        "timestamp": "2016-02-25T02:00:30Z",
        "version": 1,
        "changeset": 37426154,
        "IJSN:administra": "Municipal",
        "IJSN:classeCnae": "Fundamental",
        "addr:city": "Brejetuba",
        "addr:postcode": "29630-000",
        "addr:suburb": "Comunidade Córrego Grande",
        "alt_name": "Escola Municipal de Ensino Fundamental",
        "amenity": "school",
        "contact:phone": "(27) 3733-1024",
        "name": "EMEF Fazenda Elizabeth",
        "source": "IJSN",
        "id": "node/4024905450"
      },
      "geometry": {
        "type": "Point",
        "coordinates": [
          -41.3263631,
          -20.1361136
        ]
      }
    },
    {
      "type": "Feature",
      "id": "node/4024905610",
      "properties": {
        "timestamp": "2016-02-25T02:00:40Z",
        "version": 1,
        "changeset": 37426154,
        "IJSN:administra": "Municipal",
        "IJSN:classeCnae": "Infantil e Fundamental",
        "addr:city": "Brejetuba",
        "addr:postcode": "29630-000",
        "addr:suburb": "Comunidade Santa Rita",
        "alt_name": "Escola Municipal de Ensino Fundamental",
        "amenity": "school",
        "contact:phone": "(27) 3733-1024",
        "name": "EMEF Maria de Lurdes de Azeredo",
        "source": "IJSN",
        "id": "node/4024905610"
      },
      "geometry": {
        "type": "Point",
        "coordinates": [
          -41.2551491,
          -20.0874708
        ]
      }
    },
    {
      "type": "Feature",
      "id": "node/4024905618",
      "properties": {
        "timestamp": "2016-02-25T02:00:41Z",
        "version": 1,
        "changeset": 37426154,
        "IJSN:administra": "Municipal",
        "IJSN:classeCnae": "Fundamental",
        "addr:city": "Brejetuba",
        "addr:postcode": "29630-000",
        "addr:suburb": "Comunidade Rancho Dantas",
        "alt_name": "Escola Municipal de Ensino Fundamental",
        "amenity": "school",
        "contact:phone": "(27) 3733-1024",
        "name": "EMEF Monte Santo",
        "source": "IJSN",
        "id": "node/4024905618"
      },
      "geometry": {
        "type": "Point",
        "coordinates": [
          -41.2376469,
          -20.2530697
        ]
      }
    },
    {
      "type": "Feature",
      "id": "node/4024905645",
      "properties": {
        "timestamp": "2020-08-14T10:00:41Z",
        "version": 3,
        "changeset": 89402521,
        "IJSN:administra": "Municipal",
        "IJSN:classeCnae": "Infantil e Fundamental",
        "addr:city": "Brejetuba",
        "addr:postcode": "29630-000",
        "addr:suburb": "Alto Silveira",
        "alt_name": "Escola Municipal de Ensino Fundamental",
        "amenity": "school",
        "contact:phone": "(27) 3733-1029",
        "name": "EMEF Patrimônio dos Silveiras",
        "source": "IJSN",
        "id": "node/4024905645"
      },
      "geometry": {
        "type": "Point",
        "coordinates": [
          -41.388036,
          -20.2032851
        ]
      }
    },
    {
      "type": "Feature",
      "id": "node/4024905703",
      "properties": {
        "timestamp": "2016-02-25T02:00:55Z",
        "version": 1,
        "changeset": 37426154,
        "IJSN:administra": "Municipal",
        "IJSN:classeCnae": "Infantil e Fundamental",
        "addr:city": "Brejetuba",
        "addr:postcode": "29630-000",
        "addr:suburb": "Comunidade São José",
        "alt_name": "Escola Municipal de Ensino Fundamental",
        "amenity": "school",
        "contact:phone": "(27) 3733-1024",
        "name": "EMEF Severino Vargas Neto",
        "source": "IJSN",
        "id": "node/4024905703"
      },
      "geometry": {
        "type": "Point",
        "coordinates": [
          -41.3131239,
          -20.1841159
        ]
      }
    },
    {
      "type": "Feature",
      "id": "node/4024905709",
      "properties": {
        "timestamp": "2016-02-25T02:00:56Z",
        "version": 1,
        "changeset": 37426154,
        "IJSN:administra": "Municipal",
        "IJSN:classeCnae": "Infantil e Fundamental",
        "addr:city": "Brejetuba",
        "addr:postcode": "29630-000",
        "addr:suburb": "Comunidade São Domingos Pequeno",
        "alt_name": "Escola Municipal de Ensino Fundamental",
        "amenity": "school",
        "contact:phone": "(27) 3733-1024",
        "name": "EMEF São Domingos",
        "source": "IJSN",
        "id": "node/4024905709"
      },
      "geometry": {
        "type": "Point",
        "coordinates": [
          -41.3471314,
          -20.13967
        ]
      }
    }
  ]
}
