{
  "type": "FeatureCollection",
  "features": [
    {
      "type": "Feature",
      "id": "way/574136397",
      "properties": {
        "timestamp": "2018-10-13T15:11:46Z",
        "version": 4,
        "changeset": 63487594,
        "addr:city": "Florestal",
        "addr:postcode": "35690000",
        "addr:street": "Rodovia Prefeito Derci Alves Ribeiro",
        "amenity": "university",
        "internet_access": "yes",
        "name": "Universidade Federal de Viçosa Campus Florestal",
        "official_name": "Central de Ensino e Desenvolvimento Agrário de Florestal",
        "old_name": "Fazenda-Escola de Florestal;Escola Média de Agricultural de Florestal",
        "operator": "Universidade Federal de Viçosa",
        "short_name": "CEDAF",
        "id": "way/574136397"
      },
      "geometry": {
        "type": "Polygon",
        "coordinates": [
          [
            [
              -44.4143065,
              -19.8879689
            ],
            [
              -44.4134053,
              -19.887868
            ],
            [
              -44.4090902,
              -19.8842146
            ],
            [
              -44.4104817,
              -19.8815737
            ],
            [
              -44.4113698,
              -19.8726742
            ],
            [
              -44.4208943,
              -19.8710412
            ],
            [
              -44.4268938,
              -19.8769572
            ],
            [
              -44.421527,
              -19.8822281
            ],
            [
              -44.420902,
              -19.8840723
            ],
            [
              -44.4198666,
              -19.8857433
            ],
            [
              -44.4171343,
              -19.8884816
            ],
            [
              -44.4143065,
              -19.8879689
            ]
          ]
        ]
      }
    },
    {
      "type": "Feature",
      "id": "node/8197447802",
      "properties": {
        "timestamp": "2020-12-15T21:11:03Z",
        "version": 8,
        "changeset": 95900863,
        "addr:city": "Florestal",
        "addr:country": "BR",
        "addr:postcode": "35690-000",
        "addr:state": "MG",
        "amenity": "university",
        "name": "CAF UFV",
        "short_name": "CAF",
        "website": "https://www.ufv.br/campus-florestal/",
        "id": "node/8197447802"
      },
      "geometry": {
        "type": "Point",
        "coordinates": [
          -44.4179023,
          -19.8843234
        ]
      }
    },
    {
      "type": "Feature",
      "id": "node/8225981493",
      "properties": {
        "timestamp": "2020-12-18T00:15:47Z",
        "version": 3,
        "changeset": 96032312,
        "addr:city": "Florestal",
        "addr:country": "BR",
        "addr:postcode": "35690-000",
        "addr:state": "MG",
        "amenity": "university",
        "name": "IBF",
        "short_name": "Inst. Ciências Biológicas e da Saúde",
        "id": "node/8225981493"
      },
      "geometry": {
        "type": "Point",
        "coordinates": [
          -44.418345,
          -19.8846289
        ]
      }
    },
    {
      "type": "Feature",
      "id": "node/8225996444",
      "properties": {
        "timestamp": "2020-12-18T00:20:02Z",
        "version": 3,
        "changeset": 96032366,
        "addr:city": "Florestal",
        "addr:postcode": "35690-000",
        "addr:state": "MG",
        "amenity": "university",
        "country": "BR",
        "name": "IAF",
        "short_name": "Instituto de Ciências Agrárias",
        "id": "node/8225996444"
      },
      "geometry": {
        "type": "Point",
        "coordinates": [
          -44.4143837,
          -19.8770804
        ]
      }
    },
    {
      "type": "Feature",
      "id": "node/8225996445",
      "properties": {
        "timestamp": "2020-12-18T00:13:10Z",
        "version": 4,
        "changeset": 96032277,
        "addr:city": "Forestal",
        "addr:country": "BR",
        "addr:postcode": "35690-000",
        "addr:state": "MG",
        "amenity": "university",
        "name": "IEF",
        "short_name": "Inst. Ciências Exatas e Tecnológicas",
        "id": "node/8225996445"
      },
      "geometry": {
        "type": "Point",
        "coordinates": [
          -44.4183236,
          -19.8844775
        ]
      }
    },
    {
      "type": "Feature",
      "id": "node/8225998689",
      "properties": {
        "timestamp": "2020-12-18T00:18:12Z",
        "version": 3,
        "changeset": 96032346,
        "addr:city": "Florestal",
        "addr:country": "BR",
        "addr:postcode": "35690-000",
        "addr:state": "MG",
        "amenity": "university",
        "name": "DXT",
        "short_name": "Dir. Extensão e Cultura",
        "id": "node/8225998689"
      },
      "geometry": {
        "type": "Point",
        "coordinates": [
          -44.4180758,
          -19.8845216
        ]
      }
    },
    {
      "type": "Feature",
      "id": "node/8229549682",
      "properties": {
        "timestamp": "2020-12-18T00:31:39Z",
        "version": 2,
        "changeset": 96032545,
        "addr:city": "Florestal",
        "addr:country": "BR",
        "addr:postcode": "35690-000",
        "addr:state": "MG",
        "amenity": "university",
        "name": "DCC",
        "short_name": "Dir. Assuntos Comunitários",
        "website": "https://www.dcc.caf.ufv.br/",
        "id": "node/8229549682"
      },
      "geometry": {
        "type": "Point",
        "coordinates": [
          -44.4173551,
          -19.8831198
        ]
      }
    },
    {
      "type": "Feature",
      "id": "node/8230882865",
      "properties": {
        "timestamp": "2022-05-17T13:45:15Z",
        "version": 4,
        "changeset": 121101903,
        "addr:city": "Florestal",
        "addr:country": "BR",
        "addr:postcode": "35690-000",
        "addr:state": "MG",
        "amenity": "university",
        "name": "DIE",
        "short_name": "Dir. Ensino",
        "website": "https://www.die.caf.ufv.br/",
        "id": "node/8230882865"
      },
      "geometry": {
        "type": "Point",
        "coordinates": [
          -44.4178415,
          -19.8845973
        ]
      }
    },
    {
      "type": "Feature",
      "id": "node/8230897433",
      "properties": {
        "timestamp": "2022-05-17T13:44:11Z",
        "version": 3,
        "changeset": 121101840,
        "addr:city": "Florestal",
        "addr:country": "BR",
        "addr:postcode": "35690-000",
        "addr:state": "MG",
        "amenity": "university",
        "name": "DPQ",
        "short_name": "Dir. Pesquisa e Pós-Graduação",
        "website": "https://www.dpq.caf.ufv.br/",
        "id": "node/8230897433"
      },
      "geometry": {
        "type": "Point",
        "coordinates": [
          -44.418099,
          -19.8847284
        ]
      }
    },
    {
      "type": "Feature",
      "id": "node/8230899469",
      "properties": {
        "timestamp": "2020-12-18T00:19:30Z",
        "version": 4,
        "changeset": 96032360,
        "addr:city": "Florestal",
        "addr:country": "BR",
        "addr:postcode": "35690-000",
        "addr:state": "MG",
        "amenity": "university",
        "name": "BIB",
        "short_name": "Serviço de Biblioteca",
        "id": "node/8230899469"
      },
      "geometry": {
        "type": "Point",
        "coordinates": [
          -44.415526,
          -19.8838805
        ]
      }
    },
    {
      "type": "Feature",
      "id": "node/8230902034",
      "properties": {
        "timestamp": "2020-12-15T11:20:11Z",
        "version": 1,
        "changeset": 95872161,
        "addr:city": "Florestal",
        "addr:country": "BR",
        "addr:postcode": "35690-000",
        "addr:state": "MG",
        "amenity": "university",
        "name": "Seção de Vigilância",
        "id": "node/8230902034"
      },
      "geometry": {
        "type": "Point",
        "coordinates": [
          -44.4203412,
          -19.8834612
        ]
      }
    },
    {
      "type": "Feature",
      "id": "node/8230903645",
      "properties": {
        "timestamp": "2020-12-15T20:04:31Z",
        "version": 2,
        "changeset": 95898270,
        "addr:city": "Florestal",
        "addr:country": "BR",
        "addr:postcode": "35690-000",
        "addr:state": "MG",
        "amenity": "university",
        "name": "Diretoria Geral",
        "short_name": "DGF",
        "id": "node/8230903645"
      },
      "geometry": {
        "type": "Point",
        "coordinates": [
          -44.4138812,
          -19.8836426
        ]
      }
    },
    {
      "type": "Feature",
      "id": "node/8230913853",
      "properties": {
        "timestamp": "2020-12-18T00:31:06Z",
        "version": 3,
        "changeset": 96032537,
        "addr:city": "Florestal",
        "addr:country": "BR",
        "addr:postcode": "35690-000",
        "addr:state": "MG",
        "amenity": "university",
        "name": "DIA",
        "short_name": "Dir. Administratica e Financeira",
        "id": "node/8230913853"
      },
      "geometry": {
        "type": "Point",
        "coordinates": [
          -44.4196449,
          -19.8840752
        ]
      }
    },
    {
      "type": "Feature",
      "id": "node/8232873489",
      "properties": {
        "timestamp": "2020-12-18T00:17:09Z",
        "version": 3,
        "changeset": 96032332,
        "addr:city": "Florestal",
        "addr:country": "BR",
        "addr:postcode": "35690-000",
        "addr:state": "MG",
        "amenity": "university",
        "name": "IHF",
        "short_name": "Instituto de Ciências Humanas",
        "id": "node/8232873489"
      },
      "geometry": {
        "type": "Point",
        "coordinates": [
          -44.4183298,
          -19.8847636
        ]
      }
    },
    {
      "type": "Feature",
      "id": "node/12069012569",
      "properties": {
        "timestamp": "2024-07-23T00:15:46Z",
        "version": 1,
        "changeset": 154284308,
        "amenity": "university",
        "name": "Universidade Federal de Viçosa - Laboratório de Ensino",
        "id": "node/12069012569"
      },
      "geometry": {
        "type": "Point",
        "coordinates": [
          -44.4171425,
          -19.8864991
        ]
      }
    }
  ]
}
