{
  "type": "FeatureCollection",
  "features": [
    {
      "type": "Feature",
      "id": "way/1356738996",
      "properties": {
        "timestamp": "2025-02-07T18:35:14Z",
        "version": 2,
        "changeset": 162256818,
        "addr:city": "Assu",
        "addr:housenumber": "994",
        "addr:street": "Avenida Senador João Câmara",
        "addr:suburb": "Centro",
        "amenity": "pharmacy",
        "brand": "Pague Menos",
        "brand:wikidata": "Q7124466",
        "building": "yes",
        "healthcare": "pharmacy",
        "name": "Pague Menos",
        "opening_hours": "Mo 07:00-12:00; Tu-Fr 07:00-20:00",
        "phone": "+55 84 4002-8282",
        "shop": "chemist",
        "id": "way/1356738996"
      },
      "geometry": {
        "type": "Polygon",
        "coordinates": [
          [
            [
              -36.9139958,
              -5.5751592
            ],
            [
              -36.9139689,
              -5.5754129
            ],
            [
              -36.9139603,
              -5.5754942
            ],
            [
              -36.9137659,
              -5.5754739
            ],
            [
              -36.9138014,
              -5.5751388
            ],
            [
              -36.9138986,
              -5.575149
            ],
            [
              -36.9139958,
              -5.5751592
            ]
          ]
        ]
      }
    },
    {
      "type": "Feature",
      "id": "way/1358269991",
      "properties": {
        "timestamp": "2025-02-09T02:46:05Z",
        "version": 1,
        "changeset": 162300258,
        "addr:city": "Assu",
        "addr:housenumber": "274",
        "addr:postcode": "59650-000",
        "addr:street": "Rua Augusto Severo",
        "addr:suburb": "Centro",
        "amenity": "pharmacy",
        "brand": "Pague Menos",
        "brand:wikidata": "Q7124466",
        "building": "yes",
        "drive_through": "no",
        "healthcare": "pharmacy",
        "mobile": "+55 84 4002-8282",
        "name": "Pague Menos",
        "opening_hours": "Mo-Su 06:00-20:00",
        "shop": "chemist",
        "website": "https://www.paguemenos.com.br/?utm_source=google&utm_medium=website&utm_campaign=youmap",
        "id": "way/1358269991"
      },
      "geometry": {
        "type": "Polygon",
        "coordinates": [
          [
            [
              -36.9076902,
              -5.5769377
            ],
            [
              -36.907627,
              -5.5772138
            ],
            [
              -36.9073572,
              -5.5771526
            ],
            [
              -36.9074204,
              -5.5768765
            ],
            [
              -36.9076902,
              -5.5769377
            ]
          ]
        ]
      }
    },
    {
      "type": "Feature",
      "id": "node/3138440688",
      "properties": {
        "timestamp": "2022-09-29T13:37:56Z",
        "version": 2,
        "changeset": 126781662,
        "amenity": "pharmacy",
        "healthcare": "pharmacy",
        "id": "node/3138440688"
      },
      "geometry": {
        "type": "Point",
        "coordinates": [
          -36.9066025,
          -5.5740372
        ]
      }
    }
  ]
}
