{
  "type": "FeatureCollection",
  "features": [
    {
      "type": "Feature",
      "id": "node/3545074433",
      "properties": {
        "timestamp": "2019-03-03T23:52:22Z",
        "version": 2,
        "changeset": 67750025,
        "addr:city": "Rifaina",
        "addr:housenumber": "52",
        "addr:postcode": "14490000",
        "addr:street": "Rua Tiradentes",
        "addr:suburb": "Centro",
        "name": "Pousada Mandevilla",
        "phone": "16 3135-7435",
        "smoking": "isolated",
        "tourism": "hotel",
        "website": "https://www.pousadamandevilla.com.br/",
        "id": "node/3545074433"
      },
      "geometry": {
        "type": "Point",
        "coordinates": [
          -47.420701,
          -20.0819009
        ]
      }
    },
    {
      "type": "Feature",
      "id": "node/11011334449",
      "properties": {
        "timestamp": "2023-06-27T23:50:35Z",
        "version": 1,
        "changeset": 137855794,
        "name": "Pousada Casar√£o",
        "tourism": "hotel",
        "id": "node/11011334449"
      },
      "geometry": {
        "type": "Point",
        "coordinates": [
          -47.421552,
          -20.0823079
        ]
      }
    },
    {
      "type": "Feature",
      "id": "node/11013224956",
      "properties": {
        "timestamp": "2023-06-29T00:51:29Z",
        "version": 1,
        "changeset": 137899129,
        "name": "Pousada Vale do Sol",
        "tourism": "hotel",
        "id": "node/11013224956"
      },
      "geometry": {
        "type": "Point",
        "coordinates": [
          -47.4254815,
          -20.0782119
        ]
      }
    }
  ]
}
