{
  "type": "FeatureCollection",
  "features": [
    {
      "type": "Feature",
      "id": "way/493569471",
      "properties": {
        "timestamp": "2017-11-30T01:39:22Z",
        "version": 2,
        "changeset": 54193108,
        "addr:city": "Americana",
        "addr:housenumber": "1000",
        "addr:postcode": "13478-700",
        "addr:street": "Avenida Bandeirantes",
        "addr:suburb": "Machadinho",
        "amenity": "school",
        "name": "Centro Educacional SESI 422",
        "id": "way/493569471"
      },
      "geometry": {
        "type": "Polygon",
        "coordinates": [
          [
            [
              -47.3200327,
              -22.7482541
            ],
            [
              -47.3187781,
              -22.7504368
            ],
            [
              -47.3187016,
              -22.7504665
            ],
            [
              -47.3169633,
              -22.7496552
            ],
            [
              -47.316747,
              -22.7495517
            ],
            [
              -47.3169838,
              -22.7491306
            ],
            [
              -47.3171986,
              -22.7492333
            ],
            [
              -47.3173898,
              -22.749325
            ],
            [
              -47.3177519,
              -22.7492773
            ],
            [
              -47.3181571,
              -22.7493171
            ],
            [
              -47.3184825,
              -22.7487878
            ],
            [
              -47.3181648,
              -22.7484884
            ],
            [
              -47.3183239,
              -22.7483449
            ],
            [
              -47.3184653,
              -22.7480843
            ],
            [
              -47.318505,
              -22.7477907
            ],
            [
              -47.318486,
              -22.747623
            ],
            [
              -47.3185314,
              -22.747556
            ],
            [
              -47.3186399,
              -22.747576
            ],
            [
              -47.3200327,
              -22.7482541
            ]
          ]
        ]
      }
    },
    {
      "type": "Feature",
      "id": "way/505125782",
      "properties": {
        "timestamp": "2017-11-23T01:01:19Z",
        "version": 2,
        "changeset": 54015169,
        "addr:city": "Americana",
        "addr:country": "BR",
        "addr:housenumber": "1258",
        "addr:street": "Avenida Paulista",
        "addr:suburb": "Jardim Nossa Senhora de Fátima",
        "amenity": "school",
        "name": "Instituto Educacional de Americana",
        "phone": "+55 19 3478 9222",
        "website": "http://escolacompleta.com.br/index.php",
        "id": "way/505125782"
      },
      "geometry": {
        "type": "Polygon",
        "coordinates": [
          [
            [
              -47.3120109,
              -22.7384348
            ],
            [
              -47.3121735,
              -22.7379736
            ],
            [
              -47.3121369,
              -22.7379511
            ],
            [
              -47.3121532,
              -22.7379267
            ],
            [
              -47.3121877,
              -22.7379417
            ],
            [
              -47.3122995,
              -22.7376999
            ],
            [
              -47.3122521,
              -22.7377053
            ],
            [
              -47.3122812,
              -22.737623
            ],
            [
              -47.3123707,
              -22.7374299
            ],
            [
              -47.3124022,
              -22.7373849
            ],
            [
              -47.3124438,
              -22.7373587
            ],
            [
              -47.3126867,
              -22.7373737
            ],
            [
              -47.3129073,
              -22.7373873
            ],
            [
              -47.3129185,
              -22.7373952
            ],
            [
              -47.31292,
              -22.7374182
            ],
            [
              -47.3129124,
              -22.7374693
            ],
            [
              -47.312828,
              -22.7376661
            ],
            [
              -47.3123849,
              -22.7385023
            ],
            [
              -47.3120922,
              -22.7384742
            ],
            [
              -47.3120109,
              -22.7384348
            ]
          ]
        ]
      }
    },
    {
      "type": "Feature",
      "id": "way/538393123",
      "properties": {
        "timestamp": "2020-04-23T18:33:21Z",
        "version": 2,
        "changeset": 84018300,
        "addr:city": "Americana",
        "addr:country": "BR",
        "addr:housenumber": "691",
        "addr:postcode": "13473-510",
        "addr:street": "Rua Agenor Faion",
        "addr:suburb": "Vila Bertine",
        "amenity": "school",
        "contact:phone": "+55 19 3468 4900",
        "email": "e907297a@educacao.sp.gov.br",
        "name": "Escola Estadual Profa. Idalina Grandin Mirandola",
        "operator": "Secretaria da Educação do Estado de São Paulo",
        "phone": "+55 19 3468 3973",
        "id": "way/538393123"
      },
      "geometry": {
        "type": "Polygon",
        "coordinates": [
          [
            [
              -47.3003193,
              -22.7201177
            ],
            [
              -47.3001369,
              -22.7207263
            ],
            [
              -47.2994047,
              -22.7205407
            ],
            [
              -47.2995951,
              -22.7198554
            ],
            [
              -47.2996836,
              -22.7198332
            ],
            [
              -47.3003193,
              -22.7201177
            ]
          ]
        ]
      }
    },
    {
      "type": "Feature",
      "id": "way/538395552",
      "properties": {
        "timestamp": "2017-11-05T01:48:56Z",
        "version": 1,
        "changeset": 53517324,
        "addr:city": "Americana",
        "addr:country": "BR",
        "addr:housenumber": "716",
        "addr:postcode": "13472-450",
        "addr:street": "Rua Professor Miguel Couto",
        "addr:suburb": "Vila Cordenonsi",
        "amenity": "school",
        "contact:phone": "+55 19 3468 5170",
        "email": "e016962a@educacao.sp.gov.br",
        "name": "Escola Estadual Professor Silvino José de Oliveira",
        "operator": "Secretaria da Educação do Estado de São Paulo",
        "phone": "+55 19 3468 1807",
        "id": "way/538395552"
      },
      "geometry": {
        "type": "Polygon",
        "coordinates": [
          [
            [
              -47.3219501,
              -22.7262305
            ],
            [
              -47.3221996,
              -22.727089
            ],
            [
              -47.3220722,
              -22.7271645
            ],
            [
              -47.3213708,
              -22.7272894
            ],
            [
              -47.3207834,
              -22.7264285
            ],
            [
              -47.3219501,
              -22.7262305
            ]
          ]
        ]
      }
    },
    {
      "type": "Feature",
      "id": "way/538623599",
      "properties": {
        "timestamp": "2024-05-28T13:33:20Z",
        "version": 2,
        "changeset": 151945277,
        "addr:city": "Americana",
        "addr:country": "BR",
        "addr:housenumber": "531",
        "addr:postcode": "13471-600",
        "addr:street": "Rua Dinamarca",
        "addr:suburb": "Jardim Paulistano",
        "amenity": "school",
        "contact:phone": "+55 19 3406 3468",
        "email": "e016998a@educacao.sp.gov.br",
        "name": "Escola Estadual Professor Alcindo Soares do Nascimento",
        "operator": "Secretaria da Educação do Estado de São Paulo",
        "operator:type": "government",
        "phone": "+55 19 3461 0732",
        "id": "way/538623599"
      },
      "geometry": {
        "type": "Polygon",
        "coordinates": [
          [
            [
              -47.338549,
              -22.725052
            ],
            [
              -47.3379267,
              -22.7259228
            ],
            [
              -47.3374091,
              -22.7255889
            ],
            [
              -47.3380233,
              -22.7247823
            ],
            [
              -47.3380689,
              -22.7247576
            ],
            [
              -47.3381118,
              -22.72477
            ],
            [
              -47.338549,
              -22.725052
            ]
          ]
        ]
      }
    },
    {
      "type": "Feature",
      "id": "way/538859164",
      "properties": {
        "timestamp": "2020-04-22T18:55:23Z",
        "version": 5,
        "changeset": 83957651,
        "addr:city": "Americana",
        "addr:country": "BR",
        "addr:housenumber": "134",
        "addr:postcode": "13475-404",
        "addr:street": "Rua Arthur Vaz Lima",
        "addr:suburb": "Recanto Jatobá",
        "amenity": "school",
        "contact:phone": "+55 19 3465 2300",
        "email": "e047004a@educacao.sp.gov.br",
        "name": "Escola Estadual Profa. Hylda Pardo de Oliveira",
        "operator": "Secretaria da Educação do Estado de São Paulo",
        "phone": "+55 19 3465 1362",
        "id": "way/538859164"
      },
      "geometry": {
        "type": "Polygon",
        "coordinates": [
          [
            [
              -47.275344,
              -22.7094783
            ],
            [
              -47.2748646,
              -22.7089326
            ],
            [
              -47.2752866,
              -22.7086159
            ],
            [
              -47.2753617,
              -22.7086109
            ],
            [
              -47.2754341,
              -22.7086728
            ],
            [
              -47.2757694,
              -22.7090983
            ],
            [
              -47.2757748,
              -22.7091503
            ],
            [
              -47.2756246,
              -22.7092913
            ],
            [
              -47.275344,
              -22.7094783
            ]
          ]
        ]
      }
    },
    {
      "type": "Feature",
      "id": "way/538864012",
      "properties": {
        "timestamp": "2017-11-07T00:38:38Z",
        "version": 1,
        "changeset": 53569479,
        "addr:city": "Americana",
        "addr:country": "BR",
        "addr:housenumber": "200",
        "addr:postcode": "13469-570",
        "addr:street": "Rua Alfredo Spinola de Mello",
        "addr:suburb": "Parque Gramado",
        "amenity": "school",
        "contact:phone": "+55 19 3462 5586",
        "email": "e903772a@educacao.sp.gov.br",
        "name": "Escola Estadual Professora Niomar Apparecida Mattos Gobbo Amaral Gurgel",
        "operator": "Secretaria da Educação do Estado de São Paulo",
        "phone": "+55 19 3406 1861",
        "id": "way/538864012"
      },
      "geometry": {
        "type": "Polygon",
        "coordinates": [
          [
            [
              -47.3629411,
              -22.7204881
            ],
            [
              -47.3629673,
              -22.7205127
            ],
            [
              -47.3629451,
              -22.7205648
            ],
            [
              -47.3626755,
              -22.7210769
            ],
            [
              -47.3621069,
              -22.7210002
            ],
            [
              -47.3622061,
              -22.7204361
            ],
            [
              -47.3622947,
              -22.7204139
            ],
            [
              -47.3629411,
              -22.7204881
            ]
          ]
        ]
      }
    },
    {
      "type": "Feature",
      "id": "way/539133579",
      "properties": {
        "timestamp": "2024-10-08T14:13:59Z",
        "version": 3,
        "changeset": 157629249,
        "addr:city": "Americana",
        "addr:country": "BR",
        "addr:housenumber": "2550",
        "addr:postcode": "13475-010",
        "addr:street": "Avenida Comendador Thomaz Fortunato",
        "addr:suburb": "Chácara Letônia",
        "amenity": "school",
        "contact:phone": "+55 19 3465 2395",
        "email": "e578563a@educacao.sp.gov.br",
        "official_name": "Escola Estadual Professora Maria Lúcia Padovani de Oliveira",
        "operator": "Secretaria da Educação do Estado de São Paulo",
        "operator:type": "government",
        "phone": "+55 19 3465 2364",
        "religion": "none",
        "id": "way/539133579"
      },
      "geometry": {
        "type": "Polygon",
        "coordinates": [
          [
            [
              -47.2831439,
              -22.7225215
            ],
            [
              -47.2832297,
              -22.7230683
            ],
            [
              -47.2829937,
              -22.7234765
            ],
            [
              -47.2826021,
              -22.7235408
            ],
            [
              -47.2823741,
              -22.7226329
            ],
            [
              -47.2831439,
              -22.7225215
            ]
          ]
        ]
      }
    },
    {
      "type": "Feature",
      "id": "way/539314000",
      "properties": {
        "timestamp": "2020-04-23T18:33:21Z",
        "version": 2,
        "changeset": 84018300,
        "addr:city": "Americana",
        "addr:country": "BR",
        "addr:housenumber": "156",
        "addr:postcode": "13473-090",
        "addr:street": "Rua Santa Tereza",
        "addr:suburb": "Vila Belvedere",
        "amenity": "school",
        "contact:phone": "+55 19 3468 2458",
        "email": "e017188a@educacao.sp.gov.br",
        "name": "Escola Estadual Prof. Ary Menegatto",
        "operator": "Secretaria da Educação do Estado de São Paulo",
        "phone": "+55 19 3468 1815",
        "id": "way/539314000"
      },
      "geometry": {
        "type": "Polygon",
        "coordinates": [
          [
            [
              -47.3033493,
              -22.7287509
            ],
            [
              -47.3029121,
              -22.7295995
            ],
            [
              -47.3028531,
              -22.7296044
            ],
            [
              -47.3024159,
              -22.7294139
            ],
            [
              -47.3028155,
              -22.7286025
            ],
            [
              -47.3029336,
              -22.728553
            ],
            [
              -47.3033493,
              -22.7287509
            ]
          ]
        ]
      }
    },
    {
      "type": "Feature",
      "id": "way/539316035",
      "properties": {
        "timestamp": "2023-07-29T16:54:03Z",
        "version": 3,
        "changeset": 139181266,
        "addr:city": "Americana",
        "addr:country": "BR",
        "addr:housenumber": "495",
        "addr:postcode": "13468-080",
        "addr:street": "Rua dos Salgueiros",
        "addr:suburb": "Jardim São Paulo",
        "amenity": "school",
        "contact:phone": "+55 19 3461 8022",
        "email": "e017176a@educacao.sp.gov.br",
        "name": "Escola Estadual Monsenhor Nazareno Maggi",
        "operator": "Secretaria da Educação do Estado de São Paulo",
        "operator:type": "government",
        "phone": "+55 19 3406 2238",
        "religion": "none",
        "id": "way/539316035"
      },
      "geometry": {
        "type": "Polygon",
        "coordinates": [
          [
            [
              -47.338574,
              -22.7567213
            ],
            [
              -47.3379544,
              -22.7572531
            ],
            [
              -47.3374582,
              -22.756521
            ],
            [
              -47.3374716,
              -22.7564418
            ],
            [
              -47.3375145,
              -22.7563949
            ],
            [
              -47.3375789,
              -22.7563479
            ],
            [
              -47.3375735,
              -22.7561772
            ],
            [
              -47.337536,
              -22.7559645
            ],
            [
              -47.3375299,
              -22.7559033
            ],
            [
              -47.3375883,
              -22.7558396
            ],
            [
              -47.3376573,
              -22.7558476
            ],
            [
              -47.3377371,
              -22.7558878
            ],
            [
              -47.338287,
              -22.7563627
            ],
            [
              -47.3385901,
              -22.7566447
            ],
            [
              -47.338574,
              -22.7567213
            ]
          ]
        ]
      }
    },
    {
      "type": "Feature",
      "id": "way/539329920",
      "properties": {
        "timestamp": "2020-04-23T18:33:21Z",
        "version": 3,
        "changeset": 84018300,
        "addr:city": "Americana",
        "addr:country": "BR",
        "addr:housenumber": "353",
        "addr:postcode": "13478-570",
        "addr:street": "Rua Pernambuco",
        "addr:suburb": "Jardim Nossa Senhora de Fátima",
        "amenity": "school",
        "contact:phone": "+55 19 3462 4605",
        "email": "e017140a@educacao.sp.gov.br",
        "name": "Escola Estadual Prof. Mário Patarra Frattini",
        "operator": "Secretaria da Educação do Estado de São Paulo",
        "phone": "+55 19 3406 1844",
        "id": "way/539329920"
      },
      "geometry": {
        "type": "Polygon",
        "coordinates": [
          [
            [
              -47.3226397,
              -22.7388439
            ],
            [
              -47.3225941,
              -22.7392595
            ],
            [
              -47.321827,
              -22.7392224
            ],
            [
              -47.3218618,
              -22.7387845
            ],
            [
              -47.3226397,
              -22.7388439
            ]
          ]
        ]
      }
    },
    {
      "type": "Feature",
      "id": "way/539439734",
      "properties": {
        "timestamp": "2018-11-06T19:55:36Z",
        "version": 2,
        "changeset": 64242877,
        "addr:city": "Americana",
        "addr:housenumber": "801",
        "addr:postcode": "13474-590",
        "addr:street": "Rua Candido Portinari",
        "addr:suburb": "Antonio Zanaga",
        "amenity": "school",
        "name": "Escola Estadual Prefeito Antonio Zanaga",
        "id": "way/539439734"
      },
      "geometry": {
        "type": "Polygon",
        "coordinates": [
          [
            [
              -47.2927951,
              -22.7032221
            ],
            [
              -47.2921996,
              -22.7035067
            ],
            [
              -47.2912367,
              -22.7025466
            ],
            [
              -47.2921728,
              -22.7021235
            ],
            [
              -47.2927951,
              -22.7032221
            ]
          ]
        ]
      }
    },
    {
      "type": "Feature",
      "id": "way/539764627",
      "properties": {
        "timestamp": "2020-04-22T18:55:23Z",
        "version": 4,
        "changeset": 83957651,
        "addr:city": "Americana",
        "addr:country": "BR",
        "addr:housenumber": "550",
        "addr:postcode": "13476-681",
        "addr:street": "Rua Aristodemo Ardito",
        "addr:suburb": "São Benedito",
        "amenity": "school",
        "contact:phone": "+55 19 3467 3700",
        "contact:phone_1": "+55 19 3467 2255",
        "email": "e925883a@educacao.sp.gov.br",
        "name": "Escola Estadual Prof. Martinho Rubens Belluco",
        "operator": "Secretaria da Educação do Estado de São Paulo",
        "phone": "+55 19 3467 2255",
        "id": "way/539764627"
      },
      "geometry": {
        "type": "Polygon",
        "coordinates": [
          [
            [
              -47.2401093,
              -22.7432143
            ],
            [
              -47.2403856,
              -22.7436225
            ],
            [
              -47.2400396,
              -22.7438105
            ],
            [
              -47.2399672,
              -22.7438377
            ],
            [
              -47.2399242,
              -22.7438377
            ],
            [
              -47.2398867,
              -22.7438154
            ],
            [
              -47.2397124,
              -22.743526
            ],
            [
              -47.2396882,
              -22.7434716
            ],
            [
              -47.2397124,
              -22.7434394
            ],
            [
              -47.2401093,
              -22.7432143
            ]
          ]
        ]
      }
    },
    {
      "type": "Feature",
      "id": "way/539933217",
      "properties": {
        "timestamp": "2023-07-30T17:12:09Z",
        "version": 4,
        "changeset": 139218899,
        "addr:city": "Americana",
        "addr:country": "BR",
        "addr:housenumber": "130",
        "addr:postcode": "13467-340",
        "addr:street": "Rua dos Narcísos",
        "addr:suburb": "Vila Mathiesen",
        "amenity": "school",
        "contact:phone": "+55 19 3406 1829",
        "email": "e017197a@educacao.sp.gov.br",
        "name": "Escola Estadual Professora Delmira de Oliveira Lopes",
        "operator": "Secretaria da Educação do Estado de São Paulo",
        "operator:type": "government",
        "phone": "+55 19 3406 3455",
        "religion": "none",
        "id": "way/539933217"
      },
      "geometry": {
        "type": "Polygon",
        "coordinates": [
          [
            [
              -47.331318,
              -22.7676807
            ],
            [
              -47.3317136,
              -22.768137
            ],
            [
              -47.3321199,
              -22.7685191
            ],
            [
              -47.3316881,
              -22.7689074
            ],
            [
              -47.3308191,
              -22.768064
            ],
            [
              -47.3307949,
              -22.7680096
            ],
            [
              -47.3308271,
              -22.7679453
            ],
            [
              -47.331318,
              -22.7676807
            ]
          ]
        ]
      }
    },
    {
      "type": "Feature",
      "id": "way/539934087",
      "properties": {
        "timestamp": "2023-11-05T23:58:11Z",
        "version": 3,
        "changeset": 143671914,
        "addr:city": "Americana",
        "addr:country": "BR",
        "addr:housenumber": "585",
        "addr:postcode": "13469-786",
        "addr:street": "Rua Cira de Oliveira Petrin",
        "addr:suburb": "Jardim Mário Covas",
        "amenity": "school",
        "contact:phone": "+55 19 3407 5922",
        "email": "e435454a@educacao.sp.gov.br",
        "official_name": "Escola Estadual Professora Maria do Carmo Augusti",
        "operator": "Secretaria da Educação do Estado de São Paulo",
        "operator:type": "government",
        "phone": "+55 19 3405 1534",
        "religion": "none",
        "id": "way/539934087"
      },
      "geometry": {
        "type": "Polygon",
        "coordinates": [
          [
            [
              -47.3696833,
              -22.7054639
            ],
            [
              -47.3690343,
              -22.7057454
            ],
            [
              -47.3688165,
              -22.7053977
            ],
            [
              -47.3687744,
              -22.7054167
            ],
            [
              -47.3684482,
              -22.7048688
            ],
            [
              -47.3684393,
              -22.7048142
            ],
            [
              -47.3684639,
              -22.7047558
            ],
            [
              -47.3685731,
              -22.7046984
            ],
            [
              -47.3685902,
              -22.7047301
            ],
            [
              -47.3687145,
              -22.7046647
            ],
            [
              -47.3687259,
              -22.7046417
            ],
            [
              -47.3691164,
              -22.7044491
            ],
            [
              -47.3696833,
              -22.7054639
            ]
          ]
        ]
      }
    },
    {
      "type": "Feature",
      "id": "way/539934428",
      "properties": {
        "timestamp": "2020-04-19T17:35:49Z",
        "version": 2,
        "changeset": 83780298,
        "addr:city": "Americana",
        "addr:country": "BR",
        "addr:housenumber": "449",
        "addr:postcode": "13466-044",
        "addr:street": "Rua Tibiriçá",
        "addr:suburb": "Conserva",
        "amenity": "school",
        "contact:phone": "+55 19 3461 1131",
        "email": "e017164a@educacao.sp.gov.br",
        "name": "Escola Estadual Dr. João de Castro Gonçalves",
        "operator": "Secretaria da Educação do Estado de São Paulo",
        "phone": "+55 19 3406 3585",
        "id": "way/539934428"
      },
      "geometry": {
        "type": "Polygon",
        "coordinates": [
          [
            [
              -47.3234701,
              -22.7473192
            ],
            [
              -47.324087,
              -22.7477422
            ],
            [
              -47.3237973,
              -22.7480464
            ],
            [
              -47.3231804,
              -22.7477026
            ],
            [
              -47.3234701,
              -22.7473192
            ]
          ]
        ]
      }
    },
    {
      "type": "Feature",
      "id": "way/539935484",
      "properties": {
        "timestamp": "2021-08-23T02:00:09Z",
        "version": 3,
        "changeset": 110083840,
        "addr:city": "Americana",
        "addr:country": "BR",
        "addr:housenumber": "601",
        "addr:postcode": "13473-200",
        "addr:street": "Rua João Bernestein",
        "addr:suburb": "São Vito",
        "amenity": "school",
        "contact:phone": "+55 19 3468 4363",
        "email": "e042493a@educacao.sp.gov.br",
        "name": "EMEF Prof. Jonas Correa de Arruda Filho",
        "operator": "Secretaria da Educação do Estado de São Paulo",
        "phone": "+55 19 3468 2568",
        "id": "way/539935484"
      },
      "geometry": {
        "type": "Polygon",
        "coordinates": [
          [
            [
              -47.310031,
              -22.7236816
            ],
            [
              -47.3086524,
              -22.7232932
            ],
            [
              -47.3086175,
              -22.723219
            ],
            [
              -47.3087462,
              -22.7228231
            ],
            [
              -47.3088267,
              -22.7227959
            ],
            [
              -47.3101946,
              -22.7231745
            ],
            [
              -47.3102107,
              -22.7232388
            ],
            [
              -47.3100793,
              -22.7236371
            ],
            [
              -47.310031,
              -22.7236816
            ]
          ]
        ]
      }
    },
    {
      "type": "Feature",
      "id": "way/541979865",
      "properties": {
        "timestamp": "2017-11-20T23:37:06Z",
        "version": 1,
        "changeset": 53963172,
        "addr:city": "Americana",
        "addr:country": "BR",
        "addr:housenumber": "650",
        "addr:postcode": "13469-140",
        "addr:street": "Rua Coelho Neto",
        "addr:suburb": "Vila Amorim",
        "amenity": "school",
        "email": "e017139a@educacao.sp.gov.br",
        "name": "Escola Estadual Professora Maria José de Mattos Gobbo",
        "operator": "Secretaria da Educação do Estado de São Paulo",
        "phone": "+55 19 3461 8544",
        "id": "way/541979865"
      },
      "geometry": {
        "type": "Polygon",
        "coordinates": [
          [
            [
              -47.3538253,
              -22.738263
            ],
            [
              -47.3538173,
              -22.7383571
            ],
            [
              -47.3532674,
              -22.7387825
            ],
            [
              -47.3526988,
              -22.7380553
            ],
            [
              -47.3528785,
              -22.7379538
            ],
            [
              -47.3528866,
              -22.7379093
            ],
            [
              -47.3531119,
              -22.7377559
            ],
            [
              -47.3534015,
              -22.7377065
            ],
            [
              -47.3538253,
              -22.738263
            ]
          ]
        ]
      }
    },
    {
      "type": "Feature",
      "id": "way/542995814",
      "properties": {
        "timestamp": "2024-10-07T23:53:58Z",
        "version": 4,
        "changeset": 157602322,
        "addr:city": "Americana",
        "addr:country": "BR",
        "addr:housenumber": "99",
        "addr:postcode": "13474-530",
        "addr:street": "Rua Maria Cavalcante Proença",
        "addr:suburb": "Antonio Zanaga",
        "amenity": "school",
        "contact:phone": "+55 19 3469 1204",
        "email": "e045500a@educacao.sp.gov.br",
        "official_name": "Escola Estadual Professora Clarice Costa Conti",
        "operator": "Secretaria da Educação do Estado de São Paulo",
        "phone": "+55 19 3469 1197",
        "religion": "none",
        "id": "way/542995814"
      },
      "geometry": {
        "type": "Polygon",
        "coordinates": [
          [
            [
              -47.3008917,
              -22.7023694
            ],
            [
              -47.3004135,
              -22.7029884
            ],
            [
              -47.2994299,
              -22.7026537
            ],
            [
              -47.2997652,
              -22.7020948
            ],
            [
              -47.3001943,
              -22.7022432
            ],
            [
              -47.3003392,
              -22.7021566
            ],
            [
              -47.3008917,
              -22.7023694
            ]
          ]
        ]
      }
    },
    {
      "type": "Feature",
      "id": "way/542995819",
      "properties": {
        "timestamp": "2020-04-20T23:35:21Z",
        "version": 3,
        "changeset": 83845455,
        "addr:city": "Americana",
        "addr:country": "BR",
        "addr:housenumber": "135",
        "addr:postcode": "13474-446",
        "addr:street": "Rua Solano Trindade",
        "addr:suburb": "Antônio Zanaga II",
        "amenity": "school",
        "contact:phone": "+55 19 3469 2019",
        "email": "e049897a@educacao.sp.gov.br",
        "name": "Escola Estadual Prof. Bento Penteado dos Santos",
        "operator": "Secretaria da Educação do Estado de São Paulo",
        "phone": "+55 19 3469 1836",
        "id": "way/542995819"
      },
      "geometry": {
        "type": "Polygon",
        "coordinates": [
          [
            [
              -47.2994165,
              -22.7066967
            ],
            [
              -47.2986307,
              -22.7061449
            ],
            [
              -47.2986092,
              -22.7060905
            ],
            [
              -47.2986199,
              -22.7060336
            ],
            [
              -47.2987421,
              -22.7058918
            ],
            [
              -47.2990233,
              -22.7060917
            ],
            [
              -47.2991544,
              -22.7059559
            ],
            [
              -47.299719,
              -22.706349
            ],
            [
              -47.2994165,
              -22.7066967
            ]
          ]
        ]
      }
    },
    {
      "type": "Feature",
      "id": "way/543014648",
      "properties": {
        "timestamp": "2023-07-31T17:53:52Z",
        "version": 4,
        "changeset": 139265503,
        "addr:city": "Americana",
        "addr:country": "BR",
        "addr:housenumber": "200",
        "addr:postcode": "13469-740",
        "addr:street": "Rua Humberto Polo",
        "addr:suburb": "Parque São Jeronimo",
        "amenity": "school",
        "name": "CIEP São jeronimo",
        "religion": "none",
        "id": "way/543014648"
      },
      "geometry": {
        "type": "Polygon",
        "coordinates": [
          [
            [
              -47.3639716,
              -22.7144406
            ],
            [
              -47.3630221,
              -22.715074
            ],
            [
              -47.3629416,
              -22.7150567
            ],
            [
              -47.362373,
              -22.7143219
            ],
            [
              -47.3623757,
              -22.7142674
            ],
            [
              -47.3624803,
              -22.7141734
            ],
            [
              -47.3632742,
              -22.7136439
            ],
            [
              -47.3633359,
              -22.713639
            ],
            [
              -47.3633869,
              -22.7136637
            ],
            [
              -47.3639716,
              -22.7144406
            ]
          ]
        ]
      }
    },
    {
      "type": "Feature",
      "id": "way/543015497",
      "properties": {
        "timestamp": "2021-09-15T14:44:20Z",
        "version": 3,
        "changeset": 111249062,
        "addr:city": "Americana",
        "addr:country": "BR",
        "addr:housenumber": "1609",
        "addr:postcode": "13467-708",
        "addr:street": "Rua Guarujá",
        "addr:suburb": "Parque Universitário",
        "amenity": "school",
        "contact:phone": "+55 19 3408 6447",
        "email": "e578587a@educacao.sp.gov.br",
        "name": "Escola Estadual Profa Ornella Rita Ferrari Sacilotto",
        "operator": "Secretaria da Educação do Estado de São Paulo",
        "phone": "+55 19 3408 6358",
        "id": "way/543015497"
      },
      "geometry": {
        "type": "Polygon",
        "coordinates": [
          [
            [
              -47.3445271,
              -22.7737207
            ],
            [
              -47.3438083,
              -22.7742945
            ],
            [
              -47.3436822,
              -22.7743452
            ],
            [
              -47.343587,
              -22.7742939
            ],
            [
              -47.3434918,
              -22.7741881
            ],
            [
              -47.3429688,
              -22.7736045
            ],
            [
              -47.3429473,
              -22.77356
            ],
            [
              -47.3429581,
              -22.773513
            ],
            [
              -47.3430117,
              -22.773461
            ],
            [
              -47.3433672,
              -22.7731846
            ],
            [
              -47.3434278,
              -22.7732517
            ],
            [
              -47.3435895,
              -22.7731216
            ],
            [
              -47.3435351,
              -22.7730615
            ],
            [
              -47.3437024,
              -22.7729367
            ],
            [
              -47.3438526,
              -22.7729293
            ],
            [
              -47.3439156,
              -22.7729862
            ],
            [
              -47.3445271,
              -22.7737207
            ]
          ]
        ]
      }
    },
    {
      "type": "Feature",
      "id": "way/543211439",
      "properties": {
        "timestamp": "2018-02-12T01:55:16Z",
        "version": 2,
        "changeset": 56279045,
        "addr:city": "Americana",
        "addr:country": "BR",
        "addr:housenumber": "700",
        "addr:postcode": "13466-290",
        "addr:street": "Rua Riachuelo",
        "addr:suburb": "Vila Santa Catarina",
        "amenity": "school",
        "contact:phone": "+55 19 3462 2083",
        "email": "e980055a@educacao.sp.gov.br",
        "name": "CEEJA Professora Alda Marangoni França",
        "operator": "Secretaria da Educação do Estado de São Paulo",
        "phone": "+55 19 3406 2391",
        "id": "way/543211439"
      },
      "geometry": {
        "type": "Polygon",
        "coordinates": [
          [
            [
              -47.3294096,
              -22.7509532
            ],
            [
              -47.329136,
              -22.7517567
            ],
            [
              -47.3281183,
              -22.7514546
            ],
            [
              -47.3283939,
              -22.7506514
            ],
            [
              -47.3294096,
              -22.7509532
            ]
          ]
        ]
      }
    },
    {
      "type": "Feature",
      "id": "way/543211633",
      "properties": {
        "timestamp": "2020-04-23T11:40:33Z",
        "version": 2,
        "changeset": 83999383,
        "addr:city": "Americana",
        "addr:country": "BR",
        "addr:housenumber": "214",
        "addr:postcode": "13467-080",
        "addr:street": "Rua das Orquídeas",
        "addr:suburb": "Cidade Jardim II",
        "amenity": "school",
        "contact:phone": "+55 19 3406 3452",
        "email": "e017218a@educacao.sp.gov.br",
        "name": "Escola Estadual Profa. Dilecta Ceneviva Martinelli",
        "operator": "Secretaria da Educação do Estado de São Paulo",
        "phone": "+55 19 3406 1800",
        "id": "way/543211633"
      },
      "geometry": {
        "type": "Polygon",
        "coordinates": [
          [
            [
              -47.3376501,
              -22.7617625
            ],
            [
              -47.3377909,
              -22.7618626
            ],
            [
              -47.3382375,
              -22.7626009
            ],
            [
              -47.3378539,
              -22.7627716
            ],
            [
              -47.3374811,
              -22.7629299
            ],
            [
              -47.3369071,
              -22.7629571
            ],
            [
              -47.3369902,
              -22.7618317
            ],
            [
              -47.3370171,
              -22.7617748
            ],
            [
              -47.3370948,
              -22.7617402
            ],
            [
              -47.3376501,
              -22.7617625
            ]
          ]
        ]
      }
    },
    {
      "type": "Feature",
      "id": "way/543212555",
      "properties": {
        "timestamp": "2020-04-19T17:35:49Z",
        "version": 2,
        "changeset": 83780298,
        "amenity": "school",
        "name": "EE Dr. Heitor Peneteado",
        "id": "way/543212555"
      },
      "geometry": {
        "type": "Polygon",
        "coordinates": [
          [
            [
              -47.3313203,
              -22.7441023
            ],
            [
              -47.3309931,
              -22.7443051
            ],
            [
              -47.3306846,
              -22.7439366
            ],
            [
              -47.3310682,
              -22.7436793
            ],
            [
              -47.3313203,
              -22.7441023
            ]
          ]
        ]
      }
    },
    {
      "type": "Feature",
      "id": "way/543212557",
      "properties": {
        "timestamp": "2017-11-28T01:38:23Z",
        "version": 1,
        "changeset": 54136962,
        "addr:city": "Americana",
        "addr:country": "BR",
        "addr:housenumber": "40",
        "addr:postcode": "13465-060",
        "addr:street": "Rua dos Professores",
        "addr:suburb": "Centro",
        "amenity": "school",
        "contact:phone": "+55 19 3461 1598",
        "email": "e017206a@educacao.sp.gov.br",
        "name": "Escola Estadual Doutor Heitor Penteado",
        "operator": "Secretaria da Educação do Estado de São Paulo",
        "phone": "+55 19 3406 2416",
        "id": "way/543212557"
      },
      "geometry": {
        "type": "Polygon",
        "coordinates": [
          [
            [
              -47.3301187,
              -22.7447751
            ],
            [
              -47.3295957,
              -22.7442606
            ],
            [
              -47.3294991,
              -22.7443422
            ],
            [
              -47.3294562,
              -22.7443027
            ],
            [
              -47.329475,
              -22.744174
            ],
            [
              -47.3301388,
              -22.7435915
            ],
            [
              -47.3306712,
              -22.7441815
            ],
            [
              -47.3307302,
              -22.744174
            ],
            [
              -47.3308563,
              -22.7443051
            ],
            [
              -47.3308777,
              -22.7443497
            ],
            [
              -47.3308214,
              -22.7443991
            ],
            [
              -47.3307302,
              -22.7443002
            ],
            [
              -47.330395,
              -22.7445649
            ],
            [
              -47.3304191,
              -22.7446044
            ],
            [
              -47.3301187,
              -22.7447751
            ]
          ]
        ]
      }
    },
    {
      "type": "Feature",
      "id": "way/546465511",
      "properties": {
        "timestamp": "2023-07-30T16:33:33Z",
        "version": 4,
        "changeset": 139217223,
        "addr:city": "Americana",
        "addr:country": "BR",
        "addr:postcode": "13470-434",
        "addr:street": "Rua Serra da canastra",
        "addr:suburb": "Parque Liberdade",
        "amenity": "school",
        "contact:phone": "+55 19 3462 3852",
        "email": "e922183a@educacao.sp.gov.br",
        "name": "Escola Estadual Professora Sebastiana Paie Rodella",
        "note": "Sem numeração",
        "operator": "Secretaria da Educação do Estado de São Paulo",
        "operator:type": "government",
        "phone": "+55 19 3461 1138",
        "religion": "none",
        "id": "way/546465511"
      },
      "geometry": {
        "type": "Polygon",
        "coordinates": [
          [
            [
              -47.3547016,
              -22.7115139
            ],
            [
              -47.3542196,
              -22.7125517
            ],
            [
              -47.3541982,
              -22.7125673
            ],
            [
              -47.3541649,
              -22.7125757
            ],
            [
              -47.3541396,
              -22.7125797
            ],
            [
              -47.3540914,
              -22.7125675
            ],
            [
              -47.354061,
              -22.7125521
            ],
            [
              -47.3540291,
              -22.7125289
            ],
            [
              -47.3538721,
              -22.7122555
            ],
            [
              -47.3538621,
              -22.7122395
            ],
            [
              -47.3538562,
              -22.7122292
            ],
            [
              -47.3538531,
              -22.7122194
            ],
            [
              -47.3538531,
              -22.712203
            ],
            [
              -47.3538486,
              -22.7112185
            ],
            [
              -47.35385,
              -22.7111914
            ],
            [
              -47.3538578,
              -22.7111771
            ],
            [
              -47.3538752,
              -22.7111655
            ],
            [
              -47.3538965,
              -22.7111594
            ],
            [
              -47.3539208,
              -22.7111594
            ],
            [
              -47.3539392,
              -22.7111632
            ],
            [
              -47.3546823,
              -22.7114535
            ],
            [
              -47.354693,
              -22.7114605
            ],
            [
              -47.3547019,
              -22.7114701
            ],
            [
              -47.3547068,
              -22.7114802
            ],
            [
              -47.3547092,
              -22.7114905
            ],
            [
              -47.354707,
              -22.7115013
            ],
            [
              -47.3547016,
              -22.7115139
            ]
          ]
        ]
      }
    },
    {
      "type": "Feature",
      "id": "way/546693452",
      "properties": {
        "timestamp": "2017-12-13T22:52:51Z",
        "version": 1,
        "changeset": 54610002,
        "addr:city": "Americana",
        "addr:country": "BR",
        "addr:housenumber": "171",
        "addr:postcode": "13477-722",
        "addr:street": "Rua Glória",
        "addr:suburb": "Jardim Boer I",
        "amenity": "school",
        "contact:phone": "+55 19 3468 3205",
        "email": "e578575a@educacao.sp.gov.br",
        "name": "Escola Estadual Professora Leny Apparecida Pagoto Boer",
        "operator": "Secretaria da Educação do Estado de São Paulo",
        "phone": "+55 19 3468 2750",
        "id": "way/546693452"
      },
      "geometry": {
        "type": "Polygon",
        "coordinates": [
          [
            [
              -47.2885661,
              -22.7421415
            ],
            [
              -47.2882978,
              -22.7428811
            ],
            [
              -47.2877131,
              -22.742703
            ],
            [
              -47.2876729,
              -22.7426585
            ],
            [
              -47.287925,
              -22.7418768
            ],
            [
              -47.2879518,
              -22.7417927
            ],
            [
              -47.2880001,
              -22.7417606
            ],
            [
              -47.2880833,
              -22.7417705
            ],
            [
              -47.2885661,
              -22.7421415
            ]
          ]
        ]
      }
    },
    {
      "type": "Feature",
      "id": "way/548031440",
      "properties": {
        "timestamp": "2020-04-20T18:00:58Z",
        "version": 3,
        "changeset": 83836525,
        "amenity": "school",
        "name": "EMEI Maraca",
        "id": "way/548031440"
      },
      "geometry": {
        "type": "Polygon",
        "coordinates": [
          [
            [
              -47.3339664,
              -22.7567266
            ],
            [
              -47.3337626,
              -22.7572275
            ],
            [
              -47.3333737,
              -22.7570197
            ],
            [
              -47.3337853,
              -22.7563741
            ],
            [
              -47.3339664,
              -22.7567266
            ]
          ]
        ]
      }
    },
    {
      "type": "Feature",
      "id": "way/580194123",
      "properties": {
        "timestamp": "2020-04-20T23:35:21Z",
        "version": 2,
        "changeset": 83845455,
        "amenity": "school",
        "name": "Casa da Criança Taraguá",
        "id": "way/580194123"
      },
      "geometry": {
        "type": "Polygon",
        "coordinates": [
          [
            [
              -47.2948837,
              -22.7116384
            ],
            [
              -47.2949425,
              -22.7120038
            ],
            [
              -47.294366,
              -22.7119775
            ],
            [
              -47.2944079,
              -22.7116303
            ],
            [
              -47.2948837,
              -22.7116384
            ]
          ]
        ]
      }
    },
    {
      "type": "Feature",
      "id": "way/675024020",
      "properties": {
        "timestamp": "2024-10-08T13:54:59Z",
        "version": 3,
        "changeset": 157628342,
        "amenity": "school",
        "name": "CIEP Professora Oniva de Moura Brizola",
        "religion": "none",
        "id": "way/675024020"
      },
      "geometry": {
        "type": "Polygon",
        "coordinates": [
          [
            [
              -47.2909553,
              -22.6993737
            ],
            [
              -47.2924217,
              -22.6984302
            ],
            [
              -47.2930988,
              -22.6995072
            ],
            [
              -47.2920621,
              -22.6995159
            ],
            [
              -47.2912822,
              -22.6994555
            ],
            [
              -47.2910627,
              -22.6995546
            ],
            [
              -47.2909553,
              -22.6993737
            ]
          ]
        ]
      }
    },
    {
      "type": "Feature",
      "id": "way/681462733",
      "properties": {
        "timestamp": "2020-04-20T00:00:05Z",
        "version": 2,
        "changeset": 83788248,
        "amenity": "school",
        "name": "EMEI Ceci",
        "id": "way/681462733"
      },
      "geometry": {
        "type": "Polygon",
        "coordinates": [
          [
            [
              -47.3598844,
              -22.7638575
            ],
            [
              -47.3598382,
              -22.7643337
            ],
            [
              -47.3592902,
              -22.7643005
            ],
            [
              -47.359325,
              -22.7638189
            ],
            [
              -47.3598844,
              -22.7638575
            ]
          ]
        ]
      }
    },
    {
      "type": "Feature",
      "id": "way/793205531",
      "properties": {
        "timestamp": "2020-04-18T13:01:22Z",
        "version": 1,
        "changeset": 83742355,
        "amenity": "school",
        "name": "EMEI Sabiá",
        "id": "way/793205531"
      },
      "geometry": {
        "type": "Polygon",
        "coordinates": [
          [
            [
              -47.3342803,
              -22.7257216
            ],
            [
              -47.3338994,
              -22.726204
            ],
            [
              -47.3333978,
              -22.7259096
            ],
            [
              -47.333784,
              -22.7254247
            ],
            [
              -47.3342803,
              -22.7257216
            ]
          ]
        ]
      }
    },
    {
      "type": "Feature",
      "id": "way/793256502",
      "properties": {
        "timestamp": "2020-04-18T16:45:03Z",
        "version": 1,
        "changeset": 83749378,
        "amenity": "school",
        "name": "EMEI Bacuri",
        "id": "way/793256502"
      },
      "geometry": {
        "type": "Polygon",
        "coordinates": [
          [
            [
              -47.3333629,
              -22.734324
            ],
            [
              -47.3332932,
              -22.7348039
            ],
            [
              -47.3327031,
              -22.7347841
            ],
            [
              -47.332746,
              -22.7344823
            ],
            [
              -47.3333629,
              -22.734324
            ]
          ]
        ]
      }
    },
    {
      "type": "Feature",
      "id": "way/793537006",
      "properties": {
        "timestamp": "2020-04-19T17:35:49Z",
        "version": 1,
        "changeset": 83780298,
        "amenity": "school",
        "name": "EMEI Aracati",
        "id": "way/793537006"
      },
      "geometry": {
        "type": "Polygon",
        "coordinates": [
          [
            [
              -47.3261046,
              -22.7534258
            ],
            [
              -47.3259222,
              -22.7539007
            ],
            [
              -47.3257827,
              -22.7539304
            ],
            [
              -47.325611,
              -22.7539106
            ],
            [
              -47.3254126,
              -22.7537473
            ],
            [
              -47.3255842,
              -22.7532922
            ],
            [
              -47.3261046,
              -22.7534258
            ]
          ]
        ]
      }
    },
    {
      "type": "Feature",
      "id": "way/793537009",
      "properties": {
        "timestamp": "2020-04-19T17:35:49Z",
        "version": 1,
        "changeset": 83780298,
        "amenity": "school",
        "name": "Escola Estadual Prof. Octavio S. de Arruda",
        "id": "way/793537009"
      },
      "geometry": {
        "type": "Polygon",
        "coordinates": [
          [
            [
              -47.3253828,
              -22.7579652
            ],
            [
              -47.3250395,
              -22.7587467
            ],
            [
              -47.3251414,
              -22.7588754
            ],
            [
              -47.3247069,
              -22.7593057
            ],
            [
              -47.3243206,
              -22.7592859
            ],
            [
              -47.324267,
              -22.7592068
            ],
            [
              -47.324959,
              -22.757797
            ],
            [
              -47.3253828,
              -22.7579652
            ]
          ]
        ]
      }
    },
    {
      "type": "Feature",
      "id": "way/793540375",
      "properties": {
        "timestamp": "2020-04-19T17:50:34Z",
        "version": 1,
        "changeset": 83780691,
        "amenity": "school",
        "name": "EMEI Tangará",
        "id": "way/793540375"
      },
      "geometry": {
        "type": "Polygon",
        "coordinates": [
          [
            [
              -47.3473121,
              -22.7464338
            ],
            [
              -47.3473388,
              -22.746672
            ],
            [
              -47.3468177,
              -22.7467213
            ],
            [
              -47.3468177,
              -22.7464707
            ],
            [
              -47.3473121,
              -22.7464338
            ]
          ]
        ]
      }
    },
    {
      "type": "Feature",
      "id": "way/793635057",
      "properties": {
        "timestamp": "2020-04-19T21:46:23Z",
        "version": 1,
        "changeset": 83786474,
        "amenity": "school",
        "name": "EMEI Corimbó",
        "id": "way/793635057"
      },
      "geometry": {
        "type": "Polygon",
        "coordinates": [
          [
            [
              -47.3425716,
              -22.7581675
            ],
            [
              -47.3430115,
              -22.7585385
            ],
            [
              -47.3425931,
              -22.7589392
            ],
            [
              -47.3422819,
              -22.758672
            ],
            [
              -47.3425341,
              -22.7584494
            ],
            [
              -47.3423946,
              -22.7583455
            ],
            [
              -47.3425716,
              -22.7581675
            ]
          ]
        ]
      }
    },
    {
      "type": "Feature",
      "id": "way/793635065",
      "properties": {
        "timestamp": "2020-04-19T21:46:23Z",
        "version": 1,
        "changeset": 83786474,
        "addr:housenumber": "150",
        "addr:street": "Rua Martins Fontes",
        "amenity": "school",
        "name": "Escola Estadual São Vicente de Paulo",
        "id": "way/793635065"
      },
      "geometry": {
        "type": "Polygon",
        "coordinates": [
          [
            [
              -47.3439864,
              -22.7401492
            ],
            [
              -47.3439176,
              -22.7408049
            ],
            [
              -47.3424211,
              -22.7407044
            ],
            [
              -47.3427823,
              -22.7400275
            ],
            [
              -47.3439864,
              -22.7401492
            ]
          ]
        ]
      }
    },
    {
      "type": "Feature",
      "id": "way/793635073",
      "properties": {
        "timestamp": "2020-04-19T21:46:23Z",
        "version": 1,
        "changeset": 83786474,
        "amenity": "school",
        "name": "Escola Estadual Profa. Olympia Barth de Oliveira",
        "id": "way/793635073"
      },
      "geometry": {
        "type": "Polygon",
        "coordinates": [
          [
            [
              -47.3558603,
              -22.7476123
            ],
            [
              -47.3557666,
              -22.7482819
            ],
            [
              -47.3549976,
              -22.7482243
            ],
            [
              -47.3550874,
              -22.7475619
            ],
            [
              -47.3558603,
              -22.7476123
            ]
          ]
        ]
      }
    },
    {
      "type": "Feature",
      "id": "way/793635074",
      "properties": {
        "timestamp": "2020-04-19T21:46:23Z",
        "version": 1,
        "changeset": 83786474,
        "amenity": "school",
        "name": "Casa da Criança Tahira",
        "id": "way/793635074"
      },
      "geometry": {
        "type": "Polygon",
        "coordinates": [
          [
            [
              -47.3549703,
              -22.7475619
            ],
            [
              -47.3548805,
              -22.7481883
            ],
            [
              -47.3543652,
              -22.7481523
            ],
            [
              -47.3544082,
              -22.7478319
            ],
            [
              -47.3542599,
              -22.7478247
            ],
            [
              -47.3542989,
              -22.7474755
            ],
            [
              -47.3549703,
              -22.7475619
            ]
          ]
        ]
      }
    },
    {
      "type": "Feature",
      "id": "way/793635087",
      "properties": {
        "timestamp": "2020-04-19T21:46:23Z",
        "version": 1,
        "changeset": 83786474,
        "amenity": "school",
        "name": "Escola Estadual Risoleta Lopes Aranha",
        "id": "way/793635087"
      },
      "geometry": {
        "type": "Polygon",
        "coordinates": [
          [
            [
              -47.3415445,
              -22.7327355
            ],
            [
              -47.3409541,
              -22.7336088
            ],
            [
              -47.3405516,
              -22.7333896
            ],
            [
              -47.3411765,
              -22.7325163
            ],
            [
              -47.3415445,
              -22.7327355
            ]
          ]
        ]
      }
    },
    {
      "type": "Feature",
      "id": "way/794193659",
      "properties": {
        "timestamp": "2024-10-08T14:28:05Z",
        "version": 2,
        "changeset": 157629963,
        "addr:housenumber": "270",
        "addr:postcode": "13474-180",
        "addr:street": "Rua Januário Ferraro",
        "addr:suburb": "Jardim Brasil",
        "amenity": "school",
        "email": "e907285a@educacao.sp.gov.br",
        "official_name": "Escola Estadual  Professora Anna Maria Lucia de Nardo Moraes Barros",
        "operator": "Secretaria da Educação do Estado de São Paulo",
        "operator:type": "government",
        "religion": "none",
        "id": "way/794193659"
      },
      "geometry": {
        "type": "Polygon",
        "coordinates": [
          [
            [
              -47.2943728,
              -22.7138353
            ],
            [
              -47.2943334,
              -22.7144767
            ],
            [
              -47.2932815,
              -22.7144231
            ],
            [
              -47.2933317,
              -22.7137706
            ],
            [
              -47.2943728,
              -22.7138353
            ]
          ]
        ]
      }
    },
    {
      "type": "Feature",
      "id": "way/794224852",
      "properties": {
        "timestamp": "2020-04-21T03:58:10Z",
        "version": 1,
        "changeset": 83850708,
        "amenity": "school",
        "name": "Escola Estadual Profa. Sinesia Martini",
        "id": "way/794224852"
      },
      "geometry": {
        "type": "Polygon",
        "coordinates": [
          [
            [
              -47.2415455,
              -22.7408379
            ],
            [
              -47.2407441,
              -22.7413971
            ],
            [
              -47.2405705,
              -22.7411498
            ],
            [
              -47.2413291,
              -22.7406018
            ],
            [
              -47.2415455,
              -22.7408379
            ]
          ]
        ]
      }
    },
    {
      "type": "Feature",
      "id": "way/794224860",
      "properties": {
        "timestamp": "2020-04-21T03:58:10Z",
        "version": 1,
        "changeset": 83850708,
        "amenity": "school",
        "name": "Casa da Criança Pitanga",
        "id": "way/794224860"
      },
      "geometry": {
        "type": "Polygon",
        "coordinates": [
          [
            [
              -47.2383215,
              -22.7433723
            ],
            [
              -47.2389063,
              -22.744251
            ],
            [
              -47.238856,
              -22.7442867
            ],
            [
              -47.2378916,
              -22.7440081
            ],
            [
              -47.2376902,
              -22.7437224
            ],
            [
              -47.2383215,
              -22.7433723
            ]
          ]
        ]
      }
    },
    {
      "type": "Feature",
      "id": "way/794224863",
      "properties": {
        "timestamp": "2020-04-21T03:58:10Z",
        "version": 1,
        "changeset": 83850708,
        "amenity": "school",
        "name": "CIEP Prof. Milton dos Santos",
        "id": "way/794224863"
      },
      "geometry": {
        "type": "Polygon",
        "coordinates": [
          [
            [
              -47.240556,
              -22.7459489
            ],
            [
              -47.2404515,
              -22.7463282
            ],
            [
              -47.2394941,
              -22.7460982
            ],
            [
              -47.2392952,
              -22.7466205
            ],
            [
              -47.2387052,
              -22.7465054
            ],
            [
              -47.238312,
              -22.7459155
            ],
            [
              -47.2387558,
              -22.7456753
            ],
            [
              -47.2388502,
              -22.7458432
            ],
            [
              -47.2389783,
              -22.7459209
            ],
            [
              -47.2391232,
              -22.7459334
            ],
            [
              -47.2396222,
              -22.7457033
            ],
            [
              -47.240556,
              -22.7459489
            ]
          ]
        ]
      }
    },
    {
      "type": "Feature",
      "id": "way/794224870",
      "properties": {
        "timestamp": "2021-09-15T17:03:06Z",
        "version": 2,
        "changeset": 111254906,
        "amenity": "school",
        "name": "Casa da Criança Panamby",
        "id": "way/794224870"
      },
      "geometry": {
        "type": "Polygon",
        "coordinates": [
          [
            [
              -47.2449807,
              -22.745358
            ],
            [
              -47.2444548,
              -22.7455576
            ],
            [
              -47.2444016,
              -22.7455536
            ],
            [
              -47.2443474,
              -22.7455252
            ],
            [
              -47.244233,
              -22.7454552
            ],
            [
              -47.2436018,
              -22.7449401
            ],
            [
              -47.2441713,
              -22.7445402
            ],
            [
              -47.2449807,
              -22.745358
            ]
          ]
        ]
      }
    },
    {
      "type": "Feature",
      "id": "way/794879137",
      "properties": {
        "timestamp": "2020-04-22T17:05:04Z",
        "version": 1,
        "changeset": 83953549,
        "amenity": "school",
        "name": "Escola Estadual Profa. Ana Peres",
        "id": "way/794879137"
      },
      "geometry": {
        "type": "Polygon",
        "coordinates": [
          [
            [
              -47.2560864,
              -22.7505258
            ],
            [
              -47.2554962,
              -22.7510828
            ],
            [
              -47.2552869,
              -22.751396
            ],
            [
              -47.2550398,
              -22.7513138
            ],
            [
              -47.2551462,
              -22.7511112
            ],
            [
              -47.2553315,
              -22.7509024
            ],
            [
              -47.2558359,
              -22.7503834
            ],
            [
              -47.2560864,
              -22.7505258
            ]
          ]
        ]
      }
    },
    {
      "type": "Feature",
      "id": "way/795160889",
      "properties": {
        "timestamp": "2020-04-23T08:23:36Z",
        "version": 1,
        "changeset": 83986410,
        "amenity": "school",
        "name": "Casa da Criança Manacá",
        "id": "way/795160889"
      },
      "geometry": {
        "type": "Polygon",
        "coordinates": [
          [
            [
              -47.3057014,
              -22.7333186
            ],
            [
              -47.3051885,
              -22.7342845
            ],
            [
              -47.304758,
              -22.7340789
            ],
            [
              -47.3052495,
              -22.7331103
            ],
            [
              -47.3057014,
              -22.7333186
            ]
          ]
        ]
      }
    },
    {
      "type": "Feature",
      "id": "way/795160890",
      "properties": {
        "timestamp": "2020-04-23T08:23:36Z",
        "version": 1,
        "changeset": 83986410,
        "amenity": "school",
        "name": "Escola Estadual Profa. Maura Arruda Guidolin",
        "id": "way/795160890"
      },
      "geometry": {
        "type": "Polygon",
        "coordinates": [
          [
            [
              -47.3052251,
              -22.7331046
            ],
            [
              -47.3049137,
              -22.7336931
            ],
            [
              -47.3044527,
              -22.7334932
            ],
            [
              -47.3047794,
              -22.7328963
            ],
            [
              -47.3052251,
              -22.7331046
            ]
          ]
        ]
      }
    },
    {
      "type": "Feature",
      "id": "way/795194715",
      "properties": {
        "timestamp": "2020-04-23T09:45:16Z",
        "version": 1,
        "changeset": 83991986,
        "amenity": "school",
        "name": "Escola Estadual Maestro Germano Benecase",
        "id": "way/795194715"
      },
      "geometry": {
        "type": "Polygon",
        "coordinates": [
          [
            [
              -47.3081473,
              -22.7583181
            ],
            [
              -47.3079739,
              -22.7587978
            ],
            [
              -47.3070844,
              -22.7585569
            ],
            [
              -47.3072409,
              -22.7581463
            ],
            [
              -47.3081473,
              -22.7583181
            ]
          ]
        ]
      }
    },
    {
      "type": "Feature",
      "id": "way/795194717",
      "properties": {
        "timestamp": "2020-04-23T09:45:16Z",
        "version": 1,
        "changeset": 83991986,
        "amenity": "school",
        "name": "EMEI Cunhataí",
        "id": "way/795194717"
      },
      "geometry": {
        "type": "Polygon",
        "coordinates": [
          [
            [
              -47.3088774,
              -22.758579
            ],
            [
              -47.3080436,
              -22.759534
            ],
            [
              -47.3073556,
              -22.7592657
            ],
            [
              -47.3075632,
              -22.7587473
            ],
            [
              -47.3080469,
              -22.7588399
            ],
            [
              -47.3082021,
              -22.7583518
            ],
            [
              -47.3086584,
              -22.7584528
            ],
            [
              -47.3088774,
              -22.758579
            ]
          ]
        ]
      }
    },
    {
      "type": "Feature",
      "id": "way/795194723",
      "properties": {
        "timestamp": "2020-04-23T09:45:16Z",
        "version": 1,
        "changeset": 83991986,
        "amenity": "school",
        "name": "Casa da Criança Araúna",
        "id": "way/795194723"
      },
      "geometry": {
        "type": "Polygon",
        "coordinates": [
          [
            [
              -47.3284158,
              -22.7610804
            ],
            [
              -47.3282782,
              -22.7622444
            ],
            [
              -47.3279132,
              -22.7622224
            ],
            [
              -47.3280508,
              -22.7610418
            ],
            [
              -47.3284158,
              -22.7610804
            ]
          ]
        ]
      }
    },
    {
      "type": "Feature",
      "id": "way/795194726",
      "properties": {
        "timestamp": "2023-07-30T17:12:09Z",
        "version": 2,
        "changeset": 139218899,
        "amenity": "school",
        "name": "Creche Anajá",
        "id": "way/795194726"
      },
      "geometry": {
        "type": "Polygon",
        "coordinates": [
          [
            [
              -47.3300757,
              -22.7662447
            ],
            [
              -47.3300241,
              -22.7667864
            ],
            [
              -47.3299471,
              -22.7668569
            ],
            [
              -47.3296395,
              -22.7665718
            ],
            [
              -47.329678,
              -22.766223
            ],
            [
              -47.3300757,
              -22.7662447
            ]
          ]
        ]
      }
    },
    {
      "type": "Feature",
      "id": "way/795236191",
      "properties": {
        "timestamp": "2023-07-30T16:58:03Z",
        "version": 2,
        "changeset": 139218275,
        "addr:city": "Americana",
        "addr:housenumber": "200",
        "addr:postcode": "13467-330",
        "addr:street": "Rua dos Tucanos",
        "addr:suburb": "Vila Mathiesen",
        "amenity": "school",
        "name": "EMEI Carandá",
        "operator": "Prefeitura Municipal de Americana",
        "operator:type": "government",
        "religion": "none",
        "id": "way/795236191"
      },
      "geometry": {
        "type": "Polygon",
        "coordinates": [
          [
            [
              -47.332536,
              -22.7688006
            ],
            [
              -47.3321606,
              -22.769427
            ],
            [
              -47.3317178,
              -22.7689321
            ],
            [
              -47.3321569,
              -22.768548
            ],
            [
              -47.332536,
              -22.7688006
            ]
          ]
        ]
      }
    },
    {
      "type": "Feature",
      "id": "way/795236195",
      "properties": {
        "timestamp": "2023-07-30T16:58:03Z",
        "version": 2,
        "changeset": 139218275,
        "amenity": "school",
        "name": "Creche Chuí",
        "religion": "none",
        "id": "way/795236195"
      },
      "geometry": {
        "type": "Polygon",
        "coordinates": [
          [
            [
              -47.3325161,
              -22.7696504
            ],
            [
              -47.33247,
              -22.7695975
            ],
            [
              -47.3325083,
              -22.7695744
            ],
            [
              -47.3324729,
              -22.7695254
            ],
            [
              -47.3324096,
              -22.7695618
            ],
            [
              -47.3323519,
              -22.7695079
            ],
            [
              -47.332421,
              -22.7694669
            ],
            [
              -47.3323922,
              -22.7694124
            ],
            [
              -47.332513,
              -22.7693369
            ],
            [
              -47.3325491,
              -22.7693834
            ],
            [
              -47.3326089,
              -22.7693586
            ],
            [
              -47.332644,
              -22.7694059
            ],
            [
              -47.3326323,
              -22.7694261
            ],
            [
              -47.3326719,
              -22.7694744
            ],
            [
              -47.3326962,
              -22.7694572
            ],
            [
              -47.3327143,
              -22.7694809
            ],
            [
              -47.3326927,
              -22.7694932
            ],
            [
              -47.332712,
              -22.7695234
            ],
            [
              -47.3325161,
              -22.7696504
            ]
          ]
        ]
      }
    },
    {
      "type": "Feature",
      "id": "way/795236197",
      "properties": {
        "timestamp": "2020-04-23T11:40:33Z",
        "version": 1,
        "changeset": 83999383,
        "amenity": "school",
        "name": "Casa da Criança Graúna",
        "id": "way/795236197"
      },
      "geometry": {
        "type": "Polygon",
        "coordinates": [
          [
            [
              -47.3372281,
              -22.7651062
            ],
            [
              -47.3373899,
              -22.7654473
            ],
            [
              -47.3369391,
              -22.7656818
            ],
            [
              -47.3367484,
              -22.7652501
            ],
            [
              -47.3367484,
              -22.7650476
            ],
            [
              -47.3372281,
              -22.7651062
            ]
          ]
        ]
      }
    },
    {
      "type": "Feature",
      "id": "way/795236198",
      "properties": {
        "timestamp": "2020-04-23T11:40:33Z",
        "version": 1,
        "changeset": 83999383,
        "amenity": "school",
        "name": "CIEP Prof. Octávio César Borghi",
        "id": "way/795236198"
      },
      "geometry": {
        "type": "Polygon",
        "coordinates": [
          [
            [
              -47.3395861,
              -22.7661827
            ],
            [
              -47.3399907,
              -22.7670727
            ],
            [
              -47.3388637,
              -22.7675949
            ],
            [
              -47.3384475,
              -22.7667796
            ],
            [
              -47.3395861,
              -22.7661827
            ]
          ]
        ]
      }
    },
    {
      "type": "Feature",
      "id": "way/795236206",
      "properties": {
        "timestamp": "2020-04-23T11:40:33Z",
        "version": 1,
        "changeset": 83999383,
        "amenity": "school",
        "name": "Escola Estadual \"Profa. Ornella Rita",
        "id": "way/795236206"
      },
      "geometry": {
        "type": "Polygon",
        "coordinates": [
          [
            [
              -47.3492455,
              -22.7809983
            ],
            [
              -47.3496464,
              -22.7814931
            ],
            [
              -47.3486184,
              -22.782125
            ],
            [
              -47.3481658,
              -22.7816779
            ],
            [
              -47.3492455,
              -22.7809983
            ]
          ]
        ]
      }
    },
    {
      "type": "Feature",
      "id": "way/795236208",
      "properties": {
        "timestamp": "2020-04-23T11:40:33Z",
        "version": 1,
        "changeset": 83999383,
        "amenity": "school",
        "name": "Escola Estadual Antonieta Ghizini Lenhare",
        "id": "way/795236208"
      },
      "geometry": {
        "type": "Polygon",
        "coordinates": [
          [
            [
              -47.3606035,
              -22.7639012
            ],
            [
              -47.3605519,
              -22.7644096
            ],
            [
              -47.3598685,
              -22.7643619
            ],
            [
              -47.3599316,
              -22.7638694
            ],
            [
              -47.3606035,
              -22.7639012
            ]
          ]
        ]
      }
    },
    {
      "type": "Feature",
      "id": "way/795236209",
      "properties": {
        "timestamp": "2020-04-23T11:40:33Z",
        "version": 1,
        "changeset": 83999383,
        "amenity": "school",
        "name": "CIEP Profa. Maria Nilde Mascellani",
        "id": "way/795236209"
      },
      "geometry": {
        "type": "Polygon",
        "coordinates": [
          [
            [
              -47.3147042,
              -22.7157093
            ],
            [
              -47.3143119,
              -22.7163106
            ],
            [
              -47.3128038,
              -22.7154392
            ],
            [
              -47.313522,
              -22.7150519
            ],
            [
              -47.3147042,
              -22.7157093
            ]
          ]
        ]
      }
    },
    {
      "type": "Feature",
      "id": "way/795236210",
      "properties": {
        "timestamp": "2020-04-23T11:40:33Z",
        "version": 1,
        "changeset": 83999383,
        "amenity": "school",
        "name": "Casa da Criança Jaguari",
        "id": "way/795236210"
      },
      "geometry": {
        "type": "Polygon",
        "coordinates": [
          [
            [
              -47.3142898,
              -22.716336
            ],
            [
              -47.3137871,
              -22.7171666
            ],
            [
              -47.313533,
              -22.716759
            ],
            [
              -47.3128922,
              -22.71708
            ],
            [
              -47.3125055,
              -22.7163564
            ],
            [
              -47.312743,
              -22.7162341
            ],
            [
              -47.312395,
              -22.7157246
            ],
            [
              -47.3127817,
              -22.7154749
            ],
            [
              -47.3142898,
              -22.716336
            ]
          ]
        ]
      }
    },
    {
      "type": "Feature",
      "id": "way/795259331",
      "properties": {
        "timestamp": "2020-04-23T12:51:43Z",
        "version": 1,
        "changeset": 84003248,
        "amenity": "school",
        "name": "EMEI Paturi",
        "id": "way/795259331"
      },
      "geometry": {
        "type": "Polygon",
        "coordinates": [
          [
            [
              -47.3080669,
              -22.7210217
            ],
            [
              -47.3076127,
              -22.7216276
            ],
            [
              -47.3073542,
              -22.7216598
            ],
            [
              -47.3076267,
              -22.7208348
            ],
            [
              -47.3080669,
              -22.7210217
            ]
          ]
        ]
      }
    },
    {
      "type": "Feature",
      "id": "way/795259334",
      "properties": {
        "timestamp": "2020-04-23T12:51:43Z",
        "version": 1,
        "changeset": 84003248,
        "amenity": "school",
        "name": "Creche Curimã",
        "id": "way/795259334"
      },
      "geometry": {
        "type": "Polygon",
        "coordinates": [
          [
            [
              -47.306016,
              -22.7254541
            ],
            [
              -47.3058969,
              -22.7257967
            ],
            [
              -47.305217,
              -22.7256092
            ],
            [
              -47.3053642,
              -22.7252795
            ],
            [
              -47.306016,
              -22.7254541
            ]
          ]
        ]
      }
    },
    {
      "type": "Feature",
      "id": "way/795259335",
      "properties": {
        "timestamp": "2020-04-23T12:51:43Z",
        "version": 1,
        "changeset": 84003248,
        "amenity": "school",
        "name": "CIEP Profa. Philomena Magaly Makluf Rossetti",
        "id": "way/795259335"
      },
      "geometry": {
        "type": "Polygon",
        "coordinates": [
          [
            [
              -47.3113915,
              -22.7265343
            ],
            [
              -47.3112103,
              -22.7272415
            ],
            [
              -47.3105272,
              -22.727068
            ],
            [
              -47.3108269,
              -22.7261872
            ],
            [
              -47.3112521,
              -22.72629
            ],
            [
              -47.3113915,
              -22.7265343
            ]
          ]
        ]
      }
    },
    {
      "type": "Feature",
      "id": "way/795375211",
      "properties": {
        "timestamp": "2020-04-23T18:33:21Z",
        "version": 1,
        "changeset": 84018300,
        "amenity": "school",
        "name": "Creche Taperá",
        "id": "way/795375211"
      },
      "geometry": {
        "type": "Polygon",
        "coordinates": [
          [
            [
              -47.3149227,
              -22.7277944
            ],
            [
              -47.3151521,
              -22.7283947
            ],
            [
              -47.3146517,
              -22.7282391
            ],
            [
              -47.3146666,
              -22.7278831
            ],
            [
              -47.3149227,
              -22.7277944
            ]
          ]
        ]
      }
    },
    {
      "type": "Feature",
      "id": "way/795375212",
      "properties": {
        "timestamp": "2022-09-17T00:11:56Z",
        "version": 3,
        "changeset": 126281993,
        "amenity": "school",
        "name": "EMEI Potira",
        "id": "way/795375212"
      },
      "geometry": {
        "type": "Polygon",
        "coordinates": [
          [
            [
              -47.3165087,
              -22.7277036
            ],
            [
              -47.3165534,
              -22.7278624
            ],
            [
              -47.3157808,
              -22.7278654
            ],
            [
              -47.3157603,
              -22.7278168
            ],
            [
              -47.3156034,
              -22.7275181
            ],
            [
              -47.3157733,
              -22.7274448
            ],
            [
              -47.3159346,
              -22.7274708
            ],
            [
              -47.3164362,
              -22.7276465
            ],
            [
              -47.3165087,
              -22.7277036
            ]
          ]
        ]
      }
    },
    {
      "type": "Feature",
      "id": "way/795375217",
      "properties": {
        "timestamp": "2020-04-23T18:33:21Z",
        "version": 1,
        "changeset": 84018300,
        "amenity": "school",
        "name": "EMEI Araçari",
        "id": "way/795375217"
      },
      "geometry": {
        "type": "Polygon",
        "coordinates": [
          [
            [
              -47.3008443,
              -22.7203593
            ],
            [
              -47.3006779,
              -22.7208965
            ],
            [
              -47.3003852,
              -22.7208311
            ],
            [
              -47.3005609,
              -22.7202797
            ],
            [
              -47.3008443,
              -22.7203593
            ]
          ]
        ]
      }
    },
    {
      "type": "Feature",
      "id": "way/795375221",
      "properties": {
        "timestamp": "2020-04-23T18:33:21Z",
        "version": 1,
        "changeset": 84018300,
        "amenity": "school",
        "name": "EMEI Indaiá",
        "id": "way/795375221"
      },
      "geometry": {
        "type": "Polygon",
        "coordinates": [
          [
            [
              -47.3050624,
              -22.7294702
            ],
            [
              -47.3047942,
              -22.7299939
            ],
            [
              -47.304329,
              -22.7297902
            ],
            [
              -47.3046129,
              -22.7292884
            ],
            [
              -47.3050624,
              -22.7294702
            ]
          ]
        ]
      }
    },
    {
      "type": "Feature",
      "id": "way/795375222",
      "properties": {
        "timestamp": "2020-04-23T18:33:21Z",
        "version": 1,
        "changeset": 84018300,
        "amenity": "school",
        "name": "Escola Estadual Prof. Constantino Augusto Pinke",
        "id": "way/795375222"
      },
      "geometry": {
        "type": "Polygon",
        "coordinates": [
          [
            [
              -47.3000952,
              -22.7409347
            ],
            [
              -47.2995455,
              -22.7419644
            ],
            [
              -47.2988813,
              -22.741674
            ],
            [
              -47.2994425,
              -22.7406389
            ],
            [
              -47.3000952,
              -22.7409347
            ]
          ]
        ]
      }
    },
    {
      "type": "Feature",
      "id": "way/795375241",
      "properties": {
        "timestamp": "2020-04-23T18:33:21Z",
        "version": 1,
        "changeset": 84018300,
        "amenity": "school",
        "name": "EMEI Jacina",
        "id": "way/795375241"
      },
      "geometry": {
        "type": "Polygon",
        "coordinates": [
          [
            [
              -47.3226424,
              -22.7381455
            ],
            [
              -47.3225992,
              -22.7387142
            ],
            [
              -47.3223262,
              -22.7386936
            ],
            [
              -47.3223271,
              -22.7382843
            ],
            [
              -47.3226424,
              -22.7381455
            ]
          ]
        ]
      }
    },
    {
      "type": "Feature",
      "id": "way/827731661",
      "properties": {
        "timestamp": "2020-07-18T22:19:19Z",
        "version": 1,
        "changeset": 88187636,
        "amenity": "school",
        "id": "way/827731661"
      },
      "geometry": {
        "type": "Polygon",
        "coordinates": [
          [
            [
              -47.3620575,
              -22.7245179
            ],
            [
              -47.361921,
              -22.7248405
            ],
            [
              -47.3615584,
              -22.7247815
            ],
            [
              -47.3617248,
              -22.7243841
            ],
            [
              -47.361985,
              -22.7244667
            ],
            [
              -47.3620575,
              -22.7245179
            ]
          ]
        ]
      }
    },
    {
      "type": "Feature",
      "id": "way/1070480072",
      "properties": {
        "timestamp": "2022-06-17T02:26:41Z",
        "version": 1,
        "changeset": 122486857,
        "amenity": "school",
        "name": "Colégio Objetivo",
        "id": "way/1070480072"
      },
      "geometry": {
        "type": "Polygon",
        "coordinates": [
          [
            [
              -47.3100829,
              -22.7371847
            ],
            [
              -47.3100032,
              -22.7373929
            ],
            [
              -47.3098638,
              -22.7373476
            ],
            [
              -47.3095009,
              -22.7382957
            ],
            [
              -47.3092709,
              -22.7382876
            ],
            [
              -47.3092284,
              -22.7382353
            ],
            [
              -47.309715,
              -22.7371386
            ],
            [
              -47.3097575,
              -22.737119
            ],
            [
              -47.3098407,
              -22.737106
            ],
            [
              -47.3100829,
              -22.7371847
            ]
          ]
        ]
      }
    },
    {
      "type": "Feature",
      "id": "way/1095049134",
      "properties": {
        "timestamp": "2022-09-16T02:00:53Z",
        "version": 1,
        "changeset": 126244167,
        "addr:city": "Americana",
        "addr:housenumber": "2000",
        "addr:postcode": "13465770",
        "addr:street": "Avenida Brasil",
        "addr:suburb": "Residencial Nardini",
        "amenity": "school",
        "email": "secretaria@colegiopolitec.com.br",
        "name": "Colégio Politec",
        "phone": "+55 19 3406 7273",
        "website": "http://www.colegiopolitec.com.br",
        "id": "way/1095049134"
      },
      "geometry": {
        "type": "Polygon",
        "coordinates": [
          [
            [
              -47.3495847,
              -22.7524252
            ],
            [
              -47.3496193,
              -22.7525012
            ],
            [
              -47.3496032,
              -22.752568
            ],
            [
              -47.3495585,
              -22.7526177
            ],
            [
              -47.3494907,
              -22.7526411
            ],
            [
              -47.3494198,
              -22.7526283
            ],
            [
              -47.3493551,
              -22.7525751
            ],
            [
              -47.3493012,
              -22.7526099
            ],
            [
              -47.348846,
              -22.7525743
            ],
            [
              -47.3488468,
              -22.7525076
            ],
            [
              -47.3488953,
              -22.7524294
            ],
            [
              -47.3490147,
              -22.7524365
            ],
            [
              -47.3490178,
              -22.752406
            ],
            [
              -47.3490586,
              -22.7523364
            ],
            [
              -47.3491241,
              -22.7522923
            ],
            [
              -47.3492057,
              -22.7522789
            ],
            [
              -47.3492735,
              -22.7523009
            ],
            [
              -47.349332,
              -22.7523527
            ],
            [
              -47.3495238,
              -22.7522298
            ],
            [
              -47.3495531,
              -22.7522717
            ],
            [
              -47.3495415,
              -22.7522838
            ],
            [
              -47.3496147,
              -22.7523769
            ],
            [
              -47.3496409,
              -22.752362
            ],
            [
              -47.349654,
              -22.7523818
            ],
            [
              -47.3495847,
              -22.7524252
            ]
          ]
        ]
      }
    },
    {
      "type": "Feature",
      "id": "way/1095282043",
      "properties": {
        "timestamp": "2022-09-17T00:11:56Z",
        "version": 1,
        "changeset": 126281993,
        "addr:city": "Americana",
        "addr:housenumber": "275",
        "addr:postcode": "13472-250",
        "addr:street": "Rua São Lucas",
        "addr:suburb": "São Manoel",
        "amenity": "school",
        "name": "Escola Estadual Jpão Solidario Pedroso",
        "phone": "+55 19 3468 4965",
        "id": "way/1095282043"
      },
      "geometry": {
        "type": "Polygon",
        "coordinates": [
          [
            [
              -47.3160351,
              -22.7278874
            ],
            [
              -47.3161351,
              -22.7278856
            ],
            [
              -47.3161372,
              -22.7279813
            ],
            [
              -47.3163343,
              -22.7279777
            ],
            [
              -47.3163357,
              -22.7280455
            ],
            [
              -47.3164287,
              -22.7280438
            ],
            [
              -47.316433,
              -22.7282397
            ],
            [
              -47.3162126,
              -22.7282437
            ],
            [
              -47.316214,
              -22.7283059
            ],
            [
              -47.3164074,
              -22.7283023
            ],
            [
              -47.3164094,
              -22.7283973
            ],
            [
              -47.3160587,
              -22.7284036
            ],
            [
              -47.3160568,
              -22.7283106
            ],
            [
              -47.3161715,
              -22.7283085
            ],
            [
              -47.3161701,
              -22.7282443
            ],
            [
              -47.3160428,
              -22.7282466
            ],
            [
              -47.3160392,
              -22.728076
            ],
            [
              -47.3160351,
              -22.7278874
            ]
          ]
        ]
      }
    },
    {
      "type": "Feature",
      "id": "way/1193330597",
      "properties": {
        "timestamp": "2023-07-30T14:39:29Z",
        "version": 1,
        "changeset": 139212737,
        "addr:housenumber": "789",
        "addr:street": "Rua Iacanga",
        "addr:suburb": "Jardim Ipiranga",
        "amenity": "school",
        "name": "Antares Educação Infantil",
        "phone": "+55 19 3461 5647",
        "website": "https://antaresamericana.com.br/",
        "id": "way/1193330597"
      },
      "geometry": {
        "type": "Polygon",
        "coordinates": [
          [
            [
              -47.3602391,
              -22.7532198
            ],
            [
              -47.3602823,
              -22.7532456
            ],
            [
              -47.360295,
              -22.7532818
            ],
            [
              -47.3602772,
              -22.7534433
            ],
            [
              -47.3598978,
              -22.7533871
            ],
            [
              -47.3599055,
              -22.7533345
            ],
            [
              -47.3599511,
              -22.7533403
            ],
            [
              -47.3599626,
              -22.7533123
            ],
            [
              -47.3596276,
              -22.7532772
            ],
            [
              -47.3596339,
              -22.7532116
            ],
            [
              -47.3596403,
              -22.7531695
            ],
            [
              -47.3596669,
              -22.7531531
            ],
            [
              -47.3602391,
              -22.7532198
            ]
          ]
        ]
      }
    },
    {
      "type": "Feature",
      "id": "node/7417471729",
      "properties": {
        "timestamp": "2020-04-18T16:45:03Z",
        "version": 1,
        "changeset": 83749378,
        "amenity": "school",
        "name": "EMEI Bore",
        "id": "node/7417471729"
      },
      "geometry": {
        "type": "Point",
        "coordinates": [
          -47.3508893,
          -22.742745
        ]
      }
    }
  ]
}
