{
  "type": "FeatureCollection",
  "features": [
    {
      "type": "Feature",
      "id": "node/1944319610",
      "properties": {
        "timestamp": "2021-08-04T01:03:54Z",
        "version": 5,
        "changeset": 109117890,
        "addr:city": "Cachoeira",
        "addr:housenumber": "10",
        "addr:street": "Rua Maestro Irineu Sacramento",
        "amenity": "dentist",
        "healthcare": "dentist",
        "name": "Consultório Odontológico Ieda Lúcia",
        "phone": "+55 75 3425-1125",
        "id": "node/1944319610"
      },
      "geometry": {
        "type": "Point",
        "coordinates": [
          -38.9665962,
          -12.6012116
        ]
      }
    },
    {
      "type": "Feature",
      "id": "node/1944352564",
      "properties": {
        "timestamp": "2021-08-04T01:03:54Z",
        "version": 4,
        "changeset": 109117890,
        "addr:housenumber": "05",
        "addr:street": "Rua Ruy Barbosa",
        "amenity": "dentist",
        "healthcare": "dentist",
        "name": "Dayube Odonto",
        "id": "node/1944352564"
      },
      "geometry": {
        "type": "Point",
        "coordinates": [
          -38.9639614,
          -12.6029618
        ]
      }
    }
  ]
}
