{
  "type": "FeatureCollection",
  "features": [
    {
      "type": "Feature",
      "id": "way/697754352",
      "properties": {
        "timestamp": "2022-12-15T05:12:07Z",
        "version": 6,
        "changeset": 130097261,
        "addr:city": "Oiapoque",
        "amenity": "clinic",
        "building": "yes",
        "healthcare": "clinic",
        "healthcare:speciality": "psychiatry",
        "name": "Centro de Atenção Psicossocial de Oiapoque",
        "operator": "Sistema Único de Saúde",
        "operator:short": "SUS",
        "operator:wikidata": "Q7531056",
        "operator:wikipedia": "pt:Sistema Único de Saúde",
        "id": "way/697754352"
      },
      "geometry": {
        "type": "Polygon",
        "coordinates": [
          [
            [
              -51.8383616,
              3.8431173
            ],
            [
              -51.8384725,
              3.8430572
            ],
            [
              -51.8384241,
              3.8429685
            ],
            [
              -51.8383133,
              3.8430286
            ],
            [
              -51.8383616,
              3.8431173
            ]
          ]
        ]
      }
    },
    {
      "type": "Feature",
      "id": "node/5798334943",
      "properties": {
        "timestamp": "2020-02-11T13:54:18Z",
        "version": 6,
        "changeset": 80854686,
        "addr:city": "Oiapoque",
        "addr:suburb": "Vila Brasil",
        "amenity": "clinic",
        "healthcare": "clinic",
        "healthcare:speciality": "general",
        "name": "Posto de saúde Villa Brasil",
        "operator": "Secretario Municipal de Saúde de Oiapoque",
        "id": "node/5798334943"
      },
      "geometry": {
        "type": "Point",
        "coordinates": [
          -52.329153,
          3.1707566
        ]
      }
    },
    {
      "type": "Feature",
      "id": "node/5799505922",
      "properties": {
        "timestamp": "2020-02-11T13:54:18Z",
        "version": 8,
        "changeset": 80854686,
        "addr:city": "Oiapoque",
        "addr:suburb": "Ilha Bela",
        "amenity": "clinic",
        "healthcare": "clinic",
        "healthcare:speciality": "general",
        "name": "Posto de saúde Ilha Bela & Centro Malakit",
        "operator": "Secretario Municipal de Saúde de Oiapoque & Ong Dpac Fronteira",
        "id": "node/5799505922"
      },
      "geometry": {
        "type": "Point",
        "coordinates": [
          -52.2607005,
          3.2492131
        ]
      }
    },
    {
      "type": "Feature",
      "id": "node/5799514635",
      "properties": {
        "timestamp": "2019-07-01T19:43:45Z",
        "version": 6,
        "changeset": 71797560,
        "addr:city": "Oiapoque",
        "addr:suburb": "Planalto",
        "amenity": "clinic",
        "description": "Unidade Básica de Saúde Planalto",
        "healthcare": "clinic",
        "healthcare:speciality": "general",
        "name": "Unidade Básica de Saúde de Planalto",
        "operator": "Secretario Municipal de Saúde de Oiapoque",
        "id": "node/5799514635"
      },
      "geometry": {
        "type": "Point",
        "coordinates": [
          -51.8310232,
          3.8413997
        ]
      }
    },
    {
      "type": "Feature",
      "id": "node/5923223854",
      "properties": {
        "timestamp": "2020-02-11T13:54:18Z",
        "version": 5,
        "changeset": 80854686,
        "addr:city": "Oiapoque",
        "amenity": "clinic",
        "healthcare": "clinic",
        "healthcare:speciality": "general",
        "name": "Unidade Básica de Saúde Julieta Palmerim",
        "operator": "Secretario Municipal de Saúde de Oiapoque",
        "id": "node/5923223854"
      },
      "geometry": {
        "type": "Point",
        "coordinates": [
          -51.8373187,
          3.8461641
        ]
      }
    },
    {
      "type": "Feature",
      "id": "node/5961936757",
      "properties": {
        "timestamp": "2020-02-11T13:54:18Z",
        "version": 3,
        "changeset": 80854686,
        "addr:city": "Oiapoque",
        "addr:suburb": "Kunana",
        "amenity": "clinic",
        "healthcare": "clinic",
        "healthcare:speciality": "general",
        "name": "Posto de saúde indígena Kunana",
        "operator": "Secretaria Especial de Saúde Indígena",
        "id": "node/5961936757"
      },
      "geometry": {
        "type": "Point",
        "coordinates": [
          -51.6170618,
          4.0192957
        ]
      }
    },
    {
      "type": "Feature",
      "id": "node/5961952031",
      "properties": {
        "timestamp": "2020-02-11T13:54:18Z",
        "version": 4,
        "changeset": 80854686,
        "addr:city": "Oiapoque",
        "addr:suburb": "Estrela",
        "amenity": "clinic",
        "healthcare": "clinic",
        "healthcare:speciality": "general",
        "name": "Posto de saúde indígena Estrela",
        "operator": "Secretaria Especial de Saúde Indígena",
        "id": "node/5961952031"
      },
      "geometry": {
        "type": "Point",
        "coordinates": [
          -51.7047179,
          3.3812844
        ]
      }
    },
    {
      "type": "Feature",
      "id": "node/5961969357",
      "properties": {
        "timestamp": "2020-03-09T03:51:40Z",
        "version": 4,
        "changeset": 81940937,
        "addr:city": "Oiapoque",
        "addr:suburb": "Espírito Santo",
        "amenity": "clinic",
        "healthcare": "clinic",
        "healthcare:speciality": "general",
        "name": "Posto de Saúde Indígena Espírito Santo",
        "operator": "Secretaria Especial de Saúde Indígena",
        "operator:type": "government",
        "id": "node/5961969357"
      },
      "geometry": {
        "type": "Point",
        "coordinates": [
          -51.5842434,
          3.7771604
        ]
      }
    },
    {
      "type": "Feature",
      "id": "node/5961992463",
      "properties": {
        "timestamp": "2020-02-11T13:54:18Z",
        "version": 3,
        "changeset": 80854686,
        "addr:city": "Oiapoque",
        "addr:suburb": "Encruzo",
        "amenity": "clinic",
        "healthcare": "clinic",
        "healthcare:speciality": "general",
        "name": "Posto de saúde indígena Encruzo",
        "operator": "Secretaria Especial de Saúde Indígena",
        "id": "node/5961992463"
      },
      "geometry": {
        "type": "Point",
        "coordinates": [
          -51.4549607,
          3.9460531
        ]
      }
    },
    {
      "type": "Feature",
      "id": "node/5961995704",
      "properties": {
        "timestamp": "2020-02-11T13:54:18Z",
        "version": 3,
        "changeset": 80854686,
        "addr:city": "Oiapoque",
        "addr:suburb": "Açaizal",
        "amenity": "clinic",
        "healthcare": "clinic",
        "healthcare:speciality": "general",
        "name": "Posto de saúde indígena Açaizal",
        "operator": "Secretaria Especial de Saúde Indígena",
        "id": "node/5961995704"
      },
      "geometry": {
        "type": "Point",
        "coordinates": [
          -51.515615,
          3.89453
        ]
      }
    },
    {
      "type": "Feature",
      "id": "node/5962022670",
      "properties": {
        "timestamp": "2019-08-28T05:20:14Z",
        "version": 5,
        "changeset": 73821617,
        "addr:city": "Oiapoque",
        "addr:suburb": "Manga",
        "amenity": "clinic",
        "healthcare": "clinic",
        "healthcare:speciality": "general",
        "name": "Polo Base de saúde indígena Manga",
        "operator": "Secretaria Especial de Saúde Indígena",
        "operator:type": "public",
        "id": "node/5962022670"
      },
      "geometry": {
        "type": "Point",
        "coordinates": [
          -51.7193884,
          3.724469
        ]
      }
    },
    {
      "type": "Feature",
      "id": "node/5962039798",
      "properties": {
        "timestamp": "2020-02-11T13:54:18Z",
        "version": 5,
        "changeset": 80854686,
        "addr:city": "Oiapoque",
        "addr:suburb": "Kumene",
        "amenity": "clinic",
        "healthcare": "clinic",
        "healthcare:speciality": "general",
        "name": "Polo Base de saúde indígena Kumene",
        "operator": "Secretaria Especial de Saúde Indígena",
        "id": "node/5962039798"
      },
      "geometry": {
        "type": "Point",
        "coordinates": [
          -51.4830976,
          3.4888214
        ]
      }
    },
    {
      "type": "Feature",
      "id": "node/5962056150",
      "properties": {
        "timestamp": "2020-03-09T03:49:27Z",
        "version": 6,
        "changeset": 81940866,
        "addr:city": "Oiapoque",
        "addr:suburb": "Kumarumã",
        "amenity": "clinic",
        "healthcare": "clinic",
        "healthcare:speciality": "general",
        "name": "Polo Base de Saúde Indígena Kumarumã",
        "operator": "Secretaria Especial de Saúde Indígena",
        "operator:type": "government",
        "id": "node/5962056150"
      },
      "geometry": {
        "type": "Point",
        "coordinates": [
          -51.300467,
          3.3813052
        ]
      }
    },
    {
      "type": "Feature",
      "id": "node/5962102292",
      "properties": {
        "timestamp": "2020-02-11T13:54:18Z",
        "version": 5,
        "changeset": 80854686,
        "addr:city": "Oiapoque",
        "addr:suburb": "Piquia",
        "amenity": "clinic",
        "healthcare": "clinic",
        "healthcare:speciality": "general",
        "name": "Posto de saúde do Piquia",
        "operator": "Secretario Municipal de Saúde de Oiapoque",
        "id": "node/5962102292"
      },
      "geometry": {
        "type": "Point",
        "coordinates": [
          -51.7817206,
          3.5728112
        ]
      }
    },
    {
      "type": "Feature",
      "id": "node/5965091492",
      "properties": {
        "timestamp": "2020-02-11T13:54:18Z",
        "version": 4,
        "changeset": 80854686,
        "addr:city": "Oiapoque",
        "addr:suburb": "Galibi",
        "amenity": "clinic",
        "healthcare": "clinic",
        "healthcare:speciality": "general",
        "name": "Posto de saúde indígena Galibi",
        "operator": "Secretaria Especial de Saúde Indígena",
        "id": "node/5965091492"
      },
      "geometry": {
        "type": "Point",
        "coordinates": [
          -51.7265823,
          3.9993676
        ]
      }
    },
    {
      "type": "Feature",
      "id": "node/5965107217",
      "properties": {
        "timestamp": "2020-02-11T13:54:18Z",
        "version": 4,
        "changeset": 80854686,
        "addr:city": "Oiapoque",
        "amenity": "clinic",
        "healthcare": "clinic",
        "healthcare:speciality": "general",
        "name": "Posto de saúde indígena Santa Isabel",
        "operator": "Secretaria Especial de Saúde Indígena",
        "id": "node/5965107217"
      },
      "geometry": {
        "type": "Point",
        "coordinates": [
          -51.5946871,
          3.7627396
        ]
      }
    },
    {
      "type": "Feature",
      "id": "node/5965113772",
      "properties": {
        "timestamp": "2020-02-11T13:54:18Z",
        "version": 4,
        "changeset": 80854686,
        "addr:city": "Oiapoque",
        "amenity": "clinic",
        "healthcare": "clinic",
        "healthcare:speciality": "general",
        "name": "Posto de saúde indígena Tukai",
        "operator": "Secretaria Especial de Saúde Indígena",
        "id": "node/5965113772"
      },
      "geometry": {
        "type": "Point",
        "coordinates": [
          -51.5541067,
          3.2166795
        ]
      }
    },
    {
      "type": "Feature",
      "id": "node/5981119422",
      "properties": {
        "timestamp": "2020-03-09T03:45:20Z",
        "version": 6,
        "changeset": 81940749,
        "addr:city": "Oiapoque",
        "addr:suburb": "Vila Velha",
        "amenity": "clinic",
        "healthcare": "clinic",
        "healthcare:speciality": "general",
        "name": "Posto de Saúde Vila Velha Do Cassipore",
        "operator": "Secretario Municipal de Saúde de Oiapoque",
        "id": "node/5981119422"
      },
      "geometry": {
        "type": "Point",
        "coordinates": [
          -51.2280222,
          3.2112748
        ]
      }
    },
    {
      "type": "Feature",
      "id": "node/5981148112",
      "properties": {
        "timestamp": "2022-02-04T23:37:18Z",
        "version": 7,
        "changeset": 117027217,
        "addr:city": "Oiapoque",
        "addr:suburb": "Vila Vitoria",
        "amenity": "clinic",
        "healthcare": "clinic",
        "healthcare:speciality": "general",
        "name": "Unidade Básica de Saúde Vila Vitoria",
        "name:fr": "Unité de Base de Santé  Vila Vitoria",
        "name:pt": "Unidade Básica de Saúde Vila Vitoria",
        "operator": "Secretario Municipal de Saúde de Oiapoque",
        "id": "node/5981148112"
      },
      "geometry": {
        "type": "Point",
        "coordinates": [
          -51.795588,
          3.8818784
        ]
      }
    },
    {
      "type": "Feature",
      "id": "node/6003025253",
      "properties": {
        "timestamp": "2020-02-11T13:54:18Z",
        "version": 5,
        "changeset": 80854686,
        "addr:city": "Oiapoque",
        "addr:suburb": "Flecha",
        "amenity": "clinic",
        "healthcare": "clinic",
        "healthcare:speciality": "general",
        "name": "Posto de saúde indígena do Flecha",
        "operator": "Secretaria Especial de Saúde Indígena",
        "id": "node/6003025253"
      },
      "geometry": {
        "type": "Point",
        "coordinates": [
          -51.3758837,
          3.6846251
        ]
      }
    },
    {
      "type": "Feature",
      "id": "node/6110675816",
      "properties": {
        "timestamp": "2020-02-11T13:54:18Z",
        "version": 4,
        "changeset": 80854686,
        "addr:city": "Oiapoque",
        "addr:suburb": "Taparabu",
        "amenity": "clinic",
        "healthcare": "clinic",
        "healthcare:speciality": "general",
        "name": "Posto de saúde de Taparabu",
        "operator": "Secretario Municipal de Saúde de Oiapoque",
        "id": "node/6110675816"
      },
      "geometry": {
        "type": "Point",
        "coordinates": [
          -51.6965153,
          4.0148759
        ]
      }
    },
    {
      "type": "Feature",
      "id": "node/6579728696",
      "properties": {
        "timestamp": "2019-06-30T10:37:46Z",
        "version": 1,
        "changeset": 71753134,
        "addr:city": "Oiapoque",
        "amenity": "clinic",
        "healthcare": "clinic",
        "healthcare:speciality": "general",
        "name": "Unidade Básica de Saúde Nova Esperança",
        "operator": "Secretario Municipal de Saúde de Oiapoque",
        "id": "node/6579728696"
      },
      "geometry": {
        "type": "Point",
        "coordinates": [
          -51.8280603,
          3.8470974
        ]
      }
    },
    {
      "type": "Feature",
      "id": "node/6579739625",
      "properties": {
        "timestamp": "2019-06-30T10:41:56Z",
        "version": 1,
        "changeset": 71753230,
        "addr:city": "Oiapoque",
        "amenity": "clinic",
        "healthcare": "clinic",
        "healthcare:speciality": "general",
        "name": "Unidade Básica de Saúde Infraero",
        "operator": "Secretario Municipal de Saúde de Oiapoque",
        "id": "node/6579739625"
      },
      "geometry": {
        "type": "Point",
        "coordinates": [
          -51.8096691,
          3.8398717
        ]
      }
    }
  ]
}
