{
  "type": "FeatureCollection",
  "features": [
    {
      "type": "Feature",
      "id": "way/543964107",
      "properties": {
        "timestamp": "2017-12-01T20:13:01Z",
        "version": 1,
        "changeset": 54248110,
        "addr:city": "Malacacheta",
        "addr:housenumber": "366",
        "addr:postcode": "39690-000",
        "addr:street": "Rua Francisco Ricardo de Souza",
        "addr:suburb": "Tancredo Neves",
        "amenity": "clinic",
        "building": "yes",
        "healthcare": "clinic",
        "name": "Posto de Saúde da Família Nelson Aarao Couy",
        "id": "way/543964107"
      },
      "geometry": {
        "type": "Polygon",
        "coordinates": [
          [
            [
              -42.081582,
              -17.855865
            ],
            [
              -42.081823,
              -17.8560323
            ],
            [
              -42.0816998,
              -17.8561408
            ],
            [
              -42.0814656,
              -17.8559883
            ],
            [
              -42.081582,
              -17.855865
            ]
          ]
        ]
      }
    },
    {
      "type": "Feature",
      "id": "way/543964109",
      "properties": {
        "timestamp": "2017-12-01T20:13:02Z",
        "version": 1,
        "changeset": 54248110,
        "addr:city": "Malacacheta",
        "addr:postcode": "39690-000",
        "addr:street": "Rua Cassiano Terra",
        "addr:suburb": "Centro",
        "amenity": "clinic",
        "building": "yes",
        "healthcare": "clinic",
        "name": "Posto de Saúde da Família Dona Agostinha Ramalho",
        "id": "way/543964109"
      },
      "geometry": {
        "type": "Polygon",
        "coordinates": [
          [
            [
              -42.0774828,
              -17.8452593
            ],
            [
              -42.0773662,
              -17.8452618
            ],
            [
              -42.0773742,
              -17.8450001
            ],
            [
              -42.0774775,
              -17.844995
            ],
            [
              -42.0774828,
              -17.8452593
            ]
          ]
        ]
      }
    },
    {
      "type": "Feature",
      "id": "way/544205395",
      "properties": {
        "timestamp": "2017-12-02T19:47:40Z",
        "version": 1,
        "changeset": 54279982,
        "addr:city": "Malacacheta",
        "addr:housenumber": "480",
        "addr:postcode": "39690-000",
        "addr:street": "Rua Juscelino Aarão",
        "addr:suburb": "Santo Antônio",
        "amenity": "clinic",
        "building": "yes",
        "healthcare": "clinic",
        "name": "Unidade Básica de Saúde Waldemar José Pereira",
        "id": "way/544205395"
      },
      "geometry": {
        "type": "Polygon",
        "coordinates": [
          [
            [
              -42.0758675,
              -17.8364617
            ],
            [
              -42.0759346,
              -17.83666
            ],
            [
              -42.0759163,
              -17.8366842
            ],
            [
              -42.0758523,
              -17.8367026
            ],
            [
              -42.0758177,
              -17.8366997
            ],
            [
              -42.0757039,
              -17.8367287
            ],
            [
              -42.0756267,
              -17.8365207
            ],
            [
              -42.0758675,
              -17.8364617
            ]
          ]
        ]
      }
    }
  ]
}
