{
  "type": "FeatureCollection",
  "features": [
    {
      "type": "Feature",
      "id": "node/12055260511",
      "properties": {
        "timestamp": "2024-07-15T12:25:48Z",
        "version": 1,
        "changeset": 153969901,
        "addr:city": "Assis Brasil",
        "addr:street": "Rua Raimundo Chaar",
        "addr:suburb": "Centro",
        "name": "Hotel Dois Irm√£os",
        "tourism": "guest_house",
        "id": "node/12055260511"
      },
      "geometry": {
        "type": "Point",
        "coordinates": [
          -69.5668956,
          -10.9380833
        ]
      }
    },
    {
      "type": "Feature",
      "id": "node/12055260512",
      "properties": {
        "timestamp": "2024-07-15T12:25:48Z",
        "version": 1,
        "changeset": 153969901,
        "addr:city": "Assis Brasil",
        "addr:postcode": "69935-000",
        "addr:street": "Rua Juvenal Duarte de Souza",
        "name": "Hotel Bela Vista",
        "tourism": "guest_house",
        "id": "node/12055260512"
      },
      "geometry": {
        "type": "Point",
        "coordinates": [
          -69.556515,
          -10.9388831
        ]
      }
    }
  ]
}
