{
  "type": "FeatureCollection",
  "features": [
    {
      "type": "Feature",
      "id": "node/11045441063",
      "properties": {
        "timestamp": "2023-07-13T23:54:08Z",
        "version": 1,
        "changeset": 138483553,
        "addr:city": "Teixeira de Freitas",
        "addr:housenumber": "329",
        "addr:postcode": "45985-098",
        "addr:street": "Rua Ipiranga",
        "addr:suburb": "Centro",
        "name": "DJ Bicicletas & Fitness",
        "operator": "Mda Comércio de Bicicletas & Fitness Limitada",
        "phone": "+55 73 3291 5710;+55 73 98832 4131",
        "service:bicycle:parts": "yes",
        "service:bicycle:repair": "yes",
        "service:bicycle:tools": "yes",
        "shop": "bicycle",
        "id": "node/11045441063"
      },
      "geometry": {
        "type": "Point",
        "coordinates": [
          -39.742001,
          -17.5339747
        ]
      }
    },
    {
      "type": "Feature",
      "id": "node/11045441104",
      "properties": {
        "timestamp": "2023-07-13T23:54:08Z",
        "version": 1,
        "changeset": 138483553,
        "addr:city": "Teixeira de Freitas",
        "addr:housenumber": "70",
        "addr:postcode": "45987-000",
        "addr:street": "Avenida Marechal Castelo Branco",
        "addr:suburb": "Wilson Guimarães Soares",
        "name": "Duda Bikes",
        "operator": "Duda Bikes Limitada",
        "phone": "+55 73 99818 8705",
        "shop": "bicycle",
        "id": "node/11045441104"
      },
      "geometry": {
        "type": "Point",
        "coordinates": [
          -39.7378703,
          -17.538619
        ]
      }
    },
    {
      "type": "Feature",
      "id": "node/11045513708",
      "properties": {
        "timestamp": "2023-07-17T19:39:41Z",
        "version": 2,
        "changeset": 138636831,
        "addr:city": "Teixeira de Freitas",
        "addr:housenumber": "4511",
        "addr:postcode": "45993-000",
        "addr:street": "Avenida Presidente Getúlio Vargas",
        "addr:suburb": "Vila Vargas",
        "name": "Bike Show",
        "operator": "Bike Show Limitada",
        "phone": "+55 73 99855 5002",
        "shop": "bicycle",
        "id": "node/11045513708"
      },
      "geometry": {
        "type": "Point",
        "coordinates": [
          -39.7499938,
          -17.5376936
        ]
      }
    },
    {
      "type": "Feature",
      "id": "node/11048722310",
      "properties": {
        "timestamp": "2023-07-15T23:25:51Z",
        "version": 1,
        "changeset": 138561976,
        "addr:city": "Teixeira de Freitas",
        "addr:housenumber": "1900",
        "addr:postcode": "45991-138",
        "addr:street": "Avenida São Paulo",
        "addr:suburb": "Bonadiman",
        "name": "Ciclo Teixeira",
        "phone": "73 3263 3724",
        "shop": "bicycle",
        "id": "node/11048722310"
      },
      "geometry": {
        "type": "Point",
        "coordinates": [
          -39.7321479,
          -17.5531272
        ]
      }
    },
    {
      "type": "Feature",
      "id": "node/11051905627",
      "properties": {
        "timestamp": "2023-07-17T22:37:51Z",
        "version": 1,
        "changeset": 138641222,
        "addr:city": "Teixeira de Freitas",
        "addr:housenumber": "4323",
        "addr:postcode": "45993-000",
        "addr:street": "Avenida Presidente Getúlio Vargas",
        "addr:suburb": "Vila Vargas",
        "name": "ProCicle",
        "operator": "K G dos Santos Barros Bicicletas",
        "shop": "bicycle",
        "id": "node/11051905627"
      },
      "geometry": {
        "type": "Point",
        "coordinates": [
          -39.7483688,
          -17.5385955
        ]
      }
    }
  ]
}
