{
  "type": "FeatureCollection",
  "features": [
    {
      "type": "Feature",
      "id": "node/4564179090",
      "properties": {
        "timestamp": "2023-02-28T12:19:39Z",
        "version": 6,
        "changeset": 133126295,
        "addr:city": "Teixeira de Freitas",
        "addr:housenumber": "700",
        "addr:street": "Rua Eleuzibio Cunha",
        "addr:suburb": "Bela Vista",
        "amenity": "clinic",
        "check_date:opening_hours": "2020-12-14",
        "healthcare": "clinic",
        "internet_access": "wlan",
        "name": "Clínica Inderma",
        "opening_hours": "Mo-Fr 08:00-18:00",
        "phone": "+55 73 3263-5446",
        "id": "node/4564179090"
      },
      "geometry": {
        "type": "Point",
        "coordinates": [
          -39.7352642,
          -17.5392945
        ]
      }
    },
    {
      "type": "Feature",
      "id": "node/10003167480",
      "properties": {
        "timestamp": "2022-09-05T23:09:53Z",
        "version": 1,
        "changeset": 125833819,
        "addr:street": "Avenida Getúlio Vargas",
        "amenity": "clinic",
        "healthcare": "clinic",
        "healthcare:speciality": "general;dentist;vaccination",
        "name": "UBS Duque de Caxias",
        "id": "node/10003167480"
      },
      "geometry": {
        "type": "Point",
        "coordinates": [
          -39.8487167,
          -17.5100424
        ]
      }
    },
    {
      "type": "Feature",
      "id": "node/10679296888",
      "properties": {
        "timestamp": "2023-02-27T13:07:22Z",
        "version": 2,
        "changeset": 133087083,
        "addr:city": "Teixeira de Freitas",
        "addr:suburb": "Urbis",
        "amenity": "clinic",
        "healthcare": "clinic",
        "healthcare:speciality": "general",
        "name": "Estratégia de Saúde da Família Urbis",
        "id": "node/10679296888"
      },
      "geometry": {
        "type": "Point",
        "coordinates": [
          -39.7408257,
          -17.55657
        ]
      }
    },
    {
      "type": "Feature",
      "id": "node/10682037830",
      "properties": {
        "timestamp": "2023-02-21T12:04:48Z",
        "version": 2,
        "changeset": 132832545,
        "addr:city": "Teixeira de Freitas",
        "addr:housenumber": "1732",
        "addr:postcode": "45",
        "addr:street": "Avenida Presidente Getúlio Vargas",
        "addr:suburb": "Recanto do Lago",
        "amenity": "clinic",
        "building": "yes",
        "building:levels": "1",
        "healthcare": "clinic",
        "healthcare:speciality": "general",
        "name": "Policlínica Regional de Saúde",
        "operator": "Governo do Estado da Bahia",
        "operator:type": "public",
        "id": "node/10682037830"
      },
      "geometry": {
        "type": "Point",
        "coordinates": [
          -39.7256583,
          -17.5355939
        ]
      }
    },
    {
      "type": "Feature",
      "id": "node/10683114164",
      "properties": {
        "timestamp": "2023-02-24T12:26:56Z",
        "version": 2,
        "changeset": 132965355,
        "addr:city": "Teixeira de Freitas",
        "addr:postcode": "45990-090",
        "addr:street": "Avenida das Nações",
        "addr:suburb": "Monte Castelo",
        "amenity": "clinic",
        "healthcare": "clinic",
        "healthcare:speciality": "physiatry;otolaryngology",
        "name": "Cer - Centro Especializado em Reabilitação",
        "operator": "Município de Teixeira de Freitas",
        "operator:type": "public",
        "phone": "+55 73 3011 2720",
        "id": "node/10683114164"
      },
      "geometry": {
        "type": "Point",
        "coordinates": [
          -39.7214869,
          -17.5385065
        ]
      }
    },
    {
      "type": "Feature",
      "id": "node/10687102355",
      "properties": {
        "timestamp": "2023-02-22T23:23:13Z",
        "version": 1,
        "changeset": 132903096,
        "addr:city": "Teixeira de Freitas",
        "addr:postcode": "45994-150",
        "addr:suburb": "Luiz Eduardo Magalhães",
        "amenity": "clinic",
        "healthcare": "clinic",
        "healthcare:speciality": "general",
        "name": "Estratégia de Saúde da Família Doutor Ubirajara Batista Melo",
        "operator": "Município de Teixeira de Freitas",
        "operator:type": "public",
        "id": "node/10687102355"
      },
      "geometry": {
        "type": "Point",
        "coordinates": [
          -39.7608794,
          -17.5384675
        ]
      }
    },
    {
      "type": "Feature",
      "id": "node/10687102359",
      "properties": {
        "timestamp": "2023-02-22T23:23:13Z",
        "version": 1,
        "changeset": 132903096,
        "amenity": "clinic",
        "healthcare": "clinic",
        "healthcare:speciality": "forense",
        "name": "Instituto Médico Legal de Teixeira de Freitas",
        "id": "node/10687102359"
      },
      "geometry": {
        "type": "Point",
        "coordinates": [
          -39.7597994,
          -17.5302942
        ]
      }
    },
    {
      "type": "Feature",
      "id": "node/10690951446",
      "properties": {
        "timestamp": "2023-02-24T14:39:44Z",
        "version": 1,
        "changeset": 132971112,
        "addr:city": "Teixeira de Freitas",
        "addr:street": "Rua Pedro Álvares Cabral",
        "addr:suburb": "Centro",
        "amenity": "clinic",
        "healthcare": "clinic",
        "healthcare:speciality": "orthodontics",
        "name": "Centro de Especialidades Odontológicas de Teixeira de Freitas",
        "operator": "Município de Teixeira de Freitas",
        "operator:type": "public",
        "id": "node/10690951446"
      },
      "geometry": {
        "type": "Point",
        "coordinates": [
          -39.7401598,
          -17.5382404
        ]
      }
    },
    {
      "type": "Feature",
      "id": "node/10697085645",
      "properties": {
        "timestamp": "2023-02-27T13:07:22Z",
        "version": 1,
        "changeset": 133087083,
        "addr:city": "Teixeira de Freitas",
        "amenity": "clinic",
        "healthcare": "clinic",
        "id": "node/10697085645"
      },
      "geometry": {
        "type": "Point",
        "coordinates": [
          -39.7416935,
          -17.562905
        ]
      }
    },
    {
      "type": "Feature",
      "id": "node/10699346977",
      "properties": {
        "timestamp": "2023-02-28T12:19:39Z",
        "version": 1,
        "changeset": 133126295,
        "addr:city": "Teixeira de Freitas",
        "addr:street": "Avenida Padre Anchieta",
        "addr:suburb": "Liberdade Dois",
        "amenity": "clinic",
        "healthcare": "clinic",
        "healthcare:speciality": "general",
        "name": "Unidade Básica de Saúde Bairro Liberdade",
        "operator": "Município de Teixeira de Freitas",
        "operator:type": "public",
        "id": "node/10699346977"
      },
      "geometry": {
        "type": "Point",
        "coordinates": [
          -39.7497649,
          -17.5585413
        ]
      }
    },
    {
      "type": "Feature",
      "id": "node/10699516595",
      "properties": {
        "timestamp": "2023-02-28T13:47:08Z",
        "version": 1,
        "changeset": 133129529,
        "addr:city": "Teixeira de Freitas",
        "addr:street": "Rua Itarantim",
        "addr:suburb": "Caminho do Mar",
        "amenity": "clinic",
        "healthcare": "clinic",
        "name": "Unidade Básica de Saúde Bairro Caminho do Mar",
        "id": "node/10699516595"
      },
      "geometry": {
        "type": "Point",
        "coordinates": [
          -39.7001159,
          -17.5277011
        ]
      }
    },
    {
      "type": "Feature",
      "id": "node/10702008620",
      "properties": {
        "timestamp": "2023-04-19T20:56:26Z",
        "version": 2,
        "changeset": 135121933,
        "addr:city": "Teixeira de Freitas",
        "addr:housenumber": "170",
        "addr:postcode": "45985-336",
        "addr:street": "Rua Frank Sinatra",
        "addr:suburb": "Santa Rita",
        "amenity": "clinic",
        "healthcare": "clinic",
        "healthcare:speciality": "general",
        "name": "Unidade Básica de Saúde Santa Rita",
        "id": "node/10702008620"
      },
      "geometry": {
        "type": "Point",
        "coordinates": [
          -39.7543741,
          -17.5282869
        ]
      }
    },
    {
      "type": "Feature",
      "id": "node/10702667756",
      "properties": {
        "timestamp": "2023-09-27T00:59:42Z",
        "version": 2,
        "changeset": 141795750,
        "addr:city": "Teixeira de Freitas",
        "addr:street": "Avenida Lydia Travaglia Chicon",
        "amenity": "clinic",
        "healthcare": "clinic",
        "healthcare:speciality": "general",
        "name": "Unidade Básica de Saúde Nova Jerusalém",
        "operator": "Município de Teixeira de Freitas",
        "operator:type": "public",
        "id": "node/10702667756"
      },
      "geometry": {
        "type": "Point",
        "coordinates": [
          -39.7170391,
          -17.5513759
        ]
      }
    },
    {
      "type": "Feature",
      "id": "node/10702997776",
      "properties": {
        "timestamp": "2023-03-01T23:30:01Z",
        "version": 2,
        "changeset": 133191326,
        "addr:city": "Teixeira de Freitas",
        "addr:street": "Rua Doutor Rafael de Castro",
        "addr:suburb": "Ouro Verde",
        "amenity": "clinic",
        "healthcare": "clinic",
        "name": "Unidade Básica de Saúde Ouro Verde",
        "operator": "Município de Teixeira de Freitas",
        "id": "node/10702997776"
      },
      "geometry": {
        "type": "Point",
        "coordinates": [
          -39.7606614,
          -17.5252501
        ]
      }
    },
    {
      "type": "Feature",
      "id": "node/10703044719",
      "properties": {
        "timestamp": "2023-03-28T21:19:36Z",
        "version": 2,
        "changeset": 134237011,
        "addr:city": "Teixeira de Freitas",
        "addr:housenumber": "480",
        "addr:street": "Rua Nova Pátria",
        "addr:suburb": "Estância Biquíni",
        "amenity": "clinic",
        "healthcare": "clinic",
        "name": "Unidade Básica de Saúde Estância Biquini",
        "operator": "Município de Teixeira de Freitas",
        "id": "node/10703044719"
      },
      "geometry": {
        "type": "Point",
        "coordinates": [
          -39.7665636,
          -17.5229686
        ]
      }
    },
    {
      "type": "Feature",
      "id": "node/10703080930",
      "properties": {
        "timestamp": "2023-03-01T23:30:01Z",
        "version": 1,
        "changeset": 133191326,
        "addr:city": "Teixeira de Freitas",
        "addr:street": "Rua Formosa",
        "addr:suburb": "Ulisses Guimarães",
        "amenity": "clinic",
        "healthcare": "clinic",
        "name": "Unidade Básica de Saúde Ulisses Guimarães",
        "id": "node/10703080930"
      },
      "geometry": {
        "type": "Point",
        "coordinates": [
          -39.7695442,
          -17.5337123
        ]
      }
    },
    {
      "type": "Feature",
      "id": "node/11049783878",
      "properties": {
        "timestamp": "2023-07-16T18:58:58Z",
        "version": 1,
        "changeset": 138591606,
        "amenity": "clinic",
        "healthcare": "clinic",
        "id": "node/11049783878"
      },
      "geometry": {
        "type": "Point",
        "coordinates": [
          -39.7973045,
          -17.4332462
        ]
      }
    },
    {
      "type": "Feature",
      "id": "node/11050119726",
      "properties": {
        "timestamp": "2023-07-16T23:41:08Z",
        "version": 1,
        "changeset": 138598022,
        "amenity": "clinic",
        "healthcare": "clinic",
        "id": "node/11050119726"
      },
      "geometry": {
        "type": "Point",
        "coordinates": [
          -39.8486298,
          -17.5128136
        ]
      }
    },
    {
      "type": "Feature",
      "id": "node/11208915667",
      "properties": {
        "timestamp": "2023-09-21T21:19:26Z",
        "version": 1,
        "changeset": 141578391,
        "addr:city": "Teixeira de Freitas",
        "addr:housenumber": "101",
        "addr:postcode": "45990-720",
        "addr:street": "Avenida Carter",
        "addr:suburb": "Jardim Caraipe",
        "amenity": "clinic",
        "healthcare": "clinic",
        "name": "Cemed",
        "operator": "Cemed Serviços Médicos Limitada ME",
        "operator:type": "private",
        "id": "node/11208915667"
      },
      "geometry": {
        "type": "Point",
        "coordinates": [
          -39.7403455,
          -17.5445486
        ]
      }
    },
    {
      "type": "Feature",
      "id": "node/11224617132",
      "properties": {
        "timestamp": "2023-09-28T10:12:02Z",
        "version": 1,
        "changeset": 141857208,
        "amenity": "clinic",
        "healthcare": "clinic",
        "id": "node/11224617132"
      },
      "geometry": {
        "type": "Point",
        "coordinates": [
          -39.8003965,
          -17.3698419
        ]
      }
    }
  ]
}
