{
  "type": "FeatureCollection",
  "features": [
    {
      "type": "Feature",
      "id": "node/9921555625",
      "properties": {
        "timestamp": "2023-03-01T23:30:01Z",
        "version": 3,
        "changeset": 133191326,
        "addr:city": "Teixeira de Freitas",
        "addr:housenumber": "160",
        "addr:street": "Rua Euclides da Cunha",
        "addr:suburb": "Nova Teixeira",
        "government": "administrative",
        "name": "Cerb - Companhia de Engenharia Hídrica e de Saneamento da Bahia",
        "office": "government",
        "website": "http://www.cerb.ba.gov.br/",
        "id": "node/9921555625"
      },
      "geometry": {
        "type": "Point",
        "coordinates": [
          -39.7601651,
          -17.5313529
        ]
      }
    },
    {
      "type": "Feature",
      "id": "node/10674664126",
      "properties": {
        "timestamp": "2024-05-22T21:14:26Z",
        "version": 4,
        "changeset": 151697192,
        "addr:city": "Teixeira de Freitas",
        "addr:housenumber": "4155",
        "addr:postcode": "45995-002",
        "addr:street": "Avenida Presidente Getúlio Vargas",
        "addr:suburb": "São Lourenço",
        "association": "business",
        "government": "administrative",
        "name": "Unidade Regional do Sebrae Teixeira de Freitas",
        "office": "government",
        "opening_hours": "Mo-Fr 09:00-17:00",
        "operator": "Sebrae - Serviço Brasileiro de Apoio às Micro e Pequenas Empresas",
        "phone": "+55 73 3291 4333",
        "website": "http://www.ba.sebrae.com.br/",
        "id": "node/10674664126"
      },
      "geometry": {
        "type": "Point",
        "coordinates": [
          -39.7464742,
          -17.5396183
        ]
      }
    },
    {
      "type": "Feature",
      "id": "node/10683114134",
      "properties": {
        "timestamp": "2023-02-21T12:04:48Z",
        "version": 1,
        "changeset": 132832545,
        "addr:city": "Teixeira de Freitas",
        "addr:housenumber": "154",
        "addr:postcode": "45997-004",
        "addr:street": "Rua Sagrada Família",
        "addr:suburb": "Bela Vista",
        "government": "prosecutor",
        "name": "Promotoria Regional de Teixeira de Freitas e Costa das Baleias",
        "office": "government",
        "operator": "Ministério Público do Estado da Bahia",
        "phone": "+55 73 3291 4525;+55 73 3291 3655;+55 73 3292 7653",
        "id": "node/10683114134"
      },
      "geometry": {
        "type": "Point",
        "coordinates": [
          -39.7404385,
          -17.5411404
        ]
      }
    },
    {
      "type": "Feature",
      "id": "node/10683114157",
      "properties": {
        "timestamp": "2023-02-21T12:04:48Z",
        "version": 1,
        "changeset": 132832545,
        "addr:city": "Teixeira de Freitas",
        "addr:housenumber": "549",
        "addr:postcode": "45990-111",
        "addr:street": "Rua Ministro Alfredo Buzaide",
        "addr:suburb": "Monte Castelo",
        "government": "social_security",
        "name": "Agência da Previdência Social em Teixeira de Freitas",
        "office": "government",
        "operator": "Instituto Nacional de Seguridade Social",
        "phone": "+55 73 3292 5339",
        "id": "node/10683114157"
      },
      "geometry": {
        "type": "Point",
        "coordinates": [
          -39.7230733,
          -17.5397531
        ]
      }
    },
    {
      "type": "Feature",
      "id": "node/10683114165",
      "properties": {
        "timestamp": "2023-02-24T12:26:56Z",
        "version": 2,
        "changeset": 132965355,
        "addr:city": "Teixeira de Freitas",
        "addr:housenumber": "565",
        "addr:postcode": "45990-090",
        "addr:street": "Avenida das Nações",
        "addr:suburb": "Monte Castelo",
        "government": "administrative",
        "name": "Secretaria Municipal de Saúde",
        "office": "government",
        "id": "node/10683114165"
      },
      "geometry": {
        "type": "Point",
        "coordinates": [
          -39.7207825,
          -17.5386725
        ]
      }
    },
    {
      "type": "Feature",
      "id": "node/10685529480",
      "properties": {
        "timestamp": "2023-02-22T11:11:34Z",
        "version": 1,
        "changeset": 132874101,
        "addr:city": "Teixeira de Freitas",
        "addr:street": "Rua dos Aimorés",
        "addr:suburb": "Centro",
        "government": "police",
        "name": "Guarda Municipal de Teixeira de Freitas",
        "office": "government",
        "id": "node/10685529480"
      },
      "geometry": {
        "type": "Point",
        "coordinates": [
          -39.7446296,
          -17.5314105
        ]
      }
    },
    {
      "type": "Feature",
      "id": "node/10690951447",
      "properties": {
        "timestamp": "2023-11-11T23:44:46Z",
        "version": 3,
        "changeset": 143918342,
        "addr:city": "Teixeira de Freitas",
        "addr:housenumber": "130",
        "addr:postcode": "45.985-194",
        "addr:street": "Rua Prudente de Moraes",
        "addr:suburb": "Centro",
        "email": "seguranca@teixeiradefreitas.ba.gov.br",
        "government": "administrative",
        "name": "Secretaria Municipal de Segurança e Transporte",
        "office": "government",
        "phone": "+55 73 3011 0306;+55 73 3011 0307",
        "id": "node/10690951447"
      },
      "geometry": {
        "type": "Point",
        "coordinates": [
          -39.7406164,
          -17.5386963
        ]
      }
    },
    {
      "type": "Feature",
      "id": "node/10690951448",
      "properties": {
        "timestamp": "2023-02-24T18:24:51Z",
        "version": 2,
        "changeset": 132979760,
        "addr:city": "Teixeira de Freitas",
        "addr:housenumber": "270",
        "addr:postcode": "45.985-669",
        "addr:street": "Rua Doutor Rafael de Castro",
        "addr:suburb": "Ouro Verde",
        "email": "gabinetesmectx@gmail.com",
        "government": "administrative",
        "name": "Secretaria Municipal de Educação e Cultura",
        "office": "government",
        "phone": "+55 73 3011 0200;+55 73 3011 0208",
        "id": "node/10690951448"
      },
      "geometry": {
        "type": "Point",
        "coordinates": [
          -39.7584987,
          -17.5274275
        ]
      }
    },
    {
      "type": "Feature",
      "id": "node/10691406172",
      "properties": {
        "timestamp": "2023-02-24T18:24:51Z",
        "version": 1,
        "changeset": 132979760,
        "addr:city": "Teixeira de Freitas",
        "addr:street": "Avenida Presidente Getúlio Vargas",
        "addr:suburb": "Bela Vista",
        "government": "education",
        "name": "Núcleo Territorial de Educação Sete - Território de Identidade do Extremo Sul",
        "office": "government",
        "phone": "+55 73 3291 1131;+55 73 3291 3677",
        "id": "node/10691406172"
      },
      "geometry": {
        "type": "Point",
        "coordinates": [
          -39.7385955,
          -17.5393618
        ]
      }
    },
    {
      "type": "Feature",
      "id": "node/10691420311",
      "properties": {
        "timestamp": "2023-09-25T02:08:45Z",
        "version": 2,
        "changeset": 141709124,
        "addr:city": "Teixeira de Freitas",
        "addr:housenumber": "130",
        "addr:postcode": "45985-098",
        "addr:street": "Rua Dom Pedro Segundo",
        "addr:suburb": "São Pedro",
        "government": "cadaster",
        "name": "Agência do Instituto Brasileiro de Geografia e Estatística de Teixeira de Freitas",
        "office": "government",
        "id": "node/10691420311"
      },
      "geometry": {
        "type": "Point",
        "coordinates": [
          -39.7438903,
          -17.533198
        ]
      }
    },
    {
      "type": "Feature",
      "id": "node/10691420323",
      "properties": {
        "timestamp": "2023-02-24T18:24:51Z",
        "version": 1,
        "changeset": 132979760,
        "addr:city": "Teixeira de Freitas",
        "addr:housenumber": "5390",
        "addr:postcode": "45985-333",
        "addr:street": "Avenida Presidente Getúlio Vargas",
        "addr:suburb": "Santa Rita",
        "email": "agriculturapmtf@hotmail.com;agricultura@pmtf.ba.gov.br",
        "government": "administrative",
        "name": "Secretaria de Agricultura, Pecuária e Abastecimento",
        "office": "government",
        "phone": "+55 73 3011 2738",
        "id": "node/10691420323"
      },
      "geometry": {
        "type": "Point",
        "coordinates": [
          -39.7544761,
          -17.5315964
        ]
      }
    },
    {
      "type": "Feature",
      "id": "node/10691420324",
      "properties": {
        "timestamp": "2023-02-24T18:24:51Z",
        "version": 1,
        "changeset": 132979760,
        "addr:city": "Teixeira de Freitas",
        "addr:postcode": "45985-333",
        "addr:street": "Avenida Presidente Getúlio Vargas",
        "addr:suburb": "Santa Rita",
        "government": "administrative",
        "name": "Secretaria Municipal de Infraestrutura e Serviços Urbanos",
        "office": "government",
        "phone": "+55 73 3011 9088;+55 73 3011 9089",
        "id": "node/10691420324"
      },
      "geometry": {
        "type": "Point",
        "coordinates": [
          -39.7550992,
          -17.5313775
        ]
      }
    },
    {
      "type": "Feature",
      "id": "node/10697250778",
      "properties": {
        "timestamp": "2023-07-08T20:44:05Z",
        "version": 2,
        "changeset": 138277280,
        "addr:city": "Teixeira de Freitas",
        "addr:housenumber": "3135",
        "addr:postcode": "45990-289",
        "addr:street": "Avenida Presidente Getúlio Vargas",
        "addr:suburb": "Bela Vista",
        "email": "desenvolvimento@pmtf.ba.gov.br",
        "government": "administrative",
        "name": "Secretaria Municipal de Desenvolvimento Econômico",
        "office": "government",
        "phone": "+55 73 3011 2767",
        "id": "node/10697250778"
      },
      "geometry": {
        "type": "Point",
        "coordinates": [
          -39.7370737,
          -17.5389447
        ]
      }
    },
    {
      "type": "Feature",
      "id": "node/10697814396",
      "properties": {
        "timestamp": "2023-06-17T00:48:17Z",
        "version": 2,
        "changeset": 137432318,
        "addr:city": "Teixeira de Freitas",
        "addr:housenumber": "4085",
        "addr:postcode": "45995-000",
        "addr:street": "Avenida Presidente Getúlio Vargas",
        "addr:suburb": "Centro",
        "government": "tax",
        "name": "Inspetoria da Fazenda do Extremo Sul",
        "office": "government",
        "operator": "Secretaria da Fazenda do Estado da Bahia - Sefaz",
        "phone": "+55 73 3291 5520",
        "website": "https://www.sefaz.ba.gov.br/",
        "id": "node/10697814396"
      },
      "geometry": {
        "type": "Point",
        "coordinates": [
          -39.7456841,
          -17.5400915
        ]
      }
    },
    {
      "type": "Feature",
      "id": "node/10976777840",
      "properties": {
        "timestamp": "2023-06-14T13:09:43Z",
        "version": 1,
        "changeset": 137328350,
        "addr:city": "Teixeira de Freitas",
        "addr:postcode": "45995-000",
        "addr:street": "Rua José Adailde",
        "addr:suburb": "Jardim Caraipe",
        "email": "sematpmtf@hotmail.com",
        "government": "administrative",
        "name": "Secretaria Municipal de Meio Ambiente",
        "office": "government",
        "phone": "+55 73 3011 2777",
        "id": "node/10976777840"
      },
      "geometry": {
        "type": "Point",
        "coordinates": [
          -39.7413759,
          -17.5508094
        ]
      }
    },
    {
      "type": "Feature",
      "id": "node/10981748784",
      "properties": {
        "timestamp": "2023-06-17T00:48:17Z",
        "version": 1,
        "changeset": 137432318,
        "addr:city": "Teixeira de Freitas",
        "addr:housenumber": "4085",
        "addr:postcode": "45985-200",
        "addr:street": "Avenida Presidente Getúlio Vargas",
        "addr:suburb": "Centro",
        "government": "tax",
        "name": "Agência da Receita Federal em Teixeira de Freitas",
        "office": "government",
        "id": "node/10981748784"
      },
      "geometry": {
        "type": "Point",
        "coordinates": [
          -39.7458327,
          -17.5400367
        ]
      }
    },
    {
      "type": "Feature",
      "id": "node/11040294983",
      "properties": {
        "timestamp": "2023-10-01T01:38:59Z",
        "version": 2,
        "changeset": 141971599,
        "addr:city": "Teixeira de Freitas",
        "addr:housenumber": "523",
        "addr:postcode": "45.990-280",
        "addr:street": "Rua Águas Claras",
        "addr:suburb": "Bela Vista",
        "government": "law",
        "name": "Décima Quarta Defensoria Pública Regional do Estado da Bahia",
        "office": "government",
        "operator": "Defensoria Pública do Estado da Bahia",
        "phone": "+55 73 3292 1565;+55 73 3292 0224;+55 73 3263 4806;+55 73 3263 3291-8199/ 7866",
        "id": "node/11040294983"
      },
      "geometry": {
        "type": "Point",
        "coordinates": [
          -39.7358029,
          -17.5406152
        ]
      }
    },
    {
      "type": "Feature",
      "id": "node/11212501956",
      "properties": {
        "timestamp": "2023-09-23T15:09:31Z",
        "version": 1,
        "changeset": 141649400,
        "addr:city": "Teixeira de Freitas",
        "addr:housenumber": "2175",
        "addr:postcode": "45990-000",
        "addr:street": "Rua Uirapuru",
        "addr:suburb": "Bela Vista",
        "government": "healthcare",
        "name": "Núcleo Regional de Saúde do Extremo Sul",
        "office": "government",
        "phone": "+55 73 3292 5733;+55 73 3292 5813;+55 73 3292 5494",
        "id": "node/11212501956"
      },
      "geometry": {
        "type": "Point",
        "coordinates": [
          -39.7267772,
          -17.5375403
        ]
      }
    },
    {
      "type": "Feature",
      "id": "node/11237336753",
      "properties": {
        "timestamp": "2023-10-04T02:17:58Z",
        "version": 1,
        "changeset": 142122908,
        "addr:city": "Teixeira de Freitas",
        "addr:housenumber": "350",
        "addr:street": "Rua Prudente de Moraes",
        "addr:suburb": "Centro",
        "government": "agriculture",
        "name": "Adab - Agência de Defesa Agropecuária da Bahia",
        "office": "government",
        "phone": "+55 73 3291 5820",
        "id": "node/11237336753"
      },
      "geometry": {
        "type": "Point",
        "coordinates": [
          -39.7429013,
          -17.5393519
        ]
      }
    },
    {
      "type": "Feature",
      "id": "node/11342284928",
      "properties": {
        "timestamp": "2023-11-11T23:44:46Z",
        "version": 3,
        "changeset": 143918342,
        "addr:city": "Teixeira de Freitas",
        "addr:housenumber": "688",
        "addr:street": "Avenida João Paulo Segundo",
        "addr:suburb": "Vila Caraipe",
        "email": "administracao@teixeiradefreitas.ba.gov.br",
        "government": "administrative",
        "name": "Secretaria Municipal de Administração",
        "office": "government",
        "phone": "+55  73 3011 0306",
        "id": "node/11342284928"
      },
      "geometry": {
        "type": "Point",
        "coordinates": [
          -39.7319672,
          -17.5502837
        ]
      }
    },
    {
      "type": "Feature",
      "id": "node/11342284929",
      "properties": {
        "timestamp": "2023-11-11T23:44:46Z",
        "version": 2,
        "changeset": 143918342,
        "addr:city": "Teixeira de Freitas",
        "addr:housenumber": "31",
        "addr:street": "Rua Doutor Carlos Mostadeiro",
        "addr:suburb": "Jardim Caraipe",
        "email": "gabpmtf@hotmail.com",
        "government": "administrative",
        "name": "Secretaria Municipal de Governo",
        "office": "government",
        "phone": "+55 73 3011 0300",
        "id": "node/11342284929"
      },
      "geometry": {
        "type": "Point",
        "coordinates": [
          -39.7400055,
          -17.5433226
        ]
      }
    },
    {
      "type": "Feature",
      "id": "node/11342376389",
      "properties": {
        "timestamp": "2023-11-11T23:44:46Z",
        "version": 1,
        "changeset": 143918342,
        "addr:city": "Teixeira de Freitas",
        "addr:housenumber": "348",
        "addr:street": "Rua da Saudade",
        "addr:suburb": "Bela Vista",
        "government": "administrative",
        "name": "secretária Municipal de Projetos Estratégicos e Gerenciamento de Convênios",
        "office": "government",
        "phone": "+55 73 3011 0344",
        "id": "node/11342376389"
      },
      "geometry": {
        "type": "Point",
        "coordinates": [
          -39.7377756,
          -17.5419128
        ]
      }
    },
    {
      "type": "Feature",
      "id": "node/11342376390",
      "properties": {
        "timestamp": "2024-03-12T23:29:44Z",
        "version": 2,
        "changeset": 148570693,
        "addr:city": "Teixeira de Freitas",
        "addr:street": "Rua Prudente de Moraes",
        "addr:suburb": "Centro",
        "email": "smas.tx@hotmail.com",
        "government": "social_services",
        "name": "Secretaria Municipal de Promoção Social e Cultura",
        "office": "government",
        "phone": "+55 73 3011 2705",
        "id": "node/11342376390"
      },
      "geometry": {
        "type": "Point",
        "coordinates": [
          -39.741624,
          -17.5389591
        ]
      }
    }
  ]
}
