{
  "type": "FeatureCollection",
  "features": [
    {
      "type": "Feature",
      "id": "node/3803682142",
      "properties": {
        "timestamp": "2023-04-17T00:35:27Z",
        "version": 4,
        "changeset": 134995510,
        "addr:city": "Teixeira de Freitas",
        "addr:housenumber": "1470",
        "addr:postcode": "45990-012",
        "addr:street": "BR 101, km 871",
        "addr:suburb": "Monte Castelo",
        "name": "Hotel Lanchonete e Churrascaria Vento Sul",
        "tourism": "hotel",
        "id": "node/3803682142"
      },
      "geometry": {
        "type": "Point",
        "coordinates": [
          -39.7190078,
          -17.5447773
        ]
      }
    },
    {
      "type": "Feature",
      "id": "node/6820610422",
      "properties": {
        "timestamp": "2024-10-05T13:35:33Z",
        "version": 3,
        "changeset": 157501518,
        "addr:city": "Teixeira de Freitas",
        "addr:housenumber": "km 878",
        "addr:postcode": "45989-040",
        "addr:street": "Rodovia Governador Mário Covas",
        "addr:suburb": "Castelinho",
        "brand": "Brastex Hoteis e Turismo Limitada",
        "email": "plordtdf@uol.com.br",
        "name": "Pousada Lord",
        "phone": "+55 73 3292 5940;+55 73 3292 5931",
        "tourism": "hotel",
        "id": "node/6820610422"
      },
      "geometry": {
        "type": "Point",
        "coordinates": [
          -39.7139029,
          -17.538772
        ]
      }
    },
    {
      "type": "Feature",
      "id": "node/9695842018",
      "properties": {
        "timestamp": "2022-04-26T19:01:28Z",
        "version": 1,
        "changeset": 120226675,
        "name": "Pousada Gaviota",
        "phone": "99917-6495",
        "tourism": "hotel",
        "id": "node/9695842018"
      },
      "geometry": {
        "type": "Point",
        "coordinates": [
          -39.731409,
          -17.5505564
        ]
      }
    },
    {
      "type": "Feature",
      "id": "node/9695842817",
      "properties": {
        "timestamp": "2024-03-11T21:07:18Z",
        "version": 3,
        "changeset": 148523090,
        "addr:city": "Teixeira de Freitas",
        "addr:housenumber": "119",
        "addr:postcode": "45990-194",
        "addr:street": "Rua Prudente de Moraes",
        "addr:suburb": "Centro",
        "name": "Pousada Salomão",
        "phone": "+55 73 3292 8216",
        "tourism": "hotel",
        "id": "node/9695842817"
      },
      "geometry": {
        "type": "Point",
        "coordinates": [
          -39.7406399,
          -17.5388622
        ]
      }
    },
    {
      "type": "Feature",
      "id": "node/10683114133",
      "properties": {
        "timestamp": "2023-07-15T16:08:41Z",
        "version": 2,
        "changeset": 138550673,
        "addr:city": "Teixeira de Freitas",
        "addr:housenumber": "1793 B",
        "addr:postcode": "45996-137",
        "addr:street": "Rua Ministro Alfredo Buzaide",
        "addr:suburb": "Monte Castelo",
        "name": "Hotel Skalla",
        "phone": "+55 73 3292 6004",
        "tourism": "hotel",
        "id": "node/10683114133"
      },
      "geometry": {
        "type": "Point",
        "coordinates": [
          -39.724067,
          -17.5361653
        ]
      }
    },
    {
      "type": "Feature",
      "id": "node/10687900635",
      "properties": {
        "timestamp": "2023-02-23T10:18:22Z",
        "version": 1,
        "changeset": 132917926,
        "addr:city": "Teixeira de Freitas",
        "addr:housenumber": "4882",
        "addr:postcode": "45985-200",
        "addr:street": "Avenida Presidente Getúlio Vargas",
        "addr:suburb": "Centro",
        "name": "Pioneiro Hotel",
        "phone": "+55 73 3011 3200",
        "tourism": "hotel",
        "id": "node/10687900635"
      },
      "geometry": {
        "type": "Point",
        "coordinates": [
          -39.7515283,
          -17.5343759
        ]
      }
    },
    {
      "type": "Feature",
      "id": "node/10690587050",
      "properties": {
        "timestamp": "2023-02-27T21:14:07Z",
        "version": 2,
        "changeset": 133104372,
        "addr:city": "Teixeira de Freitas",
        "addr:housenumber": "840",
        "addr:postcode": "45988-074",
        "addr:street": "Avenida Presidente Getúlio Vargas",
        "addr:suburb": "São José",
        "name": "Hotel Águia",
        "phone": "73) 3281-0264",
        "tourism": "hotel",
        "id": "node/10690587050"
      },
      "geometry": {
        "type": "Point",
        "coordinates": [
          -39.7160017,
          -17.5310517
        ]
      }
    },
    {
      "type": "Feature",
      "id": "node/11034752203",
      "properties": {
        "timestamp": "2023-07-08T20:44:05Z",
        "version": 1,
        "changeset": 138277280,
        "addr:city": "Teixeira de Freitas",
        "addr:housenumber": "123",
        "addr:postcode": "45985-192",
        "addr:street": "Rua Antônio Chicon Sobrinho",
        "addr:suburb": "Centro",
        "email": "hlordhoteis@uol.com.br",
        "name": "Lord Plaza Hotel",
        "phone": "+55 73 3291 5506;+55 73 3291 9000",
        "tourism": "hotel",
        "id": "node/11034752203"
      },
      "geometry": {
        "type": "Point",
        "coordinates": [
          -39.7456382,
          -17.5387932
        ]
      }
    },
    {
      "type": "Feature",
      "id": "node/11034920888",
      "properties": {
        "timestamp": "2023-07-08T23:29:31Z",
        "version": 1,
        "changeset": 138280354,
        "addr:city": "Teixeira de Freitas",
        "addr:housenumber": "234",
        "addr:street": "Rua Antônio Simplicio de Barros",
        "addr:suburb": "Centro",
        "name": "QualitySul Hotel",
        "phone": "+55 73 3011 0400;+55 73 99845 0400",
        "tourism": "hotel",
        "website": "hotelqualitysul.com.br",
        "id": "node/11034920888"
      },
      "geometry": {
        "type": "Point",
        "coordinates": [
          -39.7418577,
          -17.5377778
        ]
      }
    },
    {
      "type": "Feature",
      "id": "node/11035024602",
      "properties": {
        "timestamp": "2023-07-09T02:39:47Z",
        "version": 1,
        "changeset": 138282304,
        "addr:city": "Teixeira de Freitas",
        "addr:housenumber": "75",
        "addr:postcode": "45996-104",
        "addr:street": "Rua Leur Lomanto",
        "addr:suburb": "Recanto do Lago",
        "email": "jacarandahotel@hotmail.com",
        "name": "Hotel Jacarandá",
        "phone": "+55 73 3292 8008",
        "tourism": "hotel",
        "id": "node/11035024602"
      },
      "geometry": {
        "type": "Point",
        "coordinates": [
          -39.7286054,
          -17.5356808
        ]
      }
    },
    {
      "type": "Feature",
      "id": "node/11037731426",
      "properties": {
        "timestamp": "2023-09-23T22:33:55Z",
        "version": 2,
        "changeset": 141663038,
        "addr:city": "Teixeira de Freitas",
        "addr:housenumber": "52",
        "addr:postcode": "45985-142",
        "addr:street": "Avenida Antônio Carlos Magalhães",
        "addr:suburb": "Wilson Guimarães",
        "name": "Hotel San Raphael",
        "phone": "+55 73 3291 1921",
        "tourism": "hotel",
        "id": "node/11037731426"
      },
      "geometry": {
        "type": "Point",
        "coordinates": [
          -39.7418384,
          -17.5357079
        ]
      }
    },
    {
      "type": "Feature",
      "id": "node/11046283779",
      "properties": {
        "timestamp": "2023-07-14T11:43:20Z",
        "version": 1,
        "changeset": 138504021,
        "addr:city": "Teixeira de Freitas",
        "addr:housenumber": "354 A",
        "addr:postcode": "45996-370",
        "addr:street": "Avenida Alcobaça",
        "addr:suburb": "Nova América",
        "name": "Hotel Nova América",
        "tourism": "hotel",
        "id": "node/11046283779"
      },
      "geometry": {
        "type": "Point",
        "coordinates": [
          -39.7048358,
          -17.5233532
        ]
      }
    },
    {
      "type": "Feature",
      "id": "node/11208915669",
      "properties": {
        "timestamp": "2024-04-06T00:47:35Z",
        "version": 2,
        "changeset": 149636957,
        "addr:city": "Teixeira de Freitas",
        "addr:housenumber": "191",
        "addr:postcode": "45988-074",
        "addr:street": "Avenida Presidente Getúlio Vargas",
        "addr:suburb": "Monte Castelo",
        "name": "Pousada Ipanema",
        "tourism": "hotel",
        "id": "node/11208915669"
      },
      "geometry": {
        "type": "Point",
        "coordinates": [
          -39.7104997,
          -17.5273853
        ]
      }
    },
    {
      "type": "Feature",
      "id": "node/11208915670",
      "properties": {
        "timestamp": "2023-09-21T21:37:38Z",
        "version": 2,
        "changeset": 141578852,
        "addr:city": "Teixeira de Freitas",
        "addr:housenumber": "1285",
        "addr:postcode": "45996-000",
        "addr:street": "Avenida João Paulo Segundo",
        "addr:suburb": "Jardim Planalto",
        "name": "Hotel e Churrascaria do Gaúcho",
        "tourism": "hotel",
        "id": "node/11208915670"
      },
      "geometry": {
        "type": "Point",
        "coordinates": [
          -39.7252953,
          -17.55337
        ]
      }
    },
    {
      "type": "Feature",
      "id": "node/11208915671",
      "properties": {
        "timestamp": "2023-09-21T21:37:38Z",
        "version": 2,
        "changeset": 141578852,
        "addr:city": "Teixeira de Freitas",
        "addr:postcode": "45996-000",
        "addr:street": "Avenida João Paulo Segundo",
        "addr:suburb": "Jardim Planalto",
        "name": "Pousada Valença Dois",
        "tourism": "hotel",
        "id": "node/11208915671"
      },
      "geometry": {
        "type": "Point",
        "coordinates": [
          -39.727161,
          -17.5525018
        ]
      }
    },
    {
      "type": "Feature",
      "id": "node/11208915672",
      "properties": {
        "timestamp": "2023-09-21T21:37:38Z",
        "version": 2,
        "changeset": 141578852,
        "addr:city": "Teixeira de Freitas",
        "addr:housenumber": "821",
        "addr:street": "Avenida João Paulo Segundo",
        "addr:suburb": "Jardim Planalto",
        "name": "Hotel Caraípe",
        "tourism": "hotel",
        "id": "node/11208915672"
      },
      "geometry": {
        "type": "Point",
        "coordinates": [
          -39.7296111,
          -17.5512035
        ]
      }
    },
    {
      "type": "Feature",
      "id": "node/11208915675",
      "properties": {
        "timestamp": "2023-09-21T21:19:26Z",
        "version": 1,
        "changeset": 141578391,
        "addr:city": "Teixeira de Freitas",
        "addr:housenumber": "5620",
        "addr:street": "Avenida Presidente Getúlio Vargas",
        "addr:suburb": "Santa Rita",
        "name": "Hotel Milla",
        "phone": "+55 73 98844 0204",
        "tourism": "hotel",
        "id": "node/11208915675"
      },
      "geometry": {
        "type": "Point",
        "coordinates": [
          -39.7563406,
          -17.5309436
        ]
      }
    },
    {
      "type": "Feature",
      "id": "node/11218987514",
      "properties": {
        "timestamp": "2023-09-26T01:47:42Z",
        "version": 1,
        "changeset": 141753011,
        "addr:postcode": "45988-130",
        "name": "Pousada Avant",
        "tourism": "hotel",
        "id": "node/11218987514"
      },
      "geometry": {
        "type": "Point",
        "coordinates": [
          -39.7087321,
          -17.5248676
        ]
      }
    }
  ]
}
