{
  "type": "FeatureCollection",
  "features": [
    {
      "type": "Feature",
      "id": "node/10977417728",
      "properties": {
        "timestamp": "2023-06-14T18:32:02Z",
        "version": 1,
        "changeset": 137340715,
        "addr:city": "Teixeira de Freitas",
        "addr:postcode": "45990-734",
        "addr:street": "Avenida Padre Anchieta",
        "addr:suburb": "Jardim Caraipe",
        "amenity": "pharmacy",
        "healthcare": "pharmacy",
        "name": "Drugstore e Farmácia Indiana",
        "operator": "Irmãos Mattar & Cia Limitada",
        "id": "node/10977417728"
      },
      "geometry": {
        "type": "Point",
        "coordinates": [
          -39.7425184,
          -17.5481
        ]
      }
    },
    {
      "type": "Feature",
      "id": "node/10979879275",
      "properties": {
        "timestamp": "2023-06-16T01:34:23Z",
        "version": 1,
        "changeset": 137393702,
        "addr:city": "Teixeira de Freitas",
        "addr:housenumber": "44",
        "addr:street": "Avenida São Paulo",
        "addr:suburb": "Bela Vista",
        "amenity": "pharmacy",
        "brand": "Pague Menos",
        "brand:wikidata": "Q7124466",
        "healthcare": "pharmacy",
        "name": "Pague Menos",
        "id": "node/10979879275"
      },
      "geometry": {
        "type": "Point",
        "coordinates": [
          -39.7415083,
          -17.5410122
        ]
      }
    },
    {
      "type": "Feature",
      "id": "node/10979879282",
      "properties": {
        "timestamp": "2023-06-16T01:34:23Z",
        "version": 1,
        "changeset": 137393702,
        "amenity": "pharmacy",
        "brand": "Drogasil",
        "brand:wikidata": "Q5308185",
        "healthcare": "pharmacy",
        "name": "Drogasil",
        "wheelchair": "yes",
        "id": "node/10979879282"
      },
      "geometry": {
        "type": "Point",
        "coordinates": [
          -39.7424955,
          -17.5398118
        ]
      }
    },
    {
      "type": "Feature",
      "id": "node/10979879283",
      "properties": {
        "timestamp": "2023-06-16T23:46:47Z",
        "version": 2,
        "changeset": 137431693,
        "addr:city": "Teixeira de Freitas",
        "addr:housenumber": "3629 A",
        "addr:postcode": "45990-734",
        "addr:street": "Avenida Presidente Getúlio Vargas",
        "addr:suburb": "Bela Vista",
        "amenity": "pharmacy",
        "healthcare": "pharmacy",
        "name": "Drugstore e Farmácia Indiana",
        "operator": "Irmãos Mattar & Cia Limitada",
        "id": "node/10979879283"
      },
      "geometry": {
        "type": "Point",
        "coordinates": [
          -39.7419189,
          -17.5401073
        ]
      }
    },
    {
      "type": "Feature",
      "id": "node/11208915677",
      "properties": {
        "timestamp": "2023-09-21T21:19:26Z",
        "version": 1,
        "changeset": 141578391,
        "addr:city": "Teixeira de Freitas",
        "addr:housenumber": "577",
        "addr:postcode": "45985-158",
        "addr:street": "Avenida Marechal Castelo Branco",
        "addr:suburb": "Centro",
        "amenity": "pharmacy",
        "healthcare": "pharmacy",
        "name": "Farmácia Indiana",
        "id": "node/11208915677"
      },
      "geometry": {
        "type": "Point",
        "coordinates": [
          -39.742445,
          -17.5361436
        ]
      }
    },
    {
      "type": "Feature",
      "id": "node/11230237873",
      "properties": {
        "timestamp": "2023-10-01T01:38:59Z",
        "version": 1,
        "changeset": 141971599,
        "addr:city": "Teixeira de Freitas",
        "addr:postcode": "45990-734",
        "addr:street": "Avenida São Paulo",
        "addr:suburb": "Jardim Caraipe",
        "amenity": "pharmacy",
        "healthcare": "pharmacy",
        "name": "Drugstore e Farmácia Indiana",
        "operator": "Irmãos Mattar & Cia Limitada",
        "id": "node/11230237873"
      },
      "geometry": {
        "type": "Point",
        "coordinates": [
          -39.7378064,
          -17.5460885
        ]
      }
    }
  ]
}
