{
  "type": "FeatureCollection",
  "features": [
    {
      "type": "Feature",
      "id": "node/10686476365",
      "properties": {
        "timestamp": "2023-02-22T18:28:44Z",
        "version": 1,
        "changeset": 132894508,
        "addr:city": "Teixeira de Freitas",
        "addr:housenumber": "312",
        "addr:postcode": "45995-152",
        "addr:street": "Avenida Panhossi",
        "addr:suburb": "Jardim Liberdade",
        "amenity": "social_facility",
        "name": "Lar dos Idosos São Francisco de Assis",
        "operator": "Sociedade São Vicente de Paulo",
        "operator:type": "public",
        "social_facility": "group_home",
        "social_facility:for": "senior",
        "id": "node/10686476365"
      },
      "geometry": {
        "type": "Point",
        "coordinates": [
          -39.7636029,
          -17.531661
        ]
      }
    },
    {
      "type": "Feature",
      "id": "node/10691406169",
      "properties": {
        "timestamp": "2023-03-21T21:58:54Z",
        "version": 3,
        "changeset": 133958114,
        "addr:city": "Teixeira de Freitas",
        "addr:housenumber": "63",
        "addr:street": "Rua Haiti",
        "addr:suburb": "Bela Vista",
        "amenity": "social_facility",
        "name": "Centro de Referência Especializado de Assistência Social Cassiane Lima",
        "operator": "Município de Teixeira de Freitas",
        "operator:type": "public",
        "social_facility": "assisted_living",
        "id": "node/10691406169"
      },
      "geometry": {
        "type": "Point",
        "coordinates": [
          -39.7387099,
          -17.5398071
        ]
      }
    },
    {
      "type": "Feature",
      "id": "node/11230237874",
      "properties": {
        "timestamp": "2023-10-01T01:38:59Z",
        "version": 1,
        "changeset": 141971599,
        "addr:city": "Teixeira de Freitas",
        "addr:street": "Rua Quintino Lima",
        "addr:suburb": "Jardim Caraipe",
        "amenity": "social_facility",
        "name": "Centro de Convivência do Idoso Maria Santos Castro",
        "id": "node/11230237874"
      },
      "geometry": {
        "type": "Point",
        "coordinates": [
          -39.7381137,
          -17.5467911
        ]
      }
    }
  ]
}
