{
  "type": "FeatureCollection",
  "features": [
    {
      "type": "Feature",
      "id": "way/682334089",
      "properties": {
        "timestamp": "2021-08-04T22:40:59Z",
        "version": 7,
        "changeset": 109166815,
        "addr:city": "Três Lagoas",
        "addr:housenumber": "280",
        "addr:street": "Avenida Doutor Clodoaldo Garcia",
        "amenity": "clinic",
        "building": "yes",
        "healthcare": "clinic",
        "name": "CEM - Centro de Especialidades Médicas",
        "operator": "Sistema Único de Saúde",
        "operator:short": "SUS",
        "operator:type": "public",
        "operator:wikidata": "Q7531056",
        "operator:wikipedia": "pt:Sistema Único de Saúde",
        "phone": "+55 67 3929-9895",
        "id": "way/682334089"
      },
      "geometry": {
        "type": "Polygon",
        "coordinates": [
          [
            [
              -51.7154651,
              -20.7910138
            ],
            [
              -51.7157265,
              -20.7914176
            ],
            [
              -51.71515,
              -20.7917499
            ],
            [
              -51.7148953,
              -20.7913401
            ],
            [
              -51.7154651,
              -20.7910138
            ]
          ]
        ]
      }
    },
    {
      "type": "Feature",
      "id": "way/706996728",
      "properties": {
        "timestamp": "2024-11-27T00:55:39Z",
        "version": 3,
        "changeset": 159639115,
        "addr:city": "Três Lagoas",
        "addr:housenumber": "521",
        "addr:postcode": "79640-098",
        "addr:street": "Rua Doutor Eurydice Chagas Cruz",
        "addr:suburb": "Interlagos",
        "amenity": "clinic",
        "building": "residential",
        "healthcare": "clinic",
        "healthcare:speciality": "general;dentistry;community",
        "name": "USF Interlagos",
        "opening_hours": "Mo-Fr 06:00 - 19:00",
        "operator": "Prefeitura",
        "operator:type": "public",
        "id": "way/706996728"
      },
      "geometry": {
        "type": "Polygon",
        "coordinates": [
          [
            [
              -51.7108926,
              -20.7762471
            ],
            [
              -51.7112181,
              -20.7760746
            ],
            [
              -51.7113428,
              -20.7762902
            ],
            [
              -51.7110228,
              -20.776469
            ],
            [
              -51.7108926,
              -20.7762471
            ]
          ]
        ]
      }
    },
    {
      "type": "Feature",
      "id": "way/976062611",
      "properties": {
        "timestamp": "2024-03-31T23:20:28Z",
        "version": 3,
        "changeset": 149411147,
        "addr:city": "Três Lagoas",
        "addr:housenumber": "995",
        "addr:postcode": "79645-210",
        "addr:street": "Rua José Lopes Sejopoles",
        "addr:suburb": "Paranapungá",
        "amenity": "clinic",
        "building": "service",
        "healthcare": "clinic",
        "healthcare:speciality": "general;dentistry;vaccination;community",
        "name": "USF Paranapungá",
        "opening_hours": "Mo-Fr 06:00-18:00",
        "operator": "Gestão Municipal",
        "operator:type": "public",
        "wheelchair": "yes",
        "id": "way/976062611"
      },
      "geometry": {
        "type": "Polygon",
        "coordinates": [
          [
            [
              -51.689896,
              -20.7689102
            ],
            [
              -51.6897485,
              -20.7689954
            ],
            [
              -51.6894964,
              -20.7686243
            ],
            [
              -51.6896492,
              -20.768549
            ],
            [
              -51.6896734,
              -20.7685867
            ],
            [
              -51.6897485,
              -20.768702
            ],
            [
              -51.689896,
              -20.7689102
            ]
          ]
        ]
      }
    },
    {
      "type": "Feature",
      "id": "way/1293559366",
      "properties": {
        "timestamp": "2024-06-19T05:15:43Z",
        "version": 1,
        "changeset": 152874692,
        "amenity": "clinic",
        "building": "yes",
        "healthcare": "clinic",
        "healthcare:speciality": "general;emergency",
        "name": "UPA",
        "not:operator:wikidata": "Q7531056",
        "opening_hours": "24/7",
        "operator": "Sistema Unico de Saúde",
        "operator:type": "government",
        "id": "way/1293559366"
      },
      "geometry": {
        "type": "Polygon",
        "coordinates": [
          [
            [
              -51.7133302,
              -20.8083693
            ],
            [
              -51.7133973,
              -20.8084748
            ],
            [
              -51.7137134,
              -20.8083023
            ],
            [
              -51.7138979,
              -20.8085876
            ],
            [
              -51.7135775,
              -20.8087606
            ],
            [
              -51.7137043,
              -20.808964
            ],
            [
              -51.7134014,
              -20.8091427
            ],
            [
              -51.7132611,
              -20.8089203
            ],
            [
              -51.7129948,
              -20.8090743
            ],
            [
              -51.7128302,
              -20.8087949
            ],
            [
              -51.7130965,
              -20.80866
            ],
            [
              -51.7130213,
              -20.8085384
            ],
            [
              -51.7133302,
              -20.8083693
            ]
          ]
        ]
      }
    },
    {
      "type": "Feature",
      "id": "node/9815082825",
      "properties": {
        "timestamp": "2022-06-13T16:13:15Z",
        "version": 1,
        "changeset": 122332329,
        "addr:city": "Três Lagoas",
        "addr:housenumber": "S/N",
        "addr:postcode": "79645-502",
        "addr:street": "Rua Etelvino Custódio de Queiroz",
        "addr:suburb": "Jardim das Acácias",
        "amenity": "clinic",
        "healthcare": "clinic",
        "healthcare:speciality": "general;dentist;covid19",
        "name": "USF Jardim Atenas",
        "opening_hours": "Mo-Su 07:00 - 19:00",
        "operator": "muncipal",
        "operator:type": "public",
        "wheelchair": "yes",
        "id": "node/9815082825"
      },
      "geometry": {
        "type": "Point",
        "coordinates": [
          -51.6792589,
          -20.777864
        ]
      }
    },
    {
      "type": "Feature",
      "id": "node/9815131547",
      "properties": {
        "timestamp": "2022-06-13T16:28:12Z",
        "version": 1,
        "changeset": 122332989,
        "addr:city": "Três Lagoas",
        "addr:housenumber": "284",
        "addr:street": "Rua Coronel Augusto Correa da Costa",
        "addr:suburb": "Santo André",
        "amenity": "clinic",
        "healthcare": "clinic",
        "healthcare:speciality": "general;covid19;dentist",
        "name": "USF Santo André",
        "opening_hours": "Mo-Fr 06:00-19:00",
        "operator": "Prefeitura",
        "operator:type": "public",
        "id": "node/9815131547"
      },
      "geometry": {
        "type": "Point",
        "coordinates": [
          -51.7020885,
          -20.7762142
        ]
      }
    },
    {
      "type": "Feature",
      "id": "node/9834078743",
      "properties": {
        "timestamp": "2022-06-20T17:55:43Z",
        "version": 1,
        "changeset": 122634055,
        "addr:city": "Três Lagoas",
        "addr:housenumber": "3725",
        "addr:street": "Rua Bernardino Rodrigues Montalvão",
        "addr:suburb": "Vila Alegre",
        "amenity": "clinic",
        "healthcare": "clinic",
        "healthcare:speciality": "general;gynaecology;dentist;covid19",
        "name": "USF Vila Alegre",
        "opening_hours": "Mo-Fr 06:00-17:00",
        "operator": "Prefeitura Municipal de Três Lagoas",
        "operator:type": "public",
        "wheelchair": "yes",
        "id": "node/9834078743"
      },
      "geometry": {
        "type": "Point",
        "coordinates": [
          -51.6736601,
          -20.7930635
        ]
      }
    },
    {
      "type": "Feature",
      "id": "node/10933451968",
      "properties": {
        "timestamp": "2023-05-28T07:00:54Z",
        "version": 1,
        "changeset": 136645094,
        "addr:city": "Três Lagoas",
        "addr:housenumber": "250",
        "addr:postcode": "79612-280",
        "addr:street": "Rua 34",
        "addr:suburb": "Vila Piloto",
        "amenity": "clinic",
        "healthcare": "clinic",
        "healthcare:speciality": "general;community;dentist;vaccination",
        "name": "USF Vila Piloto",
        "opening_hours": "Mo-Su 06:00-19:00",
        "operator": "Gestão Municipal",
        "operator:type": "public",
        "wheelchair": "yes",
        "id": "node/10933451968"
      },
      "geometry": {
        "type": "Point",
        "coordinates": [
          -51.6615878,
          -20.7889889
        ]
      }
    }
  ]
}
