{
  "type": "FeatureCollection",
  "features": [
    {
      "type": "Feature",
      "id": "way/708649623",
      "properties": {
        "timestamp": "2020-05-20T05:04:40Z",
        "version": 3,
        "changeset": 85474236,
        "addr:city": "Três Lagoas",
        "addr:housenumber": "860",
        "addr:postcode": "79602-020",
        "addr:street": "Rua Elviro Mario Mancini",
        "addr:suburb": "Centro",
        "building": "yes",
        "government": "justice",
        "name": "Ministério Público Estadual",
        "office": "government",
        "wheelchair": "yes",
        "id": "way/708649623"
      },
      "geometry": {
        "type": "Polygon",
        "coordinates": [
          [
            [
              -51.7007326,
              -20.787495
            ],
            [
              -51.7006204,
              -20.7873171
            ],
            [
              -51.7004401,
              -20.7870311
            ],
            [
              -51.7007485,
              -20.7868604
            ],
            [
              -51.7010409,
              -20.7873216
            ],
            [
              -51.7007326,
              -20.787495
            ]
          ]
        ]
      }
    },
    {
      "type": "Feature",
      "id": "way/708650753",
      "properties": {
        "timestamp": "2019-07-29T21:30:58Z",
        "version": 2,
        "changeset": 72787587,
        "addr:city": "Três Lagoas",
        "addr:housenumber": "865",
        "addr:postcode": "79603-000",
        "addr:street": "Rua Duque de Caxias",
        "addr:suburb": "Centro",
        "building": "yes",
        "government": "public_defense",
        "name": "Defensoria Pública",
        "office": "government",
        "phone": "+55673929-1370",
        "website": "http://www.defensoria.ms.gov.br",
        "id": "way/708650753"
      },
      "geometry": {
        "type": "Polygon",
        "coordinates": [
          [
            [
              -51.7006204,
              -20.7873171
            ],
            [
              -51.7007326,
              -20.787495
            ],
            [
              -51.7002934,
              -20.7877259
            ],
            [
              -51.7000686,
              -20.7878496
            ],
            [
              -51.699961,
              -20.7876774
            ],
            [
              -51.700205,
              -20.7875441
            ],
            [
              -51.7006204,
              -20.7873171
            ]
          ]
        ]
      }
    },
    {
      "type": "Feature",
      "id": "way/708655335",
      "properties": {
        "timestamp": "2019-07-29T21:36:55Z",
        "version": 1,
        "changeset": 72787723,
        "building": "yes",
        "government": "justice",
        "office": "government",
        "id": "way/708655335"
      },
      "geometry": {
        "type": "Polygon",
        "coordinates": [
          [
            [
              -51.7004401,
              -20.7870311
            ],
            [
              -51.7006204,
              -20.7873171
            ],
            [
              -51.700205,
              -20.7875441
            ],
            [
              -51.7000188,
              -20.7872622
            ],
            [
              -51.7004401,
              -20.7870311
            ]
          ]
        ]
      }
    },
    {
      "type": "Feature",
      "id": "way/708669886",
      "properties": {
        "timestamp": "2019-07-29T22:51:09Z",
        "version": 1,
        "changeset": 72789146,
        "addr:city": "Três Lagoas",
        "addr:housenumber": "478",
        "addr:postcode": "79630-020",
        "addr:street": "Rua Manoel Pedro de Campos",
        "addr:suburb": "Santos Dumont",
        "building": "yes",
        "government": "tax",
        "name": "Agência da Receita Fedderal",
        "office": "government",
        "opening_hours": "Mo-Fr 07:30-11:30",
        "operator": "Ministério da Economia",
        "id": "way/708669886"
      },
      "geometry": {
        "type": "Polygon",
        "coordinates": [
          [
            [
              -51.7155828,
              -20.7909451
            ],
            [
              -51.7158649,
              -20.7907955
            ],
            [
              -51.7161193,
              -20.7912205
            ],
            [
              -51.7158444,
              -20.7913597
            ],
            [
              -51.7155828,
              -20.7909451
            ]
          ]
        ]
      }
    },
    {
      "type": "Feature",
      "id": "node/5408343821",
      "properties": {
        "timestamp": "2018-02-12T22:21:06Z",
        "version": 1,
        "changeset": 56307346,
        "addr:street": "Avenida Ranulpho Marques Leal",
        "government": "tax",
        "name": "Posto Fiscal Jupiá",
        "office": "government",
        "id": "node/5408343821"
      },
      "geometry": {
        "type": "Point",
        "coordinates": [
          -51.6592571,
          -20.7822638
        ]
      }
    },
    {
      "type": "Feature",
      "id": "node/6255930681",
      "properties": {
        "timestamp": "2019-02-03T16:36:13Z",
        "version": 1,
        "changeset": 66880418,
        "addr:city": "Três Lagoas",
        "addr:housenumber": "71",
        "addr:street": "Rua Sunao Miura",
        "addr:suburb": "Santos Dumont",
        "name": "Câmara Municipal",
        "office": "government",
        "id": "node/6255930681"
      },
      "geometry": {
        "type": "Point",
        "coordinates": [
          -51.7158193,
          -20.7917253
        ]
      }
    }
  ]
}
