{
  "type": "FeatureCollection",
  "features": [
    {
      "type": "Feature",
      "id": "way/180060896",
      "properties": {
        "timestamp": "2019-04-08T02:03:18Z",
        "version": 2,
        "changeset": 68990910,
        "amenity": "school",
        "name": "Escola Estadual Luis Lopes de Carvalho",
        "id": "way/180060896"
      },
      "geometry": {
        "type": "Polygon",
        "coordinates": [
          [
            [
              -51.7260616,
              -20.7933218
            ],
            [
              -51.7265317,
              -20.7940682
            ],
            [
              -51.7257558,
              -20.7944938
            ],
            [
              -51.7252871,
              -20.7937511
            ],
            [
              -51.7260616,
              -20.7933218
            ]
          ]
        ]
      }
    },
    {
      "type": "Feature",
      "id": "way/668160640",
      "properties": {
        "timestamp": "2021-02-28T19:51:17Z",
        "version": 3,
        "changeset": 100154128,
        "addr:city": "Três Lagoas",
        "addr:housenumber": "313",
        "addr:postcode": "79630-110",
        "addr:street": "Rua Santa Luzia",
        "addr:suburb": "Jardim das Oliveiras",
        "amenity": "school",
        "internet_access": "yes",
        "name": "FUNLEC - Colégio Hermesindo Alonso Gonzales",
        "operator": "Fundação Lowtons de Educação e Cultura",
        "operator:type": "private",
        "phone": "+55 67 3524-5494",
        "website": "https://www.funlec.com.br",
        "wheelchair": "yes",
        "id": "way/668160640"
      },
      "geometry": {
        "type": "Polygon",
        "coordinates": [
          [
            [
              -51.718874,
              -20.7909944
            ],
            [
              -51.7167342,
              -20.7921861
            ],
            [
              -51.7161594,
              -20.7912392
            ],
            [
              -51.7182892,
              -20.7900639
            ],
            [
              -51.718874,
              -20.7909944
            ]
          ]
        ]
      }
    },
    {
      "type": "Feature",
      "id": "way/682334083",
      "properties": {
        "timestamp": "2023-11-28T15:39:33Z",
        "version": 2,
        "changeset": 144554388,
        "addr:city": "Três Lagoas",
        "addr:housenumber": "723",
        "addr:postcode": "79620000",
        "addr:street": "Av. Dr. Clodoaldo García",
        "addr:suburb": "Santos Dumont",
        "amenity": "school",
        "grades": "0-12",
        "name": "Escola Estadual Dom Aquino Corrêa",
        "operator": "Governo de Mato Grosso do Sul",
        "operator:type": "public/government",
        "religion": "none",
        "id": "way/682334083"
      },
      "geometry": {
        "type": "Polygon",
        "coordinates": [
          [
            [
              -51.7168181,
              -20.7947727
            ],
            [
              -51.7173419,
              -20.7956727
            ],
            [
              -51.7165986,
              -20.7960962
            ],
            [
              -51.7160111,
              -20.7952227
            ],
            [
              -51.7168181,
              -20.7947727
            ]
          ]
        ]
      }
    },
    {
      "type": "Feature",
      "id": "way/693874463",
      "properties": {
        "timestamp": "2019-07-29T22:21:00Z",
        "version": 3,
        "changeset": 72788637,
        "addr:city": "Três Lagoas",
        "addr:housenumber": "807",
        "addr:postcode": "79640-250",
        "addr:street": "Avenida Angelina Tebet",
        "addr:suburb": "Santa Luzia",
        "amenity": "school",
        "internet_access": "yes",
        "name": "SESI - Unidade Três Lagoas",
        "phone": "+556739192100",
        "website": "http://www.sesims.com.br/",
        "wheelchair": "yes",
        "id": "way/693874463"
      },
      "geometry": {
        "type": "Polygon",
        "coordinates": [
          [
            [
              -51.727909,
              -20.7895628
            ],
            [
              -51.7250558,
              -20.7894187
            ],
            [
              -51.7241253,
              -20.7892689
            ],
            [
              -51.7228805,
              -20.7888081
            ],
            [
              -51.7230962,
              -20.788278
            ],
            [
              -51.7249449,
              -20.7872353
            ],
            [
              -51.7272188,
              -20.7877422
            ],
            [
              -51.7269538,
              -20.7880303
            ],
            [
              -51.727909,
              -20.7895628
            ]
          ]
        ]
      }
    },
    {
      "type": "Feature",
      "id": "way/706840338",
      "properties": {
        "timestamp": "2019-07-24T11:59:31Z",
        "version": 2,
        "changeset": 72598628,
        "addr:city": "Três Lagoas MS",
        "addr:housenumber": "300",
        "addr:postcode": "79600-110",
        "addr:street": "R. Cel. João Gonçalves de Oliveira",
        "addr:suburb": "Interlagos",
        "amenity": "school",
        "name": "Escola Estadual Edwards Corrêa e Souza",
        "id": "way/706840338"
      },
      "geometry": {
        "type": "Polygon",
        "coordinates": [
          [
            [
              -51.710889,
              -20.7786725
            ],
            [
              -51.7114292,
              -20.7795248
            ],
            [
              -51.7109926,
              -20.7797863
            ],
            [
              -51.7105071,
              -20.7800477
            ],
            [
              -51.710039,
              -20.7791742
            ],
            [
              -51.710889,
              -20.7786725
            ]
          ]
        ]
      }
    },
    {
      "type": "Feature",
      "id": "way/851624439",
      "properties": {
        "timestamp": "2020-09-25T18:36:31Z",
        "version": 1,
        "changeset": 91526667,
        "addr:city": "Três Lagoas",
        "addr:housenumber": "3215",
        "addr:postcode": "79601-970",
        "addr:street": "Avenida Filinto Muller",
        "addr:suburb": "Jardim Morumbi",
        "amenity": "school",
        "grades": "0-5;",
        "name": "Escola Municipal Prof. Ramez Tebet",
        "phone": "+55 67 3929-1256",
        "id": "way/851624439"
      },
      "geometry": {
        "type": "Polygon",
        "coordinates": [
          [
            [
              -51.6989306,
              -20.7648209
            ],
            [
              -51.6984326,
              -20.7650927
            ],
            [
              -51.6980586,
              -20.7644825
            ],
            [
              -51.6985322,
              -20.7642088
            ],
            [
              -51.6989306,
              -20.7648209
            ]
          ]
        ]
      }
    },
    {
      "type": "Feature",
      "id": "way/851626960",
      "properties": {
        "timestamp": "2020-09-25T18:46:06Z",
        "version": 1,
        "changeset": 91527094,
        "addr:city": "Três Lagoas",
        "addr:housenumber": "1662",
        "addr:postcode": "79601-003",
        "addr:street": "Av. Antônio Trajano",
        "addr:suburb": "Centro",
        "amenity": "school",
        "name": "Escola Estadual Prof. João Magiano Pinto",
        "phone": "+55 67 3521-2375",
        "id": "way/851626960"
      },
      "geometry": {
        "type": "Polygon",
        "coordinates": [
          [
            [
              -51.7005273,
              -20.7795848
            ],
            [
              -51.6999179,
              -20.7786089
            ],
            [
              -51.7007165,
              -20.7781549
            ],
            [
              -51.7013446,
              -20.7791285
            ],
            [
              -51.7005273,
              -20.7795848
            ]
          ]
        ]
      }
    },
    {
      "type": "Feature",
      "id": "way/972303648",
      "properties": {
        "timestamp": "2021-08-12T08:25:52Z",
        "version": 3,
        "changeset": 109557190,
        "addr:city": "Três Lagoas",
        "addr:housenumber": "2001",
        "addr:street": "Rua João Gonçalves de Oliveira",
        "addr:suburb": "Jardim Cangalha",
        "amenity": "school",
        "name": "Elite Rede de Ensino - Três Lagoas",
        "website": "https://ensinoelite.com.br",
        "id": "way/972303648"
      },
      "geometry": {
        "type": "Polygon",
        "coordinates": [
          [
            [
              -51.691928,
              -20.7899593
            ],
            [
              -51.6921587,
              -20.7903254
            ],
            [
              -51.691818,
              -20.790511
            ],
            [
              -51.6915793,
              -20.7901211
            ],
            [
              -51.691928,
              -20.7899593
            ]
          ]
        ]
      }
    },
    {
      "type": "Feature",
      "id": "way/979299448",
      "properties": {
        "timestamp": "2021-09-03T11:29:25Z",
        "version": 1,
        "changeset": 110673824,
        "amenity": "school",
        "id": "way/979299448"
      },
      "geometry": {
        "type": "Polygon",
        "coordinates": [
          [
            [
              -51.7365418,
              -20.7867568
            ],
            [
              -51.7367188,
              -20.7870232
            ],
            [
              -51.7370514,
              -20.7868279
            ],
            [
              -51.7373753,
              -20.7873342
            ],
            [
              -51.7373611,
              -20.787402
            ],
            [
              -51.7363684,
              -20.7879678
            ],
            [
              -51.7363312,
              -20.787986
            ],
            [
              -51.7362587,
              -20.7879612
            ],
            [
              -51.735772,
              -20.7871952
            ],
            [
              -51.7365418,
              -20.7867568
            ]
          ]
        ]
      }
    },
    {
      "type": "Feature",
      "id": "way/1041877610",
      "properties": {
        "timestamp": "2022-03-20T07:24:29Z",
        "version": 1,
        "changeset": 118686838,
        "addr:city": "Três Lagoas",
        "addr:housenumber": "2753",
        "addr:street": "Rua Egídio Thomé",
        "addr:suburb": "Jardim Alvorada",
        "amenity": "school",
        "name": "Anglo",
        "operator": "Anglo",
        "operator:type": "private",
        "website": "http://www.anglotreslagoas.com.br/",
        "id": "way/1041877610"
      },
      "geometry": {
        "type": "Polygon",
        "coordinates": [
          [
            [
              -51.6826182,
              -20.7907436
            ],
            [
              -51.6821854,
              -20.7900405
            ],
            [
              -51.6820445,
              -20.7898186
            ],
            [
              -51.6824576,
              -20.7895841
            ],
            [
              -51.6829096,
              -20.7902962
            ],
            [
              -51.6830464,
              -20.7905031
            ],
            [
              -51.6826182,
              -20.7907436
            ]
          ]
        ]
      }
    },
    {
      "type": "Feature",
      "id": "way/1041877611",
      "properties": {
        "timestamp": "2022-03-20T07:24:29Z",
        "version": 1,
        "changeset": 118686838,
        "addr:city": "Três Lagoas",
        "addr:housenumber": "2775",
        "addr:postcode": "79603-010",
        "addr:street": "Avenida Capitão Olinto Mancini",
        "addr:suburb": "Jardim Alvorada",
        "amenity": "school",
        "name": "Escola Municipal Professora Maria Eulalia Vieira",
        "operator": "Prefeitura Municipal de Três Lagoas",
        "operator:type": "public",
        "id": "way/1041877611"
      },
      "geometry": {
        "type": "Polygon",
        "coordinates": [
          [
            [
              -51.6873197,
              -20.7954901
            ],
            [
              -51.6880022,
              -20.7965686
            ],
            [
              -51.6874332,
              -20.7968978
            ],
            [
              -51.6867317,
              -20.7958062
            ],
            [
              -51.6873197,
              -20.7954901
            ]
          ]
        ]
      }
    },
    {
      "type": "Feature",
      "id": "way/1041877615",
      "properties": {
        "timestamp": "2023-10-22T15:10:39Z",
        "version": 2,
        "changeset": 142972813,
        "addr:city": "Três Lagoas",
        "addr:housenumber": "2474",
        "addr:postcode": "79610-070",
        "addr:street": "Viela Visconde Tamandaré",
        "addr:suburb": "Jardim Cangalha",
        "amenity": "school",
        "name": "Centro de Educação Infantil “Neife de Souza Lima”",
        "operator": "Prefeitura Municipal de Três Lagoas",
        "operator:type": "public",
        "website": "https://www.treslagoas.ms.gov.br/servico/ceineifesouzalima/",
        "id": "way/1041877615"
      },
      "geometry": {
        "type": "Polygon",
        "coordinates": [
          [
            [
              -51.6931835,
              -20.78855
            ],
            [
              -51.6928017,
              -20.7879324
            ],
            [
              -51.6930222,
              -20.7878031
            ],
            [
              -51.6934115,
              -20.7884227
            ],
            [
              -51.6932745,
              -20.7884994
            ],
            [
              -51.6931835,
              -20.78855
            ]
          ]
        ]
      }
    },
    {
      "type": "Feature",
      "id": "way/1041877616",
      "properties": {
        "timestamp": "2022-09-10T21:17:31Z",
        "version": 2,
        "changeset": 126030351,
        "addr:city": "Três Lagoas",
        "addr:housenumber": "1336",
        "addr:postcode": "79603-080",
        "addr:street": "Rua Octávio Sigefredo Roriz",
        "addr:suburb": "Jardim Cangalha",
        "amenity": "school",
        "name": "Escola Municipal Presidente Médici",
        "operator": "Prefeitura Municipal de Três Lagoas",
        "operator:type": "public",
        "phone": "+55 67 3929 1146",
        "website": "https://www.treslagoas.ms.gov.br/servico/empresidentemedici/",
        "id": "way/1041877616"
      },
      "geometry": {
        "type": "Polygon",
        "coordinates": [
          [
            [
              -51.6937582,
              -20.7863903
            ],
            [
              -51.6927923,
              -20.7869304
            ],
            [
              -51.6924965,
              -20.7864854
            ],
            [
              -51.6934624,
              -20.7859294
            ],
            [
              -51.6937582,
              -20.7863903
            ]
          ]
        ]
      }
    },
    {
      "type": "Feature",
      "id": "way/1041877619",
      "properties": {
        "timestamp": "2023-10-22T15:12:15Z",
        "version": 2,
        "changeset": 142972899,
        "addr:city": "Três Lagoas",
        "addr:housenumber": "1153",
        "addr:postcode": "79601-970",
        "addr:street": "Rua Sebastião Fenelon Costa",
        "amenity": "school",
        "name": "Escola Municipal Eufrosina Pinto",
        "operator": "Prefeitura Municipal de Três Lagoas",
        "operator:type": "public",
        "website": "https://www.treslagoas.ms.gov.br/servico/emeufrosinapinto/",
        "id": "way/1041877619"
      },
      "geometry": {
        "type": "Polygon",
        "coordinates": [
          [
            [
              -51.7069582,
              -20.8053839
            ],
            [
              -51.7063278,
              -20.8057222
            ],
            [
              -51.7062239,
              -20.8050554
            ],
            [
              -51.7061386,
              -20.8044573
            ],
            [
              -51.7064484,
              -20.8043029
            ],
            [
              -51.7067144,
              -20.8047222
            ],
            [
              -51.7069658,
              -20.8051358
            ],
            [
              -51.7069117,
              -20.8052509
            ],
            [
              -51.7069654,
              -20.8053804
            ],
            [
              -51.7069582,
              -20.8053839
            ]
          ]
        ]
      }
    },
    {
      "type": "Feature",
      "id": "way/1227383555",
      "properties": {
        "timestamp": "2023-11-28T15:42:38Z",
        "version": 1,
        "changeset": 144554506,
        "addr:city": "Três Lagoas",
        "addr:housenumber": "1965",
        "addr:postcode": "79630020",
        "addr:street": "Rua Manoel Pedro de Campos",
        "addr:suburb": "Santa Rita",
        "amenity": "school",
        "grades": "0-12",
        "name": "Escola Estadual João Ponce de Arruda",
        "operator": "Governo de Mato Grosso do Sul",
        "operator:type": "public/government",
        "religion": "none",
        "id": "way/1227383555"
      },
      "geometry": {
        "type": "Polygon",
        "coordinates": [
          [
            [
              -51.6993492,
              -20.7995538
            ],
            [
              -51.6998348,
              -20.8002842
            ],
            [
              -51.6989475,
              -20.8008096
            ],
            [
              -51.6984427,
              -20.8000876
            ],
            [
              -51.6993492,
              -20.7995538
            ]
          ]
        ]
      }
    },
    {
      "type": "Feature",
      "id": "node/5928564185",
      "properties": {
        "timestamp": "2018-09-25T10:22:03Z",
        "version": 1,
        "changeset": 62908244,
        "amenity": "school",
        "name": "Escola Municipal Olyntho",
        "name:pt": "Escola Municipal Olyntho Mancini",
        "id": "node/5928564185"
      },
      "geometry": {
        "type": "Point",
        "coordinates": [
          -51.729772,
          -20.8067175
        ]
      }
    },
    {
      "type": "Feature",
      "id": "node/11181247920",
      "properties": {
        "timestamp": "2023-09-10T15:26:04Z",
        "version": 1,
        "changeset": 141068479,
        "addr:city": "Três Lagoas MS",
        "addr:housenumber": "300",
        "addr:postcode": "79640093",
        "addr:street": "Rua João Gonçalves de Oliveira",
        "addr:suburb": "Interlagos",
        "amenity": "school",
        "capacity": "1100",
        "description": "Escola pública estadual de nível Fundamental e Médio que atualmente atende mais de 1.000 alunos em três turnos (matutino, vespertino e noturno). Escola com código INEP 500121126.",
        "email": "eeeces@sed.ms.gov.br",
        "grades": "6-9° ano do Ensino Fundamental;1-3° ano do Ensino Médio",
        "image": "https://www.google.com/url?sa=i&url=https%3A%2F%2Fwww.facebook.com%2Fescolaedwardscorrea%2F&psig=AOvVaw2lEdu3yqpmTWC64zRhPUKP&ust=1694445209319000&source=images&cd=vfe&opi=89978449&ved=0CBAQjRxqFwoTCMDNmbiqoIEDFQAAAAAdAAAAABAJ",
        "internet_access": "yes",
        "level": "apenas_térreo",
        "name": "Escola Estadual Edwards Corrêa e Souza",
        "note": "IDEB 2021\nEnsino Fundamental Anos Finais: 5,1\nEnsino Médio: 4,1.",
        "operator": "Secretaria de Estado de Educação de Mato Grosso do Sul (SED-MS)",
        "operator:type": "government",
        "phone": "(67) 3521-7708",
        "polling_station": "yes",
        "start_date": "1981/02/02",
        "website": "https://www.instagram.com/escolaedwardscorreaespuza/",
        "wheelchair": "yes",
        "id": "node/11181247920"
      },
      "geometry": {
        "type": "Point",
        "coordinates": [
          -51.7107237,
          -20.7793589
        ]
      }
    }
  ]
}
