{
  "type": "FeatureCollection",
  "features": [
    {
      "type": "Feature",
      "id": "way/962382128",
      "properties": {
        "timestamp": "2021-07-07T21:16:03Z",
        "version": 2,
        "changeset": 107589795,
        "addr:city": "Mantena",
        "addr:housenumber": "383",
        "addr:postcode": "35290-000",
        "addr:street": "Rua Victor Campos de Queiroz",
        "addr:suburb": "Centro",
        "building": "yes",
        "government": "administrative",
        "name": "Câmara Municipal de Mantena",
        "office": "government",
        "opening_hours": "Mo-Fr 08:00-15:00",
        "phone": "+55 (33) 3241-1555",
        "website": "https://transparencia.camaramantena.mg.gov.br/",
        "id": "way/962382128"
      },
      "geometry": {
        "type": "Polygon",
        "coordinates": [
          [
            [
              -40.9826053,
              -18.7853243
            ],
            [
              -40.9825792,
              -18.7854819
            ],
            [
              -40.9823017,
              -18.7854185
            ],
            [
              -40.98234,
              -18.7851515
            ],
            [
              -40.9824726,
              -18.7851576
            ],
            [
              -40.9824637,
              -18.785311
            ],
            [
              -40.9825712,
              -18.7853211
            ],
            [
              -40.9826053,
              -18.7853243
            ]
          ]
        ]
      }
    },
    {
      "type": "Feature",
      "id": "way/962398604",
      "properties": {
        "timestamp": "2021-07-07T21:31:05Z",
        "version": 1,
        "changeset": 107590178,
        "addr:city": "Mantena",
        "addr:housenumber": "128",
        "addr:postcode": "35290-000",
        "addr:street": "Avenida José Mol",
        "addr:suburb": "Centro",
        "building": "yes",
        "email": "saude@mantena.mg.gov.br",
        "government": "public_service",
        "name": "Secretaria Municipal de Saúde",
        "office": "government",
        "opening_hours": "Mo-Fr 07:00-17:00",
        "phone": "+55 (33) 3241-2246",
        "id": "way/962398604"
      },
      "geometry": {
        "type": "Polygon",
        "coordinates": [
          [
            [
              -40.9819723,
              -18.78233
            ],
            [
              -40.9820075,
              -18.7822616
            ],
            [
              -40.9822015,
              -18.7823539
            ],
            [
              -40.9821681,
              -18.7824162
            ],
            [
              -40.9819723,
              -18.78233
            ]
          ]
        ]
      }
    }
  ]
}
