{
  "type": "FeatureCollection",
  "features": [
    {
      "type": "Feature",
      "id": "way/681289495",
      "properties": {
        "timestamp": "2019-04-03T01:47:56Z",
        "version": 1,
        "changeset": 68819222,
        "addr:city": "Visconde do Rio Branco",
        "addr:housenumber": "101",
        "addr:postcode": "36520000",
        "addr:street": "R. Chakibe Couri",
        "addr:suburb": "Nova República",
        "amenity": "community_centre",
        "building": "yes",
        "name": "Associação de Bairro Nova República",
        "operator": "Grupo de Moradores da Associação de Bairro Nova República",
        "id": "way/681289495"
      },
      "geometry": {
        "type": "Polygon",
        "coordinates": [
          [
            [
              -42.849637,
              -20.9980014
            ],
            [
              -42.8497107,
              -20.9981089
            ],
            [
              -42.8496144,
              -20.9981664
            ],
            [
              -42.8495407,
              -20.9980589
            ],
            [
              -42.849637,
              -20.9980014
            ]
          ]
        ]
      }
    },
    {
      "type": "Feature",
      "id": "node/5899941041",
      "properties": {
        "timestamp": "2019-01-15T22:42:56Z",
        "version": 2,
        "changeset": 66346716,
        "addr:city": "Visconde do Rio Branco",
        "addr:street": "Estrada dos Bráz",
        "amenity": "community_centre",
        "name": "Celebrare Eventos",
        "operator": "Eventos Celebrare",
        "id": "node/5899941041"
      },
      "geometry": {
        "type": "Point",
        "coordinates": [
          -42.874067,
          -20.9884804
        ]
      }
    }
  ]
}
