{
  "type": "FeatureCollection",
  "features": [
    {
      "type": "Feature",
      "id": "way/801436555",
      "properties": {
        "timestamp": "2021-03-29T01:58:48Z",
        "version": 2,
        "changeset": 101894542,
        "addr:city": "Visconde do Rio Branco",
        "addr:postcode": "36520-000",
        "addr:street": "Rua São José",
        "addr:suburb": "Nova República",
        "amenity": "social_facility",
        "building": "yes",
        "name": "Lar São João Batista",
        "operator": "Prefeitura Municipal de Visconde do Rio Branco",
        "operator:type": "public",
        "social_facility": "nursing_home",
        "social_facility:for": "senior",
        "wheelchair": "yes",
        "id": "way/801436555"
      },
      "geometry": {
        "type": "Polygon",
        "coordinates": [
          [
            [
              -42.8473919,
              -20.9940181
            ],
            [
              -42.8479244,
              -20.9943441
            ],
            [
              -42.8477421,
              -20.9946037
            ],
            [
              -42.8472096,
              -20.9942775
            ],
            [
              -42.8473919,
              -20.9940181
            ]
          ]
        ]
      }
    }
  ]
}
