{
  "type": "FeatureCollection",
  "features": [
    {
      "type": "Feature",
      "id": "node/7192031548",
      "properties": {
        "timestamp": "2021-10-19T18:48:16Z",
        "version": 3,
        "changeset": 112712788,
        "addr:housenumber": "418",
        "addr:street": "Avenida Porcino Maia",
        "name": "Pousada O Cod√≥",
        "phone": "+55 88 9 9958 1940",
        "tourism": "guest_house",
        "id": "node/7192031548"
      },
      "geometry": {
        "type": "Point",
        "coordinates": [
          -38.4605637,
          -5.4635625
        ]
      }
    },
    {
      "type": "Feature",
      "id": "node/7194219172",
      "properties": {
        "timestamp": "2021-10-19T18:48:16Z",
        "version": 2,
        "changeset": 112712788,
        "addr:housenumber": "307",
        "addr:street": "Avenida Vereador Sobrinho",
        "name": "Pousada o Pereira",
        "tourism": "guest_house",
        "id": "node/7194219172"
      },
      "geometry": {
        "type": "Point",
        "coordinates": [
          -38.4575288,
          -5.4603089
        ]
      }
    },
    {
      "type": "Feature",
      "id": "node/7231488031",
      "properties": {
        "timestamp": "2021-10-19T18:48:16Z",
        "version": 3,
        "changeset": 112712788,
        "addr:housenumber": "272",
        "addr:street": "Avenida Vereador Sobrinho",
        "name": "Pousada O Pereira",
        "phone": "+55 88 9 9968 7242",
        "tourism": "guest_house",
        "id": "node/7231488031"
      },
      "geometry": {
        "type": "Point",
        "coordinates": [
          -38.4646873,
          -5.4520626
        ]
      }
    }
  ]
}
