{
  "type": "FeatureCollection",
  "features": [
    {
      "type": "Feature",
      "id": "way/519050143",
      "properties": {
        "timestamp": "2017-08-27T11:45:01Z",
        "version": 1,
        "changeset": 51479909,
        "amenity": "school",
        "id": "way/519050143"
      },
      "geometry": {
        "type": "Polygon",
        "coordinates": [
          [
            [
              -40.8603925,
              -7.0810743
            ],
            [
              -40.8604151,
              -7.0812172
            ],
            [
              -40.8601587,
              -7.0812572
            ],
            [
              -40.860136,
              -7.0811144
            ],
            [
              -40.8603925,
              -7.0810743
            ]
          ]
        ]
      }
    },
    {
      "type": "Feature",
      "id": "way/667271445",
      "properties": {
        "timestamp": "2022-02-01T23:18:56Z",
        "version": 2,
        "changeset": 116889222,
        "addr:city": "São Julião",
        "addr:postcode": "64670-000",
        "addr:street": "Rua Dezoito de Dezembro",
        "addr:suburb": "São Lorge",
        "amenity": "school",
        "name": "Unidade Escolar Joviano Maximino De Alencar",
        "phone": "+55 89 3438 1120",
        "id": "way/667271445"
      },
      "geometry": {
        "type": "Polygon",
        "coordinates": [
          [
            [
              -40.8372465,
              -7.0789616
            ],
            [
              -40.8370158,
              -7.0790561
            ],
            [
              -40.83693,
              -7.0788338
            ],
            [
              -40.8371566,
              -7.078746
            ],
            [
              -40.8372465,
              -7.0789616
            ]
          ]
        ]
      }
    },
    {
      "type": "Feature",
      "id": "way/667271454",
      "properties": {
        "timestamp": "2021-08-19T23:48:41Z",
        "version": 2,
        "changeset": 109957487,
        "addr:city": "São Julião",
        "addr:postcode": "64670-000",
        "addr:street": "Avenida Marechal Castelo Branco",
        "addr:suburb": "Centro",
        "amenity": "school",
        "name": "Unidade Escolar Severiano José de Sousa Lima",
        "phone": "+55 89 3438 1120",
        "id": "way/667271454"
      },
      "geometry": {
        "type": "Polygon",
        "coordinates": [
          [
            [
              -40.8366121,
              -7.0828664
            ],
            [
              -40.8361951,
              -7.0828704
            ],
            [
              -40.8361924,
              -7.0826148
            ],
            [
              -40.8366054,
              -7.0826069
            ],
            [
              -40.8366121,
              -7.0828664
            ]
          ]
        ]
      }
    },
    {
      "type": "Feature",
      "id": "way/667271455",
      "properties": {
        "timestamp": "2019-01-30T18:23:39Z",
        "version": 1,
        "changeset": 66779402,
        "amenity": "school",
        "id": "way/667271455"
      },
      "geometry": {
        "type": "Polygon",
        "coordinates": [
          [
            [
              -40.8349156,
              -7.0829143
            ],
            [
              -40.8349049,
              -7.0826481
            ],
            [
              -40.8353408,
              -7.0826375
            ],
            [
              -40.8353394,
              -7.082893
            ],
            [
              -40.8349156,
              -7.0829143
            ]
          ]
        ]
      }
    },
    {
      "type": "Feature",
      "id": "node/9467267698",
      "properties": {
        "timestamp": "2022-02-01T23:11:59Z",
        "version": 1,
        "changeset": 116889088,
        "addr:city": "São Julião",
        "addr:housenumber": "49",
        "addr:postcode": "64670-000",
        "addr:street": "Rua Antônio Cícero Ramos",
        "addr:suburb": "Mandacaru",
        "amenity": "school",
        "name": "Pre Escola Maria Vitoria Da Conceicao",
        "id": "node/9467267698"
      },
      "geometry": {
        "type": "Point",
        "coordinates": [
          -40.8208354,
          -7.1206349
        ]
      }
    },
    {
      "type": "Feature",
      "id": "node/9467275937",
      "properties": {
        "timestamp": "2022-02-01T23:13:17Z",
        "version": 1,
        "changeset": 116889114,
        "addr:city": "São Julião",
        "addr:postcode": "64670-000",
        "addr:suburb": "São Vicente",
        "amenity": "school",
        "name": "Unidade Escolar Roldao De Alencar Bezerra",
        "phone": "+55 89 3438 1369",
        "id": "node/9467275937"
      },
      "geometry": {
        "type": "Point",
        "coordinates": [
          -40.8301775,
          -7.0875989
        ]
      }
    },
    {
      "type": "Feature",
      "id": "node/9467281544",
      "properties": {
        "timestamp": "2022-02-01T23:14:46Z",
        "version": 1,
        "changeset": 116889140,
        "addr:city": "São Julião",
        "addr:postcode": "64670-000",
        "addr:street": "Rua do Progresso",
        "addr:suburb": "Centro",
        "amenity": "school",
        "name": "Unidade Escolar Severiano Jose De Sousa Lima",
        "phone": "+55 89 3438 1120",
        "id": "node/9467281544"
      },
      "geometry": {
        "type": "Point",
        "coordinates": [
          -40.8368455,
          -7.0835079
        ]
      }
    },
    {
      "type": "Feature",
      "id": "node/9467294688",
      "properties": {
        "timestamp": "2022-02-01T23:13:53Z",
        "version": 1,
        "changeset": 116889125,
        "addr:city": "São Julião",
        "addr:postcode": "64670-000",
        "addr:street": "Rua Vereador Francisco Joaquim Sobrinho",
        "addr:suburb": "Centro",
        "amenity": "school",
        "name": "Creche Irma Maria Edamala",
        "id": "node/9467294688"
      },
      "geometry": {
        "type": "Point",
        "coordinates": [
          -40.8367704,
          -7.0839737
        ]
      }
    },
    {
      "type": "Feature",
      "id": "node/10067928098",
      "properties": {
        "timestamp": "2022-10-02T03:51:07Z",
        "version": 1,
        "changeset": 126878583,
        "amenity": "school",
        "id": "node/10067928098"
      },
      "geometry": {
        "type": "Point",
        "coordinates": [
          -40.8410358,
          -7.081116
        ]
      }
    }
  ]
}
