{
  "type": "FeatureCollection",
  "features": [
    {
      "type": "Feature",
      "id": "node/9433795444",
      "properties": {
        "timestamp": "2022-01-20T14:20:07Z",
        "version": 2,
        "changeset": 116387896,
        "addr:city": "Jaú",
        "addr:housenumber": "70",
        "addr:postcode": "17211-090",
        "addr:street": "Rua Gumercindo do Amaral Carvalho",
        "addr:suburb": "Chácara Peccioli",
        "alt_name": "CROSP;CROSP Jaú;Conselho Regional de Odontologia Seccional Jaú",
        "government": "administrative",
        "name": "Conselho Regional de Odontologia do Estado de São Paulo - Seccional Jaú",
        "office": "government",
        "opening_hours": "Mo-Fr 08:00-17:00",
        "phone": "55 14 36266611",
        "website": "https://crosp.org.br/",
        "id": "node/9433795444"
      },
      "geometry": {
        "type": "Point",
        "coordinates": [
          -48.5511333,
          -22.2959652
        ]
      }
    },
    {
      "type": "Feature",
      "id": "node/11110891982",
      "properties": {
        "timestamp": "2023-08-13T00:59:13Z",
        "version": 1,
        "changeset": 139806466,
        "addr:street": "Avenida Doutor Quinzinho",
        "government": "public_service",
        "name": "Casa da Mulher Jauense",
        "office": "government",
        "id": "node/11110891982"
      },
      "geometry": {
        "type": "Point",
        "coordinates": [
          -48.5459456,
          -22.2971609
        ]
      }
    }
  ]
}
