{
  "type": "FeatureCollection",
  "features": [
    {
      "type": "Feature",
      "id": "way/976974292",
      "properties": {
        "timestamp": "2021-08-27T13:25:12Z",
        "version": 1,
        "changeset": 110342940,
        "addr:city": "Santo Augusto",
        "addr:housenumber": "925",
        "addr:postcode": "98590000",
        "addr:street": "Rua da Floresta",
        "addr:suburb": "Centro",
        "amenity": "school",
        "name": "Centro Educacional Padre Anchieta - CEPAN",
        "website": "https://cepaneducacional.wixsite.com/site",
        "id": "way/976974292"
      },
      "geometry": {
        "type": "Polygon",
        "coordinates": [
          [
            [
              -53.7799372,
              -27.8513111
            ],
            [
              -53.7801276,
              -27.8517001
            ],
            [
              -53.7795628,
              -27.8518746
            ],
            [
              -53.779361,
              -27.8514544
            ],
            [
              -53.7799372,
              -27.8513111
            ]
          ]
        ]
      }
    },
    {
      "type": "Feature",
      "id": "way/976974293",
      "properties": {
        "timestamp": "2021-08-27T13:25:12Z",
        "version": 1,
        "changeset": 110342940,
        "addr:city": "Santo Augusto",
        "addr:housenumber": "855",
        "addr:postcode": "98590000",
        "addr:street": "Rua Uruguai",
        "addr:suburb": "Centro",
        "amenity": "school",
        "name": "Escola Estadual Ensino Fundamental Francisco Andrighetto",
        "id": "way/976974293"
      },
      "geometry": {
        "type": "Polygon",
        "coordinates": [
          [
            [
              -53.7801973,
              -27.8496795
            ],
            [
              -53.7804119,
              -27.8502463
            ],
            [
              -53.780023,
              -27.8502795
            ],
            [
              -53.7798165,
              -27.8497507
            ],
            [
              -53.7801973,
              -27.8496795
            ]
          ]
        ]
      }
    },
    {
      "type": "Feature",
      "id": "way/976974294",
      "properties": {
        "timestamp": "2021-08-27T13:25:12Z",
        "version": 1,
        "changeset": 110342940,
        "addr:city": "Santo Augusto",
        "addr:housenumber": "108",
        "addr:postcode": "98590000",
        "addr:street": "Rua Professor Romalino Torres",
        "addr:suburb": "Floresta",
        "amenity": "school",
        "name": "Escola Estadual de Ensino Médio Santo Augusto",
        "id": "way/976974294"
      },
      "geometry": {
        "type": "Polygon",
        "coordinates": [
          [
            [
              -53.7856315,
              -27.8534526
            ],
            [
              -53.7856851,
              -27.8540597
            ],
            [
              -53.7830909,
              -27.8543452
            ],
            [
              -53.7828913,
              -27.8536821
            ],
            [
              -53.7856315,
              -27.8534526
            ]
          ]
        ]
      }
    },
    {
      "type": "Feature",
      "id": "way/1326180021",
      "properties": {
        "timestamp": "2024-10-20T03:49:21Z",
        "version": 1,
        "changeset": 158112994,
        "amenity": "school",
        "building": "school",
        "name": "Escola Municipal de Ensino Fundamental Sol Nascente",
        "id": "way/1326180021"
      },
      "geometry": {
        "type": "Polygon",
        "coordinates": [
          [
            [
              -53.7730257,
              -27.8519198
            ],
            [
              -53.7728584,
              -27.8515916
            ],
            [
              -53.7732682,
              -27.851364
            ],
            [
              -53.7734935,
              -27.8517529
            ],
            [
              -53.7730257,
              -27.8519198
            ]
          ]
        ]
      }
    },
    {
      "type": "Feature",
      "id": "way/1326185533",
      "properties": {
        "timestamp": "2024-10-20T04:57:01Z",
        "version": 1,
        "changeset": 158113630,
        "addr:city": "Santo Augusto",
        "addr:postcode": "98590-000",
        "addr:suburb": "Getúlio Vargas",
        "amenity": "school",
        "building": "school",
        "name": "Escola Municipal de Educação Infantil Pequeno Paraíso",
        "id": "way/1326185533"
      },
      "geometry": {
        "type": "Polygon",
        "coordinates": [
          [
            [
              -53.7793087,
              -27.8600862
            ],
            [
              -53.779636,
              -27.8600331
            ],
            [
              -53.7797132,
              -27.8604495
            ],
            [
              -53.7793806,
              -27.8605055
            ],
            [
              -53.7793087,
              -27.8600862
            ]
          ]
        ]
      }
    }
  ]
}
