{
  "type": "FeatureCollection",
  "features": [
    {
      "type": "Feature",
      "id": "way/242711723",
      "properties": {
        "timestamp": "2023-06-24T12:23:55Z",
        "version": 5,
        "changeset": 137719676,
        "addr:city": "Cruzeiro do Sul",
        "addr:postcode": "45955-000",
        "addr:street": "Rua Doze de Outubro",
        "amenity": "school",
        "name": "Colégio Estadual José Carlos Leão de Araújo",
        "wheelchair": "limited",
        "id": "way/242711723"
      },
      "geometry": {
        "type": "Polygon",
        "coordinates": [
          [
            [
              -40.2437209,
              -16.9782959
            ],
            [
              -40.2434848,
              -16.9781626
            ],
            [
              -40.2436672,
              -16.9778983
            ],
            [
              -40.2439033,
              -16.9780369
            ],
            [
              -40.2437209,
              -16.9782959
            ]
          ]
        ]
      }
    },
    {
      "type": "Feature",
      "id": "way/1181896631",
      "properties": {
        "timestamp": "2023-06-13T23:46:18Z",
        "version": 1,
        "changeset": 137305733,
        "addr:city": "Vereda",
        "addr:housenumber": "41",
        "addr:postcode": "45955-000",
        "addr:street": "Rua Servilha Margarida Silveira",
        "addr:suburb": "Centro",
        "amenity": "school",
        "email": "odilio.alves.neto@gmail.com",
        "name": "Colégio Estadual Odilio Alves Neto",
        "operator": "Governo da Bahia",
        "operator:type": "public",
        "phone": "+55 73 3661 2111",
        "id": "way/1181896631"
      },
      "geometry": {
        "type": "Polygon",
        "coordinates": [
          [
            [
              -40.086716,
              -17.226043
            ],
            [
              -40.0864246,
              -17.2263134
            ],
            [
              -40.0861127,
              -17.2266028
            ],
            [
              -40.085642,
              -17.2261711
            ],
            [
              -40.086287,
              -17.2256113
            ],
            [
              -40.086716,
              -17.226043
            ]
          ]
        ]
      }
    },
    {
      "type": "Feature",
      "id": "way/1181896636",
      "properties": {
        "timestamp": "2023-06-13T23:46:18Z",
        "version": 1,
        "changeset": 137305733,
        "addr:city": "Vereda",
        "addr:postcode": "45955-000",
        "addr:street": "Rua São Sebastião",
        "addr:suburb": "Centro",
        "amenity": "school",
        "email": "joana.escola@vereda.ba.gov.br",
        "name": "Escola Municipal Joana D Arc",
        "operator": "Município de Vereda",
        "operator:type": "public",
        "phone": "+55 73 3661 2202",
        "id": "way/1181896636"
      },
      "geometry": {
        "type": "Polygon",
        "coordinates": [
          [
            [
              -40.088341,
              -17.2255362
            ],
            [
              -40.0879174,
              -17.2257951
            ],
            [
              -40.0878003,
              -17.2255759
            ],
            [
              -40.0877479,
              -17.225517
            ],
            [
              -40.0878843,
              -17.2253884
            ],
            [
              -40.0878617,
              -17.2253478
            ],
            [
              -40.0881284,
              -17.2251904
            ],
            [
              -40.088341,
              -17.2255362
            ]
          ]
        ]
      }
    },
    {
      "type": "Feature",
      "id": "node/2477922611",
      "properties": {
        "timestamp": "2023-08-26T00:50:53Z",
        "version": 4,
        "changeset": 140393389,
        "addr:city": "Vereda",
        "addr:district": "Cruzeiro do Sul",
        "addr:housename": "Escola",
        "addr:postcode": "45955-000",
        "addr:street": "Rua Doze de Outubro",
        "addr:suburb": "Centro",
        "amenity": "school",
        "name": "Escola Municipal Adelino Gonçalves dos Santos",
        "note": "Local sem número",
        "id": "node/2477922611"
      },
      "geometry": {
        "type": "Point",
        "coordinates": [
          -40.2380591,
          -16.9747336
        ]
      }
    },
    {
      "type": "Feature",
      "id": "node/2478478173",
      "properties": {
        "timestamp": "2024-01-30T14:44:58Z",
        "version": 4,
        "changeset": 146867067,
        "addr:street": "Rua Doze de Outubro",
        "amenity": "school",
        "name": "Escola Municipal Eujacio Simões",
        "id": "node/2478478173"
      },
      "geometry": {
        "type": "Point",
        "coordinates": [
          -40.2408817,
          -16.9766512
        ]
      }
    },
    {
      "type": "Feature",
      "id": "node/10975515856",
      "properties": {
        "timestamp": "2023-06-13T23:46:18Z",
        "version": 1,
        "changeset": 137305733,
        "entrance": "main",
        "id": "node/10975515856"
      },
      "geometry": {
        "type": "Point",
        "coordinates": [
          -40.0864246,
          -17.2263134
        ]
      }
    },
    {
      "type": "Feature",
      "id": "node/12093435884",
      "properties": {
        "timestamp": "2024-08-05T12:30:37Z",
        "version": 1,
        "changeset": 154848771,
        "addr:city": "Vereda",
        "addr:postcode": "45955-000",
        "addr:street": "Rua Principal",
        "addr:suburb": "Centenário",
        "amenity": "school",
        "name": "Escola Municipal Mallid Hom Chaban",
        "operator": "Município de Vereda",
        "operator:type": "public",
        "id": "node/12093435884"
      },
      "geometry": {
        "type": "Point",
        "coordinates": [
          -40.1554,
          -17.0715558
        ]
      }
    },
    {
      "type": "Feature",
      "id": "node/12093435886",
      "properties": {
        "timestamp": "2024-08-05T12:30:37Z",
        "version": 1,
        "changeset": 154848771,
        "addr:city": "Vereda",
        "addr:suburb": "Sulzinho",
        "amenity": "school",
        "name": "Escola Municipal Presidente Getulio Vargas",
        "operator": "Município de Vereda",
        "operator:type": "public",
        "id": "node/12093435886"
      },
      "geometry": {
        "type": "Point",
        "coordinates": [
          -40.1608405,
          -17.0838112
        ]
      }
    }
  ]
}
