{
  "type": "FeatureCollection",
  "features": [
    {
      "type": "Feature",
      "id": "way/470071538",
      "properties": {
        "timestamp": "2022-06-06T12:24:47Z",
        "version": 3,
        "changeset": 122023004,
        "addr:city": "Diamantina",
        "addr:postcode": "39100-000",
        "addr:street": "Rua Antônio de Pádua",
        "addr:suburb": "Centro",
        "building": "yes",
        "government": "social_security",
        "name": "Agência da Previdência Social em Diamantina - INSS",
        "office": "government",
        "operator": "Instituto Nacional do Seguro Social",
        "operator:short": "INSS",
        "operator:wikidata": "Q10302614",
        "id": "way/470071538"
      },
      "geometry": {
        "type": "Polygon",
        "coordinates": [
          [
            [
              -43.5946359,
              -18.2450908
            ],
            [
              -43.5946374,
              -18.2454659
            ],
            [
              -43.5944805,
              -18.2454664
            ],
            [
              -43.5944805,
              -18.2454524
            ],
            [
              -43.5944177,
              -18.2454526
            ],
            [
              -43.5944167,
              -18.2452156
            ],
            [
              -43.594484,
              -18.2452153
            ],
            [
              -43.5944835,
              -18.2450914
            ],
            [
              -43.5946359,
              -18.2450908
            ]
          ]
        ]
      }
    },
    {
      "type": "Feature",
      "id": "node/4823815468",
      "properties": {
        "timestamp": "2022-06-09T10:57:14Z",
        "version": 4,
        "changeset": 122159375,
        "addr:city": "Diamantina",
        "addr:housenumber": "99",
        "addr:postcode": "39100-000",
        "addr:street": "Rua do Carmo",
        "addr:suburb": "Centro",
        "government": "administrative",
        "name": "Agência da Receita Federal do Brasil",
        "office": "government",
        "id": "node/4823815468"
      },
      "geometry": {
        "type": "Point",
        "coordinates": [
          -43.5963803,
          -18.2455004
        ]
      }
    },
    {
      "type": "Feature",
      "id": "node/5580221718",
      "properties": {
        "timestamp": "2018-04-26T10:48:47Z",
        "version": 1,
        "changeset": 58439021,
        "government": "public_service",
        "name": "Superintendência Regional de Ensino",
        "office": "government",
        "id": "node/5580221718"
      },
      "geometry": {
        "type": "Point",
        "coordinates": [
          -43.6030983,
          -18.2455396
        ]
      }
    },
    {
      "type": "Feature",
      "id": "node/9796445498",
      "properties": {
        "timestamp": "2022-06-05T11:57:20Z",
        "version": 1,
        "changeset": 121973534,
        "addr:city": "Diamantina",
        "addr:housenumber": "335",
        "addr:postcode": "39100-000",
        "addr:street": "Avenida da Saudade",
        "addr:suburb": "Saudade",
        "alt_name": "Escritório Regional Alto Jequitinhonha",
        "email": "divieu.freire@meioambiente.mg.gov.br",
        "government": "administrative",
        "name": "Instituto Estadual de Florestas - Ief",
        "office": "government",
        "phone": "+55 38 3532 6698",
        "id": "node/9796445498"
      },
      "geometry": {
        "type": "Point",
        "coordinates": [
          -43.5940899,
          -18.2506822
        ]
      }
    },
    {
      "type": "Feature",
      "id": "node/9804546462",
      "properties": {
        "timestamp": "2022-06-09T10:57:14Z",
        "version": 2,
        "changeset": 122159375,
        "addr:city": "Diamantina",
        "addr:housenumber": "137",
        "addr:postcode": "39100-000",
        "addr:street": "Praça Correia Rabelo",
        "addr:suburb": "Centro",
        "email": "afdiamantina@fazenda.mg.gov.br",
        "government": "tax",
        "name": "Agência da Receita Estadual em Diamantina",
        "office": "government",
        "operator": "Secretaria de Estado da Fazenda",
        "phone": "+55 38 3531 1610",
        "id": "node/9804546462"
      },
      "geometry": {
        "type": "Point",
        "coordinates": [
          -43.5972235,
          -18.244962
        ]
      }
    },
    {
      "type": "Feature",
      "id": "node/10056640240",
      "properties": {
        "timestamp": "2023-11-17T04:16:20Z",
        "version": 2,
        "changeset": 144121363,
        "addr:city": "Diamantina",
        "addr:housenumber": "751",
        "addr:postcode": "39100-000",
        "addr:street": "Rua do Bicame",
        "government": "administrative",
        "name": "Departamento de Edificações e Estradas de Rodagem de Minas Gerais - DER/MG",
        "office": "government",
        "phone": "+55 38 3532 6550",
        "website": "https://www.der.mg.gov.br/",
        "id": "node/10056640240"
      },
      "geometry": {
        "type": "Point",
        "coordinates": [
          -43.6054778,
          -18.2395824
        ]
      }
    }
  ]
}
