{
  "type": "FeatureCollection",
  "features": [
    {
      "type": "Feature",
      "id": "node/3342937510",
      "properties": {
        "timestamp": "2022-06-14T21:51:59Z",
        "version": 2,
        "changeset": 122391064,
        "addr:city": "Diamantina",
        "addr:housenumber": "131",
        "addr:postcode": "39100-000",
        "addr:street": "Rua Direita",
        "addr:suburb": "Centro",
        "name": "Pousada Dona Dazinha",
        "phone": "+55 38 3531 1351",
        "source": "survey",
        "tourism": "guest_house",
        "id": "node/3342937510"
      },
      "geometry": {
        "type": "Point",
        "coordinates": [
          -43.5972988,
          -18.2454992
        ]
      }
    },
    {
      "type": "Feature",
      "id": "node/3347822693",
      "properties": {
        "timestamp": "2022-05-17T13:41:40Z",
        "version": 3,
        "changeset": 121101679,
        "email": "contato@pousadaviladobiribiri.com.br",
        "name": "Pousada Vila do Biribiri",
        "phone": "+55 38 35313844;+55 38 9982 2400;+55 38 99222835",
        "source": "survey",
        "tourism": "guest_house",
        "website": "https://pousadaviladobiribiri.com.br/",
        "id": "node/3347822693"
      },
      "geometry": {
        "type": "Point",
        "coordinates": [
          -43.6206895,
          -18.1445635
        ]
      }
    },
    {
      "type": "Feature",
      "id": "node/9818247125",
      "properties": {
        "timestamp": "2023-11-17T04:16:21Z",
        "version": 2,
        "changeset": 144121363,
        "addr:city": "Diamantina",
        "addr:housenumber": "129",
        "addr:postcode": "39100-000",
        "addr:street": "Rua Macau de Cima",
        "addr:suburb": "Centro",
        "email": "reservas@pousodachica.com.br",
        "name": "Pousada Pouso da Chica",
        "phone": "+55 38 3531 6190",
        "tourism": "guest_house",
        "website": "https://www.pousodachica.com.br/",
        "id": "node/9818247125"
      },
      "geometry": {
        "type": "Point",
        "coordinates": [
          -43.5992399,
          -18.2431722
        ]
      }
    },
    {
      "type": "Feature",
      "id": "node/9818247128",
      "properties": {
        "timestamp": "2022-06-14T21:51:59Z",
        "version": 1,
        "changeset": 122391064,
        "addr:city": "Diamantina",
        "addr:housenumber": "209",
        "addr:postcode": "39100-000",
        "addr:street": "Rua do Rosário",
        "addr:suburb": "Centro",
        "name": "Pousada da Gameleira",
        "tourism": "guest_house",
        "id": "node/9818247128"
      },
      "geometry": {
        "type": "Point",
        "coordinates": [
          -43.5950403,
          -18.2455651
        ]
      }
    },
    {
      "type": "Feature",
      "id": "node/9818247129",
      "properties": {
        "timestamp": "2022-06-14T21:51:59Z",
        "version": 1,
        "changeset": 122391064,
        "addr:city": "Diamantina",
        "addr:housenumber": "08",
        "addr:postcode": "39100-000",
        "addr:street": "Praça Dom Joaquim",
        "addr:suburb": "Centro",
        "guest_house": "guest_house",
        "name": "Casa Solar do Rosário",
        "phone": "+55 38 99925 1744",
        "tourism": "guest_house",
        "id": "node/9818247129"
      },
      "geometry": {
        "type": "Point",
        "coordinates": [
          -43.594154,
          -18.2461713
        ]
      }
    },
    {
      "type": "Feature",
      "id": "node/9818247131",
      "properties": {
        "timestamp": "2022-06-14T21:51:59Z",
        "version": 1,
        "changeset": 122391064,
        "addr:city": "Diamantina",
        "addr:housenumber": "1201",
        "addr:postcode": "39100-000",
        "addr:street": "Avenida Sílvio Felício dos Santos",
        "addr:suburb": "Bom Jesus",
        "name": "Pousada Villa Real",
        "tourism": "guest_house",
        "id": "node/9818247131"
      },
      "geometry": {
        "type": "Point",
        "coordinates": [
          -43.6108321,
          -18.2401864
        ]
      }
    },
    {
      "type": "Feature",
      "id": "node/9951303517",
      "properties": {
        "timestamp": "2022-09-03T13:40:52Z",
        "version": 2,
        "changeset": 125738703,
        "addr:housenumber": "415",
        "addr:street": "Rua Jogo da bola",
        "email": "reservas@pousadadaseresta.com.br",
        "internet_access": "wlan",
        "name": "Pousada da Seresta",
        "phone": "+55 38 9 9922 2368",
        "tourism": "guest_house",
        "website": "http://www.pousadadaseresta.com",
        "id": "node/9951303517"
      },
      "geometry": {
        "type": "Point",
        "coordinates": [
          -43.5981177,
          -18.2501958
        ]
      }
    },
    {
      "type": "Feature",
      "id": "node/10031770937",
      "properties": {
        "timestamp": "2022-09-17T14:54:50Z",
        "version": 1,
        "changeset": 126302362,
        "addr:city": "Diamantina",
        "addr:housenumber": "365",
        "addr:postcode": "39100-000",
        "addr:street": "Rua Oscar Batista",
        "addr:suburb": "Arraial dos Forros",
        "name": "Pousada Presidente",
        "operator": "Ana Maria Barroso Queiroga",
        "phone": "+55 38 3531 6369",
        "source": "survey",
        "tourism": "guest_house",
        "id": "node/10031770937"
      },
      "geometry": {
        "type": "Point",
        "coordinates": [
          -43.6014629,
          -18.2362308
        ]
      }
    },
    {
      "type": "Feature",
      "id": "node/12035786835",
      "properties": {
        "timestamp": "2024-07-05T12:01:06Z",
        "version": 1,
        "changeset": 153585756,
        "addr:city": "Diamantina",
        "addr:housenumber": "161",
        "addr:postcode": "39100-000",
        "addr:street": "R. Macau do Meio",
        "addr:suburb": "Centro",
        "name": "Casa Antunes",
        "tourism": "guest_house",
        "id": "node/12035786835"
      },
      "geometry": {
        "type": "Point",
        "coordinates": [
          -43.5987013,
          -18.2431969
        ]
      }
    }
  ]
}
