{
  "type": "FeatureCollection",
  "features": [
    {
      "type": "Feature",
      "id": "way/234787846",
      "properties": {
        "timestamp": "2022-06-14T21:51:59Z",
        "version": 4,
        "changeset": 122391064,
        "addr:city": "Diamantina",
        "addr:housenumber": "211",
        "addr:postcode": "39100-000",
        "addr:street": "Rua Macau do Meio",
        "addr:suburb": "Centro",
        "building": "yes",
        "building:levels": "2",
        "email": "contato@hoteltijuco.com.br",
        "internet_access": "wlan",
        "name": "Hotel Tijuco",
        "phone": "+55 38 3531 1022",
        "rooms": "25",
        "tourism": "hotel",
        "website": "https://hoteltijuco.com.br/",
        "id": "way/234787846"
      },
      "geometry": {
        "type": "Polygon",
        "coordinates": [
          [
            [
              -43.5992472,
              -18.2425538
            ],
            [
              -43.599284,
              -18.2425636
            ],
            [
              -43.5992547,
              -18.2426626
            ],
            [
              -43.5992413,
              -18.242659
            ],
            [
              -43.5991774,
              -18.2428752
            ],
            [
              -43.5991909,
              -18.2428788
            ],
            [
              -43.5991654,
              -18.2429647
            ],
            [
              -43.5991432,
              -18.2429588
            ],
            [
              -43.5991311,
              -18.2429996
            ],
            [
              -43.5989296,
              -18.2429459
            ],
            [
              -43.5990604,
              -18.2425039
            ],
            [
              -43.5992472,
              -18.2425538
            ]
          ]
        ]
      }
    },
    {
      "type": "Feature",
      "id": "way/477346056",
      "properties": {
        "timestamp": "2019-10-31T13:43:41Z",
        "version": 2,
        "changeset": 76452489,
        "building": "yes",
        "name": "Hotel Estilo de Minas",
        "tourism": "hotel",
        "id": "way/477346056"
      },
      "geometry": {
        "type": "Polygon",
        "coordinates": [
          [
            [
              -43.6233314,
              -18.2391983
            ],
            [
              -43.6235403,
              -18.239306
            ],
            [
              -43.6230569,
              -18.2400826
            ],
            [
              -43.6229017,
              -18.2399975
            ],
            [
              -43.6233314,
              -18.2391983
            ]
          ]
        ]
      }
    },
    {
      "type": "Feature",
      "id": "way/477346062",
      "properties": {
        "timestamp": "2022-06-14T21:51:59Z",
        "version": 3,
        "changeset": 122391064,
        "addr:city": "Diamantina",
        "addr:housenumber": "1050",
        "addr:postcode": "39100-000",
        "addr:street": "Avenida Sílvio Felício dos Santos",
        "addr:suburb": "Bom Jesus",
        "building": "yes",
        "name": "Diamante Palace Hotel",
        "phone": "+55 38 3531 1561",
        "tourism": "hotel",
        "id": "way/477346062"
      },
      "geometry": {
        "type": "Polygon",
        "coordinates": [
          [
            [
              -43.6120067,
              -18.2396446
            ],
            [
              -43.6119845,
              -18.2396436
            ],
            [
              -43.6119812,
              -18.2397178
            ],
            [
              -43.6116571,
              -18.2397045
            ],
            [
              -43.611669,
              -18.2394414
            ],
            [
              -43.6120153,
              -18.2394556
            ],
            [
              -43.6120067,
              -18.2396446
            ]
          ]
        ]
      }
    },
    {
      "type": "Feature",
      "id": "node/1243233052",
      "properties": {
        "timestamp": "2013-08-23T14:19:17Z",
        "version": 2,
        "changeset": 17470657,
        "name": "Hotel Jequitinhonha",
        "tourism": "hotel",
        "id": "node/1243233052"
      },
      "geometry": {
        "type": "Point",
        "coordinates": [
          -43.6178475,
          -18.2402979
        ]
      }
    },
    {
      "type": "Feature",
      "id": "node/3342875165",
      "properties": {
        "timestamp": "2022-06-14T21:51:59Z",
        "version": 5,
        "changeset": 122391064,
        "addr:city": "Diamantina",
        "addr:housenumber": "104",
        "addr:postcode": "39100-000",
        "addr:street": "Rua Macau de Baixo",
        "addr:suburb": "Centro",
        "email": "contato@pousadareliquiasdotempo.com.br",
        "internet_access": "wlan",
        "internet_access:fee": "no",
        "name": "Pousada Relíquias do Tempo",
        "phone": "+55 38 35311627;+55 38 35316371",
        "source": "survey",
        "tourism": "hotel",
        "website": "https://pousadareliquiasdotempo.com.br/",
        "id": "node/3342875165"
      },
      "geometry": {
        "type": "Point",
        "coordinates": [
          -43.5980999,
          -18.2435461
        ]
      }
    },
    {
      "type": "Feature",
      "id": "node/6016581304",
      "properties": {
        "timestamp": "2018-10-26T23:34:09Z",
        "version": 1,
        "changeset": 63916928,
        "tourism": "hotel",
        "id": "node/6016581304"
      },
      "geometry": {
        "type": "Point",
        "coordinates": [
          -43.6644789,
          -18.2527675
        ]
      }
    },
    {
      "type": "Feature",
      "id": "node/7117192582",
      "properties": {
        "timestamp": "2020-01-08T14:48:30Z",
        "version": 1,
        "changeset": 79344343,
        "name": "Pousada",
        "tourism": "hotel",
        "id": "node/7117192582"
      },
      "geometry": {
        "type": "Point",
        "coordinates": [
          -43.5844225,
          -18.2333636
        ]
      }
    },
    {
      "type": "Feature",
      "id": "node/9796445497",
      "properties": {
        "timestamp": "2022-06-14T21:51:59Z",
        "version": 2,
        "changeset": 122391064,
        "addr:city": "Diamantina",
        "addr:housenumber": "265",
        "addr:postcode": "39100-000",
        "addr:street": "Avenida da Saudade",
        "addr:suburb": "Saudade",
        "email": "reserva@pousadadogarimpo.com.br",
        "name": "Pousada do Garimpo",
        "phone": "+55 38 3531 2782",
        "tourism": "hotel",
        "website": "https://www.pousadadogarimpo.com.br/",
        "id": "node/9796445497"
      },
      "geometry": {
        "type": "Point",
        "coordinates": [
          -43.5950367,
          -18.2505472
        ]
      }
    },
    {
      "type": "Feature",
      "id": "node/9817104113",
      "properties": {
        "timestamp": "2023-11-14T17:18:02Z",
        "version": 2,
        "changeset": 144019372,
        "addr:city": "Diamantina",
        "addr:postcode": "39100-000",
        "addr:suburb": "Extração",
        "email": "comercial@estanciadosalitre.com.br",
        "name": "Hotel Fazenda Estância do Salitre",
        "phone": "+55 38 99933 5413",
        "tourism": "hotel",
        "website": "https://www.estanciadosalitre.com.br/",
        "id": "node/9817104113"
      },
      "geometry": {
        "type": "Point",
        "coordinates": [
          -43.5355245,
          -18.2685296
        ]
      }
    },
    {
      "type": "Feature",
      "id": "node/9818247124",
      "properties": {
        "timestamp": "2022-06-14T21:51:59Z",
        "version": 1,
        "changeset": 122391064,
        "addr:city": "Diamantina",
        "addr:housenumber": "35",
        "addr:postcode": "39100-000",
        "addr:street": "Rua Campos Carvalho",
        "addr:suburb": "Centro",
        "email": "pousada.capistrana@yahoo.com.br",
        "name": "Pousada Capistrana",
        "phone": "+55 38 3531 1090",
        "tourism": "hotel",
        "website": "https://www.pousadacapistrana.com.br/",
        "id": "node/9818247124"
      },
      "geometry": {
        "type": "Point",
        "coordinates": [
          -43.5965335,
          -18.2447537
        ]
      }
    },
    {
      "type": "Feature",
      "id": "node/9818247126",
      "properties": {
        "timestamp": "2022-06-14T21:51:59Z",
        "version": 1,
        "changeset": 122391064,
        "addr:city": "Diamantina",
        "addr:housenumber": "90",
        "addr:postcode": "39100-000",
        "addr:street": "Rua do Amparo",
        "addr:suburb": "Centro",
        "name": "Pousada Ouro de Minas",
        "phone": "+55 38 3531 2306",
        "tourism": "hotel",
        "id": "node/9818247126"
      },
      "geometry": {
        "type": "Point",
        "coordinates": [
          -43.596079,
          -18.2446462
        ]
      }
    },
    {
      "type": "Feature",
      "id": "node/9818247127",
      "properties": {
        "timestamp": "2022-06-14T21:51:59Z",
        "version": 1,
        "changeset": 122391064,
        "addr:city": "Diamantina",
        "addr:housenumber": "71",
        "addr:postcode": "39100-000",
        "addr:street": "Rua do Amparo",
        "addr:suburb": "Centro",
        "email": "viladoimperadorpousada@gmail.com",
        "name": "Pousada Vila do Imperador",
        "phone": "+55 38 99814 0071",
        "tourism": "hotel",
        "website": "https://pousadaviladoimperador.com.br/",
        "id": "node/9818247127"
      },
      "geometry": {
        "type": "Point",
        "coordinates": [
          -43.5957538,
          -18.2445323
        ]
      }
    },
    {
      "type": "Feature",
      "id": "node/9818247130",
      "properties": {
        "timestamp": "2022-06-14T21:51:59Z",
        "version": 1,
        "changeset": 122391064,
        "addr:city": "Diamantina",
        "addr:housenumber": "149",
        "addr:postcode": "39100-000",
        "addr:street": "Beco da Paciência",
        "addr:suburb": "Centro",
        "email": "contato@hoteljardimdovale.com.br",
        "name": "Hotel Jardim do Vale",
        "phone": "+55 38 3531 1095",
        "tourism": "hotel",
        "website": "https://hoteljardimdovale.com.br/",
        "id": "node/9818247130"
      },
      "geometry": {
        "type": "Point",
        "coordinates": [
          -43.5964187,
          -18.2428799
        ]
      }
    }
  ]
}
