{
  "type": "FeatureCollection",
  "features": [
    {
      "type": "Feature",
      "id": "way/937447921",
      "properties": {
        "timestamp": "2021-04-30T22:29:46Z",
        "version": 1,
        "changeset": 103937620,
        "addr:city": "Fortuna",
        "addr:postcode": "65695-000",
        "addr:street": "Rua Santo Antônio",
        "addr:suburb": "Piauí",
        "amenity": "school",
        "name": "UI Mariano Martins",
        "id": "way/937447921"
      },
      "geometry": {
        "type": "Polygon",
        "coordinates": [
          [
            [
              -44.1548708,
              -5.7383555
            ],
            [
              -44.1550619,
              -5.7387258
            ],
            [
              -44.1547862,
              -5.7388667
            ],
            [
              -44.1545951,
              -5.7384963
            ],
            [
              -44.1548708,
              -5.7383555
            ]
          ]
        ]
      }
    },
    {
      "type": "Feature",
      "id": "way/937448590",
      "properties": {
        "timestamp": "2021-04-30T22:36:11Z",
        "version": 1,
        "changeset": 103937731,
        "addr:city": "Fortuna",
        "addr:postcode": "65695-000",
        "amenity": "school",
        "name": "UI Elmir Pinto",
        "phone": "+55 99 3574 9027",
        "id": "way/937448590"
      },
      "geometry": {
        "type": "Polygon",
        "coordinates": [
          [
            [
              -44.0710288,
              -5.6946228
            ],
            [
              -44.0708342,
              -5.6948715
            ],
            [
              -44.0705754,
              -5.6946709
            ],
            [
              -44.0707841,
              -5.6944041
            ],
            [
              -44.070969,
              -5.6945474
            ],
            [
              -44.0709548,
              -5.6945655
            ],
            [
              -44.0710288,
              -5.6946228
            ]
          ]
        ]
      }
    },
    {
      "type": "Feature",
      "id": "way/937449409",
      "properties": {
        "timestamp": "2021-04-30T22:40:36Z",
        "version": 1,
        "changeset": 103937802,
        "addr:city": "Fortuna",
        "addr:postcode": "65695-000",
        "amenity": "school",
        "name": "UI Pires de Saboia",
        "id": "way/937449409"
      },
      "geometry": {
        "type": "Polygon",
        "coordinates": [
          [
            [
              -43.9687835,
              -5.661123
            ],
            [
              -43.9687006,
              -5.6613715
            ],
            [
              -43.9685024,
              -5.661306
            ],
            [
              -43.9685852,
              -5.6610575
            ],
            [
              -43.9687835,
              -5.661123
            ]
          ]
        ]
      }
    },
    {
      "type": "Feature",
      "id": "way/937449822",
      "properties": {
        "timestamp": "2021-04-30T22:42:40Z",
        "version": 1,
        "changeset": 103937836,
        "addr:city": "Fortuna",
        "addr:postcode": "65695-000",
        "addr:street": "Rua São Francisco",
        "addr:suburb": "Centro",
        "amenity": "school",
        "name": "UE Leda Tajra",
        "id": "way/937449822"
      },
      "geometry": {
        "type": "Polygon",
        "coordinates": [
          [
            [
              -44.1550952,
              -5.7295712
            ],
            [
              -44.1552187,
              -5.7298371
            ],
            [
              -44.1548887,
              -5.7299955
            ],
            [
              -44.1547668,
              -5.72971
            ],
            [
              -44.1550952,
              -5.7295712
            ]
          ]
        ]
      }
    },
    {
      "type": "Feature",
      "id": "way/937449931",
      "properties": {
        "timestamp": "2021-04-30T22:43:50Z",
        "version": 1,
        "changeset": 103937861,
        "addr:city": "Fortuna",
        "amenity": "school",
        "name": "UE Tancredo Neves",
        "id": "way/937449931"
      },
      "geometry": {
        "type": "Polygon",
        "coordinates": [
          [
            [
              -43.9296594,
              -5.589899
            ],
            [
              -43.9296129,
              -5.5900653
            ],
            [
              -43.929431,
              -5.590015
            ],
            [
              -43.9294775,
              -5.5898487
            ],
            [
              -43.9296594,
              -5.589899
            ]
          ]
        ]
      }
    },
    {
      "type": "Feature",
      "id": "node/8685810963",
      "properties": {
        "timestamp": "2021-04-30T22:37:21Z",
        "version": 1,
        "changeset": 103937742,
        "addr:city": "Fortuna",
        "addr:postcode": "65695-000",
        "addr:street": "Rua Santa Isabel",
        "addr:suburb": "Piauí",
        "amenity": "school",
        "name": "JI Pequeno Príncipe",
        "id": "node/8685810963"
      },
      "geometry": {
        "type": "Point",
        "coordinates": [
          -44.1511439,
          -5.7316886
        ]
      }
    },
    {
      "type": "Feature",
      "id": "node/8685868814",
      "properties": {
        "timestamp": "2021-04-30T22:27:10Z",
        "version": 1,
        "changeset": 103937562,
        "addr:city": "Fortuna",
        "addr:postcode": "65695-000",
        "amenity": "school",
        "name": "UI Firmino Major",
        "id": "node/8685868814"
      },
      "geometry": {
        "type": "Point",
        "coordinates": [
          -44.0618594,
          -5.6832441
        ]
      }
    },
    {
      "type": "Feature",
      "id": "node/8685870179",
      "properties": {
        "timestamp": "2021-04-30T22:22:38Z",
        "version": 1,
        "changeset": 103937471,
        "addr:city": "Fortuna",
        "addr:postcode": "65695-000",
        "addr:street": "Rua Vinte e Um de Abril",
        "addr:suburb": "Piauí",
        "amenity": "school",
        "name": "UE Vidal Pereira",
        "id": "node/8685870179"
      },
      "geometry": {
        "type": "Point",
        "coordinates": [
          -44.1471232,
          -5.7297793
        ]
      }
    },
    {
      "type": "Feature",
      "id": "node/8685875800",
      "properties": {
        "timestamp": "2021-04-30T22:24:04Z",
        "version": 1,
        "changeset": 103937498,
        "addr:city": "Fortuna",
        "addr:postcode": "65695-000",
        "addr:street": "Rua de Colinas",
        "addr:suburb": "Piauí",
        "amenity": "school",
        "name": "UI Elizeu Soares",
        "id": "node/8685875800"
      },
      "geometry": {
        "type": "Point",
        "coordinates": [
          -44.1518891,
          -5.740351
        ]
      }
    },
    {
      "type": "Feature",
      "id": "node/8685886864",
      "properties": {
        "timestamp": "2021-04-30T22:16:38Z",
        "version": 1,
        "changeset": 103937371,
        "addr:city": "Fortuna",
        "addr:postcode": "65695-000",
        "addr:street": "Rua Dom Pedro II",
        "addr:suburb": "Centro",
        "amenity": "school",
        "name": "UE Deputado Edson Lobão",
        "id": "node/8685886864"
      },
      "geometry": {
        "type": "Point",
        "coordinates": [
          -44.1569806,
          -5.7338911
        ]
      }
    },
    {
      "type": "Feature",
      "id": "node/8685887050",
      "properties": {
        "timestamp": "2021-04-30T22:14:57Z",
        "version": 1,
        "changeset": 103937334,
        "addr:city": "Fortuna",
        "addr:postcode": "65695-000",
        "addr:street": "Avenida Governador Newton Bello",
        "addr:suburb": "Centro",
        "amenity": "school",
        "name": "Escola Comunitária de Fortuna",
        "id": "node/8685887050"
      },
      "geometry": {
        "type": "Point",
        "coordinates": [
          -44.1567638,
          -5.733776
        ]
      }
    },
    {
      "type": "Feature",
      "id": "node/8685890070",
      "properties": {
        "timestamp": "2021-04-30T22:39:09Z",
        "version": 1,
        "changeset": 103937775,
        "addr:city": "Fortuna",
        "addr:postcode": "65695-000",
        "amenity": "school",
        "name": "Centro De Ensino Estado Do Rio De Janeiro",
        "id": "node/8685890070"
      },
      "geometry": {
        "type": "Point",
        "coordinates": [
          -44.0737199,
          -5.6986386
        ]
      }
    },
    {
      "type": "Feature",
      "id": "node/8685890901",
      "properties": {
        "timestamp": "2021-04-30T22:30:56Z",
        "version": 1,
        "changeset": 103937636,
        "addr:city": "Fortuna",
        "addr:postcode": "65695-000",
        "addr:street": "Rua João Lisboa",
        "addr:suburb": "Maranhão",
        "amenity": "school",
        "name": "JI Sete Anões",
        "id": "node/8685890901"
      },
      "geometry": {
        "type": "Point",
        "coordinates": [
          -44.1579098,
          -5.7352293
        ]
      }
    },
    {
      "type": "Feature",
      "id": "node/8685892824",
      "properties": {
        "timestamp": "2021-04-30T22:24:57Z",
        "version": 1,
        "changeset": 103937512,
        "addr:city": "Fortuna",
        "addr:postcode": "65695-000",
        "addr:street": "Rua 7 de Setembro",
        "addr:suburb": "Centro",
        "amenity": "school",
        "name": "UE Doutor Getúlio Vargas",
        "id": "node/8685892824"
      },
      "geometry": {
        "type": "Point",
        "coordinates": [
          -44.1604953,
          -5.7369857
        ]
      }
    },
    {
      "type": "Feature",
      "id": "node/8685892828",
      "properties": {
        "timestamp": "2021-04-30T22:28:10Z",
        "version": 1,
        "changeset": 103937583,
        "addr:city": "Fortuna",
        "addr:postcode": "65695-000",
        "amenity": "school",
        "name": "UE Ivar Saldanha",
        "id": "node/8685892828"
      },
      "geometry": {
        "type": "Point",
        "coordinates": [
          -44.0699257,
          -5.8101721
        ]
      }
    },
    {
      "type": "Feature",
      "id": "node/8685894854",
      "properties": {
        "timestamp": "2021-04-30T22:15:37Z",
        "version": 1,
        "changeset": 103937350,
        "amenity": "school",
        "name": "UE Manoel Duarte",
        "id": "node/8685894854"
      },
      "geometry": {
        "type": "Point",
        "coordinates": [
          -44.0478663,
          -5.6736658
        ]
      }
    },
    {
      "type": "Feature",
      "id": "node/8685896104",
      "properties": {
        "timestamp": "2021-04-30T22:32:07Z",
        "version": 1,
        "changeset": 103937653,
        "addr:city": "Fortuna",
        "addr:postcode": "65695-000",
        "amenity": "school",
        "name": "UE Professora Socorro Lopes",
        "id": "node/8685896104"
      },
      "geometry": {
        "type": "Point",
        "coordinates": [
          -44.1481922,
          -5.7229049
        ]
      }
    },
    {
      "type": "Feature",
      "id": "node/8685899959",
      "properties": {
        "timestamp": "2021-04-30T22:26:16Z",
        "version": 1,
        "changeset": 103937543,
        "addr:city": "Fortuna",
        "addr:postcode": "65695-000",
        "amenity": "school",
        "name": "UE Professora Carlinda Pires",
        "id": "node/8685899959"
      },
      "geometry": {
        "type": "Point",
        "coordinates": [
          -43.8590223,
          -5.5750675
        ]
      }
    },
    {
      "type": "Feature",
      "id": "node/8685932118",
      "properties": {
        "timestamp": "2021-04-30T22:41:32Z",
        "version": 1,
        "changeset": 103937817,
        "addr:city": "Fortuna",
        "addr:postcode": "65695-000",
        "amenity": "school",
        "name": "UI Ditador Castelo Branco",
        "id": "node/8685932118"
      },
      "geometry": {
        "type": "Point",
        "coordinates": [
          -44.0738344,
          -5.698547
        ]
      }
    },
    {
      "type": "Feature",
      "id": "node/9032675585",
      "properties": {
        "timestamp": "2021-08-24T16:04:06Z",
        "version": 1,
        "changeset": 110182762,
        "amenity": "school",
        "name": "Ue Francisco Aprigio",
        "id": "node/9032675585"
      },
      "geometry": {
        "type": "Point",
        "coordinates": [
          -44.0709304,
          -5.6939601
        ]
      }
    },
    {
      "type": "Feature",
      "id": "node/9118028393",
      "properties": {
        "timestamp": "2021-09-23T18:00:48Z",
        "version": 1,
        "changeset": 111611148,
        "amenity": "school",
        "name": "UI Ditador Medici",
        "id": "node/9118028393"
      },
      "geometry": {
        "type": "Point",
        "coordinates": [
          -44.1516963,
          -5.7351926
        ]
      }
    }
  ]
}
