{
  "type": "FeatureCollection",
  "features": [
    {
      "type": "Feature",
      "id": "way/814792694",
      "properties": {
        "timestamp": "2020-06-13T02:55:46Z",
        "version": 2,
        "changeset": 86589167,
        "addr:city": "Mauá",
        "addr:housenumber": "1431",
        "addr:postcode": "09330-765",
        "addr:street": "Avenida Dona Benedita Franco da Veiga",
        "addr:suburb": "Vila Feital",
        "amenity": "community_centre",
        "building": "yes",
        "building:levels": "1",
        "name": "Associação de Moradores do Jardim Feital",
        "id": "way/814792694"
      },
      "geometry": {
        "type": "Polygon",
        "coordinates": [
          [
            [
              -46.4232328,
              -23.6547791
            ],
            [
              -46.4232797,
              -23.6548295
            ],
            [
              -46.4232341,
              -23.6548528
            ],
            [
              -46.4232784,
              -23.654913
            ],
            [
              -46.4231523,
              -23.6549818
            ],
            [
              -46.4230718,
              -23.6548798
            ],
            [
              -46.4232328,
              -23.6547791
            ]
          ]
        ]
      }
    }
  ]
}
