{
  "type": "FeatureCollection",
  "features": [
    {
      "type": "Feature",
      "id": "way/430045197",
      "properties": {
        "timestamp": "2024-08-06T23:43:05Z",
        "version": 4,
        "changeset": 154913187,
        "addr:city": "Mau√°",
        "addr:housenumber": "69",
        "addr:street": "Rua Sorocaba",
        "addr:suburb": "Bairro Matriz",
        "amenity": "doctors",
        "building": "yes",
        "healthcare": "doctor",
        "healthcare:speciality": "general;cardiology;dermatologia;endocrinologia;paediatrics;urology;proctology;mastologia;gynaecology;gastroenterology;pneumologia_infantil;vascular_surgery",
        "name": "Biomed",
        "opening_hours": "Mo-Fr 08:00-18:00; PH off",
        "website": "https://www.clinicabiomed.com.br/maua",
        "id": "way/430045197"
      },
      "geometry": {
        "type": "Polygon",
        "coordinates": [
          [
            [
              -46.4620943,
              -23.6702183
            ],
            [
              -46.4621568,
              -23.6702917
            ],
            [
              -46.4621565,
              -23.6703409
            ],
            [
              -46.4619845,
              -23.6704442
            ],
            [
              -46.4619121,
              -23.6703383
            ],
            [
              -46.4620943,
              -23.6702183
            ]
          ]
        ]
      }
    }
  ]
}
