{
  "type": "FeatureCollection",
  "features": [
    {
      "type": "Feature",
      "id": "way/1199301505",
      "properties": {
        "timestamp": "2023-08-17T22:06:11Z",
        "version": 1,
        "changeset": 140032777,
        "addr:city": "Eun치polis",
        "addr:postcode": "45823-900",
        "addr:street": "Avenida David Jonas Fadini",
        "addr:suburb": "Rosa Neto",
        "amenity": "college",
        "name": "Ifba Campus Eun치polis",
        "operator": "Instituto Federal da Bahia",
        "operator:type": "public",
        "phone": "+55 73 3281 2266",
        "website": "https://prosel.ifba.edu.br/cursos/campus/7/",
        "id": "way/1199301505"
      },
      "geometry": {
        "type": "Polygon",
        "coordinates": [
          [
            [
              -39.5797509,
              -16.3486027
            ],
            [
              -39.5795874,
              -16.3501252
            ],
            [
              -39.5761438,
              -16.3500437
            ],
            [
              -39.5768297,
              -16.3485566
            ],
            [
              -39.5797509,
              -16.3486027
            ]
          ]
        ]
      }
    },
    {
      "type": "Feature",
      "id": "node/11958964849",
      "properties": {
        "timestamp": "2024-06-05T18:28:39Z",
        "version": 1,
        "changeset": 152300579,
        "addr:city": "Eun치polis",
        "addr:housenumber": "S/N",
        "addr:postcode": "45823-431",
        "addr:street": "Av. David Jonas Fadini",
        "addr:suburb": "Rosa Neto",
        "amenity": "college",
        "name": "IFBa campus Eun치polis",
        "operator": "Edcassio Avelino",
        "operator:type": "public",
        "website": "https://portal.ifba.edu.br/eunapolis",
        "wheelchair": "yes",
        "id": "node/11958964849"
      },
      "geometry": {
        "type": "Point",
        "coordinates": [
          -39.5781639,
          -16.3494312
        ]
      }
    }
  ]
}
