{
  "type": "FeatureCollection",
  "features": [
    {
      "type": "Feature",
      "id": "node/10799557201",
      "properties": {
        "timestamp": "2024-03-14T21:57:34Z",
        "version": 3,
        "changeset": 148663377,
        "addr:city": "Rolante",
        "addr:postcode": "95690-000",
        "addr:street": "Rua Henrique Grassmann 97",
        "amenity": "dentist",
        "check_date": "2024-03-14",
        "check_date:currency:XBT": "2023-03-14",
        "currency:XBT": "yes",
        "description": "Implantodontista / Fone-whats:5135472915 / Insta: @odontowust",
        "email": "pablowust@hotmail.com",
        "healthcare": "dentist",
        "healthcare:speciality": "implantodontista",
        "name": "Dr. Pablo Wust",
        "payment:coinos": "yes",
        "payment:lightning": "yes",
        "payment:onchain": "yes",
        "phone": "5135472915",
        "id": "node/10799557201"
      },
      "geometry": {
        "type": "Point",
        "coordinates": [
          -50.5785277,
          -29.6488431
        ]
      }
    },
    {
      "type": "Feature",
      "id": "node/10822565448",
      "properties": {
        "timestamp": "2024-03-08T11:14:38Z",
        "version": 3,
        "changeset": 148379165,
        "addr:city": "Rolante",
        "addr:housenumber": "1940",
        "addr:postcode": "95690-000",
        "addr:street": "Avenida Borges de Medeiros 1935",
        "amenity": "dentist",
        "check_date:currency:XBT": "2024-03-06",
        "currency:XBT": "yes",
        "description": "Cuidados Indispensáveis e Incomparáveis / Oferecemos todos os serviços odontológicos! / Fone-whats: 51998396538 / Insta: @clinicasilveira",
        "healthcare": "dentist",
        "name": "Clinica Silveira",
        "payment:coinos": "yes",
        "payment:lightning": "yes",
        "payment:onchain": "yes",
        "phone": "51998396538",
        "id": "node/10822565448"
      },
      "geometry": {
        "type": "Point",
        "coordinates": [
          -50.5770525,
          -29.6527748
        ]
      }
    },
    {
      "type": "Feature",
      "id": "node/11731347614",
      "properties": {
        "timestamp": "2024-03-14T17:46:10Z",
        "version": 2,
        "changeset": 148654537,
        "addr:city": "Rolante",
        "addr:postcode": "95690-000",
        "addr:street": "Rua Vinte e Oito de Fevereiro, 291",
        "amenity": "dentist",
        "check_date:currency:XBT": "2024-03-14",
        "currency:XBT": "yes",
        "description": "Uma ampla gama de serviços, incluindo limpeza, exames de rotina, implantes dentários, ortodontia e estética dental. Atendimento personalizado e de alta qualidade para garantir sorrisos saudáveis e bonitos. / whats: 51999273228 / insta: @aurelioalvesodonto",
        "healthcare": "dentist",
        "name": "Aurélio Alves Odontologia",
        "payment:coinos": "yes",
        "payment:lightning": "yes",
        "payment:onchain": "yes",
        "phone": "51999273228",
        "id": "node/11731347614"
      },
      "geometry": {
        "type": "Point",
        "coordinates": [
          -50.5787652,
          -29.6518541
        ]
      }
    }
  ]
}
