{
  "type": "FeatureCollection",
  "features": [
    {
      "type": "Feature",
      "id": "node/11053579143",
      "properties": {
        "timestamp": "2024-12-14T02:12:30Z",
        "version": 5,
        "changeset": 160266894,
        "addr:city": "Rolante",
        "addr:door": "Sala 1",
        "addr:housenumber": "899",
        "addr:postcode": "95690-000",
        "addr:street": "Rua Conceição",
        "check_date:currency:XBT": "2024-04-26",
        "currency:XBT": "yes",
        "description": "Serviços de Tabelionato de Notas, Protestos, Registro Civil das Pessoas Naturais e Jurídicas, Títulos e Documentos e CRVA. Oferece ainda serviços em plataforma digital, através do E-Notariado./ whats: 51984101540 / insta: @cartorio.rolante",
        "government": "register_office",
        "name": "Tabelionato, Registro Civil e Especiais de Rolante",
        "office": "government",
        "payment:coinos": "yes",
        "payment:lightning": "yes",
        "payment:onchain": "yes",
        "phone": "51984101540",
        "website": "https://www.cartoriorolante.com.br/",
        "id": "node/11053579143"
      },
      "geometry": {
        "type": "Point",
        "coordinates": [
          -50.5799885,
          -29.6503893
        ]
      }
    }
  ]
}
