{
  "type": "FeatureCollection",
  "features": [
    {
      "type": "Feature",
      "id": "node/11244510624",
      "properties": {
        "timestamp": "2024-10-12T12:16:51Z",
        "version": 2,
        "changeset": 157793002,
        "addr:city": "Rolante",
        "addr:postcode": "95690-000",
        "addr:street": "Rua Noé de Freitas 461",
        "addr:suburb": "Rolante",
        "amenity": "veterinary",
        "check_date:currency:XBT": "2024-09-12",
        "currency:XBT": "yes",
        "description": "Clínica WalKrupp, especializada em pequenos animais oferece serviços de consultas, vacinação, exames, cirurgias, castrações, entre outros procedimentos. | whats: 51999954570 / insta: @WalKrupp",
        "name": "Clínica WalKrupp",
        "payment:coinos": "yes",
        "payment:lightning": "yes",
        "phone": "51999954570",
        "id": "node/11244510624"
      },
      "geometry": {
        "type": "Point",
        "coordinates": [
          -50.5792641,
          -29.6545076
        ]
      }
    }
  ]
}
