{
  "type": "FeatureCollection",
  "features": [
    {
      "type": "Feature",
      "id": "node/4154562592",
      "properties": {
        "timestamp": "2016-04-29T00:46:49Z",
        "version": 1,
        "changeset": 38970398,
        "name": "Hotel Itaici",
        "tourism": "hotel",
        "id": "node/4154562592"
      },
      "geometry": {
        "type": "Point",
        "coordinates": [
          -45.3477842,
          -21.9768798
        ]
      }
    },
    {
      "type": "Feature",
      "id": "node/4154562792",
      "properties": {
        "timestamp": "2018-01-06T03:16:24Z",
        "version": 2,
        "changeset": 55202555,
        "name": "Condomínio Imperial",
        "tourism": "hotel",
        "id": "node/4154562792"
      },
      "geometry": {
        "type": "Point",
        "coordinates": [
          -45.3485099,
          -21.9730535
        ]
      }
    },
    {
      "type": "Feature",
      "id": "node/4154563092",
      "properties": {
        "timestamp": "2016-04-29T00:46:39Z",
        "version": 1,
        "changeset": 38970398,
        "name": "Parque Hotel",
        "tourism": "hotel",
        "id": "node/4154563092"
      },
      "geometry": {
        "type": "Point",
        "coordinates": [
          -45.3501148,
          -21.9730524
        ]
      }
    },
    {
      "type": "Feature",
      "id": "node/6814780885",
      "properties": {
        "timestamp": "2019-09-21T23:13:47Z",
        "version": 3,
        "changeset": 74760923,
        "addr:housenumber": "19",
        "addr:postcode": "37480-000",
        "addr:street": "Rua Basílio de Magalhães",
        "internet_access": "wlan",
        "name": "Lago Hotel Lambari",
        "phone": "+55 35 3271-6200",
        "tourism": "hotel",
        "id": "node/6814780885"
      },
      "geometry": {
        "type": "Point",
        "coordinates": [
          -45.3432871,
          -21.9879224
        ]
      }
    },
    {
      "type": "Feature",
      "id": "node/11037816044",
      "properties": {
        "timestamp": "2023-07-14T05:18:05Z",
        "version": 2,
        "changeset": 138488962,
        "addr:city": "Lambari",
        "addr:housenumber": "53",
        "addr:postcode": "37480000",
        "addr:street": "Rua Virgilio de Melo Franco",
        "addr:suburb": "Centro",
        "air_conditioning": "yes",
        "description": "Banheiro Privativo;  TV a Cabo;  Frigobar;  Ventilador de Teto;  Ar Condicionado;  Wi-Fi gratuito;  Estacionamento;  Espaço para Home Office;  Pet Friendly;  Espaço temático onde é servido o café da manhã, ideal para lindas fotos.",
        "internet_access:fee": "yes",
        "name": "Pousada das Águas",
        "opening_hours": "24/7",
        "phone": "(35)98808-4810",
        "reservation": "yes",
        "tourism": "hotel",
        "website": "https://www.pousadadasaguas.com/",
        "id": "node/11037816044"
      },
      "geometry": {
        "type": "Point",
        "coordinates": [
          -45.3515494,
          -21.9721594
        ]
      }
    }
  ]
}
