{
  "type": "FeatureCollection",
  "features": [
    {
      "type": "Feature",
      "id": "way/1027130469",
      "properties": {
        "timestamp": "2022-02-02T20:24:23Z",
        "version": 1,
        "changeset": 116934631,
        "amenity": "school",
        "name": "Esc Mul Jose Avelino De Oliveira",
        "phone": "+55 89 3550 9059",
        "id": "way/1027130469"
      },
      "geometry": {
        "type": "Polygon",
        "coordinates": [
          [
            [
              -43.6441866,
              -7.2463157
            ],
            [
              -43.644101,
              -7.2466116
            ],
            [
              -43.643854,
              -7.2465413
            ],
            [
              -43.6439396,
              -7.2462454
            ],
            [
              -43.6441866,
              -7.2463157
            ]
          ]
        ]
      }
    },
    {
      "type": "Feature",
      "id": "way/1027376424",
      "properties": {
        "timestamp": "2022-02-03T13:02:16Z",
        "version": 1,
        "changeset": 116963462,
        "addr:city": "Jerumenha",
        "addr:housenumber": "286",
        "addr:postcode": "64830-000",
        "addr:street": "Rua Coronel Ademar Rocha",
        "addr:suburb": "Alto",
        "amenity": "school",
        "name": "Creche Casulo Tia Guilhermina",
        "id": "way/1027376424"
      },
      "geometry": {
        "type": "Polygon",
        "coordinates": [
          [
            [
              -43.5111216,
              -7.0926344
            ],
            [
              -43.5115116,
              -7.0925293
            ],
            [
              -43.5115745,
              -7.0927589
            ],
            [
              -43.5111844,
              -7.0928641
            ],
            [
              -43.5111216,
              -7.0926344
            ]
          ]
        ]
      }
    },
    {
      "type": "Feature",
      "id": "way/1027376820",
      "properties": {
        "timestamp": "2022-02-03T13:04:26Z",
        "version": 1,
        "changeset": 116963562,
        "addr:city": "Jerumenha",
        "addr:postcode": "64830-000",
        "addr:street": "Rua Ministro Reis Veloso",
        "addr:suburb": "Centro",
        "amenity": "school",
        "name": "U E Sebastiao Rocha Leal",
        "id": "way/1027376820"
      },
      "geometry": {
        "type": "Polygon",
        "coordinates": [
          [
            [
              -43.5099581,
              -7.0901435
            ],
            [
              -43.5100943,
              -7.0909474
            ],
            [
              -43.5096722,
              -7.0908399
            ],
            [
              -43.5095504,
              -7.0902961
            ],
            [
              -43.5099581,
              -7.0901435
            ]
          ]
        ]
      }
    },
    {
      "type": "Feature",
      "id": "way/1027377562",
      "properties": {
        "timestamp": "2022-02-03T13:05:55Z",
        "version": 1,
        "changeset": 116963622,
        "addr:city": "Jerumenha",
        "addr:housenumber": "131",
        "addr:postcode": "64830-000",
        "addr:street": "Rua Desembargador Freitas",
        "addr:suburb": "Centro",
        "amenity": "school",
        "name": "Escola Infantil Firmino Evelin",
        "id": "way/1027377562"
      },
      "geometry": {
        "type": "Polygon",
        "coordinates": [
          [
            [
              -43.5104798,
              -7.0894074
            ],
            [
              -43.5106333,
              -7.0893069
            ],
            [
              -43.5108478,
              -7.0896115
            ],
            [
              -43.5106646,
              -7.0897106
            ],
            [
              -43.5104798,
              -7.0894074
            ]
          ]
        ]
      }
    },
    {
      "type": "Feature",
      "id": "way/1027387551",
      "properties": {
        "timestamp": "2022-02-03T13:35:36Z",
        "version": 1,
        "changeset": 116964896,
        "addr:city": "Jerumenha",
        "addr:housenumber": "359",
        "addr:postcode": "64830-000",
        "addr:street": "Rua Centen√°rio",
        "addr:suburb": "Centro",
        "amenity": "school",
        "name": "Unidade Escolar Vicente Fonseca",
        "id": "way/1027387551"
      },
      "geometry": {
        "type": "Polygon",
        "coordinates": [
          [
            [
              -43.5061711,
              -7.0883301
            ],
            [
              -43.5063696,
              -7.0887317
            ],
            [
              -43.5057722,
              -7.0889363
            ],
            [
              -43.5056255,
              -7.0884985
            ],
            [
              -43.5061711,
              -7.0883301
            ]
          ]
        ]
      }
    },
    {
      "type": "Feature",
      "id": "way/1027389131",
      "properties": {
        "timestamp": "2022-02-03T13:41:13Z",
        "version": 1,
        "changeset": 116965181,
        "amenity": "school",
        "name": "Unid Esc Prof Pedro Damas De Sousa",
        "id": "way/1027389131"
      },
      "geometry": {
        "type": "Polygon",
        "coordinates": [
          [
            [
              -43.4878428,
              -6.8339136
            ],
            [
              -43.4875944,
              -6.8342525
            ],
            [
              -43.4872483,
              -6.8341259
            ],
            [
              -43.4874602,
              -6.8336718
            ],
            [
              -43.4878428,
              -6.8339136
            ]
          ]
        ]
      }
    },
    {
      "type": "Feature",
      "id": "node/9463725908",
      "properties": {
        "timestamp": "2022-01-31T17:25:00Z",
        "version": 1,
        "changeset": 116832498,
        "amenity": "school",
        "name": "Unid Esc Jose Luis Maia",
        "id": "node/9463725908"
      },
      "geometry": {
        "type": "Point",
        "coordinates": [
          -43.2901467,
          -7.3580498
        ]
      }
    },
    {
      "type": "Feature",
      "id": "node/9469607752",
      "properties": {
        "timestamp": "2022-02-02T20:27:53Z",
        "version": 1,
        "changeset": 116934780,
        "amenity": "school",
        "name": "Unid Esc Petronio P Nunes",
        "id": "node/9469607752"
      },
      "geometry": {
        "type": "Point",
        "coordinates": [
          -43.7361713,
          -7.0917805
        ]
      }
    },
    {
      "type": "Feature",
      "id": "node/9469614425",
      "properties": {
        "timestamp": "2022-02-02T20:26:18Z",
        "version": 1,
        "changeset": 116934727,
        "amenity": "school",
        "name": "Unid Esc Sen Helvidio Nunes",
        "id": "node/9469614425"
      },
      "geometry": {
        "type": "Point",
        "coordinates": [
          -43.6413659,
          -7.2458184
        ]
      }
    },
    {
      "type": "Feature",
      "id": "node/9471559782",
      "properties": {
        "timestamp": "2022-02-03T13:05:05Z",
        "version": 1,
        "changeset": 116963582,
        "addr:city": "Jerumenha",
        "addr:postcode": "64830-000",
        "addr:street": "Travessa Ministro Reis Veloso",
        "addr:suburb": "Centro",
        "amenity": "school",
        "name": "Escola Especial Arabela Nery",
        "phone": "+55 89 3550 1225",
        "id": "node/9471559782"
      },
      "geometry": {
        "type": "Point",
        "coordinates": [
          -43.510373,
          -7.0897476
        ]
      }
    },
    {
      "type": "Feature",
      "id": "node/9471565852",
      "properties": {
        "timestamp": "2022-02-03T13:01:39Z",
        "version": 1,
        "changeset": 116963436,
        "addr:city": "Jerumenha",
        "addr:postcode": "64830-000",
        "addr:street": "Rua Coronel Ademar Rocha",
        "addr:suburb": "Alto",
        "amenity": "school",
        "name": "Escola Municipal Moises Pereira Guedes",
        "id": "node/9471565852"
      },
      "geometry": {
        "type": "Point",
        "coordinates": [
          -43.5116087,
          -7.0932284
        ]
      }
    },
    {
      "type": "Feature",
      "id": "node/9471636562",
      "properties": {
        "timestamp": "2022-02-03T13:37:33Z",
        "version": 1,
        "changeset": 116964999,
        "addr:city": "Jerumenha",
        "addr:housenumber": "465",
        "addr:postcode": "64830-000",
        "addr:street": "Avenida Presidente Tancredo Neves",
        "addr:suburb": "Centro",
        "amenity": "school",
        "name": "Escolinha Nossa Senhora de Lourdes",
        "id": "node/9471636562"
      },
      "geometry": {
        "type": "Point",
        "coordinates": [
          -43.5036828,
          -7.0869415
        ]
      }
    },
    {
      "type": "Feature",
      "id": "node/9471667180",
      "properties": {
        "timestamp": "2022-02-03T13:40:05Z",
        "version": 1,
        "changeset": 116965125,
        "addr:city": "Jerumenha",
        "amenity": "school",
        "name": "Unid Esc Nestor Machado",
        "id": "node/9471667180"
      },
      "geometry": {
        "type": "Point",
        "coordinates": [
          -43.5094173,
          -7.0830793
        ]
      }
    }
  ]
}
