{
  "type": "FeatureCollection",
  "features": [
    {
      "type": "Feature",
      "id": "way/496181422",
      "properties": {
        "timestamp": "2022-03-13T20:11:27Z",
        "version": 2,
        "changeset": 118444276,
        "addr:city": "Piratini",
        "addr:housenumber": "113",
        "addr:postcode": "96490-000",
        "addr:street": "Rua Otac√≠lio da Costa Rosa",
        "addr:suburb": "Centro",
        "amenity": "kindergarten",
        "name": "EM de Ed. Inf. Meu Lar",
        "operator": "Prefeitura Municipal",
        "operator:type": "government",
        "phone": "5332571200",
        "preschool": "yes",
        "id": "way/496181422"
      },
      "geometry": {
        "type": "Polygon",
        "coordinates": [
          [
            [
              -53.1072561,
              -31.4498709
            ],
            [
              -53.1071842,
              -31.4499756
            ],
            [
              -53.1068479,
              -31.449772
            ],
            [
              -53.1067771,
              -31.449722
            ],
            [
              -53.1068178,
              -31.4496131
            ],
            [
              -53.106844,
              -31.4495429
            ],
            [
              -53.1069552,
              -31.4496003
            ],
            [
              -53.1069268,
              -31.4496385
            ],
            [
              -53.1071199,
              -31.4497391
            ],
            [
              -53.1072561,
              -31.4498709
            ]
          ]
        ]
      }
    },
    {
      "type": "Feature",
      "id": "way/497743379",
      "properties": {
        "timestamp": "2022-03-26T18:52:42Z",
        "version": 2,
        "changeset": 118958941,
        "amenity": "kindergarten",
        "building": "yes",
        "name": "Esc Mun Ed Inf Recanto Infantil",
        "operator": "Prefeitura Municipal",
        "id": "way/497743379"
      },
      "geometry": {
        "type": "Polygon",
        "coordinates": [
          [
            [
              -53.1022617,
              -31.4436731
            ],
            [
              -53.1020267,
              -31.4437701
            ],
            [
              -53.1019472,
              -31.44363
            ],
            [
              -53.1021822,
              -31.4435329
            ],
            [
              -53.1022617,
              -31.4436731
            ]
          ]
        ]
      }
    },
    {
      "type": "Feature",
      "id": "node/9600148653",
      "properties": {
        "timestamp": "2022-03-23T16:23:55Z",
        "version": 1,
        "changeset": 118828706,
        "addr:city": "Piratini",
        "addr:housenumber": "109",
        "addr:postcode": "96490-000",
        "addr:street": "Rua Coronel Manuel Pedroso",
        "addr:suburb": "Centro",
        "amenity": "kindergarten",
        "name": "Educar Kids",
        "preschool": "yes",
        "id": "node/9600148653"
      },
      "geometry": {
        "type": "Point",
        "coordinates": [
          -53.1054064,
          -31.4490132
        ]
      }
    }
  ]
}
