{
  "type": "FeatureCollection",
  "features": [
    {
      "type": "Feature",
      "id": "way/1125431656",
      "properties": {
        "timestamp": "2022-12-28T15:44:58Z",
        "version": 1,
        "changeset": 130608170,
        "addr:city": "Belford Roxo",
        "addr:housenumber": "47",
        "addr:postcode": "26130-035",
        "addr:street": "Rua Adil Miranda",
        "addr:suburb": "Centro",
        "amenity": "doctors",
        "building": "yes",
        "healthcare": "doctor",
        "healthcare:speciality": "raio-x_digital;mamografia_digital;densitometria_óssea;eletrocardiograma;ecocardiograma;laboratório_de_análises_clínicas;ultrassonografia",
        "name": "Cemed",
        "toilets": "yes",
        "toilets:wheelchair": "yes",
        "wheelchair": "yes",
        "id": "way/1125431656"
      },
      "geometry": {
        "type": "Polygon",
        "coordinates": [
          [
            [
              -43.4021407,
              -22.7632952
            ],
            [
              -43.4021094,
              -22.7633738
            ],
            [
              -43.4020379,
              -22.7633548
            ],
            [
              -43.4020692,
              -22.7632752
            ],
            [
              -43.4021407,
              -22.7632952
            ]
          ]
        ]
      }
    }
  ]
}
