{
  "type": "FeatureCollection",
  "features": [
    {
      "type": "Feature",
      "id": "relation/14300334",
      "properties": {
        "timestamp": "2022-06-27T13:10:05Z",
        "version": 1,
        "changeset": 122910422,
        "addr:city": "Araguaína",
        "addr:housenumber": "1584",
        "addr:postcode": "77808-100",
        "addr:street": "Rua São João Batista Qd 1, Lt 02",
        "addr:suburb": "Setor Alto Bonito",
        "amenity": "clinic",
        "email": "dsisaude@gmail.com",
        "healthcare": "clinic",
        "healthcare:speciality": "comunity;dentist",
        "name": "Unidade Básica de Saúde - UBS José de Sousa Rezende",
        "opening_hours": "Manhã e Tarde",
        "operator": "Sistema Único de Saúde",
        "operator:short": "SUS",
        "operator:type": "public",
        "operator:wikidata": "Q7531056",
        "phone": "63 3142-7055",
        "type": "multipolygon",
        "id": "relation/14300334"
      },
      "geometry": {
        "type": "Polygon",
        "coordinates": [
          [
            [
              -48.1881124,
              -7.2139281
            ],
            [
              -48.1885538,
              -7.2136835
            ],
            [
              -48.1887316,
              -7.2139993
            ],
            [
              -48.188285,
              -7.2142469
            ],
            [
              -48.1881124,
              -7.2139281
            ]
          ]
        ]
      }
    },
    {
      "type": "Feature",
      "id": "node/1476189088",
      "properties": {
        "timestamp": "2022-06-27T13:06:06Z",
        "version": 6,
        "changeset": 122910249,
        "addr:city": "Araguaína",
        "addr:housenumber": "1035",
        "addr:postcode": "77824-210",
        "addr:street": "Avenida C",
        "addr:suburb": "Setor Couto Magalhães",
        "amenity": "clinic",
        "email": "dsisaude@gmail.com",
        "healthcare": "clinic",
        "healthcare:speciality": "geral;dentist;comunity",
        "name": "Unidade Básica de Saúde - UBS Albeny Soares de Paula",
        "opening_hours": "Manhã e Tarde",
        "operator": "Sistema Único de Saúde",
        "operator:short": "SUS",
        "operator:type": "public",
        "operator:wikidata": "Q7531056",
        "phone": "+55 63 3411 7142",
        "ref:CNES": "2467739",
        "id": "node/1476189088"
      },
      "geometry": {
        "type": "Point",
        "coordinates": [
          -48.2062924,
          -7.1791231
        ]
      }
    },
    {
      "type": "Feature",
      "id": "node/9064939550",
      "properties": {
        "timestamp": "2022-06-27T13:49:26Z",
        "version": 5,
        "changeset": 122912097,
        "addr:city": "Araguaína",
        "addr:postcode": "77826-552",
        "addr:street": "Rua dos Pinheiros",
        "addr:suburb": "Setor Loteamento Araguaína Sul",
        "amenity": "clinic",
        "email": "dsisaude@saude.to.gov.br",
        "healthcare": "clinic",
        "healthcare:speciality": "community;dentist",
        "name": "Unidade Básica de Saúde - UBS Araguaína Sul",
        "opening_hours": "Manhã e Tarde",
        "operator": "Sistema Único de Saúde",
        "operator:short": "SUS",
        "operator:type": "public",
        "operator:wikidata": "Q7531056",
        "phone": "+55 63 3412 3019",
        "ref:CNES": "2467836",
        "id": "node/9064939550"
      },
      "geometry": {
        "type": "Point",
        "coordinates": [
          -48.1855995,
          -7.1925155
        ]
      }
    },
    {
      "type": "Feature",
      "id": "node/9064964658",
      "properties": {
        "timestamp": "2022-03-05T23:57:37Z",
        "version": 8,
        "changeset": 118143980,
        "addr:city": "Araguaína/TO",
        "addr:housenumber": "s/n",
        "addr:postcode": "77804-970",
        "addr:street": "Avenida Araguaia Qd 04, Lt 02",
        "addr:suburb": "Parque do Lago",
        "amenity": "clinic",
        "healthcare": "hospital",
        "healthcare:speciality": "geral;dentist;comunity",
        "name": "Unidade Básica de Saúde - UBS Lago Azul",
        "opening_hours": "Manhã e Tarde",
        "operator": "Município de Araguaína",
        "operator:type": "public",
        "ref:CNES": "9462953",
        "id": "node/9064964658"
      },
      "geometry": {
        "type": "Point",
        "coordinates": [
          -48.2244407,
          -7.2294856
        ]
      }
    },
    {
      "type": "Feature",
      "id": "node/9068106563",
      "properties": {
        "timestamp": "2022-06-27T13:10:46Z",
        "version": 5,
        "changeset": 122910442,
        "addr:city": "Araguaína",
        "addr:housenumber": "s/n",
        "addr:postcode": "77818-834",
        "addr:street": "Rua 7, Qd 05, Lt 19",
        "addr:suburb": "Setor Loteamento José Ferreira",
        "amenity": "clinic",
        "email": "dsisaude@gmail.com",
        "healthcare": "clinic",
        "healthcare:speciality": "dentist;comunity",
        "name": "Unidade Básica de Saúde - UBS Senador Benedito Vicente Ferreira",
        "opening_hours": "Manhã e Tarde",
        "operator": "Sistema Único de Saúde",
        "operator:short": "SUS",
        "operator:type": "public",
        "operator:wikidata": "Q7531056",
        "phone": "+55 63 4311 7027",
        "ref:CNES": "5382270",
        "id": "node/9068106563"
      },
      "geometry": {
        "type": "Point",
        "coordinates": [
          -48.2218975,
          -7.1747113
        ]
      }
    },
    {
      "type": "Feature",
      "id": "node/9068655889",
      "properties": {
        "timestamp": "2022-06-27T13:52:48Z",
        "version": 5,
        "changeset": 122912226,
        "addr:city": "Araguaína",
        "addr:housenumber": "s/n",
        "addr:postcode": "77804-970",
        "addr:street": "Rua Faisão QD 45, Lt 04",
        "addr:suburb": "Setor Maracanã",
        "amenity": "clinic",
        "healthcare": "clinic",
        "healthcare:speciality": "geral;dentist;comunity",
        "name": "Unidade Básica de Saúde - UBS Dr. Raimundo Gomes Marinho",
        "opening_hours": "Manhã e Tarde",
        "operator": "Sistema Único de Saúde",
        "operator:short": "SUS",
        "operator:type": "public",
        "operator:wikidata": "Q7531056",
        "phone": "+55 63 3421 1154",
        "ref:CNES": "7518021",
        "id": "node/9068655889"
      },
      "geometry": {
        "type": "Point",
        "coordinates": [
          -48.1902795,
          -7.1560878
        ]
      }
    },
    {
      "type": "Feature",
      "id": "node/9068701570",
      "properties": {
        "timestamp": "2022-06-27T13:51:43Z",
        "version": 4,
        "changeset": 122912180,
        "addr:city": "Araguaína",
        "addr:housenumber": "1055",
        "addr:postcode": "77817-320",
        "addr:street": "Rua da Camelias",
        "addr:suburb": "Setor Rodoviário",
        "amenity": "clinic",
        "email": "dsisaude@gmail.com",
        "healthcare": "clinic",
        "healthcare:speciality": "geral;cominuty;dentist",
        "name": "Unidade Básica de Saúde - UBS Palmeira do Norte",
        "opening_hours": "Manhã e Tarde",
        "operator": "Sistema Único de Saúde",
        "operator:short": "SUS",
        "operator:type": "public",
        "operator:wikidata": "Q7531056",
        "phone": "+55 63 3411 7102",
        "ref:CNES": "2467844",
        "id": "node/9068701570"
      },
      "geometry": {
        "type": "Point",
        "coordinates": [
          -48.2266828,
          -7.2004978
        ]
      }
    },
    {
      "type": "Feature",
      "id": "node/9068704956",
      "properties": {
        "timestamp": "2021-09-12T11:45:39Z",
        "version": 3,
        "changeset": 111092390,
        "addr:city": "Araguaína",
        "addr:housenumber": "s/n",
        "addr:postcode": "77283-240",
        "addr:street": "Rua 09",
        "addr:suburb": "Dom Orione",
        "amenity": "clinic",
        "email": "dsisaude@gmail.com",
        "healthcare": "hospital",
        "healthcare:speciality": "community;dentist",
        "name": "Unidade Básica de Saúde - UBS José Ronaldo Pereira da Costa",
        "opening_hours": "Manhã e Tarde",
        "operator": "Prefeitura Municipal de Araguaína/TO",
        "operator:type": "public",
        "ref:CNES": "2467682",
        "id": "node/9068704956"
      },
      "geometry": {
        "type": "Point",
        "coordinates": [
          -48.2165926,
          -7.1826817
        ]
      }
    },
    {
      "type": "Feature",
      "id": "node/9068765074",
      "properties": {
        "timestamp": "2022-06-27T13:17:47Z",
        "version": 5,
        "changeset": 122910740,
        "addr:city": "Araguaína",
        "addr:housenumber": "s/n",
        "addr:postcode": "77816-180",
        "addr:street": "Avenida Araguacy Qd 14, Lt 01 C",
        "addr:suburb": "JK",
        "amenity": "clinic",
        "email": "dsisaude@gmail.com",
        "healthcare": "clinic",
        "healthcare:speciality": "community;dentist",
        "name": "Unidade Básica de Saúde UBS JK",
        "opening_hours": "Manhã e Tarde",
        "operator": "Sistema Único de Saúde",
        "operator:short": "SUS",
        "operator:type": "public",
        "operator:wikidata": "Q7531056",
        "phone": "+55 63 3414 3310",
        "ref:CNES": "2467704",
        "id": "node/9068765074"
      },
      "geometry": {
        "type": "Point",
        "coordinates": [
          -48.2385242,
          -7.1970045
        ]
      }
    },
    {
      "type": "Feature",
      "id": "node/9068770807",
      "properties": {
        "timestamp": "2022-06-27T13:13:13Z",
        "version": 5,
        "changeset": 122910538,
        "addr:city": "Araguaína",
        "addr:housenumber": "s/n",
        "addr:postcode": "77804-970",
        "addr:street": "Rua Ce 08 Qd 22, Lt 01",
        "addr:suburb": "Costa Esmeralda",
        "amenity": "clinic",
        "healthcare": "clinic",
        "healthcare:speciality": "geral;dentist;comunity",
        "name": "Unidade Básica de Saúde - UBS Dr. Dantas",
        "opening_hours": "Manhã e Tarde",
        "operator": "Sistema Único de Saúde",
        "operator:short": "SUS",
        "operator:type": "public",
        "operator:wikidata": "Q7531056",
        "phone": "+55 63 3413 2649",
        "ref:CNES": "7778007",
        "id": "node/9068770807"
      },
      "geometry": {
        "type": "Point",
        "coordinates": [
          -48.1922026,
          -7.1321757
        ]
      }
    },
    {
      "type": "Feature",
      "id": "node/9068805916",
      "properties": {
        "timestamp": "2022-06-27T13:07:51Z",
        "version": 5,
        "changeset": 122910328,
        "addr:city": "Araguaína",
        "addr:housenumber": "s/n",
        "addr:postcode": "77807-130",
        "addr:street": "Rua Gonçalves Lêdo",
        "addr:suburb": "São João",
        "amenity": "clinic",
        "email": "dsisaude@gmail.com",
        "healthcare": "clinic",
        "healthcare:speciality": "geral;dentist;comunity",
        "name": "Unidade Básica de Saúde - UBS Avany Galdino da Silva",
        "opening_hours": "Manhã e Tarde",
        "operator": "Sistema Único de Saúde",
        "operator:short": "SUS",
        "operator:type": "public",
        "operator:wikidata": "Q7531056",
        "phone": "+55 63 3414 5500",
        "ref:CNES": "2467798",
        "id": "node/9068805916"
      },
      "geometry": {
        "type": "Point",
        "coordinates": [
          -48.1945761,
          -7.191068
        ]
      }
    },
    {
      "type": "Feature",
      "id": "node/9068811528",
      "properties": {
        "timestamp": "2022-06-27T13:52:13Z",
        "version": 5,
        "changeset": 122912198,
        "addr:city": "Araguaína",
        "addr:housenumber": "s/n",
        "addr:postcode": "77824-804",
        "addr:street": "Rua dos Ingaxixis Qd 28, Lt 01",
        "addr:suburb": "setor Cimba",
        "amenity": "clinic",
        "email": "dsisaude@gmail.com",
        "healthcare": "clinic",
        "healthcare:speciality": "dentist;comunity",
        "name": "Unidade Básica de Saúde - UBS Manoel Maria Dias de Brito",
        "operator": "Sistema Único de Saúde",
        "operator:short": "SUS",
        "operator:type": "public",
        "operator:wikidata": "Q7531056",
        "phone": "+55 63 3415 1282",
        "ref:CNES": "2680386",
        "id": "node/9068811528"
      },
      "geometry": {
        "type": "Point",
        "coordinates": [
          -48.1977242,
          -7.1780404
        ]
      }
    },
    {
      "type": "Feature",
      "id": "node/9068811594",
      "properties": {
        "timestamp": "2022-06-27T13:14:22Z",
        "version": 6,
        "changeset": 122910593,
        "addr:city": "Araguaína",
        "addr:housenumber": "3004",
        "addr:postcode": "77824-750",
        "addr:street": "Rua Perimetral",
        "addr:suburb": "Loteamento Couto Magalhães",
        "amenity": "clinic",
        "email": "dsisaude@gmail.com",
        "healthcare": "clinic",
        "healthcare:speciality": "community;dentist;psychiatry",
        "name": "Unidade Básica de Saúde - UBS Couto Magalhães",
        "opening_hours": "Manhã e Tarde",
        "operator": "Sistema Único de Saúde",
        "operator:short": "SUS",
        "operator:type": "public",
        "operator:wikidata": "Q7531056",
        "phone": "+55 63 3411 7042",
        "ref:CNES": "2467763",
        "id": "node/9068811594"
      },
      "geometry": {
        "type": "Point",
        "coordinates": [
          -48.2064865,
          -7.1727981
        ]
      }
    },
    {
      "type": "Feature",
      "id": "node/9068828169",
      "properties": {
        "timestamp": "2022-06-27T13:50:46Z",
        "version": 4,
        "changeset": 122912143,
        "addr:city": "Araguaína",
        "addr:housenumber": "3",
        "addr:postcode": "77813-410",
        "addr:street": "Rua L",
        "addr:suburb": "Vila Aliança",
        "amenity": "clinic",
        "email": "dsisaude@gmail.com",
        "healthcare": "clinic",
        "healthcare:speciality": "comunity;dentist",
        "name": "Unidade Básica de Saúde - UBS Dr. Francisco Barbosa de Brito",
        "opening_hours": "Manhã e Tarde",
        "operator": "Sistema Único de Saúde",
        "operator:short": "SUS",
        "operator:type": "public",
        "operator:wikidata": "Q7531056",
        "phone": "+55 63 3414 7040",
        "ref:CNES": "2467658",
        "id": "node/9068828169"
      },
      "geometry": {
        "type": "Point",
        "coordinates": [
          -48.2047537,
          -7.2022597
        ]
      }
    },
    {
      "type": "Feature",
      "id": "node/9068846233",
      "properties": {
        "timestamp": "2022-06-27T13:12:28Z",
        "version": 4,
        "changeset": 122910508,
        "addr:city": "Araguaína",
        "addr:housenumber": "21",
        "addr:postcode": "77814-320",
        "addr:street": "Rua União",
        "addr:suburb": "Loteamento de Fátima",
        "amenity": "clinic",
        "email": "dsisaude@gmail.com",
        "healthcare": "clinic",
        "healthcare:speciality": "geral;comunity;dentist",
        "name": "Unidade Básica de Saúde - UBS Bairro de Fátima",
        "opening_hours": "Manhã e Tarde",
        "operator": "Sistema Único de Saúde",
        "operator:short": "SUS",
        "operator:type": "public",
        "operator:wikidata": "Q7531056",
        "phone": "+55 63  3414 1311",
        "ref:CNES": "2467755",
        "id": "node/9068846233"
      },
      "geometry": {
        "type": "Point",
        "coordinates": [
          -48.2505267,
          -7.2335084
        ]
      }
    },
    {
      "type": "Feature",
      "id": "node/9552748952",
      "properties": {
        "timestamp": "2022-03-03T20:19:54Z",
        "version": 1,
        "changeset": 118069457,
        "amenity": "clinic",
        "healthcare": "clinic",
        "id": "node/9552748952"
      },
      "geometry": {
        "type": "Point",
        "coordinates": [
          -48.1809845,
          -7.1878407
        ]
      }
    },
    {
      "type": "Feature",
      "id": "node/9552748956",
      "properties": {
        "timestamp": "2022-03-03T20:19:54Z",
        "version": 1,
        "changeset": 118069457,
        "amenity": "clinic",
        "healthcare": "clinic",
        "id": "node/9552748956"
      },
      "geometry": {
        "type": "Point",
        "coordinates": [
          -48.1870402,
          -7.1812693
        ]
      }
    }
  ]
}
