{
  "type": "FeatureCollection",
  "features": [
    {
      "type": "Feature",
      "id": "relation/13886854",
      "properties": {
        "timestamp": "2022-03-03T20:00:52Z",
        "version": 1,
        "changeset": 118068913,
        "addr:city": "Araguaina",
        "addr:postcode": "77808-610",
        "addr:street": "Rua Butia",
        "addr:suburb": "Vila Ribeiro",
        "amenity": "school",
        "fee": "no",
        "grades": "1-9",
        "inep": "17005825",
        "internet_access": "wired",
        "name": "Escola Municipal Leia Raquel Dias Mota",
        "operator": "Secretaria da Educação do Estado do Tocantins",
        "operator:type": "public",
        "phone": "+55 63 3414 1446",
        "type": "multipolygon",
        "wheelchair": "yes",
        "zone": "Urbana",
        "id": "relation/13886854"
      },
      "geometry": {
        "type": "Polygon",
        "coordinates": [
          [
            [
              -48.1831413,
              -7.2101187
            ],
            [
              -48.1834217,
              -7.2098877
            ],
            [
              -48.1838013,
              -7.2103752
            ],
            [
              -48.1834886,
              -7.2105679
            ],
            [
              -48.1831413,
              -7.2101187
            ]
          ]
        ]
      }
    },
    {
      "type": "Feature",
      "id": "relation/13886855",
      "properties": {
        "timestamp": "2022-03-03T20:00:52Z",
        "version": 1,
        "changeset": 118068913,
        "addr:city": "Araguaina",
        "addr:postcode": "77808-610",
        "addr:street": "Rua Gloria Moraes",
        "addr:suburb": "Vila Ribeiro",
        "amenity": "school",
        "fee": "no",
        "grades": "0-9",
        "inep": "17051517",
        "name": "Centro Educacional Infantil Municipal Joaquina Mota",
        "operator": "Secretaria da Educação do Estado do Tocantins",
        "operator:type": "public",
        "phone": "+55 63 3414 0505",
        "type": "multipolygon",
        "wheelchair": "yes",
        "zone": "Urbana",
        "id": "relation/13886855"
      },
      "geometry": {
        "type": "Polygon",
        "coordinates": [
          [
            [
              -48.1834217,
              -7.2098877
            ],
            [
              -48.1831413,
              -7.2101187
            ],
            [
              -48.1829186,
              -7.2098272
            ],
            [
              -48.1832087,
              -7.209609
            ],
            [
              -48.1834217,
              -7.2098877
            ]
          ]
        ]
      }
    },
    {
      "type": "Feature",
      "id": "relation/13892890",
      "properties": {
        "timestamp": "2022-03-05T14:53:24Z",
        "version": 1,
        "changeset": 118129157,
        "addr:city": "Araguaína",
        "addr:housenumber": "1396",
        "addr:postcode": "77814-330",
        "addr:street": "Rua Pina Pinto",
        "addr:suburb": "Loteamento de Fátima",
        "amenity": "school",
        "fee": "no",
        "grades": "1-12",
        "inep": "17005264",
        "internet_access": "yes",
        "name": "Colégio Estadual Campos Brasil",
        "operator": "Secretaria da Educação do Estado do Tocantins",
        "operator:type": "public",
        "phone": "+55 63 3413-2113",
        "type": "multipolygon",
        "wheelchair": "yes",
        "zone": "Urbana",
        "id": "relation/13892890"
      },
      "geometry": {
        "type": "Polygon",
        "coordinates": [
          [
            [
              -48.2523135,
              -7.234859
            ],
            [
              -48.2519661,
              -7.234964
            ],
            [
              -48.2517723,
              -7.2342539
            ],
            [
              -48.2521228,
              -7.2341598
            ],
            [
              -48.2523135,
              -7.234859
            ]
          ]
        ]
      }
    },
    {
      "type": "Feature",
      "id": "relation/13892891",
      "properties": {
        "timestamp": "2022-03-05T14:53:24Z",
        "version": 1,
        "changeset": 118129157,
        "addr:city": "Araguaína",
        "addr:housenumber": "286",
        "addr:postcode": "77814-370",
        "addr:street": "Rua Liberdade",
        "addr:suburb": "Loteamento de Fátima",
        "amenity": "school",
        "fee": "no",
        "grades": "0-9",
        "inep": "17005191",
        "name": "Centro Educacional Infantil Municipal José Martins Santos Tenente",
        "operator": "Secretaria da Educação do Estado do Tocantins",
        "operator:type": "public",
        "phone": "+55 63 3421-2188",
        "type": "multipolygon",
        "wheelchair": "yes",
        "zone": "Urbana",
        "id": "relation/13892891"
      },
      "geometry": {
        "type": "Polygon",
        "coordinates": [
          [
            [
              -48.2523135,
              -7.234859
            ],
            [
              -48.2523729,
              -7.2350433
            ],
            [
              -48.2520256,
              -7.235152
            ],
            [
              -48.2519661,
              -7.234964
            ],
            [
              -48.2523135,
              -7.234859
            ]
          ]
        ]
      }
    },
    {
      "type": "Feature",
      "id": "relation/13894344",
      "properties": {
        "timestamp": "2022-03-05T23:57:37Z",
        "version": 1,
        "changeset": 118143980,
        "addr:city": "Araguaína",
        "addr:postcode": "77814-410",
        "addr:street": "Rua 31 quadra 04 lote 04",
        "addr:suburb": "Loteamento Parque do Lago",
        "amenity": "school",
        "fee": "no",
        "grades": "1-9",
        "inep": "17056047",
        "internet_access": "yes",
        "name": "Escola de Tempo Integral Joaquim Carlos Sabino dos Santos",
        "operator": "Secretaria da Educação do Estado do Tocantins",
        "operator:type": "public",
        "phone": "+55 63 99234-9898",
        "type": "multipolygon",
        "wheelchair": "yes",
        "zone": "Urbana",
        "id": "relation/13894344"
      },
      "geometry": {
        "type": "Polygon",
        "coordinates": [
          [
            [
              -48.2239165,
              -7.2291773
            ],
            [
              -48.2239187,
              -7.2298392
            ],
            [
              -48.2230559,
              -7.2299808
            ],
            [
              -48.2229998,
              -7.2299315
            ],
            [
              -48.2230126,
              -7.2288337
            ],
            [
              -48.2230591,
              -7.2287876
            ],
            [
              -48.223199,
              -7.2287887
            ],
            [
              -48.2231984,
              -7.2288629
            ],
            [
              -48.2239155,
              -7.2288687
            ],
            [
              -48.2239165,
              -7.2291773
            ]
          ]
        ]
      }
    },
    {
      "type": "Feature",
      "id": "relation/13894345",
      "properties": {
        "timestamp": "2022-03-05T23:57:37Z",
        "version": 1,
        "changeset": 118143980,
        "addr:city": "Araguaína",
        "addr:postcode": "77814-510",
        "addr:street": "Av. Araguaia quadra 04 lote 03",
        "addr:suburb": "Loteamento Parque do Lago",
        "amenity": "school",
        "fee": "no",
        "grades": "0-9",
        "inep": "17056055",
        "internet_access": "yes",
        "name": "Centro de Educação Infantil Elisabeth Alves Carvalho",
        "operator": "Secretaria da Educação do Estado do Tocantins",
        "operator:type": "public",
        "phone": "+55 63 99942-5093",
        "type": "multipolygon",
        "wheelchair": "yes",
        "zone": "Urbana",
        "id": "relation/13894345"
      },
      "geometry": {
        "type": "Polygon",
        "coordinates": [
          [
            [
              -48.2239165,
              -7.2291773
            ],
            [
              -48.2242791,
              -7.2291741
            ],
            [
              -48.2242791,
              -7.2297802
            ],
            [
              -48.2239187,
              -7.2298392
            ],
            [
              -48.2239165,
              -7.2291773
            ]
          ]
        ]
      }
    },
    {
      "type": "Feature",
      "id": "relation/14300333",
      "properties": {
        "timestamp": "2022-06-27T13:10:05Z",
        "version": 1,
        "changeset": 122910422,
        "addr:city": "Araguaína",
        "addr:housenumber": "01",
        "addr:postcode": "77808-200",
        "addr:street": "Rua Itajaí",
        "addr:suburb": "Loteamento Céu Azul II",
        "amenity": "school",
        "fee": "no",
        "grades": "0-9",
        "inep": "17051525",
        "name": "Escola de Educação Infantil Santa Clara",
        "operator": "Secretaria da Educação do Estado do Tocantins",
        "operator:type": "public",
        "phone": "+55 63 3413 1399",
        "type": "multipolygon",
        "wheelchair": "yes",
        "zone": "Urbana",
        "id": "relation/14300333"
      },
      "geometry": {
        "type": "Polygon",
        "coordinates": [
          [
            [
              -48.1881124,
              -7.2139281
            ],
            [
              -48.188285,
              -7.2142469
            ],
            [
              -48.1876889,
              -7.2145645
            ],
            [
              -48.1875164,
              -7.2142458
            ],
            [
              -48.1881124,
              -7.2139281
            ]
          ]
        ]
      }
    },
    {
      "type": "Feature",
      "id": "way/1036835743",
      "properties": {
        "timestamp": "2022-03-17T08:49:17Z",
        "version": 2,
        "changeset": 118581812,
        "addr:city": "Araguaína",
        "addr:postcode": "77818-360",
        "addr:street": "Rua 02",
        "addr:suburb": "Vila Cearense",
        "amenity": "school",
        "fee": "no",
        "grades": "0-9",
        "inep": "17121809",
        "name": "Creche Municipal Constantino Pacifíco de Oliveira",
        "operator": "Secretaria da Educação do Estado do Tocantins",
        "operator:type": "public",
        "phone": "+55 63 3415 4262",
        "wheelchair": "yes",
        "zone": "Urbana",
        "id": "way/1036835743"
      },
      "geometry": {
        "type": "Polygon",
        "coordinates": [
          [
            [
              -48.2278451,
              -7.1819167
            ],
            [
              -48.2279912,
              -7.1817691
            ],
            [
              -48.2280919,
              -7.1818761
            ],
            [
              -48.2281213,
              -7.1820617
            ],
            [
              -48.2280598,
              -7.1821519
            ],
            [
              -48.2278451,
              -7.1819167
            ]
          ]
        ]
      }
    },
    {
      "type": "Feature",
      "id": "way/1036836105",
      "properties": {
        "timestamp": "2022-03-03T14:14:38Z",
        "version": 1,
        "changeset": 118057708,
        "addr:city": "Araguaína",
        "addr:housenumber": "425",
        "addr:postcode": "77818-804",
        "addr:street": "Rua Estrela do Oriente",
        "addr:suburb": "Parque Sonhos Dourados",
        "amenity": "school",
        "fee": "no",
        "grades": "1-9",
        "inep": "17054478",
        "name": "Escola Municipal Willian Castelo Branco Martins",
        "operator": "Secretaria da Educação do Estado do Tocantins",
        "operator:type": "public",
        "phone": "+55 63 3415 1707",
        "wheelchair": "yes",
        "zone": "Urbana",
        "id": "way/1036836105"
      },
      "geometry": {
        "type": "Polygon",
        "coordinates": [
          [
            [
              -48.232625,
              -7.1824807
            ],
            [
              -48.2326282,
              -7.1825285
            ],
            [
              -48.232022,
              -7.1831156
            ],
            [
              -48.2316611,
              -7.1827242
            ],
            [
              -48.2322513,
              -7.182153
            ],
            [
              -48.2322994,
              -7.1821482
            ],
            [
              -48.232625,
              -7.1824807
            ]
          ]
        ]
      }
    },
    {
      "type": "Feature",
      "id": "way/1036892385",
      "properties": {
        "timestamp": "2022-03-03T18:45:06Z",
        "version": 1,
        "changeset": 118066818,
        "addr:city": "Araguaína",
        "addr:housenumber": "07",
        "addr:postcode": "77829-044",
        "addr:street": "Rua Ce 23 quadra 22 lote 07",
        "addr:suburb": "Loteamento Costa Esmeralda",
        "amenity": "school",
        "fee": "no",
        "grades": "0-9",
        "inep": "17055300",
        "name": "Centro de Educação Infantil Cora Coralina",
        "operator": "Secretaria da Educação do Estado do Tocantins",
        "operator:type": "public",
        "phone": "+55 63 99214-3821",
        "wheelchair": "yes",
        "zone": "Urbana",
        "id": "way/1036892385"
      },
      "geometry": {
        "type": "Polygon",
        "coordinates": [
          [
            [
              -48.1922578,
              -7.1324822
            ],
            [
              -48.1926029,
              -7.1323639
            ],
            [
              -48.1927562,
              -7.132804
            ],
            [
              -48.192411,
              -7.1329224
            ],
            [
              -48.1922578,
              -7.1324822
            ]
          ]
        ]
      }
    },
    {
      "type": "Feature",
      "id": "way/1036892430",
      "properties": {
        "timestamp": "2022-03-03T18:45:41Z",
        "version": 1,
        "changeset": 118066834,
        "addr:city": "Araguaína",
        "addr:postcode": "77826-215",
        "addr:street": "Rua Rodoviária",
        "addr:suburb": "Loteamento Barros",
        "amenity": "school",
        "fee": "no",
        "grades": "1-9",
        "inep": "17005434",
        "name": "Escola Municipal Moderna Professora Maria dos Anjos Carreiro",
        "operator": "Secretaria da Educação do Estado do Tocantins",
        "operator:type": "public",
        "phone": "+55 63 3412-7876",
        "wheelchair": "yes",
        "zone": "Urbana",
        "id": "way/1036892430"
      },
      "geometry": {
        "type": "Polygon",
        "coordinates": [
          [
            [
              -48.2001489,
              -7.1359507
            ],
            [
              -48.2002103,
              -7.1361163
            ],
            [
              -48.1995372,
              -7.1363694
            ],
            [
              -48.1994691,
              -7.1361239
            ],
            [
              -48.2001489,
              -7.1359507
            ]
          ]
        ]
      }
    },
    {
      "type": "Feature",
      "id": "way/1036892477",
      "properties": {
        "timestamp": "2022-03-03T18:46:11Z",
        "version": 1,
        "changeset": 118066855,
        "addr:city": "Araguaína",
        "addr:housenumber": "410",
        "addr:postcode": "77826-045",
        "addr:street": "Avenida Tocantins",
        "addr:suburb": "Setor Barros",
        "amenity": "school",
        "fee": "no",
        "grades": "1-12",
        "inep": "17005345",
        "name": "Colégio Estadual Henrique C Amorim",
        "operator": "Secretaria da Educação do Estado do Tocantins",
        "operator:type": "public",
        "phone": "+55 63 9 9244 3830",
        "wheelchair": "yes",
        "zone": "Urbana",
        "id": "way/1036892477"
      },
      "geometry": {
        "type": "Polygon",
        "coordinates": [
          [
            [
              -48.2022586,
              -7.1379551
            ],
            [
              -48.2022534,
              -7.1382275
            ],
            [
              -48.2017653,
              -7.1382541
            ],
            [
              -48.2017467,
              -7.1380575
            ],
            [
              -48.20182,
              -7.1379622
            ],
            [
              -48.2022586,
              -7.1379551
            ]
          ]
        ]
      }
    },
    {
      "type": "Feature",
      "id": "way/1036892519",
      "properties": {
        "timestamp": "2022-03-03T18:46:36Z",
        "version": 1,
        "changeset": 118066883,
        "addr:city": "Araguaína",
        "addr:postcode": "77826-155",
        "addr:street": "Rua 01",
        "addr:suburb": "Setor Barros",
        "amenity": "school",
        "fee": "no",
        "grades": "0-9",
        "inep": "17047005",
        "name": "Centro Educacional  Infantil Municipal Pedro Carreiro",
        "operator": "Secretaria da Educação do Estado do Tocantins",
        "operator:type": "public",
        "phone": "+55 63 3414 7510",
        "wheelchair": "yes",
        "zone": "Urbana",
        "id": "way/1036892519"
      },
      "geometry": {
        "type": "Polygon",
        "coordinates": [
          [
            [
              -48.2035508,
              -7.137516
            ],
            [
              -48.2035723,
              -7.1378588
            ],
            [
              -48.2030762,
              -7.1379264
            ],
            [
              -48.2031013,
              -7.137771
            ],
            [
              -48.2031551,
              -7.1375611
            ],
            [
              -48.2035508,
              -7.137516
            ]
          ]
        ]
      }
    },
    {
      "type": "Feature",
      "id": "way/1036893181",
      "properties": {
        "timestamp": "2022-03-03T18:52:43Z",
        "version": 1,
        "changeset": 118067051,
        "addr:city": "Araguaína",
        "addr:housenumber": "02",
        "addr:postcode": "77825-000",
        "addr:street": "Rua Sabiá",
        "addr:suburb": "Setor Maracanã",
        "amenity": "school",
        "name": "Escola De Artes De Araguaina Raimundo Paulino",
        "phone": "+55 63 3413 1295",
        "id": "way/1036893181"
      },
      "geometry": {
        "type": "Polygon",
        "coordinates": [
          [
            [
              -48.1895574,
              -7.1556898
            ],
            [
              -48.189503,
              -7.1561868
            ],
            [
              -48.1891021,
              -7.1561461
            ],
            [
              -48.1891609,
              -7.1556325
            ],
            [
              -48.1895574,
              -7.1556898
            ]
          ]
        ]
      }
    },
    {
      "type": "Feature",
      "id": "way/1036917671",
      "properties": {
        "timestamp": "2023-03-20T12:32:32Z",
        "version": 2,
        "changeset": 133897202,
        "addr:city": "Araguaína",
        "addr:postcode": "77808-170",
        "addr:street": "Rua São Francisco de Assis",
        "addr:suburb": "Loteamento Céu Azul",
        "amenity": "school",
        "fee": "no",
        "grades": "1-9",
        "inep": "17050510",
        "name": "Escola Municipal José Ferreira Barros",
        "operator": "Secretaria da Educação do Estado do Tocantins",
        "operator:type": "public",
        "phone": "+55 63 3414 1473",
        "wheelchair": "yes",
        "zone": "Urbana",
        "id": "way/1036917671"
      },
      "geometry": {
        "type": "Polygon",
        "coordinates": [
          [
            [
              -48.1849883,
              -7.2183986
            ],
            [
              -48.1853492,
              -7.2190657
            ],
            [
              -48.184959,
              -7.2192734
            ],
            [
              -48.1845982,
              -7.2186064
            ],
            [
              -48.1849883,
              -7.2183986
            ]
          ]
        ]
      }
    },
    {
      "type": "Feature",
      "id": "way/1036926136",
      "properties": {
        "timestamp": "2022-03-03T20:02:07Z",
        "version": 1,
        "changeset": 118068949,
        "addr:city": "Araguaína",
        "addr:housenumber": "431",
        "addr:postcode": "77808-400",
        "addr:street": "Avenida Santa Terezinha",
        "addr:suburb": "Bairro Santa Terezinha",
        "amenity": "school",
        "fee": "no",
        "grades": "1-12",
        "inep": "17005329",
        "name": "Escola Estadual Francisco Máximo de Sousa",
        "operator": "Secretaria da Educação do Estado do Tocantins",
        "operator:type": "public",
        "phone": "+55 63 3412 2016",
        "wheelchair": "yes",
        "zone": "Urbana",
        "id": "way/1036926136"
      },
      "geometry": {
        "type": "Polygon",
        "coordinates": [
          [
            [
              -48.1962968,
              -7.203459
            ],
            [
              -48.1958385,
              -7.204301
            ],
            [
              -48.1957042,
              -7.2042186
            ],
            [
              -48.1961445,
              -7.2033752
            ],
            [
              -48.1962968,
              -7.203459
            ]
          ]
        ]
      }
    },
    {
      "type": "Feature",
      "id": "way/1036927982",
      "properties": {
        "timestamp": "2022-03-03T20:03:06Z",
        "version": 1,
        "changeset": 118068979,
        "addr:city": "Araguaína",
        "addr:housenumber": "84",
        "addr:postcode": "77808-400",
        "addr:street": "Avenida Santa Terezinha",
        "addr:suburb": "Bairro Santa Terezinha",
        "amenity": "school",
        "fee": "no",
        "grades": "1-9",
        "inep": "17006090",
        "name": "Escola Paroquial São Domingos",
        "operator": "Secretaria da Educação do Estado do Tocantins",
        "operator:type": "public",
        "phone": "+55 63 3414-3786",
        "wheelchair": "yes",
        "zone": "Urbana",
        "id": "way/1036927982"
      },
      "geometry": {
        "type": "Polygon",
        "coordinates": [
          [
            [
              -48.1979269,
              -7.2012523
            ],
            [
              -48.1977443,
              -7.2015427
            ],
            [
              -48.1975759,
              -7.2014442
            ],
            [
              -48.1977701,
              -7.2011506
            ],
            [
              -48.1979269,
              -7.2012523
            ]
          ]
        ]
      }
    },
    {
      "type": "Feature",
      "id": "way/1036927983",
      "properties": {
        "timestamp": "2022-03-03T20:03:06Z",
        "version": 1,
        "changeset": 118068979,
        "addr:city": "Araguaína",
        "addr:housenumber": "63",
        "addr:postcode": "77808-430",
        "addr:street": "Rua 15 de Agosto",
        "addr:suburb": "Bairro Santa Terezinha",
        "amenity": "school",
        "fee": "yes",
        "grades": "0-9",
        "inep": "17005183",
        "name": "Escola Creche Normando Souza Linhares",
        "operator": "Secretaria da Educação do Estado do Tocantins",
        "operator:type": "private",
        "phone": "+55 63 3412-2030",
        "wheelchair": "yes",
        "zone": "Urbana",
        "id": "way/1036927983"
      },
      "geometry": {
        "type": "Polygon",
        "coordinates": [
          [
            [
              -48.1979269,
              -7.2012523
            ],
            [
              -48.1981397,
              -7.2013839
            ],
            [
              -48.1979572,
              -7.2016744
            ],
            [
              -48.1977443,
              -7.2015427
            ],
            [
              -48.1979269,
              -7.2012523
            ]
          ]
        ]
      }
    },
    {
      "type": "Feature",
      "id": "way/1036930681",
      "properties": {
        "timestamp": "2022-03-03T20:04:36Z",
        "version": 1,
        "changeset": 118069017,
        "addr:city": "Araguaína",
        "addr:postcode": "77808-445",
        "addr:street": "Rua 01, esquina com a Rua Jurema",
        "addr:suburb": "Vila Santa Luzia",
        "amenity": "school",
        "fee": "no",
        "grades": "1-9",
        "inep": "17050022",
        "name": "Escola Municipal Santa Luzia",
        "operator": "Secretaria da Educação do Estado do Tocantins",
        "operator:type": "public",
        "phone": "+55 63 3414 1459",
        "wheelchair": "yes",
        "zone": "Urbana",
        "id": "way/1036930681"
      },
      "geometry": {
        "type": "Polygon",
        "coordinates": [
          [
            [
              -48.1943491,
              -7.20052
            ],
            [
              -48.1941554,
              -7.2008825
            ],
            [
              -48.194095,
              -7.2009015
            ],
            [
              -48.1938437,
              -7.2007579
            ],
            [
              -48.1941918,
              -7.2004373
            ],
            [
              -48.1943491,
              -7.20052
            ]
          ]
        ]
      }
    },
    {
      "type": "Feature",
      "id": "way/1036933536",
      "properties": {
        "timestamp": "2022-03-03T20:06:04Z",
        "version": 1,
        "changeset": 118069052,
        "addr:city": "Araguaína",
        "addr:postcode": "77826-578",
        "addr:street": "Rua 10",
        "addr:suburb": "Setor Coimbra",
        "amenity": "school",
        "fee": "no",
        "grades": "1-9",
        "inep": "17039878",
        "internet_access": "yes",
        "name": "Colégio Militar do Estado do Tocantins - Jorge Umberto Camargo",
        "operator": "Secretaria da Educação do Estado do Tocantins",
        "operator:type": "public",
        "phone": "+55 63 3412 2022",
        "wheelchair": "yes",
        "zone": "Urbana",
        "id": "way/1036933536"
      },
      "geometry": {
        "type": "Polygon",
        "coordinates": [
          [
            [
              -48.1920393,
              -7.1956371
            ],
            [
              -48.1914653,
              -7.1963796
            ],
            [
              -48.1900303,
              -7.1945141
            ],
            [
              -48.1907545,
              -7.1939633
            ],
            [
              -48.1920393,
              -7.1956371
            ]
          ]
        ]
      }
    },
    {
      "type": "Feature",
      "id": "way/1036935909",
      "properties": {
        "timestamp": "2022-03-03T20:07:27Z",
        "version": 1,
        "changeset": 118069081,
        "addr:city": "Araguaína",
        "addr:housenumber": "626",
        "addr:postcode": "77826-582",
        "addr:street": "Avenida Goiás",
        "addr:suburb": "Setor Coimbra",
        "amenity": "school",
        "fee": "no",
        "grades": "10-12",
        "inep": "17046270",
        "internet_access": "yes",
        "name": "Colégio Militar do Estado do Tocantins Dr. José Aluísio da Silva Luz",
        "operator": "Secretaria da Educação do Estado do Tocantins",
        "operator:type": "public",
        "phone": "+55 63 3412 3120",
        "wheelchair": "yes",
        "zone": "Urbana",
        "id": "way/1036935909"
      },
      "geometry": {
        "type": "Polygon",
        "coordinates": [
          [
            [
              -48.1873149,
              -7.1938796
            ],
            [
              -48.1873019,
              -7.1939201
            ],
            [
              -48.1867112,
              -7.1943716
            ],
            [
              -48.1862449,
              -7.1937708
            ],
            [
              -48.1868431,
              -7.193358
            ],
            [
              -48.1868951,
              -7.1933525
            ],
            [
              -48.1873149,
              -7.1938796
            ]
          ]
        ]
      }
    },
    {
      "type": "Feature",
      "id": "way/1036937736",
      "properties": {
        "timestamp": "2022-03-03T20:08:24Z",
        "version": 1,
        "changeset": 118069115,
        "addr:city": "Araguaína",
        "addr:postcode": "77826-538",
        "addr:street": "Rua do Colégio",
        "addr:suburb": "Setor Raizal",
        "amenity": "school",
        "fee": "no",
        "grades": "1-9",
        "inep": "17006201",
        "name": "Escola Municipal Tereza Hilário Ribeiro",
        "operator": "Secretaria da Educação do Estado do Tocantins",
        "operator:type": "public",
        "phone": "+55 63 3414-1412",
        "wheelchair": "yes",
        "zone": "Urbana",
        "id": "way/1036937736"
      },
      "geometry": {
        "type": "Polygon",
        "coordinates": [
          [
            [
              -48.1834625,
              -7.1945236
            ],
            [
              -48.1831447,
              -7.1949778
            ],
            [
              -48.1826568,
              -7.1945295
            ],
            [
              -48.1830407,
              -7.1941289
            ],
            [
              -48.1834625,
              -7.1945236
            ]
          ]
        ]
      }
    },
    {
      "type": "Feature",
      "id": "way/1036944779",
      "properties": {
        "timestamp": "2022-03-03T20:12:08Z",
        "version": 1,
        "changeset": 118069238,
        "addr:city": "Araguaína",
        "addr:housenumber": "387",
        "addr:postcode": "77828-300",
        "addr:street": "Avenida Buenos Aires",
        "addr:suburb": "Morada do Sol",
        "amenity": "school",
        "fee": "yes",
        "grades": "0-12",
        "inep": "17052904",
        "name": "Centro Educacional SESC Ler",
        "operator": "Secretaria da Educação do Estado do Tocantins",
        "operator:type": "public",
        "phone": "+55 63 3416-0150",
        "wheelchair": "yes",
        "zone": "Urbana",
        "id": "way/1036944779"
      },
      "geometry": {
        "type": "Polygon",
        "coordinates": [
          [
            [
              -48.1778725,
              -7.1965607
            ],
            [
              -48.1778733,
              -7.1966787
            ],
            [
              -48.17793,
              -7.1966784
            ],
            [
              -48.177933,
              -7.1971213
            ],
            [
              -48.1769307,
              -7.1971278
            ],
            [
              -48.1768799,
              -7.1970774
            ],
            [
              -48.1768722,
              -7.1966303
            ],
            [
              -48.1769317,
              -7.1965665
            ],
            [
              -48.1778725,
              -7.1965607
            ]
          ]
        ]
      }
    },
    {
      "type": "Feature",
      "id": "way/1036954619",
      "properties": {
        "timestamp": "2022-03-17T11:38:58Z",
        "version": 2,
        "changeset": 118589294,
        "addr:city": "Araguaína",
        "addr:postcode": "77828-420",
        "addr:street": "Rua das Orquídeas",
        "addr:suburb": "Setor Jardim das Flores",
        "amenity": "school",
        "fee": "no",
        "grades": "1-9",
        "inep": "17053080",
        "internet_access": "yes",
        "name": "Escola Municipal Domingos de Sousa Lemos",
        "operator": "Secretaria da Educação do Estado do Tocantins",
        "operator:type": "public",
        "phone": "+55 63 3412-7080",
        "wheelchair": "yes",
        "zone": "Urbana",
        "id": "way/1036954619"
      },
      "geometry": {
        "type": "Polygon",
        "coordinates": [
          [
            [
              -48.177978,
              -7.2036731
            ],
            [
              -48.1772191,
              -7.2042784
            ],
            [
              -48.1768825,
              -7.2038631
            ],
            [
              -48.1776413,
              -7.2032577
            ],
            [
              -48.177978,
              -7.2036731
            ]
          ]
        ]
      }
    },
    {
      "type": "Feature",
      "id": "way/1036954620",
      "properties": {
        "timestamp": "2022-03-17T11:39:17Z",
        "version": 2,
        "changeset": 118589312,
        "addr:city": "Araguaína",
        "addr:postcode": "77828-424",
        "addr:street": "Rua dos Girassóis",
        "addr:suburb": "Jardim das Flores",
        "amenity": "school",
        "fee": "no",
        "grades": "0-9",
        "inep": "17053234",
        "internet_access": "yes",
        "name": "Centro Educacional Infantil Municipal Glória Morais",
        "operator": "Secretaria da Educação do Estado do Tocantins",
        "operator:type": "public",
        "phone": "+55 63 3414-5318",
        "wheelchair": "yes",
        "zone": "Urbana",
        "id": "way/1036954620"
      },
      "geometry": {
        "type": "Polygon",
        "coordinates": [
          [
            [
              -48.1762669,
              -7.2043048
            ],
            [
              -48.1766023,
              -7.2047386
            ],
            [
              -48.1763581,
              -7.2049245
            ],
            [
              -48.1760227,
              -7.2044907
            ],
            [
              -48.1762669,
              -7.2043048
            ]
          ]
        ]
      }
    },
    {
      "type": "Feature",
      "id": "way/1036959968",
      "properties": {
        "timestamp": "2022-03-03T20:19:54Z",
        "version": 1,
        "changeset": 118069457,
        "addr:city": "Araguaína",
        "addr:postcode": "77826-498",
        "addr:street": "Avenida Brasil quadra 24 lote AP",
        "addr:suburb": "Setor Tereza Hilário",
        "amenity": "school",
        "fee": "no",
        "grades": "1-9",
        "inep": "17005728",
        "name": "Escola Municipal Dr César Belmino Evangelista",
        "operator": "Secretaria da Educação do Estado do Tocantins",
        "operator:type": "public",
        "phone": "+55 63 3414 1508",
        "wheelchair": "yes",
        "zone": "Urbana",
        "id": "way/1036959968"
      },
      "geometry": {
        "type": "Polygon",
        "coordinates": [
          [
            [
              -48.1808037,
              -7.1876344
            ],
            [
              -48.1807796,
              -7.1878939
            ],
            [
              -48.1801784,
              -7.187839
            ],
            [
              -48.1802024,
              -7.1875794
            ],
            [
              -48.1808037,
              -7.1876344
            ]
          ]
        ]
      }
    },
    {
      "type": "Feature",
      "id": "way/1036960806",
      "properties": {
        "timestamp": "2022-03-03T20:20:23Z",
        "version": 1,
        "changeset": 118069475,
        "addr:city": "Araguaína",
        "addr:postcode": "77826-462",
        "addr:street": "Avenida B quadra 11",
        "addr:suburb": "Setor Morada do Sol 2",
        "amenity": "school",
        "fee": "no",
        "grades": "1-9",
        "inep": "17005230",
        "internet_access": "yes",
        "name": "Escola Estadual Espirita André Luiz - Conveniada",
        "operator": "Secretaria da Educação do Estado do Tocantins",
        "operator:type": "public",
        "phone": "+55 63 3412 7278",
        "wheelchair": "yes",
        "zone": "Urbana",
        "id": "way/1036960806"
      },
      "geometry": {
        "type": "Polygon",
        "coordinates": [
          [
            [
              -48.1758018,
              -7.1865704
            ],
            [
              -48.17589,
              -7.187105
            ],
            [
              -48.1748396,
              -7.1872801
            ],
            [
              -48.174753,
              -7.1867423
            ],
            [
              -48.1758018,
              -7.1865704
            ]
          ]
        ]
      }
    },
    {
      "type": "Feature",
      "id": "way/1036967707",
      "properties": {
        "timestamp": "2022-03-03T20:24:56Z",
        "version": 1,
        "changeset": 118069607,
        "addr:city": "Araguaína",
        "addr:housenumber": "177",
        "addr:postcode": "77805-080",
        "addr:street": "Rua Alfredo Nasser",
        "addr:suburb": "Centro",
        "amenity": "school",
        "fee": "no",
        "grades": "1-9",
        "inep": "17005477",
        "internet_access": "yes",
        "name": "Escola Estadual Professor Alfredo Nasser",
        "operator": "Secretaria da Educação do Estado do Tocantins",
        "operator:type": "public",
        "phone": "+55 63 3413-1152",
        "wheelchair": "yes",
        "zone": "Urbana",
        "id": "way/1036967707"
      },
      "geometry": {
        "type": "Polygon",
        "coordinates": [
          [
            [
              -48.2028717,
              -7.1869073
            ],
            [
              -48.2029838,
              -7.187325
            ],
            [
              -48.2024014,
              -7.1874788
            ],
            [
              -48.2022893,
              -7.1870611
            ],
            [
              -48.2028717,
              -7.1869073
            ]
          ]
        ]
      }
    },
    {
      "type": "Feature",
      "id": "way/1036967708",
      "properties": {
        "timestamp": "2022-03-17T10:46:39Z",
        "version": 2,
        "changeset": 118586773,
        "addr:city": "Araguaína",
        "addr:postcode": "77824-340",
        "addr:street": "Rua Cuiabá",
        "addr:suburb": "Setor Brasil",
        "amenity": "school",
        "fee": "no",
        "grades": "1-9",
        "inep": "17005760",
        "name": "Escola Municipal Gentil Ferreira Brito",
        "operator": "Secretaria da Educação do Estado do Tocantins",
        "operator:type": "public",
        "phone": "+55 63 3414-7511",
        "wheelchair": "yes",
        "zone": "Urbana",
        "id": "way/1036967708"
      },
      "geometry": {
        "type": "Polygon",
        "coordinates": [
          [
            [
              -48.2022543,
              -7.1790009
            ],
            [
              -48.2023646,
              -7.1794071
            ],
            [
              -48.2020942,
              -7.1794804
            ],
            [
              -48.2019571,
              -7.1791455
            ],
            [
              -48.2021862,
              -7.1789704
            ],
            [
              -48.2022543,
              -7.1790009
            ]
          ]
        ]
      }
    },
    {
      "type": "Feature",
      "id": "way/1036968045",
      "properties": {
        "timestamp": "2022-03-03T20:27:10Z",
        "version": 1,
        "changeset": 118069672,
        "addr:city": "Araguaína",
        "addr:housenumber": "329",
        "addr:postcode": "77827-160",
        "addr:street": "Rua das Jaqueiras",
        "addr:suburb": "Loteamento Araguaína Sul",
        "amenity": "school",
        "fee": "no",
        "grades": "1-9",
        "inep": "17005744",
        "name": "Escola Municipal Dr. Simão Kossobutzki",
        "operator": "Secretaria da Educação do Estado do Tocantins",
        "operator:type": "public",
        "phone": "+55 63 3414-1160",
        "wheelchair": "yes",
        "zone": "Urbana",
        "id": "way/1036968045"
      },
      "geometry": {
        "type": "Polygon",
        "coordinates": [
          [
            [
              -48.19351,
              -7.1887694
            ],
            [
              -48.1931371,
              -7.1891814
            ],
            [
              -48.1927674,
              -7.1888521
            ],
            [
              -48.1931403,
              -7.1884401
            ],
            [
              -48.19351,
              -7.1887694
            ]
          ]
        ]
      }
    },
    {
      "type": "Feature",
      "id": "way/1036968107",
      "properties": {
        "timestamp": "2022-03-03T20:28:00Z",
        "version": 1,
        "changeset": 118069706,
        "addr:city": "Araguaína",
        "addr:housenumber": "527",
        "addr:postcode": "77807-060",
        "addr:street": "Rua Humberto Campos",
        "addr:suburb": "Bairro São joão",
        "amenity": "school",
        "fee": "no",
        "grades": "1-9",
        "inep": "17006279",
        "internet_access": "yes",
        "name": "Escola Paroquial Luiz Augusto",
        "operator": "Secretaria da Educação do Estado do Tocantins",
        "operator:type": "public",
        "phone": "+55 63 3412-1300",
        "wheelchair": "yes",
        "zone": "Urbana",
        "id": "way/1036968107"
      },
      "geometry": {
        "type": "Polygon",
        "coordinates": [
          [
            [
              -48.1981054,
              -7.1948655
            ],
            [
              -48.1982458,
              -7.1954051
            ],
            [
              -48.1977537,
              -7.1955311
            ],
            [
              -48.1976134,
              -7.1949914
            ],
            [
              -48.1981054,
              -7.1948655
            ]
          ]
        ]
      }
    },
    {
      "type": "Feature",
      "id": "way/1037348248",
      "properties": {
        "timestamp": "2022-03-05T14:32:47Z",
        "version": 1,
        "changeset": 118128479,
        "addr:city": "Araguaína",
        "addr:postcode": "77819-014",
        "addr:street": "Rua Professora Alcione",
        "addr:suburb": "Distrito de Novo Horizonte",
        "amenity": "school",
        "fee": "no",
        "grades": "1-9",
        "inep": "17041562",
        "name": "Escola Municipal Dom Cornélio",
        "operator": "Secretaria da Educação do Estado do Tocantins",
        "operator:type": "public",
        "phone": "+55 63 3523-1122",
        "wheelchair": "yes",
        "zone": "Urbana",
        "id": "way/1037348248"
      },
      "geometry": {
        "type": "Polygon",
        "coordinates": [
          [
            [
              -48.3442512,
              -7.1864413
            ],
            [
              -48.3438723,
              -7.1868707
            ],
            [
              -48.3434264,
              -7.1865611
            ],
            [
              -48.3437868,
              -7.1861778
            ],
            [
              -48.3438537,
              -7.1861649
            ],
            [
              -48.3442512,
              -7.1864413
            ]
          ]
        ]
      }
    },
    {
      "type": "Feature",
      "id": "way/1037348252",
      "properties": {
        "timestamp": "2022-03-05T14:32:47Z",
        "version": 1,
        "changeset": 118128479,
        "addr:city": "Araguaína",
        "addr:housenumber": "65",
        "addr:postcode": "77819-008",
        "addr:street": "Rua Anapólis",
        "addr:suburb": "Novo Horizonte",
        "amenity": "school",
        "fee": "no",
        "grades": "1-12",
        "inep": "17005400",
        "internet_access": "yes",
        "name": "Escola Estadual Manoel Gomes da Cunha",
        "operator": "Secretaria da Educação do Estado do Tocantins",
        "operator:type": "public",
        "phone": "+55 63 3523-1108",
        "wheelchair": "yes",
        "zone": "Urbana",
        "id": "way/1037348252"
      },
      "geometry": {
        "type": "Polygon",
        "coordinates": [
          [
            [
              -48.3398577,
              -7.1858455
            ],
            [
              -48.3401458,
              -7.1864834
            ],
            [
              -48.3398822,
              -7.1866007
            ],
            [
              -48.339594,
              -7.1859628
            ],
            [
              -48.3398577,
              -7.1858455
            ]
          ]
        ]
      }
    },
    {
      "type": "Feature",
      "id": "way/1037348588",
      "properties": {
        "timestamp": "2022-03-05T14:35:58Z",
        "version": 1,
        "changeset": 118128595,
        "addr:city": "Araguaína",
        "addr:postcode": "77819-222",
        "addr:street": "Rua 01",
        "addr:suburb": "Barra da Grota",
        "amenity": "school",
        "fee": "yes",
        "grades": "1-9",
        "inep": "17006147",
        "internet_access": "yes",
        "name": "Escola Municipal São Miguel",
        "operator": "Secretaria da Educação do Estado do Tocantins",
        "operator:type": "public",
        "phone": "+55 63 99270-2670",
        "wheelchair": "yes",
        "zone": "Urbana",
        "id": "way/1037348588"
      },
      "geometry": {
        "type": "Polygon",
        "coordinates": [
          [
            [
              -48.297625,
              -7.2082083
            ],
            [
              -48.297593,
              -7.2084192
            ],
            [
              -48.2972349,
              -7.2082912
            ],
            [
              -48.2973247,
              -7.2080977
            ],
            [
              -48.297625,
              -7.2082083
            ]
          ]
        ]
      }
    },
    {
      "type": "Feature",
      "id": "way/1037351880",
      "properties": {
        "timestamp": "2022-03-05T14:53:24Z",
        "version": 1,
        "changeset": 118129157,
        "addr:city": "Araguaína",
        "addr:housenumber": "222",
        "addr:postcode": "77814-290",
        "addr:street": "Rua Bandeirantes",
        "addr:suburb": "Loteamento de Fátima",
        "amenity": "school",
        "fee": "yes",
        "grades": "0-9",
        "inep": "17054966",
        "name": "Escola Infantil Passos Firmes",
        "operator": "Secretaria da Educação do Estado do Tocantins",
        "operator:type": "private",
        "phone": "+55 63 9248-4118",
        "wheelchair": "yes",
        "zone": "Urbana",
        "id": "way/1037351880"
      },
      "geometry": {
        "type": "Polygon",
        "coordinates": [
          [
            [
              -48.2518974,
              -7.2364318
            ],
            [
              -48.2519653,
              -7.2367011
            ],
            [
              -48.2516946,
              -7.2367683
            ],
            [
              -48.2516267,
              -7.236499
            ],
            [
              -48.2518974,
              -7.2364318
            ]
          ]
        ]
      }
    },
    {
      "type": "Feature",
      "id": "way/1037438056",
      "properties": {
        "timestamp": "2022-03-05T23:01:21Z",
        "version": 1,
        "changeset": 118143113,
        "addr:city": "Araguaína",
        "addr:housenumber": "225",
        "addr:postcode": "77825-792",
        "addr:street": "Rua Vianópolis",
        "addr:suburb": "Vila Norte",
        "amenity": "school",
        "fee": "no",
        "grades": "1-9",
        "inep": "17005485",
        "internet_access": "yes",
        "name": "Escola Estadual Vila Nova",
        "operator": "Secretaria da Educação do Estado do Tocantins",
        "operator:type": "public",
        "phone": "+55 63 3414-8822",
        "wheelchair": "yes",
        "zone": "Urbana",
        "id": "way/1037438056"
      },
      "geometry": {
        "type": "Polygon",
        "coordinates": [
          [
            [
              -48.1989491,
              -7.1598124
            ],
            [
              -48.198912,
              -7.1600914
            ],
            [
              -48.1986359,
              -7.1600552
            ],
            [
              -48.1986896,
              -7.1596514
            ],
            [
              -48.1988251,
              -7.1596692
            ],
            [
              -48.1988085,
              -7.159794
            ],
            [
              -48.1989491,
              -7.1598124
            ]
          ]
        ]
      }
    },
    {
      "type": "Feature",
      "id": "way/1037438881",
      "properties": {
        "timestamp": "2022-03-05T23:11:00Z",
        "version": 1,
        "changeset": 118143278,
        "addr:city": "Araguaína",
        "addr:housenumber": "366",
        "addr:postcode": "77825-010",
        "addr:street": "Avenida Contorno",
        "addr:suburb": "Vila Couto Magalhães",
        "amenity": "school",
        "fee": "no",
        "grades": "1-9",
        "inep": "17041481",
        "name": "Escola Paroquial São Vicente de Paula",
        "operator": "Secretaria da Educação do Estado do Tocantins",
        "operator:type": "public",
        "phone": "+55 63 3414-0823",
        "wheelchair": "yes",
        "zone": "Urbana",
        "id": "way/1037438881"
      },
      "geometry": {
        "type": "Polygon",
        "coordinates": [
          [
            [
              -48.2055001,
              -7.1644967
            ],
            [
              -48.2055155,
              -7.1648523
            ],
            [
              -48.2050635,
              -7.1648716
            ],
            [
              -48.205048,
              -7.164516
            ],
            [
              -48.2055001,
              -7.1644967
            ]
          ]
        ]
      }
    },
    {
      "type": "Feature",
      "id": "way/1037440107",
      "properties": {
        "timestamp": "2022-03-05T23:24:52Z",
        "version": 1,
        "changeset": 118143517,
        "addr:city": "Araguaina",
        "addr:housenumber": "175",
        "addr:postcode": "77824-170",
        "addr:street": "Rua N",
        "addr:suburb": "Loteamento São Luiz",
        "amenity": "school",
        "fee": "no",
        "grades": "1-9",
        "inep": "17005582",
        "internet_access": "yes",
        "name": "Escola Municipal Benedito Canuto Braga",
        "operator": "Secretaria da Educação do Estado do Tocantins",
        "operator:type": "public",
        "phone": "+55 63 3414-7459",
        "wheelchair": "yes",
        "zone": "Urbana",
        "id": "way/1037440107"
      },
      "geometry": {
        "type": "Polygon",
        "coordinates": [
          [
            [
              -48.2068794,
              -7.1766605
            ],
            [
              -48.2064592,
              -7.1769988
            ],
            [
              -48.2062801,
              -7.1767798
            ],
            [
              -48.2067002,
              -7.1764415
            ],
            [
              -48.2068794,
              -7.1766605
            ]
          ]
        ]
      }
    },
    {
      "type": "Feature",
      "id": "way/1037440282",
      "properties": {
        "timestamp": "2022-03-05T23:25:44Z",
        "version": 1,
        "changeset": 118143527,
        "addr:city": "Araguaína",
        "addr:housenumber": "296",
        "addr:postcode": "77824-140",
        "addr:street": "Rua Ademar Vicente Ferreira",
        "addr:suburb": "Loteamento Panorama",
        "amenity": "school",
        "fee": "no",
        "grades": "1-12",
        "inep": "17005370",
        "internet_access": "yes",
        "name": "Escola Estadual Jorge Amado",
        "operator": "Secretaria da Educação do Estado do Tocantins",
        "operator:type": "public",
        "phone": "+55 63 3414-1223",
        "wheelchair": "yes",
        "zone": "Urbana",
        "id": "way/1037440282"
      },
      "geometry": {
        "type": "Polygon",
        "coordinates": [
          [
            [
              -48.2074263,
              -7.1811708
            ],
            [
              -48.2072877,
              -7.1817662
            ],
            [
              -48.2071558,
              -7.181736
            ],
            [
              -48.2069634,
              -7.1810648
            ],
            [
              -48.2074263,
              -7.1811708
            ]
          ]
        ]
      }
    },
    {
      "type": "Feature",
      "id": "way/1037440334",
      "properties": {
        "timestamp": "2022-03-05T23:26:32Z",
        "version": 1,
        "changeset": 118143531,
        "addr:city": "Araguaína",
        "addr:housenumber": "140",
        "addr:postcode": "77804-030",
        "addr:street": "Rua 25 de Dezembro",
        "addr:suburb": "Centro",
        "amenity": "school",
        "fee": "no",
        "grades": "1-9",
        "inep": "17005426",
        "internet_access": "yes",
        "name": "Escola Estadual Modelo",
        "operator": "Secretaria da Educação do Estado do Tocantins",
        "operator:type": "public",
        "phone": "+55 63 3414-7911",
        "wheelchair": "yes",
        "zone": "Urbana",
        "id": "way/1037440334"
      },
      "geometry": {
        "type": "Polygon",
        "coordinates": [
          [
            [
              -48.2091181,
              -7.1894748
            ],
            [
              -48.2092101,
              -7.1898036
            ],
            [
              -48.2084182,
              -7.1900217
            ],
            [
              -48.2083262,
              -7.189693
            ],
            [
              -48.2091181,
              -7.1894748
            ]
          ]
        ]
      }
    },
    {
      "type": "Feature",
      "id": "way/1037440446",
      "properties": {
        "timestamp": "2022-03-05T23:27:44Z",
        "version": 1,
        "changeset": 118143549,
        "addr:city": "Araguaína",
        "addr:housenumber": "51",
        "addr:postcode": "77805-040",
        "addr:street": "Rua Rodoviária",
        "addr:suburb": "Centro",
        "amenity": "school",
        "fee": "yes",
        "grades": "0-9",
        "inep": "17005132",
        "name": "Escola Creche Mãe de Deus",
        "operator": "Secretaria da Educação do Estado do Tocantins",
        "operator:type": "private",
        "phone": "+55 63 3421-2074",
        "wheelchair": "yes",
        "zone": "Urbana",
        "id": "way/1037440446"
      },
      "geometry": {
        "type": "Polygon",
        "coordinates": [
          [
            [
              -48.2068521,
              -7.1897534
            ],
            [
              -48.2069313,
              -7.1901188
            ],
            [
              -48.2064786,
              -7.1902152
            ],
            [
              -48.2063995,
              -7.1898499
            ],
            [
              -48.2068521,
              -7.1897534
            ]
          ]
        ]
      }
    },
    {
      "type": "Feature",
      "id": "way/1037440447",
      "properties": {
        "timestamp": "2022-03-05T23:28:11Z",
        "version": 1,
        "changeset": 118143552,
        "addr:city": "Araguaína",
        "addr:housenumber": "557",
        "addr:postcode": "77804-090",
        "addr:street": "Rua Santa Cruz",
        "addr:suburb": "Centro",
        "amenity": "school",
        "fee": "yes",
        "grades": "0-12",
        "inep": "17005078",
        "internet_access": "yes",
        "name": "Colégio Santa Cruz",
        "operator": "Secretaria da Educação do Estado do Tocantins",
        "operator:type": "private",
        "phone": "+55 63 3413-0500",
        "wheelchair": "yes",
        "zone": "Urbana",
        "id": "way/1037440447"
      },
      "geometry": {
        "type": "Polygon",
        "coordinates": [
          [
            [
              -48.2052324,
              -7.1906502
            ],
            [
              -48.2060477,
              -7.1904256
            ],
            [
              -48.2062572,
              -7.1911742
            ],
            [
              -48.2054419,
              -7.1913988
            ],
            [
              -48.2052324,
              -7.1906502
            ]
          ]
        ]
      }
    },
    {
      "type": "Feature",
      "id": "way/1037440494",
      "properties": {
        "timestamp": "2022-03-05T23:28:48Z",
        "version": 1,
        "changeset": 118143560,
        "addr:city": "Araguaína",
        "addr:housenumber": "284",
        "addr:postcode": "77805-120",
        "addr:street": "Rua Adevaldo de Moraes",
        "addr:suburb": "Centro",
        "amenity": "school",
        "fee": "no",
        "grades": "1-12",
        "inep": "17004993",
        "internet_access": "yes",
        "name": "Colégio Estadual Guilherme Dourado",
        "operator": "Secretaria da Educação do Estado do Tocantins",
        "operator:type": "public",
        "phone": "+55 63 3421-3112",
        "wheelchair": "yes",
        "zone": "Urbana",
        "id": "way/1037440494"
      },
      "geometry": {
        "type": "Polygon",
        "coordinates": [
          [
            [
              -48.2027455,
              -7.1906142
            ],
            [
              -48.203306,
              -7.190465
            ],
            [
              -48.2034315,
              -7.1909289
            ],
            [
              -48.2028709,
              -7.1910781
            ],
            [
              -48.2027455,
              -7.1906142
            ]
          ]
        ]
      }
    },
    {
      "type": "Feature",
      "id": "way/1037440749",
      "properties": {
        "timestamp": "2022-03-05T23:31:11Z",
        "version": 1,
        "changeset": 118143601,
        "addr:city": "Araguaína",
        "addr:housenumber": "488",
        "addr:postcode": "77803-060",
        "addr:street": "Rua Sadoc Correa",
        "addr:suburb": "Centro",
        "amenity": "school",
        "fee": "no",
        "grades": "10-12",
        "inep": "17004950",
        "internet_access": "yes",
        "name": "Centro de Ensino Médio Paulo Freire",
        "operator": "Secretaria da Educação do Estado do Tocantins",
        "operator:type": "public",
        "phone": "+55 63 3421-1705",
        "wheelchair": "yes",
        "zone": "Urbana",
        "id": "way/1037440749"
      },
      "geometry": {
        "type": "Polygon",
        "coordinates": [
          [
            [
              -48.2097856,
              -7.1943418
            ],
            [
              -48.2099836,
              -7.1949684
            ],
            [
              -48.2097237,
              -7.1950492
            ],
            [
              -48.2095258,
              -7.1944226
            ],
            [
              -48.2097856,
              -7.1943418
            ]
          ]
        ]
      }
    },
    {
      "type": "Feature",
      "id": "way/1037441881",
      "properties": {
        "timestamp": "2022-03-05T23:33:44Z",
        "version": 1,
        "changeset": 118143629,
        "addr:city": "Araguaína",
        "addr:housenumber": "1347",
        "addr:postcode": "77813-520",
        "addr:street": "Av. Emanuel",
        "addr:suburb": "Bairro Senador",
        "amenity": "school",
        "fee": "yes",
        "inep": "17006406",
        "internet_access": "yes",
        "name": "Centro de Educação e Tecnologia Antônio Fábio Ribeiro SENAI",
        "operator": "Secretaria da Educação do Estado do Tocantins",
        "operator:type": "private",
        "phone": "+55 63 3549-2532",
        "wheelchair": "yes",
        "zone": "Urbana",
        "id": "way/1037441881"
      },
      "geometry": {
        "type": "Polygon",
        "coordinates": [
          [
            [
              -48.2079744,
              -7.1972119
            ],
            [
              -48.2079558,
              -7.199412
            ],
            [
              -48.2074011,
              -7.1994074
            ],
            [
              -48.2074202,
              -7.1972072
            ],
            [
              -48.2079744,
              -7.1972119
            ]
          ]
        ]
      }
    },
    {
      "type": "Feature",
      "id": "way/1037442437",
      "properties": {
        "timestamp": "2022-03-05T23:37:12Z",
        "version": 1,
        "changeset": 118143688,
        "addr:city": "Araguaína",
        "addr:housenumber": "862",
        "addr:postcode": "77813-450",
        "addr:street": "Avenida Dom Bosco quadra 82 lote 04",
        "addr:suburb": "Bairro Senador",
        "amenity": "school",
        "fee": "yes",
        "grades": "0-9",
        "inep": "17055822",
        "internet_access": "yes",
        "name": "Instituto Carlos Chagas de Educação Tecnológica",
        "operator": "Secretaria da Educação do Estado do Tocantins",
        "operator:type": "private",
        "phone": "+55 63 3415-2184",
        "wheelchair": "yes",
        "zone": "Urbana",
        "id": "way/1037442437"
      },
      "geometry": {
        "type": "Polygon",
        "coordinates": [
          [
            [
              -48.2134571,
              -7.1964412
            ],
            [
              -48.2135002,
              -7.1967475
            ],
            [
              -48.2129891,
              -7.1967789
            ],
            [
              -48.2129258,
              -7.1964964
            ],
            [
              -48.2134571,
              -7.1964412
            ]
          ]
        ]
      }
    },
    {
      "type": "Feature",
      "id": "way/1037442461",
      "properties": {
        "timestamp": "2022-03-05T23:37:35Z",
        "version": 1,
        "changeset": 118143695,
        "addr:city": "Araguaína",
        "addr:housenumber": "148",
        "addr:postcode": "77813-265",
        "addr:street": "Rua Barbacena",
        "addr:suburb": "Jardim Filadélfia",
        "amenity": "school",
        "fee": "no",
        "grades": "1-9",
        "inep": "17005027",
        "name": "Escola Estadual Girassol de Tempo Integral Sancha Ferreira",
        "operator": "Secretaria da Educação do Estado do Tocantins",
        "operator:type": "public",
        "phone": "+55 63 3414-7465",
        "wheelchair": "yes",
        "zone": "Urbana",
        "id": "way/1037442461"
      },
      "geometry": {
        "type": "Polygon",
        "coordinates": [
          [
            [
              -48.217134,
              -7.2031094
            ],
            [
              -48.216957,
              -7.2038066
            ],
            [
              -48.2165118,
              -7.2039077
            ],
            [
              -48.2164769,
              -7.2034793
            ],
            [
              -48.2167907,
              -7.203434
            ],
            [
              -48.2169838,
              -7.2030881
            ],
            [
              -48.217134,
              -7.2031094
            ]
          ]
        ]
      }
    },
    {
      "type": "Feature",
      "id": "way/1037442485",
      "properties": {
        "timestamp": "2022-03-05T23:37:56Z",
        "version": 1,
        "changeset": 118143701,
        "addr:city": "Araguaína",
        "addr:housenumber": "49",
        "addr:postcode": "77817-270",
        "addr:street": "Rua São João",
        "addr:suburb": "Setor Jardim das Palmeiras do Norte",
        "amenity": "school",
        "fee": "no",
        "grades": "1-9",
        "inep": "17005949",
        "name": "Escola Municipal Olavo Bilac",
        "operator": "Secretaria da Educação do Estado do Tocantins",
        "operator:type": "public",
        "phone": "+55 63 3414-2590",
        "wheelchair": "yes",
        "zone": "Urbana",
        "id": "way/1037442485"
      },
      "geometry": {
        "type": "Polygon",
        "coordinates": [
          [
            [
              -48.2247575,
              -7.1988852
            ],
            [
              -48.2248411,
              -7.1992003
            ],
            [
              -48.2239773,
              -7.1994565
            ],
            [
              -48.2240442,
              -7.1991137
            ],
            [
              -48.2247575,
              -7.1988852
            ]
          ]
        ]
      }
    },
    {
      "type": "Feature",
      "id": "way/1037442502",
      "properties": {
        "timestamp": "2022-03-05T23:38:21Z",
        "version": 1,
        "changeset": 118143708,
        "addr:city": "Araguaína",
        "addr:housenumber": "560",
        "addr:postcode": "77817-260",
        "addr:street": "Rua São Pedro",
        "addr:suburb": "Loteamento São Miguel",
        "amenity": "school",
        "fee": "no",
        "grades": "1-9",
        "inep": "17005353",
        "internet_access": "yes",
        "name": "Escola Estadual João Guilherme Leite Kunze",
        "operator": "Secretaria da Educação do Estado do Tocantins",
        "operator:type": "public",
        "phone": "+55 63 3412-5448",
        "wheelchair": "yes",
        "zone": "Urbana",
        "id": "way/1037442502"
      },
      "geometry": {
        "type": "Polygon",
        "coordinates": [
          [
            [
              -48.2309025,
              -7.1981796
            ],
            [
              -48.2310623,
              -7.1987097
            ],
            [
              -48.2306187,
              -7.1988414
            ],
            [
              -48.2304588,
              -7.1983113
            ],
            [
              -48.2309025,
              -7.1981796
            ]
          ]
        ]
      }
    },
    {
      "type": "Feature",
      "id": "way/1037442549",
      "properties": {
        "timestamp": "2022-03-05T23:39:31Z",
        "version": 1,
        "changeset": 118143723,
        "addr:city": "Araguaína",
        "addr:postcode": "77817-210",
        "addr:street": "Avenida São Judas Tadeu",
        "addr:suburb": "São Miguel",
        "amenity": "school",
        "name": "Centro Educacional Infantil Municipal Boanice Botelho Kalil",
        "phone": "+55 63 3414 1203",
        "id": "way/1037442549"
      },
      "geometry": {
        "type": "Polygon",
        "coordinates": [
          [
            [
              -48.2310878,
              -7.2022573
            ],
            [
              -48.2309038,
              -7.201697
            ],
            [
              -48.2312996,
              -7.2015692
            ],
            [
              -48.2314835,
              -7.2021295
            ],
            [
              -48.2310878,
              -7.2022573
            ]
          ]
        ]
      }
    },
    {
      "type": "Feature",
      "id": "way/1037442791",
      "properties": {
        "timestamp": "2022-03-05T23:42:07Z",
        "version": 1,
        "changeset": 118143758,
        "addr:city": "Araguaína",
        "addr:housenumber": "105",
        "addr:postcode": "77816-050",
        "addr:street": "Rua Tomaz Batista",
        "addr:suburb": "Setor JK",
        "amenity": "school",
        "fee": "no",
        "grades": "10-12",
        "inep": "17005019",
        "name": "Colégio Estadual Rui Barbosa",
        "operator": "Secretaria da Educação do Estado do Tocantins",
        "operator:type": "public",
        "phone": "+55 63 3413-2342",
        "wheelchair": "yes",
        "zone": "Urbana",
        "id": "way/1037442791"
      },
      "geometry": {
        "type": "Polygon",
        "coordinates": [
          [
            [
              -48.2396635,
              -7.2061153
            ],
            [
              -48.2397929,
              -7.2064015
            ],
            [
              -48.2397751,
              -7.2064764
            ],
            [
              -48.2392909,
              -7.2067034
            ],
            [
              -48.2392209,
              -7.2066847
            ],
            [
              -48.2390808,
              -7.2063746
            ],
            [
              -48.2396635,
              -7.2061153
            ]
          ]
        ]
      }
    },
    {
      "type": "Feature",
      "id": "way/1037442792",
      "properties": {
        "timestamp": "2022-03-05T23:42:27Z",
        "version": 1,
        "changeset": 118143763,
        "addr:city": "Araguaína",
        "addr:housenumber": "727",
        "addr:postcode": "77816-190",
        "addr:street": "Avenida Lontra",
        "addr:suburb": "Setor JK",
        "amenity": "school",
        "fee": "no",
        "grades": "1-9",
        "inep": "17005248",
        "internet_access": "yes",
        "name": "Colégio Estadual Ademar Vicente Ferreira Sobrinho",
        "operator": "Secretaria da Educação do Estado do Tocantins",
        "operator:type": "public",
        "phone": "+55 63 3413-1989",
        "wheelchair": "yes",
        "zone": "Urbana",
        "id": "way/1037442792"
      },
      "geometry": {
        "type": "Polygon",
        "coordinates": [
          [
            [
              -48.2400301,
              -7.2019231
            ],
            [
              -48.2402507,
              -7.2023925
            ],
            [
              -48.2396864,
              -7.2026536
            ],
            [
              -48.2394657,
              -7.2021843
            ],
            [
              -48.2400301,
              -7.2019231
            ]
          ]
        ]
      }
    },
    {
      "type": "Feature",
      "id": "way/1037442807",
      "properties": {
        "timestamp": "2022-03-05T23:43:57Z",
        "version": 1,
        "changeset": 118143782,
        "addr:city": "Araguaína",
        "addr:housenumber": "426",
        "addr:postcode": "77818-530",
        "addr:street": "Avenida José de Brito Soares",
        "addr:suburb": "Setor Rodoviário",
        "amenity": "school",
        "fee": "no",
        "grades": "1-12",
        "inep": "17005299",
        "internet_access": "yes",
        "name": "Escola Estadual Girassol de Tempo Integral Deputado Federal José Alves de Assis",
        "operator": "Secretaria da Educação do Estado do Tocantinsp",
        "operator:type": "public",
        "phone": "+55 63 3413-3488",
        "wheelchair": "yes",
        "zone": "Urbana",
        "id": "way/1037442807"
      },
      "geometry": {
        "type": "Polygon",
        "coordinates": [
          [
            [
              -48.2225377,
              -7.1920091
            ],
            [
              -48.2227055,
              -7.1924677
            ],
            [
              -48.221854,
              -7.1927745
            ],
            [
              -48.2216861,
              -7.1923157
            ],
            [
              -48.2225377,
              -7.1920091
            ]
          ]
        ]
      }
    },
    {
      "type": "Feature",
      "id": "way/1037442891",
      "properties": {
        "timestamp": "2022-03-05T23:44:51Z",
        "version": 1,
        "changeset": 118143795,
        "addr:city": "Araguaína",
        "addr:housenumber": "522",
        "addr:postcode": "77823-070",
        "addr:street": "Rua Treze de Setembro",
        "addr:suburb": "Vila Rosário",
        "amenity": "school",
        "fee": "no",
        "grades": "1-9",
        "inep": "17005396",
        "internet_access": "yes",
        "name": "Escola Estadual Marechal Rondon",
        "operator": "Secretaria da Educação do Estado do Tocantins",
        "operator:type": "public",
        "phone": "+55 63 3414-5242",
        "wheelchair": "yes",
        "zone": "Urbana",
        "id": "way/1037442891"
      },
      "geometry": {
        "type": "Polygon",
        "coordinates": [
          [
            [
              -48.2154593,
              -7.1855503
            ],
            [
              -48.2156389,
              -7.1860404
            ],
            [
              -48.215408,
              -7.1862202
            ],
            [
              -48.2152797,
              -7.1860388
            ],
            [
              -48.2150503,
              -7.1861247
            ],
            [
              -48.2148819,
              -7.1856012
            ],
            [
              -48.2153246,
              -7.1854676
            ],
            [
              -48.2154593,
              -7.1855503
            ]
          ]
        ]
      }
    },
    {
      "type": "Feature",
      "id": "way/1037442894",
      "properties": {
        "timestamp": "2022-03-05T23:45:31Z",
        "version": 1,
        "changeset": 118143800,
        "addr:city": "Araguaína",
        "addr:housenumber": "130",
        "addr:postcode": "77823-150",
        "addr:street": "Rua Treze de Abril",
        "addr:suburb": "Vila Rosário",
        "amenity": "school",
        "fee": "no",
        "grades": "1-9",
        "inep": "17005566",
        "name": "Escola Municipal Aurélio Buarque de Holanda",
        "operator": "Secretaria da Educação do Estado do Tocantins",
        "operator:type": "public",
        "phone": "+55 63 3414-7496",
        "wheelchair": "no",
        "zone": "Urbana",
        "id": "way/1037442894"
      },
      "geometry": {
        "type": "Polygon",
        "coordinates": [
          [
            [
              -48.2154589,
              -7.1839208
            ],
            [
              -48.2154039,
              -7.1839778
            ],
            [
              -48.2153669,
              -7.1841652
            ],
            [
              -48.2153149,
              -7.184219
            ],
            [
              -48.215063,
              -7.1839797
            ],
            [
              -48.2152821,
              -7.1837528
            ],
            [
              -48.2154589,
              -7.1839208
            ]
          ]
        ]
      }
    },
    {
      "type": "Feature",
      "id": "way/1037443320",
      "properties": {
        "timestamp": "2022-03-05T23:49:41Z",
        "version": 1,
        "changeset": 118143862,
        "addr:city": "Araguaína",
        "addr:housenumber": "476",
        "addr:postcode": "77824-545",
        "addr:street": "Rua Cantinho do Vovô",
        "addr:suburb": "Vila Santiago",
        "amenity": "school",
        "fee": "no",
        "grades": "1-9",
        "inep": "17006260",
        "name": "Escola Municipal Zeca Barros",
        "operator": "Secretaria da Educação do Estado do Tocantins",
        "operator:type": "public",
        "phone": "+55 63 3421-3884",
        "wheelchair": "yes",
        "zone": "Urbana",
        "id": "way/1037443320"
      },
      "geometry": {
        "type": "Polygon",
        "coordinates": [
          [
            [
              -48.1982997,
              -7.175017
            ],
            [
              -48.1982664,
              -7.1750831
            ],
            [
              -48.1978022,
              -7.1752661
            ],
            [
              -48.19771,
              -7.175309
            ],
            [
              -48.1975589,
              -7.1751415
            ],
            [
              -48.1980054,
              -7.1747272
            ],
            [
              -48.1982997,
              -7.175017
            ]
          ]
        ]
      }
    },
    {
      "type": "Feature",
      "id": "way/1037445358",
      "properties": {
        "timestamp": "2022-03-05T23:53:25Z",
        "version": 1,
        "changeset": 118143918,
        "addr:city": "Araguaína",
        "addr:housenumber": "377",
        "addr:postcode": "77809-320",
        "addr:street": "Avenida dos Engenheiros",
        "addr:suburb": "Setor Jardim Paulista",
        "amenity": "school",
        "fee": "no",
        "grades": "1-12",
        "inep": "17052068",
        "internet_access": "yes",
        "name": "Colégio Estadual Jardim Paulista",
        "operator": "Secretaria da Educação do Estado do Tocantins",
        "operator:type": "public",
        "phone": "+55 63 3412-5395",
        "wheelchair": "yes",
        "zone": "Urbana",
        "id": "way/1037445358"
      },
      "geometry": {
        "type": "Polygon",
        "coordinates": [
          [
            [
              -48.2020136,
              -7.2144723
            ],
            [
              -48.2022439,
              -7.2157715
            ],
            [
              -48.2022123,
              -7.2158157
            ],
            [
              -48.2002953,
              -7.2161548
            ],
            [
              -48.2002433,
              -7.2161216
            ],
            [
              -48.2001504,
              -7.2147948
            ],
            [
              -48.200182,
              -7.2147432
            ],
            [
              -48.2019318,
              -7.2144225
            ],
            [
              -48.2020136,
              -7.2144723
            ]
          ]
        ]
      }
    },
    {
      "type": "Feature",
      "id": "way/1037445685",
      "properties": {
        "timestamp": "2022-06-27T13:50:18Z",
        "version": 2,
        "changeset": 122912126,
        "addr:city": "Araguaína",
        "addr:housenumber": "1715",
        "addr:postcode": "77809-030",
        "addr:street": "Avenida Tiradentes",
        "addr:suburb": "Setor Carajás",
        "amenity": "school",
        "fee": "no",
        "grades": "1-9",
        "inep": "17005361",
        "name": "Escola Municipal Joaquim de Brito Paranaguá",
        "operator": "Secretaria da Educação do Estado do Tocantins",
        "operator:type": "public",
        "phone": "+55 63 3414 2743",
        "wheelchair": "yes",
        "zone": "Urbana",
        "id": "way/1037445685"
      },
      "geometry": {
        "type": "Polygon",
        "coordinates": [
          [
            [
              -48.1980858,
              -7.2085326
            ],
            [
              -48.1980248,
              -7.2088848
            ],
            [
              -48.1975945,
              -7.2088232
            ],
            [
              -48.1976268,
              -7.2086382
            ],
            [
              -48.1980858,
              -7.2085326
            ]
          ]
        ]
      }
    },
    {
      "type": "Feature",
      "id": "way/1037445710",
      "properties": {
        "timestamp": "2022-03-05T23:55:32Z",
        "version": 1,
        "changeset": 118143952,
        "addr:city": "Araguaína",
        "addr:housenumber": "252",
        "addr:postcode": "77808-582",
        "addr:street": "Rua Norte Sul",
        "addr:suburb": "Setor Tiuba",
        "amenity": "school",
        "fee": "no",
        "grades": "1-9",
        "inep": "17006244",
        "internet_access": "yes",
        "name": "Escola Municipal Vereador Raimundo Falcão Coelho",
        "operator": "Secretaria da Educação do Estado do Tocantins",
        "operator:type": "public",
        "phone": "+55 63 3412-3882",
        "wheelchair": "yes",
        "zone": "Urbana",
        "id": "way/1037445710"
      },
      "geometry": {
        "type": "Polygon",
        "coordinates": [
          [
            [
              -48.1948489,
              -7.2154548
            ],
            [
              -48.1946778,
              -7.2157086
            ],
            [
              -48.1944641,
              -7.2155669
            ],
            [
              -48.1946352,
              -7.2153131
            ],
            [
              -48.1948489,
              -7.2154548
            ]
          ]
        ]
      }
    },
    {
      "type": "Feature",
      "id": "way/1073874888",
      "properties": {
        "timestamp": "2022-06-27T13:05:36Z",
        "version": 1,
        "changeset": 122910224,
        "addr:city": "Araguaína",
        "addr:housenumber": "1347",
        "addr:postcode": "77813-825",
        "addr:street": "Avenida Dom Emanuel",
        "addr:suburb": "Bairro Senador",
        "amenity": "school",
        "fee": "yes",
        "grades": "1-12",
        "inep": "17072026",
        "internet_access": "yes",
        "name": "Escola SESI Araguaína - Centro de Atividade do Trabalhador",
        "operator": "Secretaria da Educação do Estado do Tocantins;FIETO",
        "operator:type": "private",
        "phone": "+55 63 3412 7476",
        "website": "http://www.sistemafieto.com.br/arquivos/telefones/",
        "wheelchair": "yes",
        "zone": "Urbana",
        "id": "way/1073874888"
      },
      "geometry": {
        "type": "Polygon",
        "coordinates": [
          [
            [
              -48.2080548,
              -7.1997458
            ],
            [
              -48.208036,
              -7.2011242
            ],
            [
              -48.2074083,
              -7.2011242
            ],
            [
              -48.2074083,
              -7.1997485
            ],
            [
              -48.2080548,
              -7.1997458
            ]
          ]
        ]
      }
    },
    {
      "type": "Feature",
      "id": "node/9063110618",
      "properties": {
        "timestamp": "2021-09-15T00:17:15Z",
        "version": 4,
        "changeset": 111218414,
        "addr:city": "Araguaína",
        "addr:housenumber": "146",
        "addr:postcode": "77823-220",
        "addr:street": "Rua 07 esquina com rua 10",
        "addr:suburb": "Dom Orione",
        "amenity": "school",
        "fee": "no",
        "grades": "0-9",
        "inep": "17046998",
        "internet_access": "yes",
        "name": "Centro  de Educação Infantil Dona Regina Siqueira Campos",
        "operator": "Secretaria da Educação do Estado do Tocantins",
        "operator:type": "public",
        "phone": "+55 63  3415-2746",
        "wheelchair": "yes",
        "zone": "Urbana",
        "id": "node/9063110618"
      },
      "geometry": {
        "type": "Point",
        "coordinates": [
          -48.2173404,
          -7.1813539
        ]
      }
    },
    {
      "type": "Feature",
      "id": "node/9068730053",
      "properties": {
        "timestamp": "2021-09-12T01:40:56Z",
        "version": 5,
        "changeset": 111080884,
        "addr:city": "Araguaína",
        "addr:housenumber": "1254",
        "addr:postcode": "77813-520",
        "addr:street": "Av. Emanoel",
        "addr:suburb": "Senador",
        "amenity": "school",
        "fee": "yes",
        "grades": "0-9",
        "inep": "17050596",
        "internet_access": "yes",
        "name": "Centro Educacional Infantil",
        "operator": "Secretaria da Educação do Estado do Tocantins",
        "operator:type": "private",
        "phone": "+55 63 3421-2563",
        "wheelchair": "yes",
        "zone": "Urbana",
        "id": "node/9068730053"
      },
      "geometry": {
        "type": "Point",
        "coordinates": [
          -48.2082976,
          -7.1973483
        ]
      }
    },
    {
      "type": "Feature",
      "id": "node/9068979042",
      "properties": {
        "timestamp": "2021-09-12T03:20:01Z",
        "version": 3,
        "changeset": 111081746,
        "addr:city": "Araguaína",
        "addr:housenumber": "131",
        "addr:postcode": "77807-289",
        "addr:street": "Rua 20",
        "addr:suburb": "Bairro São João",
        "amenity": "school",
        "fee": "yes",
        "grades": "0-9",
        "inep": "17071607",
        "internet_access": "yes",
        "name": "Escolinha Caminho Feliz",
        "operator": "Secretaria da Educação do Estado do Tocantins",
        "operator:type": "public",
        "phone": "+55 63 99204-1837",
        "wheelchair": "yes",
        "zone": "Urbana",
        "id": "node/9068979042"
      },
      "geometry": {
        "type": "Point",
        "coordinates": [
          -48.1915774,
          -7.1967771
        ]
      }
    },
    {
      "type": "Feature",
      "id": "node/9069041886",
      "properties": {
        "timestamp": "2021-09-12T03:29:51Z",
        "version": 2,
        "changeset": 111081810,
        "addr:city": "Araguaína",
        "addr:housenumber": "393",
        "addr:postcode": "77809-100",
        "addr:street": "Rua Rio Lontra",
        "addr:suburb": "Setor Urbano",
        "amenity": "school",
        "fee": "no",
        "grades": "1-9",
        "inep": "17005647",
        "name": "Escola Municipal Casemiro Ferreira Soares",
        "operator": "Secretaria da Educação do Estado do Tocantins",
        "operator:type": "public",
        "phone": "+55 63 3414-7460",
        "wheelchair": "yes",
        "zone": "Urbana",
        "id": "node/9069041886"
      },
      "geometry": {
        "type": "Point",
        "coordinates": [
          -48.205541,
          -7.2067188
        ]
      }
    },
    {
      "type": "Feature",
      "id": "node/9074911586",
      "properties": {
        "timestamp": "2021-09-12T04:44:14Z",
        "version": 2,
        "changeset": 111082464,
        "addr:city": "Araguaína",
        "addr:housenumber": "54",
        "addr:postcode": "77823-230",
        "addr:street": "Rua 08",
        "addr:suburb": "Dom Orione",
        "amenity": "school",
        "fee": "no",
        "grades": "0-9",
        "inep": "17119812",
        "name": "Centro Educacional Infantil Municipal Professora Maria de Fátima Santos Oliveira",
        "operator": "Secretaria da Educação do Estado do Tocantins",
        "operator:type": "public",
        "phone": "+55 63  3415-4191",
        "wheelchair": "yes",
        "zone": "Urbana",
        "id": "node/9074911586"
      },
      "geometry": {
        "type": "Point",
        "coordinates": [
          -48.2162677,
          -7.1820092
        ]
      }
    },
    {
      "type": "Feature",
      "id": "node/9078116264",
      "properties": {
        "timestamp": "2021-09-09T23:18:11Z",
        "version": 1,
        "changeset": 110997951,
        "addr:city": "Araguaína",
        "addr:housenumber": "170",
        "addr:postcode": "77813-450",
        "addr:street": "Rua Ipameri",
        "addr:suburb": "Loteamento Dona Nelcia",
        "amenity": "school",
        "fee": "yes",
        "grades": "0-12",
        "inep": "17041830",
        "internet_access": "yes",
        "name": "Colégio Adventista de Araguaína",
        "operator": "Secretaria da Educação do Estado do Tocantins",
        "operator:type": "private",
        "phone": "+55 63 3414-1053",
        "wheelchair": "yes",
        "zone": "Urbana",
        "id": "node/9078116264"
      },
      "geometry": {
        "type": "Point",
        "coordinates": [
          -48.2115054,
          -7.1985121
        ]
      }
    },
    {
      "type": "Feature",
      "id": "node/9089438937",
      "properties": {
        "timestamp": "2021-09-14T23:48:34Z",
        "version": 2,
        "changeset": 111218101,
        "addr:city": "Araguaína",
        "addr:housenumber": "1697",
        "addr:postcode": "77813-520",
        "addr:street": "Av. Dom Emanuel quadra 51 lote 7A",
        "addr:suburb": "Bairro Senador",
        "amenity": "school",
        "fee": "yes",
        "grades": "1-9",
        "inep": "17056373",
        "name": "Colégio Gradual",
        "operator": "Secretaria da Educação do Estado do Tocantins",
        "operator:type": "private",
        "phone": "+55 63 99257-3058",
        "wheelchair": "yes",
        "zone": "Urbana",
        "id": "node/9089438937"
      },
      "geometry": {
        "type": "Point",
        "coordinates": [
          -48.2078637,
          -7.201478
        ]
      }
    },
    {
      "type": "Feature",
      "id": "node/9092737824",
      "properties": {
        "timestamp": "2021-09-14T23:56:54Z",
        "version": 2,
        "changeset": 111218214,
        "addr:city": "Araguaína",
        "addr:housenumber": "247",
        "addr:postcode": "77823-015",
        "addr:street": "Rua Toto Soares quadra 21 lote 03",
        "addr:suburb": "Centro",
        "amenity": "school",
        "fee": "yes",
        "grades": "1-12",
        "inep": "17055741",
        "name": "Colégio Intelectus",
        "operator": "Secretaria da Educação do Estado do Tocantins",
        "operator:type": "private",
        "phone": "+55 63  3412-3538",
        "wheelchair": "yes",
        "zone": "Urbana",
        "id": "node/9092737824"
      },
      "geometry": {
        "type": "Point",
        "coordinates": [
          -48.2149437,
          -7.1889809
        ]
      }
    },
    {
      "type": "Feature",
      "id": "node/9092751085",
      "properties": {
        "timestamp": "2021-09-15T00:03:02Z",
        "version": 2,
        "changeset": 111218278,
        "addr:city": "Araguaína",
        "addr:housenumber": "1424",
        "addr:postcode": "77804-010",
        "addr:street": "Avenida Cônego João Lima",
        "addr:suburb": "Centro",
        "amenity": "school",
        "fee": "yes",
        "grades": "0-9",
        "inep": "17056489",
        "internet_access": "yes",
        "name": "Colégio Invictos",
        "operator": "Secretaria da Educação do Estado do Tocantins",
        "operator:type": "private",
        "phone": "+55 63 3415-2967",
        "wheelchair": "yes",
        "zone": "Urbana",
        "id": "node/9092751085"
      },
      "geometry": {
        "type": "Point",
        "coordinates": [
          -48.21533,
          -7.189247
        ]
      }
    },
    {
      "type": "Feature",
      "id": "node/9092757319",
      "properties": {
        "timestamp": "2021-09-14T23:40:23Z",
        "version": 1,
        "changeset": 111217993,
        "addr:city": "Araguaína",
        "addr:housenumber": "1025",
        "addr:postcode": "77803-080",
        "addr:street": "Rua Santa Cruz",
        "addr:suburb": "Centro",
        "amenity": "school",
        "fee": "yes",
        "grades": "0-9",
        "inep": "17056152",
        "name": "Colégio Objetivo",
        "operator": "Secretaria da Educação do Estado do Tocantins",
        "operator:type": "private",
        "phone": "+55 63 3421-2383",
        "wheelchair": "yes",
        "zone": "Urbana",
        "id": "node/9092757319"
      },
      "geometry": {
        "type": "Point",
        "coordinates": [
          -48.2077876,
          -7.1960567
        ]
      }
    },
    {
      "type": "Feature",
      "id": "node/9092810940",
      "properties": {
        "timestamp": "2021-09-15T00:45:47Z",
        "version": 1,
        "changeset": 111218691,
        "addr:city": "Araguaína",
        "addr:housenumber": "1281",
        "addr:postcode": "77816-192",
        "addr:street": "Av. Bernardo Sayâo",
        "addr:suburb": "Setor JK",
        "amenity": "school",
        "fee": "no",
        "grades": "0-9",
        "inep": "17005116",
        "name": "Centro de Educação Infantil São José Operário",
        "operator": "Secretaria da Educação do Estado do Tocantins",
        "operator:type": "public",
        "phone": "+55 63 3421-1265",
        "wheelchair": "yes",
        "zone": "Urbana",
        "id": "node/9092810940"
      },
      "geometry": {
        "type": "Point",
        "coordinates": [
          -48.2375641,
          -7.1980632
        ]
      }
    },
    {
      "type": "Feature",
      "id": "node/9092911140",
      "properties": {
        "timestamp": "2021-09-15T02:18:10Z",
        "version": 1,
        "changeset": 111219583,
        "addr:city": "Araguaína",
        "addr:housenumber": "65",
        "addr:postcode": "77824-710",
        "addr:street": "Rua G",
        "addr:suburb": "Loteamento Couto Magalhâes",
        "amenity": "school",
        "fee": "yes",
        "grades": "0-9",
        "inep": "17052076",
        "name": "Escola Infantil Cristo Rei",
        "operator": "Secretaria da Educação do Estado do Tocantins",
        "operator:type": "private",
        "phone": "+55 63 3421-4054",
        "zone": "Urbana",
        "id": "node/9092911140"
      },
      "geometry": {
        "type": "Point",
        "coordinates": [
          -48.210162,
          -7.1733739
        ]
      }
    },
    {
      "type": "Feature",
      "id": "node/9095770139",
      "properties": {
        "timestamp": "2021-09-16T00:17:01Z",
        "version": 1,
        "changeset": 111265661,
        "addr:city": "Araguaína",
        "addr:housenumber": "1215",
        "addr:postcode": "77807-290",
        "addr:street": "Rua Falcão Coelho",
        "addr:suburb": "Bairro São joão",
        "amenity": "school",
        "fee": "yes",
        "grades": "0-9",
        "inep": "17041589",
        "name": "Escola Futuro Feliz",
        "operator": "Secretaria da Educação do Estado do Tocantins",
        "operator:type": "private",
        "phone": "+55 63 3414-2715",
        "wheelchair": "yes",
        "zone": "Urbana",
        "id": "node/9095770139"
      },
      "geometry": {
        "type": "Point",
        "coordinates": [
          -48.1983921,
          -7.1936636
        ]
      }
    },
    {
      "type": "Feature",
      "id": "node/9112319594",
      "properties": {
        "timestamp": "2021-09-22T03:34:47Z",
        "version": 1,
        "changeset": 111520194,
        "addr:city": "Araguaína",
        "addr:housenumber": "1140",
        "addr:postcode": "77823-530",
        "addr:street": "Rua Novo Norte esquina com a rua 12",
        "addr:suburb": "Loteamento Planalto",
        "amenity": "school",
        "fee": "yes",
        "grades": "1-9",
        "inep": "17074800",
        "name": "Escola de Educação Infantil Horas Alegres",
        "operator": "Secretaria da Educação do Estado do Tocantins",
        "operator:type": "private",
        "phone": "+55 63 99221-0821",
        "wheelchair": "yes",
        "zone": "Urbana",
        "id": "node/9112319594"
      },
      "geometry": {
        "type": "Point",
        "coordinates": [
          -48.2124749,
          -7.1767962
        ]
      }
    },
    {
      "type": "Feature",
      "id": "node/9115698470",
      "properties": {
        "timestamp": "2021-09-23T03:37:49Z",
        "version": 1,
        "changeset": 111568914,
        "addr:city": "Araguaína",
        "addr:housenumber": "1154",
        "addr:postcode": "77807-140",
        "addr:street": "Rua Machado de Assis",
        "addr:suburb": "Bairro São Joâo",
        "amenity": "school",
        "fee": "no",
        "grades": "0-9",
        "inep": "17005159",
        "name": "Centro Educacional Infantil Municipal Natalina Maria de Jesus",
        "operator": "Secretaria da Educação do Estado do Tocantins",
        "operator:type": "public",
        "phone": "+55 63 3414-2738",
        "wheelchair": "yes",
        "zone": "Urbana",
        "id": "node/9115698470"
      },
      "geometry": {
        "type": "Point",
        "coordinates": [
          -48.1940296,
          -7.1907728
        ]
      }
    },
    {
      "type": "Feature",
      "id": "node/9115838967",
      "properties": {
        "timestamp": "2021-09-23T05:45:27Z",
        "version": 1,
        "changeset": 111572313,
        "addr:city": "Araguaína",
        "addr:housenumber": "1285",
        "addr:postcode": "77807-120",
        "addr:street": "Rua 3 de Maio",
        "addr:suburb": "Bairro São Joâo",
        "amenity": "school",
        "fee": "yes",
        "grades": "0-9",
        "inep": "17053544",
        "internet_access": "yes",
        "name": "Escola Infantil Mundo Melhor",
        "operator": "Secretaria da Educação do Estado do Tocantins",
        "operator:type": "private",
        "phone": "+55 63 3414-0541",
        "wheelchair": "yes",
        "zone": "Urbana",
        "id": "node/9115838967"
      },
      "geometry": {
        "type": "Point",
        "coordinates": [
          -48.1944219,
          -7.1921193
        ]
      }
    },
    {
      "type": "Feature",
      "id": "node/9115903212",
      "properties": {
        "timestamp": "2021-09-23T06:58:57Z",
        "version": 2,
        "changeset": 111575213,
        "addr:city": "Araguaína",
        "addr:housenumber": "399",
        "addr:postcode": "77825-080",
        "addr:street": "Rua 02",
        "addr:suburb": "Setor Bela Vista",
        "amenity": "school",
        "fee": "no",
        "grades": "0-9",
        "inep": "17050065",
        "name": "Centro Educacional Infantil Municipal Criança Feliz",
        "operator": "Secretaria da Educação do Estado do Tocantins",
        "operator:type": "public",
        "phone": "+55 63 3421-3992",
        "wheelchair": "yes",
        "zone": "Urbana",
        "id": "node/9115903212"
      },
      "geometry": {
        "type": "Point",
        "coordinates": [
          -48.2002336,
          -7.1582648
        ]
      }
    },
    {
      "type": "Feature",
      "id": "node/9115997497",
      "properties": {
        "timestamp": "2021-09-23T06:58:57Z",
        "version": 1,
        "changeset": 111575213,
        "addr:city": "Araguaína",
        "addr:housenumber": "328",
        "addr:postcode": "77818-250",
        "addr:street": "Rua Mato Grosso",
        "addr:suburb": "Vila Nova",
        "amenity": "school",
        "fee": "no",
        "grades": "1-9",
        "inep": "17005442",
        "internet_access": "yes",
        "name": "Escola Estadual Norte Goiano",
        "operator": "Secretaria da Educação do Estado do Tocantins",
        "operator:type": "public",
        "phone": "+55 63 99241-6815",
        "wheelchair": "yes",
        "zone": "Urbana",
        "id": "node/9115997497"
      },
      "geometry": {
        "type": "Point",
        "coordinates": [
          -48.2226515,
          -7.1815559
        ]
      }
    },
    {
      "type": "Feature",
      "id": "node/9118732487",
      "properties": {
        "timestamp": "2021-09-23T22:35:19Z",
        "version": 1,
        "changeset": 111621505,
        "addr:city": "Araguaína",
        "addr:housenumber": "26",
        "addr:postcode": "77807-085",
        "addr:street": "Rua São Jorge",
        "addr:suburb": "Bairro São João",
        "amenity": "school",
        "fee": "no",
        "grades": "1-9",
        "inep": "17006040",
        "internet_access": "yes",
        "name": "Escola Municipal Salomão Cardoso",
        "operator": "Secretaria da Educação do Estado do Tocantins",
        "operator:type": "public",
        "phone": "+55 63  3412-1679",
        "wheelchair": "yes",
        "zone": "Urbana",
        "id": "node/9118732487"
      },
      "geometry": {
        "type": "Point",
        "coordinates": [
          -48.1937418,
          -7.1969194
        ]
      }
    },
    {
      "type": "Feature",
      "id": "node/9118752096",
      "properties": {
        "timestamp": "2021-09-23T22:59:09Z",
        "version": 1,
        "changeset": 111621901,
        "addr:city": "Araguaína",
        "addr:housenumber": "661",
        "addr:postcode": "77804-120",
        "addr:street": "Rua Ademar Vicente Ferreira",
        "addr:suburb": "Centro",
        "amenity": "school",
        "fee": "no",
        "grades": "1-9",
        "inep": "17005280",
        "internet_access": "yes",
        "name": "Escola Estadual Professor João Alves Batista",
        "operator": "Secretaria da Educação do Estado do Tocantins",
        "operator:type": "public",
        "phone": "+55 63 3414-2790",
        "wheelchair": "yes",
        "zone": "Urbana",
        "id": "node/9118752096"
      },
      "geometry": {
        "type": "Point",
        "coordinates": [
          -48.2101891,
          -7.1924169
        ]
      }
    },
    {
      "type": "Feature",
      "id": "node/9118858558",
      "properties": {
        "timestamp": "2021-09-24T02:09:08Z",
        "version": 2,
        "changeset": 111624775,
        "addr:city": "Araguaína",
        "addr:postcode": "77804-970",
        "addr:suburb": "Povoado Água Amarela",
        "amenity": "school",
        "fee": "no",
        "grades": "1-9",
        "inep": "17006171",
        "name": "Escola Municipal Santa Rosa",
        "operator": "Secretaria da Educação do Estado do Tocantins",
        "operator:type": "public",
        "phone": "+55 63 3415-3576",
        "wheelchair": "yes",
        "zone": "Rural",
        "id": "node/9118858558"
      },
      "geometry": {
        "type": "Point",
        "coordinates": [
          -48.2589978,
          -7.1375515
        ]
      }
    },
    {
      "type": "Feature",
      "id": "node/9118935661",
      "properties": {
        "timestamp": "2021-09-24T02:43:02Z",
        "version": 1,
        "changeset": 111625141,
        "addr:city": "Araguaína",
        "addr:housenumber": "137",
        "addr:postcode": "77805-120",
        "addr:street": "Rua Adevaldo de Moraes",
        "addr:suburb": "Centro",
        "amenity": "school",
        "fee": "yes",
        "grades": "0-9",
        "inep": "17051479",
        "name": "Educandário São Francisco",
        "operator": "Secretaria da Educação do Estado do Tocantins",
        "operator:type": "private",
        "phone": "+55 63 3414-4260",
        "wheelchair": "yes",
        "zone": "Urbana",
        "id": "node/9118935661"
      },
      "geometry": {
        "type": "Point",
        "coordinates": [
          -48.2039645,
          -7.1919505
        ]
      }
    },
    {
      "type": "Feature",
      "id": "node/9118961182",
      "properties": {
        "timestamp": "2021-09-24T03:55:38Z",
        "version": 1,
        "changeset": 111625882,
        "addr:city": "Araguaína",
        "addr:housenumber": "191",
        "addr:postcode": "77804-970",
        "addr:street": "Rua Bela Cecília",
        "addr:suburb": "Setor Panorama",
        "amenity": "school",
        "fee": "yes",
        "grades": "0-9",
        "inep": "17053226",
        "internet_access": "yes",
        "name": "Escola Semente do Saber",
        "operator": "Secretaria da Educação do Estado do Tocantins",
        "operator:type": "private",
        "phone": "+55 63 3421-2389",
        "wheelchair": "yes",
        "zone": "Urbana",
        "id": "node/9118961182"
      },
      "geometry": {
        "type": "Point",
        "coordinates": [
          -48.2075828,
          -7.1790027
        ]
      }
    },
    {
      "type": "Feature",
      "id": "node/9118973107",
      "properties": {
        "timestamp": "2021-09-27T14:33:55Z",
        "version": 2,
        "changeset": 111772145,
        "addr:city": "Araguaína",
        "addr:postcode": "77827-140",
        "addr:street": "Rua das Parreiras",
        "addr:suburb": "Loteamento Araguaína Sul",
        "amenity": "school",
        "fee": "no",
        "grades": "1-9",
        "inep": "17006155",
        "name": "Escola Municipal São Vicente de Paula",
        "operator": "Secretaria da Educação do Estado do Tocantins",
        "operator:type": "public",
        "phone": "+55 63 3414-4392",
        "wheelchair": "yes",
        "zone": "Urbana",
        "id": "node/9118973107"
      },
      "geometry": {
        "type": "Point",
        "coordinates": [
          -48.1926402,
          -7.1831621
        ]
      }
    },
    {
      "type": "Feature",
      "id": "node/9119032247",
      "properties": {
        "timestamp": "2021-09-27T14:34:55Z",
        "version": 2,
        "changeset": 111772193,
        "addr:city": "Araguaína",
        "addr:postcode": "77809-630",
        "addr:street": "Rua F",
        "addr:suburb": "Bairro Santa Mônica",
        "amenity": "school",
        "fee": "yes",
        "inep": "17054370",
        "internet_access": "yes",
        "name": "Serviço Nacional de Aprendizagem Comercial-SENAC",
        "operator": "Secretaria da Educação do Estado do Tocantins",
        "operator:type": "private",
        "phone": "+55 63 3321-5200",
        "wheelchair": "yes",
        "zone": "Urbana",
        "id": "node/9119032247"
      },
      "geometry": {
        "type": "Point",
        "coordinates": [
          -48.2225334,
          -7.1902328
        ]
      }
    },
    {
      "type": "Feature",
      "id": "node/9119087265",
      "properties": {
        "timestamp": "2021-09-24T05:31:22Z",
        "version": 1,
        "changeset": 111627717,
        "addr:city": "Araguaína",
        "addr:housenumber": "48",
        "addr:postcode": "77807-280",
        "addr:street": "Rua Oito",
        "addr:suburb": "Vila Aliança",
        "amenity": "school",
        "fee": "no",
        "grades": "1-9",
        "inep": "17006210",
        "name": "Escola Municipal Tomaz Batista",
        "operator": "Secretaria da Educação do Estado do Tocantins",
        "operator:type": "public",
        "phone": "+55 63 3414-1518",
        "wheelchair": "yes",
        "zone": "Urbana",
        "id": "node/9119087265"
      },
      "geometry": {
        "type": "Point",
        "coordinates": [
          -48.2027374,
          -7.2017963
        ]
      }
    },
    {
      "type": "Feature",
      "id": "node/9119197026",
      "properties": {
        "timestamp": "2024-06-27T19:21:18Z",
        "version": 2,
        "changeset": 153262647,
        "addr:city": "Araguaína",
        "addr:housenumber": "366",
        "addr:postcode": "77809-200",
        "addr:street": "Avenida Anhanguera",
        "addr:suburb": "Setor Carajás",
        "amenity": "school",
        "fee": "yes",
        "grades": "0-9",
        "inep": "17005051",
        "name": "Colégio Professor Ferraz",
        "operator": "Secretaria da Educação do Estado do Tocantins",
        "operator:type": "private",
        "phone": "+55 63 3421-3607",
        "wheelchair": "yes",
        "zone": "Urbana",
        "id": "node/9119197026"
      },
      "geometry": {
        "type": "Point",
        "coordinates": [
          -48.2019829,
          -7.2086814
        ]
      }
    },
    {
      "type": "Feature",
      "id": "node/9551992375",
      "properties": {
        "timestamp": "2022-03-03T14:08:31Z",
        "version": 1,
        "changeset": 118057526,
        "amenity": "school",
        "name": "Escola Municipal Duque De Caxias",
        "phone": "+55 63 3415 3576",
        "id": "node/9551992375"
      },
      "geometry": {
        "type": "Point",
        "coordinates": [
          -48.2536523,
          -7.0719278
        ]
      }
    },
    {
      "type": "Feature",
      "id": "node/9552428924",
      "properties": {
        "timestamp": "2022-03-03T18:10:10Z",
        "version": 1,
        "changeset": 118065630,
        "amenity": "school",
        "name": "Escola Municipal Candido Barreira Guimaraes",
        "phone": "+55 63 3415 3576",
        "id": "node/9552428924"
      },
      "geometry": {
        "type": "Point",
        "coordinates": [
          -49.2216481,
          -7.3320902
        ]
      }
    },
    {
      "type": "Feature",
      "id": "node/9552595520",
      "properties": {
        "timestamp": "2022-03-03T20:01:29Z",
        "version": 1,
        "changeset": 118068928,
        "amenity": "school",
        "name": "Centro De Educacao Infantil Nossa Senhora Dos Milagres",
        "phone": "+55 63 3414 2728",
        "id": "node/9552595520"
      },
      "geometry": {
        "type": "Point",
        "coordinates": [
          -48.1907668,
          -7.2075798
        ]
      }
    },
    {
      "type": "Feature",
      "id": "node/9552855608",
      "properties": {
        "timestamp": "2022-03-03T20:29:53Z",
        "version": 1,
        "changeset": 118069778,
        "amenity": "school",
        "name": "Escola Municipal Santos Dumont",
        "id": "node/9552855608"
      },
      "geometry": {
        "type": "Point",
        "coordinates": [
          -48.6103405,
          -7.3011714
        ]
      }
    },
    {
      "type": "Feature",
      "id": "node/9552856448",
      "properties": {
        "timestamp": "2022-03-03T20:26:16Z",
        "version": 1,
        "changeset": 118069639,
        "addr:city": "Araguaína",
        "addr:housenumber": "847",
        "addr:postcode": "77807-140",
        "addr:street": "Rua Machado de Assis",
        "addr:suburb": "São João",
        "amenity": "school",
        "name": "Instituto Educacional E Politecnico De Araguaina",
        "phone": "+55 63 3415 4474",
        "id": "node/9552856448"
      },
      "geometry": {
        "type": "Point",
        "coordinates": [
          -48.1968356,
          -7.1898409
        ]
      }
    },
    {
      "type": "Feature",
      "id": "node/9552858068",
      "properties": {
        "timestamp": "2022-03-03T20:24:56Z",
        "version": 1,
        "changeset": 118069607,
        "addr:city": "Araguaína",
        "addr:postcode": "77824-838",
        "addr:street": "Rua dos Jatobas",
        "amenity": "school",
        "name": "Escola Sucesso",
        "phone": "+55 63 3412 31131",
        "id": "node/9552858068"
      },
      "geometry": {
        "type": "Point",
        "coordinates": [
          -48.1983666,
          -7.1852002
        ]
      }
    },
    {
      "type": "Feature",
      "id": "node/9552859252",
      "properties": {
        "timestamp": "2022-03-03T20:29:28Z",
        "version": 1,
        "changeset": 118069759,
        "amenity": "school",
        "name": "Escola Municipal José Nogueira",
        "id": "node/9552859252"
      },
      "geometry": {
        "type": "Point",
        "coordinates": [
          -48.6947818,
          -7.3179692
        ]
      }
    },
    {
      "type": "Feature",
      "id": "node/9556126832",
      "properties": {
        "timestamp": "2023-03-05T01:19:17Z",
        "version": 2,
        "changeset": 133310746,
        "amenity": "school",
        "name": "Colegio Estadual Sonho de Liberdade",
        "id": "node/9556126832"
      },
      "geometry": {
        "type": "Point",
        "coordinates": [
          -48.2984389,
          -7.211809
        ]
      }
    },
    {
      "type": "Feature",
      "id": "node/9556857907",
      "properties": {
        "timestamp": "2022-03-06T00:00:40Z",
        "version": 1,
        "changeset": 118144025,
        "amenity": "school",
        "name": "Escola Municipal Npa Nucleo De Prod Agricola De Araguaina",
        "phone": "+55 63 3415 3576",
        "id": "node/9556857907"
      },
      "geometry": {
        "type": "Point",
        "coordinates": [
          -48.2200576,
          -7.3285946
        ]
      }
    },
    {
      "type": "Feature",
      "id": "node/9556885527",
      "properties": {
        "timestamp": "2022-03-06T00:03:00Z",
        "version": 1,
        "changeset": 118144061,
        "amenity": "school",
        "name": "Escola Municipal Jose Dias Carneiro",
        "phone": "+55 63 3415 3576",
        "id": "node/9556885527"
      },
      "geometry": {
        "type": "Point",
        "coordinates": [
          -48.3594145,
          -7.4047178
        ]
      }
    },
    {
      "type": "Feature",
      "id": "node/9556898298",
      "properties": {
        "timestamp": "2022-03-06T00:01:03Z",
        "version": 1,
        "changeset": 118144034,
        "amenity": "school",
        "name": "Escola Municipal Bavisa",
        "id": "node/9556898298"
      },
      "geometry": {
        "type": "Point",
        "coordinates": [
          -48.1978758,
          -7.3845584
        ]
      }
    },
    {
      "type": "Feature",
      "id": "node/9556900791",
      "properties": {
        "timestamp": "2022-03-05T23:59:39Z",
        "version": 1,
        "changeset": 118144011,
        "amenity": "school",
        "name": "Escola Municipal Uniao",
        "phone": "+55 63 3415 3576",
        "id": "node/9556900791"
      },
      "geometry": {
        "type": "Point",
        "coordinates": [
          -48.3007197,
          -7.3399752
        ]
      }
    },
    {
      "type": "Feature",
      "id": "node/9556906665",
      "properties": {
        "timestamp": "2022-03-06T00:02:34Z",
        "version": 1,
        "changeset": 118144057,
        "amenity": "school",
        "name": "Escola Municipal Divino Pai Eterno",
        "phone": "+55 63 3415 3576",
        "id": "node/9556906665"
      },
      "geometry": {
        "type": "Point",
        "coordinates": [
          -48.2351182,
          -7.4638049
        ]
      }
    },
    {
      "type": "Feature",
      "id": "node/9556953440",
      "properties": {
        "timestamp": "2022-03-06T00:03:28Z",
        "version": 1,
        "changeset": 118144070,
        "amenity": "school",
        "name": "Escola Municipal Pedro Segundo Da Rocha",
        "phone": "+55 63 3415 3576",
        "id": "node/9556953440"
      },
      "geometry": {
        "type": "Point",
        "coordinates": [
          -48.3364655,
          -7.2404875
        ]
      }
    }
  ]
}
