{
  "type": "FeatureCollection",
  "features": [
    {
      "type": "Feature",
      "id": "way/585494933",
      "properties": {
        "timestamp": "2019-08-05T17:37:41Z",
        "version": 3,
        "changeset": 73034694,
        "amenity": "social_facility",
        "building": "yes",
        "name": "Centro de Reabilitação",
        "social_facility": "group_home",
        "social_facility:for": "senior",
        "id": "way/585494933"
      },
      "geometry": {
        "type": "Polygon",
        "coordinates": [
          [
            [
              -40.1892897,
              -20.1386594
            ],
            [
              -40.1897859,
              -20.1386535
            ],
            [
              -40.1898141,
              -20.1389773
            ],
            [
              -40.1893137,
              -20.1389959
            ],
            [
              -40.1892897,
              -20.1386594
            ]
          ]
        ]
      }
    },
    {
      "type": "Feature",
      "id": "node/3999139438",
      "properties": {
        "timestamp": "2016-02-10T13:37:15Z",
        "version": 1,
        "changeset": 37124622,
        "addr:city": "Serra",
        "addr:housenumber": "03",
        "addr:postcode": "29175-573",
        "addr:street": "Rua São Paulo",
        "addr:suburb": "Bairro das Laranjeiras",
        "alt_name": "Centro de Referência de Assistência Social",
        "amenity": "social_facility",
        "contact:phone": "(27) 3243-6477",
        "name": "CRAS - Jacaraípe",
        "social_facility": "outreach",
        "source": "IJSN",
        "id": "node/3999139438"
      },
      "geometry": {
        "type": "Point",
        "coordinates": [
          -40.1921106,
          -20.1340439
        ]
      }
    },
    {
      "type": "Feature",
      "id": "node/3999139441",
      "properties": {
        "timestamp": "2022-09-23T13:00:12Z",
        "version": 2,
        "changeset": 126547316,
        "addr:city": "Serra",
        "addr:housenumber": "10",
        "addr:postcode": "29161-777",
        "addr:street": "Rua Juiz de Fora",
        "addr:suburb": "Jardim Carapina",
        "alt_name": "Centro de Referência de Assistência Social",
        "amenity": "social_facility",
        "contact:phone": "(27) 3318-6111",
        "name": "CRAS - Jardim Carapina",
        "social_facility": "outreach",
        "source": "IJSN",
        "id": "node/3999139441"
      },
      "geometry": {
        "type": "Point",
        "coordinates": [
          -40.2813077,
          -20.2354667
        ]
      }
    },
    {
      "type": "Feature",
      "id": "node/3999139443",
      "properties": {
        "timestamp": "2016-02-10T13:37:16Z",
        "version": 1,
        "changeset": 37124622,
        "addr:city": "Serra",
        "addr:housenumber": "36",
        "addr:postcode": "29162-010",
        "addr:street": "Avenida Coronel Manoel Nunes",
        "addr:suburb": "Jardim Tropical",
        "alt_name": "Centro de Referência de Assistência Social",
        "amenity": "social_facility",
        "contact:phone": "(27) 3338-9825",
        "name": "CRAS - Jardim Tropical",
        "social_facility": "outreach",
        "source": "IJSN",
        "id": "node/3999139443"
      },
      "geometry": {
        "type": "Point",
        "coordinates": [
          -40.2720505,
          -20.2067058
        ]
      }
    },
    {
      "type": "Feature",
      "id": "node/3999139448",
      "properties": {
        "timestamp": "2016-02-10T13:37:17Z",
        "version": 1,
        "changeset": 37124622,
        "addr:city": "Serra",
        "addr:housenumber": "22",
        "addr:postcode": "29168-063",
        "addr:street": "Rua 1ª",
        "addr:suburb": "Parque Residencial Laranjeiras",
        "alt_name": "Centro de Referência de Assistência Social",
        "amenity": "social_facility",
        "contact:phone": "(27) 3328-6053",
        "name": "CRAS - Laranjeiras",
        "social_facility": "outreach",
        "source": "IJSN",
        "id": "node/3999139448"
      },
      "geometry": {
        "type": "Point",
        "coordinates": [
          -40.2561551,
          -20.1914862
        ]
      }
    },
    {
      "type": "Feature",
      "id": "node/3999140659",
      "properties": {
        "timestamp": "2016-02-10T13:37:18Z",
        "version": 1,
        "changeset": 37124622,
        "addr:city": "Serra",
        "addr:postcode": "29163-364",
        "addr:street": "Rua Tiê",
        "addr:suburb": "Novo Horizonte",
        "alt_name": "Centro de Referência de Assistência Social",
        "amenity": "social_facility",
        "contact:phone": "(27) 3218-5746",
        "name": "CRAS - Novo Horizonte",
        "social_facility": "outreach",
        "source": "IJSN",
        "id": "node/3999140659"
      },
      "geometry": {
        "type": "Point",
        "coordinates": [
          -40.2455301,
          -20.2155295
        ]
      }
    },
    {
      "type": "Feature",
      "id": "node/3999140666",
      "properties": {
        "timestamp": "2016-02-10T13:37:20Z",
        "version": 1,
        "changeset": 37124622,
        "addr:city": "Serra",
        "addr:postcode": "29178-240",
        "addr:street": "Avenida Bela Vista",
        "addr:suburb": "Planalto Serrano",
        "alt_name": "Centro de Referência de Assistência Social",
        "amenity": "social_facility",
        "contact:phone": "(27) 3251-4360",
        "name": "CRAS - Planalto Serrano",
        "social_facility": "outreach",
        "source": "IJSN",
        "id": "node/3999140666"
      },
      "geometry": {
        "type": "Point",
        "coordinates": [
          -40.2848816,
          -20.1315037
        ]
      }
    },
    {
      "type": "Feature",
      "id": "node/3999140689",
      "properties": {
        "timestamp": "2016-02-10T13:37:24Z",
        "version": 1,
        "changeset": 37124622,
        "addr:city": "Serra",
        "addr:postcode": "29171-214",
        "addr:street": "Rua das Acácias",
        "addr:suburb": "Serra Dourada II",
        "alt_name": "Centro de Referência de Assistência Social",
        "amenity": "social_facility",
        "contact:phone": "(27) 3282-4407",
        "name": "CRAS - Serra Dourada II",
        "social_facility": "outreach",
        "source": "IJSN",
        "id": "node/3999140689"
      },
      "geometry": {
        "type": "Point",
        "coordinates": [
          -40.2472274,
          -20.1381451
        ]
      }
    },
    {
      "type": "Feature",
      "id": "node/3999140690",
      "properties": {
        "timestamp": "2023-01-21T15:51:13Z",
        "version": 2,
        "changeset": 131545672,
        "addr:city": "Serra",
        "addr:housenumber": "108",
        "addr:postcode": "29176-020",
        "addr:street": "Rua Cassiano Castelo",
        "addr:suburb": "Serra Centro",
        "alt_name": "Centro de Referência de Assistência Social",
        "amenity": "social_facility",
        "contact:phone": "(27) 3251-7757",
        "name": "CRAS - Serra Sede",
        "social_facility": "outreach",
        "source": "IJSN",
        "id": "node/3999140690"
      },
      "geometry": {
        "type": "Point",
        "coordinates": [
          -40.3087152,
          -20.1274345
        ]
      }
    },
    {
      "type": "Feature",
      "id": "node/3999140701",
      "properties": {
        "timestamp": "2016-02-10T13:37:26Z",
        "version": 1,
        "changeset": 37124622,
        "addr:city": "Serra",
        "addr:housenumber": "543",
        "addr:postcode": "29172-841",
        "addr:street": "Rua Anhanguera",
        "addr:suburb": "Vila Nova de Colares",
        "alt_name": "Centro de Referência de Assistência Social",
        "amenity": "social_facility",
        "contact:phone": "(27) 3252-7202",
        "name": "CRAS - Vila Nova de Colares",
        "social_facility": "outreach",
        "source": "IJSN",
        "id": "node/3999140701"
      },
      "geometry": {
        "type": "Point",
        "coordinates": [
          -40.2101057,
          -20.1813312
        ]
      }
    }
  ]
}
