{
  "type": "FeatureCollection",
  "features": [
    {
      "type": "Feature",
      "id": "node/10116288321",
      "properties": {
        "timestamp": "2022-10-20T11:02:19Z",
        "version": 1,
        "changeset": 127832595,
        "addr:city": "Sardoá",
        "addr:housenumber": "185",
        "addr:postcode": "39728-000",
        "addr:street": "Rua José Evangelista",
        "addr:suburb": "Padre Bernardo",
        "amenity": "clinic",
        "healthcare": "clinic",
        "healthcare:speciality": "general",
        "name": "Unidade Básica de Saúde e Equipe de Saúde da Família Padre Bernardo",
        "operator": "Município de Sardoá",
        "operator:type": "public",
        "id": "node/10116288321"
      },
      "geometry": {
        "type": "Point",
        "coordinates": [
          -42.3672333,
          -18.7881374
        ]
      }
    },
    {
      "type": "Feature",
      "id": "node/10116288329",
      "properties": {
        "timestamp": "2022-10-20T11:02:19Z",
        "version": 1,
        "changeset": 127832595,
        "addr:city": "Sardoá",
        "addr:housenumber": "53",
        "addr:postcode": "39728-000",
        "addr:street": "Rua Pepita Simões Veira",
        "addr:suburb": "Centro",
        "amenity": "clinic",
        "healthcare": "clinic",
        "healthcare:speciality": "general",
        "name": "Centro Municipal de Gestão em Saúde",
        "operator": "Município de Sardoá",
        "operator:type": "public",
        "id": "node/10116288329"
      },
      "geometry": {
        "type": "Point",
        "coordinates": [
          -42.3655521,
          -18.7816221
        ]
      }
    }
  ]
}
