{
  "type": "FeatureCollection",
  "features": [
    {
      "type": "Feature",
      "id": "way/724598451",
      "properties": {
        "timestamp": "2022-02-20T22:01:18Z",
        "version": 3,
        "changeset": 117656438,
        "addr:city": "Brejinho de Nazaré",
        "addr:housenumber": "470",
        "addr:postcode": "77560-000",
        "addr:street": "Avenida Araguaia",
        "addr:suburb": "Centro",
        "amenity": "school",
        "name": "Colégio Estadual Padrão",
        "id": "way/724598451"
      },
      "geometry": {
        "type": "Polygon",
        "coordinates": [
          [
            [
              -48.5655154,
              -11.0208138
            ],
            [
              -48.5652434,
              -11.0195863
            ],
            [
              -48.5665903,
              -11.0192091
            ],
            [
              -48.5669274,
              -11.0204824
            ],
            [
              -48.5655154,
              -11.0208138
            ]
          ]
        ]
      }
    },
    {
      "type": "Feature",
      "id": "way/724598452",
      "properties": {
        "timestamp": "2022-02-20T21:59:04Z",
        "version": 2,
        "changeset": 117656374,
        "addr:city": "Brejinho de Nazaré",
        "addr:housenumber": "955",
        "addr:postcode": "77560-000",
        "addr:street": "Rua São Bento",
        "addr:suburb": "Centro",
        "amenity": "school",
        "name": "Esc Est Jonas Pereira Lima",
        "phone": "+55 63 3521 1175",
        "id": "way/724598452"
      },
      "geometry": {
        "type": "Polygon",
        "coordinates": [
          [
            [
              -48.5670588,
              -11.0166473
            ],
            [
              -48.5674652,
              -11.0173363
            ],
            [
              -48.5663662,
              -11.0176316
            ],
            [
              -48.5661575,
              -11.0169075
            ],
            [
              -48.5670588,
              -11.0166473
            ]
          ]
        ]
      }
    },
    {
      "type": "Feature",
      "id": "way/1033631978",
      "properties": {
        "timestamp": "2022-02-20T21:58:25Z",
        "version": 1,
        "changeset": 117656356,
        "addr:city": "Brejinho de Nazaré",
        "addr:postcode": "77560-000",
        "addr:street": "Avenida Florêncio Pereira da Silva",
        "addr:suburb": "Novo Horizonte",
        "amenity": "school",
        "name": "Escola Municipal Novo Horizonte",
        "id": "way/1033631978"
      },
      "geometry": {
        "type": "Polygon",
        "coordinates": [
          [
            [
              -48.572974,
              -11.0137363
            ],
            [
              -48.5732012,
              -11.014426
            ],
            [
              -48.5729249,
              -11.0145137
            ],
            [
              -48.5726977,
              -11.013824
            ],
            [
              -48.572974,
              -11.0137363
            ]
          ]
        ]
      }
    },
    {
      "type": "Feature",
      "id": "way/1033632588",
      "properties": {
        "timestamp": "2022-02-20T22:01:18Z",
        "version": 1,
        "changeset": 117656438,
        "addr:city": "Brejinho de Nazaré",
        "addr:postcode": "77560-000",
        "addr:street": "Rua Antônio Lisboa da Cruz",
        "amenity": "school",
        "name": "Cmei Laurindo Aires Da Silva",
        "phone": "+55 63 3521 1152",
        "id": "way/1033632588"
      },
      "geometry": {
        "type": "Polygon",
        "coordinates": [
          [
            [
              -48.5667935,
              -11.0230998
            ],
            [
              -48.5674956,
              -11.0229575
            ],
            [
              -48.5675681,
              -11.0233058
            ],
            [
              -48.5668919,
              -11.0234881
            ],
            [
              -48.5667935,
              -11.0230998
            ]
          ]
        ]
      }
    }
  ]
}
