{
  "type": "FeatureCollection",
  "features": [
    {
      "type": "Feature",
      "id": "node/4535016678",
      "properties": {
        "timestamp": "2019-07-26T14:31:57Z",
        "version": 3,
        "changeset": 72690732,
        "addr:city": "Ouro Preto",
        "addr:housenumber": "50",
        "addr:postcode": "35400-000",
        "addr:street": "Praça Cesário Alvim",
        "addr:suburb": "Barra",
        "government": "public_service",
        "name": "NAJOP/UFOP - Núcleo de Prática Jurídica de Ouro Preto",
        "office": "government",
        "opening_hours": "Mo-Fr 08:00-17:00",
        "phone": "+55 31 35591543",
        "start_date": "01/01/2018",
        "id": "node/4535016678"
      },
      "geometry": {
        "type": "Point",
        "coordinates": [
          -43.5071556,
          -20.3904953
        ]
      }
    },
    {
      "type": "Feature",
      "id": "node/4535019959",
      "properties": {
        "timestamp": "2019-10-14T13:57:11Z",
        "version": 2,
        "changeset": 75669670,
        "name": "PROCON",
        "office": "government",
        "id": "node/4535019959"
      },
      "geometry": {
        "type": "Point",
        "coordinates": [
          -43.50549,
          -20.385194
        ]
      }
    },
    {
      "type": "Feature",
      "id": "node/4536662834",
      "properties": {
        "timestamp": "2016-12-03T22:27:49Z",
        "version": 1,
        "changeset": 44147527,
        "name": "Receita Federal",
        "office": "government",
        "id": "node/4536662834"
      },
      "geometry": {
        "type": "Point",
        "coordinates": [
          -43.5071583,
          -20.3870217
        ]
      }
    },
    {
      "type": "Feature",
      "id": "node/6320862804",
      "properties": {
        "timestamp": "2022-01-14T19:56:54Z",
        "version": 2,
        "changeset": 116161806,
        "name": "Secretaria de Cultura de Ouro Preto",
        "office": "government",
        "id": "node/6320862804"
      },
      "geometry": {
        "type": "Point",
        "coordinates": [
          -43.5028335,
          -20.3856455
        ]
      }
    }
  ]
}
