{
  "type": "FeatureCollection",
  "features": [
    {
      "type": "Feature",
      "id": "way/506268980",
      "properties": {
        "timestamp": "2023-11-15T12:18:25Z",
        "version": 3,
        "changeset": 144049287,
        "addr:city": "Monte Verde",
        "addr:country": "BR",
        "addr:housenumber": "170",
        "addr:postcode": "37653-000",
        "addr:street": "Rua do Moinho",
        "building": "bungalow",
        "internet_access": "wlan",
        "internet_access:fee": "no",
        "name": "Chalés do Parque",
        "payment:cash": "yes",
        "payment:maestro": "yes",
        "payment:mastercard": "yes",
        "payment:visa": "yes",
        "payment:visa_debit": "yes",
        "payment:visa_electron": "yes",
        "phone": "+55 35 3438 2258",
        "rooms": "4",
        "tourism": "hotel",
        "website": "https://chalesdoparque.com.br/",
        "id": "way/506268980"
      },
      "geometry": {
        "type": "Polygon",
        "coordinates": [
          [
            [
              -46.0282825,
              -22.8596836
            ],
            [
              -46.0281149,
              -22.859864
            ],
            [
              -46.0280317,
              -22.8597985
            ],
            [
              -46.0282034,
              -22.859623
            ],
            [
              -46.0282825,
              -22.8596836
            ]
          ]
        ]
      }
    },
    {
      "type": "Feature",
      "id": "way/671136491",
      "properties": {
        "timestamp": "2024-12-18T18:33:25Z",
        "version": 4,
        "changeset": 160363878,
        "building": "yes",
        "email": "reservas@chalessamambaia.com.br",
        "fax": "+55 35 8867-5395",
        "internet_access": "wlan",
        "internet_access:fee": "no",
        "name": "Pousada Chale Samambaia",
        "phone": "+55 35 3438-2780",
        "tourism": "hotel",
        "website": "https://www.chalessamambaia.com.br/",
        "wheelchair": "no",
        "id": "way/671136491"
      },
      "geometry": {
        "type": "Polygon",
        "coordinates": [
          [
            [
              -46.0789415,
              -22.8588516
            ],
            [
              -46.0788562,
              -22.858828
            ],
            [
              -46.0788848,
              -22.8587405
            ],
            [
              -46.0789602,
              -22.8587614
            ],
            [
              -46.0790026,
              -22.8587731
            ],
            [
              -46.078985,
              -22.858827
            ],
            [
              -46.0789525,
              -22.858818
            ],
            [
              -46.0789415,
              -22.8588516
            ]
          ]
        ]
      }
    },
    {
      "type": "Feature",
      "id": "way/1343592355",
      "properties": {
        "timestamp": "2024-12-19T05:10:35Z",
        "version": 5,
        "changeset": 160377595,
        "addr:city": "Monte Verde",
        "addr:country": "BR",
        "addr:housenumber": "883",
        "addr:postcode": "37653-000",
        "addr:state": "MG",
        "addr:street": "Avenida Sol Nascente",
        "landuse": "residential",
        "name": "Austria Hotel",
        "residential": "cottage",
        "tourism": "hotel",
        "id": "way/1343592355"
      },
      "geometry": {
        "type": "Polygon",
        "coordinates": [
          [
            [
              -46.0381788,
              -22.8591695
            ],
            [
              -46.0384252,
              -22.8585569
            ],
            [
              -46.0403921,
              -22.8591633
            ],
            [
              -46.0401824,
              -22.8597354
            ],
            [
              -46.0401603,
              -22.8598025
            ],
            [
              -46.0395484,
              -22.859614
            ],
            [
              -46.0391663,
              -22.859495
            ],
            [
              -46.038601,
              -22.8593212
            ],
            [
              -46.0381788,
              -22.8591695
            ]
          ]
        ]
      }
    },
    {
      "type": "Feature",
      "id": "way/1343607049",
      "properties": {
        "timestamp": "2025-01-13T19:25:06Z",
        "version": 3,
        "changeset": 161322462,
        "addr:city": "Monte Verde",
        "addr:country": "BR",
        "addr:housenumber": "2310",
        "addr:postcode": "37653-000",
        "addr:state": "MG",
        "addr:street": "Rua do Luar",
        "landuse": "residential",
        "name": "Valle das Flores",
        "residential": "cottage",
        "tourism": "hotel",
        "id": "way/1343607049"
      },
      "geometry": {
        "type": "Polygon",
        "coordinates": [
          [
            [
              -46.0443727,
              -22.8619804
            ],
            [
              -46.0444169,
              -22.8621467
            ],
            [
              -46.0444185,
              -22.8621731
            ],
            [
              -46.0444138,
              -22.862192
            ],
            [
              -46.0444061,
              -22.8622074
            ],
            [
              -46.044383,
              -22.8622224
            ],
            [
              -46.0439022,
              -22.8622434
            ],
            [
              -46.0438811,
              -22.862097
            ],
            [
              -46.0443727,
              -22.8619804
            ]
          ]
        ]
      }
    },
    {
      "type": "Feature",
      "id": "way/1346001082",
      "properties": {
        "timestamp": "2024-12-26T01:50:37Z",
        "version": 2,
        "changeset": 160621078,
        "addr:city": "Monte Verde",
        "addr:country": "BR",
        "addr:housenumber": "1284",
        "addr:postcode": "37653-000",
        "addr:state": "MG",
        "addr:street": "Avenida Sol Nascente",
        "landuse": "residential",
        "name": "Pousada das Videiras",
        "residential": "cottage",
        "tourism": "hotel",
        "id": "way/1346001082"
      },
      "geometry": {
        "type": "Polygon",
        "coordinates": [
          [
            [
              -46.0352833,
              -22.8589405
            ],
            [
              -46.0357648,
              -22.8582088
            ],
            [
              -46.0360995,
              -22.8583901
            ],
            [
              -46.035657,
              -22.8590662
            ],
            [
              -46.0352833,
              -22.8589405
            ]
          ]
        ]
      }
    },
    {
      "type": "Feature",
      "id": "way/1346305115",
      "properties": {
        "timestamp": "2024-12-26T03:47:26Z",
        "version": 2,
        "changeset": 160622315,
        "addr:city": "Monte Verde",
        "addr:country": "BR",
        "addr:housenumber": "130",
        "addr:postcode": "37653-000",
        "addr:state": "MG",
        "addr:street": "Rua do Aeroporto",
        "landuse": "residential",
        "name": "Cantinho de Monte Verde",
        "residential": "cottage",
        "tourism": "hotel",
        "id": "way/1346305115"
      },
      "geometry": {
        "type": "Polygon",
        "coordinates": [
          [
            [
              -46.0436427,
              -22.8623606
            ],
            [
              -46.0433409,
              -22.8631489
            ],
            [
              -46.0431264,
              -22.8630773
            ],
            [
              -46.0433933,
              -22.862321
            ],
            [
              -46.0436427,
              -22.8623606
            ]
          ]
        ]
      }
    },
    {
      "type": "Feature",
      "id": "way/1346305116",
      "properties": {
        "timestamp": "2025-01-14T22:34:15Z",
        "version": 3,
        "changeset": 161361509,
        "addr:city": "Monte Verde",
        "addr:country": "BR",
        "addr:housenumber": "80",
        "addr:postcode": "37653-000",
        "addr:state": "MG",
        "addr:street": "Rua do Aeroporto",
        "landuse": "residential",
        "name": "Villa Monte Verde",
        "residential": "cottage",
        "tourism": "hotel",
        "id": "way/1346305116"
      },
      "geometry": {
        "type": "Polygon",
        "coordinates": [
          [
            [
              -46.044442,
              -22.8623841
            ],
            [
              -46.0444271,
              -22.8624738
            ],
            [
              -46.0443938,
              -22.8625738
            ],
            [
              -46.0443575,
              -22.8626608
            ],
            [
              -46.0443193,
              -22.8627276
            ],
            [
              -46.0441784,
              -22.8629317
            ],
            [
              -46.0439926,
              -22.8631852
            ],
            [
              -46.0439036,
              -22.8633199
            ],
            [
              -46.0438753,
              -22.8633672
            ],
            [
              -46.0437124,
              -22.8633207
            ],
            [
              -46.0436641,
              -22.8633201
            ],
            [
              -46.0435622,
              -22.8632824
            ],
            [
              -46.0434697,
              -22.8632416
            ],
            [
              -46.0433409,
              -22.8631489
            ],
            [
              -46.0436427,
              -22.8623606
            ],
            [
              -46.0439968,
              -22.862342
            ],
            [
              -46.0443669,
              -22.8623297
            ],
            [
              -46.0443957,
              -22.8623344
            ],
            [
              -46.0444169,
              -22.8623432
            ],
            [
              -46.044436,
              -22.8623568
            ],
            [
              -46.044442,
              -22.8623841
            ]
          ]
        ]
      }
    },
    {
      "type": "Feature",
      "id": "way/1348129606",
      "properties": {
        "timestamp": "2025-01-03T00:49:36Z",
        "version": 1,
        "changeset": 160931124,
        "addr:city": "Monte Verde",
        "addr:country": "BR",
        "addr:housenumber": "2243",
        "addr:postcode": "37653-000",
        "addr:state": "MG",
        "addr:street": "Avenida Monte Verde",
        "landuse": "residential",
        "name": "Hotel Villa Greenberg",
        "residential": "cottage",
        "tourism": "hotel",
        "website": "https://www.hotelvillagreenberg.com.br/",
        "id": "way/1348129606"
      },
      "geometry": {
        "type": "Polygon",
        "coordinates": [
          [
            [
              -46.0289081,
              -22.8585361
            ],
            [
              -46.0288236,
              -22.8587802
            ],
            [
              -46.0288169,
              -22.8587957
            ],
            [
              -46.0288042,
              -22.8587988
            ],
            [
              -46.0285467,
              -22.858585
            ],
            [
              -46.0284099,
              -22.8584842
            ],
            [
              -46.0285749,
              -22.8582723
            ],
            [
              -46.0289081,
              -22.8585361
            ]
          ]
        ]
      }
    },
    {
      "type": "Feature",
      "id": "node/817894669",
      "properties": {
        "timestamp": "2024-12-26T03:45:00Z",
        "version": 2,
        "changeset": 160622285,
        "addr:city": "Monte Verde",
        "addr:country": "BR",
        "addr:housenumber": "150",
        "addr:postcode": "37653-000",
        "addr:state": "MG",
        "addr:street": "Rua do Aeroporto",
        "name": "Pousada da Trilha",
        "tourism": "hotel",
        "id": "node/817894669"
      },
      "geometry": {
        "type": "Point",
        "coordinates": [
          -46.0430797,
          -22.8625098
        ]
      }
    },
    {
      "type": "Feature",
      "id": "node/2977475028",
      "properties": {
        "timestamp": "2024-12-20T21:02:20Z",
        "version": 2,
        "changeset": 160449540,
        "addr:city": "Camanducaia",
        "addr:housenumber": "2",
        "addr:street": "Travessa da Pedra",
        "addr:suburb": "Monte Verde",
        "name": "Meissner-hof",
        "tourism": "hotel",
        "id": "node/2977475028"
      },
      "geometry": {
        "type": "Point",
        "coordinates": [
          -46.0403101,
          -22.8748819
        ]
      }
    },
    {
      "type": "Feature",
      "id": "node/3603428519",
      "properties": {
        "timestamp": "2025-01-09T00:50:20Z",
        "version": 5,
        "changeset": 161152534,
        "addr:city": "Monte Verde",
        "addr:housenumber": "309",
        "addr:postcode": "37653-000",
        "addr:street": "Rua do Bosque",
        "ele": "1750",
        "name": "Kuriuwa Hotel",
        "phone": "+55 35 3438 1959",
        "tourism": "hotel",
        "website": "https://www.kuriuwahotel.com.br/",
        "id": "node/3603428519"
      },
      "geometry": {
        "type": "Point",
        "coordinates": [
          -46.0245032,
          -22.8769444
        ]
      }
    },
    {
      "type": "Feature",
      "id": "node/3603461975",
      "properties": {
        "timestamp": "2015-06-18T19:49:05Z",
        "version": 1,
        "changeset": 32059882,
        "addr:city": "Monte Verde",
        "addr:housenumber": "187",
        "addr:street": "Rua do Selado",
        "addr:suburb": "Balneário Monte Verde",
        "name": "Pousada SPA Mirante da Colyna",
        "tourism": "hotel",
        "id": "node/3603461975"
      },
      "geometry": {
        "type": "Point",
        "coordinates": [
          -46.0274004,
          -22.862961
        ]
      }
    },
    {
      "type": "Feature",
      "id": "node/4214136789",
      "properties": {
        "timestamp": "2024-12-19T04:59:35Z",
        "version": 2,
        "changeset": 160377394,
        "addr:housenumber": "215",
        "addr:street": "Rua da Represa",
        "internet_access": "wlan",
        "name": "Pousada Dona Ana",
        "tourism": "hotel",
        "website": "https://www.pousadasonaana.com.br",
        "id": "node/4214136789"
      },
      "geometry": {
        "type": "Point",
        "coordinates": [
          -46.0298543,
          -22.8599197
        ]
      }
    },
    {
      "type": "Feature",
      "id": "node/10062947366",
      "properties": {
        "timestamp": "2022-10-15T15:55:22Z",
        "version": 2,
        "changeset": 127577641,
        "addr:city": "Camanducaia",
        "addr:housenumber": "1211",
        "addr:postcode": "37653-000",
        "addr:street": "Rua Taurus",
        "addr:suburb": "Monte Verde",
        "name": "Hotel Guanxi",
        "phone": "+55 (35) 34382510",
        "tourism": "hotel",
        "website": "https://guanxispahotel.com.br/",
        "id": "node/10062947366"
      },
      "geometry": {
        "type": "Point",
        "coordinates": [
          -46.0203306,
          -22.8680945
        ]
      }
    },
    {
      "type": "Feature",
      "id": "node/12426237904",
      "properties": {
        "timestamp": "2025-01-14T21:05:07Z",
        "version": 4,
        "changeset": 161359455,
        "addr:city": "Monte Verde",
        "addr:country": "BR",
        "addr:housenumber": "711",
        "addr:postcode": "37653-000",
        "addr:state": "MG",
        "addr:street": "Avenida Sol Nascente",
        "name": "Green Village Hotel",
        "tourism": "hotel",
        "id": "node/12426237904"
      },
      "geometry": {
        "type": "Point",
        "coordinates": [
          -46.0413801,
          -22.8599869
        ]
      }
    },
    {
      "type": "Feature",
      "id": "node/12481651497",
      "properties": {
        "timestamp": "2025-01-07T21:18:29Z",
        "version": 1,
        "changeset": 161111706,
        "name": "Pinho Bravo",
        "tourism": "hotel",
        "id": "node/12481651497"
      },
      "geometry": {
        "type": "Point",
        "coordinates": [
          -45.9955582,
          -22.8081174
        ]
      }
    },
    {
      "type": "Feature",
      "id": "node/12481651498",
      "properties": {
        "timestamp": "2025-01-07T21:18:29Z",
        "version": 1,
        "changeset": 161111706,
        "name": "Pousada Diamantiqueira",
        "tourism": "hotel",
        "id": "node/12481651498"
      },
      "geometry": {
        "type": "Point",
        "coordinates": [
          -45.9968886,
          -22.8086934
        ]
      }
    },
    {
      "type": "Feature",
      "id": "node/12485155365",
      "properties": {
        "timestamp": "2025-01-08T20:46:55Z",
        "version": 1,
        "changeset": 161147868,
        "name": "Refúgio do Leão",
        "tourism": "hotel",
        "id": "node/12485155365"
      },
      "geometry": {
        "type": "Point",
        "coordinates": [
          -46.0271131,
          -22.7850286
        ]
      }
    },
    {
      "type": "Feature",
      "id": "node/12496786670",
      "properties": {
        "timestamp": "2025-01-12T20:25:12Z",
        "version": 1,
        "changeset": 161286617,
        "name": "Villa Coração Guest House",
        "tourism": "hotel",
        "id": "node/12496786670"
      },
      "geometry": {
        "type": "Point",
        "coordinates": [
          -46.039938,
          -22.8794174
        ]
      }
    }
  ]
}
