{
  "type": "FeatureCollection",
  "features": [
    {
      "type": "Feature",
      "id": "way/448019169",
      "properties": {
        "timestamp": "2016-10-16T17:53:01Z",
        "version": 1,
        "changeset": 42941951,
        "addr:city": "Conceição das Alagoas",
        "addr:housenumber": "628",
        "addr:state": "MG",
        "addr:street": "Rua Deolindo de Freitas Paixão",
        "addr:suburb": "Centro",
        "building": "yes",
        "name": "Previdência Social",
        "office": "government",
        "opening_hours": "Mo-Fr 07:00-17:00",
        "wheelchair": "yes",
        "id": "way/448019169"
      },
      "geometry": {
        "type": "Polygon",
        "coordinates": [
          [
            [
              -48.3745909,
              -19.9239671
            ],
            [
              -48.3744751,
              -19.9239119
            ],
            [
              -48.3745974,
              -19.9236854
            ],
            [
              -48.3747132,
              -19.9237406
            ],
            [
              -48.3745909,
              -19.9239671
            ]
          ]
        ]
      }
    }
  ]
}
