{
  "type": "FeatureCollection",
  "features": [
    {
      "type": "Feature",
      "id": "way/447908905",
      "properties": {
        "timestamp": "2022-09-25T20:22:38Z",
        "version": 2,
        "changeset": 126628866,
        "addr:city": "Conceição das Alagoas",
        "addr:housenumber": "450",
        "addr:state": "MG",
        "addr:street": "Rua Pedro Lima Chagas",
        "addr:suburb": "Centro",
        "amenity": "school",
        "name": "Escola Estadual Herculegio Antônio Borges",
        "phone": "+55 34 3321 1356",
        "wheelchair": "yes",
        "id": "way/447908905"
      },
      "geometry": {
        "type": "Polygon",
        "coordinates": [
          [
            [
              -48.3776937,
              -19.9195706
            ],
            [
              -48.3779646,
              -19.9190624
            ],
            [
              -48.3786459,
              -19.919384
            ],
            [
              -48.3783764,
              -19.9198921
            ],
            [
              -48.3776937,
              -19.9195706
            ]
          ]
        ]
      }
    },
    {
      "type": "Feature",
      "id": "way/447908906",
      "properties": {
        "timestamp": "2023-06-18T19:50:38Z",
        "version": 2,
        "changeset": 137491228,
        "addr:city": "Conceição das Alagoas",
        "addr:housenumber": "66",
        "addr:state": "MG",
        "addr:street": "Rua Mantura Jabur",
        "addr:suburb": "Jardim Acapulco",
        "amenity": "school",
        "name": "Escola Estadual José Alexandre Miziara",
        "phone": "+55 34 3321 3305",
        "wheelchair": "yes",
        "id": "way/447908906"
      },
      "geometry": {
        "type": "Polygon",
        "coordinates": [
          [
            [
              -48.3852509,
              -19.9234023
            ],
            [
              -48.3858222,
              -19.9236797
            ],
            [
              -48.3854279,
              -19.9243227
            ],
            [
              -48.3847413,
              -19.9239873
            ],
            [
              -48.3852509,
              -19.9234023
            ]
          ]
        ]
      }
    },
    {
      "type": "Feature",
      "id": "way/469128431",
      "properties": {
        "timestamp": "2017-01-26T18:17:37Z",
        "version": 1,
        "changeset": 45522533,
        "addr:city": "Conceição das Alagoas",
        "addr:housenumber": "294",
        "addr:state": "MG",
        "addr:street": "Rua José Afonso de Souza",
        "addr:suburb": "Centro",
        "amenity": "school",
        "name": "Escola Municipal Carlos Luz",
        "operator": "Prefeitura Municipal",
        "phone": "+55 34 3321 3191",
        "id": "way/469128431"
      },
      "geometry": {
        "type": "Polygon",
        "coordinates": [
          [
            [
              -48.3875924,
              -19.9173753
            ],
            [
              -48.3874315,
              -19.9177826
            ],
            [
              -48.3867153,
              -19.9174447
            ],
            [
              -48.3868736,
              -19.9170626
            ],
            [
              -48.3875924,
              -19.9173753
            ]
          ]
        ]
      }
    },
    {
      "type": "Feature",
      "id": "node/4635264962",
      "properties": {
        "timestamp": "2017-01-26T18:17:37Z",
        "version": 1,
        "changeset": 45522533,
        "addr:city": "Conceição das Alagoas",
        "addr:housenumber": "11",
        "addr:street": "Avenida Rafael Anconi Sobrinho",
        "addr:suburb": "Conjunto Habitacional Felipe Mansur",
        "amenity": "school",
        "name": "E M Honorina Barbosa",
        "operator": "Prefeitura Municipal",
        "phone": "+55 34 3321 1569",
        "id": "node/4635264962"
      },
      "geometry": {
        "type": "Point",
        "coordinates": [
          -48.3730334,
          -19.9221729
        ]
      }
    }
  ]
}
