{
  "type": "FeatureCollection",
  "features": [
    {
      "type": "Feature",
      "id": "way/1122813477",
      "properties": {
        "timestamp": "2022-12-17T02:27:27Z",
        "version": 1,
        "changeset": 130174988,
        "addr:housenumber": "815",
        "addr:postcode": "18950-065",
        "addr:street": "Rua Sete de Setembro",
        "addr:suburb": "Centro",
        "amenity": "school",
        "contact:phone": "+55 14 3344 3399",
        "email": "e034009a@educacao.sp.gov.br",
        "name": "Escola Estadual Professor Júlio Mastrodemico",
        "operator": "Secretaria da Educação do Estado de São Paulo",
        "operator:type": "government",
        "phone": "+55 14 3344 1551",
        "ref": "INEP-35034009",
        "religion": "none",
        "source": "INEP;CADMEC 2017",
        "id": "way/1122813477"
      },
      "geometry": {
        "type": "Polygon",
        "coordinates": [
          [
            [
              -49.6310843,
              -23.0549035
            ],
            [
              -49.6309046,
              -23.0555921
            ],
            [
              -49.6303306,
              -23.0554983
            ],
            [
              -49.6304921,
              -23.0548012
            ],
            [
              -49.6310843,
              -23.0549035
            ]
          ]
        ]
      }
    }
  ]
}
