{
  "type": "FeatureCollection",
  "features": [
    {
      "type": "Feature",
      "id": "way/224478802",
      "properties": {
        "timestamp": "2016-02-25T02:03:05Z",
        "version": 3,
        "changeset": 37426154,
        "IJSN:administra": "Estadual",
        "IJSN:classeCnae": "Fundamental e Médio",
        "addr:city": "Bom Jesus do Norte",
        "addr:housenumber": "70",
        "addr:postcode": "29460-000",
        "addr:street": "Rua Ataulpho Lobo",
        "addr:suburb": "Centro",
        "alt_name": "Escola Estadual de Ensino Fundamental e Médio",
        "amenity": "school",
        "contact:phone": "(28) 3562-1606",
        "name": "EEEFM Horácio Plínio",
        "source": "IJSN",
        "id": "way/224478802"
      },
      "geometry": {
        "type": "Polygon",
        "coordinates": [
          [
            [
              -41.678431,
              -21.1327828
            ],
            [
              -41.6785543,
              -21.1328693
            ],
            [
              -41.6784432,
              -21.1330071
            ],
            [
              -41.6783199,
              -21.1329206
            ],
            [
              -41.678431,
              -21.1327828
            ]
          ]
        ]
      }
    },
    {
      "type": "Feature",
      "id": "node/2333033478",
      "properties": {
        "timestamp": "2014-03-27T04:37:56Z",
        "version": 2,
        "changeset": 21337722,
        "amenity": "school",
        "id": "node/2333033478"
      },
      "geometry": {
        "type": "Point",
        "coordinates": [
          -41.6722177,
          -21.1252101
        ]
      }
    },
    {
      "type": "Feature",
      "id": "node/2851411037",
      "properties": {
        "timestamp": "2022-09-06T12:28:35Z",
        "version": 5,
        "changeset": 125857079,
        "IJSN:administra": "Municipal",
        "IJSN:classeCnae": "Fundamental",
        "addr:city": "Bom Jesus do Norte",
        "addr:housenumber": "4",
        "addr:postcode": "29460-000",
        "addr:street": "Rua Governador Lacerda de Aguiar",
        "addr:suburb": "Centro",
        "alt_name": "Escola Municipal de Ensino Fundamental",
        "amenity": "school",
        "contact:phone": "+55 28 3562-1647",
        "name": "EMEF Coronel Antônio Honório",
        "operator": "Secretaria de Educação do Estado do Espírito Santo",
        "operator:type": "public",
        "source": "IJSN",
        "id": "node/2851411037"
      },
      "geometry": {
        "type": "Point",
        "coordinates": [
          -41.676577,
          -21.1311229
        ]
      }
    },
    {
      "type": "Feature",
      "id": "node/4024905592",
      "properties": {
        "timestamp": "2016-02-25T02:00:37Z",
        "version": 1,
        "changeset": 37426154,
        "IJSN:administra": "Municipal",
        "IJSN:classeCnae": "Fundamental",
        "addr:city": "Bom Jesus do Norte",
        "addr:postcode": "29460-000",
        "addr:street": "Rodovia ES - 484 Km 1",
        "addr:suburb": "Comunidade Bom Jesus do Norte",
        "alt_name": "Escola Municipal de Ensino Fundamental",
        "amenity": "school",
        "name": "EMEF Lar André Luiz",
        "source": "IJSN",
        "id": "node/4024905592"
      },
      "geometry": {
        "type": "Point",
        "coordinates": [
          -41.6775215,
          -21.1165819
        ]
      }
    },
    {
      "type": "Feature",
      "id": "node/4024905641",
      "properties": {
        "timestamp": "2016-02-25T02:00:45Z",
        "version": 1,
        "changeset": 37426154,
        "IJSN:administra": "Municipal",
        "IJSN:classeCnae": "Fundamental",
        "addr:city": "Bom Jesus do Norte",
        "addr:postcode": "29460-000",
        "addr:suburb": "Comunidade Palmeira",
        "alt_name": "Escola Municipal de Ensino Fundamental",
        "amenity": "school",
        "name": "EMEF Palmeiras",
        "source": "IJSN",
        "id": "node/4024905641"
      },
      "geometry": {
        "type": "Point",
        "coordinates": [
          -41.6085994,
          -21.0544396
        ]
      }
    },
    {
      "type": "Feature",
      "id": "node/4024905914",
      "properties": {
        "timestamp": "2022-09-06T02:46:38Z",
        "version": 2,
        "changeset": 125836065,
        "IJSN:administra": "Municipal",
        "IJSN:classeCnae": "Fundamental",
        "addr:city": "Bom Jesus do Norte",
        "addr:postcode": "29460-000",
        "addr:street": "Rua Luis José Domingos",
        "addr:suburb": "Loteamento Silvana",
        "alt_name": "Escola Municipal de Ensino Infantil e Fundamental",
        "amenity": "school",
        "contact:phone": "(27) 3562-1932",
        "name": "EMEIEF Minervina da Silva Araújo",
        "source": "IJSN",
        "id": "node/4024905914"
      },
      "geometry": {
        "type": "Point",
        "coordinates": [
          -41.6704824,
          -21.1264315
        ]
      }
    },
    {
      "type": "Feature",
      "id": "node/4024905955",
      "properties": {
        "timestamp": "2016-02-25T02:01:20Z",
        "version": 1,
        "changeset": 37426154,
        "IJSN:administra": "Municipal",
        "IJSN:classeCnae": "Fundamental",
        "addr:city": "Bom Jesus do Norte",
        "addr:housenumber": "186",
        "addr:postcode": "29460-000",
        "addr:street": "Rua José Cordeiro",
        "addr:suburb": "São Sebastião",
        "alt_name": "Escola Municipal de Ensino Infantil e Fundamental",
        "amenity": "school",
        "contact:phone": "(28) 3562-1501",
        "name": "EMEIEF São Sebastião",
        "source": "IJSN",
        "id": "node/4024905955"
      },
      "geometry": {
        "type": "Point",
        "coordinates": [
          -41.6724818,
          -21.1250191
        ]
      }
    }
  ]
}
