{
  "type": "FeatureCollection",
  "features": [
    {
      "type": "Feature",
      "id": "way/704407220",
      "properties": {
        "timestamp": "2022-05-18T03:52:12Z",
        "version": 3,
        "changeset": 121123483,
        "addr:city": "Bandeirantes - PR",
        "addr:housenumber": "2271",
        "addr:postcode": "86360-000",
        "addr:street": "Avenida Edelina Meneguel Rando",
        "addr:suburb": "Via Maria",
        "building": "yes",
        "name": "22Âª Ciretran - Detran PR",
        "office": "government",
        "id": "way/704407220"
      },
      "geometry": {
        "type": "Polygon",
        "coordinates": [
          [
            [
              -50.3648688,
              -23.1131387
            ],
            [
              -50.3649501,
              -23.1132839
            ],
            [
              -50.364703,
              -23.1134078
            ],
            [
              -50.3646243,
              -23.1132692
            ],
            [
              -50.3648688,
              -23.1131387
            ]
          ]
        ]
      }
    }
  ]
}
