{
  "type": "FeatureCollection",
  "features": [
    {
      "type": "Feature",
      "id": "node/1686114249",
      "properties": {
        "timestamp": "2012-03-22T18:20:55Z",
        "version": 1,
        "changeset": 11065720,
        "amenity": "cinema",
        "id": "node/1686114249"
      },
      "geometry": {
        "type": "Point",
        "coordinates": [
          -47.4083778,
          -22.5714655
        ]
      }
    },
    {
      "type": "Feature",
      "id": "node/12201946970",
      "properties": {
        "timestamp": "2024-09-26T14:39:48Z",
        "version": 1,
        "changeset": 157132256,
        "addr:housenumber": "800",
        "addr:street": "Avenida Carlos Kuntz Busch",
        "addr:suburb": "Parque Egisto Ragazzo",
        "amenity": "cinema",
        "name": "Centerplex Limeira",
        "payment:cash": "yes",
        "payment:debit_cards": "yes",
        "phone": "+55 19 3513 9129",
        "screen": "5",
        "website": "https://www.veloxtickets.com/Portal/Local/Cinema/Limeira/Centerplex-Limeira/LIM",
        "id": "node/12201946970"
      },
      "geometry": {
        "type": "Point",
        "coordinates": [
          -47.3862751,
          -22.5330713
        ]
      }
    }
  ]
}
