{
  "type": "FeatureCollection",
  "features": [
    {
      "type": "Feature",
      "id": "way/548207987",
      "properties": {
        "timestamp": "2022-12-04T19:20:48Z",
        "version": 5,
        "changeset": 129715534,
        "addr:city": "Limeira",
        "addr:housenumber": "3800",
        "addr:street": "Avenida Doutor Lauro Correa da Silva",
        "addr:suburb": "Jardim Adélia Cavicchia Grotta",
        "baby_feeding": "no",
        "building": "public",
        "building:levels": "2",
        "email": "ceprosom@limeira.sp.gov.br",
        "government": "yes",
        "layer": "-1",
        "name": "CEPROSOM",
        "office": "government",
        "phone": "+55 19 3404 6200",
        "start_date": "2022-08-29",
        "website": "https://www.ceprosom.sp.gov.br/portal2/",
        "id": "way/548207987"
      },
      "geometry": {
        "type": "Polygon",
        "coordinates": [
          [
            [
              -47.414056,
              -22.5907836
            ],
            [
              -47.4137188,
              -22.5901584
            ],
            [
              -47.414643,
              -22.5895881
            ],
            [
              -47.4150301,
              -22.5900103
            ],
            [
              -47.4150315,
              -22.5900511
            ],
            [
              -47.4146869,
              -22.5903348
            ],
            [
              -47.4142888,
              -22.5906583
            ],
            [
              -47.414056,
              -22.5907836
            ]
          ]
        ]
      }
    },
    {
      "type": "Feature",
      "id": "way/1318264757",
      "properties": {
        "timestamp": "2024-09-26T02:36:05Z",
        "version": 1,
        "changeset": 157107033,
        "building": "yes",
        "government": "public_service",
        "name": "Velório",
        "office": "government",
        "id": "way/1318264757"
      },
      "geometry": {
        "type": "Polygon",
        "coordinates": [
          [
            [
              -47.4109535,
              -22.5698437
            ],
            [
              -47.4108134,
              -22.5699985
            ],
            [
              -47.4106481,
              -22.5698586
            ],
            [
              -47.4107468,
              -22.5697653
            ],
            [
              -47.4108594,
              -22.5697547
            ],
            [
              -47.4109535,
              -22.5698437
            ]
          ]
        ]
      }
    },
    {
      "type": "Feature",
      "id": "way/1321614064",
      "properties": {
        "timestamp": "2024-10-06T13:48:57Z",
        "version": 1,
        "changeset": 157541279,
        "addr:street": "Rua Presidente Prudente",
        "building": "yes",
        "government": "social_security",
        "name": "Instituto Nacional do Seguro Social",
        "office": "government",
        "operator": "Instituto Nacional do Seguro Social",
        "operator:short": "INSS",
        "operator:wikidata": "Q10302614",
        "id": "way/1321614064"
      },
      "geometry": {
        "type": "Polygon",
        "coordinates": [
          [
            [
              -47.400025,
              -22.5689906
            ],
            [
              -47.4003201,
              -22.5691962
            ],
            [
              -47.4002316,
              -22.5693101
            ],
            [
              -47.3999339,
              -22.5690872
            ],
            [
              -47.400025,
              -22.5689906
            ]
          ]
        ]
      }
    },
    {
      "type": "Feature",
      "id": "way/1321721293",
      "properties": {
        "timestamp": "2024-10-07T00:12:31Z",
        "version": 1,
        "changeset": 157560936,
        "addr:housenumber": "781",
        "addr:street": "Avenida Campinas",
        "building": "yes",
        "government": "public_service",
        "name": "Programa de Atendimento Domiciliar",
        "office": "government",
        "id": "way/1321721293"
      },
      "geometry": {
        "type": "Polygon",
        "coordinates": [
          [
            [
              -47.3939339,
              -22.5744889
            ],
            [
              -47.3938926,
              -22.5745633
            ],
            [
              -47.3938061,
              -22.5745143
            ],
            [
              -47.3937943,
              -22.5745325
            ],
            [
              -47.393694,
              -22.5744762
            ],
            [
              -47.3937648,
              -22.5743545
            ],
            [
              -47.393869,
              -22.574409
            ],
            [
              -47.3938572,
              -22.5744381
            ],
            [
              -47.3939339,
              -22.5744889
            ]
          ]
        ]
      }
    },
    {
      "type": "Feature",
      "id": "node/10238827596",
      "properties": {
        "timestamp": "2022-12-04T19:20:48Z",
        "version": 1,
        "changeset": 129715534,
        "addr:city": "Limeira",
        "addr:housenumber": "3800",
        "addr:street": "Avenida Doutor Lauro Correa da Silva",
        "addr:suburb": "Jardim Adélia Cavicchia Grotta",
        "government": "yes",
        "name": "Conselho Tutelar 2",
        "office": "government",
        "opening_hours": "Mo-Fr 08:00-17:00; We off",
        "phone": "+55 19 3404-6111",
        "phone_1": "+55 19 3404-6112",
        "id": "node/10238827596"
      },
      "geometry": {
        "type": "Point",
        "coordinates": [
          -47.4147075,
          -22.5898201
        ]
      }
    },
    {
      "type": "Feature",
      "id": "node/11820261004",
      "properties": {
        "timestamp": "2024-04-15T23:17:22Z",
        "version": 2,
        "changeset": 150061069,
        "addr:city": "limeira",
        "addr:housenumber": "581",
        "addr:postcode": "13480-731",
        "addr:street": "Rua João Kuhl Filho",
        "addr:suburb": "São João",
        "email": "eda.limeira@sp.gov.br",
        "government": "public_service",
        "name": "Coordenadoria de Defesa Agropecuária",
        "name:pt": "CDA Regional de Limeira",
        "office": "government",
        "opening_hours": "Mo-Fr 07:30-17:00",
        "phone": "(19) 3441-2514",
        "website": "https://www.defesa.agricultura.sp.gov.br/",
        "id": "node/11820261004"
      },
      "geometry": {
        "type": "Point",
        "coordinates": [
          -47.4165786,
          -22.5627058
        ]
      }
    },
    {
      "type": "Feature",
      "id": "node/11820286997",
      "properties": {
        "timestamp": "2024-04-15T23:17:22Z",
        "version": 1,
        "changeset": 150061069,
        "addr:city": "limeira",
        "addr:housenumber": "581",
        "addr:postcode": "13480-731",
        "addr:street": "Rua João Kuhl Filho",
        "addr:suburb": "São João",
        "government": "public_service",
        "name": "Coordenadoria de Assistência Técnica Integral",
        "name:pt": "CATI - EDR de Limeira",
        "office": "government",
        "opening_hours": "Mo-Fr 8:00-17:00",
        "phone": "(19) 3441-1178",
        "id": "node/11820286997"
      },
      "geometry": {
        "type": "Point",
        "coordinates": [
          -47.4165575,
          -22.562556
        ]
      }
    },
    {
      "type": "Feature",
      "id": "node/12201922969",
      "properties": {
        "timestamp": "2024-09-26T14:25:37Z",
        "version": 1,
        "changeset": 157131627,
        "addr:housenumber": "800",
        "addr:street": "Avenida Carlos Kuntz Busch",
        "addr:suburb": "Parque Egisto Ragazzo",
        "government": "public_service",
        "name": "Poupatempo",
        "office": "government",
        "website": "https://www.poupatempo.sp.gov.br/",
        "id": "node/12201922969"
      },
      "geometry": {
        "type": "Point",
        "coordinates": [
          -47.3858781,
          -22.5328533
        ]
      }
    }
  ]
}
