{
  "type": "FeatureCollection",
  "features": [
    {
      "type": "Feature",
      "id": "way/1319095120",
      "properties": {
        "timestamp": "2024-09-28T20:27:46Z",
        "version": 1,
        "changeset": 157227869,
        "addr:street": "Rua Doutor José de Campos Camargo",
        "addr:suburb": "Jardim Morro Branco",
        "amenity": "pharmacy",
        "building": "yes",
        "healthcare": "pharmacy",
        "name": "Bem Te Faz farmácia",
        "id": "way/1319095120"
      },
      "geometry": {
        "type": "Polygon",
        "coordinates": [
          [
            [
              -47.4456555,
              -22.5570363
            ],
            [
              -47.4455844,
              -22.5572189
            ],
            [
              -47.4454979,
              -22.5571989
            ],
            [
              -47.4455659,
              -22.5570049
            ],
            [
              -47.4456555,
              -22.5570363
            ]
          ]
        ]
      }
    },
    {
      "type": "Feature",
      "id": "way/1322656286",
      "properties": {
        "timestamp": "2024-10-09T17:30:31Z",
        "version": 1,
        "changeset": 157682795,
        "addr:housenumber": "246",
        "addr:postcode": "13480-743",
        "addr:street": "Avenida Piracicaba",
        "addr:suburb": "Vila São João",
        "amenity": "pharmacy",
        "branch": "Drogaria São Paulo Limeira IV",
        "brand": "Drogaria São Paulo",
        "brand:wikidata": "Q5308184",
        "building": "yes",
        "dispensing": "yes",
        "drive_through": "no",
        "healthcare": "pharmacy",
        "name": "Drogaria São Paulo",
        "opening_hours": "Mo-Su 07:00-23:00; PH off",
        "phone": "+55 19 3443 7140",
        "id": "way/1322656286"
      },
      "geometry": {
        "type": "Polygon",
        "coordinates": [
          [
            [
              -47.4097437,
              -22.5612
            ],
            [
              -47.4097615,
              -22.5614077
            ],
            [
              -47.4096364,
              -22.5614169
            ],
            [
              -47.4096186,
              -22.5612091
            ],
            [
              -47.4097437,
              -22.5612
            ]
          ]
        ]
      }
    },
    {
      "type": "Feature",
      "id": "way/1323255917",
      "properties": {
        "timestamp": "2024-10-11T19:23:47Z",
        "version": 1,
        "changeset": 157770738,
        "addr:housenumber": "125",
        "addr:postcode": "13480-201",
        "addr:street": "Rua Doutor Trajano de Barros Camargo",
        "addr:suburb": "Centro",
        "amenity": "pharmacy",
        "branch": "Limeira - D",
        "brand": "Droga Raia",
        "brand:wikidata": "Q10357101",
        "building": "yes",
        "dispensing": "yes",
        "drive_through": "no",
        "healthcare": "pharmacy",
        "name": "Droga Raia",
        "opening_hours": "Mo-Su,PH 07:00-23:00",
        "phone": "+55 19 3441 0435",
        "website": "https://www.drogaraia.com.br/",
        "id": "way/1323255917"
      },
      "geometry": {
        "type": "Polygon",
        "coordinates": [
          [
            [
              -47.3994358,
              -22.5678294
            ],
            [
              -47.3993334,
              -22.5679197
            ],
            [
              -47.3992495,
              -22.5679004
            ],
            [
              -47.3992332,
              -22.567866
            ],
            [
              -47.3992728,
              -22.56778
            ],
            [
              -47.3993473,
              -22.5678122
            ],
            [
              -47.3993567,
              -22.5677972
            ],
            [
              -47.3994358,
              -22.5678294
            ]
          ]
        ]
      }
    },
    {
      "type": "Feature",
      "id": "node/1931153386",
      "properties": {
        "timestamp": "2024-10-05T00:32:13Z",
        "version": 4,
        "changeset": 157481533,
        "addr:street": "Avenida Santa Bárbara",
        "amenity": "pharmacy",
        "dispensing": "yes",
        "drive_through": "no",
        "healthcare": "pharmacy",
        "name": "Farmavip",
        "id": "node/1931153386"
      },
      "geometry": {
        "type": "Point",
        "coordinates": [
          -47.4073768,
          -22.573611
        ]
      }
    },
    {
      "type": "Feature",
      "id": "node/9964452774",
      "properties": {
        "timestamp": "2023-06-16T17:30:49Z",
        "version": 2,
        "changeset": 137422902,
        "amenity": "pharmacy",
        "brand": "Droga Raia",
        "brand:wikidata": "Q10357101",
        "healthcare": "pharmacy",
        "name": "Droga Raia",
        "id": "node/9964452774"
      },
      "geometry": {
        "type": "Point",
        "coordinates": [
          -47.4171719,
          -22.5757862
        ]
      }
    },
    {
      "type": "Feature",
      "id": "node/12216838958",
      "properties": {
        "timestamp": "2024-10-02T20:03:17Z",
        "version": 1,
        "changeset": 157393855,
        "addr:housenumber": "485",
        "addr:postcode": "13480-211",
        "addr:street": "Rua Barão de Campinas",
        "addr:suburb": "Centro",
        "amenity": "pharmacy",
        "brand": "Drogaria São Paulo",
        "brand:wikidata": "Q5308184",
        "dispensing": "yes",
        "drive_through": "no",
        "healthcare": "pharmacy",
        "name": "Drogaria São Paulo",
        "opening_hours": "Mo-Su 07:00-22:00; PH off",
        "id": "node/12216838958"
      },
      "geometry": {
        "type": "Point",
        "coordinates": [
          -47.401133,
          -22.562514
        ]
      }
    },
    {
      "type": "Feature",
      "id": "node/12228589657",
      "properties": {
        "timestamp": "2024-10-05T23:35:03Z",
        "version": 1,
        "changeset": 157520386,
        "addr:street": "Avenida Canadá",
        "amenity": "pharmacy",
        "dispensing": "yes",
        "healthcare": "pharmacy",
        "name": "Bem Te Faz Farmácia",
        "id": "node/12228589657"
      },
      "geometry": {
        "type": "Point",
        "coordinates": [
          -47.4480267,
          -22.5497555
        ]
      }
    }
  ]
}
