{
  "type": "FeatureCollection",
  "features": [
    {
      "type": "Feature",
      "id": "node/4014634090",
      "properties": {
        "timestamp": "2016-12-21T05:25:06Z",
        "version": 2,
        "changeset": 44556496,
        "addr:housenumber": "1713",
        "addr:postcode": "87113-000",
        "addr:street": "Avenida Ademar Bornia",
        "name": "Quinte Hotel",
        "phone": "+55-44-3035-1120",
        "tourism": "hotel",
        "id": "node/4014634090"
      },
      "geometry": {
        "type": "Point",
        "coordinates": [
          -51.8726182,
          -23.4402016
        ]
      }
    },
    {
      "type": "Feature",
      "id": "node/4014634091",
      "properties": {
        "timestamp": "2016-12-21T05:25:06Z",
        "version": 2,
        "changeset": 44556496,
        "addr:housenumber": "1800",
        "addr:postcode": "87113-010",
        "addr:street": "Avenida Ademar Bornia",
        "loc_name": "Hotel SÃ£o Lucas",
        "name": "San Lucas Hotel",
        "official_name": "Skalla Eco San Lucas Hotel",
        "phone": "+55-44-3288-2170",
        "tourism": "hotel",
        "website": "http://www.skallaecohoteis.com.br",
        "id": "node/4014634091"
      },
      "geometry": {
        "type": "Point",
        "coordinates": [
          -51.8715961,
          -23.44077
        ]
      }
    }
  ]
}
