{
  "type": "FeatureCollection",
  "features": [
    {
      "type": "Feature",
      "id": "node/5106189360",
      "properties": {
        "timestamp": "2020-08-17T19:38:00Z",
        "version": 2,
        "changeset": 89535885,
        "amenity": "pharmacy",
        "healthcare": "pharmacy",
        "id": "node/5106189360"
      },
      "geometry": {
        "type": "Point",
        "coordinates": [
          -51.8776317,
          -23.4314095
        ]
      }
    },
    {
      "type": "Feature",
      "id": "node/5106189362",
      "properties": {
        "timestamp": "2020-08-17T19:38:00Z",
        "version": 2,
        "changeset": 89535885,
        "amenity": "pharmacy",
        "healthcare": "pharmacy",
        "id": "node/5106189362"
      },
      "geometry": {
        "type": "Point",
        "coordinates": [
          -51.8776746,
          -23.4317491
        ]
      }
    },
    {
      "type": "Feature",
      "id": "node/5106189373",
      "properties": {
        "timestamp": "2022-12-19T10:12:42Z",
        "version": 3,
        "changeset": 130241679,
        "addr:city": "Sarandi",
        "addr:housenumber": "361",
        "addr:postcode": "87113250",
        "addr:street": "Avenida Rio de Janeiro",
        "addr:suburb": "jd. Novo Independencia",
        "amenity": "pharmacy",
        "dispensing": "yes",
        "healthcare": "pharmacy",
        "name": "Farm√°cia Montreal",
        "opening_hours": "Mo-Su 08:00-19:00",
        "id": "node/5106189373"
      },
      "geometry": {
        "type": "Point",
        "coordinates": [
          -51.8781633,
          -23.4321136
        ]
      }
    }
  ]
}
