{
  "type": "FeatureCollection",
  "features": [
    {
      "type": "Feature",
      "id": "way/1183061241",
      "properties": {
        "timestamp": "2023-06-19T01:10:43Z",
        "version": 1,
        "changeset": 137496572,
        "addr:city": "Itanhém",
        "addr:postcode": "45970-000",
        "addr:street": "Praça da Sudene",
        "addr:suburb": "Centro",
        "building": "yes",
        "government": "social_security",
        "name": "Agência da Previdência Social em Itanhém",
        "office": "government",
        "operator": "Instituto Nacional do Seguro Social",
        "operator:short": "INSS",
        "operator:wikidata": "Q10302614",
        "phone": "+55 73 3295 2720",
        "id": "way/1183061241"
      },
      "geometry": {
        "type": "Polygon",
        "coordinates": [
          [
            [
              -40.3316665,
              -17.1683589
            ],
            [
              -40.3313949,
              -17.1683659
            ],
            [
              -40.3313919,
              -17.168259
            ],
            [
              -40.3316635,
              -17.168252
            ],
            [
              -40.3316665,
              -17.1683589
            ]
          ]
        ]
      }
    },
    {
      "type": "Feature",
      "id": "node/10985287777",
      "properties": {
        "timestamp": "2023-06-18T22:32:16Z",
        "version": 1,
        "changeset": 137494677,
        "addr:city": "Itanhém",
        "addr:housenumber": "01",
        "addr:postcode": "45970-000",
        "addr:street": "Praça Castro Alves",
        "addr:suburb": "Centro",
        "email": "administracao@itanhem.ba.gov.br",
        "government": "administrative",
        "name": "Secretaria Municipal de Administração e Finanças",
        "office": "government",
        "opening_hours": "Mo-Fr 07:00-13:00",
        "phone": "+55 73 3295 2062",
        "id": "node/10985287777"
      },
      "geometry": {
        "type": "Point",
        "coordinates": [
          -40.3299715,
          -17.1717381
        ]
      }
    },
    {
      "type": "Feature",
      "id": "node/10985410207",
      "properties": {
        "timestamp": "2024-04-22T22:13:37Z",
        "version": 3,
        "changeset": 150368377,
        "addr:city": "Itanhém",
        "addr:postcode": "45970-000",
        "addr:street": "Rua Teixeira de Freitas",
        "addr:suburb": "Centro",
        "government": "administrative",
        "name": "Secretaria Municipal de Desenvolvimênto Econômico",
        "office": "government",
        "id": "node/10985410207"
      },
      "geometry": {
        "type": "Point",
        "coordinates": [
          -40.3280914,
          -17.1693476
        ]
      }
    },
    {
      "type": "Feature",
      "id": "node/10985410208",
      "properties": {
        "timestamp": "2024-04-22T22:13:37Z",
        "version": 3,
        "changeset": 150368377,
        "addr:city": "Itanhém",
        "addr:postcode": "45970-000",
        "addr:street": "Rua Teixeira de Freitas",
        "addr:suburb": "Centro",
        "government": "administrative",
        "name": "Secretaria Municipal de Turismo",
        "office": "government",
        "id": "node/10985410208"
      },
      "geometry": {
        "type": "Point",
        "coordinates": [
          -40.3283798,
          -17.1693871
        ]
      }
    },
    {
      "type": "Feature",
      "id": "node/11006058845",
      "properties": {
        "timestamp": "2023-06-25T18:56:51Z",
        "version": 1,
        "changeset": 137763937,
        "addr:city": "Itanhém",
        "addr:postcode": "45970-000",
        "addr:street": "Rua Simplicio Binas",
        "addr:suburb": "Centro",
        "government": "education",
        "name": "Secretaria Municipal de Educação e Cultura",
        "office": "government",
        "phone": "+55 73 3295 2166",
        "id": "node/11006058845"
      },
      "geometry": {
        "type": "Point",
        "coordinates": [
          -40.3314452,
          -17.1718688
        ]
      }
    }
  ]
}
