{
  "type": "FeatureCollection",
  "features": [
    {
      "type": "Feature",
      "id": "way/1034338211",
      "properties": {
        "timestamp": "2022-02-23T01:33:33Z",
        "version": 1,
        "changeset": 117748977,
        "amenity": "school",
        "id": "way/1034338211"
      },
      "geometry": {
        "type": "Polygon",
        "coordinates": [
          [
            [
              -48.6242917,
              -8.7155774
            ],
            [
              -48.6241831,
              -8.7158711
            ],
            [
              -48.6239096,
              -8.7157724
            ],
            [
              -48.6240182,
              -8.7154786
            ],
            [
              -48.6242917,
              -8.7155774
            ]
          ]
        ]
      }
    },
    {
      "type": "Feature",
      "id": "way/1038100691",
      "properties": {
        "timestamp": "2022-03-07T22:23:13Z",
        "version": 1,
        "changeset": 118215015,
        "addr:city": "Guaraí",
        "addr:postcode": "77700-000",
        "addr:street": "Avenida dos Três Poderes",
        "addr:suburb": "Seotr Nova Querencia",
        "amenity": "school",
        "name": "Escola Municipal Luiz De Camoes",
        "phone": "+55 63 3464 3046",
        "id": "way/1038100691"
      },
      "geometry": {
        "type": "Polygon",
        "coordinates": [
          [
            [
              -48.518536,
              -8.8486498
            ],
            [
              -48.5182971,
              -8.8493512
            ],
            [
              -48.5179436,
              -8.8492336
            ],
            [
              -48.5181827,
              -8.8485322
            ],
            [
              -48.518536,
              -8.8486498
            ]
          ]
        ]
      }
    },
    {
      "type": "Feature",
      "id": "way/1038101741",
      "properties": {
        "timestamp": "2022-03-07T22:29:07Z",
        "version": 1,
        "changeset": 118215166,
        "addr:city": "Guaraí",
        "addr:housenumber": "2801",
        "addr:postcode": "77700-000",
        "addr:street": "Avenida Joaquim Guará",
        "addr:suburb": "Centro",
        "amenity": "school",
        "phone": "+55 63 3464 1817",
        "id": "way/1038101741"
      },
      "geometry": {
        "type": "Polygon",
        "coordinates": [
          [
            [
              -48.5084809,
              -8.8425999
            ],
            [
              -48.5084085,
              -8.8431274
            ],
            [
              -48.5074724,
              -8.8428915
            ],
            [
              -48.5076012,
              -8.8423853
            ],
            [
              -48.5084809,
              -8.8425999
            ]
          ]
        ]
      }
    },
    {
      "type": "Feature",
      "id": "way/1038111362",
      "properties": {
        "timestamp": "2022-03-07T23:33:22Z",
        "version": 1,
        "changeset": 118216371,
        "addr:city": "Guaraí",
        "addr:housenumber": "1140",
        "addr:postcode": "77700-000",
        "addr:street": "Avenida Alagoas",
        "addr:suburb": "Setor Pestana",
        "amenity": "school",
        "name": "Esc Mul Integ Leoncio De Sousa Miranda",
        "phone": "+55 63 3464 5281",
        "id": "way/1038111362"
      },
      "geometry": {
        "type": "Polygon",
        "coordinates": [
          [
            [
              -48.5081618,
              -8.8262735
            ],
            [
              -48.5079981,
              -8.8269441
            ],
            [
              -48.507628,
              -8.8268434
            ],
            [
              -48.5074671,
              -8.8273417
            ],
            [
              -48.5070004,
              -8.827172
            ],
            [
              -48.507349,
              -8.8262364
            ],
            [
              -48.5077782,
              -8.8263345
            ],
            [
              -48.5078157,
              -8.826202
            ],
            [
              -48.5081618,
              -8.8262735
            ]
          ]
        ]
      }
    },
    {
      "type": "Feature",
      "id": "way/1038111682",
      "properties": {
        "timestamp": "2022-03-07T23:35:46Z",
        "version": 1,
        "changeset": 118216403,
        "addr:city": "Guaraí",
        "addr:housenumber": "1467",
        "addr:postcode": "77700-000",
        "addr:street": "Rua Seis de Agosto",
        "addr:suburb": "Setor Guará",
        "amenity": "school",
        "name": "Escola Estadual Girassol De Tempo Integral Jose Costa Soares",
        "phone": "+55 63 3464 4501",
        "id": "way/1038111682"
      },
      "geometry": {
        "type": "Polygon",
        "coordinates": [
          [
            [
              -48.5090937,
              -8.8295504
            ],
            [
              -48.5096018,
              -8.8295901
            ],
            [
              -48.5096323,
              -8.8296325
            ],
            [
              -48.5095492,
              -8.8299718
            ],
            [
              -48.5090037,
              -8.8299253
            ],
            [
              -48.5090937,
              -8.8295504
            ]
          ]
        ]
      }
    },
    {
      "type": "Feature",
      "id": "way/1038111719",
      "properties": {
        "timestamp": "2022-03-07T23:36:53Z",
        "version": 1,
        "changeset": 118216418,
        "addr:city": "Guaraí",
        "addr:housenumber": "1055",
        "addr:postcode": "77700-000",
        "addr:street": "Avenida Araguaia",
        "addr:suburb": "Centro",
        "amenity": "school",
        "name": "Centro De Ensino Medio Oquerlina Torres",
        "phone": "+55 63 3464 2550",
        "id": "way/1038111719"
      },
      "geometry": {
        "type": "Polygon",
        "coordinates": [
          [
            [
              -48.5101761,
              -8.833541
            ],
            [
              -48.5100581,
              -8.8340234
            ],
            [
              -48.5093205,
              -8.8340075
            ],
            [
              -48.509417,
              -8.8334164
            ],
            [
              -48.5101761,
              -8.833541
            ]
          ]
        ]
      }
    },
    {
      "type": "Feature",
      "id": "way/1038111799",
      "properties": {
        "timestamp": "2022-03-07T23:38:05Z",
        "version": 1,
        "changeset": 118216437,
        "addr:city": "Guaraí",
        "addr:housenumber": "2211",
        "addr:postcode": "77700-000",
        "addr:street": "Avenida Tiradentes",
        "addr:suburb": "Centro",
        "amenity": "school",
        "name": "Colegio Militar Do Estado Do Tocantins - Dona Anaides Brito Miranda",
        "phone": "+55 63 3464 2233",
        "id": "way/1038111799"
      },
      "geometry": {
        "type": "Polygon",
        "coordinates": [
          [
            [
              -48.5144006,
              -8.8386721
            ],
            [
              -48.5143469,
              -8.839401
            ],
            [
              -48.5137917,
              -8.8393612
            ],
            [
              -48.5138614,
              -8.8386509
            ],
            [
              -48.5144006,
              -8.8386721
            ]
          ]
        ]
      }
    },
    {
      "type": "Feature",
      "id": "way/1038111880",
      "properties": {
        "timestamp": "2022-03-07T23:41:31Z",
        "version": 2,
        "changeset": 118216477,
        "addr:city": "Guaraí",
        "addr:housenumber": "2642",
        "addr:postcode": "77700-000",
        "addr:street": "Avenida JK",
        "addr:suburb": "Centro",
        "amenity": "school",
        "name": "Escola Especial Estrela da Esperança",
        "phone": "+55 63 3464 1355",
        "id": "way/1038111880"
      },
      "geometry": {
        "type": "Polygon",
        "coordinates": [
          [
            [
              -48.5060025,
              -8.8406309
            ],
            [
              -48.5058726,
              -8.8412965
            ],
            [
              -48.5053819,
              -8.8412125
            ],
            [
              -48.5054717,
              -8.8405358
            ],
            [
              -48.5060025,
              -8.8406309
            ]
          ]
        ]
      }
    },
    {
      "type": "Feature",
      "id": "way/1038112011",
      "properties": {
        "timestamp": "2022-03-07T23:41:31Z",
        "version": 1,
        "changeset": 118216477,
        "addr:city": "Guaraí",
        "addr:housenumber": "2747",
        "addr:postcode": "77700-000",
        "addr:street": "Avenida JK",
        "addr:suburb": "Centro",
        "amenity": "school",
        "name": "Colegio Estadual Raimundo Alencar Leao",
        "id": "way/1038112011"
      },
      "geometry": {
        "type": "Polygon",
        "coordinates": [
          [
            [
              -48.5058603,
              -8.8413112
            ],
            [
              -48.5056589,
              -8.8424507
            ],
            [
              -48.5048391,
              -8.8422996
            ],
            [
              -48.5050035,
              -8.8411762
            ],
            [
              -48.5058603,
              -8.8413112
            ]
          ]
        ]
      }
    },
    {
      "type": "Feature",
      "id": "way/1038112040",
      "properties": {
        "timestamp": "2022-03-07T23:42:26Z",
        "version": 1,
        "changeset": 118216493,
        "addr:city": "Guaraí",
        "addr:housenumber": "3117",
        "addr:postcode": "77700-000",
        "addr:street": "Avenida JK",
        "addr:suburb": "Alvorada",
        "amenity": "school",
        "name": "Educandario Moranguinho",
        "phone": "+55 63 3464 1819",
        "id": "way/1038112040"
      },
      "geometry": {
        "type": "Polygon",
        "coordinates": [
          [
            [
              -48.5054464,
              -8.8448221
            ],
            [
              -48.5053446,
              -8.84517
            ],
            [
              -48.5050891,
              -8.8451052
            ],
            [
              -48.5051961,
              -8.8447556
            ],
            [
              -48.5054464,
              -8.8448221
            ]
          ]
        ]
      }
    },
    {
      "type": "Feature",
      "id": "way/1038112225",
      "properties": {
        "timestamp": "2022-03-07T23:46:38Z",
        "version": 1,
        "changeset": 118216551,
        "addr:city": "Guaraí",
        "addr:housenumber": "3749",
        "addr:postcode": "77700-000",
        "addr:street": "Avenida B8",
        "addr:suburb": "Setor Aeroporto",
        "amenity": "school",
        "name": "Esc Est Irineu Albano Hendges",
        "phone": "+55 63 3464 2300",
        "id": "way/1038112225"
      },
      "geometry": {
        "type": "Polygon",
        "coordinates": [
          [
            [
              -48.5042826,
              -8.8512854
            ],
            [
              -48.504078,
              -8.8523311
            ],
            [
              -48.5035626,
              -8.8522327
            ],
            [
              -48.503767,
              -8.851187
            ],
            [
              -48.5042826,
              -8.8512854
            ]
          ]
        ]
      }
    },
    {
      "type": "Feature",
      "id": "way/1038112294",
      "properties": {
        "timestamp": "2022-03-07T23:47:22Z",
        "version": 1,
        "changeset": 118216568,
        "addr:city": "Guaraí",
        "addr:housenumber": "3779",
        "addr:postcode": "77700-000",
        "addr:street": "Avenida B9",
        "addr:suburb": "Setor Aeroporto",
        "amenity": "school",
        "name": "Colegio Comercial Impacto",
        "phone": "+55 63 3464 1453",
        "id": "way/1038112294"
      },
      "geometry": {
        "type": "Polygon",
        "coordinates": [
          [
            [
              -48.503028,
              -8.8508238
            ],
            [
              -48.5029141,
              -8.8516163
            ],
            [
              -48.5022798,
              -8.8515272
            ],
            [
              -48.5023306,
              -8.8511737
            ],
            [
              -48.503028,
              -8.8508238
            ]
          ]
        ]
      }
    },
    {
      "type": "Feature",
      "id": "way/1038112510",
      "properties": {
        "timestamp": "2022-03-07T23:49:56Z",
        "version": 1,
        "changeset": 118216603,
        "addr:city": "Guaraí",
        "addr:housenumber": "3955",
        "addr:postcode": "77700-000",
        "addr:street": "Rua W7",
        "amenity": "school",
        "name": "Escola Municipal Professora Maria Do Socorro Coelho Silva",
        "phone": "+55 63 3464 4917",
        "id": "way/1038112510"
      },
      "geometry": {
        "type": "Polygon",
        "coordinates": [
          [
            [
              -48.4996377,
              -8.8541446
            ],
            [
              -48.4994794,
              -8.8549317
            ],
            [
              -48.4988572,
              -8.8547117
            ],
            [
              -48.4990261,
              -8.8539776
            ],
            [
              -48.4996377,
              -8.8541446
            ]
          ]
        ]
      }
    },
    {
      "type": "Feature",
      "id": "way/1038112700",
      "properties": {
        "timestamp": "2022-03-07T23:51:05Z",
        "version": 1,
        "changeset": 118216619,
        "addr:city": "Guaraí",
        "addr:housenumber": "2679",
        "addr:postcode": "77700-000",
        "addr:street": "Rua da Liberdade",
        "addr:suburb": "Setor Alvorada II",
        "amenity": "school",
        "name": "Centro Municipal De Educacao Infantil Aquarela",
        "phone": "+55 63 3464 4525",
        "id": "way/1038112700"
      },
      "geometry": {
        "type": "Polygon",
        "coordinates": [
          [
            [
              -48.5009362,
              -8.8441972
            ],
            [
              -48.5007098,
              -8.8447654
            ],
            [
              -48.5003895,
              -8.8446447
            ],
            [
              -48.500594,
              -8.8440815
            ],
            [
              -48.5009362,
              -8.8441972
            ]
          ]
        ]
      }
    },
    {
      "type": "Feature",
      "id": "node/9559121766",
      "properties": {
        "timestamp": "2022-03-06T20:47:02Z",
        "version": 1,
        "changeset": 118173933,
        "amenity": "school",
        "name": "Esc Mul Nucleo Euclides Da Cunha",
        "id": "node/9559121766"
      },
      "geometry": {
        "type": "Point",
        "coordinates": [
          -48.1399293,
          -8.622035
        ]
      }
    },
    {
      "type": "Feature",
      "id": "node/9561419004",
      "properties": {
        "timestamp": "2022-03-07T22:30:06Z",
        "version": 1,
        "changeset": 118215194,
        "addr:city": "Guaraí",
        "addr:housenumber": "2823",
        "addr:postcode": "77700-000",
        "addr:street": "Rua 11",
        "addr:suburb": "Centro",
        "amenity": "school",
        "name": "R F Machado - Esfotec",
        "phone": "+55 63 3464 5312",
        "id": "node/9561419004"
      },
      "geometry": {
        "type": "Point",
        "coordinates": [
          -48.5073437,
          -8.8427881
        ]
      }
    },
    {
      "type": "Feature",
      "id": "node/9561426320",
      "properties": {
        "timestamp": "2022-03-07T22:26:40Z",
        "version": 1,
        "changeset": 118215094,
        "addr:city": "Guaraí",
        "addr:housenumber": "1357",
        "addr:postcode": "77700-000",
        "addr:street": "Rua Murilo Braga",
        "addr:suburb": "Centro",
        "amenity": "school",
        "name": "Centro Educacional Executivo",
        "phone": "+55 63 3464 1338",
        "id": "node/9561426320"
      },
      "geometry": {
        "type": "Point",
        "coordinates": [
          -48.5101895,
          -8.8420116
        ]
      }
    },
    {
      "type": "Feature",
      "id": "node/9561514710",
      "properties": {
        "timestamp": "2022-03-07T23:44:17Z",
        "version": 1,
        "changeset": 118216517,
        "addr:city": "Guaraí",
        "addr:housenumber": "235",
        "addr:postcode": "77700-000",
        "addr:street": "Rua da Bandeira",
        "addr:suburb": "Setor Planalto",
        "amenity": "school",
        "name": "Escola Municipal Jk",
        "phone": "+55 63 3464 4941",
        "id": "node/9561514710"
      },
      "geometry": {
        "type": "Point",
        "coordinates": [
          -48.5054366,
          -8.8470313
        ]
      }
    }
  ]
}
