{
  "type": "FeatureCollection",
  "features": [
    {
      "type": "Feature",
      "id": "way/1038365945",
      "properties": {
        "timestamp": "2022-03-08T21:19:42Z",
        "version": 1,
        "changeset": 118253140,
        "addr:city": "Dois Irmãos do Tocantins",
        "addr:postcode": "77685-000",
        "addr:street": "Avenida Três Poderes",
        "addr:suburb": "Centro",
        "amenity": "school",
        "name": "Cmei São João Batista",
        "id": "way/1038365945"
      },
      "geometry": {
        "type": "Polygon",
        "coordinates": [
          [
            [
              -49.0663184,
              -9.2508873
            ],
            [
              -49.0663734,
              -9.2512545
            ],
            [
              -49.0657304,
              -9.2513483
            ],
            [
              -49.0656755,
              -9.250981
            ],
            [
              -49.0663184,
              -9.2508873
            ]
          ]
        ]
      }
    },
    {
      "type": "Feature",
      "id": "way/1038366163",
      "properties": {
        "timestamp": "2022-03-08T21:21:36Z",
        "version": 1,
        "changeset": 118253200,
        "addr:city": "Dois Irmãos do Tocantins",
        "addr:housenumber": "173",
        "addr:postcode": "77685-000",
        "addr:street": "Avenida Araguaia",
        "addr:suburb": "Centro",
        "amenity": "school",
        "name": "Col Est Pres Castelo Branco",
        "phone": "+55 63 3362 1245",
        "id": "way/1038366163"
      },
      "geometry": {
        "type": "Polygon",
        "coordinates": [
          [
            [
              -49.0654728,
              -9.2565387
            ],
            [
              -49.0654448,
              -9.2571424
            ],
            [
              -49.064833,
              -9.2572746
            ],
            [
              -49.0648011,
              -9.2566156
            ],
            [
              -49.0654728,
              -9.2565387
            ]
          ]
        ]
      }
    },
    {
      "type": "Feature",
      "id": "way/1038366547",
      "properties": {
        "timestamp": "2022-03-08T21:22:37Z",
        "version": 1,
        "changeset": 118253240,
        "addr:city": "Dois Irmãos do Tocantins",
        "addr:housenumber": "03",
        "addr:postcode": "77685-000",
        "addr:street": "Rua Lajeado",
        "addr:suburb": "Centro",
        "amenity": "school",
        "name": "Esc Mul Petronio Lima Arbues",
        "phone": "+55 63 3362 1437",
        "id": "way/1038366547"
      },
      "geometry": {
        "type": "Polygon",
        "coordinates": [
          [
            [
              -49.0655752,
              -9.2622563
            ],
            [
              -49.0657852,
              -9.2626523
            ],
            [
              -49.065265,
              -9.2628888
            ],
            [
              -49.0650607,
              -9.2624176
            ],
            [
              -49.0655752,
              -9.2622563
            ]
          ]
        ]
      }
    },
    {
      "type": "Feature",
      "id": "node/9527157142",
      "properties": {
        "timestamp": "2022-02-22T13:08:58Z",
        "version": 1,
        "changeset": 117726896,
        "amenity": "school",
        "name": "Escola Municipal Nova Geracao",
        "id": "node/9527157142"
      },
      "geometry": {
        "type": "Point",
        "coordinates": [
          -48.9576336,
          -9.4538247
        ]
      }
    },
    {
      "type": "Feature",
      "id": "node/9528518693",
      "properties": {
        "timestamp": "2022-02-23T00:16:05Z",
        "version": 1,
        "changeset": 117747987,
        "amenity": "school",
        "name": "Esc Mul Aurelio Buarque",
        "id": "node/9528518693"
      },
      "geometry": {
        "type": "Point",
        "coordinates": [
          -49.1511838,
          -8.9826987
        ]
      }
    },
    {
      "type": "Feature",
      "id": "node/9563492195",
      "properties": {
        "timestamp": "2022-03-08T21:23:14Z",
        "version": 1,
        "changeset": 118253263,
        "amenity": "school",
        "name": "Esc Mul Machado De Assis",
        "phone": "+55 63 3362 1214",
        "id": "node/9563492195"
      },
      "geometry": {
        "type": "Point",
        "coordinates": [
          -48.8518761,
          -9.3178785
        ]
      }
    },
    {
      "type": "Feature",
      "id": "node/9563542352",
      "properties": {
        "timestamp": "2022-03-08T21:05:02Z",
        "version": 1,
        "changeset": 118252689,
        "amenity": "school",
        "name": "Esc Mul Sino De Ouro",
        "phone": "+55 63 3362 1214",
        "id": "node/9563542352"
      },
      "geometry": {
        "type": "Point",
        "coordinates": [
          -49.2771001,
          -9.1134954
        ]
      }
    },
    {
      "type": "Feature",
      "id": "node/9563552267",
      "properties": {
        "timestamp": "2022-03-08T21:30:01Z",
        "version": 1,
        "changeset": 118253450,
        "amenity": "school",
        "name": "Esc Mul Guimaraes Rosa",
        "id": "node/9563552267"
      },
      "geometry": {
        "type": "Point",
        "coordinates": [
          -48.8884641,
          -9.5463744
        ]
      }
    },
    {
      "type": "Feature",
      "id": "node/9563552964",
      "properties": {
        "timestamp": "2022-03-08T21:20:50Z",
        "version": 1,
        "changeset": 118253172,
        "addr:city": "Dois Irmãos do Tocantins",
        "addr:housenumber": "46",
        "addr:postcode": "77685-000",
        "addr:street": "Avenida Três Poderes",
        "addr:suburb": "Centro",
        "amenity": "school",
        "name": "Escola Municipal Professor Antonio Pereira Arruda",
        "phone": "+55 63 3362 1214",
        "id": "node/9563552964"
      },
      "geometry": {
        "type": "Point",
        "coordinates": [
          -49.0663107,
          -9.2568402
        ]
      }
    },
    {
      "type": "Feature",
      "id": "node/9563574061",
      "properties": {
        "timestamp": "2022-03-08T21:30:16Z",
        "version": 1,
        "changeset": 118253458,
        "amenity": "school",
        "name": "Esc Municipal De Educacao Do Campo Bartolomeu Fraga",
        "id": "node/9563574061"
      },
      "geometry": {
        "type": "Point",
        "coordinates": [
          -48.8615455,
          -9.6759895
        ]
      }
    }
  ]
}
