{
  "type": "FeatureCollection",
  "features": [
    {
      "type": "Feature",
      "id": "node/10559403965",
      "properties": {
        "timestamp": "2023-01-16T13:11:27Z",
        "version": 1,
        "changeset": 131337776,
        "addr:city": "Guarará",
        "addr:postcode": "36606000",
        "addr:street": "Rua João Batista Bordonal",
        "addr:suburb": "centro",
        "amenity": "clinic",
        "healthcare": "clinic",
        "name": "Unidade Básica de Sáude Amor a vida",
        "operator": "Sistema Único de Saúde",
        "operator:short": "SUS",
        "operator:type": "government",
        "operator:wikidata": "Q7531056",
        "id": "node/10559403965"
      },
      "geometry": {
        "type": "Point",
        "coordinates": [
          -43.0401802,
          -21.7252783
        ]
      }
    },
    {
      "type": "Feature",
      "id": "node/10559403989",
      "properties": {
        "timestamp": "2023-01-16T13:11:27Z",
        "version": 1,
        "changeset": 131337776,
        "addr:city": "Guarará",
        "addr:postcode": "36606000",
        "addr:street": "Praça do Divino",
        "amenity": "clinic",
        "healthcare": "clinic",
        "name": "UNIDADE BÁSICA DE SAÚDE",
        "operator": "Sistema Único de Saúde",
        "operator:short": "SUS",
        "operator:type": "government",
        "operator:wikidata": "Q7531056",
        "id": "node/10559403989"
      },
      "geometry": {
        "type": "Point",
        "coordinates": [
          -43.0379376,
          -21.7319149
        ]
      }
    }
  ]
}
