{
  "type": "FeatureCollection",
  "features": [
    {
      "type": "Feature",
      "id": "way/731756217",
      "properties": {
        "timestamp": "2020-07-07T23:04:29Z",
        "version": 7,
        "changeset": 87677043,
        "addr:city": "Simões Filho",
        "addr:street": "Rua Senhor do Bonfim",
        "addr:suburb": "Centro",
        "building": "yes",
        "building:levels": "1",
        "office": "government",
        "id": "way/731756217"
      },
      "geometry": {
        "type": "Polygon",
        "coordinates": [
          [
            [
              -38.4023101,
              -12.7855066
            ],
            [
              -38.4025047,
              -12.7855354
            ],
            [
              -38.4024814,
              -12.7856846
            ],
            [
              -38.4022868,
              -12.7856558
            ],
            [
              -38.4023101,
              -12.7855066
            ]
          ]
        ]
      }
    },
    {
      "type": "Feature",
      "id": "way/732377153",
      "properties": {
        "timestamp": "2020-07-08T16:25:31Z",
        "version": 8,
        "changeset": 87720255,
        "addr:city": "Simões Filho",
        "addr:street": "Avenida Ruy Barbosa",
        "addr:suburb": "Centro",
        "building": "yes",
        "name": "SEDUC",
        "office": "government",
        "id": "way/732377153"
      },
      "geometry": {
        "type": "Polygon",
        "coordinates": [
          [
            [
              -38.4055015,
              -12.787265
            ],
            [
              -38.4056042,
              -12.7873892
            ],
            [
              -38.4053228,
              -12.7875584
            ],
            [
              -38.405252,
              -12.7874151
            ],
            [
              -38.4055015,
              -12.787265
            ]
          ]
        ]
      }
    },
    {
      "type": "Feature",
      "id": "way/732377164",
      "properties": {
        "timestamp": "2020-07-08T16:25:31Z",
        "version": 7,
        "changeset": 87720255,
        "addr:city": "Simões Filho",
        "addr:street": "Avenida Ruy Barbosa",
        "addr:suburb": "Centro",
        "building": "yes",
        "name": "Correios",
        "office": "government",
        "id": "way/732377164"
      },
      "geometry": {
        "type": "Polygon",
        "coordinates": [
          [
            [
              -38.4041375,
              -12.7866926
            ],
            [
              -38.4042133,
              -12.7867025
            ],
            [
              -38.4041953,
              -12.7868339
            ],
            [
              -38.4041195,
              -12.786824
            ],
            [
              -38.4041375,
              -12.7866926
            ]
          ]
        ]
      }
    },
    {
      "type": "Feature",
      "id": "way/732442982",
      "properties": {
        "timestamp": "2020-07-08T16:25:31Z",
        "version": 6,
        "changeset": 87720255,
        "addr:city": "Simões Filho",
        "addr:street": "Rua Primeiro de Janeiro",
        "addr:suburb": "Centro",
        "building": "yes",
        "name": "GARI",
        "office": "government",
        "id": "way/732442982"
      },
      "geometry": {
        "type": "Polygon",
        "coordinates": [
          [
            [
              -38.4034382,
              -12.7875379
            ],
            [
              -38.4034405,
              -12.7875572
            ],
            [
              -38.4033156,
              -12.7876181
            ],
            [
              -38.4033016,
              -12.7875595
            ],
            [
              -38.4034382,
              -12.7875379
            ]
          ]
        ]
      }
    },
    {
      "type": "Feature",
      "id": "way/732443025",
      "properties": {
        "timestamp": "2020-07-08T16:25:31Z",
        "version": 8,
        "changeset": 87720255,
        "addr:city": "Simões Filho",
        "addr:street": "Avenida Ruy Barbosa",
        "addr:suburb": "Centro",
        "building": "yes",
        "name": "SETRAN",
        "office": "government",
        "id": "way/732443025"
      },
      "geometry": {
        "type": "Polygon",
        "coordinates": [
          [
            [
              -38.4013022,
              -12.7868266
            ],
            [
              -38.4013644,
              -12.7868125
            ],
            [
              -38.4013966,
              -12.7869477
            ],
            [
              -38.4013344,
              -12.7869618
            ],
            [
              -38.4013022,
              -12.7868266
            ]
          ]
        ]
      }
    },
    {
      "type": "Feature",
      "id": "way/732443027",
      "properties": {
        "timestamp": "2020-07-08T16:25:31Z",
        "version": 7,
        "changeset": 87720255,
        "addr:city": "Simões Filho",
        "addr:street": "Rua Senhor do Bonfim",
        "addr:suburb": "Centro",
        "building": "yes",
        "name": "CIRETRAN",
        "office": "government",
        "id": "way/732443027"
      },
      "geometry": {
        "type": "Polygon",
        "coordinates": [
          [
            [
              -38.4021081,
              -12.7858074
            ],
            [
              -38.4021069,
              -12.7859122
            ],
            [
              -38.4019038,
              -12.7858883
            ],
            [
              -38.4019084,
              -12.785812
            ],
            [
              -38.4021081,
              -12.7858074
            ]
          ]
        ]
      }
    },
    {
      "type": "Feature",
      "id": "way/732443030",
      "properties": {
        "timestamp": "2020-07-08T16:25:31Z",
        "version": 8,
        "changeset": 87720255,
        "addr:city": "Simões Filho",
        "addr:street": "Avenida Altamirando de Araújo Ramos",
        "addr:suburb": "Centro",
        "building": "yes",
        "name": "Mnistério Público do Estado da Bahia",
        "office": "government",
        "id": "way/732443030"
      },
      "geometry": {
        "type": "Polygon",
        "coordinates": [
          [
            [
              -38.4020727,
              -12.7861455
            ],
            [
              -38.4020636,
              -12.7863089
            ],
            [
              -38.4018474,
              -12.7862975
            ],
            [
              -38.4018566,
              -12.7861341
            ],
            [
              -38.4020727,
              -12.7861455
            ]
          ]
        ]
      }
    },
    {
      "type": "Feature",
      "id": "way/734599356",
      "properties": {
        "timestamp": "2023-08-04T18:06:26Z",
        "version": 9,
        "changeset": 139452567,
        "addr:city": "Simões Filho",
        "addr:street": "Praça Sete de Novembro",
        "addr:suburb": "Centro",
        "building": "yes",
        "name": "Casa do empreendedor",
        "office": "government",
        "id": "way/734599356"
      },
      "geometry": {
        "type": "Polygon",
        "coordinates": [
          [
            [
              -38.3990212,
              -12.7872956
            ],
            [
              -38.3990019,
              -12.7872122
            ],
            [
              -38.3991243,
              -12.7871853
            ],
            [
              -38.3991436,
              -12.7872686
            ],
            [
              -38.3990212,
              -12.7872956
            ]
          ]
        ]
      }
    }
  ]
}
