{
  "type": "FeatureCollection",
  "features": [
    {
      "type": "Feature",
      "id": "way/624140505",
      "properties": {
        "timestamp": "2018-09-08T22:29:35Z",
        "version": 1,
        "changeset": 62412905,
        "addr:city": "Ielmo Marinho",
        "addr:postcode": "59490-000",
        "addr:street": "Rua Jos√© Camilo Bezerra",
        "amenity": "pharmacy",
        "building": "yes",
        "dispensing": "yes",
        "healthcare": "pharmacy",
        "name": "Drogaria Guedes",
        "opening_hours": "Mo-Sa 08:00-20:00",
        "id": "way/624140505"
      },
      "geometry": {
        "type": "Polygon",
        "coordinates": [
          [
            [
              -35.551216,
              -5.823823
            ],
            [
              -35.5512103,
              -5.8240097
            ],
            [
              -35.5510949,
              -5.8240062
            ],
            [
              -35.5511006,
              -5.8238195
            ],
            [
              -35.551216,
              -5.823823
            ]
          ]
        ]
      }
    }
  ]
}
