{
  "type": "FeatureCollection",
  "features": [
    {
      "type": "Feature",
      "id": "way/813496416",
      "properties": {
        "timestamp": "2020-06-06T21:04:04Z",
        "version": 1,
        "changeset": 86291331,
        "addr:city": "Severínia",
        "addr:housenumber": "151",
        "addr:street": "Rua Rodrigo da Silva Varollo",
        "addr:suburb": "Residencial Cidade de Deus",
        "amenity": "kindergarten",
        "name": "Cmei Carmensita Sônia Lujan Scatolin",
        "operator": "Prefeitura Minicipal",
        "phone": "+55 17 3817-2185",
        "wheelchair": "yes",
        "id": "way/813496416"
      },
      "geometry": {
        "type": "Polygon",
        "coordinates": [
          [
            [
              -48.815503,
              -20.8028234
            ],
            [
              -48.8152235,
              -20.8030377
            ],
            [
              -48.8151107,
              -20.8029091
            ],
            [
              -48.8153903,
              -20.8026948
            ],
            [
              -48.815503,
              -20.8028234
            ]
          ]
        ]
      }
    },
    {
      "type": "Feature",
      "id": "way/813496417",
      "properties": {
        "timestamp": "2020-06-06T21:04:04Z",
        "version": 1,
        "changeset": 86291331,
        "addr:city": "Severínia",
        "addr:housenumber": "590",
        "addr:street": "Avenida Severino Sichieri",
        "addr:suburb": "Residencial Camacho 3",
        "amenity": "kindergarten",
        "name": "Cmei Carmem Maldonado",
        "operator": "Prefeitura Minicipal",
        "phone": "+55 17 3817-2148",
        "wheelchair": "yes",
        "id": "way/813496417"
      },
      "geometry": {
        "type": "Polygon",
        "coordinates": [
          [
            [
              -48.8108584,
              -20.792871
            ],
            [
              -48.8104802,
              -20.7930566
            ],
            [
              -48.8104293,
              -20.7928535
            ],
            [
              -48.8107726,
              -20.7927005
            ],
            [
              -48.8108584,
              -20.792871
            ]
          ]
        ]
      }
    },
    {
      "type": "Feature",
      "id": "way/813496418",
      "properties": {
        "timestamp": "2020-06-06T21:04:04Z",
        "version": 1,
        "changeset": 86291331,
        "addr:city": "Severínia",
        "addr:housenumber": "10",
        "addr:street": "Avenida Erothides de Almeida Veloso",
        "addr:suburb": "Jardim Maldonado",
        "amenity": "kindergarten",
        "name": "Cmei Esmeralda Duarte Ribeiro",
        "operator": "Prefeitura Minicipal",
        "phone": "+55 17 3817-1478",
        "wheelchair": "yes",
        "id": "way/813496418"
      },
      "geometry": {
        "type": "Polygon",
        "coordinates": [
          [
            [
              -48.8099653,
              -20.8061552
            ],
            [
              -48.8095844,
              -20.8064235
            ],
            [
              -48.8096756,
              -20.8060725
            ],
            [
              -48.8099653,
              -20.8061552
            ]
          ]
        ]
      }
    },
    {
      "type": "Feature",
      "id": "way/813709457",
      "properties": {
        "timestamp": "2020-06-08T22:22:02Z",
        "version": 2,
        "changeset": 86373810,
        "addr:city": "Severínia",
        "addr:housenumber": "190",
        "addr:street": "Avenida Miguel Galib Tannuri",
        "addr:suburb": "Centro",
        "alt_name": "EMEI Renee Martins Tanuri",
        "amenity": "kindergarten",
        "name": "Escola Municipal Renee Martins Tanuri",
        "operator": "Prefeitura Municipal",
        "phone": "+55 17 3817-1478",
        "wheelchair": "yes",
        "id": "way/813709457"
      },
      "geometry": {
        "type": "Polygon",
        "coordinates": [
          [
            [
              -48.802392,
              -20.8098033
            ],
            [
              -48.8022029,
              -20.810108
            ],
            [
              -48.8018811,
              -20.8099312
            ],
            [
              -48.8020796,
              -20.8096278
            ],
            [
              -48.802392,
              -20.8098033
            ]
          ]
        ]
      }
    }
  ]
}
