{
  "type": "FeatureCollection",
  "features": [
    {
      "type": "Feature",
      "id": "node/10085061317",
      "properties": {
        "timestamp": "2023-07-07T19:02:57Z",
        "version": 2,
        "changeset": 138241048,
        "addr:postcode": "76520-000",
        "addr:street": "Rua 15 de Novembro",
        "name": "Centro Administrativo",
        "name:en": "Administrative Center",
        "office": "government",
        "opening_hours": "Mo-Fr 08:00-18:00",
        "id": "node/10085061317"
      },
      "geometry": {
        "type": "Point",
        "coordinates": [
          -50.3383799,
          -14.0930926
        ]
      }
    },
    {
      "type": "Feature",
      "id": "node/10085062617",
      "properties": {
        "timestamp": "2022-10-08T18:50:04Z",
        "version": 2,
        "changeset": 127216748,
        "addr:postcode": "76520000",
        "addr:street": "Rua 1 de Maio",
        "name": "Centro Administrativo",
        "name:en": "Administrative Center",
        "office": "government",
        "opening_hours": "Mo-Fr 08:00-18:00",
        "id": "node/10085062617"
      },
      "geometry": {
        "type": "Point",
        "coordinates": [
          -50.3377234,
          -14.0932514
        ]
      }
    }
  ]
}
