{
  "type": "FeatureCollection",
  "features": [
    {
      "type": "Feature",
      "id": "way/1113001116",
      "properties": {
        "timestamp": "2022-11-25T06:28:25Z",
        "version": 2,
        "changeset": 129352210,
        "access": "yes",
        "addr:city": "Garopaba",
        "addr:housenumber": "200",
        "addr:postcode": "88495-000",
        "addr:street": "Rua Manoel Álvaro de Araújo",
        "addr:suburb": "Centro Histórico",
        "amenity": "library",
        "building": "public",
        "description": "Inaugurada em 09 de Outubro de 2021 a primeira Casa de Cultura de Garopaba abriga em um só local espaço contando a história de ocupação do município, exposição temporária, biblioteca pública municipal, sede administrativa da diretoria de cultura e atendim",
        "name": "Casa de Cultura e Biblioteca Municipal de Garopaba",
        "opening_hours": "Mo-Fr 08:00-20:30; Sa 14:00-19:00",
        "operator": "Prefeitura Municipal de Garopaba",
        "operator:type": "government",
        "tourism": "museum",
        "id": "way/1113001116"
      },
      "geometry": {
        "type": "Polygon",
        "coordinates": [
          [
            [
              -48.6163455,
              -28.0235514
            ],
            [
              -48.6163844,
              -28.0236532
            ],
            [
              -48.6162717,
              -28.0236556
            ],
            [
              -48.6162476,
              -28.0235751
            ],
            [
              -48.6163455,
              -28.0235514
            ]
          ]
        ]
      }
    }
  ]
}
