{
  "type": "FeatureCollection",
  "features": [
    {
      "type": "Feature",
      "id": "way/1187722145",
      "properties": {
        "timestamp": "2023-07-06T01:30:24Z",
        "version": 1,
        "changeset": 138167853,
        "addr:city": "Itagimirim",
        "addr:housenumber": "72",
        "addr:postcode": "45850-000",
        "addr:street": "Praça Doutor Pinto Dantas",
        "addr:suburb": "Centro",
        "amenity": "school",
        "name": "Colégio Municipal Othoniel Ferreira dos Santos",
        "operator": "Município de Itagimirim",
        "operator:type": "public",
        "id": "way/1187722145"
      },
      "geometry": {
        "type": "Polygon",
        "coordinates": [
          [
            [
              -39.6149575,
              -16.0883995
            ],
            [
              -39.6146544,
              -16.0887397
            ],
            [
              -39.6142494,
              -16.0883763
            ],
            [
              -39.6140778,
              -16.0880696
            ],
            [
              -39.6143165,
              -16.0878093
            ],
            [
              -39.6149575,
              -16.0883995
            ]
          ]
        ]
      }
    },
    {
      "type": "Feature",
      "id": "way/1187722146",
      "properties": {
        "timestamp": "2023-07-06T01:30:24Z",
        "version": 1,
        "changeset": 138167853,
        "addr:city": "Itagimirim",
        "addr:postcode": "45850-000",
        "addr:street": "Rua São Domingos",
        "addr:suburb": "Centro",
        "amenity": "school",
        "name": "Escola Municipal Adilson Guimarães",
        "operator": "Município de Itagimirim",
        "operator:type": "public",
        "phone": "+55 73 3289 2109",
        "id": "way/1187722146"
      },
      "geometry": {
        "type": "Polygon",
        "coordinates": [
          [
            [
              -39.6155744,
              -16.0860672
            ],
            [
              -39.6152821,
              -16.0864125
            ],
            [
              -39.614928,
              -16.0861367
            ],
            [
              -39.6152526,
              -16.0858172
            ],
            [
              -39.6154001,
              -16.0857837
            ],
            [
              -39.6155744,
              -16.0860672
            ]
          ]
        ]
      }
    },
    {
      "type": "Feature",
      "id": "way/1187722147",
      "properties": {
        "timestamp": "2024-10-14T13:46:01Z",
        "version": 2,
        "changeset": 157878865,
        "addr:city": "Itagimirim",
        "addr:housenumber": "136",
        "addr:postcode": "45850-000",
        "addr:street": "Rua Lindolfo Lima",
        "addr:suburb": "Norberto Fernandes",
        "amenity": "school",
        "name": "Escola Municipal Adelia Pinheiro Sales",
        "operator": "Município de Itagimirim",
        "operator:type": "public",
        "phone": "+55 73 3289 2668",
        "id": "way/1187722147"
      },
      "geometry": {
        "type": "Polygon",
        "coordinates": [
          [
            [
              -39.6129714,
              -16.0928011
            ],
            [
              -39.6124951,
              -16.0930232
            ],
            [
              -39.6122966,
              -16.0926777
            ],
            [
              -39.6127776,
              -16.0924467
            ],
            [
              -39.6129714,
              -16.0928011
            ]
          ]
        ]
      }
    },
    {
      "type": "Feature",
      "id": "way/1187722150",
      "properties": {
        "timestamp": "2023-07-06T01:30:24Z",
        "version": 1,
        "changeset": 138167853,
        "amenity": "school",
        "id": "way/1187722150"
      },
      "geometry": {
        "type": "Polygon",
        "coordinates": [
          [
            [
              -39.61304,
              -16.0956505
            ],
            [
              -39.6126932,
              -16.0957661
            ],
            [
              -39.612495,
              -16.0952594
            ],
            [
              -39.6129161,
              -16.0950986
            ],
            [
              -39.6130234,
              -16.0954224
            ],
            [
              -39.6130365,
              -16.0955382
            ],
            [
              -39.6130081,
              -16.0955586
            ],
            [
              -39.61304,
              -16.0956505
            ]
          ]
        ]
      }
    },
    {
      "type": "Feature",
      "id": "node/12250543772",
      "properties": {
        "timestamp": "2024-10-14T13:46:01Z",
        "version": 1,
        "changeset": 157878865,
        "IBGE:COD_UNICO_ENDERECO": "26710157",
        "addr:housenumber": "6 Sucam",
        "addr:postcode": "45850-000",
        "addr:street": "Rua Osvaldo Muniz",
        "addr:suburb": "Norberto Fernandes",
        "amenity": "school",
        "building": "yes",
        "name": "Escola Municipal Adélia Pinheiro Sales",
        "id": "node/12250543772"
      },
      "geometry": {
        "type": "Point",
        "coordinates": [
          -39.6144609,
          -16.0943459
        ]
      }
    }
  ]
}
