{
  "type": "FeatureCollection",
  "features": [
    {
      "type": "Feature",
      "id": "way/548629303",
      "properties": {
        "timestamp": "2021-10-06T17:26:48Z",
        "version": 3,
        "changeset": 112180392,
        "addr:city": "Forquilhinha",
        "addr:housenumber": "355",
        "addr:postcode": "88850-000",
        "addr:street": "Rua Sigisfredo Back",
        "addr:suburb": "Centro",
        "building": "yes",
        "email": "ouvidoria@camaraforquilhinha.sc.gov.br",
        "government": "legislative",
        "name": "Câmara de Vereadores de Forquilhinha",
        "office": "government",
        "phone": "+55 48 3463-1215",
        "website": "https://www.camaraforquilhinha.sc.gov.br",
        "id": "way/548629303"
      },
      "geometry": {
        "type": "Polygon",
        "coordinates": [
          [
            [
              -49.4738245,
              -28.7541751
            ],
            [
              -49.4738179,
              -28.7544285
            ],
            [
              -49.4736379,
              -28.7544296
            ],
            [
              -49.4736475,
              -28.7542192
            ],
            [
              -49.4736905,
              -28.7541751
            ],
            [
              -49.4738245,
              -28.7541751
            ]
          ]
        ]
      }
    },
    {
      "type": "Feature",
      "id": "way/1090759033",
      "properties": {
        "timestamp": "2022-08-31T13:34:27Z",
        "version": 1,
        "changeset": 125613197,
        "building": "yes",
        "government": "social_security",
        "name": "Agência da Previdência Social em Forquilhinha",
        "office": "government",
        "operator": "Instituto Nacional do Seguro Social",
        "operator:short": "INSS",
        "operator:wikidata": "Q10302614",
        "short_name": "APS Forquilhinha",
        "id": "way/1090759033"
      },
      "geometry": {
        "type": "Polygon",
        "coordinates": [
          [
            [
              -49.4703745,
              -28.7431456
            ],
            [
              -49.4703618,
              -28.7433953
            ],
            [
              -49.470227,
              -28.7433901
            ],
            [
              -49.4702397,
              -28.7431404
            ],
            [
              -49.4703745,
              -28.7431456
            ]
          ]
        ]
      }
    },
    {
      "type": "Feature",
      "id": "node/6651345265",
      "properties": {
        "timestamp": "2022-10-31T21:10:34Z",
        "version": 4,
        "changeset": 128317173,
        "addr:city": "Forquilhinha",
        "addr:postcode": "88850-000",
        "addr:street": "Avenida Professor Eurico Back",
        "addr:suburb": "Centro",
        "government": "environment",
        "name": "Fundação Ambiental de Forquilhinha",
        "office": "government",
        "short_name": "FUNDAF",
        "id": "node/6651345265"
      },
      "geometry": {
        "type": "Point",
        "coordinates": [
          -49.4614723,
          -28.7488494
        ]
      }
    }
  ]
}
