{
  "type": "FeatureCollection",
  "features": [
    {
      "type": "Feature",
      "id": "way/823636607",
      "properties": {
        "timestamp": "2020-07-07T01:20:44Z",
        "version": 1,
        "changeset": 87623657,
        "amenity": "school",
        "name": "Escola Rui Barbosa",
        "id": "way/823636607"
      },
      "geometry": {
        "type": "Polygon",
        "coordinates": [
          [
            [
              -54.9570548,
              -28.411965
            ],
            [
              -54.9569769,
              -28.4116366
            ],
            [
              -54.957796,
              -28.4114862
            ],
            [
              -54.9578162,
              -28.4115819
            ],
            [
              -54.9575729,
              -28.411622
            ],
            [
              -54.9575371,
              -28.4116309
            ],
            [
              -54.9575929,
              -28.4118663
            ],
            [
              -54.9570548,
              -28.411965
            ]
          ]
        ]
      }
    },
    {
      "type": "Feature",
      "id": "node/7528977503",
      "properties": {
        "timestamp": "2024-12-14T02:40:51Z",
        "version": 2,
        "changeset": 160267136,
        "addr:housenumber": "270",
        "addr:postcode": "97800-000",
        "addr:street": "Rua Rio Branco",
        "amenity": "school",
        "name": "EMEF Coração de Jesus",
        "id": "node/7528977503"
      },
      "geometry": {
        "type": "Point",
        "coordinates": [
          -54.9652214,
          -28.3932133
        ]
      }
    },
    {
      "type": "Feature",
      "id": "node/7689842999",
      "properties": {
        "timestamp": "2020-07-07T01:20:44Z",
        "version": 1,
        "changeset": 87623657,
        "addr:city": "São Luiz Gonzaga",
        "addr:housenumber": "2810",
        "addr:postcode": "97800-000",
        "addr:street": "Rua Borges de Medeiros",
        "addr:suburb": "Centro",
        "amenity": "school",
        "name": "Instituto Estadual Rui Barbosa",
        "website": "https://www.escol.as/249718-inst-est-rui-barbosa",
        "id": "node/7689842999"
      },
      "geometry": {
        "type": "Point",
        "coordinates": [
          -54.9574534,
          -28.4114998
        ]
      }
    }
  ]
}
