{
  "type": "FeatureCollection",
  "features": [
    {
      "type": "Feature",
      "id": "way/351034481",
      "properties": {
        "timestamp": "2025-04-05T00:00:20Z",
        "version": 3,
        "changeset": 164531842,
        "addr:city": "Carira",
        "addr:housenumber": "32",
        "addr:postcode": "49550-000",
        "addr:street": "Praça José Durval Matos",
        "addr:suburb": "Centro",
        "amenity": "hospital",
        "building": "hospital",
        "emergency": "yes",
        "healthcare": "hospital",
        "healthcare:speciality": "general",
        "name": "Clínica 24 Horas Alda Chagas Nunes",
        "id": "way/351034481"
      },
      "geometry": {
        "type": "Polygon",
        "coordinates": [
          [
            [
              -37.7028548,
              -10.357685
            ],
            [
              -37.7024764,
              -10.3579207
            ],
            [
              -37.7023647,
              -10.3577471
            ],
            [
              -37.702774,
              -10.357492
            ],
            [
              -37.7028226,
              -10.3575675
            ],
            [
              -37.7027916,
              -10.3575868
            ],
            [
              -37.7028548,
              -10.357685
            ]
          ]
        ]
      }
    }
  ]
}
