{
  "type": "FeatureCollection",
  "features": [
    {
      "type": "Feature",
      "id": "way/339599465",
      "properties": {
        "timestamp": "2022-07-28T21:22:50Z",
        "version": 2,
        "changeset": 124204113,
        "addr:city": "Juiz de Fora",
        "addr:housenumber": "2000",
        "addr:postcode": "36015-510",
        "addr:street": "Avenida Barão do Rio Branco",
        "addr:suburb": "Centro",
        "building": "yes",
        "name": "Ritz Plaza Hotel",
        "phone": "+55 32 3249 7300",
        "tourism": "hotel",
        "id": "way/339599465"
      },
      "geometry": {
        "type": "Polygon",
        "coordinates": [
          [
            [
              -43.3507085,
              -21.7594209
            ],
            [
              -43.3506589,
              -21.7595914
            ],
            [
              -43.3503325,
              -21.7595158
            ],
            [
              -43.3503848,
              -21.7593577
            ],
            [
              -43.3507085,
              -21.7594209
            ]
          ]
        ]
      }
    },
    {
      "type": "Feature",
      "id": "way/339799833",
      "properties": {
        "timestamp": "2015-04-27T15:22:52Z",
        "version": 2,
        "changeset": 30546568,
        "addr:city": "Juiz de Fora",
        "addr:housenumber": "375",
        "addr:postcode": "36013-260",
        "addr:street": "Rua São Sebastião",
        "addr:suburb": "Centro",
        "building": "yes",
        "name": "Omega Apart Hotel",
        "phone": "+55 (32) 3217 4034",
        "tourism": "hotel",
        "id": "way/339799833"
      },
      "geometry": {
        "type": "Polygon",
        "coordinates": [
          [
            [
              -43.3478643,
              -21.757018
            ],
            [
              -43.3475774,
              -21.7569513
            ],
            [
              -43.3476239,
              -21.7567787
            ],
            [
              -43.3479108,
              -21.7568453
            ],
            [
              -43.3478643,
              -21.757018
            ]
          ]
        ]
      }
    },
    {
      "type": "Feature",
      "id": "way/343536361",
      "properties": {
        "timestamp": "2022-07-28T21:22:28Z",
        "version": 2,
        "changeset": 124204099,
        "addr:city": "Juiz de Fora",
        "addr:housenumber": "765",
        "addr:postcode": "36015-001",
        "addr:street": "Rua Santo Antônio",
        "addr:suburb": "Centro",
        "building": "yes",
        "name": "Hotel Constantino",
        "phone": "+55 32 3229 9800",
        "tourism": "hotel",
        "id": "way/343536361"
      },
      "geometry": {
        "type": "Polygon",
        "coordinates": [
          [
            [
              -43.3514317,
              -21.7599766
            ],
            [
              -43.3513411,
              -21.7603095
            ],
            [
              -43.3510058,
              -21.7602308
            ],
            [
              -43.3510964,
              -21.7598979
            ],
            [
              -43.3514317,
              -21.7599766
            ]
          ]
        ]
      }
    },
    {
      "type": "Feature",
      "id": "way/363214962",
      "properties": {
        "timestamp": "2022-07-28T21:32:48Z",
        "version": 2,
        "changeset": 124204372,
        "addr:city": "Juiz de Fora",
        "addr:housenumber": "1805",
        "addr:street": "Avenida Deusdedith Salgado",
        "building": "yes",
        "name": "Premier Parc Hotel",
        "phone": "+55 32 3250 1700",
        "tourism": "hotel",
        "id": "way/363214962"
      },
      "geometry": {
        "type": "Polygon",
        "coordinates": [
          [
            [
              -43.365615,
              -21.7927998
            ],
            [
              -43.365615,
              -21.7926305
            ],
            [
              -43.3655506,
              -21.7926479
            ],
            [
              -43.3655077,
              -21.7925358
            ],
            [
              -43.3655828,
              -21.7925084
            ],
            [
              -43.3654996,
              -21.7923665
            ],
            [
              -43.3655989,
              -21.7923067
            ],
            [
              -43.3656928,
              -21.7924686
            ],
            [
              -43.3657357,
              -21.7926081
            ],
            [
              -43.3657303,
              -21.7927924
            ],
            [
              -43.365615,
              -21.7927998
            ]
          ]
        ]
      }
    },
    {
      "type": "Feature",
      "id": "way/1250871756",
      "properties": {
        "timestamp": "2024-02-15T18:06:38Z",
        "version": 1,
        "changeset": 147502680,
        "brand": "Ibis",
        "brand:wikidata": "Q920166",
        "building": "yes",
        "name": "Hotel Ibis Juiz de Fora",
        "tourism": "hotel",
        "id": "way/1250871756"
      },
      "geometry": {
        "type": "Polygon",
        "coordinates": [
          [
            [
              -43.3667071,
              -21.7968226
            ],
            [
              -43.3666958,
              -21.7967556
            ],
            [
              -43.3666575,
              -21.7967595
            ],
            [
              -43.3666561,
              -21.7966741
            ],
            [
              -43.367003,
              -21.7965939
            ],
            [
              -43.3670384,
              -21.7967595
            ],
            [
              -43.3667071,
              -21.7968226
            ]
          ]
        ]
      }
    },
    {
      "type": "Feature",
      "id": "node/2874373333",
      "properties": {
        "timestamp": "2023-11-14T21:09:12Z",
        "version": 3,
        "changeset": 144026886,
        "addr:city": "Juiz de Fora",
        "addr:housenumber": "1850",
        "addr:postcode": "36016-321",
        "addr:street": "Avenida Itamar Franco",
        "name": "Victory",
        "phone": "+55 32 3249 1850",
        "tourism": "hotel",
        "website": "https://www.victoryhoteis.com/",
        "id": "node/2874373333"
      },
      "geometry": {
        "type": "Point",
        "coordinates": [
          -43.3519931,
          -21.7708136
        ]
      }
    },
    {
      "type": "Feature",
      "id": "node/4578762390",
      "properties": {
        "timestamp": "2016-12-29T08:14:56Z",
        "version": 1,
        "changeset": 44750390,
        "name": "Hotel São Luiz",
        "name:pt": "Hotel São Luiz",
        "tourism": "hotel",
        "id": "node/4578762390"
      },
      "geometry": {
        "type": "Point",
        "coordinates": [
          -43.3448166,
          -21.7602248
        ]
      }
    },
    {
      "type": "Feature",
      "id": "node/11267907513",
      "properties": {
        "timestamp": "2023-10-16T21:22:49Z",
        "version": 1,
        "changeset": 142684528,
        "addr:city": "Juiz de Fora",
        "addr:housenumber": "181",
        "addr:postcode": "36010-110",
        "addr:street": "Rua Santa Rita",
        "addr:suburb": "Centro",
        "internet_access": "yes",
        "internet_access:fee": "customers",
        "name": "César Park Hotel",
        "phone": "+55 32 3215-4898",
        "tourism": "hotel",
        "website": "https://www.cesarhoteis.com.br/ohotel.html",
        "id": "node/11267907513"
      },
      "geometry": {
        "type": "Point",
        "coordinates": [
          -43.3445287,
          -21.7618789
        ]
      }
    },
    {
      "type": "Feature",
      "id": "node/11624963095",
      "properties": {
        "timestamp": "2024-02-15T00:30:44Z",
        "version": 1,
        "changeset": 147470893,
        "name": "Premier Parc Hotel",
        "tourism": "hotel",
        "id": "node/11624963095"
      },
      "geometry": {
        "type": "Point",
        "coordinates": [
          -43.3656576,
          -21.7925518
        ]
      }
    },
    {
      "type": "Feature",
      "id": "node/11627466828",
      "properties": {
        "timestamp": "2024-02-15T18:06:38Z",
        "version": 1,
        "changeset": 147502680,
        "name": "Trade Hotel",
        "tourism": "hotel",
        "id": "node/11627466828"
      },
      "geometry": {
        "type": "Point",
        "coordinates": [
          -43.3614894,
          -21.7811877
        ]
      }
    }
  ]
}
