{
  "type": "FeatureCollection",
  "features": [
    {
      "type": "Feature",
      "id": "way/1009693023",
      "properties": {
        "timestamp": "2021-12-06T18:35:41Z",
        "version": 1,
        "changeset": 114630038,
        "addr:city": "Alegre",
        "addr:postcode": "29515-000",
        "addr:suburb": "Café",
        "amenity": "clinic",
        "building": "yes",
        "healthcare": "clinic",
        "name": "Unidade Básica de Saúde do Café",
        "operator": "Município de Alegre",
        "operator:type": "government",
        "id": "way/1009693023"
      },
      "geometry": {
        "type": "Polygon",
        "coordinates": [
          [
            [
              -41.5719315,
              -20.8708439
            ],
            [
              -41.5719283,
              -20.870935
            ],
            [
              -41.5717917,
              -20.8709308
            ],
            [
              -41.5717949,
              -20.8708398
            ],
            [
              -41.5719315,
              -20.8708439
            ]
          ]
        ]
      }
    },
    {
      "type": "Feature",
      "id": "way/1009918672",
      "properties": {
        "timestamp": "2021-12-07T13:06:19Z",
        "version": 1,
        "changeset": 114660597,
        "addr:city": "Alegre",
        "addr:postcode": "29500-000",
        "addr:street": "Praça Rui Barbosa",
        "addr:suburb": "Centro",
        "amenity": "clinic",
        "building": "yes",
        "healthcare": "clinic",
        "healthcare:speciality": "general",
        "name": "Unidade Básica de Saúde de Alegre",
        "operator": "Município de Alegre",
        "operator:type": "government",
        "id": "way/1009918672"
      },
      "geometry": {
        "type": "Polygon",
        "coordinates": [
          [
            [
              -41.5299807,
              -20.7627175
            ],
            [
              -41.5299854,
              -20.7628322
            ],
            [
              -41.5297958,
              -20.7628389
            ],
            [
              -41.5297941,
              -20.7627978
            ],
            [
              -41.5297435,
              -20.7627994
            ],
            [
              -41.5297412,
              -20.7627244
            ],
            [
              -41.5299807,
              -20.7627175
            ]
          ]
        ]
      }
    },
    {
      "type": "Feature",
      "id": "node/9612578501",
      "properties": {
        "timestamp": "2022-03-28T09:05:16Z",
        "version": 1,
        "changeset": 119011556,
        "addr:city": "Alegre",
        "addr:postcode": "29520-000",
        "addr:street": "Rua Euclides Jaccoud",
        "addr:suburb": "Rive",
        "amenity": "clinic",
        "healthcare": "clinic",
        "healthcare:speciality": "general",
        "name": "Unidade Básica de Saúde de Rive",
        "operator": "Município de Alegre",
        "operator:type": "public",
        "id": "node/9612578501"
      },
      "geometry": {
        "type": "Point",
        "coordinates": [
          -41.4579644,
          -20.7578718
        ]
      }
    },
    {
      "type": "Feature",
      "id": "node/9968085725",
      "properties": {
        "timestamp": "2022-08-21T15:38:55Z",
        "version": 1,
        "changeset": 125188631,
        "addr:city": "Alegre",
        "addr:postcode": "29500-000",
        "addr:street": "Rua Luiz Albani",
        "addr:suburb": "Vila do Sul",
        "amenity": "clinic",
        "healthcare": "clinic",
        "healthcare:speciality": "general",
        "name": "Estratégia da Saúde da Família do Bairro Vila do Sul",
        "operator": "Município de Alegre",
        "operator:type": "public",
        "phone": "+55 28 3552 1086",
        "id": "node/9968085725"
      },
      "geometry": {
        "type": "Point",
        "coordinates": [
          -41.5348532,
          -20.769072
        ]
      }
    }
  ]
}
