{
  "type": "FeatureCollection",
  "features": [
    {
      "type": "Feature",
      "id": "way/1085573956",
      "properties": {
        "timestamp": "2022-08-14T13:35:19Z",
        "version": 3,
        "changeset": 124888149,
        "addr:city": "Alegre",
        "addr:housenumber": "33",
        "addr:postcode": "29500-000",
        "addr:state": "Espírito Santo",
        "addr:street": "Rua Enila Pinheiro",
        "addr:suburb": "Colina",
        "amenity": "doctors",
        "building": "yes",
        "building:levels": "1",
        "healthcare": "clinic",
        "healthcare:speciality": "emergency",
        "name": "Centro Médico Social Doutor Warlen Campos",
        "operator": "Município de Alegre",
        "id": "way/1085573956"
      },
      "geometry": {
        "type": "Polygon",
        "coordinates": [
          [
            [
              -41.5378328,
              -20.7572432
            ],
            [
              -41.5375603,
              -20.7574352
            ],
            [
              -41.5374576,
              -20.7573094
            ],
            [
              -41.5377284,
              -20.7571125
            ],
            [
              -41.5378328,
              -20.7572432
            ]
          ]
        ]
      }
    },
    {
      "type": "Feature",
      "id": "node/5206466122",
      "properties": {
        "timestamp": "2022-08-22T12:52:58Z",
        "version": 4,
        "changeset": 125226196,
        "addr:city": "Alegre",
        "addr:housenumber": "186",
        "addr:postcode": "29500-000",
        "addr:street": "Rua Sete de Setembro",
        "addr:suburb": "Centro",
        "amenity": "doctors",
        "healthcare": "doctor",
        "healthcare:speciality": "paediatrics",
        "name": "Clínica da Criança",
        "operator": "Doutor Jadir Figueira Rossi;Doutor Homero Doyle Maia Neto",
        "phone": "+55 28 3552 2417",
        "id": "node/5206466122"
      },
      "geometry": {
        "type": "Point",
        "coordinates": [
          -41.5346915,
          -20.7628247
        ]
      }
    },
    {
      "type": "Feature",
      "id": "node/5266658421",
      "properties": {
        "timestamp": "2022-08-10T18:43:06Z",
        "version": 3,
        "changeset": 124744566,
        "addr:city": "Alegre",
        "addr:housenumber": "19",
        "addr:postcode": "29500-000",
        "addr:street": "Rua Major Quintino",
        "addr:suburb": "Centro",
        "amenity": "doctors",
        "healthcare": "doctor",
        "healthcare:speciality": "urology",
        "name": "Ronaldo Rodrigues da Silva",
        "phone": "+55 28 3552 2130",
        "id": "node/5266658421"
      },
      "geometry": {
        "type": "Point",
        "coordinates": [
          -41.5319231,
          -20.7616931
        ]
      }
    },
    {
      "type": "Feature",
      "id": "node/5686330689",
      "properties": {
        "timestamp": "2021-12-06T18:35:41Z",
        "version": 3,
        "changeset": 114630038,
        "addr:city": "Alegre",
        "addr:postcode": "29515-000",
        "addr:suburb": "Café",
        "amenity": "doctors",
        "healthcare": "doctor",
        "healthcare:speciality": "paediatrics",
        "name": "Doutora Kátia Valéria Manhabusque",
        "id": "node/5686330689"
      },
      "geometry": {
        "type": "Point",
        "coordinates": [
          -41.5724694,
          -20.8710609
        ]
      }
    },
    {
      "type": "Feature",
      "id": "node/9319092513",
      "properties": {
        "timestamp": "2022-08-11T14:24:50Z",
        "version": 2,
        "changeset": 124779088,
        "addr:city": "Alegre",
        "addr:housenumber": "380",
        "addr:postcode": "29500-000",
        "addr:street": "Avenida Doutor Wanderley",
        "addr:suburb": "Centro",
        "amenity": "doctors",
        "healthcare": "doctor",
        "healthcare:speciality": "radiology;otolaryngology",
        "name": "Clínica de Diagnótico e Imagem de Alegre",
        "operator": "Doutor Lauro Cade de Oliveira;Doutor Maurício Cade de Oliveira",
        "id": "node/9319092513"
      },
      "geometry": {
        "type": "Point",
        "coordinates": [
          -41.5350044,
          -20.7601128
        ]
      }
    },
    {
      "type": "Feature",
      "id": "node/9945690399",
      "properties": {
        "timestamp": "2022-08-10T18:43:06Z",
        "version": 1,
        "changeset": 124744566,
        "addr:city": "Alegre",
        "addr:housenumber": "279",
        "addr:postcode": "29500-000",
        "addr:street": "Avenida Doutor Olivio Correa Pedrosa",
        "addr:suburb": "Centro",
        "amenity": "doctors",
        "healthcare": "doctor",
        "healthcare:speciality": "gastroenterology",
        "name": "Alegre Vídeo Endoscopia",
        "operator": "João Henrique Espinosa de Oliveira",
        "phone": "+55 28 3552 1405",
        "id": "node/9945690399"
      },
      "geometry": {
        "type": "Point",
        "coordinates": [
          -41.5317856,
          -20.760625
        ]
      }
    },
    {
      "type": "Feature",
      "id": "node/9947542119",
      "properties": {
        "timestamp": "2022-08-21T16:46:55Z",
        "version": 2,
        "changeset": 125191311,
        "addr:city": "Alegre",
        "addr:housenumber": "85",
        "addr:postcode": "29500-000",
        "addr:street": "Rua Francisco Teixeira",
        "addr:suburb": "Centro",
        "amenity": "doctors",
        "healthcare": "doctor",
        "healthcare:speciality": "cardiology;general",
        "name": "Centro Médico Celso Luiz Tambara",
        "operator": "Celso Luiz Tambara",
        "phone": "+55 28 3552 1273;+55 28 3552 3809",
        "id": "node/9947542119"
      },
      "geometry": {
        "type": "Point",
        "coordinates": [
          -41.5310127,
          -20.7616163
        ]
      }
    },
    {
      "type": "Feature",
      "id": "node/9947542122",
      "properties": {
        "timestamp": "2022-08-11T14:24:50Z",
        "version": 1,
        "changeset": 124779088,
        "addr:city": "Alegre",
        "addr:housenumber": "530",
        "addr:postcode": "29500-000",
        "addr:street": "Avenida Doutor Wanderley",
        "addr:suburb": "Centro",
        "amenity": "doctors",
        "healthcare": "doctor",
        "healthcare:speciality": "paediatrics",
        "name": "Doutor Eduardo Souza Campos",
        "operator": "Eduardo Souza Campos",
        "phone": "+55 28 3552 1744",
        "id": "node/9947542122"
      },
      "geometry": {
        "type": "Point",
        "coordinates": [
          -41.5359978,
          -20.7594946
        ]
      }
    },
    {
      "type": "Feature",
      "id": "node/9968198320",
      "properties": {
        "timestamp": "2022-08-21T16:46:55Z",
        "version": 1,
        "changeset": 125191311,
        "addr:city": "Alegre",
        "addr:housenumber": "85",
        "addr:postcode": "29500-000",
        "addr:street": "Rua Francisco Teixeira",
        "addr:suburb": "Centro",
        "amenity": "doctors",
        "healthcare": "doctor",
        "healthcare:speciality": "ophthalmology",
        "name": "Oftalmoclinic - Cinnante Prestação de Servicos Médicos Limitada",
        "operator": "Francesco Cinnante Junior",
        "phone": "+55 28 3552 3141",
        "id": "node/9968198320"
      },
      "geometry": {
        "type": "Point",
        "coordinates": [
          -41.5309871,
          -20.7615833
        ]
      }
    },
    {
      "type": "Feature",
      "id": "node/9968198321",
      "properties": {
        "timestamp": "2022-08-21T16:46:55Z",
        "version": 1,
        "changeset": 125191311,
        "addr:city": "Alegre",
        "addr:postcode": "29500-000",
        "addr:street": "Rua Cristiano Dias Lopes",
        "addr:suburb": "Centro",
        "amenity": "doctors",
        "healthcare": "doctor",
        "healthcare:speciality": "ophthalmology",
        "name": "Doutor Antônio Bonfim da Silva Neto",
        "phone": "+55 28 3552 3489",
        "id": "node/9968198321"
      },
      "geometry": {
        "type": "Point",
        "coordinates": [
          -41.5296089,
          -20.761257
        ]
      }
    },
    {
      "type": "Feature",
      "id": "node/9969922251",
      "properties": {
        "timestamp": "2022-08-22T12:52:58Z",
        "version": 1,
        "changeset": 125226196,
        "addr:city": "Alegre",
        "addr:housenumber": "280",
        "addr:postcode": "29500-000",
        "addr:street": "Rua Sete de Setembro",
        "addr:suburb": "Alto Universitário",
        "amenity": "doctors",
        "healthcare": "doctor",
        "healthcare:speciality": "general",
        "name": "Doutor Chakib Aride",
        "id": "node/9969922251"
      },
      "geometry": {
        "type": "Point",
        "coordinates": [
          -41.5345447,
          -20.7627345
        ]
      }
    }
  ]
}
