{
  "type": "FeatureCollection",
  "features": [
    {
      "type": "Feature",
      "id": "node/5301456577",
      "properties": {
        "timestamp": "2022-08-10T18:43:06Z",
        "version": 4,
        "changeset": 124744566,
        "addr:city": "Alegre",
        "addr:housenumber": "95",
        "addr:postcode": "29500-000",
        "addr:street": "Rua Major Quintino",
        "addr:suburb": "Centro",
        "government": "administrative",
        "name": "Ciretran Alegre",
        "office": "government",
        "phone": "+55 28 3526 3426;+55 28 3526 3427",
        "id": "node/5301456577"
      },
      "geometry": {
        "type": "Point",
        "coordinates": [
          -41.5314826,
          -20.7609983
        ]
      }
    },
    {
      "type": "Feature",
      "id": "node/9316104715",
      "properties": {
        "timestamp": "2021-12-06T18:35:41Z",
        "version": 1,
        "changeset": 114630038,
        "addr:city": "Alegre",
        "addr:postcode": "29500-000",
        "addr:street": "Rua Homero Martins Thiebaut",
        "addr:suburb": "Café",
        "government": "register_office",
        "name": "Cartório de Registro Civil e Tabelionato do Café",
        "office": "government",
        "id": "node/9316104715"
      },
      "geometry": {
        "type": "Point",
        "coordinates": [
          -41.5753047,
          -20.8714196
        ]
      }
    },
    {
      "type": "Feature",
      "id": "node/9318187461",
      "properties": {
        "timestamp": "2022-08-10T18:43:06Z",
        "version": 2,
        "changeset": 124744566,
        "addr:city": "Alegre",
        "addr:housenumber": "95",
        "addr:postcode": "29500-000",
        "addr:street": "Rua Dulcino Pinheiro",
        "addr:suburb": "Centro",
        "government": "register_office",
        "name": "Cartório do Primeiro Ofício da Comarca de Alegre",
        "office": "government",
        "phone": "+55 28 3552 2363",
        "id": "node/9318187461"
      },
      "geometry": {
        "type": "Point",
        "coordinates": [
          -41.5305607,
          -20.7625532
        ]
      }
    },
    {
      "type": "Feature",
      "id": "node/9530655069",
      "properties": {
        "timestamp": "2024-05-15T16:26:02Z",
        "version": 2,
        "changeset": 151370360,
        "addr:city": "Alegre",
        "addr:postcode": "29500-000",
        "addr:street": "Avenida Oscar de Almeida Gama",
        "addr:suburb": "Triângulo",
        "government": "prosecutor",
        "name": "Promotoria de Justiça da Comarca de Alegre",
        "office": "government",
        "operator": "Ministério Público do Estado do Espírito Santo",
        "operator:wikidata": "Q20060323",
        "phone": "+55 28 3552 3454",
        "id": "node/9530655069"
      },
      "geometry": {
        "type": "Point",
        "coordinates": [
          -41.5305999,
          -20.7654141
        ]
      }
    },
    {
      "type": "Feature",
      "id": "node/9945690355",
      "properties": {
        "timestamp": "2022-09-01T13:23:21Z",
        "version": 2,
        "changeset": 125656462,
        "addr:city": "Alegre",
        "addr:housenumber": "97",
        "addr:postcode": "29500-000",
        "addr:street": "Avenida Jerônimo Monteiro",
        "addr:suburb": "Centro",
        "government": "register_office",
        "name": "Cartório de Registro Civil e Tabelionato Márcio Valory",
        "office": "government",
        "phone": "+55 28 3552 2350",
        "id": "node/9945690355"
      },
      "geometry": {
        "type": "Point",
        "coordinates": [
          -41.5311786,
          -20.763412
        ]
      }
    },
    {
      "type": "Feature",
      "id": "node/9945690356",
      "properties": {
        "timestamp": "2022-08-10T18:43:06Z",
        "version": 1,
        "changeset": 124744566,
        "addr:city": "Alegre",
        "addr:housenumber": "263",
        "addr:postcode": "29500-000",
        "addr:street": "Avenida Oscar de Almeida Gama",
        "addr:suburb": "Centro",
        "government": "register_office",
        "name": "Cartório da Quarta Zona Eleitoral de Alegre",
        "office": "government",
        "phone": "+55 28 3552 3115",
        "id": "node/9945690356"
      },
      "geometry": {
        "type": "Point",
        "coordinates": [
          -41.5304458,
          -20.7658548
        ]
      }
    },
    {
      "type": "Feature",
      "id": "node/9945690358",
      "properties": {
        "timestamp": "2022-08-10T18:43:06Z",
        "version": 1,
        "changeset": 124744566,
        "addr:city": "Alegre",
        "addr:housenumber": "566",
        "addr:postcode": "29500-000",
        "addr:street": "Avenida Doutor Olivio Correa Pedrosa",
        "addr:suburb": "Centro",
        "email": "glalegre@idaf.es.gov.br",
        "government": "administrative",
        "name": "Instituto Defesa Agropecuário Florestal do Estado do Espírito Santo - Idaf",
        "office": "government",
        "phone": "+55 28 3552 1183",
        "id": "node/9945690358"
      },
      "geometry": {
        "type": "Point",
        "coordinates": [
          -41.5341549,
          -20.7589813
        ]
      }
    },
    {
      "type": "Feature",
      "id": "node/9945690359",
      "properties": {
        "timestamp": "2022-08-10T18:43:06Z",
        "version": 1,
        "changeset": 124744566,
        "addr:city": "Alegre",
        "addr:housenumber": "566",
        "addr:postcode": "29500-000",
        "addr:street": "Avenida Doutor Olivio Correa Pedrosa",
        "addr:suburb": "Centro",
        "email": "alegre@incaper.es.gov.br",
        "government": "administrative",
        "name": "Intituto Capixaba de Pesquisa e Extensão Rural - Incaper",
        "office": "government",
        "phone": "+55 28 3552 0833",
        "id": "node/9945690359"
      },
      "geometry": {
        "type": "Point",
        "coordinates": [
          -41.5342526,
          -20.7589246
        ]
      }
    },
    {
      "type": "Feature",
      "id": "node/9945690381",
      "properties": {
        "timestamp": "2022-08-11T10:59:31Z",
        "version": 2,
        "changeset": 124770634,
        "addr:city": "Alegre",
        "addr:housenumber": "212",
        "addr:postcode": "29500-000",
        "addr:street": "Rua Doutor Chacon",
        "addr:suburb": "Centro",
        "email": "meioambiente@alegre.es.gov.br",
        "government": "administrative",
        "name": "Secretaria Municipal de Meio Ambiente e Desenvolvimento Sustentável - Semads",
        "office": "government",
        "phone": "+55 28 3300 0107",
        "id": "node/9945690381"
      },
      "geometry": {
        "type": "Point",
        "coordinates": [
          -41.5315335,
          -20.7647349
        ]
      }
    },
    {
      "type": "Feature",
      "id": "node/9945690382",
      "properties": {
        "timestamp": "2022-08-10T18:43:06Z",
        "version": 1,
        "changeset": 124744566,
        "addr:city": "Alegre",
        "addr:housenumber": "518",
        "addr:postcode": "29500-000",
        "addr:street": "Avenida Doutor Olivio Correa Pedrosa",
        "addr:suburb": "Centro",
        "email": "obras@alegre.es.gov.br",
        "government": "administrative",
        "name": "Secretaria Municipal de Obras, Saneamento e Desenvolvimento Urbano - Seosu",
        "office": "government",
        "phone": "+55 28 3300 0109",
        "id": "node/9945690382"
      },
      "geometry": {
        "type": "Point",
        "coordinates": [
          -41.5337659,
          -20.759195
        ]
      }
    },
    {
      "type": "Feature",
      "id": "node/9945690397",
      "properties": {
        "timestamp": "2022-08-10T18:43:06Z",
        "version": 1,
        "changeset": 124744566,
        "addr:city": "Alegre",
        "addr:housenumber": "36",
        "addr:postcode": "29500-000",
        "addr:street": "Rua Coronel Monteiro da Gama",
        "addr:suburb": "Centro",
        "email": "aude@alegre.es.gov.br",
        "government": "administrative",
        "name": "Secretaria Municipal de Saúde - Sesa",
        "office": "government",
        "phone": "+55 28 3300 0108",
        "id": "node/9945690397"
      },
      "geometry": {
        "type": "Point",
        "coordinates": [
          -41.5319496,
          -20.7597466
        ]
      }
    },
    {
      "type": "Feature",
      "id": "node/9947497027",
      "properties": {
        "timestamp": "2022-08-11T13:50:17Z",
        "version": 1,
        "changeset": 124777689,
        "addr:city": "Alegre",
        "addr:postcode": "29500-000",
        "addr:street": "Rua Maestro Eurico Oliveira",
        "addr:suburb": "Centro",
        "email": "agricultura@alegre.es.gov.br",
        "government": "administrative",
        "name": "Secretaria Municipal de Desenvolvimento Rural - Seder",
        "office": "government",
        "phone": "+55 28 3300 0104",
        "id": "node/9947497027"
      },
      "geometry": {
        "type": "Point",
        "coordinates": [
          -41.5372043,
          -20.7569994
        ]
      }
    },
    {
      "type": "Feature",
      "id": "node/9947607668",
      "properties": {
        "timestamp": "2022-08-11T15:07:38Z",
        "version": 1,
        "changeset": 124780673,
        "addr:city": "Alegre",
        "addr:housenumber": "100",
        "addr:postcode": "29500-000",
        "addr:street": "Rua Belo Amorim",
        "addr:suburb": "Centro",
        "email": "educacao@alegre.es.gov.br",
        "government": "administrative",
        "name": "Secretaria Municipal de Educação - Sede",
        "office": "government",
        "operator": "Município de Alegre",
        "phone": "+55 28 3300 0105",
        "id": "node/9947607668"
      },
      "geometry": {
        "type": "Point",
        "coordinates": [
          -41.5333457,
          -20.763812
        ]
      }
    },
    {
      "type": "Feature",
      "id": "node/9992769834",
      "properties": {
        "timestamp": "2022-09-01T12:51:20Z",
        "version": 1,
        "changeset": 125655123,
        "addr:city": "Alegre",
        "addr:housenumber": "25",
        "addr:postcode": "29500-000",
        "addr:street": "Praça Bernardino Monteiro",
        "addr:suburb": "Centro",
        "government": "social_security",
        "name": "Agência do Instituto Nacional de Seguridade Social - INSS",
        "office": "government",
        "operator": "Instituto Nacional do Seguro Social",
        "operator:short": "INSS",
        "operator:wikidata": "Q10302614",
        "id": "node/9992769834"
      },
      "geometry": {
        "type": "Point",
        "coordinates": [
          -41.5308038,
          -20.7642581
        ]
      }
    },
    {
      "type": "Feature",
      "id": "node/9992783163",
      "properties": {
        "timestamp": "2022-09-01T13:23:21Z",
        "version": 1,
        "changeset": 125656462,
        "addr:city": "Alegre",
        "addr:postcode": "29500-000",
        "addr:street": "Rua Romualdo Nogueira da Gama",
        "addr:suburb": "Centro",
        "email": "arealegre@sefaz.es.gov.br",
        "government": "tax",
        "name": "Agência da Receita Estadual em Alegre",
        "office": "government",
        "opening_hours": "Mo-Fr 12:00-16:00",
        "operator": "Secretaria da Fazenda do Estado do Espírito Santo - Sefaz",
        "phone": "+55 28 3552 2832;+55 28 3552 1087",
        "id": "node/9992783163"
      },
      "geometry": {
        "type": "Point",
        "coordinates": [
          -41.5308694,
          -20.7640755
        ]
      }
    }
  ]
}
