{
  "type": "FeatureCollection",
  "features": [
    {
      "type": "Feature",
      "id": "way/1010017063",
      "properties": {
        "timestamp": "2021-12-08T14:24:15Z",
        "version": 2,
        "changeset": 114705727,
        "addr:city": "Alegre",
        "addr:housenumber": "165",
        "addr:postcode": "29500-000",
        "addr:street": "Rua Monsenhor Pavesi",
        "addr:suburb": "Centro",
        "brand": "V. R. N. Hotel & Restaurante Limitada",
        "building": "yes",
        "name": "Hotel Alegre",
        "tourism": "hotel",
        "id": "way/1010017063"
      },
      "geometry": {
        "type": "Polygon",
        "coordinates": [
          [
            [
              -41.5341643,
              -20.7638686
            ],
            [
              -41.5340361,
              -20.7641329
            ],
            [
              -41.5339883,
              -20.7641126
            ],
            [
              -41.5340285,
              -20.7640298
            ],
            [
              -41.5336539,
              -20.7638709
            ],
            [
              -41.5336931,
              -20.7637886
            ],
            [
              -41.534056,
              -20.7639366
            ],
            [
              -41.5341141,
              -20.7638489
            ],
            [
              -41.5341643,
              -20.7638686
            ]
          ]
        ]
      }
    },
    {
      "type": "Feature",
      "id": "node/5301469780",
      "properties": {
        "timestamp": "2022-08-22T02:01:55Z",
        "version": 2,
        "changeset": 125204543,
        "addr:city": "Alegre",
        "addr:housenumber": "68",
        "addr:postcode": "29500-000",
        "addr:street": "Travessa Nestor Gomes",
        "addr:suburb": "Centro",
        "name": "Hotel Lews",
        "phone": "+55 28 3552 1442",
        "tourism": "hotel",
        "id": "node/5301469780"
      },
      "geometry": {
        "type": "Point",
        "coordinates": [
          -41.5318551,
          -20.7633573
        ]
      }
    },
    {
      "type": "Feature",
      "id": "node/9764884367",
      "properties": {
        "timestamp": "2024-10-05T13:35:41Z",
        "version": 2,
        "changeset": 157501552,
        "addr:city": "Alegre",
        "addr:housenumber": "km 63",
        "addr:postcode": "29520-000",
        "addr:street": "Rodovia Federal Engenheiro Fabiano Vivacqua",
        "addr:suburb": "Rive",
        "name": "Hotel Pedra do Pombal",
        "tourism": "hotel",
        "id": "node/9764884367"
      },
      "geometry": {
        "type": "Point",
        "coordinates": [
          -41.4738515,
          -20.7485435
        ]
      }
    },
    {
      "type": "Feature",
      "id": "node/9947958581",
      "properties": {
        "timestamp": "2024-10-05T13:35:41Z",
        "version": 2,
        "changeset": 157501552,
        "addr:city": "Alegre",
        "addr:housenumber": "km 70",
        "addr:postcode": "29500000",
        "addr:street": "Rodovia Federal Engenheiro Fabiano Vivacqua",
        "addr:suburb": "Pavuna",
        "brand": "M. A. Mello Hotel Limitada",
        "name": "Cidade Hotel",
        "tourism": "hotel",
        "id": "node/9947958581"
      },
      "geometry": {
        "type": "Point",
        "coordinates": [
          -41.5258341,
          -20.7616205
        ]
      }
    },
    {
      "type": "Feature",
      "id": "node/9968963367",
      "properties": {
        "timestamp": "2022-08-22T17:08:45Z",
        "version": 2,
        "changeset": 125236973,
        "addr:city": "Alegre",
        "addr:housenumber": "127",
        "addr:postcode": "29500-000",
        "addr:street": "Avenida Oscar de Almeida Gama",
        "addr:suburb": "Centro",
        "email": "estacaohotelalegre@gmail.com",
        "internet_access": "yes",
        "mobile": "+55 28 99956 1064",
        "name": "Estação Hotel",
        "phone": "+55 28 3552 0551",
        "tourism": "hotel",
        "website": "http://www.estacaohotelalegre.com.br/",
        "id": "node/9968963367"
      },
      "geometry": {
        "type": "Point",
        "coordinates": [
          -41.5304342,
          -20.7649238
        ]
      }
    },
    {
      "type": "Feature",
      "id": "node/9992783186",
      "properties": {
        "timestamp": "2022-09-01T13:23:21Z",
        "version": 1,
        "changeset": 125656462,
        "addr:city": "Alegre",
        "addr:postcode": "29500-000",
        "addr:street": "Avenida Jerônimo Monteiro",
        "addr:suburb": "Centro",
        "name": "Hotel Avenida",
        "tourism": "hotel",
        "id": "node/9992783186"
      },
      "geometry": {
        "type": "Point",
        "coordinates": [
          -41.5311448,
          -20.7635105
        ]
      }
    }
  ]
}
