{
  "type": "FeatureCollection",
  "features": [
    {
      "type": "Feature",
      "id": "node/9318187458",
      "properties": {
        "timestamp": "2021-12-07T13:06:19Z",
        "version": 1,
        "changeset": 114660597,
        "addr:city": "Alegre",
        "addr:housenumber": "89",
        "addr:postcode": "29500-000",
        "addr:street": "Rua Dulcino Pinheiro",
        "addr:suburb": "Centro",
        "amenity": "pharmacy",
        "dispensing": "yes",
        "healthcare": "pharmacy",
        "name": "Pharmacêutica Medicamentos",
        "operator": "Pharmacêutica Medicamentos Limitada",
        "id": "node/9318187458"
      },
      "geometry": {
        "type": "Point",
        "coordinates": [
          -41.530186,
          -20.7625717
        ]
      }
    },
    {
      "type": "Feature",
      "id": "node/9318187464",
      "properties": {
        "timestamp": "2021-12-07T13:06:19Z",
        "version": 1,
        "changeset": 114660597,
        "addr:city": "Alegre",
        "addr:housenumber": "284",
        "addr:postcode": "29500-000",
        "addr:street": "Praça Seis de Janeiro",
        "addr:suburb": "Centro",
        "amenity": "pharmacy",
        "dispensing": "yes",
        "email": "drogariajgmauri@hotmail.com",
        "healthcare": "pharmacy",
        "name": "Drogaria Central",
        "operator": "Drogaria J. G. Mauri Limitada",
        "phone": "+55 28 3552 1359",
        "phone_1": "+55 28 3552 0152",
        "id": "node/9318187464"
      },
      "geometry": {
        "type": "Point",
        "coordinates": [
          -41.5313006,
          -20.7623754
        ]
      }
    },
    {
      "type": "Feature",
      "id": "node/9318987602",
      "properties": {
        "timestamp": "2022-08-21T23:42:39Z",
        "version": 3,
        "changeset": 125202760,
        "addr:city": "Alegre",
        "addr:housenumber": "26",
        "addr:postcode": "29500-000",
        "addr:street": "Praça Seis de Janeiro",
        "addr:suburb": "Centro",
        "amenity": "pharmacy",
        "dispensing": "yes",
        "healthcare": "pharmacy",
        "name": "Farmácia São José",
        "operator": "Lauro Lima e Companhia Limitada",
        "phone": "+55 28 3552 1282",
        "id": "node/9318987602"
      },
      "geometry": {
        "type": "Point",
        "coordinates": [
          -41.5320196,
          -20.7623479
        ]
      }
    },
    {
      "type": "Feature",
      "id": "node/9968789489",
      "properties": {
        "timestamp": "2022-08-21T23:42:39Z",
        "version": 1,
        "changeset": 125202760,
        "addr:city": "Alegre",
        "addr:housenumber": "209",
        "addr:postcode": "29500-000",
        "addr:street": "Avenida Doutor Wanderley",
        "addr:suburb": "Centro",
        "amenity": "pharmacy",
        "dispensing": "yes",
        "healthcare": "pharmacy",
        "name": "Farmácia Valory",
        "operator": "Farmácia Valory Limitada",
        "phone": "+55 28 3552 1600",
        "id": "node/9968789489"
      },
      "geometry": {
        "type": "Point",
        "coordinates": [
          -41.5335964,
          -20.7611011
        ]
      }
    },
    {
      "type": "Feature",
      "id": "node/9968859061",
      "properties": {
        "timestamp": "2022-08-22T00:12:41Z",
        "version": 1,
        "changeset": 125203098,
        "addr:city": "Alegre",
        "addr:housenumber": "64",
        "addr:postcode": "29500-000",
        "addr:street": "Praça Seis de Janeiro",
        "addr:suburb": "Centro",
        "amenity": "pharmacy",
        "dispensing": "yes",
        "healthcare": "pharmacy",
        "name": "Phytoformula",
        "operator": "Phytoformula Farmácia de Manipulação Limitada",
        "phone": "+55 28 3552",
        "id": "node/9968859061"
      },
      "geometry": {
        "type": "Point",
        "coordinates": [
          -41.5322565,
          -20.7625223
        ]
      }
    },
    {
      "type": "Feature",
      "id": "node/9968859062",
      "properties": {
        "timestamp": "2022-08-22T00:12:41Z",
        "version": 1,
        "changeset": 125203098,
        "addr:city": "Alegre",
        "addr:housenumber": "07",
        "addr:postcode": "29500-000",
        "addr:street": "Rua Doutor Chacon",
        "addr:suburb": "Centro",
        "amenity": "pharmacy",
        "dispensing": "yes",
        "email": "pb.alegre@outlook.com",
        "healthcare": "pharmacy",
        "name": "Farmácia Preço Baixo",
        "operator": "Fármacia Preço Baixo de Alegre Limitada",
        "phone": "+55 28 3552 4557",
        "id": "node/9968859062"
      },
      "geometry": {
        "type": "Point",
        "coordinates": [
          -41.5321512,
          -20.7630879
        ]
      }
    },
    {
      "type": "Feature",
      "id": "node/9968859063",
      "properties": {
        "timestamp": "2022-08-22T00:12:41Z",
        "version": 1,
        "changeset": 125203098,
        "addr:city": "Alegre",
        "addr:housenumber": "49",
        "addr:postcode": "29500-000",
        "addr:street": "Rua Euclides Jaccoud",
        "addr:suburb": "Rive",
        "alt_name": "Farmácia Reeve",
        "amenity": "pharmacy",
        "dispensing": "yes",
        "healthcare": "pharmacy",
        "name": "Farmácia Celsino Freitas",
        "operator": "Farmácia Celsino Freitas Euclydes e Rodrigues Limitada",
        "phone": "+55 28 3552 8963",
        "id": "node/9968859063"
      },
      "geometry": {
        "type": "Point",
        "coordinates": [
          -41.4587374,
          -20.7575543
        ]
      }
    }
  ]
}
