{
  "type": "FeatureCollection",
  "features": [
    {
      "type": "Feature",
      "id": "way/301167974",
      "properties": {
        "timestamp": "2016-02-25T02:03:08Z",
        "version": 2,
        "changeset": 37426154,
        "IJSN:administra": "Estadual",
        "IJSN:classeCnae": "Fundamental e Médio",
        "addr:city": "Alegre",
        "addr:housenumber": "190",
        "addr:postcode": "29500-000",
        "addr:street": "Rua José Loureiro Prata",
        "addr:suburb": "Comunidade Celina",
        "alt_name": "Escola Estadual de Ensino Fundamental e Médio",
        "amenity": "school",
        "contact:phone": "(28) 3552-6149 / 3552-6242",
        "name": "EEEFM Sirena Rezende Fonseca",
        "source": "IJSN",
        "id": "way/301167974"
      },
      "geometry": {
        "type": "Polygon",
        "coordinates": [
          [
            [
              -41.5924399,
              -20.76463
            ],
            [
              -41.5923817,
              -20.764902
            ],
            [
              -41.5919496,
              -20.7648554
            ],
            [
              -41.5920244,
              -20.7645678
            ],
            [
              -41.5924399,
              -20.76463
            ]
          ]
        ]
      }
    },
    {
      "type": "Feature",
      "id": "way/1009918660",
      "properties": {
        "timestamp": "2022-08-10T19:16:16Z",
        "version": 2,
        "changeset": 124745744,
        "IJSN:administra": "Privada",
        "IJSN:classeCnae": "Médio",
        "addr:city": "Alegre",
        "addr:housenumber": "78",
        "addr:postcode": "29500-000",
        "addr:street": "Rua Romualdo Nogueira da Gama",
        "addr:suburb": "Centro",
        "amenity": "school",
        "building": "yes",
        "building:levels": "2",
        "contact:phone": "(28) 3552-2422",
        "name": "Instituto Educacional Santos Carvalheira - Iesc",
        "operator": "Instituto Educacional Santos Carvalheira Limitada",
        "source": "IJSN",
        "id": "way/1009918660"
      },
      "geometry": {
        "type": "Polygon",
        "coordinates": [
          [
            [
              -41.5305149,
              -20.7631793
            ],
            [
              -41.5308461,
              -20.7631813
            ],
            [
              -41.5308446,
              -20.7634025
            ],
            [
              -41.5307842,
              -20.7634021
            ],
            [
              -41.5307844,
              -20.7633716
            ],
            [
              -41.5305381,
              -20.76337
            ],
            [
              -41.5305382,
              -20.7633511
            ],
            [
              -41.5305137,
              -20.763351
            ],
            [
              -41.5305149,
              -20.7631793
            ]
          ]
        ]
      }
    },
    {
      "type": "Feature",
      "id": "way/1085560622",
      "properties": {
        "timestamp": "2023-05-09T12:19:43Z",
        "version": 2,
        "changeset": 135893434,
        "IJSN:administra": "Municipal",
        "IJSN:classeCnae": "Infantil e Fundamental",
        "addr:city": "Alegre",
        "addr:housenumber": "205",
        "addr:postcode": "29500-000",
        "addr:street": "Rua José Felipe da Silva",
        "addr:suburb": "Centro",
        "alt_name": "Escola Municipal de Ensino Infantil e Fundamental",
        "amenity": "school",
        "contact:phone": "+55 28 3552 3717",
        "name": "Escola Municipal de Ensino Infantil e Fundamental Ruth Alice",
        "operator": "Município de Alegre",
        "operator:type": "public",
        "source": "IJSN",
        "id": "way/1085560622"
      },
      "geometry": {
        "type": "Polygon",
        "coordinates": [
          [
            [
              -41.5370111,
              -20.7579582
            ],
            [
              -41.5365082,
              -20.758115
            ],
            [
              -41.5364883,
              -20.757976
            ],
            [
              -41.5364737,
              -20.7578664
            ],
            [
              -41.5368582,
              -20.7576987
            ],
            [
              -41.5370111,
              -20.7579582
            ]
          ]
        ]
      }
    },
    {
      "type": "Feature",
      "id": "way/1085560625",
      "properties": {
        "timestamp": "2022-08-11T09:59:09Z",
        "version": 1,
        "changeset": 124767987,
        "IJSN:administra": "Estadual",
        "IJSN:classeCnae": "Fundamental",
        "addr:city": "Alegre",
        "addr:housenumber": "178",
        "addr:postcode": "29500-000",
        "addr:street": "Avenida Doutor Olivio Correa Pedrosa",
        "addr:suburb": "Centro",
        "alt_name": "Escola Estadual de Ensino Fundamental",
        "amenity": "school",
        "contact:phone": "(28) 3552-1704 / 3552-4038",
        "name": "Escola Estadual de Ensino Fundamental Professor Lellis",
        "operator": "Secretaria de Educação do Estado do Espírito Santo",
        "operator:type": "public",
        "source": "IJSN",
        "id": "way/1085560625"
      },
      "geometry": {
        "type": "Polygon",
        "coordinates": [
          [
            [
              -41.5311952,
              -20.7608013
            ],
            [
              -41.5306683,
              -20.7611239
            ],
            [
              -41.5302586,
              -20.7605175
            ],
            [
              -41.5305698,
              -20.7603115
            ],
            [
              -41.5307944,
              -20.7602348
            ],
            [
              -41.5311952,
              -20.7608013
            ]
          ]
        ]
      }
    },
    {
      "type": "Feature",
      "id": "way/1085611602",
      "properties": {
        "timestamp": "2022-10-29T22:50:03Z",
        "version": 2,
        "changeset": 128229148,
        "IJSN:administra": "Estadual",
        "IJSN:classeCnae": "Fundamental e Médio",
        "addr:city": "Alegre",
        "addr:housenumber": "4",
        "addr:postcode": "29500-000",
        "addr:street": "Rua Doutor Wanderley",
        "addr:suburb": "Centro",
        "alt_name": "Escola Estadual de Ensino Fundamental e Médio",
        "amenity": "school",
        "contact:phone": "+55 28 3522 1619;+55 28 3552 4031",
        "name": "Escola Estadual de Ensino Fundamental e Médio Aristeu de Aguiar",
        "operator": "Secretaria de Educação do Estado do Espírito Santo",
        "operator:type": "public",
        "source": "IJSN",
        "id": "way/1085611602"
      },
      "geometry": {
        "type": "Polygon",
        "coordinates": [
          [
            [
              -41.5367216,
              -20.7591113
            ],
            [
              -41.5368796,
              -20.7590216
            ],
            [
              -41.5371023,
              -20.7587321
            ],
            [
              -41.537537,
              -20.7581595
            ],
            [
              -41.5380507,
              -20.7585796
            ],
            [
              -41.5378254,
              -20.7588831
            ],
            [
              -41.5373855,
              -20.7592255
            ],
            [
              -41.5374203,
              -20.7592794
            ],
            [
              -41.5371079,
              -20.7593684
            ],
            [
              -41.5370703,
              -20.7592819
            ],
            [
              -41.5367565,
              -20.7593019
            ],
            [
              -41.5367522,
              -20.7592784
            ],
            [
              -41.536728,
              -20.7591463
            ],
            [
              -41.5367216,
              -20.7591113
            ]
          ]
        ]
      }
    },
    {
      "type": "Feature",
      "id": "node/3052660750",
      "properties": {
        "timestamp": "2016-02-25T02:03:26Z",
        "version": 2,
        "changeset": 37426154,
        "IJSN:administra": "Municipal",
        "IJSN:classeCnae": "Infantil e Fundamental",
        "addr:city": "Alegre",
        "addr:housenumber": "185",
        "addr:postcode": "29500-000",
        "addr:street": "Rua Acácio de Oliveira Leal",
        "addr:suburb": "Comunidade Celina",
        "alt_name": "Centro Interuniversitário de Estudos da Criatividade",
        "amenity": "school",
        "name": "CIEC Jaci Kobbi Rodrigues",
        "source": "IJSN",
        "id": "node/3052660750"
      },
      "geometry": {
        "type": "Point",
        "coordinates": [
          -41.59395,
          -20.7684651
        ]
      }
    },
    {
      "type": "Feature",
      "id": "node/4024903378",
      "properties": {
        "timestamp": "2024-01-22T15:42:57Z",
        "version": 4,
        "changeset": 146559063,
        "IJSN:administra": "Privada",
        "IJSN:classeCnae": "Infantil e Fundamental",
        "addr:city": "Alegre",
        "addr:housenumber": "83",
        "addr:postcode": "29500-000",
        "addr:street": "Rua Waldir Monteiro",
        "addr:suburb": "Triângulo",
        "alt_name": "Centro Educacional",
        "amenity": "school",
        "contact:phone": "+55 28 3552 0319; 3552 4041",
        "name": "Centro Educacional Adélia Barroso Bifano - Ceabb",
        "operator": "Centro Educacional Dias Sueth Limitada",
        "operator:type": "private",
        "source": "IJSN",
        "id": "node/4024903378"
      },
      "geometry": {
        "type": "Point",
        "coordinates": [
          -41.5310859,
          -20.767765
        ]
      }
    },
    {
      "type": "Feature",
      "id": "node/4024904477",
      "properties": {
        "timestamp": "2016-02-25T01:59:27Z",
        "version": 1,
        "changeset": 37426154,
        "IJSN:administra": "Estadual",
        "IJSN:classeCnae": "Fundamental e Médio",
        "addr:city": "Alegre",
        "addr:housenumber": "320",
        "addr:postcode": "29530-990",
        "addr:street": "Rua Sebastião José Vial",
        "addr:suburb": "Anutiba",
        "alt_name": "Escola Estadual de Ensino Fundamental e Médio",
        "amenity": "school",
        "contact:phone": "(28) 3552-7219 / 3552-7124",
        "name": "EEEFM Ana Monteiro Paiva",
        "source": "IJSN",
        "id": "node/4024904477"
      },
      "geometry": {
        "type": "Point",
        "coordinates": [
          -41.4495077,
          -20.6115852
        ]
      }
    },
    {
      "type": "Feature",
      "id": "node/4024904810",
      "properties": {
        "timestamp": "2016-02-25T01:59:33Z",
        "version": 1,
        "changeset": 37426154,
        "IJSN:administra": "Estadual",
        "IJSN:classeCnae": "Fundamental e Médio",
        "addr:city": "Alegre",
        "addr:housenumber": "183",
        "addr:postcode": "29515-000",
        "addr:street": "Rua Lucindo Rodrigues Pinto",
        "addr:suburb": "Comunidade Café",
        "alt_name": "Escola Estadual de Ensino Fundamental e Médio",
        "amenity": "school",
        "contact:phone": "(28) 3552-9035 / 3552-9024",
        "name": "EEEFM José Corrente",
        "source": "IJSN",
        "id": "node/4024904810"
      },
      "geometry": {
        "type": "Point",
        "coordinates": [
          -41.5717079,
          -20.8684271
        ]
      }
    },
    {
      "type": "Feature",
      "id": "node/4024904826",
      "properties": {
        "timestamp": "2021-12-05T11:45:57Z",
        "version": 2,
        "changeset": 114579168,
        "IJSN:administra": "Estadual",
        "IJSN:classeCnae": "Fundamental",
        "addr:city": "Alegre",
        "addr:postcode": "29535-000",
        "addr:street": "Rua Hugo Furtado",
        "addr:suburb": "Comunidade Araraí",
        "alt_name": "Escola Estadual de Ensino Fundamental e Médio",
        "amenity": "school",
        "contact:phone": "(28) 9981-2023 / 3560-2219",
        "name": "EEEFM Oscar de Almeida Gama",
        "source": "IJSN",
        "id": "node/4024904826"
      },
      "geometry": {
        "type": "Point",
        "coordinates": [
          -41.5556205,
          -20.5928706
        ]
      }
    },
    {
      "type": "Feature",
      "id": "node/4024904838",
      "properties": {
        "timestamp": "2016-02-25T01:59:38Z",
        "version": 1,
        "changeset": 37426154,
        "IJSN:administra": "Estadual",
        "IJSN:classeCnae": "Fundamental e Médio",
        "addr:city": "Alegre",
        "addr:postcode": "29500-000",
        "addr:street": "Rua Antônio Lemos Barbosa",
        "addr:suburb": "São Manoel",
        "alt_name": "Escola Estadual de Ensino Fundamental e Médio",
        "amenity": "school",
        "contact:phone": "(28) 3552-4426 / 3552-4040",
        "name": "EEEFM Professor Pedro Simão",
        "source": "IJSN",
        "id": "node/4024904838"
      },
      "geometry": {
        "type": "Point",
        "coordinates": [
          -41.534723,
          -20.7722542
        ]
      }
    },
    {
      "type": "Feature",
      "id": "node/4024904841",
      "properties": {
        "timestamp": "2016-02-25T01:59:39Z",
        "version": 1,
        "changeset": 37426154,
        "IJSN:administra": "Estadual",
        "IJSN:classeCnae": "Fundamental e Médio",
        "addr:city": "Alegre",
        "addr:postcode": "29520-000",
        "addr:street": "Rua Theodoro Pinto de Souza",
        "addr:suburb": "Comunidade Rive",
        "alt_name": "Escola Estadual de Ensino Fundamental e Médio",
        "amenity": "school",
        "contact:phone": "(28) 3552-8022 / 3552-8260",
        "name": "EEEFM Professora Célia Teixeira do Carmo",
        "source": "IJSN",
        "id": "node/4024904841"
      },
      "geometry": {
        "type": "Point",
        "coordinates": [
          -41.4591113,
          -20.7566645
        ]
      }
    },
    {
      "type": "Feature",
      "id": "node/4024905464",
      "properties": {
        "timestamp": "2016-02-25T02:00:32Z",
        "version": 1,
        "changeset": 37426154,
        "IJSN:administra": "Municipal",
        "IJSN:classeCnae": "Infantil e Fundamental",
        "addr:city": "Alegre",
        "addr:postcode": "29500-000",
        "addr:street": "Rua João Manoel de Aquino",
        "addr:suburb": "Comunidade Roseira",
        "alt_name": "Escola Municipal de Ensino Fundamental",
        "amenity": "school",
        "contact:phone": "(28) 3552-9065",
        "name": "EMEF George Abreu Rangel",
        "source": "IJSN",
        "id": "node/4024905464"
      },
      "geometry": {
        "type": "Point",
        "coordinates": [
          -41.5321337,
          -20.8723004
        ]
      }
    },
    {
      "type": "Feature",
      "id": "node/4024905731",
      "properties": {
        "timestamp": "2016-02-25T02:01:00Z",
        "version": 1,
        "changeset": 37426154,
        "IJSN:administra": "Municipal",
        "IJSN:classeCnae": "Fundamental",
        "addr:city": "Jerônimo Monteiro",
        "addr:postcode": "29550-000",
        "addr:suburb": "Comunidade Bartolomeu",
        "alt_name": "Escola Municipal de Ensino Fundamental",
        "amenity": "school",
        "name": "EMEF Varginha",
        "source": "IJSN",
        "id": "node/4024905731"
      },
      "geometry": {
        "type": "Point",
        "coordinates": [
          -41.4092463,
          -20.7509026
        ]
      }
    },
    {
      "type": "Feature",
      "id": "node/4024905750",
      "properties": {
        "timestamp": "2016-02-25T02:01:03Z",
        "version": 1,
        "changeset": 37426154,
        "IJSN:administra": "Municipal",
        "IJSN:classeCnae": "Infantil e Fundamental",
        "addr:city": "Alegre",
        "addr:postcode": "29500-000",
        "addr:street": "Rua Carmosina Dias do Nascimento",
        "addr:suburb": "Clério Moulim",
        "alt_name": "Escola Municipal de Ensino Fundamental em Tempo Integral",
        "amenity": "school",
        "contact:phone": "(28) 3552-3048 / 3552-4048",
        "name": "EMEFTI Luciano Alves Duarte",
        "source": "IJSN",
        "id": "node/4024905750"
      },
      "geometry": {
        "type": "Point",
        "coordinates": [
          -41.5458528,
          -20.7662677
        ]
      }
    },
    {
      "type": "Feature",
      "id": "node/4024905967",
      "properties": {
        "timestamp": "2016-02-25T02:01:22Z",
        "version": 1,
        "changeset": 37426154,
        "IJSN:administra": "Municipal",
        "IJSN:classeCnae": "Infantil e Fundamental",
        "addr:city": "Alegre",
        "addr:postcode": "29500-000",
        "addr:street": "Rua Aristides Monteiro da Silva",
        "addr:suburb": "Vila do Sul",
        "alt_name": "Escola Municipal de Ensino Infantil e Fundamental",
        "amenity": "school",
        "name": "EMEIF Professor Domingos Bravo Reinoso",
        "source": "IJSN",
        "id": "node/4024905967"
      },
      "geometry": {
        "type": "Point",
        "coordinates": [
          -41.532156,
          -20.7720182
        ]
      }
    },
    {
      "type": "Feature",
      "id": "node/4024905976",
      "properties": {
        "timestamp": "2016-02-25T02:01:24Z",
        "version": 1,
        "changeset": 37426154,
        "IJSN:administra": "Municipal",
        "IJSN:classeCnae": "Infantil e Fundamental",
        "addr:city": "Alegre",
        "addr:postcode": "29500-000",
        "addr:suburb": "Comunidade Santa Maria",
        "alt_name": "Escola Municipal Fundamental Agrícola",
        "amenity": "school",
        "contact:phone": "(28) 9904-0354 / 3558-0200",
        "name": "EMFA Ziolita Maria da Silveira",
        "source": "IJSN",
        "id": "node/4024905976"
      },
      "geometry": {
        "type": "Point",
        "coordinates": [
          -41.5803329,
          -20.6866926
        ]
      }
    },
    {
      "type": "Feature",
      "id": "node/4024905980",
      "properties": {
        "timestamp": "2016-02-25T02:01:24Z",
        "version": 1,
        "changeset": 37426154,
        "IJSN:administra": "Municipal",
        "IJSN:classeCnae": "Fundamental",
        "addr:city": "Alegre",
        "addr:postcode": "29500-000",
        "addr:street": "Fazenda Sobreira",
        "addr:suburb": "Comunidade Sobreira",
        "alt_name": "Escola Municipal Pluridocente de Ensino Fundamental",
        "amenity": "school",
        "name": "EMPEF Adalzisa Teixeira Sobreira",
        "source": "IJSN",
        "id": "node/4024905980"
      },
      "geometry": {
        "type": "Point",
        "coordinates": [
          -41.5568661,
          -20.6363501
        ]
      }
    },
    {
      "type": "Feature",
      "id": "node/4024906091",
      "properties": {
        "timestamp": "2016-02-25T02:01:26Z",
        "version": 1,
        "changeset": 37426154,
        "IJSN:administra": "Municipal",
        "IJSN:classeCnae": "Infantil e Fundamental",
        "addr:city": "Alegre",
        "addr:postcode": "29500-000",
        "addr:suburb": "Comunidade Boa Vista",
        "alt_name": "Escola Municipal Pluridocente de Ensino Fundamental",
        "amenity": "school",
        "name": "EMPEF Athaydes Alves de Assis",
        "source": "IJSN",
        "id": "node/4024906091"
      },
      "geometry": {
        "type": "Point",
        "coordinates": [
          -41.5851815,
          -20.5954105
        ]
      }
    },
    {
      "type": "Feature",
      "id": "node/4024906131",
      "properties": {
        "timestamp": "2016-02-25T02:01:33Z",
        "version": 1,
        "changeset": 37426154,
        "IJSN:administra": "Municipal",
        "IJSN:classeCnae": "Infantil e Fundamental",
        "addr:city": "Alegre",
        "addr:postcode": "29500-000",
        "addr:street": "Fazenda do Paraiso",
        "addr:suburb": "Comunidade Bom Ver",
        "alt_name": "Escola Municipal Pluridocente de Ensino Fundamental",
        "amenity": "school",
        "name": "EMPEF Ione Azevedo Campos",
        "source": "IJSN",
        "id": "node/4024906131"
      },
      "geometry": {
        "type": "Point",
        "coordinates": [
          -41.4972257,
          -20.8508659
        ]
      }
    },
    {
      "type": "Feature",
      "id": "node/4024906165",
      "properties": {
        "timestamp": "2016-02-25T02:01:38Z",
        "version": 1,
        "changeset": 37426154,
        "IJSN:administra": "Municipal",
        "IJSN:classeCnae": "Infantil e Fundamental",
        "addr:city": "Alegre",
        "addr:postcode": "29500-000",
        "addr:suburb": "Comunidade São João do Norte",
        "alt_name": "Escola Municipal Pluridocente de Ensino Fundamental",
        "amenity": "school",
        "name": "EMPEF São João do Norte",
        "source": "IJSN",
        "id": "node/4024906165"
      },
      "geometry": {
        "type": "Point",
        "coordinates": [
          -41.5106326,
          -20.6770467
        ]
      }
    },
    {
      "type": "Feature",
      "id": "node/4024906240",
      "properties": {
        "timestamp": "2016-02-25T02:01:49Z",
        "version": 1,
        "changeset": 37426154,
        "IJSN:administra": "Municipal",
        "IJSN:classeCnae": "Fundamental",
        "addr:city": "Alegre",
        "addr:postcode": "29500-000",
        "addr:suburb": "Comunidade Bela Aurora",
        "alt_name": "Escola Municipal Unidocente de Ensino Fundamental",
        "amenity": "school",
        "name": "EMUEF Cachoeira Alta",
        "source": "IJSN",
        "id": "node/4024906240"
      },
      "geometry": {
        "type": "Point",
        "coordinates": [
          -41.6125569,
          -20.875302
        ]
      }
    },
    {
      "type": "Feature",
      "id": "node/4024906242",
      "properties": {
        "timestamp": "2016-02-25T02:01:50Z",
        "version": 1,
        "changeset": 37426154,
        "IJSN:administra": "Municipal",
        "IJSN:classeCnae": "Infantil e Fundamental",
        "addr:city": "Alegre",
        "addr:postcode": "29500-000",
        "addr:suburb": "Comunidade Varjão do Norte",
        "alt_name": "Escola Municipal Unidocente de Ensino Fundamental",
        "amenity": "school",
        "name": "EMUEF Cachoeira Coberta",
        "source": "IJSN",
        "id": "node/4024906242"
      },
      "geometry": {
        "type": "Point",
        "coordinates": [
          -41.5318912,
          -20.6281732
        ]
      }
    },
    {
      "type": "Feature",
      "id": "node/4024906274",
      "properties": {
        "timestamp": "2016-02-25T02:01:54Z",
        "version": 1,
        "changeset": 37426154,
        "IJSN:administra": "Municipal",
        "IJSN:classeCnae": "Fundamental",
        "addr:city": "Alegre",
        "addr:postcode": "29500-000",
        "addr:suburb": "Comunidade Café",
        "alt_name": "Escola Municipal Unidocente de Ensino Fundamental",
        "amenity": "school",
        "name": "EMUEF Córrego Tiradentes",
        "source": "IJSN",
        "id": "node/4024906274"
      },
      "geometry": {
        "type": "Point",
        "coordinates": [
          -41.5764759,
          -20.8781583
        ]
      }
    },
    {
      "type": "Feature",
      "id": "node/4024906299",
      "properties": {
        "timestamp": "2016-02-25T02:01:58Z",
        "version": 1,
        "changeset": 37426154,
        "IJSN:administra": "Municipal",
        "IJSN:classeCnae": "Infantil e Fundamental",
        "addr:city": "Alegre",
        "addr:postcode": "29500-000",
        "addr:street": "Fazenda Bom Ver",
        "addr:suburb": "Comunidade Bom Ver",
        "alt_name": "Escola Municipal Unidocente de Ensino Fundamental",
        "amenity": "school",
        "name": "EMUEF Fazenda Bom Ver",
        "source": "IJSN",
        "id": "node/4024906299"
      },
      "geometry": {
        "type": "Point",
        "coordinates": [
          -41.4894158,
          -20.8604577
        ]
      }
    },
    {
      "type": "Feature",
      "id": "node/4024906304",
      "properties": {
        "timestamp": "2016-02-25T02:01:59Z",
        "version": 1,
        "changeset": 37426154,
        "IJSN:administra": "Municipal",
        "IJSN:classeCnae": "Infantil e Fundamental",
        "addr:city": "Alegre",
        "addr:postcode": "29500-000",
        "addr:street": "Fazenda Queimados",
        "addr:suburb": "Comunidade Bom Ver",
        "alt_name": "Escola Municipal Unidocente de Ensino Fundamental",
        "amenity": "school",
        "name": "EMUEF Fazenda Queimados",
        "source": "IJSN",
        "id": "node/4024906304"
      },
      "geometry": {
        "type": "Point",
        "coordinates": [
          -41.4924925,
          -20.8458694
        ]
      }
    },
    {
      "type": "Feature",
      "id": "node/4024906306",
      "properties": {
        "timestamp": "2016-02-25T02:01:59Z",
        "version": 1,
        "changeset": 37426154,
        "IJSN:administra": "Municipal",
        "IJSN:classeCnae": "Infantil e Fundamental",
        "addr:city": "Alegre",
        "addr:postcode": "29500-000",
        "addr:street": "Fazenda São Francisco",
        "addr:suburb": "Comunidade Rive",
        "alt_name": "Escola Municipal Unidocente de Ensino Fundamental",
        "amenity": "school",
        "name": "EMUEF Fazenda São Francisco",
        "source": "IJSN",
        "id": "node/4024906306"
      },
      "geometry": {
        "type": "Point",
        "coordinates": [
          -41.490693,
          -20.7564148
        ]
      }
    },
    {
      "type": "Feature",
      "id": "node/4024906310",
      "properties": {
        "timestamp": "2016-02-25T02:02:00Z",
        "version": 1,
        "changeset": 37426154,
        "IJSN:administra": "Municipal",
        "IJSN:classeCnae": "Infantil e Fundamental",
        "addr:city": "Alegre",
        "addr:postcode": "29500-000",
        "addr:suburb": "Comunidade Feliz Lembrança",
        "alt_name": "Escola Municipal Unidocente de Ensino Fundamental",
        "amenity": "school",
        "name": "EMUEF Feliz Lembrança",
        "source": "IJSN",
        "id": "node/4024906310"
      },
      "geometry": {
        "type": "Point",
        "coordinates": [
          -41.5118442,
          -20.7674684
        ]
      }
    },
    {
      "type": "Feature",
      "id": "node/4024906314",
      "properties": {
        "timestamp": "2016-02-25T02:02:00Z",
        "version": 1,
        "changeset": 37426154,
        "IJSN:administra": "Municipal",
        "IJSN:classeCnae": "Fundamental",
        "addr:city": "Alegre",
        "addr:postcode": "29500-000",
        "addr:suburb": "Comunidade Varjão do Norte",
        "alt_name": "Escola Municipal Unidocente de Ensino Fundamental",
        "amenity": "school",
        "name": "EMUEF Francisco Antônio de Souza",
        "source": "IJSN",
        "id": "node/4024906314"
      },
      "geometry": {
        "type": "Point",
        "coordinates": [
          -41.5297613,
          -20.628692
        ]
      }
    },
    {
      "type": "Feature",
      "id": "node/4024906316",
      "properties": {
        "timestamp": "2016-02-25T02:02:01Z",
        "version": 1,
        "changeset": 37426154,
        "IJSN:administra": "Municipal",
        "IJSN:classeCnae": "Infantil e Fundamental",
        "addr:city": "Alegre",
        "addr:postcode": "29500-000",
        "addr:suburb": "Comunidade Placa",
        "alt_name": "Escola Municipal Unidocente de Ensino Fundamental",
        "amenity": "school",
        "name": "EMUEF Geraldino Alves de Assis",
        "source": "IJSN",
        "id": "node/4024906316"
      },
      "geometry": {
        "type": "Point",
        "coordinates": [
          -41.5066089,
          -20.7169111
        ]
      }
    },
    {
      "type": "Feature",
      "id": "node/4024906319",
      "properties": {
        "timestamp": "2016-02-25T02:02:01Z",
        "version": 1,
        "changeset": 37426154,
        "IJSN:administra": "Municipal",
        "IJSN:classeCnae": "Infantil e Fundamental",
        "addr:city": "Alegre",
        "addr:postcode": "29500-000",
        "addr:suburb": "Comunidade Lagoa Seca",
        "alt_name": "Escola Municipal Unidocente de Ensino Fundamental",
        "amenity": "school",
        "name": "EMUEF Guido Mauri",
        "source": "IJSN",
        "id": "node/4024906319"
      },
      "geometry": {
        "type": "Point",
        "coordinates": [
          -41.4705388,
          -20.8768215
        ]
      }
    },
    {
      "type": "Feature",
      "id": "node/4024906327",
      "properties": {
        "timestamp": "2016-02-25T02:02:02Z",
        "version": 1,
        "changeset": 37426154,
        "IJSN:administra": "Municipal",
        "IJSN:classeCnae": "Fundamental",
        "addr:city": "Alegre",
        "addr:postcode": "29500-000",
        "addr:street": "Fazenda Carneira",
        "addr:suburb": "Comunidade Placa",
        "alt_name": "Escola Municipal Unidocente de Ensino Fundamental",
        "amenity": "school",
        "name": "EMUEF José Porfirio da Costa",
        "source": "IJSN",
        "id": "node/4024906327"
      },
      "geometry": {
        "type": "Point",
        "coordinates": [
          -41.4861763,
          -20.6941141
        ]
      }
    },
    {
      "type": "Feature",
      "id": "node/4024906333",
      "properties": {
        "timestamp": "2016-02-25T02:02:03Z",
        "version": 1,
        "changeset": 37426154,
        "IJSN:administra": "Municipal",
        "IJSN:classeCnae": "Fundamental",
        "addr:city": "Alegre",
        "addr:postcode": "29500-000",
        "addr:suburb": "Comunidade Placa",
        "alt_name": "Escola Municipal Unidocente de Ensino Fundamental",
        "amenity": "school",
        "name": "EMUEF Melchisedeck Baldotto",
        "source": "IJSN",
        "id": "node/4024906333"
      },
      "geometry": {
        "type": "Point",
        "coordinates": [
          -41.4858782,
          -20.6897798
        ]
      }
    },
    {
      "type": "Feature",
      "id": "node/4024906336",
      "properties": {
        "timestamp": "2016-02-25T02:02:04Z",
        "version": 1,
        "changeset": 37426154,
        "IJSN:administra": "Municipal",
        "IJSN:classeCnae": "Fundamental",
        "addr:city": "Alegre",
        "addr:postcode": "29500-000",
        "addr:suburb": "Comunidade Tres Morros",
        "alt_name": "Escola Municipal Unidocente de Ensino Fundamental",
        "amenity": "school",
        "name": "EMUEF Morro Azul",
        "source": "IJSN",
        "id": "node/4024906336"
      },
      "geometry": {
        "type": "Point",
        "coordinates": [
          -41.6107844,
          -20.8824731
        ]
      }
    },
    {
      "type": "Feature",
      "id": "node/4024906377",
      "properties": {
        "timestamp": "2016-02-25T02:02:10Z",
        "version": 1,
        "changeset": 37426154,
        "IJSN:administra": "Municipal",
        "IJSN:classeCnae": "Infantil e Fundamental",
        "addr:city": "Alegre",
        "addr:postcode": "29500-000",
        "addr:suburb": "Comunidade Rive",
        "alt_name": "Escola Municipal Unidocente de Ensino Fundamental",
        "amenity": "school",
        "name": "EMUEF Ruy Barbosa Campos",
        "source": "IJSN",
        "id": "node/4024906377"
      },
      "geometry": {
        "type": "Point",
        "coordinates": [
          -41.4733023,
          -20.7756969
        ]
      }
    },
    {
      "type": "Feature",
      "id": "node/4024906388",
      "properties": {
        "timestamp": "2016-02-25T02:02:11Z",
        "version": 1,
        "changeset": 37426154,
        "IJSN:administra": "Municipal",
        "IJSN:classeCnae": "Fundamental",
        "addr:city": "Alegre",
        "addr:postcode": "29500-000",
        "addr:suburb": "Comunidade Araraí",
        "alt_name": "Escola Municipal Unidocente de Ensino Fundamental",
        "amenity": "school",
        "name": "EMUEF Sebastiana Pereira de Aguiar",
        "source": "IJSN",
        "id": "node/4024906388"
      },
      "geometry": {
        "type": "Point",
        "coordinates": [
          -41.5534109,
          -20.5882645
        ]
      }
    },
    {
      "type": "Feature",
      "id": "node/4024906603",
      "properties": {
        "timestamp": "2016-02-25T02:02:13Z",
        "version": 1,
        "changeset": 37426154,
        "IJSN:administra": "Municipal",
        "IJSN:classeCnae": "Fundamental",
        "addr:city": "Alegre",
        "addr:postcode": "29500-000",
        "addr:suburb": "Comunidade Alto Lambari Frio",
        "alt_name": "Escola Municipal Unidocente de Ensino Fundamental",
        "amenity": "school",
        "name": "EMUEF São Sebastião",
        "source": "IJSN",
        "id": "node/4024906603"
      },
      "geometry": {
        "type": "Point",
        "coordinates": [
          -41.3834536,
          -20.6389781
        ]
      }
    },
    {
      "type": "Feature",
      "id": "node/9947073870",
      "properties": {
        "timestamp": "2022-08-11T09:59:09Z",
        "version": 1,
        "changeset": 124767987,
        "access": "yes",
        "barrier": "gate",
        "id": "node/9947073870"
      },
      "geometry": {
        "type": "Point",
        "coordinates": [
          -41.5364883,
          -20.757976
        ]
      }
    },
    {
      "type": "Feature",
      "id": "node/9947497104",
      "properties": {
        "timestamp": "2022-08-11T13:50:17Z",
        "version": 1,
        "changeset": 124777689,
        "barrier": "gate",
        "id": "node/9947497104"
      },
      "geometry": {
        "type": "Point",
        "coordinates": [
          -41.536728,
          -20.7591463
        ]
      }
    },
    {
      "type": "Feature",
      "id": "node/9947497125",
      "properties": {
        "timestamp": "2022-08-11T13:50:17Z",
        "version": 1,
        "changeset": 124777689,
        "barrier": "gate",
        "id": "node/9947497125"
      },
      "geometry": {
        "type": "Point",
        "coordinates": [
          -41.5367522,
          -20.7592784
        ]
      }
    },
    {
      "type": "Feature",
      "id": "node/9947579654",
      "properties": {
        "timestamp": "2022-08-20T02:43:44Z",
        "version": 2,
        "changeset": 125131590,
        "addr:city": "Alegre",
        "addr:housenumber": "54",
        "addr:postcode": "29500-000",
        "addr:street": "Rua Mizael de Paiva Barcelos",
        "addr:suburb": "Vila do Sul",
        "amenity": "school",
        "name": "Colégio Inovador",
        "operator": "Cooperativa Educacional Sul Capixaba - Coopesulc",
        "operator:type": "private",
        "phone": "+55 28 3552 1102",
        "id": "node/9947579654"
      },
      "geometry": {
        "type": "Point",
        "coordinates": [
          -41.5325722,
          -20.7674516
        ]
      }
    },
    {
      "type": "Feature",
      "id": "node/9957850878",
      "properties": {
        "timestamp": "2024-10-17T20:20:11Z",
        "version": 4,
        "changeset": 158025011,
        "addr:city": "Alegre",
        "addr:postcode": "29500-000",
        "addr:street": "Rua Waldir Monteiro",
        "addr:suburb": "Triângulo",
        "amenity": "school",
        "name": "Centro Municipal De Educação Infantil Heitor Monteiro da Gama",
        "operator": "Secretaria Municipal de Educação",
        "operator:type": "public",
        "id": "node/9957850878"
      },
      "geometry": {
        "type": "Point",
        "coordinates": [
          -41.5316027,
          -20.7673732
        ]
      }
    }
  ]
}
