{
  "type": "FeatureCollection",
  "features": [
    {
      "type": "Feature",
      "id": "node/3999139396",
      "properties": {
        "timestamp": "2016-02-10T13:37:07Z",
        "version": 1,
        "changeset": 37124622,
        "addr:city": "Alegre",
        "addr:postcode": "29500-000",
        "addr:street": "Rua José Silveira Domingues",
        "addr:suburb": "Campo de Aviaçâo",
        "alt_name": "Centro de Referência de Assistência Social",
        "amenity": "social_facility",
        "contact:phone": "(28) 3552-0145",
        "name": "CRAS - Alegre",
        "social_facility": "outreach",
        "source": "IJSN",
        "id": "node/3999139396"
      },
      "geometry": {
        "type": "Point",
        "coordinates": [
          -41.5341138,
          -20.7655455
        ]
      }
    },
    {
      "type": "Feature",
      "id": "node/9947497025",
      "properties": {
        "timestamp": "2022-08-14T14:59:50Z",
        "version": 2,
        "changeset": 124891415,
        "addr:city": "Alegre",
        "addr:postcode": "29500-000",
        "addr:street": "Rua Brasildes Paiva Barcelos",
        "addr:suburb": "Centro",
        "amenity": "social_facility",
        "name": "Escola Especial Francisco Arcon",
        "operator": "Associação de Pais e Amigos do Excepcionais de Alegre - Apae",
        "operator:type": "community",
        "social_facility": "day_care",
        "id": "node/9947497025"
      },
      "geometry": {
        "type": "Point",
        "coordinates": [
          -41.5370846,
          -20.7580699
        ]
      }
    }
  ]
}
