{
  "type": "FeatureCollection",
  "features": [
    {
      "type": "Feature",
      "id": "way/193283536",
      "properties": {
        "timestamp": "2020-12-17T16:49:02Z",
        "version": 6,
        "changeset": 96018856,
        "addr:street": "Rua República Argentina",
        "alt_name": "Alfândega",
        "amenity": "customs",
        "building": "yes",
        "government": "tax",
        "name": "Aduana de Passageiros",
        "office": "government",
        "official_name": "ACI Trânsito Vicinal e Turístico",
        "operator": "Receita Federal do Brasil",
        "id": "way/193283536"
      },
      "geometry": {
        "type": "Polygon",
        "coordinates": [
          [
            [
              -53.6430422,
              -26.2546604
            ],
            [
              -53.6430659,
              -26.2547792
            ],
            [
              -53.6431056,
              -26.2549782
            ],
            [
              -53.6429211,
              -26.2550078
            ],
            [
              -53.6429042,
              -26.2549233
            ],
            [
              -53.6428726,
              -26.2549283
            ],
            [
              -53.642862,
              -26.2548751
            ],
            [
              -53.6428394,
              -26.2548787
            ],
            [
              -53.6428311,
              -26.2548368
            ],
            [
              -53.6428035,
              -26.2546987
            ],
            [
              -53.6430422,
              -26.2546604
            ]
          ]
        ]
      }
    },
    {
      "type": "Feature",
      "id": "way/392441938",
      "properties": {
        "timestamp": "2023-10-20T06:31:05Z",
        "version": 3,
        "changeset": 142852084,
        "addr:city": "Dionísio Cerqueira",
        "addr:hamlet": "Linha Idamar",
        "addr:street": "BR-163",
        "alt_name": "Defesa Agropecuária",
        "description": "Posto de fiscalização do trânsito de animais, vegetais e produtos agropecuários",
        "name": "Posto Fiscal Sanitário",
        "office": "government",
        "opening_hours": "24/7",
        "operator": "Companhia Integrada de Desenvolvimento Agrícola de Santa Catarina",
        "short_name": "Cidasc",
        "website": "https://www.cidasc.sc.gov.br/",
        "id": "way/392441938"
      },
      "geometry": {
        "type": "Polygon",
        "coordinates": [
          [
            [
              -53.5486336,
              -26.3135448
            ],
            [
              -53.5487864,
              -26.3139981
            ],
            [
              -53.5484951,
              -26.3141057
            ],
            [
              -53.5483424,
              -26.3136452
            ],
            [
              -53.5486336,
              -26.3135448
            ]
          ]
        ]
      }
    },
    {
      "type": "Feature",
      "id": "node/3776481377",
      "properties": {
        "timestamp": "2020-12-17T16:49:02Z",
        "version": 7,
        "changeset": 96018856,
        "addr:city": "Dionísio Cerqueira",
        "addr:country": "BR",
        "addr:housenumber": "140",
        "addr:state": "Santa Catarina",
        "addr:street": "Avenida República Argentina",
        "government": "tax",
        "name": "Inspetoria da Receita Federal",
        "office": "government",
        "official_name": "Alfândega de Dionísio Cerqueira",
        "phone": "+55-49-3644-1152",
        "id": "node/3776481377"
      },
      "geometry": {
        "type": "Point",
        "coordinates": [
          -53.6420656,
          -26.255156
        ]
      }
    },
    {
      "type": "Feature",
      "id": "node/7216835682",
      "properties": {
        "timestamp": "2022-09-03T22:49:15Z",
        "version": 5,
        "changeset": 125755577,
        "addr:city": "Dionísio Cerqueira",
        "addr:full": "Rua Felipe Schimidt, 740, Centro, Dionísio Cerqueira, SC, Brasil, 89950-000",
        "addr:housenumber": "740",
        "addr:postcode": "89950-000",
        "addr:street": "Rua Felipe Schimidt",
        "addr:suburb": "Centro",
        "email": "dcq.sc@dpf.gov.br",
        "government": "police",
        "name": "Delegacia de Polícia Federal",
        "office": "government",
        "official_name": "Delegacia da Polícia Federal em Dionísio Cerqueira/SC",
        "opening_hours": "08:00-12:00,14:00-17:00",
        "operator": "Polícia Federal do Brasil",
        "operator:en": "Federal Police of Brazil",
        "operator:wikidata": "Q2289697",
        "operator:wikipedia": "pt:Polícia Federal do Brasil",
        "phone": "+55-49-3644-6300;+55-49-3644-6310;+55-49-3644-6307",
        "short_name": "Polícia Federal",
        "website": "https://www.gov.br/pf/pt-br/acesso-a-informacao/institucional/quem-e-quem/superintendencias-e-delegacias/santa-catarina",
        "id": "node/7216835682"
      },
      "geometry": {
        "type": "Point",
        "coordinates": [
          -53.6327822,
          -26.2607254
        ]
      }
    },
    {
      "type": "Feature",
      "id": "node/8224072770",
      "properties": {
        "timestamp": "2020-12-17T16:49:02Z",
        "version": 2,
        "changeset": 96018856,
        "entrance": "yes",
        "id": "node/8224072770"
      },
      "geometry": {
        "type": "Point",
        "coordinates": [
          -53.6430659,
          -26.2547792
        ]
      }
    },
    {
      "type": "Feature",
      "id": "node/8224072771",
      "properties": {
        "timestamp": "2020-12-17T16:49:02Z",
        "version": 2,
        "changeset": 96018856,
        "entrance": "yes",
        "id": "node/8224072771"
      },
      "geometry": {
        "type": "Point",
        "coordinates": [
          -53.6428311,
          -26.2548368
        ]
      }
    }
  ]
}
