{
  "type": "FeatureCollection",
  "features": [
    {
      "type": "Feature",
      "id": "way/682646316",
      "properties": {
        "timestamp": "2019-04-09T10:58:50Z",
        "version": 1,
        "changeset": 69039902,
        "addr:city": "Tupaciguara",
        "addr:postcode": "38480-000",
        "addr:street": "Avenida Adilon de Araujo",
        "addr:suburb": "Tiradentes",
        "amenity": "pharmacy",
        "building": "yes",
        "dispensing": "yes",
        "drive_through": "no",
        "healthcare": "pharmacy",
        "name": "Drogamed",
        "opening_hours": "08:00-20:00",
        "id": "way/682646316"
      },
      "geometry": {
        "type": "Polygon",
        "coordinates": [
          [
            [
              -48.6871547,
              -18.6030954
            ],
            [
              -48.6870613,
              -18.6031734
            ],
            [
              -48.6870297,
              -18.6031394
            ],
            [
              -48.6871231,
              -18.6030614
            ],
            [
              -48.6871547,
              -18.6030954
            ]
          ]
        ]
      }
    },
    {
      "type": "Feature",
      "id": "way/684390675",
      "properties": {
        "timestamp": "2019-04-17T13:21:19Z",
        "version": 1,
        "changeset": 69309321,
        "addr:city": "Tupaciguara",
        "addr:postcode": "Tupaciguara",
        "addr:street": "Rua Gabriel Felipe de Faria",
        "addr:suburb": "Centro",
        "amenity": "pharmacy",
        "building": "yes",
        "dispensing": "no",
        "drive_through": "no",
        "healthcare": "pharmacy",
        "name": "Compre Certo",
        "operator": "Alexandre",
        "id": "way/684390675"
      },
      "geometry": {
        "type": "Polygon",
        "coordinates": [
          [
            [
              -48.7014766,
              -18.593519
            ],
            [
              -48.7016315,
              -18.5935141
            ],
            [
              -48.7016351,
              -18.5936154
            ],
            [
              -48.7014802,
              -18.5936204
            ],
            [
              -48.7014766,
              -18.593519
            ]
          ]
        ]
      }
    }
  ]
}
