{
  "type": "FeatureCollection",
  "features": [
    {
      "type": "Feature",
      "id": "way/800869151",
      "properties": {
        "timestamp": "2020-05-07T00:07:03Z",
        "version": 1,
        "changeset": 84790890,
        "addr:city": "Irupi",
        "addr:housenumber": "804",
        "addr:postcode": "29398000",
        "addr:street": "Avenida João Costa",
        "addr:suburb": "João Tomaz",
        "building": "yes",
        "guest_house": "guest_house",
        "name": "Pousada Caminhos do Caparaó",
        "tourism": "guest_house",
        "id": "way/800869151"
      },
      "geometry": {
        "type": "Polygon",
        "coordinates": [
          [
            [
              -41.6362854,
              -20.3504142
            ],
            [
              -41.6363425,
              -20.3503581
            ],
            [
              -41.6364461,
              -20.3504397
            ],
            [
              -41.6363691,
              -20.3505138
            ],
            [
              -41.6363106,
              -20.3504646
            ],
            [
              -41.6363252,
              -20.3504497
            ],
            [
              -41.6362854,
              -20.3504142
            ]
          ]
        ]
      }
    }
  ]
}
