{
  "type": "FeatureCollection",
  "features": [
    {
      "type": "Feature",
      "id": "way/342874426",
      "properties": {
        "timestamp": "2015-05-05T02:27:10Z",
        "version": 1,
        "changeset": 30795808,
        "amenity": "school",
        "id": "way/342874426"
      },
      "geometry": {
        "type": "Polygon",
        "coordinates": [
          [
            [
              -41.7083006,
              -20.3015294
            ],
            [
              -41.7082519,
              -20.3015181
            ],
            [
              -41.7082911,
              -20.3013696
            ],
            [
              -41.7082009,
              -20.3013486
            ],
            [
              -41.7082117,
              -20.3013078
            ],
            [
              -41.7083506,
              -20.3013401
            ],
            [
              -41.7083006,
              -20.3015294
            ]
          ]
        ]
      }
    },
    {
      "type": "Feature",
      "id": "way/355562047",
      "properties": {
        "timestamp": "2016-02-25T02:03:04Z",
        "version": 3,
        "changeset": 37426154,
        "IJSN:administra": "Estadual",
        "IJSN:classeCnae": "Fundamental e Médio",
        "addr:city": "Irupi",
        "addr:housenumber": "27",
        "addr:postcode": "29398-000",
        "addr:street": "Rua João Mariano",
        "addr:suburb": "Centro",
        "alt_name": "Escola Estadual de Ensino Fundamental e Médio",
        "amenity": "school",
        "building": "yes",
        "contact:phone": "(28) 3548-1665",
        "name": "EEEFM Bernardo Horta",
        "source": "IJSN",
        "id": "way/355562047"
      },
      "geometry": {
        "type": "Polygon",
        "coordinates": [
          [
            [
              -41.6414978,
              -20.3461228
            ],
            [
              -41.6413931,
              -20.3463092
            ],
            [
              -41.6409509,
              -20.3461113
            ],
            [
              -41.6410618,
              -20.3459278
            ],
            [
              -41.6414978,
              -20.3461228
            ]
          ]
        ]
      }
    },
    {
      "type": "Feature",
      "id": "node/4024904874",
      "properties": {
        "timestamp": "2023-05-09T12:18:21Z",
        "version": 3,
        "changeset": 135893374,
        "IJSN:administra": "Estadual",
        "IJSN:classeCnae": "Médio",
        "addr:city": "Irupi",
        "addr:housenumber": "10",
        "addr:postcode": "29398-000",
        "addr:street": "Rua João Lourenço da Silva",
        "addr:suburb": "São José do Saçuí",
        "alt_name": "Escola Estadual de Ensino Médio",
        "amenity": "school",
        "contact:phone": "+55 28 3548 1309",
        "name": "EEEM Pastor Adilson Bento de Freitas",
        "source": "IJSN",
        "id": "node/4024904874"
      },
      "geometry": {
        "type": "Point",
        "coordinates": [
          -41.6313869,
          -20.2924336
        ]
      }
    },
    {
      "type": "Feature",
      "id": "node/4024904878",
      "properties": {
        "timestamp": "2020-05-07T15:15:16Z",
        "version": 2,
        "changeset": 84840078,
        "IJSN:administra": "Estadual",
        "IJSN:classeCnae": "Médio",
        "addr:city": "Irupi",
        "addr:postcode": "29398-000",
        "addr:street": "Rua Dionísio João Amanso",
        "addr:suburb": "Santa Cruz de Irupi",
        "alt_name": "Escola Estadual de Ensino Médio",
        "amenity": "school",
        "contact:phone": "(28) 3548-3065",
        "name": "EEEM Santa Cruz",
        "source": "IJSN",
        "id": "node/4024904878"
      },
      "geometry": {
        "type": "Point",
        "coordinates": [
          -41.69103,
          -20.3143417
        ]
      }
    },
    {
      "type": "Feature",
      "id": "node/4024905252",
      "properties": {
        "timestamp": "2016-02-25T02:00:13Z",
        "version": 1,
        "changeset": 37426154,
        "IJSN:administra": "Municipal",
        "IJSN:classeCnae": "Fundamental",
        "addr:city": "Iúna",
        "addr:postcode": "29390-000",
        "addr:suburb": "Comunidade Alto Trindade",
        "alt_name": "Escola Municipal de Ensino Fundamental",
        "amenity": "school",
        "name": "EMEF Alto Trindade",
        "source": "IJSN",
        "id": "node/4024905252"
      },
      "geometry": {
        "type": "Point",
        "coordinates": [
          -41.6120942,
          -20.4088776
        ]
      }
    },
    {
      "type": "Feature",
      "id": "node/4024905939",
      "properties": {
        "timestamp": "2016-02-25T02:01:18Z",
        "version": 1,
        "changeset": 37426154,
        "IJSN:administra": "Municipal",
        "IJSN:classeCnae": "Infantil e Fundamental",
        "addr:city": "Irupi",
        "addr:postcode": "29398-000",
        "addr:street": "Rua Dionísio João Amanso",
        "addr:suburb": "Santa Cruz de Irupi",
        "alt_name": "Escola Municipal de Ensino Infantil e Fundamental",
        "amenity": "school",
        "contact:phone": "(28) 3548-3065",
        "name": "EMEIEF Professora Eni Leal Machado",
        "source": "IJSN",
        "id": "node/4024905939"
      },
      "geometry": {
        "type": "Point",
        "coordinates": [
          -41.6912407,
          -20.3143602
        ]
      }
    },
    {
      "type": "Feature",
      "id": "node/4024905941",
      "properties": {
        "timestamp": "2016-02-25T02:01:18Z",
        "version": 1,
        "changeset": 37426154,
        "IJSN:administra": "Municipal",
        "IJSN:classeCnae": "Infantil e Fundamental",
        "addr:city": "Irupi",
        "addr:postcode": "29398-000",
        "addr:street": "Rodovia Deputado Alfredo Antônio",
        "addr:suburb": "Comunidade Barra de Santa Rosa",
        "alt_name": "Escola Municipal de Ensino Infantil e Fundamental",
        "amenity": "school",
        "contact:phone": "(28) 3548-1693",
        "name": "EMEIEF Professora Nelci Gomes da Costa",
        "source": "IJSN",
        "id": "node/4024905941"
      },
      "geometry": {
        "type": "Point",
        "coordinates": [
          -41.6088077,
          -20.3643656
        ]
      }
    },
    {
      "type": "Feature",
      "id": "node/4024905957",
      "properties": {
        "timestamp": "2023-05-09T12:18:21Z",
        "version": 3,
        "changeset": 135893374,
        "IJSN:administra": "Municipal",
        "IJSN:classeCnae": "Infantil e Fundamental",
        "addr:city": "Irupi",
        "addr:housenumber": "10",
        "addr:postcode": "29398-000",
        "addr:street": "Rua João Lourenço da Silva",
        "addr:suburb": "São José do Saçuí",
        "alt_name": "Escola Municipal de Ensino Infantil e Fundamental",
        "amenity": "school",
        "contact:phone": "+55 28 3548 1309",
        "name": "EMEIEF Valdecy Afonso Moreira",
        "source": "IJSN",
        "id": "node/4024905957"
      },
      "geometry": {
        "type": "Point",
        "coordinates": [
          -41.6310385,
          -20.2922346
        ]
      }
    },
    {
      "type": "Feature",
      "id": "node/4024906199",
      "properties": {
        "timestamp": "2016-02-25T02:01:43Z",
        "version": 1,
        "changeset": 37426154,
        "IJSN:administra": "Municipal",
        "IJSN:classeCnae": "Fundamental",
        "addr:city": "Irupi",
        "addr:postcode": "29398-000",
        "addr:suburb": "Comunidade Boa Esperança",
        "alt_name": "Escola Municipal Unidocente",
        "amenity": "school",
        "contact:phone": "(28) 3548-1309",
        "name": "EMU Córrego Boa Esperança",
        "source": "IJSN",
        "id": "node/4024906199"
      },
      "geometry": {
        "type": "Point",
        "coordinates": [
          -41.5849571,
          -20.2809877
        ]
      }
    },
    {
      "type": "Feature",
      "id": "node/4024906201",
      "properties": {
        "timestamp": "2016-02-25T02:01:44Z",
        "version": 1,
        "changeset": 37426154,
        "IJSN:administra": "Municipal",
        "IJSN:classeCnae": "Fundamental",
        "addr:city": "Irupi",
        "addr:postcode": "29398-000",
        "addr:suburb": "Comunidade Tia Velha",
        "alt_name": "Escola Municipal Unidocente",
        "amenity": "school",
        "contact:phone": "(28) 3548-1309",
        "name": "EMU Córrego Tia Velha",
        "source": "IJSN",
        "id": "node/4024906201"
      },
      "geometry": {
        "type": "Point",
        "coordinates": [
          -41.5749969,
          -20.3219768
        ]
      }
    },
    {
      "type": "Feature",
      "id": "node/4024906202",
      "properties": {
        "timestamp": "2016-02-25T02:01:44Z",
        "version": 1,
        "changeset": 37426154,
        "IJSN:administra": "Municipal",
        "IJSN:classeCnae": "Fundamental",
        "addr:city": "Irupi",
        "addr:postcode": "29398-000",
        "addr:suburb": "Comunidade Burro Frouxo",
        "alt_name": "Escola Municipal Unidocente",
        "amenity": "school",
        "contact:phone": "(28) 3548-1309",
        "name": "EMU Córrego do Palmital",
        "source": "IJSN",
        "id": "node/4024906202"
      },
      "geometry": {
        "type": "Point",
        "coordinates": [
          -41.6108316,
          -20.3085796
        ]
      }
    },
    {
      "type": "Feature",
      "id": "node/4024906203",
      "properties": {
        "timestamp": "2016-02-25T02:01:44Z",
        "version": 1,
        "changeset": 37426154,
        "IJSN:administra": "Municipal",
        "IJSN:classeCnae": "Fundamental",
        "addr:city": "Irupi",
        "addr:postcode": "29398-000",
        "addr:suburb": "Comunidade Ferreira",
        "alt_name": "Escola Municipal Unidocente",
        "amenity": "school",
        "contact:phone": "(28) 3548-1309",
        "name": "EMU Córrego dos Ferreiras",
        "source": "IJSN",
        "id": "node/4024906203"
      },
      "geometry": {
        "type": "Point",
        "coordinates": [
          -41.6946181,
          -20.3858477
        ]
      }
    },
    {
      "type": "Feature",
      "id": "node/4024906204",
      "properties": {
        "timestamp": "2020-03-24T14:22:49Z",
        "version": 2,
        "changeset": 82575344,
        "IJSN:administra": "Municipal",
        "IJSN:classeCnae": "Fundamental",
        "addr:city": "Irupi",
        "addr:postcode": "29398-000",
        "addr:suburb": "Comunidade Santa Clara do Meio",
        "alt_name": "Escola Municipal Unidocente",
        "amenity": "school",
        "contact:phone": "(28) 3548-1309",
        "name": "EMU Córrego dos Pinheiros",
        "source": "IJSN",
        "id": "node/4024906204"
      },
      "geometry": {
        "type": "Point",
        "coordinates": [
          -41.7015061,
          -20.3583717
        ]
      }
    },
    {
      "type": "Feature",
      "id": "node/4024906205",
      "properties": {
        "timestamp": "2020-04-27T19:12:38Z",
        "version": 2,
        "changeset": 84216857,
        "IJSN:administra": "Municipal",
        "IJSN:classeCnae": "Fundamental",
        "addr:city": "Irupi",
        "addr:postcode": "29398-000",
        "addr:suburb": "Vargem Alegre",
        "alt_name": "Escola Municipal Unidocente",
        "amenity": "school",
        "contact:phone": "(28) 3548-1309",
        "name": "EMU Professora Maria José Caetano",
        "source": "IJSN",
        "id": "node/4024906205"
      },
      "geometry": {
        "type": "Point",
        "coordinates": [
          -41.5662294,
          -20.3030313
        ]
      }
    },
    {
      "type": "Feature",
      "id": "node/4024906207",
      "properties": {
        "timestamp": "2016-02-25T02:01:45Z",
        "version": 1,
        "changeset": 37426154,
        "IJSN:administra": "Municipal",
        "IJSN:classeCnae": "Fundamental",
        "addr:city": "Irupi",
        "addr:postcode": "29398-000",
        "addr:suburb": "Comunidade Taquara Preta",
        "alt_name": "Escola Municipal Unidocente",
        "amenity": "school",
        "contact:phone": "(28) 3548-1309",
        "name": "EMU Taquara Preta",
        "source": "IJSN",
        "id": "node/4024906207"
      },
      "geometry": {
        "type": "Point",
        "coordinates": [
          -41.5829032,
          -20.2901165
        ]
      }
    }
  ]
}
