{
  "type": "FeatureCollection",
  "features": [
    {
      "type": "Feature",
      "id": "way/1229458885",
      "properties": {
        "timestamp": "2024-01-16T04:12:50Z",
        "version": 2,
        "changeset": 146306284,
        "addr:city": "Rio do Prado",
        "addr:district": "Vila Formosa",
        "addr:postcode": "39940-000",
        "addr:street": "Rua Uberaba",
        "addr:suburb": "Centro",
        "amenity": "school",
        "email": "virgolinolency@yahoo.com.br",
        "name": "Escola Municipal Virgolino Lency",
        "operator": "Município de Rio do Prado",
        "operator:type": "public",
        "wikidata": "Q124295743",
        "id": "way/1229458885"
      },
      "geometry": {
        "type": "Polygon",
        "coordinates": [
          [
            [
              -40.5537222,
              -16.7599677
            ],
            [
              -40.5535516,
              -16.7605654
            ],
            [
              -40.5530151,
              -16.7604299
            ],
            [
              -40.5530054,
              -16.7597995
            ],
            [
              -40.5537222,
              -16.7599677
            ]
          ]
        ]
      }
    },
    {
      "type": "Feature",
      "id": "way/1234613123",
      "properties": {
        "timestamp": "2024-01-16T05:02:50Z",
        "version": 4,
        "changeset": 146307290,
        "addr:city": "Rio do Prado",
        "addr:housenumber": "118",
        "addr:postcode": "39940-000",
        "addr:street": "Avenida Belo Horizonte",
        "addr:suburb": "Centro",
        "amenity": "school",
        "name": "Escola Estadual Clemente Trindade",
        "operator": "Secretaria de Educação do Estado de Minas Gerais",
        "operator:type": "public",
        "phone": "+55 33 3744 1175",
        "ref:INEP": "31185302",
        "wikidata": "Q124295616",
        "id": "way/1234613123"
      },
      "geometry": {
        "type": "Polygon",
        "coordinates": [
          [
            [
              -40.5719414,
              -16.6090469
            ],
            [
              -40.5728062,
              -16.6090947
            ],
            [
              -40.5727742,
              -16.6095824
            ],
            [
              -40.5719067,
              -16.6095416
            ],
            [
              -40.5719414,
              -16.6090469
            ]
          ]
        ]
      }
    },
    {
      "type": "Feature",
      "id": "way/1234613124",
      "properties": {
        "timestamp": "2024-01-16T05:02:50Z",
        "version": 3,
        "changeset": 146307290,
        "addr:city": "Rio do Prado",
        "addr:housenumber": "382",
        "addr:postcode": "39940-000",
        "addr:street": "Rua Deraldo Figueiredo",
        "addr:suburb": "Centro",
        "amenity": "school",
        "name": "Escola Estadual Therezinha Porto Fagundes",
        "operator": "Secretaria de Educação do Estado de Minas Gerais",
        "operator:type": "public",
        "phone": "+55 33 3744 1194",
        "ref:INEP": "31245160",
        "wikidata": "Q124295791",
        "id": "way/1234613124"
      },
      "geometry": {
        "type": "Polygon",
        "coordinates": [
          [
            [
              -40.5746105,
              -16.6090572
            ],
            [
              -40.5738952,
              -16.6090333
            ],
            [
              -40.5739272,
              -16.6084672
            ],
            [
              -40.5746319,
              -16.608491
            ],
            [
              -40.5746105,
              -16.6090572
            ]
          ]
        ]
      }
    },
    {
      "type": "Feature",
      "id": "way/1234613125",
      "properties": {
        "timestamp": "2024-01-16T05:38:17Z",
        "version": 3,
        "changeset": 146307976,
        "addr:city": "Rio do Prado",
        "addr:housenumber": "72",
        "addr:postcode": "39940-000",
        "addr:street": "Rua Sete de Setembro",
        "addr:suburb": "Bahia",
        "amenity": "school",
        "name": "Pré Escola Municipal Doutor Rufino da Costa Ramos",
        "operator": "Município de Rio do Prado",
        "operator:type": "public",
        "phone": "+55 33 3744 1160",
        "ref:INEP": "31263168",
        "wikidata": "Q124295887",
        "id": "way/1234613125"
      },
      "geometry": {
        "type": "Polygon",
        "coordinates": [
          [
            [
              -40.5672389,
              -16.6105846
            ],
            [
              -40.5669043,
              -16.6106648
            ],
            [
              -40.566776,
              -16.6100289
            ],
            [
              -40.567105,
              -16.6099701
            ],
            [
              -40.5672389,
              -16.6105846
            ]
          ]
        ]
      }
    },
    {
      "type": "Feature",
      "id": "way/1234891650",
      "properties": {
        "timestamp": "2023-12-28T12:54:39Z",
        "version": 1,
        "changeset": 145618448,
        "amenity": "school",
        "id": "way/1234891650"
      },
      "geometry": {
        "type": "Polygon",
        "coordinates": [
          [
            [
              -40.5669846,
              -16.6093347
            ],
            [
              -40.5670411,
              -16.6095987
            ],
            [
              -40.5666782,
              -16.6096791
            ],
            [
              -40.5666252,
              -16.6094085
            ],
            [
              -40.5669846,
              -16.6093347
            ]
          ]
        ]
      }
    },
    {
      "type": "Feature",
      "id": "way/1240066665",
      "properties": {
        "timestamp": "2024-01-16T04:24:07Z",
        "version": 1,
        "changeset": 146306493,
        "addr:city": "Rio do Prado",
        "addr:street": "Rua Uberaba",
        "amenity": "school",
        "name": "Escola Estadual Geni Maria de Souza",
        "wikidata": "Q124295781",
        "id": "way/1240066665"
      },
      "geometry": {
        "type": "Polygon",
        "coordinates": [
          [
            [
              -40.554301,
              -16.7593722
            ],
            [
              -40.5540504,
              -16.7596474
            ],
            [
              -40.5538338,
              -16.7594549
            ],
            [
              -40.5540618,
              -16.7591798
            ],
            [
              -40.554301,
              -16.7593722
            ]
          ]
        ]
      }
    },
    {
      "type": "Feature",
      "id": "node/11458402420",
      "properties": {
        "timestamp": "2023-12-27T02:08:01Z",
        "version": 1,
        "changeset": 145555088,
        "addr:city": "Rio do Prado",
        "addr:place": "Monte Alto",
        "addr:postcode": "39940-000",
        "addr:state": "Minas Gerais",
        "amenity": "school",
        "name": "Escola Municipal Bernardino Jose Pereira",
        "operator": "Município de Rio do Prado",
        "id": "node/11458402420"
      },
      "geometry": {
        "type": "Point",
        "coordinates": [
          -40.4873014,
          -16.8046309
        ]
      }
    }
  ]
}
