{
  "type": "FeatureCollection",
  "features": [
    {
      "type": "Feature",
      "id": "way/509705943",
      "properties": {
        "timestamp": "2018-10-17T03:28:47Z",
        "version": 2,
        "changeset": 63596620,
        "addr:city": "Barretos",
        "addr:housenumber": "1415",
        "addr:street": "Avenida do Ébano",
        "addr:suburb": "Paulo Prata",
        "building": "yes",
        "internet_access": "yes",
        "name": "Hotel Winner",
        "rooms": "15",
        "smoking": "no",
        "stars": "2",
        "tourism": "hotel",
        "id": "way/509705943"
      },
      "geometry": {
        "type": "Polygon",
        "coordinates": [
          [
            [
              -48.5707358,
              -20.583064
            ],
            [
              -48.5707334,
              -20.5833241
            ],
            [
              -48.5703971,
              -20.5833213
            ],
            [
              -48.5703995,
              -20.5830612
            ],
            [
              -48.5707358,
              -20.583064
            ]
          ]
        ]
      }
    },
    {
      "type": "Feature",
      "id": "way/509707929",
      "properties": {
        "timestamp": "2017-07-24T01:01:30Z",
        "version": 1,
        "changeset": 50513991,
        "addr:housenumber": "1367",
        "addr:street": "Rua Paulo de Mattos Leandro",
        "addr:suburb": "Paulo Prata",
        "building": "yes",
        "internet_access": "yes",
        "name": "Pousada Rosa Amiga",
        "smoking": "no",
        "stars": "1",
        "tourism": "hotel",
        "id": "way/509707929"
      },
      "geometry": {
        "type": "Polygon",
        "coordinates": [
          [
            [
              -48.5701576,
              -20.5814847
            ],
            [
              -48.5701588,
              -20.5817113
            ],
            [
              -48.5698779,
              -20.5817125
            ],
            [
              -48.5698768,
              -20.581486
            ],
            [
              -48.5701576,
              -20.5814847
            ]
          ]
        ]
      }
    },
    {
      "type": "Feature",
      "id": "way/509708036",
      "properties": {
        "timestamp": "2017-07-24T01:03:13Z",
        "version": 1,
        "changeset": 50514014,
        "addr:housenumber": "1520",
        "addr:street": "Rua Antenor Duarte Villela",
        "addr:suburb": "Paulo Prata",
        "building": "yes",
        "internet_access": "yes",
        "name": "Hotel Gold Nalva",
        "smoking": "no",
        "stars": "2",
        "tourism": "hotel",
        "id": "way/509708036"
      },
      "geometry": {
        "type": "Polygon",
        "coordinates": [
          [
            [
              -48.5698148,
              -20.5817325
            ],
            [
              -48.5698165,
              -20.5818317
            ],
            [
              -48.5695081,
              -20.5818363
            ],
            [
              -48.5695064,
              -20.5817372
            ],
            [
              -48.5698148,
              -20.5817325
            ]
          ]
        ]
      }
    },
    {
      "type": "Feature",
      "id": "way/509708113",
      "properties": {
        "timestamp": "2017-07-24T01:05:09Z",
        "version": 1,
        "changeset": 50514035,
        "addr:housenumber": "383",
        "addr:street": "Avenida do Ébano",
        "addr:suburb": "Paulo Prata",
        "building": "yes",
        "name": "Hotel Matrin",
        "tourism": "hotel",
        "id": "way/509708113"
      },
      "geometry": {
        "type": "Polygon",
        "coordinates": [
          [
            [
              -48.5682205,
              -20.5830572
            ],
            [
              -48.5682154,
              -20.5833253
            ],
            [
              -48.5679842,
              -20.5833214
            ],
            [
              -48.5679893,
              -20.5830533
            ],
            [
              -48.5682205,
              -20.5830572
            ]
          ]
        ]
      }
    },
    {
      "type": "Feature",
      "id": "node/4390530192",
      "properties": {
        "timestamp": "2018-10-19T04:17:15Z",
        "version": 3,
        "changeset": 63666600,
        "addr:city": "Barretos",
        "addr:housenumber": "56",
        "addr:postcode": "14780-570",
        "addr:street": "Rua Quarenta",
        "addr:suburb": "Jardim Alvorada",
        "name": "Hotel Rodeio",
        "name:pt": "Hotel Rodeio",
        "phone": "+55 17 3322 1094",
        "tourism": "hotel",
        "id": "node/4390530192"
      },
      "geometry": {
        "type": "Point",
        "coordinates": [
          -48.5836001,
          -20.5543256
        ]
      }
    },
    {
      "type": "Feature",
      "id": "node/7038659002",
      "properties": {
        "timestamp": "2019-12-06T14:38:07Z",
        "version": 1,
        "changeset": 78058463,
        "tourism": "hotel",
        "id": "node/7038659002"
      },
      "geometry": {
        "type": "Point",
        "coordinates": [
          -48.6240985,
          -20.5463377
        ]
      }
    }
  ]
}
