{
  "type": "FeatureCollection",
  "features": [
    {
      "type": "Feature",
      "id": "way/777137304",
      "properties": {
        "timestamp": "2020-02-28T18:09:32Z",
        "version": 1,
        "changeset": 81602590,
        "addr:city": "Presidente Kennedy",
        "addr:postcode": "29350-000",
        "addr:suburb": "Santa Lúcia",
        "amenity": "clinic",
        "building": "yes",
        "healthcare": "clinic",
        "healthcare:speciality": "general",
        "name": "Unidade Básica de Saúde de Santa Lúcia",
        "operator": "Município de Presidente Kennedy",
        "id": "way/777137304"
      },
      "geometry": {
        "type": "Polygon",
        "coordinates": [
          [
            [
              -41.1397402,
              -21.0522936
            ],
            [
              -41.1397402,
              -21.0523423
            ],
            [
              -41.139719,
              -21.0523454
            ],
            [
              -41.1397206,
              -21.0524048
            ],
            [
              -41.1396962,
              -21.0524048
            ],
            [
              -41.1396994,
              -21.0524367
            ],
            [
              -41.1396733,
              -21.0524367
            ],
            [
              -41.139675,
              -21.0524489
            ],
            [
              -41.1396015,
              -21.0524474
            ],
            [
              -41.1396032,
              -21.0524276
            ],
            [
              -41.1395297,
              -21.0524291
            ],
            [
              -41.1395346,
              -21.0523149
            ],
            [
              -41.1395917,
              -21.052318
            ],
            [
              -41.1395934,
              -21.0522875
            ],
            [
              -41.1397402,
              -21.0522936
            ]
          ]
        ]
      }
    },
    {
      "type": "Feature",
      "id": "way/823464274",
      "properties": {
        "timestamp": "2020-07-06T13:55:58Z",
        "version": 1,
        "changeset": 87605385,
        "addr:city": "Presidente Kennedy",
        "addr:postcode": "29350-000",
        "addr:suburb": "Marobá",
        "amenity": "clinic",
        "building": "yes",
        "healthcare": "clinic",
        "healthcare:speciality": "general",
        "name": "Unidade Básica de Saúde de Marobá",
        "operator": "Município de Presidente Kennedy",
        "id": "way/823464274"
      },
      "geometry": {
        "type": "Polygon",
        "coordinates": [
          [
            [
              -40.9299564,
              -21.1910485
            ],
            [
              -40.929866,
              -21.1910906
            ],
            [
              -40.9297454,
              -21.1908799
            ],
            [
              -40.9298472,
              -21.1908342
            ],
            [
              -40.9299564,
              -21.1910485
            ]
          ]
        ]
      }
    },
    {
      "type": "Feature",
      "id": "way/910643419",
      "properties": {
        "timestamp": "2021-02-24T23:38:05Z",
        "version": 1,
        "changeset": 99934760,
        "addr:city": "Presidente Kennedy",
        "addr:postcode": "29350-000",
        "addr:street": "Avenida Orestes Baiense",
        "addr:suburb": "Centro",
        "amenity": "clinic",
        "building": "yes",
        "healthcare": "clinic",
        "healthcare:speciality": "general;psychiatry;dentistry;orthodontics;community",
        "name": "Unidade de Saúde da Sede",
        "opening_hours": "Mo-Fr 08:00-17:00",
        "operator": "Prefeitura de Presidente Kennedy",
        "operator:type": "public",
        "id": "way/910643419"
      },
      "geometry": {
        "type": "Polygon",
        "coordinates": [
          [
            [
              -41.0524985,
              -21.0965003
            ],
            [
              -41.0525615,
              -21.0967943
            ],
            [
              -41.0521123,
              -21.0968872
            ],
            [
              -41.0519802,
              -21.0966008
            ],
            [
              -41.0524985,
              -21.0965003
            ]
          ]
        ]
      }
    },
    {
      "type": "Feature",
      "id": "node/7052854776",
      "properties": {
        "timestamp": "2019-12-12T19:04:47Z",
        "version": 1,
        "changeset": 78334687,
        "addr:city": "Presidente Kennedy",
        "addr:postcode": "29350-000",
        "addr:street": "Rua",
        "addr:suburb": "São Paulo",
        "amenity": "clinic",
        "healthcare": "clinic",
        "name": "Estratégia de Saúde da Família de São Paulo",
        "id": "node/7052854776"
      },
      "geometry": {
        "type": "Point",
        "coordinates": [
          -41.0735087,
          -21.0344425
        ]
      }
    },
    {
      "type": "Feature",
      "id": "node/7052863073",
      "properties": {
        "timestamp": "2019-12-12T19:29:07Z",
        "version": 1,
        "changeset": 78335404,
        "addr:city": "Presidente Kennedy",
        "addr:postcode": "29350",
        "addr:street": "Rua",
        "addr:suburb": "São Salvador",
        "amenity": "clinic",
        "healthcare": "clinic",
        "name": "Estratégia de Saúde da Família de São Salvador",
        "id": "node/7052863073"
      },
      "geometry": {
        "type": "Point",
        "coordinates": [
          -40.9849659,
          -21.1028561
        ]
      }
    },
    {
      "type": "Feature",
      "id": "node/7058492717",
      "properties": {
        "timestamp": "2019-12-15T19:05:18Z",
        "version": 1,
        "changeset": 78437867,
        "addr:city": "Presidente Kennedy",
        "addr:postcode": "29350000",
        "addr:street": "Rua Principal",
        "addr:suburb": "Jaqueira",
        "amenity": "clinic",
        "healthcare": "clinic",
        "healthcare:speciality": "general",
        "name": "Estratégia de Saúde da Família",
        "id": "node/7058492717"
      },
      "geometry": {
        "type": "Point",
        "coordinates": [
          -40.9874279,
          -21.1996166
        ]
      }
    }
  ]
}
