{
  "type": "FeatureCollection",
  "features": [
    {
      "type": "Feature",
      "id": "way/822231781",
      "properties": {
        "timestamp": "2020-07-02T14:04:56Z",
        "version": 1,
        "changeset": 87458154,
        "addr:city": "Presidente Kennedy",
        "addr:postcode": "29350000",
        "addr:street": "Rodovia Dinowalde Rodrigues Peçanha Júnior",
        "addr:suburb": "Lagoa de Fora",
        "building": "yes",
        "government": "administrative",
        "name": "Posto Fiscal Hugo Talon",
        "office": "government",
        "id": "way/822231781"
      },
      "geometry": {
        "type": "Polygon",
        "coordinates": [
          [
            [
              -40.9907128,
              -21.2776536
            ],
            [
              -40.9905891,
              -21.2777172
            ],
            [
              -40.9905251,
              -21.2776059
            ],
            [
              -40.990636,
              -21.2775463
            ],
            [
              -40.9907128,
              -21.2776536
            ]
          ]
        ]
      }
    },
    {
      "type": "Feature",
      "id": "node/9601989759",
      "properties": {
        "timestamp": "2022-03-23T23:52:08Z",
        "version": 1,
        "changeset": 118842018,
        "addr:city": "Presidente Kennedy",
        "addr:postcode": "29350-000",
        "addr:street": "Rua Olegário Fricks",
        "addr:suburb": "Centro",
        "government": "prosecutor",
        "name": "Promotoria de Justiça de Presidente Kennedy",
        "office": "government",
        "operator": "Ministério Público do Estado do Espírito Santo",
        "phone": "+55 28 3535 1343",
        "id": "node/9601989759"
      },
      "geometry": {
        "type": "Point",
        "coordinates": [
          -41.0444638,
          -21.1016965
        ]
      }
    }
  ]
}
