{
  "type": "FeatureCollection",
  "features": [
    {
      "type": "Feature",
      "id": "way/438924688",
      "properties": {
        "timestamp": "2016-08-25T03:04:40Z",
        "version": 1,
        "changeset": 41677820,
        "IJSN:administra": "Estadual",
        "IJSN:classeCnae": "Fundamental e Médio",
        "addr:city": "Presidente Kennedy",
        "addr:housenumber": "20",
        "addr:postcode": "29350-000",
        "addr:street": "Rua Manoel Lúcio Gomes",
        "addr:suburb": "Orestes Baiense",
        "alt_name": "Escola Estadual de Ensino Fundamental e Médio",
        "amenity": "school",
        "name": "EEEFM Presidente Kennedy",
        "source": "IJSN",
        "id": "way/438924688"
      },
      "geometry": {
        "type": "Polygon",
        "coordinates": [
          [
            [
              -41.0451997,
              -21.1017254
            ],
            [
              -41.0454952,
              -21.1020376
            ],
            [
              -41.045101,
              -21.102408
            ],
            [
              -41.0447737,
              -21.1020977
            ],
            [
              -41.0451997,
              -21.1017254
            ]
          ]
        ]
      }
    },
    {
      "type": "Feature",
      "id": "way/438924691",
      "properties": {
        "timestamp": "2016-08-25T03:04:40Z",
        "version": 1,
        "changeset": 41677820,
        "IJSN:administra": "Municipal",
        "IJSN:classeCnae": "Infantil e Fundamental",
        "addr:city": "Presidente Kennedy",
        "addr:postcode": "29350-000",
        "addr:street": "Avenida Orestes Baiense",
        "addr:suburb": "Residencial Baiense",
        "alt_name": "Escola Municipal de Ensino Fundamental",
        "amenity": "school",
        "contact:phone": "(28) 3535-1344 / 3535-1041",
        "name": "EMEF Vilmo Ornelas Sarlo",
        "source": "IJSN",
        "id": "way/438924691"
      },
      "geometry": {
        "type": "Polygon",
        "coordinates": [
          [
            [
              -41.0515323,
              -21.0971212
            ],
            [
              -41.0508114,
              -21.0974282
            ],
            [
              -41.0504815,
              -21.0967276
            ],
            [
              -41.0506853,
              -21.0965174
            ],
            [
              -41.0510125,
              -21.0962921
            ],
            [
              -41.0515323,
              -21.0971212
            ]
          ]
        ]
      }
    },
    {
      "type": "Feature",
      "id": "way/439086326",
      "properties": {
        "timestamp": "2016-08-26T01:09:20Z",
        "version": 1,
        "changeset": 41704692,
        "IJSN:administra": "Municipal",
        "IJSN:classeCnae": "Fundamental",
        "addr:city": "Presidente Kennedy",
        "addr:postcode": "29350-000",
        "addr:suburb": "Comunidade Cacimbinha",
        "alt_name": "Escola Municipal de Ensino Fundamental",
        "amenity": "school",
        "name": "EMEF Orci Batalha",
        "source": "IJSN",
        "id": "way/439086326"
      },
      "geometry": {
        "type": "Polygon",
        "coordinates": [
          [
            [
              -40.9692454,
              -21.1691695
            ],
            [
              -40.9693426,
              -21.1690151
            ],
            [
              -40.9696644,
              -21.1690501
            ],
            [
              -40.9696269,
              -21.1692052
            ],
            [
              -40.9692454,
              -21.1691695
            ]
          ]
        ]
      }
    },
    {
      "type": "Feature",
      "id": "way/777137312",
      "properties": {
        "timestamp": "2020-02-28T18:09:32Z",
        "version": 1,
        "changeset": 81602590,
        "addr:city": "Presidente Kennedy",
        "addr:postcode": "29350-000",
        "addr:suburb": "Santa Lúcia",
        "amenity": "school",
        "name": "Escola de Ensino Fundamental de Santa Lúcia",
        "operator": "Município de Presidente Kennedy",
        "operator:type": "government",
        "id": "way/777137312"
      },
      "geometry": {
        "type": "Polygon",
        "coordinates": [
          [
            [
              -41.1423802,
              -21.0525311
            ],
            [
              -41.1423802,
              -21.0526758
            ],
            [
              -41.1421583,
              -21.0526834
            ],
            [
              -41.1421567,
              -21.0525372
            ],
            [
              -41.1423802,
              -21.0525311
            ]
          ]
        ]
      }
    },
    {
      "type": "Feature",
      "id": "way/823464279",
      "properties": {
        "timestamp": "2023-04-23T21:56:08Z",
        "version": 3,
        "changeset": 135278731,
        "IJSN:administra": "Municipal",
        "IJSN:classeCnae": "Infantil e Fundamental",
        "addr:city": "Presidente Kennedy",
        "addr:postcode": "29350-000",
        "addr:street": "Avenida Claudionor Barreto da Costa",
        "addr:suburb": "Marobá",
        "alt_name": "Escola Pluridocente",
        "amenity": "school",
        "name": "Escola Municipal de Ensino Fundamental de Barra do Marobá",
        "operator": "Município de Presidente",
        "operator:type": "government",
        "source": "IJSN",
        "id": "way/823464279"
      },
      "geometry": {
        "type": "Polygon",
        "coordinates": [
          [
            [
              -40.9319092,
              -21.1895095
            ],
            [
              -40.9317856,
              -21.1895638
            ],
            [
              -40.9317342,
              -21.1894621
            ],
            [
              -40.9316988,
              -21.1894776
            ],
            [
              -40.9317911,
              -21.1896602
            ],
            [
              -40.9317313,
              -21.1896864
            ],
            [
              -40.9316723,
              -21.1895696
            ],
            [
              -40.9314618,
              -21.1896621
            ],
            [
              -40.9313869,
              -21.1895139
            ],
            [
              -40.9318162,
              -21.1893253
            ],
            [
              -40.9319092,
              -21.1895095
            ]
          ]
        ]
      }
    },
    {
      "type": "Feature",
      "id": "node/2853430599",
      "properties": {
        "timestamp": "2016-02-25T02:03:36Z",
        "version": 2,
        "changeset": 37426154,
        "IJSN:administra": "Municipal",
        "IJSN:classeCnae": "Infantil e Fundamental",
        "addr:city": "Presidente Kennedy",
        "addr:postcode": "29350-000",
        "addr:suburb": "Comunidade Eduardo",
        "alt_name": "Escola Municipal de Ensino Fundamental",
        "amenity": "school",
        "name": "EMEF de Jaqueira Bery Barreto de Araujo",
        "source": "IJSN",
        "id": "node/2853430599"
      },
      "geometry": {
        "type": "Point",
        "coordinates": [
          -40.9877862,
          -21.2025914
        ]
      }
    },
    {
      "type": "Feature",
      "id": "node/4024905720",
      "properties": {
        "timestamp": "2016-02-25T02:00:58Z",
        "version": 1,
        "changeset": 37426154,
        "IJSN:administra": "Municipal",
        "IJSN:classeCnae": "Infantil e Fundamental",
        "addr:city": "Presidente Kennedy",
        "addr:postcode": "29350-000",
        "addr:suburb": "Comunidade Boa Baixa",
        "alt_name": "Escola Municipal de Ensino Fundamental",
        "amenity": "school",
        "contact:phone": "(28) 3535-7168 / 3535-7108",
        "name": "EMEF São Salvador",
        "source": "IJSN",
        "id": "node/4024905720"
      },
      "geometry": {
        "type": "Point",
        "coordinates": [
          -40.9813959,
          -21.1014632
        ]
      }
    },
    {
      "type": "Feature",
      "id": "node/4024906663",
      "properties": {
        "timestamp": "2016-02-25T02:02:22Z",
        "version": 1,
        "changeset": 37426154,
        "IJSN:administra": "Municipal",
        "IJSN:classeCnae": "Fundamental",
        "addr:city": "Presidente Kennedy",
        "addr:postcode": "29350-000",
        "addr:suburb": "Comunidade Jiboia",
        "alt_name": "Escola Pluridocente",
        "amenity": "school",
        "name": "EP Jiboia",
        "source": "IJSN",
        "id": "node/4024906663"
      },
      "geometry": {
        "type": "Point",
        "coordinates": [
          -40.9843036,
          -21.1472246
        ]
      }
    },
    {
      "type": "Feature",
      "id": "node/4024906666",
      "properties": {
        "timestamp": "2016-02-25T02:02:23Z",
        "version": 1,
        "changeset": 37426154,
        "IJSN:administra": "Municipal",
        "IJSN:classeCnae": "Fundamental",
        "addr:city": "Presidente Kennedy",
        "addr:postcode": "29350-000",
        "addr:suburb": "Comunidade Mineirinho",
        "alt_name": "Escola Pluridocente",
        "amenity": "school",
        "contact:phone": "(28) 3535-1233 / 3535-1157",
        "name": "EP Mineirinho",
        "source": "IJSN",
        "id": "node/4024906666"
      },
      "geometry": {
        "type": "Point",
        "coordinates": [
          -41.0597799,
          -21.1726747
        ]
      }
    },
    {
      "type": "Feature",
      "id": "node/4024906667",
      "properties": {
        "timestamp": "2016-02-25T02:02:23Z",
        "version": 1,
        "changeset": 37426154,
        "IJSN:administra": "Municipal",
        "IJSN:classeCnae": "Infantil e Fundamental",
        "addr:city": "Presidente Kennedy",
        "addr:postcode": "29350-000",
        "addr:suburb": "Comunidade Santa Lucia",
        "alt_name": "Escola Pluridocente",
        "amenity": "school",
        "contact:phone": "(28) 3535-1929 / 3535-6002",
        "name": "EP Santa Lúcia",
        "source": "IJSN",
        "id": "node/4024906667"
      },
      "geometry": {
        "type": "Point",
        "coordinates": [
          -41.1422435,
          -21.0526525
        ]
      }
    },
    {
      "type": "Feature",
      "id": "node/4024906668",
      "properties": {
        "timestamp": "2016-02-25T02:02:23Z",
        "version": 1,
        "changeset": 37426154,
        "IJSN:administra": "Municipal",
        "IJSN:classeCnae": "Infantil e Fundamental",
        "addr:city": "Presidente Kennedy",
        "addr:postcode": "29350-000",
        "addr:suburb": "Comunidade Morobá",
        "alt_name": "Escola Pluridocente",
        "amenity": "school",
        "name": "EP Santana Feliz",
        "source": "IJSN",
        "id": "node/4024906668"
      },
      "geometry": {
        "type": "Point",
        "coordinates": [
          -40.9957176,
          -21.1389963
        ]
      }
    },
    {
      "type": "Feature",
      "id": "node/4024906669",
      "properties": {
        "timestamp": "2016-02-25T02:02:23Z",
        "version": 1,
        "changeset": 37426154,
        "IJSN:administra": "Municipal",
        "IJSN:classeCnae": "Infantil e Fundamental",
        "addr:city": "Presidente Kennedy",
        "addr:postcode": "29350-000",
        "addr:suburb": "Comunidade Santo Eduardo",
        "alt_name": "Escola Pluridocente",
        "amenity": "school",
        "name": "EP Santo Eduardo",
        "source": "IJSN",
        "id": "node/4024906669"
      },
      "geometry": {
        "type": "Point",
        "coordinates": [
          -40.987002,
          -21.1800068
        ]
      }
    },
    {
      "type": "Feature",
      "id": "node/4024906670",
      "properties": {
        "timestamp": "2016-02-25T02:02:24Z",
        "version": 1,
        "changeset": 37426154,
        "IJSN:administra": "Municipal",
        "IJSN:classeCnae": "Infantil e Fundamental",
        "addr:city": "Presidente Kennedy",
        "addr:postcode": "29350-000",
        "addr:street": "Rua Principal",
        "addr:suburb": "Comunidade Cabral",
        "alt_name": "Escola Pluridocente",
        "amenity": "school",
        "name": "EP São Paulo",
        "source": "IJSN",
        "id": "node/4024906670"
      },
      "geometry": {
        "type": "Point",
        "coordinates": [
          -41.0741875,
          -21.0338181
        ]
      }
    },
    {
      "type": "Feature",
      "id": "node/4024906825",
      "properties": {
        "timestamp": "2019-12-12T18:33:38Z",
        "version": 2,
        "changeset": 78333616,
        "IJSN:administra": "Municipal",
        "IJSN:classeCnae": "Fundamental",
        "addr:city": "Presidente Kennedy",
        "addr:postcode": "29350-000",
        "addr:suburb": "Comunidade Santa Josefa",
        "alt_name": "Escola Unidocente",
        "amenity": "school",
        "name": "EU Bom Jardim",
        "source": "IJSN",
        "id": "node/4024906825"
      },
      "geometry": {
        "type": "Point",
        "coordinates": [
          -41.2017778,
          -21.1020762
        ]
      }
    },
    {
      "type": "Feature",
      "id": "node/4024906828",
      "properties": {
        "timestamp": "2016-02-25T02:02:33Z",
        "version": 1,
        "changeset": 37426154,
        "IJSN:administra": "Municipal",
        "IJSN:classeCnae": "Fundamental",
        "addr:city": "Presidente Kennedy",
        "addr:postcode": "29350-000",
        "addr:suburb": "Comunidade Santa Josefa",
        "alt_name": "Escola Unidocente",
        "amenity": "school",
        "name": "EU Gromogol",
        "source": "IJSN",
        "id": "node/4024906828"
      },
      "geometry": {
        "type": "Point",
        "coordinates": [
          -41.1896285,
          -21.0905185
        ]
      }
    },
    {
      "type": "Feature",
      "id": "node/4024906829",
      "properties": {
        "timestamp": "2016-02-25T02:02:33Z",
        "version": 1,
        "changeset": 37426154,
        "IJSN:administra": "Municipal",
        "IJSN:classeCnae": "Infantil e Fundamental",
        "addr:city": "Presidente Kennedy",
        "addr:postcode": "29350-000",
        "addr:suburb": "Comunidade Leonel",
        "alt_name": "Escola Unidocente",
        "amenity": "school",
        "name": "EU Leonel",
        "source": "IJSN",
        "id": "node/4024906829"
      },
      "geometry": {
        "type": "Point",
        "coordinates": [
          -41.0601924,
          -21.0675202
        ]
      }
    },
    {
      "type": "Feature",
      "id": "node/4024906834",
      "properties": {
        "timestamp": "2016-02-25T02:02:33Z",
        "version": 1,
        "changeset": 37426154,
        "IJSN:administra": "Municipal",
        "IJSN:classeCnae": "Fundamental",
        "addr:city": "Presidente Kennedy",
        "addr:postcode": "29350-000",
        "addr:suburb": "Comunidade Rio Preto",
        "alt_name": "Escola Unidocente",
        "amenity": "school",
        "name": "EU Santa Fé",
        "source": "IJSN",
        "id": "node/4024906834"
      },
      "geometry": {
        "type": "Point",
        "coordinates": [
          -41.1505026,
          -21.222325
        ]
      }
    },
    {
      "type": "Feature",
      "id": "node/4024906835",
      "properties": {
        "timestamp": "2016-02-25T02:02:34Z",
        "version": 1,
        "changeset": 37426154,
        "IJSN:administra": "Municipal",
        "IJSN:classeCnae": "Infantil e Fundamental",
        "addr:city": "Presidente Kennedy",
        "addr:postcode": "29350-000",
        "addr:suburb": "Comunidade Santa Maria",
        "alt_name": "Escola Unidocente",
        "amenity": "school",
        "name": "EU São Bento",
        "source": "IJSN",
        "id": "node/4024906835"
      },
      "geometry": {
        "type": "Point",
        "coordinates": [
          -41.0856414,
          -21.1829944
        ]
      }
    },
    {
      "type": "Feature",
      "id": "node/4024906836",
      "properties": {
        "timestamp": "2016-02-25T02:02:34Z",
        "version": 1,
        "changeset": 37426154,
        "IJSN:administra": "Municipal",
        "IJSN:classeCnae": "Infantil e Fundamental",
        "addr:city": "Presidente Kennedy",
        "addr:postcode": "29350-000",
        "addr:suburb": "Comunidade Galos",
        "alt_name": "Escola Unidocente",
        "amenity": "school",
        "contact:phone": "(28) 3535-1157",
        "name": "EU de Galos",
        "source": "IJSN",
        "id": "node/4024906836"
      },
      "geometry": {
        "type": "Point",
        "coordinates": [
          -41.1237889,
          -21.1019289
        ]
      }
    },
    {
      "type": "Feature",
      "id": "node/4024906837",
      "properties": {
        "timestamp": "2016-02-25T02:02:34Z",
        "version": 1,
        "changeset": 37426154,
        "IJSN:administra": "Municipal",
        "IJSN:classeCnae": "Infantil e Fundamental",
        "addr:city": "Presidente Kennedy",
        "addr:postcode": "29350-000",
        "addr:suburb": "Comunidade Água Preta",
        "alt_name": "Escola Unidocente",
        "amenity": "school",
        "name": "EU Água Preta",
        "source": "IJSN",
        "id": "node/4024906837"
      },
      "geometry": {
        "type": "Point",
        "coordinates": [
          -41.1149386,
          -21.0407108
        ]
      }
    },
    {
      "type": "Feature",
      "id": "node/8455736668",
      "properties": {
        "timestamp": "2021-02-25T00:00:48Z",
        "version": 1,
        "changeset": 99935172,
        "addr:city": "Presidente Kennedy",
        "addr:postcode": "29350-000",
        "addr:street": "Avenida Orestes Baiense",
        "addr:suburb": "Centro",
        "amenity": "school",
        "name": "EMEIEF Vilmo Ornelas Sarlo",
        "id": "node/8455736668"
      },
      "geometry": {
        "type": "Point",
        "coordinates": [
          -41.0510958,
          -21.0970462
        ]
      }
    }
  ]
}
