{
  "type": "FeatureCollection",
  "features": [
    {
      "type": "Feature",
      "id": "node/12526820874",
      "properties": {
        "timestamp": "2025-01-23T17:26:33Z",
        "version": 1,
        "changeset": 161683147,
        "addr:city": "Barbacena",
        "addr:housenumber": "930",
        "addr:postcode": "36200-068",
        "addr:street": "Avenida Bias Fortes",
        "addr:suburb": "Centro",
        "amenity": "dentist",
        "description": "Conheça a IBRO, uma clínica odontológica no Centro de Barbacena com uma equipe multidisciplinar preparada para resolver sua saúde bucal com eficácia e profissionalismo.",
        "healthcare": "dentist",
        "healthcare:speciality": "orthodontics;endodontia;odontopediatria;implantodontia;reabilitação_oral",
        "image": "https://lh3.googleusercontent.com/p/AF1QipOrR-LAyBL_IQ-Y1CAgpx5M8Q-Op-qvYHQTBfm6=s680-w680-h510",
        "name": "IBRO - Instituto Barbacenense de Reabilitação Oral",
        "opening_hours": "Mo-Fr 08:00-18:00",
        "phone": "+55 32 3400-4515",
        "short_name": "IBRO",
        "start_date": "2022-01-04",
        "website": "https://www.ibrobarbacena.com.br",
        "wheelchair": "yes",
        "id": "node/12526820874"
      },
      "geometry": {
        "type": "Point",
        "coordinates": [
          -43.7702922,
          -21.2188886
        ]
      }
    }
  ]
}
