{
  "type": "FeatureCollection",
  "features": [
    {
      "type": "Feature",
      "id": "node/5633466607",
      "properties": {
        "timestamp": "2019-10-16T18:04:11Z",
        "version": 3,
        "changeset": 75796629,
        "office": "government",
        "id": "node/5633466607"
      },
      "geometry": {
        "type": "Point",
        "coordinates": [
          -36.9887948,
          -6.7698438
        ]
      }
    },
    {
      "type": "Feature",
      "id": "node/5633491669",
      "properties": {
        "timestamp": "2018-09-05T13:13:34Z",
        "version": 2,
        "changeset": 62311447,
        "name": "Secretaria Municipal de Educação",
        "office": "government",
        "id": "node/5633491669"
      },
      "geometry": {
        "type": "Point",
        "coordinates": [
          -36.9906513,
          -6.7719581
        ]
      }
    },
    {
      "type": "Feature",
      "id": "node/6886752707",
      "properties": {
        "timestamp": "2019-10-16T18:04:11Z",
        "version": 1,
        "changeset": 75796629,
        "addr:city": "Várzea",
        "addr:postcode": "58620-000",
        "addr:street": "Rua Anísio Marinho da Silva",
        "addr:suburb": "Centro",
        "government": "administrative",
        "name": "Secretaria Municipal de Saúde",
        "office": "government",
        "opening_hours": "Mo-Fr 08:00-17:00",
        "id": "node/6886752707"
      },
      "geometry": {
        "type": "Point",
        "coordinates": [
          -36.9900273,
          -6.7718976
        ]
      }
    }
  ]
}
