{
  "type": "FeatureCollection",
  "features": [
    {
      "type": "Feature",
      "id": "way/276411415",
      "properties": {
        "timestamp": "2016-02-25T02:03:06Z",
        "version": 2,
        "changeset": 37426154,
        "IJSN:administra": "Estadual",
        "IJSN:classeCnae": "Fundamental e Médio",
        "addr:city": "Divino de São Lourenço",
        "addr:postcode": "29590-000",
        "addr:street": "Rua Adolfo Batista",
        "addr:suburb": "Centro",
        "alt_name": "Escola Estadual de Ensino Fundamental e Médio",
        "amenity": "school",
        "contact:phone": "(28) 3551-1141",
        "name": "EEEFM Juvenal Nolasco",
        "source": "IJSN",
        "id": "way/276411415"
      },
      "geometry": {
        "type": "Polygon",
        "coordinates": [
          [
            [
              -41.6866685,
              -20.6218302
            ],
            [
              -41.6870776,
              -20.6225213
            ],
            [
              -41.6866901,
              -20.6227085
            ],
            [
              -41.6864684,
              -20.6218848
            ],
            [
              -41.6866685,
              -20.6218302
            ]
          ]
        ]
      }
    },
    {
      "type": "Feature",
      "id": "way/783271478",
      "properties": {
        "timestamp": "2020-03-21T11:05:51Z",
        "version": 1,
        "changeset": 82457058,
        "addr:city": "Divino de São Lourenço",
        "addr:postcode": "29590-000",
        "addr:suburb": "Patrimônio da Penha",
        "amenity": "school",
        "name": "Escola Municipal de Ensino Fundamental Allan Kardec Bitencourt Dias",
        "operator": "Município",
        "operator:type": "public",
        "id": "way/783271478"
      },
      "geometry": {
        "type": "Polygon",
        "coordinates": [
          [
            [
              -41.7604434,
              -20.5856829
            ],
            [
              -41.7604781,
              -20.5859462
            ],
            [
              -41.7601373,
              -20.5859855
            ],
            [
              -41.7601027,
              -20.5857222
            ],
            [
              -41.7604434,
              -20.5856829
            ]
          ]
        ]
      }
    },
    {
      "type": "Feature",
      "id": "node/2497911894",
      "properties": {
        "timestamp": "2016-02-25T02:03:31Z",
        "version": 2,
        "changeset": 37426154,
        "IJSN:administra": "Municipal",
        "IJSN:classeCnae": "Infantil e Fundamental",
        "addr:city": "Divino de São Lourenço",
        "addr:postcode": "29590-000",
        "addr:street": "Avenida José Maria Gonçalves",
        "addr:suburb": "Comunidade Penha",
        "alt_name": "Escola Municipal de Ensino Fundamental",
        "amenity": "school",
        "name": "EMEF Allan Kardec Bitencourt Dias",
        "source": "IJSN",
        "id": "node/2497911894"
      },
      "geometry": {
        "type": "Point",
        "coordinates": [
          -41.760273,
          -20.5857781
        ]
      }
    },
    {
      "type": "Feature",
      "id": "node/4024905402",
      "properties": {
        "timestamp": "2016-02-25T02:00:22Z",
        "version": 1,
        "changeset": 37426154,
        "IJSN:administra": "Municipal",
        "IJSN:classeCnae": "Fundamental",
        "addr:city": "Divino de São Lourenço",
        "addr:postcode": "29590-000",
        "addr:suburb": "Comunidade Azul",
        "alt_name": "Escola Municipal de Ensino Fundamental",
        "amenity": "school",
        "name": "EMEF Córrego Azul",
        "source": "IJSN",
        "id": "node/4024905402"
      },
      "geometry": {
        "type": "Point",
        "coordinates": [
          -41.7432541,
          -20.628926
        ]
      }
    },
    {
      "type": "Feature",
      "id": "node/4024905405",
      "properties": {
        "timestamp": "2016-02-25T02:00:22Z",
        "version": 1,
        "changeset": 37426154,
        "IJSN:administra": "Municipal",
        "IJSN:classeCnae": "Fundamental",
        "addr:city": "Divino de São Lourenço",
        "addr:postcode": "29590-000",
        "addr:suburb": "Comunidade Cachoeira Bonita",
        "alt_name": "Escola Municipal de Ensino Fundamental",
        "amenity": "school",
        "name": "EMEF Córrego Severino",
        "source": "IJSN",
        "id": "node/4024905405"
      },
      "geometry": {
        "type": "Point",
        "coordinates": [
          -41.6799717,
          -20.564006
        ]
      }
    },
    {
      "type": "Feature",
      "id": "node/4024905409",
      "properties": {
        "timestamp": "2016-02-25T02:00:23Z",
        "version": 1,
        "changeset": 37426154,
        "IJSN:administra": "Municipal",
        "IJSN:classeCnae": "Fundamental",
        "addr:city": "Divino de São Lourenço",
        "addr:postcode": "29590-000",
        "addr:suburb": "Comunidade Floresta",
        "alt_name": "Escola Municipal de Ensino Fundamental",
        "amenity": "school",
        "name": "EMEF Córrego da Floresta",
        "source": "IJSN",
        "id": "node/4024905409"
      },
      "geometry": {
        "type": "Point",
        "coordinates": [
          -41.6918313,
          -20.5545522
        ]
      }
    },
    {
      "type": "Feature",
      "id": "node/4024905455",
      "properties": {
        "timestamp": "2016-02-25T02:00:31Z",
        "version": 1,
        "changeset": 37426154,
        "IJSN:administra": "Municipal",
        "IJSN:classeCnae": "Fundamental",
        "addr:city": "Divino de São Lourenço",
        "addr:postcode": "29590-000",
        "addr:suburb": "Comunidade São José",
        "alt_name": "Escola Municipal de Ensino Fundamental",
        "amenity": "school",
        "name": "EMEF Fazenda São José",
        "source": "IJSN",
        "id": "node/4024905455"
      },
      "geometry": {
        "type": "Point",
        "coordinates": [
          -41.6909748,
          -20.6552126
        ]
      }
    },
    {
      "type": "Feature",
      "id": "node/4024905630",
      "properties": {
        "timestamp": "2016-02-25T02:00:43Z",
        "version": 1,
        "changeset": 37426154,
        "IJSN:administra": "Municipal",
        "IJSN:classeCnae": "Fundamental",
        "addr:city": "Divino de São Lourenço",
        "addr:postcode": "29590-000",
        "addr:suburb": "Comunidade Azul",
        "alt_name": "Escola Municipal de Ensino Fundamental",
        "amenity": "school",
        "name": "EMEF Novo Tempo",
        "source": "IJSN",
        "id": "node/4024905630"
      },
      "geometry": {
        "type": "Point",
        "coordinates": [
          -41.7067205,
          -20.6263811
        ]
      }
    },
    {
      "type": "Feature",
      "id": "node/4024905681",
      "properties": {
        "timestamp": "2016-02-25T02:00:52Z",
        "version": 1,
        "changeset": 37426154,
        "IJSN:administra": "Municipal",
        "IJSN:classeCnae": "Fundamental",
        "addr:city": "Divino de São Lourenço",
        "addr:postcode": "29590-000",
        "addr:suburb": "Comunidade Veadinho",
        "alt_name": "Escola Municipal de Ensino Fundamental",
        "amenity": "school",
        "name": "EMEF Pérola do Caparaó",
        "source": "IJSN",
        "id": "node/4024905681"
      },
      "geometry": {
        "type": "Point",
        "coordinates": [
          -41.7157567,
          -20.6038294
        ]
      }
    },
    {
      "type": "Feature",
      "id": "node/4024905699",
      "properties": {
        "timestamp": "2016-02-25T02:00:55Z",
        "version": 1,
        "changeset": 37426154,
        "IJSN:administra": "Municipal",
        "IJSN:classeCnae": "Fundamental",
        "addr:city": "Divino de São Lourenço",
        "addr:postcode": "29590-000",
        "addr:suburb": "Comunidade Bom Destino",
        "alt_name": "Escola Municipal de Ensino Fundamental",
        "amenity": "school",
        "name": "EMEF Santo Antônio do Bom Destino",
        "source": "IJSN",
        "id": "node/4024905699"
      },
      "geometry": {
        "type": "Point",
        "coordinates": [
          -41.6774824,
          -20.593215
        ]
      }
    },
    {
      "type": "Feature",
      "id": "node/4024905717",
      "properties": {
        "timestamp": "2016-02-25T02:00:58Z",
        "version": 1,
        "changeset": 37426154,
        "IJSN:administra": "Municipal",
        "IJSN:classeCnae": "Fundamental",
        "addr:city": "Divino de São Lourenço",
        "addr:postcode": "29590-000",
        "addr:suburb": "Comunidade São Maurício",
        "alt_name": "Escola Municipal de Ensino Fundamental",
        "amenity": "school",
        "name": "EMEF São Maurício",
        "source": "IJSN",
        "id": "node/4024905717"
      },
      "geometry": {
        "type": "Point",
        "coordinates": [
          -41.7442016,
          -20.6219315
        ]
      }
    }
  ]
}
