{
  "type": "FeatureCollection",
  "features": [
    {
      "type": "Feature",
      "id": "node/3651265721",
      "properties": {
        "timestamp": "2015-07-14T20:28:00Z",
        "version": 1,
        "changeset": 32637551,
        "addr:city": "Eugênio de Castro",
        "addr:suburb": "Centro",
        "amenity": "school",
        "name": "Escola Estadual Theodorico Alves Teixeira",
        "source": "Bing;IBGE",
        "id": "node/3651265721"
      },
      "geometry": {
        "type": "Point",
        "coordinates": [
          -54.1455991,
          -28.5287309
        ]
      }
    },
    {
      "type": "Feature",
      "id": "node/10724635529",
      "properties": {
        "timestamp": "2023-03-28T18:25:32Z",
        "version": 2,
        "changeset": 134231931,
        "addr:city": "Eugênio de Castro",
        "addr:country": "BR",
        "addr:postcode": "98860-000",
        "addr:state": "Rio Grande do Sul",
        "addr:street": "Rua Valter Sausen",
        "addr:suburb": "Centro",
        "amenity": "school",
        "name": "Escola Estadual de Educação Básica Theodorico Alves Teixeira",
        "nohousenumber": "yes",
        "phone": "+55 (55) 3335-1165",
        "source": "IEDE RS - Escolas no RS",
        "id": "node/10724635529"
      },
      "geometry": {
        "type": "Point",
        "coordinates": [
          -54.1438187,
          -28.5277627
        ]
      }
    }
  ]
}
