{
  "type": "FeatureCollection",
  "features": [
    {
      "type": "Feature",
      "id": "way/685938127",
      "properties": {
        "timestamp": "2019-04-25T17:38:36Z",
        "version": 1,
        "changeset": 69575006,
        "amenity": "school",
        "id": "way/685938127"
      },
      "geometry": {
        "type": "Polygon",
        "coordinates": [
          [
            [
              -41.1943665,
              -20.9151972
            ],
            [
              -41.1943638,
              -20.9148665
            ],
            [
              -41.1950585,
              -20.914864
            ],
            [
              -41.1950451,
              -20.9151722
            ],
            [
              -41.1943665,
              -20.9151972
            ]
          ]
        ]
      }
    },
    {
      "type": "Feature",
      "id": "way/779581580",
      "properties": {
        "timestamp": "2020-03-09T13:52:37Z",
        "version": 1,
        "changeset": 81966973,
        "addr:city": "Atílio Vivácqua",
        "addr:postcode": "29490-000",
        "addr:suburb": "Flecheiras",
        "amenity": "school",
        "name": "Escola Municipal de Ensino Básico de Flecheiras",
        "operator": "Município de Atílio Vivcqua",
        "source": "IJSN;PMAV",
        "id": "way/779581580"
      },
      "geometry": {
        "type": "Polygon",
        "coordinates": [
          [
            [
              -41.1805971,
              -21.0353846
            ],
            [
              -41.1806334,
              -21.0356123
            ],
            [
              -41.1804336,
              -21.0356365
            ],
            [
              -41.1803998,
              -21.0354113
            ],
            [
              -41.1805971,
              -21.0353846
            ]
          ]
        ]
      }
    },
    {
      "type": "Feature",
      "id": "node/4024904799",
      "properties": {
        "timestamp": "2016-02-25T01:59:31Z",
        "version": 1,
        "changeset": 37426154,
        "IJSN:administra": "Estadual",
        "IJSN:classeCnae": "Médio",
        "addr:city": "Atílio Vivácqua",
        "addr:housenumber": "15",
        "addr:postcode": "29490-000",
        "addr:street": "Rua General Dutra",
        "addr:suburb": "Centro",
        "alt_name": "Escola Estadual de Ensino Fundamental e Médio",
        "amenity": "school",
        "contact:phone": "(28) 3538-1511 / 3538-1003",
        "name": "EEEFM Fernando de Abreu",
        "source": "IJSN",
        "id": "node/4024904799"
      },
      "geometry": {
        "type": "Point",
        "coordinates": [
          -41.1963168,
          -20.9128779
        ]
      }
    },
    {
      "type": "Feature",
      "id": "node/4024905217",
      "properties": {
        "timestamp": "2016-02-25T02:00:07Z",
        "version": 1,
        "changeset": 37426154,
        "IJSN:administra": "Municipal",
        "IJSN:classeCnae": "Infantil e Fundamental",
        "addr:city": "Atílio Vivácqua",
        "addr:postcode": "29490-000",
        "addr:street": "Rua Projetada",
        "addr:suburb": "Alto Niterói",
        "alt_name": "Escola Municipal de Ensino Básico",
        "amenity": "school",
        "contact:phone": "(28) 3538-1635",
        "name": "EMEB Alto Niterói",
        "source": "IJSN",
        "id": "node/4024905217"
      },
      "geometry": {
        "type": "Point",
        "coordinates": [
          -41.1954946,
          -20.9185298
        ]
      }
    },
    {
      "type": "Feature",
      "id": "node/4024905220",
      "properties": {
        "timestamp": "2020-03-13T14:07:24Z",
        "version": 2,
        "changeset": 82167040,
        "IJSN:administra": "Municipal",
        "IJSN:classeCnae": "Infantil e Fundamental",
        "addr:city": "Atílio Vivácqua",
        "addr:postcode": "29490-000",
        "addr:suburb": "Linda Aurora",
        "alt_name": "Escola Municipal de Ensino Básico",
        "amenity": "school",
        "name": "EMEB Amabile Rosseto",
        "source": "IJSN",
        "id": "node/4024905220"
      },
      "geometry": {
        "type": "Point",
        "coordinates": [
          -41.2172997,
          -20.9547391
        ]
      }
    },
    {
      "type": "Feature",
      "id": "node/4024905221",
      "properties": {
        "timestamp": "2019-04-25T17:38:36Z",
        "version": 2,
        "changeset": 69575006,
        "IJSN:administra": "Municipal",
        "IJSN:classeCnae": "Fundamental",
        "addr:city": "Atílio Vivácqua",
        "addr:housenumber": "38",
        "addr:postcode": "29490-000",
        "addr:street": "Rua Capitão Jovino Alves Pedra",
        "addr:suburb": "Niterói",
        "alt_name": "Escola Municipal de Ensino Básico",
        "amenity": "school",
        "contact:phone": "(27) 3538-1602",
        "name": "EMEB Ana Busato",
        "source": "IJSN",
        "id": "node/4024905221"
      },
      "geometry": {
        "type": "Point",
        "coordinates": [
          -41.1946181,
          -20.9150332
        ]
      }
    },
    {
      "type": "Feature",
      "id": "node/4024905222",
      "properties": {
        "timestamp": "2016-02-25T02:00:08Z",
        "version": 1,
        "changeset": 37426154,
        "IJSN:administra": "Municipal",
        "IJSN:classeCnae": "Infantil e Fundamental",
        "addr:city": "Atílio Vivácqua",
        "addr:postcode": "29490-000",
        "addr:suburb": "Comunidade Córrego da Fama",
        "alt_name": "Escola Municipal de Ensino Básico",
        "amenity": "school",
        "name": "EMEB Avelinda Carvalho Gava",
        "source": "IJSN",
        "id": "node/4024905222"
      },
      "geometry": {
        "type": "Point",
        "coordinates": [
          -41.2221857,
          -20.9382584
        ]
      }
    },
    {
      "type": "Feature",
      "id": "node/4024905223",
      "properties": {
        "timestamp": "2016-02-25T02:00:09Z",
        "version": 1,
        "changeset": 37426154,
        "IJSN:administra": "Municipal",
        "IJSN:classeCnae": "Fundamental",
        "addr:city": "Atílio Vivácqua",
        "addr:postcode": "29490-000",
        "addr:suburb": "Comunidade Praça do Oriente",
        "alt_name": "Escola Municipal de Ensino Básico",
        "amenity": "school",
        "contact:phone": "(28) 3538-8016",
        "name": "EMEB Benedito Sampaio",
        "source": "IJSN",
        "id": "node/4024905223"
      },
      "geometry": {
        "type": "Point",
        "coordinates": [
          -41.1759925,
          -20.9748198
        ]
      }
    },
    {
      "type": "Feature",
      "id": "node/4024905232",
      "properties": {
        "timestamp": "2022-10-29T22:52:21Z",
        "version": 2,
        "changeset": 128229186,
        "IJSN:administra": "Municipal",
        "IJSN:classeCnae": "Infantil e Fundamental",
        "addr:city": "Atílio Vivácqua",
        "addr:postcode": "29490-000",
        "addr:street": "Avenida Carolina Fraga",
        "addr:suburb": "Nossa Senhora Aparecida",
        "alt_name": "Escola Municipal de Ensino Básico",
        "amenity": "school",
        "contact:phone": "+55 28 3538 1011",
        "name": "EMEB Isabel Costa Baptista",
        "source": "IJSN",
        "id": "node/4024905232"
      },
      "geometry": {
        "type": "Point",
        "coordinates": [
          -41.183692,
          -20.9206829
        ]
      }
    },
    {
      "type": "Feature",
      "id": "node/4024905234",
      "properties": {
        "timestamp": "2020-03-11T23:38:14Z",
        "version": 2,
        "changeset": 82082241,
        "IJSN:administra": "Municipal",
        "IJSN:classeCnae": "Infantil e Fundamental",
        "addr:city": "Atílio Vivácqua",
        "addr:postcode": "29490-000",
        "addr:suburb": "Antas",
        "alt_name": "Escola Municipal de Ensino Básico",
        "amenity": "school",
        "name": "EMEB José Campos Nogueira",
        "source": "IJSN",
        "id": "node/4024905234"
      },
      "geometry": {
        "type": "Point",
        "coordinates": [
          -41.154327,
          -20.9157413
        ]
      }
    },
    {
      "type": "Feature",
      "id": "node/4024905241",
      "properties": {
        "timestamp": "2022-09-13T14:16:59Z",
        "version": 2,
        "changeset": 126136509,
        "IJSN:administra": "Municipal",
        "IJSN:classeCnae": "Fundamental",
        "addr:city": "Atílio Vivácqua",
        "addr:postcode": "29490-000",
        "addr:suburb": "Baixa Bonita",
        "alt_name": "Escola Municipal de Ensino Básico",
        "amenity": "school",
        "contact:phone": "(28) 3538-1519",
        "name": "EMEB Roque Telles Guimarães",
        "operator": "Município de Atílio Vivacqua",
        "source": "IJSN",
        "id": "node/4024905241"
      },
      "geometry": {
        "type": "Point",
        "coordinates": [
          -41.1840567,
          -20.9275549
        ]
      }
    },
    {
      "type": "Feature",
      "id": "node/4024905250",
      "properties": {
        "timestamp": "2020-03-11T14:13:18Z",
        "version": 2,
        "changeset": 82064819,
        "IJSN:administra": "Municipal",
        "IJSN:classeCnae": "Infantil e Fundamental",
        "addr:city": "Atílio Vivácqua",
        "addr:postcode": "29490-000",
        "addr:suburb": "Santo Antônio",
        "alt_name": "Escola Municipal de Ensino Básico",
        "amenity": "school",
        "name": "EMEB Teotônio Rafael",
        "operator": "Município de Atílio Vivacqua",
        "operator:type": "public",
        "source": "IJSN",
        "id": "node/4024905250"
      },
      "geometry": {
        "type": "Point",
        "coordinates": [
          -41.1258391,
          -20.9533297
        ]
      }
    }
  ]
}
