{
  "type": "FeatureCollection",
  "features": [
    {
      "type": "Feature",
      "id": "node/2675578979",
      "properties": {
        "timestamp": "2014-02-16T19:37:21Z",
        "version": 1,
        "changeset": 20602659,
        "addr:housenumber": "1546",
        "addr:street": "Avenida Antônio Tavares",
        "name": "Pitimbu Mar Hotel",
        "phone": "83 3299-1035",
        "tourism": "hotel",
        "id": "node/2675578979"
      },
      "geometry": {
        "type": "Point",
        "coordinates": [
          -34.8173409,
          -7.4888906
        ]
      }
    },
    {
      "type": "Feature",
      "id": "node/2675579007",
      "properties": {
        "timestamp": "2020-05-11T23:15:22Z",
        "version": 2,
        "changeset": 85049592,
        "addr:city": "Pitimbu-PB",
        "addr:place": "Colinas de Pitimbu-Praia Bela",
        "addr:street": "Rua das Caravelas",
        "name": "Pousada Barra Mansa",
        "phone": "+55 83 9632-3231",
        "tourism": "hotel",
        "id": "node/2675579007"
      },
      "geometry": {
        "type": "Point",
        "coordinates": [
          -34.8061406,
          -7.3955681
        ]
      }
    },
    {
      "type": "Feature",
      "id": "node/2675579010",
      "properties": {
        "timestamp": "2020-05-11T23:55:12Z",
        "version": 2,
        "changeset": 85050270,
        "addr:city": "Pitimbu",
        "addr:housenumber": "2000",
        "addr:place": "Centro",
        "addr:street": "Avenida Beira Mar",
        "name": "Pousada Beira Mar",
        "phone": "+55 83 3299-1711",
        "tourism": "hotel",
        "id": "node/2675579010"
      },
      "geometry": {
        "type": "Point",
        "coordinates": [
          -34.8099632,
          -7.4768353
        ]
      }
    },
    {
      "type": "Feature",
      "id": "node/2675579012",
      "properties": {
        "timestamp": "2014-02-16T19:37:21Z",
        "version": 1,
        "changeset": 20602659,
        "name": "Pousada Brisa Mar",
        "tourism": "hotel",
        "id": "node/2675579012"
      },
      "geometry": {
        "type": "Point",
        "coordinates": [
          -34.8082028,
          -7.4720201
        ]
      }
    },
    {
      "type": "Feature",
      "id": "node/2675579018",
      "properties": {
        "timestamp": "2014-02-16T19:37:21Z",
        "version": 1,
        "changeset": 20602659,
        "name": "Pousada Recanto do Aconchego",
        "tourism": "hotel",
        "id": "node/2675579018"
      },
      "geometry": {
        "type": "Point",
        "coordinates": [
          -34.8158869,
          -7.4864946
        ]
      }
    },
    {
      "type": "Feature",
      "id": "node/2675579021",
      "properties": {
        "timestamp": "2014-10-02T03:12:08Z",
        "version": 2,
        "changeset": 25801897,
        "addr:city": "Pitimbu-PB",
        "addr:place": "Colinas de Pitimbu-Praia Bela",
        "name": "Pousada Aconchego",
        "tourism": "hotel",
        "id": "node/2675579021"
      },
      "geometry": {
        "type": "Point",
        "coordinates": [
          -34.807491,
          -7.3957865
        ]
      }
    },
    {
      "type": "Feature",
      "id": "node/2675579025",
      "properties": {
        "timestamp": "2014-02-16T19:37:21Z",
        "version": 1,
        "changeset": 20602659,
        "name": "Pousada",
        "tourism": "hotel",
        "id": "node/2675579025"
      },
      "geometry": {
        "type": "Point",
        "coordinates": [
          -34.8159981,
          -7.5207362
        ]
      }
    },
    {
      "type": "Feature",
      "id": "node/12050309305",
      "properties": {
        "timestamp": "2024-07-13T00:33:46Z",
        "version": 1,
        "changeset": 153875967,
        "name": "Vida Linda Camping, Hostel e Súite",
        "tourism": "hotel",
        "id": "node/12050309305"
      },
      "geometry": {
        "type": "Point",
        "coordinates": [
          -34.805813,
          -7.3883287
        ]
      }
    }
  ]
}
