{
  "type": "FeatureCollection",
  "features": [
    {
      "type": "Feature",
      "id": "node/12127997413",
      "properties": {
        "timestamp": "2024-11-20T21:22:09Z",
        "version": 3,
        "changeset": 159385266,
        "addr:housenumber": "1127",
        "addr:street": "Avenida Presidente Tancredo Neves",
        "addr:suburb": "Centro",
        "name": "Bike Mania",
        "repair": "yes",
        "shop": "bicycle",
        "source:addr": "IBGE",
        "id": "node/12127997413"
      },
      "geometry": {
        "type": "Point",
        "coordinates": [
          -45.4688675,
          -22.2496595
        ]
      }
    },
    {
      "type": "Feature",
      "id": "node/12239827756",
      "properties": {
        "timestamp": "2024-10-09T22:43:22Z",
        "version": 1,
        "changeset": 157691968,
        "addr:housenumber": "315",
        "addr:street": "Rua Coronel Estevam Resende",
        "addr:suburb": "Centro",
        "name": "Bicicletaria",
        "shop": "bicycle",
        "id": "node/12239827756"
      },
      "geometry": {
        "type": "Point",
        "coordinates": [
          -45.4687068,
          -22.2451678
        ]
      }
    }
  ]
}
