{
  "type": "FeatureCollection",
  "features": [
    {
      "type": "Feature",
      "id": "node/11420467488",
      "properties": {
        "timestamp": "2024-09-21T03:09:58Z",
        "version": 2,
        "changeset": 156893929,
        "amenity": "dentist",
        "healthcare": "dentist",
        "name": "Consult칩rio Dent치rio Doutor Manoel Sobrinho",
        "id": "node/11420467488"
      },
      "geometry": {
        "type": "Point",
        "coordinates": [
          -45.4663361,
          -22.243571
        ]
      }
    },
    {
      "type": "Feature",
      "id": "node/12187423058",
      "properties": {
        "timestamp": "2024-09-20T03:05:45Z",
        "version": 1,
        "changeset": 156846873,
        "addr:housenumber": "297",
        "addr:street": "Rua Casemiro Os칩rio",
        "addr:suburb": "Centro",
        "amenity": "dentist",
        "name": "Odonto Clinic",
        "id": "node/12187423058"
      },
      "geometry": {
        "type": "Point",
        "coordinates": [
          -45.4659778,
          -22.2465948
        ]
      }
    },
    {
      "type": "Feature",
      "id": "node/12187423087",
      "properties": {
        "timestamp": "2024-09-20T03:05:45Z",
        "version": 1,
        "changeset": 156846873,
        "addr:description": "Terreo",
        "addr:door": "B",
        "addr:housenumber": "405",
        "addr:street": "Rua Casemiro Os칩rio",
        "addr:suburb": "Centro",
        "amenity": "dentist",
        "name": "Espaco Sorriso Consultorio Odontologico",
        "id": "node/12187423087"
      },
      "geometry": {
        "type": "Point",
        "coordinates": [
          -45.4656014,
          -22.2473794
        ]
      }
    }
  ]
}
