{
  "type": "FeatureCollection",
  "features": [
    {
      "type": "Feature",
      "id": "way/426139375",
      "properties": {
        "timestamp": "2016-06-20T14:44:15Z",
        "version": 1,
        "changeset": 40158798,
        "amenity": "school",
        "id": "way/426139375"
      },
      "geometry": {
        "type": "Polygon",
        "coordinates": [
          [
            [
              -46.9909273,
              -11.5672073
            ],
            [
              -46.9933976,
              -11.5689271
            ],
            [
              -46.9924774,
              -11.5700505
            ],
            [
              -46.9914935,
              -11.5689341
            ],
            [
              -46.990184,
              -11.5682198
            ],
            [
              -46.9909273,
              -11.5672073
            ]
          ]
        ]
      }
    },
    {
      "type": "Feature",
      "id": "way/1032694086",
      "properties": {
        "timestamp": "2022-02-17T20:26:03Z",
        "version": 1,
        "changeset": 117536804,
        "addr:city": "Dianópolis",
        "addr:housenumber": "410",
        "addr:postcode": "77300-000",
        "addr:street": "Rua João Rodrigues",
        "addr:suburb": "Centro",
        "amenity": "school",
        "name": "Escola Municipal Batista Blonnye Holmes Foreman",
        "phone": "+55 63 3692 1539",
        "id": "way/1032694086"
      },
      "geometry": {
        "type": "Polygon",
        "coordinates": [
          [
            [
              -46.8186623,
              -11.6273588
            ],
            [
              -46.818439,
              -11.62777
            ],
            [
              -46.8181169,
              -11.6276069
            ],
            [
              -46.818318,
              -11.6272109
            ],
            [
              -46.8186623,
              -11.6273588
            ]
          ]
        ]
      }
    },
    {
      "type": "Feature",
      "id": "way/1032695089",
      "properties": {
        "timestamp": "2022-02-17T20:29:26Z",
        "version": 1,
        "changeset": 117536924,
        "amenity": "school",
        "name": "Esc Est Cel Abilio Wolney",
        "id": "way/1032695089"
      },
      "geometry": {
        "type": "Polygon",
        "coordinates": [
          [
            [
              -46.8215539,
              -11.6287349
            ],
            [
              -46.8213607,
              -11.6291631
            ],
            [
              -46.8208323,
              -11.6288951
            ],
            [
              -46.8209879,
              -11.6285089
            ],
            [
              -46.8215539,
              -11.6287349
            ]
          ]
        ]
      }
    },
    {
      "type": "Feature",
      "id": "way/1032695759",
      "properties": {
        "timestamp": "2022-02-17T20:33:06Z",
        "version": 1,
        "changeset": 117537075,
        "addr:city": "Dianópolis",
        "addr:postcode": "77300-000",
        "addr:street": "Avenida Diamantes",
        "addr:suburb": "Nova Cidade",
        "amenity": "school",
        "name": "Centro Municipal De Educacao Infantil Tia Marieta",
        "phone": "+55 63 3692 1539",
        "id": "way/1032695759"
      },
      "geometry": {
        "type": "Polygon",
        "coordinates": [
          [
            [
              -46.8247925,
              -11.6269272
            ],
            [
              -46.8244602,
              -11.6273204
            ],
            [
              -46.8242384,
              -11.6271031
            ],
            [
              -46.8243622,
              -11.6268362
            ],
            [
              -46.8247925,
              -11.6269272
            ]
          ]
        ]
      }
    },
    {
      "type": "Feature",
      "id": "way/1032695897",
      "properties": {
        "timestamp": "2022-02-17T20:34:25Z",
        "version": 1,
        "changeset": 117537119,
        "addr:city": "Dianópolis",
        "addr:postcode": "77300-000",
        "addr:street": "Rua Rio de Janeiro",
        "addr:suburb": "Setor Brasil",
        "amenity": "school",
        "name": "Escola Especial Colibri",
        "id": "way/1032695897"
      },
      "geometry": {
        "type": "Polygon",
        "coordinates": [
          [
            [
              -46.8241401,
              -11.6219611
            ],
            [
              -46.8240077,
              -11.6222407
            ],
            [
              -46.8236968,
              -11.6220995
            ],
            [
              -46.8238291,
              -11.6218199
            ],
            [
              -46.8241401,
              -11.6219611
            ]
          ]
        ]
      }
    },
    {
      "type": "Feature",
      "id": "way/1032696137",
      "properties": {
        "timestamp": "2022-02-17T20:35:35Z",
        "version": 1,
        "changeset": 117537158,
        "addr:city": "Dianópolis",
        "addr:housenumber": "573",
        "addr:postcode": "77300-000",
        "addr:street": "Rua Mato Grosso",
        "addr:suburb": "Cavalcante",
        "amenity": "school",
        "name": "Escola Municipal Imaculada Conceicao",
        "phone": "+55 63 3692 1539",
        "id": "way/1032696137"
      },
      "geometry": {
        "type": "Polygon",
        "coordinates": [
          [
            [
              -46.8219913,
              -11.6175544
            ],
            [
              -46.8217248,
              -11.6180544
            ],
            [
              -46.8213662,
              -11.6178495
            ],
            [
              -46.8216136,
              -11.6173788
            ],
            [
              -46.8219913,
              -11.6175544
            ]
          ]
        ]
      }
    },
    {
      "type": "Feature",
      "id": "way/1032696373",
      "properties": {
        "timestamp": "2022-02-17T20:36:11Z",
        "version": 1,
        "changeset": 117537182,
        "addr:city": "Dianópolis",
        "addr:postcode": "77300-000",
        "addr:street": "Rua Tocantins",
        "addr:suburb": "Cavalcante",
        "amenity": "school",
        "name": "Centro De Ensino Medio Antonio Povoa",
        "phone": "+55 63 3692 1479",
        "id": "way/1032696373"
      },
      "geometry": {
        "type": "Polygon",
        "coordinates": [
          [
            [
              -46.8240215,
              -11.6158037
            ],
            [
              -46.8237345,
              -11.6164369
            ],
            [
              -46.8229057,
              -11.6160428
            ],
            [
              -46.8232195,
              -11.6154175
            ],
            [
              -46.8240215,
              -11.6158037
            ]
          ]
        ]
      }
    },
    {
      "type": "Feature",
      "id": "way/1032709716",
      "properties": {
        "timestamp": "2022-02-17T21:26:02Z",
        "version": 1,
        "changeset": 117538913,
        "addr:city": "Dianópolis",
        "addr:postcode": "77300-000",
        "addr:suburb": "Cavalcante",
        "amenity": "school",
        "name": "Escola Municipal Irma Amparo",
        "phone": "+55 63 3692 1539",
        "id": "way/1032709716"
      },
      "geometry": {
        "type": "Polygon",
        "coordinates": [
          [
            [
              -46.8258055,
              -11.6171548
            ],
            [
              -46.8256971,
              -11.6173741
            ],
            [
              -46.8254233,
              -11.6172467
            ],
            [
              -46.8255456,
              -11.617026
            ],
            [
              -46.8258055,
              -11.6171548
            ]
          ]
        ]
      }
    },
    {
      "type": "Feature",
      "id": "way/1032709975",
      "properties": {
        "timestamp": "2022-02-17T21:27:09Z",
        "version": 1,
        "changeset": 117538945,
        "addr:city": "Dianópolis",
        "addr:housenumber": "592",
        "addr:postcode": "77300-000",
        "addr:street": "Rua da Sabedoria",
        "addr:suburb": "Setor Industrial",
        "amenity": "school",
        "name": "Esc Est Joca Costa",
        "id": "way/1032709975"
      },
      "geometry": {
        "type": "Polygon",
        "coordinates": [
          [
            [
              -46.8293215,
              -11.6152809
            ],
            [
              -46.8289889,
              -11.615964
            ],
            [
              -46.8281977,
              -11.6156172
            ],
            [
              -46.8285196,
              -11.6149367
            ],
            [
              -46.8293215,
              -11.6152809
            ]
          ]
        ]
      }
    },
    {
      "type": "Feature",
      "id": "way/1032710242",
      "properties": {
        "timestamp": "2022-02-17T21:28:23Z",
        "version": 1,
        "changeset": 117538976,
        "amenity": "school",
        "phone": "+55 63 3692 1001",
        "id": "way/1032710242"
      },
      "geometry": {
        "type": "Polygon",
        "coordinates": [
          [
            [
              -46.8301664,
              -11.6216362
            ],
            [
              -46.8299572,
              -11.6221222
            ],
            [
              -46.82952,
              -11.6219357
            ],
            [
              -46.829461,
              -11.6213866
            ],
            [
              -46.8301664,
              -11.6216362
            ]
          ]
        ]
      }
    },
    {
      "type": "Feature",
      "id": "way/1032711977",
      "properties": {
        "timestamp": "2022-02-17T21:32:35Z",
        "version": 1,
        "changeset": 117539121,
        "addr:city": "Dianópolis",
        "addr:housenumber": "299",
        "addr:postcode": "77300-000",
        "addr:street": "Rua Coquelim Aires",
        "addr:suburb": "Centro",
        "amenity": "school",
        "name": "Escola Municipal Sao Jose",
        "phone": "+55 63 3692 2769",
        "id": "way/1032711977"
      },
      "geometry": {
        "type": "Polygon",
        "coordinates": [
          [
            [
              -46.8184666,
              -11.6252749
            ],
            [
              -46.8182708,
              -11.625669
            ],
            [
              -46.8177558,
              -11.6254141
            ],
            [
              -46.8179114,
              -11.6250463
            ],
            [
              -46.8184666,
              -11.6252749
            ]
          ]
        ]
      }
    },
    {
      "type": "Feature",
      "id": "way/1032958258",
      "properties": {
        "timestamp": "2022-02-18T17:24:29Z",
        "version": 1,
        "changeset": 117574830,
        "addr:city": "Dianópolis",
        "addr:postcode": "77300-000",
        "addr:street": "Avenida Central",
        "addr:suburb": "Setor Santa Luzia",
        "amenity": "school",
        "phone": "+55 63 9 9227 8539",
        "id": "way/1032958258"
      },
      "geometry": {
        "type": "Polygon",
        "coordinates": [
          [
            [
              -46.8213661,
              -11.6103205
            ],
            [
              -46.8216021,
              -11.6109563
            ],
            [
              -46.8212374,
              -11.6110903
            ],
            [
              -46.8210067,
              -11.610536
            ],
            [
              -46.8213661,
              -11.6103205
            ]
          ]
        ]
      }
    },
    {
      "type": "Feature",
      "id": "way/1032958400",
      "properties": {
        "timestamp": "2022-02-18T17:25:31Z",
        "version": 1,
        "changeset": 117574875,
        "addr:city": "Dianópolis",
        "addr:postcode": "77300-000",
        "addr:street": "Avenida Central",
        "addr:suburb": "Setor Santa Luzia",
        "amenity": "school",
        "name": "Escola Municipal Santa Luzia",
        "id": "way/1032958400"
      },
      "geometry": {
        "type": "Polygon",
        "coordinates": [
          [
            [
              -46.8210067,
              -11.610536
            ],
            [
              -46.8212374,
              -11.6110903
            ],
            [
              -46.8207715,
              -11.6112744
            ],
            [
              -46.8205678,
              -11.6108125
            ],
            [
              -46.8210067,
              -11.610536
            ]
          ]
        ]
      }
    },
    {
      "type": "Feature",
      "id": "way/1032958460",
      "properties": {
        "timestamp": "2022-02-18T17:26:11Z",
        "version": 1,
        "changeset": 117574901,
        "amenity": "school",
        "name": "Escola Municipal Felipe Batista Dos Santos",
        "id": "way/1032958460"
      },
      "geometry": {
        "type": "Polygon",
        "coordinates": [
          [
            [
              -46.7825545,
              -11.9083642
            ],
            [
              -46.7822729,
              -11.9086713
            ],
            [
              -46.7819296,
              -11.9083721
            ],
            [
              -46.7821817,
              -11.9080676
            ],
            [
              -46.7825545,
              -11.9083642
            ]
          ]
        ]
      }
    },
    {
      "type": "Feature",
      "id": "node/9515007357",
      "properties": {
        "timestamp": "2022-02-17T21:30:01Z",
        "version": 1,
        "changeset": 117539030,
        "addr:city": "Dianópolis",
        "addr:housenumber": "880",
        "addr:postcode": "77300-000",
        "addr:street": "Rua Diana Wolney Póvoa",
        "addr:suburb": "Centro",
        "amenity": "school",
        "name": "Centro Municipal De Educacao Infantil O Pelicano",
        "phone": "+55 63 3692 1861",
        "id": "node/9515007357"
      },
      "geometry": {
        "type": "Point",
        "coordinates": [
          -46.8184398,
          -11.6231941
        ]
      }
    },
    {
      "type": "Feature",
      "id": "node/9515007358",
      "properties": {
        "timestamp": "2022-02-17T21:30:45Z",
        "version": 1,
        "changeset": 117539064,
        "addr:city": "Dianópolis",
        "addr:housenumber": "351",
        "addr:postcode": "77300-000",
        "addr:street": "Rua Madre Belém",
        "addr:suburb": "Centro",
        "amenity": "school",
        "name": "Colegio Joao D Abreu",
        "phone": "+55 63 3692 1355",
        "id": "node/9515007358"
      },
      "geometry": {
        "type": "Point",
        "coordinates": [
          -46.818987,
          -11.6253195
        ]
      }
    },
    {
      "type": "Feature",
      "id": "node/9515011682",
      "properties": {
        "timestamp": "2022-02-17T21:29:21Z",
        "version": 1,
        "changeset": 117539006,
        "addr:city": "Dianópolis",
        "addr:postcode": "77300-000",
        "addr:street": "Rua Diana Wolney Póvoa",
        "addr:suburb": "Centro",
        "amenity": "school",
        "name": "Escola Municipal Imaculada Conceicao Ii",
        "phone": "+55 63 3692 2331",
        "id": "node/9515011682"
      },
      "geometry": {
        "type": "Point",
        "coordinates": [
          -46.8183754,
          -11.6237905
        ]
      }
    },
    {
      "type": "Feature",
      "id": "node/9516737996",
      "properties": {
        "timestamp": "2022-02-18T15:26:31Z",
        "version": 1,
        "changeset": 117570197,
        "amenity": "school",
        "name": "Escola Municipal Varjao",
        "phone": "+55 63 3692 1539",
        "id": "node/9516737996"
      },
      "geometry": {
        "type": "Point",
        "coordinates": [
          -47.008359,
          -11.9301177
        ]
      }
    },
    {
      "type": "Feature",
      "id": "node/9516750353",
      "properties": {
        "timestamp": "2022-02-18T15:27:30Z",
        "version": 1,
        "changeset": 117570232,
        "amenity": "school",
        "name": "Escola Municipal Descoberto",
        "id": "node/9516750353"
      },
      "geometry": {
        "type": "Point",
        "coordinates": [
          -47.1096526,
          -11.7560517
        ]
      }
    }
  ]
}
