{
  "type": "FeatureCollection",
  "features": [
    {
      "type": "Feature",
      "id": "way/1033624027",
      "properties": {
        "timestamp": "2022-02-20T21:27:17Z",
        "version": 1,
        "changeset": 117655470,
        "addr:city": "Pugmil",
        "addr:postcode": "77603-000",
        "addr:street": "Rua Belém",
        "addr:suburb": "Setor Bela Vista",
        "amenity": "school",
        "name": "Creche Municipal Maria Ribeiro Da Silva",
        "phone": "+55 63 3397 1163",
        "id": "way/1033624027"
      },
      "geometry": {
        "type": "Polygon",
        "coordinates": [
          [
            [
              -48.901775,
              -10.4250633
            ],
            [
              -48.9018193,
              -10.4254294
            ],
            [
              -48.9009802,
              -10.4255277
            ],
            [
              -48.9009359,
              -10.4251615
            ],
            [
              -48.901775,
              -10.4250633
            ]
          ]
        ]
      }
    },
    {
      "type": "Feature",
      "id": "way/1033624613",
      "properties": {
        "timestamp": "2022-02-20T21:28:24Z",
        "version": 1,
        "changeset": 117655511,
        "addr:city": "Pugmil",
        "addr:postcode": "77603-000",
        "addr:street": "Rua Natal",
        "addr:suburb": "Setor Oeste",
        "amenity": "school",
        "name": "Escola Municipal Joao Pereira Da Mota",
        "phone": "+55 63 3397 1137",
        "id": "way/1033624613"
      },
      "geometry": {
        "type": "Polygon",
        "coordinates": [
          [
            [
              -48.899693,
              -10.4233983
            ],
            [
              -48.8997586,
              -10.4239221
            ],
            [
              -48.8995322,
              -10.4239613
            ],
            [
              -48.8994679,
              -10.4234249
            ],
            [
              -48.899693,
              -10.4233983
            ]
          ]
        ]
      }
    },
    {
      "type": "Feature",
      "id": "way/1033624796",
      "properties": {
        "timestamp": "2022-02-20T21:30:39Z",
        "version": 1,
        "changeset": 117655584,
        "addr:city": "Pugmil",
        "addr:postcode": "77603-000",
        "addr:street": "Rua Pará",
        "addr:suburb": "Centro",
        "amenity": "school",
        "name": "Escola Municipal Jose Batista Maciel Bastos",
        "phone": "+55 63 3397 1268",
        "id": "way/1033624796"
      },
      "geometry": {
        "type": "Polygon",
        "coordinates": [
          [
            [
              -48.8965151,
              -10.4242576
            ],
            [
              -48.8965226,
              -10.4244951
            ],
            [
              -48.8955232,
              -10.424526
            ],
            [
              -48.8955157,
              -10.4242883
            ],
            [
              -48.8965151,
              -10.4242576
            ]
          ]
        ]
      }
    },
    {
      "type": "Feature",
      "id": "way/1033624797",
      "properties": {
        "timestamp": "2022-02-20T21:30:39Z",
        "version": 1,
        "changeset": 117655584,
        "addr:city": "Pugmil",
        "addr:postcode": "77603-000",
        "addr:street": "Avenida Paranã",
        "addr:suburb": "Centro",
        "amenity": "school",
        "name": "Col Est Darcy Ribeiro",
        "phone": "+55 63 3397 1126",
        "id": "way/1033624797"
      },
      "geometry": {
        "type": "Polygon",
        "coordinates": [
          [
            [
              -48.8935972,
              -10.4256461
            ],
            [
              -48.8936611,
              -10.4261966
            ],
            [
              -48.8930274,
              -10.4263284
            ],
            [
              -48.8928854,
              -10.4256952
            ],
            [
              -48.8935972,
              -10.4256461
            ]
          ]
        ]
      }
    }
  ]
}
