{
  "type": "FeatureCollection",
  "features": [
    {
      "type": "Feature",
      "id": "way/1067445508",
      "properties": {
        "timestamp": "2023-02-08T14:51:52Z",
        "version": 3,
        "changeset": 132260623,
        "access": "yes",
        "addr:city": "Saudades",
        "addr:housenumber": "369",
        "addr:postcode": "89868-000",
        "addr:street": "Rua Duque de Caxias",
        "addr:suburb": "Centro",
        "alt_name": "CRAS",
        "amenity": "social_facility",
        "building": "yes",
        "name": "Centro de Referência de Assistência Social",
        "operator": "Prefeitura Municipal de Saudades",
        "operator:type": "public",
        "short_name": "CRAS",
        "social_facility": "outreach",
        "social_facility:for": "underprivileged",
        "id": "way/1067445508"
      },
      "geometry": {
        "type": "Polygon",
        "coordinates": [
          [
            [
              -53.0059014,
              -26.925488
            ],
            [
              -53.00588,
              -26.9255737
            ],
            [
              -53.0056978,
              -26.9255376
            ],
            [
              -53.0057192,
              -26.9254519
            ],
            [
              -53.0059014,
              -26.925488
            ]
          ]
        ]
      }
    }
  ]
}
