{
  "type": "FeatureCollection",
  "features": [
    {
      "type": "Feature",
      "id": "way/549553136",
      "properties": {
        "timestamp": "2023-08-17T03:55:46Z",
        "version": 4,
        "changeset": 139991758,
        "addr:housenumber": "753",
        "addr:postcode": "14180-000",
        "addr:street": "Rua Ananias da Costa Freitas",
        "addr:suburb": "Jardim Res",
        "amenity": "hospital",
        "healthcare": "hospital",
        "name": "Santa Casa de Miseric√≥rdia de Pontal",
        "operator": "Municipal",
        "operator:type": "public",
        "phone": "+55 16 3953 1716",
        "ref:CNES": "2083493",
        "ref:vatin": "BR55110753000141",
        "id": "way/549553136"
      },
      "geometry": {
        "type": "Polygon",
        "coordinates": [
          [
            [
              -48.0378633,
              -21.0277928
            ],
            [
              -48.0378576,
              -21.0288439
            ],
            [
              -48.0372338,
              -21.0288908
            ],
            [
              -48.0372276,
              -21.0277807
            ],
            [
              -48.0378633,
              -21.0277928
            ]
          ]
        ]
      }
    }
  ]
}
