{
  "type": "FeatureCollection",
  "features": [
    {
      "type": "Feature",
      "id": "node/4844217621",
      "properties": {
        "timestamp": "2020-12-05T16:39:05Z",
        "version": 2,
        "changeset": 95340668,
        "addr:housenumber": "570",
        "addr:postcode": "62320000",
        "addr:street": "Rua Maestro Quincas Bezerril",
        "amenity": "clinic",
        "healthcare": "clinic",
        "name": "Espaço Fisio Clinic Fisioterapia Dra. Roberta Moreira",
        "name:en": "Espaço Fisio Clinic Fisioterapia Dra. Roberta Moreira",
        "name:pt": "Espaço Fisio Clinic Fisioterapia Dra. Roberta Moreira",
        "id": "node/4844217621"
      },
      "geometry": {
        "type": "Point",
        "coordinates": [
          -40.990448,
          -3.7272439
        ]
      }
    },
    {
      "type": "Feature",
      "id": "node/4845651924",
      "properties": {
        "timestamp": "2017-05-10T11:45:50Z",
        "version": 1,
        "changeset": 48559624,
        "addr:housenumber": "570",
        "addr:postcode": "62320000",
        "addr:street": "Rua Maestro Quincas Bezerril",
        "amenity": "clinic",
        "name": "Espaço Fisio Clinic Fisioterapia Dra. Roberta Moreira",
        "name:en": "Espaço Fisio Clinic Fisioterapia Dra. Roberta Moreira",
        "name:pt": "Espaço Fisio Clinic Fisioterapia Dra. Roberta Moreira",
        "id": "node/4845651924"
      },
      "geometry": {
        "type": "Point",
        "coordinates": [
          -40.9904243,
          -3.7271267
        ]
      }
    }
  ]
}
