{
  "type": "FeatureCollection",
  "features": [
    {
      "type": "Feature",
      "id": "node/9002644406",
      "properties": {
        "timestamp": "2021-08-13T10:18:10Z",
        "version": 2,
        "changeset": 109620420,
        "addr:city": "Tianguá",
        "addr:postcode": "62320-000",
        "addr:street": "Rua do Campo de Aviação",
        "amenity": "doctors",
        "healthcare": "doctor",
        "healthcare:speciality": "ophthalmology;psychology",
        "name": "Clínica Cartran",
        "opening_hours": "Mo-Fr 08:00-15:00",
        "phone": "+5588993440485",
        "id": "node/9002644406"
      },
      "geometry": {
        "type": "Point",
        "coordinates": [
          -41.0016127,
          -3.7243041
        ]
      }
    },
    {
      "type": "Feature",
      "id": "node/9002644407",
      "properties": {
        "timestamp": "2021-08-13T10:18:10Z",
        "version": 2,
        "changeset": 109620420,
        "addr:city": "Tianguá",
        "addr:housenumber": "78",
        "addr:postcode": "62325-780",
        "addr:street": "Rua do Campo de Aviação",
        "amenity": "doctors",
        "email": "clinicamedtran0@gmail.com",
        "healthcare": "doctor",
        "healthcare:speciality": "ophthalmology;psychology",
        "name": "Clínica Nortetran",
        "opening_hours": "Mo-Fr 08:00-15:00",
        "phone": "+558596522765",
        "wheelchair": "yes",
        "id": "node/9002644407"
      },
      "geometry": {
        "type": "Point",
        "coordinates": [
          -41.0017157,
          -3.724263
        ]
      }
    }
  ]
}
