{
  "type": "FeatureCollection",
  "features": [
    {
      "type": "Feature",
      "id": "node/3736372922",
      "properties": {
        "timestamp": "2015-09-09T17:26:03Z",
        "version": 1,
        "changeset": 33915114,
        "addr:city": "Barreiras",
        "addr:housenumber": "590",
        "addr:postcode": "47800-210",
        "addr:street": "Rua 24 de Outubro",
        "addr:suburb": "Vila Dulce",
        "amenity": "college",
        "name": "Ftc-Eap Faculdade Tecnologia Ciência",
        "id": "node/3736372922"
      },
      "geometry": {
        "type": "Point",
        "coordinates": [
          -44.9971063,
          -12.1464602
        ]
      }
    },
    {
      "type": "Feature",
      "id": "node/4423965987",
      "properties": {
        "timestamp": "2016-09-29T17:36:46Z",
        "version": 1,
        "changeset": 42524532,
        "addr:city": "Barreiras",
        "addr:housenumber": "480",
        "addr:postcode": "47800-030",
        "addr:street": "Rua Doutor Abílio Farias",
        "addr:suburb": "Centro",
        "amenity": "college",
        "name": "Auto Escola Camila",
        "source": "+55 77 3611-5805",
        "id": "node/4423965987"
      },
      "geometry": {
        "type": "Point",
        "coordinates": [
          -44.9977781,
          -12.1496361
        ]
      }
    }
  ]
}
