{
  "type": "FeatureCollection",
  "features": [
    {
      "type": "Feature",
      "id": "node/4423946544",
      "properties": {
        "timestamp": "2022-10-21T15:13:28Z",
        "version": 3,
        "changeset": 127890227,
        "addr:city": "Barreiras",
        "addr:housenumber": "427",
        "addr:postcode": "47800-270",
        "addr:street": "Rua Coronel Magno",
        "addr:suburb": "Centro",
        "amenity": "pharmacy",
        "healthcare": "pharmacy",
        "name": "Farmácia Paris 24hs",
        "opening_hours": "24/7",
        "phone": "+55 77 3611-1000",
        "id": "node/4423946544"
      },
      "geometry": {
        "type": "Point",
        "coordinates": [
          -44.996732,
          -12.148603
        ]
      }
    },
    {
      "type": "Feature",
      "id": "node/4423949609",
      "properties": {
        "timestamp": "2022-10-21T15:13:28Z",
        "version": 2,
        "changeset": 127890227,
        "addr:city": "Barreiras",
        "addr:housenumber": "47",
        "addr:postcode": "47803-080",
        "addr:street": "Rua Marechal Hermes",
        "addr:suburb": "Centro",
        "amenity": "pharmacy",
        "healthcare": "pharmacy",
        "name": "Farmácia Paris",
        "id": "node/4423949609"
      },
      "geometry": {
        "type": "Point",
        "coordinates": [
          -44.9934597,
          -12.1478583
        ]
      }
    },
    {
      "type": "Feature",
      "id": "node/4856055521",
      "properties": {
        "timestamp": "2022-10-21T15:13:28Z",
        "version": 2,
        "changeset": 127890227,
        "addr:street": "Rua Alberto Coimbra",
        "amenity": "pharmacy",
        "healthcare": "pharmacy",
        "name": "Paulo cezar farmácia bahia",
        "name:pt": "Paulo cezar farmácia bahia",
        "id": "node/4856055521"
      },
      "geometry": {
        "type": "Point",
        "coordinates": [
          -44.9918805,
          -12.1484776
        ]
      }
    },
    {
      "type": "Feature",
      "id": "node/4870175721",
      "properties": {
        "timestamp": "2022-10-21T15:13:28Z",
        "version": 2,
        "changeset": 127890227,
        "addr:street": "Av. Ruy Barbosa",
        "amenity": "pharmacy",
        "healthcare": "pharmacy",
        "name": "Divaney bertunes drogaria rocha",
        "name:pt": "Divaney bertunes drogaria rocha",
        "id": "node/4870175721"
      },
      "geometry": {
        "type": "Point",
        "coordinates": [
          -44.9988415,
          -12.1520856
        ]
      }
    },
    {
      "type": "Feature",
      "id": "node/4885841221",
      "properties": {
        "timestamp": "2022-10-21T15:13:28Z",
        "version": 2,
        "changeset": 127890227,
        "addr:street": "Rua Marechal Hermes",
        "amenity": "pharmacy",
        "healthcare": "pharmacy",
        "name": "Divaneiy bertunes rocha",
        "name:pt": "Divaneiy bertunes rocha",
        "id": "node/4885841221"
      },
      "geometry": {
        "type": "Point",
        "coordinates": [
          -44.9937534,
          -12.1484282
        ]
      }
    },
    {
      "type": "Feature",
      "id": "node/4885841222",
      "properties": {
        "timestamp": "2022-10-21T15:13:28Z",
        "version": 2,
        "changeset": 127890227,
        "addr:street": "Rua Dom Pedro II",
        "amenity": "pharmacy",
        "healthcare": "pharmacy",
        "name": "Nippofarma",
        "name:pt": "Nippofarma",
        "id": "node/4885841222"
      },
      "geometry": {
        "type": "Point",
        "coordinates": [
          -44.9932754,
          -12.1482332
        ]
      }
    },
    {
      "type": "Feature",
      "id": "node/4913299621",
      "properties": {
        "timestamp": "2022-10-21T15:13:28Z",
        "version": 2,
        "changeset": 127890227,
        "addr:street": "Avenida Castelo Branco",
        "amenity": "pharmacy",
        "healthcare": "pharmacy",
        "name": "Drogamafarma",
        "name:pt": "Drogamafarma",
        "id": "node/4913299621"
      },
      "geometry": {
        "type": "Point",
        "coordinates": [
          -44.9727279,
          -12.1368434
        ]
      }
    },
    {
      "type": "Feature",
      "id": "node/4926973923",
      "properties": {
        "timestamp": "2017-06-20T15:14:23Z",
        "version": 1,
        "changeset": 49696400,
        "addr:street": "rua santa custodia",
        "amenity": "pharmacy",
        "name": "Aldeci menezes farmácia nogueira",
        "name:pt": "Aldeci menezes farmácia nogueira",
        "id": "node/4926973923"
      },
      "geometry": {
        "type": "Point",
        "coordinates": [
          -45.0054853,
          -12.1375528
        ]
      }
    },
    {
      "type": "Feature",
      "id": "node/4938451121",
      "properties": {
        "timestamp": "2022-10-21T15:13:28Z",
        "version": 2,
        "changeset": 127890227,
        "addr:street": "Rua Capitao Manoel Miranda",
        "amenity": "pharmacy",
        "healthcare": "pharmacy",
        "name": "Liomar f Gonçalves formo dent",
        "name:pt": "Liomar f Gonçalves formo dent",
        "id": "node/4938451121"
      },
      "geometry": {
        "type": "Point",
        "coordinates": [
          -44.9953189,
          -12.150975
        ]
      }
    },
    {
      "type": "Feature",
      "id": "node/4949789322",
      "properties": {
        "timestamp": "2022-10-21T15:13:28Z",
        "version": 2,
        "changeset": 127890227,
        "addr:street": "Avenida Antônio Carlos Magalhães",
        "amenity": "pharmacy",
        "healthcare": "pharmacy",
        "name": "Mc farma produtos drogaria tradição",
        "name:pt": "Mc farma produtos drogaria tradição",
        "id": "node/4949789322"
      },
      "geometry": {
        "type": "Point",
        "coordinates": [
          -44.9838743,
          -12.1430397
        ]
      }
    },
    {
      "type": "Feature",
      "id": "node/5009844027",
      "properties": {
        "timestamp": "2017-08-02T16:42:30Z",
        "version": 1,
        "changeset": 50785507,
        "addr:street": "Avenida Barao do Rio Branco",
        "amenity": "pharmacy",
        "name": "Marcia domingas",
        "name:pt": "Marcia domingas",
        "id": "node/5009844027"
      },
      "geometry": {
        "type": "Point",
        "coordinates": [
          -45.0088823,
          -12.1283321
        ]
      }
    },
    {
      "type": "Feature",
      "id": "node/5011665525",
      "properties": {
        "timestamp": "2022-10-21T15:13:28Z",
        "version": 2,
        "changeset": 127890227,
        "addr:street": "Rua Doutor Abílio Farias",
        "amenity": "pharmacy",
        "healthcare": "pharmacy",
        "name": "T med",
        "name:pt": "T med",
        "id": "node/5011665525"
      },
      "geometry": {
        "type": "Point",
        "coordinates": [
          -44.9972091,
          -12.1516444
        ]
      }
    }
  ]
}
