{
  "type": "FeatureCollection",
  "features": [
    {
      "type": "Feature",
      "id": "node/4188187689",
      "properties": {
        "timestamp": "2022-10-23T12:03:35Z",
        "version": 2,
        "changeset": 127954480,
        "addr:city": "Cantagalo",
        "addr:housenumber": "306",
        "addr:postcode": "39703-000",
        "addr:street": "Rua Francisco Ribeiro de Carvalho",
        "addr:suburb": "Centro",
        "amenity": "school",
        "name": "Escola Estadual Professora Ester Siqueira",
        "operator": "Governo de Minas Gerais",
        "operator:type": "public",
        "source": "IBGE",
        "id": "node/4188187689"
      },
      "geometry": {
        "type": "Point",
        "coordinates": [
          -42.6250495,
          -18.5284096
        ]
      }
    },
    {
      "type": "Feature",
      "id": "node/4188187690",
      "properties": {
        "timestamp": "2022-10-23T12:03:35Z",
        "version": 2,
        "changeset": 127954480,
        "addr:city": "Cantagalo",
        "addr:street": "Rua Clemente Afonso",
        "addr:suburb": "Centro",
        "amenity": "school",
        "name": "Escola Municipal Bom Começo",
        "operator": "Município de Cantagalo",
        "operator:type": "public",
        "source": "IBGE",
        "id": "node/4188187690"
      },
      "geometry": {
        "type": "Point",
        "coordinates": [
          -42.6274384,
          -18.5289752
        ]
      }
    },
    {
      "type": "Feature",
      "id": "node/10136657035",
      "properties": {
        "timestamp": "2022-10-29T02:20:50Z",
        "version": 1,
        "changeset": 128195756,
        "addr:city": "Cantagalo",
        "addr:suburb": "Barra da Mesa",
        "amenity": "school",
        "id": "node/10136657035"
      },
      "geometry": {
        "type": "Point",
        "coordinates": [
          -42.6360583,
          -18.4831858
        ]
      }
    }
  ]
}
