{
  "type": "FeatureCollection",
  "features": [
    {
      "type": "Feature",
      "id": "way/202729054",
      "properties": {
        "timestamp": "2022-04-10T16:25:26Z",
        "version": 4,
        "changeset": 119542597,
        "amenity": "school",
        "name": "EMEF Presidente Castelo Branco",
        "id": "way/202729054"
      },
      "geometry": {
        "type": "Polygon",
        "coordinates": [
          [
            [
              -40.0705739,
              -19.3984624
            ],
            [
              -40.0708816,
              -19.3986095
            ],
            [
              -40.0707107,
              -19.3989269
            ],
            [
              -40.0704029,
              -19.3987783
            ],
            [
              -40.0705739,
              -19.3984624
            ]
          ]
        ]
      }
    },
    {
      "type": "Feature",
      "id": "way/202730525",
      "properties": {
        "timestamp": "2022-07-05T18:48:43Z",
        "version": 4,
        "changeset": 123247128,
        "IJSN:classeCnae": "Fundamental e Médio",
        "addr:city": "Linhares",
        "addr:housenumber": "28",
        "addr:place": "Aviso",
        "addr:postcode": "29901-150",
        "addr:street": "Avenida São Paulo",
        "addr:suburb": "Aviso",
        "alt_name": "Escola Estadual de Ensino Fundamental e Médio",
        "amenity": "school",
        "contact:phone": "+55 27  3371 1043",
        "name": "EEEFM Nossa Senhora da Conceição",
        "phone": "+55 27 3264 1573",
        "source": "IJSN",
        "id": "way/202730525"
      },
      "geometry": {
        "type": "Polygon",
        "coordinates": [
          [
            [
              -40.0530896,
              -19.4034279
            ],
            [
              -40.0531904,
              -19.4037343
            ],
            [
              -40.0526599,
              -19.4038896
            ],
            [
              -40.0525591,
              -19.4035831
            ],
            [
              -40.0530896,
              -19.4034279
            ]
          ]
        ]
      }
    },
    {
      "type": "Feature",
      "id": "way/204999041",
      "properties": {
        "timestamp": "2024-07-15T19:07:54Z",
        "version": 5,
        "changeset": 153986216,
        "IJSN:classeCnae": "Fundamental e Médio",
        "addr:city": "Linhares",
        "addr:housenumber": "8",
        "addr:place": "Centro",
        "addr:postcode": "29901-000",
        "addr:street": "Avenida Jones dos Santos Neves",
        "addr:suburb": "Centro",
        "alt_name": "Escola Estadual de Ensino Fundamental e Médio",
        "amenity": "school",
        "contact:phone": "(27) 3264-2047",
        "name": "CEEFMTI Bartouvino Costa",
        "religion": "none",
        "source": "IJSN",
        "id": "way/204999041"
      },
      "geometry": {
        "type": "Polygon",
        "coordinates": [
          [
            [
              -40.065925,
              -19.4027733
            ],
            [
              -40.0664132,
              -19.4018923
            ],
            [
              -40.0666452,
              -19.4020067
            ],
            [
              -40.0664833,
              -19.402299
            ],
            [
              -40.0663157,
              -19.4026015
            ],
            [
              -40.0666012,
              -19.4027422
            ],
            [
              -40.0664426,
              -19.4030285
            ],
            [
              -40.065925,
              -19.4027733
            ]
          ]
        ]
      }
    },
    {
      "type": "Feature",
      "id": "way/223614509",
      "properties": {
        "timestamp": "2022-05-03T13:38:23Z",
        "version": 4,
        "changeset": 120500670,
        "addr:city": "Linhares",
        "addr:country": "BR",
        "addr:housenumber": "1907",
        "addr:place": "Colina",
        "addr:postcode": "29900-060",
        "addr:state": "ES",
        "addr:street": "Avenida Augusto Calmon",
        "alt_name": "Serviço Social do Comércio",
        "amenity": "school",
        "classeCnae": "Infantil e Fundamental",
        "contact:phone": "(27) 3264-3023",
        "name": "Sesc- Centro de Atividades de Linhares",
        "short_name": "SESC",
        "source": "IJSN",
        "id": "way/223614509"
      },
      "geometry": {
        "type": "Polygon",
        "coordinates": [
          [
            [
              -40.0687103,
              -19.3934145
            ],
            [
              -40.0691996,
              -19.3936642
            ],
            [
              -40.0685863,
              -19.3947336
            ],
            [
              -40.0680968,
              -19.3944838
            ],
            [
              -40.0687103,
              -19.3934145
            ]
          ]
        ]
      }
    },
    {
      "type": "Feature",
      "id": "way/223767394",
      "properties": {
        "timestamp": "2022-04-10T02:48:23Z",
        "version": 3,
        "changeset": 119521823,
        "IJSN:classeCnae": "Fundamental",
        "addr:city": "Linhares",
        "addr:place": "Interlagos",
        "addr:postcode": "29903-050",
        "addr:street": "Rua Linhares",
        "alt_name": "Escola Municipal de Ensino Fundamental",
        "amenity": "school",
        "contact:phone": "(27) 3372-3990",
        "name": "EMEF Samuel Batista Cruz (CAIC)",
        "old_name": "CAIC",
        "source": "IJSN",
        "id": "way/223767394"
      },
      "geometry": {
        "type": "Polygon",
        "coordinates": [
          [
            [
              -40.0574743,
              -19.3900845
            ],
            [
              -40.0581822,
              -19.3913765
            ],
            [
              -40.0571724,
              -19.3918688
            ],
            [
              -40.0564646,
              -19.3905766
            ],
            [
              -40.0574743,
              -19.3900845
            ]
          ]
        ]
      }
    },
    {
      "type": "Feature",
      "id": "way/223768368",
      "properties": {
        "timestamp": "2022-04-10T16:25:26Z",
        "version": 4,
        "changeset": 119542597,
        "IJSN:classeCnae": "Infantil e Fundamental",
        "addr:city": "Linhares",
        "addr:place": "Centro",
        "addr:postcode": "29900-010",
        "addr:street": "Avenida Governador Lindemberg",
        "alt_name": "Centro Educacional",
        "amenity": "school",
        "contact:phone": "(27) 3264-3567",
        "name": "Sistema de Ensino Projetar",
        "source": "IJSN",
        "id": "way/223768368"
      },
      "geometry": {
        "type": "Polygon",
        "coordinates": [
          [
            [
              -40.0701089,
              -19.3981118
            ],
            [
              -40.0700365,
              -19.39825
            ],
            [
              -40.0695091,
              -19.3980041
            ],
            [
              -40.0695815,
              -19.397866
            ],
            [
              -40.0701089,
              -19.3981118
            ]
          ]
        ]
      }
    },
    {
      "type": "Feature",
      "id": "way/224038007",
      "properties": {
        "timestamp": "2016-03-09T19:10:58Z",
        "version": 3,
        "changeset": 37716865,
        "addr:city": "Linhares",
        "addr:country": "BR",
        "addr:place": "BNH",
        "addr:postcode": "29902-120",
        "addr:state": "ES",
        "addr:street": "Avenida Presidente Costa e Silva",
        "alt_name": "Escola Municipal de Ensino Fundamental",
        "amenity": "school",
        "classeCnae": "Fundamental",
        "contact:phone": "(27) 3372-2812 / 3373-1494",
        "name": "EMEF Jerônimo Monteiro",
        "source": "IJSN",
        "id": "way/224038007"
      },
      "geometry": {
        "type": "Polygon",
        "coordinates": [
          [
            [
              -40.0651466,
              -19.3798566
            ],
            [
              -40.0652005,
              -19.3803298
            ],
            [
              -40.0648463,
              -19.3803657
            ],
            [
              -40.0647924,
              -19.3798925
            ],
            [
              -40.0651466,
              -19.3798566
            ]
          ]
        ]
      }
    },
    {
      "type": "Feature",
      "id": "way/228459372",
      "properties": {
        "timestamp": "2022-07-05T18:41:56Z",
        "version": 3,
        "changeset": 123246894,
        "addr:postcode": "29901-250",
        "addr:street": "Rua Maranhão",
        "addr:suburb": "Aviso",
        "amenity": "school",
        "name": "EMEF Prefeito Roberto Calmon",
        "phone": "+55 27 3373 3456",
        "ref": "INEP-32022107",
        "religion": "none",
        "source": "INEP",
        "id": "way/228459372"
      },
      "geometry": {
        "type": "Polygon",
        "coordinates": [
          [
            [
              -40.053639,
              -19.4035323
            ],
            [
              -40.0531702,
              -19.4032944
            ],
            [
              -40.0531273,
              -19.403135
            ],
            [
              -40.0534583,
              -19.4025724
            ],
            [
              -40.0540189,
              -19.4028662
            ],
            [
              -40.053639,
              -19.4035323
            ]
          ]
        ]
      }
    },
    {
      "type": "Feature",
      "id": "way/228527290",
      "properties": {
        "timestamp": "2022-07-05T19:24:43Z",
        "version": 4,
        "changeset": 123248493,
        "addr:city": "Linhares",
        "addr:country": "BR",
        "addr:housenumber": "1883",
        "addr:place": "Centro",
        "addr:postcode": "29901-295",
        "addr:state": "ES",
        "addr:street": "Avenida Filogonio Peixoto",
        "addr:suburb": "Aviso",
        "alt_name": "Escola Estadual de Ensino Fundamental",
        "amenity": "school",
        "classeCnae": "Fundamental",
        "contact:phone": "+55 27 3371 3194",
        "name": "EEEF Princesa Isabel",
        "phone": "+55 27 3371 1922",
        "religion": "none",
        "source": "IJSN",
        "id": "way/228527290"
      },
      "geometry": {
        "type": "Polygon",
        "coordinates": [
          [
            [
              -40.0480493,
              -19.405625
            ],
            [
              -40.0482169,
              -19.4061525
            ],
            [
              -40.0477197,
              -19.406293
            ],
            [
              -40.0475522,
              -19.4057655
            ],
            [
              -40.0480493,
              -19.405625
            ]
          ]
        ]
      }
    },
    {
      "type": "Feature",
      "id": "way/234923119",
      "properties": {
        "timestamp": "2020-04-21T02:01:38Z",
        "version": 5,
        "changeset": 83847647,
        "addr:city": "Linhares",
        "addr:country": "BR",
        "addr:housenumber": "490",
        "addr:place": "Shell",
        "addr:postcode": "29901-480",
        "addr:state": "ES",
        "addr:street": "Avenida Nicola Biancard",
        "alt_name": "Escola Estadual de Ensino Médio",
        "amenity": "school",
        "classeCnae": "Médio",
        "contact:phone": "(27) 3264-1082 / 3371-1427 / 3264-2108",
        "name": "EEEM Emir de Macedo Gomes",
        "operator": "Governo do Estado do Espírito Santo",
        "source": "IJSN",
        "id": "way/234923119"
      },
      "geometry": {
        "type": "Polygon",
        "coordinates": [
          [
            [
              -40.0637705,
              -19.3955372
            ],
            [
              -40.0643286,
              -19.3958298
            ],
            [
              -40.0637323,
              -19.3968417
            ],
            [
              -40.0631744,
              -19.3965492
            ],
            [
              -40.0637705,
              -19.3955372
            ]
          ]
        ]
      }
    },
    {
      "type": "Feature",
      "id": "way/235394853",
      "properties": {
        "timestamp": "2016-03-09T19:11:09Z",
        "version": 3,
        "changeset": 37716865,
        "addr:city": "Linhares",
        "addr:country": "BR",
        "addr:housenumber": "1205",
        "addr:place": "Interlagos",
        "addr:postcode": "29903-059",
        "addr:state": "ES",
        "addr:street": "Avenida Quintino Bocaiúva",
        "alt_name": "Escola Municipal de Ensino Fundamental e Médio",
        "amenity": "school",
        "classeCnae": "Fundamental",
        "contact:phone": "(27) 3371-1080 / 3371-1290",
        "name": "EMEFM Marília de Rezende Scarton Coutinho",
        "source": "IJSN",
        "id": "way/235394853"
      },
      "geometry": {
        "type": "Polygon",
        "coordinates": [
          [
            [
              -40.0472045,
              -19.3897213
            ],
            [
              -40.04747,
              -19.3902172
            ],
            [
              -40.0464464,
              -19.3907318
            ],
            [
              -40.0461674,
              -19.390246
            ],
            [
              -40.0472045,
              -19.3897213
            ]
          ]
        ]
      }
    },
    {
      "type": "Feature",
      "id": "way/270443134",
      "properties": {
        "timestamp": "2016-03-09T19:10:52Z",
        "version": 3,
        "changeset": 37716865,
        "addr:city": "Linhares",
        "addr:country": "BR",
        "addr:place": "Juparanã",
        "addr:postcode": "29900-800",
        "addr:state": "ES",
        "addr:street": "Rua Valdomiro Cardoso",
        "alt_name": "Escola Municipal de Ensino Fundamental",
        "amenity": "school",
        "classeCnae": "Fundamental",
        "contact:phone": "(27) 3371-1132",
        "name": "EMEF Cid Adalberto dos Reis",
        "source": "IJSN",
        "id": "way/270443134"
      },
      "geometry": {
        "type": "Polygon",
        "coordinates": [
          [
            [
              -40.0745844,
              -19.3830594
            ],
            [
              -40.0742437,
              -19.3838919
            ],
            [
              -40.074013,
              -19.3839146
            ],
            [
              -40.0739208,
              -19.3831227
            ],
            [
              -40.0745844,
              -19.3830594
            ]
          ]
        ]
      }
    },
    {
      "type": "Feature",
      "id": "way/270445984",
      "properties": {
        "timestamp": "2016-03-09T19:10:50Z",
        "version": 3,
        "changeset": 37716865,
        "addr:city": "Linhares",
        "addr:country": "BR",
        "addr:place": "Planalto",
        "addr:postcode": "29906-630",
        "addr:state": "ES",
        "addr:street": "Rua Onorato Rosa",
        "alt_name": "Escola Municipal de Ensino Fundamental",
        "amenity": "school",
        "classeCnae": "Fundamental",
        "contact:phone": "(27) 3372-4455",
        "name": "EMEF Caboclo Bernardo",
        "source": "IJSN",
        "id": "way/270445984"
      },
      "geometry": {
        "type": "Polygon",
        "coordinates": [
          [
            [
              -40.0494495,
              -19.3483341
            ],
            [
              -40.0494298,
              -19.3488479
            ],
            [
              -40.0487656,
              -19.3488225
            ],
            [
              -40.0487897,
              -19.3482986
            ],
            [
              -40.0494495,
              -19.3483341
            ]
          ]
        ]
      }
    },
    {
      "type": "Feature",
      "id": "way/272275885",
      "properties": {
        "timestamp": "2016-02-25T02:03:17Z",
        "version": 2,
        "changeset": 37426154,
        "IJSN:classeCnae": "Fundamental",
        "addr:city": "Linhares",
        "addr:place": "Araçá",
        "addr:postcode": "29900-000",
        "addr:street": "Rua João Francisco Calmon",
        "alt_name": "Escola Municipal de Ensino Fundamental",
        "amenity": "school",
        "name": "EMEF Roberto Moreira",
        "source": "IJSN",
        "id": "way/272275885"
      },
      "geometry": {
        "type": "Polygon",
        "coordinates": [
          [
            [
              -40.0568374,
              -19.3982177
            ],
            [
              -40.0575187,
              -19.398559
            ],
            [
              -40.057298,
              -19.3989512
            ],
            [
              -40.0566166,
              -19.39861
            ],
            [
              -40.0568374,
              -19.3982177
            ]
          ]
        ]
      }
    },
    {
      "type": "Feature",
      "id": "way/282123094",
      "properties": {
        "timestamp": "2022-04-13T15:04:19Z",
        "version": 4,
        "changeset": 119672900,
        "addr:city": "Linhares",
        "addr:country": "BR",
        "addr:place": "Nova Esperança",
        "addr:postcode": "29908-635",
        "addr:state": "ES",
        "addr:street": "Avenida Lagoa Bonita",
        "alt_name": "Escola Municipal de Ensino Fundamental",
        "amenity": "school",
        "classeCnae": "Fundamental",
        "contact:phone": "(27) 3372-3645",
        "name": "EMEF Adelson Del'Santo",
        "source": "IJSN",
        "id": "way/282123094"
      },
      "geometry": {
        "type": "Polygon",
        "coordinates": [
          [
            [
              -40.0451194,
              -19.3588218
            ],
            [
              -40.0448784,
              -19.3582722
            ],
            [
              -40.0452635,
              -19.3581219
            ],
            [
              -40.0455044,
              -19.3586715
            ],
            [
              -40.0451194,
              -19.3588218
            ]
          ]
        ]
      }
    },
    {
      "type": "Feature",
      "id": "way/292246703",
      "properties": {
        "timestamp": "2022-04-10T02:48:23Z",
        "version": 4,
        "changeset": 119521823,
        "addr:city": "Linhares",
        "addr:country": "BR",
        "addr:place": "BNH",
        "addr:postcode": "29900-000",
        "addr:state": "ES",
        "addr:street": "Avenida Presidente Café Filho",
        "alt_name": "Escola Estadual de Ensino Fundamental e Médio",
        "amenity": "school",
        "classeCnae": "Fundamental e Médio",
        "name": "EEEFM Polivalente de Linhares I",
        "source": "IJSN",
        "id": "way/292246703"
      },
      "geometry": {
        "type": "Polygon",
        "coordinates": [
          [
            [
              -40.0597361,
              -19.3807597
            ],
            [
              -40.059946,
              -19.3807328
            ],
            [
              -40.0604882,
              -19.3806835
            ],
            [
              -40.0607738,
              -19.3806531
            ],
            [
              -40.0608641,
              -19.3814053
            ],
            [
              -40.0599743,
              -19.3815005
            ],
            [
              -40.0597864,
              -19.3810262
            ],
            [
              -40.0597361,
              -19.3807597
            ]
          ]
        ]
      }
    },
    {
      "type": "Feature",
      "id": "way/459873360",
      "properties": {
        "timestamp": "2022-07-05T21:09:49Z",
        "version": 4,
        "changeset": 123251515,
        "addr:city": "Linhares",
        "addr:housenumber": "396",
        "addr:postcode": "29901-627",
        "addr:street": "Avenida Filogônio Peixoto",
        "addr:suburb": "Aviso",
        "amenity": "school",
        "name": "SESI - Serviço Social da Indústria",
        "operator": "Sistema Findes",
        "operator:type": "private_non_profit",
        "religion": "none",
        "website": "https://www.sesies.com.br/",
        "id": "way/459873360"
      },
      "geometry": {
        "type": "Polygon",
        "coordinates": [
          [
            [
              -40.0617505,
              -19.4073465
            ],
            [
              -40.0617858,
              -19.4084959
            ],
            [
              -40.0585985,
              -19.4077724
            ],
            [
              -40.0589937,
              -19.4067893
            ],
            [
              -40.059263,
              -19.406874
            ],
            [
              -40.0594231,
              -19.4066226
            ],
            [
              -40.0611881,
              -19.4071513
            ],
            [
              -40.0617505,
              -19.4073465
            ]
          ]
        ]
      }
    },
    {
      "type": "Feature",
      "id": "way/461673267",
      "properties": {
        "timestamp": "2023-01-12T01:06:18Z",
        "version": 2,
        "changeset": 131166614,
        "addr:city": "Linhares",
        "addr:country": "BR",
        "addr:housenumber": "1218",
        "addr:postcode": "29900-430",
        "addr:state": "ES",
        "addr:street": "Avenida Celeste Faé",
        "alt_name": "Escola Estadual de Ensino Fundamental",
        "amenity": "school",
        "classeCnae": "Fundamental",
        "contact:phone": "(27) 3371-1035",
        "name": "Escola Estadual de Ensino Fundamental Luis de Camões",
        "source": "IJSN",
        "suburb": "Conceição",
        "id": "way/461673267"
      },
      "geometry": {
        "type": "Polygon",
        "coordinates": [
          [
            [
              -40.0692347,
              -19.3802042
            ],
            [
              -40.0692561,
              -19.380432
            ],
            [
              -40.0689504,
              -19.3804573
            ],
            [
              -40.0689316,
              -19.3802296
            ],
            [
              -40.0692347,
              -19.3802042
            ]
          ]
        ]
      }
    },
    {
      "type": "Feature",
      "id": "way/469929760",
      "properties": {
        "timestamp": "2017-01-29T12:20:32Z",
        "version": 1,
        "changeset": 45618740,
        "amenity": "school",
        "name": "Pestalozzi",
        "id": "way/469929760"
      },
      "geometry": {
        "type": "Polygon",
        "coordinates": [
          [
            [
              -40.0733603,
              -19.3902222
            ],
            [
              -40.0727639,
              -19.3902825
            ],
            [
              -40.0726811,
              -19.3895535
            ],
            [
              -40.0732776,
              -19.3894932
            ],
            [
              -40.0733603,
              -19.3902222
            ]
          ]
        ]
      }
    },
    {
      "type": "Feature",
      "id": "way/469930506",
      "properties": {
        "timestamp": "2022-04-16T19:15:40Z",
        "version": 2,
        "changeset": 119795952,
        "amenity": "school",
        "name": "EMEF Professora Maria Aparecida Lavagnoli",
        "id": "way/469930506"
      },
      "geometry": {
        "type": "Polygon",
        "coordinates": [
          [
            [
              -40.0551311,
              -19.391081
            ],
            [
              -40.0547488,
              -19.3912661
            ],
            [
              -40.0544821,
              -19.390776
            ],
            [
              -40.0548645,
              -19.3905909
            ],
            [
              -40.0551311,
              -19.391081
            ]
          ]
        ]
      }
    },
    {
      "type": "Feature",
      "id": "way/483070980",
      "properties": {
        "timestamp": "2020-04-21T02:01:38Z",
        "version": 2,
        "changeset": 83847647,
        "addr:city": "Linhares",
        "addr:housenumber": "94",
        "addr:postcode": "29900-070",
        "addr:street": "Avenida Rui Barbosa",
        "addr:suburb": "Centro",
        "amenity": "school",
        "name": "Darwin Linhares",
        "operator": "Centro de Ensino Cachoeirense Darwin Ltda",
        "operator:type": "private",
        "religion": "none",
        "source": "https://www.darwin.com.br/",
        "website": "https://www.darwin.com.br/",
        "id": "way/483070980"
      },
      "geometry": {
        "type": "Polygon",
        "coordinates": [
          [
            [
              -40.0614102,
              -19.4042963
            ],
            [
              -40.0609093,
              -19.4040455
            ],
            [
              -40.0610468,
              -19.4038012
            ],
            [
              -40.0615477,
              -19.4040521
            ],
            [
              -40.0614102,
              -19.4042963
            ]
          ]
        ]
      }
    },
    {
      "type": "Feature",
      "id": "way/604357468",
      "properties": {
        "timestamp": "2022-04-10T16:25:26Z",
        "version": 2,
        "changeset": 119542597,
        "amenity": "school",
        "name": "Cep Educacional",
        "id": "way/604357468"
      },
      "geometry": {
        "type": "Polygon",
        "coordinates": [
          [
            [
              -40.0690063,
              -19.3854583
            ],
            [
              -40.0690349,
              -19.3857411
            ],
            [
              -40.0683459,
              -19.3858032
            ],
            [
              -40.0683173,
              -19.3855206
            ],
            [
              -40.0690063,
              -19.3854583
            ]
          ]
        ]
      }
    },
    {
      "type": "Feature",
      "id": "way/607496754",
      "properties": {
        "timestamp": "2018-07-12T21:40:05Z",
        "version": 1,
        "changeset": 60666080,
        "amenity": "school",
        "name": "Ceim José Candido Durão",
        "id": "way/607496754"
      },
      "geometry": {
        "type": "Polygon",
        "coordinates": [
          [
            [
              -40.052391,
              -19.3666565
            ],
            [
              -40.0526021,
              -19.3671166
            ],
            [
              -40.0522098,
              -19.3672768
            ],
            [
              -40.0519988,
              -19.3668166
            ],
            [
              -40.052391,
              -19.3666565
            ]
          ]
        ]
      }
    },
    {
      "type": "Feature",
      "id": "way/629569926",
      "properties": {
        "timestamp": "2024-07-15T23:49:23Z",
        "version": 5,
        "changeset": 153993204,
        "addr:city": "Linhares",
        "addr:postcode": "2990-7210",
        "addr:street": "Rua Luiz Poltronieri",
        "alt_name": "Cooperativa Educacional",
        "amenity": "school",
        "classeCnae": "Infantil, Fundamental e Médio",
        "contact:phone": "(27) 3264-2669",
        "name": "Cooperativa Educacional de Linhares - CEL",
        "source": "IJSN",
        "suburb": "Três Barras",
        "id": "way/629569926"
      },
      "geometry": {
        "type": "Polygon",
        "coordinates": [
          [
            [
              -40.0743032,
              -19.3736696
            ],
            [
              -40.0744035,
              -19.3746552
            ],
            [
              -40.0737933,
              -19.3747105
            ],
            [
              -40.0736929,
              -19.3737249
            ],
            [
              -40.0743032,
              -19.3736696
            ]
          ]
        ]
      }
    },
    {
      "type": "Feature",
      "id": "way/794250303",
      "properties": {
        "timestamp": "2022-04-16T15:35:40Z",
        "version": 2,
        "changeset": 119788828,
        "amenity": "school",
        "name": "EEEM Professora Antonieta Banhos Fernandes",
        "id": "way/794250303"
      },
      "geometry": {
        "type": "Polygon",
        "coordinates": [
          [
            [
              -40.0397488,
              -19.3949793
            ],
            [
              -40.0398569,
              -19.3951745
            ],
            [
              -40.0398981,
              -19.395248
            ],
            [
              -40.040013,
              -19.3954553
            ],
            [
              -40.0397952,
              -19.3955631
            ],
            [
              -40.0395313,
              -19.3950865
            ],
            [
              -40.0397488,
              -19.3949793
            ]
          ]
        ]
      }
    },
    {
      "type": "Feature",
      "id": "way/1051563192",
      "properties": {
        "timestamp": "2022-04-13T15:04:19Z",
        "version": 1,
        "changeset": 119672900,
        "amenity": "school",
        "name": "EMEF Dinorah Almeida Rodrigues",
        "id": "way/1051563192"
      },
      "geometry": {
        "type": "Polygon",
        "coordinates": [
          [
            [
              -40.0502983,
              -19.3687399
            ],
            [
              -40.0504914,
              -19.3691892
            ],
            [
              -40.0499657,
              -19.3693902
            ],
            [
              -40.0497727,
              -19.3689409
            ],
            [
              -40.0502983,
              -19.3687399
            ]
          ]
        ]
      }
    },
    {
      "type": "Feature",
      "id": "way/1052263122",
      "properties": {
        "timestamp": "2022-04-16T15:35:40Z",
        "version": 1,
        "changeset": 119788828,
        "amenity": "school",
        "name": "EMEF Professora Maria da Penha Pazito Ventura",
        "id": "way/1052263122"
      },
      "geometry": {
        "type": "Polygon",
        "coordinates": [
          [
            [
              -40.0402934,
              -19.395053
            ],
            [
              -40.0404083,
              -19.3952603
            ],
            [
              -40.040013,
              -19.3954553
            ],
            [
              -40.0398981,
              -19.395248
            ],
            [
              -40.0402934,
              -19.395053
            ]
          ]
        ]
      }
    },
    {
      "type": "Feature",
      "id": "way/1052307651",
      "properties": {
        "timestamp": "2022-04-16T19:15:40Z",
        "version": 1,
        "changeset": 119795952,
        "amenity": "school",
        "name": "EMEF Elza Roni Scarpati",
        "id": "way/1052307651"
      },
      "geometry": {
        "type": "Polygon",
        "coordinates": [
          [
            [
              -40.0629904,
              -19.3733051
            ],
            [
              -40.0630303,
              -19.3736627
            ],
            [
              -40.0625783,
              -19.3737062
            ],
            [
              -40.0625528,
              -19.3734717
            ],
            [
              -40.0626145,
              -19.3733426
            ],
            [
              -40.0629904,
              -19.3733051
            ]
          ]
        ]
      }
    },
    {
      "type": "Feature",
      "id": "way/1091705423",
      "properties": {
        "timestamp": "2024-07-16T19:48:47Z",
        "version": 2,
        "changeset": 154030895,
        "amenity": "school",
        "name": "CMEFTI Palmital",
        "id": "way/1091705423"
      },
      "geometry": {
        "type": "Polygon",
        "coordinates": [
          [
            [
              -40.0572021,
              -19.3708252
            ],
            [
              -40.0570797,
              -19.3710226
            ],
            [
              -40.0569397,
              -19.3712517
            ],
            [
              -40.056028,
              -19.3707519
            ],
            [
              -40.056291,
              -19.3703253
            ],
            [
              -40.0572021,
              -19.3708252
            ]
          ]
        ]
      }
    },
    {
      "type": "Feature",
      "id": "way/1123950153",
      "properties": {
        "timestamp": "2023-01-01T10:20:47Z",
        "version": 2,
        "changeset": 130742197,
        "amenity": "school",
        "brand": "Maple Bear",
        "brand:wikidata": "Q10324823",
        "name": "Maple Bear Linhares",
        "operator:type": "private",
        "id": "way/1123950153"
      },
      "geometry": {
        "type": "Polygon",
        "coordinates": [
          [
            [
              -40.0715981,
              -19.3643602
            ],
            [
              -40.0707398,
              -19.3639503
            ],
            [
              -40.0710536,
              -19.3632139
            ],
            [
              -40.0717965,
              -19.3638288
            ],
            [
              -40.0715981,
              -19.3643602
            ]
          ]
        ]
      }
    },
    {
      "type": "Feature",
      "id": "way/1128072839",
      "properties": {
        "timestamp": "2024-07-15T21:25:23Z",
        "version": 3,
        "changeset": 153990239,
        "addr:city": "Linhares",
        "addr:country": "BR",
        "addr:postcode": "29911-020",
        "addr:state": "ES",
        "addr:street": "Avenida João Soprani",
        "addr:suburb": "Farias",
        "alt_name": "EMEF Professora Efigênia Sizenando",
        "amenity": "school",
        "classeCnae": "Fundamental",
        "contact:phone": "+55 27 3274 6090;+55 27 3274 6090",
        "name": "EMEF Profª Efigênia Sizenando",
        "operator": "Município de Linhares",
        "operator:type": "public",
        "source": "IJSN",
        "id": "way/1128072839"
      },
      "geometry": {
        "type": "Polygon",
        "coordinates": [
          [
            [
              -40.0387318,
              -19.2633251
            ],
            [
              -40.0384159,
              -19.2635958
            ],
            [
              -40.0379926,
              -19.2631555
            ],
            [
              -40.0383085,
              -19.2628849
            ],
            [
              -40.0387318,
              -19.2633251
            ]
          ]
        ]
      }
    },
    {
      "type": "Feature",
      "id": "way/1301636486",
      "properties": {
        "timestamp": "2024-07-15T23:49:23Z",
        "version": 1,
        "changeset": 153993204,
        "amenity": "school",
        "name": "EEEF José de Caldas Brito",
        "id": "way/1301636486"
      },
      "geometry": {
        "type": "Polygon",
        "coordinates": [
          [
            [
              -40.0612542,
              -19.3971151
            ],
            [
              -40.0608531,
              -19.3978188
            ],
            [
              -40.0598643,
              -19.3973347
            ],
            [
              -40.0602543,
              -19.3966257
            ],
            [
              -40.0612542,
              -19.3971151
            ]
          ]
        ]
      }
    },
    {
      "type": "Feature",
      "id": "node/2101327068",
      "properties": {
        "timestamp": "2019-07-11T17:33:19Z",
        "version": 4,
        "changeset": 72146221,
        "addr:city": "Linhares",
        "addr:country": "BR",
        "addr:place": "Pontal do Ipiranga",
        "addr:postcode": "29916-560",
        "addr:state": "ES",
        "addr:street": "Avenida Uranio",
        "alt_name": "Escola Municipal de Ensino Fundamental",
        "amenity": "school",
        "classeCnae": "Fundamental",
        "contact:phone": "+55 27 3274-5050;+55 27 3274-5089",
        "name": "EMEF Manoel Martins",
        "source": "IJSN",
        "id": "node/2101327068"
      },
      "geometry": {
        "type": "Point",
        "coordinates": [
          -39.7133555,
          -19.1905003
        ]
      }
    },
    {
      "type": "Feature",
      "id": "node/3726948099",
      "properties": {
        "timestamp": "2024-07-15T19:07:54Z",
        "version": 4,
        "changeset": 153986216,
        "addr:city": "Linhares",
        "addr:country": "BR",
        "addr:housenumber": "1513",
        "addr:place": "Centro",
        "addr:postcode": "29900-130",
        "addr:state": "ES",
        "addr:street": "Rua Professor Jones",
        "alt_name": "Centro Educacional",
        "amenity": "school",
        "classeCnae": "Infantil e Fundamental",
        "contact:phone": "(27) 3371-2265",
        "name": "Escola Nest - Núcleo Educacional Sociotransformador",
        "source": "IJSN",
        "id": "node/3726948099"
      },
      "geometry": {
        "type": "Point",
        "coordinates": [
          -40.0680616,
          -19.405782
        ]
      }
    },
    {
      "type": "Feature",
      "id": "node/3726948101",
      "properties": {
        "timestamp": "2022-03-31T22:28:09Z",
        "version": 3,
        "changeset": 119179503,
        "IJSN:classeCnae": "Fundamental e Médio",
        "addr:city": "Linhares",
        "addr:place": "Centro",
        "addr:postcode": "29901-160",
        "addr:street": "Rua Monsenhor Pedrinha",
        "alt_name": "Centros Estaduais de Educação de Jovens e Adultos",
        "amenity": "school",
        "contact:phone": "(27) 3371-0179",
        "name": "CEEJA de Linhares",
        "source": "IJSN",
        "id": "node/3726948101"
      },
      "geometry": {
        "type": "Point",
        "coordinates": [
          -40.0666124,
          -19.4021728
        ]
      }
    },
    {
      "type": "Feature",
      "id": "node/3726948429",
      "properties": {
        "timestamp": "2016-03-09T19:11:54Z",
        "version": 2,
        "changeset": 37716865,
        "addr:city": "Linhares",
        "addr:country": "BR",
        "addr:place": "Comunidade Bagueira",
        "addr:postcode": "29915-000",
        "addr:state": "ES",
        "alt_name": "Centro Municipal de Educação Infantil e Ensino Fundamental",
        "amenity": "school",
        "classeCnae": "Infantil e Fundamental",
        "contact:phone": "(27) 3371-0655",
        "name": "CMEIEF Alcides Marinato",
        "source": "IJSN",
        "id": "node/3726948429"
      },
      "geometry": {
        "type": "Point",
        "coordinates": [
          -40.1848736,
          -19.3580219
        ]
      }
    },
    {
      "type": "Feature",
      "id": "node/3726948430",
      "properties": {
        "timestamp": "2016-03-09T19:11:55Z",
        "version": 2,
        "changeset": 37716865,
        "addr:city": "Linhares",
        "addr:country": "BR",
        "addr:housenumber": "396",
        "addr:place": "Aviso",
        "addr:postcode": "29901-290",
        "addr:state": "ES",
        "addr:street": "Avenida Filogonio Peixoto",
        "alt_name": "Centro de Atividades",
        "amenity": "school",
        "classeCnae": "Infantil, Fundamental e Médio",
        "contact:phone": "(27) 3264-1310",
        "name": "Centro de Atividade Eurico de Aguiar Salles",
        "source": "IJSN",
        "id": "node/3726948430"
      },
      "geometry": {
        "type": "Point",
        "coordinates": [
          -40.0583683,
          -19.4066284
        ]
      }
    },
    {
      "type": "Feature",
      "id": "node/3726948432",
      "properties": {
        "timestamp": "2022-04-11T00:24:09Z",
        "version": 2,
        "changeset": 119554502,
        "addr:city": "Linhares",
        "addr:housenumber": "1458",
        "addr:place": "Araçá",
        "addr:postcode": "29901-396",
        "addr:street": "Avenida São Mateus",
        "amenity": "school",
        "classeCnae": "Infantil, Fundamental e Médio",
        "contact:phone": "(27) 2103-7205",
        "name": "Colégio Cristo Rei",
        "source": "IJSN",
        "id": "node/3726948432"
      },
      "geometry": {
        "type": "Point",
        "coordinates": [
          -40.0613181,
          -19.3972546
        ]
      }
    },
    {
      "type": "Feature",
      "id": "node/3726948437",
      "properties": {
        "timestamp": "2016-03-09T19:12:06Z",
        "version": 2,
        "changeset": 37716865,
        "addr:city": "Linhares",
        "addr:country": "BR",
        "addr:housenumber": "1488",
        "addr:place": "Comunidade Bebedouro",
        "addr:postcode": "29915-000",
        "addr:state": "ES",
        "addr:street": "Avenida Benevenuto Zorzanelli",
        "alt_name": "Escola Estadual de Ensino Fundamental",
        "amenity": "school",
        "classeCnae": "Fundamental",
        "contact:phone": "(27) 3373-0137 / 3373-0031 / 3373-0137",
        "name": "EEEF Professor Manoel Abreu",
        "source": "IJSN",
        "id": "node/3726948437"
      },
      "geometry": {
        "type": "Point",
        "coordinates": [
          -40.1169521,
          -19.4758493
        ]
      }
    },
    {
      "type": "Feature",
      "id": "node/3726948438",
      "properties": {
        "timestamp": "2016-03-09T19:12:07Z",
        "version": 2,
        "changeset": 37716865,
        "addr:city": "Linhares",
        "addr:country": "BR",
        "addr:housenumber": "240",
        "addr:place": "Centro",
        "addr:postcode": "29905-360",
        "addr:state": "ES",
        "addr:street": "Rua Dinorah Almeida Rodrigues",
        "alt_name": "Escola Estadual de Ensino Fundamental",
        "amenity": "school",
        "classeCnae": "Fundamental",
        "contact:phone": "(27) 3373-1563 / 3373-2122 / 3373-1563",
        "name": "EEEF Professora Regina Banhos Paixão",
        "source": "IJSN",
        "id": "node/3726948438"
      },
      "geometry": {
        "type": "Point",
        "coordinates": [
          -40.0523726,
          -19.3599166
        ]
      }
    },
    {
      "type": "Feature",
      "id": "node/3726948439",
      "properties": {
        "timestamp": "2016-03-09T19:12:08Z",
        "version": 2,
        "changeset": 37716865,
        "addr:city": "Linhares",
        "addr:country": "BR",
        "addr:place": "Comunidade Regência",
        "addr:postcode": "29900-000",
        "addr:state": "ES",
        "alt_name": "Escola Estadual de Ensino Fundamental",
        "amenity": "school",
        "classeCnae": "Fundamental",
        "name": "EEEF Vila Regência",
        "source": "IJSN",
        "id": "node/3726948439"
      },
      "geometry": {
        "type": "Point",
        "coordinates": [
          -39.826431,
          -19.6460845
        ]
      }
    },
    {
      "type": "Feature",
      "id": "node/3726948440",
      "properties": {
        "timestamp": "2016-03-09T19:12:10Z",
        "version": 2,
        "changeset": 37716865,
        "addr:city": "Linhares",
        "addr:country": "BR",
        "addr:housenumber": "386",
        "addr:place": "Comunidade Baixo Quartel",
        "addr:postcode": "29915-510",
        "addr:state": "ES",
        "addr:street": "Rodovia Lagoa do Aguiar",
        "alt_name": "Escola Estadual de Ensino Fundamental e Médio",
        "amenity": "school",
        "classeCnae": "Fundamental",
        "contact:phone": "(27) 9974-2277 / 3371-0136",
        "name": "EEEFM Baixo Quartel",
        "source": "IJSN",
        "id": "node/3726948440"
      },
      "geometry": {
        "type": "Point",
        "coordinates": [
          -40.0891576,
          -19.5413585
        ]
      }
    },
    {
      "type": "Feature",
      "id": "node/3726948442",
      "properties": {
        "timestamp": "2016-03-09T19:12:14Z",
        "version": 2,
        "changeset": 37716865,
        "addr:city": "Linhares",
        "addr:country": "BR",
        "addr:housenumber": "11",
        "addr:place": "Comunidade São Rafael",
        "addr:postcode": "29918-000",
        "addr:state": "ES",
        "addr:street": "Avenida Principal",
        "alt_name": "Escola Estadual de Ensino Fundamental e Médio",
        "amenity": "school",
        "classeCnae": "Fundamental e Médio",
        "contact:phone": "(27) 3274-3108",
        "name": "EEEFM Manoel Salustiano de Souza",
        "source": "IJSN",
        "id": "node/3726948442"
      },
      "geometry": {
        "type": "Point",
        "coordinates": [
          -40.4475193,
          -19.369185
        ]
      }
    },
    {
      "type": "Feature",
      "id": "node/3726948445",
      "properties": {
        "timestamp": "2016-03-09T19:12:25Z",
        "version": 2,
        "changeset": 37716865,
        "addr:city": "Linhares",
        "addr:country": "BR",
        "addr:housenumber": "5",
        "addr:place": "Chapadão das Palminhas",
        "addr:postcode": "29900-170",
        "addr:state": "ES",
        "alt_name": "Escola Estadual Pluridocente de Ensino Fundamental",
        "amenity": "school",
        "classeCnae": "Fundamental",
        "contact:phone": "(27) 3373-4544",
        "name": "EEPEF Boa Esperança",
        "source": "IJSN",
        "id": "node/3726948445"
      },
      "geometry": {
        "type": "Point",
        "coordinates": [
          -40.2215608,
          -19.4182817
        ]
      }
    },
    {
      "type": "Feature",
      "id": "node/3726948446",
      "properties": {
        "timestamp": "2016-03-09T19:12:26Z",
        "version": 2,
        "changeset": 37716865,
        "addr:city": "Linhares",
        "addr:country": "BR",
        "addr:housenumber": "114",
        "addr:place": "Comunidade Córrego Japira",
        "addr:postcode": "29918-000",
        "addr:state": "ES",
        "alt_name": "Escola Estadual Pluridocente de Ensino Fundamental",
        "amenity": "school",
        "classeCnae": "Fundamental",
        "contact:phone": "(27) 3373-4544",
        "name": "EEPEF Córrego Japira",
        "source": "IJSN",
        "id": "node/3726948446"
      },
      "geometry": {
        "type": "Point",
        "coordinates": [
          -40.3264655,
          -19.4026502
        ]
      }
    },
    {
      "type": "Feature",
      "id": "node/3726948447",
      "properties": {
        "timestamp": "2016-03-09T19:12:26Z",
        "version": 2,
        "changeset": 37716865,
        "addr:city": "Linhares",
        "addr:country": "BR",
        "addr:housenumber": "66",
        "addr:place": "Comunidade Três Marias",
        "addr:postcode": "29918-000",
        "addr:state": "ES",
        "alt_name": "Escola Estadual Pluridocente de Ensino Fundamental",
        "amenity": "school",
        "classeCnae": "Fundamental",
        "contact:phone": "(27) 3373-4544",
        "name": "EEPEF Fazenda Três Marias",
        "source": "IJSN",
        "id": "node/3726948447"
      },
      "geometry": {
        "type": "Point",
        "coordinates": [
          -40.1779298,
          -19.4465622
        ]
      }
    },
    {
      "type": "Feature",
      "id": "node/3726948448",
      "properties": {
        "timestamp": "2016-03-09T19:12:26Z",
        "version": 2,
        "changeset": 37716865,
        "addr:city": "Linhares",
        "addr:country": "BR",
        "addr:housenumber": "32",
        "addr:place": "Perobas",
        "addr:postcode": "29916-000",
        "addr:state": "ES",
        "addr:street": "Rua Bebedouro",
        "alt_name": "Escola Estadual Pluridocente de Ensino Fundamental",
        "amenity": "school",
        "classeCnae": "Fundamental",
        "contact:phone": "(27) 3373-4544",
        "name": "EEPEF Florentino Rodrigues Batista",
        "source": "IJSN",
        "id": "node/3726948448"
      },
      "geometry": {
        "type": "Point",
        "coordinates": [
          -40.0337527,
          -19.4896718
        ]
      }
    },
    {
      "type": "Feature",
      "id": "node/3726948449",
      "properties": {
        "timestamp": "2016-03-09T19:12:27Z",
        "version": 2,
        "changeset": 37716865,
        "addr:city": "Linhares",
        "addr:country": "BR",
        "addr:place": "Comunidade Terra Alta de Japira",
        "addr:postcode": "29918-000",
        "addr:state": "ES",
        "alt_name": "Escola Estadual Pluridocente de Ensino Fundamental",
        "amenity": "school",
        "classeCnae": "Fundamental",
        "name": "EEPEF Nossa Senhora do Bom Parto",
        "source": "IJSN",
        "id": "node/3726948449"
      },
      "geometry": {
        "type": "Point",
        "coordinates": [
          -40.4081648,
          -19.4324395
        ]
      }
    },
    {
      "type": "Feature",
      "id": "node/3726948450",
      "properties": {
        "timestamp": "2016-03-09T19:12:27Z",
        "version": 2,
        "changeset": 37716865,
        "addr:city": "Linhares",
        "addr:country": "BR",
        "addr:housenumber": "36",
        "addr:place": "Comunidade Perobas",
        "addr:postcode": "29900-000",
        "addr:state": "ES",
        "alt_name": "Escola Estadual Pluridocente de Ensino Fundamental",
        "amenity": "school",
        "classeCnae": "Fundamental",
        "contact:phone": "(27) 3373-4544",
        "name": "EEPEF Palhal",
        "source": "IJSN",
        "id": "node/3726948450"
      },
      "geometry": {
        "type": "Point",
        "coordinates": [
          -40.0452252,
          -19.5080525
        ]
      }
    },
    {
      "type": "Feature",
      "id": "node/3726948451",
      "properties": {
        "timestamp": "2016-03-09T19:12:27Z",
        "version": 2,
        "changeset": 37716865,
        "addr:city": "Linhares",
        "addr:country": "BR",
        "addr:housenumber": "7",
        "addr:place": "Comunidade Humaitá",
        "addr:postcode": "29918-000",
        "addr:state": "ES",
        "addr:street": "Rua Patrimônio do Humaitá",
        "alt_name": "Escola Estadual Pluridocente de Ensino Fundamental",
        "amenity": "school",
        "classeCnae": "Fundamental",
        "contact:phone": "(27) 3373-4544",
        "name": "EEPEF Patrimônio do Humaitá",
        "source": "IJSN",
        "id": "node/3726948451"
      },
      "geometry": {
        "type": "Point",
        "coordinates": [
          -40.3564613,
          -19.5086565
        ]
      }
    },
    {
      "type": "Feature",
      "id": "node/3726948452",
      "properties": {
        "timestamp": "2016-03-09T19:12:27Z",
        "version": 2,
        "changeset": 37716865,
        "addr:city": "Linhares",
        "addr:country": "BR",
        "addr:housenumber": "8",
        "addr:place": "Bebedouro",
        "addr:postcode": "29916-000",
        "addr:state": "ES",
        "alt_name": "Escola Estadual Pluridocente de Ensino Fundamental",
        "amenity": "school",
        "classeCnae": "Fundamental",
        "contact:phone": "(27) 3373-4544",
        "name": "EEPEF Rio Quartel",
        "source": "IJSN",
        "id": "node/3726948452"
      },
      "geometry": {
        "type": "Point",
        "coordinates": [
          -40.1713371,
          -19.5328039
        ]
      }
    },
    {
      "type": "Feature",
      "id": "node/3726948453",
      "properties": {
        "timestamp": "2016-03-09T19:12:28Z",
        "version": 2,
        "changeset": 37716865,
        "addr:city": "Linhares",
        "addr:country": "BR",
        "addr:place": "Comunidade São Sebastião",
        "addr:postcode": "29918-000",
        "addr:state": "ES",
        "alt_name": "Escola Estadual Pluridocente de Ensino Fundamental",
        "amenity": "school",
        "classeCnae": "Fundamental",
        "name": "EEPEF Terra Alta",
        "source": "IJSN",
        "id": "node/3726948453"
      },
      "geometry": {
        "type": "Point",
        "coordinates": [
          -40.3830275,
          -19.4438778
        ]
      }
    },
    {
      "type": "Feature",
      "id": "node/3726948454",
      "properties": {
        "timestamp": "2016-03-09T19:12:29Z",
        "version": 2,
        "changeset": 37716865,
        "addr:city": "Linhares",
        "addr:country": "BR",
        "addr:place": "Comunidade Humaitá",
        "addr:postcode": "29918-000",
        "addr:state": "ES",
        "alt_name": "Escola Estadual Unidocente de Ensino Fundamental",
        "amenity": "school",
        "classeCnae": "Fundamental",
        "name": "EEUEF Cabeceira do Pau Grosso",
        "source": "IJSN",
        "id": "node/3726948454"
      },
      "geometry": {
        "type": "Point",
        "coordinates": [
          -40.3877165,
          -19.5129025
        ]
      }
    },
    {
      "type": "Feature",
      "id": "node/3726948455",
      "properties": {
        "timestamp": "2016-03-09T19:12:29Z",
        "version": 2,
        "changeset": 37716865,
        "addr:city": "Linhares",
        "addr:country": "BR",
        "addr:place": "Córrego São Francisco",
        "addr:postcode": "29918-000",
        "addr:state": "ES",
        "alt_name": "Escola Estadual Unidocente de Ensino Fundamental",
        "amenity": "school",
        "classeCnae": "Fundamental",
        "name": "EEUEF Córrego Doutor Jones",
        "source": "IJSN",
        "id": "node/3726948455"
      },
      "geometry": {
        "type": "Point",
        "coordinates": [
          -40.319686,
          -19.4235812
        ]
      }
    },
    {
      "type": "Feature",
      "id": "node/3726948456",
      "properties": {
        "timestamp": "2016-03-09T19:12:30Z",
        "version": 2,
        "changeset": 37716865,
        "addr:city": "Linhares",
        "addr:country": "BR",
        "addr:place": "Comunidade Chapadão das Palminhas",
        "addr:postcode": "29918-000",
        "addr:state": "ES",
        "alt_name": "Escola Estadual Unidocente de Ensino Fundamental",
        "amenity": "school",
        "classeCnae": "Fundamental",
        "name": "EEUEF Córrego São Pedro",
        "source": "IJSN",
        "id": "node/3726948456"
      },
      "geometry": {
        "type": "Point",
        "coordinates": [
          -40.3062232,
          -19.4084761
        ]
      }
    },
    {
      "type": "Feature",
      "id": "node/3726948457",
      "properties": {
        "timestamp": "2016-03-09T19:12:30Z",
        "version": 2,
        "changeset": 37716865,
        "addr:city": "Linhares",
        "addr:country": "BR",
        "addr:housenumber": "6",
        "addr:place": "São Rafael",
        "addr:postcode": "29918-000",
        "addr:state": "ES",
        "addr:street": "Córrego do Meio",
        "alt_name": "Escola Estadual Unidocente de Ensino Fundamental",
        "amenity": "school",
        "classeCnae": "Fundamental",
        "contact:phone": "(27) 3373-5907",
        "name": "EEUEF Córrego do Meio",
        "source": "IJSN",
        "id": "node/3726948457"
      },
      "geometry": {
        "type": "Point",
        "coordinates": [
          -40.3948373,
          -19.4746538
        ]
      }
    },
    {
      "type": "Feature",
      "id": "node/3726948458",
      "properties": {
        "timestamp": "2016-03-09T19:12:30Z",
        "version": 2,
        "changeset": 37716865,
        "addr:city": "Linhares",
        "addr:country": "BR",
        "addr:place": "Comunidade Ribeirão das Palmas",
        "addr:postcode": "29918-000",
        "addr:state": "ES",
        "alt_name": "Escola Estadual Unidocente de Ensino Fundamental",
        "amenity": "school",
        "classeCnae": "Fundamental",
        "name": "EEUEF Ema Sartório Biancardi",
        "source": "IJSN",
        "id": "node/3726948458"
      },
      "geometry": {
        "type": "Point",
        "coordinates": [
          -40.3701571,
          -19.4073843
        ]
      }
    },
    {
      "type": "Feature",
      "id": "node/3726948459",
      "properties": {
        "timestamp": "2016-03-09T19:12:30Z",
        "version": 2,
        "changeset": 37716865,
        "addr:city": "Linhares",
        "addr:country": "BR",
        "addr:place": "Comunidade Poção",
        "addr:postcode": "29900-000",
        "addr:state": "ES",
        "alt_name": "Escola Estadual Unidocente de Ensino Fundamental",
        "amenity": "school",
        "classeCnae": "Fundamental",
        "name": "EEUEF Fazenda Poção",
        "source": "IJSN",
        "id": "node/3726948459"
      },
      "geometry": {
        "type": "Point",
        "coordinates": [
          -40.1828108,
          -19.4882599
        ]
      }
    },
    {
      "type": "Feature",
      "id": "node/3726948460",
      "properties": {
        "timestamp": "2016-03-09T19:12:31Z",
        "version": 2,
        "changeset": 37716865,
        "addr:city": "Linhares",
        "addr:country": "BR",
        "addr:place": "Comunidade Bugrinha",
        "addr:postcode": "29900-010",
        "addr:state": "ES",
        "addr:street": "Fazenda Riachuelo",
        "alt_name": "Escola Estadual Unidocente de Ensino Fundamental",
        "amenity": "school",
        "classeCnae": "Fundamental",
        "contact:phone": "(27) 3373-4544",
        "name": "EEUEF Fazenda Riachuelo",
        "source": "IJSN",
        "id": "node/3726948460"
      },
      "geometry": {
        "type": "Point",
        "coordinates": [
          -40.0953149,
          -19.4260502
        ]
      }
    },
    {
      "type": "Feature",
      "id": "node/3726948461",
      "properties": {
        "timestamp": "2016-03-09T19:12:31Z",
        "version": 2,
        "changeset": 37716865,
        "addr:city": "Linhares",
        "addr:country": "BR",
        "addr:place": "Comunidade Petrolândia",
        "addr:postcode": "29918-000",
        "addr:state": "ES",
        "alt_name": "Escola Estadual Unidocente de Ensino Fundamental",
        "amenity": "school",
        "classeCnae": "Fundamental",
        "name": "EEUEF Francisco Polese Primo",
        "source": "IJSN",
        "id": "node/3726948461"
      },
      "geometry": {
        "type": "Point",
        "coordinates": [
          -40.4059488,
          -19.4860215
        ]
      }
    },
    {
      "type": "Feature",
      "id": "node/3726948462",
      "properties": {
        "timestamp": "2016-03-09T19:12:31Z",
        "version": 2,
        "changeset": 37716865,
        "addr:city": "Linhares",
        "addr:country": "BR",
        "addr:housenumber": "4",
        "addr:place": "Jataipeba",
        "addr:postcode": "29916-000",
        "addr:state": "ES",
        "addr:street": "Rua Jataipeba-bebedouro",
        "alt_name": "Escola Estadual Unidocente de Ensino Fundamental",
        "amenity": "school",
        "classeCnae": "Fundamental",
        "contact:phone": "(27) 3373-4544",
        "name": "EEUEF Jataipeba",
        "source": "IJSN",
        "id": "node/3726948462"
      },
      "geometry": {
        "type": "Point",
        "coordinates": [
          -40.064719,
          -19.4346751
        ]
      }
    },
    {
      "type": "Feature",
      "id": "node/3726948463",
      "properties": {
        "timestamp": "2016-03-09T19:12:31Z",
        "version": 2,
        "changeset": 37716865,
        "addr:city": "Linhares",
        "addr:country": "BR",
        "addr:place": "Comunidade Córrego Japira",
        "addr:postcode": "29918-000",
        "addr:state": "ES",
        "alt_name": "Escola Estadual Unidocente de Ensino Fundamental",
        "amenity": "school",
        "classeCnae": "Fundamental",
        "name": "EEUEF Lagoa das Palmas",
        "source": "IJSN",
        "id": "node/3726948463"
      },
      "geometry": {
        "type": "Point",
        "coordinates": [
          -40.3023361,
          -19.3831598
        ]
      }
    },
    {
      "type": "Feature",
      "id": "node/3726948464",
      "properties": {
        "timestamp": "2016-03-09T19:12:32Z",
        "version": 2,
        "changeset": 37716865,
        "addr:city": "Linhares",
        "addr:country": "BR",
        "addr:place": "Assentamento Fazenda Aliança",
        "addr:postcode": "29900-000",
        "addr:state": "ES",
        "addr:street": "Rodovia ES 248",
        "alt_name": "Escola Estadual Unidocente de Ensino Fundamental",
        "amenity": "school",
        "classeCnae": "Fundamental",
        "name": "EEUEF Paulo Damião Tristão Purinha",
        "source": "IJSN",
        "id": "node/3726948464"
      },
      "geometry": {
        "type": "Point",
        "coordinates": [
          -40.2918127,
          -19.4843991
        ]
      }
    },
    {
      "type": "Feature",
      "id": "node/3726948465",
      "properties": {
        "timestamp": "2016-03-09T19:12:32Z",
        "version": 2,
        "changeset": 37716865,
        "addr:city": "Linhares",
        "addr:country": "BR",
        "addr:place": "Comunidade Bebedouro",
        "addr:postcode": "29900-010",
        "addr:state": "ES",
        "addr:street": "Fazenda Piraque",
        "alt_name": "Escola Estadual Unidocente de Ensino Fundamental",
        "amenity": "school",
        "classeCnae": "Fundamental",
        "contact:phone": "(27) 3373-4544",
        "name": "EEUEF Prefeito Antenor Elias",
        "source": "IJSN",
        "id": "node/3726948465"
      },
      "geometry": {
        "type": "Point",
        "coordinates": [
          -40.1150279,
          -19.4398996
        ]
      }
    },
    {
      "type": "Feature",
      "id": "node/3726948467",
      "properties": {
        "timestamp": "2016-03-09T19:12:33Z",
        "version": 2,
        "changeset": 37716865,
        "addr:city": "Linhares",
        "addr:country": "BR",
        "addr:housenumber": "14",
        "addr:place": "Comunidade São Hirário",
        "addr:postcode": "29900-170",
        "addr:state": "ES",
        "addr:street": "Rua São Hirário",
        "alt_name": "Escola Estadual Unidocente de Ensino Fundamental",
        "amenity": "school",
        "classeCnae": "Fundamental",
        "contact:phone": "(27) 3373-4544",
        "name": "EEUEF Santo Hilário",
        "source": "IJSN",
        "id": "node/3726948467"
      },
      "geometry": {
        "type": "Point",
        "coordinates": [
          -40.2613758,
          -19.3855131
        ]
      }
    },
    {
      "type": "Feature",
      "id": "node/3726948468",
      "properties": {
        "timestamp": "2016-03-09T19:12:33Z",
        "version": 2,
        "changeset": 37716865,
        "addr:city": "Linhares",
        "addr:country": "BR",
        "addr:place": "Comunidade Santa Cruz",
        "addr:postcode": "29918-000",
        "addr:state": "ES",
        "alt_name": "Escola Estadual Unidocente de Ensino Fundamental",
        "amenity": "school",
        "classeCnae": "Fundamental",
        "name": "EEUEF São Cristovão",
        "source": "IJSN",
        "id": "node/3726948468"
      },
      "geometry": {
        "type": "Point",
        "coordinates": [
          -40.4428955,
          -19.3334529
        ]
      }
    },
    {
      "type": "Feature",
      "id": "node/3726948469",
      "properties": {
        "timestamp": "2016-03-09T19:12:33Z",
        "version": 2,
        "changeset": 37716865,
        "addr:city": "Linhares",
        "addr:country": "BR",
        "addr:housenumber": "5",
        "addr:place": "Comunidade São João da Terra Alta",
        "addr:postcode": "29918-000",
        "addr:state": "ES",
        "addr:street": "Rua São João da Terra Alta",
        "alt_name": "Escola Estadual Unidocente de Ensino Fundamental",
        "amenity": "school",
        "classeCnae": "Fundamental",
        "contact:phone": "(27) 3373-4544",
        "name": "EEUEF São João da Terra Alta",
        "source": "IJSN",
        "id": "node/3726948469"
      },
      "geometry": {
        "type": "Point",
        "coordinates": [
          -40.4677472,
          -19.3090568
        ]
      }
    },
    {
      "type": "Feature",
      "id": "node/3726948470",
      "properties": {
        "timestamp": "2016-03-09T19:12:34Z",
        "version": 2,
        "changeset": 37716865,
        "addr:city": "Linhares",
        "addr:country": "BR",
        "addr:housenumber": "5",
        "addr:place": "São Rafael",
        "addr:postcode": "29918-000",
        "addr:state": "ES",
        "addr:street": "Rua São Judas Tadeu",
        "alt_name": "Escola Estadual Unidocente de Ensino Fundamental",
        "amenity": "school",
        "classeCnae": "Fundamental",
        "contact:phone": "(27) 3373-4544",
        "name": "EEUEF São Judas Tadeu",
        "source": "IJSN",
        "id": "node/3726948470"
      },
      "geometry": {
        "type": "Point",
        "coordinates": [
          -40.4884166,
          -19.3534882
        ]
      }
    },
    {
      "type": "Feature",
      "id": "node/3726948471",
      "properties": {
        "timestamp": "2016-03-09T19:12:51Z",
        "version": 2,
        "changeset": 37716865,
        "addr:city": "Linhares",
        "addr:country": "BR",
        "addr:place": "Interlagos",
        "addr:postcode": "29903-170",
        "addr:state": "ES",
        "addr:street": "Rua Antônio Fernandes Almeida",
        "alt_name": "Escola Municipal de Ensino Fundamental",
        "amenity": "school",
        "classeCnae": "Fundamental",
        "contact:phone": "(27) 3373-3236 / 3371-4287",
        "name": "EMEF Antônio Fernandes de Almeida",
        "source": "IJSN",
        "id": "node/3726948471"
      },
      "geometry": {
        "type": "Point",
        "coordinates": [
          -40.0437445,
          -19.399411
        ]
      }
    },
    {
      "type": "Feature",
      "id": "node/3726948474",
      "properties": {
        "timestamp": "2022-04-10T18:45:26Z",
        "version": 3,
        "changeset": 119547289,
        "addr:city": "Linhares",
        "addr:country": "BR",
        "addr:place": "Canivete",
        "addr:postcode": "29909-260",
        "addr:state": "ES",
        "addr:street": "Avenida Arlindo Gama",
        "alt_name": "Escola Municipal de Ensino Fundamental",
        "amenity": "school",
        "classeCnae": "Fundamental",
        "contact:phone": "(27) 3373-8042",
        "name": "EMEF José Modeneze",
        "source": "IJSN",
        "id": "node/3726948474"
      },
      "geometry": {
        "type": "Point",
        "coordinates": [
          -40.0710775,
          -19.3211879
        ]
      }
    },
    {
      "type": "Feature",
      "id": "node/3726948475",
      "properties": {
        "timestamp": "2016-03-09T19:13:08Z",
        "version": 2,
        "changeset": 37716865,
        "addr:city": "Linhares",
        "addr:country": "BR",
        "addr:place": "Comunidade Canto da Onça",
        "addr:postcode": "29905-983",
        "addr:state": "ES",
        "addr:street": "Rua Principal",
        "alt_name": "Escola Municipal de Ensino Fundamental",
        "amenity": "school",
        "classeCnae": "Fundamental",
        "contact:phone": "(27) 3274-7033 / 3274-7000",
        "name": "EMEF Orozimbo Leite",
        "source": "IJSN",
        "id": "node/3726948475"
      },
      "geometry": {
        "type": "Point",
        "coordinates": [
          -40.1346174,
          -19.2517058
        ]
      }
    },
    {
      "type": "Feature",
      "id": "node/3726948479",
      "properties": {
        "timestamp": "2016-03-09T19:13:11Z",
        "version": 2,
        "changeset": 37716865,
        "addr:city": "Linhares",
        "addr:country": "BR",
        "addr:housenumber": "595",
        "addr:place": "Comunidade Bebedouro",
        "addr:postcode": "29915-115",
        "addr:state": "ES",
        "addr:street": "Avenida Benevenuto Zorzanelli",
        "alt_name": "Escola Municipal de Ensino Fundamental",
        "amenity": "school",
        "classeCnae": "Fundamental",
        "contact:phone": "(27) 3373-0239",
        "name": "EMEF Professora Eliana Correa Pinafo",
        "source": "IJSN",
        "id": "node/3726948479"
      },
      "geometry": {
        "type": "Point",
        "coordinates": [
          -40.1130072,
          -19.4661883
        ]
      }
    },
    {
      "type": "Feature",
      "id": "node/3726948482",
      "properties": {
        "timestamp": "2016-03-09T19:13:12Z",
        "version": 2,
        "changeset": 37716865,
        "addr:city": "Linhares",
        "addr:country": "BR",
        "addr:place": "Comunidade Povoação",
        "addr:postcode": "29900-000",
        "addr:state": "ES",
        "addr:street": "Avenida Caboclo Bernardo",
        "alt_name": "Escola Municipal de Ensino Fundamental",
        "amenity": "school",
        "classeCnae": "Fundamental",
        "name": "EMEF Professora Urbana Penha Costa",
        "source": "IJSN",
        "id": "node/3726948482"
      },
      "geometry": {
        "type": "Point",
        "coordinates": [
          -39.7940311,
          -19.5779171
        ]
      }
    },
    {
      "type": "Feature",
      "id": "node/3726948485",
      "properties": {
        "timestamp": "2024-07-16T19:48:47Z",
        "version": 3,
        "changeset": 154030895,
        "addr:city": "Linhares",
        "addr:country": "BR",
        "addr:housenumber": "527",
        "addr:place": "Palmital",
        "addr:postcode": "29916-000",
        "addr:state": "ES",
        "addr:street": "Avenida Manoel Bandeira",
        "alt_name": "Escola Municipal de Ensino Fundamental",
        "amenity": "school",
        "classeCnae": "Fundamental",
        "contact:phone": "(27) 3373-6599 / 3373-1398",
        "name": "EMEF Talma Drumond Pestana",
        "source": "IJSN",
        "id": "node/3726948485"
      },
      "geometry": {
        "type": "Point",
        "coordinates": [
          -40.0585832,
          -19.3723965
        ]
      }
    },
    {
      "type": "Feature",
      "id": "node/3726948486",
      "properties": {
        "timestamp": "2022-05-03T14:24:37Z",
        "version": 3,
        "changeset": 120502371,
        "addr:city": "Linhares",
        "addr:country": "BR",
        "addr:place": "Santa Cruz",
        "addr:postcode": "29908-030",
        "addr:state": "ES",
        "addr:street": "Avenida Ademar Luiz Pianna",
        "alt_name": "Escola Municipal de Ensino Fundamental",
        "amenity": "school",
        "classeCnae": "Fundamental",
        "contact:phone": "(27) 3372-5200",
        "name": "EMEF Zeferino Batista Fiorot",
        "source": "IJSN",
        "id": "node/3726948486"
      },
      "geometry": {
        "type": "Point",
        "coordinates": [
          -40.0648917,
          -19.3364773
        ]
      }
    },
    {
      "type": "Feature",
      "id": "node/3726948487",
      "properties": {
        "timestamp": "2016-03-09T19:13:17Z",
        "version": 2,
        "changeset": 37716865,
        "addr:city": "Linhares",
        "addr:country": "BR",
        "addr:place": "Comunidade Reserva Florestal Goitacazes",
        "addr:postcode": "29900-000",
        "addr:state": "ES",
        "addr:street": "Rua Santa Luzia",
        "alt_name": "Escola Municipal de Ensino Fundamental",
        "amenity": "school",
        "classeCnae": "Fundamental",
        "contact:phone": "(27) 3373-0427",
        "name": "EMEF Ângelo Recla",
        "source": "IJSN",
        "id": "node/3726948487"
      },
      "geometry": {
        "type": "Point",
        "coordinates": [
          -40.148241,
          -19.5211389
        ]
      }
    },
    {
      "type": "Feature",
      "id": "node/3726948488",
      "properties": {
        "timestamp": "2022-03-26T18:23:52Z",
        "version": 3,
        "changeset": 118958188,
        "addr:city": "Linhares",
        "addr:country": "BR",
        "addr:place": "Desengano",
        "addr:postcode": "29916-000",
        "addr:state": "ES",
        "addr:street": "Rua do Cemitério",
        "addr:suburb": "Desengano",
        "alt_name": "Escola Pluridocente Municipal",
        "amenity": "school",
        "classeCnae": "Fundamental",
        "contact:phone": "(27) 3372-1917",
        "name": "EPM Bibiana Costa",
        "source": "IJSN",
        "id": "node/3726948488"
      },
      "geometry": {
        "type": "Point",
        "coordinates": [
          -40.3151064,
          -19.6284432
        ]
      }
    },
    {
      "type": "Feature",
      "id": "node/3726948491",
      "properties": {
        "timestamp": "2016-03-09T19:13:31Z",
        "version": 2,
        "changeset": 37716865,
        "addr:city": "Linhares",
        "addr:country": "BR",
        "addr:place": "Comunidade Paraíso",
        "addr:postcode": "29900-170",
        "addr:state": "ES",
        "alt_name": "Escola Unidocente Municipal",
        "amenity": "school",
        "classeCnae": "Fundamental",
        "contact:phone": "(27) 3372-1937",
        "name": "EUM Alcina Guimarães Pereira",
        "source": "IJSN",
        "id": "node/3726948491"
      },
      "geometry": {
        "type": "Point",
        "coordinates": [
          -39.9246061,
          -19.4424664
        ]
      }
    },
    {
      "type": "Feature",
      "id": "node/3726948492",
      "properties": {
        "timestamp": "2016-03-09T19:13:32Z",
        "version": 2,
        "changeset": 37716865,
        "addr:city": "Linhares",
        "addr:country": "BR",
        "addr:place": "Comunidade Regência",
        "addr:postcode": "29900-170",
        "addr:state": "ES",
        "alt_name": "Escola Unidocente Municipal",
        "amenity": "school",
        "classeCnae": "Infantil e Fundamental",
        "contact:phone": "(27) 3371-1917",
        "name": "EUM Areal",
        "source": "IJSN",
        "id": "node/3726948492"
      },
      "geometry": {
        "type": "Point",
        "coordinates": [
          -39.8291784,
          -19.5808838
        ]
      }
    },
    {
      "type": "Feature",
      "id": "node/3726948493",
      "properties": {
        "timestamp": "2016-03-09T19:13:32Z",
        "version": 2,
        "changeset": 37716865,
        "addr:city": "Linhares",
        "addr:country": "BR",
        "addr:place": "Comunidade São Hirário",
        "addr:postcode": "29900-000",
        "addr:state": "ES",
        "alt_name": "Escola Unidocente Municipal",
        "amenity": "school",
        "classeCnae": "Fundamental",
        "name": "EUM Arnaldo Bisi",
        "source": "IJSN",
        "id": "node/3726948493"
      },
      "geometry": {
        "type": "Point",
        "coordinates": [
          -40.2848547,
          -19.3811754
        ]
      }
    },
    {
      "type": "Feature",
      "id": "node/3726948494",
      "properties": {
        "timestamp": "2016-03-09T19:13:33Z",
        "version": 2,
        "changeset": 37716865,
        "addr:city": "Linhares",
        "addr:country": "BR",
        "addr:place": "Comunidade Barranco",
        "addr:postcode": "29900-170",
        "addr:state": "ES",
        "alt_name": "Escola Unidocente Municipal",
        "amenity": "school",
        "classeCnae": "Fundamental",
        "contact:phone": "(27) 3372-1937",
        "name": "EUM Campos Verdes",
        "source": "IJSN",
        "id": "node/3726948494"
      },
      "geometry": {
        "type": "Point",
        "coordinates": [
          -40.1819248,
          -19.4458597
        ]
      }
    },
    {
      "type": "Feature",
      "id": "node/3726948495",
      "properties": {
        "timestamp": "2016-03-09T19:13:34Z",
        "version": 2,
        "changeset": 37716865,
        "addr:city": "Linhares",
        "addr:country": "BR",
        "addr:place": "Comunidade São Francisco",
        "addr:postcode": "29900-170",
        "addr:state": "ES",
        "alt_name": "Escola Unidocente Municipal",
        "amenity": "school",
        "classeCnae": "Fundamental",
        "contact:phone": "(27) 3371-1917",
        "name": "EUM Córrego Piabanha",
        "source": "IJSN",
        "id": "node/3726948495"
      },
      "geometry": {
        "type": "Point",
        "coordinates": [
          -40.2758887,
          -19.4415732
        ]
      }
    },
    {
      "type": "Feature",
      "id": "node/3726948496",
      "properties": {
        "timestamp": "2023-01-08T13:39:40Z",
        "version": 4,
        "changeset": 131014926,
        "addr:city": "Linhares",
        "addr:country": "BR",
        "addr:place": "Comunidade Canto da Onça",
        "addr:postcode": "29900-170",
        "addr:state": "ES",
        "alt_name": "Escola Unidocente Municipal",
        "amenity": "school",
        "classeCnae": "Fundamental",
        "contact:phone": "(27) 3372-1937",
        "name": "EUM Córrego Polidório",
        "source": "IJSN",
        "id": "node/3726948496"
      },
      "geometry": {
        "type": "Point",
        "coordinates": [
          -40.0642267,
          -19.2534185
        ]
      }
    },
    {
      "type": "Feature",
      "id": "node/3726948497",
      "properties": {
        "timestamp": "2016-03-09T19:13:35Z",
        "version": 2,
        "changeset": 37716865,
        "addr:city": "Linhares",
        "addr:country": "BR",
        "addr:place": "Comunidade Santa Helena",
        "addr:postcode": "29900-170",
        "addr:state": "ES",
        "alt_name": "Escola Unidocente Municipal",
        "amenity": "school",
        "classeCnae": "Fundamental",
        "contact:phone": "(27) 9238-1012",
        "name": "EUM Fazenda Capixaba",
        "source": "IJSN",
        "id": "node/3726948497"
      },
      "geometry": {
        "type": "Point",
        "coordinates": [
          -39.8971438,
          -19.410929
        ]
      }
    },
    {
      "type": "Feature",
      "id": "node/3726948498",
      "properties": {
        "timestamp": "2016-03-09T19:13:35Z",
        "version": 2,
        "changeset": 37716865,
        "addr:city": "Linhares",
        "addr:country": "BR",
        "addr:place": "Comunidade Barra do Bananalzinho",
        "addr:postcode": "29900-170",
        "addr:state": "ES",
        "alt_name": "Escola Unidocente Municipal",
        "amenity": "school",
        "classeCnae": "Fundamental",
        "contact:phone": "(27) 3372-1937",
        "name": "EUM Fazenda Fornaciari",
        "source": "IJSN",
        "id": "node/3726948498"
      },
      "geometry": {
        "type": "Point",
        "coordinates": [
          -40.4292531,
          -19.2615652
        ]
      }
    },
    {
      "type": "Feature",
      "id": "node/3726948499",
      "properties": {
        "timestamp": "2016-03-09T19:13:36Z",
        "version": 2,
        "changeset": 37716865,
        "addr:city": "Linhares",
        "addr:country": "BR",
        "addr:place": "Comunidade Panorama",
        "addr:postcode": "29900-170",
        "addr:state": "ES",
        "alt_name": "Escola Unidocente Municipal",
        "amenity": "school",
        "classeCnae": "Fundamental",
        "contact:phone": "(27) 3372-1937",
        "name": "EUM Fazenda Paranina",
        "source": "IJSN",
        "id": "node/3726948499"
      },
      "geometry": {
        "type": "Point",
        "coordinates": [
          -39.9573936,
          -19.4535629
        ]
      }
    },
    {
      "type": "Feature",
      "id": "node/3726948500",
      "properties": {
        "timestamp": "2016-03-09T19:13:36Z",
        "version": 2,
        "changeset": 37716865,
        "addr:city": "Linhares",
        "addr:country": "BR",
        "addr:place": "Comunidade São Luís",
        "addr:postcode": "29900-170",
        "addr:state": "ES",
        "alt_name": "Escola Unidocente Municipal",
        "amenity": "school",
        "classeCnae": "Fundamental",
        "contact:phone": "(27) 3372-1937",
        "name": "EUM Fazenda Riachuelo",
        "source": "IJSN",
        "id": "node/3726948500"
      },
      "geometry": {
        "type": "Point",
        "coordinates": [
          -39.8636417,
          -19.4162306
        ]
      }
    },
    {
      "type": "Feature",
      "id": "node/3726948501",
      "properties": {
        "timestamp": "2016-03-09T19:13:36Z",
        "version": 2,
        "changeset": 37716865,
        "addr:city": "Linhares",
        "addr:country": "BR",
        "addr:place": "Comunidade São Luís",
        "addr:postcode": "29900-170",
        "addr:state": "ES",
        "alt_name": "Escola Unidocente Municipal",
        "amenity": "school",
        "classeCnae": "Fundamental",
        "contact:phone": "(27) 3372-1937",
        "name": "EUM Fazenda Thesouro",
        "source": "IJSN",
        "id": "node/3726948501"
      },
      "geometry": {
        "type": "Point",
        "coordinates": [
          -39.8509784,
          -19.4754929
        ]
      }
    },
    {
      "type": "Feature",
      "id": "node/3726948502",
      "properties": {
        "timestamp": "2016-03-09T19:13:37Z",
        "version": 2,
        "changeset": 37716865,
        "addr:city": "Linhares",
        "addr:country": "BR",
        "addr:place": "Comunidade Povoação",
        "addr:postcode": "29916-000",
        "addr:state": "ES",
        "alt_name": "Escola Unidocente Municipal",
        "amenity": "school",
        "classeCnae": "Fundamental",
        "contact:phone": "(27) 3372-1917",
        "name": "EUM Fazenda Zacarias",
        "source": "IJSN",
        "id": "node/3726948502"
      },
      "geometry": {
        "type": "Point",
        "coordinates": [
          -39.7486944,
          -19.46031
        ]
      }
    },
    {
      "type": "Feature",
      "id": "node/3726948503",
      "properties": {
        "timestamp": "2016-03-09T19:13:37Z",
        "version": 2,
        "changeset": 37716865,
        "addr:city": "Linhares",
        "addr:country": "BR",
        "addr:place": "Comunidade Panorama",
        "addr:postcode": "29900-000",
        "addr:state": "ES",
        "alt_name": "Escola Unidocente Municipal",
        "amenity": "school",
        "classeCnae": "Fundamental",
        "contact:phone": "(27) 3372-1937",
        "name": "EUM Maria Bonita",
        "source": "IJSN",
        "id": "node/3726948503"
      },
      "geometry": {
        "type": "Point",
        "coordinates": [
          -39.9260901,
          -19.4821017
        ]
      }
    },
    {
      "type": "Feature",
      "id": "node/3726948504",
      "properties": {
        "timestamp": "2016-03-09T19:13:38Z",
        "version": 2,
        "changeset": 37716865,
        "addr:city": "Linhares",
        "addr:country": "BR",
        "addr:housenumber": "8",
        "addr:place": "Comunidade Pontal do Ouro",
        "addr:postcode": "29900-170",
        "addr:state": "ES",
        "alt_name": "Escola Unidocente Municipal",
        "amenity": "school",
        "classeCnae": "Fundamental",
        "name": "EUM Pontal do Ouro",
        "source": "IJSN",
        "id": "node/3726948504"
      },
      "geometry": {
        "type": "Point",
        "coordinates": [
          -40.1703506,
          -19.2046249
        ]
      }
    },
    {
      "type": "Feature",
      "id": "node/3726948505",
      "properties": {
        "timestamp": "2016-03-09T19:13:38Z",
        "version": 2,
        "changeset": 37716865,
        "addr:city": "Linhares",
        "addr:country": "BR",
        "addr:place": "Comunidade Santa Helena",
        "addr:postcode": "29916-000",
        "addr:state": "ES",
        "alt_name": "Escola Unidocente Municipal",
        "amenity": "school",
        "classeCnae": "Fundamental",
        "name": "EUM Santa Rosa",
        "source": "IJSN",
        "id": "node/3726948505"
      },
      "geometry": {
        "type": "Point",
        "coordinates": [
          -39.909222,
          -19.3827287
        ]
      }
    },
    {
      "type": "Feature",
      "id": "node/4024904998",
      "properties": {
        "timestamp": "2023-01-12T18:34:29Z",
        "version": 5,
        "changeset": 131200379,
        "IJSN:administra": "Estadual",
        "IJSN:classeCnae": "Fundamental",
        "addr:city": "Sooretama",
        "addr:postcode": "29927-000",
        "addr:street": "Rodovia Governador Mário Covas",
        "addr:suburb": "Córrego da Água",
        "alt_name": "EEPEF Joeirana",
        "amenity": "school",
        "name": "Escola Estadual Pluridocente de Ensino Fundamental Joeirana",
        "source": "IJSN",
        "id": "node/4024904998"
      },
      "geometry": {
        "type": "Point",
        "coordinates": [
          -40.0840048,
          -19.1627328
        ]
      }
    },
    {
      "type": "Feature",
      "id": "node/4024906219",
      "properties": {
        "timestamp": "2016-02-25T02:01:46Z",
        "version": 1,
        "changeset": 37426154,
        "IJSN:administra": "Municipal",
        "IJSN:classeCnae": "Fundamental",
        "addr:city": "Marilândia",
        "addr:postcode": "29725-000",
        "addr:suburb": "Comunidade de Alto São Rafael",
        "alt_name": "Escola Municipal Unidocente de Ensino Fundamental",
        "amenity": "school",
        "name": "EMUEF Alto São Rafael",
        "source": "IJSN",
        "id": "node/4024906219"
      },
      "geometry": {
        "type": "Point",
        "coordinates": [
          -40.5112941,
          -19.338381
        ]
      }
    },
    {
      "type": "Feature",
      "id": "node/10310793672",
      "properties": {
        "timestamp": "2023-01-06T12:25:50Z",
        "version": 1,
        "changeset": 130945485,
        "addr:city": "Linhares",
        "addr:postcode": "29905-983",
        "addr:street": "Rua Principal",
        "addr:suburb": "Patrimônio do Guaxe",
        "alt_name": "EMEF Orozimbo Leite",
        "amenity": "school",
        "name": "Escola Municipal de Ensino Fundamental Orozimbo Leite",
        "operator": "Município de Linhares",
        "operator:type": "public",
        "phone": "+55 27 3274 7033;+55 27 3274 7000",
        "id": "node/10310793672"
      },
      "geometry": {
        "type": "Point",
        "coordinates": [
          -40.1456968,
          -19.2327865
        ]
      }
    }
  ]
}
