{
  "type": "FeatureCollection",
  "features": [
    {
      "type": "Feature",
      "id": "way/1301310072",
      "properties": {
        "timestamp": "2024-07-14T14:48:51Z",
        "version": 1,
        "changeset": 153933900,
        "amenity": "social_facility",
        "name": "CRAS - Centro de Referência de Assistencia Social",
        "id": "way/1301310072"
      },
      "geometry": {
        "type": "LineString",
        "coordinates": [
          [
            -40.0531273,
            -19.403135
          ],
          [
            -40.0529512,
            -19.4025846
          ]
        ]
      }
    },
    {
      "type": "Feature",
      "id": "node/3999139418",
      "properties": {
        "timestamp": "2016-02-10T13:37:11Z",
        "version": 1,
        "changeset": 37124622,
        "addr:city": "Linhares",
        "addr:housenumber": "1056",
        "addr:postcode": "29900-530",
        "addr:street": "Rua Luiz Candido Durão",
        "addr:suburb": "Conceição",
        "alt_name": "Centro de Referência de Assistência Social",
        "amenity": "social_facility",
        "contact:phone": "(27) 3264-4158",
        "name": "CRAS - Conceição",
        "social_facility": "outreach",
        "source": "IJSN",
        "id": "node/3999139418"
      },
      "geometry": {
        "type": "Point",
        "coordinates": [
          -40.0688116,
          -19.3842622
        ]
      }
    },
    {
      "type": "Feature",
      "id": "node/3999139456",
      "properties": {
        "timestamp": "2016-02-10T13:37:18Z",
        "version": 1,
        "changeset": 37124622,
        "addr:city": "Linhares",
        "addr:postcode": "29900-000",
        "addr:street": "Avenida Lagoa Bonita",
        "addr:suburb": "Nova Esperança",
        "alt_name": "Centro de Referência de Assistência Social",
        "amenity": "social_facility",
        "contact:phone": "(27) 3372-4060",
        "name": "CRAS - Nova Esperança",
        "social_facility": "outreach",
        "source": "IJSN",
        "id": "node/3999139456"
      },
      "geometry": {
        "type": "Point",
        "coordinates": [
          -40.0448127,
          -19.3585933
        ]
      }
    }
  ]
}
