{
  "type": "FeatureCollection",
  "features": [
    {
      "type": "Feature",
      "id": "node/4774775506",
      "properties": {
        "timestamp": "2017-04-04T13:25:26Z",
        "version": 1,
        "changeset": 47442672,
        "addr:city": "Ferreira Gomes",
        "addr:street": "Ruas Castelo Branco",
        "amenity": "clinic",
        "name": "UBS Maria Leonice Tavares",
        "id": "node/4774775506"
      },
      "geometry": {
        "type": "Point",
        "coordinates": [
          -51.1846312,
          0.8558313
        ]
      }
    },
    {
      "type": "Feature",
      "id": "node/4774778721",
      "properties": {
        "timestamp": "2017-04-04T13:25:27Z",
        "version": 1,
        "changeset": 47442672,
        "addr:city": "Ferreira Gomes",
        "addr:street": "Avenida Manoel Lino Leal",
        "amenity": "clinic",
        "name": "UBS Saúde da Família",
        "id": "node/4774778721"
      },
      "geometry": {
        "type": "Point",
        "coordinates": [
          -51.1750472,
          0.8507711
        ]
      }
    }
  ]
}
