{
  "type": "FeatureCollection",
  "features": [
    {
      "type": "Feature",
      "id": "node/1862385692",
      "properties": {
        "timestamp": "2023-05-20T21:32:32Z",
        "version": 4,
        "changeset": 136353804,
        "addr:housenumber": "600",
        "addr:postcode": "97340-000",
        "addr:street": "Rua Coronel Chananeco",
        "addr:suburb": "Centro",
        "amenity": "hospital",
        "email": "adm@abhsa.com.br",
        "fax": "+55 55 3233 1171",
        "healthcare": "hospital",
        "name": "Hospital Santo Antônio",
        "phone": "+55 55 3233 1171",
        "ref:CNES": "2244322",
        "ref:vatin": "BR97227383000177",
        "id": "node/1862385692"
      },
      "geometry": {
        "type": "Point",
        "coordinates": [
          -53.5640934,
          -30.169931
        ]
      }
    },
    {
      "type": "Feature",
      "id": "node/4116764781",
      "properties": {
        "timestamp": "2023-12-11T21:14:18Z",
        "version": 3,
        "changeset": 145014859,
        "amenity": "hospital",
        "emergency": "no",
        "name": "Posto de Saúde Tupancy",
        "id": "node/4116764781"
      },
      "geometry": {
        "type": "Point",
        "coordinates": [
          -53.8415434,
          -30.1449262
        ]
      }
    }
  ]
}
