{
  "type": "FeatureCollection",
  "features": [
    {
      "type": "Feature",
      "id": "way/361928943",
      "properties": {
        "timestamp": "2024-01-16T05:19:17Z",
        "version": 6,
        "changeset": 146307592,
        "addr:city": "Rubim",
        "amenity": "school",
        "name": "Escola Municipal José Pedro",
        "operator": "Prefeitura de Rubim",
        "operator:type": "public",
        "ref:INEP": "31189944",
        "religion": "none",
        "wikidata": "Q124295869",
        "id": "way/361928943"
      },
      "geometry": {
        "type": "Polygon",
        "coordinates": [
          [
            [
              -40.4467042,
              -16.6606457
            ],
            [
              -40.4466371,
              -16.6608179
            ],
            [
              -40.4464305,
              -16.660746
            ],
            [
              -40.4465057,
              -16.6605455
            ],
            [
              -40.4467042,
              -16.6606457
            ]
          ]
        ]
      }
    },
    {
      "type": "Feature",
      "id": "way/490256647",
      "properties": {
        "timestamp": "2024-01-24T02:52:13Z",
        "version": 4,
        "changeset": 146614838,
        "addr:city": "Rubim",
        "addr:housenumber": "220",
        "addr:postcode": "39950-000",
        "addr:street": "Praça Carlos Coelho",
        "addr:suburb": "Centro",
        "amenity": "school",
        "name": "Escola Estadual Cardeal Leme",
        "phone": "+553337461349",
        "ref:INEP": "31185361",
        "website": "https://www.escol.as/155305-ee-cardeal-leme",
        "wikidata": "Q124344138",
        "id": "way/490256647"
      },
      "geometry": {
        "type": "Polygon",
        "coordinates": [
          [
            [
              -40.543234,
              -16.374957
            ],
            [
              -40.5432573,
              -16.375488
            ],
            [
              -40.5428207,
              -16.375516
            ],
            [
              -40.5427763,
              -16.3750119
            ],
            [
              -40.543234,
              -16.374957
            ]
          ]
        ]
      }
    }
  ]
}
