{
  "type": "FeatureCollection",
  "features": [
    {
      "type": "Feature",
      "id": "way/579735762",
      "properties": {
        "timestamp": "2021-06-07T20:44:11Z",
        "version": 5,
        "changeset": 105994511,
        "addr:city": "Santo Amaro",
        "addr:postcode": "44200-000",
        "addr:street": "Rua Cipriano Betamino",
        "addr:suburb": "Centro",
        "amenity": "clinic",
        "building": "yes",
        "healthcare": "clinic",
        "name": "HemoLabor",
        "id": "way/579735762"
      },
      "geometry": {
        "type": "Polygon",
        "coordinates": [
          [
            [
              -38.7065658,
              -12.5521111
            ],
            [
              -38.7065016,
              -12.5522159
            ],
            [
              -38.7064468,
              -12.5521874
            ],
            [
              -38.7065051,
              -12.5520894
            ],
            [
              -38.7065658,
              -12.5521111
            ]
          ]
        ]
      }
    },
    {
      "type": "Feature",
      "id": "way/596643444",
      "properties": {
        "timestamp": "2022-04-16T22:55:02Z",
        "version": 2,
        "changeset": 119800700,
        "addr:city": "Santo Amaro",
        "addr:postcode": "44200000",
        "addr:street": "Rua Lisa",
        "addr:suburb": "Sacramento",
        "amenity": "clinic",
        "building": "yes",
        "healthcare": "clinic",
        "id": "way/596643444"
      },
      "geometry": {
        "type": "Polygon",
        "coordinates": [
          [
            [
              -38.7116309,
              -12.5448356
            ],
            [
              -38.7116631,
              -12.5450032
            ],
            [
              -38.7115611,
              -12.5450215
            ],
            [
              -38.7115397,
              -12.5448539
            ],
            [
              -38.7116309,
              -12.5448356
            ]
          ]
        ]
      }
    },
    {
      "type": "Feature",
      "id": "way/596657052",
      "properties": {
        "timestamp": "2019-04-23T14:47:04Z",
        "version": 3,
        "changeset": 69492330,
        "addr:city": "Santo Amaro",
        "addr:postcode": "44.200-000",
        "addr:street": "Av. Garcia",
        "addr:suburb": "Derba",
        "amenity": "clinic",
        "building": "yes",
        "healthcare": "clinic",
        "name": "USF Renato Augusto Pedreira Leonni - Sec. Municipal de Saúde",
        "id": "way/596657052"
      },
      "geometry": {
        "type": "Polygon",
        "coordinates": [
          [
            [
              -38.6946491,
              -12.5531983
            ],
            [
              -38.6946679,
              -12.5533344
            ],
            [
              -38.6946196,
              -12.5533396
            ],
            [
              -38.6945901,
              -12.553214
            ],
            [
              -38.6946491,
              -12.5531983
            ]
          ]
        ]
      }
    },
    {
      "type": "Feature",
      "id": "way/606802353",
      "properties": {
        "timestamp": "2019-04-09T15:00:11Z",
        "version": 3,
        "changeset": 69049829,
        "addr:city": "Santo Amaro",
        "addr:postcode": "44200-000",
        "addr:street": "Rua 14 de Junho",
        "addr:suburb": "Centro",
        "amenity": "clinic",
        "building": "yes",
        "healthcare": "clinic",
        "name": "Centro de Especialidades Odontologica - CEO",
        "id": "way/606802353"
      },
      "geometry": {
        "type": "Polygon",
        "coordinates": [
          [
            [
              -38.7039188,
              -12.5517158
            ],
            [
              -38.7038257,
              -12.5517135
            ],
            [
              -38.7037899,
              -12.5516133
            ],
            [
              -38.7039045,
              -12.551597
            ],
            [
              -38.7039188,
              -12.5517158
            ]
          ]
        ]
      }
    },
    {
      "type": "Feature",
      "id": "way/606802377",
      "properties": {
        "timestamp": "2018-08-11T10:15:50Z",
        "version": 3,
        "changeset": 61562083,
        "amenity": "clinic",
        "building": "yes",
        "healthcare": "clinic",
        "name": "Unidade de Pronto Atendimento",
        "short_name": "UPA",
        "id": "way/606802377"
      },
      "geometry": {
        "type": "Polygon",
        "coordinates": [
          [
            [
              -38.7066003,
              -12.5609824
            ],
            [
              -38.7064384,
              -12.5607747
            ],
            [
              -38.7065583,
              -12.5606899
            ],
            [
              -38.7067306,
              -12.5608785
            ],
            [
              -38.7066003,
              -12.5609824
            ]
          ]
        ]
      }
    },
    {
      "type": "Feature",
      "id": "way/612732901",
      "properties": {
        "timestamp": "2019-04-09T14:49:17Z",
        "version": 2,
        "changeset": 69049400,
        "addr:city": "Santo Amaro",
        "addr:postcode": "44.200-000",
        "addr:street": "Rua Reginaldo Ribeiro",
        "addr:suburb": "Trapiche",
        "amenity": "clinic",
        "building": "yes",
        "healthcare": "clinic",
        "name": "UFS. Dr. Ramulfo Paranhos",
        "id": "way/612732901"
      },
      "geometry": {
        "type": "Polygon",
        "coordinates": [
          [
            [
              -38.7002953,
              -12.5592898
            ],
            [
              -38.7001351,
              -12.5592137
            ],
            [
              -38.7001578,
              -12.5591778
            ],
            [
              -38.700308,
              -12.5591985
            ],
            [
              -38.7002953,
              -12.5592898
            ]
          ]
        ]
      }
    },
    {
      "type": "Feature",
      "id": "way/612736165",
      "properties": {
        "timestamp": "2019-04-09T14:49:22Z",
        "version": 2,
        "changeset": 69049400,
        "addr:city": "SANTO AMARO",
        "addr:postcode": "44200000",
        "addr:street": "Avenida Ruy Barbosa",
        "addr:suburb": "Substação",
        "amenity": "clinic",
        "building": "yes",
        "healthcare": "clinic",
        "name": "USF.  Dr. Antonio Balbino Pasto",
        "id": "way/612736165"
      },
      "geometry": {
        "type": "Polygon",
        "coordinates": [
          [
            [
              -38.7231131,
              -12.5425306
            ],
            [
              -38.7230434,
              -12.5424206
            ],
            [
              -38.7230916,
              -12.5423892
            ],
            [
              -38.7231667,
              -12.5425175
            ],
            [
              -38.7231131,
              -12.5425306
            ]
          ]
        ]
      }
    },
    {
      "type": "Feature",
      "id": "node/5263975105",
      "properties": {
        "timestamp": "2021-06-07T20:44:11Z",
        "version": 3,
        "changeset": 105994511,
        "addr:city": "Santo Amaro",
        "addr:postcode": "44200-000",
        "addr:street": "Avenida Ferreira Bandeira",
        "addr:suburb": "Centro",
        "amenity": "clinic",
        "description": "Laboratório de Análises Clínicas",
        "healthcare": "clinic",
        "name": "Policria",
        "id": "node/5263975105"
      },
      "geometry": {
        "type": "Point",
        "coordinates": [
          -38.7098467,
          -12.5497304
        ]
      }
    },
    {
      "type": "Feature",
      "id": "node/5266062464",
      "properties": {
        "timestamp": "2021-06-07T20:44:11Z",
        "version": 3,
        "changeset": 105994511,
        "addr:city": "Santo Amaro",
        "addr:postcode": "44200-000",
        "addr:street": "Rua Conselheiro Saraiva",
        "addr:suburb": "Centro",
        "amenity": "clinic",
        "healthcare": "clinic",
        "name": "Cleo - Clínica Especializada em Oftalmologia",
        "id": "node/5266062464"
      },
      "geometry": {
        "type": "Point",
        "coordinates": [
          -38.7079251,
          -12.5499823
        ]
      }
    }
  ]
}
