{
  "type": "FeatureCollection",
  "features": [
    {
      "type": "Feature",
      "id": "way/576050889",
      "properties": {
        "timestamp": "2019-04-09T13:58:23Z",
        "version": 4,
        "changeset": 69047437,
        "addr:city": "Santo Amaro",
        "addr:postcode": "44200-000",
        "addr:street": "Praça Comendador Sampaio",
        "addr:suburb": "Centro",
        "amenity": "dentist",
        "building": "yes",
        "healthcare": "dentist",
        "name": "Odonto Clínica de Santo Amaro",
        "id": "way/576050889"
      },
      "geometry": {
        "type": "Polygon",
        "coordinates": [
          [
            [
              -38.7058967,
              -12.5524211
            ],
            [
              -38.7060916,
              -12.5525519
            ],
            [
              -38.7060551,
              -12.5526098
            ],
            [
              -38.7058617,
              -12.5524731
            ],
            [
              -38.7058967,
              -12.5524211
            ]
          ]
        ]
      }
    },
    {
      "type": "Feature",
      "id": "way/576050894",
      "properties": {
        "timestamp": "2019-05-07T15:49:26Z",
        "version": 3,
        "changeset": 69985605,
        "addr:city": "Santo Amaro",
        "addr:postcode": "44200-000",
        "addr:street": "Praça Comendador Sampaio",
        "addr:suburb": "Centro",
        "amenity": "dentist",
        "building": "yes",
        "healthcare": "dentist",
        "name": "Spa Odonto",
        "id": "way/576050894"
      },
      "geometry": {
        "type": "Polygon",
        "coordinates": [
          [
            [
              -38.7060668,
              -12.5521874
            ],
            [
              -38.7062224,
              -12.5522866
            ],
            [
              -38.7062066,
              -12.5523062
            ],
            [
              -38.7060467,
              -12.5522112
            ],
            [
              -38.7060668,
              -12.5521874
            ]
          ]
        ]
      }
    },
    {
      "type": "Feature",
      "id": "way/579735759",
      "properties": {
        "timestamp": "2021-06-07T20:44:11Z",
        "version": 4,
        "changeset": 105994511,
        "addr:city": "Santo Amaro",
        "addr:postcode": "44200-000",
        "addr:street": "Rua Cipriano Betamino",
        "addr:suburb": "Centro",
        "amenity": "dentist",
        "building": "yes",
        "healthcare": "dentist",
        "name": "Odontológico Cirurgião",
        "id": "way/579735759"
      },
      "geometry": {
        "type": "Polygon",
        "coordinates": [
          [
            [
              -38.7063242,
              -12.5520438
            ],
            [
              -38.706372,
              -12.5520632
            ],
            [
              -38.7063394,
              -12.5521361
            ],
            [
              -38.7062892,
              -12.5521145
            ],
            [
              -38.7063242,
              -12.5520438
            ]
          ]
        ]
      }
    },
    {
      "type": "Feature",
      "id": "way/708936272",
      "properties": {
        "timestamp": "2021-06-07T20:44:11Z",
        "version": 2,
        "changeset": 105994511,
        "addr:city": "Santo Amaro",
        "addr:postcode": "44200-000",
        "addr:street": "Avenida Viana Bandeira",
        "addr:suburb": "Centro",
        "amenity": "dentist",
        "building": "commercial",
        "healthcare": "dentist",
        "level": "1",
        "name": "Inovar - Centro Odontológico",
        "id": "way/708936272"
      },
      "geometry": {
        "type": "Polygon",
        "coordinates": [
          [
            [
              -38.7071019,
              -12.5518336
            ],
            [
              -38.707044,
              -12.5518669
            ],
            [
              -38.7070133,
              -12.5517836
            ],
            [
              -38.7070644,
              -12.551747
            ],
            [
              -38.7071019,
              -12.5518336
            ]
          ]
        ]
      }
    },
    {
      "type": "Feature",
      "id": "node/5526034044",
      "properties": {
        "timestamp": "2018-04-24T18:39:20Z",
        "version": 2,
        "changeset": 58384138,
        "addr:city": "Santo Amaro",
        "addr:postcode": "44200-000",
        "addr:street": "Praça Comendador Sampaio",
        "amenity": "dentist",
        "healthcare": "dentist",
        "name": "Spa Odonto",
        "id": "node/5526034044"
      },
      "geometry": {
        "type": "Point",
        "coordinates": [
          -38.7061145,
          -12.5522401
        ]
      }
    }
  ]
}
