{
  "type": "FeatureCollection",
  "features": [
    {
      "type": "Feature",
      "id": "way/559198493",
      "properties": {
        "timestamp": "2021-06-07T20:44:11Z",
        "version": 2,
        "changeset": 105994511,
        "addr:city": "Santo Amaro",
        "addr:postcode": "44200-000",
        "addr:street": "Rua Paulino de Andrade",
        "addr:suburb": "Centro",
        "building": "yes",
        "name": "Secretaria de Educação",
        "office": "government",
        "id": "way/559198493"
      },
      "geometry": {
        "type": "Polygon",
        "coordinates": [
          [
            [
              -38.7094623,
              -12.5506776
            ],
            [
              -38.7094088,
              -12.5506391
            ],
            [
              -38.7093512,
              -12.5505909
            ],
            [
              -38.7094128,
              -12.5505258
            ],
            [
              -38.7095238,
              -12.5506076
            ],
            [
              -38.7094623,
              -12.5506776
            ]
          ]
        ]
      }
    },
    {
      "type": "Feature",
      "id": "way/567097885",
      "properties": {
        "timestamp": "2019-04-23T15:20:38Z",
        "version": 3,
        "changeset": 69493403,
        "addr:city": "Santo Amaro",
        "addr:postcode": "44200-000",
        "addr:street": "Rua Padre Fenelon Costa",
        "addr:suburb": "Centro",
        "building": "yes",
        "government": "archive",
        "name": "Arquivo Público",
        "office": "government",
        "id": "way/567097885"
      },
      "geometry": {
        "type": "Polygon",
        "coordinates": [
          [
            [
              -38.705162,
              -12.5536482
            ],
            [
              -38.7051289,
              -12.5536859
            ],
            [
              -38.7050203,
              -12.5535799
            ],
            [
              -38.7050442,
              -12.5535458
            ],
            [
              -38.705162,
              -12.5536482
            ]
          ]
        ]
      }
    },
    {
      "type": "Feature",
      "id": "way/579735678",
      "properties": {
        "timestamp": "2021-06-07T20:44:11Z",
        "version": 4,
        "changeset": 105994511,
        "addr:city": "Santo Amaro",
        "addr:postcode": "44200-000",
        "addr:street": "Rua Conselheiro Saraiva",
        "addr:suburb": "Centro",
        "building": "yes",
        "name": "Secretaria Municipal - Cultura e Turismo",
        "office": "government",
        "id": "way/579735678"
      },
      "geometry": {
        "type": "Polygon",
        "coordinates": [
          [
            [
              -38.7081617,
              -12.5484684
            ],
            [
              -38.7081538,
              -12.5485038
            ],
            [
              -38.7079476,
              -12.5484649
            ],
            [
              -38.7079717,
              -12.5484279
            ],
            [
              -38.7081617,
              -12.5484684
            ]
          ]
        ]
      }
    },
    {
      "type": "Feature",
      "id": "way/579735689",
      "properties": {
        "timestamp": "2018-05-22T17:34:10Z",
        "version": 2,
        "changeset": 59187183,
        "building": "yes",
        "office": "government",
        "id": "way/579735689"
      },
      "geometry": {
        "type": "Polygon",
        "coordinates": [
          [
            [
              -38.7099143,
              -12.549699
            ],
            [
              -38.7098771,
              -12.5497526
            ],
            [
              -38.7098524,
              -12.5497422
            ],
            [
              -38.70984,
              -12.5497716
            ],
            [
              -38.7097143,
              -12.5497146
            ],
            [
              -38.7097568,
              -12.5496248
            ],
            [
              -38.7099143,
              -12.549699
            ]
          ]
        ]
      }
    },
    {
      "type": "Feature",
      "id": "way/579735703",
      "properties": {
        "timestamp": "2019-05-07T15:48:59Z",
        "version": 3,
        "changeset": 69985578,
        "addr:city": "Santo Amaro",
        "addr:postcode": "44200000",
        "addr:street": "Avenida Viana Bandeira",
        "addr:suburb": "Centro",
        "building": "yes",
        "description": "Sindicato dos trabalhadores nas indústrias de celulose e papel do Estado da Bahia.",
        "name": "SINDICELPA",
        "office": "government",
        "id": "way/579735703"
      },
      "geometry": {
        "type": "Polygon",
        "coordinates": [
          [
            [
              -38.7066464,
              -12.5523472
            ],
            [
              -38.7067235,
              -12.5524099
            ],
            [
              -38.706692,
              -12.5524498
            ],
            [
              -38.7066149,
              -12.5523871
            ],
            [
              -38.7066464,
              -12.5523472
            ]
          ]
        ]
      }
    },
    {
      "type": "Feature",
      "id": "way/579735743",
      "properties": {
        "timestamp": "2019-04-09T13:58:25Z",
        "version": 3,
        "changeset": 69047437,
        "addr:city": "Santo Amaro",
        "addr:postcode": "44200000",
        "addr:street": "Rua Conselheiro Saraiva",
        "addr:suburb": "Centro",
        "building": "yes",
        "name": "Secretaria de Meio Ambiente",
        "office": "government",
        "id": "way/579735743"
      },
      "geometry": {
        "type": "Polygon",
        "coordinates": [
          [
            [
              -38.7084806,
              -12.5475656
            ],
            [
              -38.708447,
              -12.5476364
            ],
            [
              -38.7082966,
              -12.5475864
            ],
            [
              -38.7083391,
              -12.547519
            ],
            [
              -38.7084806,
              -12.5475656
            ]
          ]
        ]
      }
    },
    {
      "type": "Feature",
      "id": "way/579735754",
      "properties": {
        "timestamp": "2021-06-07T20:44:11Z",
        "version": 4,
        "changeset": 105994511,
        "addr:postcode": "44200-000",
        "addr:street": "Rua Conselheiro Saraiva",
        "addr:suburb": "Centro",
        "building": "yes",
        "name": "SINE",
        "office": "government",
        "id": "way/579735754"
      },
      "geometry": {
        "type": "Polygon",
        "coordinates": [
          [
            [
              -38.7063518,
              -12.5517244
            ],
            [
              -38.706281,
              -12.5516432
            ],
            [
              -38.7063465,
              -12.5515914
            ],
            [
              -38.7064173,
              -12.5516864
            ],
            [
              -38.7063518,
              -12.5517244
            ]
          ]
        ]
      }
    },
    {
      "type": "Feature",
      "id": "way/579735757",
      "properties": {
        "timestamp": "2018-04-14T00:08:27Z",
        "version": 1,
        "changeset": 58079100,
        "building": "yes",
        "office": "government",
        "id": "way/579735757"
      },
      "geometry": {
        "type": "Polygon",
        "coordinates": [
          [
            [
              -38.7061094,
              -12.5519282
            ],
            [
              -38.7062297,
              -12.5519938
            ],
            [
              -38.7062085,
              -12.5520543
            ],
            [
              -38.7060793,
              -12.5519835
            ],
            [
              -38.7061094,
              -12.5519282
            ]
          ]
        ]
      }
    },
    {
      "type": "Feature",
      "id": "way/607140012",
      "properties": {
        "timestamp": "2018-07-11T19:17:19Z",
        "version": 1,
        "changeset": 60625883,
        "addr:city": "Santo Amaro",
        "addr:housenumber": "5",
        "addr:postcode": "44.200-000",
        "addr:street": "Rua do Imperador",
        "addr:suburb": "Centro",
        "building": "yes",
        "government": "administrative",
        "name": "SFFA",
        "office": "government",
        "opening_hours": "Mo-Fr 08:00-17:00",
        "id": "way/607140012"
      },
      "geometry": {
        "type": "Polygon",
        "coordinates": [
          [
            [
              -38.7033241,
              -12.5540611
            ],
            [
              -38.7035306,
              -12.5542182
            ],
            [
              -38.7033965,
              -12.5544015
            ],
            [
              -38.7031685,
              -12.5542601
            ],
            [
              -38.7033241,
              -12.5540611
            ]
          ]
        ]
      }
    },
    {
      "type": "Feature",
      "id": "way/612732915",
      "properties": {
        "timestamp": "2019-04-16T17:27:36Z",
        "version": 3,
        "changeset": 69280266,
        "addr:city": "Santo Amaro",
        "addr:street": "Rua do Sinibú",
        "addr:suburb": "Centro",
        "building": "yes",
        "name": "Secretaria de Meio Ambiente",
        "office": "government",
        "id": "way/612732915"
      },
      "geometry": {
        "type": "Polygon",
        "coordinates": [
          [
            [
              -38.6993958,
              -12.5537525
            ],
            [
              -38.6993758,
              -12.5537883
            ],
            [
              -38.6992426,
              -12.553785
            ],
            [
              -38.6993026,
              -12.5537103
            ],
            [
              -38.6993958,
              -12.5537525
            ]
          ]
        ]
      }
    },
    {
      "type": "Feature",
      "id": "way/682692510",
      "properties": {
        "timestamp": "2019-04-16T17:27:36Z",
        "version": 2,
        "changeset": 69280266,
        "addr:city": "Santo Amaro",
        "addr:postcode": "44200000",
        "addr:street": "Rua do Sinibú",
        "addr:suburb": "Centro",
        "building": "yes",
        "name": "Departamento Estadual de Trânsito",
        "office": "government",
        "id": "way/682692510"
      },
      "geometry": {
        "type": "Polygon",
        "coordinates": [
          [
            [
              -38.7028364,
              -12.5526525
            ],
            [
              -38.7027758,
              -12.5526886
            ],
            [
              -38.7025941,
              -12.5524488
            ],
            [
              -38.7026681,
              -12.5523634
            ],
            [
              -38.7028364,
              -12.5526525
            ]
          ]
        ]
      }
    },
    {
      "type": "Feature",
      "id": "way/706726687",
      "properties": {
        "timestamp": "2019-07-23T15:56:59Z",
        "version": 1,
        "changeset": 72565990,
        "addr:city": "Santo Amaro",
        "addr:postcode": "44200000",
        "addr:street": "Avenida Ferreira Bandeira",
        "addr:suburb": "Centro",
        "building": "yes",
        "name": "INSS",
        "office": "government",
        "id": "way/706726687"
      },
      "geometry": {
        "type": "Polygon",
        "coordinates": [
          [
            [
              -38.7127366,
              -12.5472337
            ],
            [
              -38.7126413,
              -12.5474343
            ],
            [
              -38.7123316,
              -12.5473093
            ],
            [
              -38.7124358,
              -12.5470941
            ],
            [
              -38.7127366,
              -12.5472337
            ]
          ]
        ]
      }
    },
    {
      "type": "Feature",
      "id": "node/5485028678",
      "properties": {
        "timestamp": "2021-06-07T20:44:11Z",
        "version": 3,
        "changeset": 105994511,
        "addr:city": "Santo Amaro",
        "addr:postcode": "44200-000",
        "addr:street": "Rua Cipriano Betamino",
        "addr:suburb": "Centro",
        "name": "Secretaria de Finanças",
        "office": "government",
        "id": "node/5485028678"
      },
      "geometry": {
        "type": "Point",
        "coordinates": [
          -38.7061775,
          -12.5520128
        ]
      }
    },
    {
      "type": "Feature",
      "id": "node/5576995324",
      "properties": {
        "timestamp": "2021-06-07T20:44:11Z",
        "version": 3,
        "changeset": 105994511,
        "addr:city": "Santo Amaro",
        "addr:postcode": "44200-000",
        "addr:street": "Rua Paulino de Andrade",
        "addr:suburb": "Centro",
        "name": "Secretaria de Educação",
        "office": "government",
        "id": "node/5576995324"
      },
      "geometry": {
        "type": "Point",
        "coordinates": [
          -38.7094593,
          -12.5506063
        ]
      }
    }
  ]
}
