{
  "type": "FeatureCollection",
  "features": [
    {
      "type": "Feature",
      "id": "way/576054164",
      "properties": {
        "timestamp": "2018-04-14T00:08:34Z",
        "version": 2,
        "changeset": 58079100,
        "building": "yes",
        "tourism": "hotel",
        "id": "way/576054164"
      },
      "geometry": {
        "type": "Polygon",
        "coordinates": [
          [
            [
              -38.7093394,
              -12.5483139
            ],
            [
              -38.7092895,
              -12.5483839
            ],
            [
              -38.7091203,
              -12.548291
            ],
            [
              -38.7091745,
              -12.5482123
            ],
            [
              -38.7093394,
              -12.5483139
            ]
          ]
        ]
      }
    },
    {
      "type": "Feature",
      "id": "way/725699968",
      "properties": {
        "timestamp": "2019-09-17T22:27:33Z",
        "version": 1,
        "changeset": 74600587,
        "addr:street": "Avenida Viana Bandeira",
        "addr:suburb": "Centro",
        "building": "yes",
        "internet_access": "yes",
        "name": "Hotel da Purificação",
        "rooms": "40",
        "tourism": "hotel",
        "id": "way/725699968"
      },
      "geometry": {
        "type": "Polygon",
        "coordinates": [
          [
            [
              -38.7108526,
              -12.547835
            ],
            [
              -38.7107547,
              -12.5479764
            ],
            [
              -38.7103645,
              -12.5477081
            ],
            [
              -38.7104704,
              -12.5475772
            ],
            [
              -38.7108526,
              -12.547835
            ]
          ]
        ]
      }
    },
    {
      "type": "Feature",
      "id": "node/5263975106",
      "properties": {
        "timestamp": "2021-06-07T20:44:11Z",
        "version": 3,
        "changeset": 105994511,
        "addr:city": "Santo Amaro",
        "addr:postcode": "44200-000",
        "addr:street": "Praça da Purificação",
        "name": "Hotel Casa Grande",
        "tourism": "hotel",
        "id": "node/5263975106"
      },
      "geometry": {
        "type": "Point",
        "coordinates": [
          -38.7092868,
          -12.5483457
        ]
      }
    },
    {
      "type": "Feature",
      "id": "node/5263975120",
      "properties": {
        "timestamp": "2021-06-07T20:44:11Z",
        "version": 4,
        "changeset": 105994511,
        "addr:city": "Santo Amaro",
        "addr:postcode": "44200-000",
        "addr:street": "Rua Conselheiro Saraiva",
        "addr:suburb": "Centro",
        "name": "Hotel Lobo",
        "tourism": "hotel",
        "id": "node/5263975120"
      },
      "geometry": {
        "type": "Point",
        "coordinates": [
          -38.7080044,
          -12.5491285
        ]
      }
    }
  ]
}
