{
  "type": "FeatureCollection",
  "features": [
    {
      "type": "Feature",
      "id": "way/567097878",
      "properties": {
        "timestamp": "2018-03-06T17:22:15Z",
        "version": 1,
        "changeset": 56942011,
        "addr:city": "Santo Amaro",
        "addr:street": "Rua do Imperador",
        "addr:suburb": "Centro",
        "amenity": "pharmacy",
        "building": "yes",
        "dispensing": "yes",
        "healthcare": "pharmacy",
        "name": "Farmacia Pague Menos",
        "id": "way/567097878"
      },
      "geometry": {
        "type": "Polygon",
        "coordinates": [
          [
            [
              -38.7036493,
              -12.5535391
            ],
            [
              -38.7035315,
              -12.5533887
            ],
            [
              -38.7036251,
              -12.5533385
            ],
            [
              -38.7037339,
              -12.5535007
            ],
            [
              -38.7036493,
              -12.5535391
            ]
          ]
        ]
      }
    },
    {
      "type": "Feature",
      "id": "way/576054140",
      "properties": {
        "timestamp": "2018-04-14T00:08:35Z",
        "version": 2,
        "changeset": 58079100,
        "amenity": "pharmacy",
        "building": "yes",
        "dispensing": "yes",
        "healthcare": "pharmacy",
        "id": "way/576054140"
      },
      "geometry": {
        "type": "Polygon",
        "coordinates": [
          [
            [
              -38.7077604,
              -12.550391
            ],
            [
              -38.7075574,
              -12.5502817
            ],
            [
              -38.7076029,
              -12.5502108
            ],
            [
              -38.7078129,
              -12.5503039
            ],
            [
              -38.7077604,
              -12.550391
            ]
          ]
        ]
      }
    },
    {
      "type": "Feature",
      "id": "way/579735751",
      "properties": {
        "timestamp": "2021-06-07T20:44:11Z",
        "version": 4,
        "changeset": 105994511,
        "addr:city": "Santo Amaro",
        "addr:postcode": "44200-000",
        "addr:street": "Rua Gaspar Sadoc",
        "addr:suburb": "Centro",
        "amenity": "pharmacy",
        "building": "yes",
        "dispensing": "yes",
        "healthcare": "pharmacy",
        "name": "Nossa Senhora das Graças",
        "id": "way/579735751"
      },
      "geometry": {
        "type": "Polygon",
        "coordinates": [
          [
            [
              -38.7067389,
              -12.5513843
            ],
            [
              -38.7067814,
              -12.5514586
            ],
            [
              -38.706723,
              -12.5514845
            ],
            [
              -38.7066805,
              -12.5514154
            ],
            [
              -38.7067389,
              -12.5513843
            ]
          ]
        ]
      }
    },
    {
      "type": "Feature",
      "id": "way/579735752",
      "properties": {
        "timestamp": "2018-04-14T00:08:27Z",
        "version": 1,
        "changeset": 58079100,
        "amenity": "pharmacy",
        "building": "yes",
        "dispensing": "yes",
        "healthcare": "pharmacy",
        "id": "way/579735752"
      },
      "geometry": {
        "type": "Polygon",
        "coordinates": [
          [
            [
              -38.706504,
              -12.5514601
            ],
            [
              -38.7065341,
              -12.5515257
            ],
            [
              -38.7064456,
              -12.5515672
            ],
            [
              -38.7064084,
              -12.5514981
            ],
            [
              -38.706504,
              -12.5514601
            ]
          ]
        ]
      }
    },
    {
      "type": "Feature",
      "id": "way/579735764",
      "properties": {
        "timestamp": "2018-04-14T00:08:28Z",
        "version": 1,
        "changeset": 58079100,
        "amenity": "pharmacy",
        "building": "yes",
        "dispensing": "yes",
        "healthcare": "pharmacy",
        "id": "way/579735764"
      },
      "geometry": {
        "type": "Polygon",
        "coordinates": [
          [
            [
              -38.7107802,
              -12.5473411
            ],
            [
              -38.7107294,
              -12.5474105
            ],
            [
              -38.7106521,
              -12.547343
            ],
            [
              -38.710709,
              -12.5472696
            ],
            [
              -38.7107802,
              -12.5473411
            ]
          ]
        ]
      }
    },
    {
      "type": "Feature",
      "id": "way/606802366",
      "properties": {
        "timestamp": "2019-04-09T13:58:21Z",
        "version": 2,
        "changeset": 69047437,
        "addr:city": "Santo Amaro",
        "addr:postcode": "44200-000",
        "addr:street": "Praça Comendador Sampaio",
        "addr:suburb": "Centro",
        "amenity": "pharmacy",
        "building": "yes",
        "dispensing": "yes",
        "healthcare": "pharmacy",
        "name": "Phamapele",
        "id": "way/606802366"
      },
      "geometry": {
        "type": "Polygon",
        "coordinates": [
          [
            [
              -38.7054753,
              -12.5524871
            ],
            [
              -38.7054586,
              -12.5525128
            ],
            [
              -38.7053989,
              -12.5524475
            ],
            [
              -38.7054133,
              -12.5524289
            ],
            [
              -38.7054753,
              -12.5524871
            ]
          ]
        ]
      }
    },
    {
      "type": "Feature",
      "id": "way/612732927",
      "properties": {
        "timestamp": "2019-04-09T14:49:21Z",
        "version": 2,
        "changeset": 69049400,
        "addr:city": "Santo Amaro",
        "addr:postcode": "44200-000",
        "addr:street": "Avenida Presidente Getúlio Vargas",
        "addr:suburb": "Centro",
        "amenity": "pharmacy",
        "building": "yes",
        "dispensing": "yes",
        "healthcare": "pharmacy",
        "name": "Farmacity",
        "id": "way/612732927"
      },
      "geometry": {
        "type": "Polygon",
        "coordinates": [
          [
            [
              -38.7041016,
              -12.5528476
            ],
            [
              -38.7040641,
              -12.5528032
            ],
            [
              -38.7041688,
              -12.5527125
            ],
            [
              -38.7042064,
              -12.5527781
            ],
            [
              -38.7041016,
              -12.5528476
            ]
          ]
        ]
      }
    },
    {
      "type": "Feature",
      "id": "node/5263975728",
      "properties": {
        "timestamp": "2021-06-07T20:44:11Z",
        "version": 3,
        "changeset": 105994511,
        "addr:city": "Santo Amaro",
        "addr:postcode": "44200-000",
        "addr:street": "Rua Conselheiro Saraiva",
        "addr:suburb": "Centro",
        "amenity": "pharmacy",
        "healthcare": "pharmacy",
        "name": "Farmácia Saúde",
        "id": "node/5263975728"
      },
      "geometry": {
        "type": "Point",
        "coordinates": [
          -38.7079331,
          -12.5497018
        ]
      }
    },
    {
      "type": "Feature",
      "id": "node/5266062460",
      "properties": {
        "timestamp": "2021-06-07T20:44:11Z",
        "version": 3,
        "changeset": 105994511,
        "addr:city": "Santo Amaro",
        "addr:postcode": "44200-000",
        "addr:street": "Rua Conselheiro Saraiva",
        "addr:suburb": "Centro",
        "amenity": "pharmacy",
        "healthcare": "pharmacy",
        "name": "Farmárcia Multmais",
        "id": "node/5266062460"
      },
      "geometry": {
        "type": "Point",
        "coordinates": [
          -38.7077729,
          -12.5503243
        ]
      }
    },
    {
      "type": "Feature",
      "id": "node/5393902559",
      "properties": {
        "timestamp": "2019-04-09T14:49:16Z",
        "version": 2,
        "changeset": 69049400,
        "addr:city": "Santo Amaro",
        "addr:postcode": "44200000",
        "addr:street": "Praça da Purificação",
        "addr:suburb": "Centro",
        "amenity": "pharmacy",
        "healthcare": "pharmacy",
        "name": "Farma Flora",
        "id": "node/5393902559"
      },
      "geometry": {
        "type": "Point",
        "coordinates": [
          -38.7107111,
          -12.5473561
        ]
      }
    },
    {
      "type": "Feature",
      "id": "node/5485028691",
      "properties": {
        "timestamp": "2021-06-07T20:44:11Z",
        "version": 4,
        "changeset": 105994511,
        "addr:city": "Santo Amaro",
        "addr:postcode": "44200-000",
        "addr:street": "Rua Conselheiro Saraiva",
        "addr:suburb": "Centro",
        "amenity": "pharmacy",
        "dispensing": "yes",
        "healthcare": "pharmacy",
        "name": "Farmácia Moreira",
        "id": "node/5485028691"
      },
      "geometry": {
        "type": "Point",
        "coordinates": [
          -38.7064778,
          -12.5515148
        ]
      }
    }
  ]
}
