{
  "type": "FeatureCollection",
  "features": [
    {
      "type": "Feature",
      "id": "way/559199739",
      "properties": {
        "timestamp": "2019-05-07T13:19:12Z",
        "version": 2,
        "changeset": 69977846,
        "addr:city": "Santo Amaro",
        "addr:postcode": "44200000",
        "addr:street": "Rua Barão de Sergy",
        "addr:suburb": "Centro",
        "amenity": "school",
        "building": "yes",
        "name": "Escola Milenium",
        "id": "way/559199739"
      },
      "geometry": {
        "type": "Polygon",
        "coordinates": [
          [
            [
              -38.7104972,
              -12.5463432
            ],
            [
              -38.7105576,
              -12.5464825
            ],
            [
              -38.7104203,
              -12.5465361
            ],
            [
              -38.71036,
              -12.5464075
            ],
            [
              -38.7104972,
              -12.5463432
            ]
          ]
        ]
      }
    },
    {
      "type": "Feature",
      "id": "way/567097882",
      "properties": {
        "timestamp": "2018-03-06T17:22:16Z",
        "version": 1,
        "changeset": 56942011,
        "addr:city": "Santo Amaro",
        "addr:postcode": "44200-000",
        "addr:street": "Rua do Imperador",
        "addr:suburb": "Centro",
        "amenity": "school",
        "name": "Colegio Oliveira",
        "id": "way/567097882"
      },
      "geometry": {
        "type": "Polygon",
        "coordinates": [
          [
            [
              -38.7047326,
              -12.5533248
            ],
            [
              -38.7046675,
              -12.5533707
            ],
            [
              -38.7045824,
              -12.5532524
            ],
            [
              -38.7046512,
              -12.5531959
            ],
            [
              -38.7047326,
              -12.5533248
            ]
          ]
        ]
      }
    },
    {
      "type": "Feature",
      "id": "way/576049878",
      "properties": {
        "timestamp": "2021-06-07T20:44:11Z",
        "version": 3,
        "changeset": 105994511,
        "addr:city": "Santo Amaro",
        "addr:postcode": "44200-000",
        "addr:street": "Rua Paulino de Andrade",
        "addr:suburb": "Centro",
        "amenity": "school",
        "building": "yes",
        "name": "CEEP EM TURISMO DO LESTE BAIANO",
        "id": "way/576049878"
      },
      "geometry": {
        "type": "Polygon",
        "coordinates": [
          [
            [
              -38.7111886,
              -12.5523831
            ],
            [
              -38.7102443,
              -12.5512876
            ],
            [
              -38.7109095,
              -12.550764
            ],
            [
              -38.7123472,
              -12.5517903
            ],
            [
              -38.7111886,
              -12.5523831
            ]
          ]
        ]
      }
    },
    {
      "type": "Feature",
      "id": "way/576050892",
      "properties": {
        "timestamp": "2018-04-14T00:08:36Z",
        "version": 2,
        "changeset": 58079100,
        "amenity": "school",
        "id": "way/576050892"
      },
      "geometry": {
        "type": "Polygon",
        "coordinates": [
          [
            [
              -38.706017,
              -12.5522742
            ],
            [
              -38.7061801,
              -12.5523786
            ],
            [
              -38.7061536,
              -12.5524158
            ],
            [
              -38.7059874,
              -12.5523124
            ],
            [
              -38.706017,
              -12.5522742
            ]
          ]
        ]
      }
    },
    {
      "type": "Feature",
      "id": "way/579735741",
      "properties": {
        "timestamp": "2018-04-14T00:08:26Z",
        "version": 1,
        "changeset": 58079100,
        "amenity": "school",
        "id": "way/579735741"
      },
      "geometry": {
        "type": "Polygon",
        "coordinates": [
          [
            [
              -38.709651,
              -12.54783
            ],
            [
              -38.7096245,
              -12.5478991
            ],
            [
              -38.7094812,
              -12.5478507
            ],
            [
              -38.7095095,
              -12.5477764
            ],
            [
              -38.709651,
              -12.54783
            ]
          ]
        ]
      }
    },
    {
      "type": "Feature",
      "id": "way/583327129",
      "properties": {
        "timestamp": "2019-05-07T13:35:50Z",
        "version": 3,
        "changeset": 69978974,
        "addr:city": "Santo Amaro",
        "addr:postcode": "44.200-000",
        "addr:street": "Avenida Ruy Barbosa",
        "addr:suburb": "Bonfim",
        "amenity": "school",
        "building": "yes",
        "name": "Escola de Educação Infantil",
        "id": "way/583327129"
      },
      "geometry": {
        "type": "Polygon",
        "coordinates": [
          [
            [
              -38.7158323,
              -12.5464764
            ],
            [
              -38.7157475,
              -12.5467072
            ],
            [
              -38.715699,
              -12.5466539
            ],
            [
              -38.7157657,
              -12.5464409
            ],
            [
              -38.7158323,
              -12.5464764
            ]
          ]
        ]
      }
    },
    {
      "type": "Feature",
      "id": "way/583332401",
      "properties": {
        "timestamp": "2021-06-07T20:44:11Z",
        "version": 4,
        "changeset": 105994511,
        "addr:city": "Santo Amaro",
        "addr:postcode": "44200-000",
        "addr:street": "Avenida Ferreira Bandeira",
        "addr:suburb": "Centro",
        "amenity": "school",
        "building": "yes",
        "name": "APAE",
        "id": "way/583332401"
      },
      "geometry": {
        "type": "Polygon",
        "coordinates": [
          [
            [
              -38.7102717,
              -12.5493109
            ],
            [
              -38.7100409,
              -12.5495684
            ],
            [
              -38.7098136,
              -12.5494278
            ],
            [
              -38.7100619,
              -12.5491588
            ],
            [
              -38.7103556,
              -12.5488223
            ],
            [
              -38.7106404,
              -12.549011
            ],
            [
              -38.7102717,
              -12.5493109
            ]
          ]
        ]
      }
    },
    {
      "type": "Feature",
      "id": "way/583332402",
      "properties": {
        "timestamp": "2021-06-07T20:44:11Z",
        "version": 5,
        "changeset": 105994511,
        "addr:city": "Santo Amaro",
        "addr:postcode": "44200-000",
        "addr:street": "Avenida Ferreira Bandeira",
        "addr:suburb": "Centro",
        "amenity": "school",
        "building": "yes",
        "name": "Centro Educacional Teodoro Sampaio",
        "religion": "christian",
        "id": "way/583332402"
      },
      "geometry": {
        "type": "Polygon",
        "coordinates": [
          [
            [
              -38.7106733,
              -12.5489979
            ],
            [
              -38.7106404,
              -12.549011
            ],
            [
              -38.7103556,
              -12.5488223
            ],
            [
              -38.711042,
              -12.547927
            ],
            [
              -38.7116175,
              -12.5484273
            ],
            [
              -38.7106733,
              -12.5489979
            ]
          ]
        ]
      }
    },
    {
      "type": "Feature",
      "id": "way/606802384",
      "properties": {
        "timestamp": "2019-05-07T13:30:03Z",
        "version": 3,
        "changeset": 69978597,
        "addr:city": "Santo Amaro",
        "addr:postcode": "44.200-000",
        "addr:street": "Rua Reginaldo Ribeiro",
        "addr:suburb": "Trapiche",
        "amenity": "school",
        "building": "yes",
        "name": "Prado Valadares",
        "id": "way/606802384"
      },
      "geometry": {
        "type": "Polygon",
        "coordinates": [
          [
            [
              -38.6999413,
              -12.557804
            ],
            [
              -38.699879,
              -12.5577593
            ],
            [
              -38.6997677,
              -12.5576058
            ],
            [
              -38.6997218,
              -12.5575291
            ],
            [
              -38.699974,
              -12.557494
            ],
            [
              -38.7000166,
              -12.5577465
            ],
            [
              -38.6999413,
              -12.557804
            ]
          ]
        ]
      }
    },
    {
      "type": "Feature",
      "id": "way/612739254",
      "properties": {
        "timestamp": "2019-05-07T13:48:16Z",
        "version": 2,
        "changeset": 69979823,
        "addr:city": "Santo Amaro",
        "addr:postcode": "44200000",
        "addr:suburb": "Candolândia",
        "amenity": "school",
        "building": "yes",
        "name": "Nazaré Falcão",
        "id": "way/612739254"
      },
      "geometry": {
        "type": "Polygon",
        "coordinates": [
          [
            [
              -38.702445,
              -12.5484397
            ],
            [
              -38.7023538,
              -12.5484293
            ],
            [
              -38.702378,
              -12.5483874
            ],
            [
              -38.7023377,
              -12.5483638
            ],
            [
              -38.7023887,
              -12.548191
            ],
            [
              -38.7025147,
              -12.5482015
            ],
            [
              -38.702445,
              -12.5484397
            ]
          ]
        ]
      }
    },
    {
      "type": "Feature",
      "id": "way/684206622",
      "properties": {
        "timestamp": "2019-05-07T13:35:50Z",
        "version": 2,
        "changeset": 69978974,
        "addr:city": "Santo Amaro",
        "addr:postcode": "44.200-000",
        "addr:street": "Avenida Ruy Barbosa",
        "addr:suburb": "Bonfim",
        "amenity": "school",
        "building": "yes",
        "name": "Escola São José",
        "id": "way/684206622"
      },
      "geometry": {
        "type": "Polygon",
        "coordinates": [
          [
            [
              -38.7167388,
              -12.5457051
            ],
            [
              -38.7168609,
              -12.5459352
            ],
            [
              -38.7167177,
              -12.5459969
            ],
            [
              -38.7165998,
              -12.5457667
            ],
            [
              -38.7167388,
              -12.5457051
            ]
          ]
        ]
      }
    },
    {
      "type": "Feature",
      "id": "way/708936269",
      "properties": {
        "timestamp": "2019-07-30T16:16:24Z",
        "version": 1,
        "changeset": 72820186,
        "addr:city": "Santo Amaro",
        "addr:street": "Rua Conselheiro Saraiva",
        "addr:suburb": "Centro",
        "amenity": "school",
        "name": "Monteiro Lobato",
        "id": "way/708936269"
      },
      "geometry": {
        "type": "Polygon",
        "coordinates": [
          [
            [
              -38.7073353,
              -12.5509594
            ],
            [
              -38.7072816,
              -12.5510118
            ],
            [
              -38.7072368,
              -12.5509506
            ],
            [
              -38.7072681,
              -12.5509113
            ],
            [
              -38.7073353,
              -12.5509594
            ]
          ]
        ]
      }
    },
    {
      "type": "Feature",
      "id": "way/708936270",
      "properties": {
        "timestamp": "2019-07-30T16:16:24Z",
        "version": 1,
        "changeset": 72820186,
        "addr:city": "Santo Amaro",
        "addr:postcode": "44200000",
        "addr:street": "Avenida Presidente Getúlio Vargas",
        "addr:suburb": "Centro",
        "amenity": "school",
        "name": "Cooperativa de Santo Amaro",
        "id": "way/708936270"
      },
      "geometry": {
        "type": "Polygon",
        "coordinates": [
          [
            [
              -38.7078123,
              -12.5473334
            ],
            [
              -38.7077099,
              -12.547643
            ],
            [
              -38.7076042,
              -12.5476064
            ],
            [
              -38.7076895,
              -12.5472902
            ],
            [
              -38.7078123,
              -12.5473334
            ]
          ]
        ]
      }
    },
    {
      "type": "Feature",
      "id": "node/1918160585",
      "properties": {
        "timestamp": "2015-01-15T20:12:28Z",
        "version": 3,
        "changeset": 28172574,
        "amenity": "school",
        "id": "node/1918160585"
      },
      "geometry": {
        "type": "Point",
        "coordinates": [
          -38.6893628,
          -12.5509592
        ]
      }
    },
    {
      "type": "Feature",
      "id": "node/5263975110",
      "properties": {
        "timestamp": "2019-05-07T15:26:57Z",
        "version": 5,
        "changeset": 69984231,
        "addr:city": "Santo Amaro",
        "addr:postcode": "44200000",
        "addr:street": "Praça da Purificação",
        "addr:suburb": "Centro",
        "amenity": "school",
        "building": "yes",
        "name": "Escola José Nery de Mesquita",
        "id": "node/5263975110"
      },
      "geometry": {
        "type": "Point",
        "coordinates": [
          -38.7095801,
          -12.5478645
        ]
      }
    },
    {
      "type": "Feature",
      "id": "node/5526034065",
      "properties": {
        "timestamp": "2018-04-03T18:28:10Z",
        "version": 1,
        "changeset": 57780955,
        "addr:city": "Santo Amaro",
        "addr:postcode": "44200-000",
        "addr:street": "Praça Comendador Sampaio",
        "addr:suburb": "Centro",
        "amenity": "school",
        "name": "Mundo da Criança",
        "id": "node/5526034065"
      },
      "geometry": {
        "type": "Point",
        "coordinates": [
          -38.7060713,
          -12.5523469
        ]
      }
    }
  ]
}
