{
  "type": "FeatureCollection",
  "features": [
    {
      "type": "Feature",
      "id": "way/567103466",
      "properties": {
        "timestamp": "2019-04-09T13:58:19Z",
        "version": 3,
        "changeset": 69047437,
        "addr:city": "Santo Amaro",
        "addr:postcode": "44200-000",
        "addr:street": "Rua Vanderley Pinho",
        "addr:suburb": "Centro",
        "amenity": "social_facility",
        "building": "yes",
        "name": "Abrigo São Domingos (Dos Velhos)",
        "social_facility": "nursing_home",
        "social_facility:for": "senior",
        "id": "way/567103466"
      },
      "geometry": {
        "type": "Polygon",
        "coordinates": [
          [
            [
              -38.7037578,
              -12.5552331
            ],
            [
              -38.7035306,
              -12.555293
            ],
            [
              -38.7034649,
              -12.5549801
            ],
            [
              -38.7037121,
              -12.5549123
            ],
            [
              -38.7037578,
              -12.5552331
            ]
          ]
        ]
      }
    },
    {
      "type": "Feature",
      "id": "way/576050890",
      "properties": {
        "timestamp": "2024-10-08T23:24:52Z",
        "version": 5,
        "changeset": 157648788,
        "addr:city": "Santo Amaro",
        "addr:postcode": "44200-000",
        "addr:street": "Praça Comendador Sampaio",
        "addr:suburb": "Centro",
        "amenity": "social_facility",
        "building": "yes",
        "healthcare": "mental_health",
        "name": "Centro de Atendimento Psicossocial (CAPS)",
        "operator": "Sistema Único de Saúde",
        "operator:type": "public",
        "social_facility": "outpatient_care",
        "id": "way/576050890"
      },
      "geometry": {
        "type": "Polygon",
        "coordinates": [
          [
            [
              -38.7059287,
              -12.552378
            ],
            [
              -38.7060376,
              -12.5524463
            ],
            [
              -38.7061205,
              -12.5524984
            ],
            [
              -38.7060916,
              -12.55254
            ],
            [
              -38.7058967,
              -12.5524211
            ],
            [
              -38.7059287,
              -12.552378
            ]
          ]
        ]
      }
    },
    {
      "type": "Feature",
      "id": "way/576054165",
      "properties": {
        "timestamp": "2018-04-14T00:08:34Z",
        "version": 2,
        "changeset": 58079100,
        "amenity": "social_facility",
        "building": "yes",
        "id": "way/576054165"
      },
      "geometry": {
        "type": "Polygon",
        "coordinates": [
          [
            [
              -38.7093621,
              -12.5482903
            ],
            [
              -38.709346,
              -12.5483088
            ],
            [
              -38.7092961,
              -12.5482795
            ],
            [
              -38.7093181,
              -12.5482652
            ],
            [
              -38.7093621,
              -12.5482903
            ]
          ]
        ]
      }
    },
    {
      "type": "Feature",
      "id": "way/576054167",
      "properties": {
        "timestamp": "2018-04-14T00:08:34Z",
        "version": 2,
        "changeset": 58079100,
        "amenity": "social_facility",
        "building": "yes",
        "id": "way/576054167"
      },
      "geometry": {
        "type": "Polygon",
        "coordinates": [
          [
            [
              -38.7094039,
              -12.5482166
            ],
            [
              -38.709261,
              -12.5481322
            ],
            [
              -38.7093005,
              -12.5480542
            ],
            [
              -38.7094595,
              -12.5481408
            ],
            [
              -38.7094039,
              -12.5482166
            ]
          ]
        ]
      }
    },
    {
      "type": "Feature",
      "id": "way/606802350",
      "properties": {
        "timestamp": "2019-04-09T13:58:20Z",
        "version": 2,
        "changeset": 69047437,
        "addr:city": "Santo Amaro",
        "addr:postcode": "44200-000",
        "addr:street": "Avenida Presidente Getúlio Vargas",
        "addr:suburb": "Centro",
        "amenity": "social_facility",
        "building": "yes",
        "name": "Bolsa Familia",
        "id": "way/606802350"
      },
      "geometry": {
        "type": "Polygon",
        "coordinates": [
          [
            [
              -38.7042268,
              -12.552105
            ],
            [
              -38.7040501,
              -12.5522774
            ],
            [
              -38.7039606,
              -12.5521958
            ],
            [
              -38.704148,
              -12.5520397
            ],
            [
              -38.7042268,
              -12.552105
            ]
          ]
        ]
      }
    },
    {
      "type": "Feature",
      "id": "node/5263975107",
      "properties": {
        "timestamp": "2021-06-07T20:44:11Z",
        "version": 3,
        "changeset": 105994511,
        "addr:city": "Santo Amaro",
        "addr:postcode": "44200-000",
        "addr:street": "Praça da Purificação",
        "amenity": "social_facility",
        "name": "Assistência Social",
        "id": "node/5263975107"
      },
      "geometry": {
        "type": "Point",
        "coordinates": [
          -38.70933,
          -12.5482931
        ]
      }
    },
    {
      "type": "Feature",
      "id": "node/5263975109",
      "properties": {
        "timestamp": "2021-06-07T20:44:11Z",
        "version": 5,
        "changeset": 105994511,
        "addr:city": "Santo Amaro",
        "addr:postcode": "44200-000",
        "addr:street": "Praça da Purificação",
        "addr:suburb": "Centro",
        "amenity": "social_facility",
        "name": "Antigo Prédio da Assistência Social",
        "id": "node/5263975109"
      },
      "geometry": {
        "type": "Point",
        "coordinates": [
          -38.7094051,
          -12.5481518
        ]
      }
    }
  ]
}
