{
  "type": "FeatureCollection",
  "features": [
    {
      "type": "Feature",
      "id": "way/487072388",
      "properties": {
        "timestamp": "2022-05-07T23:56:25Z",
        "version": 3,
        "changeset": 120685562,
        "addr:city": "Araçuaí",
        "addr:postcode": "39600-000",
        "addr:suburb": "Itira",
        "amenity": "clinic",
        "building": "yes",
        "building:levels": "1",
        "healthcare": "clinic",
        "id": "way/487072388"
      },
      "geometry": {
        "type": "Polygon",
        "coordinates": [
          [
            [
              -42.0114793,
              -16.7640949
            ],
            [
              -42.011435,
              -16.7641432
            ],
            [
              -42.0113824,
              -16.764099
            ],
            [
              -42.0114267,
              -16.7640507
            ],
            [
              -42.0114793,
              -16.7640949
            ]
          ]
        ]
      }
    },
    {
      "type": "Feature",
      "id": "way/1138700314",
      "properties": {
        "timestamp": "2023-02-07T12:45:45Z",
        "version": 1,
        "changeset": 132204437,
        "addr:city": "Araçuaí",
        "addr:housenumber": "275",
        "addr:postcode": "39600-000",
        "addr:street": "Rua Floriano Peixoto",
        "addr:suburb": "Esplanada",
        "amenity": "clinic",
        "healthcare": "dentist",
        "healthcare:speciality": "orthodontics;implantes_dentais;pilates;physiatry;ophthalmology;endocrinology;tropical",
        "name": "Clínica Nova Saúde & Vida",
        "opening_hours": "Mo-Fr 07:00-19:00",
        "id": "way/1138700314"
      },
      "geometry": {
        "type": "Polygon",
        "coordinates": [
          [
            [
              -42.0602436,
              -16.8545186
            ],
            [
              -42.0602006,
              -16.854602
            ],
            [
              -42.0599539,
              -16.8545006
            ],
            [
              -42.0599847,
              -16.8544082
            ],
            [
              -42.0602436,
              -16.8545186
            ]
          ]
        ]
      }
    }
  ]
}
