{
  "type": "FeatureCollection",
  "features": [
    {
      "type": "Feature",
      "id": "node/9677005525",
      "properties": {
        "timestamp": "2022-04-19T11:25:38Z",
        "version": 1,
        "changeset": 119902292,
        "addr:city": "Araçuaí",
        "addr:housenumber": "289",
        "addr:postcode": "39600-000",
        "addr:street": "Avenida Doutor Nuno Melo",
        "addr:suburb": "Centro",
        "email": "aps11033060@inss.gov.br",
        "government": "administrative",
        "name": "Agência da Previdência Social de Araçuaí - Inss",
        "office": "government",
        "opening_hours": "Mo-Fr 09:00-17:00",
        "id": "node/9677005525"
      },
      "geometry": {
        "type": "Point",
        "coordinates": [
          -42.0675062,
          -16.8526725
        ]
      }
    },
    {
      "type": "Feature",
      "id": "node/9777625612",
      "properties": {
        "timestamp": "2022-05-28T18:13:59Z",
        "version": 1,
        "changeset": 121628027,
        "addr:city": "Araçuaí",
        "addr:housenumber": "386",
        "addr:postcode": "39600-000",
        "addr:street": "Rua Dom Serafim",
        "addr:suburb": "Centro",
        "government": "prosecutor",
        "name": "Promotoria de Justiça de Minas Gerais em Araçuaí",
        "office": "government",
        "operator": "Ministério Público do Estado de Minas Gerais",
        "phone": "+55 33 3731 4026",
        "id": "node/9777625612"
      },
      "geometry": {
        "type": "Point",
        "coordinates": [
          -42.0620948,
          -16.8551627
        ]
      }
    },
    {
      "type": "Feature",
      "id": "node/9777969872",
      "properties": {
        "timestamp": "2022-05-28T21:44:54Z",
        "version": 1,
        "changeset": 121633779,
        "addr:city": "Araçuaí",
        "addr:housenumber": "268",
        "addr:postcode": "39600-000",
        "addr:street": "Avenida Montes Claros",
        "addr:suburb": "Santa Teresa",
        "email": "zona015@tre-mg.jus.br",
        "government": "register_office",
        "name": "Cartório da Décima Quinta Zona Eleitoral de Araçuaí",
        "office": "government",
        "operator": "Tribunal Regional Eleitoral de Minas Gerais",
        "phone": "+55 33 3731 1022",
        "id": "node/9777969872"
      },
      "geometry": {
        "type": "Point",
        "coordinates": [
          -42.0618448,
          -16.8558053
        ]
      }
    },
    {
      "type": "Feature",
      "id": "node/9780262537",
      "properties": {
        "timestamp": "2022-05-29T22:50:26Z",
        "version": 1,
        "changeset": 121680752,
        "addr:city": "Araçuaí",
        "addr:postcode": "39600-000",
        "addr:street": "Rua das Tulipas",
        "addr:suburb": "Nova Terra",
        "government": "administrative",
        "name": "Superintendência Regional de Ensino de Araçuaí",
        "office": "government",
        "id": "node/9780262537"
      },
      "geometry": {
        "type": "Point",
        "coordinates": [
          -42.0673369,
          -16.8462553
        ]
      }
    },
    {
      "type": "Feature",
      "id": "node/9780262538",
      "properties": {
        "timestamp": "2022-05-29T22:50:26Z",
        "version": 1,
        "changeset": 121680752,
        "addr:city": "Araçuaí",
        "addr:postcode": "39600-000",
        "addr:street": "Rua Rodolfo Von Zastrow",
        "addr:suburb": "Alto Santuário",
        "government": "administrative",
        "name": "Emater",
        "office": "government",
        "id": "node/9780262538"
      },
      "geometry": {
        "type": "Point",
        "coordinates": [
          -42.0679549,
          -16.851665
        ]
      }
    },
    {
      "type": "Feature",
      "id": "node/9780262539",
      "properties": {
        "timestamp": "2022-05-29T22:50:26Z",
        "version": 1,
        "changeset": 121680752,
        "addr:city": "Araçuaí",
        "addr:postcode": "39600-000",
        "addr:street": "Rua Rodolfo Von Zastrow",
        "addr:suburb": "Alto Santuário",
        "government": "administrative",
        "name": "Secretaria Municipal de Educação",
        "office": "government",
        "id": "node/9780262539"
      },
      "geometry": {
        "type": "Point",
        "coordinates": [
          -42.0678645,
          -16.8513421
        ]
      }
    }
  ]
}
