{
  "type": "FeatureCollection",
  "features": [
    {
      "type": "Feature",
      "id": "node/9676111756",
      "properties": {
        "timestamp": "2022-04-19T03:38:55Z",
        "version": 1,
        "changeset": 119884433,
        "addr:city": "Araçuaí",
        "addr:housenumber": "1534",
        "addr:postcode": "39600-000",
        "addr:street": "Rua Montes Claros",
        "addr:suburb": "Santa Teresa",
        "email": "roxocont@uai.com.br",
        "name": "Hotel Village das Minas",
        "phone": "+55 33 3731 4080",
        "tourism": "hotel",
        "id": "node/9676111756"
      },
      "geometry": {
        "type": "Point",
        "coordinates": [
          -42.0493376,
          -16.8506146
        ]
      }
    },
    {
      "type": "Feature",
      "id": "node/9676111757",
      "properties": {
        "timestamp": "2022-04-19T03:38:55Z",
        "version": 1,
        "changeset": 119884433,
        "addr:city": "Araçuaí",
        "addr:housenumber": "100",
        "addr:postcode": "39600-000",
        "addr:street": "Rua Miguel Chalub",
        "addr:suburb": "Santa Teresa",
        "name": "Pousada das Araras",
        "tourism": "hotel",
        "id": "node/9676111757"
      },
      "geometry": {
        "type": "Point",
        "coordinates": [
          -42.0523798,
          -16.8519927
        ]
      }
    },
    {
      "type": "Feature",
      "id": "node/9676111758",
      "properties": {
        "timestamp": "2022-04-19T03:38:55Z",
        "version": 1,
        "changeset": 119884433,
        "addr:city": "Araçuaí",
        "addr:housenumber": "1484",
        "addr:postcode": "39600-000",
        "addr:street": "Rua Montes Claros",
        "addr:suburb": "Santa Teresa",
        "name": "Pousada Comodoro",
        "phone": "+55 33 3731 1893",
        "tourism": "hotel",
        "id": "node/9676111758"
      },
      "geometry": {
        "type": "Point",
        "coordinates": [
          -42.049694,
          -16.8507292
        ]
      }
    }
  ]
}
