{
  "type": "FeatureCollection",
  "features": [
    {
      "type": "Feature",
      "id": "way/1156010042",
      "properties": {
        "timestamp": "2023-03-21T11:02:20Z",
        "version": 1,
        "changeset": 133935338,
        "addr:city": "Sinop",
        "addr:housenumber": "1966",
        "addr:postcode": "78550-110",
        "addr:street": "Avenida das Embaúbas",
        "addr:suburb": "Setor Comercial",
        "building": "yes",
        "name": "Transamérica Fit",
        "tourism": "hotel",
        "id": "way/1156010042"
      },
      "geometry": {
        "type": "Polygon",
        "coordinates": [
          [
            [
              -55.5134626,
              -11.855824
            ],
            [
              -55.5135035,
              -11.8559827
            ],
            [
              -55.5131958,
              -11.8560598
            ],
            [
              -55.5131549,
              -11.8559011
            ],
            [
              -55.5134626,
              -11.855824
            ]
          ]
        ]
      }
    },
    {
      "type": "Feature",
      "id": "node/1744440131",
      "properties": {
        "timestamp": "2024-06-28T07:28:37Z",
        "version": 7,
        "changeset": 153278701,
        "addr:housenumber": "289",
        "addr:street": "Avenida dos Tarumãs",
        "description": "100,00 c/ café e estacionamento",
        "name": "Garcia Palace Hotel",
        "phone": "+55 66 3531 4430",
        "source": "byHand",
        "tourism": "hotel",
        "website": "https://www.garciapalacehotel.com.br/site/",
        "id": "node/1744440131"
      },
      "geometry": {
        "type": "Point",
        "coordinates": [
          -55.4992816,
          -11.8660623
        ]
      }
    },
    {
      "type": "Feature",
      "id": "node/1744444390",
      "properties": {
        "timestamp": "2020-04-20T14:17:40Z",
        "version": 3,
        "changeset": 83827191,
        "addr:housenumber": "493",
        "addr:street": "Avenida das Figueiras",
        "description": "129,00 R$ c/ café",
        "name": "Italian Palace Hotel",
        "phone": "+66 35 312 109",
        "source": "byHand",
        "tourism": "hotel",
        "id": "node/1744444390"
      },
      "geometry": {
        "type": "Point",
        "coordinates": [
          -55.4992121,
          -11.8547288
        ]
      }
    },
    {
      "type": "Feature",
      "id": "node/1744447497",
      "properties": {
        "timestamp": "2023-07-07T18:44:30Z",
        "version": 5,
        "changeset": 138240536,
        "addr:housenumber": "180",
        "addr:street": "Avenida das Figueiras",
        "name": "Hotel Ucayali",
        "phone": "+55 66 3517 1212",
        "source": "byHand",
        "tourism": "hotel",
        "website": "https://www.ucayali.com.br/",
        "id": "node/1744447497"
      },
      "geometry": {
        "type": "Point",
        "coordinates": [
          -55.49619,
          -11.856064
        ]
      }
    },
    {
      "type": "Feature",
      "id": "node/1745610217",
      "properties": {
        "timestamp": "2022-06-27T21:38:21Z",
        "version": 3,
        "changeset": 122929390,
        "addr:housenumber": "5213",
        "addr:street": "Rua Colonizador Ênio Pepino",
        "name": "Hotel Cancioneiro",
        "phone": "+55 66 3531 0969",
        "tourism": "hotel",
        "id": "node/1745610217"
      },
      "geometry": {
        "type": "Point",
        "coordinates": [
          -55.4998961,
          -11.8770759
        ]
      }
    },
    {
      "type": "Feature",
      "id": "node/1745612010",
      "properties": {
        "timestamp": "2023-07-07T18:43:58Z",
        "version": 7,
        "changeset": 138240514,
        "addr:housenumber": "534",
        "addr:street": "Avenida dos Tarumãs",
        "addr:suburb": "Centro",
        "description": "70,00 c/ café, wireless, estac., AC, Clean & OK",
        "name": "Plaza Hotel Sinop",
        "phone": "+55 66 3531 5229",
        "tourism": "hotel",
        "website": "http://www.plazahotelmt.com.br/index.php",
        "id": "node/1745612010"
      },
      "geometry": {
        "type": "Point",
        "coordinates": [
          -55.5009951,
          -11.8648709
        ]
      }
    }
  ]
}
