{
  "type": "FeatureCollection",
  "features": [
    {
      "type": "Feature",
      "id": "node/10789203202",
      "properties": {
        "timestamp": "2023-04-06T03:29:38Z",
        "version": 2,
        "changeset": 134559515,
        "addr:housenumber": "1530",
        "addr:street": "Rua Sabina Serra Recetto",
        "addr:suburb": "São Luiz do Purunã",
        "amenity": "clinic",
        "healthcare": "clinic",
        "name": "Unidade de Saúde Governador José Richa",
        "operator:type": "public",
        "id": "node/10789203202"
      },
      "geometry": {
        "type": "Point",
        "coordinates": [
          -49.7104758,
          -25.4709472
        ]
      }
    },
    {
      "type": "Feature",
      "id": "node/10789203203",
      "properties": {
        "timestamp": "2023-04-06T03:29:38Z",
        "version": 2,
        "changeset": 134559515,
        "addr:street": "Rua Vereador Domingos Poletto Ribeiro",
        "addr:suburb": "Bugre",
        "amenity": "clinic",
        "healthcare": "clinic",
        "name": "Unidade de Saúde Tancredo Neves",
        "operator:type": "public",
        "id": "node/10789203203"
      },
      "geometry": {
        "type": "Point",
        "coordinates": [
          -49.6217592,
          -25.4987189
        ]
      }
    },
    {
      "type": "Feature",
      "id": "node/10789203204",
      "properties": {
        "timestamp": "2023-04-06T03:29:38Z",
        "version": 2,
        "changeset": 134559515,
        "addr:housenumber": "161",
        "addr:street": "Rua Getúlio Vargas",
        "addr:suburb": "Centro",
        "amenity": "clinic",
        "healthcare": "clinic",
        "name": "Unidade de Atenção Primária em Saúde da Família Elizabeth Nascimento",
        "operator:type": "public",
        "id": "node/10789203204"
      },
      "geometry": {
        "type": "Point",
        "coordinates": [
          -49.6282834,
          -25.5849257
        ]
      }
    },
    {
      "type": "Feature",
      "id": "node/10789216205",
      "properties": {
        "timestamp": "2023-04-06T03:29:38Z",
        "version": 2,
        "changeset": 134559515,
        "addr:street": "Rua São Caetano",
        "addr:suburb": "São Caetano",
        "amenity": "clinic",
        "healthcare": "clinic",
        "name": "Unidade de Saúde São Caetano",
        "operator:type": "public",
        "id": "node/10789216205"
      },
      "geometry": {
        "type": "Point",
        "coordinates": [
          -49.5840335,
          -25.4581713
        ]
      }
    },
    {
      "type": "Feature",
      "id": "node/10789216206",
      "properties": {
        "timestamp": "2023-04-06T03:29:38Z",
        "version": 2,
        "changeset": 134559515,
        "addr:housenumber": "565",
        "addr:street": "Rua Dom Pedro I",
        "addr:suburb": "Jardim Serrinha",
        "amenity": "clinic",
        "healthcare": "clinic",
        "name": "Unidade de Saúde Itambé",
        "operator:type": "public",
        "id": "node/10789216206"
      },
      "geometry": {
        "type": "Point",
        "coordinates": [
          -49.6058881,
          -25.4527294
        ]
      }
    }
  ]
}
