{
  "type": "FeatureCollection",
  "features": [
    {
      "type": "Feature",
      "id": "node/2597696903",
      "properties": {
        "timestamp": "2024-08-11T22:51:39Z",
        "version": 6,
        "changeset": 155124237,
        "addr:city": "Rio de Contas",
        "addr:postcode": "46170-970",
        "addr:street": "Rua Bandeirantes",
        "addr:suburb": "Centro",
        "check_date": "2024-08-11",
        "internet_access": "yes",
        "internet_access:fee": "no",
        "name": "Pousada Aconchego",
        "phone": "+55 77 34752714",
        "tourism": "hotel",
        "wheelchair": "no",
        "id": "node/2597696903"
      },
      "geometry": {
        "type": "Point",
        "coordinates": [
          -41.8123559,
          -13.5781506
        ]
      }
    },
    {
      "type": "Feature",
      "id": "node/2601152798",
      "properties": {
        "timestamp": "2014-10-10T13:03:08Z",
        "version": 2,
        "changeset": 25982646,
        "addr:city": "Rio de Contas",
        "addr:postcode": "46170-970",
        "addr:street": "Praça Coronel Carlos Souto",
        "addr:suburb": "Centro",
        "name": "Pousada Flamboyant",
        "tourism": "hotel",
        "id": "node/2601152798"
      },
      "geometry": {
        "type": "Point",
        "coordinates": [
          -41.8108941,
          -13.5819525
        ]
      }
    },
    {
      "type": "Feature",
      "id": "node/2601152799",
      "properties": {
        "timestamp": "2014-10-10T13:03:09Z",
        "version": 2,
        "changeset": 25982646,
        "addr:city": "Rio de Contas",
        "addr:postcode": "46170-970",
        "addr:street": "Rua Quinze de Novembro",
        "addr:suburb": "Centro",
        "name": "Pousada Pérola do Rio",
        "tourism": "hotel",
        "wheelchair": "no",
        "id": "node/2601152799"
      },
      "geometry": {
        "type": "Point",
        "coordinates": [
          -41.8115231,
          -13.5803158
        ]
      }
    },
    {
      "type": "Feature",
      "id": "node/2601152800",
      "properties": {
        "timestamp": "2014-10-10T13:03:09Z",
        "version": 2,
        "changeset": 25982646,
        "addr:city": "Rio de Contas",
        "addr:housenumber": "34",
        "addr:postcode": "46170-970",
        "addr:street": "Rua Barão do Rio Branco",
        "addr:suburb": "Centro",
        "name": "Pousada Rio de Contas",
        "tourism": "hotel",
        "wheelchair": "no",
        "id": "node/2601152800"
      },
      "geometry": {
        "type": "Point",
        "coordinates": [
          -41.8113243,
          -13.580943
        ]
      }
    },
    {
      "type": "Feature",
      "id": "node/2601370916",
      "properties": {
        "timestamp": "2014-10-10T13:03:08Z",
        "version": 2,
        "changeset": 25982646,
        "addr:city": "Rio de Contas",
        "addr:postcode": "46170-970",
        "addr:suburb": "Centro",
        "name": "Pousada Maia",
        "tourism": "hotel",
        "id": "node/2601370916"
      },
      "geometry": {
        "type": "Point",
        "coordinates": [
          -41.8139135,
          -13.5820481
        ]
      }
    },
    {
      "type": "Feature",
      "id": "node/2703038795",
      "properties": {
        "timestamp": "2014-03-05T21:10:10Z",
        "version": 2,
        "changeset": 20938694,
        "addr:city": "Rio de Contas",
        "addr:postcode": "46170-000",
        "addr:street": "BA-148",
        "name": "Lamuor",
        "tourism": "hotel",
        "id": "node/2703038795"
      },
      "geometry": {
        "type": "Point",
        "coordinates": [
          -41.8115406,
          -13.6053056
        ]
      }
    },
    {
      "type": "Feature",
      "id": "node/2703059724",
      "properties": {
        "timestamp": "2023-08-29T09:21:20Z",
        "version": 3,
        "changeset": 140530970,
        "addr:city": "Rio de Contas",
        "addr:housenumber": "n/s",
        "addr:postcode": "46170-000",
        "addr:street": "Rua Alto do Cruzeiro",
        "addr:suburb": "Bela Vista",
        "name": "San Felipe",
        "tourism": "hotel",
        "id": "node/2703059724"
      },
      "geometry": {
        "type": "Point",
        "coordinates": [
          -41.8127154,
          -13.5677262
        ]
      }
    }
  ]
}
