{
  "type": "FeatureCollection",
  "features": [
    {
      "type": "Feature",
      "id": "way/722264493",
      "properties": {
        "timestamp": "2019-09-07T13:49:59Z",
        "version": 2,
        "changeset": 74206207,
        "addr:city": "São Gonçalo do Piauí",
        "addr:postcode": "64435000",
        "addr:street": "Rua Adonias Coelho",
        "addr:suburb": "centro",
        "amenity": "school",
        "building": "school",
        "name": "Unidade Escolar Valduce Ribeiro",
        "id": "way/722264493"
      },
      "geometry": {
        "type": "Polygon",
        "coordinates": [
          [
            [
              -42.702817,
              -5.9969079
            ],
            [
              -42.7029109,
              -5.9971693
            ],
            [
              -42.702483,
              -5.9973214
            ],
            [
              -42.702389,
              -5.9970601
            ],
            [
              -42.702817,
              -5.9969079
            ]
          ]
        ]
      }
    },
    {
      "type": "Feature",
      "id": "way/722928118",
      "properties": {
        "timestamp": "2022-02-07T17:27:15Z",
        "version": 2,
        "changeset": 117128768,
        "addr:city": "São Gonçalo do Piauí",
        "addr:housenumber": "655",
        "addr:postcode": "64435-000",
        "addr:street": "Rua Adonias Coelho",
        "addr:suburb": "Centro",
        "amenity": "school",
        "name": "Grupo Escolar Francisco Nunes",
        "id": "way/722928118"
      },
      "geometry": {
        "type": "Polygon",
        "coordinates": [
          [
            [
              -42.7040211,
              -6.0002874
            ],
            [
              -42.7041542,
              -6.0006215
            ],
            [
              -42.7035044,
              -6.0008668
            ],
            [
              -42.7033841,
              -6.0005136
            ],
            [
              -42.7040211,
              -6.0002874
            ]
          ]
        ]
      }
    },
    {
      "type": "Feature",
      "id": "way/1222359478",
      "properties": {
        "timestamp": "2023-11-09T22:14:56Z",
        "version": 1,
        "changeset": 143840945,
        "amenity": "school",
        "name": "Unidade Escolar Gregório Barbosa",
        "id": "way/1222359478"
      },
      "geometry": {
        "type": "Polygon",
        "coordinates": [
          [
            [
              -42.7016025,
              -6.0008828
            ],
            [
              -42.7018242,
              -6.001477
            ],
            [
              -42.7014861,
              -6.0016019
            ],
            [
              -42.7012642,
              -6.0010078
            ],
            [
              -42.7016025,
              -6.0008828
            ]
          ]
        ]
      }
    },
    {
      "type": "Feature",
      "id": "node/6774956341",
      "properties": {
        "timestamp": "2019-09-05T15:16:36Z",
        "version": 1,
        "changeset": 74140553,
        "addr:street": "Rua Adonias Coelho",
        "amenity": "school",
        "name": "Unidade Escolar Valduce Ribeiro",
        "id": "node/6774956341"
      },
      "geometry": {
        "type": "Point",
        "coordinates": [
          -42.7027373,
          -5.9971359
        ]
      }
    },
    {
      "type": "Feature",
      "id": "node/9487413776",
      "properties": {
        "timestamp": "2022-02-07T17:27:56Z",
        "version": 1,
        "changeset": 117128795,
        "addr:city": "São Gonçalo do Piauí",
        "addr:housenumber": "147",
        "addr:postcode": "64435-000",
        "addr:street": "Rua Tupy Guarani",
        "addr:suburb": "Centro",
        "amenity": "school",
        "name": "U E Sebastiao Cruz",
        "id": "node/9487413776"
      },
      "geometry": {
        "type": "Point",
        "coordinates": [
          -42.7024265,
          -5.9983518
        ]
      }
    },
    {
      "type": "Feature",
      "id": "node/10167865109",
      "properties": {
        "timestamp": "2022-11-08T02:47:34Z",
        "version": 1,
        "changeset": 128620004,
        "addr:city": "São Gonçalo do Piauí",
        "addr:postcode": "64435-000",
        "amenity": "school",
        "name": "Escola José Pereira de Quadros",
        "id": "node/10167865109"
      },
      "geometry": {
        "type": "Point",
        "coordinates": [
          -42.6384531,
          -5.9717713
        ]
      }
    }
  ]
}
