{
  "type": "FeatureCollection",
  "features": [
    {
      "type": "Feature",
      "id": "node/2692998683",
      "properties": {
        "timestamp": "2019-10-21T15:59:28Z",
        "version": 2,
        "changeset": 76007581,
        "name": "Hotel Fazenda Vale das Cachoeiras",
        "tourism": "hotel",
        "id": "node/2692998683"
      },
      "geometry": {
        "type": "Point",
        "coordinates": [
          -48.1820219,
          -16.1239918
        ]
      }
    },
    {
      "type": "Feature",
      "id": "node/10556836668",
      "properties": {
        "timestamp": "2023-01-15T15:03:59Z",
        "version": 1,
        "changeset": 131301601,
        "name": "CLAT Centro de Lazer Treinamento",
        "tourism": "hotel",
        "id": "node/10556836668"
      },
      "geometry": {
        "type": "Point",
        "coordinates": [
          -48.1521535,
          -16.1275205
        ]
      }
    },
    {
      "type": "Feature",
      "id": "node/12537644988",
      "properties": {
        "timestamp": "2025-01-28T02:50:59Z",
        "version": 1,
        "changeset": 161841369,
        "addr:city": "Santo Antônio do Descoberto",
        "addr:housenumber": "54",
        "addr:postcode": "72900-362",
        "addr:street": "Avenida Conceição",
        "addr:suburb": "Centro",
        "check_date": "2025-01-28",
        "currency:XBT": "yes",
        "email": "elluspalace@gmail.com",
        "name": "Ellus Palace Hotéis E Salas Comerciais Ltda",
        "opening_hours": "24/7",
        "payment:lightning": "yes",
        "payment:lightning_contactless": "yes",
        "payment:onchain": "yes",
        "phone": "+55 61 99612 9530",
        "tourism": "hotel",
        "website": "https://elluspalace.com.br",
        "id": "node/12537644988"
      },
      "geometry": {
        "type": "Point",
        "coordinates": [
          -48.2652448,
          -15.9439524
        ]
      }
    }
  ]
}
