{
  "type": "FeatureCollection",
  "features": [
    {
      "type": "Feature",
      "id": "way/826246788",
      "properties": {
        "timestamp": "2023-05-03T23:26:27Z",
        "version": 2,
        "changeset": 135679357,
        "addr:city": "Rorain√≥polis",
        "addr:postcode": "69373-000",
        "addr:street": "BR 174 KM 461, S/N",
        "addr:suburb": "Centro",
        "amenity": "hospital",
        "emergency": "yes",
        "healthcare": "hospital",
        "name": "Hospital Regional Sul Governador Ottomar De Souza Pinto",
        "operator": "Governo Estadual",
        "operator:ref:vatin": "BR84012012000126",
        "operator:type": "public",
        "phone": "+55 95 98409 1351",
        "ref:CNES": "7470371",
        "id": "way/826246788"
      },
      "geometry": {
        "type": "Polygon",
        "coordinates": [
          [
            [
              -60.4220056,
              0.9464814
            ],
            [
              -60.4209407,
              0.9461489
            ],
            [
              -60.4204096,
              0.947884
            ],
            [
              -60.4216515,
              0.9482648
            ],
            [
              -60.421917,
              0.9473798
            ],
            [
              -60.4220056,
              0.9464814
            ]
          ]
        ]
      }
    }
  ]
}
