{
  "type": "FeatureCollection",
  "features": [
    {
      "type": "Feature",
      "id": "way/1162791416",
      "properties": {
        "timestamp": "2023-04-17T03:34:38Z",
        "version": 2,
        "changeset": 134997473,
        "addr:city": "Itacaré",
        "addr:postcode": "45530-000",
        "addr:street": "Rua Pedro Longo",
        "addr:suburb": "Praia das Conchas",
        "amenity": "school",
        "email": "escolamanoelcastro@hotmail.com",
        "name": "Escola Municipal Doutor Manoel de Castro",
        "operator": "Município de Itacaré",
        "operator:type": "public",
        "phone": "+55 73 3251 3671",
        "id": "way/1162791416"
      },
      "geometry": {
        "type": "Polygon",
        "coordinates": [
          [
            [
              -38.987831,
              -14.2808601
            ],
            [
              -38.9878697,
              -14.2808882
            ],
            [
              -38.9878968,
              -14.2809276
            ],
            [
              -38.9879858,
              -14.2812313
            ],
            [
              -38.9879819,
              -14.2812706
            ],
            [
              -38.9879587,
              -14.2813044
            ],
            [
              -38.9874403,
              -14.2814843
            ],
            [
              -38.9872852,
              -14.2810417
            ],
            [
              -38.9877937,
              -14.2808724
            ],
            [
              -38.987831,
              -14.2808601
            ]
          ]
        ]
      }
    },
    {
      "type": "Feature",
      "id": "way/1162791427",
      "properties": {
        "timestamp": "2023-04-15T12:43:44Z",
        "version": 1,
        "changeset": 134938788,
        "addr:city": "Itacaré",
        "addr:housenumber": "159",
        "addr:postcode": "45530-000",
        "addr:street": "Rua Rui Barbosa",
        "addr:suburb": "Centro",
        "amenity": "school",
        "name": "Colégio Estadual Aurelino Leal",
        "operator": "Governo do Estado da Bahia",
        "operator:type": "public",
        "phone": "+55 73 3251 3408",
        "id": "way/1162791427"
      },
      "geometry": {
        "type": "Polygon",
        "coordinates": [
          [
            [
              -38.996025,
              -14.2782394
            ],
            [
              -38.9958789,
              -14.2783907
            ],
            [
              -38.9956438,
              -14.2782052
            ],
            [
              -38.9958201,
              -14.2780311
            ],
            [
              -38.996025,
              -14.2782394
            ]
          ]
        ]
      }
    },
    {
      "type": "Feature",
      "id": "way/1162854485",
      "properties": {
        "timestamp": "2023-04-15T18:07:43Z",
        "version": 1,
        "changeset": 134950827,
        "addr:city": "Itacaré",
        "addr:postcode": "45530-000",
        "addr:suburb": "Centro",
        "amenity": "school",
        "id": "way/1162854485"
      },
      "geometry": {
        "type": "Polygon",
        "coordinates": [
          [
            [
              -38.9950081,
              -14.2803861
            ],
            [
              -38.9947231,
              -14.2803782
            ],
            [
              -38.9947312,
              -14.280151
            ],
            [
              -38.9950101,
              -14.2800942
            ],
            [
              -38.9950081,
              -14.2803861
            ]
          ]
        ]
      }
    },
    {
      "type": "Feature",
      "id": "way/1162854489",
      "properties": {
        "timestamp": "2023-04-15T18:07:43Z",
        "version": 1,
        "changeset": 134950827,
        "addr:city": "Itacaré",
        "addr:postcode": "45530-000",
        "addr:street": "Rua João de Souza",
        "addr:suburb": "Centro",
        "amenity": "school",
        "name": "Escola Municipal Maria Benjamina da Cruz",
        "operator": "Município de Itacaré",
        "operator:type": "public",
        "id": "way/1162854489"
      },
      "geometry": {
        "type": "Polygon",
        "coordinates": [
          [
            [
              -38.9946325,
              -14.2805419
            ],
            [
              -38.9944532,
              -14.2805351
            ],
            [
              -38.9944765,
              -14.2801808
            ],
            [
              -38.9946115,
              -14.280147
            ],
            [
              -38.9946511,
              -14.2801786
            ],
            [
              -38.9946325,
              -14.2805419
            ]
          ]
        ]
      }
    },
    {
      "type": "Feature",
      "id": "way/1162854490",
      "properties": {
        "timestamp": "2023-04-17T03:39:39Z",
        "version": 3,
        "changeset": 134997523,
        "addr:city": "Itacaré",
        "addr:postcode": "45530-000",
        "addr:street": "Praça da Bandeira",
        "addr:suburb": "Centro",
        "amenity": "school",
        "name": "Escola Municipal Joserinda Pereira",
        "operator": "Município de Itacaré",
        "operator:type": "public",
        "phone": "+55 73 99983 3828",
        "id": "way/1162854490"
      },
      "geometry": {
        "type": "Polygon",
        "coordinates": [
          [
            [
              -38.9946162,
              -14.280596
            ],
            [
              -38.9946016,
              -14.2808748
            ],
            [
              -38.9943125,
              -14.2808939
            ],
            [
              -38.9943054,
              -14.28081
            ],
            [
              -38.9941947,
              -14.2807988
            ],
            [
              -38.9942186,
              -14.2805702
            ],
            [
              -38.9946162,
              -14.280596
            ]
          ]
        ]
      }
    },
    {
      "type": "Feature",
      "id": "way/1162854492",
      "properties": {
        "timestamp": "2023-04-15T18:07:43Z",
        "version": 1,
        "changeset": 134950827,
        "addr:city": "Itacaré",
        "addr:postcode": "45530-000",
        "addr:street": "Rua Ataíde Setúbal",
        "addr:suburb": "Centro",
        "amenity": "school",
        "name": "Centro Educacional Especializado de Itacaré",
        "operator": "Município de Itacaré",
        "operator:type": "public",
        "id": "way/1162854492"
      },
      "geometry": {
        "type": "Polygon",
        "coordinates": [
          [
            [
              -38.9944532,
              -14.2805351
            ],
            [
              -38.9942227,
              -14.2805283
            ],
            [
              -38.9942186,
              -14.2805702
            ],
            [
              -38.9941947,
              -14.2807988
            ],
            [
              -38.9939549,
              -14.2807608
            ],
            [
              -38.9938617,
              -14.2803365
            ],
            [
              -38.9940294,
              -14.2802936
            ],
            [
              -38.9940131,
              -14.2802395
            ],
            [
              -38.9944765,
              -14.2801808
            ],
            [
              -38.9944532,
              -14.2805351
            ]
          ]
        ]
      }
    },
    {
      "type": "Feature",
      "id": "way/1162945252",
      "properties": {
        "timestamp": "2023-04-16T01:34:01Z",
        "version": 1,
        "changeset": 134959518,
        "addr:city": "Itacaré",
        "addr:housenumber": "550",
        "addr:postcode": "45530-000",
        "addr:street": "Avenida Alto da Boa Vista",
        "addr:suburb": "Alto da Boa Vista",
        "amenity": "school",
        "email": "cbatistaitacare@hotmail.com",
        "name": "Colégio Batista de Itacaré",
        "phone": "+55 73 3251 3439",
        "id": "way/1162945252"
      },
      "geometry": {
        "type": "Polygon",
        "coordinates": [
          [
            [
              -39.0003975,
              -14.2923912
            ],
            [
              -39.0003595,
              -14.2928393
            ],
            [
              -39.0001495,
              -14.2928155
            ],
            [
              -39.0001518,
              -14.2923436
            ],
            [
              -39.0003975,
              -14.2923912
            ]
          ]
        ]
      }
    }
  ]
}
