{
  "type": "FeatureCollection",
  "features": [
    {
      "type": "Feature",
      "id": "relation/9803991",
      "properties": {
        "timestamp": "2024-06-26T03:31:33Z",
        "version": 2,
        "changeset": 153182132,
        "addr:city": "Cachoeirinha",
        "addr:housenumber": "160",
        "addr:postcode": "94940-243",
        "addr:street": "Rua Silv√©rio Manoel da Silva",
        "addr:suburb": "Bairro Colinas",
        "amenity": "university",
        "building": "civic",
        "internet_access": "yes",
        "name": "Cesuca Faculdade Inedi",
        "type": "multipolygon",
        "website": "https://www.cesuca.edu.br/",
        "id": "relation/9803991"
      },
      "geometry": {
        "type": "Polygon",
        "coordinates": [
          [
            [
              -51.0819505,
              -29.9357452
            ],
            [
              -51.0815344,
              -29.935485
            ],
            [
              -51.0819413,
              -29.9349963
            ],
            [
              -51.0820973,
              -29.9350938
            ],
            [
              -51.0823639,
              -29.9352669
            ],
            [
              -51.0819505,
              -29.9357452
            ]
          ]
        ]
      }
    }
  ]
}
