{
  "type": "FeatureCollection",
  "features": [
    {
      "type": "Feature",
      "id": "way/275124858",
      "properties": {
        "timestamp": "2016-02-25T02:03:12Z",
        "version": 2,
        "changeset": 37426154,
        "IJSN:administra": "Municipal",
        "IJSN:classeCnae": "Fundamental",
        "addr:city": "Anchieta",
        "addr:housenumber": "50",
        "addr:postcode": "29230-000",
        "addr:street": "Avenida Anchieta",
        "addr:suburb": "Centro",
        "alt_name": "Escola Municipal de Ensino Fundamental",
        "amenity": "school",
        "contact:phone": "(28) 3536-1033",
        "name": "EMEF Irmã Terezinha Godoy de Almeida",
        "source": "IJSN",
        "id": "way/275124858"
      },
      "geometry": {
        "type": "Polygon",
        "coordinates": [
          [
            [
              -40.6519072,
              -20.8043506
            ],
            [
              -40.6521593,
              -20.8047611
            ],
            [
              -40.651555,
              -20.8051125
            ],
            [
              -40.6513388,
              -20.8047958
            ],
            [
              -40.6519072,
              -20.8043506
            ]
          ]
        ]
      }
    },
    {
      "type": "Feature",
      "id": "way/275124859",
      "properties": {
        "timestamp": "2016-02-25T02:03:19Z",
        "version": 3,
        "changeset": 37426154,
        "IJSN:administra": "Municipal",
        "IJSN:classeCnae": "Fundamental",
        "addr:city": "Anchieta",
        "addr:postcode": "29230-000",
        "addr:street": "Rua Helena de Medeiros",
        "addr:suburb": "Maimbá",
        "alt_name": "Escola Municipal de Ensino Infantil e Fundamental",
        "amenity": "school",
        "contact:phone": "(28) 3536-5144 / 3536-5167",
        "name": "EMEIEF Professora Maria Luiza Flores",
        "source": "IJSN",
        "id": "way/275124859"
      },
      "geometry": {
        "type": "Polygon",
        "coordinates": [
          [
            [
              -40.5763455,
              -20.7654422
            ],
            [
              -40.5760428,
              -20.7655792
            ],
            [
              -40.5759323,
              -20.7652962
            ],
            [
              -40.576211,
              -20.7651906
            ],
            [
              -40.5763455,
              -20.7654422
            ]
          ]
        ]
      }
    },
    {
      "type": "Feature",
      "id": "way/275264880",
      "properties": {
        "timestamp": "2023-06-22T21:58:06Z",
        "version": 2,
        "changeset": 137664626,
        "addr:neighbourhood": "Nova Jerusalem",
        "amenity": "school",
        "id": "way/275264880"
      },
      "geometry": {
        "type": "Polygon",
        "coordinates": [
          [
            [
              -40.6371662,
              -20.7935853
            ],
            [
              -40.6369023,
              -20.793542
            ],
            [
              -40.6369259,
              -20.7934158
            ],
            [
              -40.6369913,
              -20.7934265
            ],
            [
              -40.6370411,
              -20.7931607
            ],
            [
              -40.6372397,
              -20.7931932
            ],
            [
              -40.6371662,
              -20.7935853
            ]
          ]
        ]
      }
    },
    {
      "type": "Feature",
      "id": "way/492448634",
      "properties": {
        "timestamp": "2023-01-22T22:02:10Z",
        "version": 2,
        "changeset": 131583239,
        "addr:city": "Anchieta",
        "amenity": "school",
        "name": "EEEF Amarilis ferndes Garcia",
        "id": "way/492448634"
      },
      "geometry": {
        "type": "Polygon",
        "coordinates": [
          [
            [
              -40.6383929,
              -20.8083123
            ],
            [
              -40.63927,
              -20.8080173
            ],
            [
              -40.639379,
              -20.808293
            ],
            [
              -40.6393587,
              -20.8083237
            ],
            [
              -40.6387922,
              -20.8085144
            ],
            [
              -40.6383929,
              -20.8083123
            ]
          ]
        ]
      }
    },
    {
      "type": "Feature",
      "id": "node/2797719123",
      "properties": {
        "timestamp": "2014-04-17T21:11:58Z",
        "version": 1,
        "changeset": 21758261,
        "amenity": "school",
        "id": "node/2797719123"
      },
      "geometry": {
        "type": "Point",
        "coordinates": [
          -40.5899936,
          -20.8013547
        ]
      }
    },
    {
      "type": "Feature",
      "id": "node/2797719125",
      "properties": {
        "timestamp": "2023-01-21T11:48:14Z",
        "version": 4,
        "changeset": 131538358,
        "IJSN:administra": "Municipal",
        "IJSN:classeCnae": "Infantil e Fundamental",
        "addr:city": "Anchieta",
        "addr:postcode": "29230-000",
        "addr:street": "Rua José Ribeiro Muqui",
        "addr:suburb": "Ubu",
        "alt_name": "Escola Municipal de Ensino Infantil e Fundamental",
        "amenity": "school",
        "contact:phone": "+55 28 3536-5195",
        "name": "EMEIEF Elson Garcia",
        "source": "IJSN",
        "id": "node/2797719125"
      },
      "geometry": {
        "type": "Point",
        "coordinates": [
          -40.5888421,
          -20.8015068
        ]
      }
    },
    {
      "type": "Feature",
      "id": "node/2797725524",
      "properties": {
        "timestamp": "2019-07-11T17:33:19Z",
        "version": 3,
        "changeset": 72146221,
        "IJSN:administra": "Municipal",
        "IJSN:classeCnae": "Infantil e Fundamental",
        "addr:city": "Anchieta",
        "addr:postcode": "29230-000",
        "addr:street": "Rua Guaraci Gomes",
        "addr:suburb": "Praia dos Castelhanos",
        "alt_name": "Escola Municipal de Ensino Infantil e Fundamental",
        "amenity": "school",
        "contact:phone": "+55 28 3536-2795",
        "name": "EMEIEF Praia dos Castelhanos",
        "source": "IJSN",
        "id": "node/2797725524"
      },
      "geometry": {
        "type": "Point",
        "coordinates": [
          -40.6218239,
          -20.830599
        ]
      }
    },
    {
      "type": "Feature",
      "id": "node/2798962874",
      "properties": {
        "timestamp": "2019-07-11T17:33:19Z",
        "version": 3,
        "changeset": 72146221,
        "IJSN:administra": "Municipal",
        "IJSN:classeCnae": "Fundamental",
        "addr:city": "Anchieta",
        "addr:housenumber": "355",
        "addr:postcode": "29230-000",
        "addr:street": "Rua José Waldir Trotta",
        "addr:suburb": "Iriri",
        "alt_name": "Escola Municipal de Ensino Fundamental",
        "amenity": "school",
        "contact:phone": "+55 28 3536-1299",
        "name": "EMEF Manoel de Paula Serrão",
        "source": "IJSN",
        "id": "node/2798962874"
      },
      "geometry": {
        "type": "Point",
        "coordinates": [
          -40.6946428,
          -20.8294503
        ]
      }
    },
    {
      "type": "Feature",
      "id": "node/4024904419",
      "properties": {
        "timestamp": "2016-02-25T01:59:18Z",
        "version": 1,
        "changeset": 37426154,
        "IJSN:administra": "Municipal",
        "IJSN:classeCnae": "Fundamental",
        "addr:city": "Anchieta",
        "addr:housenumber": "41",
        "addr:postcode": "29230-000",
        "addr:street": "Rua Vitória",
        "addr:suburb": "Vila Residencial Anchieta",
        "alt_name": "Centro de Referência para Apoio e Atendimento Educacional",
        "amenity": "school",
        "contact:phone": "(28) 3536-1765",
        "name": "CRAAE Centro de Referência para Apoio e Atendimento Educacional",
        "source": "IJSN",
        "id": "node/4024904419"
      },
      "geometry": {
        "type": "Point",
        "coordinates": [
          -40.6375813,
          -20.8103906
        ]
      }
    },
    {
      "type": "Feature",
      "id": "node/4024904789",
      "properties": {
        "timestamp": "2016-02-25T01:59:30Z",
        "version": 1,
        "changeset": 37426154,
        "IJSN:administra": "Estadual",
        "IJSN:classeCnae": "Fundamental e Médio",
        "addr:city": "Anchieta",
        "addr:housenumber": "1078",
        "addr:postcode": "29230-000",
        "addr:street": "Estrada Anchieta / Jabaquara",
        "addr:suburb": "Nova Esperança",
        "alt_name": "Escola Estadual de Ensino Fundamental e Médio",
        "amenity": "school",
        "contact:phone": "(28) 3536-1859",
        "name": "EEEFM Coronel Gomes de Oliveira",
        "source": "IJSN",
        "id": "node/4024904789"
      },
      "geometry": {
        "type": "Point",
        "coordinates": [
          -40.6423606,
          -20.7997221
        ]
      }
    },
    {
      "type": "Feature",
      "id": "node/4024905280",
      "properties": {
        "timestamp": "2016-02-25T02:00:18Z",
        "version": 1,
        "changeset": 37426154,
        "IJSN:administra": "Municipal",
        "IJSN:classeCnae": "Fundamental",
        "addr:city": "Anchieta",
        "addr:postcode": "29230-000",
        "addr:suburb": "Comunidade Boa Vista",
        "alt_name": "Escola Municipal de Ensino Fundamental",
        "amenity": "school",
        "name": "EMEF Boa Vista",
        "source": "IJSN",
        "id": "node/4024905280"
      },
      "geometry": {
        "type": "Point",
        "coordinates": [
          -40.703332,
          -20.8127684
        ]
      }
    },
    {
      "type": "Feature",
      "id": "node/4024905597",
      "properties": {
        "timestamp": "2016-02-25T02:00:38Z",
        "version": 1,
        "changeset": 37426154,
        "IJSN:administra": "Municipal",
        "IJSN:classeCnae": "Fundamental",
        "addr:city": "Anchieta",
        "addr:postcode": "29230-000",
        "addr:suburb": "Comunidade Limeira",
        "alt_name": "Escola Municipal de Ensino Fundamental",
        "amenity": "school",
        "contact:phone": "(28) 3536-7163",
        "name": "EMEF Limeira",
        "source": "IJSN",
        "id": "node/4024905597"
      },
      "geometry": {
        "type": "Point",
        "coordinates": [
          -40.6785158,
          -20.6936928
        ]
      }
    },
    {
      "type": "Feature",
      "id": "node/4024905613",
      "properties": {
        "timestamp": "2016-02-25T02:00:40Z",
        "version": 1,
        "changeset": 37426154,
        "IJSN:administra": "Municipal",
        "IJSN:classeCnae": "Fundamental",
        "addr:city": "Anchieta",
        "addr:postcode": "29230-000",
        "addr:street": "Rua Principal",
        "addr:suburb": "Inhaúma",
        "alt_name": "Escola Municipal de Ensino Fundamental",
        "amenity": "school",
        "name": "EMEF Mateus Ernesto Francisco",
        "source": "IJSN",
        "id": "node/4024905613"
      },
      "geometry": {
        "type": "Point",
        "coordinates": [
          -40.6832745,
          -20.8226889
        ]
      }
    },
    {
      "type": "Feature",
      "id": "node/4024905631",
      "properties": {
        "timestamp": "2016-02-25T02:00:43Z",
        "version": 1,
        "changeset": 37426154,
        "IJSN:administra": "Municipal",
        "IJSN:classeCnae": "Fundamental",
        "addr:city": "Anchieta",
        "addr:postcode": "29230-000",
        "addr:suburb": "Comunidade Duas Barras",
        "alt_name": "Escola Municipal de Ensino Fundamental",
        "amenity": "school",
        "name": "EMEF Oiti",
        "source": "IJSN",
        "id": "node/4024905631"
      },
      "geometry": {
        "type": "Point",
        "coordinates": [
          -40.6549519,
          -20.6160693
        ]
      }
    },
    {
      "type": "Feature",
      "id": "node/4024905633",
      "properties": {
        "timestamp": "2016-02-25T02:00:44Z",
        "version": 1,
        "changeset": 37426154,
        "IJSN:administra": "Municipal",
        "IJSN:classeCnae": "Infantil e Fundamental",
        "addr:city": "Anchieta",
        "addr:postcode": "29230-000",
        "addr:suburb": "Comunidade Olivânia",
        "alt_name": "Escola Municipal de Ensino Fundamental",
        "amenity": "school",
        "name": "EMEF Olivânia",
        "source": "IJSN",
        "id": "node/4024905633"
      },
      "geometry": {
        "type": "Point",
        "coordinates": [
          -40.6484133,
          -20.5809859
        ]
      }
    },
    {
      "type": "Feature",
      "id": "node/4024905667",
      "properties": {
        "timestamp": "2016-02-25T02:00:49Z",
        "version": 1,
        "changeset": 37426154,
        "IJSN:administra": "Municipal",
        "IJSN:classeCnae": "Fundamental",
        "addr:city": "Anchieta",
        "addr:housenumber": "115",
        "addr:postcode": "29230-000",
        "addr:street": "Praça da Bandeira",
        "addr:suburb": "Centro",
        "alt_name": "Escola Municipal de Ensino Fundamental",
        "amenity": "school",
        "contact:phone": "(28) 3536-1925",
        "name": "EMEF Professor Tio Liliu",
        "source": "IJSN",
        "id": "node/4024905667"
      },
      "geometry": {
        "type": "Point",
        "coordinates": [
          -40.6533848,
          -20.8046463
        ]
      }
    },
    {
      "type": "Feature",
      "id": "node/4024905749",
      "properties": {
        "timestamp": "2016-02-25T02:01:03Z",
        "version": 1,
        "changeset": 37426154,
        "IJSN:administra": "Municipal",
        "IJSN:classeCnae": "Fundamental e Médio",
        "addr:city": "Anchieta",
        "addr:postcode": "29230-000",
        "addr:street": "Rua Beira Campo",
        "addr:suburb": "Jabaquara",
        "alt_name": "Escola Municipal de Ensino Fundamental e Médio",
        "amenity": "school",
        "contact:phone": "(28) 3536-7115",
        "name": "EMEFM Professora Zuleika Flores da Purificação",
        "source": "IJSN",
        "id": "node/4024905749"
      },
      "geometry": {
        "type": "Point",
        "coordinates": [
          -40.6778268,
          -20.6864327
        ]
      }
    },
    {
      "type": "Feature",
      "id": "node/4024905754",
      "properties": {
        "timestamp": "2023-03-20T18:57:53Z",
        "version": 2,
        "changeset": 133911523,
        "IJSN:administra": "Municipal",
        "IJSN:classeCnae": "Fundamental",
        "addr:city": "Anchieta",
        "addr:postcode": "29230-000",
        "addr:suburb": "Comunidade Serra das Graças",
        "alt_name": "Escola Municipal de Ensino Infantil e Fundamental",
        "amenity": "school",
        "name": "EMEIEF Alta Pompermayer",
        "source": "IJSN",
        "id": "node/4024905754"
      },
      "geometry": {
        "type": "Point",
        "coordinates": [
          -40.714802,
          -20.6977167
        ]
      }
    },
    {
      "type": "Feature",
      "id": "node/4024905756",
      "properties": {
        "timestamp": "2023-01-06T20:06:15Z",
        "version": 3,
        "changeset": 130961036,
        "IJSN:administra": "Municipal",
        "IJSN:classeCnae": "Infantil e Fundamental",
        "addr:city": "Anchieta",
        "addr:postcode": "29230-000",
        "addr:street": "Rodovia Dom Silvestre Scandian",
        "addr:suburb": "Alto Joéba",
        "alt_name": "EMEIEF Alto Joéba",
        "amenity": "school",
        "contact:phone": "+55 28 3536 6431",
        "name": "Escola Municipal de Ensino Infantil e Fundamental Alto Joéba",
        "operator": "Município de Anchieta",
        "operator:type": "public",
        "source": "IJSN",
        "id": "node/4024905756"
      },
      "geometry": {
        "type": "Point",
        "coordinates": [
          -40.8012102,
          -20.69522
        ]
      }
    },
    {
      "type": "Feature",
      "id": "node/4024905757",
      "properties": {
        "timestamp": "2016-02-25T02:01:04Z",
        "version": 1,
        "changeset": 37426154,
        "IJSN:administra": "Municipal",
        "IJSN:classeCnae": "Infantil e Fundamental",
        "addr:city": "Anchieta",
        "addr:postcode": "29230-000",
        "addr:street": "Avenida Virgilio Lorencini",
        "addr:suburb": "Comunidade Alto Pongal",
        "alt_name": "Escola Municipal de Ensino Infantil e Fundamental",
        "amenity": "school",
        "contact:phone": "(28) 3536-6024",
        "name": "EMEIEF Alto Pongal",
        "source": "IJSN",
        "id": "node/4024905757"
      },
      "geometry": {
        "type": "Point",
        "coordinates": [
          -40.7777023,
          -20.730343
        ]
      }
    },
    {
      "type": "Feature",
      "id": "node/4024905765",
      "properties": {
        "timestamp": "2016-02-25T02:01:05Z",
        "version": 1,
        "changeset": 37426154,
        "IJSN:administra": "Municipal",
        "IJSN:classeCnae": "Infantil e Fundamental",
        "addr:city": "Anchieta",
        "addr:postcode": "29230-000",
        "addr:suburb": "Comunidade Belo Horizonte",
        "alt_name": "Escola Municipal de Ensino Infantil e Fundamental",
        "amenity": "school",
        "name": "EMEIEF Belo Horizonte",
        "source": "IJSN",
        "id": "node/4024905765"
      },
      "geometry": {
        "type": "Point",
        "coordinates": [
          -40.6120021,
          -20.7419644
        ]
      }
    },
    {
      "type": "Feature",
      "id": "node/4024905776",
      "properties": {
        "timestamp": "2016-02-25T02:01:07Z",
        "version": 1,
        "changeset": 37426154,
        "IJSN:administra": "Municipal",
        "IJSN:classeCnae": "Infantil e Fundamental",
        "addr:city": "Anchieta",
        "addr:postcode": "29230-000",
        "addr:suburb": "Comunidade Córrego da Prata",
        "alt_name": "Escola Municipal de Ensino Infantil e Fundamental",
        "amenity": "school",
        "name": "EMEIEF Córrego da Prata",
        "source": "IJSN",
        "id": "node/4024905776"
      },
      "geometry": {
        "type": "Point",
        "coordinates": [
          -40.7878635,
          -20.7403972
        ]
      }
    },
    {
      "type": "Feature",
      "id": "node/4024905782",
      "properties": {
        "timestamp": "2016-02-25T02:01:08Z",
        "version": 1,
        "changeset": 37426154,
        "IJSN:administra": "Municipal",
        "IJSN:classeCnae": "Infantil e Fundamental",
        "addr:city": "Anchieta",
        "addr:postcode": "29230-000",
        "addr:suburb": "Comunidade Emboacica",
        "alt_name": "Escola Municipal de Ensino Infantil e Fundamental",
        "amenity": "school",
        "name": "EMEIEF Emboacica",
        "source": "IJSN",
        "id": "node/4024905782"
      },
      "geometry": {
        "type": "Point",
        "coordinates": [
          -40.709996,
          -20.7465373
        ]
      }
    },
    {
      "type": "Feature",
      "id": "node/4024905785",
      "properties": {
        "timestamp": "2016-02-25T02:01:08Z",
        "version": 1,
        "changeset": 37426154,
        "IJSN:administra": "Municipal",
        "IJSN:classeCnae": "Infantil e Fundamental",
        "addr:city": "Anchieta",
        "addr:postcode": "29230-000",
        "addr:street": "Fazenda Dois Irmãos",
        "addr:suburb": "Comunidade Dois Irmãos de Corindiba",
        "alt_name": "Escola Municipal de Ensino Infantil e Fundamental",
        "amenity": "school",
        "name": "EMEIEF Fazenda Dois Irmãos",
        "source": "IJSN",
        "id": "node/4024905785"
      },
      "geometry": {
        "type": "Point",
        "coordinates": [
          -40.6717088,
          -20.6118406
        ]
      }
    },
    {
      "type": "Feature",
      "id": "node/4024905890",
      "properties": {
        "timestamp": "2016-02-25T02:01:09Z",
        "version": 1,
        "changeset": 37426154,
        "IJSN:administra": "Municipal",
        "IJSN:classeCnae": "Infantil e Fundamental",
        "addr:city": "Anchieta",
        "addr:postcode": "29230-000",
        "addr:suburb": "Comunidade Goembê",
        "alt_name": "Escola Municipal de Ensino Infantil e Fundamental",
        "amenity": "school",
        "name": "EMEIEF Goembê",
        "source": "IJSN",
        "id": "node/4024905890"
      },
      "geometry": {
        "type": "Point",
        "coordinates": [
          -40.6103645,
          -20.7176863
        ]
      }
    },
    {
      "type": "Feature",
      "id": "node/4024905895",
      "properties": {
        "timestamp": "2016-02-25T02:01:10Z",
        "version": 1,
        "changeset": 37426154,
        "IJSN:administra": "Municipal",
        "IJSN:classeCnae": "Infantil e Fundamental",
        "addr:city": "Anchieta",
        "addr:postcode": "29230-000",
        "addr:suburb": "Comunidade Itajobaia",
        "alt_name": "Escola Municipal de Ensino Infantil e Fundamental",
        "amenity": "school",
        "name": "EMEIEF Itajobaia",
        "source": "IJSN",
        "id": "node/4024905895"
      },
      "geometry": {
        "type": "Point",
        "coordinates": [
          -40.6285753,
          -20.6830963
        ]
      }
    },
    {
      "type": "Feature",
      "id": "node/4024905896",
      "properties": {
        "timestamp": "2020-09-05T01:09:33Z",
        "version": 2,
        "changeset": 90436648,
        "IJSN:administra": "Municipal",
        "IJSN:classeCnae": "Infantil e Fundamental",
        "addr:city": "Anchieta",
        "addr:postcode": "29230-000",
        "addr:suburb": "Comunidade Itaperoroma Alta",
        "alt_name": "Escola Municipal de Ensino Infantil e Fundamental",
        "amenity": "school",
        "name": "EMEIEF Itaperoma Alta",
        "source": "IJSN",
        "id": "node/4024905896"
      },
      "geometry": {
        "type": "Point",
        "coordinates": [
          -40.7531446,
          -20.7418461
        ]
      }
    },
    {
      "type": "Feature",
      "id": "node/4024905897",
      "properties": {
        "timestamp": "2020-09-04T21:57:42Z",
        "version": 2,
        "changeset": 90434129,
        "IJSN:administra": "Municipal",
        "IJSN:classeCnae": "Infantil e Fundamental",
        "addr:city": "Anchieta",
        "addr:postcode": "29230-000",
        "addr:suburb": "Comunidade Itaperoma Baixa",
        "alt_name": "Escola Municipal de Ensino Infantil e Fundamental",
        "amenity": "school",
        "name": "EMEIEF Itaperoroma Baixa",
        "source": "IJSN",
        "id": "node/4024905897"
      },
      "geometry": {
        "type": "Point",
        "coordinates": [
          -40.7600333,
          -20.765492
        ]
      }
    },
    {
      "type": "Feature",
      "id": "node/4024905898",
      "properties": {
        "timestamp": "2016-02-25T02:01:11Z",
        "version": 1,
        "changeset": 37426154,
        "IJSN:administra": "Municipal",
        "IJSN:classeCnae": "Infantil e Fundamental",
        "addr:city": "Anchieta",
        "addr:postcode": "29230-000",
        "addr:suburb": "Comunidade Itapeúna",
        "alt_name": "Escola Municipal de Ensino Infantil e Fundamental",
        "amenity": "school",
        "name": "EMEIEF Itapeúna",
        "source": "IJSN",
        "id": "node/4024905898"
      },
      "geometry": {
        "type": "Point",
        "coordinates": [
          -40.7023448,
          -20.7774558
        ]
      }
    },
    {
      "type": "Feature",
      "id": "node/4024905918",
      "properties": {
        "timestamp": "2016-02-25T02:01:14Z",
        "version": 1,
        "changeset": 37426154,
        "IJSN:administra": "Municipal",
        "IJSN:classeCnae": "Infantil e Fundamental",
        "addr:city": "Anchieta",
        "addr:postcode": "29230-000",
        "addr:street": "Rua das Gabirobas",
        "addr:suburb": "Anchieta",
        "alt_name": "Escola Municipal de Ensino Infantil e Fundamental",
        "amenity": "school",
        "contact:phone": "(28) 3536-3006",
        "name": "EMEIEF Nova Esperança",
        "source": "IJSN",
        "id": "node/4024905918"
      },
      "geometry": {
        "type": "Point",
        "coordinates": [
          -40.6418995,
          -20.8002816
        ]
      }
    },
    {
      "type": "Feature",
      "id": "node/4024905922",
      "properties": {
        "timestamp": "2016-02-25T02:01:15Z",
        "version": 1,
        "changeset": 37426154,
        "IJSN:administra": "Municipal",
        "IJSN:classeCnae": "Infantil e Fundamental",
        "addr:city": "Anchieta",
        "addr:postcode": "29230-000",
        "addr:street": "Rua C",
        "addr:suburb": "Praia de Parati",
        "alt_name": "Escola Municipal de Ensino Infantil e Fundamental",
        "amenity": "school",
        "name": "EMEIEF Parati",
        "source": "IJSN",
        "id": "node/4024905922"
      },
      "geometry": {
        "type": "Point",
        "coordinates": [
          -40.6019895,
          -20.8036214
        ]
      }
    },
    {
      "type": "Feature",
      "id": "node/4024905930",
      "properties": {
        "timestamp": "2016-02-25T02:01:16Z",
        "version": 1,
        "changeset": 37426154,
        "IJSN:administra": "Municipal",
        "IJSN:classeCnae": "Infantil e Fundamental",
        "addr:city": "Anchieta",
        "addr:postcode": "29230-000",
        "addr:street": "Rua da Curvina",
        "addr:suburb": "Nova Anchieta",
        "alt_name": "Escola Municipal de Ensino Infantil e Fundamental",
        "amenity": "school",
        "contact:phone": "(28) 9968-3168",
        "name": "EMEIEF Planalto Anchieta",
        "source": "IJSN",
        "id": "node/4024905930"
      },
      "geometry": {
        "type": "Point",
        "coordinates": [
          -40.6238893,
          -20.8184112
        ]
      }
    },
    {
      "type": "Feature",
      "id": "node/4024905931",
      "properties": {
        "timestamp": "2016-02-25T02:01:16Z",
        "version": 1,
        "changeset": 37426154,
        "IJSN:administra": "Municipal",
        "IJSN:classeCnae": "Fundamental",
        "addr:city": "Anchieta",
        "addr:postcode": "29230-000",
        "addr:street": "Rua São Vicente",
        "addr:suburb": "Ponta dos Castelhanos",
        "alt_name": "Escola Municipal de Ensino Infantil e Fundamental",
        "amenity": "school",
        "contact:phone": "(28) 3536-3189",
        "name": "EMEIEF Ponta dos Castelhanos",
        "source": "IJSN",
        "id": "node/4024905931"
      },
      "geometry": {
        "type": "Point",
        "coordinates": [
          -40.6338985,
          -20.8134703
        ]
      }
    },
    {
      "type": "Feature",
      "id": "node/4024905934",
      "properties": {
        "timestamp": "2016-02-25T02:01:17Z",
        "version": 1,
        "changeset": 37426154,
        "IJSN:administra": "Municipal",
        "IJSN:classeCnae": "Infantil e Fundamental",
        "addr:city": "Anchieta",
        "addr:postcode": "29230-000",
        "addr:suburb": "Comunidade Dois Irmãos",
        "alt_name": "Escola Municipal de Ensino Infantil e Fundamental",
        "amenity": "school",
        "contact:phone": "(28) 3536-7130",
        "name": "EMEIEF Professora Ady Lyrio Marchezi",
        "source": "IJSN",
        "id": "node/4024905934"
      },
      "geometry": {
        "type": "Point",
        "coordinates": [
          -40.7590013,
          -20.7070086
        ]
      }
    },
    {
      "type": "Feature",
      "id": "node/4024905937",
      "properties": {
        "timestamp": "2016-02-25T02:01:17Z",
        "version": 1,
        "changeset": 37426154,
        "IJSN:administra": "Municipal",
        "IJSN:classeCnae": "Infantil e Fundamental",
        "addr:city": "Anchieta",
        "addr:postcode": "29230-000",
        "addr:suburb": "Comunidade Baixo Pongal",
        "alt_name": "Escola Municipal de Ensino Infantil e Fundamental",
        "amenity": "school",
        "contact:phone": "(28) 3536-3204",
        "name": "EMEIEF Professora Edma Maria Mezadre Mulinari",
        "source": "IJSN",
        "id": "node/4024905937"
      },
      "geometry": {
        "type": "Point",
        "coordinates": [
          -40.7439621,
          -20.7778519
        ]
      }
    },
    {
      "type": "Feature",
      "id": "node/4024905945",
      "properties": {
        "timestamp": "2016-02-25T02:01:19Z",
        "version": 1,
        "changeset": 37426154,
        "IJSN:administra": "Municipal",
        "IJSN:classeCnae": "Infantil e Fundamental",
        "addr:city": "Anchieta",
        "addr:postcode": "29230-000",
        "addr:street": "Rua Bahia",
        "addr:suburb": "Recanto do Sol",
        "alt_name": "Escola Municipal de Ensino Infantil e Fundamental",
        "amenity": "school",
        "contact:phone": "(28) 3536-5383",
        "name": "EMEIEF Recanto do Sol",
        "source": "IJSN",
        "id": "node/4024905945"
      },
      "geometry": {
        "type": "Point",
        "coordinates": [
          -40.6030674,
          -20.7951206
        ]
      }
    },
    {
      "type": "Feature",
      "id": "node/4024905948",
      "properties": {
        "timestamp": "2016-02-25T02:01:19Z",
        "version": 1,
        "changeset": 37426154,
        "IJSN:administra": "Municipal",
        "IJSN:classeCnae": "Infantil e Fundamental",
        "addr:city": "Anchieta",
        "addr:postcode": "29230-000",
        "addr:suburb": "Comunidade Chapada do A",
        "alt_name": "Escola Municipal de Ensino Infantil e Fundamental",
        "amenity": "school",
        "name": "EMEIEF Rosalino Simões",
        "source": "IJSN",
        "id": "node/4024905948"
      },
      "geometry": {
        "type": "Point",
        "coordinates": [
          -40.630551,
          -20.7680119
        ]
      }
    },
    {
      "type": "Feature",
      "id": "node/4024905950",
      "properties": {
        "timestamp": "2016-02-25T02:01:19Z",
        "version": 1,
        "changeset": 37426154,
        "IJSN:administra": "Municipal",
        "IJSN:classeCnae": "Infantil e Fundamental",
        "addr:city": "Anchieta",
        "addr:postcode": "29230-000",
        "addr:suburb": "Comunidade Simpatia",
        "alt_name": "Escola Municipal de Ensino Infantil e Fundamental",
        "amenity": "school",
        "contact:phone": "(28) 3536-3008",
        "name": "EMEIEF Simpatia",
        "source": "IJSN",
        "id": "node/4024905950"
      },
      "geometry": {
        "type": "Point",
        "coordinates": [
          -40.7143177,
          -20.7163271
        ]
      }
    },
    {
      "type": "Feature",
      "id": "node/4024905953",
      "properties": {
        "timestamp": "2016-02-25T02:01:20Z",
        "version": 1,
        "changeset": 37426154,
        "IJSN:administra": "Municipal",
        "IJSN:classeCnae": "Infantil e Fundamental",
        "addr:city": "Anchieta",
        "addr:postcode": "29230-000",
        "addr:suburb": "Comunidade São Mateus",
        "alt_name": "Escola Municipal de Ensino Infantil e Fundamental",
        "amenity": "school",
        "name": "EMEIEF São Mateus",
        "source": "IJSN",
        "id": "node/4024905953"
      },
      "geometry": {
        "type": "Point",
        "coordinates": [
          -40.7276278,
          -20.7628914
        ]
      }
    },
    {
      "type": "Feature",
      "id": "node/4024906322",
      "properties": {
        "timestamp": "2016-02-25T02:02:01Z",
        "version": 1,
        "changeset": 37426154,
        "IJSN:administra": "Municipal",
        "IJSN:classeCnae": "Fundamental",
        "addr:city": "Alfredo Chaves",
        "addr:postcode": "29240-000",
        "addr:suburb": "Comunidade Indepedência",
        "alt_name": "Escola Municipal Unidocente de Ensino Fundamental",
        "amenity": "school",
        "name": "EMUEF Independência",
        "source": "IJSN",
        "id": "node/4024906322"
      },
      "geometry": {
        "type": "Point",
        "coordinates": [
          -40.6715414,
          -20.563147
        ]
      }
    },
    {
      "type": "Feature",
      "id": "node/4024906956",
      "properties": {
        "timestamp": "2016-02-25T02:02:52Z",
        "version": 1,
        "changeset": 37426154,
        "IJSN:administra": "Privada",
        "IJSN:classeCnae": "Fundamental e Médio",
        "addr:city": "Anchieta",
        "addr:postcode": "29230-000",
        "addr:street": "Rua Projetada",
        "addr:suburb": "Comunidade Olivânia",
        "alt_name": "Escola Família Agrícola",
        "amenity": "school",
        "contact:phone": "(28) 3269-1241",
        "name": "Escola Família Agrícola de Olivânia",
        "source": "IJSN",
        "id": "node/4024906956"
      },
      "geometry": {
        "type": "Point",
        "coordinates": [
          -40.6463847,
          -20.5822943
        ]
      }
    }
  ]
}
