{
  "type": "FeatureCollection",
  "features": [
    {
      "type": "Feature",
      "id": "node/3999139401",
      "properties": {
        "timestamp": "2016-02-10T13:37:08Z",
        "version": 1,
        "changeset": 37124622,
        "addr:city": "Anchieta",
        "addr:postcode": "29230-000",
        "addr:street": "Rodovia Anchieta - Jabaquara",
        "addr:suburb": "Nova Esperança",
        "alt_name": "Centro de Referência de Assistência Social",
        "amenity": "social_facility",
        "contact:phone": "(28) 3536-1989",
        "name": "CRAS - Anchieta",
        "social_facility": "outreach",
        "source": "IJSN",
        "id": "node/3999139401"
      },
      "geometry": {
        "type": "Point",
        "coordinates": [
          -40.6412211,
          -20.798581
        ]
      }
    },
    {
      "type": "Feature",
      "id": "node/10575177727",
      "properties": {
        "timestamp": "2023-01-22T20:14:32Z",
        "version": 1,
        "changeset": 131580232,
        "addr:city": "Anchieta",
        "addr:postcode": "29230-000",
        "addr:street": "Rua Vicente Serafim",
        "addr:suburb": "Praia de Parati",
        "amenity": "social_facility",
        "name": "Centro de Convivência de Parati",
        "id": "node/10575177727"
      },
      "geometry": {
        "type": "Point",
        "coordinates": [
          -40.6014375,
          -20.8041495
        ]
      }
    }
  ]
}
