{
  "type": "FeatureCollection",
  "features": [
    {
      "type": "Feature",
      "id": "way/543163213",
      "properties": {
        "timestamp": "2019-09-08T15:47:48Z",
        "version": 2,
        "changeset": 74229881,
        "addr:housenumber": "693",
        "addr:postcode": "37820-000",
        "addr:street": "Rua Comendadora Maria Imaculada Peres dos Santos",
        "addr:suburb": "Centro",
        "amenity": "school",
        "contact:phone": "+55 35 3556 1647",
        "email": "escola.136875@educacao.mg.gov.br",
        "landuse": "retail",
        "name": "Escola Estadual Coronel Lucas Magalhães",
        "operator": "Secretaria de Estado de Educação de Minas Gerais",
        "operator:type": "government",
        "phone": "+55 35 3556 1174",
        "id": "way/543163213"
      },
      "geometry": {
        "type": "Polygon",
        "coordinates": [
          [
            [
              -46.9413641,
              -21.367118
            ],
            [
              -46.9412434,
              -21.3676375
            ],
            [
              -46.9409537,
              -21.3677325
            ],
            [
              -46.9400525,
              -21.3674827
            ],
            [
              -46.9402,
              -21.3668582
            ],
            [
              -46.9413641,
              -21.367118
            ]
          ]
        ]
      }
    },
    {
      "type": "Feature",
      "id": "way/543163216",
      "properties": {
        "timestamp": "2019-09-08T16:53:22Z",
        "version": 2,
        "changeset": 74231576,
        "addr:housenumber": "163",
        "addr:postcode": "37820-000",
        "addr:street": "Rua João José Péres Fernandes",
        "addr:suburb": "Centro",
        "amenity": "school",
        "contact:phone": "+55 35  3556 1734",
        "email": "escolacandido@yahoo.com.br",
        "landuse": "retail",
        "name": "Escola Municipal Coronel Cândido Souza Dias",
        "phone": "+55 35 3556 1441",
        "id": "way/543163216"
      },
      "geometry": {
        "type": "Polygon",
        "coordinates": [
          [
            [
              -46.9437164,
              -21.3685667
            ],
            [
              -46.9435287,
              -21.3692336
            ],
            [
              -46.9427991,
              -21.3690238
            ],
            [
              -46.9429734,
              -21.3683769
            ],
            [
              -46.9437164,
              -21.3685667
            ]
          ]
        ]
      }
    }
  ]
}
