{
  "type": "FeatureCollection",
  "features": [
    {
      "type": "Feature",
      "id": "node/3619678071",
      "properties": {
        "timestamp": "2015-06-26T14:39:44Z",
        "version": 2,
        "changeset": 32227002,
        "addr:city": "Baixo Guandu",
        "addr:street": "Rua Antônio Sampaio",
        "name": "Detran - Baixo Guandu",
        "office": "government",
        "id": "node/3619678071"
      },
      "geometry": {
        "type": "Point",
        "coordinates": [
          -41.0177682,
          -19.5131778
        ]
      }
    },
    {
      "type": "Feature",
      "id": "node/8401007431",
      "properties": {
        "timestamp": "2022-01-17T18:43:11Z",
        "version": 2,
        "changeset": 116267165,
        "addr:city": "Baixo Guandú",
        "addr:postcode": "29730-000",
        "addr:street": "Avenida Carlos Medeiros",
        "addr:suburb": "Centro",
        "government": "social_services",
        "name": "Conselho Tutelar de Baixo Guandú",
        "office": "government",
        "id": "node/8401007431"
      },
      "geometry": {
        "type": "Point",
        "coordinates": [
          -41.0154206,
          -19.5178032
        ]
      }
    },
    {
      "type": "Feature",
      "id": "node/9426328583",
      "properties": {
        "timestamp": "2022-01-17T18:43:11Z",
        "version": 1,
        "changeset": 116267165,
        "addr:city": "Baixo Guandú",
        "addr:postcode": "29730-000",
        "addr:street": "Rua Ibituba",
        "addr:suburb": "Centro",
        "government": "prosecutor",
        "name": "Ministério Público do Estado do Espírito Santo",
        "office": "government",
        "phone": "+55 27 3732 1544",
        "id": "node/9426328583"
      },
      "geometry": {
        "type": "Point",
        "coordinates": [
          -41.0153641,
          -19.5179179
        ]
      }
    }
  ]
}
