{
  "type": "FeatureCollection",
  "features": [
    {
      "type": "Feature",
      "id": "way/719458659",
      "properties": {
        "timestamp": "2019-08-31T15:07:53Z",
        "version": 2,
        "changeset": 73951594,
        "addr:city": "Presidente Figueredo",
        "addr:postcode": "69735000",
        "addr:street": "Av. da On√ßa Pintada",
        "addr:suburb": "Galo da Serra",
        "amenity": "college",
        "campus": "Presidente figueredo",
        "name": "Instituto Federal do Amazonas",
        "operator": "#IFES",
        "website": "http://www2.ifam.edu.br/campus/cprf",
        "id": "way/719458659"
      },
      "geometry": {
        "type": "Polygon",
        "coordinates": [
          [
            [
              -60.0046327,
              -2.0485749
            ],
            [
              -60.0035609,
              -2.0510088
            ],
            [
              -60.0030356,
              -2.0507941
            ],
            [
              -60.002711,
              -2.0507917
            ],
            [
              -60.0033243,
              -2.0489869
            ],
            [
              -60.0046327,
              -2.0485749
            ]
          ]
        ]
      }
    }
  ]
}
