{
  "type": "FeatureCollection",
  "features": [
    {
      "type": "Feature",
      "id": "way/1350815894",
      "properties": {
        "timestamp": "2025-01-13T01:25:13Z",
        "version": 1,
        "changeset": 161292757,
        "amenity": "clinic",
        "building": "yes",
        "healthcare": "clinic",
        "name": "CETOE",
        "id": "way/1350815894"
      },
      "geometry": {
        "type": "Polygon",
        "coordinates": [
          [
            [
              -45.4506089,
              -21.5671618
            ],
            [
              -45.4509984,
              -21.5677145
            ],
            [
              -45.4505988,
              -21.5679238
            ],
            [
              -45.4501723,
              -21.567371
            ],
            [
              -45.4506089,
              -21.5671618
            ]
          ]
        ]
      }
    },
    {
      "type": "Feature",
      "id": "way/1350815901",
      "properties": {
        "timestamp": "2025-01-13T01:25:13Z",
        "version": 1,
        "changeset": 161292757,
        "amenity": "clinic",
        "building": "yes",
        "healthcare": "clinic",
        "name": "Clínica Fort",
        "id": "way/1350815901"
      },
      "geometry": {
        "type": "Polygon",
        "coordinates": [
          [
            [
              -45.4489985,
              -21.5668409
            ],
            [
              -45.4490627,
              -21.566944
            ],
            [
              -45.4486285,
              -21.5671294
            ],
            [
              -45.4483826,
              -21.5667874
            ],
            [
              -45.4489985,
              -21.5668409
            ]
          ]
        ]
      }
    },
    {
      "type": "Feature",
      "id": "node/4446538689",
      "properties": {
        "timestamp": "2024-10-29T02:05:57Z",
        "version": 3,
        "changeset": 158479566,
        "addr:housenumber": "112",
        "addr:street": "Rua Dona Cota",
        "amenity": "clinic",
        "healthcare": "clinic",
        "name": "Centermed",
        "id": "node/4446538689"
      },
      "geometry": {
        "type": "Point",
        "coordinates": [
          -45.4414168,
          -21.5573363
        ]
      }
    },
    {
      "type": "Feature",
      "id": "node/8154397340",
      "properties": {
        "timestamp": "2024-04-20T13:51:42Z",
        "version": 3,
        "changeset": 150264432,
        "addr:city": "Varginha",
        "addr:housenumber": "155",
        "addr:street": "Avenida José Benedito de Figueiredo",
        "addr:suburb": "Vila Verde",
        "air_conditioning": "yes",
        "amenity": "clinic",
        "brand": "Vilara",
        "email": "varginha@clinicavilara.com.br",
        "healthcare": "clinic",
        "healthcare:speciality": "fertility",
        "name": "Vilara Clínica de Reprodução Assistida",
        "operator": "Vila da Serra",
        "operator:type": "private",
        "phone": "+55 35 3222-2752",
        "website": "https://www.clinicavilara.com.br/",
        "id": "node/8154397340"
      },
      "geometry": {
        "type": "Point",
        "coordinates": [
          -45.4496401,
          -21.5669921
        ]
      }
    },
    {
      "type": "Feature",
      "id": "node/9004801746",
      "properties": {
        "timestamp": "2021-08-13T16:37:09Z",
        "version": 1,
        "changeset": 109639739,
        "amenity": "clinic",
        "healthcare": "clinic",
        "level": "1",
        "name": "Clínica Anestésica de Varginha",
        "id": "node/9004801746"
      },
      "geometry": {
        "type": "Point",
        "coordinates": [
          -45.442451,
          -21.5577879
        ]
      }
    },
    {
      "type": "Feature",
      "id": "node/9489589911",
      "properties": {
        "timestamp": "2022-07-27T13:37:42Z",
        "version": 2,
        "changeset": 124142260,
        "addr:city": "varginha",
        "addr:housenumber": "324",
        "addr:postcode": "3702-104",
        "addr:street": "Rua Deputado Ribeiro de Resende",
        "addr:suburb": "centro",
        "air_conditioning": "yes",
        "amenity": "clinic",
        "healthcare": "clinic",
        "healthcare:speciality": "ophthalmology",
        "name": "Clinica de correção da visao",
        "opening_hours": "Mo-Fr 08:00-18:00",
        "phone": "+55 35 3221 9951",
        "id": "node/9489589911"
      },
      "geometry": {
        "type": "Point",
        "coordinates": [
          -45.4364019,
          -21.5559022
        ]
      }
    },
    {
      "type": "Feature",
      "id": "node/11331139669",
      "properties": {
        "timestamp": "2024-10-29T02:05:57Z",
        "version": 3,
        "changeset": 158479566,
        "addr:housenumber": "30",
        "addr:street": "Praça Ministro Alfredo Valadão",
        "amenity": "clinic",
        "healthcare": "clinic",
        "name": "Metro",
        "name:en": "Metromed",
        "name:pt": "Metromed",
        "id": "node/11331139669"
      },
      "geometry": {
        "type": "Point",
        "coordinates": [
          -45.442977,
          -21.5570609
        ]
      }
    }
  ]
}
