{
  "type": "FeatureCollection",
  "features": [
    {
      "type": "Feature",
      "id": "node/4436607679",
      "properties": {
        "timestamp": "2019-05-28T14:43:50Z",
        "version": 2,
        "changeset": 70699853,
        "addr:street": "Rua Humberto Pizzo",
        "name": "Unidade de Atendimento Integrado",
        "office": "government",
        "opening_hours": "Mo-Fr 08:00-17:00",
        "short_name": "UAI",
        "source": "survey",
        "id": "node/4436607679"
      },
      "geometry": {
        "type": "Point",
        "coordinates": [
          -45.4493652,
          -21.5721462
        ]
      }
    },
    {
      "type": "Feature",
      "id": "node/5175123122",
      "properties": {
        "timestamp": "2025-03-13T15:13:20Z",
        "version": 2,
        "changeset": 163574820,
        "addr:street": "Avenida Rui Barbosa",
        "name": "Receita Federal",
        "office": "government",
        "operator": "Receita Federal do Brasil",
        "operator:wikidata": "Q10369254",
        "id": "node/5175123122"
      },
      "geometry": {
        "type": "Point",
        "coordinates": [
          -45.4399406,
          -21.5549928
        ]
      }
    },
    {
      "type": "Feature",
      "id": "node/12741394201",
      "properties": {
        "timestamp": "2025-04-09T12:53:42Z",
        "version": 1,
        "changeset": 164723443,
        "addr:housenumber": "145",
        "addr:street": "Avenida Manoel Diniz",
        "name": "Centro Administrativo governamental -Sul de Minas Gerais",
        "office": "government",
        "id": "node/12741394201"
      },
      "geometry": {
        "type": "Point",
        "coordinates": [
          -45.4440724,
          -21.5815942
        ]
      }
    }
  ]
}
