{
  "type": "FeatureCollection",
  "features": [
    {
      "type": "Feature",
      "id": "way/1032924858",
      "properties": {
        "timestamp": "2022-02-18T15:03:26Z",
        "version": 2,
        "changeset": 117569192,
        "addr:city": "Lavandeira",
        "addr:postcode": "77328-000",
        "addr:street": "Rua Luiz Duarte",
        "addr:suburb": "Centro",
        "amenity": "school",
        "name": "Escola Municipal Nercilene Rocha",
        "phone": "+55 63 3697 1009",
        "id": "way/1032924858"
      },
      "geometry": {
        "type": "Polygon",
        "coordinates": [
          [
            [
              -46.5088107,
              -12.7891876
            ],
            [
              -46.5083942,
              -12.7895009
            ],
            [
              -46.5082681,
              -12.7893415
            ],
            [
              -46.5086845,
              -12.7890281
            ],
            [
              -46.5088107,
              -12.7891876
            ]
          ]
        ]
      }
    },
    {
      "type": "Feature",
      "id": "way/1032925135",
      "properties": {
        "timestamp": "2022-02-18T15:04:56Z",
        "version": 1,
        "changeset": 117569246,
        "addr:city": "Lavandeira",
        "addr:postcode": "77328-000",
        "addr:street": "Rua Maura Serafim",
        "addr:suburb": "Centro",
        "amenity": "school",
        "name": "Col√©gio Estadual Lavandeira",
        "phone": "+55 63 3697 1050",
        "id": "way/1032925135"
      },
      "geometry": {
        "type": "Polygon",
        "coordinates": [
          [
            [
              -46.5055458,
              -12.787467
            ],
            [
              -46.5049941,
              -12.7879331
            ],
            [
              -46.5045739,
              -12.7873466
            ],
            [
              -46.5051449,
              -12.7868868
            ],
            [
              -46.5055458,
              -12.787467
            ]
          ]
        ]
      }
    }
  ]
}
