{
  "type": "FeatureCollection",
  "features": [
    {
      "type": "Feature",
      "id": "way/842017026",
      "properties": {
        "timestamp": "2020-08-28T21:39:22Z",
        "version": 1,
        "changeset": 90100963,
        "addr:housenumber": "287",
        "addr:street": "Rua Prudente de Morais",
        "addr:suburb": "Centro",
        "building": "yes",
        "email": "hotelbeirario@live.com",
        "name": "Hotel Beira Rio",
        "phone": "+55 12 3147 1436",
        "tourism": "hotel",
        "id": "way/842017026"
      },
      "geometry": {
        "type": "Polygon",
        "coordinates": [
          [
            [
              -44.7750534,
              -22.5400122
            ],
            [
              -44.7750135,
              -22.5401206
            ],
            [
              -44.7747938,
              -22.5400376
            ],
            [
              -44.7748337,
              -22.5399315
            ],
            [
              -44.7750534,
              -22.5400122
            ]
          ]
        ]
      }
    },
    {
      "type": "Feature",
      "id": "node/7887289887",
      "properties": {
        "timestamp": "2020-09-08T13:12:27Z",
        "version": 1,
        "changeset": 90589745,
        "addr:city": "Queluz",
        "addr:housenumber": "km 240",
        "addr:postcode": "12800000",
        "addr:street": "Rodovia João Batista de Melo e Souza",
        "name": "Fazenda Casa Nova",
        "tourism": "hotel",
        "id": "node/7887289887"
      },
      "geometry": {
        "type": "Point",
        "coordinates": [
          -44.7413556,
          -22.4868352
        ]
      }
    },
    {
      "type": "Feature",
      "id": "node/11002405905",
      "properties": {
        "timestamp": "2023-06-23T22:24:46Z",
        "version": 1,
        "changeset": 137704582,
        "addr:postcode": "12800000",
        "addr:street": "Rua Antônio Justino Ribeiro",
        "email": "reservas@graalinnhoteis.com.br",
        "name": "Graal Inn Hoteis",
        "phone": "(12)31471258",
        "tourism": "hotel",
        "id": "node/11002405905"
      },
      "geometry": {
        "type": "Point",
        "coordinates": [
          -44.7477332,
          -22.5294018
        ]
      }
    }
  ]
}
