{
  "type": "FeatureCollection",
  "features": [
    {
      "type": "Feature",
      "id": "node/4527249486",
      "properties": {
        "timestamp": "2020-08-28T23:05:15Z",
        "version": 4,
        "changeset": 90102475,
        "addr:housenumber": "11",
        "addr:postcode": "12800-000",
        "addr:street": "Ladeira Antônio Carlos",
        "addr:suburb": "Centro",
        "amenity": "pharmacy",
        "healthcare": "pharmacy",
        "name": "Drogaria Santa Terezinha",
        "shop": "chemist",
        "id": "node/4527249486"
      },
      "geometry": {
        "type": "Point",
        "coordinates": [
          -44.7723187,
          -22.5383817
        ]
      }
    },
    {
      "type": "Feature",
      "id": "node/11047899505",
      "properties": {
        "timestamp": "2023-07-15T11:06:01Z",
        "version": 1,
        "changeset": 138540363,
        "addr:housenumber": "96",
        "addr:postcode": "12800000",
        "addr:street": "Praça Marechal Floriano Peixoto",
        "amenity": "pharmacy",
        "name": "Farmácia Santa Terezinha",
        "name:pt": "Drogaria Farmavale",
        "opening_hours": "Mo-Su 08:00-20:00",
        "phone": "(12)99687-2780",
        "id": "node/11047899505"
      },
      "geometry": {
        "type": "Point",
        "coordinates": [
          -44.7721016,
          -22.5401094
        ]
      }
    }
  ]
}
