{
  "type": "FeatureCollection",
  "features": [
    {
      "type": "Feature",
      "id": "way/1228306145",
      "properties": {
        "timestamp": "2024-02-07T12:15:07Z",
        "version": 2,
        "changeset": 147174021,
        "addr:city": "Itajá",
        "addr:postcode": "75815000",
        "addr:street": "Avenida Leonel Franco de Oliveira",
        "addr:suburb": "Fumaça",
        "amenity": "school",
        "building": "yes",
        "name": "Escola Municipal Bela Vista Itajá",
        "phone": "+55 64 3648 7500",
        "id": "way/1228306145"
      },
      "geometry": {
        "type": "Polygon",
        "coordinates": [
          [
            [
              -50.9832271,
              -19.366709
            ],
            [
              -50.983466,
              -19.3669411
            ],
            [
              -50.9833121,
              -19.3670729
            ],
            [
              -50.9830767,
              -19.3668342
            ],
            [
              -50.9832271,
              -19.366709
            ]
          ]
        ]
      }
    }
  ]
}
