{
  "type": "FeatureCollection",
  "features": [
    {
      "type": "Feature",
      "id": "way/627178439",
      "properties": {
        "timestamp": "2021-01-25T20:26:31Z",
        "version": 4,
        "changeset": 98143092,
        "addr:city": "Navegantes",
        "addr:housenumber": "704",
        "addr:postcode": "88370-074",
        "addr:street": "Avenida João Sacavém",
        "addr:suburb": "Centro",
        "amenity": "college",
        "contact:phone": "+55 47 3342-7428",
        "contact:website": "http://www.escolasmerito.com.br",
        "name": "Escolas Mérito",
        "id": "way/627178439"
      },
      "geometry": {
        "type": "Polygon",
        "coordinates": [
          [
            [
              -48.6474262,
              -26.9018604
            ],
            [
              -48.647477,
              -26.9021396
            ],
            [
              -48.6473311,
              -26.9021607
            ],
            [
              -48.6472803,
              -26.9018815
            ],
            [
              -48.6474262,
              -26.9018604
            ]
          ]
        ]
      }
    }
  ]
}
