{
  "type": "FeatureCollection",
  "features": [
    {
      "type": "Feature",
      "id": "way/626898419",
      "properties": {
        "timestamp": "2022-12-20T02:32:17Z",
        "version": 3,
        "changeset": 130269433,
        "addr:city": "Navegantes",
        "addr:housenumber": "491",
        "addr:postcode": "88370-019",
        "addr:street": "Rua Presidente Nereu Ramos",
        "addr:suburb": "SÃ£o Pedro",
        "building": "yes",
        "internet_access": "wlan",
        "name": "Pousada do Sabia",
        "phone": "+55 47 3342 2043",
        "smoking": "isolated",
        "stars": "5",
        "tourism": "guest_house",
        "website": "http://www.pousadadosabia.com.br/",
        "id": "way/626898419"
      },
      "geometry": {
        "type": "Polygon",
        "coordinates": [
          [
            [
              -48.6442983,
              -26.9040211
            ],
            [
              -48.6445718,
              -26.9039948
            ],
            [
              -48.6445799,
              -26.9041694
            ],
            [
              -48.6443036,
              -26.9041407
            ],
            [
              -48.6442983,
              -26.9040211
            ]
          ]
        ]
      }
    }
  ]
}
