{
  "type": "FeatureCollection",
  "features": [
    {
      "type": "Feature",
      "id": "node/10118516941",
      "properties": {
        "timestamp": "2022-10-21T10:58:06Z",
        "version": 1,
        "changeset": 127876614,
        "addr:city": "Coroaci",
        "addr:postcode": "39710-000",
        "addr:street": "Rua São Judas Tadeu",
        "addr:suburb": "Centro",
        "amenity": "clinic",
        "healthcare": "clinic",
        "healthcare:speciality": "general",
        "name": "Estratégia de Saúde da Família Divino Rafael de Figueiredo",
        "operator": "Município de Coroaci",
        "operator:type": "public",
        "id": "node/10118516941"
      },
      "geometry": {
        "type": "Point",
        "coordinates": [
          -42.2811342,
          -18.615368
        ]
      }
    },
    {
      "type": "Feature",
      "id": "node/10118516953",
      "properties": {
        "timestamp": "2022-10-21T10:58:06Z",
        "version": 1,
        "changeset": 127876614,
        "addr:city": "Coroaci",
        "addr:postcode": "39710-000",
        "addr:street": "Rua Pedro Alves Ferreira",
        "addr:suburb": "Nova Esperança",
        "amenity": "clinic",
        "healthcare": "clinic",
        "healthcare:speciality": "general",
        "name": "Estratégia de Saúda da Família Maria Antonia de Jesus",
        "operator": "Município de Coroaci",
        "operator:type": "public",
        "id": "node/10118516953"
      },
      "geometry": {
        "type": "Point",
        "coordinates": [
          -42.2878213,
          -18.6273714
        ]
      }
    },
    {
      "type": "Feature",
      "id": "node/10118556468",
      "properties": {
        "timestamp": "2022-10-21T10:58:06Z",
        "version": 1,
        "changeset": 127876614,
        "addr:city": "Coroaci",
        "addr:housenumber": "369",
        "addr:postcode": "39710-000",
        "addr:street": "Rua José Antônio Monteiro",
        "addr:suburb": "Conceição de Tronqueiras",
        "amenity": "clinic",
        "healthcare": "clinic",
        "healthcare:speciality": "general",
        "name": "Estratégia de Saúde da Família Sebastião Andrade",
        "operator": "Município de Coroaci",
        "operator:type": "public",
        "id": "node/10118556468"
      },
      "geometry": {
        "type": "Point",
        "coordinates": [
          -42.2433166,
          -18.7049158
        ]
      }
    },
    {
      "type": "Feature",
      "id": "node/10118928979",
      "properties": {
        "timestamp": "2022-10-21T14:10:19Z",
        "version": 1,
        "changeset": 127886589,
        "addr:city": "Coroaci",
        "addr:housenumber": "104",
        "addr:postcode": "39710-000",
        "addr:street": "Rua Valadares",
        "addr:suburb": "São Sebastião do Bugre",
        "amenity": "clinic",
        "healthcare": "clinic",
        "healthcare:speciality": "general",
        "name": "Estratégia de Saúde da Família de São Sebastião do Bugre",
        "operator": "Município de Coroaci",
        "operator:type": "public",
        "id": "node/10118928979"
      },
      "geometry": {
        "type": "Point",
        "coordinates": [
          -42.1362276,
          -18.5871449
        ]
      }
    }
  ]
}
