{
  "type": "FeatureCollection",
  "features": [
    {
      "type": "Feature",
      "id": "way/842047641",
      "properties": {
        "timestamp": "2020-08-29T02:39:32Z",
        "version": 1,
        "changeset": 90104423,
        "amenity": "school",
        "name": "Caritas Diocesana",
        "id": "way/842047641"
      },
      "geometry": {
        "type": "Polygon",
        "coordinates": [
          [
            [
              -40.8507245,
              -19.2228969
            ],
            [
              -40.8506264,
              -19.22265
            ],
            [
              -40.8508856,
              -19.2225817
            ],
            [
              -40.8509767,
              -19.222822
            ],
            [
              -40.8507245,
              -19.2228969
            ]
          ]
        ]
      }
    },
    {
      "type": "Feature",
      "id": "node/4024904404",
      "properties": {
        "timestamp": "2016-02-25T01:59:15Z",
        "version": 1,
        "changeset": 37426154,
        "IJSN:administra": "Municipal",
        "IJSN:classeCnae": "Fundamental",
        "addr:city": "Pancas",
        "addr:housenumber": "94",
        "addr:postcode": "29755-000",
        "addr:street": "Avenida Espírito Santo",
        "addr:suburb": "Comunidade Floresta",
        "alt_name": "Centro de Educação Infantil Municipal",
        "amenity": "school",
        "contact:phone": "(27) 3726-4221",
        "name": "CEIM Laurindo Barbosa",
        "source": "IJSN",
        "id": "node/4024904404"
      },
      "geometry": {
        "type": "Point",
        "coordinates": [
          -40.7730993,
          -19.1606455
        ]
      }
    },
    {
      "type": "Feature",
      "id": "node/4024904481",
      "properties": {
        "timestamp": "2016-02-25T01:59:28Z",
        "version": 1,
        "changeset": 37426154,
        "IJSN:administra": "Estadual",
        "IJSN:classeCnae": "Fundamental e Médio",
        "addr:city": "Pancas",
        "addr:housenumber": "770",
        "addr:postcode": "29750-000",
        "addr:street": "Rua da Creche",
        "addr:suburb": "Lírio dos Vales",
        "alt_name": "Escola Estadual de Ensino Fundamental e Médio",
        "amenity": "school",
        "contact:phone": "(27) 3726-2199 / 3726-2199",
        "name": "EEEFM Araribóia",
        "source": "IJSN",
        "id": "node/4024904481"
      },
      "geometry": {
        "type": "Point",
        "coordinates": [
          -40.8536135,
          -19.2214144
        ]
      }
    },
    {
      "type": "Feature",
      "id": "node/4024904806",
      "properties": {
        "timestamp": "2016-02-25T01:59:33Z",
        "version": 1,
        "changeset": 37426154,
        "IJSN:administra": "Estadual",
        "IJSN:classeCnae": "Fundamental e Médio",
        "addr:city": "Pancas",
        "addr:postcode": "29750-000",
        "addr:street": "Rua São José",
        "addr:suburb": "Comunidade Vila Verde",
        "alt_name": "Escola Estadual de Ensino Fundamental e Médio",
        "amenity": "school",
        "name": "EEEFM Januário Ribeiro",
        "source": "IJSN",
        "id": "node/4024904806"
      },
      "geometry": {
        "type": "Point",
        "coordinates": [
          -40.877372,
          -18.97298
        ]
      }
    },
    {
      "type": "Feature",
      "id": "node/4024904845",
      "properties": {
        "timestamp": "2016-02-25T01:59:40Z",
        "version": 1,
        "changeset": 37426154,
        "IJSN:administra": "Estadual",
        "IJSN:classeCnae": "Fundamental e Médio",
        "addr:city": "Pancas",
        "addr:postcode": "29750-000",
        "addr:street": "Rua Amazonas",
        "addr:suburb": "Comunidade Floresta",
        "alt_name": "Escola Estadual de Ensino Fundamental e Médio",
        "amenity": "school",
        "name": "EEEFM Sebastiana Grilo",
        "source": "IJSN",
        "id": "node/4024904845"
      },
      "geometry": {
        "type": "Point",
        "coordinates": [
          -40.7732059,
          -19.1616217
        ]
      }
    },
    {
      "type": "Feature",
      "id": "node/4024905044",
      "properties": {
        "timestamp": "2016-02-25T01:59:56Z",
        "version": 1,
        "changeset": 37426154,
        "IJSN:administra": "Estadual",
        "IJSN:classeCnae": "Fundamental",
        "addr:city": "Pancas",
        "addr:postcode": "29750-000",
        "addr:suburb": "Comunidade Alto São Pedro do Pancas",
        "alt_name": "Escola Estadual Unidocente de Ensino Fundamental",
        "amenity": "school",
        "name": "EEUEF Madre Cristina",
        "source": "IJSN",
        "id": "node/4024905044"
      },
      "geometry": {
        "type": "Point",
        "coordinates": [
          -40.8594751,
          -19.3143526
        ]
      }
    },
    {
      "type": "Feature",
      "id": "node/4024905468",
      "properties": {
        "timestamp": "2016-02-25T02:00:33Z",
        "version": 1,
        "changeset": 37426154,
        "IJSN:administra": "Municipal",
        "IJSN:classeCnae": "Fundamental",
        "addr:city": "Pancas",
        "addr:housenumber": "819",
        "addr:postcode": "29750-000",
        "addr:street": "Avenida José Nunes Miranda",
        "addr:suburb": "Lírio dos Vales",
        "alt_name": "Escola Municipal de Ensino Fundamental",
        "amenity": "school",
        "contact:phone": "(27) 3726-1019 / 3726-1679",
        "name": "EMEF Henoc Pereira",
        "source": "IJSN",
        "id": "node/4024905468"
      },
      "geometry": {
        "type": "Point",
        "coordinates": [
          -40.8539109,
          -19.222029
        ]
      }
    },
    {
      "type": "Feature",
      "id": "node/4024905634",
      "properties": {
        "timestamp": "2016-02-25T02:00:44Z",
        "version": 1,
        "changeset": 37426154,
        "IJSN:administra": "Municipal",
        "IJSN:classeCnae": "Fundamental",
        "addr:city": "Pancas",
        "addr:housenumber": "300",
        "addr:postcode": "29750-000",
        "addr:street": "Rua Crisolita",
        "addr:suburb": "Vila Nova",
        "alt_name": "Escola Municipal de Ensino Fundamental",
        "amenity": "school",
        "contact:phone": "(27) 3726-1466 / 3726-1142",
        "name": "EMEF Oraide Gomes de Miranda",
        "source": "IJSN",
        "id": "node/4024905634"
      },
      "geometry": {
        "type": "Point",
        "coordinates": [
          -40.8468343,
          -19.2226332
        ]
      }
    },
    {
      "type": "Feature",
      "id": "node/4024906279",
      "properties": {
        "timestamp": "2016-11-15T23:55:11Z",
        "version": 2,
        "changeset": 43684526,
        "IJSN:administra": "Municipal",
        "IJSN:classeCnae": "Fundamental",
        "addr:city": "Pancas",
        "addr:postcode": "29755-000",
        "addr:suburb": "Comunidade Floresta",
        "alt_name": "Escola Municipal Unidocente de Ensino Fundamental",
        "amenity": "school",
        "name": "EMUEF Córrego da Floresta",
        "operator": "Municipal de Pancas",
        "source": "IJSN",
        "id": "node/4024906279"
      },
      "geometry": {
        "type": "Point",
        "coordinates": [
          -40.7415334,
          -19.1286143
        ]
      }
    },
    {
      "type": "Feature",
      "id": "node/4024906814",
      "properties": {
        "timestamp": "2016-02-25T02:02:30Z",
        "version": 1,
        "changeset": 37426154,
        "IJSN:administra": "Municipal",
        "IJSN:classeCnae": "Fundamental",
        "addr:city": "Pancas",
        "addr:postcode": "29750-000",
        "addr:suburb": "Comunidade Panquinhas",
        "alt_name": "Escola Pluridocente Municipal de Ensino Fundamental",
        "amenity": "school",
        "name": "EPMEF Augusto Breda",
        "source": "IJSN",
        "id": "node/4024906814"
      },
      "geometry": {
        "type": "Point",
        "coordinates": [
          -40.8980052,
          -19.2025428
        ]
      }
    },
    {
      "type": "Feature",
      "id": "node/4024906815",
      "properties": {
        "timestamp": "2016-11-15T23:28:13Z",
        "version": 2,
        "changeset": 43684010,
        "IJSN:administra": "Municipal",
        "IJSN:classeCnae": "Fundamental",
        "addr:city": "Pancas",
        "addr:postcode": "29750-000",
        "addr:suburb": "Comunidade Brejo",
        "alt_name": "Escola Pluridocente Municipal de Ensino Fundamental",
        "amenity": "school",
        "name": "EPMEF Córrego Floresta",
        "source": "IJSN",
        "id": "node/4024906815"
      },
      "geometry": {
        "type": "Point",
        "coordinates": [
          -40.7716814,
          -19.1150676
        ]
      }
    },
    {
      "type": "Feature",
      "id": "node/4024906816",
      "properties": {
        "timestamp": "2016-02-25T02:02:31Z",
        "version": 1,
        "changeset": 37426154,
        "IJSN:administra": "Municipal",
        "IJSN:classeCnae": "Fundamental",
        "addr:city": "Pancas",
        "addr:postcode": "29750-000",
        "addr:street": "Rua Padre José de Anchieta",
        "addr:suburb": "Nilton Sá",
        "alt_name": "Escola Pluridocente Municipal de Ensino Fundamental",
        "amenity": "school",
        "name": "EPMEF Emílio Klug",
        "source": "IJSN",
        "id": "node/4024906816"
      },
      "geometry": {
        "type": "Point",
        "coordinates": [
          -40.8382845,
          -19.2285128
        ]
      }
    },
    {
      "type": "Feature",
      "id": "node/4024906817",
      "properties": {
        "timestamp": "2016-02-25T02:02:31Z",
        "version": 1,
        "changeset": 37426154,
        "IJSN:administra": "Municipal",
        "IJSN:classeCnae": "Fundamental",
        "addr:city": "Pancas",
        "addr:postcode": "29750-000",
        "addr:suburb": "Comunidade São Bento",
        "alt_name": "Escola Pluridocente Municipal de Ensino Fundamental",
        "amenity": "school",
        "name": "EPMEF Emílio Marquardt",
        "source": "IJSN",
        "id": "node/4024906817"
      },
      "geometry": {
        "type": "Point",
        "coordinates": [
          -40.7518111,
          -19.2003751
        ]
      }
    },
    {
      "type": "Feature",
      "id": "node/4024906818",
      "properties": {
        "timestamp": "2016-02-25T02:02:31Z",
        "version": 1,
        "changeset": 37426154,
        "IJSN:administra": "Municipal",
        "IJSN:classeCnae": "Infantil e Fundamental",
        "addr:city": "Pancas",
        "addr:postcode": "29755-000",
        "addr:suburb": "Comunidade Córrego Uba",
        "alt_name": "Escola Pluridocente Municipal de Ensino Fundamental",
        "amenity": "school",
        "name": "EPMEF José Leandro Shwartz",
        "source": "IJSN",
        "id": "node/4024906818"
      },
      "geometry": {
        "type": "Point",
        "coordinates": [
          -40.8059344,
          -19.0805706
        ]
      }
    },
    {
      "type": "Feature",
      "id": "node/4024906819",
      "properties": {
        "timestamp": "2016-02-25T02:02:31Z",
        "version": 1,
        "changeset": 37426154,
        "IJSN:administra": "Municipal",
        "IJSN:classeCnae": "Fundamental",
        "addr:city": "Pancas",
        "addr:postcode": "29755-000",
        "addr:suburb": "Comunidade Montes Claros",
        "alt_name": "Escola Pluridocente Municipal de Ensino Fundamental",
        "amenity": "school",
        "name": "EPMEF Montes Claros",
        "source": "IJSN",
        "id": "node/4024906819"
      },
      "geometry": {
        "type": "Point",
        "coordinates": [
          -40.7237991,
          -19.1041557
        ]
      }
    },
    {
      "type": "Feature",
      "id": "node/4024906820",
      "properties": {
        "timestamp": "2016-02-25T02:02:31Z",
        "version": 1,
        "changeset": 37426154,
        "IJSN:administra": "Municipal",
        "IJSN:classeCnae": "Fundamental",
        "addr:city": "Pancas",
        "addr:postcode": "29750-000",
        "addr:suburb": "Comunidade São Bento",
        "alt_name": "Escola Pluridocente Municipal de Ensino Fundamental",
        "amenity": "school",
        "name": "EPMEF Rodolfo Haese",
        "source": "IJSN",
        "id": "node/4024906820"
      },
      "geometry": {
        "type": "Point",
        "coordinates": [
          -40.7507376,
          -19.229158
        ]
      }
    },
    {
      "type": "Feature",
      "id": "node/4024906821",
      "properties": {
        "timestamp": "2016-02-25T02:02:31Z",
        "version": 1,
        "changeset": 37426154,
        "IJSN:administra": "Municipal",
        "IJSN:classeCnae": "Fundamental",
        "addr:city": "Pancas",
        "addr:postcode": "29750-000",
        "addr:street": "Fazenda Santa Helena",
        "addr:suburb": "Comunidade Alto Panquinhas",
        "alt_name": "Escola Pluridocente Municipal de Ensino Fundamental",
        "amenity": "school",
        "name": "EPMEF Santa Helena",
        "source": "IJSN",
        "id": "node/4024906821"
      },
      "geometry": {
        "type": "Point",
        "coordinates": [
          -40.9042774,
          -19.1725144
        ]
      }
    },
    {
      "type": "Feature",
      "id": "node/4024906822",
      "properties": {
        "timestamp": "2016-02-25T02:02:32Z",
        "version": 1,
        "changeset": 37426154,
        "IJSN:administra": "Municipal",
        "IJSN:classeCnae": "Fundamental",
        "addr:city": "Pancas",
        "addr:postcode": "29755-000",
        "addr:suburb": "Comunidade Carapina",
        "alt_name": "Escola Pluridocente Municipal de Ensino Fundamental",
        "amenity": "school",
        "name": "EPMEF Sebastião Alves de Assis",
        "source": "IJSN",
        "id": "node/4024906822"
      },
      "geometry": {
        "type": "Point",
        "coordinates": [
          -40.8222974,
          -19.0381457
        ]
      }
    },
    {
      "type": "Feature",
      "id": "node/4024906823",
      "properties": {
        "timestamp": "2016-02-25T02:02:32Z",
        "version": 1,
        "changeset": 37426154,
        "IJSN:administra": "Privada",
        "IJSN:classeCnae": "Fundamental",
        "addr:city": "Pancas",
        "addr:housenumber": "770",
        "addr:postcode": "29750-000",
        "addr:street": "Avenida José Nunes de Miranda",
        "addr:suburb": "Lírio dos vales",
        "alt_name": "Escola de Primerio e Segundo Grau",
        "amenity": "school",
        "contact:phone": "(27) 3726-1610",
        "name": "EPSG Cooepa",
        "source": "IJSN",
        "id": "node/4024906823"
      },
      "geometry": {
        "type": "Point",
        "coordinates": [
          -40.8534392,
          -19.2217204
        ]
      }
    },
    {
      "type": "Feature",
      "id": "node/4024906831",
      "properties": {
        "timestamp": "2016-02-25T02:02:33Z",
        "version": 1,
        "changeset": 37426154,
        "IJSN:administra": "Municipal",
        "IJSN:classeCnae": "Fundamental",
        "addr:city": "Águia Branca",
        "addr:postcode": "29795-000",
        "addr:suburb": "Cabeceira do Córrego Parado",
        "alt_name": "Escola Unidocente Municipal",
        "amenity": "school",
        "name": "EU MUL Ladislau Matuchoco",
        "source": "IJSN",
        "id": "node/4024906831"
      },
      "geometry": {
        "type": "Point",
        "coordinates": [
          -40.7494295,
          -19.017554
        ]
      }
    },
    {
      "type": "Feature",
      "id": "node/4024906859",
      "properties": {
        "timestamp": "2016-02-25T02:02:37Z",
        "version": 1,
        "changeset": 37426154,
        "IJSN:administra": "Municipal",
        "IJSN:classeCnae": "Fundamental",
        "addr:city": "São Domingos do Norte",
        "addr:postcode": "29745-000",
        "addr:suburb": "Córrego Ferrugem",
        "alt_name": "Escola Unidocente Municipal",
        "amenity": "school",
        "name": "EUM Córrego Ferrugem",
        "source": "IJSN",
        "id": "node/4024906859"
      },
      "geometry": {
        "type": "Point",
        "coordinates": [
          -40.6788948,
          -19.1708025
        ]
      }
    },
    {
      "type": "Feature",
      "id": "node/4024906873",
      "properties": {
        "timestamp": "2016-02-25T02:02:39Z",
        "version": 1,
        "changeset": 37426154,
        "IJSN:administra": "Municipal",
        "IJSN:classeCnae": "Fundamental",
        "addr:city": "São Domingos do Norte",
        "addr:postcode": "29745-000",
        "addr:suburb": "Fazenda Santa Helena",
        "alt_name": "Escola Unidocente Municipal",
        "amenity": "school",
        "name": "EUM Fazenda Santa Helena",
        "source": "IJSN",
        "id": "node/4024906873"
      },
      "geometry": {
        "type": "Point",
        "coordinates": [
          -40.6942207,
          -19.1577588
        ]
      }
    },
    {
      "type": "Feature",
      "id": "node/4024906898",
      "properties": {
        "timestamp": "2016-02-25T02:02:43Z",
        "version": 1,
        "changeset": 37426154,
        "IJSN:administra": "Municipal",
        "IJSN:classeCnae": "Fundamental",
        "addr:city": "Pancas",
        "addr:postcode": "29750-000",
        "addr:suburb": "Comunidade São Pedro do Pancas",
        "alt_name": "Escola Unidocente Municipal de Ensino Fundamental",
        "amenity": "school",
        "name": "EUMEF Alfredo Loose",
        "source": "IJSN",
        "id": "node/4024906898"
      },
      "geometry": {
        "type": "Point",
        "coordinates": [
          -40.8013013,
          -19.2688526
        ]
      }
    },
    {
      "type": "Feature",
      "id": "node/4024906899",
      "properties": {
        "timestamp": "2016-02-25T02:02:43Z",
        "version": 1,
        "changeset": 37426154,
        "IJSN:administra": "Municipal",
        "IJSN:classeCnae": "Fundamental",
        "addr:city": "Pancas",
        "addr:postcode": "29750-000",
        "addr:suburb": "Comunidade Bela Aurora",
        "alt_name": "Escola Unidocente Municipal de Ensino Fundamental",
        "amenity": "school",
        "name": "EUMEF Alto Bela Aurora",
        "source": "IJSN",
        "id": "node/4024906899"
      },
      "geometry": {
        "type": "Point",
        "coordinates": [
          -40.8516125,
          -19.0378518
        ]
      }
    },
    {
      "type": "Feature",
      "id": "node/4024906900",
      "properties": {
        "timestamp": "2016-02-25T02:02:44Z",
        "version": 1,
        "changeset": 37426154,
        "IJSN:administra": "Municipal",
        "IJSN:classeCnae": "Fundamental",
        "addr:city": "Pancas",
        "addr:postcode": "29750-000",
        "addr:suburb": "Comunidade Icaraí",
        "alt_name": "Escola Unidocente Municipal de Ensino Fundamental",
        "amenity": "school",
        "name": "EUMEF Alto Icaraí",
        "source": "IJSN",
        "id": "node/4024906900"
      },
      "geometry": {
        "type": "Point",
        "coordinates": [
          -40.9167695,
          -19.0688484
        ]
      }
    },
    {
      "type": "Feature",
      "id": "node/4024906902",
      "properties": {
        "timestamp": "2016-02-25T02:02:44Z",
        "version": 1,
        "changeset": 37426154,
        "IJSN:administra": "Municipal",
        "IJSN:classeCnae": "Fundamental",
        "addr:city": "Pancas",
        "addr:postcode": "29750-000",
        "addr:suburb": "Comunidade Alto São Pedro do Pancas",
        "alt_name": "Escola Unidocente Municipal de Ensino Fundamental",
        "amenity": "school",
        "name": "EUMEF Alto São Pedro",
        "source": "IJSN",
        "id": "node/4024906902"
      },
      "geometry": {
        "type": "Point",
        "coordinates": [
          -40.8364983,
          -19.3034564
        ]
      }
    },
    {
      "type": "Feature",
      "id": "node/4024906903",
      "properties": {
        "timestamp": "2016-02-25T02:02:44Z",
        "version": 1,
        "changeset": 37426154,
        "IJSN:administra": "Municipal",
        "IJSN:classeCnae": "Fundamental",
        "addr:city": "Pancas",
        "addr:postcode": "29755-000",
        "addr:suburb": "Comunidade Vargem Alegre de Laginha",
        "alt_name": "Escola Unidocente Municipal de Ensino Fundamental",
        "amenity": "school",
        "name": "EUMEF Anselmo Negrelli",
        "source": "IJSN",
        "id": "node/4024906903"
      },
      "geometry": {
        "type": "Point",
        "coordinates": [
          -40.7972161,
          -19.0397271
        ]
      }
    },
    {
      "type": "Feature",
      "id": "node/4024906905",
      "properties": {
        "timestamp": "2016-02-25T02:02:44Z",
        "version": 1,
        "changeset": 37426154,
        "IJSN:administra": "Municipal",
        "IJSN:classeCnae": "Fundamental",
        "addr:city": "Pancas",
        "addr:postcode": "29750-000",
        "addr:suburb": "Comunidade Córrego Roque",
        "alt_name": "Escola Unidocente Municipal de Ensino Fundamental",
        "amenity": "school",
        "name": "EUMEF Bananal do Roque",
        "source": "IJSN",
        "id": "node/4024906905"
      },
      "geometry": {
        "type": "Point",
        "coordinates": [
          -40.8365084,
          -19.0932194
        ]
      }
    },
    {
      "type": "Feature",
      "id": "node/4024906907",
      "properties": {
        "timestamp": "2016-02-25T02:02:45Z",
        "version": 1,
        "changeset": 37426154,
        "IJSN:administra": "Municipal",
        "IJSN:classeCnae": "Fundamental",
        "addr:city": "Pancas",
        "addr:postcode": "29752-000",
        "addr:suburb": "Comunidade Córrego do Pião",
        "alt_name": "Escola Unidocente Municipal de Ensino Fundamental",
        "amenity": "school",
        "name": "EUMEF Barra do Córrego Pião",
        "source": "IJSN",
        "id": "node/4024906907"
      },
      "geometry": {
        "type": "Point",
        "coordinates": [
          -40.8610615,
          -18.9568123
        ]
      }
    },
    {
      "type": "Feature",
      "id": "node/4024906908",
      "properties": {
        "timestamp": "2016-02-25T02:02:45Z",
        "version": 1,
        "changeset": 37426154,
        "IJSN:administra": "Municipal",
        "IJSN:classeCnae": "Fundamental",
        "addr:city": "Pancas",
        "addr:postcode": "29750-000",
        "addr:suburb": "Comunidade Vila Verde",
        "alt_name": "Escola Unidocente Municipal de Ensino Fundamental",
        "amenity": "school",
        "name": "EUMEF Barra do Córrego São Bento",
        "source": "IJSN",
        "id": "node/4024906908"
      },
      "geometry": {
        "type": "Point",
        "coordinates": [
          -40.8790637,
          -19.0154802
        ]
      }
    },
    {
      "type": "Feature",
      "id": "node/4024906909",
      "properties": {
        "timestamp": "2016-02-25T02:02:45Z",
        "version": 1,
        "changeset": 37426154,
        "IJSN:administra": "Municipal",
        "IJSN:classeCnae": "Fundamental",
        "addr:city": "Pancas",
        "addr:postcode": "29752-000",
        "addr:suburb": "Comunidade Sumidouro do Pancas",
        "alt_name": "Escola Unidocente Municipal de Ensino Fundamental",
        "amenity": "school",
        "name": "EUMEF Barra do Icaraí",
        "source": "IJSN",
        "id": "node/4024906909"
      },
      "geometry": {
        "type": "Point",
        "coordinates": [
          -40.8946486,
          -19.0606831
        ]
      }
    },
    {
      "type": "Feature",
      "id": "node/4024906910",
      "properties": {
        "timestamp": "2016-02-25T02:02:45Z",
        "version": 1,
        "changeset": 37426154,
        "IJSN:administra": "Municipal",
        "IJSN:classeCnae": "Fundamental",
        "addr:city": "Pancas",
        "addr:postcode": "29750-000",
        "addr:suburb": "Comunidade Sumidouro do Pancas",
        "alt_name": "Escola Unidocente Municipal de Ensino Fundamental",
        "amenity": "school",
        "name": "EUMEF Barra do Pancas",
        "source": "IJSN",
        "id": "node/4024906910"
      },
      "geometry": {
        "type": "Point",
        "coordinates": [
          -40.8734688,
          -19.0514016
        ]
      }
    },
    {
      "type": "Feature",
      "id": "node/4024906911",
      "properties": {
        "timestamp": "2016-02-25T02:02:45Z",
        "version": 1,
        "changeset": 37426154,
        "IJSN:administra": "Municipal",
        "IJSN:classeCnae": "Fundamental",
        "addr:city": "Pancas",
        "addr:postcode": "29755-000",
        "addr:suburb": "Comunidade Bela Aurora",
        "alt_name": "Escola Unidocente Municipal de Ensino Fundamental",
        "amenity": "school",
        "name": "EUMEF Bela Aurora do Pancas",
        "source": "IJSN",
        "id": "node/4024906911"
      },
      "geometry": {
        "type": "Point",
        "coordinates": [
          -40.8471038,
          -19.0449697
        ]
      }
    },
    {
      "type": "Feature",
      "id": "node/4024906920",
      "properties": {
        "timestamp": "2016-02-25T02:02:47Z",
        "version": 1,
        "changeset": 37426154,
        "IJSN:administra": "Municipal",
        "IJSN:classeCnae": "Fundamental",
        "addr:city": "Pancas",
        "addr:postcode": "29750-000",
        "addr:suburb": "Comunidade São José Pequeno",
        "alt_name": "Escola Unidocente Municipal de Ensino Fundamental",
        "amenity": "school",
        "name": "EUMEF Córrego São José Pequeno",
        "source": "IJSN",
        "id": "node/4024906920"
      },
      "geometry": {
        "type": "Point",
        "coordinates": [
          -40.8254933,
          -19.2679388
        ]
      }
    },
    {
      "type": "Feature",
      "id": "node/4024906921",
      "properties": {
        "timestamp": "2016-02-25T02:02:47Z",
        "version": 1,
        "changeset": 37426154,
        "IJSN:administra": "Municipal",
        "IJSN:classeCnae": "Fundamental",
        "addr:city": "Pancas",
        "addr:postcode": "29750-000",
        "addr:suburb": "Comunidade Alto São Luiz",
        "alt_name": "Escola Unidocente Municipal de Ensino Fundamental",
        "amenity": "school",
        "name": "EUMEF Córrego São Luiz",
        "source": "IJSN",
        "id": "node/4024906921"
      },
      "geometry": {
        "type": "Point",
        "coordinates": [
          -40.8782721,
          -19.1213802
        ]
      }
    },
    {
      "type": "Feature",
      "id": "node/4024906922",
      "properties": {
        "timestamp": "2016-02-25T02:02:47Z",
        "version": 1,
        "changeset": 37426154,
        "IJSN:administra": "Municipal",
        "IJSN:classeCnae": "Fundamental",
        "addr:city": "Pancas",
        "addr:postcode": "29750-000",
        "addr:suburb": "Comunidade Carapina",
        "alt_name": "Escola Unidocente Municipal de Ensino Fundamental",
        "amenity": "school",
        "name": "EUMEF Córrego da Estrela",
        "source": "IJSN",
        "id": "node/4024906922"
      },
      "geometry": {
        "type": "Point",
        "coordinates": [
          -40.8437401,
          -19.0275943
        ]
      }
    },
    {
      "type": "Feature",
      "id": "node/4024906923",
      "properties": {
        "timestamp": "2016-02-25T02:02:47Z",
        "version": 1,
        "changeset": 37426154,
        "IJSN:administra": "Municipal",
        "IJSN:classeCnae": "Fundamental",
        "addr:city": "Pancas",
        "addr:postcode": "29750-000",
        "addr:suburb": "Comunidade Córrego Prata",
        "alt_name": "Escola Unidocente Municipal de Ensino Fundamental",
        "amenity": "school",
        "name": "EUMEF Córrego da Prata",
        "source": "IJSN",
        "id": "node/4024906923"
      },
      "geometry": {
        "type": "Point",
        "coordinates": [
          -40.8564896,
          -19.2449928
        ]
      }
    },
    {
      "type": "Feature",
      "id": "node/4024906925",
      "properties": {
        "timestamp": "2016-02-25T02:02:47Z",
        "version": 1,
        "changeset": 37426154,
        "IJSN:administra": "Municipal",
        "IJSN:classeCnae": "Fundamental",
        "addr:city": "Pancas",
        "addr:postcode": "29750-000",
        "addr:suburb": "Comunidade Córrego Espinho",
        "alt_name": "Escola Unidocente Municipal de Ensino Fundamental",
        "amenity": "school",
        "name": "EUMEF Córrego do Espinho",
        "source": "IJSN",
        "id": "node/4024906925"
      },
      "geometry": {
        "type": "Point",
        "coordinates": [
          -40.7638804,
          -19.2809279
        ]
      }
    },
    {
      "type": "Feature",
      "id": "node/4024906930",
      "properties": {
        "timestamp": "2016-02-25T02:02:48Z",
        "version": 1,
        "changeset": 37426154,
        "IJSN:administra": "Municipal",
        "IJSN:classeCnae": "Fundamental",
        "addr:city": "Pancas",
        "addr:postcode": "29750-000",
        "addr:suburb": "Paranazinho",
        "alt_name": "Escola Unidocente Municipal de Ensino Fundamental",
        "amenity": "school",
        "name": "EUMEF Fazenda Paraná",
        "source": "IJSN",
        "id": "node/4024906930"
      },
      "geometry": {
        "type": "Point",
        "coordinates": [
          -40.8741797,
          -19.1597499
        ]
      }
    },
    {
      "type": "Feature",
      "id": "node/4024906931",
      "properties": {
        "timestamp": "2016-02-25T02:02:48Z",
        "version": 1,
        "changeset": 37426154,
        "IJSN:administra": "Municipal",
        "IJSN:classeCnae": "Fundamental",
        "addr:city": "Pancas",
        "addr:postcode": "29750-000",
        "addr:suburb": "Comunidade São Pedro do Pancas",
        "alt_name": "Escola Unidocente Municipal de Ensino Fundamental",
        "amenity": "school",
        "name": "EUMEF Futuro do Brasil",
        "source": "IJSN",
        "id": "node/4024906931"
      },
      "geometry": {
        "type": "Point",
        "coordinates": [
          -40.793573,
          -19.2920893
        ]
      }
    },
    {
      "type": "Feature",
      "id": "node/4024906932",
      "properties": {
        "timestamp": "2016-02-25T02:02:48Z",
        "version": 1,
        "changeset": 37426154,
        "IJSN:administra": "Municipal",
        "IJSN:classeCnae": "Fundamental",
        "addr:city": "Pancas",
        "addr:postcode": "29750-000",
        "addr:suburb": "Comunidade Alto Pancas",
        "alt_name": "Escola Unidocente Municipal de Ensino Fundamental",
        "amenity": "school",
        "name": "EUMEF Geraldo Peixoto",
        "source": "IJSN",
        "id": "node/4024906932"
      },
      "geometry": {
        "type": "Point",
        "coordinates": [
          -40.9136789,
          -19.0872108
        ]
      }
    },
    {
      "type": "Feature",
      "id": "node/4024906934",
      "properties": {
        "timestamp": "2016-02-25T02:02:49Z",
        "version": 1,
        "changeset": 37426154,
        "IJSN:administra": "Municipal",
        "IJSN:classeCnae": "Fundamental",
        "addr:city": "Pancas",
        "addr:postcode": "29750-000",
        "addr:suburb": "Comunidade Tumalina",
        "alt_name": "Escola Unidocente Municipal de Ensino Fundamental",
        "amenity": "school",
        "name": "EUMEF José Nunes Miranda",
        "source": "IJSN",
        "id": "node/4024906934"
      },
      "geometry": {
        "type": "Point",
        "coordinates": [
          -40.9019798,
          -19.1402432
        ]
      }
    },
    {
      "type": "Feature",
      "id": "node/4024906935",
      "properties": {
        "timestamp": "2016-02-25T02:02:49Z",
        "version": 1,
        "changeset": 37426154,
        "IJSN:administra": "Municipal",
        "IJSN:classeCnae": "Fundamental",
        "addr:city": "Pancas",
        "addr:postcode": "29750-000",
        "addr:suburb": "Comunidade Alto Mutum Preto",
        "alt_name": "Escola Unidocente Municipal de Ensino Fundamental",
        "amenity": "school",
        "name": "EUMEF João Zito Moulin",
        "source": "IJSN",
        "id": "node/4024906935"
      },
      "geometry": {
        "type": "Point",
        "coordinates": [
          -40.8697154,
          -19.2787264
        ]
      }
    },
    {
      "type": "Feature",
      "id": "node/4024906936",
      "properties": {
        "timestamp": "2016-02-25T02:02:49Z",
        "version": 1,
        "changeset": 37426154,
        "IJSN:administra": "Municipal",
        "IJSN:classeCnae": "Fundamental",
        "addr:city": "Pancas",
        "addr:postcode": "29755-000",
        "addr:suburb": "Comunidade Floresta",
        "alt_name": "Escola Unidocente Municipal de Ensino Fundamental",
        "amenity": "school",
        "name": "EUMEF Laranja da Terra",
        "source": "IJSN",
        "id": "node/4024906936"
      },
      "geometry": {
        "type": "Point",
        "coordinates": [
          -40.7337452,
          -19.1710002
        ]
      }
    },
    {
      "type": "Feature",
      "id": "node/4024906937",
      "properties": {
        "timestamp": "2016-02-25T02:02:49Z",
        "version": 1,
        "changeset": 37426154,
        "IJSN:administra": "Municipal",
        "IJSN:classeCnae": "Fundamental",
        "addr:city": "Pancas",
        "addr:postcode": "29750-000",
        "addr:suburb": "Comunidade Tumalina",
        "alt_name": "Escola Unidocente Municipal de Ensino Fundamental",
        "amenity": "school",
        "name": "EUMEF Nelcina Cruz Soares",
        "source": "IJSN",
        "id": "node/4024906937"
      },
      "geometry": {
        "type": "Point",
        "coordinates": [
          -40.9171171,
          -19.1449447
        ]
      }
    },
    {
      "type": "Feature",
      "id": "node/4024906938",
      "properties": {
        "timestamp": "2016-02-25T02:02:49Z",
        "version": 1,
        "changeset": 37426154,
        "IJSN:administra": "Municipal",
        "IJSN:classeCnae": "Fundamental",
        "addr:city": "Pancas",
        "addr:postcode": "29750-000",
        "addr:suburb": "Comunidade Tumalina",
        "alt_name": "Escola Unidocente Municipal de Ensino Fundamental",
        "amenity": "school",
        "name": "EUMEF Nicanor Galdino",
        "source": "IJSN",
        "id": "node/4024906938"
      },
      "geometry": {
        "type": "Point",
        "coordinates": [
          -40.9257538,
          -19.1239437
        ]
      }
    },
    {
      "type": "Feature",
      "id": "node/4024906939",
      "properties": {
        "timestamp": "2016-02-25T02:02:49Z",
        "version": 1,
        "changeset": 37426154,
        "IJSN:administra": "Municipal",
        "IJSN:classeCnae": "Fundamental",
        "addr:city": "Pancas",
        "addr:postcode": "29750-000",
        "addr:suburb": "Comunidade Oriente",
        "alt_name": "Escola Unidocente Municipal de Ensino Fundamental",
        "amenity": "school",
        "name": "EUMEF Oscar Lourenço da Silva",
        "source": "IJSN",
        "id": "node/4024906939"
      },
      "geometry": {
        "type": "Point",
        "coordinates": [
          -40.8712071,
          -19.1895306
        ]
      }
    },
    {
      "type": "Feature",
      "id": "node/4024906940",
      "properties": {
        "timestamp": "2016-02-25T02:02:49Z",
        "version": 1,
        "changeset": 37426154,
        "IJSN:administra": "Municipal",
        "IJSN:classeCnae": "Fundamental",
        "addr:city": "Pancas",
        "addr:postcode": "29750-000",
        "addr:suburb": "Comunidade Alto Pancas",
        "alt_name": "Escola Unidocente Municipal de Ensino Fundamental",
        "amenity": "school",
        "name": "EUMEF Ostílio Alves de Souza",
        "source": "IJSN",
        "id": "node/4024906940"
      },
      "geometry": {
        "type": "Point",
        "coordinates": [
          -40.9009601,
          -19.0951939
        ]
      }
    },
    {
      "type": "Feature",
      "id": "node/4024906941",
      "properties": {
        "timestamp": "2016-02-25T02:02:50Z",
        "version": 1,
        "changeset": 37426154,
        "IJSN:administra": "Municipal",
        "IJSN:classeCnae": "Fundamental",
        "addr:city": "Pancas",
        "addr:postcode": "29750-000",
        "addr:suburb": "Comunidade Córrego do Roque",
        "alt_name": "Escola Unidocente Municipal de Ensino Fundamental",
        "amenity": "school",
        "name": "EUMEF Professor Elias Natanael Lisboa",
        "source": "IJSN",
        "id": "node/4024906941"
      },
      "geometry": {
        "type": "Point",
        "coordinates": [
          -40.8655796,
          -19.0820457
        ]
      }
    },
    {
      "type": "Feature",
      "id": "node/4024906942",
      "properties": {
        "timestamp": "2016-02-25T02:02:50Z",
        "version": 1,
        "changeset": 37426154,
        "IJSN:administra": "Municipal",
        "IJSN:classeCnae": "Fundamental",
        "addr:city": "Pancas",
        "addr:postcode": "29750-000",
        "addr:suburb": "Comunidade Rodas D´água",
        "alt_name": "Escola Unidocente Municipal de Ensino Fundamental",
        "amenity": "school",
        "name": "EUMEF Professora Lúcia Vigna",
        "source": "IJSN",
        "id": "node/4024906942"
      },
      "geometry": {
        "type": "Point",
        "coordinates": [
          -40.7222166,
          -19.2901454
        ]
      }
    },
    {
      "type": "Feature",
      "id": "node/4024906943",
      "properties": {
        "timestamp": "2016-02-25T02:02:50Z",
        "version": 1,
        "changeset": 37426154,
        "IJSN:administra": "Municipal",
        "IJSN:classeCnae": "Fundamental",
        "addr:city": "Pancas",
        "addr:postcode": "29750-000",
        "addr:suburb": "Comunidade Oriente",
        "alt_name": "Escola Unidocente Municipal de Ensino Fundamental",
        "amenity": "school",
        "name": "EUMEF Rainha da Paz",
        "source": "IJSN",
        "id": "node/4024906943"
      },
      "geometry": {
        "type": "Point",
        "coordinates": [
          -40.8890316,
          -19.1903146
        ]
      }
    },
    {
      "type": "Feature",
      "id": "node/4024906945",
      "properties": {
        "timestamp": "2016-02-25T02:02:50Z",
        "version": 1,
        "changeset": 37426154,
        "IJSN:administra": "Municipal",
        "IJSN:classeCnae": "Fundamental",
        "addr:city": "Pancas",
        "addr:postcode": "29752-000",
        "addr:suburb": "Comunidade Córrego Urucum",
        "alt_name": "Escola Unidocente Municipal de Ensino Fundamental",
        "amenity": "school",
        "name": "EUMEF Rio São José",
        "source": "IJSN",
        "id": "node/4024906945"
      },
      "geometry": {
        "type": "Point",
        "coordinates": [
          -40.9000183,
          -18.9437256
        ]
      }
    },
    {
      "type": "Feature",
      "id": "node/4024906947",
      "properties": {
        "timestamp": "2016-02-25T02:02:50Z",
        "version": 1,
        "changeset": 37426154,
        "IJSN:administra": "Municipal",
        "IJSN:classeCnae": "Fundamental",
        "addr:city": "Pancas",
        "addr:postcode": "29755-000",
        "addr:suburb": "Comunidade Córrego do Roque",
        "alt_name": "Escola Unidocente Municipal de Ensino Fundamental",
        "amenity": "school",
        "name": "EUMEF São Gabriel",
        "source": "IJSN",
        "id": "node/4024906947"
      },
      "geometry": {
        "type": "Point",
        "coordinates": [
          -40.8133699,
          -19.1202399
        ]
      }
    },
    {
      "type": "Feature",
      "id": "node/4024906949",
      "properties": {
        "timestamp": "2016-02-25T02:02:51Z",
        "version": 1,
        "changeset": 37426154,
        "IJSN:administra": "Municipal",
        "IJSN:classeCnae": "Fundamental",
        "addr:city": "Pancas",
        "addr:postcode": "29750-000",
        "addr:suburb": "Comunidade Barra do São Luís",
        "alt_name": "Escola Unidocente Municipal de Ensino Fundamental",
        "amenity": "school",
        "name": "EUMEF São Lucas",
        "source": "IJSN",
        "id": "node/4024906949"
      },
      "geometry": {
        "type": "Point",
        "coordinates": [
          -40.8193142,
          -19.2316471
        ]
      }
    },
    {
      "type": "Feature",
      "id": "node/4024906950",
      "properties": {
        "timestamp": "2016-02-25T02:02:51Z",
        "version": 1,
        "changeset": 37426154,
        "IJSN:administra": "Municipal",
        "IJSN:classeCnae": "Fundamental",
        "addr:city": "Pancas",
        "addr:postcode": "29750-000",
        "addr:suburb": "Comunidade Vargem Alegre",
        "alt_name": "Escola Unidocente Municipal de Ensino Fundamental",
        "amenity": "school",
        "name": "EUMEF Vargem Alegre do Pancas",
        "source": "IJSN",
        "id": "node/4024906950"
      },
      "geometry": {
        "type": "Point",
        "coordinates": [
          -40.8412712,
          -19.1956413
        ]
      }
    },
    {
      "type": "Feature",
      "id": "node/4024906951",
      "properties": {
        "timestamp": "2016-02-25T02:02:51Z",
        "version": 1,
        "changeset": 37426154,
        "IJSN:administra": "Municipal",
        "IJSN:classeCnae": "Fundamental",
        "addr:city": "Pancas",
        "addr:postcode": "29750-000",
        "addr:suburb": "Comunidade Barra do São Pedro",
        "alt_name": "Escola Unidocente Municipal de Ensino Fundamental",
        "amenity": "school",
        "name": "EUMEF Victor Corteletti",
        "source": "IJSN",
        "id": "node/4024906951"
      },
      "geometry": {
        "type": "Point",
        "coordinates": [
          -40.7672892,
          -19.2459809
        ]
      }
    }
  ]
}
