{
  "type": "FeatureCollection",
  "features": [
    {
      "type": "Feature",
      "id": "node/3269745873",
      "properties": {
        "timestamp": "2015-01-04T23:20:14Z",
        "version": 1,
        "changeset": 27922884,
        "name": "Hotel Pousada das Palmeiras",
        "tourism": "hotel",
        "id": "node/3269745873"
      },
      "geometry": {
        "type": "Point",
        "coordinates": [
          -46.8617405,
          -17.2274423
        ]
      }
    },
    {
      "type": "Feature",
      "id": "node/3269745874",
      "properties": {
        "timestamp": "2020-01-31T06:03:55Z",
        "version": 2,
        "changeset": 80350130,
        "addr:city": "Paracatu",
        "addr:housenumber": "352",
        "addr:postcode": "38600-000",
        "addr:street": "Rua Gastão Campos Lepesquer",
        "addr:suburb": "Alto do Córrego",
        "name": "Paracatu Plaza Hotel",
        "tourism": "hotel",
        "id": "node/3269745874"
      },
      "geometry": {
        "type": "Point",
        "coordinates": [
          -46.8673015,
          -17.2215568
        ]
      }
    },
    {
      "type": "Feature",
      "id": "node/4359226246",
      "properties": {
        "timestamp": "2017-04-07T15:02:00Z",
        "version": 2,
        "changeset": 47542708,
        "name": "Hotel Presidente",
        "name:pt": "Hotel Presidente",
        "tourism": "hotel",
        "id": "node/4359226246"
      },
      "geometry": {
        "type": "Point",
        "coordinates": [
          -46.8742184,
          -17.2178715
        ]
      }
    },
    {
      "type": "Feature",
      "id": "node/7174110812",
      "properties": {
        "timestamp": "2020-01-31T06:03:55Z",
        "version": 1,
        "changeset": 80350130,
        "addr:city": "Paracatu",
        "addr:housenumber": "437",
        "addr:postcode": "38600-000",
        "addr:street": "Rua Manuel Caetano",
        "addr:suburb": "Centro",
        "name": "Hotel Albernaz",
        "tourism": "hotel",
        "id": "node/7174110812"
      },
      "geometry": {
        "type": "Point",
        "coordinates": [
          -46.8724548,
          -17.2181398
        ]
      }
    },
    {
      "type": "Feature",
      "id": "node/7182622130",
      "properties": {
        "timestamp": "2020-02-03T22:03:24Z",
        "version": 1,
        "changeset": 80500012,
        "addr:city": "Paracatu",
        "addr:street": "Praça Leonina Araújo Caldas",
        "addr:suburb": "Centro",
        "name": "El Dorado",
        "tourism": "hotel",
        "id": "node/7182622130"
      },
      "geometry": {
        "type": "Point",
        "coordinates": [
          -46.8801628,
          -17.2173776
        ]
      }
    },
    {
      "type": "Feature",
      "id": "node/8976881726",
      "properties": {
        "timestamp": "2021-08-03T10:43:03Z",
        "version": 1,
        "changeset": 109086167,
        "addr:street": "rodovia MG188",
        "contact:email": "reservas@ipeflorido.com",
        "contact:phone": "+55 38 99926-6666",
        "contact:website": "https://www.ipeflorido.com.br/",
        "contact:whatsapp": "+55 38 99865-7114",
        "name": "Ipê Florido Parque Hotel",
        "tourism": "hotel",
        "id": "node/8976881726"
      },
      "geometry": {
        "type": "Point",
        "coordinates": [
          -46.8273095,
          -17.1683514
        ]
      }
    }
  ]
}
