{
  "type": "FeatureCollection",
  "features": [
    {
      "type": "Feature",
      "id": "node/7173701737",
      "properties": {
        "timestamp": "2020-01-31T00:03:14Z",
        "version": 1,
        "changeset": 80341167,
        "addr:city": "Paracatu",
        "addr:housenumber": "498",
        "addr:postcode": "38600-000",
        "addr:street": "Avenida Olegário Maciel",
        "addr:suburb": "Centro",
        "amenity": "pharmacy",
        "brand": "Drogasil",
        "brand:wikidata": "Q5308185",
        "brand:wikipedia": "pt:Drogasil",
        "dispensing": "yes",
        "healthcare": "pharmacy",
        "name": "Drogasil",
        "wheelchair": "yes",
        "id": "node/7173701737"
      },
      "geometry": {
        "type": "Point",
        "coordinates": [
          -46.8738672,
          -17.217385
        ]
      }
    },
    {
      "type": "Feature",
      "id": "node/7173701739",
      "properties": {
        "timestamp": "2020-01-31T00:03:14Z",
        "version": 1,
        "changeset": 80341167,
        "addr:city": "Paracatu",
        "addr:housenumber": "566",
        "addr:postcode": "38600-000",
        "addr:street": "Avenida Olegário Maciel",
        "addr:suburb": "Centro",
        "amenity": "pharmacy",
        "dispensing": "yes",
        "healthcare": "pharmacy",
        "name": "Drogaria Compre certo",
        "id": "node/7173701739"
      },
      "geometry": {
        "type": "Point",
        "coordinates": [
          -46.8743339,
          -17.2173799
        ]
      }
    },
    {
      "type": "Feature",
      "id": "node/7173701744",
      "properties": {
        "timestamp": "2021-03-27T13:31:10Z",
        "version": 2,
        "changeset": 101837389,
        "addr:city": "Paracatu",
        "addr:housenumber": "96",
        "addr:postcode": "38600-000",
        "addr:street": "Avenida Joaquim Murtinho",
        "addr:suburb": "Centro",
        "amenity": "pharmacy",
        "dispensing": "yes",
        "healthcare": "pharmacy",
        "name": "Drogaria Aqui Tem",
        "id": "node/7173701744"
      },
      "geometry": {
        "type": "Point",
        "coordinates": [
          -46.8742695,
          -17.2165754
        ]
      }
    },
    {
      "type": "Feature",
      "id": "node/7173749542",
      "properties": {
        "timestamp": "2020-01-31T00:31:42Z",
        "version": 1,
        "changeset": 80341470,
        "addr:city": "Paracatu",
        "addr:housenumber": "361",
        "addr:postcode": "38600-000",
        "addr:street": "Praça Firmina Santana",
        "addr:suburb": "Centro",
        "amenity": "pharmacy",
        "dispensing": "yes",
        "healthcare": "pharmacy",
        "name": "Farmácia Nacional",
        "id": "node/7173749542"
      },
      "geometry": {
        "type": "Point",
        "coordinates": [
          -46.8724544,
          -17.2171915
        ]
      }
    },
    {
      "type": "Feature",
      "id": "node/7174110830",
      "properties": {
        "timestamp": "2020-01-31T06:03:55Z",
        "version": 1,
        "changeset": 80350130,
        "addr:city": "Paracatu",
        "addr:housenumber": "381",
        "addr:postcode": "38600-000",
        "addr:street": "Rua Gastão Campos Lepesquer",
        "addr:suburb": "Alto do Córrego",
        "amenity": "pharmacy",
        "dispensing": "yes",
        "healthcare": "pharmacy",
        "name": "Drogaria Master",
        "id": "node/7174110830"
      },
      "geometry": {
        "type": "Point",
        "coordinates": [
          -46.866806,
          -17.2213513
        ]
      }
    },
    {
      "type": "Feature",
      "id": "node/7174110841",
      "properties": {
        "timestamp": "2020-01-31T06:03:55Z",
        "version": 1,
        "changeset": 80350130,
        "addr:city": "Paracatu",
        "addr:housenumber": "347",
        "addr:postcode": "38600-000",
        "addr:street": "Rua Waldemar Botelho",
        "addr:suburb": "Alto do Córrego",
        "amenity": "pharmacy",
        "dispensing": "yes",
        "healthcare": "pharmacy",
        "name": "Santo Expedito",
        "id": "node/7174110841"
      },
      "geometry": {
        "type": "Point",
        "coordinates": [
          -46.8675195,
          -17.2239837
        ]
      }
    },
    {
      "type": "Feature",
      "id": "node/7174396965",
      "properties": {
        "timestamp": "2020-01-31T08:43:06Z",
        "version": 1,
        "changeset": 80359713,
        "addr:city": "Paracatu",
        "addr:postcode": "38600-000",
        "addr:street": "Avenida Olegário Maciel",
        "addr:suburb": "Centro",
        "amenity": "pharmacy",
        "dispensing": "yes",
        "healthcare": "pharmacy",
        "name": "Farma & Forma",
        "id": "node/7174396965"
      },
      "geometry": {
        "type": "Point",
        "coordinates": [
          -46.8733935,
          -17.2177859
        ]
      }
    }
  ]
}
