{
  "type": "FeatureCollection",
  "features": [
    {
      "type": "Feature",
      "id": "node/2983945388",
      "properties": {
        "timestamp": "2014-07-28T00:08:11Z",
        "version": 1,
        "changeset": 24393865,
        "addr:city": "Duque de Caxias",
        "addr:housenumber": "357",
        "addr:street": "Avenida Nilo Pe√ßanha",
        "addr:suburb": "Centro",
        "name": "Marrafa's Bike Sport",
        "phone": "+55-21-26715566",
        "shop": "bicycle",
        "id": "node/2983945388"
      },
      "geometry": {
        "type": "Point",
        "coordinates": [
          -43.314632,
          -22.786657
        ]
      }
    },
    {
      "type": "Feature",
      "id": "node/6387709577",
      "properties": {
        "timestamp": "2023-06-06T06:16:57Z",
        "version": 3,
        "changeset": 136998654,
        "entrance": "main",
        "landuse": "retail",
        "name": "Elson Bikes",
        "payment:cash": "yes",
        "payment:credit_cards": "yes",
        "service:bicycle:parts": "yes",
        "service:bicycle:repair": "yes",
        "service:bicycle:sales": "yes",
        "shop": "bicycle",
        "id": "node/6387709577"
      },
      "geometry": {
        "type": "Point",
        "coordinates": [
          -43.3233667,
          -22.7682262
        ]
      }
    }
  ]
}
