{
  "type": "FeatureCollection",
  "features": [
    {
      "type": "Feature",
      "id": "node/1756871403",
      "properties": {
        "timestamp": "2012-05-18T03:23:26Z",
        "version": 1,
        "changeset": 11629200,
        "amenity": "veterinary",
        "name": "Veterinária Unigranrio",
        "id": "node/1756871403"
      },
      "geometry": {
        "type": "Point",
        "coordinates": [
          -43.3049764,
          -22.7899178
        ]
      }
    },
    {
      "type": "Feature",
      "id": "node/1756871407",
      "properties": {
        "timestamp": "2012-05-30T17:10:10Z",
        "version": 2,
        "changeset": 11750421,
        "amenity": "veterinary",
        "name": "Clínica Veterinária do Centenário 24h",
        "id": "node/1756871407"
      },
      "geometry": {
        "type": "Point",
        "coordinates": [
          -43.3092813,
          -22.7793115
        ]
      }
    },
    {
      "type": "Feature",
      "id": "node/1756871408",
      "properties": {
        "timestamp": "2012-05-18T03:23:27Z",
        "version": 1,
        "changeset": 11629200,
        "addr:street": "Rua Passo da Pátria",
        "amenity": "veterinary",
        "name": "PReserv Veterinária",
        "website": "http://www.preserveterinaria.com.br/",
        "id": "node/1756871408"
      },
      "geometry": {
        "type": "Point",
        "coordinates": [
          -43.3048637,
          -22.7901849
        ]
      }
    },
    {
      "type": "Feature",
      "id": "node/1756874317",
      "properties": {
        "timestamp": "2022-05-27T08:36:21Z",
        "version": 4,
        "changeset": 121562502,
        "addr:street": "Avenida Nilo Peçanha",
        "amenity": "veterinary",
        "name": "Shopping do Animais",
        "website": "https://www.shoppingdosanimais.com.br/",
        "id": "node/1756874317"
      },
      "geometry": {
        "type": "Point",
        "coordinates": [
          -43.3240147,
          -22.7870814
        ]
      }
    },
    {
      "type": "Feature",
      "id": "node/1756874318",
      "properties": {
        "timestamp": "2012-05-18T03:43:43Z",
        "version": 1,
        "changeset": 11629200,
        "amenity": "veterinary",
        "name": "Veterinária",
        "id": "node/1756874318"
      },
      "geometry": {
        "type": "Point",
        "coordinates": [
          -43.317513,
          -22.7839508
        ]
      }
    },
    {
      "type": "Feature",
      "id": "node/1795738582",
      "properties": {
        "timestamp": "2014-01-25T00:53:57Z",
        "version": 2,
        "changeset": 20186962,
        "addr:street": "Avenida Olegário Mariano",
        "amenity": "veterinary",
        "name": "Preserv Veterinária",
        "website": "http://www.preserveterinaria.com.br/",
        "id": "node/1795738582"
      },
      "geometry": {
        "type": "Point",
        "coordinates": [
          -43.2948616,
          -22.7738428
        ]
      }
    },
    {
      "type": "Feature",
      "id": "node/5312218325",
      "properties": {
        "timestamp": "2017-12-30T16:16:29Z",
        "version": 1,
        "changeset": 55038340,
        "addr:city": "Duque de Caxias",
        "addr:street": "Avenida Pedro Lessa",
        "addr:suburb": "Jardim Olavo Bilac",
        "amenity": "veterinary",
        "name": "Kakareco Veterinária do Bilac",
        "id": "node/5312218325"
      },
      "geometry": {
        "type": "Point",
        "coordinates": [
          -43.3203667,
          -22.7611386
        ]
      }
    },
    {
      "type": "Feature",
      "id": "node/7807349920",
      "properties": {
        "timestamp": "2020-08-12T17:49:43Z",
        "version": 1,
        "changeset": 89316826,
        "addr:city": "duque de caxias",
        "addr:housenumber": "6",
        "addr:postcode": "25085240",
        "addr:street": "Rua Carlos de Carvalho",
        "addr:suburb": "beira mar",
        "amenity": "veterinary",
        "name": "Clinica veterinaria Luiz Carlos",
        "opening_hours": "Mo-Su 09:00-21:00",
        "operator": "privado",
        "id": "node/7807349920"
      },
      "geometry": {
        "type": "Point",
        "coordinates": [
          -43.29028,
          -22.7924406
        ]
      }
    }
  ]
}
