{
  "type": "FeatureCollection",
  "features": [
    {
      "type": "Feature",
      "id": "way/1272561836",
      "properties": {
        "timestamp": "2024-04-14T17:01:43Z",
        "version": 1,
        "changeset": 150002094,
        "addr:city": "Itapipoca",
        "addr:housenumber": "2555",
        "addr:postcode": "62500-001",
        "addr:street": "Rua Eubia Barroso",
        "addr:suburb": "Centro",
        "amenity": "doctors",
        "building": "yes",
        "healthcare": "doctor",
        "healthcare:speciality": "ophthalmology",
        "name": "Clínica Visão de Itapipoca",
        "id": "way/1272561836"
      },
      "geometry": {
        "type": "Polygon",
        "coordinates": [
          [
            [
              -39.5808465,
              -3.5019026
            ],
            [
              -39.5810006,
              -3.5018452
            ],
            [
              -39.5810274,
              -3.5019176
            ],
            [
              -39.5810419,
              -3.5019569
            ],
            [
              -39.5808869,
              -3.5020153
            ],
            [
              -39.5808465,
              -3.5019026
            ]
          ]
        ]
      }
    },
    {
      "type": "Feature",
      "id": "node/9573105017",
      "properties": {
        "timestamp": "2024-05-18T01:54:25Z",
        "version": 3,
        "changeset": 151476199,
        "addr:city": "Itapipoca",
        "addr:housenumber": "900",
        "addr:postcode": "62508-054",
        "addr:street": "Rua Caio Prado",
        "addr:suburb": "Coqueiro",
        "amenity": "doctors",
        "healthcare": "doctor",
        "name": "CEMI - Clínica de Especialidades Médicas de Itapipoca",
        "id": "node/9573105017"
      },
      "geometry": {
        "type": "Point",
        "coordinates": [
          -39.5779967,
          -3.4991234
        ]
      }
    },
    {
      "type": "Feature",
      "id": "node/9573110917",
      "properties": {
        "timestamp": "2022-03-12T16:35:09Z",
        "version": 1,
        "changeset": 118404603,
        "addr:street": "Rua Pergentina Araújo",
        "amenity": "doctors",
        "name": "Clínica Itaimagem",
        "id": "node/9573110917"
      },
      "geometry": {
        "type": "Point",
        "coordinates": [
          -39.5793135,
          -3.5025535
        ]
      }
    },
    {
      "type": "Feature",
      "id": "node/9573155642",
      "properties": {
        "timestamp": "2024-05-18T01:54:25Z",
        "version": 2,
        "changeset": 151476199,
        "addr:city": "Itapipoca",
        "addr:housenumber": "15",
        "addr:postcode": "62505-670",
        "addr:street": "Rua Bey de Sousa",
        "addr:suburb": "Julho",
        "amenity": "doctors",
        "healthcare": "doctor",
        "name": "CENIT - Centro de Nefrologia de Itapipoca",
        "id": "node/9573155642"
      },
      "geometry": {
        "type": "Point",
        "coordinates": [
          -39.5651042,
          -3.4820465
        ]
      }
    },
    {
      "type": "Feature",
      "id": "node/9701700092",
      "properties": {
        "timestamp": "2022-04-28T21:56:02Z",
        "version": 1,
        "changeset": 120324095,
        "amenity": "doctors",
        "healthcare": "doctor",
        "name": "UBS Calugi",
        "id": "node/9701700092"
      },
      "geometry": {
        "type": "Point",
        "coordinates": [
          -39.6316102,
          -3.3618455
        ]
      }
    },
    {
      "type": "Feature",
      "id": "node/9871060717",
      "properties": {
        "timestamp": "2024-05-18T01:54:25Z",
        "version": 2,
        "changeset": 151476199,
        "addr:street": "Rua João Araújo Teixeira",
        "amenity": "doctors",
        "healthcare": "doctor",
        "name": "Clínica Dr. Costa Campos",
        "id": "node/9871060717"
      },
      "geometry": {
        "type": "Point",
        "coordinates": [
          -39.5876805,
          -3.4978535
        ]
      }
    }
  ]
}
