{
  "type": "FeatureCollection",
  "features": [
    {
      "type": "Feature",
      "id": "way/230984029",
      "properties": {
        "timestamp": "2024-04-14T17:01:43Z",
        "version": 2,
        "changeset": 150002094,
        "addr:city": "Itapipoca",
        "addr:housenumber": "560",
        "addr:postcode": "62500-043",
        "addr:street": "Avenida Anastácio Braga",
        "addr:suburb": "Centro",
        "amenity": "pharmacy",
        "building": "yes",
        "healthcare": "pharmacy",
        "name": "Farma Tudo Bons Amigos",
        "source": "bing",
        "id": "way/230984029"
      },
      "geometry": {
        "type": "Polygon",
        "coordinates": [
          [
            [
              -39.5808738,
              -3.5000312
            ],
            [
              -39.5807316,
              -3.5000809
            ],
            [
              -39.5806856,
              -3.499948
            ],
            [
              -39.580827,
              -3.4998978
            ],
            [
              -39.5808738,
              -3.5000312
            ]
          ]
        ]
      }
    },
    {
      "type": "Feature",
      "id": "way/1279711408",
      "properties": {
        "timestamp": "2024-05-04T18:10:16Z",
        "version": 1,
        "changeset": 150892451,
        "addr:city": "Itapipoca",
        "addr:housenumber": "807",
        "addr:postcode": "62500-055",
        "addr:street": "Avenida Duque de Caxias",
        "addr:suburb": "Centro",
        "amenity": "pharmacy",
        "brand": "Pague Menos",
        "brand:wikidata": "Q7124466",
        "building": "yes",
        "healthcare": "pharmacy",
        "name": "Pague Menos",
        "id": "way/1279711408"
      },
      "geometry": {
        "type": "Polygon",
        "coordinates": [
          [
            [
              -39.5843244,
              -3.5001699
            ],
            [
              -39.5844073,
              -3.5001401
            ],
            [
              -39.584446,
              -3.5001611
            ],
            [
              -39.5845051,
              -3.5003248
            ],
            [
              -39.5843941,
              -3.5003644
            ],
            [
              -39.5843244,
              -3.5001699
            ]
          ]
        ]
      }
    },
    {
      "type": "Feature",
      "id": "way/1281769523",
      "properties": {
        "timestamp": "2024-05-10T16:13:15Z",
        "version": 1,
        "changeset": 151154089,
        "addr:city": "Itapipoca",
        "addr:postcode": "62500-058",
        "addr:street": "Avenida Duque de Caxias",
        "addr:suburb": "Centro",
        "amenity": "pharmacy",
        "building": "yes",
        "healthcare": "pharmacy",
        "name": "Farmácia Básica de Itapipoca",
        "id": "way/1281769523"
      },
      "geometry": {
        "type": "Polygon",
        "coordinates": [
          [
            [
              -39.5821238,
              -3.5007166
            ],
            [
              -39.5819429,
              -3.5007768
            ],
            [
              -39.5819136,
              -3.5006883
            ],
            [
              -39.581986,
              -3.5006634
            ],
            [
              -39.5819499,
              -3.5005529
            ],
            [
              -39.5820576,
              -3.5005161
            ],
            [
              -39.5821238,
              -3.5007166
            ]
          ]
        ]
      }
    },
    {
      "type": "Feature",
      "id": "way/1281769530",
      "properties": {
        "timestamp": "2024-05-10T19:04:02Z",
        "version": 2,
        "changeset": 151160868,
        "addr:city": "Itapipoca",
        "addr:housenumber": "90",
        "addr:postcode": "62500-010",
        "addr:street": "Rua Raimundo Teófilo de Castro",
        "addr:suburb": "Centro",
        "amenity": "pharmacy",
        "building": "yes",
        "healthcare": "pharmacy",
        "id": "way/1281769530"
      },
      "geometry": {
        "type": "Polygon",
        "coordinates": [
          [
            [
              -39.5822622,
              -3.5004479
            ],
            [
              -39.5823074,
              -3.5004331
            ],
            [
              -39.5823192,
              -3.5004693
            ],
            [
              -39.5823372,
              -3.5005248
            ],
            [
              -39.5824264,
              -3.5004965
            ],
            [
              -39.5824612,
              -3.5006007
            ],
            [
              -39.5823267,
              -3.5006461
            ],
            [
              -39.5822622,
              -3.5004479
            ]
          ]
        ]
      }
    },
    {
      "type": "Feature",
      "id": "way/1281811370",
      "properties": {
        "timestamp": "2024-05-10T19:04:02Z",
        "version": 1,
        "changeset": 151160868,
        "addr:city": "Itapipoca",
        "addr:housenumber": "112",
        "addr:postcode": "62500-010",
        "addr:street": "Rua Raimundo Teófilo de Castro",
        "addr:suburb": "Centro",
        "amenity": "pharmacy",
        "building": "yes",
        "healthcare": "pharmacy",
        "name": "Farmácia Bons Amigos - Raimundo de Castro",
        "id": "way/1281811370"
      },
      "geometry": {
        "type": "Polygon",
        "coordinates": [
          [
            [
              -39.5822307,
              -3.5004583
            ],
            [
              -39.5822199,
              -3.5004255
            ],
            [
              -39.5823858,
              -3.5003719
            ],
            [
              -39.5823966,
              -3.5004045
            ],
            [
              -39.5823074,
              -3.5004331
            ],
            [
              -39.5822622,
              -3.5004479
            ],
            [
              -39.5822307,
              -3.5004583
            ]
          ]
        ]
      }
    },
    {
      "type": "Feature",
      "id": "way/1281811374",
      "properties": {
        "timestamp": "2024-05-10T19:04:02Z",
        "version": 1,
        "changeset": 151160868,
        "addr:city": "Itapipoca",
        "addr:housenumber": "230",
        "addr:postcode": "62500-010",
        "addr:street": "Rua Raimundo Teófilo de Castro",
        "addr:suburb": "Centro",
        "amenity": "pharmacy",
        "building": "yes",
        "healthcare": "pharmacy",
        "name": "Farmácias Ariany",
        "id": "way/1281811374"
      },
      "geometry": {
        "type": "Polygon",
        "coordinates": [
          [
            [
              -39.5822086,
              -3.5003904
            ],
            [
              -39.5821916,
              -3.5003376
            ],
            [
              -39.5823488,
              -3.5002819
            ],
            [
              -39.5823682,
              -3.5003388
            ],
            [
              -39.5822086,
              -3.5003904
            ]
          ]
        ]
      }
    },
    {
      "type": "Feature",
      "id": "way/1281839618",
      "properties": {
        "timestamp": "2024-05-10T21:50:59Z",
        "version": 1,
        "changeset": 151165574,
        "addr:city": "Itapipoca",
        "addr:housenumber": "708",
        "addr:postcode": "62500-043",
        "addr:street": "Avenida Anastácio Braga",
        "addr:suburb": "Centro",
        "amenity": "pharmacy",
        "building": "yes",
        "healthcare": "pharmacy",
        "name": "Farmácias FarmArt Matriz",
        "id": "way/1281839618"
      },
      "geometry": {
        "type": "Polygon",
        "coordinates": [
          [
            [
              -39.5822321,
              -3.4994941
            ],
            [
              -39.5822741,
              -3.499613
            ],
            [
              -39.5822096,
              -3.4996364
            ],
            [
              -39.5821677,
              -3.4995176
            ],
            [
              -39.5822321,
              -3.4994941
            ]
          ]
        ]
      }
    },
    {
      "type": "Feature",
      "id": "way/1281839645",
      "properties": {
        "timestamp": "2024-05-10T21:50:59Z",
        "version": 1,
        "changeset": 151165574,
        "addr:city": "Itapipoca",
        "addr:housenumber": "289",
        "addr:postcode": "62500-031",
        "addr:street": "Rua Sete de Setembro",
        "addr:suburb": "Centro",
        "amenity": "pharmacy",
        "building": "yes",
        "healthcare": "pharmacy",
        "name": "Farmácia Bons Amigos - Sete de Setembro",
        "id": "way/1281839645"
      },
      "geometry": {
        "type": "Polygon",
        "coordinates": [
          [
            [
              -39.5823437,
              -3.4986061
            ],
            [
              -39.5823214,
              -3.4985414
            ],
            [
              -39.5823844,
              -3.4985192
            ],
            [
              -39.5824065,
              -3.4985841
            ],
            [
              -39.5823437,
              -3.4986061
            ]
          ]
        ]
      }
    },
    {
      "type": "Feature",
      "id": "node/9573099817",
      "properties": {
        "timestamp": "2024-05-18T01:54:25Z",
        "version": 3,
        "changeset": 151476199,
        "addr:street": "Avenida José do Patrocínio",
        "amenity": "pharmacy",
        "healthcare": "pharmacy",
        "name": "Farmácia Prista",
        "id": "node/9573099817"
      },
      "geometry": {
        "type": "Point",
        "coordinates": [
          -39.5789653,
          -3.4996919
        ]
      }
    },
    {
      "type": "Feature",
      "id": "node/11860931769",
      "properties": {
        "timestamp": "2024-05-18T01:54:25Z",
        "version": 2,
        "changeset": 151476199,
        "addr:city": "Itapipoca",
        "addr:housenumber": "1764",
        "addr:postcode": "62508-006",
        "addr:street": "Avenida Vicente Siebra",
        "addr:suburb": "Coqueiro",
        "amenity": "pharmacy",
        "brand": "Pague Menos",
        "brand:wikidata": "Q7124466",
        "healthcare": "pharmacy",
        "name": "Pague Menos",
        "id": "node/11860931769"
      },
      "geometry": {
        "type": "Point",
        "coordinates": [
          -39.5759631,
          -3.4914297
        ]
      }
    },
    {
      "type": "Feature",
      "id": "node/11881308007",
      "properties": {
        "timestamp": "2024-05-11T16:35:10Z",
        "version": 3,
        "changeset": 151194193,
        "addr:city": "Itapipoca",
        "addr:housenumber": "680",
        "addr:postcode": "62500-043",
        "addr:street": "Avenida Anastácio Braga",
        "addr:suburb": "Centro",
        "amenity": "pharmacy",
        "brand": "Pague Menos",
        "brand:wikidata": "Q7124466",
        "healthcare": "pharmacy",
        "name": "Pague Menos",
        "id": "node/11881308007"
      },
      "geometry": {
        "type": "Point",
        "coordinates": [
          -39.5819486,
          -3.499607
        ]
      }
    },
    {
      "type": "Feature",
      "id": "node/11895567289",
      "properties": {
        "timestamp": "2024-05-11T16:35:10Z",
        "version": 2,
        "changeset": 151194193,
        "addr:city": "Itapipoca",
        "addr:housenumber": "146",
        "addr:postcode": "62500-010",
        "addr:street": "Rua Raimundo Teófilo de Castro",
        "addr:suburb": "Centro",
        "amenity": "pharmacy",
        "healthcare": "pharmacy",
        "name": "Drogaria Ultra Popular",
        "id": "node/11895567289"
      },
      "geometry": {
        "type": "Point",
        "coordinates": [
          -39.5821286,
          -3.4999082
        ]
      }
    }
  ]
}
