{
  "type": "FeatureCollection",
  "features": [
    {
      "type": "Feature",
      "id": "way/817266958",
      "properties": {
        "timestamp": "2024-05-18T01:54:25Z",
        "version": 3,
        "changeset": 151476199,
        "amenity": "university",
        "name": "Faculdade Uninta de Itapipoca",
        "id": "way/817266958"
      },
      "geometry": {
        "type": "Polygon",
        "coordinates": [
          [
            [
              -39.6205954,
              -3.4816254
            ],
            [
              -39.6166563,
              -3.4837415
            ],
            [
              -39.6158843,
              -3.4799044
            ],
            [
              -39.6205954,
              -3.4816254
            ]
          ]
        ]
      }
    },
    {
      "type": "Feature",
      "id": "node/10563746458",
      "properties": {
        "timestamp": "2023-01-17T23:39:15Z",
        "version": 2,
        "changeset": 131399689,
        "addr:city": "Itapipoca",
        "addr:housenumber": "130",
        "addr:postcode": "62503-500",
        "addr:street": "Avenida Manoel Alves de Freitas",
        "addr:suburb": "Maranh√£o",
        "amenity": "university",
        "name": "UNIASSELVI ITAPIPOCA",
        "website": "https://portal.uniasselvi.com.br/",
        "id": "node/10563746458"
      },
      "geometry": {
        "type": "Point",
        "coordinates": [
          -39.5868931,
          -3.4844572
        ]
      }
    }
  ]
}
