{
  "type": "FeatureCollection",
  "features": [
    {
      "type": "Feature",
      "id": "way/660306257",
      "properties": {
        "timestamp": "2023-10-30T01:24:44Z",
        "version": 3,
        "changeset": 143338622,
        "addr:city": "Itapetininga",
        "addr:housenumber": "1209",
        "addr:street": "Rua Doutor Virg√≠lio de Rezende",
        "addr:suburb": "Centro",
        "amenity": "dentist",
        "building": "yes",
        "healthcare": "dentist",
        "name": "Oral Unic Implantes",
        "website": "https://www.oralunic.com.br/itapetininga-sp",
        "id": "way/660306257"
      },
      "geometry": {
        "type": "Polygon",
        "coordinates": [
          [
            [
              -48.0356871,
              -23.5852472
            ],
            [
              -48.0357016,
              -23.5851991
            ],
            [
              -48.03576,
              -23.5850052
            ],
            [
              -48.0357832,
              -23.5849281
            ],
            [
              -48.0358571,
              -23.5849468
            ],
            [
              -48.035761,
              -23.5852659
            ],
            [
              -48.0356871,
              -23.5852472
            ]
          ]
        ]
      }
    },
    {
      "type": "Feature",
      "id": "node/5852595787",
      "properties": {
        "timestamp": "2021-03-30T15:25:03Z",
        "version": 2,
        "changeset": 101995356,
        "addr:city": "Itapetininga",
        "addr:housenumber": "235",
        "addr:street": "Rua Bernandino de Campos",
        "addr:suburb": "Centro",
        "amenity": "dentist",
        "healthcare": "dentist",
        "name": "Art Dentaire",
        "phone": "+55 15 3275-1166",
        "website": "https://www.artdentaire.com.br/",
        "id": "node/5852595787"
      },
      "geometry": {
        "type": "Point",
        "coordinates": [
          -48.0529642,
          -23.5882653
        ]
      }
    },
    {
      "type": "Feature",
      "id": "node/12295467483",
      "properties": {
        "timestamp": "2024-10-29T02:31:37Z",
        "version": 1,
        "changeset": 158479930,
        "addr:city": "Itapetininga",
        "addr:housenumber": "540",
        "addr:street": "Avenida Professor Francisco Valio",
        "amenity": "dentist",
        "healthcare": "dentist",
        "name": "CDAA",
        "id": "node/12295467483"
      },
      "geometry": {
        "type": "Point",
        "coordinates": [
          -48.0440467,
          -23.5884913
        ]
      }
    }
  ]
}
