{
  "type": "FeatureCollection",
  "features": [
    {
      "type": "Feature",
      "id": "way/856975122",
      "properties": {
        "timestamp": "2020-10-08T21:25:00Z",
        "version": 1,
        "changeset": 92196867,
        "addr:city": "Itapetininga",
        "addr:housenumber": "345",
        "addr:street": "Rua General Carneiro",
        "amenity": "doctors",
        "building": "yes",
        "healthcare": "doctor",
        "name": "Itape Med",
        "id": "way/856975122"
      },
      "geometry": {
        "type": "Polygon",
        "coordinates": [
          [
            [
              -48.0550471,
              -23.5909015
            ],
            [
              -48.0549295,
              -23.5908937
            ],
            [
              -48.054942,
              -23.5907361
            ],
            [
              -48.0550596,
              -23.590744
            ],
            [
              -48.0550471,
              -23.5909015
            ]
          ]
        ]
      }
    },
    {
      "type": "Feature",
      "id": "way/1106486602",
      "properties": {
        "timestamp": "2024-07-17T14:29:03Z",
        "version": 3,
        "changeset": 154061299,
        "addr:city": "Itapetininga",
        "addr:housenumber": "728",
        "addr:street": "Rua Professor Augusto Graco da Silveira Santos",
        "amenity": "doctors",
        "building": "yes",
        "healthcare": "doctor",
        "name": "Clinica Lótus",
        "id": "way/1106486602"
      },
      "geometry": {
        "type": "Polygon",
        "coordinates": [
          [
            [
              -48.0307136,
              -23.5790099
            ],
            [
              -48.0304719,
              -23.5789419
            ],
            [
              -48.0305052,
              -23.5788427
            ],
            [
              -48.0307469,
              -23.5789107
            ],
            [
              -48.0307136,
              -23.5790099
            ]
          ]
        ]
      }
    },
    {
      "type": "Feature",
      "id": "way/1188284428",
      "properties": {
        "timestamp": "2023-10-16T02:15:47Z",
        "version": 2,
        "changeset": 142641163,
        "addr:city": "Itapetininga",
        "addr:housenumber": "865",
        "addr:street": "Rua Coronel Fernando Prestes",
        "amenity": "doctors",
        "building": "yes",
        "healthcare": "doctor",
        "healthcare:speciality": "gynaecology;paediatrics",
        "name": "Clínica Tanabe",
        "id": "way/1188284428"
      },
      "geometry": {
        "type": "Polygon",
        "coordinates": [
          [
            [
              -48.039434,
              -23.5842936
            ],
            [
              -48.0394792,
              -23.584136
            ],
            [
              -48.0395499,
              -23.584153
            ],
            [
              -48.0395048,
              -23.5843106
            ],
            [
              -48.039434,
              -23.5842936
            ]
          ]
        ]
      }
    },
    {
      "type": "Feature",
      "id": "way/1193371891",
      "properties": {
        "timestamp": "2024-07-17T02:28:32Z",
        "version": 4,
        "changeset": 154037677,
        "addr:city": "Itapetininga",
        "addr:housenumber": "1536",
        "addr:postcode": "18200-026",
        "addr:street": "Rua Expedicionários Itapetininganos",
        "addr:suburb": "Centro",
        "amenity": "doctors",
        "building": "yes",
        "healthcare": "doctor",
        "healthcare:speciality": "paediatrics;allergology",
        "name": "Clinica Medica Infantil Doutor Damas",
        "opening_hours": "Mo-Fr 08:00-11:30, 13:00-18:00",
        "phone": "+55 15 3273-2577",
        "website": "https://clinicamedicainfantildrdamas.negocio.site/",
        "id": "way/1193371891"
      },
      "geometry": {
        "type": "Polygon",
        "coordinates": [
          [
            [
              -48.0400138,
              -23.5884049
            ],
            [
              -48.0399702,
              -23.5885667
            ],
            [
              -48.0398725,
              -23.5885446
            ],
            [
              -48.0399161,
              -23.5883828
            ],
            [
              -48.0400138,
              -23.5884049
            ]
          ]
        ]
      }
    },
    {
      "type": "Feature",
      "id": "way/1195156061",
      "properties": {
        "timestamp": "2024-07-17T02:28:32Z",
        "version": 2,
        "changeset": 154037677,
        "addr:city": "Itapetininga",
        "addr:housenumber": "850",
        "addr:street": "Rua Pedro Marques",
        "addr:suburb": "Centro",
        "amenity": "doctors",
        "building": "yes",
        "healthcare": "doctor",
        "name": "Clínica Professor Dr Abel Pereira",
        "id": "way/1195156061"
      },
      "geometry": {
        "type": "Polygon",
        "coordinates": [
          [
            [
              -48.0444051,
              -23.5906609
            ],
            [
              -48.0443464,
              -23.5908879
            ],
            [
              -48.044248,
              -23.5908748
            ],
            [
              -48.0443083,
              -23.5906565
            ],
            [
              -48.044348,
              -23.5906405
            ],
            [
              -48.0444051,
              -23.5906609
            ]
          ]
        ]
      }
    },
    {
      "type": "Feature",
      "id": "way/1215899234",
      "properties": {
        "timestamp": "2023-10-16T02:15:47Z",
        "version": 1,
        "changeset": 142641163,
        "addr:city": "Itapetininga",
        "addr:housenumber": "365",
        "addr:street": "Rua João Evangelista",
        "addr:suburb": "Centro",
        "amenity": "doctors",
        "building": "yes",
        "healthcare": "doctor",
        "healthcare:speciality": "urology",
        "name": "Consult",
        "id": "way/1215899234"
      },
      "geometry": {
        "type": "Polygon",
        "coordinates": [
          [
            [
              -48.042938,
              -23.585951
            ],
            [
              -48.0429172,
              -23.5860431
            ],
            [
              -48.0427306,
              -23.5860075
            ],
            [
              -48.0427514,
              -23.5859155
            ],
            [
              -48.042938,
              -23.585951
            ]
          ]
        ]
      }
    },
    {
      "type": "Feature",
      "id": "way/1215899235",
      "properties": {
        "timestamp": "2023-10-16T02:15:47Z",
        "version": 1,
        "changeset": 142641163,
        "addr:city": "Itapetininga",
        "addr:housenumber": "338",
        "addr:street": "Rua Capitão José Leme",
        "addr:suburb": "Centro",
        "amenity": "doctors",
        "building": "yes",
        "healthcare": "doctor",
        "healthcare:speciality": "cardiology",
        "name": "Clínica Médica Leite Vieira",
        "id": "way/1215899235"
      },
      "geometry": {
        "type": "Polygon",
        "coordinates": [
          [
            [
              -48.043362,
              -23.5857758
            ],
            [
              -48.0433449,
              -23.5858365
            ],
            [
              -48.0431948,
              -23.585801
            ],
            [
              -48.0432119,
              -23.5857402
            ],
            [
              -48.043362,
              -23.5857758
            ]
          ]
        ]
      }
    },
    {
      "type": "Feature",
      "id": "way/1215899236",
      "properties": {
        "timestamp": "2023-10-16T02:15:47Z",
        "version": 1,
        "changeset": 142641163,
        "addr:city": "Itapetininga",
        "addr:housenumber": "165",
        "addr:street": "Rua João Evangelista",
        "addr:suburb": "Centro",
        "amenity": "doctors",
        "building": "yes",
        "healthcare": "doctor",
        "healthcare:speciality": "nephrology",
        "name": "Dra. Gisélle Cordeiro Saucedo Dominguez",
        "id": "way/1215899236"
      },
      "geometry": {
        "type": "Polygon",
        "coordinates": [
          [
            [
              -48.0446779,
              -23.5864372
            ],
            [
              -48.0447231,
              -23.5862582
            ],
            [
              -48.0448032,
              -23.5862752
            ],
            [
              -48.0447581,
              -23.5864542
            ],
            [
              -48.0446779,
              -23.5864372
            ]
          ]
        ]
      }
    },
    {
      "type": "Feature",
      "id": "way/1301877564",
      "properties": {
        "timestamp": "2024-07-17T02:28:32Z",
        "version": 1,
        "changeset": 154037677,
        "addr:city": "Itapetininga",
        "addr:housenumber": "1003",
        "addr:street": "Rua João Evangelista",
        "addr:suburb": "Centro",
        "amenity": "doctors",
        "building": "yes",
        "healthcare": "doctor",
        "healthcare:speciality": "paediatrics;gastroenterology",
        "name": "ClÍnica Parenti",
        "id": "way/1301877564"
      },
      "geometry": {
        "type": "Polygon",
        "coordinates": [
          [
            [
              -48.0371023,
              -23.5845305
            ],
            [
              -48.0370706,
              -23.5846682
            ],
            [
              -48.0369819,
              -23.5846511
            ],
            [
              -48.0370137,
              -23.5845134
            ],
            [
              -48.0371023,
              -23.5845305
            ]
          ]
        ]
      }
    },
    {
      "type": "Feature",
      "id": "way/1301877565",
      "properties": {
        "timestamp": "2024-07-17T02:28:32Z",
        "version": 1,
        "changeset": 154037677,
        "addr:city": "Itapetininga",
        "addr:housenumber": "227",
        "addr:street": "Rua João Evangelista",
        "addr:suburb": "Centro",
        "amenity": "doctors",
        "building": "yes",
        "healthcare": "doctor",
        "healthcare:speciality": "gastroenterology",
        "name": "Gastro Clínica",
        "id": "way/1301877565"
      },
      "geometry": {
        "type": "Polygon",
        "coordinates": [
          [
            [
              -48.0442818,
              -23.5861787
            ],
            [
              -48.0442463,
              -23.5863227
            ],
            [
              -48.0440975,
              -23.5862919
            ],
            [
              -48.044133,
              -23.5861479
            ],
            [
              -48.0442818,
              -23.5861787
            ]
          ]
        ]
      }
    },
    {
      "type": "Feature",
      "id": "way/1301877566",
      "properties": {
        "timestamp": "2024-07-17T02:28:32Z",
        "version": 1,
        "changeset": 154037677,
        "addr:housenumber": "414",
        "addr:street": "Rua João Evangelista",
        "addr:suburb": "Centro",
        "amenity": "doctors",
        "building": "yes",
        "healthcare": "doctor",
        "healthcare:speciality": "plastic_surgery;dermatology",
        "name": "Dr. Jose Roberto Tambelli Pires",
        "id": "way/1301877566"
      },
      "geometry": {
        "type": "Polygon",
        "coordinates": [
          [
            [
              -48.042314,
              -23.5860897
            ],
            [
              -48.0423888,
              -23.5861104
            ],
            [
              -48.0423491,
              -23.5862816
            ],
            [
              -48.0422681,
              -23.5862644
            ],
            [
              -48.0422985,
              -23.5861617
            ],
            [
              -48.0423234,
              -23.5861696
            ],
            [
              -48.0423273,
              -23.5861489
            ],
            [
              -48.042293,
              -23.586141
            ],
            [
              -48.042314,
              -23.5860897
            ]
          ]
        ]
      }
    },
    {
      "type": "Feature",
      "id": "way/1302035601",
      "properties": {
        "timestamp": "2024-07-17T14:39:18Z",
        "version": 1,
        "changeset": 154061755,
        "addr:city": "Itapetininga",
        "addr:housenumber": "815",
        "addr:street": "Avenida Professor Francisco Valio",
        "addr:suburb": "Centro",
        "amenity": "doctors",
        "building": "yes",
        "healthcare": "doctor",
        "healthcare:speciality": "allergology;pulmonology",
        "name": "Clínica Dr. Jose Antonio Franco Ferreira",
        "id": "way/1302035601"
      },
      "geometry": {
        "type": "Polygon",
        "coordinates": [
          [
            [
              -48.0414889,
              -23.5877096
            ],
            [
              -48.0414557,
              -23.5877025
            ],
            [
              -48.0414486,
              -23.5877103
            ],
            [
              -48.041438,
              -23.5877116
            ],
            [
              -48.0414295,
              -23.5877064
            ],
            [
              -48.0414259,
              -23.5876941
            ],
            [
              -48.0414054,
              -23.5876902
            ],
            [
              -48.0414436,
              -23.5875682
            ],
            [
              -48.0415194,
              -23.5875844
            ],
            [
              -48.0414889,
              -23.5877096
            ]
          ]
        ]
      }
    },
    {
      "type": "Feature",
      "id": "way/1302096239",
      "properties": {
        "timestamp": "2024-07-17T18:15:15Z",
        "version": 1,
        "changeset": 154070316,
        "addr:city": "Itapetininga",
        "addr:housenumber": "1904",
        "addr:street": "Avenida Darcy Vieira",
        "amenity": "doctors",
        "building": "yes",
        "healthcare": "doctor",
        "healthcare:speciality": "dermatology",
        "name": "Clínica Dr. Roberto Amaral",
        "id": "way/1302096239"
      },
      "geometry": {
        "type": "Polygon",
        "coordinates": [
          [
            [
              -48.0400012,
              -23.5918119
            ],
            [
              -48.0400255,
              -23.5917409
            ],
            [
              -48.0401217,
              -23.5917623
            ],
            [
              -48.0401301,
              -23.5917409
            ],
            [
              -48.0402048,
              -23.5917614
            ],
            [
              -48.0401983,
              -23.5917871
            ],
            [
              -48.0402151,
              -23.5917974
            ],
            [
              -48.0402001,
              -23.5918265
            ],
            [
              -48.0401843,
              -23.5918274
            ],
            [
              -48.0401702,
              -23.5918804
            ],
            [
              -48.0401273,
              -23.5918727
            ],
            [
              -48.0401394,
              -23.5918179
            ],
            [
              -48.0401319,
              -23.5918428
            ],
            [
              -48.0400012,
              -23.5918119
            ]
          ]
        ]
      }
    },
    {
      "type": "Feature",
      "id": "way/1312680647",
      "properties": {
        "timestamp": "2024-09-01T20:49:35Z",
        "version": 1,
        "changeset": 156071838,
        "addr:city": "Itapetininga",
        "addr:housenumber": "985",
        "addr:street": "Avenida Doutor João Batista Lobato",
        "addr:suburb": "Centro",
        "amenity": "doctors",
        "building": "yes",
        "healthcare": "doctor",
        "name": "Dr. Luciano Polati Rechinelli",
        "id": "way/1312680647"
      },
      "geometry": {
        "type": "Polygon",
        "coordinates": [
          [
            [
              -48.0376589,
              -23.582118
            ],
            [
              -48.0376745,
              -23.5820845
            ],
            [
              -48.0376239,
              -23.5820795
            ],
            [
              -48.0376752,
              -23.5819375
            ],
            [
              -48.0377562,
              -23.5819539
            ],
            [
              -48.0377087,
              -23.5821294
            ],
            [
              -48.0376589,
              -23.582118
            ]
          ]
        ]
      }
    },
    {
      "type": "Feature",
      "id": "node/10125279533",
      "properties": {
        "timestamp": "2024-07-17T02:28:32Z",
        "version": 3,
        "changeset": 154037677,
        "addr:city": "Itapetininga",
        "addr:housenumber": "437",
        "addr:street": "Rua Doutor Virgílio de Rezende",
        "addr:suburb": "Centro",
        "amenity": "doctors",
        "healthcare": "doctor",
        "healthcare:speciality": "ophthalmology",
        "name": "Clínica de Olhos Dr. Quirino J. Lopes",
        "id": "node/10125279533"
      },
      "geometry": {
        "type": "Point",
        "coordinates": [
          -48.043021,
          -23.5869089
        ]
      }
    },
    {
      "type": "Feature",
      "id": "node/11034265737",
      "properties": {
        "timestamp": "2024-07-17T14:29:03Z",
        "version": 4,
        "changeset": 154061299,
        "addr:city": "Itapetininga",
        "addr:housenumber": "363",
        "addr:street": "Rua Coronel Fernando Prestes",
        "addr:suburb": "Centro",
        "amenity": "doctors",
        "healthcare": "doctor",
        "healthcare:speciality": "cardiology",
        "name": "Clínica Médica  Dr. Jose Wladimir Tambelli Pires",
        "id": "node/11034265737"
      },
      "geometry": {
        "type": "Point",
        "coordinates": [
          -48.0441582,
          -23.5853588
        ]
      }
    },
    {
      "type": "Feature",
      "id": "node/11034265742",
      "properties": {
        "timestamp": "2023-07-08T14:46:24Z",
        "version": 1,
        "changeset": 138266727,
        "addr:city": "Itapetininga",
        "addr:housenumber": "384",
        "addr:street": "Rua Padre Albuquerque",
        "amenity": "doctors",
        "healthcare": "doctor",
        "healthcare:speciality": "general",
        "name": "Rafael Orsi Do Amaral Clínico Geral",
        "id": "node/11034265742"
      },
      "geometry": {
        "type": "Point",
        "coordinates": [
          -48.0440936,
          -23.5847647
        ]
      }
    },
    {
      "type": "Feature",
      "id": "node/11265743635",
      "properties": {
        "timestamp": "2023-10-16T02:15:47Z",
        "version": 1,
        "changeset": 142641163,
        "addr:city": "Itapetininga",
        "addr:housenumber": "566",
        "addr:street": "Rua Coronel Fernando Prestes",
        "addr:suburb": "Centro",
        "amenity": "doctors",
        "healthcare": "doctor",
        "healthcare:speciality": "gastroenterology",
        "name": "Clinica Medica Geral e Doença do Aparelho Digestivo",
        "id": "node/11265743635"
      },
      "geometry": {
        "type": "Point",
        "coordinates": [
          -48.0421813,
          -23.5851623
        ]
      }
    },
    {
      "type": "Feature",
      "id": "node/11265743640",
      "properties": {
        "timestamp": "2023-10-16T02:15:47Z",
        "version": 1,
        "changeset": 142641163,
        "addr:city": "Itapetininga",
        "addr:housenumber": "220",
        "addr:street": "Rua Bernardino de Campos",
        "addr:suburb": "Centro",
        "amenity": "doctors",
        "healthcare": "doctor",
        "healthcare:speciality": "urology;surgery;dermatology",
        "name": "Clínica geral de Itapetininga",
        "id": "node/11265743640"
      },
      "geometry": {
        "type": "Point",
        "coordinates": [
          -48.0530477,
          -23.5884945
        ]
      }
    },
    {
      "type": "Feature",
      "id": "node/11792770562",
      "properties": {
        "timestamp": "2024-04-05T12:44:49Z",
        "version": 1,
        "changeset": 149613434,
        "addr:city": "Itapetininga",
        "addr:housenumber": "159",
        "addr:street": "Rua São Vicente de Paula",
        "addr:suburb": "Centro",
        "amenity": "doctors",
        "healthcare": "doctor",
        "name": "Clínica Dermatológica Dr Cláudio Barsanti Wey",
        "id": "node/11792770562"
      },
      "geometry": {
        "type": "Point",
        "coordinates": [
          -48.0441881,
          -23.5850471
        ]
      }
    },
    {
      "type": "Feature",
      "id": "node/12059879637",
      "properties": {
        "timestamp": "2024-07-17T18:26:16Z",
        "version": 1,
        "changeset": 154070645,
        "addr:city": "Itapetininga",
        "addr:housenumber": "178",
        "addr:street": "Rua Campos Salles",
        "addr:suburb": "Centro",
        "amenity": "doctors",
        "healthcare": "doctor",
        "name": "Clínica Especializada Mama",
        "id": "node/12059879637"
      },
      "geometry": {
        "type": "Point",
        "coordinates": [
          -48.0533944,
          -23.5897102
        ]
      }
    },
    {
      "type": "Feature",
      "id": "node/12059879644",
      "properties": {
        "timestamp": "2024-07-17T18:26:16Z",
        "version": 1,
        "changeset": 154070645,
        "addr:city": "Itapetininga",
        "addr:housenumber": "47",
        "addr:street": "Rua Bernardino de Campos",
        "addr:suburb": "Centro",
        "amenity": "doctors",
        "healthcare": "doctor",
        "healthcare:speciality": "otolaryngology",
        "name": "Dr Edson Herkes",
        "id": "node/12059879644"
      },
      "geometry": {
        "type": "Point",
        "coordinates": [
          -48.0548183,
          -23.5887056
        ]
      }
    }
  ]
}
