{
  "type": "FeatureCollection",
  "features": [
    {
      "type": "Feature",
      "id": "way/602646219",
      "properties": {
        "timestamp": "2023-09-29T15:21:11Z",
        "version": 4,
        "changeset": 141918525,
        "addr:city": "Itapetininga",
        "addr:housenumber": "54",
        "addr:street": "Rua Padre Albuquerque",
        "addr:suburb": "Centro",
        "amenity": "pharmacy",
        "atm": "yes",
        "brand": "Farmácia São João",
        "brand:wikidata": "Q65164556",
        "building": "yes",
        "healthcare": "pharmacy",
        "name": "Farmácia São João",
        "id": "way/602646219"
      },
      "geometry": {
        "type": "Polygon",
        "coordinates": [
          [
            [
              -48.0469562,
              -23.585562
            ],
            [
              -48.0470029,
              -23.5853892
            ],
            [
              -48.0471916,
              -23.585432
            ],
            [
              -48.0471448,
              -23.5856049
            ],
            [
              -48.0469562,
              -23.585562
            ]
          ]
        ]
      }
    },
    {
      "type": "Feature",
      "id": "way/606501669",
      "properties": {
        "timestamp": "2019-06-01T18:21:23Z",
        "version": 3,
        "changeset": 70841249,
        "addr:city": "Itapetininga",
        "addr:housenumber": "1130",
        "addr:street": "Rua Padre Albuquerque",
        "amenity": "pharmacy",
        "brand": "Drogaria São Paulo",
        "brand:wikidata": "Q5308184",
        "brand:wikipedia": "en:Grupo DPSP",
        "building": "yes",
        "dispensing": "yes",
        "healthcare": "pharmacy",
        "name": "Drogaria São Paulo",
        "id": "way/606501669"
      },
      "geometry": {
        "type": "Polygon",
        "coordinates": [
          [
            [
              -48.0380886,
              -23.5833894
            ],
            [
              -48.0381916,
              -23.5834094
            ],
            [
              -48.0381565,
              -23.5835519
            ],
            [
              -48.0380532,
              -23.583528
            ],
            [
              -48.0380886,
              -23.5833894
            ]
          ]
        ]
      }
    },
    {
      "type": "Feature",
      "id": "way/606501671",
      "properties": {
        "timestamp": "2024-10-31T15:20:02Z",
        "version": 4,
        "changeset": 158586160,
        "addr:city": "Itapetininga",
        "addr:street": "Rua Padre Albuquerque",
        "amenity": "pharmacy",
        "brand": "Drogasil",
        "brand:wikidata": "Q5308185",
        "building": "yes",
        "dispensing": "yes",
        "healthcare": "pharmacy",
        "name": "Drogasil",
        "wheelchair": "yes",
        "id": "way/606501671"
      },
      "geometry": {
        "type": "Polygon",
        "coordinates": [
          [
            [
              -48.0476745,
              -23.5857338
            ],
            [
              -48.0477238,
              -23.5855358
            ],
            [
              -48.0478449,
              -23.5855611
            ],
            [
              -48.0477957,
              -23.5857591
            ],
            [
              -48.0476745,
              -23.5857338
            ]
          ]
        ]
      }
    },
    {
      "type": "Feature",
      "id": "way/618105448",
      "properties": {
        "timestamp": "2021-03-03T20:37:36Z",
        "version": 3,
        "changeset": 100373939,
        "addr:city": "Itapetininga",
        "addr:housenumber": "505",
        "addr:postcode": "18200-358",
        "addr:street": "Rua Doutor Coutinho",
        "addr:suburb": "Centro",
        "amenity": "pharmacy",
        "building": "yes",
        "dispensing": "no",
        "healthcare": "pharmacy",
        "name": "Farmafam",
        "phone": "+55 15 3273-1801",
        "id": "way/618105448"
      },
      "geometry": {
        "type": "Polygon",
        "coordinates": [
          [
            [
              -48.0392559,
              -23.5793129
            ],
            [
              -48.0393291,
              -23.5790726
            ],
            [
              -48.0394165,
              -23.579095
            ],
            [
              -48.0393434,
              -23.5793353
            ],
            [
              -48.0392559,
              -23.5793129
            ]
          ]
        ]
      }
    },
    {
      "type": "Feature",
      "id": "way/619011379",
      "properties": {
        "timestamp": "2019-05-24T18:07:09Z",
        "version": 3,
        "changeset": 70595162,
        "addr:city": "Itapetininga",
        "addr:housenumber": "362",
        "addr:street": "Rua Doutor Virgílio de Rezende",
        "addr:suburb": "Centro",
        "amenity": "pharmacy",
        "brand": "Drogasil",
        "brand:wikidata": "Q5308185",
        "brand:wikipedia": "pt:Drogasil",
        "building": "yes",
        "dispensing": "yes",
        "healthcare": "pharmacy",
        "name": "Drogasil",
        "wheelchair": "yes",
        "id": "way/619011379"
      },
      "geometry": {
        "type": "Polygon",
        "coordinates": [
          [
            [
              -48.0435499,
              -23.587444
            ],
            [
              -48.0436083,
              -23.5872342
            ],
            [
              -48.043725,
              -23.5872674
            ],
            [
              -48.043739,
              -23.5872963
            ],
            [
              -48.0436911,
              -23.587475
            ],
            [
              -48.0435499,
              -23.587444
            ]
          ]
        ]
      }
    },
    {
      "type": "Feature",
      "id": "way/619011382",
      "properties": {
        "timestamp": "2020-05-04T01:43:12Z",
        "version": 3,
        "changeset": 84586847,
        "addr:city": "Itapetininga",
        "addr:housenumber": "46",
        "addr:street": "Rua Doutor Virgílio de Rezende",
        "amenity": "pharmacy",
        "brand": "Drogaria São Paulo",
        "brand:wikidata": "Q5308184",
        "brand:wikipedia": "en:Grupo DPSP",
        "building": "yes",
        "dispensing": "yes",
        "healthcare": "pharmacy",
        "name": "Drogaria São Paulo",
        "id": "way/619011382"
      },
      "geometry": {
        "type": "Polygon",
        "coordinates": [
          [
            [
              -48.0466841,
              -23.5882741
            ],
            [
              -48.046796,
              -23.5879233
            ],
            [
              -48.0468838,
              -23.5879468
            ],
            [
              -48.0467719,
              -23.5882976
            ],
            [
              -48.0466841,
              -23.5882741
            ]
          ]
        ]
      }
    },
    {
      "type": "Feature",
      "id": "way/631132915",
      "properties": {
        "timestamp": "2018-11-15T15:04:24Z",
        "version": 2,
        "changeset": 64532977,
        "addr:city": "Itapetininga",
        "addr:housenumber": "954",
        "addr:street": "Avenida Professor Francisco Valio",
        "addr:suburb": "Centro",
        "amenity": "pharmacy",
        "building": "yes",
        "dispensing": "yes",
        "healthcare": "pharmacy",
        "name": "A Pharmaceutica",
        "id": "way/631132915"
      },
      "geometry": {
        "type": "Polygon",
        "coordinates": [
          [
            [
              -48.0398839,
              -23.5878156
            ],
            [
              -48.0398904,
              -23.5877954
            ],
            [
              -48.0399747,
              -23.5875333
            ],
            [
              -48.0400902,
              -23.5875645
            ],
            [
              -48.0399994,
              -23.5878468
            ],
            [
              -48.0398839,
              -23.5878156
            ]
          ]
        ]
      }
    },
    {
      "type": "Feature",
      "id": "way/635098176",
      "properties": {
        "timestamp": "2019-03-04T17:47:12Z",
        "version": 3,
        "changeset": 67775813,
        "addr:city": "Itapetininga",
        "addr:housenumber": "700",
        "addr:street": "Avenida Joaquim Fogaça de Almeida Neto",
        "addr:suburb": "Jardim Fogaca",
        "amenity": "pharmacy",
        "building": "yes",
        "dispensing": "yes",
        "healthcare": "pharmacy",
        "name": "Drogaria Itafarma",
        "website": "https://www.itafarma.com.br/",
        "id": "way/635098176"
      },
      "geometry": {
        "type": "Polygon",
        "coordinates": [
          [
            [
              -48.022093,
              -23.587492
            ],
            [
              -48.0221208,
              -23.5874999
            ],
            [
              -48.02206,
              -23.5877026
            ],
            [
              -48.0220141,
              -23.5876883
            ],
            [
              -48.022093,
              -23.587492
            ]
          ]
        ]
      }
    },
    {
      "type": "Feature",
      "id": "way/647881148",
      "properties": {
        "timestamp": "2023-08-10T02:49:46Z",
        "version": 3,
        "changeset": 139684649,
        "addr:city": "Itapetininga",
        "addr:housenumber": "1191",
        "addr:street": "Rua Padre Albuquerque",
        "addr:suburb": "Centro",
        "amenity": "pharmacy",
        "brand": "Drogasil",
        "brand:wikidata": "Q5308185",
        "brand:wikipedia": "pt:Drogasil",
        "building": "yes",
        "dispensing": "yes",
        "healthcare": "pharmacy",
        "name": "Drogasil",
        "phone": "+55 15 3373-2469",
        "website": "https://www.borrachariafortaleza.com.br/",
        "wheelchair": "yes",
        "id": "way/647881148"
      },
      "geometry": {
        "type": "Polygon",
        "coordinates": [
          [
            [
              -48.0360565,
              -23.5826099
            ],
            [
              -48.036097,
              -23.5824519
            ],
            [
              -48.0362791,
              -23.5825332
            ],
            [
              -48.0362382,
              -23.5826494
            ],
            [
              -48.0360565,
              -23.5826099
            ]
          ]
        ]
      }
    },
    {
      "type": "Feature",
      "id": "way/653943901",
      "properties": {
        "timestamp": "2019-03-04T17:47:11Z",
        "version": 2,
        "changeset": 67775813,
        "addr:city": "Itapetininga",
        "addr:housenumber": "1150",
        "addr:street": "Rua Coronel Pedro Dias Batista",
        "addr:suburb": "Centro",
        "amenity": "pharmacy",
        "building": "yes",
        "dispensing": "yes",
        "drive_through": "no",
        "healthcare": "pharmacy",
        "name": "Drogarias Bifarma",
        "phone": "+55 15 3272-4226",
        "website": "https://www.bifarma.com.br/",
        "id": "way/653943901"
      },
      "geometry": {
        "type": "Polygon",
        "coordinates": [
          [
            [
              -48.0459318,
              -23.5909505
            ],
            [
              -48.04588,
              -23.5911681
            ],
            [
              -48.0458052,
              -23.5911499
            ],
            [
              -48.0458531,
              -23.5909359
            ],
            [
              -48.0459318,
              -23.5909505
            ]
          ]
        ]
      }
    },
    {
      "type": "Feature",
      "id": "way/801712995",
      "properties": {
        "timestamp": "2022-12-09T02:04:33Z",
        "version": 2,
        "changeset": 129882000,
        "addr:city": "Itapetininga",
        "addr:housenumber": "197",
        "addr:street": "Rua Doutor Virgílio de Rezende",
        "amenity": "pharmacy",
        "brand": "Farmácia São João",
        "brand:wikidata": "Q65164556",
        "building": "yes",
        "dispensing": "yes",
        "drive_through": "no",
        "healthcare": "pharmacy",
        "name": "Farmácia São João",
        "id": "way/801712995"
      },
      "geometry": {
        "type": "Polygon",
        "coordinates": [
          [
            [
              -48.0453578,
              -23.587504
            ],
            [
              -48.0452515,
              -23.5874776
            ],
            [
              -48.0453232,
              -23.5872344
            ],
            [
              -48.0454295,
              -23.5872607
            ],
            [
              -48.0453578,
              -23.587504
            ]
          ]
        ]
      }
    },
    {
      "type": "Feature",
      "id": "way/801712996",
      "properties": {
        "timestamp": "2023-10-14T02:19:32Z",
        "version": 2,
        "changeset": 142558876,
        "addr:city": "Itapetininga",
        "addr:housenumber": "144",
        "addr:street": "Rua Doutor Virgílio de Rezende",
        "amenity": "pharmacy",
        "building": "yes",
        "dispensing": "yes",
        "healthcare": "pharmacy",
        "name": "Droga",
        "id": "way/801712996"
      },
      "geometry": {
        "type": "Polygon",
        "coordinates": [
          [
            [
              -48.0458077,
              -23.5879258
            ],
            [
              -48.0457776,
              -23.5879274
            ],
            [
              -48.0457652,
              -23.5879825
            ],
            [
              -48.045698,
              -23.587976
            ],
            [
              -48.0457546,
              -23.5877506
            ],
            [
              -48.0458502,
              -23.5877733
            ],
            [
              -48.0458077,
              -23.5879258
            ]
          ]
        ]
      }
    },
    {
      "type": "Feature",
      "id": "way/823273318",
      "properties": {
        "timestamp": "2020-11-18T20:55:54Z",
        "version": 2,
        "changeset": 94395063,
        "addr:city": "Itapetininga",
        "addr:housenumber": "446",
        "addr:street": "Rua Padre Albuquerque",
        "addr:suburb": "Centro",
        "amenity": "pharmacy",
        "building": "yes",
        "dispensing": "yes",
        "healthcare": "pharmacy",
        "name": "Farmácias Bigfort",
        "id": "way/823273318"
      },
      "geometry": {
        "type": "Polygon",
        "coordinates": [
          [
            [
              -48.0435002,
              -23.5848369
            ],
            [
              -48.043424,
              -23.5848196
            ],
            [
              -48.0434844,
              -23.5845963
            ],
            [
              -48.0435605,
              -23.5846136
            ],
            [
              -48.0435002,
              -23.5848369
            ]
          ]
        ]
      }
    },
    {
      "type": "Feature",
      "id": "way/838832460",
      "properties": {
        "timestamp": "2021-05-31T22:19:56Z",
        "version": 2,
        "changeset": 105646382,
        "addr:city": "Itapetininga",
        "addr:housenumber": "784",
        "addr:street": "Rua Quintino Bocaiúva",
        "amenity": "pharmacy",
        "building": "yes",
        "dispensing": "yes",
        "healthcare": "pharmacy",
        "name": "Unidade de Dispensação de Medicamentos Simone Cristina Cruz",
        "opening_hours": "Mo-Fr 08:00-16:00",
        "id": "way/838832460"
      },
      "geometry": {
        "type": "Polygon",
        "coordinates": [
          [
            [
              -48.0494146,
              -23.5918199
            ],
            [
              -48.0494698,
              -23.5916031
            ],
            [
              -48.0496429,
              -23.5916401
            ],
            [
              -48.0495878,
              -23.5918569
            ],
            [
              -48.0494146,
              -23.5918199
            ]
          ]
        ]
      }
    },
    {
      "type": "Feature",
      "id": "way/865070351",
      "properties": {
        "timestamp": "2020-10-29T16:15:05Z",
        "version": 1,
        "changeset": 93246055,
        "addr:city": "Itapetininga",
        "addr:housenumber": "592",
        "addr:street": "Avenida Cinco de Novembro",
        "amenity": "pharmacy",
        "building": "yes",
        "dispensing": "yes",
        "healthcare": "pharmacy",
        "name": "Farma Ponte",
        "id": "way/865070351"
      },
      "geometry": {
        "type": "Polygon",
        "coordinates": [
          [
            [
              -48.0600965,
              -23.5932244
            ],
            [
              -48.0598188,
              -23.5931246
            ],
            [
              -48.0597964,
              -23.5930091
            ],
            [
              -48.0598107,
              -23.5929886
            ],
            [
              -48.0601326,
              -23.5930871
            ],
            [
              -48.0601479,
              -23.5930918
            ],
            [
              -48.0600965,
              -23.5932244
            ]
          ]
        ]
      }
    },
    {
      "type": "Feature",
      "id": "way/971259109",
      "properties": {
        "timestamp": "2021-08-08T02:37:48Z",
        "version": 1,
        "changeset": 109329976,
        "addr:city": "Itapetininga",
        "addr:housenumber": "593",
        "addr:street": "Rua Campos Salles",
        "addr:suburb": "Centro",
        "amenity": "pharmacy",
        "brand": "Drogasil",
        "brand:wikidata": "Q5308185",
        "brand:wikipedia": "pt:Drogasil",
        "building": "yes",
        "dispensing": "yes",
        "healthcare": "pharmacy",
        "name": "Drogasil",
        "wheelchair": "yes",
        "id": "way/971259109"
      },
      "geometry": {
        "type": "Polygon",
        "coordinates": [
          [
            [
              -48.0493687,
              -23.588433
            ],
            [
              -48.049476,
              -23.5884484
            ],
            [
              -48.049458,
              -23.5885539
            ],
            [
              -48.0493507,
              -23.5885385
            ],
            [
              -48.0493687,
              -23.588433
            ]
          ]
        ]
      }
    },
    {
      "type": "Feature",
      "id": "way/1164774400",
      "properties": {
        "timestamp": "2024-05-28T13:27:43Z",
        "version": 2,
        "changeset": 151945009,
        "addr:city": "Itapetininga",
        "addr:housenumber": "1029",
        "addr:street": "Avenida Doutor José de Almeida Carvalho",
        "amenity": "pharmacy",
        "building": "yes",
        "healthcare": "pharmacy",
        "name": "Farmácia Drogal",
        "id": "way/1164774400"
      },
      "geometry": {
        "type": "Polygon",
        "coordinates": [
          [
            [
              -48.0288894,
              -23.5787552
            ],
            [
              -48.0290174,
              -23.5787781
            ],
            [
              -48.02899,
              -23.5789063
            ],
            [
              -48.0288621,
              -23.5788834
            ],
            [
              -48.0288894,
              -23.5787552
            ]
          ]
        ]
      }
    },
    {
      "type": "Feature",
      "id": "way/1215487697",
      "properties": {
        "timestamp": "2023-10-14T02:19:32Z",
        "version": 1,
        "changeset": 142558876,
        "addr:city": "Itapetininga",
        "addr:housenumber": "336",
        "addr:street": "Avenida Antônio Vieira de Moraes",
        "addr:suburb": "Vila Aparecida",
        "amenity": "pharmacy",
        "building": "yes",
        "healthcare": "pharmacy",
        "name": "Farmácia Nissei",
        "id": "way/1215487697"
      },
      "geometry": {
        "type": "Polygon",
        "coordinates": [
          [
            [
              -48.0363935,
              -23.5823164
            ],
            [
              -48.0363462,
              -23.5824285
            ],
            [
              -48.0361508,
              -23.5823593
            ],
            [
              -48.0361981,
              -23.5822472
            ],
            [
              -48.0363935,
              -23.5823164
            ]
          ]
        ]
      }
    },
    {
      "type": "Feature",
      "id": "way/1301877568",
      "properties": {
        "timestamp": "2024-07-17T02:28:32Z",
        "version": 1,
        "changeset": 154037677,
        "addr:city": "Itapetininga",
        "addr:housenumber": "442",
        "addr:street": "Rua João Evangelista",
        "addr:suburb": "Centro",
        "amenity": "pharmacy",
        "building": "yes",
        "healthcare": "pharmacy",
        "name": "Essencial Pharma",
        "website": "https://www.essencialpharma.com.br/",
        "id": "way/1301877568"
      },
      "geometry": {
        "type": "Polygon",
        "coordinates": [
          [
            [
              -48.0417104,
              -23.5858864
            ],
            [
              -48.0419572,
              -23.5859438
            ],
            [
              -48.0419568,
              -23.5860126
            ],
            [
              -48.0419563,
              -23.5860995
            ],
            [
              -48.0416783,
              -23.5860347
            ],
            [
              -48.0417104,
              -23.5858864
            ]
          ]
        ]
      }
    },
    {
      "type": "Feature",
      "id": "way/1329650666",
      "properties": {
        "timestamp": "2024-10-31T15:20:02Z",
        "version": 1,
        "changeset": 158586160,
        "addr:city": "Itapetininga",
        "addr:housenumber": "332",
        "addr:street": "Avenida Padre Antônio Brunetti",
        "addr:suburb": "Vila Rio Branco",
        "amenity": "pharmacy",
        "building": "yes",
        "healthcare": "pharmacy",
        "name": "Drogal",
        "id": "way/1329650666"
      },
      "geometry": {
        "type": "Polygon",
        "coordinates": [
          [
            [
              -48.0610826,
              -23.5915187
            ],
            [
              -48.0610468,
              -23.5913354
            ],
            [
              -48.0610687,
              -23.5913115
            ],
            [
              -48.0611419,
              -23.5913004
            ],
            [
              -48.0611826,
              -23.5915112
            ],
            [
              -48.0610826,
              -23.5915187
            ]
          ]
        ]
      }
    },
    {
      "type": "Feature",
      "id": "node/3760683534",
      "properties": {
        "timestamp": "2019-06-01T18:21:23Z",
        "version": 2,
        "changeset": 70841249,
        "amenity": "pharmacy",
        "healthcare": "pharmacy",
        "name": "Farmácia do povo",
        "id": "node/3760683534"
      },
      "geometry": {
        "type": "Point",
        "coordinates": [
          -48.0478614,
          -23.5882838
        ]
      }
    },
    {
      "type": "Feature",
      "id": "node/4785234930",
      "properties": {
        "timestamp": "2019-06-01T18:21:23Z",
        "version": 3,
        "changeset": 70841249,
        "addr:city": "Itapetininga",
        "addr:housenumber": "743",
        "addr:street": "Rua Campos Salles",
        "addr:suburb": "Centro",
        "amenity": "pharmacy",
        "healthcare": "pharmacy",
        "name": "Farma Ponte",
        "id": "node/4785234930"
      },
      "geometry": {
        "type": "Point",
        "coordinates": [
          -48.047898,
          -23.588135
        ]
      }
    },
    {
      "type": "Feature",
      "id": "node/4785234931",
      "properties": {
        "timestamp": "2019-06-01T18:21:23Z",
        "version": 2,
        "changeset": 70841249,
        "amenity": "pharmacy",
        "healthcare": "pharmacy",
        "name": "Pronto Farma",
        "id": "node/4785234931"
      },
      "geometry": {
        "type": "Point",
        "coordinates": [
          -48.0413655,
          -23.5840679
        ]
      }
    },
    {
      "type": "Feature",
      "id": "node/5741691820",
      "properties": {
        "timestamp": "2018-07-05T15:51:14Z",
        "version": 1,
        "changeset": 60440922,
        "addr:housenumber": "45",
        "addr:street": "Rua Alberto Ernesto Gunter",
        "amenity": "pharmacy",
        "dispensing": "yes",
        "healthcare": "pharmacy",
        "name": "Drogaria São Rafael",
        "id": "node/5741691820"
      },
      "geometry": {
        "type": "Point",
        "coordinates": [
          -48.3173691,
          -23.597797
        ]
      }
    },
    {
      "type": "Feature",
      "id": "node/8989168028",
      "properties": {
        "timestamp": "2021-08-08T02:31:46Z",
        "version": 1,
        "changeset": 109329932,
        "addr:city": "Itapetininga",
        "addr:housenumber": "450",
        "addr:street": "Avenida Cinco de Novembro",
        "amenity": "pharmacy",
        "brand": "Drogasil",
        "brand:wikidata": "Q5308185",
        "brand:wikipedia": "pt:Drogasil",
        "dispensing": "yes",
        "healthcare": "pharmacy",
        "name": "Drogasil",
        "wheelchair": "yes",
        "id": "node/8989168028"
      },
      "geometry": {
        "type": "Point",
        "coordinates": [
          -48.0594915,
          -23.5919373
        ]
      }
    },
    {
      "type": "Feature",
      "id": "node/9029913469",
      "properties": {
        "timestamp": "2021-08-23T22:05:18Z",
        "version": 1,
        "changeset": 110138937,
        "addr:city": "Itapetininga",
        "addr:housenumber": "101",
        "addr:street": "Rua Salvador de Oliveira Leme",
        "addr:suburb": "Centro",
        "amenity": "pharmacy",
        "dispensing": "yes",
        "healthcare": "pharmacy",
        "name": "Drogaria Total",
        "website": "https://www.drogariatotal.com.br/",
        "id": "node/9029913469"
      },
      "geometry": {
        "type": "Point",
        "coordinates": [
          -48.0359792,
          -23.5863701
        ]
      }
    },
    {
      "type": "Feature",
      "id": "node/10125279532",
      "properties": {
        "timestamp": "2023-02-26T22:12:29Z",
        "version": 2,
        "changeset": 133061248,
        "addr:city": "Itapetininga",
        "addr:housenumber": "1001",
        "addr:street": "Avenida Doutor José de Almeida Carvalho",
        "amenity": "pharmacy",
        "dispensing": "yes",
        "healthcare": "pharmacy",
        "name": "Farmácia Drogal",
        "id": "node/10125279532"
      },
      "geometry": {
        "type": "Point",
        "coordinates": [
          -48.0299941,
          -23.5795008
        ]
      }
    },
    {
      "type": "Feature",
      "id": "node/11261737558",
      "properties": {
        "timestamp": "2023-10-14T02:19:32Z",
        "version": 1,
        "changeset": 142558876,
        "addr:city": "Itapetininga",
        "addr:housenumber": "576",
        "addr:street": "Avenida Domingos José Vieira",
        "addr:suburb": "Centro",
        "amenity": "pharmacy",
        "healthcare": "pharmacy",
        "name": "Drogal",
        "id": "node/11261737558"
      },
      "geometry": {
        "type": "Point",
        "coordinates": [
          -48.0424208,
          -23.5844069
        ]
      }
    },
    {
      "type": "Feature",
      "id": "node/11792770563",
      "properties": {
        "timestamp": "2024-04-05T12:44:49Z",
        "version": 1,
        "changeset": 149613434,
        "amenity": "pharmacy",
        "healthcare": "pharmacy",
        "id": "node/11792770563"
      },
      "geometry": {
        "type": "Point",
        "coordinates": [
          -48.0443572,
          -23.5845893
        ]
      }
    },
    {
      "type": "Feature",
      "id": "node/12301852729",
      "properties": {
        "timestamp": "2024-10-31T15:20:02Z",
        "version": 1,
        "changeset": 158586160,
        "addr:city": "Itapetininga",
        "addr:housenumber": "410",
        "addr:street": "Avenida Padre Antônio Brunetti",
        "addr:suburb": "Vila Rio Branco",
        "amenity": "pharmacy",
        "healthcare": "pharmacy",
        "name": "Drogaria Saúde e Perfumaria Cravo & Canela",
        "id": "node/12301852729"
      },
      "geometry": {
        "type": "Point",
        "coordinates": [
          -48.0619799,
          -23.5913685
        ]
      }
    }
  ]
}
