{
  "type": "FeatureCollection",
  "features": [
    {
      "type": "Feature",
      "id": "way/290053393",
      "properties": {
        "timestamp": "2024-07-17T02:28:32Z",
        "version": 7,
        "changeset": 154037677,
        "addr:city": "Itapetininga",
        "addr:housenumber": "723",
        "addr:postcode": "18200-270",
        "addr:street": "Rua Pedro Marques",
        "addr:suburb": "Centro",
        "amenity": "social_facility",
        "building": "yes",
        "name": "Ambulatório Médico de Especialidades",
        "opening_hours": "Mo-Fr 07:00-18:00",
        "operator": "Secretaria de Estado da Saúde de São Paulo",
        "operator:type": "public",
        "short_name": "AME Itapetininga",
        "social_facility": "ambulatory_care",
        "website": "http://cnes.datasus.gov.br/Exibe_Ficha_Estabelecimento.asp?VCo_Unidade=3522306639658",
        "id": "way/290053393"
      },
      "geometry": {
        "type": "Polygon",
        "coordinates": [
          [
            [
              -48.0444996,
              -23.5893692
            ],
            [
              -48.0443619,
              -23.5898484
            ],
            [
              -48.0442868,
              -23.5898285
            ],
            [
              -48.0441025,
              -23.5897796
            ],
            [
              -48.0441263,
              -23.5896869
            ],
            [
              -48.0438642,
              -23.5896234
            ],
            [
              -48.0439542,
              -23.5892474
            ],
            [
              -48.0444996,
              -23.5893692
            ]
          ]
        ]
      }
    },
    {
      "type": "Feature",
      "id": "way/584801498",
      "properties": {
        "timestamp": "2020-07-13T23:11:04Z",
        "version": 5,
        "changeset": 87945355,
        "addr:city": "Itapetininga",
        "addr:housenumber": "1390",
        "addr:postcode": "18206-420",
        "addr:street": "Rua Francisco Corrêa da Silva",
        "addr:suburb": "Vila Carolina",
        "amenity": "social_facility",
        "contact:phone": "+55 15 3271 2207",
        "email": "larsvpitape@uol.com.br",
        "name": "Lar São Vicente de Paulo",
        "phone": "+55 15 3271 0201",
        "social_facility": "group_home",
        "social_facility:for": "senior",
        "start_date": "1912",
        "id": "way/584801498"
      },
      "geometry": {
        "type": "Polygon",
        "coordinates": [
          [
            [
              -48.0672205,
              -23.5970847
            ],
            [
              -48.0648742,
              -23.5989285
            ],
            [
              -48.0639647,
              -23.5974472
            ],
            [
              -48.0658086,
              -23.5960125
            ],
            [
              -48.0672205,
              -23.5970847
            ]
          ]
        ]
      }
    },
    {
      "type": "Feature",
      "id": "way/635095021",
      "properties": {
        "timestamp": "2023-02-07T17:54:55Z",
        "version": 4,
        "changeset": 132218245,
        "addr:city": "Itapetininga",
        "addr:housenumber": "144",
        "addr:street": "Rua Luiz Espolaor",
        "addr:suburb": "Jardim Fogaça",
        "amenity": "social_facility",
        "building": "yes",
        "name": "Centro de Referência de Assistência Social Marina Raquel Caron de Campos",
        "operator": "Prefeitura de Itapetininga",
        "short_name": "CRAS Marina Raquel Caron de Campos",
        "social_facility": "outreach",
        "social_facility:for": "underprivileged",
        "id": "way/635095021"
      },
      "geometry": {
        "type": "Polygon",
        "coordinates": [
          [
            [
              -48.0150063,
              -23.5838526
            ],
            [
              -48.0151441,
              -23.5834523
            ],
            [
              -48.0153718,
              -23.5835181
            ],
            [
              -48.0152339,
              -23.5839184
            ],
            [
              -48.0150063,
              -23.5838526
            ]
          ]
        ]
      }
    },
    {
      "type": "Feature",
      "id": "way/700821964",
      "properties": {
        "timestamp": "2023-02-07T18:42:26Z",
        "version": 2,
        "changeset": 132219977,
        "addr:city": "Itapetininga",
        "addr:housenumber": "392",
        "addr:street": "Rua Antônio Anunciato",
        "addr:suburb": "Vila Aurora",
        "alt_name": "CRAS CRAS Regiane Medeiros da Silva Felix",
        "amenity": "social_facility",
        "building": "yes",
        "loc_name": "CRAS Aurora",
        "name": "Centro de Referência de Assistência Social Regiane Medeiros da Silva Felix",
        "social_facility": "outreach",
        "social_facility:for": "underprivileged",
        "id": "way/700821964"
      },
      "geometry": {
        "type": "Polygon",
        "coordinates": [
          [
            [
              -48.0332513,
              -23.5758709
            ],
            [
              -48.0330838,
              -23.5758228
            ],
            [
              -48.033102,
              -23.5757695
            ],
            [
              -48.0332695,
              -23.5758177
            ],
            [
              -48.0332513,
              -23.5758709
            ]
          ]
        ]
      }
    },
    {
      "type": "Feature",
      "id": "way/728914181",
      "properties": {
        "timestamp": "2019-09-27T00:24:34Z",
        "version": 1,
        "changeset": 74984777,
        "addr:city": "Itapetininga",
        "addr:housenumber": "131",
        "addr:street": "Rua Ruy Siqueira Gomes",
        "addr:suburb": "Atenas do Sul",
        "amenity": "social_facility",
        "building": "yes",
        "name": "Centro de Valorização da Vida",
        "id": "way/728914181"
      },
      "geometry": {
        "type": "Polygon",
        "coordinates": [
          [
            [
              -48.0711782,
              -23.5965148
            ],
            [
              -48.0710109,
              -23.5963866
            ],
            [
              -48.0710729,
              -23.5963186
            ],
            [
              -48.0712403,
              -23.5964468
            ],
            [
              -48.0711782,
              -23.5965148
            ]
          ]
        ]
      }
    },
    {
      "type": "Feature",
      "id": "way/764322350",
      "properties": {
        "timestamp": "2020-01-18T03:18:24Z",
        "version": 1,
        "changeset": 79721358,
        "addr:city": "Itapetininga",
        "addr:housenumber": "115",
        "addr:street": "Rua Pedro Cardoso",
        "amenity": "social_facility",
        "building": "yes",
        "name": "Centro de Especialidades Odontológicas",
        "social_facility": "ambulatory_care",
        "id": "way/764322350"
      },
      "geometry": {
        "type": "Polygon",
        "coordinates": [
          [
            [
              -48.0242189,
              -23.5737159
            ],
            [
              -48.0242993,
              -23.5735572
            ],
            [
              -48.0244049,
              -23.5736022
            ],
            [
              -48.0243245,
              -23.5737608
            ],
            [
              -48.0242189,
              -23.5737159
            ]
          ]
        ]
      }
    },
    {
      "type": "Feature",
      "id": "way/838574588",
      "properties": {
        "timestamp": "2023-02-07T18:42:26Z",
        "version": 2,
        "changeset": 132219977,
        "addr:city": "Itapetininga",
        "amenity": "social_facility",
        "building": "yes",
        "name": "Centro de Referência de Assistência Social Rio Branco",
        "short_name": "CRAS Rio Branco",
        "social_facility": "outreach",
        "social_facility:for": "underprivileged",
        "id": "way/838574588"
      },
      "geometry": {
        "type": "Polygon",
        "coordinates": [
          [
            [
              -48.0711485,
              -23.5860931
            ],
            [
              -48.0711482,
              -23.5859666
            ],
            [
              -48.0714198,
              -23.5859661
            ],
            [
              -48.0714201,
              -23.5860926
            ],
            [
              -48.0711485,
              -23.5860931
            ]
          ]
        ]
      }
    },
    {
      "type": "Feature",
      "id": "way/1301877567",
      "properties": {
        "timestamp": "2024-07-17T02:28:32Z",
        "version": 1,
        "changeset": 154037677,
        "addr:city": "Itapetininga",
        "addr:housenumber": "416",
        "addr:street": "Rua João Evangelista",
        "addr:suburb": "Centro",
        "amenity": "social_facility",
        "name": "Centro de referência Especializado de Assistência Social - Centro",
        "operator": "Prefeitura de Itapetininga",
        "operator:type": "public",
        "short_name": "CREAS CENTRO",
        "id": "way/1301877567"
      },
      "geometry": {
        "type": "Polygon",
        "coordinates": [
          [
            [
              -48.0423039,
              -23.5860608
            ],
            [
              -48.0422402,
              -23.5862688
            ],
            [
              -48.0423413,
              -23.5862927
            ],
            [
              -48.0423031,
              -23.5864161
            ],
            [
              -48.0421786,
              -23.5863818
            ],
            [
              -48.0422665,
              -23.5860487
            ],
            [
              -48.0423039,
              -23.5860608
            ]
          ]
        ]
      }
    },
    {
      "type": "Feature",
      "id": "node/6579247697",
      "properties": {
        "timestamp": "2019-06-30T00:08:46Z",
        "version": 1,
        "changeset": 71745972,
        "addr:city": "Itapetininga",
        "addr:housenumber": "1",
        "addr:street": "Praça Gáspar Ricardo",
        "addr:suburb": "Centro",
        "amenity": "social_facility",
        "name": "Fundo Social de Itapetininga",
        "id": "node/6579247697"
      },
      "geometry": {
        "type": "Point",
        "coordinates": [
          -48.0476519,
          -23.5834896
        ]
      }
    },
    {
      "type": "Feature",
      "id": "node/12097890984",
      "properties": {
        "timestamp": "2024-09-10T02:03:13Z",
        "version": 4,
        "changeset": 156418967,
        "addr:city": "Itapetininga",
        "addr:housenumber": "733",
        "addr:street": "Rua Doutor Coutinho",
        "addr:suburb": "Centro",
        "amenity": "social_facility",
        "name": "Unimed Sul Paulista - Unidade Shopping",
        "social_facility": "ambulatory_care",
        "website": "https://www.unimed.coop.br/site/web/sulpaulista",
        "id": "node/12097890984"
      },
      "geometry": {
        "type": "Point",
        "coordinates": [
          -48.0389496,
          -23.5777616
        ]
      }
    }
  ]
}
