{
  "type": "FeatureCollection",
  "features": [
    {
      "type": "Feature",
      "id": "way/495026678",
      "properties": {
        "timestamp": "2017-05-21T15:10:06Z",
        "version": 1,
        "changeset": 48864248,
        "amenity": "school",
        "id": "way/495026678"
      },
      "geometry": {
        "type": "Polygon",
        "coordinates": [
          [
            [
              -40.4679964,
              -15.4237226
            ],
            [
              -40.4678513,
              -15.4239103
            ],
            [
              -40.467715,
              -15.4237568
            ],
            [
              -40.4675894,
              -15.4238403
            ],
            [
              -40.4674124,
              -15.4236101
            ],
            [
              -40.467692,
              -15.4233576
            ],
            [
              -40.4679964,
              -15.4237226
            ]
          ]
        ]
      }
    },
    {
      "type": "Feature",
      "id": "way/1215552474",
      "properties": {
        "timestamp": "2023-10-14T11:32:34Z",
        "version": 1,
        "changeset": 142572746,
        "addr:city": "Macarani",
        "addr:postcode": "45760-000",
        "amenity": "school",
        "name": "Escolas Reunidas de Macarani",
        "id": "way/1215552474"
      },
      "geometry": {
        "type": "Polygon",
        "coordinates": [
          [
            [
              -40.4234276,
              -15.5650069
            ],
            [
              -40.4233117,
              -15.5654691
            ],
            [
              -40.4226409,
              -15.565332
            ],
            [
              -40.4227141,
              -15.5650383
            ],
            [
              -40.4231023,
              -15.5651401
            ],
            [
              -40.4231491,
              -15.5649462
            ],
            [
              -40.4234276,
              -15.5650069
            ]
          ]
        ]
      }
    },
    {
      "type": "Feature",
      "id": "way/1215552475",
      "properties": {
        "timestamp": "2023-10-14T11:32:34Z",
        "version": 1,
        "changeset": 142572746,
        "addr:city": "Macarani",
        "addr:postcode": "45760-000",
        "addr:street": "Praça Cleriston Andrade",
        "addr:suburb": "Centro",
        "amenity": "school",
        "name": "Escola Autimio Altamira Pires",
        "id": "way/1215552475"
      },
      "geometry": {
        "type": "Polygon",
        "coordinates": [
          [
            [
              -40.4234276,
              -15.5650069
            ],
            [
              -40.4231491,
              -15.5649462
            ],
            [
              -40.4231023,
              -15.5651401
            ],
            [
              -40.4227141,
              -15.5650383
            ],
            [
              -40.4228158,
              -15.5646405
            ],
            [
              -40.4228218,
              -15.5646173
            ],
            [
              -40.4229885,
              -15.5646603
            ],
            [
              -40.4234845,
              -15.5647974
            ],
            [
              -40.4234276,
              -15.5650069
            ]
          ]
        ]
      }
    },
    {
      "type": "Feature",
      "id": "way/1215552477",
      "properties": {
        "timestamp": "2023-10-14T11:32:34Z",
        "version": 1,
        "changeset": 142572746,
        "addr:city": "Macarani",
        "addr:postcode": "45760-000",
        "addr:street": "Rua Doutor Fernando Sá Miranda",
        "addr:suburb": "Centro",
        "amenity": "school",
        "name": "Escola Municipal Doutor Fernando Sá Miranda",
        "id": "way/1215552477"
      },
      "geometry": {
        "type": "Polygon",
        "coordinates": [
          [
            [
              -40.4236421,
              -15.5641996
            ],
            [
              -40.4232865,
              -15.5641314
            ],
            [
              -40.4231042,
              -15.5639848
            ],
            [
              -40.4231644,
              -15.5635893
            ],
            [
              -40.4237749,
              -15.5637069
            ],
            [
              -40.4236421,
              -15.5641996
            ]
          ]
        ]
      }
    },
    {
      "type": "Feature",
      "id": "way/1215552478",
      "properties": {
        "timestamp": "2023-10-14T11:32:34Z",
        "version": 1,
        "changeset": 142572746,
        "addr:city": "Macarani",
        "addr:housenumber": "02",
        "addr:postcode": "45760-000",
        "addr:suburb": "Centro",
        "amenity": "school",
        "name": "Colégio Estadual São Pedro",
        "operator": "Estado da Bahia",
        "id": "way/1215552478"
      },
      "geometry": {
        "type": "Polygon",
        "coordinates": [
          [
            [
              -40.4245799,
              -15.5653228
            ],
            [
              -40.4244105,
              -15.5659194
            ],
            [
              -40.4234338,
              -15.5657235
            ],
            [
              -40.4235971,
              -15.5650943
            ],
            [
              -40.4245799,
              -15.5653228
            ]
          ]
        ]
      }
    },
    {
      "type": "Feature",
      "id": "node/11261795439",
      "properties": {
        "timestamp": "2023-10-14T11:32:34Z",
        "version": 2,
        "changeset": 142572746,
        "addr:city": "Macarani",
        "addr:postcode": "45760-000",
        "addr:street": "Rua Eujácio Brito",
        "addr:suburb": "Jardim Guarujá",
        "amenity": "school",
        "name": "Creche Arlette Maron Magalhães",
        "operator": "Município de Macarani",
        "operator:type": "public",
        "phone": "+55 77 98817 0090",
        "id": "node/11261795439"
      },
      "geometry": {
        "type": "Point",
        "coordinates": [
          -40.4200093,
          -15.5621632
        ]
      }
    },
    {
      "type": "Feature",
      "id": "node/11261795440",
      "properties": {
        "timestamp": "2023-10-14T11:32:34Z",
        "version": 2,
        "changeset": 142572746,
        "addr:city": "Macarani",
        "addr:housenumber": "11",
        "addr:postcode": "45760-000",
        "addr:street": "Rua Demóstenes Fernandes",
        "addr:suburb": "Jardim Guarujá",
        "amenity": "school",
        "name": "Educandário Clerio Correia",
        "operator": "Município de Macarani",
        "operator:type": "public",
        "id": "node/11261795440"
      },
      "geometry": {
        "type": "Point",
        "coordinates": [
          -40.4189552,
          -15.5605166
        ]
      }
    },
    {
      "type": "Feature",
      "id": "node/11261795447",
      "properties": {
        "timestamp": "2023-10-14T11:32:34Z",
        "version": 2,
        "changeset": 142572746,
        "addr:city": "Macarani",
        "addr:postcode": "45760-000",
        "addr:street": "Rua Odilon Fernandes Santos",
        "addr:suburb": "Jardim Guarujá",
        "amenity": "school",
        "name": "Creche Antônio Beirão de Araújo",
        "operator": "Município de Macarani",
        "operator:type": "public",
        "id": "node/11261795447"
      },
      "geometry": {
        "type": "Point",
        "coordinates": [
          -40.419666,
          -15.5618343
        ]
      }
    },
    {
      "type": "Feature",
      "id": "node/11261795448",
      "properties": {
        "timestamp": "2023-10-14T03:25:55Z",
        "version": 1,
        "changeset": 142560504,
        "addr:city": "Macarani",
        "addr:housenumber": "01",
        "addr:postcode": "45760-000",
        "addr:street": "Rua Agenor Batista dos Santos",
        "addr:suburb": "Cidade Jardim",
        "amenity": "school",
        "name": "Centro Educacional Professora Elza de Souza Porto",
        "id": "node/11261795448"
      },
      "geometry": {
        "type": "Point",
        "coordinates": [
          -40.427339,
          -15.5617155
        ]
      }
    },
    {
      "type": "Feature",
      "id": "node/11267873079",
      "properties": {
        "timestamp": "2023-10-16T20:47:30Z",
        "version": 1,
        "changeset": 142683697,
        "addr:city": "Macarani",
        "addr:housenumber": "02",
        "addr:postcode": "45760-000",
        "addr:street": "Travessa João Tibério",
        "addr:suburb": "Santa Elizabete",
        "amenity": "school",
        "name": "Creche Jonas de Souza Lima",
        "operator": "Município de Macarani",
        "operator:type": "public",
        "id": "node/11267873079"
      },
      "geometry": {
        "type": "Point",
        "coordinates": [
          -40.4317149,
          -15.570111
        ]
      }
    }
  ]
}
