{
  "type": "FeatureCollection",
  "features": [
    {
      "type": "Feature",
      "id": "node/12073292881",
      "properties": {
        "timestamp": "2024-07-25T10:40:40Z",
        "version": 1,
        "changeset": 154387148,
        "addr:housenumber": "11",
        "addr:postcode": "45930-000",
        "addr:street": "Rua José Venturino",
        "addr:suburb": "Belo Cruzeiro",
        "addr:unit": "Fundos",
        "building": "yes",
        "fixme": "Confirmar nome",
        "name": "Oficina de Bicicleta",
        "shop": "bicycle",
        "id": "node/12073292881"
      },
      "geometry": {
        "type": "Point",
        "coordinates": [
          -40.0545557,
          -18.0097627
        ]
      }
    },
    {
      "type": "Feature",
      "id": "node/12073294470",
      "properties": {
        "timestamp": "2024-07-25T10:40:48Z",
        "version": 1,
        "changeset": 154387148,
        "addr:housenumber": "19",
        "addr:postcode": "45936-000",
        "addr:street": "Rua das Árvores",
        "addr:suburb": "Nova Era",
        "building": "yes",
        "fixme": "Confirmar nome",
        "name": "Oficina de Bicicleta",
        "shop": "bicycle",
        "id": "node/12073294470"
      },
      "geometry": {
        "type": "Point",
        "coordinates": [
          -39.8725057,
          -17.9918988
        ]
      }
    },
    {
      "type": "Feature",
      "id": "node/12073295002",
      "properties": {
        "timestamp": "2024-07-25T10:40:56Z",
        "version": 1,
        "changeset": 154387148,
        "addr:housenumber": "541",
        "addr:postcode": "45936-000",
        "addr:street": "Avenida Salvador",
        "addr:suburb": "Centro",
        "building": "yes",
        "fixme": "Confirmar nome",
        "name": "Oficina de Bicicleta",
        "shop": "bicycle",
        "id": "node/12073295002"
      },
      "geometry": {
        "type": "Point",
        "coordinates": [
          -39.8632874,
          -18.0064061
        ]
      }
    },
    {
      "type": "Feature",
      "id": "node/12073301462",
      "properties": {
        "timestamp": "2024-07-25T10:41:52Z",
        "version": 1,
        "changeset": 154387190,
        "addr:housenumber": "458",
        "addr:postcode": "45930-000",
        "addr:street": "Rua Jovita Fontes",
        "addr:suburb": "Centro",
        "building": "yes",
        "name": "Oficina de Bicicletas",
        "shop": "bicycle",
        "id": "node/12073301462"
      },
      "geometry": {
        "type": "Point",
        "coordinates": [
          -39.5504329,
          -18.0857185
        ]
      }
    },
    {
      "type": "Feature",
      "id": "node/12073301770",
      "properties": {
        "timestamp": "2024-07-25T10:41:25Z",
        "version": 1,
        "changeset": 154387148,
        "addr:housenumber": "145",
        "addr:postcode": "45936-000",
        "addr:street": "Avenida Ipanema",
        "addr:suburb": "Gazinelandia",
        "building": "yes",
        "fixme": "Confirmar nome",
        "name": "Oficina de Bicicleta",
        "shop": "bicycle",
        "id": "node/12073301770"
      },
      "geometry": {
        "type": "Point",
        "coordinates": [
          -39.866184,
          -18.0028818
        ]
      }
    },
    {
      "type": "Feature",
      "id": "node/12073302689",
      "properties": {
        "timestamp": "2024-07-25T10:41:30Z",
        "version": 1,
        "changeset": 154387148,
        "addr:housenumber": "185",
        "addr:postcode": "45936-000",
        "addr:street": "Rua Rio Tapajós",
        "addr:suburb": "Triângulo Leal",
        "building": "yes",
        "fixme": "Confirmar nome",
        "name": "Oficina de Bicicleta",
        "shop": "bicycle",
        "id": "node/12073302689"
      },
      "geometry": {
        "type": "Point",
        "coordinates": [
          -39.8729915,
          -17.9946138
        ]
      }
    },
    {
      "type": "Feature",
      "id": "node/12073304856",
      "properties": {
        "timestamp": "2024-07-25T10:41:41Z",
        "version": 1,
        "changeset": 154387190,
        "addr:housenumber": "1265",
        "addr:postcode": "45930-000",
        "addr:street": "Avenida Central",
        "addr:suburb": "Pôr do Sol",
        "building": "yes",
        "name": "Oficina de Bicicletas",
        "shop": "bicycle",
        "id": "node/12073304856"
      },
      "geometry": {
        "type": "Point",
        "coordinates": [
          -39.5439793,
          -18.0734604
        ]
      }
    },
    {
      "type": "Feature",
      "id": "node/12073307976",
      "properties": {
        "timestamp": "2024-07-25T10:42:03Z",
        "version": 1,
        "changeset": 154387190,
        "addr:housenumber": "533",
        "addr:postcode": "45930-000",
        "addr:street": "Rua Rui Barbosa",
        "addr:suburb": "Aroeira",
        "building": "yes",
        "fixme": "Confirmar nome",
        "name": "Oficina de Bicicleta",
        "shop": "bicycle",
        "id": "node/12073307976"
      },
      "geometry": {
        "type": "Point",
        "coordinates": [
          -39.5509288,
          -18.0847526
        ]
      }
    },
    {
      "type": "Feature",
      "id": "node/12073308839",
      "properties": {
        "timestamp": "2024-07-25T10:42:03Z",
        "version": 1,
        "changeset": 154387190,
        "addr:housenumber": "130",
        "addr:postcode": "45936-000",
        "addr:street": "Avenida Ilhéus",
        "addr:suburb": "Gazinelandia",
        "building": "yes",
        "name": "Oficina de Bicicletas",
        "shop": "bicycle",
        "id": "node/12073308839"
      },
      "geometry": {
        "type": "Point",
        "coordinates": [
          -39.8673242,
          -18.0029884
        ]
      }
    },
    {
      "type": "Feature",
      "id": "node/12073311113",
      "properties": {
        "timestamp": "2024-07-25T10:42:24Z",
        "version": 1,
        "changeset": 154387190,
        "addr:housenumber": "88",
        "addr:postcode": "45936-000",
        "addr:street": "Rua Rio Doce",
        "addr:suburb": "Triângulo Leal",
        "building": "yes",
        "fixme": "Confirmar nome",
        "name": "Oficina de Bicicleta",
        "shop": "bicycle",
        "id": "node/12073311113"
      },
      "geometry": {
        "type": "Point",
        "coordinates": [
          -39.8695349,
          -17.9974236
        ]
      }
    },
    {
      "type": "Feature",
      "id": "node/12073312147",
      "properties": {
        "timestamp": "2024-07-25T10:42:30Z",
        "version": 1,
        "changeset": 154387190,
        "addr:housenumber": "11",
        "addr:postcode": "45930-000",
        "addr:street": "Rua Floresta",
        "addr:suburb": "Belo Cruzeiro",
        "building": "yes",
        "fixme": "Confirmar nome",
        "name": "Oficina de Bicicleta",
        "shop": "bicycle",
        "id": "node/12073312147"
      },
      "geometry": {
        "type": "Point",
        "coordinates": [
          -40.052875,
          -18.0096393
        ]
      }
    }
  ]
}
