{
  "type": "FeatureCollection",
  "features": [
    {
      "type": "Feature",
      "id": "node/10578904501",
      "properties": {
        "timestamp": "2023-01-25T01:02:28Z",
        "version": 2,
        "changeset": 131674453,
        "addr:city": "Mucuri",
        "addr:housenumber": "401",
        "addr:postcode": "45930-000",
        "addr:street": "Rua Oscar Teixeira Siqueira",
        "addr:suburb": "Malvinas",
        "amenity": "clinic",
        "healthcare": "clinic",
        "healthcare:speciality": "general",
        "name": "Clínica Médica Municipal",
        "operator": "Município de Mucuri",
        "operator:type": "public",
        "id": "node/10578904501"
      },
      "geometry": {
        "type": "Point",
        "coordinates": [
          -39.544002,
          -18.0795191
        ]
      }
    },
    {
      "type": "Feature",
      "id": "node/10580491109",
      "properties": {
        "timestamp": "2023-11-27T20:34:05Z",
        "version": 2,
        "changeset": 144523338,
        "addr:city": "Mucuri",
        "addr:postcode": "45930-000",
        "addr:street": "Rua Rui Barbosa",
        "addr:suburb": "Centro",
        "amenity": "clinic",
        "healthcare": "clinic",
        "healthcare:speciality": "general",
        "name": "Centro Municipal de Saúde André de Castro",
        "operator": "Município de Mucuri",
        "operator:type": "public",
        "id": "node/10580491109"
      },
      "geometry": {
        "type": "Point",
        "coordinates": [
          -39.5508819,
          -18.0852218
        ]
      }
    },
    {
      "type": "Feature",
      "id": "node/10586555015",
      "properties": {
        "timestamp": "2023-01-27T11:56:37Z",
        "version": 1,
        "changeset": 131769965,
        "addr:city": "Mucuri",
        "addr:postcode": "45930-000",
        "addr:street": "Avenida Central",
        "addr:suburb": "Bahia do Sol",
        "amenity": "clinic",
        "healthcare": "clinic",
        "healthcare:speciality": "general",
        "name": "Unidade Básica de Saúde Juraci Caetano Brito",
        "operator": "Município de Mucuri",
        "operator:type": "public",
        "id": "node/10586555015"
      },
      "geometry": {
        "type": "Point",
        "coordinates": [
          -39.5413772,
          -18.0686367
        ]
      }
    },
    {
      "type": "Feature",
      "id": "node/10594113294",
      "properties": {
        "timestamp": "2023-01-30T13:14:41Z",
        "version": 1,
        "changeset": 131880781,
        "addr:city": "Mucuri",
        "addr:postcode": "45930-000",
        "addr:street": "Avenida Coca Cola",
        "addr:suburb": "Jardim Califórnia",
        "amenity": "clinic",
        "healthcare": "clinic",
        "healthcare:speciality": "general",
        "name": "Unidade Básica de Saúde Califórnia",
        "operator": "Município de Mucuri",
        "operator:type": "public",
        "id": "node/10594113294"
      },
      "geometry": {
        "type": "Point",
        "coordinates": [
          -39.5556143,
          -18.0692409
        ]
      }
    },
    {
      "type": "Feature",
      "id": "node/10604506879",
      "properties": {
        "timestamp": "2024-07-26T17:24:10Z",
        "version": 2,
        "changeset": 154453717,
        "addr:city": "Mucuri",
        "addr:postcode": "45930-000",
        "addr:street": "Rua Antônio Carlos Magalhães",
        "addr:suburb": "Taquarinha",
        "amenity": "clinic",
        "healthcare": "clinic",
        "healthcare:speciality": "general",
        "name": "Unidade Básica de Saúde da Família de Taquarinha",
        "operator": "Município de Mucuri",
        "operator:type": "public",
        "id": "node/10604506879"
      },
      "geometry": {
        "type": "Point",
        "coordinates": [
          -40.2395304,
          -17.9408948
        ]
      }
    },
    {
      "type": "Feature",
      "id": "node/10676128241",
      "properties": {
        "timestamp": "2023-02-24T01:14:10Z",
        "version": 2,
        "changeset": 132948689,
        "addr:city": "Mucuri",
        "addr:postcode": "45930-000",
        "addr:street": "Avenida Donato Soares de Oliveira",
        "addr:suburb": "Belo Cruzeiro",
        "amenity": "clinic",
        "healthcare": "clinic",
        "healthcare:speciality": "general",
        "name": "Posto de Saúde de Belo Cruzeiro",
        "operator": "Município de Mucuri",
        "operator:type": "public",
        "id": "node/10676128241"
      },
      "geometry": {
        "type": "Point",
        "coordinates": [
          -40.0516605,
          -18.0103838
        ]
      }
    },
    {
      "type": "Feature",
      "id": "node/11275941820",
      "properties": {
        "timestamp": "2023-10-19T20:21:07Z",
        "version": 1,
        "changeset": 142835035,
        "amenity": "clinic",
        "healthcare": "clinic",
        "id": "node/11275941820"
      },
      "geometry": {
        "type": "Point",
        "coordinates": [
          -39.736081,
          -18.1383445
        ]
      }
    },
    {
      "type": "Feature",
      "id": "node/12072067145",
      "properties": {
        "timestamp": "2024-07-24T18:09:57Z",
        "version": 1,
        "changeset": 154363010,
        "addr:city": "Mucuri",
        "addr:district": "Itabatã",
        "addr:postcode": "45936-000",
        "addr:street": "Praça Dois de Julho",
        "addr:suburb": "Centro",
        "amenity": "clinic",
        "healthcare": "clinic",
        "healthcare:speciality": "general",
        "name": "Unidade Básica de Saúde Sete Almir Zon",
        "operator": "Secretaria Municipal de Saúde de Mucuri",
        "operator:type": "public",
        "id": "node/12072067145"
      },
      "geometry": {
        "type": "Point",
        "coordinates": [
          -39.863883,
          -18.0106687
        ]
      }
    },
    {
      "type": "Feature",
      "id": "node/12073259653",
      "properties": {
        "timestamp": "2024-07-25T10:42:03Z",
        "version": 1,
        "changeset": 154387190,
        "addr:housenumber": "614",
        "addr:postcode": "45930-000",
        "addr:street": "Avenida Nova Viçosa",
        "addr:suburb": "Centro",
        "addr:unit": "Térreo",
        "amenity": "clinic",
        "building": "yes",
        "healthcare": "physiotherapist",
        "name": "Clínica de Fisioterapia",
        "office": "therapist",
        "id": "node/12073259653"
      },
      "geometry": {
        "type": "Point",
        "coordinates": [
          -39.5463846,
          -18.0789101
        ]
      }
    },
    {
      "type": "Feature",
      "id": "node/12073292859",
      "properties": {
        "timestamp": "2024-07-25T10:40:40Z",
        "version": 1,
        "changeset": 154387148,
        "addr:housenumber": "806",
        "addr:postcode": "45936-000",
        "addr:street": "Rua Amaz0nas",
        "addr:suburb": "Centro",
        "amenity": "clinic",
        "building": "yes",
        "name": "Pró Vida Clínica Médica Especializada",
        "id": "node/12073292859"
      },
      "geometry": {
        "type": "Point",
        "coordinates": [
          -39.8633621,
          -18.0033931
        ]
      }
    },
    {
      "type": "Feature",
      "id": "node/12073295986",
      "properties": {
        "timestamp": "2024-07-28T23:16:19Z",
        "version": 2,
        "changeset": 154541132,
        "addr:city": "Mucuri",
        "addr:district": "Itabatã",
        "addr:housenumber": "481",
        "addr:postcode": "45936-000",
        "addr:street": "Avenida Rondônia",
        "addr:suburb": "Centro",
        "amenity": "clinic",
        "building": "yes",
        "healthcare": "clinic",
        "healthcare:speciality": "general",
        "name": "Clínica de Especialidades de Itabatã",
        "operator": "Secretaria Municipal de Saúde",
        "operator:type": "public",
        "id": "node/12073295986"
      },
      "geometry": {
        "type": "Point",
        "coordinates": [
          -39.8642836,
          -18.004808
        ]
      }
    },
    {
      "type": "Feature",
      "id": "node/12073300664",
      "properties": {
        "timestamp": "2024-07-25T10:41:21Z",
        "version": 1,
        "changeset": 154387148,
        "addr:housenumber": "512",
        "addr:postcode": "45930-000",
        "addr:street": "Avenida Central",
        "addr:suburb": "Centro",
        "addr:unit": "Galeria",
        "amenity": "clinic",
        "building": "yes",
        "healthcare": "physiotherapist",
        "name": "Fisioterapia",
        "office": "therapist",
        "id": "node/12073300664"
      },
      "geometry": {
        "type": "Point",
        "coordinates": [
          -39.5474132,
          -18.0796566
        ]
      }
    },
    {
      "type": "Feature",
      "id": "node/12073303046",
      "properties": {
        "timestamp": "2024-07-25T10:41:30Z",
        "version": 1,
        "changeset": 154387148,
        "addr:housenumber": "14",
        "addr:postcode": "45930-000",
        "addr:street": "Avenida Carlos Chagas",
        "addr:suburb": "31 de Março",
        "amenity": "clinic",
        "building": "yes",
        "healthcare": "yes",
        "name": "Unidade de Saúde",
        "id": "node/12073303046"
      },
      "geometry": {
        "type": "Point",
        "coordinates": [
          -39.9188476,
          -18.1726273
        ]
      }
    },
    {
      "type": "Feature",
      "id": "node/12073306154",
      "properties": {
        "timestamp": "2024-07-25T10:41:52Z",
        "version": 1,
        "changeset": 154387190,
        "addr:housenumber": "7",
        "addr:postcode": "45930-000",
        "addr:street": "Rua Sem Denominação 5",
        "addr:suburb": "Cruzelandia",
        "amenity": "clinic",
        "brand:wikidata": "Q7248441",
        "brand:wikipedia": "pt:Programa_Saúde_da_Família",
        "building": "yes",
        "healthcare": "yes",
        "name": "Unidade de Saúde da Família",
        "id": "node/12073306154"
      },
      "geometry": {
        "type": "Point",
        "coordinates": [
          -39.662087,
          -18.1290151
        ]
      }
    },
    {
      "type": "Feature",
      "id": "node/12073307646",
      "properties": {
        "timestamp": "2024-07-25T10:41:59Z",
        "version": 1,
        "changeset": 154387190,
        "addr:housenumber": "60",
        "addr:postcode": "45930-000",
        "addr:street": "Rua Chê",
        "addr:suburb": "Assentamento Paulo Freire",
        "amenity": "clinic",
        "brand:wikidata": "Q7248441",
        "brand:wikipedia": "pt:Programa_Saúde_da_Família",
        "building": "yes",
        "fixme": "Verificar coordenadas",
        "healthcare": "yes",
        "name": "Programa Saúde da Família",
        "note": "Sem dados para deslocamento adicional para dentro da quadra",
        "operator": "Programa de Saúde da Família",
        "short_name": "PSF",
        "id": "node/12073307646"
      },
      "geometry": {
        "type": "Point",
        "coordinates": [
          -39.6603221,
          -18.0961246
        ]
      }
    },
    {
      "type": "Feature",
      "id": "node/12073308021",
      "properties": {
        "timestamp": "2024-07-25T10:42:03Z",
        "version": 1,
        "changeset": 154387190,
        "addr:housenumber": "342",
        "addr:postcode": "45930-000",
        "addr:street": "Rua Antônio Carlos Magalhães",
        "addr:suburb": "Pôr do Sol",
        "amenity": "clinic",
        "building": "yes",
        "healthcare": "rehabilitation",
        "name": "Clínica de Reabilitação",
        "id": "node/12073308021"
      },
      "geometry": {
        "type": "Point",
        "coordinates": [
          -39.5427918,
          -18.0724289
        ]
      }
    }
  ]
}
