{
  "type": "FeatureCollection",
  "features": [
    {
      "type": "Feature",
      "id": "node/12073284665",
      "properties": {
        "timestamp": "2024-07-25T10:41:21Z",
        "version": 1,
        "changeset": 154387148,
        "addr:housenumber": "595",
        "addr:postcode": "45936-000",
        "addr:street": "Avenida Minas Gerais",
        "addr:suburb": "Centro",
        "amenity": "dentist",
        "building": "yes",
        "name": "Dentista",
        "id": "node/12073284665"
      },
      "geometry": {
        "type": "Point",
        "coordinates": [
          -39.8625826,
          -18.0061402
        ]
      }
    },
    {
      "type": "Feature",
      "id": "node/12073296110",
      "properties": {
        "timestamp": "2024-07-25T10:41:00Z",
        "version": 1,
        "changeset": 154387148,
        "addr:housenumber": "528",
        "addr:postcode": "45936-000",
        "addr:street": "Avenida Salvador",
        "addr:suburb": "Centro",
        "amenity": "dentist",
        "building": "yes",
        "fixme": "Confirmar nome",
        "healthcare": "yes",
        "name": "Consultório Odontológico",
        "id": "node/12073296110"
      },
      "geometry": {
        "type": "Point",
        "coordinates": [
          -39.8631472,
          -18.0065632
        ]
      }
    },
    {
      "type": "Feature",
      "id": "node/12073298247",
      "properties": {
        "timestamp": "2024-07-25T10:41:09Z",
        "version": 1,
        "changeset": 154387148,
        "addr:housenumber": "26",
        "addr:postcode": "45936-000",
        "addr:street": "Avenida André Sousa Castro",
        "addr:suburb": "Gazinelandia",
        "addr:unit": "Frente 1",
        "amenity": "dentist",
        "building": "yes",
        "fixme": "Verificar coordenadas",
        "healthcare": "yes",
        "name": "Clínica Odontológica",
        "note": "Não foi possível projetar na face",
        "id": "node/12073298247"
      },
      "geometry": {
        "type": "Point",
        "coordinates": [
          -39.8646342,
          -18.004197
        ]
      }
    },
    {
      "type": "Feature",
      "id": "node/12073302161",
      "properties": {
        "timestamp": "2024-07-25T10:41:25Z",
        "version": 1,
        "changeset": 154387148,
        "addr:housenumber": "179",
        "addr:postcode": "45936-000",
        "addr:street": "Rua Alagoas",
        "addr:suburb": "Centro",
        "amenity": "dentist",
        "building": "yes",
        "fixme": "Confirmar nome",
        "healthcare": "yes",
        "name": "Consultório Odontológico",
        "id": "node/12073302161"
      },
      "geometry": {
        "type": "Point",
        "coordinates": [
          -39.8634069,
          -18.0039539
        ]
      }
    },
    {
      "type": "Feature",
      "id": "node/12073303895",
      "properties": {
        "timestamp": "2024-07-25T10:41:36Z",
        "version": 1,
        "changeset": 154387190,
        "addr:housenumber": "600",
        "addr:postcode": "45936-000",
        "addr:street": "Avenida Ilhéus",
        "addr:suburb": "Gazinelandia",
        "addr:unit": "Frente",
        "amenity": "dentist",
        "building": "yes",
        "fixme": "Confirmar nome",
        "healthcare": "yes",
        "name": "Consultório Odontológico",
        "id": "node/12073303895"
      },
      "geometry": {
        "type": "Point",
        "coordinates": [
          -39.8653412,
          -18.0027803
        ]
      }
    },
    {
      "type": "Feature",
      "id": "node/12073305951",
      "properties": {
        "timestamp": "2024-07-25T10:41:52Z",
        "version": 1,
        "changeset": 154387190,
        "addr:housenumber": "345",
        "addr:postcode": "45936-000",
        "addr:street": "Avenida Salvador",
        "addr:suburb": "Centro",
        "addr:unit": "Térreo Loja 1",
        "amenity": "dentist",
        "building": "yes",
        "fixme": "Confirmar nome",
        "name": "Consultório Odontológico",
        "id": "node/12073305951"
      },
      "geometry": {
        "type": "Point",
        "coordinates": [
          -39.8634973,
          -18.0084423
        ]
      }
    },
    {
      "type": "Feature",
      "id": "node/12073306971",
      "properties": {
        "timestamp": "2024-07-25T10:41:59Z",
        "version": 1,
        "changeset": 154387190,
        "addr:housenumber": "501",
        "addr:postcode": "45930-000",
        "addr:street": "Avenida Central",
        "addr:suburb": "Centro",
        "addr:unit": "Sobrado",
        "amenity": "dentist",
        "building": "yes",
        "name": "Consultório Odontológico Valéria Pacheco",
        "id": "node/12073306971"
      },
      "geometry": {
        "type": "Point",
        "coordinates": [
          -39.547659,
          -18.0796426
        ]
      }
    },
    {
      "type": "Feature",
      "id": "node/12073307396",
      "properties": {
        "timestamp": "2024-07-25T10:41:59Z",
        "version": 1,
        "changeset": 154387190,
        "addr:housenumber": "625",
        "addr:postcode": "45936-000",
        "addr:street": "Avenida Amazonas",
        "addr:suburb": "Centro",
        "amenity": "dentist",
        "building": "yes",
        "healthcare": "yes",
        "name": "Clínica Odontológica",
        "id": "node/12073307396"
      },
      "geometry": {
        "type": "Point",
        "coordinates": [
          -39.8637835,
          -18.0051038
        ]
      }
    },
    {
      "type": "Feature",
      "id": "node/12073309687",
      "properties": {
        "timestamp": "2024-07-25T10:42:19Z",
        "version": 1,
        "changeset": 154387190,
        "addr:housenumber": "1469",
        "addr:postcode": "45930-000",
        "addr:street": "Avenida Central",
        "addr:suburb": "Pôr do Sol",
        "addr:unit": "Térreo",
        "amenity": "dentist",
        "building": "yes",
        "fixme": "Confirmar nome;Verificar coordenadas",
        "healthcare": "yes",
        "name": "Consultório Odontológico",
        "note": "Sem dados para deslocamento adicional para dentro da quadra",
        "id": "node/12073309687"
      },
      "geometry": {
        "type": "Point",
        "coordinates": [
          -39.5430463,
          -18.0714891
        ]
      }
    },
    {
      "type": "Feature",
      "id": "node/12073310953",
      "properties": {
        "timestamp": "2024-07-25T10:42:24Z",
        "version": 1,
        "changeset": 154387190,
        "addr:housenumber": "117",
        "addr:postcode": "45930-000",
        "addr:street": "Rua Raul Gazzinelli",
        "addr:suburb": "Centro",
        "addr:unit": "Térreo",
        "amenity": "dentist",
        "building": "yes",
        "fixme": "Confirmar nome",
        "healthcare": "yes",
        "name": "Consultório Odontológico",
        "id": "node/12073310953"
      },
      "geometry": {
        "type": "Point",
        "coordinates": [
          -39.5494467,
          -18.0820861
        ]
      }
    },
    {
      "type": "Feature",
      "id": "node/12073312586",
      "properties": {
        "timestamp": "2024-07-25T10:42:30Z",
        "version": 1,
        "changeset": 154387190,
        "addr:housenumber": "2125",
        "addr:postcode": "45930-000",
        "addr:street": "Avenida Central",
        "addr:suburb": "Jardim das Tartarugas",
        "amenity": "dentist",
        "building": "yes",
        "fixme": "Verificar coordenadas",
        "healthcare": "yes",
        "name": "Clínica Odontológica",
        "note": "Sem dados para deslocamento adicional para dentro da quadra",
        "id": "node/12073312586"
      },
      "geometry": {
        "type": "Point",
        "coordinates": [
          -39.5409824,
          -18.0680959
        ]
      }
    },
    {
      "type": "Feature",
      "id": "node/12073312734",
      "properties": {
        "timestamp": "2024-07-25T10:42:30Z",
        "version": 1,
        "changeset": 154387190,
        "addr:housenumber": "128",
        "addr:postcode": "45930-000",
        "addr:street": "Rua Copa Setenta",
        "addr:suburb": "Centro",
        "addr:unit": "Sobrado",
        "amenity": "dentist",
        "building": "yes",
        "fixme": "Confirmar nome",
        "healthcare": "yes",
        "name": "Consultório Odontológico",
        "id": "node/12073312734"
      },
      "geometry": {
        "type": "Point",
        "coordinates": [
          -39.5491565,
          -18.0825503
        ]
      }
    }
  ]
}
