{
  "type": "FeatureCollection",
  "features": [
    {
      "type": "Feature",
      "id": "way/1147331499",
      "properties": {
        "timestamp": "2024-07-26T17:24:10Z",
        "version": 2,
        "changeset": 154453717,
        "addr:city": "Mucuri",
        "addr:housenumber": "162",
        "addr:postcode": "45930-000",
        "addr:street": "Avenida Vindilino Lima",
        "addr:suburb": "Taquarinha",
        "building": "yes",
        "building:levels": "1",
        "government": "agriculture",
        "name": "Adab",
        "office": "government",
        "source": "microsoft/BuildingFootprints",
        "id": "way/1147331499"
      },
      "geometry": {
        "type": "Polygon",
        "coordinates": [
          [
            [
              -40.2381758,
              -17.9436916
            ],
            [
              -40.238244,
              -17.9436919
            ],
            [
              -40.2382436,
              -17.9437634
            ],
            [
              -40.2381754,
              -17.943763
            ],
            [
              -40.2381758,
              -17.9436916
            ]
          ]
        ]
      }
    },
    {
      "type": "Feature",
      "id": "way/1147331839",
      "properties": {
        "timestamp": "2024-07-26T17:24:10Z",
        "version": 2,
        "changeset": 154453717,
        "addr:housenumber": "39",
        "addr:postcode": "45930-000",
        "addr:street": "Rua Sub Prefeitura",
        "addr:suburb": "Taquarinha",
        "building": "yes",
        "building:levels": "1",
        "name": "Sub Prefeitura",
        "office": "government",
        "source": "microsoft/BuildingFootprints",
        "id": "way/1147331839"
      },
      "geometry": {
        "type": "Polygon",
        "coordinates": [
          [
            [
              -40.238115,
              -17.9440753
            ],
            [
              -40.2380239,
              -17.9440763
            ],
            [
              -40.2380231,
              -17.94401
            ],
            [
              -40.2381142,
              -17.944009
            ],
            [
              -40.238115,
              -17.9440753
            ]
          ]
        ]
      }
    },
    {
      "type": "Feature",
      "id": "way/1302502037",
      "properties": {
        "timestamp": "2024-07-19T13:05:57Z",
        "version": 1,
        "changeset": 154142875,
        "addr:city": "Mucuri",
        "addr:district": "Itabatã",
        "addr:postcode": "45930-000",
        "addr:street": "Praça Nações Unidas",
        "addr:suburb": "Gazinelândia",
        "building": "yes",
        "building:levels": "1",
        "email": "aps04023160@inss.gov.br",
        "government": "social_security",
        "name": "Agência da Previdência Social em Mucuri",
        "office": "government",
        "operator": "Instituto Nacional do Seguro Social",
        "operator:short": "INSS",
        "operator:wikidata": "Q10302614",
        "phone": "+55 73 3605 2626",
        "id": "way/1302502037"
      },
      "geometry": {
        "type": "Polygon",
        "coordinates": [
          [
            [
              -39.8657315,
              -18.0015538
            ],
            [
              -39.865693,
              -18.0016588
            ],
            [
              -39.8655363,
              -18.0016067
            ],
            [
              -39.8655341,
              -18.0016127
            ],
            [
              -39.8654788,
              -18.0015943
            ],
            [
              -39.8654895,
              -18.0015652
            ],
            [
              -39.8654466,
              -18.001551
            ],
            [
              -39.8654766,
              -18.0014691
            ],
            [
              -39.8657315,
              -18.0015538
            ]
          ]
        ]
      }
    },
    {
      "type": "Feature",
      "id": "node/10662982452",
      "properties": {
        "timestamp": "2023-10-12T00:24:39Z",
        "version": 2,
        "changeset": 142456074,
        "addr:city": "Mucuri",
        "addr:postcode": "45930-000",
        "addr:street": "Rodovia Governador Mário Covas",
        "government": "tax",
        "name": "Posto de Fiscal Eduardo Freire",
        "office": "government",
        "operator": "Secretaria de Estado da Fazenda da Bahia",
        "id": "node/10662982452"
      },
      "geometry": {
        "type": "Point",
        "coordinates": [
          -39.8856548,
          -18.1122002
        ]
      }
    },
    {
      "type": "Feature",
      "id": "node/11157105133",
      "properties": {
        "timestamp": "2023-08-30T17:26:13Z",
        "version": 1,
        "changeset": 140600651,
        "addr:city": "Mucuri",
        "addr:postcode": "45930-000",
        "addr:street": "Avenida Central",
        "addr:suburb": "Centro",
        "government": "administrative",
        "name": "Secretaria Municipal de Obras e Servicos Urbanos",
        "office": "government",
        "phone": "+55 73",
        "id": "node/11157105133"
      },
      "geometry": {
        "type": "Point",
        "coordinates": [
          -39.5494863,
          -18.0827976
        ]
      }
    },
    {
      "type": "Feature",
      "id": "node/11157105134",
      "properties": {
        "timestamp": "2023-08-30T17:26:13Z",
        "version": 1,
        "changeset": 140600651,
        "addr:city": "Mucuri",
        "addr:street": "Avenida Central",
        "government": "administrative",
        "name": "Departamento Municipal de Tributação",
        "office": "government",
        "id": "node/11157105134"
      },
      "geometry": {
        "type": "Point",
        "coordinates": [
          -39.5495825,
          -18.0829552
        ]
      }
    },
    {
      "type": "Feature",
      "id": "node/11380320131",
      "properties": {
        "timestamp": "2024-06-24T20:47:50Z",
        "version": 3,
        "changeset": 153130130,
        "addr:city": "Mucuri",
        "addr:street": "Rua do Coqueiro",
        "addr:suburb": "Centro",
        "name": "Gabinete do Prefeito Municipal",
        "office": "government",
        "opening_hours": "Mo-Fr 08:00-14:00",
        "phone": "+55 73 3206-1020",
        "website": "https://www.mucuri.ba.gov.br/",
        "id": "node/11380320131"
      },
      "geometry": {
        "type": "Point",
        "coordinates": [
          -39.5509767,
          -18.0869684
        ]
      }
    },
    {
      "type": "Feature",
      "id": "node/11380320135",
      "properties": {
        "timestamp": "2023-11-27T20:34:05Z",
        "version": 1,
        "changeset": 144523338,
        "name": "Secretaria Municipal de Administração",
        "office": "government",
        "id": "node/11380320135"
      },
      "geometry": {
        "type": "Point",
        "coordinates": [
          -39.5473811,
          -18.0845158
        ]
      }
    },
    {
      "type": "Feature",
      "id": "node/12073295975",
      "properties": {
        "timestamp": "2024-07-25T10:41:00Z",
        "version": 1,
        "changeset": 154387148,
        "addr:housenumber": "290",
        "addr:postcode": "45930-000",
        "addr:street": "Rua Oscar Teixeira Siqueira",
        "addr:suburb": "Pôr do Sol",
        "amenity": "townhall",
        "building": "yes",
        "government": "legislative",
        "name": "Câmara Municipal",
        "office": "government",
        "townhall:type": "city",
        "id": "node/12073295975"
      },
      "geometry": {
        "type": "Point",
        "coordinates": [
          -39.5453475,
          -18.0786584
        ]
      }
    },
    {
      "type": "Feature",
      "id": "node/12073296470",
      "properties": {
        "timestamp": "2024-07-25T10:41:00Z",
        "version": 1,
        "changeset": 154387148,
        "addr:housenumber": "605",
        "addr:postcode": "45936-000",
        "addr:street": "Avenida Minas Gerais",
        "addr:suburb": "Centro",
        "building": "yes",
        "government": "social_services",
        "name": "Centro de Referência Especializado da Assistência Social",
        "office": "government",
        "official_name": "Centro de Referência Especializado de Assistência Social",
        "short_name": "CREAS",
        "id": "node/12073296470"
      },
      "geometry": {
        "type": "Point",
        "coordinates": [
          -39.8625713,
          -18.006099
        ]
      }
    },
    {
      "type": "Feature",
      "id": "node/12073296795",
      "properties": {
        "timestamp": "2024-07-25T10:41:00Z",
        "version": 1,
        "changeset": 154387148,
        "addr:housenumber": "384",
        "addr:postcode": "45936-000",
        "addr:street": "Avenida Amazonas",
        "addr:suburb": "Centro",
        "building": "yes",
        "government": "youth_welfare_department",
        "name": "Conselho Tutelar",
        "office": "government",
        "id": "node/12073296795"
      },
      "geometry": {
        "type": "Point",
        "coordinates": [
          -39.8640735,
          -18.0073569
        ]
      }
    },
    {
      "type": "Feature",
      "id": "node/12073300685",
      "properties": {
        "timestamp": "2024-07-26T15:41:09Z",
        "version": 2,
        "changeset": 154449395,
        "addr:housenumber": "283",
        "addr:postcode": "45936-000",
        "addr:street": "Avenida Minas Gerais",
        "addr:suburb": "Centro",
        "building": "yes",
        "government": "social_welfare",
        "name": "Centro de Referência da Assistência Social",
        "office": "government",
        "official_name": "Centro de Referência da Assistência Social",
        "short_name": "CRAS",
        "id": "node/12073300685"
      },
      "geometry": {
        "type": "Point",
        "coordinates": [
          -39.8628468,
          -18.00921
        ]
      }
    },
    {
      "type": "Feature",
      "id": "node/12073301815",
      "properties": {
        "timestamp": "2024-07-25T10:41:25Z",
        "version": 1,
        "changeset": 154387148,
        "addr:housenumber": "222",
        "addr:postcode": "45930-000",
        "addr:street": "Rua Canárias",
        "addr:suburb": "Centro",
        "amenity": "townhall",
        "building": "public",
        "name": "Prefeitura Municipal de Mucuri",
        "office": "government",
        "id": "node/12073301815"
      },
      "geometry": {
        "type": "Point",
        "coordinates": [
          -39.545149,
          -18.0801856
        ]
      }
    },
    {
      "type": "Feature",
      "id": "node/12073302224",
      "properties": {
        "timestamp": "2024-07-25T10:41:25Z",
        "version": 1,
        "changeset": 154387148,
        "addr:housenumber": "277",
        "addr:postcode": "45930-000",
        "addr:street": "Rua Jovita Fontes",
        "addr:suburb": "Centro",
        "amenity": "register_office",
        "building": "yes",
        "government": "register_office",
        "name": "Cartório de Registro de Imóveis",
        "office": "government",
        "id": "node/12073302224"
      },
      "geometry": {
        "type": "Point",
        "coordinates": [
          -39.5510167,
          -18.0872908
        ]
      }
    },
    {
      "type": "Feature",
      "id": "node/12073310188",
      "properties": {
        "timestamp": "2024-07-25T10:42:19Z",
        "version": 1,
        "changeset": 154387190,
        "addr:housenumber": "43",
        "addr:postcode": "45936-000",
        "addr:street": "Rua Estados Unidos",
        "addr:suburb": "Cidade Nova",
        "amenity": "social_facility",
        "brand:wikidata": "Q12346028",
        "brand:wikipedia": "Centro_de_Atenção_Psicossocial",
        "building": "yes",
        "healthcare": "yes",
        "name": "Centro de Atenção Psicossocial",
        "office": "government",
        "short_name": "CAPS",
        "id": "node/12073310188"
      },
      "geometry": {
        "type": "Point",
        "coordinates": [
          -39.8595082,
          -18.0071556
        ]
      }
    },
    {
      "type": "Feature",
      "id": "node/12073311436",
      "properties": {
        "timestamp": "2024-07-25T10:42:24Z",
        "version": 1,
        "changeset": 154387190,
        "addr:housenumber": "34",
        "addr:postcode": "45930-000",
        "addr:street": "Rua Aquarela",
        "addr:suburb": "Centro",
        "building": "yes",
        "government": "youth_welfare_department",
        "name": "Conselho Tutelar Regional 1",
        "office": "government",
        "id": "node/12073311436"
      },
      "geometry": {
        "type": "Point",
        "coordinates": [
          -39.544507,
          -18.0789847
        ]
      }
    }
  ]
}
