{
  "type": "FeatureCollection",
  "features": [
    {
      "type": "Feature",
      "id": "node/12073273648",
      "properties": {
        "timestamp": "2024-07-25T10:40:48Z",
        "version": 1,
        "changeset": 154387148,
        "addr:housenumber": "27",
        "addr:postcode": "45930-000",
        "addr:street": "Rua Principal",
        "addr:suburb": "Praia dos Coqueiros",
        "building": "yes",
        "fixme": "Confirmar nome;Verificar coordenadas",
        "name": "Pousada",
        "note": "Sem setor ou quadra no bayface do IBGE 292200305000031|58 5",
        "tourism": "guest_house",
        "id": "node/12073273648"
      },
      "geometry": {
        "type": "Point",
        "coordinates": [
          -39.6399112,
          -18.2489151
        ]
      }
    },
    {
      "type": "Feature",
      "id": "node/12073292838",
      "properties": {
        "timestamp": "2024-07-25T10:40:40Z",
        "version": 1,
        "changeset": 154387148,
        "addr:housenumber": "85",
        "addr:postcode": "45930-000",
        "addr:street": "Rua Jorge Amado",
        "addr:suburb": "Pôr do Sol",
        "building": "yes",
        "name": "Pousada Sol",
        "tourism": "guest_house",
        "id": "node/12073292838"
      },
      "geometry": {
        "type": "Point",
        "coordinates": [
          -39.5419532,
          -18.0763101
        ]
      }
    },
    {
      "type": "Feature",
      "id": "node/12073292917",
      "properties": {
        "timestamp": "2024-07-25T10:40:40Z",
        "version": 1,
        "changeset": 154387148,
        "addr:housenumber": "603",
        "addr:postcode": "45930-000",
        "addr:street": "Rodovia BR BA 698",
        "addr:suburb": "BR BA 698",
        "addr:unit": "Conjunto 603",
        "building": "yes",
        "fixme": "Verificar coordenadas",
        "name": "Pousada Pelourinho",
        "note": "Sem dados para deslocamento adicional para dentro da quadra",
        "tourism": "guest_house",
        "id": "node/12073292917"
      },
      "geometry": {
        "type": "Point",
        "coordinates": [
          -39.5473738,
          -18.0785146
        ]
      }
    },
    {
      "type": "Feature",
      "id": "node/12073293714",
      "properties": {
        "timestamp": "2024-07-25T10:40:48Z",
        "version": 1,
        "changeset": 154387148,
        "addr:housenumber": "6",
        "addr:postcode": "45930-000",
        "addr:street": "Avenida Principal",
        "addr:suburb": "Costa Dourada",
        "building": "yes",
        "name": "Pousada Toca da Coruja",
        "tourism": "guest_house",
        "id": "node/12073293714"
      },
      "geometry": {
        "type": "Point",
        "coordinates": [
          -39.6441454,
          -18.2582219
        ]
      }
    },
    {
      "type": "Feature",
      "id": "node/12073293978",
      "properties": {
        "timestamp": "2024-07-25T10:40:48Z",
        "version": 1,
        "changeset": 154387148,
        "addr:housenumber": "50",
        "addr:postcode": "45936-000",
        "addr:street": "Rua Jorge Borges Jahel",
        "addr:suburb": "Centro",
        "building": "yes",
        "name": "Pousada Spalla Fundos",
        "tourism": "guest_house",
        "id": "node/12073293978"
      },
      "geometry": {
        "type": "Point",
        "coordinates": [
          -39.862153,
          -18.0082539
        ]
      }
    },
    {
      "type": "Feature",
      "id": "node/12073294153",
      "properties": {
        "timestamp": "2024-07-25T10:40:48Z",
        "version": 1,
        "changeset": 154387148,
        "addr:housenumber": "1629",
        "addr:postcode": "45930-000",
        "addr:street": "Avenida Central",
        "addr:suburb": "Jardim das Tartarugas",
        "building": "yes",
        "fixme": "Verificar coordenadas",
        "name": "Pousada Tarumã",
        "note": "Sem dados para deslocamento adicional para dentro da quadra",
        "tourism": "guest_house",
        "id": "node/12073294153"
      },
      "geometry": {
        "type": "Point",
        "coordinates": [
          -39.5424191,
          -18.0704616
        ]
      }
    },
    {
      "type": "Feature",
      "id": "node/12073295183",
      "properties": {
        "timestamp": "2024-07-25T10:40:56Z",
        "version": 1,
        "changeset": 154387148,
        "addr:housenumber": "62",
        "addr:postcode": "45936-000",
        "addr:street": "Rua Paraguai",
        "addr:suburb": "Cidade Nova",
        "building": "yes",
        "name": "Pousada Taylor",
        "tourism": "guest_house",
        "id": "node/12073295183"
      },
      "geometry": {
        "type": "Point",
        "coordinates": [
          -39.8593959,
          -18.0098389
        ]
      }
    },
    {
      "type": "Feature",
      "id": "node/12073295319",
      "properties": {
        "timestamp": "2024-07-25T10:40:56Z",
        "version": 1,
        "changeset": 154387148,
        "addr:housenumber": "445",
        "addr:postcode": "45930-000",
        "addr:street": "Rua Oscar Teixeira Siqueira",
        "addr:suburb": "Centro",
        "building": "yes",
        "name": "Pousada Barramares",
        "tourism": "guest_house",
        "id": "node/12073295319"
      },
      "geometry": {
        "type": "Point",
        "coordinates": [
          -39.5465454,
          -18.0783268
        ]
      }
    },
    {
      "type": "Feature",
      "id": "node/12073296247",
      "properties": {
        "timestamp": "2024-07-25T10:41:00Z",
        "version": 1,
        "changeset": 154387148,
        "addr:housenumber": "77",
        "addr:postcode": "45930-000",
        "addr:street": "Rua Antônio Carlos Magalhães",
        "addr:suburb": "Pôr do Sol",
        "building": "yes",
        "fixme": "Verificar coordenadas",
        "name": "Pousada Kambuka",
        "note": "Sem dados para deslocamento adicional para dentro da quadra",
        "tourism": "guest_house",
        "id": "node/12073296247"
      },
      "geometry": {
        "type": "Point",
        "coordinates": [
          -39.5402557,
          -18.0736958
        ]
      }
    },
    {
      "type": "Feature",
      "id": "node/12073296399",
      "properties": {
        "timestamp": "2024-07-25T10:41:00Z",
        "version": 1,
        "changeset": 154387148,
        "addr:housenumber": "221",
        "addr:postcode": "45936-000",
        "addr:street": "Rua Ipiranga",
        "addr:suburb": "Triângulo Leal",
        "building": "yes",
        "fixme": "Confirmar nome",
        "name": "Pousada",
        "tourism": "guest_house",
        "id": "node/12073296399"
      },
      "geometry": {
        "type": "Point",
        "coordinates": [
          -39.874345,
          -17.9953759
        ]
      }
    },
    {
      "type": "Feature",
      "id": "node/12073297147",
      "properties": {
        "timestamp": "2024-07-25T10:41:05Z",
        "version": 1,
        "changeset": 154387148,
        "addr:housenumber": "22",
        "addr:postcode": "45930-000",
        "addr:street": "Rua 1",
        "addr:suburb": "Costa Dourada",
        "amenity": "restaurant",
        "building": "yes",
        "fixme": "Verificar coordenadas",
        "name": "Pousada e Restaurante Locaxa",
        "note": "Sem setor ou quadra no bayface do IBGE 292200305000031|18 1",
        "tourism": "guest_house",
        "id": "node/12073297147"
      },
      "geometry": {
        "type": "Point",
        "coordinates": [
          -39.6466903,
          -18.2646844
        ]
      }
    },
    {
      "type": "Feature",
      "id": "node/12073297234",
      "properties": {
        "timestamp": "2024-07-25T10:41:05Z",
        "version": 1,
        "changeset": 154387148,
        "addr:housenumber": "15",
        "addr:postcode": "45930-000",
        "addr:street": "Rua Sagrada Família",
        "addr:suburb": "Praia dos Coqueiros",
        "building": "yes",
        "fixme": "Confirmar nome;Verificar coordenadas",
        "name": "Pousada",
        "note": "Sem setor ou quadra no bayface do IBGE 292200305000031|58 3",
        "tourism": "guest_house",
        "id": "node/12073297234"
      },
      "geometry": {
        "type": "Point",
        "coordinates": [
          -39.6395139,
          -18.248534
        ]
      }
    },
    {
      "type": "Feature",
      "id": "node/12073297610",
      "properties": {
        "timestamp": "2024-07-25T10:41:05Z",
        "version": 1,
        "changeset": 154387148,
        "addr:housenumber": "399",
        "addr:postcode": "45936-000",
        "addr:street": "Avenida Espírito Santo",
        "addr:suburb": "Centro",
        "addr:unit": "Andar 1",
        "building": "yes",
        "fixme": "Verificar coordenadas",
        "name": "Pousada Abrolhos",
        "note": "Sem dados para deslocamento adicional para dentro da quadra",
        "tourism": "guest_house",
        "id": "node/12073297610"
      },
      "geometry": {
        "type": "Point",
        "coordinates": [
          -39.8618219,
          -18.0097968
        ]
      }
    },
    {
      "type": "Feature",
      "id": "node/12073297793",
      "properties": {
        "timestamp": "2024-07-25T10:41:05Z",
        "version": 1,
        "changeset": 154387148,
        "addr:housenumber": "251",
        "addr:postcode": "45936-000",
        "addr:street": "Avenida Espírito Santo",
        "addr:suburb": "Centro",
        "building": "yes",
        "name": "Pousada e Restauante Junata",
        "tourism": "guest_house",
        "id": "node/12073297793"
      },
      "geometry": {
        "type": "Point",
        "coordinates": [
          -39.8620311,
          -18.0116801
        ]
      }
    },
    {
      "type": "Feature",
      "id": "node/12073298356",
      "properties": {
        "timestamp": "2024-07-25T10:41:09Z",
        "version": 1,
        "changeset": 154387148,
        "addr:housenumber": "381",
        "addr:postcode": "45930-000",
        "addr:street": "Rua Três Corações",
        "addr:suburb": "Centro",
        "building": "yes",
        "name": "Pousada Residencial Castelinho",
        "tourism": "guest_house",
        "id": "node/12073298356"
      },
      "geometry": {
        "type": "Point",
        "coordinates": [
          -39.5484997,
          -18.0848061
        ]
      }
    },
    {
      "type": "Feature",
      "id": "node/12073299326",
      "properties": {
        "timestamp": "2024-07-25T10:41:17Z",
        "version": 1,
        "changeset": 154387148,
        "addr:housenumber": "447",
        "addr:postcode": "45930-000",
        "addr:street": "Rua Copa Setenta",
        "addr:suburb": "Centro",
        "addr:unit": "Casa 1",
        "building": "yes",
        "name": "Pousada Quebra Mar",
        "tourism": "guest_house",
        "id": "node/12073299326"
      },
      "geometry": {
        "type": "Point",
        "coordinates": [
          -39.5484492,
          -18.0830819
        ]
      }
    },
    {
      "type": "Feature",
      "id": "node/12073300134",
      "properties": {
        "timestamp": "2024-07-25T10:41:17Z",
        "version": 1,
        "changeset": 154387148,
        "addr:housenumber": "62",
        "addr:postcode": "45930-000",
        "addr:street": "Rua Édna Vieira",
        "addr:suburb": "Centro",
        "building": "yes",
        "name": "Pousada Nossa Senhora da Aparecida",
        "tourism": "guest_house",
        "id": "node/12073300134"
      },
      "geometry": {
        "type": "Point",
        "coordinates": [
          -39.5461347,
          -18.0863188
        ]
      }
    },
    {
      "type": "Feature",
      "id": "node/12073300534",
      "properties": {
        "timestamp": "2024-07-25T10:41:21Z",
        "version": 1,
        "changeset": 154387148,
        "addr:housenumber": "262",
        "addr:postcode": "45936-000",
        "addr:street": "Avenida Minas Gerais",
        "addr:suburb": "Centro",
        "building": "yes",
        "fixme": "Verificar coordenadas",
        "name": "Pousada Varandas",
        "note": "Sem dados para deslocamento adicional para dentro da quadra",
        "tourism": "guest_house",
        "id": "node/12073300534"
      },
      "geometry": {
        "type": "Point",
        "coordinates": [
          -39.8627363,
          -18.00949
        ]
      }
    },
    {
      "type": "Feature",
      "id": "node/12073300875",
      "properties": {
        "timestamp": "2024-07-25T10:41:21Z",
        "version": 1,
        "changeset": 154387148,
        "addr:housenumber": "640",
        "addr:postcode": "45936-000",
        "addr:street": "Avenida Minas Gerais",
        "addr:suburb": "Centro",
        "building": "yes",
        "name": "Pousada Sem Morador",
        "tourism": "guest_house",
        "id": "node/12073300875"
      },
      "geometry": {
        "type": "Point",
        "coordinates": [
          -39.8623718,
          -18.0058791
        ]
      }
    },
    {
      "type": "Feature",
      "id": "node/12073301234",
      "properties": {
        "timestamp": "2024-07-25T10:41:21Z",
        "version": 1,
        "changeset": 154387148,
        "addr:housenumber": "50",
        "addr:postcode": "45936-000",
        "addr:street": "Rua Jorge Borges Jahel",
        "addr:suburb": "Centro",
        "addr:unit": "Loja",
        "building": "yes",
        "name": "Pousada Spalla",
        "tourism": "guest_house",
        "id": "node/12073301234"
      },
      "geometry": {
        "type": "Point",
        "coordinates": [
          -39.862134,
          -18.008272
        ]
      }
    },
    {
      "type": "Feature",
      "id": "node/12073301589",
      "properties": {
        "timestamp": "2024-07-25T10:41:25Z",
        "version": 1,
        "changeset": 154387148,
        "addr:housenumber": "814",
        "addr:postcode": "45930-000",
        "addr:street": "Rua Corumbá",
        "addr:suburb": "Pôr do Sol",
        "building": "yes",
        "name": "Pousada Sol e Lua",
        "tourism": "guest_house",
        "id": "node/12073301589"
      },
      "geometry": {
        "type": "Point",
        "coordinates": [
          -39.5404033,
          -18.0730652
        ]
      }
    },
    {
      "type": "Feature",
      "id": "node/12073301779",
      "properties": {
        "timestamp": "2024-07-25T10:41:25Z",
        "version": 1,
        "changeset": 154387148,
        "addr:housenumber": "103",
        "addr:postcode": "45936-000",
        "addr:street": "Rua Itália",
        "addr:suburb": "Cidade Nova",
        "building": "yes",
        "name": "Pousada Recanto",
        "tourism": "guest_house",
        "id": "node/12073301779"
      },
      "geometry": {
        "type": "Point",
        "coordinates": [
          -39.8597518,
          -18.0081059
        ]
      }
    },
    {
      "type": "Feature",
      "id": "node/12073302060",
      "properties": {
        "timestamp": "2024-07-25T10:41:25Z",
        "version": 1,
        "changeset": 154387148,
        "addr:housenumber": "37",
        "addr:postcode": "45936-000",
        "addr:street": "Avenida Costa Rica",
        "addr:suburb": "Cidade Nova",
        "building": "yes",
        "name": "Pousada da Odete",
        "tourism": "guest_house",
        "id": "node/12073302060"
      },
      "geometry": {
        "type": "Point",
        "coordinates": [
          -39.8598512,
          -18.0084558
        ]
      }
    },
    {
      "type": "Feature",
      "id": "node/12073302158",
      "properties": {
        "timestamp": "2024-07-25T10:41:25Z",
        "version": 1,
        "changeset": 154387148,
        "addr:housenumber": "122",
        "addr:postcode": "45930-000",
        "addr:street": "Rua Copa Setenta",
        "addr:suburb": "Malvinas",
        "building": "yes",
        "fixme": "Confirmar nome",
        "name": "Pousada",
        "tourism": "guest_house",
        "id": "node/12073302158"
      },
      "geometry": {
        "type": "Point",
        "coordinates": [
          -39.5455925,
          -18.0845061
        ]
      }
    },
    {
      "type": "Feature",
      "id": "node/12073302163",
      "properties": {
        "timestamp": "2024-07-25T10:41:25Z",
        "version": 1,
        "changeset": 154387148,
        "addr:housenumber": "33",
        "addr:postcode": "45936-000",
        "addr:street": "Avenida Costa Rica",
        "addr:suburb": "Cidade Nova",
        "addr:unit": "Garagem Esquina",
        "building": "yes",
        "name": "Garagem da Pousada Odete",
        "tourism": "guest_house",
        "id": "node/12073302163"
      },
      "geometry": {
        "type": "Point",
        "coordinates": [
          -39.8597914,
          -18.0086493
        ]
      }
    },
    {
      "type": "Feature",
      "id": "node/12073303296",
      "properties": {
        "timestamp": "2024-07-25T10:41:30Z",
        "version": 1,
        "changeset": 154387148,
        "addr:housenumber": "26",
        "addr:postcode": "45936-000",
        "addr:street": "Avenida André Sousa Castro",
        "addr:suburb": "Gazinelandia",
        "addr:unit": "Casa Lado",
        "building": "yes",
        "fixme": "Verificar coordenadas",
        "name": "Lavanderia da Pousada Thayná",
        "note": "Não foi possível projetar na face",
        "shop": "laundry",
        "tourism": "guest_house",
        "id": "node/12073303296"
      },
      "geometry": {
        "type": "Point",
        "coordinates": [
          -39.8646174,
          -18.0042199
        ]
      }
    },
    {
      "type": "Feature",
      "id": "node/12073303322",
      "properties": {
        "timestamp": "2024-07-25T10:41:30Z",
        "version": 1,
        "changeset": 154387148,
        "addr:housenumber": "812",
        "addr:postcode": "45930-000",
        "addr:street": "Rua Governador Valadares",
        "addr:suburb": "Centro",
        "building": "yes",
        "name": "Pousada Rota do Sol",
        "tourism": "guest_house",
        "id": "node/12073303322"
      },
      "geometry": {
        "type": "Point",
        "coordinates": [
          -39.5462461,
          -18.0803194
        ]
      }
    },
    {
      "type": "Feature",
      "id": "node/12073303904",
      "properties": {
        "timestamp": "2024-07-25T10:41:36Z",
        "version": 1,
        "changeset": 154387190,
        "addr:housenumber": "838",
        "addr:postcode": "45930-000",
        "addr:street": "Rua Corumbá",
        "addr:suburb": "Pôr do Sol",
        "building": "yes",
        "fixme": "Confirmar nome",
        "name": "Pousada",
        "tourism": "guest_house",
        "id": "node/12073303904"
      },
      "geometry": {
        "type": "Point",
        "coordinates": [
          -39.5402147,
          -18.0727232
        ]
      }
    },
    {
      "type": "Feature",
      "id": "node/12073304656",
      "properties": {
        "timestamp": "2024-07-25T10:41:41Z",
        "version": 1,
        "changeset": 154387190,
        "addr:housenumber": "514",
        "addr:postcode": "45930-000",
        "addr:street": "Rua São José",
        "addr:suburb": "Centro",
        "building": "yes",
        "name": "Pousada Pena",
        "tourism": "guest_house",
        "id": "node/12073304656"
      },
      "geometry": {
        "type": "Point",
        "coordinates": [
          -39.5494045,
          -18.084142
        ]
      }
    },
    {
      "type": "Feature",
      "id": "node/12073305878",
      "properties": {
        "timestamp": "2024-07-25T10:41:52Z",
        "version": 1,
        "changeset": 154387190,
        "addr:housenumber": "1453",
        "addr:postcode": "45930-000",
        "addr:street": "Avenida Central",
        "addr:suburb": "Pôr do Sol",
        "building": "yes",
        "fixme": "Verificar coordenadas",
        "name": "Pousada Labodeguita",
        "note": "Sem dados para deslocamento adicional para dentro da quadra",
        "tourism": "guest_house",
        "id": "node/12073305878"
      },
      "geometry": {
        "type": "Point",
        "coordinates": [
          -39.5433819,
          -18.0720543
        ]
      }
    },
    {
      "type": "Feature",
      "id": "node/12073306491",
      "properties": {
        "timestamp": "2024-07-25T10:41:52Z",
        "version": 1,
        "changeset": 154387190,
        "addr:housenumber": "50",
        "addr:postcode": "45930-000",
        "addr:street": "Avenida Peroba",
        "addr:suburb": "Pôr do Sol",
        "building": "yes",
        "name": "Pousada Sol Nascente",
        "tourism": "guest_house",
        "id": "node/12073306491"
      },
      "geometry": {
        "type": "Point",
        "coordinates": [
          -39.5422348,
          -18.0781246
        ]
      }
    },
    {
      "type": "Feature",
      "id": "node/12073306878",
      "properties": {
        "timestamp": "2024-07-25T10:41:59Z",
        "version": 1,
        "changeset": 154387190,
        "addr:housenumber": "350",
        "addr:postcode": "45930-000",
        "addr:street": "Rua Machado de Assis",
        "addr:suburb": "Costa Dourada",
        "building": "yes",
        "name": "Pousada Costa das Baleias",
        "tourism": "guest_house",
        "id": "node/12073306878"
      },
      "geometry": {
        "type": "Point",
        "coordinates": [
          -39.6496824,
          -18.2659323
        ]
      }
    },
    {
      "type": "Feature",
      "id": "node/12073307326",
      "properties": {
        "timestamp": "2024-07-25T10:41:59Z",
        "version": 1,
        "changeset": 154387190,
        "addr:housenumber": "161",
        "addr:postcode": "45930-000",
        "addr:street": "Avenida Central",
        "addr:suburb": "Centro",
        "building": "yes",
        "fixme": "Confirmar nome",
        "name": "Pousada",
        "tourism": "guest_house",
        "id": "node/12073307326"
      },
      "geometry": {
        "type": "Point",
        "coordinates": [
          -39.5491724,
          -18.0821655
        ]
      }
    },
    {
      "type": "Feature",
      "id": "node/12073308121",
      "properties": {
        "timestamp": "2024-07-25T10:42:03Z",
        "version": 1,
        "changeset": 154387190,
        "addr:housenumber": "75",
        "addr:postcode": "45936-000",
        "addr:street": "Rua Itabela",
        "addr:suburb": "Gazinelandia",
        "amenity": "pub",
        "building": "yes",
        "name": "Bar e Pousada",
        "tourism": "guest_house",
        "id": "node/12073308121"
      },
      "geometry": {
        "type": "Point",
        "coordinates": [
          -39.8636632,
          -17.999691
        ]
      }
    },
    {
      "type": "Feature",
      "id": "node/12073309961",
      "properties": {
        "timestamp": "2024-07-25T10:42:19Z",
        "version": 1,
        "changeset": 154387190,
        "addr:housenumber": "60",
        "addr:postcode": "45930-000",
        "addr:street": "Rua Ceará",
        "addr:suburb": "Costa Dourada",
        "building": "yes",
        "fixme": "Verificar coordenadas",
        "name": "Espaço Chic e Pousada Ipê Dourado",
        "note": "Sem setor ou quadra no bayface do IBGE 292200305000031|48 1",
        "tourism": "guest_house",
        "id": "node/12073309961"
      },
      "geometry": {
        "type": "Point",
        "coordinates": [
          -39.6476944,
          -18.2568405
        ]
      }
    },
    {
      "type": "Feature",
      "id": "node/12073310084",
      "properties": {
        "timestamp": "2024-07-25T10:42:19Z",
        "version": 1,
        "changeset": 154387190,
        "addr:housenumber": "180",
        "addr:postcode": "45930-000",
        "addr:street": "Rua Raul Gazzinelli",
        "addr:suburb": "Centro",
        "addr:unit": "Fundos Fds Kantuta",
        "building": "yes",
        "name": "Pousada Kantuta",
        "tourism": "guest_house",
        "id": "node/12073310084"
      },
      "geometry": {
        "type": "Point",
        "coordinates": [
          -39.549167,
          -18.0819538
        ]
      }
    },
    {
      "type": "Feature",
      "id": "node/12073311178",
      "properties": {
        "timestamp": "2024-07-25T10:42:24Z",
        "version": 1,
        "changeset": 154387190,
        "addr:housenumber": "521",
        "addr:postcode": "45936-000",
        "addr:street": "Avenida Espírito Santo",
        "addr:suburb": "Centro",
        "building": "yes",
        "name": "Pousada Eldora",
        "tourism": "guest_house",
        "id": "node/12073311178"
      },
      "geometry": {
        "type": "Point",
        "coordinates": [
          -39.8618034,
          -18.008805
        ]
      }
    },
    {
      "type": "Feature",
      "id": "node/12073311252",
      "properties": {
        "timestamp": "2024-07-25T10:42:24Z",
        "version": 1,
        "changeset": 154387190,
        "addr:housenumber": "199",
        "addr:postcode": "45930-000",
        "addr:street": "Rua dos Vereadores",
        "addr:suburb": "Pôr do Sol",
        "building": "yes",
        "name": "Pousada Mucuri",
        "tourism": "guest_house",
        "id": "node/12073311252"
      },
      "geometry": {
        "type": "Point",
        "coordinates": [
          -39.5427701,
          -18.0750476
        ]
      }
    },
    {
      "type": "Feature",
      "id": "node/12073311789",
      "properties": {
        "timestamp": "2024-07-25T10:42:30Z",
        "version": 1,
        "changeset": 154387190,
        "addr:housenumber": "42",
        "addr:postcode": "45930-000",
        "addr:street": "Rua Firmino Grifo Ribeiro",
        "addr:suburb": "Pôr do Sol",
        "building": "yes",
        "name": "Pousada Alpino",
        "tourism": "guest_house",
        "id": "node/12073311789"
      },
      "geometry": {
        "type": "Point",
        "coordinates": [
          -39.5412092,
          -18.0745813
        ]
      }
    },
    {
      "type": "Feature",
      "id": "node/12073312118",
      "properties": {
        "timestamp": "2024-07-25T10:42:30Z",
        "version": 1,
        "changeset": 154387190,
        "addr:housenumber": "43",
        "addr:postcode": "45936-000",
        "addr:street": "Avenida Costa Rica",
        "addr:suburb": "Cidade Nova",
        "building": "yes",
        "name": "Pousada Porto Seguro",
        "tourism": "guest_house",
        "id": "node/12073312118"
      },
      "geometry": {
        "type": "Point",
        "coordinates": [
          -39.8598048,
          -18.0084499
        ]
      }
    },
    {
      "type": "Feature",
      "id": "node/12073312650",
      "properties": {
        "timestamp": "2024-07-25T10:42:30Z",
        "version": 1,
        "changeset": 154387190,
        "addr:housenumber": "4",
        "addr:postcode": "45930-000",
        "addr:street": "Avenida Principal",
        "addr:suburb": "Costa Dourada",
        "building": "yes",
        "name": "Pousada do Painho",
        "tourism": "guest_house",
        "id": "node/12073312650"
      },
      "geometry": {
        "type": "Point",
        "coordinates": [
          -39.6450055,
          -18.2581278
        ]
      }
    },
    {
      "type": "Feature",
      "id": "node/12073312740",
      "properties": {
        "timestamp": "2024-07-25T10:42:30Z",
        "version": 1,
        "changeset": 154387190,
        "addr:housenumber": "12",
        "addr:postcode": "45930-000",
        "addr:street": "Rua Sem Denominação 27546",
        "addr:suburb": "Pôr do Sol",
        "building": "yes",
        "name": "Pousada Tartarua Park",
        "tourism": "guest_house",
        "id": "node/12073312740"
      },
      "geometry": {
        "type": "Point",
        "coordinates": [
          -39.540955,
          -18.0757011
        ]
      }
    },
    {
      "type": "Feature",
      "id": "node/12073312746",
      "properties": {
        "timestamp": "2024-07-25T10:42:30Z",
        "version": 1,
        "changeset": 154387190,
        "addr:housenumber": "411",
        "addr:postcode": "45936-000",
        "addr:street": "Avenida Minas Gerais",
        "addr:suburb": "Centro",
        "addr:unit": "Andar Segundo",
        "building": "yes",
        "name": "Pousada Vitória",
        "tourism": "guest_house",
        "id": "node/12073312746"
      },
      "geometry": {
        "type": "Point",
        "coordinates": [
          -39.8627179,
          -18.0078888
        ]
      }
    }
  ]
}
