{
  "type": "FeatureCollection",
  "features": [
    {
      "type": "Feature",
      "id": "node/1657929198",
      "properties": {
        "timestamp": "2012-03-03T19:18:46Z",
        "version": 1,
        "changeset": 10861210,
        "name": "Pousadinha",
        "tourism": "hotel",
        "id": "node/1657929198"
      },
      "geometry": {
        "type": "Point",
        "coordinates": [
          -39.6451158,
          -18.262021
        ]
      }
    },
    {
      "type": "Feature",
      "id": "node/2962860557",
      "properties": {
        "timestamp": "2014-07-14T16:51:22Z",
        "version": 1,
        "changeset": 24144376,
        "tourism": "hotel",
        "id": "node/2962860557"
      },
      "geometry": {
        "type": "Point",
        "coordinates": [
          -39.5471245,
          -18.0783075
        ]
      }
    },
    {
      "type": "Feature",
      "id": "node/10578496239",
      "properties": {
        "timestamp": "2023-01-25T01:02:28Z",
        "version": 3,
        "changeset": 131674453,
        "addr:city": "Mucuri",
        "addr:housenumber": "1629",
        "addr:postcode": "45930-000",
        "addr:street": "Avenida Central",
        "addr:suburb": "Santa Mônica",
        "name": "Pousada Tarumã",
        "phone": "+55 73 3206 1534",
        "tourism": "hotel",
        "id": "node/10578496239"
      },
      "geometry": {
        "type": "Point",
        "coordinates": [
          -39.5425247,
          -18.0705385
        ]
      }
    },
    {
      "type": "Feature",
      "id": "node/10578904439",
      "properties": {
        "timestamp": "2023-01-25T01:02:28Z",
        "version": 2,
        "changeset": 131674453,
        "addr:city": "Mucuri",
        "addr:housenumber": "671",
        "addr:postcode": "45930-000",
        "addr:street": "Rua Oscar Teixeira Siqueira",
        "addr:suburb": "Centro",
        "email": "pbarramares@hotmail.com",
        "name": "Pousada Barramares",
        "phone": "+55 73 3206 1811",
        "tourism": "hotel",
        "id": "node/10578904439"
      },
      "geometry": {
        "type": "Point",
        "coordinates": [
          -39.546249,
          -18.078503
        ]
      }
    },
    {
      "type": "Feature",
      "id": "node/10580491116",
      "properties": {
        "timestamp": "2023-01-29T21:42:17Z",
        "version": 3,
        "changeset": 131855958,
        "addr:city": "Mucuri",
        "addr:housenumber": "275",
        "addr:postcode": "45930-000",
        "addr:street": "Rua dos Vereadores",
        "addr:suburb": "Por do Sol",
        "name": "Pousada Tartaruga",
        "phone": "+55 73 3206 1741",
        "tourism": "hotel",
        "id": "node/10580491116"
      },
      "geometry": {
        "type": "Point",
        "coordinates": [
          -39.5412389,
          -18.0757981
        ]
      }
    },
    {
      "type": "Feature",
      "id": "node/10580491142",
      "properties": {
        "timestamp": "2023-01-25T01:02:28Z",
        "version": 1,
        "changeset": 131674453,
        "addr:city": "Mucuri",
        "addr:postcode": "45930-000",
        "addr:street": "Avenida Petrobras",
        "addr:suburb": "Centro",
        "name": "Hotel Sul Americano",
        "tourism": "hotel",
        "id": "node/10580491142"
      },
      "geometry": {
        "type": "Point",
        "coordinates": [
          -39.549038,
          -18.083804
        ]
      }
    },
    {
      "type": "Feature",
      "id": "node/10580519797",
      "properties": {
        "timestamp": "2024-10-05T13:35:44Z",
        "version": 2,
        "changeset": 157501552,
        "addr:city": "Mucuri",
        "addr:housenumber": "km 940",
        "addr:postcode": "45930-000",
        "addr:street": "Rodovia Governador Mário Covas",
        "name": "Pousada Hotel Rio Mucuri",
        "tourism": "hotel",
        "id": "node/10580519797"
      },
      "geometry": {
        "type": "Point",
        "coordinates": [
          -39.8642047,
          -18.0317088
        ]
      }
    },
    {
      "type": "Feature",
      "id": "node/10582178323",
      "properties": {
        "timestamp": "2023-01-27T11:56:37Z",
        "version": 2,
        "changeset": 131769965,
        "addr:city": "Mucuri",
        "addr:housenumber": "514",
        "addr:postcode": "45930-000",
        "addr:street": "Rua São José",
        "addr:suburb": "Centro",
        "name": "Pousada Pena",
        "phone": "+55 73 3291 4084",
        "tourism": "hotel",
        "id": "node/10582178323"
      },
      "geometry": {
        "type": "Point",
        "coordinates": [
          -39.5493901,
          -18.0841032
        ]
      }
    },
    {
      "type": "Feature",
      "id": "node/10592329551",
      "properties": {
        "timestamp": "2023-01-29T21:42:17Z",
        "version": 2,
        "changeset": 131855958,
        "addr:city": "Mucuri",
        "addr:housenumber": "700",
        "addr:postcode": "45930-000",
        "addr:street": "Rua Corumbá",
        "addr:suburb": "Pôr do Sol",
        "name": "Pousada Kambuká",
        "phone": "+55 73 3206 1110",
        "tourism": "hotel",
        "id": "node/10592329551"
      },
      "geometry": {
        "type": "Point",
        "coordinates": [
          -39.5407719,
          -18.0736583
        ]
      }
    },
    {
      "type": "Feature",
      "id": "node/10592329552",
      "properties": {
        "timestamp": "2023-01-29T21:42:17Z",
        "version": 2,
        "changeset": 131855958,
        "addr:city": "Mucuri",
        "addr:housenumber": "699",
        "addr:postcode": "45930-000",
        "addr:street": "Rua Aquarela",
        "addr:suburb": "Pôr do Sol",
        "brand": "Associação dos Praças Policiais e Bombeiros Militares de Minas Gerais - Aspra",
        "name": "Aspra Hotel Mucuri",
        "tourism": "hotel",
        "id": "node/10592329552"
      },
      "geometry": {
        "type": "Point",
        "coordinates": [
          -39.54169,
          -18.0736085
        ]
      }
    },
    {
      "type": "Feature",
      "id": "node/10592329581",
      "properties": {
        "timestamp": "2023-01-29T19:30:22Z",
        "version": 1,
        "changeset": 131852274,
        "addr:city": "Mucuri",
        "addr:housenumber": "50",
        "addr:postcode": "45930-000",
        "addr:street": "Avenida Peroba",
        "addr:suburb": "Costa do Sol",
        "name": "Pousada Sol Nascente",
        "tourism": "hotel",
        "id": "node/10592329581"
      },
      "geometry": {
        "type": "Point",
        "coordinates": [
          -39.5424363,
          -18.0779647
        ]
      }
    },
    {
      "type": "Feature",
      "id": "node/10592617624",
      "properties": {
        "timestamp": "2023-01-29T21:42:17Z",
        "version": 1,
        "changeset": 131855958,
        "addr:city": "Mucuri",
        "addr:housenumber": "893",
        "addr:postcode": "45930-000",
        "addr:street": "Rua Ponta de Areia",
        "addr:suburb": "Por do Sol",
        "name": "Casa Branca Hotel",
        "phone": "+55 73 3206 2039",
        "tourism": "hotel",
        "id": "node/10592617624"
      },
      "geometry": {
        "type": "Point",
        "coordinates": [
          -39.5457955,
          -18.081659
        ]
      }
    },
    {
      "type": "Feature",
      "id": "node/10592617625",
      "properties": {
        "timestamp": "2023-01-29T21:42:17Z",
        "version": 1,
        "changeset": 131855958,
        "addr:city": "Mucuri",
        "addr:housenumber": "167",
        "addr:postcode": "45930-000",
        "addr:street": "Avenida Beira Mar",
        "addr:suburb": "Por do Sol",
        "name": "Hotel Lua de Prata",
        "phone": "+55 73 3206 1393",
        "tourism": "hotel",
        "id": "node/10592617625"
      },
      "geometry": {
        "type": "Point",
        "coordinates": [
          -39.5414757,
          -18.0767196
        ]
      }
    },
    {
      "type": "Feature",
      "id": "node/12073293323",
      "properties": {
        "timestamp": "2024-07-25T10:40:40Z",
        "version": 1,
        "changeset": 154387148,
        "addr:housenumber": "6",
        "addr:postcode": "45930-000",
        "addr:street": "Rua Aristides da Cunha",
        "addr:suburb": "Cruzelandia",
        "building": "hotel",
        "name": "Hotel",
        "tourism": "hotel",
        "id": "node/12073293323"
      },
      "geometry": {
        "type": "Point",
        "coordinates": [
          -39.6628033,
          -18.1286517
        ]
      }
    },
    {
      "type": "Feature",
      "id": "node/12073298311",
      "properties": {
        "timestamp": "2024-07-25T10:41:09Z",
        "version": 1,
        "changeset": 154387148,
        "addr:housenumber": "893",
        "addr:postcode": "45930-000",
        "addr:street": "Rua Ponta de Areia",
        "addr:suburb": "Centro",
        "building": "yes",
        "name": "Hotel Casa Branca",
        "tourism": "hotel",
        "id": "node/12073298311"
      },
      "geometry": {
        "type": "Point",
        "coordinates": [
          -39.5457869,
          -18.0816358
        ]
      }
    },
    {
      "type": "Feature",
      "id": "node/12073310686",
      "properties": {
        "timestamp": "2024-07-25T10:42:24Z",
        "version": 1,
        "changeset": 154387190,
        "addr:housenumber": "380",
        "addr:postcode": "45930-000",
        "addr:street": "Rua Jovita Fontes",
        "addr:suburb": "Centro",
        "building": "yes",
        "name": "Hotel São José",
        "tourism": "hotel",
        "id": "node/12073310686"
      },
      "geometry": {
        "type": "Point",
        "coordinates": [
          -39.5505899,
          -18.0863857
        ]
      }
    }
  ]
}
