{
  "type": "FeatureCollection",
  "features": [
    {
      "type": "Feature",
      "id": "node/12073282796",
      "properties": {
        "timestamp": "2024-07-25T10:40:56Z",
        "version": 1,
        "changeset": 154387148,
        "addr:housenumber": "158",
        "addr:postcode": "45936-000",
        "addr:street": "Rua Jorge Borges Jahel",
        "addr:suburb": "Centro",
        "amenity": "pharmacy",
        "building": "yes",
        "healthcare": "pharmacy",
        "name": "Farmácia Itafarma",
        "id": "node/12073282796"
      },
      "geometry": {
        "type": "Point",
        "coordinates": [
          -39.8633156,
          -18.0082343
        ]
      }
    },
    {
      "type": "Feature",
      "id": "node/12073295295",
      "properties": {
        "timestamp": "2024-07-25T10:40:56Z",
        "version": 1,
        "changeset": 154387148,
        "addr:housenumber": "560",
        "addr:postcode": "45936-000",
        "addr:street": "Avenida Marieta Gazzinelli",
        "addr:suburb": "Triângulo Leal",
        "amenity": "pharmacy",
        "building": "yes",
        "healthcare": "pharmacy",
        "name": "Farmácia do Trabalhador",
        "id": "node/12073295295"
      },
      "geometry": {
        "type": "Point",
        "coordinates": [
          -39.8667933,
          -17.9996182
        ]
      }
    },
    {
      "type": "Feature",
      "id": "node/12073296630",
      "properties": {
        "timestamp": "2024-07-25T10:41:00Z",
        "version": 1,
        "changeset": 154387148,
        "addr:housenumber": "585",
        "addr:postcode": "45936-000",
        "addr:street": "Rua Pouso Alegre",
        "addr:suburb": "Centro",
        "amenity": "pharmacy",
        "building": "yes",
        "healthcare": "pharmacy",
        "name": "Farmácia de Manipulação",
        "id": "node/12073296630"
      },
      "geometry": {
        "type": "Point",
        "coordinates": [
          -39.8626554,
          -18.0063009
        ]
      }
    },
    {
      "type": "Feature",
      "id": "node/12073296947",
      "properties": {
        "timestamp": "2024-07-25T10:41:00Z",
        "version": 1,
        "changeset": 154387148,
        "addr:housenumber": "41",
        "addr:postcode": "45936-000",
        "addr:street": "Rua Rio São Francisco",
        "addr:suburb": "Triângulo Leal",
        "amenity": "pharmacy",
        "building": "yes",
        "healthcare": "pharmacy",
        "name": "Drogaria Barroso",
        "id": "node/12073296947"
      },
      "geometry": {
        "type": "Point",
        "coordinates": [
          -39.8676064,
          -17.9983864
        ]
      }
    },
    {
      "type": "Feature",
      "id": "node/12073302036",
      "properties": {
        "timestamp": "2024-07-25T10:41:25Z",
        "version": 1,
        "changeset": 154387148,
        "addr:housenumber": "755",
        "addr:postcode": "45930-000",
        "addr:street": "Avenida Central",
        "addr:suburb": "Centro",
        "addr:unit": "Loja",
        "amenity": "pharmacy",
        "building": "yes",
        "fixme": "Verificar coordenadas",
        "healthcare": "pharmacy",
        "name": "Farmácia Pedral",
        "note": "Sem dados para deslocamento adicional para dentro da quadra",
        "id": "node/12073302036"
      },
      "geometry": {
        "type": "Point",
        "coordinates": [
          -39.5464447,
          -18.077614
        ]
      }
    },
    {
      "type": "Feature",
      "id": "node/12073303867",
      "properties": {
        "timestamp": "2024-07-25T10:41:36Z",
        "version": 1,
        "changeset": 154387190,
        "addr:housenumber": "5",
        "addr:postcode": "45930-000",
        "addr:street": "Rua Aristides da Cunha",
        "addr:suburb": "Cruzelandia",
        "amenity": "pharmacy",
        "building": "retail",
        "healthcare": "pharmacy",
        "name": "Farmácia",
        "id": "node/12073303867"
      },
      "geometry": {
        "type": "Point",
        "coordinates": [
          -39.662845,
          -18.1286341
        ]
      }
    },
    {
      "type": "Feature",
      "id": "node/12073304772",
      "properties": {
        "timestamp": "2024-07-28T23:16:19Z",
        "version": 2,
        "changeset": 154541132,
        "addr:city": "Mucuri",
        "addr:housenumber": "389",
        "addr:postcode": "45936-000",
        "addr:street": "Avenida Salvador",
        "addr:suburb": "Centro",
        "amenity": "pharmacy",
        "building": "yes",
        "healthcare": "pharmacy",
        "name": "Drogaria Santa Marta",
        "id": "node/12073304772"
      },
      "geometry": {
        "type": "Point",
        "coordinates": [
          -39.8634178,
          -18.0079029
        ]
      }
    },
    {
      "type": "Feature",
      "id": "node/12073305980",
      "properties": {
        "timestamp": "2024-07-25T10:41:52Z",
        "version": 1,
        "changeset": 154387190,
        "addr:housenumber": "80",
        "addr:postcode": "45930-000",
        "addr:street": "Avenida Central",
        "addr:suburb": "Centro",
        "amenity": "pharmacy",
        "building": "yes",
        "healthcare": "pharmacy",
        "name": "Drogaria Drogamar",
        "id": "node/12073305980"
      },
      "geometry": {
        "type": "Point",
        "coordinates": [
          -39.5494799,
          -18.0829381
        ]
      }
    },
    {
      "type": "Feature",
      "id": "node/12073307337",
      "properties": {
        "timestamp": "2024-07-25T10:41:59Z",
        "version": 1,
        "changeset": 154387190,
        "addr:housenumber": "469",
        "addr:postcode": "45930-000",
        "addr:street": "Avenida Central",
        "addr:suburb": "Centro",
        "amenity": "pharmacy",
        "building": "yes",
        "healthcare": "pharmacy",
        "name": "Drogaria Mucuri",
        "id": "node/12073307337"
      },
      "geometry": {
        "type": "Point",
        "coordinates": [
          -39.5477661,
          -18.0798313
        ]
      }
    },
    {
      "type": "Feature",
      "id": "node/12073308391",
      "properties": {
        "timestamp": "2024-07-25T10:42:03Z",
        "version": 1,
        "changeset": 154387190,
        "addr:housenumber": "665",
        "addr:postcode": "45936-000",
        "addr:street": "Avenida Salvador",
        "addr:suburb": "Centro",
        "amenity": "pharmacy",
        "building": "retail",
        "healthcare": "pharmacy",
        "name": "Farmácia",
        "id": "node/12073308391"
      },
      "geometry": {
        "type": "Point",
        "coordinates": [
          -39.8631951,
          -18.0052439
        ]
      }
    },
    {
      "type": "Feature",
      "id": "node/12073308505",
      "properties": {
        "timestamp": "2024-07-25T10:42:03Z",
        "version": 1,
        "changeset": 154387190,
        "addr:housenumber": "395",
        "addr:postcode": "45936-000",
        "addr:street": "Avenida Minas Gerais",
        "addr:suburb": "Centro",
        "amenity": "pharmacy",
        "building": "yes",
        "healthcare": "pharmacy",
        "name": "Farmácia do Trabalhador",
        "id": "node/12073308505"
      },
      "geometry": {
        "type": "Point",
        "coordinates": [
          -39.8627393,
          -18.0080922
        ]
      }
    },
    {
      "type": "Feature",
      "id": "node/12073309913",
      "properties": {
        "timestamp": "2024-07-25T10:42:19Z",
        "version": 1,
        "changeset": 154387190,
        "addr:housenumber": "26",
        "addr:postcode": "45930-000",
        "addr:street": "Avenida Central",
        "addr:suburb": "Centro",
        "amenity": "pharmacy",
        "building": "retail",
        "healthcare": "pharmacy",
        "name": "Farmácia",
        "id": "node/12073309913"
      },
      "geometry": {
        "type": "Point",
        "coordinates": [
          -39.5496373,
          -18.0832918
        ]
      }
    },
    {
      "type": "Feature",
      "id": "node/12073312073",
      "properties": {
        "timestamp": "2024-07-25T10:42:30Z",
        "version": 1,
        "changeset": 154387190,
        "addr:housenumber": "540",
        "addr:postcode": "45930-000",
        "addr:street": "Avenida Central",
        "addr:suburb": "Centro",
        "amenity": "pharmacy",
        "building": "yes",
        "healthcare": "pharmacy",
        "name": "Drogaria Bim Preço",
        "id": "node/12073312073"
      },
      "geometry": {
        "type": "Point",
        "coordinates": [
          -39.5471512,
          -18.0791896
        ]
      }
    },
    {
      "type": "Feature",
      "id": "node/12073312220",
      "properties": {
        "timestamp": "2024-07-25T10:42:30Z",
        "version": 1,
        "changeset": 154387190,
        "addr:housenumber": "1493",
        "addr:postcode": "45930-000",
        "addr:street": "Avenida Central",
        "addr:suburb": "Pôr do Sol",
        "addr:unit": "Frente",
        "amenity": "pharmacy",
        "building": "yes",
        "fixme": "Verificar coordenadas",
        "healthcare": "pharmacy",
        "name": "Drogaria Beer",
        "note": "Sem dados para deslocamento adicional para dentro da quadra",
        "id": "node/12073312220"
      },
      "geometry": {
        "type": "Point",
        "coordinates": [
          -39.5432006,
          -18.071746
        ]
      }
    },
    {
      "type": "Feature",
      "id": "node/12073312260",
      "properties": {
        "timestamp": "2024-07-25T10:42:30Z",
        "version": 1,
        "changeset": 154387190,
        "addr:housenumber": "500",
        "addr:postcode": "45930-000",
        "addr:street": "Avenida Petrobrás",
        "addr:suburb": "Centro",
        "addr:unit": "Térreo",
        "amenity": "pharmacy",
        "building": "yes",
        "healthcare": "pharmacy",
        "name": "Farmácia Central",
        "id": "node/12073312260"
      },
      "geometry": {
        "type": "Point",
        "coordinates": [
          -39.549484,
          -18.0836126
        ]
      }
    }
  ]
}
