{
  "type": "FeatureCollection",
  "features": [
    {
      "type": "Feature",
      "id": "way/681742398",
      "properties": {
        "timestamp": "2023-01-25T01:02:28Z",
        "version": 3,
        "changeset": 131674453,
        "addr:city": "Mucuri",
        "addr:housenumber": "101",
        "addr:postcode": "45930000",
        "addr:street": "Praça Custódia Costa de Oliveira",
        "addr:suburb": "Centro",
        "amenity": "school",
        "name": "Escola Estadual Jaci Ferreira dos Santos",
        "operator": "Governo da Bahia",
        "operator:type": "public",
        "id": "way/681742398"
      },
      "geometry": {
        "type": "Polygon",
        "coordinates": [
          [
            [
              -39.5512381,
              -18.0870913
            ],
            [
              -39.5514572,
              -18.0870283
            ],
            [
              -39.5514828,
              -18.0871094
            ],
            [
              -39.5514278,
              -18.0871252
            ],
            [
              -39.5514646,
              -18.0872409
            ],
            [
              -39.5514859,
              -18.0872348
            ],
            [
              -39.5514937,
              -18.0872523
            ],
            [
              -39.5515454,
              -18.0874296
            ],
            [
              -39.5515744,
              -18.0875132
            ],
            [
              -39.5515913,
              -18.0875662
            ],
            [
              -39.5515696,
              -18.0875725
            ],
            [
              -39.5516407,
              -18.0877959
            ],
            [
              -39.5514773,
              -18.0878429
            ],
            [
              -39.5512381,
              -18.0870913
            ]
          ]
        ]
      }
    },
    {
      "type": "Feature",
      "id": "way/681742399",
      "properties": {
        "timestamp": "2023-01-25T01:02:28Z",
        "version": 2,
        "changeset": 131674453,
        "addr:city": "Mucuri",
        "addr:housenumber": "184",
        "addr:postcode": "45930-000",
        "addr:street": "Praça Custódia Costa de Oliveira",
        "addr:suburb": "Centro",
        "amenity": "school",
        "email": "escolamraulgazzinelli@gmail.com",
        "name": "Escola Municipal Raul Gazzinelli",
        "operator": "Município de Mucuri",
        "operator:type": "public",
        "phone": "+55 73 3206 1392",
        "id": "way/681742399"
      },
      "geometry": {
        "type": "Polygon",
        "coordinates": [
          [
            [
              -39.5520697,
              -18.0876673
            ],
            [
              -39.5516407,
              -18.0877959
            ],
            [
              -39.5515696,
              -18.0875725
            ],
            [
              -39.5515913,
              -18.0875662
            ],
            [
              -39.5515744,
              -18.0875132
            ],
            [
              -39.551667,
              -18.0874869
            ],
            [
              -39.5516819,
              -18.0875342
            ],
            [
              -39.5517468,
              -18.0875157
            ],
            [
              -39.5517131,
              -18.0874088
            ],
            [
              -39.5518774,
              -18.087362
            ],
            [
              -39.5518709,
              -18.0873413
            ],
            [
              -39.551959,
              -18.0873162
            ],
            [
              -39.5520697,
              -18.0876673
            ]
          ]
        ]
      }
    },
    {
      "type": "Feature",
      "id": "way/1134679899",
      "properties": {
        "timestamp": "2023-01-25T01:02:28Z",
        "version": 2,
        "changeset": 131674453,
        "addr:city": "Mucuri",
        "addr:housenumber": "294",
        "addr:postcode": "45930-000",
        "addr:street": "Rua Ilhéus",
        "addr:suburb": "Centro",
        "amenity": "school",
        "email": "susanapedral@hotmail.com",
        "name": "Intituto Educacional Opção",
        "phone": "+55 73 3206 1552",
        "id": "way/1134679899"
      },
      "geometry": {
        "type": "Polygon",
        "coordinates": [
          [
            [
              -39.5472595,
              -18.082951
            ],
            [
              -39.5467767,
              -18.0832136
            ],
            [
              -39.546589,
              -18.0829
            ],
            [
              -39.5470744,
              -18.0826502
            ],
            [
              -39.5472595,
              -18.082951
            ]
          ]
        ]
      }
    },
    {
      "type": "Feature",
      "id": "way/1134781875",
      "properties": {
        "timestamp": "2023-01-25T09:59:22Z",
        "version": 3,
        "changeset": 131687254,
        "addr:city": "Mucuri",
        "addr:housenumber": "323",
        "addr:postcode": "45930-000",
        "addr:street": "Rua Oscar Teixeira Siqueira",
        "addr:suburb": "Malvinas",
        "amenity": "school",
        "email": "ce.casa@terra.com.br",
        "name": "Colégio Leon Feffer Dois",
        "operator": "Centro Educacional Casa do Estudante de Mucuri Limitada",
        "phone": "+55 73 3206 1029",
        "id": "way/1134781875"
      },
      "geometry": {
        "type": "Polygon",
        "coordinates": [
          [
            [
              -39.5462497,
              -18.078772
            ],
            [
              -39.5462443,
              -18.0788262
            ],
            [
              -39.5455707,
              -18.0791847
            ],
            [
              -39.5459439,
              -18.0797961
            ],
            [
              -39.5455371,
              -18.0800074
            ],
            [
              -39.5449657,
              -18.0790025
            ],
            [
              -39.5460459,
              -18.0784619
            ],
            [
              -39.5460673,
              -18.0784634
            ],
            [
              -39.5462497,
              -18.078772
            ]
          ]
        ]
      }
    },
    {
      "type": "Feature",
      "id": "way/1135004467",
      "properties": {
        "timestamp": "2023-01-25T01:02:28Z",
        "version": 1,
        "changeset": 131674453,
        "addr:city": "Mucuri",
        "addr:housenumber": "816",
        "addr:postcode": "45930-000",
        "addr:street": "Avenida Nova Viçosa",
        "addr:suburb": "Malvinas",
        "amenity": "school",
        "name": "Escola Municipal de Ensino Fundamental Deputado Luis Eduardo Magalhães",
        "operator": "Município de Mucuri",
        "operator:type": "public",
        "id": "way/1135004467"
      },
      "geometry": {
        "type": "Polygon",
        "coordinates": [
          [
            [
              -39.5455683,
              -18.0776901
            ],
            [
              -39.5448982,
              -18.0780076
            ],
            [
              -39.544709,
              -18.0776835
            ],
            [
              -39.5453862,
              -18.0773483
            ],
            [
              -39.5455683,
              -18.0776901
            ]
          ]
        ]
      }
    },
    {
      "type": "Feature",
      "id": "way/1136458338",
      "properties": {
        "timestamp": "2023-04-03T12:29:00Z",
        "version": 2,
        "changeset": 134453003,
        "addr:city": "Mucuri",
        "addr:postcode": "45930-000",
        "addr:street": "Rua Estados Unidos",
        "addr:suburb": "Itabatã",
        "amenity": "school",
        "name": "Colégio Estadual Integração do Distrito de Itabatan",
        "operator": "Governo do Estado da Bahia",
        "operator:type": "public",
        "phone": "+55 73 3605 2028",
        "id": "way/1136458338"
      },
      "geometry": {
        "type": "Polygon",
        "coordinates": [
          [
            [
              -39.854118,
              -18.0076964
            ],
            [
              -39.8542246,
              -18.0088816
            ],
            [
              -39.8537695,
              -18.0089011
            ],
            [
              -39.8536834,
              -18.0077276
            ],
            [
              -39.854118,
              -18.0076964
            ]
          ]
        ]
      }
    },
    {
      "type": "Feature",
      "id": "way/1136458340",
      "properties": {
        "timestamp": "2023-01-30T13:14:41Z",
        "version": 1,
        "changeset": 131880781,
        "addr:city": "Mucuri",
        "addr:postcode": "45930-000",
        "addr:street": "Rua Marieta de Azevedo Gazzineli",
        "addr:suburb": "Jardim Califórnia",
        "amenity": "school",
        "name": "Escola Eurides Pureza Correia",
        "operator": "Município de Mucuri",
        "operator:type": "public",
        "id": "way/1136458340"
      },
      "geometry": {
        "type": "Polygon",
        "coordinates": [
          [
            [
              -39.5557585,
              -18.0677199
            ],
            [
              -39.5553308,
              -18.0679091
            ],
            [
              -39.5549395,
              -18.0671052
            ],
            [
              -39.555344,
              -18.066916
            ],
            [
              -39.5557585,
              -18.0677199
            ]
          ]
        ]
      }
    },
    {
      "type": "Feature",
      "id": "way/1137557270",
      "properties": {
        "timestamp": "2023-02-03T10:13:47Z",
        "version": 1,
        "changeset": 132035578,
        "addr:city": "Mucuri",
        "addr:housenumber": "91",
        "addr:postcode": "45930-000",
        "addr:street": "Rua Rui Barbosa",
        "addr:suburb": "Taquarinha",
        "amenity": "school",
        "name": "Escola Municipal de Manoel da Costa Machado",
        "operator": "Município de Mucuri",
        "operator:type": "public",
        "phone": "+55 73 3622 4083",
        "id": "way/1137557270"
      },
      "geometry": {
        "type": "Polygon",
        "coordinates": [
          [
            [
              -40.239461,
              -17.9411346
            ],
            [
              -40.2388914,
              -17.9411941
            ],
            [
              -40.2388445,
              -17.9407373
            ],
            [
              -40.2394007,
              -17.9406735
            ],
            [
              -40.239461,
              -17.9411346
            ]
          ]
        ]
      }
    },
    {
      "type": "Feature",
      "id": "way/1137557271",
      "properties": {
        "timestamp": "2023-02-03T10:13:47Z",
        "version": 1,
        "changeset": 132035578,
        "addr:city": "Mucuri",
        "addr:housenumber": "91",
        "addr:postcode": "45930-000",
        "addr:street": "Rua Rui Barbosa",
        "addr:suburb": "Taquarinha",
        "amenity": "school",
        "name": "Escola Municipal de Ensino Fundamental Aristides Rocha",
        "operator": "Município de Mucuri",
        "operator:type": "public",
        "id": "way/1137557271"
      },
      "geometry": {
        "type": "Polygon",
        "coordinates": [
          [
            [
              -40.2394007,
              -17.9406735
            ],
            [
              -40.2388445,
              -17.9407373
            ],
            [
              -40.2388132,
              -17.9404227
            ],
            [
              -40.2393583,
              -17.9403526
            ],
            [
              -40.2394007,
              -17.9406735
            ]
          ]
        ]
      }
    },
    {
      "type": "Feature",
      "id": "way/1159389290",
      "properties": {
        "timestamp": "2024-07-28T23:16:19Z",
        "version": 2,
        "changeset": 154541132,
        "addr:city": "Mucuri",
        "addr:housenumber": "305",
        "addr:postcode": "45930-000",
        "addr:street": "Rua Itapetininga",
        "addr:suburb": "Gazinelândia",
        "alt_name": "Colégio Municipal de 1º E 2º Graus de Itabatan",
        "amenity": "school",
        "name": "Escola Municipal Frei Ronaldo",
        "operator": "Município de Mucuri",
        "operator:type": "public",
        "phone": "+55 73 3605 2987",
        "id": "way/1159389290"
      },
      "geometry": {
        "type": "Polygon",
        "coordinates": [
          [
            [
              -39.8664935,
              -18.0013342
            ],
            [
              -39.8663132,
              -18.0019858
            ],
            [
              -39.8656581,
              -18.0017829
            ],
            [
              -39.8657422,
              -18.0015457
            ],
            [
              -39.8654507,
              -18.0014542
            ],
            [
              -39.8655679,
              -18.0011084
            ],
            [
              -39.8656461,
              -18.0010627
            ],
            [
              -39.8664604,
              -18.0012942
            ],
            [
              -39.8664935,
              -18.0013342
            ]
          ]
        ]
      }
    },
    {
      "type": "Feature",
      "id": "way/1302502036",
      "properties": {
        "timestamp": "2024-08-06T11:00:41Z",
        "version": 2,
        "changeset": 154887805,
        "addr:city": "Mucuri",
        "addr:housenumber": "310",
        "addr:postcode": "45930-000",
        "addr:street": "Rua Pau Brasil",
        "addr:suburb": "Jardim dos Eucaliptos",
        "amenity": "school",
        "email": "ce.casa@terra.com.br",
        "name": "Colégio Leon Feffer Um",
        "operator": "Centro Educacional Casa do Estudante de Mucuri Limitada",
        "operator:type": "public",
        "phone": "+55 73 3605 2266",
        "id": "way/1302502036"
      },
      "geometry": {
        "type": "Polygon",
        "coordinates": [
          [
            [
              -39.8694538,
              -18.0063293
            ],
            [
              -39.8693089,
              -18.0066318
            ],
            [
              -39.86921,
              -18.006589
            ],
            [
              -39.8691863,
              -18.0066396
            ],
            [
              -39.8690105,
              -18.0070158
            ],
            [
              -39.8691181,
              -18.0070714
            ],
            [
              -39.8687239,
              -18.0079105
            ],
            [
              -39.8685483,
              -18.0078402
            ],
            [
              -39.8684293,
              -18.0083749
            ],
            [
              -39.8684886,
              -18.0084063
            ],
            [
              -39.8684836,
              -18.0085192
            ],
            [
              -39.8685809,
              -18.008531
            ],
            [
              -39.8685607,
              -18.0087023
            ],
            [
              -39.8685125,
              -18.0091105
            ],
            [
              -39.8672975,
              -18.0089788
            ],
            [
              -39.8672065,
              -18.0089296
            ],
            [
              -39.8671853,
              -18.0088467
            ],
            [
              -39.8672019,
              -18.0087369
            ],
            [
              -39.8674981,
              -18.0081295
            ],
            [
              -39.8678489,
              -18.007323
            ],
            [
              -39.8679499,
              -18.0070746
            ],
            [
              -39.868083,
              -18.0067751
            ],
            [
              -39.8685179,
              -18.0060269
            ],
            [
              -39.8686158,
              -18.0059662
            ],
            [
              -39.8694538,
              -18.0063293
            ]
          ]
        ]
      }
    },
    {
      "type": "Feature",
      "id": "node/10597399746",
      "properties": {
        "timestamp": "2023-01-31T23:02:04Z",
        "version": 1,
        "changeset": 131941017,
        "addr:city": "Mucuri",
        "addr:suburb": "Ibiranhém",
        "amenity": "school",
        "name": "Escola Municipal Hernani Saúde Ribeiro",
        "id": "node/10597399746"
      },
      "geometry": {
        "type": "Point",
        "coordinates": [
          -40.1755307,
          -17.8482619
        ]
      }
    },
    {
      "type": "Feature",
      "id": "node/10599715244",
      "properties": {
        "timestamp": "2023-02-01T19:21:28Z",
        "version": 1,
        "changeset": 131975175,
        "addr:city": "Mucuri",
        "addr:district": "São Jorge",
        "addr:postcode": "45930-000",
        "addr:street": "Rua das Flores",
        "amenity": "school",
        "name": "Escola Municipal Criança Feliz",
        "operator": "Município de Mucuri",
        "id": "node/10599715244"
      },
      "geometry": {
        "type": "Point",
        "coordinates": [
          -40.1611313,
          -17.7854913
        ]
      }
    },
    {
      "type": "Feature",
      "id": "node/10599715245",
      "properties": {
        "timestamp": "2023-02-01T19:21:28Z",
        "version": 1,
        "changeset": 131975175,
        "addr:city": "Mucuri",
        "addr:hamlet": "São Jorge",
        "addr:postcode": "45930-000",
        "addr:state": "Bahia",
        "addr:street": "Rua das Flores",
        "amenity": "school",
        "name": "Escola Municipal Cristiano Lopes Soares",
        "operator": "Município de Mucuri",
        "phone": "+55 73 3206 7008",
        "id": "node/10599715245"
      },
      "geometry": {
        "type": "Point",
        "coordinates": [
          -40.1610623,
          -17.7852876
        ]
      }
    },
    {
      "type": "Feature",
      "id": "node/10676128240",
      "properties": {
        "timestamp": "2023-02-18T12:37:56Z",
        "version": 1,
        "changeset": 132713206,
        "addr:city": "Mucuri",
        "addr:housenumber": "689",
        "addr:postcode": "45930-000",
        "addr:street": "Avenida Donato Soares de Oliveira",
        "addr:suburb": "Belo Cruzeiro",
        "amenity": "school",
        "name": "Escola Municipal Virgilio Teofilo",
        "operator": "Município de Mucuri",
        "operator:type": "public",
        "phone": "+55 73 99944 5201",
        "id": "node/10676128240"
      },
      "geometry": {
        "type": "Point",
        "coordinates": [
          -40.05164,
          -18.0102858
        ]
      }
    },
    {
      "type": "Feature",
      "id": "node/11275941832",
      "properties": {
        "timestamp": "2023-10-19T20:21:07Z",
        "version": 1,
        "changeset": 142835035,
        "amenity": "school",
        "name": "Escola Municipal Antonio Camara Ribeiro",
        "operator": "Município de",
        "id": "node/11275941832"
      },
      "geometry": {
        "type": "Point",
        "coordinates": [
          -39.7355652,
          -18.1382946
        ]
      }
    },
    {
      "type": "Feature",
      "id": "node/11275941833",
      "properties": {
        "timestamp": "2023-10-19T20:21:07Z",
        "version": 1,
        "changeset": 142835035,
        "addr:city": "Mucuri",
        "addr:street": "Rua Aristides da Cunha",
        "addr:suburb": "Cruzelândia",
        "amenity": "school",
        "name": "Escola Gustavo Antunes Saúde",
        "operator": "Município de Mucuri",
        "operator:type": "public",
        "id": "node/11275941833"
      },
      "geometry": {
        "type": "Point",
        "coordinates": [
          -39.6637099,
          -18.1284026
        ]
      }
    },
    {
      "type": "Feature",
      "id": "node/11277761130",
      "properties": {
        "timestamp": "2023-10-20T15:56:57Z",
        "version": 1,
        "changeset": 142877053,
        "addr:city": "Mucuri",
        "addr:hamlet": "Agrovial do Projeto de Assentamento Paulo Freire",
        "addr:postcode": "45930-000",
        "addr:state": "BA",
        "addr:street": "Rua Che",
        "amenity": "school",
        "name": "Escola Municipal Carolina Silva Moraes",
        "operator": "Município de Mucuri",
        "id": "node/11277761130"
      },
      "geometry": {
        "type": "Point",
        "coordinates": [
          -39.6601805,
          -18.0959746
        ]
      }
    },
    {
      "type": "Feature",
      "id": "node/12073296080",
      "properties": {
        "timestamp": "2024-07-25T10:41:00Z",
        "version": 1,
        "changeset": 154387148,
        "addr:housenumber": "6",
        "addr:postcode": "45930-000",
        "addr:street": "Rua Chê",
        "addr:suburb": "Assentamento Paulo Freire",
        "amenity": "school",
        "building": "yes",
        "fixme": "Verificar coordenadas",
        "name": "Escola",
        "note": "Sem dados para deslocamento adicional para dentro da quadra",
        "id": "node/12073296080"
      },
      "geometry": {
        "type": "Point",
        "coordinates": [
          -39.6602375,
          -18.0960103
        ]
      }
    },
    {
      "type": "Feature",
      "id": "node/12073296712",
      "properties": {
        "timestamp": "2024-07-25T10:41:00Z",
        "version": 1,
        "changeset": 154387148,
        "addr:housenumber": "56",
        "addr:postcode": "45936-000",
        "addr:street": "Avenida Rio Mucuri",
        "addr:suburb": "Triângulo Leal",
        "amenity": "school",
        "building": "yes",
        "name": "Grouw Coaching",
        "id": "node/12073296712"
      },
      "geometry": {
        "type": "Point",
        "coordinates": [
          -39.866793,
          -17.9956803
        ]
      }
    },
    {
      "type": "Feature",
      "id": "node/12073297023",
      "properties": {
        "timestamp": "2024-07-25T10:41:05Z",
        "version": 1,
        "changeset": 154387148,
        "addr:housenumber": "13",
        "addr:postcode": "45930-000",
        "addr:street": "Rua das Flores",
        "addr:suburb": "São Jorge",
        "amenity": "school",
        "building": "yes",
        "name": "Escola Cristiano Lopes Soares",
        "id": "node/12073297023"
      },
      "geometry": {
        "type": "Point",
        "coordinates": [
          -40.1611346,
          -17.7854985
        ]
      }
    },
    {
      "type": "Feature",
      "id": "node/12073297172",
      "properties": {
        "timestamp": "2024-07-25T10:41:05Z",
        "version": 1,
        "changeset": 154387148,
        "addr:housenumber": "6",
        "addr:postcode": "45930-000",
        "addr:street": "Avenida Carlos Chagas",
        "addr:suburb": "31 de Março",
        "amenity": "school",
        "building": "yes",
        "name": "Escola Municipal Sorriso da Mamãe",
        "id": "node/12073297172"
      },
      "geometry": {
        "type": "Point",
        "coordinates": [
          -39.9186249,
          -18.1742652
        ]
      }
    },
    {
      "type": "Feature",
      "id": "node/12073297393",
      "properties": {
        "timestamp": "2024-07-25T10:41:05Z",
        "version": 1,
        "changeset": 154387148,
        "addr:housenumber": "1297",
        "addr:postcode": "45936-000",
        "addr:street": "Avenida Minas Gerais",
        "addr:suburb": "Centro",
        "amenity": "school",
        "building": "yes",
        "name": "Escola Polegar",
        "id": "node/12073297393"
      },
      "geometry": {
        "type": "Point",
        "coordinates": [
          -39.861977,
          -17.9997808
        ]
      }
    },
    {
      "type": "Feature",
      "id": "node/12073297511",
      "properties": {
        "timestamp": "2024-07-25T10:41:05Z",
        "version": 1,
        "changeset": 154387148,
        "addr:housenumber": "358",
        "addr:postcode": "45936-000",
        "addr:street": "Rua Iguaí",
        "addr:suburb": "Gazinelandia",
        "addr:unit": "Fundos",
        "amenity": "school",
        "building": "yes",
        "name": "Espaço Aprender",
        "id": "node/12073297511"
      },
      "geometry": {
        "type": "Point",
        "coordinates": [
          -39.8680752,
          -18.0011141
        ]
      }
    },
    {
      "type": "Feature",
      "id": "node/12073299911",
      "properties": {
        "timestamp": "2024-07-25T10:41:17Z",
        "version": 1,
        "changeset": 154387148,
        "addr:housenumber": "645",
        "addr:postcode": "45936-000",
        "addr:street": "Rua Itália",
        "addr:suburb": "Cidade Nova",
        "amenity": "school",
        "building": "yes",
        "name": "Escola Municipal Gustavo da Costa Machad",
        "id": "node/12073299911"
      },
      "geometry": {
        "type": "Point",
        "coordinates": [
          -39.8595899,
          -18.0057113
        ]
      }
    },
    {
      "type": "Feature",
      "id": "node/12073300584",
      "properties": {
        "timestamp": "2024-07-25T10:41:21Z",
        "version": 1,
        "changeset": 154387148,
        "addr:housenumber": "323",
        "addr:postcode": "45930-000",
        "addr:street": "Rua Oscar Teixeira Siqueira",
        "addr:suburb": "Centro",
        "amenity": "school",
        "building": "yes",
        "fixme": "Verificar coordenadas",
        "name": "Escola de Ensino Fundamental e Médio Par",
        "note": "Sem dados para deslocamento adicional para dentro da quadra",
        "id": "node/12073300584"
      },
      "geometry": {
        "type": "Point",
        "coordinates": [
          -39.5451995,
          -18.0788983
        ]
      }
    },
    {
      "type": "Feature",
      "id": "node/12073301189",
      "properties": {
        "timestamp": "2024-07-25T10:41:21Z",
        "version": 1,
        "changeset": 154387148,
        "addr:housenumber": "25",
        "addr:postcode": "45930-000",
        "addr:street": "Rua Ilhéus",
        "addr:suburb": "Cruzelandia",
        "amenity": "school",
        "building": "yes",
        "name": "Escola Municipal Gustavo Antunes Saúde",
        "id": "node/12073301189"
      },
      "geometry": {
        "type": "Point",
        "coordinates": [
          -39.6633014,
          -18.1286404
        ]
      }
    },
    {
      "type": "Feature",
      "id": "node/12073301246",
      "properties": {
        "timestamp": "2024-07-25T10:41:21Z",
        "version": 1,
        "changeset": 154387148,
        "addr:housenumber": "14",
        "addr:postcode": "45930-000",
        "addr:street": "Rua Jovita Fontes",
        "addr:suburb": "Centro",
        "addr:unit": "Grupo",
        "amenity": "school",
        "building": "yes",
        "name": "Escola Goufinho",
        "id": "node/12073301246"
      },
      "geometry": {
        "type": "Point",
        "coordinates": [
          -39.5514657,
          -18.0896929
        ]
      }
    },
    {
      "type": "Feature",
      "id": "node/12073303406",
      "properties": {
        "timestamp": "2024-07-25T10:41:30Z",
        "version": 1,
        "changeset": 154387148,
        "addr:housenumber": "66026974",
        "addr:postcode": "45930-000",
        "addr:street": "Rua Belo Horizonte",
        "addr:suburb": "Cruzelandia",
        "amenity": "school",
        "building": "yes",
        "leisure": "sports_hall",
        "name": "Quadra Poliesportiva",
        "sport": "multi",
        "id": "node/12073303406"
      },
      "geometry": {
        "type": "Point",
        "coordinates": [
          -39.6624868,
          -18.1297789
        ]
      }
    },
    {
      "type": "Feature",
      "id": "node/12073303630",
      "properties": {
        "timestamp": "2024-07-25T10:41:36Z",
        "version": 1,
        "changeset": 154387190,
        "addr:housenumber": "189",
        "addr:postcode": "45930-000",
        "addr:street": "Rua Severino Vieira",
        "addr:suburb": "Centro",
        "amenity": "school",
        "building": "yes",
        "name": "Colégio Estadual Jaci Ferreira dos Santo",
        "id": "node/12073303630"
      },
      "geometry": {
        "type": "Point",
        "coordinates": [
          -39.551539,
          -18.087789
        ]
      }
    },
    {
      "type": "Feature",
      "id": "node/12073304626",
      "properties": {
        "timestamp": "2024-07-25T10:41:41Z",
        "version": 1,
        "changeset": 154387190,
        "addr:housenumber": "194",
        "addr:postcode": "45930-000",
        "addr:street": "Rua Rui Barbosa",
        "addr:suburb": "Mucuri",
        "amenity": "school",
        "building": "yes",
        "name": "Escola Raul Gazinelli",
        "id": "node/12073304626"
      },
      "geometry": {
        "type": "Point",
        "coordinates": [
          -39.552067,
          -18.0877032
        ]
      }
    },
    {
      "type": "Feature",
      "id": "node/12073304967",
      "properties": {
        "timestamp": "2024-07-25T10:41:41Z",
        "version": 1,
        "changeset": 154387190,
        "addr:housenumber": "13",
        "addr:postcode": "45930-000",
        "addr:street": "Rodovia BA 698",
        "addr:suburb": "Mucuri",
        "amenity": "school",
        "building": "yes",
        "fixme": "Verificar coordenadas",
        "name": "Escola Santa Rita",
        "note": "Sem setor ou quadra no bayface do IBGE 292200305000015|0 1",
        "id": "node/12073304967"
      },
      "geometry": {
        "type": "Point",
        "coordinates": [
          -39.647156,
          -18.0438174
        ]
      }
    },
    {
      "type": "Feature",
      "id": "node/12073305323",
      "properties": {
        "timestamp": "2024-07-25T10:41:41Z",
        "version": 1,
        "changeset": 154387190,
        "addr:housenumber": "350",
        "addr:postcode": "45930-000",
        "addr:street": "Comunidade Cimetal",
        "addr:suburb": "Estrada do Cimental",
        "amenity": "school",
        "building": "yes",
        "fixme": "Verificar coordenadas",
        "name": "Escola Ruth Nascinento de Jesus",
        "note": "Sem setor ou quadra no bayface do IBGE 292200305000016|0 161",
        "id": "node/12073305323"
      },
      "geometry": {
        "type": "Point",
        "coordinates": [
          -39.638691,
          -18.01195
        ]
      }
    },
    {
      "type": "Feature",
      "id": "node/12073305950",
      "properties": {
        "timestamp": "2024-07-25T10:41:52Z",
        "version": 1,
        "changeset": 154387190,
        "addr:housenumber": "79",
        "addr:postcode": "45936-000",
        "addr:street": "Rua Estados Unidos",
        "addr:suburb": "Cidade Nova",
        "amenity": "school",
        "building": "yes",
        "fixme": "Verificar coordenadas",
        "name": "Colégio Estadual Integração",
        "note": "Não foi possível projetar na face",
        "id": "node/12073305950"
      },
      "geometry": {
        "type": "Point",
        "coordinates": [
          -39.8542048,
          -18.0076614
        ]
      }
    },
    {
      "type": "Feature",
      "id": "node/12073306949",
      "properties": {
        "timestamp": "2024-07-25T10:41:59Z",
        "version": 1,
        "changeset": 154387190,
        "addr:housenumber": "42",
        "addr:postcode": "45930-000",
        "addr:street": "Rua Antônio Teófilo de Araújo",
        "addr:suburb": "Belo Cruzeiro",
        "amenity": "school",
        "building": "yes",
        "name": "Escola",
        "id": "node/12073306949"
      },
      "geometry": {
        "type": "Point",
        "coordinates": [
          -40.0527097,
          -18.0101425
        ]
      }
    },
    {
      "type": "Feature",
      "id": "node/12073306951",
      "properties": {
        "timestamp": "2024-07-25T10:41:59Z",
        "version": 1,
        "changeset": 154387190,
        "addr:housenumber": "60",
        "addr:postcode": "45930-000",
        "addr:street": "Rua Zunbi dos Palmares",
        "addr:suburb": "Assentamento Paulo Freire",
        "amenity": "school",
        "building": "yes",
        "fixme": "Verificar coordenadas",
        "name": "Escola de Alfabetização",
        "note": "Sem dados para deslocamento adicional para dentro da quadra",
        "id": "node/12073306951"
      },
      "geometry": {
        "type": "Point",
        "coordinates": [
          -39.6602352,
          -18.0954939
        ]
      }
    },
    {
      "type": "Feature",
      "id": "node/12073307619",
      "properties": {
        "timestamp": "2024-07-25T10:41:59Z",
        "version": 1,
        "changeset": 154387190,
        "addr:housenumber": "2",
        "addr:postcode": "45936-000",
        "addr:street": "Avenida Costa Rica",
        "addr:suburb": "Cidade Nova",
        "amenity": "school",
        "building": "yes",
        "name": "Escola M Dep Anã Oliveira",
        "id": "node/12073307619"
      },
      "geometry": {
        "type": "Point",
        "coordinates": [
          -39.8608606,
          -18.0085938
        ]
      }
    },
    {
      "type": "Feature",
      "id": "node/12073308346",
      "properties": {
        "timestamp": "2024-07-25T10:42:03Z",
        "version": 1,
        "changeset": 154387190,
        "addr:housenumber": "171",
        "addr:postcode": "45930-000",
        "addr:street": "Rua Raul Gazzinelli",
        "addr:suburb": "Centro",
        "amenity": "school",
        "building": "yes",
        "name": "Berçário",
        "id": "node/12073308346"
      },
      "geometry": {
        "type": "Point",
        "coordinates": [
          -39.5492194,
          -18.0816889
        ]
      }
    },
    {
      "type": "Feature",
      "id": "node/12073308736",
      "properties": {
        "timestamp": "2024-07-25T10:42:03Z",
        "version": 1,
        "changeset": 154387190,
        "addr:housenumber": "760",
        "addr:postcode": "45936-000",
        "addr:street": "Rua Amaz0nas",
        "addr:suburb": "Centro",
        "amenity": "school",
        "building": "yes",
        "name": "Escola Municipal Castelo Encatado",
        "id": "node/12073308736"
      },
      "geometry": {
        "type": "Point",
        "coordinates": [
          -39.8633808,
          -18.0036456
        ]
      }
    },
    {
      "type": "Feature",
      "id": "node/12073308806",
      "properties": {
        "timestamp": "2024-07-25T10:42:03Z",
        "version": 1,
        "changeset": 154387190,
        "addr:housenumber": "350",
        "addr:postcode": "45930-000",
        "addr:street": "Sítio São Francisco",
        "addr:suburb": "Mucuri",
        "amenity": "school",
        "building": "yes",
        "fixme": "Verificar coordenadas",
        "name": "Escola Municipal Rural Cimetal",
        "note": "Sem setor ou quadra no bayface do IBGE 292200305000016|0 36",
        "id": "node/12073308806"
      },
      "geometry": {
        "type": "Point",
        "coordinates": [
          -39.638531,
          -18.0112168
        ]
      }
    },
    {
      "type": "Feature",
      "id": "node/12073310580",
      "properties": {
        "timestamp": "2024-07-25T10:42:19Z",
        "version": 1,
        "changeset": 154387190,
        "addr:housenumber": "91",
        "addr:postcode": "45930-000",
        "addr:street": "Rua Antônio Carlos Magalhães",
        "addr:suburb": "Taquarinha",
        "amenity": "school",
        "building": "yes",
        "name": "Escola Municipal Aristes Rocha",
        "id": "node/12073310580"
      },
      "geometry": {
        "type": "Point",
        "coordinates": [
          -40.2392976,
          -17.9411212
        ]
      }
    },
    {
      "type": "Feature",
      "id": "node/12073312093",
      "properties": {
        "timestamp": "2024-07-25T10:42:30Z",
        "version": 1,
        "changeset": 154387190,
        "addr:housenumber": "49",
        "addr:postcode": "45936-000",
        "addr:street": "Rua Sergipe",
        "addr:suburb": "Centro",
        "amenity": "school",
        "building": "yes",
        "fixme": "Verificar coordenadas",
        "name": "Escola Municipal Sítio do Pica Pau Amare",
        "note": "Não foi possível projetar na face",
        "id": "node/12073312093"
      },
      "geometry": {
        "type": "Point",
        "coordinates": [
          -39.8628553,
          -18.0106109
        ]
      }
    },
    {
      "type": "Feature",
      "id": "node/12073312372",
      "properties": {
        "timestamp": "2024-07-25T10:42:30Z",
        "version": 1,
        "changeset": 154387190,
        "addr:housenumber": "24",
        "addr:postcode": "45930-000",
        "addr:street": "Rua do Comércio",
        "addr:suburb": "Ibiranhem",
        "amenity": "school",
        "building": "yes",
        "fixme": "Verificar coordenadas",
        "name": "Em Hernani Saúde Ribeiro",
        "note": "Sem face no bayface do IBGE",
        "id": "node/12073312372"
      },
      "geometry": {
        "type": "Point",
        "coordinates": [
          -40.173238,
          -17.852237
        ]
      }
    },
    {
      "type": "Feature",
      "id": "node/12095079207",
      "properties": {
        "timestamp": "2024-08-06T11:00:41Z",
        "version": 1,
        "changeset": 154887805,
        "entrance": "yes",
        "id": "node/12095079207"
      },
      "geometry": {
        "type": "Point",
        "coordinates": [
          -39.8691863,
          -18.0066396
        ]
      }
    },
    {
      "type": "Feature",
      "id": "node/12095079208",
      "properties": {
        "timestamp": "2024-08-06T11:00:41Z",
        "version": 1,
        "changeset": 154887805,
        "entrance": "yes",
        "id": "node/12095079208"
      },
      "geometry": {
        "type": "Point",
        "coordinates": [
          -39.8685607,
          -18.0087023
        ]
      }
    }
  ]
}
