{
  "type": "FeatureCollection",
  "features": [
    {
      "type": "Feature",
      "id": "node/10592329579",
      "properties": {
        "timestamp": "2023-01-29T19:30:22Z",
        "version": 1,
        "changeset": 131852274,
        "addr:city": "Mucuri",
        "addr:housenumber": "1875",
        "addr:postcode": "45930-000",
        "addr:street": "Avenida Central",
        "addr:suburb": "Pôr do Sol",
        "amenity": "social_facility",
        "name": "Lar dos Idosos de Mucuri",
        "operator": "Pastoral da Caridade Lar dos Idosos Mucuri",
        "operator:type": "private",
        "phone": "+55 73 99979 7946",
        "social_facility": "group_home",
        "social_facility:for": "senior",
        "wheelchair": "yes",
        "id": "node/10592329579"
      },
      "geometry": {
        "type": "Point",
        "coordinates": [
          -39.5414916,
          -18.0689181
        ]
      }
    },
    {
      "type": "Feature",
      "id": "node/12073310188",
      "properties": {
        "timestamp": "2024-07-25T10:42:19Z",
        "version": 1,
        "changeset": 154387190,
        "addr:housenumber": "43",
        "addr:postcode": "45936-000",
        "addr:street": "Rua Estados Unidos",
        "addr:suburb": "Cidade Nova",
        "amenity": "social_facility",
        "brand:wikidata": "Q12346028",
        "brand:wikipedia": "Centro_de_Atenção_Psicossocial",
        "building": "yes",
        "healthcare": "yes",
        "name": "Centro de Atenção Psicossocial",
        "office": "government",
        "short_name": "CAPS",
        "id": "node/12073310188"
      },
      "geometry": {
        "type": "Point",
        "coordinates": [
          -39.8595082,
          -18.0071556
        ]
      }
    },
    {
      "type": "Feature",
      "id": "node/12073311127",
      "properties": {
        "timestamp": "2024-07-28T23:16:19Z",
        "version": 2,
        "changeset": 154541132,
        "addr:housenumber": "6",
        "addr:postcode": "45936-000",
        "addr:street": "Rua Itapebi",
        "addr:suburb": "Gazinelandia",
        "amenity": "social_facility",
        "brand:wikidata": "Q16494876",
        "brand:wikipedia": "pt:Associação_de_Pais_e_Amigos_dos_Excepcionais",
        "building": "yes",
        "name": "Associação de Pais e Amigos dos Excepcionais",
        "official_name": "Associação de Pais e Amigos dos Excepcionais",
        "operator": "Associação de Pais e Amigos dos Excepcionais",
        "operator:wikidata": "Q16494876",
        "short_name": "APAE",
        "id": "node/12073311127"
      },
      "geometry": {
        "type": "Point",
        "coordinates": [
          -39.8653643,
          -18.0031463
        ]
      }
    }
  ]
}
