{
  "type": "FeatureCollection",
  "features": [
    {
      "type": "Feature",
      "id": "way/381451314",
      "properties": {
        "timestamp": "2024-03-13T17:49:02Z",
        "version": 4,
        "changeset": 148606067,
        "addr:city": "Salgueiro",
        "addr:housenumber": "S/N",
        "addr:street": "BR 232, Km 504, sentido Recife",
        "amenity": "college",
        "building:levels": "1",
        "check_date": "2024-03-13",
        "name": "IFSertão-PE - Campus Salgueiro",
        "opening_hours": "Mo-Fr 07:00-22:00",
        "operator": "Ministério da Educação",
        "website": "https://www.ifsertao-pe.edu.br/index.php/campus/salgueiro",
        "id": "way/381451314"
      },
      "geometry": {
        "type": "Polygon",
        "coordinates": [
          [
            [
              -39.0963619,
              -8.0579299
            ],
            [
              -39.095949,
              -8.0588236
            ],
            [
              -39.0935868,
              -8.0586049
            ],
            [
              -39.0933083,
              -8.0570552
            ],
            [
              -39.0950848,
              -8.0573024
            ],
            [
              -39.0963619,
              -8.0579299
            ]
          ]
        ]
      }
    }
  ]
}
