{
  "type": "FeatureCollection",
  "features": [
    {
      "type": "Feature",
      "id": "node/5926949723",
      "properties": {
        "timestamp": "2022-11-28T22:54:14Z",
        "version": 2,
        "changeset": 129495044,
        "addr:city": "São Sebastião do Maranhão",
        "addr:housenumber": "103",
        "addr:postcode": "39795-000",
        "addr:street": "Avenida Ismar Gomes Ribeiro",
        "addr:suburb": "Centro",
        "amenity": "school",
        "name": "Escola Estadual Antônio Soares Pimenta",
        "operator": "Governo de Minas Gerais",
        "operator:type": "public",
        "id": "node/5926949723"
      },
      "geometry": {
        "type": "Point",
        "coordinates": [
          -42.5704001,
          -18.0892681
        ]
      }
    },
    {
      "type": "Feature",
      "id": "node/5930215807",
      "properties": {
        "timestamp": "2022-11-29T14:34:50Z",
        "version": 4,
        "changeset": 129524301,
        "addr:city": "São Sebastião do Maranhão",
        "addr:postcode": "39795-000",
        "addr:street": "Praça Serra Negra",
        "addr:suburb": "Centro",
        "amenity": "school",
        "name": "Pré-Escolar Municipal Arco-Íris",
        "operator": "Município de São Sebastião do Maranhão",
        "operator:type": "public",
        "id": "node/5930215807"
      },
      "geometry": {
        "type": "Point",
        "coordinates": [
          -42.5700191,
          -18.0853746
        ]
      }
    },
    {
      "type": "Feature",
      "id": "node/10224494531",
      "properties": {
        "timestamp": "2022-11-28T22:54:14Z",
        "version": 2,
        "changeset": 129495044,
        "addr:city": "São Sebastião do Maranhão",
        "addr:postcode": "39795-000",
        "addr:suburb": "Santa Luzia",
        "amenity": "school",
        "name": "Escola Estadual Altair Andrade Magalhães",
        "operator": "Governo de Minas Gerais",
        "operator:type": "public",
        "id": "node/10224494531"
      },
      "geometry": {
        "type": "Point",
        "coordinates": [
          -42.5058344,
          -18.1015385
        ]
      }
    },
    {
      "type": "Feature",
      "id": "node/10224582761",
      "properties": {
        "timestamp": "2023-08-11T11:40:47Z",
        "version": 2,
        "changeset": 139746945,
        "addr:city": "São Sebastião do Maranhão",
        "addr:housenumber": "795",
        "addr:postcode": "39795-000",
        "addr:street": "Rua Cônego Lafaiete",
        "addr:suburb": "Centro",
        "amenity": "school",
        "name": "Escola Estadual São Sebastião do Maranhão",
        "operator": "Governo de Minas Gerais",
        "operator:type": "public",
        "id": "node/10224582761"
      },
      "geometry": {
        "type": "Point",
        "coordinates": [
          -42.5693677,
          -18.0889108
        ]
      }
    },
    {
      "type": "Feature",
      "id": "node/10224582762",
      "properties": {
        "timestamp": "2022-11-28T22:54:14Z",
        "version": 1,
        "changeset": 129495044,
        "addr:city": "São Sebastião do Maranhão",
        "addr:housenumber": "103",
        "addr:postcode": "39795-000",
        "addr:street": "Avenida Ismar Gomes Ribeiro",
        "addr:suburb": "Centro",
        "amenity": "school",
        "name": "Escola Estadual Deputado Augusto Costa",
        "operator": "Governo de Minas Gerais",
        "operator:type": "public",
        "id": "node/10224582762"
      },
      "geometry": {
        "type": "Point",
        "coordinates": [
          -42.5702451,
          -18.0890451
        ]
      }
    },
    {
      "type": "Feature",
      "id": "node/10225780935",
      "properties": {
        "timestamp": "2022-11-29T14:27:56Z",
        "version": 1,
        "changeset": 129524036,
        "addr:city": "São Sebastião do Maranhão",
        "addr:housenumber": "251",
        "addr:postcode": "39795-000",
        "addr:street": "Rua José Franklin dos Reis",
        "addr:suburb": "Mãe dos Homens",
        "amenity": "school",
        "name": "Escola Estadual Doutor Cristiano Machado",
        "operator": "Governo de Minas Gerais",
        "operator:type": "public",
        "id": "node/10225780935"
      },
      "geometry": {
        "type": "Point",
        "coordinates": [
          -42.5937314,
          -18.1307288
        ]
      }
    },
    {
      "type": "Feature",
      "id": "node/10228264799",
      "properties": {
        "timestamp": "2022-11-30T15:01:38Z",
        "version": 2,
        "changeset": 129565524,
        "addr:city": "São Sebastião do Maranhão",
        "addr:housenumber": "82",
        "addr:postcode": "39795-000",
        "addr:street": "Rua José Franklin dos Reis",
        "addr:suburb": "Santo Antônio dos Araújos",
        "amenity": "school",
        "email": "escola.45616@educacao.mg.gov.br",
        "name": "Escola Estadual Santo Antônio dos Araújos",
        "operator": "Governo de Minas Gerais",
        "operator:type": "public",
        "phone": "+55 33 3432 2001",
        "id": "node/10228264799"
      },
      "geometry": {
        "type": "Point",
        "coordinates": [
          -42.5242353,
          -18.0158173
        ]
      }
    }
  ]
}
