{
  "type": "FeatureCollection",
  "features": [
    {
      "type": "Feature",
      "id": "way/717332222",
      "properties": {
        "timestamp": "2021-08-24T20:52:03Z",
        "version": 3,
        "changeset": 110193532,
        "addr:city": "São Raimundo das Mangabeiras",
        "addr:postcode": "65840-000",
        "addr:street": "Rodovia BR-230, Km 319",
        "addr:suburb": "Zona Rural",
        "amenity": "college",
        "campus": "São Raimundo das Mangabeiras",
        "name": "Instituto Federal de Educação, Ciência e Tecnologia do Maranhão",
        "operator": "#IFES",
        "website": "https://srmangabeiras.ifma.edu.br/",
        "id": "way/717332222"
      },
      "geometry": {
        "type": "Polygon",
        "coordinates": [
          [
            [
              -45.5158016,
              -7.0389616
            ],
            [
              -45.5158891,
              -7.0362259
            ],
            [
              -45.5184761,
              -7.0361662
            ],
            [
              -45.5187824,
              -7.0374255
            ],
            [
              -45.5189191,
              -7.0389236
            ],
            [
              -45.5158016,
              -7.0389616
            ]
          ]
        ]
      }
    }
  ]
}
