{
  "type": "FeatureCollection",
  "features": [
    {
      "type": "Feature",
      "id": "way/1027692752",
      "properties": {
        "timestamp": "2022-02-04T12:07:43Z",
        "version": 1,
        "changeset": 117004086,
        "addr:city": "Vila Nova do Piauí",
        "addr:housenumber": "388",
        "addr:postcode": "64688-000",
        "addr:street": "Avenida Central",
        "amenity": "school",
        "name": "Unid Esc Luiz Ubiraci De Carvalho",
        "phone": "+55 89 3438 1193",
        "id": "way/1027692752"
      },
      "geometry": {
        "type": "Polygon",
        "coordinates": [
          [
            [
              -40.9395947,
              -7.1433093
            ],
            [
              -40.9395342,
              -7.1437191
            ],
            [
              -40.9392616,
              -7.1436795
            ],
            [
              -40.939322,
              -7.1432697
            ],
            [
              -40.9395947,
              -7.1433093
            ]
          ]
        ]
      }
    },
    {
      "type": "Feature",
      "id": "node/9467311932",
      "properties": {
        "timestamp": "2022-02-01T23:22:23Z",
        "version": 1,
        "changeset": 116889315,
        "addr:city": "Vila Nova do Piauí",
        "addr:postcode": "64688-000",
        "amenity": "school",
        "name": "Unid Esc Sabino Gomes De Lima",
        "phone": "+55 89 3437 0068",
        "id": "node/9467311932"
      },
      "geometry": {
        "type": "Point",
        "coordinates": [
          -40.9395414,
          -7.1421156
        ]
      }
    }
  ]
}
