{
  "type": "FeatureCollection",
  "features": [
    {
      "type": "Feature",
      "id": "way/1028992003",
      "properties": {
        "timestamp": "2022-02-07T14:07:53Z",
        "version": 1,
        "changeset": 117121503,
        "addr:city": "Santo Antônio dos Milagres",
        "addr:housenumber": "673",
        "addr:postcode": "64438-000",
        "addr:street": "Avenida Coronel Torquato Araújo",
        "addr:suburb": "Centro",
        "amenity": "school",
        "name": "Unidade Escolar Santo Antonio",
        "phone": "+55 86 3239 0046",
        "id": "way/1028992003"
      },
      "geometry": {
        "type": "Polygon",
        "coordinates": [
          [
            [
              -42.7111034,
              -6.0471039
            ],
            [
              -42.7107306,
              -6.0474267
            ],
            [
              -42.7104677,
              -6.0471146
            ],
            [
              -42.7107842,
              -6.0467652
            ],
            [
              -42.7111034,
              -6.0471039
            ]
          ]
        ]
      }
    },
    {
      "type": "Feature",
      "id": "way/1028992058",
      "properties": {
        "timestamp": "2022-02-07T14:08:22Z",
        "version": 1,
        "changeset": 117121525,
        "amenity": "school",
        "name": "Unid Esc Ildelfonso Jose De Araujo",
        "id": "way/1028992058"
      },
      "geometry": {
        "type": "Polygon",
        "coordinates": [
          [
            [
              -42.7114807,
              -6.0353475
            ],
            [
              -42.7119586,
              -6.0350174
            ],
            [
              -42.7121238,
              -6.0352359
            ],
            [
              -42.7116539,
              -6.0356186
            ],
            [
              -42.7114807,
              -6.0353475
            ]
          ]
        ]
      }
    },
    {
      "type": "Feature",
      "id": "way/1028992350",
      "properties": {
        "timestamp": "2022-02-07T14:09:41Z",
        "version": 1,
        "changeset": 117121576,
        "amenity": "school",
        "name": "Grupo Escolar Adalberto Correia Lima",
        "id": "way/1028992350"
      },
      "geometry": {
        "type": "Polygon",
        "coordinates": [
          [
            [
              -42.6909957,
              -6.0717721
            ],
            [
              -42.6908611,
              -6.0720295
            ],
            [
              -42.6905038,
              -6.0718304
            ],
            [
              -42.6906005,
              -6.0716588
            ],
            [
              -42.6909957,
              -6.0717721
            ]
          ]
        ]
      }
    },
    {
      "type": "Feature",
      "id": "node/9486885175",
      "properties": {
        "timestamp": "2022-02-07T14:06:48Z",
        "version": 1,
        "changeset": 117121464,
        "addr:city": "Angical do Piauí",
        "addr:housenumber": "2090",
        "addr:postcode": "64438-000",
        "addr:street": "Avenida Coronel Torquato Araújo",
        "addr:suburb": "Santo Antônio dos Milagres",
        "amenity": "school",
        "name": "Unid Esc Ciriaco Jose De Araujo",
        "phone": "+55 86 3239 0021",
        "id": "node/9486885175"
      },
      "geometry": {
        "type": "Point",
        "coordinates": [
          -42.7186109,
          -6.0526545
        ]
      }
    },
    {
      "type": "Feature",
      "id": "node/9486917445",
      "properties": {
        "timestamp": "2022-02-07T14:09:11Z",
        "version": 1,
        "changeset": 117121557,
        "addr:city": "Santo Antônio dos Milagres",
        "addr:postcode": "64438-000",
        "addr:street": "Rua Antonio Gomes",
        "amenity": "school",
        "name": "Unid Esc Antonio Gomes Vilanova",
        "phone": "+55 86 3239 0032",
        "id": "node/9486917445"
      },
      "geometry": {
        "type": "Point",
        "coordinates": [
          -42.7021609,
          -6.0385659
        ]
      }
    }
  ]
}
