{
  "type": "FeatureCollection",
  "features": [
    {
      "type": "Feature",
      "id": "node/5322277564",
      "properties": {
        "timestamp": "2018-06-19T22:43:56Z",
        "version": 2,
        "changeset": 59992644,
        "addr:city": "Itapeva",
        "addr:country": "BR",
        "addr:housenumber": "152",
        "addr:postcode": "37655-000",
        "addr:street": "Rua Otavio Lemes da Silva",
        "email": "camara@camaraitapeva.mg.gov.br",
        "fax": "+55 35 3434 1582",
        "government": "legislative",
        "name": "CÃ¢mara Municipal de Itapeva",
        "office": "government",
        "opening_hours": "Mo-Fr 08:00-12:00, 13:00-17:00; PH off",
        "phone": "+55 35 3434 1177",
        "source": "http://www.itapeva.mg.leg.br/",
        "website": "http://www.itapeva.mg.leg.br/",
        "id": "node/5322277564"
      },
      "geometry": {
        "type": "Point",
        "coordinates": [
          -46.2239268,
          -22.768401
        ]
      }
    }
  ]
}
