{
  "type": "FeatureCollection",
  "features": [
    {
      "type": "Feature",
      "id": "node/1241363193",
      "properties": {
        "timestamp": "2018-01-05T16:22:12Z",
        "version": 3,
        "changeset": 55190963,
        "addr:city": "Itapeva",
        "addr:country": "BR",
        "addr:postcode": "37655-000",
        "addr:street": "Praça Prefeito João Lemes da Silva",
        "amenity": "school",
        "email": "escola.55590@educacao.mg.gov.br",
        "name": "Escola Estadual Doutor José Rodrigues Seabra",
        "operator": "Secretaria de Estado de Educação de Minas Gerais",
        "phone": "+55 35 3434 1313",
        "id": "node/1241363193"
      },
      "geometry": {
        "type": "Point",
        "coordinates": [
          -46.2209874,
          -22.7681954
        ]
      }
    },
    {
      "type": "Feature",
      "id": "node/1241363199",
      "properties": {
        "timestamp": "2018-01-05T16:22:12Z",
        "version": 2,
        "changeset": 55190963,
        "amenity": "school",
        "name": "Escola Municipal Dirce Monteiro Lopes",
        "phone": "+55 35 3434 1296",
        "id": "node/1241363199"
      },
      "geometry": {
        "type": "Point",
        "coordinates": [
          -46.223919,
          -22.768826
        ]
      }
    }
  ]
}
