{
  "type": "FeatureCollection",
  "features": [
    {
      "type": "Feature",
      "id": "way/1354061786",
      "properties": {
        "timestamp": "2025-01-25T00:15:43Z",
        "version": 1,
        "changeset": 161731872,
        "addr:city": "Alto Alegre do Pindaré",
        "addr:postcode": "65398-000",
        "addr:street": "Rua Seis",
        "addr:suburb": "Multirão",
        "amenity": "clinic",
        "building": "house",
        "healthcare": "clinic",
        "name": "posto de saude",
        "opening_hours": "Mo-Fr 08:00-17:00",
        "id": "way/1354061786"
      },
      "geometry": {
        "type": "Polygon",
        "coordinates": [
          [
            [
              -45.8400136,
              -3.6714986
            ],
            [
              -45.839923,
              -3.6716244
            ],
            [
              -45.8398621,
              -3.6715806
            ],
            [
              -45.8399598,
              -3.6714548
            ],
            [
              -45.8400136,
              -3.6714986
            ]
          ]
        ]
      }
    }
  ]
}
