{
  "type": "FeatureCollection",
  "features": [
    {
      "type": "Feature",
      "id": "way/1354061785",
      "properties": {
        "timestamp": "2025-01-25T00:15:43Z",
        "version": 1,
        "changeset": 161731872,
        "addr:city": "Alto Alegre do Pindaré",
        "addr:postcode": "65398-000",
        "addr:street": "Rua Seis",
        "addr:suburb": "Multirão",
        "amenity": "pharmacy",
        "building": "house",
        "dispensing": "yes",
        "drive_through": "no",
        "healthcare": "pharmacy",
        "opening_hours": "Mo-Sa 08:00-20:00",
        "id": "way/1354061785"
      },
      "geometry": {
        "type": "Polygon",
        "coordinates": [
          [
            [
              -45.8402654,
              -3.6715608
            ],
            [
              -45.8402117,
              -3.6715299
            ],
            [
              -45.8402955,
              -3.671423
            ],
            [
              -45.8403599,
              -3.6714597
            ],
            [
              -45.8402654,
              -3.6715608
            ]
          ]
        ]
      }
    }
  ]
}
