{
  "type": "FeatureCollection",
  "features": [
    {
      "type": "Feature",
      "id": "node/11044132302",
      "properties": {
        "timestamp": "2023-07-13T13:28:59Z",
        "version": 1,
        "changeset": 138464698,
        "addr:city": "Caturama",
        "addr:postcode": "46575000",
        "addr:street": "Avenida Laurinda Cardoso",
        "addr:suburb": "Centro",
        "air_conditioning": "yes",
        "amenity": "clinic",
        "healthcare": "clinic",
        "healthcare:speciality": "orthodontics;implatodontia;dental_oral_maxillo_facial_surgery;gynaecology;humanistic;general;dentist;nutricionista;neuropsicologia;neuropsicopedagogia;orthopaedics",
        "level": "0",
        "name": "Cliníca Sorrir Mais",
        "opening_hours": "Mo-Fr 08:00-17:00",
        "payment:account_cards": "yes",
        "payment:cards": "yes",
        "payment:cash": "yes",
        "payment:credit_cards": "yes",
        "payment:debit_cards": "yes",
        "payment:mastercard": "yes",
        "payment:visa": "yes",
        "phone": "+5577988299033",
        "start_date": "2023-07-10",
        "website": "https://wa.me/5577988299033",
        "wheelchair": "yes",
        "id": "node/11044132302"
      },
      "geometry": {
        "type": "Point",
        "coordinates": [
          -42.2901774,
          -13.3308021
        ]
      }
    },
    {
      "type": "Feature",
      "id": "node/11044132303",
      "properties": {
        "timestamp": "2023-07-13T13:28:59Z",
        "version": 1,
        "changeset": 138464698,
        "addr:city": "Caturama",
        "addr:postcode": "46575000",
        "amenity": "clinic",
        "healthcare": "clinic",
        "healthcare:speciality": "vaccination;internal;community",
        "name": "UBSF da Sede",
        "opening_hours": "Mo-Fr 08:00-17:00",
        "operator": "Sec. Municipal de Saúde de Caturama (SUS)",
        "operator:type": "public",
        "id": "node/11044132303"
      },
      "geometry": {
        "type": "Point",
        "coordinates": [
          -42.2918143,
          -13.3334598
        ]
      }
    }
  ]
}
