{
  "type": "FeatureCollection",
  "features": [
    {
      "type": "Feature",
      "id": "node/11044111403",
      "properties": {
        "timestamp": "2023-10-18T05:09:02Z",
        "version": 2,
        "changeset": 142741920,
        "addr:city": "Caturama",
        "addr:postcode": "46575000",
        "addr:street": "Rua Jose Ribeiro Lula",
        "addr:suburb": "Centro",
        "government": "public_service",
        "name": "Consórcio de Desenvolvimento Sustentável Bacia do Paramirim",
        "office": "government",
        "opening_hours": "Mo-Fr 08:00-17:00",
        "website": "https://cdsbp.ba.gov.br/",
        "id": "node/11044111403"
      },
      "geometry": {
        "type": "Point",
        "coordinates": [
          -42.292147,
          -13.3306905
        ]
      }
    },
    {
      "type": "Feature",
      "id": "node/11044133909",
      "properties": {
        "timestamp": "2023-07-13T13:28:59Z",
        "version": 1,
        "changeset": 138464698,
        "addr:city": "Caturama",
        "addr:postcode": "46575000",
        "addr:street": "Avenida Deputado Henrique Brito",
        "addr:suburb": "Centro",
        "government": "public_service",
        "name": "Secretaria Municipal de Educação",
        "office": "government",
        "id": "node/11044133909"
      },
      "geometry": {
        "type": "Point",
        "coordinates": [
          -42.2926447,
          -13.3302781
        ]
      }
    }
  ]
}
