{
  "type": "FeatureCollection",
  "features": [
    {
      "type": "Feature",
      "id": "way/563717690",
      "properties": {
        "timestamp": "2022-02-06T16:57:19Z",
        "version": 3,
        "changeset": 117087117,
        "addr:city": "Barra d'Alc창ntaras",
        "addr:postcode": "64528-000",
        "addr:street": "Avenida Francisco Guedes de Sousa",
        "addr:suburb": "Centro",
        "amenity": "school",
        "operator": "Unid Esc M De Educacao De Jovens E Adultos",
        "id": "way/563717690"
      },
      "geometry": {
        "type": "Polygon",
        "coordinates": [
          [
            [
              -42.1058482,
              -6.5170286
            ],
            [
              -42.1058187,
              -6.517315
            ],
            [
              -42.1055478,
              -6.5172857
            ],
            [
              -42.1055813,
              -6.5169886
            ],
            [
              -42.1058482,
              -6.5170286
            ]
          ]
        ]
      }
    },
    {
      "type": "Feature",
      "id": "node/9483886064",
      "properties": {
        "timestamp": "2022-02-06T16:51:42Z",
        "version": 1,
        "changeset": 117086864,
        "amenity": "school",
        "name": "Unidade Escolar Francisco Juvenal",
        "phone": "+55 89 342 30131",
        "id": "node/9483886064"
      },
      "geometry": {
        "type": "Point",
        "coordinates": [
          -42.0497619,
          -6.5103557
        ]
      }
    },
    {
      "type": "Feature",
      "id": "node/9483886456",
      "properties": {
        "timestamp": "2022-02-06T16:57:53Z",
        "version": 1,
        "changeset": 117087139,
        "addr:city": "Barra D'Alc창ntara",
        "addr:postcode": "64528-000",
        "amenity": "school",
        "name": "U E Firmo Rodrigues Sobreira",
        "id": "node/9483886456"
      },
      "geometry": {
        "type": "Point",
        "coordinates": [
          -42.1097736,
          -6.5221624
        ]
      }
    },
    {
      "type": "Feature",
      "id": "node/9483887840",
      "properties": {
        "timestamp": "2022-02-06T16:57:19Z",
        "version": 2,
        "changeset": 117087117,
        "addr:city": "Barra d'Alc창ntara",
        "addr:postcode": "64528-000",
        "addr:street": "Rua Joel Pereira dos Santos",
        "addr:suburb": "Centro",
        "amenity": "school",
        "name": "Unidade Escolar Vanderlane Nunes",
        "id": "node/9483887840"
      },
      "geometry": {
        "type": "Point",
        "coordinates": [
          -42.1084571,
          -6.5190777
        ]
      }
    },
    {
      "type": "Feature",
      "id": "node/9483888325",
      "properties": {
        "timestamp": "2022-02-06T16:57:19Z",
        "version": 1,
        "changeset": 117087117,
        "addr:city": "Barra d'Alc창ntara",
        "addr:postcode": "64528-000",
        "addr:street": "Rua Joel Pereira dos Santos",
        "addr:suburb": "Centro",
        "amenity": "school",
        "name": "Unidade Escolar Francisco Guedes De Sousa",
        "id": "node/9483888325"
      },
      "geometry": {
        "type": "Point",
        "coordinates": [
          -42.1083173,
          -6.5194875
        ]
      }
    }
  ]
}
