{
  "type": "FeatureCollection",
  "features": [
    {
      "type": "Feature",
      "id": "node/9563384663",
      "properties": {
        "timestamp": "2022-03-08T19:39:10Z",
        "version": 1,
        "changeset": 118250190,
        "addr:city": "Ouro Branco",
        "addr:street": "Rua Coronel Lucena",
        "addr:suburb": "Centro",
        "government": "social_security",
        "office": "government",
        "opening_hours": "Mo-Fr 07:00-13:00",
        "operator": "Instituto Nacional do Seguro Social",
        "operator:short": "INSS",
        "operator:wikidata": "Q10302614",
        "operator:wikipedia": "pt:Instituto Nacional do Seguro Social",
        "id": "node/9563384663"
      },
      "geometry": {
        "type": "Point",
        "coordinates": [
          -37.3590089,
          -9.1619255
        ]
      }
    },
    {
      "type": "Feature",
      "id": "node/10974876405",
      "properties": {
        "timestamp": "2023-06-13T19:30:44Z",
        "version": 1,
        "changeset": 137300245,
        "name:en": "Prefeitura de Ouro Branco",
        "office": "government",
        "id": "node/10974876405"
      },
      "geometry": {
        "type": "Point",
        "coordinates": [
          -37.3589265,
          -9.1620395
        ]
      }
    }
  ]
}
