{
  "type": "FeatureCollection",
  "features": [
    {
      "type": "Feature",
      "id": "node/4339053904",
      "properties": {
        "timestamp": "2016-09-08T22:23:37Z",
        "version": 2,
        "changeset": 42014024,
        "addr:city": "Matinhos",
        "addr:housenumber": "828",
        "addr:postcode": "83260-000",
        "addr:street": "Avenida Paraná",
        "addr:suburb": "Centro",
        "amenity": "hospital",
        "name": "Hospital Nossa Senhora dos Navegantes",
        "operator": "Municipal",
        "id": "node/4339053904"
      },
      "geometry": {
        "type": "Point",
        "coordinates": [
          -48.5442453,
          -25.8301343
        ]
      }
    },
    {
      "type": "Feature",
      "id": "node/9356999451",
      "properties": {
        "timestamp": "2024-07-04T00:21:07Z",
        "version": 3,
        "changeset": 153523431,
        "addr:city": "Matinhos",
        "addr:housenumber": "2994",
        "addr:postcode": "83260-000",
        "addr:street": "Rua 19 de Dezembro",
        "addr:suburb": "Praia Grande",
        "amenity": "hospital",
        "emergency": "yes",
        "healthcare": "hospital",
        "name": "UPA Praia Grande",
        "id": "node/9356999451"
      },
      "geometry": {
        "type": "Point",
        "coordinates": [
          -48.5195975,
          -25.777378
        ]
      }
    },
    {
      "type": "Feature",
      "id": "node/12032115298",
      "properties": {
        "timestamp": "2024-07-03T23:21:01Z",
        "version": 1,
        "changeset": 153522690,
        "addr:city": "Matinhos",
        "addr:housenumber": "896",
        "addr:postcode": "83260000",
        "addr:street": "Rua Santa Catarina",
        "addr:suburb": "Vila Nova",
        "amenity": "hospital",
        "healthcare": "hospital",
        "healthcare:speciality": "general",
        "name": "UBS Vila Nova",
        "id": "node/12032115298"
      },
      "geometry": {
        "type": "Point",
        "coordinates": [
          -48.5501783,
          -25.8332379
        ]
      }
    },
    {
      "type": "Feature",
      "id": "node/12032119011",
      "properties": {
        "timestamp": "2024-07-03T23:11:11Z",
        "version": 2,
        "changeset": 153522522,
        "addr:city": "Matinhos",
        "addr:housenumber": "18",
        "addr:postcode": "83260000",
        "addr:street": "Rua Lea Vialle Cury",
        "addr:suburb": "Centro",
        "amenity": "hospital",
        "healthcare": "hospital",
        "healthcare:speciality": "general",
        "name": "UBS Centro",
        "id": "node/12032119011"
      },
      "geometry": {
        "type": "Point",
        "coordinates": [
          -48.5336838,
          -25.8182018
        ]
      }
    },
    {
      "type": "Feature",
      "id": "node/12032121511",
      "properties": {
        "timestamp": "2024-07-03T23:24:47Z",
        "version": 1,
        "changeset": 153522748,
        "addr:city": "Matinhos",
        "addr:housenumber": "515",
        "addr:postcode": "83260-000",
        "addr:street": "Avenida Paraná",
        "addr:suburb": "Tabuleiro",
        "amenity": "hospital",
        "healthcare": "hospital",
        "name": "Secretária da Saúde",
        "id": "node/12032121511"
      },
      "geometry": {
        "type": "Point",
        "coordinates": [
          -48.5444946,
          -25.8305515
        ]
      }
    },
    {
      "type": "Feature",
      "id": "node/12032124551",
      "properties": {
        "timestamp": "2024-07-03T23:12:46Z",
        "version": 3,
        "changeset": 153522561,
        "addr:city": "Matinhos",
        "addr:postcode": "83260000",
        "addr:street": "Rua Bituruna",
        "addr:suburb": "Sertãozinho",
        "amenity": "hospital",
        "healthcare": "hospital",
        "healthcare:speciality": "general",
        "name": "UBS Sertãozinho",
        "id": "node/12032124551"
      },
      "geometry": {
        "type": "Point",
        "coordinates": [
          -48.5479609,
          -25.8122409
        ]
      }
    },
    {
      "type": "Feature",
      "id": "node/12032131085",
      "properties": {
        "timestamp": "2024-07-03T23:36:33Z",
        "version": 1,
        "changeset": 153522883,
        "addr:city": "Matinhos",
        "addr:housenumber": "574",
        "addr:postcode": "83260000",
        "addr:street": "Rua Avenida Paranaguá",
        "addr:suburb": "Rivieira",
        "amenity": "hospital",
        "healthcare": "hospital",
        "healthcare:speciality": "general",
        "name": "UBS Balneário Rivieira",
        "id": "node/12032131085"
      },
      "geometry": {
        "type": "Point",
        "coordinates": [
          -48.5241435,
          -25.7910849
        ]
      }
    },
    {
      "type": "Feature",
      "id": "node/12032132990",
      "properties": {
        "timestamp": "2024-07-03T23:32:50Z",
        "version": 1,
        "changeset": 153522834,
        "addr:city": "Matinhos",
        "addr:housenumber": "222",
        "addr:postcode": "83260000",
        "addr:street": "Rua Adaelton de Lima Junior",
        "addr:suburb": "Mangue Seco",
        "amenity": "hospital",
        "healthcare": "hospital",
        "name": "UBS Mangue Seco",
        "id": "node/12032132990"
      },
      "geometry": {
        "type": "Point",
        "coordinates": [
          -48.5433384,
          -25.8023762
        ]
      }
    },
    {
      "type": "Feature",
      "id": "node/12032133440",
      "properties": {
        "timestamp": "2024-07-03T23:22:53Z",
        "version": 1,
        "changeset": 153522722,
        "addr:city": "Matinhos",
        "addr:housenumber": "200",
        "addr:postcode": "83260-000",
        "addr:street": "Rua Nossa Senhora Aparecida",
        "addr:suburb": "Tabuleiro",
        "amenity": "hospital",
        "healthcare": "hospital",
        "healthcare:speciality": "general",
        "name": "UBS Tabuleiro",
        "id": "node/12032133440"
      },
      "geometry": {
        "type": "Point",
        "coordinates": [
          -48.5444011,
          -25.8294295
        ]
      }
    },
    {
      "type": "Feature",
      "id": "node/12032141619",
      "properties": {
        "timestamp": "2024-07-03T23:43:01Z",
        "version": 1,
        "changeset": 153522981,
        "amenity": "hospital",
        "healthcare": "hospital",
        "name": "Ambulatório UFPR",
        "id": "node/12032141619"
      },
      "geometry": {
        "type": "Point",
        "coordinates": [
          -48.5389827,
          -25.8347871
        ]
      }
    },
    {
      "type": "Feature",
      "id": "node/12032156512",
      "properties": {
        "timestamp": "2024-07-03T23:30:24Z",
        "version": 1,
        "changeset": 153522807,
        "addr:city": "Matinhos",
        "addr:housenumber": "1290- 1660",
        "addr:postcode": "83260000",
        "addr:street": "Av. Paranaguá, 1290-1660, Matinhos - PR, 83260-000",
        "addr:suburb": "Balneário Perequê",
        "amenity": "hospital",
        "healthcare": "hospital",
        "healthcare:speciality": "general",
        "name": "UBS Balneário Perequê",
        "id": "node/12032156512"
      },
      "geometry": {
        "type": "Point",
        "coordinates": [
          -48.5006748,
          -25.7473762
        ]
      }
    }
  ]
}
