{
  "type": "FeatureCollection",
  "features": [
    {
      "type": "Feature",
      "id": "way/1180776765",
      "properties": {
        "timestamp": "2023-06-09T22:26:58Z",
        "version": 1,
        "changeset": 137155488,
        "addr:city": "Matinhos",
        "addr:housenumber": "3200",
        "addr:street": "Avenida Juscelino Kubitschek de Oliveira",
        "addr:suburb": "Caiobá",
        "address": "Avenida Juscelino Kubitschek de Oliveira esquina com Rua Antonina",
        "amenity": "pharmacy",
        "building": "yes",
        "drive_through": "no",
        "healthcare": "pharmacy",
        "name": "Farmácia Nissei",
        "parking": "yes",
        "id": "way/1180776765"
      },
      "geometry": {
        "type": "Polygon",
        "coordinates": [
          [
            [
              -48.5410183,
              -25.8239929
            ],
            [
              -48.5410552,
              -25.8240744
            ],
            [
              -48.5409465,
              -25.8241143
            ],
            [
              -48.5409095,
              -25.8240328
            ],
            [
              -48.5410183,
              -25.8239929
            ]
          ]
        ]
      }
    },
    {
      "type": "Feature",
      "id": "way/1180776767",
      "properties": {
        "timestamp": "2023-06-09T22:26:58Z",
        "version": 1,
        "changeset": 137155488,
        "addr:city": "Matinhos",
        "addr:street": "Avenida Juscelino Kubitschek de Oliveira",
        "addr:suburb": "Caiobá",
        "amenity": "pharmacy",
        "building": "yes",
        "drive_through": "no",
        "healthcare": "pharmacy",
        "name": "Farmácia Rede Master Farma",
        "id": "way/1180776767"
      },
      "geometry": {
        "type": "Polygon",
        "coordinates": [
          [
            [
              -48.5408323,
              -25.8233583
            ],
            [
              -48.5406112,
              -25.8234384
            ],
            [
              -48.5405664,
              -25.8233382
            ],
            [
              -48.5407874,
              -25.8232581
            ],
            [
              -48.5408323,
              -25.8233583
            ]
          ]
        ]
      }
    },
    {
      "type": "Feature",
      "id": "way/1278305234",
      "properties": {
        "timestamp": "2024-04-29T20:41:10Z",
        "version": 2,
        "changeset": 150680926,
        "addr:city": "Matinhos",
        "addr:housenumber": "3504",
        "addr:postcode": "83260000",
        "addr:street": "Avenida Paranaguá",
        "addr:suburb": "Riviera",
        "amenity": "pharmacy",
        "building": "yes",
        "healthcare": "pharmacy",
        "name": "Farmácia Gosalan & Munhos",
        "id": "way/1278305234"
      },
      "geometry": {
        "type": "Polygon",
        "coordinates": [
          [
            [
              -48.5229672,
              -25.7881385
            ],
            [
              -48.5230089,
              -25.7882353
            ],
            [
              -48.5228903,
              -25.7882765
            ],
            [
              -48.5228495,
              -25.7881787
            ],
            [
              -48.5229672,
              -25.7881385
            ]
          ]
        ]
      }
    },
    {
      "type": "Feature",
      "id": "way/1298895461",
      "properties": {
        "timestamp": "2024-07-04T00:21:07Z",
        "version": 2,
        "changeset": 153523431,
        "addr:city": "Matinhos",
        "addr:housenumber": "348",
        "addr:postcode": "83260-000",
        "addr:street": "Avenida Curitiba",
        "addr:suburb": "Bom Retiro",
        "amenity": "pharmacy",
        "building": "yes",
        "healthcare": "pharmacy",
        "name": "Hiper Farma",
        "id": "way/1298895461"
      },
      "geometry": {
        "type": "Polygon",
        "coordinates": [
          [
            [
              -48.5453989,
              -25.8104386
            ],
            [
              -48.545498,
              -25.8106584
            ],
            [
              -48.5453334,
              -25.8106632
            ],
            [
              -48.5452343,
              -25.8104434
            ],
            [
              -48.5453989,
              -25.8104386
            ]
          ]
        ]
      }
    },
    {
      "type": "Feature",
      "id": "way/1298901155",
      "properties": {
        "timestamp": "2024-07-04T00:21:07Z",
        "version": 1,
        "changeset": 153523431,
        "addr:city": "Matinhos",
        "addr:housenumber": "100o",
        "addr:postcode": "83260-000",
        "addr:street": "Avenida Atlântica",
        "addr:suburb": "Caiobá",
        "amenity": "pharmacy",
        "building": "pharmacy",
        "dispensing": "yes",
        "healthcare": "pharmacy",
        "name": "Maxi Farma",
        "id": "way/1298901155"
      },
      "geometry": {
        "type": "Polygon",
        "coordinates": [
          [
            [
              -48.5376866,
              -25.8353856
            ],
            [
              -48.5377038,
              -25.8354625
            ],
            [
              -48.537652,
              -25.8354743
            ],
            [
              -48.5376317,
              -25.8353938
            ],
            [
              -48.5376866,
              -25.8353856
            ]
          ]
        ]
      }
    },
    {
      "type": "Feature",
      "id": "way/1298901156",
      "properties": {
        "timestamp": "2024-07-04T00:21:07Z",
        "version": 1,
        "changeset": 153523431,
        "addr:city": "Matinhos",
        "addr:housenumber": "245",
        "addr:postcode": "83260-000",
        "addr:street": "Rua da Fonte",
        "addr:suburb": "Centro",
        "amenity": "pharmacy",
        "building": "pharmacy",
        "dispensing": "yes",
        "healthcare": "pharmacy",
        "name": "Farmácia Nissei",
        "opening_hours": "Mo-Su 07:00-00:00",
        "id": "way/1298901156"
      },
      "geometry": {
        "type": "Polygon",
        "coordinates": [
          [
            [
              -48.5346624,
              -25.8160052
            ],
            [
              -48.5348153,
              -25.8161042
            ],
            [
              -48.5347188,
              -25.8162249
            ],
            [
              -48.5345739,
              -25.8161428
            ],
            [
              -48.5346624,
              -25.8160052
            ]
          ]
        ]
      }
    },
    {
      "type": "Feature",
      "id": "way/1298901157",
      "properties": {
        "timestamp": "2024-07-04T00:21:07Z",
        "version": 1,
        "changeset": 153523431,
        "addr:city": "Matinhos",
        "addr:housenumber": "2416",
        "addr:postcode": "83260-000",
        "addr:street": "Av. Juscelino Kubitschek de Oliveira com Av. Paraná",
        "addr:suburb": "Caiobá",
        "amenity": "pharmacy",
        "building": "pharmacy",
        "dispensing": "yes",
        "healthcare": "pharmacy",
        "name": "Farmácia Unipreço",
        "opening_hours": "Mo-Fr 08:00-00:00",
        "id": "way/1298901157"
      },
      "geometry": {
        "type": "Polygon",
        "coordinates": [
          [
            [
              -48.5436854,
              -25.8306733
            ],
            [
              -48.5437648,
              -25.8307321
            ],
            [
              -48.5437438,
              -25.830833
            ],
            [
              -48.5436247,
              -25.8308635
            ],
            [
              -48.5435511,
              -25.8308025
            ],
            [
              -48.5435698,
              -25.8307058
            ],
            [
              -48.5436854,
              -25.8306733
            ]
          ]
        ]
      }
    },
    {
      "type": "Feature",
      "id": "way/1298901158",
      "properties": {
        "timestamp": "2024-07-04T00:21:07Z",
        "version": 1,
        "changeset": 153523431,
        "addr:city": "Matinhos",
        "addr:housenumber": "299",
        "addr:postcode": "83260-000",
        "addr:street": "Rua Léa Vialle Cury",
        "addr:suburb": "Centro",
        "amenity": "pharmacy",
        "building": "pharmacy",
        "dispensing": "yes",
        "healthcare": "pharmacy",
        "name": "Droga Raia",
        "opening_hours": "07:00-22:00",
        "id": "way/1298901158"
      },
      "geometry": {
        "type": "Polygon",
        "coordinates": [
          [
            [
              -48.5355489,
              -25.8162477
            ],
            [
              -48.5354752,
              -25.8164916
            ],
            [
              -48.535329,
              -25.8164264
            ],
            [
              -48.535494,
              -25.816226
            ],
            [
              -48.5355489,
              -25.8162477
            ]
          ]
        ]
      }
    },
    {
      "type": "Feature",
      "id": "way/1298901160",
      "properties": {
        "timestamp": "2024-07-04T00:21:07Z",
        "version": 1,
        "changeset": 153523431,
        "addr:city": "Matinhos",
        "addr:housenumber": "43",
        "addr:postcode": "83260-000",
        "addr:street": "Avenida Prefeito Doutor Roque Vernalha",
        "amenity": "pharmacy",
        "building": "pharmacy",
        "dispensing": "yes",
        "healthcare": "pharmacy",
        "name": "Farmácia Atlântica",
        "opening_hours": "08:00-21:00",
        "id": "way/1298901160"
      },
      "geometry": {
        "type": "Polygon",
        "coordinates": [
          [
            [
              -48.5330551,
              -25.8180357
            ],
            [
              -48.533089,
              -25.8180523
            ],
            [
              -48.5330397,
              -25.8181106
            ],
            [
              -48.5330089,
              -25.8180925
            ],
            [
              -48.5330551,
              -25.8180357
            ]
          ]
        ]
      }
    },
    {
      "type": "Feature",
      "id": "way/1298901161",
      "properties": {
        "timestamp": "2024-07-04T00:21:07Z",
        "version": 1,
        "changeset": 153523431,
        "addr:city": "Matinhos",
        "addr:housenumber": "285",
        "addr:postcode": "83260-000",
        "addr:street": "Avenida Prefeito Doutor Roque Vernalha",
        "addr:suburb": "Centro",
        "amenity": "pharmacy",
        "building": "pharmacy",
        "healthcare": "pharmacy",
        "name": "Preço Popular",
        "id": "way/1298901161"
      },
      "geometry": {
        "type": "Polygon",
        "coordinates": [
          [
            [
              -48.5346867,
              -25.8162626
            ],
            [
              -48.5345932,
              -25.8163834
            ],
            [
              -48.5344021,
              -25.8162663
            ],
            [
              -48.534516,
              -25.8161455
            ],
            [
              -48.5346867,
              -25.8162626
            ]
          ]
        ]
      }
    },
    {
      "type": "Feature",
      "id": "way/1298901162",
      "properties": {
        "timestamp": "2024-07-04T00:21:07Z",
        "version": 1,
        "changeset": 153523431,
        "addr:city": "Matinhos",
        "addr:housenumber": "205",
        "addr:postcode": "83260-000",
        "addr:street": "Rua Albano Müller",
        "addr:suburb": "Centro",
        "amenity": "pharmacy",
        "building": "pharmacy",
        "dispensing": "yes",
        "healthcare": "pharmacy",
        "name": "Ultra Farma",
        "id": "way/1298901162"
      },
      "geometry": {
        "type": "Polygon",
        "coordinates": [
          [
            [
              -48.5336719,
              -25.8184961
            ],
            [
              -48.5336684,
              -25.8186267
            ],
            [
              -48.5334684,
              -25.8186331
            ],
            [
              -48.5334667,
              -25.8184897
            ],
            [
              -48.5336719,
              -25.8184961
            ]
          ]
        ]
      }
    },
    {
      "type": "Feature",
      "id": "way/1298901163",
      "properties": {
        "timestamp": "2024-07-04T00:21:07Z",
        "version": 1,
        "changeset": 153523431,
        "addr:city": "Matinhos",
        "addr:housenumber": "181",
        "addr:postcode": "83260-000",
        "addr:street": "Rodovia Máximo Jamur",
        "addr:suburb": "Bom Retiro",
        "amenity": "pharmacy",
        "building": "pharmacy",
        "dispensing": "yes",
        "healthcare": "pharmacy",
        "name": "Farmácia Capital",
        "id": "way/1298901163"
      },
      "geometry": {
        "type": "Polygon",
        "coordinates": [
          [
            [
              -48.5333416,
              -25.81088
            ],
            [
              -48.5334382,
              -25.8111118
            ],
            [
              -48.5332424,
              -25.8111094
            ],
            [
              -48.5331834,
              -25.8109307
            ],
            [
              -48.5332182,
              -25.8108776
            ],
            [
              -48.5333416,
              -25.81088
            ]
          ]
        ]
      }
    },
    {
      "type": "Feature",
      "id": "way/1298901164",
      "properties": {
        "timestamp": "2024-07-04T00:21:07Z",
        "version": 1,
        "changeset": 153523431,
        "addr:city": "Matinhos",
        "addr:housenumber": "551",
        "addr:postcode": "83260-000",
        "addr:street": "Avenida Curitiba",
        "amenity": "pharmacy",
        "building": "pharmacy",
        "dispensing": "yes",
        "healthcare": "pharmacy",
        "name": "FortPopular",
        "id": "way/1298901164"
      },
      "geometry": {
        "type": "Polygon",
        "coordinates": [
          [
            [
              -48.5369104,
              -25.8103979
            ],
            [
              -48.5369196,
              -25.8104395
            ],
            [
              -48.5368349,
              -25.8104437
            ],
            [
              -48.5368272,
              -25.8103937
            ],
            [
              -48.5369104,
              -25.8103979
            ]
          ]
        ]
      }
    },
    {
      "type": "Feature",
      "id": "way/1298901165",
      "properties": {
        "timestamp": "2024-07-04T00:21:07Z",
        "version": 1,
        "changeset": 153523431,
        "addr:city": "Matinhos",
        "addr:housenumber": "99",
        "addr:postcode": "83260-000",
        "addr:street": "Rua Ernesto Postarek",
        "addr:suburb": "Centro",
        "amenity": "pharmacy",
        "building": "pharmacy",
        "dispensing": "yes",
        "healthcare": "pharmacy",
        "name": "Farma & Fórmula",
        "id": "way/1298901165"
      },
      "geometry": {
        "type": "Polygon",
        "coordinates": [
          [
            [
              -48.5349346,
              -25.8179418
            ],
            [
              -48.5349654,
              -25.8180001
            ],
            [
              -48.5348637,
              -25.8180444
            ],
            [
              -48.5348299,
              -25.8179723
            ],
            [
              -48.5349346,
              -25.8179418
            ]
          ]
        ]
      }
    },
    {
      "type": "Feature",
      "id": "node/4339045822",
      "properties": {
        "timestamp": "2016-09-08T22:06:03Z",
        "version": 2,
        "changeset": 42013697,
        "addr:city": "Matinhos",
        "addr:street": "Rua Apucarana",
        "addr:suburb": "Caiobá",
        "amenity": "pharmacy",
        "name": "Farmácia",
        "opening_hours": "08:00-21:00",
        "id": "node/4339045822"
      },
      "geometry": {
        "type": "Point",
        "coordinates": [
          -48.5451468,
          -25.835397
        ]
      }
    },
    {
      "type": "Feature",
      "id": "node/4379991573",
      "properties": {
        "timestamp": "2019-09-15T03:37:54Z",
        "version": 2,
        "changeset": 74487468,
        "amenity": "pharmacy",
        "id": "node/4379991573"
      },
      "geometry": {
        "type": "Point",
        "coordinates": [
          -48.5403686,
          -25.8225903
        ]
      }
    },
    {
      "type": "Feature",
      "id": "node/4462422510",
      "properties": {
        "timestamp": "2016-10-24T20:23:03Z",
        "version": 1,
        "changeset": 43138507,
        "amenity": "pharmacy",
        "name": "Hiperfarma",
        "id": "node/4462422510"
      },
      "geometry": {
        "type": "Point",
        "coordinates": [
          -48.5101117,
          -25.7629887
        ]
      }
    },
    {
      "type": "Feature",
      "id": "node/12032138105",
      "properties": {
        "timestamp": "2024-07-03T23:13:26Z",
        "version": 1,
        "changeset": 153522584,
        "addr:city": "Matinhos",
        "addr:housenumber": "1000",
        "addr:postcode": "83260-000",
        "addr:street": "Avenida Atlântica",
        "addr:suburb": "Caiobá",
        "amenity": "pharmacy",
        "drive_through": "no",
        "healthcare": "pharmacy",
        "name": "Maxifarma Matinhos",
        "opening_hours": "Aberto todos os dias: 08:00 - 20:00",
        "id": "node/12032138105"
      },
      "geometry": {
        "type": "Point",
        "coordinates": [
          -48.5376376,
          -25.8354427
        ]
      }
    }
  ]
}
