{
  "type": "FeatureCollection",
  "features": [
    {
      "type": "Feature",
      "id": "way/459247253",
      "properties": {
        "timestamp": "2016-12-12T22:17:12Z",
        "version": 1,
        "changeset": 44359531,
        "addr:city": "Matinhos",
        "addr:street": "Pico de Matinhos",
        "amenity": "school",
        "building": "school",
        "building:levels": "2",
        "name": "Surf Escola",
        "website": "http://culturadematinhos.blogspot.com.br/2014/06/conheca-matinhos-pico-das-pedras.html",
        "id": "way/459247253"
      },
      "geometry": {
        "type": "Polygon",
        "coordinates": [
          [
            [
              -48.5302204,
              -25.8180393
            ],
            [
              -48.5301965,
              -25.8181006
            ],
            [
              -48.5301178,
              -25.8180751
            ],
            [
              -48.5301399,
              -25.8180162
            ],
            [
              -48.5302204,
              -25.8180393
            ]
          ]
        ]
      }
    },
    {
      "type": "Feature",
      "id": "way/1268871097",
      "properties": {
        "timestamp": "2024-04-04T00:01:14Z",
        "version": 1,
        "changeset": 149547891,
        "addr:city": "Caiobá",
        "addr:housenumber": "155",
        "addr:postcode": "83260-000",
        "addr:street": "Rua Santa Catarina",
        "addr:suburb": "Matinhos",
        "amenity": "school",
        "building": "school",
        "education": "Escola Municipal",
        "name": "Escola Quatro de Marco, E M-Ei Ef",
        "operator": "Rede de Ensino Municipal",
        "operator:type": "public",
        "religion": "none",
        "id": "way/1268871097"
      },
      "geometry": {
        "type": "Polygon",
        "coordinates": [
          [
            [
              -48.5475615,
              -25.827195
            ],
            [
              -48.5469639,
              -25.8273707
            ],
            [
              -48.5468256,
              -25.8270377
            ],
            [
              -48.5474233,
              -25.8268547
            ],
            [
              -48.5475615,
              -25.827195
            ]
          ]
        ]
      }
    },
    {
      "type": "Feature",
      "id": "way/1268871098",
      "properties": {
        "timestamp": "2024-04-04T00:01:14Z",
        "version": 1,
        "changeset": 149547891,
        "addr:city": "Caiobá",
        "addr:housenumber": "245",
        "addr:postcode": "83260-000",
        "addr:street": "Rua Martinho Ramos",
        "addr:suburb": "Tabuleiro",
        "amenity": "school",
        "education": "Escola Estadual",
        "name": "Tereza da S Ramos, C E Profa-Ef M",
        "operator": "Rede de Ensino Estadual",
        "operator:type": "public",
        "religion": "none",
        "id": "way/1268871098"
      },
      "geometry": {
        "type": "Polygon",
        "coordinates": [
          [
            [
              -48.5492487,
              -25.8267669
            ],
            [
              -48.5494479,
              -25.8272316
            ],
            [
              -48.5490494,
              -25.827378
            ],
            [
              -48.5490007,
              -25.8273048
            ],
            [
              -48.549143,
              -25.8272316
            ],
            [
              -48.5489681,
              -25.8268437
            ],
            [
              -48.5492487,
              -25.8267669
            ]
          ]
        ]
      }
    },
    {
      "type": "Feature",
      "id": "way/1268871099",
      "properties": {
        "timestamp": "2024-04-04T00:01:14Z",
        "version": 1,
        "changeset": 149547891,
        "addr:city": "Matinhos",
        "addr:housenumber": "444",
        "addr:postcode": "83260-000",
        "addr:street": "Rua Ceciliano Tavares",
        "addr:suburb": "Centro",
        "amenity": "school",
        "building": "school",
        "education": "Escola Municipal",
        "name": "Wallace T de Mello E Silva, E M-Ef",
        "operator": "Rede de Ensino Municipal",
        "operator:type": "public",
        "religion": "none",
        "id": "way/1268871099"
      },
      "geometry": {
        "type": "Polygon",
        "coordinates": [
          [
            [
              -48.5364959,
              -25.8205012
            ],
            [
              -48.5357526,
              -25.8207847
            ],
            [
              -48.5356146,
              -25.820533
            ],
            [
              -48.5363791,
              -25.8202877
            ],
            [
              -48.5364959,
              -25.8205012
            ]
          ]
        ]
      }
    },
    {
      "type": "Feature",
      "id": "way/1268871100",
      "properties": {
        "timestamp": "2024-04-04T00:01:14Z",
        "version": 1,
        "changeset": 149547891,
        "addr:city": "Matinhos",
        "addr:housenumber": "420",
        "addr:postcode": "83260-000",
        "addr:street": "Rua Albano Müller",
        "addr:suburb": "Centro",
        "amenity": "school",
        "building": "school",
        "education": "Escola Estadual",
        "name": "Gabriel de Lara, C E-Ef M Prof",
        "operator": "Rede de Ensino Estadual",
        "operator:type": "public",
        "religion": "none",
        "id": "way/1268871100"
      },
      "geometry": {
        "type": "Polygon",
        "coordinates": [
          [
            [
              -48.5357842,
              -25.8178364
            ],
            [
              -48.5359428,
              -25.8181512
            ],
            [
              -48.5354997,
              -25.8183195
            ],
            [
              -48.5353248,
              -25.8180121
            ],
            [
              -48.5357842,
              -25.8178364
            ]
          ]
        ]
      }
    },
    {
      "type": "Feature",
      "id": "way/1268871101",
      "properties": {
        "timestamp": "2024-04-04T00:01:14Z",
        "version": 1,
        "changeset": 149547891,
        "addr:city": "Matinhos",
        "addr:housenumber": "611",
        "addr:postcode": "83260-000",
        "addr:street": "Rua Albano Müller",
        "addr:suburb": "Centro",
        "amenity": "school",
        "building": "school",
        "education": "Escola Municipal",
        "name": "Leocadia O dos Santos, E M Profa-Ei Ef",
        "operator": "Rede de Ensino Municipal",
        "operator:type": "public",
        "religion": "none",
        "id": "way/1268871101"
      },
      "geometry": {
        "type": "Polygon",
        "coordinates": [
          [
            [
              -48.5375581,
              -25.8184351
            ],
            [
              -48.5375673,
              -25.8185959
            ],
            [
              -48.5372099,
              -25.818607
            ],
            [
              -48.5372068,
              -25.8184406
            ],
            [
              -48.5375581,
              -25.8184351
            ]
          ]
        ]
      }
    },
    {
      "type": "Feature",
      "id": "way/1268871103",
      "properties": {
        "timestamp": "2024-04-04T00:01:14Z",
        "version": 1,
        "changeset": 149547891,
        "addr:city": "Caiobá",
        "addr:housenumber": "1111",
        "addr:postcode": "83260-000",
        "addr:street": "Avenida Curitiba",
        "addr:suburb": "Bom Retiro",
        "amenity": "school",
        "building": "school",
        "education": "Escola Municipal",
        "name": "Sertaozinho, C E C-M-Ef M N Profis",
        "operator": "Rede de Ensino Estadual",
        "operator:type": "public",
        "id": "way/1268871103"
      },
      "geometry": {
        "type": "Polygon",
        "coordinates": [
          [
            [
              -48.5444525,
              -25.810827
            ],
            [
              -48.5444948,
              -25.8113895
            ],
            [
              -48.5435292,
              -25.8114957
            ],
            [
              -48.5434863,
              -25.8113533
            ],
            [
              -48.5434792,
              -25.8111965
            ],
            [
              -48.5434783,
              -25.811177
            ],
            [
              -48.5434806,
              -25.8110393
            ],
            [
              -48.543481,
              -25.8110152
            ],
            [
              -48.5433924,
              -25.8110078
            ],
            [
              -48.5434158,
              -25.810806
            ],
            [
              -48.5444525,
              -25.810827
            ]
          ]
        ]
      }
    },
    {
      "type": "Feature",
      "id": "way/1318234522",
      "properties": {
        "timestamp": "2024-09-25T23:16:25Z",
        "version": 1,
        "changeset": 157104694,
        "addr:city": "Matinhos",
        "addr:postcode": "83260000",
        "addr:street": "Rua Santa Catarina",
        "addr:suburb": "Vila Nova",
        "amenity": "school",
        "grades": "1-6",
        "name": "CMEI José Wigando Mendes",
        "id": "way/1318234522"
      },
      "geometry": {
        "type": "Polygon",
        "coordinates": [
          [
            [
              -48.5515085,
              -25.8374071
            ],
            [
              -48.5515326,
              -25.8374578
            ],
            [
              -48.5515756,
              -25.8374554
            ],
            [
              -48.5515836,
              -25.8374819
            ],
            [
              -48.551656,
              -25.8374578
            ],
            [
              -48.5517311,
              -25.8376533
            ],
            [
              -48.5516936,
              -25.8376726
            ],
            [
              -48.5517177,
              -25.8377137
            ],
            [
              -48.5514951,
              -25.8377957
            ],
            [
              -48.5512939,
              -25.8374578
            ],
            [
              -48.5515085,
              -25.8374071
            ]
          ]
        ]
      }
    },
    {
      "type": "Feature",
      "id": "node/4586885789",
      "properties": {
        "timestamp": "2021-04-04T05:54:43Z",
        "version": 4,
        "changeset": 102257836,
        "addr:street": "Rua Rio Negro",
        "amenity": "school",
        "name": "Escola Municipal Francisco Santos Júnior - QG JNLPR",
        "name:pt": "Escola Municipal Francisco - QG JNLPR",
        "id": "node/4586885789"
      },
      "geometry": {
        "type": "Point",
        "coordinates": [
          -48.5481178,
          -25.8314958
        ]
      }
    },
    {
      "type": "Feature",
      "id": "node/11784788107",
      "properties": {
        "timestamp": "2024-04-03T23:17:18Z",
        "version": 1,
        "changeset": 149546825,
        "addr:city": "Matinhos",
        "addr:housenumber": "307",
        "addr:postcode": "83260-000",
        "addr:street": "Rua São Mateus",
        "addr:suburb": "Caiobá",
        "amenity": "school",
        "education": "escola_municipal",
        "name": "CAETANA PARANHOS, E M PROFA-EI EF",
        "operator": "Rede de Ensino Municipal",
        "operator:type": "public",
        "religion": "none",
        "id": "node/11784788107"
      },
      "geometry": {
        "type": "Point",
        "coordinates": [
          -48.5431361,
          -25.8376384
        ]
      }
    },
    {
      "type": "Feature",
      "id": "node/11784918888",
      "properties": {
        "timestamp": "2024-04-04T00:01:14Z",
        "version": 1,
        "changeset": 149547891,
        "addr:city": "Caiobá",
        "addr:housenumber": "155",
        "addr:postcode": "83260-000",
        "addr:street": "Rua Santa Catarina",
        "addr:suburb": "Matinhos",
        "amenity": "school",
        "education": "Escola Municipal",
        "name": "Quatro de Marco, E M-Ei Ef",
        "operator": "Rede de Ensino Municipal",
        "operator:type": "public",
        "religion": "none",
        "id": "node/11784918888"
      },
      "geometry": {
        "type": "Point",
        "coordinates": [
          -48.5474517,
          -25.827045
        ]
      }
    },
    {
      "type": "Feature",
      "id": "node/11784918895",
      "properties": {
        "timestamp": "2024-04-04T00:01:14Z",
        "version": 1,
        "changeset": 149547891,
        "addr:city": "Caiobá",
        "addr:housenumber": "245",
        "addr:postcode": "83260-000",
        "addr:street": "Rua Martinho Ramos",
        "addr:suburb": "Tabuleiro",
        "amenity": "school",
        "name": "Tereza da S Ramos, C E Profa-Ef M",
        "operator": "Rede de Ensino Estadual",
        "operator:type": "public",
        "religion": "none",
        "id": "node/11784918895"
      },
      "geometry": {
        "type": "Point",
        "coordinates": [
          -48.5490738,
          -25.8273268
        ]
      }
    },
    {
      "type": "Feature",
      "id": "node/11784918900",
      "properties": {
        "timestamp": "2024-04-04T00:01:14Z",
        "version": 1,
        "changeset": 149547891,
        "addr:city": "Matinhos",
        "addr:housenumber": "444",
        "addr:postcode": "83260-000",
        "addr:street": "Rua Ceciliano Tavares",
        "addr:suburb": "Centro",
        "amenity": "school",
        "education": "Escola Municipal",
        "name": "Wallace T de Mello E Silva, E M-Ef",
        "operator": "Rede de Ensino Municipal",
        "operator:type": "public",
        "religion": "none",
        "id": "node/11784918900"
      },
      "geometry": {
        "type": "Point",
        "coordinates": [
          -48.5361349,
          -25.8204916
        ]
      }
    },
    {
      "type": "Feature",
      "id": "node/11784918905",
      "properties": {
        "timestamp": "2024-04-04T00:01:14Z",
        "version": 1,
        "changeset": 149547891,
        "addr:city": "Matinhos",
        "addr:housenumber": "420",
        "addr:postcode": "83260-000",
        "addr:street": "Rua Albano Müller",
        "addr:suburb": "Centro",
        "amenity": "school",
        "education": "Escola Estadual",
        "name": "Gabriel de Lara, C E-Ef M Prof",
        "operator": "Rede de Ensino Estadual",
        "operator:type": "public",
        "religion": "none",
        "id": "node/11784918905"
      },
      "geometry": {
        "type": "Point",
        "coordinates": [
          -48.535646,
          -25.8180816
        ]
      }
    },
    {
      "type": "Feature",
      "id": "node/11784918910",
      "properties": {
        "timestamp": "2024-04-04T00:01:14Z",
        "version": 1,
        "changeset": 149547891,
        "addr:city": "Matinhos",
        "addr:housenumber": "611",
        "addr:postcode": "83260-000",
        "addr:street": "Rua Albano Müller",
        "addr:suburb": "Centro",
        "amenity": "school",
        "education": "Escola Municipal",
        "name": "Leocadia O dos Santos, E M Profa-Ei Ef",
        "operator": "Rede de Ensino Estadual",
        "operator:type": "public",
        "religion": "none",
        "id": "node/11784918910"
      },
      "geometry": {
        "type": "Point",
        "coordinates": [
          -48.5373886,
          -25.8185266
        ]
      }
    },
    {
      "type": "Feature",
      "id": "node/11784918935",
      "properties": {
        "timestamp": "2024-04-04T00:01:14Z",
        "version": 1,
        "changeset": 149547891,
        "addr:city": "Caiobá",
        "addr:housenumber": "1111",
        "addr:postcode": "83260-000",
        "addr:street": "Avenida Curitiba",
        "addr:suburb": "Bom Retiro",
        "amenity": "school",
        "name": "Escola Sertaozinho, C E C-M-Ef M N Profis",
        "operator": "Rede de Ensino Estadual",
        "operator:type": "public",
        "religion": "none",
        "id": "node/11784918935"
      },
      "geometry": {
        "type": "Point",
        "coordinates": [
          -48.5439611,
          -25.8111263
        ]
      }
    }
  ]
}
