{
  "type": "FeatureCollection",
  "features": [
    {
      "type": "Feature",
      "id": "way/1059681840",
      "properties": {
        "timestamp": "2022-05-12T20:42:20Z",
        "version": 1,
        "changeset": 120905844,
        "addr:city": "Candelária",
        "addr:postcode": "96930-000",
        "addr:street": "Avenida Marechal Deodoro",
        "addr:suburb": "Centro",
        "amenity": "school",
        "name": "Escola Estadua de Ensino Medio Guia Lopes",
        "id": "way/1059681840"
      },
      "geometry": {
        "type": "Polygon",
        "coordinates": [
          [
            [
              -52.7909725,
              -29.6690564
            ],
            [
              -52.7906976,
              -29.669413
            ],
            [
              -52.7901639,
              -29.6691159
            ],
            [
              -52.7904736,
              -29.6687208
            ],
            [
              -52.7909699,
              -29.668983
            ],
            [
              -52.7909725,
              -29.6690564
            ]
          ]
        ]
      }
    },
    {
      "type": "Feature",
      "id": "node/2438965087",
      "properties": {
        "timestamp": "2013-08-30T11:22:54Z",
        "version": 1,
        "changeset": 17587274,
        "amenity": "school",
        "name": "Lepaje",
        "id": "node/2438965087"
      },
      "geometry": {
        "type": "Point",
        "coordinates": [
          -52.7891015,
          -29.6617737
        ]
      }
    },
    {
      "type": "Feature",
      "id": "node/2438965088",
      "properties": {
        "timestamp": "2013-08-30T11:22:54Z",
        "version": 1,
        "changeset": 17587274,
        "amenity": "school",
        "name": "Penedo",
        "id": "node/2438965088"
      },
      "geometry": {
        "type": "Point",
        "coordinates": [
          -52.7813954,
          -29.6806887
        ]
      }
    },
    {
      "type": "Feature",
      "id": "node/4413423479",
      "properties": {
        "timestamp": "2016-09-22T15:01:50Z",
        "version": 1,
        "changeset": 42350394,
        "addr:city": "Cachoeira do Sul",
        "addr:street": "ERS-403",
        "addr:suburb": "Capão do Valo",
        "amenity": "school",
        "name": "Escola Municipal Ataliba Brum",
        "id": "node/4413423479"
      },
      "geometry": {
        "type": "Point",
        "coordinates": [
          -52.7428996,
          -29.9040261
        ]
      }
    },
    {
      "type": "Feature",
      "id": "node/9815968052",
      "properties": {
        "timestamp": "2023-05-10T03:03:34Z",
        "version": 3,
        "changeset": 135916773,
        "addr:city": "Candelária",
        "addr:postcode": "96930-000",
        "amenity": "school",
        "name": "Escola Estadual de Ensino Fundamental Cristo Rei",
        "phone": "+55 51 3743 8100",
        "ref:INEP": "43035035",
        "id": "node/9815968052"
      },
      "geometry": {
        "type": "Point",
        "coordinates": [
          -52.9071488,
          -29.5344386
        ]
      }
    },
    {
      "type": "Feature",
      "id": "node/9817081800",
      "properties": {
        "timestamp": "2023-05-10T03:03:34Z",
        "version": 2,
        "changeset": 135916773,
        "addr:city": "Candelária",
        "addr:postcode": "96930-000",
        "amenity": "school",
        "name": "Escola São Paulo",
        "phone": "+55 51 3743 8136",
        "ref:INEP": "43034900",
        "id": "node/9817081800"
      },
      "geometry": {
        "type": "Point",
        "coordinates": [
          -52.7917669,
          -29.5804086
        ]
      }
    }
  ]
}
