{
  "type": "FeatureCollection",
  "features": [
    {
      "type": "Feature",
      "id": "way/1132951641",
      "properties": {
        "timestamp": "2023-01-17T18:25:07Z",
        "version": 1,
        "changeset": 131391592,
        "addr:city": "São Jerônimo",
        "addr:housenumber": "92",
        "addr:postcode": "96700-000",
        "addr:street": "Rua Senador Ramiro Barcellos",
        "addr:suburb": "Centro",
        "amenity": "dentist",
        "building": "yes",
        "building:levels": "1",
        "healthcare": "dentist",
        "name": "Pradella Odontologia & Saúde",
        "roof:shape": "hipped",
        "id": "way/1132951641"
      },
      "geometry": {
        "type": "Polygon",
        "coordinates": [
          [
            [
              -51.7243385,
              -29.9552758
            ],
            [
              -51.724346,
              -29.9553667
            ],
            [
              -51.7241047,
              -29.9553816
            ],
            [
              -51.7240994,
              -29.9553172
            ],
            [
              -51.724121,
              -29.9553159
            ],
            [
              -51.7241188,
              -29.9552894
            ],
            [
              -51.7243385,
              -29.9552758
            ]
          ]
        ]
      }
    },
    {
      "type": "Feature",
      "id": "way/1150256924",
      "properties": {
        "timestamp": "2023-03-02T15:32:10Z",
        "version": 3,
        "changeset": 133216867,
        "addr:city": "São Jerônimo",
        "addr:housenumber": "389",
        "addr:postcode": "96700-000",
        "addr:street": "Rua Coronel Antônio Soares de Carvalho",
        "addr:suburb": "Centro",
        "amenity": "dentist",
        "building": "yes",
        "healthcare": "dentist",
        "name": "Consultório Valter Macedo",
        "id": "way/1150256924"
      },
      "geometry": {
        "type": "Polygon",
        "coordinates": [
          [
            [
              -51.7236121,
              -29.9578074
            ],
            [
              -51.7234868,
              -29.9578133
            ],
            [
              -51.7234822,
              -29.9577411
            ],
            [
              -51.7236075,
              -29.9577352
            ],
            [
              -51.7236121,
              -29.9578074
            ]
          ]
        ]
      }
    },
    {
      "type": "Feature",
      "id": "way/1157986640",
      "properties": {
        "timestamp": "2023-03-28T22:32:37Z",
        "version": 2,
        "changeset": 134238659,
        "addr:city": "São Jerônimo",
        "addr:housenumber": "609",
        "addr:postcode": "96700-000",
        "addr:street": "Rua Senador Ramiro Barcellos",
        "addr:suburb": "Centro",
        "amenity": "dentist",
        "building": "yes",
        "building:levels": "1",
        "healthcare": "dentist",
        "name": "Centro de Saúde Bucal",
        "roof:shape": "hipped",
        "wheelchair": "limited",
        "id": "way/1157986640"
      },
      "geometry": {
        "type": "Polygon",
        "coordinates": [
          [
            [
              -51.724848,
              -29.9595911
            ],
            [
              -51.7249183,
              -29.9595875
            ],
            [
              -51.7249216,
              -29.9596363
            ],
            [
              -51.7248513,
              -29.9596399
            ],
            [
              -51.724848,
              -29.9595911
            ]
          ]
        ]
      }
    },
    {
      "type": "Feature",
      "id": "node/10579134931",
      "properties": {
        "timestamp": "2023-02-16T13:54:42Z",
        "version": 2,
        "changeset": 132630691,
        "addr:city": "São Jerônimo",
        "addr:housenumber": "191",
        "addr:postcode": "96700-000",
        "addr:state": "BR",
        "addr:street": "Rua Oswaldo Aranha",
        "addr:suburb": "Centro",
        "amenity": "dentist",
        "healthcare": "dentist",
        "level": "1",
        "name": "Consultório Odontológico Juliana Cernicchiaro",
        "wheelchair": "yes",
        "id": "node/10579134931"
      },
      "geometry": {
        "type": "Point",
        "coordinates": [
          -51.7238917,
          -29.9604449
        ]
      }
    },
    {
      "type": "Feature",
      "id": "node/10695213989",
      "properties": {
        "timestamp": "2023-02-26T17:28:45Z",
        "version": 1,
        "changeset": 133052516,
        "addr:city": "São Jerônimo",
        "addr:housename": "Sala 08",
        "addr:housenumber": "1600",
        "addr:postcode": "96700-000",
        "addr:street": "Rua Senador Ramiro Barcellos",
        "addr:suburb": "São Thomás",
        "amenity": "dentist",
        "healthcare": "dentist",
        "name": "Aline Reis Consultório",
        "phone": "+55 51 99811-9624",
        "id": "node/10695213989"
      },
      "geometry": {
        "type": "Point",
        "coordinates": [
          -51.7253861,
          -29.9696957
        ]
      }
    }
  ]
}
