{
  "type": "FeatureCollection",
  "features": [
    {
      "type": "Feature",
      "id": "way/1152248836",
      "properties": {
        "timestamp": "2023-03-06T20:33:31Z",
        "version": 1,
        "changeset": 133378836,
        "addr:city": "São Jerônimo",
        "addr:housenumber": "954",
        "addr:postcode": "96700-000",
        "addr:street": "Rua Barão do Rio Branco",
        "addr:suburb": "Bela Vista",
        "amenity": "doctors",
        "building": "yes",
        "healthcare": "doctor",
        "healthcare:speciality": "neurology",
        "name": "Dr. Rosendo Almanza Mamani Neurologista",
        "id": "way/1152248836"
      },
      "geometry": {
        "type": "Polygon",
        "coordinates": [
          [
            [
              -51.7167974,
              -29.9593862
            ],
            [
              -51.7167816,
              -29.9593391
            ],
            [
              -51.7167375,
              -29.9592064
            ],
            [
              -51.7168269,
              -29.9591843
            ],
            [
              -51.7168701,
              -29.959317
            ],
            [
              -51.7168859,
              -29.9593641
            ],
            [
              -51.7167974,
              -29.9593862
            ]
          ]
        ]
      }
    }
  ]
}
