{
  "type": "FeatureCollection",
  "features": [
    {
      "type": "Feature",
      "id": "way/685257362",
      "properties": {
        "timestamp": "2020-09-28T19:25:58Z",
        "version": 2,
        "changeset": 91663344,
        "building": "yes",
        "office": "government",
        "id": "way/685257362"
      },
      "geometry": {
        "type": "Polygon",
        "coordinates": [
          [
            [
              -51.7223528,
              -29.9589157
            ],
            [
              -51.7223281,
              -29.9589163
            ],
            [
              -51.7222822,
              -29.9589174
            ],
            [
              -51.7222795,
              -29.9588361
            ],
            [
              -51.72235,
              -29.9588343
            ],
            [
              -51.7223528,
              -29.9589157
            ]
          ]
        ]
      }
    },
    {
      "type": "Feature",
      "id": "way/1149389397",
      "properties": {
        "timestamp": "2023-02-25T12:41:49Z",
        "version": 1,
        "changeset": 133003547,
        "addr:city": "São Jerônimo",
        "addr:housenumber": "384",
        "addr:postcode": "96700-000",
        "addr:street": "Rua Barão do Rio Branco",
        "addr:suburb": "Centro",
        "building:part": "yes",
        "government": "social_security",
        "loc_name": "Agência da Previdência Social São Jerônimo",
        "name": "Instituto Nacional do Seguro Social",
        "office": "government",
        "opening_hours": "Mo-Fr 08:00-12:00",
        "operator": "Instituto Nacional do Seguro Social",
        "operator:short": "INSS",
        "operator:wikidata": "Q10302614",
        "phone": "+55 51 3651-1066",
        "website": "https://www.gov.br/inss/pt-br",
        "id": "way/1149389397"
      },
      "geometry": {
        "type": "Polygon",
        "coordinates": [
          [
            [
              -51.7220581,
              -29.9585059
            ],
            [
              -51.7220496,
              -29.9583654
            ],
            [
              -51.722374,
              -29.9583505
            ],
            [
              -51.7225261,
              -29.9583436
            ],
            [
              -51.7225347,
              -29.9584841
            ],
            [
              -51.7220581,
              -29.9585059
            ]
          ]
        ]
      }
    },
    {
      "type": "Feature",
      "id": "way/1300995838",
      "properties": {
        "timestamp": "2024-07-12T21:46:11Z",
        "version": 1,
        "changeset": 153873293,
        "addr:city": "São Jerônimo",
        "addr:housenumber": "1500",
        "addr:postcode": "96700-000",
        "addr:street": "Rua Barão do Rio Branco",
        "addr:suburb": "São Francisco",
        "government": "public_works",
        "landuse": "governmental",
        "name": "Secretaria Municipal de Obras e Saneamento",
        "office": "government",
        "phone": "+55 51 3651-5549",
        "id": "way/1300995838"
      },
      "geometry": {
        "type": "Polygon",
        "coordinates": [
          [
            [
              -51.7083344,
              -29.9612829
            ],
            [
              -51.708134,
              -29.9613296
            ],
            [
              -51.7082025,
              -29.9614981
            ],
            [
              -51.7075434,
              -29.9615828
            ],
            [
              -51.7074294,
              -29.9610303
            ],
            [
              -51.708179,
              -29.9607066
            ],
            [
              -51.7083528,
              -29.9610112
            ],
            [
              -51.7082921,
              -29.9610383
            ],
            [
              -51.7083197,
              -29.9612193
            ],
            [
              -51.7083344,
              -29.9612829
            ]
          ]
        ]
      }
    },
    {
      "type": "Feature",
      "id": "way/1303933663",
      "properties": {
        "timestamp": "2024-07-26T16:10:51Z",
        "version": 1,
        "changeset": 154450734,
        "addr:city": "São Jerônimo",
        "addr:housenumber": "1111",
        "addr:postcode": "96700-000",
        "addr:street": "Rua Barão do Rio Branco",
        "addr:suburb": "Bela Vista",
        "government": "prosecutor",
        "landuse": "commercial",
        "name": "Promotoria de Justiça de São Jerônimo",
        "office": "government",
        "operator": "Ministério Público do stado do Rio Grande do Sul",
        "id": "way/1303933663"
      },
      "geometry": {
        "type": "Polygon",
        "coordinates": [
          [
            [
              -51.7150565,
              -29.9604663
            ],
            [
              -51.7148382,
              -29.9605169
            ],
            [
              -51.7147076,
              -29.9600731
            ],
            [
              -51.7149219,
              -29.9600251
            ],
            [
              -51.7150397,
              -29.9604114
            ],
            [
              -51.7150565,
              -29.9604663
            ]
          ]
        ]
      }
    },
    {
      "type": "Feature",
      "id": "node/8238630426",
      "properties": {
        "timestamp": "2020-12-17T21:19:16Z",
        "version": 1,
        "changeset": 96028362,
        "name": "Coord. Merenda Escolar/Emater/Sec. da Agricultura/Depto. de Trânsito/Coord. Defesa Civil",
        "office": "government",
        "id": "node/8238630426"
      },
      "geometry": {
        "type": "Point",
        "coordinates": [
          -51.7103326,
          -29.9599157
        ]
      }
    },
    {
      "type": "Feature",
      "id": "node/10555518817",
      "properties": {
        "timestamp": "2023-01-14T23:41:17Z",
        "version": 1,
        "changeset": 131282647,
        "addr:city": "São Jerônimo",
        "addr:housenumber": "35",
        "addr:postcode": "96700-000",
        "addr:street": "Rua Mineiro Nicácio Machado",
        "addr:suburb": "Centro",
        "air_conditioning": "yes",
        "government": "cadaster",
        "level": "1",
        "name": "Posto de Identificação",
        "office": "government",
        "opening_hours": "Mo-Fr 08:00-14:00",
        "operator": "IGP - RS",
        "phone": "+55 51 3651-5028",
        "website": "https://igp.rs.gov.br/",
        "wheelchair": "yes",
        "id": "node/10555518817"
      },
      "geometry": {
        "type": "Point",
        "coordinates": [
          -51.7241554,
          -29.9542858
        ]
      }
    },
    {
      "type": "Feature",
      "id": "node/10579134938",
      "properties": {
        "timestamp": "2023-02-13T21:14:18Z",
        "version": 2,
        "changeset": 132509495,
        "addr:city": "São Jerônimo",
        "addr:housenumber": "497",
        "addr:postcode": "96700-000",
        "addr:street": "Rua Coronel Antônio Soares de Carvalho",
        "addr:suburb": "Centro",
        "government": "administrative",
        "level": "1",
        "loc_name": "SINE",
        "name": "FGTAS / SINE",
        "office": "government",
        "official_name": "Fundação Gaúcha do Trabalho e Ação Social / Sistema Nacional de Emprego",
        "opening_hours": "Mo-Fr 08:00-12:00,13:00-17:00; PH closed",
        "phone": "+55 51 3651-1660",
        "wheelchair": "yes",
        "id": "node/10579134938"
      },
      "geometry": {
        "type": "Point",
        "coordinates": [
          -51.7235764,
          -29.958768
        ]
      }
    },
    {
      "type": "Feature",
      "id": "node/10688034211",
      "properties": {
        "timestamp": "2023-10-28T01:21:12Z",
        "version": 3,
        "changeset": 143236440,
        "addr:housenumber": "441",
        "addr:street": "Rua Barão do Rio Branco",
        "government": "administrative",
        "level": "1",
        "name": "Secretaria Municipal de Educação",
        "office": "government",
        "opening_hours": "Mo-Fr 09:00-12:00,13:30-16:30; PH closed",
        "website": "https://www.saojeronimo.rs.gov.br/",
        "wheelchair": "designated",
        "id": "node/10688034211"
      },
      "geometry": {
        "type": "Point",
        "coordinates": [
          -51.7239643,
          -29.9586493
        ]
      }
    }
  ]
}
