{
  "type": "FeatureCollection",
  "features": [
    {
      "type": "Feature",
      "id": "way/1146078717",
      "properties": {
        "timestamp": "2023-02-15T20:06:25Z",
        "version": 1,
        "changeset": 132599364,
        "addr:city": "São Jerônimo",
        "addr:housenumber": "538",
        "addr:postcode": "96700-000",
        "addr:street": "Rua Coronel Antônio Soares de Carvalho",
        "addr:suburb": "Centro",
        "amenity": "pharmacy",
        "building": "yes",
        "dispensing": "yes",
        "healthcare": "pharmacy",
        "height": "5",
        "level": "1",
        "name": "Farmácias Florata",
        "wheelchair": "designated",
        "id": "way/1146078717"
      },
      "geometry": {
        "type": "Polygon",
        "coordinates": [
          [
            [
              -51.7231789,
              -29.958956
            ],
            [
              -51.7231755,
              -29.9589077
            ],
            [
              -51.7233565,
              -29.9588982
            ],
            [
              -51.7233599,
              -29.9589462
            ],
            [
              -51.7232342,
              -29.9589528
            ],
            [
              -51.7231789,
              -29.958956
            ]
          ]
        ]
      }
    },
    {
      "type": "Feature",
      "id": "way/1149318886",
      "properties": {
        "timestamp": "2023-03-06T17:55:50Z",
        "version": 3,
        "changeset": 133374065,
        "addr:city": "São Jerônimo",
        "addr:housenumber": "450",
        "addr:postcode": "96700-000",
        "addr:street": "Rua Coronel Antônio Soares de Carvalho",
        "addr:suburb": "Centro",
        "amenity": "pharmacy",
        "brand": "Agafarma",
        "brand:wikidata": "Q93735939",
        "building": "yes",
        "building:levels": "1",
        "building:part": "yes",
        "contact:whatsapp": "+55 51 99741-8486",
        "drive_through": "no",
        "healthcare": "pharmacy",
        "level": "1",
        "loc_name": "Agafarma São Jerônimo",
        "name": "Agafarma",
        "opening_hours": "Mo-Sa 07:30-22:00; Su 08:00-22:00; PH off",
        "phone": "+55 51 3651-1714",
        "roof:height": "0.5",
        "roof:shape": "gabled",
        "wheelchair": "yes",
        "id": "way/1149318886"
      },
      "geometry": {
        "type": "Polygon",
        "coordinates": [
          [
            [
              -51.7232759,
              -29.9583267
            ],
            [
              -51.7231929,
              -29.9583312
            ],
            [
              -51.7231677,
              -29.9583326
            ],
            [
              -51.7231667,
              -29.9583198
            ],
            [
              -51.7231273,
              -29.9583219
            ],
            [
              -51.7231172,
              -29.9581852
            ],
            [
              -51.7233138,
              -29.9581744
            ],
            [
              -51.7233248,
              -29.958324
            ],
            [
              -51.7232759,
              -29.9583267
            ]
          ]
        ]
      }
    },
    {
      "type": "Feature",
      "id": "way/1151045115",
      "properties": {
        "timestamp": "2023-03-06T20:33:31Z",
        "version": 3,
        "changeset": 133378836,
        "addr:city": "São Jerônimo",
        "addr:housenumber": "985",
        "addr:postcode": "96700-000",
        "addr:street": "Rua Barão do Rio Branco",
        "addr:suburb": "Bela Vista",
        "amenity": "pharmacy",
        "brand": "Farmácias São João",
        "brand:wikidata": "Q65164556",
        "healthcare": "pharmacy",
        "landuse": "residential",
        "name": "Farmácias São João",
        "id": "way/1151045115"
      },
      "geometry": {
        "type": "Polygon",
        "coordinates": [
          [
            [
              -51.7165045,
              -29.9596693
            ],
            [
              -51.7165067,
              -29.9596761
            ],
            [
              -51.7165143,
              -29.959699
            ],
            [
              -51.7165487,
              -29.9598024
            ],
            [
              -51.7165492,
              -29.9598039
            ],
            [
              -51.7165987,
              -29.9599496
            ],
            [
              -51.716544,
              -29.9599639
            ],
            [
              -51.716483,
              -29.9599786
            ],
            [
              -51.7163687,
              -29.9600062
            ],
            [
              -51.7162602,
              -29.9596735
            ],
            [
              -51.7164871,
              -29.9596169
            ],
            [
              -51.7165045,
              -29.9596693
            ]
          ]
        ]
      }
    },
    {
      "type": "Feature",
      "id": "way/1157986644",
      "properties": {
        "timestamp": "2023-03-29T11:33:52Z",
        "version": 4,
        "changeset": 134258957,
        "addr:city": "São Jerônimo",
        "addr:housenumber": "579",
        "addr:postcode": "96700-000",
        "addr:street": "Rua Senador Ramiro Barcellos",
        "addr:suburb": "Centro",
        "amenity": "pharmacy",
        "brand": "Agafarma",
        "brand:wikidata": "Q93735939",
        "building": "yes",
        "building:levels": "1",
        "healthcare": "pharmacy",
        "name": "Agafarma",
        "id": "way/1157986644"
      },
      "geometry": {
        "type": "Polygon",
        "coordinates": [
          [
            [
              -51.7248292,
              -29.9593125
            ],
            [
              -51.7249699,
              -29.9593055
            ],
            [
              -51.724981,
              -29.959305
            ],
            [
              -51.7249869,
              -29.9593939
            ],
            [
              -51.7249316,
              -29.9593966
            ],
            [
              -51.7248351,
              -29.9594014
            ],
            [
              -51.7248292,
              -29.9593125
            ]
          ]
        ]
      }
    },
    {
      "type": "Feature",
      "id": "way/1157994484",
      "properties": {
        "timestamp": "2023-03-28T18:28:55Z",
        "version": 1,
        "changeset": 134232035,
        "addr:city": "São Jerônimo",
        "addr:housenumber": "493",
        "addr:postcode": "96700-000",
        "addr:street": "Rua Ramiro Barcelos",
        "addr:suburb": "Centro",
        "amenity": "pharmacy",
        "building": "yes",
        "building:levels": "1",
        "dispensing": "yes",
        "healthcare": "pharmacy",
        "name": "Farmácia Saude",
        "roof:orientation": "east",
        "roof:shape": "skillion",
        "id": "way/1157994484"
      },
      "geometry": {
        "type": "Polygon",
        "coordinates": [
          [
            [
              -51.7247938,
              -29.9586115
            ],
            [
              -51.7247882,
              -29.958515
            ],
            [
              -51.7248662,
              -29.9585115
            ],
            [
              -51.7248696,
              -29.9585671
            ],
            [
              -51.7248723,
              -29.9586079
            ],
            [
              -51.7247938,
              -29.9586115
            ]
          ]
        ]
      }
    },
    {
      "type": "Feature",
      "id": "node/10579134929",
      "properties": {
        "timestamp": "2023-02-16T13:54:42Z",
        "version": 2,
        "changeset": 132630691,
        "addr:city": "São Jerônimo",
        "addr:housenumber": "695",
        "addr:postcode": "96700-000",
        "addr:state": "BR",
        "addr:street": "Rua Oswaldo Aranha",
        "addr:suburb": "Centro",
        "amenity": "pharmacy",
        "dispensing": "yes",
        "healthcare": "pharmacy",
        "level": "1",
        "name": "Qualifarma",
        "opening_hours": "Mo-Su 08:00-22:00; PH closed",
        "wheelchair": "yes",
        "id": "node/10579134929"
      },
      "geometry": {
        "type": "Point",
        "coordinates": [
          -51.7236812,
          -29.9604349
        ]
      }
    },
    {
      "type": "Feature",
      "id": "node/10582693849",
      "properties": {
        "timestamp": "2023-02-18T02:18:23Z",
        "version": 3,
        "changeset": 132700886,
        "addr:city": "São Jerônimo",
        "addr:housenumber": "756",
        "addr:postcode": "96700-000",
        "addr:state": "BR",
        "addr:street": "Rua Coronel Antônio Soares de Carvalho",
        "addr:suburb": "Bela Vista",
        "amenity": "pharmacy",
        "dispensing": "yes",
        "healthcare": "pharmacy",
        "level": "1",
        "name": "Sanar - Rede de Farmácias",
        "wheelchair": "yes",
        "id": "node/10582693849"
      },
      "geometry": {
        "type": "Point",
        "coordinates": [
          -51.7234874,
          -29.9608776
        ]
      }
    },
    {
      "type": "Feature",
      "id": "node/10665557810",
      "properties": {
        "timestamp": "2023-02-15T20:06:25Z",
        "version": 1,
        "changeset": 132599364,
        "addr:city": "São Jerônimo",
        "addr:housenumber": "502",
        "addr:postcode": "96700-000",
        "addr:street": "Rua Coronel Antônio Soares de Carvalho",
        "addr:suburb": "Centro",
        "amenity": "pharmacy",
        "healthcare": "pharmacy",
        "level": "1",
        "name": "Farmácias Associadas Central",
        "wheelchair": "yes",
        "id": "node/10665557810"
      },
      "geometry": {
        "type": "Point",
        "coordinates": [
          -51.7233245,
          -29.9586155
        ]
      }
    },
    {
      "type": "Feature",
      "id": "node/10692994883",
      "properties": {
        "timestamp": "2023-02-25T14:32:40Z",
        "version": 1,
        "changeset": 133007609,
        "addr:housenumber": "465",
        "addr:street": "Rua Senador Ramiro Barcellos",
        "amenity": "pharmacy",
        "brand": "Farmácias São João",
        "healthcare": "pharmacy",
        "name": "Farmácias São João",
        "not:brand:wikidata": "Q65164556",
        "note": "O nome dafarmácia é no plural.",
        "phone": "+55 51 3651-4370",
        "id": "node/10692994883"
      },
      "geometry": {
        "type": "Point",
        "coordinates": [
          -51.7247883,
          -29.9583147
        ]
      }
    },
    {
      "type": "Feature",
      "id": "node/10695213990",
      "properties": {
        "timestamp": "2023-02-26T17:28:45Z",
        "version": 1,
        "changeset": 133052516,
        "addr:city": "São Jerônimo",
        "addr:housename": "Sala 11",
        "addr:housenumber": "1600",
        "addr:postcode": "96700-000",
        "addr:street": "Rua Senador Ramiro Barcellos",
        "addr:suburb": "São Thomás",
        "amenity": "pharmacy",
        "healthcare": "pharmacy",
        "name": "Fármacia Bem Estar",
        "id": "node/10695213990"
      },
      "geometry": {
        "type": "Point",
        "coordinates": [
          -51.7253195,
          -29.9696282
        ]
      }
    },
    {
      "type": "Feature",
      "id": "node/10769760668",
      "properties": {
        "timestamp": "2023-03-28T23:33:02Z",
        "version": 1,
        "changeset": 134239544,
        "addr:city": "São Jerônimo",
        "addr:housenumber": "595",
        "addr:postcode": "96700-000",
        "addr:street": "Rua Senador Ramiro Barcellos",
        "addr:suburb": "Centro",
        "amenity": "pharmacy",
        "healthcare": "pharmacy",
        "name": "Farmácia Econômica",
        "wheelchair": "yes",
        "id": "node/10769760668"
      },
      "geometry": {
        "type": "Point",
        "coordinates": [
          -51.724845,
          -29.9594441
        ]
      }
    },
    {
      "type": "Feature",
      "id": "node/11220870921",
      "properties": {
        "timestamp": "2024-11-27T21:35:01Z",
        "version": 2,
        "changeset": 159678902,
        "addr:city": "São Jerônimo",
        "addr:postcode": "96700-000",
        "addr:street": "Rua Luiz Müller Picarelli",
        "addr:suburb": "Centro",
        "amenity": "pharmacy",
        "dispensing": "no",
        "healthcare": "pharmacy",
        "name": "Farmácia Básica Muncipal",
        "opening_hours": "Mo-Su 08:00-12:00; 13:00-17:00",
        "operator": "Prefeitura Municipal de São Jerônimo",
        "id": "node/11220870921"
      },
      "geometry": {
        "type": "Point",
        "coordinates": [
          -51.7224367,
          -29.9582431
        ]
      }
    }
  ]
}
