{
  "type": "FeatureCollection",
  "features": [
    {
      "type": "Feature",
      "id": "way/1147388908",
      "properties": {
        "timestamp": "2023-02-19T18:15:11Z",
        "version": 3,
        "changeset": 132759562,
        "addr:city": "São Jerônimo",
        "addr:housenumber": "234",
        "addr:postcode": "96700-000",
        "addr:street": "Rua Luiz Justino Miller",
        "addr:suburb": "Bela Vista",
        "amenity": "social_facility",
        "name": "Abrigo Municipal Nélio Steigleder",
        "social_facility:for": "child",
        "id": "way/1147388908"
      },
      "geometry": {
        "type": "Polygon",
        "coordinates": [
          [
            [
              -51.7197277,
              -29.9614658
            ],
            [
              -51.7197361,
              -29.9615065
            ],
            [
              -51.7197625,
              -29.9616132
            ],
            [
              -51.7197779,
              -29.9616654
            ],
            [
              -51.7195412,
              -29.9617444
            ],
            [
              -51.7194725,
              -29.961517
            ],
            [
              -51.7197277,
              -29.9614658
            ]
          ]
        ]
      }
    },
    {
      "type": "Feature",
      "id": "way/1304903004",
      "properties": {
        "timestamp": "2024-07-31T19:10:54Z",
        "version": 1,
        "changeset": 154664909,
        "addr:city": "São Jerônimo",
        "addr:housenumber": "7190",
        "addr:postcode": "96700-000",
        "addr:street": "Rodovia José Manoel Gonzales de Souza",
        "addr:suburb": "Santa Terezinha",
        "amenity": "social_facility",
        "name": "Sociedade Assistencial Lar do Peregrino",
        "short_name": "Lar do Peregrino",
        "social_facility": "group_home",
        "social_facility:for": "senior",
        "wheelchair": "yes",
        "id": "way/1304903004"
      },
      "geometry": {
        "type": "Polygon",
        "coordinates": [
          [
            [
              -51.6839424,
              -29.9590347
            ],
            [
              -51.6834142,
              -29.9590768
            ],
            [
              -51.6831198,
              -29.9575544
            ],
            [
              -51.6836405,
              -29.9574786
            ],
            [
              -51.6839424,
              -29.9590347
            ]
          ]
        ]
      }
    },
    {
      "type": "Feature",
      "id": "node/10678483635",
      "properties": {
        "timestamp": "2023-02-19T14:48:09Z",
        "version": 1,
        "changeset": 132751358,
        "addr:city": "São Jerônimo",
        "addr:housenumber": "660",
        "addr:postcode": "96700-000",
        "addr:street": "Rua General Bento Gonçalves",
        "addr:suburb": "Bela Vista",
        "amenity": "social_facility",
        "name": "Clínica Doce Aconchego",
        "social_facility:for": "senior",
        "id": "node/10678483635"
      },
      "geometry": {
        "type": "Point",
        "coordinates": [
          -51.7179987,
          -29.9622795
        ]
      }
    }
  ]
}
