{
  "type": "FeatureCollection",
  "features": [
    {
      "type": "Feature",
      "id": "way/551996111",
      "properties": {
        "timestamp": "2018-01-09T22:12:30Z",
        "version": 1,
        "changeset": 55305940,
        "addr:city": "Pompeia",
        "addr:postcode": "17580000",
        "addr:street": "Rua Alberto Verri",
        "addr:suburb": "Olmira Pereira de Carvalho",
        "amenity": "community_centre",
        "building": "yes",
        "name": "Centro Idoso",
        "id": "way/551996111"
      },
      "geometry": {
        "type": "Polygon",
        "coordinates": [
          [
            [
              -50.1914977,
              -22.09942
            ],
            [
              -50.19147,
              -22.099497
            ],
            [
              -50.1914351,
              -22.0994872
            ],
            [
              -50.1910448,
              -22.0993771
            ],
            [
              -50.1910664,
              -22.0993058
            ],
            [
              -50.1914977,
              -22.09942
            ]
          ]
        ]
      }
    }
  ]
}
