{
  "type": "FeatureCollection",
  "features": [
    {
      "type": "Feature",
      "id": "node/3411884439",
      "properties": {
        "timestamp": "2024-01-02T13:21:32Z",
        "version": 5,
        "changeset": 145797852,
        "addr:city": "Jequitinhonha",
        "addr:housenumber": "173",
        "addr:postcode": "39960-000",
        "addr:street": "Pra√ßa Coronel Franco",
        "addr:suburb": "Centro",
        "air_conditioning": "yes",
        "name": "Hotel Bela Vista",
        "phone": "+55 33 3741 1124",
        "source": "survey",
        "tourism": "hotel",
        "wheelchair": "no",
        "id": "node/3411884439"
      },
      "geometry": {
        "type": "Point",
        "coordinates": [
          -41.0050674,
          -16.4318887
        ]
      }
    },
    {
      "type": "Feature",
      "id": "node/11475659078",
      "properties": {
        "timestamp": "2024-01-01T13:53:29Z",
        "version": 2,
        "changeset": 145762834,
        "addr:city": "Jequitinhonha",
        "addr:housenumber": "58",
        "addr:postcode": "39960-000",
        "addr:street": "Rua Arnaldo do Povo",
        "addr:suburb": "Centro",
        "name": "Hotel Miranda",
        "tourism": "hotel",
        "id": "node/11475659078"
      },
      "geometry": {
        "type": "Point",
        "coordinates": [
          -41.005491,
          -16.4328765
        ]
      }
    }
  ]
}
