{
  "type": "FeatureCollection",
  "features": [
    {
      "type": "Feature",
      "id": "way/488876990",
      "properties": {
        "timestamp": "2017-04-23T14:58:23Z",
        "version": 1,
        "changeset": 48062876,
        "amenity": "school",
        "id": "way/488876990"
      },
      "geometry": {
        "type": "Polygon",
        "coordinates": [
          [
            [
              -40.8058627,
              -16.299127
            ],
            [
              -40.8057913,
              -16.2993699
            ],
            [
              -40.8052789,
              -16.2992312
            ],
            [
              -40.8053503,
              -16.2989883
            ],
            [
              -40.8058627,
              -16.299127
            ]
          ]
        ]
      }
    },
    {
      "type": "Feature",
      "id": "way/501400114",
      "properties": {
        "timestamp": "2017-06-18T13:36:03Z",
        "version": 1,
        "changeset": 49635480,
        "amenity": "school",
        "name": "EE Manoel do Norte",
        "id": "way/501400114"
      },
      "geometry": {
        "type": "Polygon",
        "coordinates": [
          [
            [
              -41.2081706,
              -16.1658659
            ],
            [
              -41.2081224,
              -16.1660511
            ],
            [
              -41.207895,
              -16.1659965
            ],
            [
              -41.2079432,
              -16.1658113
            ],
            [
              -41.2081706,
              -16.1658659
            ]
          ]
        ]
      }
    },
    {
      "type": "Feature",
      "id": "way/738481055",
      "properties": {
        "timestamp": "2019-10-26T15:23:35Z",
        "version": 2,
        "changeset": 76245949,
        "amenity": "school",
        "name": "E M Clovis Salgado",
        "id": "way/738481055"
      },
      "geometry": {
        "type": "Polygon",
        "coordinates": [
          [
            [
              -41.3166025,
              -16.3637553
            ],
            [
              -41.3165951,
              -16.3638324
            ],
            [
              -41.3166393,
              -16.3638363
            ],
            [
              -41.3166174,
              -16.3640654
            ],
            [
              -41.3166084,
              -16.3640646
            ],
            [
              -41.3165686,
              -16.3640602
            ],
            [
              -41.3165789,
              -16.3639435
            ],
            [
              -41.316538,
              -16.3639402
            ],
            [
              -41.3165395,
              -16.3639238
            ],
            [
              -41.3164214,
              -16.3639142
            ],
            [
              -41.3164259,
              -16.3638635
            ],
            [
              -41.316337,
              -16.3638563
            ],
            [
              -41.3163337,
              -16.3638939
            ],
            [
              -41.3162592,
              -16.3638878
            ],
            [
              -41.316273,
              -16.3637323
            ],
            [
              -41.3166025,
              -16.3637553
            ]
          ]
        ]
      }
    },
    {
      "type": "Feature",
      "id": "way/738507893",
      "properties": {
        "timestamp": "2019-10-25T11:19:14Z",
        "version": 1,
        "changeset": 76202032,
        "addr:street": "R. Joaquim Martins Araujo",
        "amenity": "school",
        "name": "S.C.F.V Caju",
        "id": "way/738507893"
      },
      "geometry": {
        "type": "Polygon",
        "coordinates": [
          [
            [
              -41.3167947,
              -16.3634795
            ],
            [
              -41.3167893,
              -16.3635501
            ],
            [
              -41.3166869,
              -16.363543
            ],
            [
              -41.3166922,
              -16.3634724
            ],
            [
              -41.3167947,
              -16.3634795
            ]
          ]
        ]
      }
    },
    {
      "type": "Feature",
      "id": "way/1236275829",
      "properties": {
        "timestamp": "2024-01-02T11:48:24Z",
        "version": 1,
        "changeset": 145794642,
        "addr:city": "Jequitinhonha",
        "addr:housenumber": "45",
        "addr:postcode": "39960-000",
        "addr:street": "Rua Espírito Santo",
        "addr:suburb": "Vaticano",
        "amenity": "school",
        "name": "Escola Estadual Coronel Ramiro Pereira",
        "operator": "Secretaria de Estado da Educação de Minas Gerais",
        "operator:type": "public",
        "id": "way/1236275829"
      },
      "geometry": {
        "type": "Polygon",
        "coordinates": [
          [
            [
              -41.0127254,
              -16.4405761
            ],
            [
              -41.0129216,
              -16.4410791
            ],
            [
              -41.0115027,
              -16.4416068
            ],
            [
              -41.0112968,
              -16.4411007
            ],
            [
              -41.0127254,
              -16.4405761
            ]
          ]
        ]
      }
    },
    {
      "type": "Feature",
      "id": "node/3413620334",
      "properties": {
        "timestamp": "2024-01-01T01:32:33Z",
        "version": 2,
        "changeset": 145750207,
        "addr:city": "Jequitinhonha",
        "addr:housenumber": "55",
        "addr:postcode": "39960-000",
        "addr:street": "Rua Felisburgo",
        "amenity": "school",
        "name": "Escola Estadual Epaminondas Ramos",
        "operator": "Secretaria de Estado da Educação de Minas Gerais",
        "phone": "+55 33 3741 2303",
        "source": "IBGE",
        "id": "node/3413620334"
      },
      "geometry": {
        "type": "Point",
        "coordinates": [
          -41.0049559,
          -16.4368292
        ]
      }
    },
    {
      "type": "Feature",
      "id": "node/3435983447",
      "properties": {
        "timestamp": "2015-04-03T22:22:05Z",
        "version": 1,
        "changeset": 29962377,
        "amenity": "school",
        "source": "IBGE",
        "id": "node/3435983447"
      },
      "geometry": {
        "type": "Point",
        "coordinates": [
          -41.3396741,
          -16.508683
        ]
      }
    },
    {
      "type": "Feature",
      "id": "node/11474786027",
      "properties": {
        "timestamp": "2024-01-01T01:32:33Z",
        "version": 1,
        "changeset": 145750207,
        "addr:city": "Jequitinhonha",
        "addr:housenumber": "223",
        "addr:postcode": "39960-000",
        "addr:street": "Rua Salvador de Castro",
        "addr:suburb": "Alvorada",
        "amenity": "school",
        "name": "Escola Estadual Doutor Henrique Heitmann",
        "id": "node/11474786027"
      },
      "geometry": {
        "type": "Point",
        "coordinates": [
          -41.0134404,
          -16.4446141
        ]
      }
    },
    {
      "type": "Feature",
      "id": "node/11474786036",
      "properties": {
        "timestamp": "2024-01-02T14:14:16Z",
        "version": 2,
        "changeset": 145800117,
        "addr:city": "Jequitinhonha",
        "addr:housenumber": "10",
        "addr:postcode": "39960-000",
        "addr:street": "Rua Felisburgo",
        "addr:suburb": "Centro",
        "amenity": "school",
        "name": "Escola Estadual São Miguel",
        "operator": "Secretaria de Estado da Educação de Minas Gerais",
        "phone": "+55 33 3741 2124",
        "id": "node/11474786036"
      },
      "geometry": {
        "type": "Point",
        "coordinates": [
          -41.0052536,
          -16.43686
        ]
      }
    },
    {
      "type": "Feature",
      "id": "node/11474786055",
      "properties": {
        "timestamp": "2024-01-01T01:32:33Z",
        "version": 1,
        "changeset": 145750207,
        "addr:city": "Jequitinhonha",
        "addr:housenumber": "133",
        "addr:postcode": "39960-000",
        "addr:street": "Rua Argentina",
        "addr:suburb": "São José",
        "amenity": "school",
        "name": "Escola Municipal Doutor Antonio Lucena Peixoto",
        "id": "node/11474786055"
      },
      "geometry": {
        "type": "Point",
        "coordinates": [
          -41.0021074,
          -16.442657
        ]
      }
    },
    {
      "type": "Feature",
      "id": "node/11475659082",
      "properties": {
        "timestamp": "2024-01-01T04:37:18Z",
        "version": 1,
        "changeset": 145751835,
        "addr:city": "Jequitinhonha",
        "addr:district": "Guaranilândia",
        "addr:housenumber": "179",
        "addr:postcode": "39965-000",
        "addr:street": "Rua João Alves Cardoso",
        "addr:suburb": "Centro",
        "amenity": "school",
        "name": "Escola Estadual Coronel João da Cunha",
        "id": "node/11475659082"
      },
      "geometry": {
        "type": "Point",
        "coordinates": [
          -40.8058054,
          -16.299266
        ]
      }
    }
  ]
}
