{
  "type": "FeatureCollection",
  "features": [
    {
      "type": "Feature",
      "id": "way/649530467",
      "properties": {
        "timestamp": "2018-11-27T12:47:51Z",
        "version": 1,
        "changeset": 64935261,
        "leisure": "pitch",
        "sport": "soccer",
        "surface": "concrete",
        "id": "way/649530467"
      },
      "geometry": {
        "type": "Polygon",
        "coordinates": [
          [
            [
              -49.6667926,
              -15.1692168
            ],
            [
              -49.6668827,
              -15.1693344
            ],
            [
              -49.6666636,
              -15.1694908
            ],
            [
              -49.6665735,
              -15.1693733
            ],
            [
              -49.6667926,
              -15.1692168
            ]
          ]
        ]
      }
    },
    {
      "type": "Feature",
      "id": "way/1024254385",
      "properties": {
        "timestamp": "2023-08-19T13:29:22Z",
        "version": 3,
        "changeset": 140095045,
        "building": "yes",
        "leisure": "fitness_centre",
        "name": "ACADEMIA KAKÁ MELLO",
        "opening_hours": "Mo-Fr 06:00-22:00",
        "phone": "+5562999658449",
        "sport": "gymnastics;gym;academia",
        "website": "https://www.instagram.com/academia_kaka_mello/",
        "id": "way/1024254385"
      },
      "geometry": {
        "type": "Polygon",
        "coordinates": [
          [
            [
              -49.670268,
              -15.1724861
            ],
            [
              -49.670445,
              -15.1723955
            ],
            [
              -49.6704933,
              -15.1724848
            ],
            [
              -49.6703176,
              -15.1725728
            ],
            [
              -49.670268,
              -15.1724861
            ]
          ]
        ]
      }
    },
    {
      "type": "Feature",
      "id": "node/9444882791",
      "properties": {
        "timestamp": "2024-12-10T21:37:45Z",
        "version": 3,
        "changeset": 160145083,
        "addr:city": "ipiranga de goias",
        "addr:postcode": "76304-000",
        "addr:street": "Avenida Ceres qd 04 lt 05",
        "addr:suburb": "centro",
        "leisure": "fitness_centre",
        "name": "Academia Kaká Mello",
        "nohousenumber": "yes",
        "opening_hours": "segunda-feira a sexta-feira 06:00-22:00",
        "phone": "+5562999658449",
        "sport": "musculação;fitness;dance;workout;gym",
        "website": "https://www.instagram.com/academia_kaka_mello/",
        "id": "node/9444882791"
      },
      "geometry": {
        "type": "Point",
        "coordinates": [
          -49.6704651,
          -15.1724615
        ]
      }
    }
  ]
}
