{
  "type": "FeatureCollection",
  "features": [
    {
      "type": "Feature",
      "id": "way/442677929",
      "properties": {
        "timestamp": "2017-12-15T17:05:36Z",
        "version": 2,
        "changeset": 54659302,
        "addr:city": "Cruzeiro",
        "addr:country": "BR",
        "addr:suburb": "Centro",
        "amenity": "school",
        "email": "insa@insa.com.br",
        "name": "Instituto Nossa Senhora Auxiliador",
        "operator": "Rede Salesiana de Escolas",
        "phone": "+55 12 3144 1811",
        "website": "http://www.insa.com.br/",
        "id": "way/442677929"
      },
      "geometry": {
        "type": "Polygon",
        "coordinates": [
          [
            [
              -44.9631202,
              -22.5730923
            ],
            [
              -44.9635199,
              -22.5741499
            ],
            [
              -44.9627124,
              -22.5744298
            ],
            [
              -44.962286,
              -22.5733673
            ],
            [
              -44.9631202,
              -22.5730923
            ]
          ]
        ]
      }
    },
    {
      "type": "Feature",
      "id": "way/442677998",
      "properties": {
        "timestamp": "2020-07-26T02:28:58Z",
        "version": 3,
        "changeset": 88509668,
        "addr:city": "Cruzeiro",
        "addr:country": "BR",
        "addr:housenumber": "593",
        "addr:postcode": "12701-360",
        "addr:street": "Rua Capitão Otávio Ramos",
        "addr:suburb": "Centro",
        "amenity": "school",
        "email": "e012506a@educacao.sp.gov.br",
        "name": "Escola Estadual Oswaldo Cruz",
        "operator": "Secretaria da Educação do Estado de São Paulo",
        "operator:type": "government",
        "phone": "+55 12 3144 0212",
        "id": "way/442677998"
      },
      "geometry": {
        "type": "Polygon",
        "coordinates": [
          [
            [
              -44.9621573,
              -22.5734168
            ],
            [
              -44.9625569,
              -22.5744323
            ],
            [
              -44.9617365,
              -22.5747065
            ],
            [
              -44.9613231,
              -22.5736769
            ],
            [
              -44.9621573,
              -22.5734168
            ]
          ]
        ]
      }
    },
    {
      "type": "Feature",
      "id": "way/547116185",
      "properties": {
        "timestamp": "2020-08-28T00:13:51Z",
        "version": 2,
        "changeset": 90049440,
        "addr:city": "Cruzeiro",
        "addr:country": "BR",
        "addr:housenumber": "302",
        "addr:postcode": "12720-100",
        "addr:street": "Rua Antônio Pinto",
        "addr:suburb": "Vila Doutor João Batista",
        "amenity": "school",
        "contact:phone": "+55 12 3144 8488",
        "email": "e012385a@educacao.sp.gov.br",
        "name": "Escola Estadual Professor Virgílio Antunes",
        "operator": "Secretaria da Educação do Estado de São Paulo",
        "operator:type": "government",
        "phone": "+55 12 3144 2789",
        "id": "way/547116185"
      },
      "geometry": {
        "type": "Polygon",
        "coordinates": [
          [
            [
              -44.9473346,
              -22.5629366
            ],
            [
              -44.9473561,
              -22.5634023
            ],
            [
              -44.9466211,
              -22.5634468
            ],
            [
              -44.9465889,
              -22.5629812
            ],
            [
              -44.9473346,
              -22.5629366
            ]
          ]
        ]
      }
    },
    {
      "type": "Feature",
      "id": "way/547119452",
      "properties": {
        "timestamp": "2017-12-15T22:39:47Z",
        "version": 3,
        "changeset": 54667473,
        "addr:city": "Cruzeiro",
        "addr:country": "BR",
        "addr:housenumber": "210",
        "addr:postcode": "12701-330",
        "addr:street": "Avenida Major Novaes",
        "addr:suburb": "Centro",
        "amenity": "school",
        "contact:phone": "+55 12 3144 0410",
        "name": "Escola Municipal de Educação Fundamental Doutor Arnolfo Azevedo",
        "phone": "+55 12 3144 2289",
        "source": "http://www.cruzeiro.sp.gov.br/index.php?option=com_content&view=article&id=219&Itemid=146",
        "tourism": "attraction",
        "id": "way/547119452"
      },
      "geometry": {
        "type": "Polygon",
        "coordinates": [
          [
            [
              -44.9589073,
              -22.5763416
            ],
            [
              -44.9590601,
              -22.5767329
            ],
            [
              -44.9587061,
              -22.5768543
            ],
            [
              -44.9585425,
              -22.5764555
            ],
            [
              -44.9589073,
              -22.5763416
            ]
          ]
        ]
      }
    }
  ]
}
