{
  "type": "FeatureCollection",
  "features": [
    {
      "type": "Feature",
      "id": "node/12529291146",
      "properties": {
        "timestamp": "2025-01-24T13:29:11Z",
        "version": 1,
        "changeset": 161712526,
        "addr:city": "Rubelita",
        "addr:housenumber": "146",
        "addr:postcode": "39565-000",
        "addr:street": "Rua Ademar Almeida",
        "addr:suburb": "Centro",
        "government": "social_services",
        "name": "Secretaria Municipal de Assistência Social",
        "office": "government",
        "id": "node/12529291146"
      },
      "geometry": {
        "type": "Point",
        "coordinates": [
          -42.2622212,
          -16.4071195
        ]
      }
    },
    {
      "type": "Feature",
      "id": "node/12529291147",
      "properties": {
        "timestamp": "2025-01-24T13:29:11Z",
        "version": 1,
        "changeset": 161712526,
        "addr:city": "Rubelita",
        "addr:housenumber": "134",
        "addr:postcode": "39565-000",
        "addr:street": "Rua Ademar Almeida",
        "addr:suburb": "Centro",
        "government": "register_office",
        "name": "Cartório de Registro Civil e Tabelionato de Notas",
        "office": "government",
        "id": "node/12529291147"
      },
      "geometry": {
        "type": "Point",
        "coordinates": [
          -42.2622068,
          -16.4072284
        ]
      }
    },
    {
      "type": "Feature",
      "id": "node/12529291153",
      "properties": {
        "timestamp": "2025-01-24T13:29:11Z",
        "version": 1,
        "changeset": 161712526,
        "addr:city": "Rubelita",
        "addr:housenumber": "85",
        "addr:postcode": "39565-000",
        "addr:street": "Rua Domingos José Mendes",
        "addr:suburb": "Centro",
        "government": "culture",
        "name": "Secretaria Muncipal de Cultura, Esportes e Lazer",
        "office": "government",
        "id": "node/12529291153"
      },
      "geometry": {
        "type": "Point",
        "coordinates": [
          -42.2617811,
          -16.4087502
        ]
      }
    }
  ]
}
