{
  "type": "FeatureCollection",
  "features": [
    {
      "type": "Feature",
      "id": "way/234129338",
      "properties": {
        "timestamp": "2018-07-29T04:18:57Z",
        "version": 3,
        "changeset": 61155678,
        "addr:city": "Itanhaem",
        "addr:housenumber": "1431",
        "addr:street": "Avenida José Batista Campos",
        "addr:suburb": "Anchieta",
        "amenity": "college",
        "name": "ETEC - Escola Técnica de Itanhaem",
        "operator": "Centro Paula Souza",
        "phone": "+55 13 3426 4926",
        "start_date": "2006-08-01",
        "website": "http://etecitanhaem.com.br/index.html",
        "id": "way/234129338"
      },
      "geometry": {
        "type": "Polygon",
        "coordinates": [
          [
            [
              -46.7853914,
              -24.1693926
            ],
            [
              -46.7851763,
              -24.168736
            ],
            [
              -46.7859488,
              -24.1685206
            ],
            [
              -46.7861179,
              -24.1690109
            ],
            [
              -46.7857583,
              -24.1692939
            ],
            [
              -46.7853914,
              -24.1693926
            ]
          ]
        ]
      }
    }
  ]
}
