{
  "type": "FeatureCollection",
  "features": [
    {
      "type": "Feature",
      "id": "way/607996754",
      "properties": {
        "timestamp": "2024-11-26T23:03:48Z",
        "version": 2,
        "changeset": 159637610,
        "addr:city": "Itanhaém",
        "addr:housenumber": "135",
        "addr:postcode": "11740-000",
        "addr:street": "Rua Pedro de Toledo",
        "addr:suburb": "Centro",
        "government": "register_office",
        "landuse": "commercial",
        "name": "Cartório Molina",
        "office": "government",
        "phone": "+55133421-3030",
        "id": "way/607996754"
      },
      "geometry": {
        "type": "Polygon",
        "coordinates": [
          [
            [
              -46.790904,
              -24.1854772
            ],
            [
              -46.7908182,
              -24.1856143
            ],
            [
              -46.7905553,
              -24.1854919
            ],
            [
              -46.7906894,
              -24.1852472
            ],
            [
              -46.790904,
              -24.1854772
            ]
          ]
        ]
      }
    }
  ]
}
