{
  "type": "FeatureCollection",
  "features": [
    {
      "type": "Feature",
      "id": "way/1002322204",
      "properties": {
        "timestamp": "2021-11-14T15:14:36Z",
        "version": 1,
        "changeset": 113766946,
        "addr:housenumber": "407",
        "addr:postcode": "65103-000",
        "addr:street": "Avenida Humberto de Campos",
        "addr:suburb": "Centro",
        "amenity": "college",
        "name": "IEMA -Instituto Estadual de Educação Ciência e Tecnologia do Maranhão",
        "phone": "+55 98 99103 9434",
        "ref": "INEP-21280843",
        "source": "INEP",
        "id": "way/1002322204"
      },
      "geometry": {
        "type": "Polygon",
        "coordinates": [
          [
            [
              -44.3197985,
              -2.9755222
            ],
            [
              -44.3196053,
              -2.9756319
            ],
            [
              -44.3195249,
              -2.9755355
            ],
            [
              -44.3196832,
              -2.9754204
            ],
            [
              -44.3197985,
              -2.9755222
            ]
          ]
        ]
      }
    },
    {
      "type": "Feature",
      "id": "way/1002325683",
      "properties": {
        "timestamp": "2021-11-14T15:31:30Z",
        "version": 1,
        "changeset": 113767745,
        "addr:housenumber": "13",
        "addr:postcode": "65143-000",
        "addr:street": "Rua dos Bacurizeiros",
        "addr:suburb": "Nova Bacabeira",
        "amenity": "college",
        "description": "Quadra G",
        "name": "Escola Técnica de Bacabeira",
        "phone": "+55 98 3346 1042",
        "ref": "INEP-21280525",
        "source": "INEP",
        "id": "way/1002325683"
      },
      "geometry": {
        "type": "Polygon",
        "coordinates": [
          [
            [
              -44.3193403,
              -2.9812384
            ],
            [
              -44.3188799,
              -2.9809742
            ],
            [
              -44.3193939,
              -2.9801777
            ],
            [
              -44.3198499,
              -2.9804589
            ],
            [
              -44.3193403,
              -2.9812384
            ]
          ]
        ]
      }
    }
  ]
}
