{
  "type": "FeatureCollection",
  "features": [
    {
      "type": "Feature",
      "id": "way/376604904",
      "properties": {
        "timestamp": "2015-10-23T23:37:12Z",
        "version": 1,
        "changeset": 34832165,
        "addr:city": "Nova Iguaçu",
        "addr:housenumber": "751",
        "addr:street": "15 de Novembro",
        "addr:suburb": "Carmari",
        "amenity": "clinic",
        "building": "yes",
        "emergency": "no",
        "name": "ESF Lino Vilela",
        "operator": "Prefeitura de Nova Iguaçu",
        "id": "way/376604904"
      },
      "geometry": {
        "type": "Polygon",
        "coordinates": [
          [
            [
              -43.4511592,
              -22.7248049
            ],
            [
              -43.4510733,
              -22.7248989
            ],
            [
              -43.4509178,
              -22.7247802
            ],
            [
              -43.451009,
              -22.7246862
            ],
            [
              -43.4511592,
              -22.7248049
            ]
          ]
        ]
      }
    },
    {
      "type": "Feature",
      "id": "way/771105557",
      "properties": {
        "timestamp": "2020-02-09T18:22:03Z",
        "version": 1,
        "changeset": 80760042,
        "addr:city": "Nova Iguaçu",
        "addr:housenumber": "586",
        "addr:postcode": "26032-662",
        "addr:street": "Rua Geni Saraiva",
        "addr:suburb": "Ponto Chic",
        "amenity": "clinic",
        "building": "yes",
        "healthcare": "clinic",
        "name": "Irclin Centro de Saúde",
        "website": "http://irclin.com.br",
        "id": "way/771105557"
      },
      "geometry": {
        "type": "Polygon",
        "coordinates": [
          [
            [
              -43.4686845,
              -22.7278236
            ],
            [
              -43.4685838,
              -22.7279186
            ],
            [
              -43.4684522,
              -22.7277998
            ],
            [
              -43.4685528,
              -22.7277049
            ],
            [
              -43.4686845,
              -22.7278236
            ]
          ]
        ]
      }
    },
    {
      "type": "Feature",
      "id": "way/977633495",
      "properties": {
        "timestamp": "2021-08-29T20:41:48Z",
        "version": 1,
        "changeset": 110426918,
        "amenity": "clinic",
        "building": "yes",
        "healthcare": "clinic",
        "id": "way/977633495"
      },
      "geometry": {
        "type": "Polygon",
        "coordinates": [
          [
            [
              -43.5692188,
              -22.7852981
            ],
            [
              -43.5691853,
              -22.7854351
            ],
            [
              -43.5690176,
              -22.7854003
            ],
            [
              -43.569051,
              -22.7852633
            ],
            [
              -43.5692188,
              -22.7852981
            ]
          ]
        ]
      }
    },
    {
      "type": "Feature",
      "id": "way/1179772311",
      "properties": {
        "timestamp": "2023-06-05T14:21:11Z",
        "version": 1,
        "changeset": 136975475,
        "amenity": "clinic",
        "building": "yes",
        "healthcare": "clinic",
        "name": "Centro de Saúde Vasco Barcelos",
        "operator": "Sistema Único de Saúde",
        "operator:short": "SUS",
        "operator:type": "public",
        "operator:wikidata": "Q7531056",
        "id": "way/1179772311"
      },
      "geometry": {
        "type": "Polygon",
        "coordinates": [
          [
            [
              -43.4500496,
              -22.7614691
            ],
            [
              -43.4502663,
              -22.7619065
            ],
            [
              -43.4499502,
              -22.7620397
            ],
            [
              -43.4497336,
              -22.7616023
            ],
            [
              -43.4499509,
              -22.7615107
            ],
            [
              -43.4500496,
              -22.7614691
            ]
          ]
        ]
      }
    },
    {
      "type": "Feature",
      "id": "way/1180783115",
      "properties": {
        "timestamp": "2023-06-09T23:41:45Z",
        "version": 1,
        "changeset": 137156484,
        "amenity": "clinic",
        "building": "yes",
        "healthcare": "clinic",
        "healthcare:speciality": "general;psychiatry;paediatrics;gynaecology;vaccination;cardiology;child_psychiatry",
        "name": "Clínica da Família Dr. Moacyr de Almeida Carvalho (Austin)",
        "id": "way/1180783115"
      },
      "geometry": {
        "type": "Polygon",
        "coordinates": [
          [
            [
              -43.5277159,
              -22.7151869
            ],
            [
              -43.5277958,
              -22.7150642
            ],
            [
              -43.5279459,
              -22.7151396
            ],
            [
              -43.527897,
              -22.7152002
            ],
            [
              -43.5278509,
              -22.7152571
            ],
            [
              -43.5277159,
              -22.7151869
            ]
          ]
        ]
      }
    },
    {
      "type": "Feature",
      "id": "node/6111525698",
      "properties": {
        "timestamp": "2020-07-30T17:37:08Z",
        "version": 2,
        "changeset": 88745969,
        "addr:city": "Nova Iguaçu",
        "addr:street": "Rua Bolívia",
        "addr:suburb": "Centro",
        "amenity": "clinic",
        "healthcare": "clinic",
        "name": "Clínica da Familia Odiceia Morais",
        "opening_hours": "Mo-Su 08:00-17:00",
        "id": "node/6111525698"
      },
      "geometry": {
        "type": "Point",
        "coordinates": [
          -43.4449355,
          -22.750948
        ]
      }
    },
    {
      "type": "Feature",
      "id": "node/6566387594",
      "properties": {
        "timestamp": "2019-06-23T18:25:44Z",
        "version": 1,
        "changeset": 71538561,
        "amenity": "clinic",
        "healthcare": "clinic",
        "healthcare:speciality": "general",
        "name": "Clínica da Família",
        "id": "node/6566387594"
      },
      "geometry": {
        "type": "Point",
        "coordinates": [
          -43.6021815,
          -22.8548066
        ]
      }
    },
    {
      "type": "Feature",
      "id": "node/7770660499",
      "properties": {
        "timestamp": "2020-07-30T17:37:08Z",
        "version": 1,
        "changeset": 88745969,
        "addr:city": "Nova Iguaçu",
        "addr:housenumber": "202",
        "addr:postcode": "26033-460",
        "addr:street": "Rua Julio Kenger",
        "addr:suburb": "São Luiz Gonzaga",
        "amenity": "clinic",
        "healthcare": "clinic",
        "name": "UBS Cobrex",
        "opening_hours": "Mo-Su 08:00-17:00",
        "phone": "+55 21 2797-4378",
        "id": "node/7770660499"
      },
      "geometry": {
        "type": "Point",
        "coordinates": [
          -43.4667433,
          -22.7204752
        ]
      }
    },
    {
      "type": "Feature",
      "id": "node/7770660501",
      "properties": {
        "timestamp": "2020-07-30T17:37:08Z",
        "version": 1,
        "changeset": 88745969,
        "addr:city": "Nova Iguaçu",
        "addr:housenumber": "115",
        "addr:postcode": "26210-150",
        "addr:street": "Rua Olinda Wilman",
        "addr:suburb": "Moquetá",
        "amenity": "clinic",
        "healthcare": "clinic",
        "name": "UBS Alberto Sobral",
        "opening_hours": "Mo-Su 08:00-17:00",
        "id": "node/7770660501"
      },
      "geometry": {
        "type": "Point",
        "coordinates": [
          -43.4488851,
          -22.7498318
        ]
      }
    },
    {
      "type": "Feature",
      "id": "node/7770660515",
      "properties": {
        "timestamp": "2020-07-30T17:37:08Z",
        "version": 1,
        "changeset": 88745969,
        "addr:city": "Nova Iguaçu",
        "addr:housenumber": "10",
        "addr:street": "Rua Morro Agudo",
        "addr:suburb": "Santa Eugênia",
        "amenity": "clinic",
        "healthcare": "clinic",
        "name": "UBS Jardim Santa Eugênia",
        "opening_hours": "Mo-Su 08:00-17:00",
        "phone": "+55 21 2660-4538",
        "id": "node/7770660515"
      },
      "geometry": {
        "type": "Point",
        "coordinates": [
          -43.4661451,
          -22.748914
        ]
      }
    },
    {
      "type": "Feature",
      "id": "node/7770660516",
      "properties": {
        "timestamp": "2020-07-30T17:37:08Z",
        "version": 1,
        "changeset": 88745969,
        "addr:city": "Nova Iguaçu",
        "addr:housenumber": "67",
        "addr:street": "Travessa Júlia Távora",
        "addr:suburb": "Vila Santo Antônio",
        "amenity": "clinic",
        "healthcare": "clinic",
        "name": "UBS Júlia Távora",
        "opening_hours": "Mo-Su 08:00-17:00",
        "phone": "+55 21 2667-6954",
        "id": "node/7770660516"
      },
      "geometry": {
        "type": "Point",
        "coordinates": [
          -43.4608589,
          -22.7629072
        ]
      }
    },
    {
      "type": "Feature",
      "id": "node/7770660517",
      "properties": {
        "timestamp": "2020-07-30T17:37:08Z",
        "version": 1,
        "changeset": 88745969,
        "addr:city": "Nova Iguaçu",
        "addr:housenumber": "325",
        "addr:street": "Rua Zenaide",
        "addr:suburb": "Nova Brasília",
        "amenity": "clinic",
        "healthcare": "clinic",
        "name": "UBS Nova Brasília",
        "opening_hours": "Mo-Su 08:00-17:00",
        "phone": "+55 21 2779-2487",
        "id": "node/7770660517"
      },
      "geometry": {
        "type": "Point",
        "coordinates": [
          -43.4485589,
          -22.6722057
        ]
      }
    },
    {
      "type": "Feature",
      "id": "node/7770660518",
      "properties": {
        "timestamp": "2023-03-08T00:40:10Z",
        "version": 2,
        "changeset": 133423699,
        "addr:city": "Nova Iguaçu",
        "addr:housenumber": "10",
        "addr:street": "Rua João Rocha de Carvalho",
        "addr:suburb": "Santa Clara",
        "amenity": "clinic",
        "healthcare": "clinic",
        "name": "UBS Santa Clara",
        "opening_hours": "Mo-Su 08:00-17:00",
        "phone": "+55 21 3474-8869",
        "id": "node/7770660518"
      },
      "geometry": {
        "type": "Point",
        "coordinates": [
          -43.4229346,
          -22.7636367
        ]
      }
    },
    {
      "type": "Feature",
      "id": "node/7770660519",
      "properties": {
        "timestamp": "2020-07-30T17:37:08Z",
        "version": 1,
        "changeset": 88745969,
        "addr:city": "Nova Iguaçu",
        "addr:street": "Rua Santa Rita",
        "addr:suburb": "Corumbá",
        "amenity": "clinic",
        "healthcare": "clinic",
        "name": "Clínica da Família Corumbá",
        "opening_hours": "Mo-Su 08:00-17:00",
        "id": "node/7770660519"
      },
      "geometry": {
        "type": "Point",
        "coordinates": [
          -43.4731823,
          -22.6962752
        ]
      }
    },
    {
      "type": "Feature",
      "id": "node/9585750937",
      "properties": {
        "timestamp": "2022-03-17T15:47:21Z",
        "version": 1,
        "changeset": 118600189,
        "addr:city": "Nova Iguaçu",
        "addr:housenumber": "221",
        "addr:postcode": "26275-320",
        "addr:street": "Rua dos Quartéis",
        "addr:suburb": "Comendador Soares",
        "amenity": "clinic",
        "building": "yes",
        "healthcare": "clinic",
        "name": "Clinica da Familia - Emília Gomes",
        "opening_hours": "Mo-Fr 08:30-16:00; Sa 08:30-14:00",
        "id": "node/9585750937"
      },
      "geometry": {
        "type": "Point",
        "coordinates": [
          -43.4957746,
          -22.7440293
        ]
      }
    },
    {
      "type": "Feature",
      "id": "node/9907927271",
      "properties": {
        "timestamp": "2022-07-24T17:38:05Z",
        "version": 1,
        "changeset": 124018575,
        "amenity": "clinic",
        "healthcare": "clinic",
        "name": "Policlínica de Santa Rita",
        "operator": "Sistema Único de Saúde",
        "operator:short": "SUS",
        "operator:wikidata": "Q7531056",
        "id": "node/9907927271"
      },
      "geometry": {
        "type": "Point",
        "coordinates": [
          -43.4682045,
          -22.6913961
        ]
      }
    }
  ]
}
