{
  "type": "FeatureCollection",
  "features": [
    {
      "type": "Feature",
      "id": "way/451947626",
      "properties": {
        "timestamp": "2018-06-19T22:44:41Z",
        "version": 3,
        "changeset": 59992644,
        "building": "yes",
        "government": "legislative",
        "name": "Câmara Municipal de Nova Iguaçu",
        "office": "government",
        "id": "way/451947626"
      },
      "geometry": {
        "type": "Polygon",
        "coordinates": [
          [
            [
              -43.454268,
              -22.7568734
            ],
            [
              -43.4543427,
              -22.7570224
            ],
            [
              -43.4543207,
              -22.7570312
            ],
            [
              -43.4541993,
              -22.7570796
            ],
            [
              -43.4540842,
              -22.7571255
            ],
            [
              -43.4540143,
              -22.7569683
            ],
            [
              -43.4540989,
              -22.7569367
            ],
            [
              -43.454114,
              -22.756931
            ],
            [
              -43.4542341,
              -22.756886
            ],
            [
              -43.454268,
              -22.7568734
            ]
          ]
        ]
      }
    },
    {
      "type": "Feature",
      "id": "way/451947668",
      "properties": {
        "timestamp": "2023-10-02T06:33:03Z",
        "version": 3,
        "changeset": 142022964,
        "addr:city": "Nova Iguaçu",
        "addr:housenumber": "722",
        "addr:postcode": "26285-060",
        "addr:street": "Avenida Governador Roberto Silveira",
        "addr:suburb": "Centro",
        "building": "yes",
        "government": "yes",
        "name": "Centro de Operações de Nova Iguaçu (CONIG)",
        "office": "government",
        "start_date": "25/03/2016",
        "wheelchair": "yes",
        "id": "way/451947668"
      },
      "geometry": {
        "type": "Polygon",
        "coordinates": [
          [
            [
              -43.4548262,
              -22.7521101
            ],
            [
              -43.4546325,
              -22.7520993
            ],
            [
              -43.45464,
              -22.751954
            ],
            [
              -43.4547742,
              -22.7519307
            ],
            [
              -43.4548052,
              -22.7519294
            ],
            [
              -43.4548192,
              -22.7519338
            ],
            [
              -43.4548314,
              -22.7519436
            ],
            [
              -43.4548389,
              -22.7519613
            ],
            [
              -43.4548262,
              -22.7521101
            ]
          ]
        ]
      }
    },
    {
      "type": "Feature",
      "id": "way/797081942",
      "properties": {
        "timestamp": "2023-10-02T06:33:03Z",
        "version": 2,
        "changeset": 142022964,
        "addr:city": "Nova Iguaçu",
        "addr:housenumber": "34",
        "addr:postcode": "26.220-330",
        "addr:street": "Rua Reverendo João Musch",
        "addr:suburb": "Califórnia",
        "government": "Trânsito_e_Transporte_Municipal",
        "name": "SEMTMU",
        "office": "government",
        "opening_hours": "Segunda a Sexta das 9:00 às 17:00 horas",
        "id": "way/797081942"
      },
      "geometry": {
        "type": "Polygon",
        "coordinates": [
          [
            [
              -43.4373874,
              -22.7570503
            ],
            [
              -43.4374199,
              -22.7574627
            ],
            [
              -43.437056,
              -22.7574852
            ],
            [
              -43.4370357,
              -22.7570634
            ],
            [
              -43.4373874,
              -22.7570503
            ]
          ]
        ]
      }
    },
    {
      "type": "Feature",
      "id": "node/5319205900",
      "properties": {
        "timestamp": "2018-01-03T23:19:49Z",
        "version": 1,
        "changeset": 55142534,
        "addr:city": "Nova Iguaçu",
        "addr:street": "Rua José Moacir Nogueira",
        "addr:suburb": "Centro",
        "government": "public_service",
        "name": "Secretaria Municipal de Assistência Social",
        "office": "government",
        "id": "node/5319205900"
      },
      "geometry": {
        "type": "Point",
        "coordinates": [
          -43.4422623,
          -22.7544131
        ]
      }
    },
    {
      "type": "Feature",
      "id": "node/7516015932",
      "properties": {
        "timestamp": "2022-03-10T13:22:10Z",
        "version": 3,
        "changeset": 118323799,
        "addr:city": "Nova Iguaçu",
        "addr:postcode": "26090-005",
        "addr:street": "Estrada de Santa Rita",
        "addr:suburb": "Bairro Botafogo",
        "government": "transportation",
        "name": "Posto de Vistoria Nova Iguaçu - Detran/RJ",
        "office": "government",
        "id": "node/7516015932"
      },
      "geometry": {
        "type": "Point",
        "coordinates": [
          -43.462666,
          -22.7137471
        ]
      }
    },
    {
      "type": "Feature",
      "id": "node/7770660500",
      "properties": {
        "timestamp": "2020-07-30T17:37:08Z",
        "version": 1,
        "changeset": 88745969,
        "addr:city": "Nova Iguaçu",
        "addr:housenumber": "230",
        "addr:postcode": "26215-020",
        "addr:street": "Rua Antônio Wilman",
        "addr:suburb": "Centro",
        "government": "yes",
        "name": "Secretaria Municipal de Saúde de Nova Iguaçu",
        "office": "government",
        "opening_hours": "Mo-Fr 09:00-17:00",
        "phone": "+55 21 3773-3035",
        "id": "node/7770660500"
      },
      "geometry": {
        "type": "Point",
        "coordinates": [
          -43.4511757,
          -22.7503265
        ]
      }
    },
    {
      "type": "Feature",
      "id": "node/7770660524",
      "properties": {
        "timestamp": "2020-07-30T17:37:08Z",
        "version": 1,
        "changeset": 88745969,
        "addr:city": "Nova Iguaçu",
        "addr:housenumber": "300",
        "addr:street": "Rua Estados Unidos",
        "addr:suburb": "Centro",
        "name": "INSS",
        "office": "government",
        "phone": "+55 21 2767-4545",
        "id": "node/7770660524"
      },
      "geometry": {
        "type": "Point",
        "coordinates": [
          -43.4454497,
          -22.7506199
        ]
      }
    }
  ]
}
