{
  "type": "FeatureCollection",
  "features": [
    {
      "type": "Feature",
      "id": "way/452285566",
      "properties": {
        "timestamp": "2021-09-13T02:32:13Z",
        "version": 2,
        "changeset": 111117124,
        "addr:city": "Nova Iguaçu",
        "addr:housenumber": "99",
        "addr:postcode": "26210-260",
        "addr:street": "Rua Iracema Soares Pereira Junqueira",
        "addr:suburb": "Centro",
        "brand": "Mont Blanc",
        "building": "yes",
        "name": "Diamond Flats",
        "tourism": "hotel",
        "id": "way/452285566"
      },
      "geometry": {
        "type": "Polygon",
        "coordinates": [
          [
            [
              -43.4532004,
              -22.7549351
            ],
            [
              -43.4533312,
              -22.7552861
            ],
            [
              -43.4530323,
              -22.7553873
            ],
            [
              -43.4529015,
              -22.755032
            ],
            [
              -43.4532004,
              -22.7549351
            ]
          ]
        ]
      }
    },
    {
      "type": "Feature",
      "id": "way/452285567",
      "properties": {
        "timestamp": "2022-06-19T23:41:43Z",
        "version": 4,
        "changeset": 122596437,
        "addr:city": "Nova Iguaçu",
        "addr:country": "BR",
        "addr:housenumber": "520",
        "addr:postcode": "26255-230",
        "addr:street": "Avenida Doutor Mário Guimarães",
        "addr:suburb": "Centro",
        "air_conditioning": "yes",
        "brand": "Mercure",
        "brand:wikidata": "Q1709809",
        "brand:wikipedia": "en:Mercure (hotel)",
        "building": "yes",
        "image": "https://upload.wikimedia.org/wikipedia/commons/thumb/b/b5/MercureHotels_logo_2020_RGB.png/640px-MercureHotels_logo_2020_RGB.png",
        "internet_access": "wlan",
        "internet_access:fee": "no",
        "name": "Mercure Hotel",
        "payment:american_express": "yes",
        "payment:cash": "yes",
        "payment:coins": "no",
        "payment:contactless": "yes",
        "payment:cryptocurrencies": "no",
        "payment:diners_club": "yes",
        "payment:maestro": "yes",
        "payment:mastercard": "yes",
        "payment:visa": "yes",
        "payment:visa_debit": "yes",
        "payment:visa_electron": "yes",
        "smoking": "outside",
        "stars": "4",
        "tourism": "hotel",
        "website": "https://mercure.accor.com",
        "id": "way/452285567"
      },
      "geometry": {
        "type": "Polygon",
        "coordinates": [
          [
            [
              -43.4567215,
              -22.7592256
            ],
            [
              -43.4565215,
              -22.7588084
            ],
            [
              -43.4568528,
              -22.7586703
            ],
            [
              -43.4570401,
              -22.7590835
            ],
            [
              -43.4567215,
              -22.7592256
            ]
          ]
        ]
      }
    },
    {
      "type": "Feature",
      "id": "way/452285568",
      "properties": {
        "timestamp": "2022-06-19T23:41:43Z",
        "version": 2,
        "changeset": 122596437,
        "building": "yes",
        "internet_access": "wlan",
        "internet_access:fee": "no",
        "name": "Mont Blanc Apart Hotel",
        "smoking": "outside",
        "stars": "3",
        "tourism": "hotel",
        "wheelchair": "yes",
        "id": "way/452285568"
      },
      "geometry": {
        "type": "Polygon",
        "coordinates": [
          [
            [
              -43.4569214,
              -22.7592315
            ],
            [
              -43.4572398,
              -22.7591061
            ],
            [
              -43.4573114,
              -22.7592606
            ],
            [
              -43.456993,
              -22.759386
            ],
            [
              -43.4569214,
              -22.7592315
            ]
          ]
        ]
      }
    },
    {
      "type": "Feature",
      "id": "way/982367962",
      "properties": {
        "timestamp": "2021-09-13T02:37:02Z",
        "version": 1,
        "changeset": 111117182,
        "addr:city": "Nova Iguaçu",
        "addr:housenumber": "201",
        "addr:postcode": "26255-470",
        "addr:street": "Travessa Carlos Cardoso Távora",
        "addr:suburb": "Jardim São João",
        "brand": "Mont Blanc",
        "building": "yes",
        "internet_access": "yes",
        "name": "Mont Blanc Suites - Iguassu",
        "tourism": "hotel",
        "id": "way/982367962"
      },
      "geometry": {
        "type": "Polygon",
        "coordinates": [
          [
            [
              -43.4588525,
              -22.7615976
            ],
            [
              -43.4587879,
              -22.7613131
            ],
            [
              -43.4589289,
              -22.7612859
            ],
            [
              -43.4589934,
              -22.7615704
            ],
            [
              -43.4588525,
              -22.7615976
            ]
          ]
        ]
      }
    }
  ]
}
