{
  "type": "FeatureCollection",
  "features": [
    {
      "type": "Feature",
      "id": "way/680056517",
      "properties": {
        "timestamp": "2022-03-10T13:29:24Z",
        "version": 5,
        "changeset": 118324032,
        "addr:city": "Nova Iguaçu",
        "addr:housenumber": "267",
        "addr:postcode": "26276-600",
        "addr:street": "Rua Lafaiete Pimenta",
        "addr:suburb": "Comendador Soares",
        "amenity": "pharmacy",
        "building": "yes",
        "dispensing": "yes",
        "drive_through": "no",
        "healthcare": "pharmacy",
        "name": "Farmacia Saúde Popular",
        "opening_hours:signed": "no",
        "wheelchair": "no",
        "id": "way/680056517"
      },
      "geometry": {
        "type": "Polygon",
        "coordinates": [
          [
            [
              -43.4886813,
              -22.7449383
            ],
            [
              -43.488577,
              -22.7449784
            ],
            [
              -43.4885321,
              -22.7448792
            ],
            [
              -43.4886364,
              -22.7448391
            ],
            [
              -43.4886813,
              -22.7449383
            ]
          ]
        ]
      }
    },
    {
      "type": "Feature",
      "id": "way/863371182",
      "properties": {
        "timestamp": "2022-03-07T13:09:58Z",
        "version": 3,
        "changeset": 118196568,
        "addr:city": "Nova Iguaçu",
        "addr:postcode": "26275-320",
        "addr:street": "Rua dos Quartéis",
        "addr:suburb": "Comendador Soares",
        "amenity": "pharmacy",
        "building": "yes",
        "dispensing": "yes",
        "drive_through": "no",
        "healthcare": "pharmacy",
        "name": "Drogarias Viva Mais",
        "opening_hours": "Mo-Su 08:00-22:00",
        "phone": "+55 21 37644000",
        "id": "way/863371182"
      },
      "geometry": {
        "type": "Polygon",
        "coordinates": [
          [
            [
              -43.4947848,
              -22.7450491
            ],
            [
              -43.494834,
              -22.7450053
            ],
            [
              -43.4949141,
              -22.7450818
            ],
            [
              -43.494865,
              -22.7451256
            ],
            [
              -43.4947848,
              -22.7450491
            ]
          ]
        ]
      }
    },
    {
      "type": "Feature",
      "id": "way/975317932",
      "properties": {
        "timestamp": "2024-07-07T16:19:40Z",
        "version": 3,
        "changeset": 153669097,
        "addr:city": "Nova Iguaçu",
        "addr:housenumber": "49",
        "addr:postcode": "26280-376",
        "addr:street": "Rua Tomás Fonseca",
        "addr:suburb": "Comendador Soares",
        "amenity": "pharmacy",
        "building": "yes",
        "dispensing": "yes",
        "healthcare": "pharmacy",
        "name": "Drogarias Certa",
        "opening_hours": "Mo-Sa 07:00-22:00; Su 07:00-21:00",
        "id": "way/975317932"
      },
      "geometry": {
        "type": "Polygon",
        "coordinates": [
          [
            [
              -43.4873912,
              -22.7438863
            ],
            [
              -43.4873104,
              -22.7439627
            ],
            [
              -43.4872308,
              -22.7438911
            ],
            [
              -43.4873116,
              -22.7438147
            ],
            [
              -43.4873912,
              -22.7438863
            ]
          ]
        ]
      }
    },
    {
      "type": "Feature",
      "id": "way/975317933",
      "properties": {
        "timestamp": "2024-07-07T16:19:40Z",
        "version": 4,
        "changeset": 153669097,
        "addr:city": "Nova Iguaçu",
        "addr:housenumber": "100",
        "addr:postcode": "26280-376",
        "addr:street": "Rua Tomás Fonseca",
        "addr:suburb": "Comendador Soares",
        "amenity": "pharmacy",
        "brand": "Pacheco",
        "brand:wikidata": "Q10268813",
        "building": "yes",
        "dispensing": "yes",
        "drive_through": "no",
        "healthcare": "pharmacy",
        "name": "Pacheco",
        "opening_hours": "Mo-Sa 07:00-22:00; Su 07:00-20:00",
        "operator": "DPSP - Drogarias Pacheco e Drogaria São Paulo",
        "payment:cash": "yes",
        "payment:credit_cards": "yes",
        "payment:debit_cards": "yes",
        "phone": "+552137661099",
        "id": "way/975317933"
      },
      "geometry": {
        "type": "Polygon",
        "coordinates": [
          [
            [
              -43.4869095,
              -22.7436683
            ],
            [
              -43.4867822,
              -22.7437832
            ],
            [
              -43.4867149,
              -22.7437198
            ],
            [
              -43.4868422,
              -22.7436049
            ],
            [
              -43.4869095,
              -22.7436683
            ]
          ]
        ]
      }
    },
    {
      "type": "Feature",
      "id": "way/977729488",
      "properties": {
        "timestamp": "2022-03-05T16:40:29Z",
        "version": 2,
        "changeset": 118132628,
        "addr:city": "Nova Iguaçu",
        "addr:housenumber": "269",
        "addr:postcode": "26277-350",
        "addr:street": "Rua Leonel Gouveia",
        "addr:suburb": "Comendador Soares",
        "amenity": "pharmacy",
        "building": "yes",
        "dispensing": "yes",
        "drive_through": "no",
        "healthcare": "pharmacy",
        "name": "Drogarias Kanasha",
        "opening_hours": "Su 08:00-15:00; Mo-Sa 07:30-21:00",
        "phone": "+55 21 27697732",
        "phone_1": "+55 21 31439050",
        "id": "way/977729488"
      },
      "geometry": {
        "type": "Polygon",
        "coordinates": [
          [
            [
              -43.4893232,
              -22.7474106
            ],
            [
              -43.4892851,
              -22.7472905
            ],
            [
              -43.4894004,
              -22.7472593
            ],
            [
              -43.4894311,
              -22.747356
            ],
            [
              -43.4893836,
              -22.7473943
            ],
            [
              -43.4893232,
              -22.7474106
            ]
          ]
        ]
      }
    },
    {
      "type": "Feature",
      "id": "way/1330532355",
      "properties": {
        "timestamp": "2024-11-04T01:30:32Z",
        "version": 1,
        "changeset": 158722896,
        "addr:city": "Nova Iguaçu",
        "addr:postcode": "26255-230",
        "addr:street": "Avenida Doutor Mário Guimarães",
        "amenity": "pharmacy",
        "building": "retail",
        "name": "Drogarias Pacheco",
        "id": "way/1330532355"
      },
      "geometry": {
        "type": "Polygon",
        "coordinates": [
          [
            [
              -43.4576966,
              -22.7587342
            ],
            [
              -43.4575821,
              -22.7587802
            ],
            [
              -43.457489,
              -22.7585832
            ],
            [
              -43.4576036,
              -22.7585372
            ],
            [
              -43.4576966,
              -22.7587342
            ]
          ]
        ]
      }
    },
    {
      "type": "Feature",
      "id": "node/2205703409",
      "properties": {
        "timestamp": "2016-09-11T21:34:53Z",
        "version": 2,
        "changeset": 42087961,
        "amenity": "pharmacy",
        "name": "CityFarma",
        "id": "node/2205703409"
      },
      "geometry": {
        "type": "Point",
        "coordinates": [
          -43.6016968,
          -22.8538992
        ]
      }
    },
    {
      "type": "Feature",
      "id": "node/2205703412",
      "properties": {
        "timestamp": "2016-09-11T21:34:53Z",
        "version": 2,
        "changeset": 42087961,
        "amenity": "pharmacy",
        "name": "CityFarma",
        "id": "node/2205703412"
      },
      "geometry": {
        "type": "Point",
        "coordinates": [
          -43.6026034,
          -22.8531725
        ]
      }
    },
    {
      "type": "Feature",
      "id": "node/5216080721",
      "properties": {
        "timestamp": "2021-09-20T22:04:50Z",
        "version": 2,
        "changeset": 111468238,
        "amenity": "pharmacy",
        "healthcare": "pharmacy",
        "name": "Biofontes",
        "id": "node/5216080721"
      },
      "geometry": {
        "type": "Point",
        "coordinates": [
          -43.4462066,
          -22.754511
        ]
      }
    },
    {
      "type": "Feature",
      "id": "node/6813407389",
      "properties": {
        "timestamp": "2019-09-21T03:38:01Z",
        "version": 1,
        "changeset": 74738960,
        "addr:city": "Nova Iguaçu",
        "addr:housenumber": "172",
        "addr:postcode": "26297-054",
        "addr:street": "Rua Humeboshi",
        "addr:suburb": "Pantanal",
        "amenity": "pharmacy",
        "dispensing": "yes",
        "drive_through": "no",
        "healthcare": "pharmacy",
        "name": "Drogaria FarmaFreitas",
        "payment:cash": "yes",
        "payment:credit_cards": "yes",
        "payment:debit_cards": "yes",
        "phone": "+55 21 2686-4575",
        "id": "node/6813407389"
      },
      "geometry": {
        "type": "Point",
        "coordinates": [
          -43.5960216,
          -22.8157735
        ]
      }
    },
    {
      "type": "Feature",
      "id": "node/7384511985",
      "properties": {
        "timestamp": "2020-04-09T08:40:10Z",
        "version": 1,
        "changeset": 83294613,
        "addr:city": "Tingua, Nova Iguacu, RJ",
        "addr:housenumber": "217",
        "addr:postcode": "26063-420",
        "addr:street": "Estr. Zumbi dos Palmares",
        "amenity": "pharmacy",
        "dispensing": "yes",
        "healthcare": "pharmacy",
        "name": "Farmacia Ativa",
        "opening_hours": "Mo-Fr 08:00-18:00",
        "operator:type": "private",
        "wheelchair": "no",
        "id": "node/7384511985"
      },
      "geometry": {
        "type": "Point",
        "coordinates": [
          -43.4167725,
          -22.5920718
        ]
      }
    },
    {
      "type": "Feature",
      "id": "node/9046680920",
      "properties": {
        "timestamp": "2022-03-05T16:46:18Z",
        "version": 2,
        "changeset": 118132628,
        "addr:city": "Nova Iguaçu",
        "addr:housenumber": "159",
        "addr:postcode": "26277-350",
        "addr:street": "Rua Leonel Gouveia",
        "addr:suburb": "Comendador Soares",
        "amenity": "pharmacy",
        "dispensing": "yes",
        "drive_through": "no",
        "healthcare": "pharmacy",
        "name": "Drogarias Ultra Popular",
        "opening_hours": "Mo-Sa 08:00-21:00",
        "phone": "+55 21 26586077",
        "id": "node/9046680920"
      },
      "geometry": {
        "type": "Point",
        "coordinates": [
          -43.4889762,
          -22.7463143
        ]
      }
    },
    {
      "type": "Feature",
      "id": "node/9046680922",
      "properties": {
        "timestamp": "2022-03-05T16:49:36Z",
        "version": 2,
        "changeset": 118132628,
        "addr:city": "Nova Iguaçu",
        "addr:housenumber": "7",
        "addr:postcode": "26277-350",
        "addr:street": "Rua Leonel Gouveia",
        "addr:suburb": "Comendador Soares",
        "amenity": "pharmacy",
        "dispensing": "yes",
        "drive_through": "no",
        "healthcare": "pharmacy",
        "name": "Drogarias Mep",
        "opening_hours": "Su 07:30-14:00; Mo-Sa 07:30-21:00",
        "phone": "+55 21 31037403",
        "id": "node/9046680922"
      },
      "geometry": {
        "type": "Point",
        "coordinates": [
          -43.4886841,
          -22.7456287
        ]
      }
    }
  ]
}
