{
  "type": "FeatureCollection",
  "features": [
    {
      "type": "Feature",
      "id": "way/548699495",
      "properties": {
        "timestamp": "2017-12-23T13:25:01Z",
        "version": 1,
        "changeset": 54863528,
        "addr:city": "Elias Fausto",
        "addr:country": "BR",
        "addr:housenumber": "590",
        "addr:postcode": "13350-000",
        "addr:street": "Rua Quinze de Novembro",
        "addr:suburb": "Centro",
        "amenity": "school",
        "contact:phone": "+55 19 3821 2003",
        "email": "e020941a@educacao.sp.gov.br",
        "name": "Escola Estadual General Mascarenhas de Moraes",
        "operator": "Secretaria da Educação do Estado de São Paulo",
        "phone": "+55 19 3821 1331",
        "id": "way/548699495"
      },
      "geometry": {
        "type": "Polygon",
        "coordinates": [
          [
            [
              -47.3773421,
              -23.0446989
            ],
            [
              -47.3773555,
              -23.0447273
            ],
            [
              -47.3769612,
              -23.0454369
            ],
            [
              -47.3769237,
              -23.0454418
            ],
            [
              -47.3762129,
              -23.0450938
            ],
            [
              -47.3762048,
              -23.0450543
            ],
            [
              -47.376583,
              -23.0443681
            ],
            [
              -47.3766206,
              -23.0443459
            ],
            [
              -47.3773421,
              -23.0446989
            ]
          ]
        ]
      }
    },
    {
      "type": "Feature",
      "id": "way/548703131",
      "properties": {
        "timestamp": "2017-12-23T14:03:37Z",
        "version": 2,
        "changeset": 54864304,
        "addr:city": "Elias Fausto",
        "addr:country": "BR",
        "addr:housenumber": "354",
        "addr:postcode": "13350-000",
        "addr:street": "Rua Abel de Camargo",
        "addr:suburb": "Vila Camatari",
        "amenity": "school",
        "contact:phone": "+55 19 3821 1704",
        "name": "Escola Municipal de Educação Básica  Professora Rute Thoni Bergamo",
        "phone": "+55 19 3821 1192",
        "id": "way/548703131"
      },
      "geometry": {
        "type": "Polygon",
        "coordinates": [
          [
            [
              -47.3711937,
              -23.0258154
            ],
            [
              -47.3706493,
              -23.0258154
            ],
            [
              -47.3706251,
              -23.0254352
            ],
            [
              -47.371285,
              -23.025371
            ],
            [
              -47.3712179,
              -23.0258178
            ],
            [
              -47.3711937,
              -23.0258154
            ]
          ]
        ]
      }
    },
    {
      "type": "Feature",
      "id": "way/548703739",
      "properties": {
        "timestamp": "2017-12-23T14:03:37Z",
        "version": 1,
        "changeset": 54864304,
        "addr:city": "Elias Fausto",
        "addr:country": "BR",
        "addr:housenumber": "150",
        "addr:postcode": "13350-000",
        "addr:street": "Rua Teófilo Maluf",
        "addr:suburb": "Vila Camatari",
        "amenity": "school",
        "contact:phone": "+55 19 3821 2377",
        "email": "educacaoeliasfausto@yahoo.com.br",
        "name": "Escola Municipal de Educação Fundamental Professora Maria Cândida Alves Pinto",
        "phone": "+55 19 3821 2002",
        "id": "way/548703739"
      },
      "geometry": {
        "type": "Polygon",
        "coordinates": [
          [
            [
              -47.3712114,
              -23.0258639
            ],
            [
              -47.3711471,
              -23.0263107
            ],
            [
              -47.3711015,
              -23.0263625
            ],
            [
              -47.3707313,
              -23.0263255
            ],
            [
              -47.3706911,
              -23.0262958
            ],
            [
              -47.3706455,
              -23.025854
            ],
            [
              -47.3712114,
              -23.0258639
            ]
          ]
        ]
      }
    },
    {
      "type": "Feature",
      "id": "way/548704643",
      "properties": {
        "timestamp": "2017-12-23T14:10:50Z",
        "version": 1,
        "changeset": 54864459,
        "addr:city": "Elias Fausto",
        "addr:postcode": "13350-000",
        "addr:street": "Rua Suzano Aguiar",
        "addr:suburb": "Centro",
        "amenity": "school",
        "name": "Escola Municipal Prefeito Lupércio Guedes Pinto (Titico)",
        "note": "sem numeração",
        "phone": "+55 19 3821 7174",
        "id": "way/548704643"
      },
      "geometry": {
        "type": "Polygon",
        "coordinates": [
          [
            [
              -47.3681747,
              -23.046953
            ],
            [
              -47.3685287,
              -23.0468839
            ],
            [
              -47.3685555,
              -23.0471011
            ],
            [
              -47.3680325,
              -23.0471949
            ],
            [
              -47.3680325,
              -23.0472862
            ],
            [
              -47.3680379,
              -23.0473825
            ],
            [
              -47.3672493,
              -23.0476021
            ],
            [
              -47.3671474,
              -23.0472097
            ],
            [
              -47.3675497,
              -23.0470962
            ],
            [
              -47.3681747,
              -23.046953
            ]
          ]
        ]
      }
    },
    {
      "type": "Feature",
      "id": "way/548706798",
      "properties": {
        "timestamp": "2017-12-23T14:24:44Z",
        "version": 1,
        "changeset": 54864761,
        "addr:city": "Elias Fausto",
        "addr:country": "BR",
        "addr:housenumber": "70",
        "addr:postcode": "13350-000",
        "addr:street": "Rua Iracema B.Juliani",
        "addr:suburb": "Jardim Tornatore",
        "amenity": "school",
        "contact:phone": "+55 19 38211 680",
        "email": "educacaoeliasfausto@yahoo.com.br",
        "name": "Escola Municipal Gerardo Mário Tornatore",
        "phone": "+55 19 3821 1396",
        "id": "way/548706798"
      },
      "geometry": {
        "type": "Polygon",
        "coordinates": [
          [
            [
              -47.3675103,
              -23.0356874
            ],
            [
              -47.3678081,
              -23.036265
            ],
            [
              -47.3675747,
              -23.0363761
            ],
            [
              -47.3672958,
              -23.0357911
            ],
            [
              -47.3675103,
              -23.0356874
            ]
          ]
        ]
      }
    },
    {
      "type": "Feature",
      "id": "way/548713351",
      "properties": {
        "timestamp": "2017-12-23T15:05:22Z",
        "version": 1,
        "changeset": 54865794,
        "addr:housenumber": "305",
        "addr:street": "Rua São José",
        "amenity": "school",
        "name": "Escola Municipal Aparecida do Carmo Maschietto",
        "phone": "+55 19 3821 1456",
        "id": "way/548713351"
      },
      "geometry": {
        "type": "Polygon",
        "coordinates": [
          [
            [
              -47.3002123,
              -23.0614027
            ],
            [
              -47.3002726,
              -23.0617346
            ],
            [
              -47.3003276,
              -23.0622985
            ],
            [
              -47.2993808,
              -23.0623726
            ],
            [
              -47.2993003,
              -23.0614817
            ],
            [
              -47.3002123,
              -23.0614027
            ]
          ]
        ]
      }
    },
    {
      "type": "Feature",
      "id": "way/548721949",
      "properties": {
        "timestamp": "2018-04-29T23:41:23Z",
        "version": 2,
        "changeset": 58539789,
        "addr:city": "Elias Fausto",
        "addr:country": "BR",
        "addr:housenumber": "05",
        "addr:postcode": "13350-000",
        "addr:street": "Rua Calixto Mora",
        "addr:suburb": "Cardeal",
        "amenity": "school",
        "contact:phone": "+55 19 3821 2001",
        "name": "Escola Municipal de Educação Infantil Angela Maria Bergamo Antunes",
        "phone": "+55 19 3821 1886",
        "id": "way/548721949"
      },
      "geometry": {
        "type": "Polygon",
        "coordinates": [
          [
            [
              -47.3083334,
              -23.0603753
            ],
            [
              -47.3085695,
              -23.0606073
            ],
            [
              -47.3083656,
              -23.0607628
            ],
            [
              -47.3083012,
              -23.0608072
            ],
            [
              -47.3082503,
              -23.0608097
            ],
            [
              -47.3082342,
              -23.0607578
            ],
            [
              -47.3082261,
              -23.0604543
            ],
            [
              -47.3083334,
              -23.0603753
            ]
          ]
        ]
      }
    }
  ]
}
