{
  "type": "FeatureCollection",
  "features": [
    {
      "type": "Feature",
      "id": "node/1611836872",
      "properties": {
        "timestamp": "2022-01-03T22:39:14Z",
        "version": 8,
        "changeset": 115731022,
        "amenity": "pharmacy",
        "healthcare": "pharmacy",
        "name": "Farmácia Central",
        "id": "node/1611836872"
      },
      "geometry": {
        "type": "Point",
        "coordinates": [
          -42.2234105,
          -14.5030801
        ]
      }
    },
    {
      "type": "Feature",
      "id": "node/1611892824",
      "properties": {
        "timestamp": "2012-02-20T17:47:43Z",
        "version": 12,
        "changeset": 10742114,
        "amenity": "pharmacy",
        "name": "Farmácia Neves",
        "id": "node/1611892824"
      },
      "geometry": {
        "type": "Point",
        "coordinates": [
          -42.2230915,
          -14.5006757
        ]
      }
    },
    {
      "type": "Feature",
      "id": "node/1611901814",
      "properties": {
        "timestamp": "2022-06-03T00:12:22Z",
        "version": 7,
        "changeset": 121871748,
        "addr:city": "Caculé",
        "addr:housenumber": "85",
        "addr:postcode": "46300-000",
        "addr:street": "Praça Miguel Fernandes",
        "amenity": "pharmacy",
        "healthcare": "pharmacy",
        "name": "Farmácia Santa Gema",
        "phone": "+55 77 3455 1221",
        "id": "node/1611901814"
      },
      "geometry": {
        "type": "Point",
        "coordinates": [
          -42.2221772,
          -14.5062677
        ]
      }
    },
    {
      "type": "Feature",
      "id": "node/1611901816",
      "properties": {
        "timestamp": "2022-01-03T22:39:14Z",
        "version": 7,
        "changeset": 115731022,
        "amenity": "pharmacy",
        "healthcare": "pharmacy",
        "name": "Farmácia Mota Filial",
        "id": "node/1611901816"
      },
      "geometry": {
        "type": "Point",
        "coordinates": [
          -42.2245049,
          -14.4988942
        ]
      }
    },
    {
      "type": "Feature",
      "id": "node/9716727148",
      "properties": {
        "timestamp": "2022-05-04T23:26:31Z",
        "version": 1,
        "changeset": 120563959,
        "addr:city": "Caculé",
        "addr:street": "Praça Coração de Jesus",
        "addr:suburb": "Centro",
        "amenity": "pharmacy",
        "dispensing": "yes",
        "healthcare": "pharmacy",
        "name": "Farmácia Básica Municipal",
        "operator": "Secretaria Municipal de Saúde",
        "id": "node/9716727148"
      },
      "geometry": {
        "type": "Point",
        "coordinates": [
          -42.2223014,
          -14.5041714
        ]
      }
    },
    {
      "type": "Feature",
      "id": "node/9716727154",
      "properties": {
        "timestamp": "2022-05-04T23:26:31Z",
        "version": 1,
        "changeset": 120563959,
        "addr:city": "Caculé",
        "addr:street": "Praça Coração de Jesus",
        "addr:suburb": "Centro",
        "amenity": "pharmacy",
        "dispensing": "yes",
        "healthcare": "pharmacy",
        "name": "Drogaria Farma+",
        "phone": "+55 77 3455 1388",
        "id": "node/9716727154"
      },
      "geometry": {
        "type": "Point",
        "coordinates": [
          -42.2224765,
          -14.5049206
        ]
      }
    }
  ]
}
