{
  "type": "FeatureCollection",
  "features": [
    {
      "type": "Feature",
      "id": "way/319779729",
      "properties": {
        "timestamp": "2022-07-17T17:16:51Z",
        "version": 6,
        "changeset": 123728876,
        "addr:city": "João Monlevade",
        "addr:housenumber": "13",
        "addr:postcode": "35930-320",
        "addr:street": "Rua Vitória",
        "addr:suburb": "Baú",
        "building": "yes",
        "name": "Hotel Santo Eloi",
        "phone": "+55 31 3851 2050",
        "tourism": "hotel",
        "id": "way/319779729"
      },
      "geometry": {
        "type": "Polygon",
        "coordinates": [
          [
            [
              -43.1490864,
              -19.8187432
            ],
            [
              -43.1488506,
              -19.8191467
            ],
            [
              -43.1486331,
              -19.8190282
            ],
            [
              -43.1488588,
              -19.8186362
            ],
            [
              -43.1489807,
              -19.8185807
            ],
            [
              -43.1490864,
              -19.8187432
            ]
          ]
        ]
      }
    },
    {
      "type": "Feature",
      "id": "way/320082399",
      "properties": {
        "timestamp": "2022-07-17T14:13:21Z",
        "version": 4,
        "changeset": 123722915,
        "addr:city": "João Monlevade",
        "addr:housenumber": "416",
        "addr:postcode": "35930-000",
        "addr:street": "Avenida Wilson Alverenga",
        "addr:suburb": "Carneirinhos",
        "building": "yes",
        "name": "Hotel Aquarius",
        "phone": "+55 31 3851 3550",
        "smoking": "no",
        "tourism": "hotel",
        "website": "http://www.hotelcolonialaquarius.com.br/",
        "id": "way/320082399"
      },
      "geometry": {
        "type": "Polygon",
        "coordinates": [
          [
            [
              -43.167561,
              -19.8100765
            ],
            [
              -43.1672317,
              -19.8103165
            ],
            [
              -43.1670488,
              -19.8100947
            ],
            [
              -43.1670701,
              -19.8100574
            ],
            [
              -43.1672378,
              -19.8099254
            ],
            [
              -43.167561,
              -19.8100765
            ]
          ]
        ]
      }
    },
    {
      "type": "Feature",
      "id": "way/320087093",
      "properties": {
        "timestamp": "2022-07-17T14:13:42Z",
        "version": 4,
        "changeset": 123722929,
        "addr:city": "João Monlevade",
        "addr:housenumber": "270",
        "addr:postcode": "35930-000",
        "addr:street": "Avenida Wilson Alverenga",
        "addr:suburb": "Carneirinhos",
        "building": "yes",
        "name": "Hotel Nacional",
        "phone": "+55 31 3851 1677",
        "smoking": "no",
        "tourism": "hotel",
        "website": "https://hotelnacionaljm.com/",
        "id": "way/320087093"
      },
      "geometry": {
        "type": "Polygon",
        "coordinates": [
          [
            [
              -43.1666875,
              -19.8106777
            ],
            [
              -43.1664875,
              -19.8108043
            ],
            [
              -43.1662468,
              -19.8106012
            ],
            [
              -43.1663265,
              -19.8105029
            ],
            [
              -43.1664397,
              -19.8106112
            ],
            [
              -43.1665388,
              -19.8105312
            ],
            [
              -43.1666875,
              -19.8106777
            ]
          ]
        ]
      }
    },
    {
      "type": "Feature",
      "id": "way/320091242",
      "properties": {
        "timestamp": "2023-11-16T00:26:26Z",
        "version": 4,
        "changeset": 144073251,
        "addr:city": "João Monlevade",
        "addr:housenumber": "5503",
        "addr:postcode": "35930-004",
        "addr:street": "Avenida Getúlio Vargas",
        "addr:suburb": "Carneirinhos",
        "building": "yes",
        "name": "Central Palace Hotel",
        "phone": "+55 31 3852 1818",
        "smoking": "no",
        "tourism": "hotel",
        "website": "https://www.centralpalacehotel.com.br/",
        "id": "way/320091242"
      },
      "geometry": {
        "type": "Polygon",
        "coordinates": [
          [
            [
              -43.1806535,
              -19.8089006
            ],
            [
              -43.1805484,
              -19.8092828
            ],
            [
              -43.1803897,
              -19.809274
            ],
            [
              -43.1803289,
              -19.8088347
            ],
            [
              -43.1806535,
              -19.8089006
            ]
          ]
        ]
      }
    },
    {
      "type": "Feature",
      "id": "node/10995844252",
      "properties": {
        "timestamp": "2023-06-21T20:57:29Z",
        "version": 1,
        "changeset": 137622087,
        "addr:city": "João Monlevade",
        "addr:housenumber": "179",
        "addr:postcode": "35930-027",
        "addr:street": "Rua Lucindo Caldeira",
        "addr:suburb": "alvorada",
        "leisure": "adult_gaming_centre",
        "name": "Hotel Carneirinhos",
        "tourism": "hotel",
        "id": "node/10995844252"
      },
      "geometry": {
        "type": "Point",
        "coordinates": [
          -43.1782934,
          -19.809732
        ]
      }
    }
  ]
}
