{
  "type": "FeatureCollection",
  "features": [
    {
      "type": "Feature",
      "id": "way/319764400",
      "properties": {
        "timestamp": "2023-12-26T15:45:19Z",
        "version": 6,
        "changeset": 145540006,
        "addr:city": "João Monlevade",
        "addr:postcode": "35930-438",
        "addr:street": "Avenida Aeroporto",
        "addr:suburb": "Vila Tanque",
        "amenity": "school",
        "name": "Escola Estadual Dr. Geraldo Parreiras",
        "phone": "+553138523066",
        "ref:INEP": "31103527",
        "wikidata": "Q123997332",
        "id": "way/319764400"
      },
      "geometry": {
        "type": "Polygon",
        "coordinates": [
          [
            [
              -43.1390815,
              -19.8243952
            ],
            [
              -43.1391193,
              -19.824447
            ],
            [
              -43.1395762,
              -19.8242129
            ],
            [
              -43.1398177,
              -19.8245916
            ],
            [
              -43.1390054,
              -19.825166
            ],
            [
              -43.1389276,
              -19.8250478
            ],
            [
              -43.1387665,
              -19.824848
            ],
            [
              -43.1385106,
              -19.824605
            ],
            [
              -43.1383289,
              -19.8244636
            ],
            [
              -43.1379788,
              -19.8242412
            ],
            [
              -43.1377538,
              -19.8241113
            ],
            [
              -43.1378193,
              -19.8239526
            ],
            [
              -43.1379992,
              -19.8239016
            ],
            [
              -43.1382791,
              -19.8238444
            ],
            [
              -43.1384869,
              -19.8238614
            ],
            [
              -43.1386763,
              -19.8239024
            ],
            [
              -43.138878,
              -19.8240606
            ],
            [
              -43.1390815,
              -19.8243952
            ]
          ]
        ]
      }
    },
    {
      "type": "Feature",
      "id": "way/319764452",
      "properties": {
        "timestamp": "2023-12-25T01:34:48Z",
        "version": 3,
        "changeset": 145484155,
        "addr:city": "João Monlevade",
        "addr:housenumber": "1",
        "addr:postcode": "35930-438",
        "addr:street": "Avenida Aeroporto",
        "addr:suburb": "Vila Tanque",
        "amenity": "school",
        "name": "Escola Estadual Eugenia Scharle",
        "wikidata": "Q123997314",
        "id": "way/319764452"
      },
      "geometry": {
        "type": "Polygon",
        "coordinates": [
          [
            [
              -43.1386668,
              -19.8251084
            ],
            [
              -43.1383486,
              -19.8253782
            ],
            [
              -43.1382392,
              -19.8252725
            ],
            [
              -43.1376543,
              -19.8253447
            ],
            [
              -43.1376387,
              -19.8250108
            ],
            [
              -43.1379437,
              -19.8246566
            ],
            [
              -43.1380889,
              -19.8246278
            ],
            [
              -43.1385793,
              -19.825024
            ],
            [
              -43.1386668,
              -19.8251084
            ]
          ]
        ]
      }
    },
    {
      "type": "Feature",
      "id": "way/319764580",
      "properties": {
        "timestamp": "2023-12-25T01:34:48Z",
        "version": 4,
        "changeset": 145484155,
        "addr:city": "João Monlevade",
        "addr:postcode": "35930-438",
        "addr:street": "Avenida Aeroporto",
        "addr:suburb": "Vila Tanque",
        "amenity": "school",
        "name": "Jardim Pequeno Polegar",
        "note": "Local sem número",
        "ref:INEP": "31243205",
        "id": "way/319764580"
      },
      "geometry": {
        "type": "Polygon",
        "coordinates": [
          [
            [
              -43.1388577,
              -19.8253738
            ],
            [
              -43.1387965,
              -19.8254209
            ],
            [
              -43.1385812,
              -19.8255866
            ],
            [
              -43.1385486,
              -19.8256117
            ],
            [
              -43.1383486,
              -19.8253782
            ],
            [
              -43.1386668,
              -19.8251084
            ],
            [
              -43.1388577,
              -19.8253738
            ]
          ]
        ]
      }
    },
    {
      "type": "Feature",
      "id": "way/359425026",
      "properties": {
        "timestamp": "2023-12-24T00:12:47Z",
        "version": 2,
        "changeset": 145454016,
        "addr:city": "João Monlevade",
        "addr:housenumber": "830",
        "addr:postcode": "35930-480",
        "addr:street": "Avenida Wilson Alverenga",
        "addr:suburb": "Carneirinhos",
        "amenity": "school",
        "name": "Centro Educacional João Monlevade",
        "ref:INEP": "31105091",
        "wikidata": "Q123989014",
        "id": "way/359425026"
      },
      "geometry": {
        "type": "Polygon",
        "coordinates": [
          [
            [
              -43.1713917,
              -19.8088525
            ],
            [
              -43.1713246,
              -19.808797
            ],
            [
              -43.1709598,
              -19.8087819
            ],
            [
              -43.1707855,
              -19.8088248
            ],
            [
              -43.1707882,
              -19.8083049
            ],
            [
              -43.1708177,
              -19.807992
            ],
            [
              -43.1709276,
              -19.8079844
            ],
            [
              -43.1709826,
              -19.8078621
            ],
            [
              -43.1714802,
              -19.8080412
            ],
            [
              -43.1714412,
              -19.8082482
            ],
            [
              -43.1714225,
              -19.8084551
            ],
            [
              -43.1714306,
              -19.8086203
            ],
            [
              -43.171448,
              -19.8087049
            ],
            [
              -43.1714627,
              -19.8087844
            ],
            [
              -43.1713917,
              -19.8088525
            ]
          ]
        ]
      }
    },
    {
      "type": "Feature",
      "id": "way/359848017",
      "properties": {
        "timestamp": "2023-12-26T18:18:02Z",
        "version": 5,
        "changeset": 145545060,
        "addr:city": "João Monlevade",
        "addr:housenumber": "561",
        "addr:postcode": "35930-112",
        "addr:street": "Rua Dom Bosco",
        "addr:suburb": "Aclimação",
        "amenity": "school",
        "name": "Escola Municipal Cônego José Higino de Freitas",
        "phone": "+553138521195",
        "wikidata": "Q123987850",
        "id": "way/359848017"
      },
      "geometry": {
        "type": "Polygon",
        "coordinates": [
          [
            [
              -43.1873203,
              -19.8129852
            ],
            [
              -43.1873658,
              -19.8131038
            ],
            [
              -43.1877402,
              -19.812951
            ],
            [
              -43.1881067,
              -19.8138129
            ],
            [
              -43.1871816,
              -19.8137968
            ],
            [
              -43.1871955,
              -19.8135247
            ],
            [
              -43.1871425,
              -19.8132789
            ],
            [
              -43.1873203,
              -19.8129852
            ]
          ]
        ]
      }
    },
    {
      "type": "Feature",
      "id": "way/359848941",
      "properties": {
        "timestamp": "2023-12-26T15:14:56Z",
        "version": 4,
        "changeset": 145538799,
        "addr:city": "João Monlevade",
        "addr:housenumber": "568",
        "addr:postcode": "35.930-074",
        "addr:street": "Rua Alberto Scharle",
        "addr:suburb": "Republica",
        "amenity": "school",
        "name": "Escola Estadual Antônio Papini",
        "phone": "+553138521290",
        "ref:INEP": "31103365",
        "website": "https://srenovaera.educacao.mg.gov.br/55-escolas/153-ee-antonio-papini",
        "wikidata": "Q123985421",
        "id": "way/359848941"
      },
      "geometry": {
        "type": "Polygon",
        "coordinates": [
          [
            [
              -43.1830602,
              -19.8105904
            ],
            [
              -43.1839078,
              -19.8108503
            ],
            [
              -43.1836557,
              -19.8113298
            ],
            [
              -43.1830414,
              -19.8111077
            ],
            [
              -43.1830602,
              -19.8105904
            ]
          ]
        ]
      }
    },
    {
      "type": "Feature",
      "id": "way/359848943",
      "properties": {
        "timestamp": "2023-12-26T22:31:24Z",
        "version": 4,
        "changeset": 145551571,
        "addr:city": "João Monlevade",
        "addr:housenumber": "561",
        "addr:postcode": "35930-080",
        "addr:street": "Rua Realeza",
        "addr:suburb": "Republica",
        "amenity": "school",
        "name": "Escola Municipal Efigênio Mota",
        "ref:INEP": "31280895",
        "wikidata": "Q123985602",
        "id": "way/359848943"
      },
      "geometry": {
        "type": "Polygon",
        "coordinates": [
          [
            [
              -43.1872483,
              -19.8125023
            ],
            [
              -43.1871152,
              -19.8127407
            ],
            [
              -43.1869799,
              -19.8126738
            ],
            [
              -43.1868917,
              -19.8126302
            ],
            [
              -43.1868382,
              -19.8126037
            ],
            [
              -43.1866994,
              -19.8125351
            ],
            [
              -43.1865601,
              -19.8124662
            ],
            [
              -43.1866932,
              -19.8122279
            ],
            [
              -43.1870148,
              -19.8123869
            ],
            [
              -43.1872483,
              -19.8125023
            ]
          ]
        ]
      }
    },
    {
      "type": "Feature",
      "id": "way/460913980",
      "properties": {
        "timestamp": "2023-12-26T15:58:45Z",
        "version": 3,
        "changeset": 145540436,
        "addr:city": "João Monlevade",
        "addr:housenumber": "330",
        "addr:postcode": "35930-295",
        "addr:street": "Avenida Cândido Dias",
        "addr:suburb": "Loanda",
        "amenity": "school",
        "name": "Escola Estadual João XXIII",
        "phone": "+553138511569",
        "ref:INEP": "31103462",
        "wikidata": "Q124014186",
        "id": "way/460913980"
      },
      "geometry": {
        "type": "Polygon",
        "coordinates": [
          [
            [
              -43.1632729,
              -19.822411
            ],
            [
              -43.1632913,
              -19.8226574
            ],
            [
              -43.1632246,
              -19.8230454
            ],
            [
              -43.1631058,
              -19.8230636
            ],
            [
              -43.162844,
              -19.8231109
            ],
            [
              -43.1628379,
              -19.8229908
            ],
            [
              -43.162851,
              -19.822463
            ],
            [
              -43.1631093,
              -19.8224509
            ],
            [
              -43.1631105,
              -19.8224206
            ],
            [
              -43.1632729,
              -19.822411
            ]
          ]
        ]
      }
    },
    {
      "type": "Feature",
      "id": "way/681295623",
      "properties": {
        "timestamp": "2023-12-26T15:06:40Z",
        "version": 2,
        "changeset": 145538500,
        "addr:city": "João Monlevade",
        "addr:street": "Avenida Luzia Brandão Fraga de Souza",
        "addr:suburb": "Loanda",
        "amenity": "school",
        "name": "Escola Municipal Governador Israel Pinheiro",
        "phone": "+553138516043",
        "ref:INEP": "31105104",
        "wikidata": "Q124014018",
        "id": "way/681295623"
      },
      "geometry": {
        "type": "Polygon",
        "coordinates": [
          [
            [
              -43.1664977,
              -19.8351159
            ],
            [
              -43.1664375,
              -19.8355954
            ],
            [
              -43.1659343,
              -19.8355369
            ],
            [
              -43.1659967,
              -19.8350615
            ],
            [
              -43.1664977,
              -19.8351159
            ]
          ]
        ]
      }
    },
    {
      "type": "Feature",
      "id": "way/1233653739",
      "properties": {
        "timestamp": "2023-12-26T16:11:30Z",
        "version": 3,
        "changeset": 145540957,
        "addr:city": "João Monlevade",
        "addr:housenumber": "97",
        "addr:postcode": "35930-057",
        "addr:street": "Rua Raposos",
        "addr:suburb": "Lourdes",
        "amenity": "school",
        "email": "escola.103489@educacao.mg.gov.br",
        "name": "Escola Estadual Luiz Prisco de Braga",
        "phone": "+553138511551",
        "ref:INEP": "31103489",
        "wikidata": "Q123987959",
        "id": "way/1233653739"
      },
      "geometry": {
        "type": "Polygon",
        "coordinates": [
          [
            [
              -43.1781059,
              -19.8149976
            ],
            [
              -43.1782771,
              -19.8152794
            ],
            [
              -43.178143,
              -19.8155357
            ],
            [
              -43.1776481,
              -19.8152794
            ],
            [
              -43.1781059,
              -19.8149976
            ]
          ]
        ]
      }
    },
    {
      "type": "Feature",
      "id": "way/1233656680",
      "properties": {
        "timestamp": "2023-12-23T22:51:55Z",
        "version": 2,
        "changeset": 145452783,
        "addr:city": "João Monlevade",
        "addr:housenumber": "115",
        "addr:postcode": "35930-032",
        "addr:street": "Rua Paracatu",
        "amenity": "school",
        "name": "Colégio Kennedy",
        "ref:INEP": "31105953",
        "website": "https://www.colegioefaculdadekennedy.com.br/",
        "wikidata": "Q123988099",
        "id": "way/1233656680"
      },
      "geometry": {
        "type": "Polygon",
        "coordinates": [
          [
            [
              -43.1746489,
              -19.8108177
            ],
            [
              -43.1748708,
              -19.8110087
            ],
            [
              -43.175074,
              -19.8111836
            ],
            [
              -43.1746941,
              -19.8115742
            ],
            [
              -43.174269,
              -19.8112083
            ],
            [
              -43.1744886,
              -19.8109825
            ],
            [
              -43.1746489,
              -19.8108177
            ]
          ]
        ]
      }
    },
    {
      "type": "Feature",
      "id": "way/1233660624",
      "properties": {
        "timestamp": "2023-12-26T15:36:41Z",
        "version": 2,
        "changeset": 145539655,
        "addr:city": "João Monlevade",
        "addr:housenumber": "4982",
        "addr:postcode": "35930-003",
        "addr:street": "Avenida Getúlio Vargas",
        "addr:suburb": "Carneirinhos",
        "amenity": "school",
        "name": "Escola Estadual Dona Jenny Faria",
        "phone": "+553138524017",
        "ref:INEP": "31103420",
        "wikidata": "Q123988282",
        "id": "way/1233660624"
      },
      "geometry": {
        "type": "Polygon",
        "coordinates": [
          [
            [
              -43.1753316,
              -19.8075689
            ],
            [
              -43.1755555,
              -19.8075324
            ],
            [
              -43.1756566,
              -19.8078932
            ],
            [
              -43.1756621,
              -19.8079831
            ],
            [
              -43.1754054,
              -19.8079969
            ],
            [
              -43.1753738,
              -19.8078143
            ],
            [
              -43.1753316,
              -19.8075689
            ]
          ]
        ]
      }
    },
    {
      "type": "Feature",
      "id": "way/1233663401",
      "properties": {
        "timestamp": "2023-12-27T19:13:42Z",
        "version": 3,
        "changeset": 145589231,
        "addr:city": "João Monlevade",
        "addr:postcode": "35930-199",
        "addr:street": "Rua São Domingos do Prata",
        "addr:suburb": "José Elói",
        "amenity": "school",
        "name": "Escola Estadual Louis Ensch",
        "phone": "+553138511620",
        "ref:INEP": "31103471",
        "website": "https://srenovaera.educacao.mg.gov.br/banco-de-noticias/55-escolas/158-ee-louis-ensch",
        "wikidata": "Q123988777",
        "id": "way/1233663401"
      },
      "geometry": {
        "type": "Polygon",
        "coordinates": [
          [
            [
              -43.1708815,
              -19.8077352
            ],
            [
              -43.1709815,
              -19.8074894
            ],
            [
              -43.1713278,
              -19.8076085
            ],
            [
              -43.1713486,
              -19.8076157
            ],
            [
              -43.171342,
              -19.8076325
            ],
            [
              -43.171251,
              -19.8078592
            ],
            [
              -43.1708815,
              -19.8077352
            ]
          ]
        ]
      }
    },
    {
      "type": "Feature",
      "id": "way/1233671317",
      "properties": {
        "timestamp": "2023-12-26T16:53:17Z",
        "version": 3,
        "changeset": 145542395,
        "addr:city": "João Monlevade",
        "addr:housenumber": "214",
        "addr:postcode": "35930-259",
        "addr:street": "Praça Minas Gerais",
        "addr:suburb": "Satélite",
        "amenity": "school",
        "email": "escola.103535@educacao.mg.gov.br",
        "name": "Escola Estadual Rumia Maluf",
        "ref:INEP": "31103535",
        "website": "https://srenovaera.educacao.mg.gov.br/55-escolas/161-ee-rumia-maluf",
        "wikidata": "Q123989033",
        "id": "way/1233671317"
      },
      "geometry": {
        "type": "Polygon",
        "coordinates": [
          [
            [
              -43.1658033,
              -19.8150992
            ],
            [
              -43.1658845,
              -19.8151186
            ],
            [
              -43.1662054,
              -19.8153856
            ],
            [
              -43.1663923,
              -19.8155158
            ],
            [
              -43.1663124,
              -19.8156875
            ],
            [
              -43.1661255,
              -19.8156782
            ],
            [
              -43.1655436,
              -19.8154513
            ],
            [
              -43.1656268,
              -19.815312
            ],
            [
              -43.1658033,
              -19.8150992
            ]
          ]
        ]
      }
    },
    {
      "type": "Feature",
      "id": "way/1233678655",
      "properties": {
        "timestamp": "2023-12-26T17:40:40Z",
        "version": 2,
        "changeset": 145543908,
        "addr:city": "João Monlevade",
        "addr:housenumber": "265",
        "addr:postcode": "35931-092",
        "addr:street": "Rua Andes",
        "addr:suburb": "Serra",
        "amenity": "school",
        "name": "Escola Municipal Promorar",
        "phone": "+553138592592",
        "ref:INEP": "31227897",
        "wikidata": "Q123989084",
        "id": "way/1233678655"
      },
      "geometry": {
        "type": "Polygon",
        "coordinates": [
          [
            [
              -43.1824964,
              -19.8333632
            ],
            [
              -43.1823895,
              -19.8335366
            ],
            [
              -43.1822283,
              -19.8334681
            ],
            [
              -43.1820457,
              -19.8334681
            ],
            [
              -43.1818774,
              -19.8336077
            ],
            [
              -43.1816934,
              -19.833495
            ],
            [
              -43.1816679,
              -19.833479
            ],
            [
              -43.1817227,
              -19.8334293
            ],
            [
              -43.1817909,
              -19.8333667
            ],
            [
              -43.1818579,
              -19.8333288
            ],
            [
              -43.1819933,
              -19.8332797
            ],
            [
              -43.1821378,
              -19.8332617
            ],
            [
              -43.1822331,
              -19.8332709
            ],
            [
              -43.1823293,
              -19.833289
            ],
            [
              -43.1824964,
              -19.8333632
            ]
          ]
        ]
      }
    },
    {
      "type": "Feature",
      "id": "way/1233925073",
      "properties": {
        "timestamp": "2023-12-26T16:53:17Z",
        "version": 2,
        "changeset": 145542395,
        "addr:city": "João Monlevade",
        "addr:housenumber": "800",
        "addr:street": "Rua Barra Mansa",
        "addr:suburb": "Vale do Sol",
        "amenity": "school",
        "building": "yes",
        "name": "Escola Municipal Germin Loureiro",
        "phone": "+553138522681",
        "ref:INEP": "31343110",
        "wikidata": "Q123989161",
        "id": "way/1233925073"
      },
      "geometry": {
        "type": "Polygon",
        "coordinates": [
          [
            [
              -43.1761588,
              -19.8008749
            ],
            [
              -43.176161,
              -19.8010323
            ],
            [
              -43.1756397,
              -19.8010388
            ],
            [
              -43.1756383,
              -19.8009392
            ],
            [
              -43.1759102,
              -19.8009358
            ],
            [
              -43.1759094,
              -19.800878
            ],
            [
              -43.1761588,
              -19.8008749
            ]
          ]
        ]
      }
    },
    {
      "type": "Feature",
      "id": "way/1233951286",
      "properties": {
        "timestamp": "2023-12-25T03:42:37Z",
        "version": 1,
        "changeset": 145485244,
        "addr:city": "João Monlevade",
        "amenity": "school",
        "name": "Centro de Ensinos Tecnologicos Joseph Hein (Centec)",
        "ref:INEP": "31105945",
        "wikidata": "Q123997486",
        "id": "way/1233951286"
      },
      "geometry": {
        "type": "Polygon",
        "coordinates": [
          [
            [
              -43.137213,
              -19.8210035
            ],
            [
              -43.137817,
              -19.8210147
            ],
            [
              -43.1378558,
              -19.8210155
            ],
            [
              -43.1379106,
              -19.8210167
            ],
            [
              -43.1379085,
              -19.821103
            ],
            [
              -43.1379241,
              -19.8211033
            ],
            [
              -43.1379847,
              -19.8211806
            ],
            [
              -43.1379395,
              -19.8213612
            ],
            [
              -43.1376224,
              -19.8213107
            ],
            [
              -43.1374812,
              -19.8212585
            ],
            [
              -43.137213,
              -19.8210035
            ]
          ]
        ]
      }
    },
    {
      "type": "Feature",
      "id": "way/1233960372",
      "properties": {
        "timestamp": "2023-12-26T15:11:35Z",
        "version": 2,
        "changeset": 145538675,
        "addr:city": "João Monlevade",
        "addr:street": "Rua Luiz Gonzaga",
        "addr:suburb": "Santo Hipólito",
        "amenity": "school",
        "name": "Escola Estadual Antônio Loureiro Sobrinho",
        "phone": "+553131930514",
        "ref:INEP": "31103381",
        "wikidata": "Q123997567",
        "id": "way/1233960372"
      },
      "geometry": {
        "type": "Polygon",
        "coordinates": [
          [
            [
              -43.1917528,
              -19.8437523
            ],
            [
              -43.1920947,
              -19.843602
            ],
            [
              -43.1922062,
              -19.8438607
            ],
            [
              -43.1918536,
              -19.8440089
            ],
            [
              -43.1917528,
              -19.8437523
            ]
          ]
        ]
      }
    },
    {
      "type": "Feature",
      "id": "way/1233967976",
      "properties": {
        "timestamp": "2023-12-25T04:36:21Z",
        "version": 1,
        "changeset": 145485827,
        "addr:city": "João Monlevade",
        "amenity": "school",
        "ref:INEP": "31370193",
        "wikidata": "Q123997602",
        "id": "way/1233967976"
      },
      "geometry": {
        "type": "Polygon",
        "coordinates": [
          [
            [
              -43.1872281,
              -19.8513191
            ],
            [
              -43.18765,
              -19.8514586
            ],
            [
              -43.1876623,
              -19.8516875
            ],
            [
              -43.187224,
              -19.851669
            ],
            [
              -43.1872281,
              -19.8513191
            ]
          ]
        ]
      }
    },
    {
      "type": "Feature",
      "id": "way/1233969087",
      "properties": {
        "timestamp": "2023-12-26T17:20:01Z",
        "version": 2,
        "changeset": 145543302,
        "addr:city": "João Monlevade",
        "addr:housenumber": "101",
        "addr:postcode": "35932-055",
        "addr:street": "Rua Mendes Pimentel",
        "addr:suburb": "Primeiro de Maio",
        "amenity": "school",
        "name": "Escola Municipal Professora Cicinha Moura Simon",
        "phone": "+553138527598",
        "ref:INEP": "31373923",
        "wikidata": "Q123997611",
        "id": "way/1233969087"
      },
      "geometry": {
        "type": "Polygon",
        "coordinates": [
          [
            [
              -43.1808325,
              -19.8511092
            ],
            [
              -43.1817414,
              -19.851387
            ],
            [
              -43.1814509,
              -19.8522281
            ],
            [
              -43.1805419,
              -19.8519503
            ],
            [
              -43.1808325,
              -19.8511092
            ]
          ]
        ]
      }
    },
    {
      "type": "Feature",
      "id": "way/1234024322",
      "properties": {
        "timestamp": "2023-12-25T12:55:16Z",
        "version": 1,
        "changeset": 145496879,
        "addr:city": "João Monlevade",
        "addr:housenumber": "234",
        "addr:postcode": "35930-468",
        "addr:street": "Rua Palmas",
        "addr:suburb": "Baú",
        "amenity": "school",
        "name": "Escola de Educação Especial Maria Senhorinha (APAE)",
        "ref:INEP": "31252433",
        "wikidata": "Q123999464",
        "id": "way/1234024322"
      },
      "geometry": {
        "type": "Polygon",
        "coordinates": [
          [
            [
              -43.1490962,
              -19.8199106
            ],
            [
              -43.1492884,
              -19.8196463
            ],
            [
              -43.1498233,
              -19.8198665
            ],
            [
              -43.1498677,
              -19.8201378
            ],
            [
              -43.1500131,
              -19.8201355
            ],
            [
              -43.1500649,
              -19.8204648
            ],
            [
              -43.1501561,
              -19.8205019
            ],
            [
              -43.1501043,
              -19.8209425
            ],
            [
              -43.1499201,
              -19.8209059
            ],
            [
              -43.1499244,
              -19.820648
            ],
            [
              -43.1496089,
              -19.8206225
            ],
            [
              -43.1495226,
              -19.8204439
            ],
            [
              -43.1491874,
              -19.8204718
            ],
            [
              -43.149074,
              -19.8203257
            ],
            [
              -43.1490715,
              -19.8200752
            ],
            [
              -43.1490962,
              -19.8199106
            ]
          ]
        ]
      }
    },
    {
      "type": "Feature",
      "id": "way/1234026261",
      "properties": {
        "timestamp": "2023-12-25T13:12:28Z",
        "version": 1,
        "changeset": 145497363,
        "addr:city": "João Monlevade",
        "amenity": "school",
        "name": "Associação Monlevadense de Ensino Cooperativo (AMEC)",
        "ref:INEP": "31105961",
        "wikidata": "Q123999537",
        "id": "way/1234026261"
      },
      "geometry": {
        "type": "Polygon",
        "coordinates": [
          [
            [
              -43.1901638,
              -19.8152109
            ],
            [
              -43.1902825,
              -19.8156271
            ],
            [
              -43.1898629,
              -19.8157908
            ],
            [
              -43.1896824,
              -19.8154129
            ],
            [
              -43.1901638,
              -19.8152109
            ]
          ]
        ]
      }
    },
    {
      "type": "Feature",
      "id": "way/1234029597",
      "properties": {
        "timestamp": "2023-12-25T13:31:39Z",
        "version": 1,
        "changeset": 145497973,
        "addr:city": "João Monlevade",
        "addr:street": "Rua José de Anchieta",
        "amenity": "school",
        "building": "yes",
        "name": "Centro Educacional Roberto Porto Unidade II",
        "ref:INEP": "31325546",
        "website": "https://cerpjm.com.br/",
        "wikidata": "Q123999617",
        "id": "way/1234029597"
      },
      "geometry": {
        "type": "Polygon",
        "coordinates": [
          [
            [
              -43.1842024,
              -19.8143958
            ],
            [
              -43.1842424,
              -19.814517
            ],
            [
              -43.1840425,
              -19.8145755
            ],
            [
              -43.1840024,
              -19.8144544
            ],
            [
              -43.1842024,
              -19.8143958
            ]
          ]
        ]
      }
    },
    {
      "type": "Feature",
      "id": "way/1234032032",
      "properties": {
        "timestamp": "2023-12-25T13:46:34Z",
        "version": 1,
        "changeset": 145498407,
        "addr:city": "João Monlevade",
        "addr:street": "Rua Virgílio Lima",
        "addr:suburb": "Carneirinhos",
        "amenity": "school",
        "name": "Centro Educacional Sítio do Pica Pau Amarelo",
        "ref:INEP": "31340723",
        "wikidata": "Q123999708",
        "id": "way/1234032032"
      },
      "geometry": {
        "type": "Polygon",
        "coordinates": [
          [
            [
              -43.1721271,
              -19.8096833
            ],
            [
              -43.172117,
              -19.8097407
            ],
            [
              -43.1719606,
              -19.8097165
            ],
            [
              -43.1719706,
              -19.8096591
            ],
            [
              -43.1721271,
              -19.8096833
            ]
          ]
        ]
      }
    },
    {
      "type": "Feature",
      "id": "way/1234038488",
      "properties": {
        "timestamp": "2023-12-25T14:22:19Z",
        "version": 2,
        "changeset": 145499589,
        "addr:city": "João Monlevade",
        "addr:street": "Avenida Cândido Dias",
        "amenity": "school",
        "name": "Cemei Luz aos Pequeninos Loanda",
        "wikidata": "Q123999797",
        "id": "way/1234038488"
      },
      "geometry": {
        "type": "Polygon",
        "coordinates": [
          [
            [
              -43.1642767,
              -19.8259233
            ],
            [
              -43.1643099,
              -19.8260017
            ],
            [
              -43.1641322,
              -19.8260684
            ],
            [
              -43.164099,
              -19.82599
            ],
            [
              -43.1642767,
              -19.8259233
            ]
          ]
        ]
      }
    },
    {
      "type": "Feature",
      "id": "way/1234048765",
      "properties": {
        "timestamp": "2023-12-31T00:40:22Z",
        "version": 2,
        "changeset": 145717423,
        "addr:city": "João Monlevade",
        "addr:street": "Rua José Faustino Taveira",
        "amenity": "school",
        "name": "CEMEI Maria Vitoria Fernandes de Souza",
        "ref:INEP": "31370207",
        "wikidata": "Q123999831",
        "wikimedia_commons": "File:CEMEI Maria Vitoria Fernandes de Souza (João Monlevade) 01.jpg",
        "id": "way/1234048765"
      },
      "geometry": {
        "type": "Polygon",
        "coordinates": [
          [
            [
              -43.2005065,
              -19.8181952
            ],
            [
              -43.2005467,
              -19.8184738
            ],
            [
              -43.2002077,
              -19.8185511
            ],
            [
              -43.2001507,
              -19.8182892
            ],
            [
              -43.2005065,
              -19.8181952
            ]
          ]
        ]
      }
    },
    {
      "type": "Feature",
      "id": "way/1234201723",
      "properties": {
        "timestamp": "2023-12-26T03:42:07Z",
        "version": 1,
        "changeset": 145517467,
        "addr:city": "João Monlevade",
        "addr:housenumber": "192",
        "addr:street": "Rua Padre Pinto",
        "addr:suburb": "Lucilia",
        "amenity": "school",
        "name": "Centro De Educação Infantil Barquinho Amarelo",
        "ref:INEP": "31374377",
        "wikidata": "Q124004535",
        "id": "way/1234201723"
      },
      "geometry": {
        "type": "Polygon",
        "coordinates": [
          [
            [
              -43.1704639,
              -19.8107621
            ],
            [
              -43.1705522,
              -19.8109445
            ],
            [
              -43.1703041,
              -19.8110579
            ],
            [
              -43.1702001,
              -19.810887
            ],
            [
              -43.1704639,
              -19.8107621
            ]
          ]
        ]
      }
    },
    {
      "type": "Feature",
      "id": "way/1234207381",
      "properties": {
        "timestamp": "2023-12-26T04:29:07Z",
        "version": 1,
        "changeset": 145518281,
        "addr:city": "João Monlevade",
        "addr:housenumber": "51",
        "addr:street": "Rua Alvinópolis",
        "addr:suburb": "Lourdes",
        "amenity": "school",
        "name": "Centro de Educação Infantil Pluft",
        "wikidata": "Q124004573",
        "id": "way/1234207381"
      },
      "geometry": {
        "type": "Polygon",
        "coordinates": [
          [
            [
              -43.178457,
              -19.8162596
            ],
            [
              -43.178406,
              -19.8163485
            ],
            [
              -43.1782908,
              -19.81629
            ],
            [
              -43.1783418,
              -19.8162011
            ],
            [
              -43.178457,
              -19.8162596
            ]
          ]
        ]
      }
    },
    {
      "type": "Feature",
      "id": "way/1234220311",
      "properties": {
        "timestamp": "2023-12-26T05:05:48Z",
        "version": 1,
        "changeset": 145518889,
        "addr:city": "João Monlevade",
        "addr:housenumber": "60",
        "addr:postcode": "35.930-344",
        "addr:street": "Rua Salinas",
        "addr:suburb": "Loanda",
        "amenity": "school",
        "ref:INEP": "31301752",
        "wikidata": "Q124004634",
        "id": "way/1234220311"
      },
      "geometry": {
        "type": "Polygon",
        "coordinates": [
          [
            [
              -43.1633382,
              -19.8207776
            ],
            [
              -43.1634812,
              -19.8208156
            ],
            [
              -43.1634486,
              -19.8209221
            ],
            [
              -43.1632858,
              -19.8209228
            ],
            [
              -43.1633382,
              -19.8207776
            ]
          ]
        ]
      }
    },
    {
      "type": "Feature",
      "id": "way/1234290027",
      "properties": {
        "timestamp": "2023-12-26T13:51:39Z",
        "version": 1,
        "changeset": 145535332,
        "addr:city": "João Monlevade",
        "addr:housenumber": "395",
        "addr:postcode": "35930-079",
        "addr:street": "Avenida Castelo Branco",
        "addr:suburb": "Republica",
        "amenity": "school",
        "name": "Centro Educacional Pequeno Príncipe",
        "wikidata": "Q124011252",
        "id": "way/1234290027"
      },
      "geometry": {
        "type": "Polygon",
        "coordinates": [
          [
            [
              -43.1835208,
              -19.8150984
            ],
            [
              -43.1835995,
              -19.815186
            ],
            [
              -43.1833912,
              -19.8153516
            ],
            [
              -43.1833125,
              -19.815264
            ],
            [
              -43.1835208,
              -19.8150984
            ]
          ]
        ]
      }
    },
    {
      "type": "Feature",
      "id": "way/1234305354",
      "properties": {
        "timestamp": "2023-12-26T15:06:40Z",
        "version": 2,
        "changeset": 145538500,
        "addr:city": "João Monlevade",
        "addr:postcode": "35931-017",
        "addr:street": "Rua Caetés",
        "addr:suburb": "Loanda",
        "amenity": "school",
        "name": "Escola Estadual Alberto Pereira Lima",
        "phone": "+553138515752",
        "ref:INEP": "31103349",
        "website": "https://www.mg.gov.br/instituicao_unidade/escola-estadual-alberto-pereira-lima",
        "wikidata": "Q124013970",
        "id": "way/1234305354"
      },
      "geometry": {
        "type": "Polygon",
        "coordinates": [
          [
            [
              -43.1691267,
              -19.8348577
            ],
            [
              -43.1690658,
              -19.835357
            ],
            [
              -43.1686468,
              -19.8353451
            ],
            [
              -43.1682716,
              -19.8352811
            ],
            [
              -43.1684076,
              -19.8347738
            ],
            [
              -43.1685831,
              -19.8348164
            ],
            [
              -43.169005,
              -19.834847
            ],
            [
              -43.1691267,
              -19.8348577
            ]
          ]
        ]
      }
    },
    {
      "type": "Feature",
      "id": "way/1234312406",
      "properties": {
        "timestamp": "2023-12-26T15:26:31Z",
        "version": 1,
        "changeset": 145539267,
        "addr:city": "João Monlevade",
        "addr:street": "Rua Wilson de Souza",
        "addr:suburb": "Laranjeiras",
        "amenity": "school",
        "name": "Escola Estadual Bairro Laranjeiras",
        "phone": "+553131930507",
        "ref:INEP": "31103411",
        "wikidata": "Q124014082",
        "id": "way/1234312406"
      },
      "geometry": {
        "type": "Polygon",
        "coordinates": [
          [
            [
              -43.1580588,
              -19.8283444
            ],
            [
              -43.1582587,
              -19.828745
            ],
            [
              -43.1580282,
              -19.828907
            ],
            [
              -43.1578132,
              -19.8288288
            ],
            [
              -43.1577382,
              -19.8287757
            ],
            [
              -43.1575814,
              -19.8285829
            ],
            [
              -43.1578492,
              -19.8284489
            ],
            [
              -43.1580588,
              -19.8283444
            ]
          ]
        ]
      }
    },
    {
      "type": "Feature",
      "id": "way/1234334621",
      "properties": {
        "timestamp": "2023-12-26T16:28:58Z",
        "version": 2,
        "changeset": 145541600,
        "addr:city": "João Monlevade",
        "addr:postcode": "35.931-112",
        "addr:street": "Rua Nova York",
        "addr:suburb": "Cruzeiro Celeste",
        "amenity": "school",
        "name": "Escola Estadual Manoel Loureiro",
        "phone": "+553138525044",
        "ref:INEP": "31103497",
        "wikidata": "Q124014328",
        "id": "way/1234334621"
      },
      "geometry": {
        "type": "Polygon",
        "coordinates": [
          [
            [
              -43.1785436,
              -19.8420293
            ],
            [
              -43.1789081,
              -19.8418849
            ],
            [
              -43.178955,
              -19.8419895
            ],
            [
              -43.1790841,
              -19.8422806
            ],
            [
              -43.1787829,
              -19.8423993
            ],
            [
              -43.1786535,
              -19.842109
            ],
            [
              -43.1785905,
              -19.842134
            ],
            [
              -43.1785436,
              -19.8420293
            ]
          ]
        ]
      }
    },
    {
      "type": "Feature",
      "id": "way/1234354615",
      "properties": {
        "timestamp": "2023-12-26T17:12:00Z",
        "version": 1,
        "changeset": 145543001,
        "addr:city": "João Monlevade",
        "addr:housenumber": "1397",
        "addr:postcode": "35931-130",
        "addr:street": "Rua Nova York",
        "addr:suburb": "Novo Cruzeiro",
        "amenity": "school",
        "name": "Escola Municipal Monteiro Lobato",
        "phone": "+553138516211",
        "ref:INEP": "31227889",
        "wikidata": "Q124016557",
        "id": "way/1234354615"
      },
      "geometry": {
        "type": "Polygon",
        "coordinates": [
          [
            [
              -43.1860352,
              -19.8467803
            ],
            [
              -43.1861102,
              -19.847016
            ],
            [
              -43.1861867,
              -19.8473276
            ],
            [
              -43.1857889,
              -19.8475087
            ],
            [
              -43.1856152,
              -19.8469601
            ],
            [
              -43.1860352,
              -19.8467803
            ]
          ]
        ]
      }
    },
    {
      "type": "Feature",
      "id": "node/11455602620",
      "properties": {
        "timestamp": "2023-12-26T14:14:21Z",
        "version": 1,
        "changeset": 145536325,
        "addr:city": "João Monlevade",
        "addr:housenumber": "4982",
        "addr:postcode": "35.930-003",
        "addr:street": "Avenida Getúlio Vargas",
        "addr:suburb": "Carneirinhos",
        "amenity": "school",
        "name": "CESEC Professora Elza Maria",
        "phone": "+553138523848",
        "website": "https://srenovaera.educacao.mg.gov.br/55-escolas/150-cesec-professora-elza-maria",
        "wikidata": "Q124012206",
        "id": "node/11455602620"
      },
      "geometry": {
        "type": "Point",
        "coordinates": [
          -43.1755506,
          -19.8079251
        ]
      }
    },
    {
      "type": "Feature",
      "id": "node/11457622309",
      "properties": {
        "timestamp": "2023-12-26T22:20:50Z",
        "version": 1,
        "changeset": 145551331,
        "addr:city": "João Monlevade",
        "amenity": "school",
        "name": "Escola Infantil Pinguinho de Gente",
        "ref:INEP": "31374431",
        "wikidata": "Q124021314",
        "id": "node/11457622309"
      },
      "geometry": {
        "type": "Point",
        "coordinates": [
          -43.1821756,
          -19.8396953
        ]
      }
    },
    {
      "type": "Feature",
      "id": "node/11458119536",
      "properties": {
        "timestamp": "2023-12-26T22:50:58Z",
        "version": 1,
        "changeset": 145551981,
        "addr:city": "João Monlevade",
        "amenity": "school",
        "name": "Escola Sesi Doutor Schlacher",
        "ref:INEP": "31369675",
        "wikidata": "Q124021546",
        "id": "node/11458119536"
      },
      "geometry": {
        "type": "Point",
        "coordinates": [
          -43.1677547,
          -19.8176639
        ]
      }
    }
  ]
}
