{
  "type": "FeatureCollection",
  "features": [
    {
      "type": "Feature",
      "id": "way/1166027290",
      "properties": {
        "timestamp": "2023-04-27T04:00:08Z",
        "version": 1,
        "changeset": 135408423,
        "addr:city": "Uruguaiana",
        "addr:country": "BR",
        "addr:district": "Imbaá",
        "addr:postcode": "97508-000",
        "amenity": "college",
        "name": "Colégio Agrícola Municipal Doutor Luiz Martins Bastos",
        "operator": "Prefeitura Municipal de Urugauiana",
        "phone": "+55 (55) 39113019",
        "id": "way/1166027290"
      },
      "geometry": {
        "type": "Polygon",
        "coordinates": [
          [
            [
              -57.1005848,
              -29.8258713
            ],
            [
              -57.0993443,
              -29.8262448
            ],
            [
              -57.0989138,
              -29.8252372
            ],
            [
              -57.1001342,
              -29.8248405
            ],
            [
              -57.1005848,
              -29.8258713
            ]
          ]
        ]
      }
    },
    {
      "type": "Feature",
      "id": "node/5646899222",
      "properties": {
        "timestamp": "2025-03-05T23:50:48Z",
        "version": 3,
        "changeset": 163265478,
        "addr:street": "Travessa Cezar Cunha",
        "amenity": "college",
        "name": "Senac",
        "id": "node/5646899222"
      },
      "geometry": {
        "type": "Point",
        "coordinates": [
          -57.0841821,
          -29.7593725
        ]
      }
    }
  ]
}
