{
  "type": "FeatureCollection",
  "features": [
    {
      "type": "Feature",
      "id": "way/443528211",
      "properties": {
        "timestamp": "2021-05-01T03:03:35Z",
        "version": 6,
        "changeset": 103940827,
        "addr:city": "Uruguaiana",
        "addr:housenumber": "4442",
        "addr:postcode": "97503-748",
        "addr:street": "Rua Monteiro Lobato",
        "addr:suburb": "Cabo Luís Quevedo",
        "amenity": "university",
        "description": "Instituto Federal de Educação, Ciência e Tecnologia Farroupilha (IFFar) - Campus Uruguaiana",
        "name": "Instituto Federal Farroupilha - Campus Uruguaiana",
        "phone": "+55 55 3413-5381",
        "source": "Site Institucional",
        "website": "https://www.iffarroupilha.edu.br/uruguaiana",
        "wheelchair": "limited",
        "id": "way/443528211"
      },
      "geometry": {
        "type": "Polygon",
        "coordinates": [
          [
            [
              -57.1068469,
              -29.7810803
            ],
            [
              -57.1089801,
              -29.7811471
            ],
            [
              -57.1079533,
              -29.7827798
            ],
            [
              -57.1068393,
              -29.7827623
            ],
            [
              -57.1068469,
              -29.7810803
            ]
          ]
        ]
      }
    },
    {
      "type": "Feature",
      "id": "way/1166211631",
      "properties": {
        "timestamp": "2023-11-27T21:35:05Z",
        "version": 2,
        "changeset": 144525038,
        "abbr_name": "Unipampa Uruguaiana",
        "addr:city": "Uruguaiana",
        "addr:country": "BR",
        "addr:district": "Imbaá",
        "addr:housenumber": "KM 585",
        "addr:postcode": "97501-970",
        "addr:street": "BR-472",
        "amenity": "university",
        "contact:instagram": "conhecendounipampa",
        "email": "uruguaiana@unipampa.edu.br",
        "mobile": "+55 55 99102-3311",
        "name": "Universidade Federal do Pampa Campus Uruguaiana",
        "note": "Antiga PUC Campus Uruguaiana.",
        "official_name": "Universidade Federal do Pampa Campus Uruguaiana",
        "operator": "Universidade Federal do Pampa",
        "phone": "+55 (55) 3911-0200",
        "short_name": "Unipampa Uruguaiana",
        "website": "www.unipampa.edu.br/uruguaiana",
        "id": "way/1166211631"
      },
      "geometry": {
        "type": "Polygon",
        "coordinates": [
          [
            [
              -57.0955185,
              -29.8325426
            ],
            [
              -57.1022022,
              -29.8275863
            ],
            [
              -57.1072221,
              -29.8383748
            ],
            [
              -57.1026743,
              -29.8387082
            ],
            [
              -57.0974073,
              -29.8390943
            ],
            [
              -57.0963603,
              -29.8371726
            ],
            [
              -57.0966876,
              -29.8349669
            ],
            [
              -57.0969719,
              -29.8347528
            ],
            [
              -57.0955185,
              -29.8325426
            ]
          ]
        ]
      }
    }
  ]
}
