{
  "type": "FeatureCollection",
  "features": [
    {
      "type": "Feature",
      "id": "node/7050663202",
      "properties": {
        "timestamp": "2019-12-12T01:21:04Z",
        "version": 1,
        "changeset": 78285440,
        "addr:city": "Guanambi",
        "addr:street": "Avenida Tiradentes",
        "addr:suburb": "Centro",
        "name": "Pr√≥ bike",
        "shop": "bicycle",
        "id": "node/7050663202"
      },
      "geometry": {
        "type": "Point",
        "coordinates": [
          -42.7812392,
          -14.22761
        ]
      }
    },
    {
      "type": "Feature",
      "id": "node/8621199104",
      "properties": {
        "timestamp": "2021-04-12T08:56:35Z",
        "version": 1,
        "changeset": 102787921,
        "name": "Trail Bike",
        "shop": "bicycle",
        "id": "node/8621199104"
      },
      "geometry": {
        "type": "Point",
        "coordinates": [
          -42.7750509,
          -14.21936
        ]
      }
    },
    {
      "type": "Feature",
      "id": "node/8857657151",
      "properties": {
        "timestamp": "2021-06-22T17:55:26Z",
        "version": 1,
        "changeset": 106792539,
        "addr:city": "Guanambi",
        "addr:housenumber": "45",
        "addr:street": "Travessa da Liberdade",
        "addr:suburb": "Centro",
        "name": "Guaciclo",
        "phone": "+55 77 3451-1375",
        "service:bicycle:cleaning": "no",
        "service:bicycle:diy": "no",
        "service:bicycle:pump": "no",
        "service:bicycle:rental": "no",
        "service:bicycle:repair": "yes",
        "service:bicycle:retail": "yes",
        "service:bicycle:second_hand": "no",
        "shop": "bicycle",
        "wheelchair": "limited",
        "id": "node/8857657151"
      },
      "geometry": {
        "type": "Point",
        "coordinates": [
          -42.7803585,
          -14.2273753
        ]
      }
    },
    {
      "type": "Feature",
      "id": "node/9029288062",
      "properties": {
        "timestamp": "2021-08-23T17:04:06Z",
        "version": 1,
        "changeset": 110128637,
        "name": "Nego Bike Sports",
        "shop": "bicycle",
        "id": "node/9029288062"
      },
      "geometry": {
        "type": "Point",
        "coordinates": [
          -42.78117,
          -14.2237462
        ]
      }
    }
  ]
}
