{
  "type": "FeatureCollection",
  "features": [
    {
      "type": "Feature",
      "id": "way/669619548",
      "properties": {
        "timestamp": "2021-05-19T02:20:59Z",
        "version": 2,
        "changeset": 104920863,
        "alt_name": "Unidade Básica de Saúde Jônata Malheiros Araújo",
        "amenity": "clinic",
        "building": "yes",
        "healthcare": "clinic",
        "name": "UBS - Santo Antônio",
        "official_name": "Unidade de Saúde ESF - Santo Antônio Jônata Malheiros Araújo (Dom)",
        "id": "way/669619548"
      },
      "geometry": {
        "type": "Polygon",
        "coordinates": [
          [
            [
              -42.7813456,
              -14.2361894
            ],
            [
              -42.78117,
              -14.2363977
            ],
            [
              -42.7810132,
              -14.2362736
            ],
            [
              -42.7811888,
              -14.2360652
            ],
            [
              -42.7813456,
              -14.2361894
            ]
          ]
        ]
      }
    },
    {
      "type": "Feature",
      "id": "way/669620880",
      "properties": {
        "timestamp": "2019-02-11T03:53:30Z",
        "version": 1,
        "changeset": 67087704,
        "amenity": "clinic",
        "building": "yes",
        "healthcare": "clinic",
        "name": "UBS - Ipiranga",
        "id": "way/669620880"
      },
      "geometry": {
        "type": "Polygon",
        "coordinates": [
          [
            [
              -42.8007195,
              -14.2142212
            ],
            [
              -42.8010044,
              -14.2143754
            ],
            [
              -42.8008654,
              -14.2146162
            ],
            [
              -42.8005822,
              -14.2144619
            ],
            [
              -42.8007195,
              -14.2142212
            ]
          ]
        ]
      }
    },
    {
      "type": "Feature",
      "id": "way/1122593189",
      "properties": {
        "timestamp": "2022-12-16T10:27:57Z",
        "version": 1,
        "changeset": 130149480,
        "alt_name": "PSF do Suruá",
        "amenity": "clinic",
        "building": "yes",
        "building:levels": "1",
        "healthcare": "clinic",
        "name": "Unidade Básica de Saúde Dr. José Carlos de Gomes",
        "official_name": "Unidade Básica de Saúde do Baixio Dr. José Carlos de Gomes",
        "operator": "Secretaria Municipal de Saúde de Guanambi",
        "operator:type": "public",
        "start_date": "2022-12-15",
        "id": "way/1122593189"
      },
      "geometry": {
        "type": "Polygon",
        "coordinates": [
          [
            [
              -42.8616226,
              -14.1141622
            ],
            [
              -42.8617521,
              -14.1142973
            ],
            [
              -42.8617042,
              -14.1143404
            ],
            [
              -42.861718,
              -14.1143479
            ],
            [
              -42.8616734,
              -14.1143882
            ],
            [
              -42.8615451,
              -14.1142544
            ],
            [
              -42.8615831,
              -14.1142201
            ],
            [
              -42.8615717,
              -14.1142082
            ],
            [
              -42.8616226,
              -14.1141622
            ]
          ]
        ]
      }
    },
    {
      "type": "Feature",
      "id": "way/1127338483",
      "properties": {
        "timestamp": "2023-01-05T01:31:09Z",
        "version": 2,
        "changeset": 130887639,
        "addr:city": "Guanambi",
        "addr:postcode": "46430-000",
        "addr:street": "Rua Jorge Paudarco",
        "addr:suburb": "Brasília",
        "amenity": "clinic",
        "building": "yes",
        "building:levels": "1",
        "healthcare": "clinic",
        "name": "Posto de Saúde da Família Bairro Brasilia",
        "id": "way/1127338483"
      },
      "geometry": {
        "type": "Polygon",
        "coordinates": [
          [
            [
              -42.7677559,
              -14.2368905
            ],
            [
              -42.7676376,
              -14.236703
            ],
            [
              -42.7677339,
              -14.2366459
            ],
            [
              -42.7678521,
              -14.2368334
            ],
            [
              -42.7677559,
              -14.2368905
            ]
          ]
        ]
      }
    },
    {
      "type": "Feature",
      "id": "node/2990592362",
      "properties": {
        "timestamp": "2020-03-26T07:09:03Z",
        "version": 3,
        "changeset": 82644759,
        "amenity": "clinic",
        "healthcare": "clinic",
        "name": "Posto de Saúde da Família Santa Luzia",
        "id": "node/2990592362"
      },
      "geometry": {
        "type": "Point",
        "coordinates": [
          -42.7819548,
          -14.221302
        ]
      }
    },
    {
      "type": "Feature",
      "id": "node/3971795392",
      "properties": {
        "timestamp": "2016-01-27T19:04:58Z",
        "version": 1,
        "changeset": 36843351,
        "addr:city": "Guanambi",
        "addr:street": "Praça Jetúlio Vargas",
        "addr:suburb": "Centro",
        "amenity": "clinic",
        "name": "Centro Integrado de Análises Clinicas",
        "phone": "+55 77 3452 0165",
        "id": "node/3971795392"
      },
      "geometry": {
        "type": "Point",
        "coordinates": [
          -42.7810088,
          -14.2275458
        ]
      }
    },
    {
      "type": "Feature",
      "id": "node/3992362109",
      "properties": {
        "timestamp": "2016-02-06T17:45:29Z",
        "version": 1,
        "changeset": 37045456,
        "amenity": "clinic",
        "name": "Genes Home Care",
        "operator": "Pai Bahia",
        "id": "node/3992362109"
      },
      "geometry": {
        "type": "Point",
        "coordinates": [
          -42.7663127,
          -14.2130324
        ]
      }
    },
    {
      "type": "Feature",
      "id": "node/4214720797",
      "properties": {
        "timestamp": "2016-05-30T03:33:34Z",
        "version": 1,
        "changeset": 39654666,
        "addr:city": "Guanambi",
        "addr:street": "Rua Rui Barbosa",
        "amenity": "clinic",
        "name": "Oftalmo Diagnóstico",
        "id": "node/4214720797"
      },
      "geometry": {
        "type": "Point",
        "coordinates": [
          -42.7800678,
          -14.2261915
        ]
      }
    },
    {
      "type": "Feature",
      "id": "node/4617443457",
      "properties": {
        "timestamp": "2017-01-19T01:40:33Z",
        "version": 1,
        "changeset": 45286546,
        "amenity": "clinic",
        "name": "Vidas",
        "id": "node/4617443457"
      },
      "geometry": {
        "type": "Point",
        "coordinates": [
          -42.7802887,
          -14.2224252
        ]
      }
    },
    {
      "type": "Feature",
      "id": "node/4617443458",
      "properties": {
        "timestamp": "2017-01-19T01:40:33Z",
        "version": 1,
        "changeset": 45286546,
        "amenity": "clinic",
        "name": "Previna Clínica Médica",
        "id": "node/4617443458"
      },
      "geometry": {
        "type": "Point",
        "coordinates": [
          -42.7802927,
          -14.2224577
        ]
      }
    },
    {
      "type": "Feature",
      "id": "node/4617443479",
      "properties": {
        "timestamp": "2017-01-19T01:40:34Z",
        "version": 1,
        "changeset": 45286546,
        "amenity": "clinic",
        "name": "Centro de Estudos, Consultoria Eduacional e Atendimento Psicológico",
        "phone": "+55 77 3452 3704",
        "id": "node/4617443479"
      },
      "geometry": {
        "type": "Point",
        "coordinates": [
          -42.779555,
          -14.2219683
        ]
      }
    },
    {
      "type": "Feature",
      "id": "node/4617443480",
      "properties": {
        "timestamp": "2017-01-19T01:40:34Z",
        "version": 1,
        "changeset": 45286546,
        "amenity": "clinic",
        "name": "Laboratório de Análises Clinicas",
        "operator": "Faculdade Guanambi",
        "phone": "+55 77 3451 5547",
        "website": "www.fglab.com.br",
        "id": "node/4617443480"
      },
      "geometry": {
        "type": "Point",
        "coordinates": [
          -42.7794548,
          -14.2219929
        ]
      }
    },
    {
      "type": "Feature",
      "id": "node/4617443601",
      "properties": {
        "timestamp": "2017-01-19T01:40:35Z",
        "version": 1,
        "changeset": 45286546,
        "amenity": "clinic",
        "name": "Algiclin",
        "phone": "+55 77 3451 7040",
        "id": "node/4617443601"
      },
      "geometry": {
        "type": "Point",
        "coordinates": [
          -42.7789626,
          -14.222779
        ]
      }
    },
    {
      "type": "Feature",
      "id": "node/4617443602",
      "properties": {
        "timestamp": "2017-01-19T01:40:35Z",
        "version": 1,
        "changeset": 45286546,
        "amenity": "clinic",
        "name": "Endocenter",
        "phone": "+55 77 3451 5022",
        "id": "node/4617443602"
      },
      "geometry": {
        "type": "Point",
        "coordinates": [
          -42.7790042,
          -14.2228505
        ]
      }
    },
    {
      "type": "Feature",
      "id": "node/4617443609",
      "properties": {
        "timestamp": "2017-01-19T01:40:35Z",
        "version": 1,
        "changeset": 45286546,
        "alt_name": "Hospital dos Olhos de Guanambi",
        "amenity": "clinic",
        "name": "Centro Médico Zelita Malheiros",
        "id": "node/4617443609"
      },
      "geometry": {
        "type": "Point",
        "coordinates": [
          -42.7795165,
          -14.2241069
        ]
      }
    },
    {
      "type": "Feature",
      "id": "node/4617443639",
      "properties": {
        "timestamp": "2017-01-19T01:40:37Z",
        "version": 1,
        "changeset": 45286546,
        "addr:city": "Guanambi",
        "addr:housenumber": "25",
        "addr:postcode": "46430-000",
        "addr:street": "Rua Humberto de Campos",
        "addr:suburb": "Centro",
        "amenity": "clinic",
        "name": "Image Labs",
        "phone": "+55 77 3452 1461",
        "id": "node/4617443639"
      },
      "geometry": {
        "type": "Point",
        "coordinates": [
          -42.7790565,
          -14.2252789
        ]
      }
    },
    {
      "type": "Feature",
      "id": "node/6372442584",
      "properties": {
        "timestamp": "2019-03-30T15:16:18Z",
        "version": 1,
        "changeset": 68700598,
        "amenity": "clinic",
        "id": "node/6372442584"
      },
      "geometry": {
        "type": "Point",
        "coordinates": [
          -42.7761671,
          -14.2293038
        ]
      }
    },
    {
      "type": "Feature",
      "id": "node/6372443486",
      "properties": {
        "timestamp": "2019-03-30T15:16:18Z",
        "version": 1,
        "changeset": 68700598,
        "amenity": "clinic",
        "name": "Clínica Corpo e Mente",
        "id": "node/6372443486"
      },
      "geometry": {
        "type": "Point",
        "coordinates": [
          -42.7761704,
          -14.2293311
        ]
      }
    },
    {
      "type": "Feature",
      "id": "node/6735846382",
      "properties": {
        "timestamp": "2019-08-22T15:22:32Z",
        "version": 1,
        "changeset": 73630759,
        "amenity": "clinic",
        "name": "UBS Dr. Waldeck Neves Abreu ESF Paraíso",
        "operator": "Secretaria Municipal de Saúde",
        "id": "node/6735846382"
      },
      "geometry": {
        "type": "Point",
        "coordinates": [
          -42.7660418,
          -14.2248358
        ]
      }
    },
    {
      "type": "Feature",
      "id": "node/7008303468",
      "properties": {
        "timestamp": "2021-08-16T01:34:09Z",
        "version": 2,
        "changeset": 109719876,
        "addr:city": "Guanambi",
        "addr:postcode": "46430-000",
        "addr:street": "Praça Osvaldo Cruz",
        "addr:suburb": "Centro",
        "amenity": "clinic",
        "mobile": "+55 77 9 9972 6445",
        "name": "Consulth Saúde",
        "phone": "+55 77 3452 0824",
        "id": "node/7008303468"
      },
      "geometry": {
        "type": "Point",
        "coordinates": [
          -42.7822584,
          -14.2233915
        ]
      }
    },
    {
      "type": "Feature",
      "id": "node/7008303469",
      "properties": {
        "timestamp": "2021-08-23T01:11:15Z",
        "version": 5,
        "changeset": 110083183,
        "addr:city": "Guanambi",
        "addr:housenumber": "160",
        "addr:postcode": "46430-000",
        "addr:street": "Praça Osvaldo Cruz",
        "addr:suburb": "Centro",
        "amenity": "clinic",
        "email": "medlabcemso.financeiro@hotmail.com",
        "healthcare": "clinic",
        "internet_access": "wlan",
        "internet_access:fee": "customers",
        "internet_access:ssid": "mede MEDLAB",
        "name": "MedLab",
        "official_name": "MedLab Laboratório de Análises Clínicas",
        "opening_hours": "Mo-Fr 06:00-12:00,14:00-17:00",
        "operator": "Marinalva Fernandes Neves",
        "operator:type": "private",
        "phone": "+55 77 3451-2809",
        "toilets": "customers",
        "toilets:wheelchair": "yes",
        "wheelchair": "limited",
        "id": "node/7008303469"
      },
      "geometry": {
        "type": "Point",
        "coordinates": [
          -42.7825776,
          -14.2238147
        ]
      }
    },
    {
      "type": "Feature",
      "id": "node/7008305195",
      "properties": {
        "timestamp": "2019-11-25T13:28:15Z",
        "version": 1,
        "changeset": 77524556,
        "amenity": "clinic",
        "loc_name": "UBS - Dra. Gizelda C. Barros",
        "name": "Unidade Básica de Saúde Dra. Gizelda Cardoso de Almeida Barros",
        "reg_name": "ESF Vomitamel",
        "id": "node/7008305195"
      },
      "geometry": {
        "type": "Point",
        "coordinates": [
          -42.7803741,
          -14.2158137
        ]
      }
    },
    {
      "type": "Feature",
      "id": "node/7050381972",
      "properties": {
        "timestamp": "2019-12-11T21:12:52Z",
        "version": 1,
        "changeset": 78280889,
        "amenity": "clinic",
        "name": "AMA Clínica Médica Especializada",
        "phone": "+55 77 3451 5385; +55 77 9 9905 9372",
        "id": "node/7050381972"
      },
      "geometry": {
        "type": "Point",
        "coordinates": [
          -42.7806075,
          -14.22623
        ]
      }
    },
    {
      "type": "Feature",
      "id": "node/7050381975",
      "properties": {
        "timestamp": "2021-05-08T20:17:03Z",
        "version": 2,
        "changeset": 104377824,
        "amenity": "clinic",
        "healthcare": "clinic",
        "name": "Instituto da ATM",
        "id": "node/7050381975"
      },
      "geometry": {
        "type": "Point",
        "coordinates": [
          -42.7809045,
          -14.2261598
        ]
      }
    },
    {
      "type": "Feature",
      "id": "node/7050403903",
      "properties": {
        "timestamp": "2019-12-11T21:12:52Z",
        "version": 1,
        "changeset": 78280889,
        "addr:city": "Guanambi",
        "addr:housenumber": "22",
        "addr:street": "Praça José Ferreira",
        "amenity": "clinic",
        "name": "Centro Médico Especializado",
        "short_name": "CME",
        "id": "node/7050403903"
      },
      "geometry": {
        "type": "Point",
        "coordinates": [
          -42.78023,
          -14.2268241
        ]
      }
    },
    {
      "type": "Feature",
      "id": "node/7050403905",
      "properties": {
        "timestamp": "2021-06-22T17:55:26Z",
        "version": 2,
        "changeset": 106792539,
        "addr:city": "Guanambi",
        "addr:housenumber": "40",
        "addr:street": "Praça José Ferreira",
        "amenity": "clinic",
        "name": "Núcleo Especializado em Saúde",
        "phone": "+55 77 3451-1503;+55 77 99919-1390",
        "short_name": "NESS",
        "id": "node/7050403905"
      },
      "geometry": {
        "type": "Point",
        "coordinates": [
          -42.7801743,
          -14.2266434
        ]
      }
    },
    {
      "type": "Feature",
      "id": "node/7050613574",
      "properties": {
        "timestamp": "2019-12-12T01:21:04Z",
        "version": 1,
        "changeset": 78285440,
        "addr:city": "Guanambi",
        "addr:housenumber": "741",
        "addr:street": "Avenida Beneval Boa Sorte",
        "amenity": "clinic",
        "name": "Photon Medicina Nucllear",
        "id": "node/7050613574"
      },
      "geometry": {
        "type": "Point",
        "coordinates": [
          -42.7895567,
          -14.2139079
        ]
      }
    },
    {
      "type": "Feature",
      "id": "node/7050613583",
      "properties": {
        "timestamp": "2019-12-12T01:21:04Z",
        "version": 1,
        "changeset": 78285440,
        "amenity": "clinic",
        "name": "Fisiomed",
        "id": "node/7050613583"
      },
      "geometry": {
        "type": "Point",
        "coordinates": [
          -42.7870984,
          -14.2156434
        ]
      }
    },
    {
      "type": "Feature",
      "id": "node/8710148303",
      "properties": {
        "timestamp": "2021-05-07T16:23:12Z",
        "version": 1,
        "changeset": 104330495,
        "addr:city": "Guanambi",
        "addr:housenumber": "438",
        "addr:postcode": "46430-000",
        "addr:street": "Avenida Deolinda Martins",
        "addr:suburb": "Santo Antônio",
        "amenity": "clinic",
        "name": "Clínica Vitória",
        "phone": "+55 77 3452 0912",
        "id": "node/8710148303"
      },
      "geometry": {
        "type": "Point",
        "coordinates": [
          -42.7790002,
          -14.2337587
        ]
      }
    },
    {
      "type": "Feature",
      "id": "node/8849134925",
      "properties": {
        "timestamp": "2021-06-19T19:59:31Z",
        "version": 1,
        "changeset": 106645012,
        "addr:city": "Guanambi",
        "addr:housenumber": "29",
        "addr:postcode": "46430-000",
        "addr:street": "Rua Marcílio Dias",
        "addr:suburb": "Centro",
        "amenity": "clinic",
        "healthcare": "clinic",
        "name": "ISO Clínica Especializada",
        "phone": "+55 77 3451-3257",
        "id": "node/8849134925"
      },
      "geometry": {
        "type": "Point",
        "coordinates": [
          -42.781445,
          -14.2267239
        ]
      }
    },
    {
      "type": "Feature",
      "id": "node/8855408897",
      "properties": {
        "timestamp": "2021-08-16T13:30:35Z",
        "version": 4,
        "changeset": 109752925,
        "addr:city": "Guanambi",
        "addr:housenumber": "310",
        "addr:postcode": "46430-000",
        "addr:street": "Rua Gustavo Bezerra",
        "addr:suburb": "Centro",
        "amenity": "clinic",
        "healthcare": "clinic",
        "name": "Imasto Instituto de Mastologista",
        "phone": "+55 77 3451-1382",
        "website": "https://www.imasto.com.br/",
        "id": "node/8855408897"
      },
      "geometry": {
        "type": "Point",
        "coordinates": [
          -42.7823843,
          -14.2237615
        ]
      }
    },
    {
      "type": "Feature",
      "id": "node/9008902294",
      "properties": {
        "timestamp": "2021-08-16T01:34:09Z",
        "version": 1,
        "changeset": 109719876,
        "addr:city": "Guanambi",
        "addr:housenumber": "32",
        "addr:postcode": "46430-000",
        "addr:street": "Praça Osvaldo Cruz",
        "addr:suburb": "Centro",
        "amenity": "clinic",
        "name": "Clínica Dr. Egmar de Castro",
        "wheelchair": "yes",
        "id": "node/9008902294"
      },
      "geometry": {
        "type": "Point",
        "coordinates": [
          -42.7822544,
          -14.2236073
        ]
      }
    },
    {
      "type": "Feature",
      "id": "node/9008902343",
      "properties": {
        "timestamp": "2021-08-29T14:25:20Z",
        "version": 2,
        "changeset": 110415035,
        "addr:city": "Guanambi",
        "addr:housenumber": "291",
        "addr:postcode": "46430-000",
        "addr:street": "Rua Gustavo Bezerra",
        "addr:suburb": "Centro",
        "amenity": "clinic",
        "name": "Centro Médico Integrado",
        "phone": "+55 77 3451-1721",
        "id": "node/9008902343"
      },
      "geometry": {
        "type": "Point",
        "coordinates": [
          -42.7822282,
          -14.2239856
        ]
      }
    },
    {
      "type": "Feature",
      "id": "node/9027312100",
      "properties": {
        "timestamp": "2021-08-23T01:11:15Z",
        "version": 1,
        "changeset": 110083183,
        "addr:city": "Guanambi",
        "addr:postcode": "46430-000",
        "addr:street": "Rua Dom Pedro Segundo",
        "addr:suburb": "Centro",
        "amenity": "clinic",
        "healthcare": "clinic",
        "name": "Ultra Clin Clínica Médica Especializada",
        "id": "node/9027312100"
      },
      "geometry": {
        "type": "Point",
        "coordinates": [
          -42.7831395,
          -14.2240795
        ]
      }
    },
    {
      "type": "Feature",
      "id": "node/9029202694",
      "properties": {
        "timestamp": "2021-08-23T16:20:14Z",
        "version": 1,
        "changeset": 110126369,
        "addr:city": "Guanambi",
        "addr:housenumber": "25",
        "addr:postcode": "46430-000",
        "addr:street": "Rua Alto da Boa Vista",
        "addr:suburb": "Centro",
        "amenity": "clinic",
        "healthcare": "clinic",
        "healthcare:speciality": "gynaecology",
        "mobile": "+55 77 9 9126 6610;+55 77 9 9962 3232",
        "name": "Clínica Ginecológica Dr. Ginaldo Gomes",
        "phone": "+55 77 3452 2874",
        "id": "node/9029202694"
      },
      "geometry": {
        "type": "Point",
        "coordinates": [
          -42.7831148,
          -14.2234132
        ]
      }
    },
    {
      "type": "Feature",
      "id": "node/9045356668",
      "properties": {
        "timestamp": "2021-08-29T14:25:20Z",
        "version": 1,
        "changeset": 110415035,
        "addr:city": "Guanambi",
        "addr:housenumber": "226",
        "addr:postcode": "46430-000",
        "addr:street": "Rua Gustavo Bezerra",
        "addr:suburb": "Centro",
        "amenity": "clinic",
        "healthcare": "clinic",
        "name": "Instituto Médico de Patologia Guanambi Anatomia Patológica e Citopatologica",
        "id": "node/9045356668"
      },
      "geometry": {
        "type": "Point",
        "coordinates": [
          -42.7816597,
          -14.2241507
        ]
      }
    },
    {
      "type": "Feature",
      "id": "node/9045356676",
      "properties": {
        "timestamp": "2021-08-29T14:25:20Z",
        "version": 1,
        "changeset": 110415035,
        "addr:city": "Guanambi",
        "addr:housenumber": "273",
        "addr:postcode": "46430-000",
        "addr:street": "Rua Gustavo Bezerra",
        "addr:suburb": "Centro",
        "amenity": "clinic",
        "healthcare": "clinic",
        "mobile": "+5577999258880 +5577991571318",
        "name": "MTG Medicina do Trabalho de Guanambi",
        "phone": "+557734513721",
        "id": "node/9045356676"
      },
      "geometry": {
        "type": "Point",
        "coordinates": [
          -42.7820955,
          -14.2240686
        ]
      }
    },
    {
      "type": "Feature",
      "id": "node/9045356680",
      "properties": {
        "timestamp": "2021-08-29T14:25:20Z",
        "version": 1,
        "changeset": 110415035,
        "addr:city": "Guanambi",
        "addr:housenumber": "256",
        "addr:postcode": "46430-000",
        "addr:street": "Rua Gustavo Bezerra",
        "addr:suburb": "Centro",
        "amenity": "clinic",
        "healthcare": "clinic",
        "name": "Climed",
        "id": "node/9045356680"
      },
      "geometry": {
        "type": "Point",
        "coordinates": [
          -42.7818695,
          -14.2240103
        ]
      }
    },
    {
      "type": "Feature",
      "id": "node/9046489600",
      "properties": {
        "timestamp": "2021-08-29T23:16:27Z",
        "version": 1,
        "changeset": 110429467,
        "addr:city": "Guanambi",
        "addr:housenumber": "25",
        "addr:postcode": "46430-000",
        "addr:street": "Rua Dom Pedro Segundo",
        "addr:suburb": "Centro",
        "amenity": "clinic",
        "email": "cgmguanambi@gmail.com",
        "healthcare": "clinic",
        "name": "Centro de Gestão Médica",
        "phone": "+557734512209",
        "id": "node/9046489600"
      },
      "geometry": {
        "type": "Point",
        "coordinates": [
          -42.7825241,
          -14.2248548
        ]
      }
    }
  ]
}
