{
  "type": "FeatureCollection",
  "features": [
    {
      "type": "Feature",
      "id": "node/3992362104",
      "properties": {
        "timestamp": "2016-02-06T17:45:28Z",
        "version": 1,
        "changeset": 37045456,
        "addr:city": "Guanambi",
        "addr:housenumber": "91",
        "addr:street": "Rua Olavo Bilac",
        "addr:suburb": "Centro",
        "amenity": "dentist",
        "name": "Dr. Sandro Duque Silva",
        "phone": "+55 77 3451 1909",
        "phone_1": "+55 77 99119 2888",
        "id": "node/3992362104"
      },
      "geometry": {
        "type": "Point",
        "coordinates": [
          -42.7821449,
          -14.2266323
        ]
      }
    },
    {
      "type": "Feature",
      "id": "node/4214720791",
      "properties": {
        "timestamp": "2016-05-30T03:33:34Z",
        "version": 1,
        "changeset": 39654666,
        "amenity": "dentist",
        "name": "Consultório Odontológico Dra. Adriana F. S. Baleeiro",
        "phone": "+55 77 3451 3972",
        "id": "node/4214720791"
      },
      "geometry": {
        "type": "Point",
        "coordinates": [
          -42.7802186,
          -14.2259551
        ]
      }
    },
    {
      "type": "Feature",
      "id": "node/4617443591",
      "properties": {
        "timestamp": "2019-03-04T00:25:11Z",
        "version": 3,
        "changeset": 67750412,
        "addr:city": "Guanambi",
        "addr:housenumber": "186",
        "addr:postcode": "46430-000",
        "addr:street": "Praça Manoel Novaes",
        "addr:suburb": "Centro",
        "amenity": "dentist",
        "name": "Ortodontic Center",
        "operator": "Cayo Felipe Soares de Souza",
        "phone": "+55 77 3451 9900",
        "website": "https://www.ortodonticcenter.com.br/",
        "id": "node/4617443591"
      },
      "geometry": {
        "type": "Point",
        "coordinates": [
          -42.7792705,
          -14.2220728
        ]
      }
    },
    {
      "type": "Feature",
      "id": "node/4617443594",
      "properties": {
        "timestamp": "2017-01-19T01:40:35Z",
        "version": 1,
        "changeset": 45286546,
        "amenity": "dentist",
        "name": "Clínica Humaniza",
        "id": "node/4617443594"
      },
      "geometry": {
        "type": "Point",
        "coordinates": [
          -42.77907,
          -14.222156
        ]
      }
    },
    {
      "type": "Feature",
      "id": "node/6363216938",
      "properties": {
        "timestamp": "2021-01-11T15:06:22Z",
        "version": 2,
        "changeset": 97312042,
        "amenity": "dentist",
        "level": "2",
        "name": "Consultório Odontológico Volte a Sorrir",
        "wheelchair": "no",
        "id": "node/6363216938"
      },
      "geometry": {
        "type": "Point",
        "coordinates": [
          -42.7786843,
          -14.2256067
        ]
      }
    },
    {
      "type": "Feature",
      "id": "node/6372443485",
      "properties": {
        "timestamp": "2019-03-30T15:16:18Z",
        "version": 1,
        "changeset": 68700598,
        "amenity": "dentist",
        "name": "Odontolar Clínica Odontológica",
        "id": "node/6372443485"
      },
      "geometry": {
        "type": "Point",
        "coordinates": [
          -42.7761456,
          -14.2292362
        ]
      }
    },
    {
      "type": "Feature",
      "id": "node/7008303479",
      "properties": {
        "timestamp": "2019-11-25T13:28:15Z",
        "version": 1,
        "changeset": 77524556,
        "amenity": "dentist",
        "name": "Dr. Robério",
        "phone": "+55 77 3451 6659",
        "id": "node/7008303479"
      },
      "geometry": {
        "type": "Point",
        "coordinates": [
          -42.7780876,
          -14.2224308
        ]
      }
    },
    {
      "type": "Feature",
      "id": "node/7050381976",
      "properties": {
        "timestamp": "2019-12-11T21:12:52Z",
        "version": 1,
        "changeset": 78280889,
        "addr:city": "Guanambi",
        "addr:housenumber": "33",
        "addr:street": "Praça José Ferreira",
        "amenity": "dentist",
        "name": "Oralclin Odontologia",
        "phone": "+55 77 3451 1655; +55 77 3451 1946",
        "id": "node/7050381976"
      },
      "geometry": {
        "type": "Point",
        "coordinates": [
          -42.7809193,
          -14.2261858
        ]
      }
    },
    {
      "type": "Feature",
      "id": "node/8710148242",
      "properties": {
        "timestamp": "2021-05-07T16:23:12Z",
        "version": 1,
        "changeset": 104330495,
        "addr:city": "Guanambi",
        "addr:housenumber": "133",
        "addr:postcode": "46430-000",
        "addr:street": "Rua Manoel Vitorino",
        "addr:suburb": "Centro",
        "amenity": "dentist",
        "mobile": "+55 77 9 9178 2445",
        "name": "Dr. Neto Implantodontia e Ortodontia",
        "phone": "+55 77 34522 2267",
        "id": "node/8710148242"
      },
      "geometry": {
        "type": "Point",
        "coordinates": [
          -42.7803527,
          -14.2299746
        ]
      }
    },
    {
      "type": "Feature",
      "id": "node/8710148268",
      "properties": {
        "timestamp": "2021-05-07T16:23:12Z",
        "version": 1,
        "changeset": 104330495,
        "addr:city": "Guanambi",
        "addr:housenumber": "268",
        "addr:postcode": "46430-000",
        "addr:street": "Avenida Deolinda Martins",
        "addr:suburb": "Santo Antônio",
        "amenity": "dentist",
        "mobile": "+55 77 9 9800 4056",
        "name": "Ohana Odontologia",
        "phone": "+55 77 3452 0246",
        "id": "node/8710148268"
      },
      "geometry": {
        "type": "Point",
        "coordinates": [
          -42.7798927,
          -14.2325862
        ]
      }
    },
    {
      "type": "Feature",
      "id": "node/8710687811",
      "properties": {
        "timestamp": "2021-05-07T20:12:21Z",
        "version": 1,
        "changeset": 104339491,
        "addr:city": "Guanambi",
        "addr:housenumber": "138",
        "addr:postcode": "46430-000",
        "addr:street": "Rua Manoel Vitorino",
        "addr:suburb": "Centro",
        "amenity": "dentist",
        "healthcare": "dentist",
        "mobile": "+5577991514440",
        "name": "Actual Sorrisos",
        "operator": "Dr. Yuan Medeiros Pinheiros",
        "id": "node/8710687811"
      },
      "geometry": {
        "type": "Point",
        "coordinates": [
          -42.7806494,
          -14.2298827
        ]
      }
    },
    {
      "type": "Feature",
      "id": "node/8849134921",
      "properties": {
        "timestamp": "2021-06-19T19:59:31Z",
        "version": 1,
        "changeset": 106645012,
        "amenity": "dentist",
        "healthcare": "dentist",
        "name": "Sorrir",
        "operator:type": "Dr. Roberto Teixeira",
        "id": "node/8849134921"
      },
      "geometry": {
        "type": "Point",
        "coordinates": [
          -42.7817288,
          -14.2267541
        ]
      }
    },
    {
      "type": "Feature",
      "id": "node/8853830456",
      "properties": {
        "timestamp": "2021-08-29T21:20:53Z",
        "version": 2,
        "changeset": 110427684,
        "addr:city": "Guanambi",
        "addr:housenumber": "14",
        "addr:postcode": "46430-000",
        "addr:street": "Rua 2 de Julho",
        "addr:suburb": "Centro",
        "amenity": "dentist",
        "door": "106",
        "healthcare": "dentist",
        "level": "1",
        "name": "Consultório Odontológico",
        "phone": "+557734512627",
        "id": "node/8853830456"
      },
      "geometry": {
        "type": "Point",
        "coordinates": [
          -42.7798092,
          -14.2273224
        ]
      }
    },
    {
      "type": "Feature",
      "id": "node/9008902299",
      "properties": {
        "timestamp": "2021-08-16T01:34:09Z",
        "version": 1,
        "changeset": 109719876,
        "addr:city": "Guanambi",
        "addr:housename": "24",
        "addr:housenumber": "22",
        "addr:postcode": "46430-000",
        "addr:street": "Praça Osvaldo Cruz",
        "addr:suburb": "Centro",
        "amenity": "dentist",
        "name": "Centro Médico Odontológico",
        "id": "node/9008902299"
      },
      "geometry": {
        "type": "Point",
        "coordinates": [
          -42.782301,
          -14.2236869
        ]
      }
    },
    {
      "type": "Feature",
      "id": "node/9029185902",
      "properties": {
        "timestamp": "2021-08-23T16:40:14Z",
        "version": 1,
        "changeset": 110127419,
        "addr:city": "Guanambi",
        "addr:housenumber": "35",
        "addr:postcode": "46430-000",
        "addr:street": "Rua Maria Quitéria",
        "addr:suburb": "Centro",
        "amenity": "dentist",
        "healthcare": "dentist",
        "mobile": "+55 77 9 9163 3739",
        "name": "Consultório Odontológico sonríe",
        "id": "node/9029185902"
      },
      "geometry": {
        "type": "Point",
        "coordinates": [
          -42.7813541,
          -14.224014
        ]
      }
    },
    {
      "type": "Feature",
      "id": "node/9046296665",
      "properties": {
        "timestamp": "2021-08-29T21:20:53Z",
        "version": 1,
        "changeset": 110427684,
        "addr:city": "Guanambi",
        "addr:housenumber": "21",
        "addr:postcode": "46430-000",
        "addr:street": "Rua 2 de Julho",
        "addr:suburb": "Centro",
        "amenity": "dentist",
        "healthcare": "dentist",
        "mobile": "+5577992132514",
        "name": "Consultório Odontológico Dr. Marcondes Dias Vieira",
        "phone": "+557734517385",
        "id": "node/9046296665"
      },
      "geometry": {
        "type": "Point",
        "coordinates": [
          -42.7795879,
          -14.2275899
        ]
      }
    }
  ]
}
