{
  "type": "FeatureCollection",
  "features": [
    {
      "type": "Feature",
      "id": "node/3012605575",
      "properties": {
        "timestamp": "2021-05-16T22:01:34Z",
        "version": 2,
        "changeset": 104786770,
        "government": "social_services",
        "name": "Açaõ Social",
        "office": "government",
        "id": "node/3012605575"
      },
      "geometry": {
        "type": "Point",
        "coordinates": [
          -42.7812598,
          -14.2352168
        ]
      }
    },
    {
      "type": "Feature",
      "id": "node/4617443627",
      "properties": {
        "timestamp": "2024-04-14T14:15:29Z",
        "version": 3,
        "changeset": 149994811,
        "government": "register_office",
        "name": "Cartório Mais",
        "office": "government",
        "phone": "+55 77 3452-1964",
        "website": "https://www.cartoriomais.com.br/guanambi",
        "id": "node/4617443627"
      },
      "geometry": {
        "type": "Point",
        "coordinates": [
          -42.7792751,
          -14.2249719
        ]
      }
    },
    {
      "type": "Feature",
      "id": "node/6684684957",
      "properties": {
        "timestamp": "2019-10-23T14:44:13Z",
        "version": 2,
        "changeset": 76110064,
        "addr:city": "Guanambi",
        "addr:housenumber": "119",
        "addr:postcode": "46430-000",
        "addr:street": "Travessa Euclides da Cunha",
        "addr:suburb": "Centro",
        "government": "public_service",
        "name": "Defensoria Pública",
        "office": "government",
        "id": "node/6684684957"
      },
      "geometry": {
        "type": "Point",
        "coordinates": [
          -42.7825856,
          -14.2261312
        ]
      }
    },
    {
      "type": "Feature",
      "id": "node/6684703240",
      "properties": {
        "timestamp": "2019-08-05T14:25:43Z",
        "version": 1,
        "changeset": 73027376,
        "addr:city": "Guanambi",
        "addr:postcode": "46430-000",
        "addr:street": "Rua Raposa Tavares",
        "addr:suburb": "Santa Luzia",
        "government": "public_service",
        "name": "Serviço de Atendimento ao Cidadão",
        "office": "government",
        "opening_hours": "Mo-Fr 07:00-13:00",
        "short_name": "SAC",
        "wheelchair": "yes",
        "id": "node/6684703240"
      },
      "geometry": {
        "type": "Point",
        "coordinates": [
          -42.7900985,
          -14.2156083
        ]
      }
    },
    {
      "type": "Feature",
      "id": "node/8710148269",
      "properties": {
        "timestamp": "2021-05-07T16:23:12Z",
        "version": 1,
        "changeset": 104330495,
        "addr:city": "Guanambi",
        "addr:housenumber": "166",
        "addr:postcode": "46430-000",
        "addr:street": "Avenida Deolinda Martins",
        "addr:suburb": "Santo Antônio",
        "government": "administrative",
        "name": "Codevasf",
        "office": "government",
        "official_name": "Companhia de Desenvolvimento dos Vales do São Francsco e do Parnaíba",
        "phone": "+55 77 3451 1011",
        "short_name": "CODEVASF",
        "website": "https://www.codevasf.gov.br/",
        "id": "node/8710148269"
      },
      "geometry": {
        "type": "Point",
        "coordinates": [
          -42.7801529,
          -14.2322092
        ]
      }
    },
    {
      "type": "Feature",
      "id": "node/8737211301",
      "properties": {
        "timestamp": "2021-05-16T22:04:36Z",
        "version": 2,
        "changeset": 104786834,
        "government": "education",
        "name": "Conselho Municipal de Educação de Guanambi",
        "office": "government",
        "id": "node/8737211301"
      },
      "geometry": {
        "type": "Point",
        "coordinates": [
          -42.7806792,
          -14.2353617
        ]
      }
    },
    {
      "type": "Feature",
      "id": "node/8737229057",
      "properties": {
        "timestamp": "2021-05-16T22:01:34Z",
        "version": 1,
        "changeset": 104786770,
        "addr:city": "Guanambi",
        "addr:postcode": "46430-000",
        "government": "social_services",
        "name": "Secretaria Municipal de Assistência Social",
        "office": "government",
        "id": "node/8737229057"
      },
      "geometry": {
        "type": "Point",
        "coordinates": [
          -42.7808441,
          -14.2352453
        ]
      }
    },
    {
      "type": "Feature",
      "id": "node/9046296618",
      "properties": {
        "timestamp": "2021-11-09T15:41:31Z",
        "version": 2,
        "changeset": 113570666,
        "addr:city": "Guanambi",
        "addr:housenumber": "243",
        "addr:postcode": "46430-000",
        "addr:street": "Rua Gustavo Bezerra",
        "addr:suburb": "Centro",
        "government": "statistics",
        "name": "IBGE",
        "office": "government",
        "official_name": "Instituto Brasileiro de Geografia e Estatística",
        "phone": "+55 77 34511360",
        "short_name": "IBGE",
        "website": "https://www.ibge.gov.br/",
        "wikidata": "Q268072",
        "wikipedia": "pt:Instituto Brasileiro de Geografia e Estatística",
        "id": "node/9046296618"
      },
      "geometry": {
        "type": "Point",
        "coordinates": [
          -42.781847,
          -14.2241981
        ]
      }
    },
    {
      "type": "Feature",
      "id": "node/9046489588",
      "properties": {
        "timestamp": "2021-08-29T23:16:27Z",
        "version": 1,
        "changeset": 110429467,
        "addr:city": "Guanambi",
        "addr:postcode": "46430-000",
        "addr:street": "Rua Casemiro de Abreu",
        "addr:suburb": "Centro",
        "government": "healthcare",
        "name": "TFD Tratamento Fora do Domícilio SUS",
        "office": "government",
        "id": "node/9046489588"
      },
      "geometry": {
        "type": "Point",
        "coordinates": [
          -42.782158,
          -14.2231182
        ]
      }
    },
    {
      "type": "Feature",
      "id": "node/9368770986",
      "properties": {
        "timestamp": "2021-12-27T01:04:16Z",
        "version": 1,
        "changeset": 115404693,
        "addr:city": "Guanambi",
        "addr:housenumber": "325",
        "addr:postcode": "46430-000",
        "addr:street": "Avenida Santos Dumont",
        "addr:suburb": "Aeroporto Velho",
        "government": "social_services",
        "name": "SAC Municipal de Guanambi",
        "office": "government",
        "phone": "+ 55 0800 009 0034",
        "id": "node/9368770986"
      },
      "geometry": {
        "type": "Point",
        "coordinates": [
          -42.7822088,
          -14.2178054
        ]
      }
    },
    {
      "type": "Feature",
      "id": "node/10544284742",
      "properties": {
        "timestamp": "2023-01-12T22:20:10Z",
        "version": 1,
        "changeset": 131206800,
        "addr:city": "Guanambi",
        "addr:street": "Avenida Governador Nilo Coelho",
        "government": "transportation",
        "name": "Detran",
        "office": "government",
        "id": "node/10544284742"
      },
      "geometry": {
        "type": "Point",
        "coordinates": [
          -42.7621085,
          -14.2062107
        ]
      }
    },
    {
      "type": "Feature",
      "id": "node/10685856689",
      "properties": {
        "timestamp": "2023-02-22T13:31:22Z",
        "version": 1,
        "changeset": 132880125,
        "addr:city": "Guanambi",
        "addr:housenumber": "430",
        "addr:postcode": "46400-000",
        "addr:street": "Avenida Joaquim Chaves",
        "addr:suburb": "Santo Antônio",
        "government": "social_services",
        "name": "Centro de Referência de Atendimento à Mulher Alcione e Ana Júlia Teixeira",
        "office": "government",
        "short_name": "CRAM;CRAM Alcione e Ana Júlia Teixeira",
        "source:name": "LEI Nº 1.509 DE 09 DE NOVEMBRO DE 2022",
        "id": "node/10685856689"
      },
      "geometry": {
        "type": "Point",
        "coordinates": [
          -42.7795651,
          -14.2369534
        ]
      }
    },
    {
      "type": "Feature",
      "id": "node/10899217052",
      "properties": {
        "timestamp": "2023-05-15T11:49:07Z",
        "version": 1,
        "changeset": 136122870,
        "addr:city": "Guanambi",
        "addr:housenumber": "86",
        "addr:postcode": "46430-000",
        "addr:street": "Rua Humberto de Campos",
        "addr:suburb": "Centro",
        "contact:email": "cartoriocesarbarros@gmail.com",
        "contact:mobile": "+557734519086",
        "contact:website": "https://www.cartoriocesarbarros.com.br/",
        "government": "register_office",
        "name": "Cartório Cézar Barros",
        "office": "government",
        "id": "node/10899217052"
      },
      "geometry": {
        "type": "Point",
        "coordinates": [
          -42.7787975,
          -14.2249307
        ]
      }
    },
    {
      "type": "Feature",
      "id": "node/12502466494",
      "properties": {
        "timestamp": "2025-01-14T21:13:05Z",
        "version": 1,
        "changeset": 161359689,
        "contact:email": "atendimento@coren-ba.gov.br",
        "government": "healthcare",
        "name": "Conselho Regional de Enfermagem da Bahia - Subseção Guanambi",
        "office": "government",
        "opening_hours": "Mo-Fr 07:00-16:00; Sa off; Su off",
        "short_name": "Coren-Ba",
        "website": "https://www.coren-ba.gov.br/subsecao-de-guanambi/",
        "id": "node/12502466494"
      },
      "geometry": {
        "type": "Point",
        "coordinates": [
          -42.7665125,
          -14.2114268
        ]
      }
    }
  ]
}
