{
  "type": "FeatureCollection",
  "features": [
    {
      "type": "Feature",
      "id": "node/2893390776",
      "properties": {
        "timestamp": "2014-07-02T12:42:43Z",
        "version": 3,
        "changeset": 23545027,
        "name": "Pousada Aurora",
        "tourism": "guest_house",
        "id": "node/2893390776"
      },
      "geometry": {
        "type": "Point",
        "coordinates": [
          -42.7618522,
          -14.2274825
        ]
      }
    },
    {
      "type": "Feature",
      "id": "node/2969412405",
      "properties": {
        "timestamp": "2014-07-18T21:11:09Z",
        "version": 1,
        "changeset": 24229804,
        "name": "Pousada de Guanambi",
        "tourism": "guest_house",
        "id": "node/2969412405"
      },
      "geometry": {
        "type": "Point",
        "coordinates": [
          -42.7612662,
          -14.2079488
        ]
      }
    },
    {
      "type": "Feature",
      "id": "node/3048121264",
      "properties": {
        "timestamp": "2014-08-28T20:39:12Z",
        "version": 1,
        "changeset": 25083096,
        "name": "Pousada Bandeirante",
        "tourism": "guest_house",
        "id": "node/3048121264"
      },
      "geometry": {
        "type": "Point",
        "coordinates": [
          -42.7784143,
          -14.2343641
        ]
      }
    },
    {
      "type": "Feature",
      "id": "node/4482519605",
      "properties": {
        "timestamp": "2016-11-04T18:39:15Z",
        "version": 1,
        "changeset": 43407302,
        "addr:city": "Guanambi",
        "addr:postcode": "46430-000",
        "addr:street": "Avenida Prefeito José Neves",
        "name": "Pousada Luar",
        "phone": "+55 77 3451 3609",
        "tourism": "guest_house",
        "id": "node/4482519605"
      },
      "geometry": {
        "type": "Point",
        "coordinates": [
          -42.7633609,
          -14.214479
        ]
      }
    },
    {
      "type": "Feature",
      "id": "node/4482519606",
      "properties": {
        "timestamp": "2016-11-04T18:39:15Z",
        "version": 1,
        "changeset": 43407302,
        "addr:city": "Guanambi",
        "addr:housenumber": "1100",
        "addr:postcode": "46430-000",
        "addr:street": "Avenida Prefeito José Neves",
        "name": "Pousada Raio de Luz",
        "phone": "+55 77 9 9910 8235",
        "phone_1": "+55 77 9 8823 0459",
        "tourism": "guest_house",
        "id": "node/4482519606"
      },
      "geometry": {
        "type": "Point",
        "coordinates": [
          -42.7652707,
          -14.2282662
        ]
      }
    },
    {
      "type": "Feature",
      "id": "node/8710153323",
      "properties": {
        "timestamp": "2021-05-07T16:23:12Z",
        "version": 1,
        "changeset": 104330495,
        "addr:city": "Guanambi",
        "addr:housenumber": "476",
        "addr:postcode": "46430-000",
        "addr:street": "Avenida Deolinda Martins",
        "addr:suburb": "Santo Antônio",
        "internet_access": "wlan",
        "mobile": "+55 77 9 9990 3300",
        "name": "Pousada Sodré",
        "tourism": "guest_house",
        "id": "node/8710153323"
      },
      "geometry": {
        "type": "Point",
        "coordinates": [
          -42.7786384,
          -14.2342774
        ]
      }
    },
    {
      "type": "Feature",
      "id": "node/8710153324",
      "properties": {
        "timestamp": "2021-05-07T16:23:12Z",
        "version": 1,
        "changeset": 104330495,
        "addr:city": "Guanambi",
        "addr:housenumber": "528",
        "addr:postcode": "46430-000",
        "addr:street": "Avenida Deolinda Martins",
        "addr:suburb": "Santo Antônio",
        "internet_access": "wlan",
        "mobile": "+55 77 9 9990 3300",
        "name": "Pousada Sodré",
        "tourism": "guest_house",
        "id": "node/8710153324"
      },
      "geometry": {
        "type": "Point",
        "coordinates": [
          -42.7784966,
          -14.2344623
        ]
      }
    },
    {
      "type": "Feature",
      "id": "node/8710153325",
      "properties": {
        "timestamp": "2021-05-07T16:23:12Z",
        "version": 1,
        "changeset": 104330495,
        "addr:city": "Guanambi",
        "addr:housenumber": "534",
        "addr:postcode": "46430-000",
        "addr:street": "Avenida Deolinda Martins",
        "addr:suburb": "Santo Antônio",
        "internet_access": "wlan",
        "mobile": "+55 77 9 9990 3300",
        "name": "Pousada Sodré",
        "operator": "Matheus",
        "tourism": "guest_house",
        "id": "node/8710153325"
      },
      "geometry": {
        "type": "Point",
        "coordinates": [
          -42.7784574,
          -14.2345137
        ]
      }
    }
  ]
}
