{
  "type": "FeatureCollection",
  "features": [
    {
      "type": "Feature",
      "id": "node/2888288207",
      "properties": {
        "timestamp": "2019-12-11T21:12:52Z",
        "version": 3,
        "changeset": 78280889,
        "addr:city": "Guanambi",
        "addr:housenumber": "185",
        "addr:street": "Praça José Ferreira",
        "name": "Hotel Leopoldo",
        "phone": "+55 77 3451 5000",
        "stars": "3",
        "tourism": "hotel",
        "id": "node/2888288207"
      },
      "geometry": {
        "type": "Point",
        "coordinates": [
          -42.7810204,
          -14.226499
        ]
      }
    },
    {
      "type": "Feature",
      "id": "node/2888288208",
      "properties": {
        "timestamp": "2015-10-16T02:57:13Z",
        "version": 3,
        "changeset": 34667222,
        "name": "Hotel Recife",
        "tourism": "hotel",
        "id": "node/2888288208"
      },
      "geometry": {
        "type": "Point",
        "coordinates": [
          -42.7791334,
          -14.2231785
        ]
      }
    },
    {
      "type": "Feature",
      "id": "node/2890045002",
      "properties": {
        "timestamp": "2014-05-30T22:30:36Z",
        "version": 1,
        "changeset": 22647654,
        "tourism": "hotel",
        "id": "node/2890045002"
      },
      "geometry": {
        "type": "Point",
        "coordinates": [
          -42.7792571,
          -14.2258844
        ]
      }
    },
    {
      "type": "Feature",
      "id": "node/2893390778",
      "properties": {
        "timestamp": "2017-05-05T12:24:00Z",
        "version": 4,
        "changeset": 48425406,
        "name": "Hotel Boa Vista",
        "tourism": "hotel",
        "id": "node/2893390778"
      },
      "geometry": {
        "type": "Point",
        "coordinates": [
          -42.7729298,
          -14.2241338
        ]
      }
    },
    {
      "type": "Feature",
      "id": "node/3992362111",
      "properties": {
        "timestamp": "2025-01-19T13:11:04Z",
        "version": 2,
        "changeset": 161523797,
        "addr:city": "Guanambi",
        "addr:housenumber": "37",
        "name": "Hotel e Pousada Nossa Senhora Aparecida",
        "tourism": "hotel",
        "id": "node/3992362111"
      },
      "geometry": {
        "type": "Point",
        "coordinates": [
          -42.7655446,
          -14.2119936
        ]
      }
    },
    {
      "type": "Feature",
      "id": "node/3992362126",
      "properties": {
        "timestamp": "2025-01-19T13:11:04Z",
        "version": 2,
        "changeset": 161523797,
        "name": "Pousada e Restaurante Casa Nova",
        "phone": "+55 77 99108 3844",
        "tourism": "hotel",
        "id": "node/3992362126"
      },
      "geometry": {
        "type": "Point",
        "coordinates": [
          -42.7656211,
          -14.2120274
        ]
      }
    },
    {
      "type": "Feature",
      "id": "node/5048865469",
      "properties": {
        "timestamp": "2021-02-22T02:12:45Z",
        "version": 2,
        "changeset": 99705879,
        "addr:city": "Guanambi",
        "addr:housenumber": "51",
        "addr:postcode": "46430-000",
        "addr:street": "Rua Hermes da Fonseca",
        "addr:suburb": "Santo Antônio",
        "contact:facebook": "https://www.facebook.com/Hotel-Sul-Bahia-414845625236939/",
        "email": "hotelsulbahia@hotmail.com",
        "name": "Hotel Sul Bahia",
        "phone": "+55 77 3451 1282",
        "tourism": "hotel",
        "id": "node/5048865469"
      },
      "geometry": {
        "type": "Point",
        "coordinates": [
          -42.7765091,
          -14.234475
        ]
      }
    },
    {
      "type": "Feature",
      "id": "node/5511761242",
      "properties": {
        "timestamp": "2018-03-28T15:01:42Z",
        "version": 1,
        "changeset": 57604339,
        "name": "Hotel do Bel",
        "tourism": "hotel",
        "id": "node/5511761242"
      },
      "geometry": {
        "type": "Point",
        "coordinates": [
          -42.7642635,
          -14.2117732
        ]
      }
    },
    {
      "type": "Feature",
      "id": "node/6060804729",
      "properties": {
        "timestamp": "2025-01-14T21:13:05Z",
        "version": 2,
        "changeset": 161359689,
        "addr:city": "Guanambi",
        "addr:housenumber": "130",
        "addr:postcode": "46430-000",
        "addr:street": "Rua Rogaciano Francisco de Moraes",
        "addr:suburb": "São Francisco",
        "alt_name": "Hotel Portal Guanambi",
        "contact:phone": "+55 77 9 9946 2100",
        "description": "Hotel e convenções",
        "email": "portalguanambi@outlook.pt",
        "name": "Portal Guanambi",
        "phone": "+55 77 3451 2673",
        "tourism": "hotel",
        "website": "www.portalguanambi.com.br",
        "id": "node/6060804729"
      },
      "geometry": {
        "type": "Point",
        "coordinates": [
          -42.7681017,
          -14.2110738
        ]
      }
    },
    {
      "type": "Feature",
      "id": "node/6270720948",
      "properties": {
        "timestamp": "2019-02-11T03:53:29Z",
        "version": 1,
        "changeset": 67087704,
        "internet_access": "yes",
        "name": "Hotel Amarante",
        "tourism": "hotel",
        "id": "node/6270720948"
      },
      "geometry": {
        "type": "Point",
        "coordinates": [
          -42.7799474,
          -14.2336026
        ]
      }
    },
    {
      "type": "Feature",
      "id": "node/7320699178",
      "properties": {
        "timestamp": "2023-01-13T01:41:40Z",
        "version": 2,
        "changeset": 131210345,
        "addr:city": "Guanambi",
        "addr:housenumber": "288",
        "addr:postcode": "46400-000",
        "addr:street": "Avenida Governador Nilo Coelho",
        "addr:suburb": "São Sebastião",
        "contact:instagram": "https://www.instagram.com/hoteldastorres/",
        "contact:whatsapp": "https://api.whatsapp.com/send/?phone=5577998735340&text&type=phone_number&app_absent=0",
        "name": "Hotel das Torres",
        "phone": "+55 77 3451 9612",
        "tourism": "hotel",
        "id": "node/7320699178"
      },
      "geometry": {
        "type": "Point",
        "coordinates": [
          -42.757051,
          -14.2018379
        ]
      }
    },
    {
      "type": "Feature",
      "id": "node/8722988990",
      "properties": {
        "timestamp": "2021-05-11T20:56:09Z",
        "version": 1,
        "changeset": 104535145,
        "addr:city": "Guanambi",
        "addr:housenumber": "2650",
        "addr:postcode": "46430-000",
        "addr:street": "Avenida Prefeito José Neves Teixeira",
        "tourism": "hotel",
        "id": "node/8722988990"
      },
      "geometry": {
        "type": "Point",
        "coordinates": [
          -42.7662722,
          -14.2287618
        ]
      }
    },
    {
      "type": "Feature",
      "id": "node/10271861226",
      "properties": {
        "timestamp": "2022-12-18T19:59:49Z",
        "version": 1,
        "changeset": 130222633,
        "contact:mobile": "+55 77 9 9144 4341;+55 77 9 9904 0542",
        "name": "Hotel Ipanema",
        "tourism": "hotel",
        "id": "node/10271861226"
      },
      "geometry": {
        "type": "Point",
        "coordinates": [
          -42.7662901,
          -14.231741
        ]
      }
    }
  ]
}
