{
  "type": "FeatureCollection",
  "features": [
    {
      "type": "Feature",
      "id": "node/2888208758",
      "properties": {
        "timestamp": "2014-08-22T21:17:00Z",
        "version": 4,
        "changeset": 24942992,
        "amenity": "pharmacy",
        "name": "Farmácia Avenida",
        "id": "node/2888208758"
      },
      "geometry": {
        "type": "Point",
        "coordinates": [
          -42.7829478,
          -14.2169655
        ]
      }
    },
    {
      "type": "Feature",
      "id": "node/2888208759",
      "properties": {
        "timestamp": "2014-05-29T22:05:12Z",
        "version": 1,
        "changeset": 22628292,
        "amenity": "pharmacy",
        "id": "node/2888208759"
      },
      "geometry": {
        "type": "Point",
        "coordinates": [
          -42.7792912,
          -14.2260828
        ]
      }
    },
    {
      "type": "Feature",
      "id": "node/2888208761",
      "properties": {
        "timestamp": "2021-05-08T18:02:41Z",
        "version": 2,
        "changeset": 104374299,
        "addr:city": "Guanambi",
        "addr:postcode": "46430-000",
        "addr:street": "Rua Coronel Zequinha",
        "addr:suburb": "Centro",
        "amenity": "pharmacy",
        "healthcare": "pharmacy",
        "name": "Farmácia Santa Rita",
        "opening_hours": "Mo-Su 07:00-22:00",
        "phone": "+55 77 3451 3151",
        "id": "node/2888208761"
      },
      "geometry": {
        "type": "Point",
        "coordinates": [
          -42.7798384,
          -14.2281861
        ]
      }
    },
    {
      "type": "Feature",
      "id": "node/2888208764",
      "properties": {
        "timestamp": "2014-05-30T18:11:58Z",
        "version": 3,
        "changeset": 22642656,
        "amenity": "pharmacy",
        "name": "Farmácia Guanambi",
        "id": "node/2888208764"
      },
      "geometry": {
        "type": "Point",
        "coordinates": [
          -42.7795675,
          -14.2273802
        ]
      }
    },
    {
      "type": "Feature",
      "id": "node/2889601305",
      "properties": {
        "timestamp": "2021-06-22T17:55:26Z",
        "version": 4,
        "changeset": 106792539,
        "addr:city": "Guanambi",
        "addr:housenumber": "141",
        "addr:postcode": "46430-000",
        "addr:street": "Rua Francisco José Fernades",
        "addr:suburb": "Centro",
        "amenity": "pharmacy",
        "name": "Farmácia Vieira",
        "phone": "+55 77 3451-2452",
        "start_date": "1978",
        "id": "node/2889601305"
      },
      "geometry": {
        "type": "Point",
        "coordinates": [
          -42.7794577,
          -14.2271702
        ]
      }
    },
    {
      "type": "Feature",
      "id": "node/2890052429",
      "properties": {
        "timestamp": "2020-03-26T07:09:03Z",
        "version": 5,
        "changeset": 82644759,
        "amenity": "pharmacy",
        "brand": "Pague Menos",
        "brand:wikidata": "Q7124466",
        "brand:wikipedia": "pt:Pague Menos",
        "dispensing": "no",
        "healthcare": "pharmacy",
        "name": "Pague Menos",
        "id": "node/2890052429"
      },
      "geometry": {
        "type": "Point",
        "coordinates": [
          -42.7770977,
          -14.2228364
        ]
      }
    },
    {
      "type": "Feature",
      "id": "node/2929692274",
      "properties": {
        "timestamp": "2014-06-23T18:30:29Z",
        "version": 1,
        "changeset": 23107510,
        "amenity": "pharmacy",
        "name": "Farmácia Martins",
        "id": "node/2929692274"
      },
      "geometry": {
        "type": "Point",
        "coordinates": [
          -42.779573,
          -14.2193884
        ]
      }
    },
    {
      "type": "Feature",
      "id": "node/3971795373",
      "properties": {
        "timestamp": "2016-01-27T19:04:57Z",
        "version": 1,
        "changeset": 36843351,
        "addr:city": "Guanambi",
        "addr:housenumber": "50",
        "addr:street": "Rua Coronel Zequinha",
        "addr:suburb": "Centro",
        "amenity": "pharmacy",
        "name": "Droga Center",
        "id": "node/3971795373"
      },
      "geometry": {
        "type": "Point",
        "coordinates": [
          -42.7801878,
          -14.2283849
        ]
      }
    },
    {
      "type": "Feature",
      "id": "node/3971795399",
      "properties": {
        "timestamp": "2016-01-27T19:04:59Z",
        "version": 1,
        "changeset": 36843351,
        "addr:city": "Guanambi",
        "addr:street": "Praça Jetúlio Vargas",
        "addr:suburb": "Centro",
        "amenity": "pharmacy",
        "name": "Farma Vida drogaria",
        "id": "node/3971795399"
      },
      "geometry": {
        "type": "Point",
        "coordinates": [
          -42.7810195,
          -14.2281126
        ]
      }
    },
    {
      "type": "Feature",
      "id": "node/3992362107",
      "properties": {
        "timestamp": "2016-02-06T17:45:29Z",
        "version": 1,
        "changeset": 37045456,
        "addr:city": "Guanambi",
        "addr:housenumber": "1635",
        "addr:street": "Avenida Doutor José Humberto Nunes",
        "amenity": "pharmacy",
        "name": "Farmácia Regional",
        "id": "node/3992362107"
      },
      "geometry": {
        "type": "Point",
        "coordinates": [
          -42.7659666,
          -14.2135072
        ]
      }
    },
    {
      "type": "Feature",
      "id": "node/3992362108",
      "properties": {
        "timestamp": "2021-06-21T17:27:19Z",
        "version": 2,
        "changeset": 106729853,
        "addr:city": "Guanambi",
        "addr:housenumber": "36",
        "addr:street": "Rua Francisco José Fernades",
        "amenity": "pharmacy",
        "name": "Farmácia do Trabalhador do Brasil",
        "short_name": "FTB",
        "id": "node/3992362108"
      },
      "geometry": {
        "type": "Point",
        "coordinates": [
          -42.7791274,
          -14.2262608
        ]
      }
    },
    {
      "type": "Feature",
      "id": "node/4617443614",
      "properties": {
        "timestamp": "2017-01-19T01:40:36Z",
        "version": 1,
        "changeset": 45286546,
        "addr:city": "Guanambi",
        "addr:housenumber": "217",
        "addr:postcode": "46430-000",
        "addr:street": "Rua Rui Barbosa",
        "addr:suburb": "Centro",
        "amenity": "pharmacy",
        "name": "Sil Farma",
        "phone": "+55 77 3451 6641",
        "id": "node/4617443614"
      },
      "geometry": {
        "type": "Point",
        "coordinates": [
          -42.7796412,
          -14.2244716
        ]
      }
    },
    {
      "type": "Feature",
      "id": "node/4840574459",
      "properties": {
        "timestamp": "2022-10-13T00:35:16Z",
        "version": 2,
        "changeset": 127441357,
        "addr:city": "Guanambi",
        "addr:housenumber": "168",
        "addr:postcode": "46430-000",
        "addr:street": "Rua Rio Grande Norte",
        "addr:suburb": "Brasília",
        "amenity": "pharmacy",
        "healthcare": "pharmacy",
        "name": "Farmácia Saúde",
        "phone": "+55 77 3451 9230",
        "id": "node/4840574459"
      },
      "geometry": {
        "type": "Point",
        "coordinates": [
          -42.7664244,
          -14.237976
        ]
      }
    },
    {
      "type": "Feature",
      "id": "node/6684703198",
      "properties": {
        "timestamp": "2019-08-05T14:25:43Z",
        "version": 1,
        "changeset": 73027376,
        "addr:city": "Guanambi",
        "addr:housenumber": "357",
        "addr:postcode": "46430-000",
        "addr:street": "Avenida Castelo Branco",
        "addr:suburb": "Aeroporto Velho",
        "amenity": "pharmacy",
        "contact:phone": "+55 77 9 9935 7152",
        "name": "Farmácia Santa Aliança",
        "phone": "+55 77 3452 0608",
        "id": "node/6684703198"
      },
      "geometry": {
        "type": "Point",
        "coordinates": [
          -42.7850271,
          -14.2185847
        ]
      }
    },
    {
      "type": "Feature",
      "id": "node/7050663203",
      "properties": {
        "timestamp": "2019-12-12T01:21:04Z",
        "version": 1,
        "changeset": 78285440,
        "addr:city": "Guanambi",
        "addr:housenumber": "33",
        "addr:street": "Rua Coronel Zequinha",
        "amenity": "pharmacy",
        "name": "Farmácia Ultra Econômica",
        "id": "node/7050663203"
      },
      "geometry": {
        "type": "Point",
        "coordinates": [
          -42.7799477,
          -14.2283613
        ]
      }
    },
    {
      "type": "Feature",
      "id": "node/7050663209",
      "properties": {
        "timestamp": "2019-12-12T01:21:04Z",
        "version": 1,
        "changeset": 78285440,
        "amenity": "pharmacy",
        "name": "FarmaMed",
        "phone": "+55 77 9 9855 1900",
        "id": "node/7050663209"
      },
      "geometry": {
        "type": "Point",
        "coordinates": [
          -42.7800476,
          -14.2285713
        ]
      }
    },
    {
      "type": "Feature",
      "id": "node/7050663217",
      "properties": {
        "timestamp": "2019-12-12T01:21:04Z",
        "version": 1,
        "changeset": 78285440,
        "amenity": "pharmacy",
        "name": "Farmácia Nossa Senhora de Fátima",
        "id": "node/7050663217"
      },
      "geometry": {
        "type": "Point",
        "coordinates": [
          -42.7801723,
          -14.2289099
        ]
      }
    },
    {
      "type": "Feature",
      "id": "node/8416394487",
      "properties": {
        "timestamp": "2021-02-11T21:00:39Z",
        "version": 1,
        "changeset": 99134098,
        "addr:street": "Avenida Barão do Rio Branco",
        "amenity": "pharmacy",
        "name": "Farmácia Ultra Econômica",
        "phone": "+557734511985",
        "id": "node/8416394487"
      },
      "geometry": {
        "type": "Point",
        "coordinates": [
          -42.7784749,
          -14.2256654
        ]
      }
    },
    {
      "type": "Feature",
      "id": "node/8710687808",
      "properties": {
        "timestamp": "2021-05-07T20:12:21Z",
        "version": 1,
        "changeset": 104339491,
        "addr:city": "Guanambi",
        "addr:housenumber": "162",
        "addr:postcode": "46430-000",
        "addr:street": "Rua Manoel Vitorino",
        "addr:suburb": "Centro",
        "amenity": "pharmacy",
        "healthcare": "pharmacy",
        "name": "NB Farma",
        "phone": "+55 77 3451-3033",
        "id": "node/8710687808"
      },
      "geometry": {
        "type": "Point",
        "coordinates": [
          -42.7807132,
          -14.2301213
        ]
      }
    },
    {
      "type": "Feature",
      "id": "node/8710687810",
      "properties": {
        "timestamp": "2021-05-08T18:09:21Z",
        "version": 2,
        "changeset": 104374507,
        "addr:city": "Guanambi",
        "addr:housenumber": "150",
        "addr:postcode": "46430-000",
        "addr:street": "Rua Manoel Vitorino",
        "addr:suburb": "Centro",
        "amenity": "pharmacy",
        "healthcare": "pharmacy",
        "mobile": "+557734512283",
        "name": "Farmácia Beija-flor",
        "id": "node/8710687810"
      },
      "geometry": {
        "type": "Point",
        "coordinates": [
          -42.7806999,
          -14.2300272
        ]
      }
    },
    {
      "type": "Feature",
      "id": "node/9029185868",
      "properties": {
        "timestamp": "2021-08-23T16:40:14Z",
        "version": 1,
        "changeset": 110127419,
        "addr:city": "Guanambi",
        "addr:housenumber": "446",
        "addr:postcode": "46430-000",
        "addr:street": "Rua Casemiro de Abreu",
        "addr:suburb": "Centro",
        "amenity": "pharmacy",
        "dispensing": "yes",
        "healthcare": "pharmacy",
        "name": "Farmácia São Roque",
        "phone": "+55 77 3451 2965",
        "id": "node/9029185868"
      },
      "geometry": {
        "type": "Point",
        "coordinates": [
          -42.7822918,
          -14.2228495
        ]
      }
    },
    {
      "type": "Feature",
      "id": "node/9029202695",
      "properties": {
        "timestamp": "2021-08-23T16:20:14Z",
        "version": 1,
        "changeset": 110126369,
        "addr:city": "Guanambi",
        "addr:street": "Rua Alto da Boa Vista",
        "amenity": "pharmacy",
        "dispensing": "no",
        "healthcare": "pharmacy",
        "name": "Farmácia Básica",
        "id": "node/9029202695"
      },
      "geometry": {
        "type": "Point",
        "coordinates": [
          -42.7832771,
          -14.2231436
        ]
      }
    },
    {
      "type": "Feature",
      "id": "node/9046296663",
      "properties": {
        "timestamp": "2021-08-29T21:20:53Z",
        "version": 1,
        "changeset": 110427684,
        "addr:city": "Guanambi",
        "addr:housenumber": "21",
        "addr:postcode": "46430-000",
        "addr:street": "Rua 2 de Julho",
        "addr:suburb": "Centro",
        "amenity": "pharmacy",
        "dispensing": "yes",
        "healthcare": "pharmacy",
        "name": "Farrmácia Saúde",
        "phone": "+557734515068",
        "id": "node/9046296663"
      },
      "geometry": {
        "type": "Point",
        "coordinates": [
          -42.7796537,
          -14.2275683
        ]
      }
    }
  ]
}
