{
  "type": "FeatureCollection",
  "features": [
    {
      "type": "Feature",
      "id": "way/343336852",
      "properties": {
        "timestamp": "2015-05-06T23:48:17Z",
        "version": 1,
        "changeset": 30858153,
        "access": "public",
        "amenity": "clinic",
        "id": "way/343336852"
      },
      "geometry": {
        "type": "Polygon",
        "coordinates": [
          [
            [
              -36.6617167,
              -9.7676274
            ],
            [
              -36.6617624,
              -9.7679368
            ],
            [
              -36.6613439,
              -9.7679922
            ],
            [
              -36.6612408,
              -9.7677399
            ],
            [
              -36.6617167,
              -9.7676274
            ]
          ]
        ]
      }
    },
    {
      "type": "Feature",
      "id": "way/385067902",
      "properties": {
        "timestamp": "2016-10-28T02:44:54Z",
        "version": 3,
        "changeset": 43234632,
        "addr:city": "Arapiraca",
        "addr:country": "BR",
        "addr:housenumber": "1065",
        "addr:postcode": "57313-390",
        "addr:state": "Alagoas",
        "addr:street": "Rua Governador Silvestre Pericles",
        "addr:suburb": "Brasilia",
        "amenity": "clinic",
        "name": "SAMU Central Regional de Arapiraca",
        "note": "Ultima atualizacao de 24 de fevereiro de 2015",
        "short_name": "SAMU",
        "source": "Secretaria de Estado da Saude de Alagoas",
        "id": "way/385067902"
      },
      "geometry": {
        "type": "Polygon",
        "coordinates": [
          [
            [
              -36.646607,
              -9.7576091
            ],
            [
              -36.646041,
              -9.7571157
            ],
            [
              -36.6460746,
              -9.7565781
            ],
            [
              -36.6461417,
              -9.7565781
            ],
            [
              -36.6461428,
              -9.7566056
            ],
            [
              -36.6467931,
              -9.7567105
            ],
            [
              -36.646607,
              -9.7576091
            ]
          ]
        ]
      }
    },
    {
      "type": "Feature",
      "id": "way/1017720399",
      "properties": {
        "timestamp": "2022-01-03T03:22:52Z",
        "version": 1,
        "changeset": 115691980,
        "addr:city": "Arapiraca",
        "addr:postcode": "57310-245",
        "addr:street": "Rua Lino Roberto",
        "addr:suburb": "Santa Edwiges",
        "amenity": "clinic",
        "building": "yes",
        "healthcare": "clinic",
        "name": "Terceiro Centro De Saude",
        "opening_hours": "Mo-Sa 08:00-20:00",
        "id": "way/1017720399"
      },
      "geometry": {
        "type": "Polygon",
        "coordinates": [
          [
            [
              -36.6595741,
              -9.7357473
            ],
            [
              -36.659753,
              -9.7360398
            ],
            [
              -36.6595131,
              -9.736172
            ],
            [
              -36.6593058,
              -9.7358555
            ],
            [
              -36.6595741,
              -9.7357473
            ]
          ]
        ]
      }
    },
    {
      "type": "Feature",
      "id": "node/2823483376",
      "properties": {
        "timestamp": "2020-01-08T04:22:56Z",
        "version": 2,
        "changeset": 79320447,
        "access": "yes",
        "amenity": "clinic",
        "name": "Unidade de Saúde da Família",
        "id": "node/2823483376"
      },
      "geometry": {
        "type": "Point",
        "coordinates": [
          -36.5855649,
          -9.7019824
        ]
      }
    },
    {
      "type": "Feature",
      "id": "node/2825622055",
      "properties": {
        "timestamp": "2014-04-30T02:22:09Z",
        "version": 1,
        "changeset": 22034867,
        "access": "public",
        "addr:hamlet": "Povoado Bom Jardim",
        "addr:number": "5",
        "addr:postcode": "57300000",
        "addr:street": "POVOADO BOM JARDIM",
        "amenity": "clinic",
        "name": "Posto de Saúde",
        "id": "node/2825622055"
      },
      "geometry": {
        "type": "Point",
        "coordinates": [
          -36.5829011,
          -9.7741242
        ]
      }
    },
    {
      "type": "Feature",
      "id": "node/3249200763",
      "properties": {
        "timestamp": "2024-02-20T16:35:02Z",
        "version": 3,
        "changeset": 147699575,
        "access": "yes",
        "addr:city": "Arapiraca",
        "addr:housenumber": "1003",
        "addr:postcode": "57312485",
        "addr:street": "Rua Nossa Senhora da Salete",
        "addr:suburb": "Itapoã",
        "amenity": "clinic",
        "name": "UBS Francisco Pereira Lima - 4º Centro de Saúde",
        "id": "node/3249200763"
      },
      "geometry": {
        "type": "Point",
        "coordinates": [
          -36.6444641,
          -9.7499593
        ]
      }
    },
    {
      "type": "Feature",
      "id": "node/3665038075",
      "properties": {
        "timestamp": "2015-07-24T20:07:18Z",
        "version": 1,
        "changeset": 32859078,
        "amenity": "clinic",
        "name": "Unidade de Saúde da Família Manoel Teles",
        "operator": "Prefeitura",
        "id": "node/3665038075"
      },
      "geometry": {
        "type": "Point",
        "coordinates": [
          -36.6702868,
          -9.7575931
        ]
      }
    }
  ]
}
