{
  "type": "FeatureCollection",
  "features": [
    {
      "type": "Feature",
      "id": "way/318346399",
      "properties": {
        "timestamp": "2022-03-08T19:39:10Z",
        "version": 2,
        "changeset": 118250190,
        "addr:city": "Arapiraca",
        "addr:street": "Rua José Leite Bezerra",
        "addr:suburb": "Santa Edwiges",
        "building": "yes",
        "government": "social_security",
        "name": "Instituto Nacional do Seguro Social - INSS (Arapiraca)",
        "office": "government",
        "opening_hours": "Mo-Sa 07:00-17:00",
        "operator": "Instituto Nacional do Seguro Social",
        "operator:short": "INSS",
        "operator:wikidata": "Q10302614",
        "operator:wikipedia": "pt:Instituto Nacional do Seguro Social",
        "id": "way/318346399"
      },
      "geometry": {
        "type": "Polygon",
        "coordinates": [
          [
            [
              -36.6577061,
              -9.7328522
            ],
            [
              -36.6576456,
              -9.7328792
            ],
            [
              -36.6576629,
              -9.7329169
            ],
            [
              -36.657553,
              -9.7329658
            ],
            [
              -36.657536,
              -9.7329478
            ],
            [
              -36.6574495,
              -9.7329864
            ],
            [
              -36.6572822,
              -9.7326214
            ],
            [
              -36.6575463,
              -9.7325037
            ],
            [
              -36.6577061,
              -9.7328522
            ]
          ]
        ]
      }
    },
    {
      "type": "Feature",
      "id": "way/318392040",
      "properties": {
        "timestamp": "2022-01-03T03:22:52Z",
        "version": 3,
        "changeset": 115691980,
        "addr:city": "Arapiraca",
        "addr:postcode": "57310-245",
        "addr:street": "Rua José Jailson Nunes",
        "addr:suburb": "Santa Edwiges",
        "building": "yes",
        "building:levels": "1",
        "name": "Câmara Municipal de Arapiraca",
        "office": "government",
        "id": "way/318392040"
      },
      "geometry": {
        "type": "Polygon",
        "coordinates": [
          [
            [
              -36.6585262,
              -9.7347533
            ],
            [
              -36.6588138,
              -9.7352789
            ],
            [
              -36.6582222,
              -9.7353634
            ],
            [
              -36.6581364,
              -9.7348168
            ],
            [
              -36.6585262,
              -9.7347533
            ]
          ]
        ]
      }
    },
    {
      "type": "Feature",
      "id": "way/1017720398",
      "properties": {
        "timestamp": "2022-01-03T03:22:52Z",
        "version": 1,
        "changeset": 115691980,
        "addr:city": "Arapiraca",
        "addr:housenumber": "72",
        "addr:postcode": "57310-245",
        "addr:street": "Rua José Jailson Nunes",
        "addr:suburb": "Santa Edwiges",
        "building": "yes",
        "government": "public_service",
        "name": "Justiça Federal - Subseção Judiciária",
        "office": "government",
        "id": "way/1017720398"
      },
      "geometry": {
        "type": "Polygon",
        "coordinates": [
          [
            [
              -36.6583951,
              -9.7354748
            ],
            [
              -36.6584906,
              -9.7359937
            ],
            [
              -36.6577914,
              -9.7364084
            ],
            [
              -36.6577182,
              -9.735595
            ],
            [
              -36.6583951,
              -9.7354748
            ]
          ]
        ]
      }
    },
    {
      "type": "Feature",
      "id": "way/1017721229",
      "properties": {
        "timestamp": "2022-01-03T03:29:03Z",
        "version": 1,
        "changeset": 115692055,
        "addr:city": "Arapiraca",
        "addr:housenumber": "2",
        "addr:postcode": "57310-255",
        "addr:street": "Rua José Jailson Nunes",
        "addr:suburb": "Santa Edwiges",
        "building": "yes",
        "name": "MPT - Ministério Público do Trabalho - Procuradoria do Trabalho no Município de Arapiraca",
        "office": "government",
        "id": "way/1017721229"
      },
      "geometry": {
        "type": "Polygon",
        "coordinates": [
          [
            [
              -36.6558003,
              -9.7358563
            ],
            [
              -36.6561826,
              -9.735797
            ],
            [
              -36.6562286,
              -9.7361179
            ],
            [
              -36.6559136,
              -9.7361667
            ],
            [
              -36.6558003,
              -9.7358563
            ]
          ]
        ]
      }
    },
    {
      "type": "Feature",
      "id": "way/1017721230",
      "properties": {
        "timestamp": "2022-01-03T03:29:03Z",
        "version": 1,
        "changeset": 115692055,
        "addr:city": "Arapiraca",
        "addr:housenumber": "390",
        "addr:postcode": "57312-675",
        "addr:street": "Rua José Jailson Nunes",
        "addr:suburb": "Santa Edwiges",
        "building": "yes",
        "government": "public_service",
        "name": "MPF - Ministerio Publico Federal",
        "office": "government",
        "id": "way/1017721230"
      },
      "geometry": {
        "type": "Polygon",
        "coordinates": [
          [
            [
              -36.6557402,
              -9.7358598
            ],
            [
              -36.6559454,
              -9.73654
            ],
            [
              -36.6555384,
              -9.736683
            ],
            [
              -36.6553792,
              -9.7359226
            ],
            [
              -36.6557402,
              -9.7358598
            ]
          ]
        ]
      }
    }
  ]
}
