{
  "type": "FeatureCollection",
  "features": [
    {
      "type": "Feature",
      "id": "node/12424771557",
      "properties": {
        "timestamp": "2024-12-17T14:13:57Z",
        "version": 1,
        "changeset": 160301339,
        "addr:city": "Rio das Flores",
        "addr:housenumber": "40",
        "addr:postcode": "27660-000",
        "addr:street": "Rua Desembargador Aniceto de Medeiros Corrêa",
        "addr:suburb": "Centro",
        "name": "Pousada Vila Flor",
        "tourism": "hotel",
        "id": "node/12424771557"
      },
      "geometry": {
        "type": "Point",
        "coordinates": [
          -43.585277,
          -22.1659383
        ]
      }
    },
    {
      "type": "Feature",
      "id": "node/12424771560",
      "properties": {
        "timestamp": "2024-12-17T14:13:57Z",
        "version": 1,
        "changeset": 160301339,
        "addr:city": "Rio das Flores",
        "addr:housenumber": "135",
        "addr:postcode": "27660-000",
        "addr:street": "Praça Coronel Sucena",
        "addr:suburb": "Centro",
        "name": "Pousada Lírio do Campo",
        "phone": "+55 24 2458 1286",
        "tourism": "hotel",
        "id": "node/12424771560"
      },
      "geometry": {
        "type": "Point",
        "coordinates": [
          -43.5853657,
          -22.1662472
        ]
      }
    }
  ]
}
