{
  "type": "FeatureCollection",
  "features": [
    {
      "type": "Feature",
      "id": "node/12424771528",
      "properties": {
        "timestamp": "2024-12-17T14:13:57Z",
        "version": 1,
        "changeset": 160301339,
        "addr:city": "Rio das Flores",
        "addr:housenumber": "60",
        "addr:postcode": "27660-000",
        "addr:street": "Rua João Ribeiro de Carvalho",
        "addr:suburb": "Ingleses",
        "amenity": "pharmacy",
        "healthcare": "pharmacy",
        "name": "Farmácia do Povo",
        "operator": "Município de Rio das Flores",
        "id": "node/12424771528"
      },
      "geometry": {
        "type": "Point",
        "coordinates": [
          -43.5790874,
          -22.1674431
        ]
      }
    },
    {
      "type": "Feature",
      "id": "node/12424771558",
      "properties": {
        "timestamp": "2024-12-17T14:13:57Z",
        "version": 1,
        "changeset": 160301339,
        "addr:city": "Rio das Flores",
        "addr:housenumber": "12",
        "addr:postcode": "27660-000",
        "addr:street": "Rua Desembargador Aniceto de Medeiros Corrêa",
        "addr:suburb": "Centro",
        "amenity": "pharmacy",
        "healthcare": "pharmacy",
        "name": "Drogaria Mega Farma",
        "id": "node/12424771558"
      },
      "geometry": {
        "type": "Point",
        "coordinates": [
          -43.5851053,
          -22.1665774
        ]
      }
    },
    {
      "type": "Feature",
      "id": "node/12424771561",
      "properties": {
        "timestamp": "2024-12-17T14:13:57Z",
        "version": 1,
        "changeset": 160301339,
        "addr:city": "Rio das Flores",
        "addr:housenumber": "78",
        "addr:postcode": "27660-000",
        "addr:street": "Praça Coronel Sucena",
        "addr:suburb": "Centro",
        "amenity": "pharmacy",
        "healthcare": "pharmacy",
        "name": "Drogaria Santana",
        "id": "node/12424771561"
      },
      "geometry": {
        "type": "Point",
        "coordinates": [
          -43.5854846,
          -22.1659565
        ]
      }
    }
  ]
}
