{
  "type": "FeatureCollection",
  "features": [
    {
      "type": "Feature",
      "id": "way/426635255",
      "properties": {
        "timestamp": "2022-12-19T22:49:36Z",
        "version": 2,
        "changeset": 130266219,
        "addr:city": "São Mateus",
        "addr:street": "Rodovia Governador Mário Covas",
        "addr:suburb": "Nova Era",
        "email": "ceasanorte@ceasa.es.gov.br",
        "government": "agriculture",
        "name": "Ceasa - Centrais de Abastecimento do Espírito Santo S.A. Norte - São Mateus",
        "office": "government",
        "phone": "+55 27 3773 4089",
        "id": "way/426635255"
      },
      "geometry": {
        "type": "Polygon",
        "coordinates": [
          [
            [
              -39.8644405,
              -18.7512943
            ],
            [
              -39.8646677,
              -18.753433
            ],
            [
              -39.8631827,
              -18.7535681
            ],
            [
              -39.8631802,
              -18.7535397
            ],
            [
              -39.8631743,
              -18.7534744
            ],
            [
              -39.8631684,
              -18.753409
            ],
            [
              -39.8631379,
              -18.7530703
            ],
            [
              -39.862974,
              -18.7530785
            ],
            [
              -39.8628053,
              -18.7515061
            ],
            [
              -39.8644405,
              -18.7512943
            ]
          ]
        ]
      }
    },
    {
      "type": "Feature",
      "id": "way/543157113",
      "properties": {
        "timestamp": "2022-12-13T19:27:44Z",
        "version": 2,
        "changeset": 130047943,
        "addr:city": "São Mateus",
        "addr:housenumber": "538",
        "addr:postcode": "29930-930",
        "addr:street": "Avenida Jones dos Santos Neves",
        "addr:suburb": "Centro",
        "building": "yes",
        "building:levels": "3",
        "email": "aps07001100@inss.gov.br",
        "government": "social_security",
        "name": "Agência da Previdência Social em São Mateus",
        "office": "government",
        "operator": "Instituto Nacional de Seguridade Social - Inss",
        "phone": "+55 27 3763 2329",
        "id": "way/543157113"
      },
      "geometry": {
        "type": "Polygon",
        "coordinates": [
          [
            [
              -39.8570417,
              -18.7188786
            ],
            [
              -39.8567898,
              -18.7188786
            ],
            [
              -39.8567898,
              -18.7188185
            ],
            [
              -39.8567571,
              -18.7188185
            ],
            [
              -39.8567571,
              -18.7186522
            ],
            [
              -39.8569571,
              -18.7186544
            ],
            [
              -39.8569581,
              -18.7186146
            ],
            [
              -39.8570456,
              -18.7186155
            ],
            [
              -39.8570417,
              -18.7188786
            ]
          ]
        ]
      }
    },
    {
      "type": "Feature",
      "id": "way/544132622",
      "properties": {
        "timestamp": "2022-12-14T19:23:09Z",
        "version": 2,
        "changeset": 130087454,
        "addr:city": "São Mateus",
        "addr:housenumber": "218",
        "addr:postcode": "29930-000",
        "addr:street": "Avenida Jones dos Santos Neves",
        "addr:suburb": "Centro",
        "building": "yes",
        "email": "saomateus@incaper.es.gov.br",
        "government": "agriculture",
        "name": "Escritório Local de Desenvolvimento Rural de São Mateus",
        "office": "government",
        "operator": "Instituto Capixaba de Pesquisa, Assistência Técnica e Extensão Rural - Incaper",
        "phone": "+55 27 3773 5276",
        "id": "way/544132622"
      },
      "geometry": {
        "type": "Polygon",
        "coordinates": [
          [
            [
              -39.8558293,
              -18.7161892
            ],
            [
              -39.8557742,
              -18.7160297
            ],
            [
              -39.855921,
              -18.7159885
            ],
            [
              -39.8559761,
              -18.7161479
            ],
            [
              -39.8558293,
              -18.7161892
            ]
          ]
        ]
      }
    },
    {
      "type": "Feature",
      "id": "way/544132623",
      "properties": {
        "timestamp": "2022-12-14T19:23:09Z",
        "version": 2,
        "changeset": 130087454,
        "addr:city": "São Mateus",
        "addr:postcode": "29930-000",
        "addr:street": "Avenida Jones dos Santos Neves",
        "addr:suburb": "Centro",
        "building": "yes",
        "building:levels": "2",
        "email": "sresaomateus@sedu.es.gov.br",
        "government": "education",
        "name": "Superintendência Regional de Educação de São Mateus",
        "office": "government",
        "operator": "Secretaria de Estado da Educação - Sedu",
        "phone": "+55 27 3767 7662",
        "id": "way/544132623"
      },
      "geometry": {
        "type": "Polygon",
        "coordinates": [
          [
            [
              -39.8558392,
              -18.7159103
            ],
            [
              -39.8557702,
              -18.7159279
            ],
            [
              -39.8556713,
              -18.7156414
            ],
            [
              -39.8556859,
              -18.7156376
            ],
            [
              -39.8556756,
              -18.7156078
            ],
            [
              -39.8558142,
              -18.715572
            ],
            [
              -39.8558349,
              -18.7156318
            ],
            [
              -39.8557671,
              -18.7156491
            ],
            [
              -39.8557953,
              -18.7157308
            ],
            [
              -39.855809,
              -18.7157273
            ],
            [
              -39.8558282,
              -18.7157829
            ],
            [
              -39.8557988,
              -18.7157904
            ],
            [
              -39.8558268,
              -18.7158716
            ],
            [
              -39.8558781,
              -18.7158585
            ],
            [
              -39.8558987,
              -18.7159184
            ],
            [
              -39.855851,
              -18.7159305
            ],
            [
              -39.8558466,
              -18.7159316
            ],
            [
              -39.8558392,
              -18.7159103
            ]
          ]
        ]
      }
    },
    {
      "type": "Feature",
      "id": "way/584805921",
      "properties": {
        "timestamp": "2024-12-07T18:44:51Z",
        "version": 5,
        "changeset": 160036393,
        "addr:city": "São Mateus",
        "addr:country": "BR",
        "addr:postcode": "29933-520",
        "addr:state": "ES",
        "addr:street": "Rua Coronel Cunha Junior",
        "addr:suburb": "Fátima",
        "admin_level": "8",
        "building": "yes",
        "email": "obras@saomateus.es.gov.br;infraestrutura@saomateus.es.gov.br",
        "government": "administrative",
        "name": "Secretaria Municipal de Obras, Infraestrutura e Transporte",
        "nohousenumber": "yes",
        "office": "government",
        "opening_hours": "Mo-Fr 12:00-18:00",
        "phone": "(27) 3767-8553;(27) 3763-1008",
        "website": "http://www.saomateus.es.gov.br/site/secretaria-obras-infraestrutura-sao-mateus.aspx",
        "id": "way/584805921"
      },
      "geometry": {
        "type": "Polygon",
        "coordinates": [
          [
            [
              -39.8492762,
              -18.7140969
            ],
            [
              -39.8489047,
              -18.7140813
            ],
            [
              -39.8489078,
              -18.714014
            ],
            [
              -39.8492793,
              -18.7140298
            ],
            [
              -39.8492762,
              -18.7140969
            ]
          ]
        ]
      }
    },
    {
      "type": "Feature",
      "id": "way/584960589",
      "properties": {
        "timestamp": "2022-12-13T17:31:27Z",
        "version": 3,
        "changeset": 130044645,
        "addr:city": "São Mateus",
        "addr:country": "BR",
        "addr:housenumber": "194",
        "addr:postcode": "29933-060",
        "addr:state": "ES",
        "addr:street": "Rua Duque de Caxias",
        "addr:suburb": "Carapina",
        "admin_level": "8",
        "building": "yes",
        "email": "educacao@saomateus.es.gov.br",
        "government": "administrative",
        "name": "Secretaria Municipal de Educação",
        "office": "government",
        "opening_hours": "Mo-Fr 07:30-11:30",
        "website": "http://www.saomateus.es.gov.br/site/secretaria-educacao-sao-mateus.aspx",
        "id": "way/584960589"
      },
      "geometry": {
        "type": "Polygon",
        "coordinates": [
          [
            [
              -39.8519273,
              -18.7216257
            ],
            [
              -39.8520887,
              -18.7222442
            ],
            [
              -39.8519432,
              -18.7222782
            ],
            [
              -39.8517818,
              -18.7216598
            ],
            [
              -39.8519273,
              -18.7216257
            ]
          ]
        ]
      }
    },
    {
      "type": "Feature",
      "id": "way/591867713",
      "properties": {
        "timestamp": "2022-12-14T19:29:18Z",
        "version": 3,
        "changeset": 130087614,
        "addr:city": "São Mateus",
        "addr:housenumber": "142",
        "addr:postcode": "29933-640",
        "addr:street": "Rua Jair Coelho",
        "addr:suburb": "Fátima",
        "building": "yes",
        "building:levels": "1",
        "email": "elsm@idaf.es.gov.br",
        "government": "agriculture",
        "name": "Instituto de Defesa Agropecuária e Florestal do Espírito Santo - Idaf",
        "office": "government",
        "opening_hours": "Mo-Fr 07:30-17:00",
        "phone": "+55 27 37631316",
        "website": "www.idaf.es.gov.br",
        "id": "way/591867713"
      },
      "geometry": {
        "type": "Polygon",
        "coordinates": [
          [
            [
              -39.8487585,
              -18.7174994
            ],
            [
              -39.8487788,
              -18.7175805
            ],
            [
              -39.8487377,
              -18.7175898
            ],
            [
              -39.8487289,
              -18.7175546
            ],
            [
              -39.8486913,
              -18.7175631
            ],
            [
              -39.8486993,
              -18.7175948
            ],
            [
              -39.8485798,
              -18.7176218
            ],
            [
              -39.8485657,
              -18.7175653
            ],
            [
              -39.8485931,
              -18.7175591
            ],
            [
              -39.8485813,
              -18.717512
            ],
            [
              -39.8486947,
              -18.7174865
            ],
            [
              -39.8487012,
              -18.7175124
            ],
            [
              -39.8487585,
              -18.7174994
            ]
          ]
        ]
      }
    },
    {
      "type": "Feature",
      "id": "way/1121715828",
      "properties": {
        "timestamp": "2022-12-13T14:35:15Z",
        "version": 1,
        "changeset": 130039049,
        "addr:city": "São Mateus",
        "addr:housenumber": "406",
        "addr:postcode": "29930-360",
        "addr:street": "Rua Coronel Constantino Cunha",
        "addr:suburb": "Centro",
        "building": "yes",
        "email": "aresmateus@sefaz.es.gov.br",
        "government": "tax",
        "name": "Agência da Receita Estadual de São Mateus",
        "office": "government",
        "operator": "Secretaria de Estado da Fazenda",
        "phone": "+55 27 3767 1142",
        "id": "way/1121715828"
      },
      "geometry": {
        "type": "Polygon",
        "coordinates": [
          [
            [
              -39.8517937,
              -18.7152569
            ],
            [
              -39.8515702,
              -18.7153235
            ],
            [
              -39.8515361,
              -18.7152209
            ],
            [
              -39.8515735,
              -18.7152097
            ],
            [
              -39.8515648,
              -18.7151834
            ],
            [
              -39.8517111,
              -18.7151398
            ],
            [
              -39.8517186,
              -18.7151622
            ],
            [
              -39.8517583,
              -18.7151504
            ],
            [
              -39.8517937,
              -18.7152569
            ]
          ]
        ]
      }
    },
    {
      "type": "Feature",
      "id": "way/1123330554",
      "properties": {
        "timestamp": "2022-12-19T12:41:07Z",
        "version": 1,
        "changeset": 130247546,
        "addr:city": "São Mateus",
        "addr:housenumber": "39",
        "addr:postcode": "29936-160",
        "addr:street": "Avenida João Nardoto",
        "addr:suburb": "Jaqueline",
        "building": "yes",
        "email": "pjsaomateus@mpes.mp.br",
        "government": "prosecutor",
        "level": "3",
        "name": "Promotoria de Justiça de São Mateus",
        "office": "government",
        "opening_hours": "Mo-Fr 12:00-18:00",
        "operator": "Ministério Público do Estado do Espírito Santo",
        "phone": "+55 27 3767 7200",
        "website": "https://mpes.mp.br",
        "id": "way/1123330554"
      },
      "geometry": {
        "type": "Polygon",
        "coordinates": [
          [
            [
              -39.8462073,
              -18.7305713
            ],
            [
              -39.8459415,
              -18.7307303
            ],
            [
              -39.8458295,
              -18.7305625
            ],
            [
              -39.8460954,
              -18.7304034
            ],
            [
              -39.8462073,
              -18.7305713
            ]
          ]
        ]
      }
    },
    {
      "type": "Feature",
      "id": "way/1123422756",
      "properties": {
        "timestamp": "2022-12-19T19:07:43Z",
        "version": 1,
        "changeset": 130260902,
        "addr:city": "São Mateus",
        "addr:housenumber": "736",
        "addr:postcode": "29936-600",
        "addr:street": "Rodovia Othovarino Duarte Santos",
        "addr:suburb": "San Remo",
        "building": "yes",
        "building:levels": "1",
        "government": "healthcare",
        "name": "Superintendência Regional de Saúde da Região Norte",
        "office": "government",
        "id": "way/1123422756"
      },
      "geometry": {
        "type": "Polygon",
        "coordinates": [
          [
            [
              -39.8457836,
              -18.7250331
            ],
            [
              -39.8458203,
              -18.7252368
            ],
            [
              -39.845853,
              -18.7252317
            ],
            [
              -39.8458694,
              -18.7253077
            ],
            [
              -39.8457604,
              -18.7253323
            ],
            [
              -39.8457808,
              -18.7254225
            ],
            [
              -39.845902,
              -18.7253568
            ],
            [
              -39.8459347,
              -18.7254148
            ],
            [
              -39.8457958,
              -18.7254831
            ],
            [
              -39.8457795,
              -18.725447
            ],
            [
              -39.8457087,
              -18.7254625
            ],
            [
              -39.8456338,
              -18.7250653
            ],
            [
              -39.8457836,
              -18.7250331
            ]
          ]
        ]
      }
    },
    {
      "type": "Feature",
      "id": "way/1123765603",
      "properties": {
        "timestamp": "2022-12-21T00:17:09Z",
        "version": 1,
        "changeset": 130310125,
        "addr:city": "São Mateus",
        "addr:housenumber": "1262",
        "addr:postcode": "29933-530",
        "addr:street": "Rua Coronel Constantino Cunha",
        "addr:suburb": "Fátima",
        "building": "yes",
        "building:levels": "1",
        "email": "zmail21@tre-es.jus.br",
        "government": "register_office",
        "name": "Cartório da Vigésima Primeira Zona Eleitoral de São Mateus",
        "office": "government",
        "opening_hours": "Mo-Fr 12:00-18:00",
        "operator": "Tribunal Regional Eleitoral do Estado do Espírito Santo",
        "phone": "+55 27 3763 1799;+55 27 3763 1507",
        "website": "https://www.tre-es.jus.br/",
        "id": "way/1123765603"
      },
      "geometry": {
        "type": "Polygon",
        "coordinates": [
          [
            [
              -39.8453503,
              -18.7170457
            ],
            [
              -39.845244,
              -18.7170662
            ],
            [
              -39.8452284,
              -18.7169931
            ],
            [
              -39.8452475,
              -18.7169894
            ],
            [
              -39.845212,
              -18.7168242
            ],
            [
              -39.8452992,
              -18.7168074
            ],
            [
              -39.8453503,
              -18.7170457
            ]
          ]
        ]
      }
    },
    {
      "type": "Feature",
      "id": "node/5599502355",
      "properties": {
        "timestamp": "2022-12-18T12:08:13Z",
        "version": 2,
        "changeset": 130210269,
        "admin_level": "8",
        "email": "cultura@saomateus.es.gov.br",
        "name": "Secretaria Municipal de Cultura",
        "office": "government",
        "opening_hours": "Mo-Fr 12:00-18:00",
        "website": "http://www.saomateus.es.gov.br/site/secretaria-cultura-sao-mateus.aspx",
        "id": "node/5599502355"
      },
      "geometry": {
        "type": "Point",
        "coordinates": [
          -39.8547245,
          -18.7130186
        ]
      }
    },
    {
      "type": "Feature",
      "id": "node/5599502356",
      "properties": {
        "timestamp": "2022-12-18T12:08:13Z",
        "version": 2,
        "changeset": 130210269,
        "admin_level": "8",
        "email": "turismo@saomateus.es.gov.br",
        "name": "Secretaria Municipal de Turismo",
        "office": "government",
        "opening_hours": "Mo-Fr 12:00-18:00",
        "phone": "(27) 3767-8898",
        "website": "http://www.saomateus.es.gov.br/site/secretaria-turismo-sao-mateus.aspx",
        "id": "node/5599502356"
      },
      "geometry": {
        "type": "Point",
        "coordinates": [
          -39.8547319,
          -18.712905
        ]
      }
    },
    {
      "type": "Feature",
      "id": "node/10262317996",
      "properties": {
        "timestamp": "2022-12-15T18:11:36Z",
        "version": 2,
        "changeset": 130126051,
        "admin_level": "8",
        "email": "controladoria@saomateus.es.gov.br",
        "name": "Controladoria",
        "office": "government",
        "opening_hours": "Mo-Fr 12:00-18:00",
        "phone": "(27) 3761-4856",
        "website": "http://www.saomateus.es.gov.br/site/controladoria-sao-mateus.aspx",
        "id": "node/10262317996"
      },
      "geometry": {
        "type": "Point",
        "coordinates": [
          -39.8488554,
          -18.7212686
        ]
      }
    },
    {
      "type": "Feature",
      "id": "node/10262317997",
      "properties": {
        "timestamp": "2022-12-15T18:11:36Z",
        "version": 2,
        "changeset": 130126051,
        "admin_level": "8",
        "email": "financas@saomateus.es.gov.br",
        "name": "Secretaria Municipal de Finanças",
        "office": "government",
        "opening_hours": "Mo-Fr 12:00-18:00",
        "phone": "(27) 3761-4851;(27) 3761-4852",
        "website": "http://www.saomateus.es.gov.br/site/secretaria-financas-sao-mateus.aspx",
        "id": "node/10262317997"
      },
      "geometry": {
        "type": "Point",
        "coordinates": [
          -39.848885,
          -18.7213691
        ]
      }
    },
    {
      "type": "Feature",
      "id": "node/10262317998",
      "properties": {
        "timestamp": "2022-12-15T18:11:36Z",
        "version": 2,
        "changeset": 130126051,
        "admin_level": "8",
        "email": "gabinete@saomateus.es.gov.br",
        "name": "Secretaria de Gabinete",
        "office": "government",
        "opening_hours": "Mo-Fr 12:00-18:00",
        "phone": "(27) 3761-4850",
        "website": "http://www.saomateus.es.gov.br/site/gabinete-sao-mateus.aspx",
        "id": "node/10262317998"
      },
      "geometry": {
        "type": "Point",
        "coordinates": [
          -39.8489145,
          -18.7214625
        ]
      }
    },
    {
      "type": "Feature",
      "id": "node/10262317999",
      "properties": {
        "timestamp": "2022-12-15T18:11:36Z",
        "version": 2,
        "changeset": 130126051,
        "admin_level": "8",
        "email": "comunicacao@saomateus.es.gov.br",
        "name": "Secretaria Municipal de Comunicação",
        "office": "government",
        "opening_hours": "Mo-Fr 12:00-18:00",
        "phone": "(27) 3761-4877",
        "website": "http://www.saomateus.es.gov.br/site/secretaria-comunicacao-sao-mateus.aspx",
        "id": "node/10262317999"
      },
      "geometry": {
        "type": "Point",
        "coordinates": [
          -39.8488237,
          -18.7211735
        ]
      }
    },
    {
      "type": "Feature",
      "id": "node/10262318000",
      "properties": {
        "timestamp": "2022-12-15T18:11:36Z",
        "version": 2,
        "changeset": 130126051,
        "admin_level": "8",
        "email": "secgoverno@saomateus.es.gov.br",
        "name": "Secretaria de Governo",
        "office": "government",
        "opening_hours": "Mo-Fr 12:00-18:00",
        "phone": "(27) 3761-4850",
        "website": "http://www.saomateus.es.gov.br/site/secretaria-governo-sao-mateus.aspx",
        "id": "node/10262318000"
      },
      "geometry": {
        "type": "Point",
        "coordinates": [
          -39.8487858,
          -18.7210621
        ]
      }
    },
    {
      "type": "Feature",
      "id": "node/10262318001",
      "properties": {
        "timestamp": "2022-12-15T18:11:36Z",
        "version": 2,
        "changeset": 130126051,
        "admin_level": "8",
        "email": "procuradoria@saomateus.es.gov.br",
        "name": "Procuradoria",
        "office": "government",
        "opening_hours": "Mo-Fr 12:00-18:00",
        "phone": "(27) 3761-4850",
        "website": "http://www.saomateus.es.gov.br/site/procuradoria-sao-mateus.aspx",
        "id": "node/10262318001"
      },
      "geometry": {
        "type": "Point",
        "coordinates": [
          -39.8487476,
          -18.7209308
        ]
      }
    },
    {
      "type": "Feature",
      "id": "node/10271304993",
      "properties": {
        "timestamp": "2022-12-19T18:56:03Z",
        "version": 2,
        "changeset": 130260534,
        "addr:city": "São Mateus",
        "addr:street": "Rua Doutor Ademar de Oliveira Neves",
        "government": "administrative",
        "name": "Secretaria Municipal de Assistência Social",
        "office": "government",
        "id": "node/10271304993"
      },
      "geometry": {
        "type": "Point",
        "coordinates": [
          -39.8538899,
          -18.7204456
        ]
      }
    },
    {
      "type": "Feature",
      "id": "node/10272158460",
      "properties": {
        "timestamp": "2022-12-19T09:46:05Z",
        "version": 2,
        "changeset": 130240717,
        "addr:city": "São Mateus",
        "addr:housenumber": "1024",
        "addr:postcode": "29930-290",
        "addr:street": "Rua Doutor Arlindo Sodré",
        "addr:suburb": "Centro",
        "building": "yes",
        "government": "tax",
        "name": "Agência da Receita Federal do Brasil em São Mateus",
        "office": "government",
        "operator": "Ministério da Fazenda",
        "phone": "+55 27 3767 1113",
        "website": "https://www.receita.fazenda.gov.br",
        "id": "node/10272158460"
      },
      "geometry": {
        "type": "Point",
        "coordinates": [
          -39.8560425,
          -18.7153486
        ]
      }
    },
    {
      "type": "Feature",
      "id": "node/10274352491",
      "properties": {
        "timestamp": "2022-12-19T22:49:36Z",
        "version": 1,
        "changeset": 130266219,
        "entrance": "yes",
        "id": "node/10274352491"
      },
      "geometry": {
        "type": "Point",
        "coordinates": [
          -39.8631743,
          -18.7534744
        ]
      }
    }
  ]
}
