{
  "type": "FeatureCollection",
  "features": [
    {
      "type": "Feature",
      "id": "way/495577445",
      "properties": {
        "timestamp": "2024-10-05T13:35:49Z",
        "version": 6,
        "changeset": 157501552,
        "addr:city": "São Mateus",
        "addr:housenumber": "km 67",
        "addr:postcode": "29936450",
        "addr:street": "Rodovia Governador Mário Covas",
        "addr:suburb": "Vila Nova",
        "brand": "Ibis Styles",
        "brand:wikidata": "Q3147425",
        "building": "hotel",
        "email": "ha010-re@accor.com",
        "level": "4",
        "name": "Ibis Styles São Mateus",
        "phone": "+55 27 3313 8888",
        "tourism": "hotel",
        "website": "https://all.accor.com/hotel/A010/",
        "id": "way/495577445"
      },
      "geometry": {
        "type": "Polygon",
        "coordinates": [
          [
            [
              -39.8614928,
              -18.7253084
            ],
            [
              -39.8613841,
              -18.7253289
            ],
            [
              -39.861282,
              -18.7253325
            ],
            [
              -39.8612058,
              -18.725329
            ],
            [
              -39.8611443,
              -18.7253223
            ],
            [
              -39.8610781,
              -18.7253107
            ],
            [
              -39.8609907,
              -18.7252798
            ],
            [
              -39.8609024,
              -18.7252333
            ],
            [
              -39.8608176,
              -18.7251688
            ],
            [
              -39.8607666,
              -18.7251142
            ],
            [
              -39.8607088,
              -18.7250269
            ],
            [
              -39.8606787,
              -18.7249606
            ],
            [
              -39.8606501,
              -18.7248638
            ],
            [
              -39.8607467,
              -18.7248381
            ],
            [
              -39.8607551,
              -18.7248886
            ],
            [
              -39.8607801,
              -18.7249502
            ],
            [
              -39.8608223,
              -18.7250137
            ],
            [
              -39.8608625,
              -18.7249859
            ],
            [
              -39.8609043,
              -18.7250487
            ],
            [
              -39.8609406,
              -18.7250159
            ],
            [
              -39.8610059,
              -18.7250655
            ],
            [
              -39.8609804,
              -18.7251121
            ],
            [
              -39.8610276,
              -18.7251425
            ],
            [
              -39.861005,
              -18.7251815
            ],
            [
              -39.8610811,
              -18.7252125
            ],
            [
              -39.8611806,
              -18.7252338
            ],
            [
              -39.8611827,
              -18.7251856
            ],
            [
              -39.8612343,
              -18.7251882
            ],
            [
              -39.8612326,
              -18.7252429
            ],
            [
              -39.8612948,
              -18.7252433
            ],
            [
              -39.8613539,
              -18.7252393
            ],
            [
              -39.8614106,
              -18.7252328
            ],
            [
              -39.8614569,
              -18.7252249
            ],
            [
              -39.8614928,
              -18.7253084
            ]
          ]
        ]
      }
    },
    {
      "type": "Feature",
      "id": "way/1123206239",
      "properties": {
        "timestamp": "2022-12-18T23:04:25Z",
        "version": 1,
        "changeset": 130226321,
        "addr:city": "São Mateus",
        "addr:housenumber": "1034",
        "addr:postcode": "29931-220",
        "addr:state": "Espírito Santo",
        "addr:street": "Avenida João XXIII",
        "addr:suburb": "Boa Vista",
        "building": "yes",
        "building:levels": "3",
        "name": "Hotel Boroto",
        "operator": "A.m.m Hotel Boroto Limitada",
        "phone": "+55 27 3763 5428",
        "tourism": "hotel",
        "id": "way/1123206239"
      },
      "geometry": {
        "type": "Polygon",
        "coordinates": [
          [
            [
              -39.8661084,
              -18.7161846
            ],
            [
              -39.8659945,
              -18.7161859
            ],
            [
              -39.8659917,
              -18.7159626
            ],
            [
              -39.8661057,
              -18.7159613
            ],
            [
              -39.8661084,
              -18.7161846
            ]
          ]
        ]
      }
    },
    {
      "type": "Feature",
      "id": "way/1123765605",
      "properties": {
        "timestamp": "2022-12-21T00:17:09Z",
        "version": 1,
        "changeset": 130310125,
        "addr:city": "São Mateus",
        "addr:housenumber": "96",
        "addr:postcode": "29933-555",
        "addr:street": "Rua Ruth Esteves Neves",
        "addr:suburb": "Fátima",
        "building": "yes",
        "level": "3",
        "name": "Hotel Sanches",
        "operator": "Eridalva Rocha Sanches do Amaral",
        "phone": "+55 27 3767 0644",
        "tourism": "hotel",
        "id": "way/1123765605"
      },
      "geometry": {
        "type": "Polygon",
        "coordinates": [
          [
            [
              -39.8443749,
              -18.7168974
            ],
            [
              -39.8442652,
              -18.7169304
            ],
            [
              -39.8442123,
              -18.7167728
            ],
            [
              -39.8441222,
              -18.7167999
            ],
            [
              -39.8441034,
              -18.7167441
            ],
            [
              -39.8441969,
              -18.716716
            ],
            [
              -39.8441936,
              -18.7167061
            ],
            [
              -39.8443,
              -18.7166741
            ],
            [
              -39.8443749,
              -18.7168974
            ]
          ]
        ]
      }
    },
    {
      "type": "Feature",
      "id": "node/1658284565",
      "properties": {
        "timestamp": "2012-03-03T22:46:33Z",
        "version": 1,
        "changeset": 10863273,
        "name": "Pousada Porto da Ilha",
        "tourism": "hotel",
        "id": "node/1658284565"
      },
      "geometry": {
        "type": "Point",
        "coordinates": [
          -39.7487017,
          -18.7467097
        ]
      }
    },
    {
      "type": "Feature",
      "id": "node/1970476122",
      "properties": {
        "timestamp": "2016-06-22T21:28:57Z",
        "version": 2,
        "changeset": 40215111,
        "amenity": "restaurant",
        "name": "KeKé Hotel e Restaurante",
        "tourism": "hotel",
        "id": "node/1970476122"
      },
      "geometry": {
        "type": "Point",
        "coordinates": [
          -39.8714274,
          -18.717477
        ]
      }
    },
    {
      "type": "Feature",
      "id": "node/4569743721",
      "properties": {
        "timestamp": "2016-12-24T02:07:36Z",
        "version": 1,
        "changeset": 44637439,
        "addr:housenumber": "200",
        "addr:street": "Rua Hélio Orlandi",
        "internet_access": "yes",
        "name": "Hotel JB",
        "tourism": "hotel",
        "id": "node/4569743721"
      },
      "geometry": {
        "type": "Point",
        "coordinates": [
          -39.8558497,
          -18.7189441
        ]
      }
    },
    {
      "type": "Feature",
      "id": "node/4873187953",
      "properties": {
        "timestamp": "2022-12-18T13:31:41Z",
        "version": 2,
        "changeset": 130212630,
        "addr:city": "São Mateus",
        "addr:postcode": "29940-760",
        "addr:street": "Rodovia Governador Mário Covas",
        "addr:suburb": "Novo Horizonte",
        "name": "Hotel Ipiranga",
        "tourism": "hotel",
        "id": "node/4873187953"
      },
      "geometry": {
        "type": "Point",
        "coordinates": [
          -39.8757106,
          -18.7164574
        ]
      }
    },
    {
      "type": "Feature",
      "id": "node/5332192221",
      "properties": {
        "timestamp": "2018-01-11T00:46:24Z",
        "version": 1,
        "changeset": 55338673,
        "name": "Recanto dos pioneiros",
        "tourism": "hotel",
        "id": "node/5332192221"
      },
      "geometry": {
        "type": "Point",
        "coordinates": [
          -39.75598,
          -18.7724137
        ]
      }
    },
    {
      "type": "Feature",
      "id": "node/9695839717",
      "properties": {
        "timestamp": "2022-04-26T19:00:40Z",
        "version": 1,
        "changeset": 120226675,
        "name": "Grande Hotel",
        "tourism": "hotel",
        "id": "node/9695839717"
      },
      "geometry": {
        "type": "Point",
        "coordinates": [
          -39.8580831,
          -18.715732
        ]
      }
    },
    {
      "type": "Feature",
      "id": "node/10273505784",
      "properties": {
        "timestamp": "2022-12-19T14:49:00Z",
        "version": 1,
        "changeset": 130252628,
        "addr:city": "São Mateus",
        "addr:postcode": "29937-310",
        "addr:street": "Rodovia Governador Mário Covas",
        "addr:suburb": "Seac",
        "name": "Pousada Rio Negro",
        "tourism": "hotel",
        "id": "node/10273505784"
      },
      "geometry": {
        "type": "Point",
        "coordinates": [
          -39.8611679,
          -18.7467667
        ]
      }
    },
    {
      "type": "Feature",
      "id": "node/10274452428",
      "properties": {
        "timestamp": "2022-12-20T00:13:34Z",
        "version": 1,
        "changeset": 130267643,
        "addr:city": "São Mateus",
        "addr:housenumber": "422",
        "addr:postcode": "29945-450",
        "addr:street": "Avenida Esbertalina Barbosa Damiani",
        "addr:suburb": "Guriri",
        "email": "neiazimerbr@gmail.com",
        "mobile": "+55 27 99968 4324",
        "name": "Pommer Pousada",
        "operator": "Zimermann Serviços de Hotelaria Limitada",
        "phone": "+55 27 3345 7474",
        "tourism": "hotel",
        "id": "node/10274452428"
      },
      "geometry": {
        "type": "Point",
        "coordinates": [
          -39.7514781,
          -18.7418559
        ]
      }
    },
    {
      "type": "Feature",
      "id": "node/10274452436",
      "properties": {
        "timestamp": "2022-12-20T00:13:34Z",
        "version": 1,
        "changeset": 130267643,
        "addr:city": "São Mateus",
        "addr:housenumber": "888",
        "addr:postcode": "29946-540",
        "addr:street": "Rua Horácio Barbosa Alves",
        "addr:suburb": "Guriri",
        "name": "Guriri Beach Acqua Park",
        "phone": "+55 27 98819 7805",
        "tourism": "hotel",
        "id": "node/10274452436"
      },
      "geometry": {
        "type": "Point",
        "coordinates": [
          -39.7470541,
          -18.7307837
        ]
      }
    },
    {
      "type": "Feature",
      "id": "node/10274452437",
      "properties": {
        "timestamp": "2022-12-20T00:13:34Z",
        "version": 1,
        "changeset": 130267643,
        "addr:city": "São Mateus",
        "addr:housenumber": "965",
        "addr:postcode": "29946-540",
        "addr:street": "Rua Horácio Barbosa Alves",
        "addr:suburb": "Guriri",
        "name": "Pousada Vila Real Guriri",
        "phone": "+ 55 27 98804 6548",
        "tourism": "hotel",
        "id": "node/10274452437"
      },
      "geometry": {
        "type": "Point",
        "coordinates": [
          -39.7470541,
          -18.7302877
        ]
      }
    }
  ]
}
