{
  "type": "FeatureCollection",
  "features": [
    {
      "type": "Feature",
      "id": "way/88134414",
      "properties": {
        "timestamp": "2023-10-26T02:03:49Z",
        "version": 3,
        "changeset": 143140416,
        "addr:housenumber": "3952",
        "addr:street": "Avenida Getúlio Vargas",
        "name": "Hotel 10 São Leopoldo",
        "operator": "Hotel 10",
        "tourism": "hotel",
        "website": "https://www.hotel10.com.br/cidades/sao-leopoldo",
        "id": "way/88134414"
      },
      "geometry": {
        "type": "Polygon",
        "coordinates": [
          [
            [
              -51.1638292,
              -29.7920995
            ],
            [
              -51.1638811,
              -29.7924079
            ],
            [
              -51.1633142,
              -29.7924798
            ],
            [
              -51.1632622,
              -29.7921714
            ],
            [
              -51.1638292,
              -29.7920995
            ]
          ]
        ]
      }
    },
    {
      "type": "Feature",
      "id": "way/88134419",
      "properties": {
        "timestamp": "2011-01-03T00:49:23Z",
        "version": 3,
        "changeset": 6845510,
        "addr:city": "São Leopoldo",
        "addr:country": "BR",
        "addr:housenumber": "253",
        "addr:postcode": "93010-090",
        "addr:street": "Rua São Caetano",
        "building": "yes",
        "name": "Express São Leopoldo",
        "tourism": "hotel",
        "website": "http://www.hotelexpress.tur.br/sao_leo",
        "id": "way/88134419"
      },
      "geometry": {
        "type": "Polygon",
        "coordinates": [
          [
            [
              -51.1443106,
              -29.7695326
            ],
            [
              -51.1440914,
              -29.7694923
            ],
            [
              -51.1441164,
              -29.7693916
            ],
            [
              -51.1443355,
              -29.7694334
            ],
            [
              -51.1443106,
              -29.7695326
            ]
          ]
        ]
      }
    },
    {
      "type": "Feature",
      "id": "way/88134420",
      "properties": {
        "timestamp": "2011-01-03T00:49:24Z",
        "version": 5,
        "changeset": 6845510,
        "addr:city": "São Leopoldo",
        "addr:country": "BR",
        "addr:housenumber": "273",
        "addr:postcode": "93010-090",
        "addr:street": "Rua São Caetano",
        "building": "yes",
        "name": "Suarez São Leopoldo",
        "stars": "4",
        "tourism": "hotel",
        "website": "http://www.hotelsuarez.com.br/saoleo/saoleo.html",
        "id": "way/88134420"
      },
      "geometry": {
        "type": "Polygon",
        "coordinates": [
          [
            [
              -51.1444987,
              -29.7695672
            ],
            [
              -51.1445294,
              -29.7694426
            ],
            [
              -51.1445365,
              -29.7694103
            ],
            [
              -51.1446453,
              -29.7694282
            ],
            [
              -51.1448598,
              -29.7694593
            ],
            [
              -51.1448193,
              -29.7696261
            ],
            [
              -51.1444987,
              -29.7695672
            ]
          ]
        ]
      }
    },
    {
      "type": "Feature",
      "id": "way/88134449",
      "properties": {
        "timestamp": "2011-01-03T00:49:25Z",
        "version": 4,
        "changeset": 6845510,
        "addr:city": "São Leopoldo",
        "addr:country": "BR",
        "addr:housenumber": "235",
        "addr:postcode": "93010-090",
        "addr:street": "Rua São Caetano",
        "building": "yes",
        "name": "Lábor Executivo",
        "tourism": "hotel",
        "website": "http://www.hotellabor.com.br",
        "id": "way/88134449"
      },
      "geometry": {
        "type": "Polygon",
        "coordinates": [
          [
            [
              -51.1445294,
              -29.7694426
            ],
            [
              -51.1444987,
              -29.7695672
            ],
            [
              -51.1443106,
              -29.7695326
            ],
            [
              -51.1443355,
              -29.7694334
            ],
            [
              -51.1443413,
              -29.7694083
            ],
            [
              -51.1445294,
              -29.7694426
            ]
          ]
        ]
      }
    },
    {
      "type": "Feature",
      "id": "way/1017705131",
      "properties": {
        "timestamp": "2023-02-11T00:08:25Z",
        "version": 2,
        "changeset": 132386634,
        "addr:city": "São Leopoldo",
        "addr:housenumber": "1277",
        "addr:street": "Avenida Unisinos",
        "building": "yes",
        "building:levels": "5",
        "contact:whatsapp": "+55 51 8012 8104",
        "internet_access": "wlan",
        "internet_access:fee": "customers",
        "name": "Work+ Hotel",
        "phone": "+55 51 3566 1904",
        "reservation": "yes",
        "tourism": "hotel",
        "website": "https://workhotel.com.br",
        "id": "way/1017705131"
      },
      "geometry": {
        "type": "Polygon",
        "coordinates": [
          [
            [
              -51.1559974,
              -29.7919528
            ],
            [
              -51.1560084,
              -29.7921406
            ],
            [
              -51.1559717,
              -29.7921422
            ],
            [
              -51.1559707,
              -29.792125
            ],
            [
              -51.1559094,
              -29.7921277
            ],
            [
              -51.1558978,
              -29.7919301
            ],
            [
              -51.1559974,
              -29.7919528
            ]
          ]
        ]
      }
    },
    {
      "type": "Feature",
      "id": "node/1126292462",
      "properties": {
        "timestamp": "2011-04-15T02:21:23Z",
        "version": 2,
        "changeset": 7866352,
        "name": "Hotel Express Confort",
        "operator": "Hotel Express",
        "tourism": "hotel",
        "website": "http://www.hotelexpress.tur.br/confort",
        "id": "node/1126292462"
      },
      "geometry": {
        "type": "Point",
        "coordinates": [
          -51.1458127,
          -29.7653507
        ]
      }
    },
    {
      "type": "Feature",
      "id": "node/2298201313",
      "properties": {
        "timestamp": "2013-05-10T12:27:25Z",
        "version": 1,
        "changeset": 16063563,
        "name": "Schmidt",
        "tourism": "hotel",
        "id": "node/2298201313"
      },
      "geometry": {
        "type": "Point",
        "coordinates": [
          -51.1494064,
          -29.7625256
        ]
      }
    },
    {
      "type": "Feature",
      "id": "node/2408362172",
      "properties": {
        "timestamp": "2013-08-06T00:54:00Z",
        "version": 1,
        "changeset": 17235366,
        "addr:city": "São Leopoldo",
        "addr:housenumber": "611",
        "addr:street": "Rua Brasil",
        "name": "Record",
        "tourism": "hotel",
        "id": "node/2408362172"
      },
      "geometry": {
        "type": "Point",
        "coordinates": [
          -51.1474156,
          -29.7618509
        ]
      }
    },
    {
      "type": "Feature",
      "id": "node/8519287591",
      "properties": {
        "timestamp": "2021-03-15T02:24:23Z",
        "version": 1,
        "changeset": 101013891,
        "name": "Pôr do Sol Parque Hotel",
        "tourism": "hotel",
        "website": "https://www.facebook.com/Por-do-Sol-Parque-Hotel-100405161320032/",
        "id": "node/8519287591"
      },
      "geometry": {
        "type": "Point",
        "coordinates": [
          -51.1758697,
          -29.7186688
        ]
      }
    }
  ]
}
