{
  "type": "FeatureCollection",
  "features": [
    {
      "type": "Feature",
      "id": "way/92427703",
      "properties": {
        "timestamp": "2010-12-30T15:14:26Z",
        "version": 1,
        "changeset": 6810496,
        "amenity": "kindergarten",
        "name": "Escola Municipal de Educação Infantil Jesus Menino",
        "id": "way/92427703"
      },
      "geometry": {
        "type": "Polygon",
        "coordinates": [
          [
            [
              -51.1442573,
              -29.7652435
            ],
            [
              -51.1444349,
              -29.7652758
            ],
            [
              -51.1445551,
              -29.7652976
            ],
            [
              -51.1444891,
              -29.7655719
            ],
            [
              -51.1443917,
              -29.7655542
            ],
            [
              -51.1441912,
              -29.7655178
            ],
            [
              -51.1442263,
              -29.7653722
            ],
            [
              -51.1442573,
              -29.7652435
            ]
          ]
        ]
      }
    },
    {
      "type": "Feature",
      "id": "way/1054320903",
      "properties": {
        "timestamp": "2022-04-24T05:14:18Z",
        "version": 1,
        "changeset": 120110828,
        "addr:city": "São Leopoldo",
        "addr:housenumber": "30",
        "addr:postcode": "93056-160",
        "addr:street": "Rua Áustria",
        "addr:suburb": "Feitoria",
        "amenity": "kindergarten",
        "name": "E.M.E.I. Waldir Artur Schmidt",
        "operator": "Prefeitura Municipal de São Leopoldo",
        "operator:type": "government",
        "preschool": "yes",
        "id": "way/1054320903"
      },
      "geometry": {
        "type": "Polygon",
        "coordinates": [
          [
            [
              -51.0914241,
              -29.7578066
            ],
            [
              -51.0908996,
              -29.7578679
            ],
            [
              -51.0907695,
              -29.7570294
            ],
            [
              -51.0912942,
              -29.7569681
            ],
            [
              -51.0914241,
              -29.7578066
            ]
          ]
        ]
      }
    },
    {
      "type": "Feature",
      "id": "node/1071292582",
      "properties": {
        "timestamp": "2010-12-30T15:14:35Z",
        "version": 2,
        "changeset": 6810496,
        "addr:city": "São Leopoldo",
        "addr:country": "BR",
        "addr:housenumber": "232",
        "addr:postcode": "93040-380",
        "addr:street": "Rua Eugênio Schardong",
        "amenity": "kindergarten",
        "name": "Escola Municipal de Educação Infantil Amor-Perfeito",
        "id": "node/1071292582"
      },
      "geometry": {
        "type": "Point",
        "coordinates": [
          -51.1310016,
          -29.7706098
        ]
      }
    },
    {
      "type": "Feature",
      "id": "node/1073033026",
      "properties": {
        "timestamp": "2012-09-29T14:07:47Z",
        "version": 2,
        "changeset": 13297040,
        "addr:city": "São Leopoldo",
        "addr:country": "BR",
        "addr:housenumber": "409",
        "addr:postcode": "93010-060",
        "addr:street": "Rua Presidente Roosevelt",
        "entrance": "main",
        "id": "node/1073033026"
      },
      "geometry": {
        "type": "Point",
        "coordinates": [
          -51.1443917,
          -29.7655542
        ]
      }
    },
    {
      "type": "Feature",
      "id": "node/1073407914",
      "properties": {
        "timestamp": "2016-09-27T23:40:40Z",
        "version": 5,
        "changeset": 42482681,
        "addr:city": "São Leopoldo",
        "addr:country": "BR",
        "addr:housenumber": "205",
        "addr:street": "Rua Carlos Frederico Kemmer",
        "amenity": "kindergarten",
        "email": "espaco_crianca@live.com",
        "name": "Espaço Criança",
        "phone": "+55 51 3592-2360",
        "id": "node/1073407914"
      },
      "geometry": {
        "type": "Point",
        "coordinates": [
          -51.105433,
          -29.7650402
        ]
      }
    },
    {
      "type": "Feature",
      "id": "node/1074530992",
      "properties": {
        "timestamp": "2010-12-31T03:04:01Z",
        "version": 1,
        "changeset": 6816207,
        "amenity": "kindergarten",
        "name": "Pimpolândia Escola de Educação Infantil",
        "id": "node/1074530992"
      },
      "geometry": {
        "type": "Point",
        "coordinates": [
          -51.1424358,
          -29.7698226
        ]
      }
    },
    {
      "type": "Feature",
      "id": "node/1079964219",
      "properties": {
        "timestamp": "2011-01-23T23:13:39Z",
        "version": 2,
        "changeset": 7068507,
        "addr:city": "São Leopoldo",
        "addr:country": "BR",
        "addr:housenumber": "1080",
        "addr:street": "Rua Marquês do Herval",
        "amenity": "kindergarten",
        "name": "Escola de Educação Infantil Balão Mágico",
        "id": "node/1079964219"
      },
      "geometry": {
        "type": "Point",
        "coordinates": [
          -51.1440825,
          -29.7686922
        ]
      }
    },
    {
      "type": "Feature",
      "id": "node/1251286546",
      "properties": {
        "timestamp": "2011-04-19T15:41:09Z",
        "version": 2,
        "changeset": 7907670,
        "amenity": "kindergarten",
        "fixme": "Or is it \"Solmi\" in a single word?",
        "name": "Sol Mi",
        "id": "node/1251286546"
      },
      "geometry": {
        "type": "Point",
        "coordinates": [
          -51.1380828,
          -29.7838198
        ]
      }
    },
    {
      "type": "Feature",
      "id": "node/2378299577",
      "properties": {
        "timestamp": "2013-07-08T19:37:06Z",
        "version": 1,
        "changeset": 16878319,
        "amenity": "kindergarten",
        "name": "Escola Infantil Canguru",
        "id": "node/2378299577"
      },
      "geometry": {
        "type": "Point",
        "coordinates": [
          -51.1536953,
          -29.7924485
        ]
      }
    }
  ]
}
