{
  "type": "FeatureCollection",
  "features": [
    {
      "type": "Feature",
      "id": "way/340648057",
      "properties": {
        "timestamp": "2022-10-19T21:19:26Z",
        "version": 2,
        "changeset": 127808304,
        "addr:city": "Santa Efigênia de Minas",
        "addr:housenumber": "05",
        "addr:postcode": "39725-000",
        "addr:street": "Rua Santo Antônio",
        "addr:suburb": "Centro",
        "amenity": "school",
        "name": "Escola Municipal Andrelina Pereira da Silva",
        "operator": "Município de Santa Efigênia de Minas",
        "id": "way/340648057"
      },
      "geometry": {
        "type": "Polygon",
        "coordinates": [
          [
            [
              -42.4394798,
              -18.8261541
            ],
            [
              -42.4395314,
              -18.8265963
            ],
            [
              -42.4391972,
              -18.826648
            ],
            [
              -42.4391188,
              -18.8261921
            ],
            [
              -42.4391665,
              -18.8261871
            ],
            [
              -42.4394798,
              -18.8261541
            ]
          ]
        ]
      }
    },
    {
      "type": "Feature",
      "id": "way/477205904",
      "properties": {
        "timestamp": "2022-10-19T21:19:26Z",
        "version": 2,
        "changeset": 127808304,
        "addr:city": "Santa Efigênia de Minas",
        "addr:housenumber": "393",
        "addr:postcode": "39725-000",
        "addr:street": "Rua Santo Antônio",
        "addr:suburb": "Centro",
        "amenity": "school",
        "name": "Escola Estadual Tito Alves Pinto",
        "operator": "Governo de Minas Gerais",
        "operator:type": "public",
        "id": "way/477205904"
      },
      "geometry": {
        "type": "Polygon",
        "coordinates": [
          [
            [
              -42.4390304,
              -18.8248531
            ],
            [
              -42.439194,
              -18.8252364
            ],
            [
              -42.4388185,
              -18.8253887
            ],
            [
              -42.438663,
              -18.8249876
            ],
            [
              -42.4390304,
              -18.8248531
            ]
          ]
        ]
      }
    },
    {
      "type": "Feature",
      "id": "node/10115218011",
      "properties": {
        "timestamp": "2024-07-02T16:43:29Z",
        "version": 2,
        "changeset": 153466299,
        "addr:city": "Santa Efigênia de Minas",
        "addr:postcode": "39725-000",
        "addr:street": "Rua Dona Nazinha",
        "addr:suburb": "Centro",
        "amenity": "school",
        "name": "Escola Municipal Maria Edwirges Pereira",
        "operator": "Município de Santa Efigênia de Minas",
        "operator:type": "public",
        "id": "node/10115218011"
      },
      "geometry": {
        "type": "Point",
        "coordinates": [
          -42.4391612,
          -18.8239573
        ]
      }
    }
  ]
}
