{
  "type": "FeatureCollection",
  "features": [
    {
      "type": "Feature",
      "id": "node/4299006098",
      "properties": {
        "timestamp": "2022-07-25T22:52:45Z",
        "version": 9,
        "changeset": 124071432,
        "amenity": "bicycle_rental",
        "capacity": "14",
        "description": "Bicicletas Compartilhadas - www.udibikecompartibike.com.br",
        "name": "Estação Tecelagem",
        "opening_hours": "Mo-Su 05:00-22:00",
        "operator": "Udibike",
        "payment:card": "yes",
        "ref": "1",
        "website": "https://udibike.compartibike.com.br",
        "id": "node/4299006098"
      },
      "geometry": {
        "type": "Point",
        "coordinates": [
          -48.2825808,
          -18.932294
        ]
      }
    },
    {
      "type": "Feature",
      "id": "node/4299072830",
      "properties": {
        "timestamp": "2022-07-25T22:31:40Z",
        "version": 4,
        "changeset": 124071103,
        "amenity": "bicycle_rental",
        "capacity": "14",
        "description": "COMO FUNCIONA: Pra usar é fácil. Realize seu cd. no site, informando seu cartão de créd. Depois, vá até uma das estações. Ao chegar, informe no totem seu CPF e a senha criada no site e pronto. Seu passeio está liberado. A dev. pode ser feita em qq. estaçã",
        "name": "Estação Granja Marileusa",
        "opening_hours": "Mo-Su 05:00-22:00",
        "operator": "Udibike",
        "phone": "+55 30 3132 420",
        "ref": "4",
        "website": "https://udibike.compartibike.com.br",
        "id": "node/4299072830"
      },
      "geometry": {
        "type": "Point",
        "coordinates": [
          -48.2485129,
          -18.8794575
        ]
      }
    },
    {
      "type": "Feature",
      "id": "node/4585475400",
      "properties": {
        "timestamp": "2022-07-25T22:36:17Z",
        "version": 4,
        "changeset": 124071169,
        "addr:city": "Uberlândia",
        "addr:housenumber": "5455",
        "addr:street": "Avenida Governador Rondon Pacheco",
        "addr:suburb": "Tibery",
        "amenity": "bicycle_rental",
        "capacity": "14",
        "description": "COMO FUNCIONA: Pra usar é fácil. Realize seu cd no site, informando seu cartão de crédito. Depois, vá até uma das estações. Ao chegar, informe no totem seu CPF e a senha criada no site e pronto. Seu passeio está liberado. A dev. pode ser feita qq estação.",
        "name": "Estação Corpo de Bombeiros",
        "opening_hours": "Mo-Su 05:00-22:00",
        "operator": "Udibike",
        "ref": "3",
        "website": "https://udibike.compartibike.com.br",
        "id": "node/4585475400"
      },
      "geometry": {
        "type": "Point",
        "coordinates": [
          -48.2594441,
          -18.9004738
        ]
      }
    },
    {
      "type": "Feature",
      "id": "node/4585475401",
      "properties": {
        "timestamp": "2022-07-25T22:48:31Z",
        "version": 4,
        "changeset": 124071355,
        "amenity": "bicycle_rental",
        "capacity": "14",
        "description": "COMO FUNCIONA: Pra usar é fácil. Realize seu cd no site, informando seu cartão de crédito. Depois, vá até uma das estações. Ao chegar, informe no totem seu CPF e a senha criada no site e pronto. Seu passeio está liberado. A dev. pode ser feita qq estação.",
        "name": "Estação Center Shopping",
        "opening_hours": "Mo-Su 05:00-22:00",
        "operator": "Udibike",
        "ref": "2",
        "website": "https://udibike.compartibike.com.br",
        "id": "node/4585475401"
      },
      "geometry": {
        "type": "Point",
        "coordinates": [
          -48.2620228,
          -18.9108232
        ]
      }
    },
    {
      "type": "Feature",
      "id": "node/11017910405",
      "properties": {
        "timestamp": "2023-07-01T13:47:34Z",
        "version": 1,
        "changeset": 137993131,
        "amenity": "bicycle_rental",
        "id": "node/11017910405"
      },
      "geometry": {
        "type": "Point",
        "coordinates": [
          -48.2329231,
          -18.9155739
        ]
      }
    }
  ]
}
