{
  "type": "FeatureCollection",
  "features": [
    {
      "type": "Feature",
      "id": "way/1224551326",
      "properties": {
        "timestamp": "2023-11-16T18:06:45Z",
        "version": 1,
        "changeset": 144106835,
        "addr:city": "Boa Vista",
        "addr:housenumber": "25",
        "addr:postcode": "58123-000",
        "addr:street": "Rua Jos√© Albino da Silva",
        "addr:suburb": "Centro",
        "amenity": "school",
        "building": "yes",
        "grades": "1-9",
        "name": "Escola Municipal Professora Francisca Leite Vitorino",
        "id": "way/1224551326"
      },
      "geometry": {
        "type": "Polygon",
        "coordinates": [
          [
            [
              -36.2437681,
              -7.2636449
            ],
            [
              -36.2438273,
              -7.2640889
            ],
            [
              -36.2433554,
              -7.2641581
            ],
            [
              -36.2432977,
              -7.2636946
            ],
            [
              -36.2437681,
              -7.2636449
            ]
          ]
        ]
      }
    }
  ]
}
