{
  "type": "FeatureCollection",
  "features": [
    {
      "type": "Feature",
      "id": "way/584988996",
      "properties": {
        "timestamp": "2018-05-01T22:06:32Z",
        "version": 1,
        "changeset": 58597705,
        "addr:city": "Barra do Garças",
        "addr:postcode": "78600000",
        "addr:street": "Rua Frei Felipe",
        "addr:suburb": "Nova Barra Sul",
        "amenity": "clinic",
        "building": "yes",
        "healthcare": "clinic",
        "name": "Posto de Saúde Nova Barra",
        "id": "way/584988996"
      },
      "geometry": {
        "type": "Polygon",
        "coordinates": [
          [
            [
              -52.3089026,
              -15.8918778
            ],
            [
              -52.3086424,
              -15.8918778
            ],
            [
              -52.3086343,
              -15.8916236
            ],
            [
              -52.3089026,
              -15.8916236
            ],
            [
              -52.3089026,
              -15.8918778
            ]
          ]
        ]
      }
    },
    {
      "type": "Feature",
      "id": "node/3373476514",
      "properties": {
        "timestamp": "2015-02-26T17:22:59Z",
        "version": 1,
        "changeset": 29118310,
        "addr:city": "Barra do Garças",
        "addr:housenumber": "508",
        "addr:postcode": "78600000",
        "addr:street": "Rua Xavantes",
        "amenity": "clinic",
        "name": "Clínica GASTROMED",
        "phone": "+55 66 3401 9049",
        "source": "Survey",
        "id": "node/3373476514"
      },
      "geometry": {
        "type": "Point",
        "coordinates": [
          -52.2623817,
          -15.8949481
        ]
      }
    },
    {
      "type": "Feature",
      "id": "node/3676550021",
      "properties": {
        "timestamp": "2015-08-01T17:15:29Z",
        "version": 1,
        "changeset": 33033976,
        "addr:city": "Barra do Garças",
        "addr:housenumber": "695",
        "addr:postcode": "78600000",
        "addr:street": "Rua Pires de Campos",
        "addr:suburb": "Centro",
        "amenity": "clinic",
        "name": "Dr. Clodoaldo Pirani - Neurologista",
        "phone": "+556634071501",
        "id": "node/3676550021"
      },
      "geometry": {
        "type": "Point",
        "coordinates": [
          -52.2632573,
          -15.8924661
        ]
      }
    },
    {
      "type": "Feature",
      "id": "node/3684232482",
      "properties": {
        "timestamp": "2015-08-06T15:19:51Z",
        "version": 1,
        "changeset": 33157985,
        "addr:city": "Barra do Garças",
        "addr:housenumber": "368",
        "addr:postcode": "78600-000",
        "addr:street": "Rua Mato Grosso",
        "addr:suburb": "Centro",
        "amenity": "clinic",
        "name": "Clínica Gênesis",
        "phone": "+556634057378",
        "id": "node/3684232482"
      },
      "geometry": {
        "type": "Point",
        "coordinates": [
          -52.2589396,
          -15.8925959
        ]
      }
    },
    {
      "type": "Feature",
      "id": "node/4260758847",
      "properties": {
        "timestamp": "2016-06-23T14:13:03Z",
        "version": 1,
        "changeset": 40234659,
        "addr:city": "Barra do Garças",
        "addr:housenumber": "687",
        "addr:street": "Rua Independência",
        "amenity": "clinic",
        "name": "Núcleo de Dermatologia e Cirurgia Plástica",
        "phone": "+556634019195",
        "id": "node/4260758847"
      },
      "geometry": {
        "type": "Point",
        "coordinates": [
          -52.2638878,
          -15.8955418
        ]
      }
    },
    {
      "type": "Feature",
      "id": "node/4583123182",
      "properties": {
        "timestamp": "2016-12-31T18:57:46Z",
        "version": 2,
        "changeset": 44812499,
        "addr:city": "Barra do Garças",
        "addr:housenumber": "1562",
        "addr:street": "Avenida Ana Isabel Aguiar",
        "amenity": "clinic",
        "name": "Clínica Centermed",
        "phone": "+55 66 3401-4294",
        "id": "node/4583123182"
      },
      "geometry": {
        "type": "Point",
        "coordinates": [
          -52.2559351,
          -15.8895339
        ]
      }
    },
    {
      "type": "Feature",
      "id": "node/4583131154",
      "properties": {
        "timestamp": "2019-03-17T10:48:44Z",
        "version": 2,
        "changeset": 68224978,
        "addr:city": "Barra do Garças",
        "addr:housenumber": "1559",
        "addr:street": "Avenida Ana Isabel Aguiar",
        "amenity": "clinic",
        "healthcare": "clinic",
        "healthcare:speciality": "cardiology",
        "name": "Dra. Sandra Regina Silva - Cardiologista e Clínica Médica",
        "phone": "+55 (66) 3401-5552",
        "id": "node/4583131154"
      },
      "geometry": {
        "type": "Point",
        "coordinates": [
          -52.2558359,
          -15.889263
        ]
      }
    }
  ]
}
