{
  "type": "FeatureCollection",
  "features": [
    {
      "type": "Feature",
      "id": "node/2823713640",
      "properties": {
        "timestamp": "2020-07-05T02:15:38Z",
        "version": 2,
        "changeset": 87544909,
        "addr:city": "Barra do Garças",
        "addr:street": "Avenida Valdon Varjão",
        "amenity": "hospital",
        "emergency": "yes",
        "name": "Hospital Med Barra",
        "phone": "+556634019876",
        "id": "node/2823713640"
      },
      "geometry": {
        "type": "Point",
        "coordinates": [
          -52.2924977,
          -15.8777544
        ]
      }
    },
    {
      "type": "Feature",
      "id": "node/2823714114",
      "properties": {
        "timestamp": "2014-04-29T00:49:19Z",
        "version": 1,
        "changeset": 22013228,
        "amenity": "hospital",
        "name": "Centro de Saúde Uady Câmara Lopes",
        "id": "node/2823714114"
      },
      "geometry": {
        "type": "Point",
        "coordinates": [
          -52.2614773,
          -15.8931131
        ]
      }
    },
    {
      "type": "Feature",
      "id": "node/2823714115",
      "properties": {
        "timestamp": "2023-05-06T18:51:10Z",
        "version": 2,
        "changeset": 135788404,
        "amenity": "hospital",
        "healthcare": "hospital",
        "name": "Pronto Socorro Municipal",
        "id": "node/2823714115"
      },
      "geometry": {
        "type": "Point",
        "coordinates": [
          -52.2471087,
          -15.8837538
        ]
      }
    },
    {
      "type": "Feature",
      "id": "node/2823714116",
      "properties": {
        "timestamp": "2023-05-06T18:51:10Z",
        "version": 2,
        "changeset": 135788404,
        "addr:city": "Barra do Garças",
        "addr:housenumber": "753",
        "addr:postcode": "78600-013",
        "addr:street": "Rua Carajás",
        "addr:suburb": "Centro",
        "amenity": "hospital",
        "healthcare": "hospital",
        "name": "Hospital Cristo Redentor",
        "ref:CNES": "3689522",
        "ref:vatin": "BR03503349000134",
        "id": "node/2823714116"
      },
      "geometry": {
        "type": "Point",
        "coordinates": [
          -52.2640093,
          -15.8920683
        ]
      }
    },
    {
      "type": "Feature",
      "id": "node/10045769679",
      "properties": {
        "timestamp": "2022-09-22T19:28:31Z",
        "version": 1,
        "changeset": 126519174,
        "addr:street": "Rua Vinte e Nove",
        "addr:suburb": "Jardim Ouro Fino",
        "amenity": "hospital",
        "healthcare": "hospital",
        "healthcare:speciality": "general;dentist;vaccination",
        "name": "UBS Jardim Ouro Fino",
        "id": "node/10045769679"
      },
      "geometry": {
        "type": "Point",
        "coordinates": [
          -52.2916843,
          -15.8851769
        ]
      }
    }
  ]
}
