{
  "type": "FeatureCollection",
  "features": [
    {
      "type": "Feature",
      "id": "node/12504505836",
      "properties": {
        "timestamp": "2025-01-15T14:35:19Z",
        "version": 1,
        "changeset": 161383371,
        "addr:city": "Guarani",
        "addr:housenumber": "78",
        "addr:postcode": "36160-000",
        "addr:street": "Avenida Avelino Sarmento",
        "addr:suburb": "Centro",
        "government": "register_office",
        "name": "Cartório de Registro Civil de Guarani",
        "office": "government",
        "id": "node/12504505836"
      },
      "geometry": {
        "type": "Point",
        "coordinates": [
          -43.0491815,
          -21.3585693
        ]
      }
    },
    {
      "type": "Feature",
      "id": "node/12504505841",
      "properties": {
        "timestamp": "2025-01-15T14:35:19Z",
        "version": 1,
        "changeset": 161383371,
        "addr:city": "Guarani",
        "addr:housenumber": "266",
        "addr:postcode": "36160-000",
        "addr:street": "Rua Doutor Getúlio Vargas",
        "addr:suburb": "Centro",
        "government": "register_office",
        "name": "Cartório de Registro de Títulos e Documentos de Guarani",
        "office": "government",
        "id": "node/12504505841"
      },
      "geometry": {
        "type": "Point",
        "coordinates": [
          -43.050296,
          -21.3573976
        ]
      }
    },
    {
      "type": "Feature",
      "id": "node/12504505842",
      "properties": {
        "timestamp": "2025-01-15T14:35:19Z",
        "version": 1,
        "changeset": 161383371,
        "addr:city": "Guarani",
        "addr:housenumber": "59",
        "addr:postcode": "36160-000",
        "addr:street": "Avenida Avelino Sarmento",
        "addr:suburb": "Centro",
        "government": "register_office",
        "name": "Cartório de Registro de Imóveis de Guarani",
        "office": "government",
        "id": "node/12504505842"
      },
      "geometry": {
        "type": "Point",
        "coordinates": [
          -43.0489778,
          -21.3584481
        ]
      }
    },
    {
      "type": "Feature",
      "id": "node/12504505844",
      "properties": {
        "timestamp": "2025-01-15T17:20:11Z",
        "version": 2,
        "changeset": 161389463,
        "addr:city": "Guarani",
        "addr:housenumber": "95",
        "addr:postcode": "36160-000",
        "addr:street": "Rua Doutor Getúlio Vargas",
        "addr:suburb": "Centro",
        "government": "register_office",
        "name": "Cartório do Segundo Ofício de Notas de Guarani",
        "office": "government",
        "id": "node/12504505844"
      },
      "geometry": {
        "type": "Point",
        "coordinates": [
          -43.0487758,
          -21.3579198
        ]
      }
    },
    {
      "type": "Feature",
      "id": "node/12505023324",
      "properties": {
        "timestamp": "2025-01-15T17:20:11Z",
        "version": 1,
        "changeset": 161389463,
        "addr:city": "Guarani",
        "addr:housenumber": "138",
        "addr:postcode": "36160-000",
        "addr:street": "Rua Benedito Valadares",
        "addr:suburb": "Centro",
        "government": "education",
        "name": "Secretaria Municipal de Educação, Esporte e Cultura de Guarani",
        "office": "government",
        "id": "node/12505023324"
      },
      "geometry": {
        "type": "Point",
        "coordinates": [
          -43.0517431,
          -21.3565151
        ]
      }
    }
  ]
}
