{
  "type": "FeatureCollection",
  "features": [
    {
      "type": "Feature",
      "id": "node/12504491793",
      "properties": {
        "timestamp": "2025-01-15T17:20:11Z",
        "version": 2,
        "changeset": 161389463,
        "addr:city": "Guarani",
        "addr:housenumber": "112",
        "addr:postcode": "36160-000",
        "addr:street": "Rua José Vieira de Souza",
        "addr:suburb": "Centro",
        "amenity": "school",
        "name": "Escola Municipal Francisco Peixoto",
        "operator": "Município de Guarani",
        "operator:type": "public",
        "id": "node/12504491793"
      },
      "geometry": {
        "type": "Point",
        "coordinates": [
          -43.0461447,
          -21.3585537
        ]
      }
    },
    {
      "type": "Feature",
      "id": "node/12505023314",
      "properties": {
        "timestamp": "2025-01-15T17:20:11Z",
        "version": 1,
        "changeset": 161389463,
        "addr:city": "Guarani",
        "addr:housenumber": "210",
        "addr:postcode": "36160-000",
        "addr:street": "Rua Abreu Sobrinho",
        "addr:suburb": "Centro",
        "amenity": "school",
        "name": "Escola Estadual José Alvarez Filho",
        "operator": "Secretaria de Estado de Educação de Minas Gerais",
        "operator:type": "government",
        "operator:wikidata": "Q61612780",
        "id": "node/12505023314"
      },
      "geometry": {
        "type": "Point",
        "coordinates": [
          -43.0502912,
          -21.3594687
        ]
      }
    },
    {
      "type": "Feature",
      "id": "node/12505023316",
      "properties": {
        "timestamp": "2025-01-15T17:20:11Z",
        "version": 1,
        "changeset": 161389463,
        "addr:city": "Guarani",
        "addr:housenumber": "162",
        "addr:postcode": "36160-000",
        "addr:street": "Rua Benedito Valadares",
        "addr:suburb": "Centro",
        "amenity": "school",
        "name": "Escola Municipal Ministro Odilon Braga",
        "operator": "Município de Guarani",
        "operator:type": "public",
        "id": "node/12505023316"
      },
      "geometry": {
        "type": "Point",
        "coordinates": [
          -43.05193,
          -21.3563218
        ]
      }
    },
    {
      "type": "Feature",
      "id": "node/12505023317",
      "properties": {
        "timestamp": "2025-01-15T17:20:11Z",
        "version": 1,
        "changeset": 161389463,
        "addr:city": "Guarani",
        "addr:housenumber": "164",
        "addr:postcode": "36160-000",
        "addr:street": "Rua Benedito Valadares",
        "addr:suburb": "Centro",
        "amenity": "school",
        "name": "Escola Estadual Professor Alberto Pacheco",
        "operator": "Secretaria de Estado de Educação de Minas Gerais",
        "operator:type": "government",
        "operator:wikidata": "Q61612780",
        "id": "node/12505023317"
      },
      "geometry": {
        "type": "Point",
        "coordinates": [
          -43.0522084,
          -21.3561338
        ]
      }
    },
    {
      "type": "Feature",
      "id": "node/12505023349",
      "properties": {
        "timestamp": "2025-01-15T17:20:11Z",
        "version": 1,
        "changeset": 161389463,
        "addr:city": "Guarani",
        "addr:housenumber": "40",
        "addr:postcode": "36160-000",
        "addr:street": "Rua Octávio Furtado Sarmento",
        "addr:suburb": "Nova Guarani",
        "amenity": "school",
        "name": "Centro Municipal de Educação Infantil Professora Alcyone Alves Vidal Neves",
        "operator": "Município de Guarani",
        "operator:type": "public",
        "id": "node/12505023349"
      },
      "geometry": {
        "type": "Point",
        "coordinates": [
          -43.0521356,
          -21.3519149
        ]
      }
    }
  ]
}
