{
  "type": "FeatureCollection",
  "features": [
    {
      "type": "Feature",
      "id": "node/2887249501",
      "properties": {
        "timestamp": "2014-06-15T03:35:01Z",
        "version": 3,
        "changeset": 22937143,
        "addr:city": "São João de Meriti",
        "addr:housenumber": "41",
        "addr:street": "Rua Antônio José de Moraes",
        "name": "Celio's Bike",
        "shop": "bicycle",
        "id": "node/2887249501"
      },
      "geometry": {
        "type": "Point",
        "coordinates": [
          -43.3651056,
          -22.8036207
        ]
      }
    },
    {
      "type": "Feature",
      "id": "node/2960393721",
      "properties": {
        "timestamp": "2014-07-12T23:09:14Z",
        "version": 1,
        "changeset": 24110335,
        "addr:city": "São João de Meriti",
        "addr:housenumber": "166",
        "addr:street": "Avenida Automóvel Clube",
        "name": "Elida Bicicletas",
        "phone": "+55 21 27568837",
        "shop": "bicycle",
        "id": "node/2960393721"
      },
      "geometry": {
        "type": "Point",
        "coordinates": [
          -43.3672726,
          -22.8031301
        ]
      }
    },
    {
      "type": "Feature",
      "id": "node/2960408945",
      "properties": {
        "timestamp": "2014-07-12T23:28:20Z",
        "version": 1,
        "changeset": 24110491,
        "addr:city": "São João de Meriti",
        "addr:housenumber": "265",
        "addr:street": "Avenida Doutor Arruda Negreiros",
        "addr:suburb": "Centro",
        "name": "Elida Bicicletas",
        "phone": "+55-21-37531892",
        "shop": "bicycle",
        "id": "node/2960408945"
      },
      "geometry": {
        "type": "Point",
        "coordinates": [
          -43.3717994,
          -22.8042119
        ]
      }
    },
    {
      "type": "Feature",
      "id": "node/2960452014",
      "properties": {
        "timestamp": "2014-07-13T01:08:34Z",
        "version": 1,
        "changeset": 24111077,
        "addr:city": "São João de Meriti",
        "addr:housenumber": "332",
        "addr:street": "Avenida Nossa Senhora das Graças",
        "addr:suburb": "Centro",
        "name": "Marrafa's Bike Sport",
        "shop": "bicycle",
        "id": "node/2960452014"
      },
      "geometry": {
        "type": "Point",
        "coordinates": [
          -43.3694855,
          -22.8026785
        ]
      }
    },
    {
      "type": "Feature",
      "id": "node/3017419441",
      "properties": {
        "timestamp": "2018-04-25T15:12:36Z",
        "version": 2,
        "changeset": 58411610,
        "addr:city": "São João de Meriti",
        "addr:housenumber": "2337",
        "addr:street": "Avenida Comendador Teles",
        "addr:suburb": "Vilar dos Teles",
        "name": "Resilaine Bicicletas",
        "shop": "bicycle",
        "id": "node/3017419441"
      },
      "geometry": {
        "type": "Point",
        "coordinates": [
          -43.3589521,
          -22.7757479
        ]
      }
    }
  ]
}
