{
  "type": "FeatureCollection",
  "features": [
    {
      "type": "Feature",
      "id": "node/2912270802",
      "properties": {
        "timestamp": "2014-06-12T03:39:10Z",
        "version": 1,
        "changeset": 22882013,
        "amenity": "library",
        "name": "Biblioteca Racional",
        "id": "node/2912270802"
      },
      "geometry": {
        "type": "Point",
        "coordinates": [
          -43.3609798,
          -22.8014184
        ]
      }
    },
    {
      "type": "Feature",
      "id": "node/7715270030",
      "properties": {
        "timestamp": "2020-07-15T03:47:53Z",
        "version": 1,
        "changeset": 88004510,
        "addr:city": "São João de Meriti",
        "addr:postcode": "25525470",
        "addr:street": "Rua Doutor Luís Sobral",
        "addr:suburb": "São Mateus",
        "amenity": "library",
        "name": "Centro Cultural Nossa Casa",
        "id": "node/7715270030"
      },
      "geometry": {
        "type": "Point",
        "coordinates": [
          -43.3889739,
          -22.8009206
        ]
      }
    }
  ]
}
