{
  "type": "FeatureCollection",
  "features": [
    {
      "type": "Feature",
      "id": "way/695979187",
      "properties": {
        "timestamp": "2019-06-09T15:31:23Z",
        "version": 1,
        "changeset": 71074269,
        "addr:city": "São Francisco de Itabapoana",
        "addr:housenumber": "223",
        "addr:postcode": "28230-000",
        "addr:street": "Rua São Paulo",
        "addr:suburb": "Guaxindiba",
        "amenity": "clinic",
        "building": "yes",
        "healthcare": "clinic",
        "name": "PSF - Guaxindiba",
        "opening_hours": "Mo-Fr 08:00-17:00",
        "id": "way/695979187"
      },
      "geometry": {
        "type": "Polygon",
        "coordinates": [
          [
            [
              -41.0614683,
              -21.481393
            ],
            [
              -41.0613049,
              -21.4815614
            ],
            [
              -41.0611401,
              -21.4814229
            ],
            [
              -41.0613035,
              -21.4812546
            ],
            [
              -41.0614683,
              -21.481393
            ]
          ]
        ]
      }
    },
    {
      "type": "Feature",
      "id": "way/869902966",
      "properties": {
        "timestamp": "2022-05-07T23:10:44Z",
        "version": 2,
        "changeset": 120685068,
        "addr:city": "São Francisco de Itabapoana",
        "addr:postcode": "28230-000",
        "addr:street": "Rodovia Afonso Celso",
        "addr:suburb": "Centro",
        "amenity": "clinic",
        "building": "yes",
        "healthcare": "clinic",
        "name": "UBS - Francisco Ribeiro da Silva Filho",
        "operator": "Secretaria Municipal de Saúde",
        "operator:type": "public",
        "id": "way/869902966"
      },
      "geometry": {
        "type": "Polygon",
        "coordinates": [
          [
            [
              -41.1178885,
              -21.474439
            ],
            [
              -41.1178975,
              -21.4744703
            ],
            [
              -41.1178633,
              -21.4744788
            ],
            [
              -41.1178693,
              -21.4744998
            ],
            [
              -41.1179037,
              -21.4744913
            ],
            [
              -41.1179119,
              -21.4745197
            ],
            [
              -41.1178018,
              -21.4745471
            ],
            [
              -41.117824,
              -21.4746243
            ],
            [
              -41.1177393,
              -21.4746454
            ],
            [
              -41.1177177,
              -21.4745702
            ],
            [
              -41.1175844,
              -21.4746034
            ],
            [
              -41.1175759,
              -21.4745736
            ],
            [
              -41.1176042,
              -21.4745666
            ],
            [
              -41.1175981,
              -21.4745456
            ],
            [
              -41.1175678,
              -21.4745531
            ],
            [
              -41.1175576,
              -21.4745177
            ],
            [
              -41.1176945,
              -21.4744836
            ],
            [
              -41.1176849,
              -21.4744501
            ],
            [
              -41.1177718,
              -21.4744284
            ],
            [
              -41.1177824,
              -21.4744654
            ],
            [
              -41.1178885,
              -21.474439
            ]
          ]
        ]
      }
    },
    {
      "type": "Feature",
      "id": "way/869902967",
      "properties": {
        "timestamp": "2022-05-07T23:10:44Z",
        "version": 2,
        "changeset": 120685068,
        "addr:city": "São Francisco de Itabapoana",
        "addr:postcode": "28230-000",
        "addr:street": "Rodovia Afonso Celso",
        "addr:suburb": "Centro",
        "amenity": "clinic",
        "building": "yes",
        "healthcare": "clinic",
        "name": "Clínica da Família - Germano Barros Delgado",
        "id": "way/869902967"
      },
      "geometry": {
        "type": "Polygon",
        "coordinates": [
          [
            [
              -41.1179737,
              -21.474286
            ],
            [
              -41.1183915,
              -21.4741882
            ],
            [
              -41.1184692,
              -21.4744735
            ],
            [
              -41.1180497,
              -21.4745673
            ],
            [
              -41.1179737,
              -21.474286
            ]
          ]
        ]
      }
    },
    {
      "type": "Feature",
      "id": "node/8086305006",
      "properties": {
        "timestamp": "2024-12-12T15:12:37Z",
        "version": 2,
        "changeset": 160211945,
        "addr:city": "São Francisco de Itabapoana",
        "addr:postcode": "28230-000",
        "addr:street": "Rua Projetada Quatro",
        "addr:suburb": "Floresta",
        "amenity": "clinic",
        "healthcare": "clinic",
        "name": "UBS- Sylvio Rangel Pessanha",
        "nohousenumber": "yes",
        "operator": "Secretaria Municipal de Saúde",
        "operator:type": "public",
        "id": "node/8086305006"
      },
      "geometry": {
        "type": "Point",
        "coordinates": [
          -41.2247846,
          -21.5140137
        ]
      }
    },
    {
      "type": "Feature",
      "id": "node/8345980052",
      "properties": {
        "timestamp": "2021-01-21T17:59:06Z",
        "version": 1,
        "changeset": 97921208,
        "addr:city": "São Francisco de Itabapoana",
        "addr:housenumber": "516",
        "addr:postcode": "28230-000",
        "addr:street": "Avenida Deputado Alair Ferreira",
        "addr:suburb": "Santa Clara",
        "amenity": "clinic",
        "healthcare": "clinic",
        "name": "UBS - Santa Clara",
        "operator": "Secretaria Municipal de Saúde",
        "id": "node/8345980052"
      },
      "geometry": {
        "type": "Point",
        "coordinates": [
          -41.0778165,
          -21.5164261
        ]
      }
    }
  ]
}
