{
  "type": "FeatureCollection",
  "features": [
    {
      "type": "Feature",
      "id": "way/686482740",
      "properties": {
        "timestamp": "2024-12-05T22:57:42Z",
        "version": 3,
        "changeset": 159975378,
        "addr:city": "São Francisco de Itabapoana",
        "addr:postcode": "28230-000",
        "addr:street": "Avenida Itaperuna",
        "addr:suburb": "Santa Clara",
        "amenity": "school",
        "grades": "10-12",
        "name": "Colégio Estadual Agostinho Chryzanto de Araújo",
        "operator": "Governo estadual",
        "operator:type": "public/government",
        "id": "way/686482740"
      },
      "geometry": {
        "type": "Polygon",
        "coordinates": [
          [
            [
              -41.0821728,
              -21.519912
            ],
            [
              -41.0822259,
              -21.52017
            ],
            [
              -41.0821629,
              -21.5202062
            ],
            [
              -41.0818276,
              -21.5202658
            ],
            [
              -41.0817696,
              -21.5199838
            ],
            [
              -41.0821728,
              -21.519912
            ]
          ]
        ]
      }
    },
    {
      "type": "Feature",
      "id": "way/690810379",
      "properties": {
        "timestamp": "2019-05-17T20:38:50Z",
        "version": 1,
        "changeset": 70373555,
        "addr:city": "São Francisco de Itabapoana",
        "addr:housenumber": "2",
        "addr:postcode": "28230-000",
        "addr:street": "Rua Antônio Pinheiro Filho",
        "addr:suburb": "Centro",
        "amenity": "school",
        "name": "Ciep 470 - Celso Martins Cordeiro",
        "operator": "SEEDUC",
        "id": "way/690810379"
      },
      "geometry": {
        "type": "Polygon",
        "coordinates": [
          [
            [
              -41.1146216,
              -21.4774949
            ],
            [
              -41.1146515,
              -21.4776369
            ],
            [
              -41.1139017,
              -21.4777732
            ],
            [
              -41.1138719,
              -21.4776313
            ],
            [
              -41.1146216,
              -21.4774949
            ]
          ]
        ]
      }
    },
    {
      "type": "Feature",
      "id": "way/695979181",
      "properties": {
        "timestamp": "2019-06-09T15:31:23Z",
        "version": 1,
        "changeset": 71074269,
        "addr:city": "São Francisco de Itabapoana",
        "addr:housenumber": "1",
        "addr:postcode": "28230-000",
        "addr:street": "Rua São Paulo",
        "addr:suburb": "Guaxindiba",
        "amenity": "school",
        "name": "E. M. Dirceu Dias da Silva",
        "operator": "Secretária municipal de educação",
        "id": "way/695979181"
      },
      "geometry": {
        "type": "Polygon",
        "coordinates": [
          [
            [
              -41.0583035,
              -21.4763252
            ],
            [
              -41.0585181,
              -21.4761605
            ],
            [
              -41.0586455,
              -21.4763939
            ],
            [
              -41.0584108,
              -21.4765149
            ],
            [
              -41.0583035,
              -21.4763252
            ]
          ]
        ]
      }
    },
    {
      "type": "Feature",
      "id": "way/695979192",
      "properties": {
        "timestamp": "2019-06-09T15:31:23Z",
        "version": 1,
        "changeset": 71074269,
        "addr:city": "São Francisco de Itabapoana",
        "addr:housenumber": "12",
        "addr:postcode": "28230-000",
        "addr:street": "Rua Capitão João Pereira Viana",
        "addr:suburb": "Barra do Itabapoana",
        "amenity": "school",
        "name": "C. E. Ana Nunes Viana",
        "id": "way/695979192"
      },
      "geometry": {
        "type": "Polygon",
        "coordinates": [
          [
            [
              -40.9672851,
              -21.3003985
            ],
            [
              -40.9679664,
              -21.3006109
            ],
            [
              -40.9677867,
              -21.3012831
            ],
            [
              -40.9671081,
              -21.3011182
            ],
            [
              -40.9672851,
              -21.3003985
            ]
          ]
        ]
      }
    },
    {
      "type": "Feature",
      "id": "way/720081687",
      "properties": {
        "timestamp": "2019-08-30T02:33:08Z",
        "version": 1,
        "changeset": 73903063,
        "addr:city": "São Francisco de Itabapoana",
        "addr:housenumber": "50",
        "addr:postcode": "28230-000",
        "addr:street": "Rua Aristides Linhares de Menezes",
        "addr:suburb": "Gargaú",
        "amenity": "school",
        "name": "E. M. Professora Dalria Maria Gomes Macedo Gonçalves",
        "operator": "Secretária Municipal",
        "operator:type": "public",
        "id": "way/720081687"
      },
      "geometry": {
        "type": "Polygon",
        "coordinates": [
          [
            [
              -41.0647663,
              -21.5762111
            ],
            [
              -41.0641848,
              -21.5760021
            ],
            [
              -41.0643161,
              -21.5756862
            ],
            [
              -41.0648976,
              -21.5758954
            ],
            [
              -41.0647663,
              -21.5762111
            ]
          ]
        ]
      }
    },
    {
      "type": "Feature",
      "id": "way/720081688",
      "properties": {
        "timestamp": "2019-08-30T02:33:08Z",
        "version": 1,
        "changeset": 73903063,
        "addr:city": "São Francisco de Itabapoana",
        "addr:postcode": "28230-000",
        "addr:street": "Rua Capitão Almeida",
        "addr:suburb": "Gargaú",
        "amenity": "school",
        "name": "C. E. Ercilia Muylaert de Menezes",
        "operator": "Secretária Estadual",
        "operator:type": "public",
        "id": "way/720081688"
      },
      "geometry": {
        "type": "Polygon",
        "coordinates": [
          [
            [
              -41.0649264,
              -21.5764006
            ],
            [
              -41.0647974,
              -21.5767112
            ],
            [
              -41.0642436,
              -21.5765123
            ],
            [
              -41.0643726,
              -21.5762017
            ],
            [
              -41.0649264,
              -21.5764006
            ]
          ]
        ]
      }
    },
    {
      "type": "Feature",
      "id": "way/868124596",
      "properties": {
        "timestamp": "2024-12-12T15:12:51Z",
        "version": 2,
        "changeset": 160211959,
        "addr:city": "São Francisco de Itabapoana",
        "addr:postcode": "28230-000",
        "addr:suburb": "Campo Novo",
        "amenity": "school",
        "name": "Escola Municipal Manoel Gomes do Nascimento",
        "nohousenumber": "yes",
        "id": "way/868124596"
      },
      "geometry": {
        "type": "Polygon",
        "coordinates": [
          [
            [
              -41.1243867,
              -21.6601003
            ],
            [
              -41.1243208,
              -21.6602222
            ],
            [
              -41.1240718,
              -21.6601079
            ],
            [
              -41.1241328,
              -21.6599872
            ],
            [
              -41.1243867,
              -21.6601003
            ]
          ]
        ]
      }
    },
    {
      "type": "Feature",
      "id": "way/875606275",
      "properties": {
        "timestamp": "2020-11-21T21:36:28Z",
        "version": 1,
        "changeset": 94562618,
        "addr:city": "São Francisco de Itabapoana",
        "addr:housenumber": "2",
        "addr:postcode": "28230-000",
        "addr:street": "Rua Antônio Pinheiro Filho",
        "addr:suburb": "Centro",
        "amenity": "school",
        "name": "CIEP 470 - Celso Martins Cordeiro",
        "operator": "SEEDUC",
        "operator:type": "public/government",
        "id": "way/875606275"
      },
      "geometry": {
        "type": "Polygon",
        "coordinates": [
          [
            [
              -41.1136341,
              -21.4779231
            ],
            [
              -41.1135396,
              -21.4773517
            ],
            [
              -41.1151202,
              -21.4770726
            ],
            [
              -41.1152339,
              -21.4776552
            ],
            [
              -41.1136341,
              -21.4779231
            ]
          ]
        ]
      }
    },
    {
      "type": "Feature",
      "id": "way/887949869",
      "properties": {
        "timestamp": "2020-12-26T12:16:03Z",
        "version": 2,
        "changeset": 96449219,
        "addr:city": "São Francisco de Itabapoana",
        "addr:postcode": "28230-000",
        "addr:street": "Rodovia Simão Mansur",
        "addr:suburb": "Bom Jardim",
        "amenity": "school",
        "name": "E. M. Júlio Pereira de Miranda",
        "id": "way/887949869"
      },
      "geometry": {
        "type": "Polygon",
        "coordinates": [
          [
            [
              -41.1342593,
              -21.4399828
            ],
            [
              -41.1340793,
              -21.4399928
            ],
            [
              -41.1339759,
              -21.4399993
            ],
            [
              -41.1339749,
              -21.4399985
            ],
            [
              -41.133951,
              -21.4396227
            ],
            [
              -41.1342355,
              -21.4396071
            ],
            [
              -41.1342593,
              -21.4399828
            ]
          ]
        ]
      }
    },
    {
      "type": "Feature",
      "id": "way/904341512",
      "properties": {
        "timestamp": "2021-02-06T03:56:24Z",
        "version": 1,
        "changeset": 98799881,
        "addr:city": "São Frnacisco de Itabapoana",
        "addr:postcode": "28230-000",
        "addr:street": "Estrada Júlio Gomes Marinheiro",
        "addr:suburb": "Centro",
        "amenity": "school",
        "name": "E M Herval Luis Dos Santos Batista",
        "id": "way/904341512"
      },
      "geometry": {
        "type": "Polygon",
        "coordinates": [
          [
            [
              -41.1075132,
              -21.4701203
            ],
            [
              -41.1074804,
              -21.4701998
            ],
            [
              -41.1068102,
              -21.4699605
            ],
            [
              -41.1068472,
              -21.4698709
            ],
            [
              -41.1068991,
              -21.4698894
            ],
            [
              -41.1069306,
              -21.4698132
            ],
            [
              -41.1072791,
              -21.4699378
            ],
            [
              -41.1072591,
              -21.4699863
            ],
            [
              -41.1073069,
              -21.4700034
            ],
            [
              -41.1073187,
              -21.4699747
            ],
            [
              -41.1072906,
              -21.4699647
            ],
            [
              -41.1072968,
              -21.4699498
            ],
            [
              -41.10749,
              -21.4700188
            ],
            [
              -41.1074565,
              -21.4701001
            ],
            [
              -41.1075132,
              -21.4701203
            ]
          ]
        ]
      }
    },
    {
      "type": "Feature",
      "id": "way/908923510",
      "properties": {
        "timestamp": "2021-02-19T22:27:27Z",
        "version": 1,
        "changeset": 99619941,
        "addr:city": "São Francisco de Itabapoana",
        "addr:housenumber": "246",
        "addr:postcode": "28230-000",
        "addr:street": "Vereador Edenite da Silva Viana",
        "addr:suburb": "Centro",
        "amenity": "school",
        "name": "Colégio Estadual São Francisco de Paula",
        "operator": "SEEDUC",
        "id": "way/908923510"
      },
      "geometry": {
        "type": "Polygon",
        "coordinates": [
          [
            [
              -41.1107661,
              -21.4724443
            ],
            [
              -41.1114615,
              -21.4724742
            ],
            [
              -41.1113846,
              -21.4726271
            ],
            [
              -41.1112622,
              -21.4728784
            ],
            [
              -41.1111834,
              -21.4730411
            ],
            [
              -41.1107571,
              -21.4730186
            ],
            [
              -41.110754,
              -21.4731058
            ],
            [
              -41.1104954,
              -21.4729808
            ],
            [
              -41.1107661,
              -21.4724443
            ]
          ]
        ]
      }
    },
    {
      "type": "Feature",
      "id": "node/4146509156",
      "properties": {
        "timestamp": "2018-11-02T07:28:46Z",
        "version": 2,
        "changeset": 64103272,
        "addr:city": "São Francisco de Itabapoana",
        "addr:housenumber": "11",
        "addr:postcode": "28230979",
        "addr:street": "Rua Antenor Moreira",
        "addr:suburb": "Travessão da Barra",
        "amenity": "school",
        "name": "Colégio Estadual Domires Machado",
        "id": "node/4146509156"
      },
      "geometry": {
        "type": "Point",
        "coordinates": [
          -41.0316158,
          -21.3178686
        ]
      }
    },
    {
      "type": "Feature",
      "id": "node/6308417606",
      "properties": {
        "timestamp": "2019-02-28T15:19:23Z",
        "version": 1,
        "changeset": 67654885,
        "addr:city": "São Francisco de Itabapoana",
        "addr:housenumber": "70",
        "addr:postcode": "28230-000",
        "addr:street": "Estrada do Sossego",
        "addr:suburb": "Boca da Areia",
        "amenity": "school",
        "name": "E. M. Otávio Pinto de Oliveira",
        "operator": "Prefeitura municipal",
        "id": "node/6308417606"
      },
      "geometry": {
        "type": "Point",
        "coordinates": [
          -41.0905523,
          -21.5018142
        ]
      }
    },
    {
      "type": "Feature",
      "id": "node/7844158288",
      "properties": {
        "timestamp": "2020-08-25T18:33:25Z",
        "version": 1,
        "changeset": 89930032,
        "addr:city": "São Francisco de Itabapoana",
        "addr:postcode": "28230000",
        "addr:street": "Rua Lucas Machado",
        "addr:suburb": "Vilão",
        "amenity": "school",
        "name": "Escola Municipal",
        "id": "node/7844158288"
      },
      "geometry": {
        "type": "Point",
        "coordinates": [
          -41.1085044,
          -21.3492973
        ]
      }
    }
  ]
}
