{
  "type": "FeatureCollection",
  "features": [
    {
      "type": "Feature",
      "id": "way/1053671584",
      "properties": {
        "timestamp": "2022-04-21T16:47:18Z",
        "version": 1,
        "changeset": 120009851,
        "addr:city": "Barra de Santana",
        "addr:postcode": "58458000",
        "addr:street": "Rua Projetada",
        "addr:suburb": "Centro",
        "amenity": "clinic",
        "branch": "da Zona Urbana",
        "building": "yes",
        "building:levels": "1",
        "healthcare": "clinic",
        "healthcare:speciality": "general;vaccination;dentistry;emergency",
        "name": "UBS da Zona Urbana",
        "operator": "Secretária de Saúde",
        "operator:type": "government",
        "id": "way/1053671584"
      },
      "geometry": {
        "type": "Polygon",
        "coordinates": [
          [
            [
              -35.9947776,
              -7.5212934
            ],
            [
              -35.9948413,
              -7.5217197
            ],
            [
              -35.9947245,
              -7.5217566
            ],
            [
              -35.9946643,
              -7.5213005
            ],
            [
              -35.9947776,
              -7.5212934
            ]
          ]
        ]
      }
    }
  ]
}
