{
  "type": "FeatureCollection",
  "features": [
    {
      "type": "Feature",
      "id": "way/672026307",
      "properties": {
        "timestamp": "2023-08-06T22:47:04Z",
        "version": 2,
        "changeset": 139534949,
        "addr:city": "Ilha Solteira",
        "addr:housenumber": "119",
        "addr:postcode": "15385-000",
        "addr:street": "Passeio Prado",
        "addr:suburb": "Zona Norte",
        "amenity": "clinic",
        "building": "yes",
        "healthcare": "clinic",
        "name": "Dr. Alex Justo - Urologista",
        "phone": "+55 18 3742 4160",
        "id": "way/672026307"
      },
      "geometry": {
        "type": "Polygon",
        "coordinates": [
          [
            [
              -51.3385668,
              -20.4304869
            ],
            [
              -51.3386468,
              -20.4305582
            ],
            [
              -51.3386096,
              -20.4305937
            ],
            [
              -51.3385299,
              -20.430529
            ],
            [
              -51.3385668,
              -20.4304869
            ]
          ]
        ]
      }
    },
    {
      "type": "Feature",
      "id": "way/673654213",
      "properties": {
        "timestamp": "2023-08-06T22:47:04Z",
        "version": 2,
        "changeset": 139534949,
        "addr:city": "Ilha Solteira",
        "addr:housenumber": "101",
        "addr:postcode": "15385-000",
        "addr:street": "Passeio Prado",
        "addr:suburb": "Zona Norte",
        "amenity": "clinic",
        "building": "yes",
        "healthcare": "clinic",
        "name": "Clínica de Neurologia Dra. Maria Elena",
        "phone": "+55 18 3742 2449",
        "id": "way/673654213"
      },
      "geometry": {
        "type": "Polygon",
        "coordinates": [
          [
            [
              -51.3382667,
              -20.4309563
            ],
            [
              -51.338202,
              -20.4310386
            ],
            [
              -51.3380788,
              -20.4309371
            ],
            [
              -51.3381447,
              -20.4308628
            ],
            [
              -51.3381875,
              -20.4308946
            ],
            [
              -51.3382667,
              -20.4309563
            ]
          ]
        ]
      }
    },
    {
      "type": "Feature",
      "id": "way/673658921",
      "properties": {
        "timestamp": "2023-08-06T22:47:04Z",
        "version": 6,
        "changeset": 139534949,
        "addr:city": "Ilha Solteira",
        "addr:housenumber": "725",
        "addr:postcode": "15385-000",
        "addr:street": "Alameda Bahia",
        "addr:suburb": "Zona Norte",
        "amenity": "clinic",
        "building": "yes",
        "healthcare": "clinic",
        "healthcare:speciality": "general",
        "name": "UBS III",
        "operator:ref:vatin": "BR59754648000104",
        "phone": "+55 18 3743 2114",
        "ref:CNES": "2034549",
        "id": "way/673658921"
      },
      "geometry": {
        "type": "Polygon",
        "coordinates": [
          [
            [
              -51.3381558,
              -20.4312031
            ],
            [
              -51.3380246,
              -20.4313478
            ],
            [
              -51.3378419,
              -20.4312043
            ],
            [
              -51.3379847,
              -20.4310657
            ],
            [
              -51.3381558,
              -20.4312031
            ]
          ]
        ]
      }
    },
    {
      "type": "Feature",
      "id": "way/678403737",
      "properties": {
        "timestamp": "2023-08-06T22:47:04Z",
        "version": 2,
        "changeset": 139534949,
        "addr:city": "Ilha Solteira",
        "addr:housenumber": "753",
        "addr:postcode": "15385-000",
        "addr:street": "Alameda Bahia",
        "addr:suburb": "Zona Norte",
        "amenity": "clinic",
        "building": "yes",
        "healthcare": "clinic",
        "healthcare:speciality": "general",
        "name": "Clinica Endogastro",
        "phone": "+55 18 3743 2723",
        "id": "way/678403737"
      },
      "geometry": {
        "type": "Polygon",
        "coordinates": [
          [
            [
              -51.3378841,
              -20.4315101
            ],
            [
              -51.337657,
              -20.4313399
            ],
            [
              -51.3377076,
              -20.4312944
            ],
            [
              -51.3377515,
              -20.4313505
            ],
            [
              -51.3378077,
              -20.431308
            ],
            [
              -51.3379615,
              -20.4314269
            ],
            [
              -51.3378841,
              -20.4315101
            ]
          ]
        ]
      }
    },
    {
      "type": "Feature",
      "id": "node/5635065331",
      "properties": {
        "timestamp": "2023-08-06T22:47:04Z",
        "version": 4,
        "changeset": 139534949,
        "addr:city": "Ilha Solteira",
        "addr:housenumber": "2101",
        "addr:postcode": "15385-000",
        "addr:street": "Avenida Atlântica",
        "addr:suburb": "Centro",
        "amenity": "clinic",
        "healthcare": "clinic",
        "healthcare:speciality": "general",
        "name": "CAPS",
        "operator:ref:vatin": "BR59754648000104",
        "phone": "+55 18 3743 6046",
        "ref:CNES": "6327265",
        "id": "node/5635065331"
      },
      "geometry": {
        "type": "Point",
        "coordinates": [
          -51.3380785,
          -20.4326113
        ]
      }
    },
    {
      "type": "Feature",
      "id": "node/5804018987",
      "properties": {
        "timestamp": "2023-08-06T22:47:04Z",
        "version": 4,
        "changeset": 139534949,
        "addr:city": "Ilha Solteira",
        "addr:housenumber": "117",
        "addr:postcode": "15385-000",
        "addr:street": "Passeio Parati",
        "addr:suburb": "Zona Sul",
        "amenity": "clinic",
        "healthcare": "clinic",
        "name": "Ilha Clinicas",
        "phone": "+55 18 37423992",
        "ref:CNES": "3578631",
        "ref:vatin": "BR01095840000148",
        "id": "node/5804018987"
      },
      "geometry": {
        "type": "Point",
        "coordinates": [
          -51.3418846,
          -20.4311462
        ]
      }
    },
    {
      "type": "Feature",
      "id": "node/6178583407",
      "properties": {
        "timestamp": "2023-08-06T22:47:04Z",
        "version": 3,
        "changeset": 139534949,
        "addr:city": "Ilha Solteira",
        "addr:housenumber": "115",
        "addr:postcode": "15385-000",
        "addr:street": "Passeio Parati",
        "addr:suburb": "Zona Sul",
        "amenity": "clinic",
        "healthcare": "clinic",
        "name": "Centro Estétco, Médico e Fisioterápico",
        "phone": "+55 18 3742 2439",
        "ref:CNES": "2067986",
        "ref:vatin": "BR04168395000197",
        "id": "node/6178583407"
      },
      "geometry": {
        "type": "Point",
        "coordinates": [
          -51.3417737,
          -20.4312064
        ]
      }
    }
  ]
}
