{
  "type": "FeatureCollection",
  "features": [
    {
      "type": "Feature",
      "id": "way/601343359",
      "properties": {
        "timestamp": "2019-03-03T14:59:53Z",
        "version": 3,
        "changeset": 67739068,
        "addr:city": "Ilha Solteira",
        "addr:housenumber": "963",
        "addr:postcode": "15358000",
        "addr:street": "Avenida Quinze de Novembro",
        "addr:suburb": "Jardim Aeroporto",
        "amenity": "community_centre",
        "amenity_1": "event_hall",
        "building": "yes",
        "name": "P & P Muñoz Eventos",
        "phone": "+55 18 3742 2596",
        "phone:mobile": "+55 18 98127 7856",
        "id": "way/601343359"
      },
      "geometry": {
        "type": "Polygon",
        "coordinates": [
          [
            [
              -51.3276832,
              -20.4259755
            ],
            [
              -51.3276431,
              -20.4261545
            ],
            [
              -51.3272765,
              -20.4259668
            ],
            [
              -51.3273012,
              -20.4257792
            ],
            [
              -51.3276832,
              -20.4259755
            ]
          ]
        ]
      }
    },
    {
      "type": "Feature",
      "id": "way/651189772",
      "properties": {
        "timestamp": "2021-03-03T13:49:59Z",
        "version": 5,
        "changeset": 100355827,
        "addr:city": "Ilha Solteira",
        "addr:housenumber": "2500",
        "addr:postcode": "15385000",
        "addr:street": "Avenida Continental",
        "addr:suburb": "Zona Sul",
        "amenity": "community_centre",
        "amenity_1": "event_hall",
        "name": "Associação dos Servidores da Unesp de Ilha Solteira",
        "short_name": "Asuis",
        "id": "way/651189772"
      },
      "geometry": {
        "type": "Polygon",
        "coordinates": [
          [
            [
              -51.3525841,
              -20.4233966
            ],
            [
              -51.3532758,
              -20.4241535
            ],
            [
              -51.3524681,
              -20.424723
            ],
            [
              -51.3518444,
              -20.4240261
            ],
            [
              -51.3525841,
              -20.4233966
            ]
          ]
        ]
      }
    },
    {
      "type": "Feature",
      "id": "way/662181783",
      "properties": {
        "timestamp": "2019-01-30T18:40:47Z",
        "version": 2,
        "changeset": 66779905,
        "addr:city": "Ilha Solteira",
        "addr:postcode": "15385000",
        "addr:street": "Rodovia Feliciano Salles da Cunha",
        "addr:suburb": "Ipê",
        "amenity": "community_centre",
        "building": "yes",
        "name": "Grêmio XV de Outubro",
        "id": "way/662181783"
      },
      "geometry": {
        "type": "Polygon",
        "coordinates": [
          [
            [
              -51.3193199,
              -20.4505469
            ],
            [
              -51.3196655,
              -20.4505164
            ],
            [
              -51.3196899,
              -20.4506916
            ],
            [
              -51.3193321,
              -20.4507221
            ],
            [
              -51.3193199,
              -20.4505469
            ]
          ]
        ]
      }
    }
  ]
}
