{
  "type": "FeatureCollection",
  "features": [
    {
      "type": "Feature",
      "id": "way/618633438",
      "properties": {
        "timestamp": "2020-12-17T12:24:34Z",
        "version": 5,
        "changeset": 96005643,
        "addr:city": "Ilha Solteira",
        "addr:housenumber": "1670",
        "addr:postcode": "15385000",
        "addr:street": "Avenida Brasil Norte",
        "addr:suburb": "Zona Norte",
        "amenity": "townhall",
        "building": "yes",
        "government": "legislative",
        "name": "Câmara Municipal de Ilha Solteira",
        "office": "government",
        "phone": "+55 18 3743-9000",
        "id": "way/618633438"
      },
      "geometry": {
        "type": "Polygon",
        "coordinates": [
          [
            [
              -51.331754,
              -20.4181511
            ],
            [
              -51.3321198,
              -20.4184901
            ],
            [
              -51.3320995,
              -20.4185702
            ],
            [
              -51.3320995,
              -20.4186959
            ],
            [
              -51.3321142,
              -20.4187792
            ],
            [
              -51.3321117,
              -20.4188483
            ],
            [
              -51.3314084,
              -20.4196446
            ],
            [
              -51.3312824,
              -20.4196979
            ],
            [
              -51.3309652,
              -20.4190312
            ],
            [
              -51.331754,
              -20.4181511
            ]
          ]
        ]
      }
    },
    {
      "type": "Feature",
      "id": "way/667671325",
      "properties": {
        "timestamp": "2019-03-21T13:15:37Z",
        "version": 5,
        "changeset": 68373162,
        "addr:city": "Ilha Solteira",
        "addr:housenumber": "1981",
        "addr:postcode": "15385000",
        "addr:street": "Avenida Atlântica",
        "addr:suburb": "Zona Sul",
        "building": "office",
        "government": "social_security",
        "name": "INSS",
        "office": "government",
        "official_name": "Instituto Nacional do Seguro Social",
        "opening_hours": "Mo-Fr 09:00-17:00",
        "phone": "+55 18 3742 2492",
        "website": "www.previdencia.gov.br/",
        "id": "way/667671325"
      },
      "geometry": {
        "type": "Polygon",
        "coordinates": [
          [
            [
              -51.3386905,
              -20.4332485
            ],
            [
              -51.3383375,
              -20.4335477
            ],
            [
              -51.3382564,
              -20.433372
            ],
            [
              -51.3385567,
              -20.4331118
            ],
            [
              -51.3386905,
              -20.4332485
            ]
          ]
        ]
      }
    },
    {
      "type": "Feature",
      "id": "way/678136612",
      "properties": {
        "timestamp": "2019-03-20T11:50:23Z",
        "version": 1,
        "changeset": 68332716,
        "addr:city": "Ilha Solteira",
        "addr:housenumber": "64",
        "addr:postcode": "15385000",
        "addr:street": "Alameda Minas Gerais",
        "addr:suburb": "Zona Sul",
        "building": "yes",
        "email": "cartorioisa@terra.com.br",
        "government": "register_office",
        "name": "Cartório de Ilha Solteira",
        "office": "government",
        "official_name": "Tabelião de Notas e de Protesto de Letras e Títulos da Comarca de Ilha Solteira",
        "opening_hours": "Mo-Fr 09:00-17:00",
        "phone": "+55 18 3743 3530",
        "id": "way/678136612"
      },
      "geometry": {
        "type": "Polygon",
        "coordinates": [
          [
            [
              -51.3480955,
              -20.4303522
            ],
            [
              -51.3481313,
              -20.4303938
            ],
            [
              -51.348082,
              -20.4304273
            ],
            [
              -51.3480449,
              -20.4303857
            ],
            [
              -51.3480955,
              -20.4303522
            ]
          ]
        ]
      }
    },
    {
      "type": "Feature",
      "id": "way/761541169",
      "properties": {
        "timestamp": "2020-01-07T19:19:43Z",
        "version": 2,
        "changeset": 79307948,
        "addr:city": "Ilha Solteira",
        "addr:housenumber": "513",
        "addr:postcode": "15385-000",
        "addr:street": "Rua Parati",
        "addr:suburb": "Zona Sul",
        "building": "yes",
        "government": "education",
        "name": "Secretaria de Educação, Esporte e Lazer de Ilha Solteira",
        "office": "government",
        "phone": "55 18 3743 6045",
        "website": "https://www.ilhasolteira.sp.gov.br/",
        "id": "way/761541169"
      },
      "geometry": {
        "type": "Polygon",
        "coordinates": [
          [
            [
              -51.3431953,
              -20.4324424
            ],
            [
              -51.3431883,
              -20.4326501
            ],
            [
              -51.3430904,
              -20.4326476
            ],
            [
              -51.3430461,
              -20.4326828
            ],
            [
              -51.3430408,
              -20.4327795
            ],
            [
              -51.3429308,
              -20.4327657
            ],
            [
              -51.3428248,
              -20.432767
            ],
            [
              -51.342849,
              -20.4325722
            ],
            [
              -51.3430113,
              -20.432449
            ],
            [
              -51.3431953,
              -20.4324424
            ]
          ]
        ]
      }
    },
    {
      "type": "Feature",
      "id": "node/6817762405",
      "properties": {
        "timestamp": "2019-10-09T14:36:47Z",
        "version": 3,
        "changeset": 75468610,
        "addr:city": "Ilha Solteira",
        "addr:housenumber": "1196",
        "addr:postcode": "15385000",
        "addr:street": "Avenida Brasil Sul",
        "addr:suburb": "Zona Sul",
        "government": "register_office",
        "name": "Cartório de Registro de Imóveis e Anexos",
        "office": "government",
        "opening_hours": "Mo-Fr 09:00-16:00",
        "id": "node/6817762405"
      },
      "geometry": {
        "type": "Point",
        "coordinates": [
          -51.3523548,
          -20.4361132
        ]
      }
    }
  ]
}
