{
  "type": "FeatureCollection",
  "features": [
    {
      "type": "Feature",
      "id": "way/581419449",
      "properties": {
        "timestamp": "2020-01-01T16:05:13Z",
        "version": 6,
        "changeset": 79085023,
        "addr:city": "Ilha Solteira",
        "addr:housenumber": "800",
        "addr:postcode": "15385-000",
        "addr:street": "Avenida Brasil Sul",
        "addr:suburb": "Zona Sul",
        "building": "yes",
        "internet_access": "yes",
        "name": "Bella Vista Park Hotel",
        "phone": "+55 18 3743 4203",
        "tourism": "hotel",
        "id": "way/581419449"
      },
      "geometry": {
        "type": "Polygon",
        "coordinates": [
          [
            [
              -51.3492647,
              -20.4316793
            ],
            [
              -51.3492514,
              -20.4317197
            ],
            [
              -51.3492076,
              -20.4317601
            ],
            [
              -51.3491016,
              -20.4317819
            ],
            [
              -51.3490696,
              -20.4317597
            ],
            [
              -51.3490017,
              -20.4318006
            ],
            [
              -51.3489453,
              -20.4318467
            ],
            [
              -51.3488981,
              -20.4319433
            ],
            [
              -51.3488302,
              -20.4318609
            ],
            [
              -51.3487951,
              -20.4317995
            ],
            [
              -51.3488307,
              -20.4317552
            ],
            [
              -51.3488773,
              -20.431724
            ],
            [
              -51.3489269,
              -20.4317079
            ],
            [
              -51.3489704,
              -20.431667
            ],
            [
              -51.3491332,
              -20.4315424
            ],
            [
              -51.3492647,
              -20.4316793
            ]
          ]
        ]
      }
    },
    {
      "type": "Feature",
      "id": "way/674084136",
      "properties": {
        "timestamp": "2019-03-17T12:49:12Z",
        "version": 3,
        "changeset": 68227477,
        "addr:city": "Ilha Solteira",
        "addr:housenumber": "75",
        "addr:postcode": "15385000",
        "addr:street": "Rua Rio Jari",
        "addr:suburb": "Zona Norte",
        "building": "apartments",
        "name": "Hotel Villa dos Pássaros",
        "phone": "+55 18 98139 2328",
        "tourism": "hotel",
        "id": "way/674084136"
      },
      "geometry": {
        "type": "Polygon",
        "coordinates": [
          [
            [
              -51.3318933,
              -20.4211605
            ],
            [
              -51.3314467,
              -20.4216808
            ],
            [
              -51.330988,
              -20.421349
            ],
            [
              -51.3314641,
              -20.4208236
            ],
            [
              -51.3318933,
              -20.4211605
            ]
          ]
        ]
      }
    },
    {
      "type": "Feature",
      "id": "way/674461912",
      "properties": {
        "timestamp": "2019-03-04T15:18:24Z",
        "version": 3,
        "changeset": 67771028,
        "addr:city": "Ilha Solteira",
        "addr:housenumber": "181",
        "addr:postcode": "15385000",
        "addr:street": "Avenida Brasil Sul",
        "addr:suburb": "Zona Sul",
        "building": "yes",
        "internet_access": "yes",
        "name": "Hotel Urubupungá",
        "phone": "+55 18 3742 2100",
        "tourism": "hotel",
        "website": "http://www.hotelurubupunga.com.br/",
        "id": "way/674461912"
      },
      "geometry": {
        "type": "Polygon",
        "coordinates": [
          [
            [
              -51.3449048,
              -20.4287505
            ],
            [
              -51.3451406,
              -20.4285562
            ],
            [
              -51.3451889,
              -20.4285893
            ],
            [
              -51.3452312,
              -20.4285621
            ],
            [
              -51.3452617,
              -20.4285398
            ],
            [
              -51.3452781,
              -20.4285395
            ],
            [
              -51.3452992,
              -20.4285459
            ],
            [
              -51.3453851,
              -20.4286512
            ],
            [
              -51.3451215,
              -20.4288709
            ],
            [
              -51.3450655,
              -20.4288078
            ],
            [
              -51.3449998,
              -20.4288599
            ],
            [
              -51.3449836,
              -20.4288338
            ],
            [
              -51.3449489,
              -20.428797
            ],
            [
              -51.3449048,
              -20.4287505
            ]
          ]
        ]
      }
    },
    {
      "type": "Feature",
      "id": "node/5555271900",
      "properties": {
        "timestamp": "2018-04-15T21:33:18Z",
        "version": 1,
        "changeset": 58120747,
        "addr:city": "Ilha Solteira",
        "addr:housenumber": "895",
        "addr:postcode": "15385-000",
        "addr:street": "Avenida Brasil Sul",
        "addr:suburb": "Zona Sul",
        "internet_access": "wlan",
        "name": "Ilha Palace Hotel",
        "phone": "+55 18 3742 2800",
        "tourism": "hotel",
        "id": "node/5555271900"
      },
      "geometry": {
        "type": "Point",
        "coordinates": [
          -51.3494684,
          -20.4336435
        ]
      }
    }
  ]
}
