{
  "type": "FeatureCollection",
  "features": [
    {
      "type": "Feature",
      "id": "way/419106651",
      "properties": {
        "timestamp": "2019-03-19T16:37:56Z",
        "version": 6,
        "changeset": 68301688,
        "addr:city": "Ilha Solteira",
        "addr:housenumber": "513",
        "addr:postcode": "15385-000",
        "addr:street": "Rua Cabo Frio",
        "addr:suburb": "Zona Sul",
        "amenity": "kindergarten",
        "building": "yes",
        "name": "EMEI O Pequeno Polegar",
        "official_name": "Escola Municipal de Educação Infantil O Pequeno Polegar",
        "phone": "+55 18 3743 6052",
        "id": "way/419106651"
      },
      "geometry": {
        "type": "Polygon",
        "coordinates": [
          [
            [
              -51.3446975,
              -20.4313373
            ],
            [
              -51.3446452,
              -20.4314779
            ],
            [
              -51.3442495,
              -20.4318037
            ],
            [
              -51.3439935,
              -20.4315681
            ],
            [
              -51.3444693,
              -20.4311482
            ],
            [
              -51.3446189,
              -20.4311991
            ],
            [
              -51.3446975,
              -20.4313373
            ]
          ]
        ]
      }
    },
    {
      "type": "Feature",
      "id": "way/656309872",
      "properties": {
        "timestamp": "2019-03-18T13:16:38Z",
        "version": 4,
        "changeset": 68258151,
        "addr:city": "Ilha Solteira",
        "addr:housenumber": "310",
        "addr:postcode": "15385000",
        "addr:street": "Rua Vinte e Um",
        "addr:suburb": "Jardim Aeroporto",
        "amenity": "kindergarten",
        "building": "yes",
        "name": "EMEF Professor Paulo Freire",
        "official_name": "Escola Municipal de Ensino Fundamental Paulo Freire",
        "phone": "+55 18 3742 4381",
        "id": "way/656309872"
      },
      "geometry": {
        "type": "Polygon",
        "coordinates": [
          [
            [
              -51.3331459,
              -20.4272434
            ],
            [
              -51.334357,
              -20.4283888
            ],
            [
              -51.3343087,
              -20.4291686
            ],
            [
              -51.333053,
              -20.4285385
            ],
            [
              -51.3331459,
              -20.4272434
            ]
          ]
        ]
      }
    },
    {
      "type": "Feature",
      "id": "way/666943839",
      "properties": {
        "timestamp": "2019-03-18T13:18:21Z",
        "version": 4,
        "changeset": 68258211,
        "addr:city": "Ilha Solteira",
        "addr:housenumber": "319",
        "addr:postcode": "15385000",
        "addr:street": "Rua Borba",
        "addr:suburb": "Bela Vista",
        "amenity": "kindergarten",
        "building": "yes",
        "name": "CEI Sorriso de Criança - Anexo II",
        "official_name": "Sorriso de Crianca Centro de Educação Infantil Anexo II",
        "phone": "+55 18 3743 6035",
        "id": "way/666943839"
      },
      "geometry": {
        "type": "Polygon",
        "coordinates": [
          [
            [
              -51.3371404,
              -20.4178078
            ],
            [
              -51.3366155,
              -20.4184024
            ],
            [
              -51.3362638,
              -20.4181207
            ],
            [
              -51.3367888,
              -20.4175213
            ],
            [
              -51.3371404,
              -20.4178078
            ]
          ]
        ]
      }
    },
    {
      "type": "Feature",
      "id": "way/666948129",
      "properties": {
        "timestamp": "2019-03-18T13:17:56Z",
        "version": 3,
        "changeset": 68258198,
        "addr:city": "Ilha Solteira",
        "addr:housenumber": "246",
        "addr:postcode": "15385000",
        "addr:street": "Rua Grajaú",
        "addr:suburb": "Cohab",
        "amenity": "kindergarten",
        "building": "yes",
        "name": "EMEI Guilherme Giantomassi Gomes",
        "phone": "+55 18 18 3743 6064",
        "id": "way/666948129"
      },
      "geometry": {
        "type": "Polygon",
        "coordinates": [
          [
            [
              -51.3376753,
              -20.4189824
            ],
            [
              -51.3371447,
              -20.4195917
            ],
            [
              -51.3367105,
              -20.4192525
            ],
            [
              -51.3372276,
              -20.4186472
            ],
            [
              -51.3376753,
              -20.4189824
            ]
          ]
        ]
      }
    },
    {
      "type": "Feature",
      "id": "way/667141939",
      "properties": {
        "timestamp": "2022-07-30T19:15:38Z",
        "version": 5,
        "changeset": 124280190,
        "addr:city": "Ilha Solteira",
        "addr:housenumber": "386",
        "addr:postcode": "15358-000",
        "addr:street": "Rua Cinquenta e Um",
        "addr:suburb": "Jardim Aeroporto",
        "amenity": "kindergarten",
        "building": "yes",
        "name": "EMEI Eva Costa de Souza",
        "official_name": "Escola Municipal de Educação Infantil Eva Costa de Souza",
        "phone": "+55 18 3742 4345",
        "id": "way/667141939"
      },
      "geometry": {
        "type": "Polygon",
        "coordinates": [
          [
            [
              -51.329247,
              -20.4258839
            ],
            [
              -51.3295291,
              -20.4259942
            ],
            [
              -51.3290915,
              -20.4268102
            ],
            [
              -51.3287539,
              -20.4266624
            ],
            [
              -51.329247,
              -20.4258839
            ]
          ]
        ]
      }
    },
    {
      "type": "Feature",
      "id": "way/667721947",
      "properties": {
        "timestamp": "2019-03-19T16:44:11Z",
        "version": 4,
        "changeset": 68301889,
        "addr:city": "Ilha Solteira",
        "addr:housenumber": "669",
        "addr:postcode": "15385000",
        "addr:street": "Rua Fernando Pessoa",
        "addr:suburb": "Nova Ilha",
        "amenity": "kindergarten",
        "building": "yes",
        "name": "CEI Doce Infância",
        "official_name": "Doce Infância Centro de Educação Infantil",
        "phone": "+55 18 3742 4064",
        "id": "way/667721947"
      },
      "geometry": {
        "type": "Polygon",
        "coordinates": [
          [
            [
              -51.3287897,
              -20.4339244
            ],
            [
              -51.3295035,
              -20.4342993
            ],
            [
              -51.3292666,
              -20.4346827
            ],
            [
              -51.3285743,
              -20.4342935
            ],
            [
              -51.3287897,
              -20.4339244
            ]
          ]
        ]
      }
    },
    {
      "type": "Feature",
      "id": "way/667722338",
      "properties": {
        "timestamp": "2019-03-14T19:09:00Z",
        "version": 6,
        "changeset": 68148253,
        "addr:city": "Ilha Solteira",
        "addr:housenumber": "143",
        "addr:postcode": "15385000",
        "addr:street": "Rua do Planalto",
        "addr:suburb": "Centro",
        "amenity": "kindergarten",
        "name": "CEI Sorriso de Criança",
        "official_name": "Sorriso de Crianca Centro de Educação Infantil",
        "phone": "+55 18 3743 6061",
        "id": "way/667722338"
      },
      "geometry": {
        "type": "Polygon",
        "coordinates": [
          [
            [
              -51.3417314,
              -20.4295645
            ],
            [
              -51.3416763,
              -20.4296157
            ],
            [
              -51.34169,
              -20.4296286
            ],
            [
              -51.3416372,
              -20.4296776
            ],
            [
              -51.3416619,
              -20.429701
            ],
            [
              -51.3415946,
              -20.4297636
            ],
            [
              -51.3415655,
              -20.4297361
            ],
            [
              -51.3415155,
              -20.4297827
            ],
            [
              -51.3415142,
              -20.4297545
            ],
            [
              -51.3414803,
              -20.4297191
            ],
            [
              -51.3414472,
              -20.4297618
            ],
            [
              -51.3413847,
              -20.4296963
            ],
            [
              -51.3413629,
              -20.4296199
            ],
            [
              -51.3414016,
              -20.4295839
            ],
            [
              -51.3413777,
              -20.4295613
            ],
            [
              -51.3413279,
              -20.4296075
            ],
            [
              -51.3412765,
              -20.429559
            ],
            [
              -51.3415031,
              -20.4293486
            ],
            [
              -51.3417314,
              -20.4295645
            ]
          ]
        ]
      }
    },
    {
      "type": "Feature",
      "id": "way/673414243",
      "properties": {
        "timestamp": "2019-03-19T16:38:39Z",
        "version": 3,
        "changeset": 68301714,
        "addr:city": "Ilha Solteira",
        "addr:housenumber": "516",
        "addr:postcode": "15385-000",
        "addr:street": "Rua Cabo Frio",
        "addr:suburb": "Zona Sul",
        "amenity": "kindergarten",
        "building": "yes",
        "name": "Catatatu - Centro de Convivência Infantil",
        "phone": "+55 18 3743 1196",
        "id": "way/673414243"
      },
      "geometry": {
        "type": "Polygon",
        "coordinates": [
          [
            [
              -51.3442952,
              -20.4310351
            ],
            [
              -51.3442149,
              -20.4311014
            ],
            [
              -51.3441766,
              -20.4311343
            ],
            [
              -51.3441449,
              -20.4311237
            ],
            [
              -51.3441296,
              -20.4311413
            ],
            [
              -51.3441458,
              -20.4311727
            ],
            [
              -51.3440868,
              -20.4312225
            ],
            [
              -51.3440559,
              -20.4312024
            ],
            [
              -51.3440253,
              -20.4312294
            ],
            [
              -51.3440386,
              -20.4312499
            ],
            [
              -51.3439922,
              -20.431292
            ],
            [
              -51.3439309,
              -20.4313438
            ],
            [
              -51.3438183,
              -20.4312306
            ],
            [
              -51.343938,
              -20.4311282
            ],
            [
              -51.343915,
              -20.4310785
            ],
            [
              -51.3439583,
              -20.4310351
            ],
            [
              -51.3441511,
              -20.4308892
            ],
            [
              -51.3442952,
              -20.4310351
            ]
          ]
        ]
      }
    },
    {
      "type": "Feature",
      "id": "way/676286427",
      "properties": {
        "timestamp": "2019-03-18T13:19:08Z",
        "version": 3,
        "changeset": 68258239,
        "addr:city": "Ilha Solteira",
        "addr:housenumber": "101",
        "addr:postcode": "15385000",
        "addr:street": "Rua Rio Itatiba",
        "addr:suburb": "Zona Sul",
        "amenity": "kindergarten",
        "building": "yes",
        "name": "EMEI Juliana Pimentel Barakat",
        "official_name": "Escola Municipal de Educação Infantil Juliana Pimentel Barakat",
        "phone": "+55 18 3743 6048",
        "id": "way/676286427"
      },
      "geometry": {
        "type": "Polygon",
        "coordinates": [
          [
            [
              -51.350239,
              -20.4270603
            ],
            [
              -51.3505558,
              -20.4273839
            ],
            [
              -51.3506315,
              -20.427465
            ],
            [
              -51.3507036,
              -20.4275394
            ],
            [
              -51.3506198,
              -20.4276348
            ],
            [
              -51.3505876,
              -20.4276887
            ],
            [
              -51.3505375,
              -20.4278433
            ],
            [
              -51.3505321,
              -20.4279985
            ],
            [
              -51.3505784,
              -20.4281738
            ],
            [
              -51.3503927,
              -20.4282638
            ],
            [
              -51.3496891,
              -20.4275129
            ],
            [
              -51.350239,
              -20.4270603
            ]
          ]
        ]
      }
    },
    {
      "type": "Feature",
      "id": "way/677070308",
      "properties": {
        "timestamp": "2019-03-15T14:57:20Z",
        "version": 1,
        "changeset": 68177884,
        "addr:city": "Ilha Solteira",
        "addr:housenumber": "120",
        "addr:postcode": "15385000",
        "addr:street": "Alameda 3",
        "addr:suburb": "Jardim Novo Horizonte",
        "amenity": "kindergarten",
        "name": "CEI  O Pequeno Príncipe",
        "official_name": "Escola Pública Municipal O Pequeno Principe Centro de Educação Infantil",
        "phone": "+55 18 3742 7147",
        "id": "way/677070308"
      },
      "geometry": {
        "type": "Polygon",
        "coordinates": [
          [
            [
              -51.3356101,
              -20.4119777
            ],
            [
              -51.3350254,
              -20.4126494
            ],
            [
              -51.3346433,
              -20.412385
            ],
            [
              -51.3348341,
              -20.4115279
            ],
            [
              -51.3350482,
              -20.4115576
            ],
            [
              -51.3350954,
              -20.4116905
            ],
            [
              -51.335188,
              -20.4118002
            ],
            [
              -51.3356101,
              -20.4119777
            ]
          ]
        ]
      }
    }
  ]
}
