{
  "type": "FeatureCollection",
  "features": [
    {
      "type": "Feature",
      "id": "way/591578124",
      "properties": {
        "timestamp": "2019-03-01T03:38:51Z",
        "version": 2,
        "changeset": 67671455,
        "addr:housenumber": "305",
        "addr:postcode": "15385-000",
        "addr:street": "Rua Bras√≠lia",
        "amenity": "library",
        "building": "yes",
        "name": "Biblioteca Municipal Assis Chateaubriand",
        "opening_hours": "Mo-Fr 07:30-12:00,13:30-17:00; Sa,Su,PH off",
        "phone": "+55 18 3743 6034",
        "id": "way/591578124"
      },
      "geometry": {
        "type": "Polygon",
        "coordinates": [
          [
            [
              -51.3451122,
              -20.4252777
            ],
            [
              -51.344993,
              -20.4253964
            ],
            [
              -51.3448931,
              -20.4253113
            ],
            [
              -51.3450153,
              -20.425194
            ],
            [
              -51.3451122,
              -20.4252777
            ]
          ]
        ]
      }
    }
  ]
}
