{
  "type": "FeatureCollection",
  "features": [
    {
      "type": "Feature",
      "id": "way/689706011",
      "properties": {
        "timestamp": "2019-05-13T16:53:56Z",
        "version": 1,
        "changeset": 70201328,
        "addr:city": "Ilha Solteira",
        "addr:housenumber": "198",
        "addr:postcode": "15385000",
        "addr:street": "Avenida Brasil Norte",
        "addr:suburb": "Zona Norte",
        "amenity": "pharmacy",
        "building": "yes",
        "dispensing": "yes",
        "healthcare": "pharmacy",
        "name": "Farmácia Barbosa",
        "opening_hours": "Mo-Sa 08:00-20:00",
        "phone": "+55 18 3742 5100",
        "phone_1": "+55 18 3742 2256",
        "id": "way/689706011"
      },
      "geometry": {
        "type": "Polygon",
        "coordinates": [
          [
            [
              -51.3425164,
              -20.4261517
            ],
            [
              -51.3423905,
              -20.4262976
            ],
            [
              -51.3423119,
              -20.4262332
            ],
            [
              -51.3424407,
              -20.4260891
            ],
            [
              -51.3425164,
              -20.4261517
            ]
          ]
        ]
      }
    },
    {
      "type": "Feature",
      "id": "node/5550166036",
      "properties": {
        "timestamp": "2019-03-01T03:22:57Z",
        "version": 6,
        "changeset": 67671223,
        "addr:city": "Ilha Solteira",
        "addr:housenumber": "566A",
        "addr:postcode": "15385-000",
        "addr:street": "Avenida Brasil Norte",
        "addr:suburb": "Zona Norte",
        "amenity": "pharmacy",
        "dispensing": "yes",
        "healthcare": "pharmacy",
        "name": "Farmácia Satélite",
        "opening_hours": "Mo-Sa 08:00-22:00",
        "phone": "+55 18 3742 2061",
        "id": "node/5550166036"
      },
      "geometry": {
        "type": "Point",
        "coordinates": [
          -51.3399016,
          -20.4239943
        ]
      }
    },
    {
      "type": "Feature",
      "id": "node/5562031243",
      "properties": {
        "timestamp": "2018-05-25T17:46:17Z",
        "version": 3,
        "changeset": 59277749,
        "addr:city": "Ilha Solteira",
        "addr:housenumber": "143B",
        "addr:postcode": "15385-000",
        "addr:street": "Avenida Brasil Sul",
        "addr:suburb": "Zona Sul",
        "amenity": "pharmacy",
        "dispensing": "yes",
        "healthcare": "pharmacy",
        "name": "Drogaria Farmais",
        "opening_hours": "24/7",
        "phone": "+55 18 3742 1222",
        "id": "node/5562031243"
      },
      "geometry": {
        "type": "Point",
        "coordinates": [
          -51.3448706,
          -20.4286404
        ]
      }
    },
    {
      "type": "Feature",
      "id": "node/5628894190",
      "properties": {
        "timestamp": "2018-05-19T15:54:21Z",
        "version": 1,
        "changeset": 59105618,
        "addr:city": "Ilha Solteira",
        "addr:housenumber": "559 A",
        "addr:postcode": "15385-000",
        "addr:street": "Alameda Bahia",
        "addr:suburb": "Zona Norte",
        "amenity": "pharmacy",
        "dispensing": "yes",
        "healthcare": "pharmacy",
        "name": "Phormula Ativa",
        "phone": "+55 18 3742 3495",
        "id": "node/5628894190"
      },
      "geometry": {
        "type": "Point",
        "coordinates": [
          -51.3402402,
          -20.4294151
        ]
      }
    }
  ]
}
