{
  "type": "FeatureCollection",
  "features": [
    {
      "type": "Feature",
      "id": "way/419106637",
      "properties": {
        "timestamp": "2019-03-18T13:14:12Z",
        "version": 10,
        "changeset": 68258077,
        "addr:city": "Ilha Solteira",
        "addr:housenumber": "820",
        "addr:postcode": "15385-000",
        "addr:street": "Avenida Brasil Sul",
        "addr:suburb": "Zona Sul",
        "amenity": "school",
        "building": "yes",
        "name": "Escola Estadual Professora Lea Silva Moraes",
        "phone": "+55 18 3742 2723",
        "phone_1": "+55 3742 4914",
        "id": "way/419106637"
      },
      "geometry": {
        "type": "Polygon",
        "coordinates": [
          [
            [
              -51.3509613,
              -20.4334708
            ],
            [
              -51.3502748,
              -20.434044
            ],
            [
              -51.3495509,
              -20.4333307
            ],
            [
              -51.3502374,
              -20.4327268
            ],
            [
              -51.3509613,
              -20.4334708
            ]
          ]
        ]
      }
    },
    {
      "type": "Feature",
      "id": "way/419106653",
      "properties": {
        "timestamp": "2021-03-14T15:05:28Z",
        "version": 9,
        "changeset": 100993436,
        "addr:city": "Ilha Solteira",
        "addr:housenumber": "401",
        "addr:postcode": "15385-000",
        "addr:street": "Alameda São Paulo",
        "addr:suburb": "Zona Norte",
        "amenity": "school",
        "name": "EMEF Professora Aparecida Benedita Brito da Silva",
        "phone": "+55 18 3742 2153",
        "short_name": "ABBS",
        "id": "way/419106653"
      },
      "geometry": {
        "type": "Polygon",
        "coordinates": [
          [
            [
              -51.3453659,
              -20.433197
            ],
            [
              -51.3447577,
              -20.4337339
            ],
            [
              -51.3432382,
              -20.4321635
            ],
            [
              -51.3438354,
              -20.4316424
            ],
            [
              -51.3438816,
              -20.4316873
            ],
            [
              -51.34417,
              -20.4319685
            ],
            [
              -51.3453659,
              -20.433197
            ]
          ]
        ]
      }
    },
    {
      "type": "Feature",
      "id": "way/582548110",
      "properties": {
        "timestamp": "2023-07-31T04:53:10Z",
        "version": 10,
        "changeset": 139234323,
        "addr:city": "Ilha Solteira",
        "addr:housenumber": "920",
        "addr:postcode": "15385000",
        "addr:street": "Avenida Brasil Sul",
        "addr:suburb": "Zona Sul",
        "amenity": "school",
        "name": "Escola Pública Estadual de Urubupungá",
        "phone": "+55 18 3742 2765",
        "short_name": "Urubu",
        "id": "way/582548110"
      },
      "geometry": {
        "type": "Polygon",
        "coordinates": [
          [
            [
              -51.3494473,
              -20.4318052
            ],
            [
              -51.3495136,
              -20.4318749
            ],
            [
              -51.3500574,
              -20.4314108
            ],
            [
              -51.3501788,
              -20.4313518
            ],
            [
              -51.3503368,
              -20.4314038
            ],
            [
              -51.3504235,
              -20.4315565
            ],
            [
              -51.3503767,
              -20.4316903
            ],
            [
              -51.3497983,
              -20.4321834
            ],
            [
              -51.3502314,
              -20.4326273
            ],
            [
              -51.3494834,
              -20.4332827
            ],
            [
              -51.3491394,
              -20.4329129
            ],
            [
              -51.3490075,
              -20.4325588
            ],
            [
              -51.3489977,
              -20.4321269
            ],
            [
              -51.3494473,
              -20.4318052
            ]
          ]
        ]
      }
    },
    {
      "type": "Feature",
      "id": "way/582565611",
      "properties": {
        "timestamp": "2019-04-09T11:24:38Z",
        "version": 11,
        "changeset": 69040984,
        "addr:city": "Ilha Solteira",
        "addr:housenumber": "905",
        "addr:postcode": "15385-000",
        "addr:street": "Avenida Brasil Norte",
        "addr:suburb": "Zona Norte",
        "amenity": "school",
        "building": "yes",
        "contact:phone": "+55 18 3742 4385",
        "email": "emeflmdg@yahoo.com.br",
        "name": "EMEF - Lúcia Maria Donato Garcia",
        "official_name": "Escola Municipal de Educação Fundamental Lúcia Maria Donato Garcia",
        "phone": "+55 18 3742 2527",
        "ref": "35207573",
        "school": "yes",
        "short_name": "Escola Lúcia Maria",
        "id": "way/582565611"
      },
      "geometry": {
        "type": "Polygon",
        "coordinates": [
          [
            [
              -51.3372824,
              -20.4210503
            ],
            [
              -51.3381299,
              -20.4217227
            ],
            [
              -51.3374952,
              -20.4223838
            ],
            [
              -51.3366897,
              -20.4217112
            ],
            [
              -51.3372824,
              -20.4210503
            ]
          ]
        ]
      }
    },
    {
      "type": "Feature",
      "id": "way/582577718",
      "properties": {
        "timestamp": "2019-03-22T12:03:52Z",
        "version": 9,
        "changeset": 68408693,
        "addr:city": "Ilha Solteira",
        "addr:housenumber": "815",
        "addr:postcode": "15385-000",
        "addr:street": "Avenida Brasil Norte",
        "addr:suburb": "Zona Norte",
        "amenity": "school",
        "building": "yes",
        "contact:phone": "+55 18 3742 4915",
        "email": "e030740a@educacao.sp.gov.br",
        "name": "Escola Estadual Arno Hausser",
        "operator": "Secretaria da Educação do Estado de São Paulo",
        "phone": "+55 18 3742 2722",
        "ref": "35030740",
        "school": "yes",
        "short_name": "Escola Arno Hausser",
        "id": "way/582577718"
      },
      "geometry": {
        "type": "Polygon",
        "coordinates": [
          [
            [
              -51.3381875,
              -20.4217395
            ],
            [
              -51.3389304,
              -20.4223151
            ],
            [
              -51.338453,
              -20.4228178
            ],
            [
              -51.3382545,
              -20.4228253
            ],
            [
              -51.3380131,
              -20.4227801
            ],
            [
              -51.3379005,
              -20.4227424
            ],
            [
              -51.3377342,
              -20.4226368
            ],
            [
              -51.3375652,
              -20.4224684
            ],
            [
              -51.3381875,
              -20.4217395
            ]
          ]
        ]
      }
    },
    {
      "type": "Feature",
      "id": "way/666989726",
      "properties": {
        "timestamp": "2024-07-14T03:20:17Z",
        "version": 4,
        "changeset": 153915216,
        "addr:city": "Ilha Solteira",
        "addr:housenumber": "70",
        "addr:postcode": "15385000",
        "addr:street": "Rua Rio Tapajós",
        "addr:suburb": "Zona Norte",
        "amenity": "school",
        "building": "yes",
        "name": "NEP Objetivo",
        "phone": "+55 18 3743 6644",
        "website": "https://www.nepobjetivo.com.br/portal/",
        "id": "way/666989726"
      },
      "geometry": {
        "type": "Polygon",
        "coordinates": [
          [
            [
              -51.3327127,
              -20.4209129
            ],
            [
              -51.3325354,
              -20.4210875
            ],
            [
              -51.3324103,
              -20.4212437
            ],
            [
              -51.3323131,
              -20.4214499
            ],
            [
              -51.3315049,
              -20.4208357
            ],
            [
              -51.3318933,
              -20.4203787
            ],
            [
              -51.3321592,
              -20.4205754
            ],
            [
              -51.3321932,
              -20.4205417
            ],
            [
              -51.3327127,
              -20.4209129
            ]
          ]
        ]
      }
    },
    {
      "type": "Feature",
      "id": "way/668694820",
      "properties": {
        "timestamp": "2019-03-18T11:19:59Z",
        "version": 3,
        "changeset": 68254800,
        "addr:city": "Ilha Solteira",
        "addr:housenumber": "164",
        "addr:postcode": "15385000",
        "addr:street": "Alameda Tucuruí",
        "addr:suburb": "Zona Norte",
        "amenity": "school",
        "building": "yes",
        "name": "Instituto Federal do Estado de São Paulo - Campus Avançado de Ilha Solteira",
        "phone": "+55 18 3748 8300",
        "website": "https://ist.ifsp.edu.br/site/",
        "id": "way/668694820"
      },
      "geometry": {
        "type": "Polygon",
        "coordinates": [
          [
            [
              -51.3331869,
              -20.4205923
            ],
            [
              -51.33365,
              -20.4209443
            ],
            [
              -51.3331457,
              -20.4215279
            ],
            [
              -51.3326414,
              -20.4211517
            ],
            [
              -51.3331869,
              -20.4205923
            ]
          ]
        ]
      }
    },
    {
      "type": "Feature",
      "id": "way/762869635",
      "properties": {
        "timestamp": "2020-01-13T13:29:33Z",
        "version": 1,
        "changeset": 79518376,
        "addr:city": "Ilha Solteira",
        "addr:housenumber": "70",
        "addr:postcode": "15385000",
        "addr:street": "Praça das Seringueiras",
        "addr:suburb": "Zona Norte",
        "amenity": "school",
        "building": "school",
        "name": "Colégio Euclides da Cunha",
        "phone": "+18 18 3742 2619",
        "id": "way/762869635"
      },
      "geometry": {
        "type": "Polygon",
        "coordinates": [
          [
            [
              -51.3374609,
              -20.4232913
            ],
            [
              -51.3369974,
              -20.4238362
            ],
            [
              -51.3368375,
              -20.4239095
            ],
            [
              -51.3365923,
              -20.4237224
            ],
            [
              -51.3366156,
              -20.4235714
            ],
            [
              -51.3371072,
              -20.4230233
            ],
            [
              -51.3374609,
              -20.4232913
            ]
          ]
        ]
      }
    }
  ]
}
