{
  "type": "FeatureCollection",
  "features": [
    {
      "type": "Feature",
      "id": "way/667525538",
      "properties": {
        "timestamp": "2019-01-31T21:50:22Z",
        "version": 2,
        "changeset": 66816083,
        "addr:city": "Ilha Solteira",
        "addr:housenumber": "252",
        "addr:postcode": "15385000",
        "addr:street": "Rua Chuí",
        "addr:suburb": "Zona Sul",
        "amenity": "social_facility",
        "building": "yes",
        "name": "Centro Dia para o Idoso",
        "phone": "+55 18 3742 7022",
        "social_facility": "nursing_home",
        "id": "way/667525538"
      },
      "geometry": {
        "type": "Polygon",
        "coordinates": [
          [
            [
              -51.3510785,
              -20.4386529
            ],
            [
              -51.3515217,
              -20.4391025
            ],
            [
              -51.3509171,
              -20.4393686
            ],
            [
              -51.3506094,
              -20.4390501
            ],
            [
              -51.3510785,
              -20.4386529
            ]
          ]
        ]
      }
    },
    {
      "type": "Feature",
      "id": "way/667669416",
      "properties": {
        "timestamp": "2019-03-19T12:00:45Z",
        "version": 3,
        "changeset": 68291781,
        "addr:city": "Ilha Solteira",
        "addr:housenumber": "248",
        "addr:postcode": "15385000",
        "addr:street": "Rua Sobral",
        "addr:suburb": "Zona Norte",
        "amenity": "social_facility",
        "building": "school",
        "name": "APAE",
        "official_name": "Associação de Pais e Amigos dos Excepcionais",
        "phone": "+55 18 3742 4892",
        "social_facility:for": "mental_health",
        "website": "www.apaeilhasolteira.org.br",
        "id": "way/667669416"
      },
      "geometry": {
        "type": "Polygon",
        "coordinates": [
          [
            [
              -51.3354129,
              -20.4249552
            ],
            [
              -51.3357373,
              -20.4246132
            ],
            [
              -51.3358869,
              -20.424455
            ],
            [
              -51.3359809,
              -20.4244514
            ],
            [
              -51.3360173,
              -20.4243957
            ],
            [
              -51.3365791,
              -20.4237657
            ],
            [
              -51.3367916,
              -20.4239359
            ],
            [
              -51.3362302,
              -20.4245858
            ],
            [
              -51.3361972,
              -20.4247212
            ],
            [
              -51.335737,
              -20.4252299
            ],
            [
              -51.3354129,
              -20.4249552
            ]
          ]
        ]
      }
    },
    {
      "type": "Feature",
      "id": "way/673863755",
      "properties": {
        "timestamp": "2019-03-03T15:49:00Z",
        "version": 2,
        "changeset": 67740227,
        "addr:city": "Ilha Solteira",
        "addr:housenumber": "2001",
        "addr:postcode": "15385000",
        "addr:street": "Avenida Atlântica",
        "addr:suburb": "Zona Sul",
        "amenity": "social_facility",
        "building": "yes",
        "name": "Cafisa",
        "official_name": "Centro de Apoio Familiar de Ilha Solteira",
        "phone": "+55 18 3743 4056",
        "social_facility": "childrens_centre",
        "id": "way/673863755"
      },
      "geometry": {
        "type": "Polygon",
        "coordinates": [
          [
            [
              -51.3385536,
              -20.4330919
            ],
            [
              -51.3382577,
              -20.4333531
            ],
            [
              -51.3381448,
              -20.4331375
            ],
            [
              -51.3384249,
              -20.4329031
            ],
            [
              -51.3385536,
              -20.4330919
            ]
          ]
        ]
      }
    },
    {
      "type": "Feature",
      "id": "node/5651615171",
      "properties": {
        "timestamp": "2019-03-03T15:51:52Z",
        "version": 3,
        "changeset": 67740301,
        "addr:city": "Ilha Solteira",
        "addr:housenumber": "175",
        "addr:postcode": "15385000",
        "addr:street": "Avenida Continental",
        "addr:suburb": "Zona Norte",
        "amenity": "social_facility",
        "name": "Centro de Referência da Assistência Social",
        "phone": "+55 18 3742 2039",
        "social_facility": "assisted_living",
        "id": "node/5651615171"
      },
      "geometry": {
        "type": "Point",
        "coordinates": [
          -51.333668,
          -20.4174969
        ]
      }
    }
  ]
}
