{
  "type": "FeatureCollection",
  "features": [
    {
      "type": "Feature",
      "id": "way/1063472766",
      "properties": {
        "timestamp": "2022-05-25T05:22:58Z",
        "version": 1,
        "changeset": 121455063,
        "addr:city": "Pereiro",
        "addr:postcode": "63460-000",
        "addr:suburb": "Bela Vista",
        "amenity": "arts_centre",
        "building": "yes",
        "name": "Centro Cultural José Wagner T.Maia",
        "id": "way/1063472766"
      },
      "geometry": {
        "type": "Polygon",
        "coordinates": [
          [
            [
              -38.4644404,
              -6.0425496
            ],
            [
              -38.4645022,
              -6.0427796
            ],
            [
              -38.4642291,
              -6.0428866
            ],
            [
              -38.4641553,
              -6.0426567
            ],
            [
              -38.4644404,
              -6.0425496
            ]
          ]
        ]
      }
    },
    {
      "type": "Feature",
      "id": "node/9768694660",
      "properties": {
        "timestamp": "2022-05-25T05:22:58Z",
        "version": 1,
        "changeset": 121455063,
        "addr:city": "Pereiro",
        "addr:postcode": "63460-000",
        "addr:suburb": "Bela Vista",
        "amenity": "arts_centre",
        "name": "Centro Cultural José Wagner T.Maia",
        "id": "node/9768694660"
      },
      "geometry": {
        "type": "Point",
        "coordinates": [
          -38.4644085,
          -6.0425912
        ]
      }
    }
  ]
}
