{
  "type": "FeatureCollection",
  "features": [
    {
      "type": "Feature",
      "id": "way/517921142",
      "properties": {
        "timestamp": "2017-08-23T10:24:42Z",
        "version": 1,
        "changeset": 51370199,
        "amenity": "clinic",
        "building": "yes",
        "id": "way/517921142"
      },
      "geometry": {
        "type": "Polygon",
        "coordinates": [
          [
            [
              -38.5367833,
              -6.2011374
            ],
            [
              -38.5368291,
              -6.2012966
            ],
            [
              -38.5367338,
              -6.2013237
            ],
            [
              -38.536688,
              -6.2011645
            ],
            [
              -38.5367833,
              -6.2011374
            ]
          ]
        ]
      }
    },
    {
      "type": "Feature",
      "id": "way/1010069150",
      "properties": {
        "timestamp": "2022-04-16T22:55:02Z",
        "version": 2,
        "changeset": 119800700,
        "addr:city": "Pereiro",
        "addr:postcode": "63.460-000",
        "addr:street": "Avenida José Milton de Morais",
        "addr:suburb": "Vila",
        "amenity": "clinic",
        "building": "yes",
        "healthcare": "clinic",
        "healthcare:speciality": "general",
        "id": "way/1010069150"
      },
      "geometry": {
        "type": "Polygon",
        "coordinates": [
          [
            [
              -38.4628293,
              -6.0545099
            ],
            [
              -38.4628664,
              -6.0547406
            ],
            [
              -38.4627257,
              -6.0547676
            ],
            [
              -38.462712,
              -6.0546763
            ],
            [
              -38.4626373,
              -6.0546899
            ],
            [
              -38.4626378,
              -6.0546122
            ],
            [
              -38.4627038,
              -6.0546036
            ],
            [
              -38.462701,
              -6.054532
            ],
            [
              -38.4627878,
              -6.054517
            ],
            [
              -38.4628293,
              -6.0545099
            ]
          ]
        ]
      }
    },
    {
      "type": "Feature",
      "id": "way/1063472771",
      "properties": {
        "timestamp": "2022-05-25T05:22:58Z",
        "version": 1,
        "changeset": 121455063,
        "addr:city": "Pereiro",
        "addr:postcode": "63460-000",
        "addr:street": "Rodovia Francisco Nogueira de Queiroz",
        "addr:suburb": "Estreito",
        "amenity": "clinic",
        "building": "yes",
        "healthcare": "clinic",
        "name": "Posto de Saúde Mãe Otávia",
        "id": "way/1063472771"
      },
      "geometry": {
        "type": "Polygon",
        "coordinates": [
          [
            [
              -38.4578714,
              -6.0366658
            ],
            [
              -38.4579133,
              -6.0367716
            ],
            [
              -38.4576856,
              -6.036882
            ],
            [
              -38.4576143,
              -6.0367266
            ],
            [
              -38.4578714,
              -6.0366658
            ]
          ]
        ]
      }
    },
    {
      "type": "Feature",
      "id": "node/2710111412",
      "properties": {
        "timestamp": "2021-12-07T23:32:50Z",
        "version": 4,
        "changeset": 114680105,
        "addr:city": "Pereiro",
        "addr:postcode": "63.460-000",
        "addr:street": "Avenida José Milton de Morais",
        "addr:suburb": "Vila",
        "amenity": "clinic",
        "emergency": "no",
        "healthcare": "clinic",
        "healthcare:speciality": "general",
        "name": "Posto de Saúde",
        "id": "node/2710111412"
      },
      "geometry": {
        "type": "Point",
        "coordinates": [
          -38.4628155,
          -6.0546345
        ]
      }
    },
    {
      "type": "Feature",
      "id": "node/2710135374",
      "properties": {
        "timestamp": "2022-05-25T05:22:58Z",
        "version": 5,
        "changeset": 121455063,
        "addr:city": "Pereiro",
        "addr:postcode": "63460-000",
        "addr:street": "Rodovia Francisco Nogueira de Queiroz",
        "addr:suburb": "Estreito",
        "amenity": "clinic",
        "emergency": "no",
        "healthcare": "clinic",
        "name": "Posto de Saúde Mãe Otávia",
        "id": "node/2710135374"
      },
      "geometry": {
        "type": "Point",
        "coordinates": [
          -38.4577935,
          -6.036729
        ]
      }
    }
  ]
}
