{
  "type": "FeatureCollection",
  "features": [
    {
      "type": "Feature",
      "id": "way/1010063884",
      "properties": {
        "timestamp": "2021-12-07T22:52:09Z",
        "version": 1,
        "changeset": 114679405,
        "addr:city": "Pereiro",
        "addr:postcode": "63460-000",
        "addr:suburb": "Vila",
        "building": "yes",
        "building:levels": "1",
        "description": "Departamento Estadual de Trânsito",
        "height": "1",
        "name": "Detran-CE Governo do Estado do Ceará",
        "office": "government",
        "wheelchair": "yes",
        "id": "way/1010063884"
      },
      "geometry": {
        "type": "Polygon",
        "coordinates": [
          [
            [
              -38.4607781,
              -6.0500864
            ],
            [
              -38.46081,
              -6.0501585
            ],
            [
              -38.46061,
              -6.0502133
            ],
            [
              -38.4605839,
              -6.0501412
            ],
            [
              -38.4607781,
              -6.0500864
            ]
          ]
        ]
      }
    },
    {
      "type": "Feature",
      "id": "way/1063472759",
      "properties": {
        "timestamp": "2022-05-25T05:22:58Z",
        "version": 1,
        "changeset": 121455063,
        "addr:city": "Pereiro",
        "addr:postcode": "63460-000",
        "addr:street": "Rua J Holanda",
        "addr:suburb": "Centro",
        "building": "yes",
        "name": "Secretaria De Saúde De Pereiro",
        "office": "government",
        "id": "way/1063472759"
      },
      "geometry": {
        "type": "Polygon",
        "coordinates": [
          [
            [
              -38.45775,
              -6.0433778
            ],
            [
              -38.4577855,
              -6.0434532
            ],
            [
              -38.4575742,
              -6.0435446
            ],
            [
              -38.4575387,
              -6.0434452
            ],
            [
              -38.45775,
              -6.0433778
            ]
          ]
        ]
      }
    },
    {
      "type": "Feature",
      "id": "way/1063472760",
      "properties": {
        "timestamp": "2022-05-25T05:22:58Z",
        "version": 1,
        "changeset": 121455063,
        "addr:city": "Pereiro",
        "addr:postcode": "63460-000",
        "addr:street": "Rua Coronel Porto",
        "addr:suburb": "Centro",
        "building": "yes",
        "name": "Conselho Municipal de Assist Social-Cmas",
        "office": "government",
        "phone": "+55 (88) 3527-1262",
        "id": "way/1063472760"
      },
      "geometry": {
        "type": "Polygon",
        "coordinates": [
          [
            [
              -38.4610145,
              -6.047489
            ],
            [
              -38.4610481,
              -6.0475851
            ],
            [
              -38.4608549,
              -6.047645
            ],
            [
              -38.4608031,
              -6.0475266
            ],
            [
              -38.4610145,
              -6.047489
            ]
          ]
        ]
      }
    },
    {
      "type": "Feature",
      "id": "way/1063472767",
      "properties": {
        "timestamp": "2022-05-25T05:22:58Z",
        "version": 1,
        "changeset": 121455063,
        "addr:city": "Pereiro",
        "addr:postcode": "63460-000",
        "addr:suburb": "Bela Vista",
        "building": "yes",
        "name": "Secretaria Municipal de Educação de Pereiro",
        "office": "government",
        "id": "way/1063472767"
      },
      "geometry": {
        "type": "Polygon",
        "coordinates": [
          [
            [
              -38.4647394,
              -6.0424366
            ],
            [
              -38.4648431,
              -6.0428331
            ],
            [
              -38.4645481,
              -6.0428946
            ],
            [
              -38.4644444,
              -6.0425219
            ],
            [
              -38.4647394,
              -6.0424366
            ]
          ]
        ]
      }
    },
    {
      "type": "Feature",
      "id": "node/9015263346",
      "properties": {
        "timestamp": "2022-05-25T05:22:58Z",
        "version": 3,
        "changeset": 121455063,
        "addr:city": "Pereiro",
        "addr:postcode": "63460-000",
        "addr:street": "Rua J Holanda",
        "addr:suburb": "Centro",
        "name": "Secretaria De Saúde De Pereiro",
        "office": "government",
        "id": "node/9015263346"
      },
      "geometry": {
        "type": "Point",
        "coordinates": [
          -38.4575723,
          -6.0434764
        ]
      }
    },
    {
      "type": "Feature",
      "id": "node/9019799407",
      "properties": {
        "timestamp": "2022-03-24T15:09:34Z",
        "version": 3,
        "changeset": 118869167,
        "addr:city": "Pereiro",
        "addr:postcode": "63460-000",
        "addr:street": "Rua Coronel Porto",
        "addr:suburb": "Centro",
        "name": "Conselho Municipal de Assist Social-Cmas",
        "office": "government",
        "phone": "+55 (88) 3527-1262",
        "id": "node/9019799407"
      },
      "geometry": {
        "type": "Point",
        "coordinates": [
          -38.4608301,
          -6.0475626
        ]
      }
    },
    {
      "type": "Feature",
      "id": "node/9023502720",
      "properties": {
        "timestamp": "2021-12-17T06:02:16Z",
        "version": 3,
        "changeset": 115035858,
        "addr:city": "Pereiro",
        "addr:postcode": "63460-000",
        "addr:street": "CE-138",
        "addr:suburb": "Vila",
        "name": "Detran-CE Governo do Estado do Ceará",
        "office": "government",
        "id": "node/9023502720"
      },
      "geometry": {
        "type": "Point",
        "coordinates": [
          -38.4607666,
          -6.0501503
        ]
      }
    },
    {
      "type": "Feature",
      "id": "node/9768694661",
      "properties": {
        "timestamp": "2022-05-25T05:22:58Z",
        "version": 1,
        "changeset": 121455063,
        "addr:city": "Pereiro",
        "addr:postcode": "63460-000",
        "addr:suburb": "Bela Vista",
        "name": "Secretaria Municipal de Educação de Pereiro",
        "office": "government",
        "id": "node/9768694661"
      },
      "geometry": {
        "type": "Point",
        "coordinates": [
          -38.4646832,
          -6.0425985
        ]
      }
    }
  ]
}
