{
  "type": "FeatureCollection",
  "features": [
    {
      "type": "Feature",
      "id": "way/1012959398",
      "properties": {
        "timestamp": "2025-03-16T22:09:07Z",
        "version": 2,
        "changeset": 163708369,
        "addr:city": "Pereiro",
        "addr:postcode": "63460-000",
        "addr:street": "Rua Doutor Antônio Augusto",
        "addr:suburb": "Centro",
        "amenity": "hospital",
        "emergency": "yes",
        "healthcare": "hospital",
        "internet_access": "yes",
        "name": "Hospital Municipal Humberto de Queiroz",
        "wheelchair": "yes",
        "id": "way/1012959398"
      },
      "geometry": {
        "type": "Polygon",
        "coordinates": [
          [
            [
              -38.459937,
              -6.0446907
            ],
            [
              -38.4601334,
              -6.0452261
            ],
            [
              -38.4597904,
              -6.0452916
            ],
            [
              -38.4595727,
              -6.0447614
            ],
            [
              -38.459937,
              -6.0446907
            ]
          ]
        ]
      }
    },
    {
      "type": "Feature",
      "id": "node/2710134343",
      "properties": {
        "timestamp": "2025-03-07T19:52:18Z",
        "version": 4,
        "changeset": 163341456,
        "addr:city": "Pereiro",
        "addr:postcode": "63.460-000",
        "addr:street": "Rua Doutor Antônio Augusto",
        "addr:suburb": "Centro",
        "amenity": "hospital",
        "emergency": "yes",
        "healthcare": "hospital",
        "internet_access": "yes",
        "name": "Hospital Municipal Humberto de Queiroz",
        "wheelchair": "yes",
        "id": "node/2710134343"
      },
      "geometry": {
        "type": "Point",
        "coordinates": [
          -38.4598582,
          -6.0451175
        ]
      }
    }
  ]
}
