{
  "type": "FeatureCollection",
  "features": [
    {
      "type": "Feature",
      "id": "way/1063460905",
      "properties": {
        "timestamp": "2022-05-25T04:36:49Z",
        "version": 1,
        "changeset": 121453879,
        "addr:city": "Pereiro",
        "addr:housenumber": "92",
        "addr:postcode": "63460-000",
        "addr:street": "Rua Coronel José Freire",
        "addr:suburb": "Centro",
        "amenity": "pharmacy",
        "building": "yes",
        "dispensing": "yes",
        "healthcare": "pharmacy",
        "name": "Drogaria Oliveira Paiva",
        "phone": "+55 (88) 99709-3215",
        "id": "way/1063460905"
      },
      "geometry": {
        "type": "Polygon",
        "coordinates": [
          [
            [
              -38.4612933,
              -6.0475434
            ],
            [
              -38.4612947,
              -6.0476023
            ],
            [
              -38.4611651,
              -6.0476148
            ],
            [
              -38.461151,
              -6.0475721
            ],
            [
              -38.4612933,
              -6.0475434
            ]
          ]
        ]
      }
    },
    {
      "type": "Feature",
      "id": "way/1063460921",
      "properties": {
        "timestamp": "2022-05-25T04:36:49Z",
        "version": 1,
        "changeset": 121453879,
        "addr:city": "Pereiro",
        "addr:postcode": "63460-000",
        "addr:street": "Rua Doutor Antônio Augusto",
        "addr:suburb": "Centro",
        "amenity": "pharmacy",
        "building": "yes",
        "dispensing": "yes",
        "healthcare": "pharmacy",
        "name": "Pereiro Farma",
        "id": "way/1063460921"
      },
      "geometry": {
        "type": "Polygon",
        "coordinates": [
          [
            [
              -38.4599363,
              -6.0457064
            ],
            [
              -38.4599428,
              -6.0458971
            ],
            [
              -38.4598854,
              -6.0459035
            ],
            [
              -38.4598815,
              -6.0457012
            ],
            [
              -38.4599363,
              -6.0457064
            ]
          ]
        ]
      }
    },
    {
      "type": "Feature",
      "id": "way/1063460922",
      "properties": {
        "timestamp": "2022-05-25T04:36:49Z",
        "version": 1,
        "changeset": 121453879,
        "addr:city": "Pereiro",
        "addr:postcode": "63460-000",
        "addr:street": "Rua Coronel José Freire",
        "addr:suburb": "Centro",
        "amenity": "pharmacy",
        "building": "yes",
        "dispensing": "yes",
        "healthcare": "pharmacy",
        "name": "Farmácia Santos Cosme e Damião",
        "id": "way/1063460922"
      },
      "geometry": {
        "type": "Polygon",
        "coordinates": [
          [
            [
              -38.4607206,
              -6.0466225
            ],
            [
              -38.4606461,
              -6.0467051
            ],
            [
              -38.46057,
              -6.0466466
            ],
            [
              -38.4606548,
              -6.0465554
            ],
            [
              -38.4607206,
              -6.0466225
            ]
          ]
        ]
      }
    },
    {
      "type": "Feature",
      "id": "node/9014072420",
      "properties": {
        "timestamp": "2022-05-25T04:36:49Z",
        "version": 4,
        "changeset": 121453879,
        "addr:city": "Pereiro",
        "addr:postcode": "63460-000",
        "addr:street": "Rua Doutor Antônio Augusto",
        "addr:suburb": "Centro",
        "amenity": "pharmacy",
        "dispensing": "yes",
        "healthcare": "pharmacy",
        "name": "Pereiro Farma",
        "phone": "+55 (88) 99799-0103",
        "id": "node/9014072420"
      },
      "geometry": {
        "type": "Point",
        "coordinates": [
          -38.4599231,
          -6.0457234
        ]
      }
    },
    {
      "type": "Feature",
      "id": "node/9018441208",
      "properties": {
        "timestamp": "2022-05-25T04:36:49Z",
        "version": 4,
        "changeset": 121453879,
        "addr:city": "Pereiro",
        "addr:housenumber": "92",
        "addr:postcode": "63460-000",
        "addr:street": "Rua Coronel José Freire",
        "addr:suburb": "Centro",
        "amenity": "pharmacy",
        "dispensing": "yes",
        "healthcare": "pharmacy",
        "name": "Drogaria Oliveira Paiva",
        "phone": "+55 (88) 99709-3215",
        "id": "node/9018441208"
      },
      "geometry": {
        "type": "Point",
        "coordinates": [
          -38.4612789,
          -6.0475619
        ]
      }
    },
    {
      "type": "Feature",
      "id": "node/9768620739",
      "properties": {
        "timestamp": "2022-05-25T04:36:49Z",
        "version": 1,
        "changeset": 121453879,
        "addr:city": "Pereiro",
        "addr:postcode": "63460-000",
        "addr:street": "Rua Coronel José Freire",
        "addr:suburb": "Centro",
        "amenity": "pharmacy",
        "dispensing": "yes",
        "healthcare": "pharmacy",
        "name": "Farmácia Santos Cosme e Damião",
        "id": "node/9768620739"
      },
      "geometry": {
        "type": "Point",
        "coordinates": [
          -38.46066,
          -6.0466156
        ]
      }
    }
  ]
}
