{
  "type": "FeatureCollection",
  "features": [
    {
      "type": "Feature",
      "id": "way/297190559",
      "properties": {
        "timestamp": "2023-12-06T17:42:22Z",
        "version": 4,
        "changeset": 144837955,
        "addr:city": "Inconfidentes",
        "addr:housenumber": "416",
        "addr:postcode": "37576-000",
        "addr:street": "Praça Tiradentes",
        "addr:suburb": "Centro",
        "amenity": "university",
        "name": "IFSULDEMINAS - Campus Inconfidentes",
        "official_name": "Instituto Federal de Educação, Ciência e Tecnologia do Sul de Minas Gerais - Campus Inconfidentes",
        "phone": "+55-35-3464-1200",
        "short_name": "IFSULDEMINAS Inconfidentes",
        "website": "https://portal.ifs.ifsuldeminas.edu.br",
        "id": "way/297190559"
      },
      "geometry": {
        "type": "Polygon",
        "coordinates": [
          [
            [
              -46.3286039,
              -22.3176727
            ],
            [
              -46.3289583,
              -22.3194029
            ],
            [
              -46.3289776,
              -22.3195009
            ],
            [
              -46.3284928,
              -22.3195919
            ],
            [
              -46.3284151,
              -22.3192048
            ],
            [
              -46.328114,
              -22.3192627
            ],
            [
              -46.327774,
              -22.3178327
            ],
            [
              -46.3286039,
              -22.3176727
            ]
          ]
        ]
      }
    }
  ]
}
