{
  "type": "FeatureCollection",
  "features": [
    {
      "type": "Feature",
      "id": "way/360972648",
      "properties": {
        "timestamp": "2019-10-14T13:49:32Z",
        "version": 2,
        "changeset": 75669165,
        "addr:city": "São José do Herval",
        "addr:postcode": "99380-000",
        "addr:street": "Rua Duque de Caxias",
        "addr:suburb": "Centro",
        "amenity": "community_centre",
        "building": "yes",
        "name": "Salão",
        "operator": "Prefeitura de São José do Herval",
        "source": "Bing;IBGE",
        "id": "way/360972648"
      },
      "geometry": {
        "type": "Polygon",
        "coordinates": [
          [
            [
              -52.2962397,
              -29.0447173
            ],
            [
              -52.2960275,
              -29.044539
            ],
            [
              -52.2962025,
              -29.0443798
            ],
            [
              -52.2964147,
              -29.0445581
            ],
            [
              -52.2962397,
              -29.0447173
            ]
          ]
        ]
      }
    },
    {
      "type": "Feature",
      "id": "way/511583382",
      "properties": {
        "timestamp": "2019-12-31T17:42:17Z",
        "version": 3,
        "changeset": 79064906,
        "addr:city": "São José do Herval",
        "addr:street": "Rua do Comércio",
        "addr:suburb": "centro",
        "amenity": "community_centre",
        "building": "yes",
        "name": "Clube Comunitário",
        "operator": "Prefeitura",
        "id": "way/511583382"
      },
      "geometry": {
        "type": "Polygon",
        "coordinates": [
          [
            [
              -52.2947867,
              -29.0459302
            ],
            [
              -52.2947083,
              -29.0460386
            ],
            [
              -52.2946758,
              -29.0460206
            ],
            [
              -52.2946353,
              -29.0460766
            ],
            [
              -52.2943656,
              -29.0459238
            ],
            [
              -52.2945262,
              -29.0457762
            ],
            [
              -52.2947867,
              -29.0459302
            ]
          ]
        ]
      }
    },
    {
      "type": "Feature",
      "id": "way/511583936",
      "properties": {
        "timestamp": "2021-10-30T22:50:39Z",
        "version": 4,
        "changeset": 113176299,
        "addr:city": "São José do Herval",
        "addr:street": "Avenida Getúlio Vargas",
        "amenity": "community_centre",
        "building": "yes",
        "name": "CTG Querência do Herval",
        "id": "way/511583936"
      },
      "geometry": {
        "type": "Polygon",
        "coordinates": [
          [
            [
              -52.290721,
              -29.0475987
            ],
            [
              -52.2909406,
              -29.0477961
            ],
            [
              -52.2906979,
              -29.0480025
            ],
            [
              -52.2904783,
              -29.047805
            ],
            [
              -52.290721,
              -29.0475987
            ]
          ]
        ]
      }
    },
    {
      "type": "Feature",
      "id": "node/3655098716",
      "properties": {
        "timestamp": "2015-07-17T03:59:33Z",
        "version": 1,
        "changeset": 32688358,
        "addr:city": "São José do Herval",
        "amenity": "community_centre",
        "name": "CTG de São José do Herval",
        "id": "node/3655098716"
      },
      "geometry": {
        "type": "Point",
        "coordinates": [
          -52.2907572,
          -29.0477588
        ]
      }
    }
  ]
}
