{
  "type": "FeatureCollection",
  "features": [
    {
      "type": "Feature",
      "id": "way/571429423",
      "properties": {
        "timestamp": "2024-07-02T13:13:07Z",
        "version": 2,
        "changeset": 153456636,
        "addr:city": "Bento Gonçalves",
        "addr:housenumber": "135",
        "addr:postcode": "95702-196",
        "addr:street": "Rua Francisco de Carli",
        "addr:suburb": "Santa Marta",
        "amenity": "clinic",
        "building": "yes",
        "healthcare": "clinic",
        "name": "UPA Santa Marta",
        "id": "way/571429423"
      },
      "geometry": {
        "type": "Polygon",
        "coordinates": [
          [
            [
              -51.5003246,
              -29.1790852
            ],
            [
              -51.5003273,
              -29.1792218
            ],
            [
              -51.5003424,
              -29.179229
            ],
            [
              -51.5003409,
              -29.1793044
            ],
            [
              -51.5003073,
              -29.1793136
            ],
            [
              -51.5002744,
              -29.1793141
            ],
            [
              -51.5001589,
              -29.1793126
            ],
            [
              -51.5001629,
              -29.1790766
            ],
            [
              -51.5003246,
              -29.1790852
            ]
          ]
        ]
      }
    },
    {
      "type": "Feature",
      "id": "way/1168161823",
      "properties": {
        "timestamp": "2023-05-03T01:02:19Z",
        "version": 1,
        "changeset": 135637559,
        "addr:city": "Bento Gonçalves",
        "addr:housenumber": "141",
        "addr:postcode": "95700-360",
        "addr:street": "Rua Senador Joaquim Pedro Salgado Filho",
        "addr:suburb": "Cidade Alta",
        "amenity": "clinic",
        "building": "yes",
        "healthcare": "clinic",
        "healthcare:speciality": "chiropractic;gynaecology;humanistic",
        "name": "Clínica Salute",
        "id": "way/1168161823"
      },
      "geometry": {
        "type": "Polygon",
        "coordinates": [
          [
            [
              -51.5136019,
              -29.1713746
            ],
            [
              -51.5136182,
              -29.1715418
            ],
            [
              -51.5134898,
              -29.171551
            ],
            [
              -51.5134793,
              -29.1713797
            ],
            [
              -51.5136019,
              -29.1713746
            ]
          ]
        ]
      }
    },
    {
      "type": "Feature",
      "id": "way/1298619891",
      "properties": {
        "timestamp": "2025-04-11T19:25:09Z",
        "version": 3,
        "changeset": 164830850,
        "addr:city": "Bento Gonçalves",
        "addr:street": "ERS-431",
        "addr:suburb": "Faria Lemos",
        "amenity": "clinic",
        "building": "public",
        "healthcare": "clinic",
        "name": "UBS FARIA LEMOS",
        "operator": "Prefeitura Municipal de Bento Gonçalves",
        "operator:type": "public",
        "id": "way/1298619891"
      },
      "geometry": {
        "type": "Polygon",
        "coordinates": [
          [
            [
              -51.5995935,
              -29.1111664
            ],
            [
              -51.5998144,
              -29.111151
            ],
            [
              -51.5998246,
              -29.111263
            ],
            [
              -51.5996037,
              -29.1112784
            ],
            [
              -51.5995935,
              -29.1111664
            ]
          ]
        ]
      }
    },
    {
      "type": "Feature",
      "id": "node/506712047",
      "properties": {
        "timestamp": "2022-04-27T14:36:55Z",
        "version": 6,
        "changeset": 120263065,
        "amenity": "clinic",
        "healthcare": "clinic",
        "id": "node/506712047"
      },
      "geometry": {
        "type": "Point",
        "coordinates": [
          -51.514564,
          -29.1798171
        ]
      }
    },
    {
      "type": "Feature",
      "id": "node/6479642886",
      "properties": {
        "timestamp": "2021-10-06T07:18:15Z",
        "version": 4,
        "changeset": 112154858,
        "amenity": "clinic",
        "healthcare": "clinic",
        "internet_access": "wlan",
        "name": "Clínica de Psicologia e Hipnose Rodrigo Meazzi",
        "opening_hours": "24/7",
        "phone": "+55 54 99167-9727",
        "id": "node/6479642886"
      },
      "geometry": {
        "type": "Point",
        "coordinates": [
          -51.5075123,
          -29.1638472
        ]
      }
    }
  ]
}
