{
  "type": "FeatureCollection",
  "features": [
    {
      "type": "Feature",
      "id": "way/198706100",
      "properties": {
        "timestamp": "2017-04-11T23:58:37Z",
        "version": 5,
        "changeset": 47678404,
        "addr:city": "Santos",
        "addr:housenumber": "110",
        "addr:postcode": "11045-908",
        "addr:street": "Avenida Bartholomeu de Gusmão",
        "addr:suburb": "Aparecida",
        "amenity": "college",
        "name": "Centro Paula Souza",
        "phone": "+55 13 3227-6003",
        "id": "way/198706100"
      },
      "geometry": {
        "type": "Polygon",
        "coordinates": [
          [
            [
              -46.3116043,
              -23.9811672
            ],
            [
              -46.3109249,
              -23.9818603
            ],
            [
              -46.3104811,
              -23.9814486
            ],
            [
              -46.3106807,
              -23.981235
            ],
            [
              -46.3093834,
              -23.9798368
            ],
            [
              -46.309936,
              -23.9793665
            ],
            [
              -46.3116043,
              -23.9811672
            ]
          ]
        ]
      }
    },
    {
      "type": "Feature",
      "id": "way/198706106",
      "properties": {
        "timestamp": "2017-04-12T00:09:53Z",
        "version": 6,
        "changeset": 47678549,
        "addr:city": "Santos",
        "addr:housenumber": "466",
        "addr:street": "Avenida Doutor Epitácio Pessoa",
        "addr:suburb": "Aparecida",
        "amenity": "college",
        "building": "school",
        "height": "11",
        "name": "ETEC Aristóteles Ferreira",
        "phone": "+55 13 3236-9973",
        "id": "way/198706106"
      },
      "geometry": {
        "type": "Polygon",
        "coordinates": [
          [
            [
              -46.3101346,
              -23.9797246
            ],
            [
              -46.3097359,
              -23.9801302
            ],
            [
              -46.3095562,
              -23.9799827
            ],
            [
              -46.3099549,
              -23.9795771
            ],
            [
              -46.3101346,
              -23.9797246
            ]
          ]
        ]
      }
    },
    {
      "type": "Feature",
      "id": "way/234466850",
      "properties": {
        "timestamp": "2024-07-06T22:58:01Z",
        "version": 10,
        "changeset": 153641999,
        "addr:city": "Santos",
        "addr:housenumber": "350",
        "addr:street": "Avenida Senador Feijó",
        "addr:suburb": "Vila Mathias",
        "amenity": "college",
        "name": "FATEC Rubens Lara",
        "id": "way/234466850"
      },
      "geometry": {
        "type": "Polygon",
        "coordinates": [
          [
            [
              -46.3263845,
              -23.9426984
            ],
            [
              -46.3262718,
              -23.9425881
            ],
            [
              -46.3262611,
              -23.9425611
            ],
            [
              -46.3262799,
              -23.9425391
            ],
            [
              -46.3262262,
              -23.94249
            ],
            [
              -46.3268941,
              -23.9419924
            ],
            [
              -46.3269477,
              -23.9420341
            ],
            [
              -46.3270173,
              -23.9420121
            ],
            [
              -46.3270674,
              -23.9420206
            ],
            [
              -46.3270972,
              -23.9420417
            ],
            [
              -46.327113,
              -23.9420917
            ],
            [
              -46.3270969,
              -23.9421407
            ],
            [
              -46.3270631,
              -23.9421787
            ],
            [
              -46.3270298,
              -23.9421873
            ],
            [
              -46.326893,
              -23.9422853
            ],
            [
              -46.3269075,
              -23.9423037
            ],
            [
              -46.3263845,
              -23.9426984
            ]
          ]
        ]
      }
    },
    {
      "type": "Feature",
      "id": "way/305498733",
      "properties": {
        "timestamp": "2024-07-06T23:00:13Z",
        "version": 6,
        "changeset": 153642039,
        "addr:city": "Santos",
        "addr:housenumber": "52",
        "addr:postcode": "11015-530",
        "addr:street": "Rua Comendador Martins",
        "addr:suburb": "Vila Mathias",
        "amenity": "college",
        "name": "São Judas Unimonte",
        "phone": "+55 13 3228-2100",
        "id": "way/305498733"
      },
      "geometry": {
        "type": "Polygon",
        "coordinates": [
          [
            [
              -46.3286413,
              -23.9436629
            ],
            [
              -46.3284461,
              -23.9436852
            ],
            [
              -46.3284786,
              -23.9438747
            ],
            [
              -46.3285925,
              -23.9438598
            ],
            [
              -46.3286331,
              -23.9441496
            ],
            [
              -46.327694,
              -23.9442463
            ],
            [
              -46.3276462,
              -23.943943
            ],
            [
              -46.3276416,
              -23.9439139
            ],
            [
              -46.3276323,
              -23.9438546
            ],
            [
              -46.3276299,
              -23.9438393
            ],
            [
              -46.3276208,
              -23.9437818
            ],
            [
              -46.3279501,
              -23.9437372
            ],
            [
              -46.3279013,
              -23.9433805
            ],
            [
              -46.3285884,
              -23.9432951
            ],
            [
              -46.3286413,
              -23.9436629
            ]
          ]
        ]
      }
    },
    {
      "type": "Feature",
      "id": "way/477055875",
      "properties": {
        "timestamp": "2017-06-13T06:16:40Z",
        "version": 3,
        "changeset": 49488817,
        "addr:city": "Santos",
        "addr:housenumber": "421",
        "addr:postcode": "11015-505",
        "addr:street": "Avenida Senador Feijó",
        "addr:suburb": "Vila Mathias",
        "amenity": "college",
        "description": "Escola Técnica",
        "name": "Senai - Escola Antonio Souza Noschese",
        "phone": "+55 13 3269-8100",
        "id": "way/477055875"
      },
      "geometry": {
        "type": "Polygon",
        "coordinates": [
          [
            [
              -46.3263359,
              -23.9445263
            ],
            [
              -46.3263749,
              -23.9448109
            ],
            [
              -46.3253869,
              -23.944924
            ],
            [
              -46.3253698,
              -23.9447991
            ],
            [
              -46.3257236,
              -23.9447586
            ],
            [
              -46.3257317,
              -23.9448174
            ],
            [
              -46.3258276,
              -23.9448064
            ],
            [
              -46.3257977,
              -23.9445879
            ],
            [
              -46.3263359,
              -23.9445263
            ]
          ]
        ]
      }
    },
    {
      "type": "Feature",
      "id": "node/4908829177",
      "properties": {
        "timestamp": "2018-03-07T20:42:43Z",
        "version": 3,
        "changeset": 56980446,
        "addr:housenumber": "16",
        "addr:postcode": "11045-330",
        "addr:street": "Rua Doutor Acácio Nogueira",
        "alt_name:pt": "Método DeRose Boqueirão",
        "amenity": "college",
        "name": "DeRose Method Boqueirão",
        "network": "DeRose Method",
        "old_name": "DeRose Method Santos",
        "old_name:pt": "Método DeRose Santos",
        "phone": "+55 13 32841020",
        "training": "derose_method",
        "website": "http://metododerosesantos.com.br/",
        "id": "node/4908829177"
      },
      "geometry": {
        "type": "Point",
        "coordinates": [
          -46.3205057,
          -23.9698079
        ]
      }
    },
    {
      "type": "Feature",
      "id": "node/6907066930",
      "properties": {
        "timestamp": "2019-10-22T21:06:23Z",
        "version": 1,
        "changeset": 76069712,
        "addr:city": "Santos",
        "addr:housenumber": "340/350",
        "addr:postcode": "11015-502",
        "addr:street": "Avenida Senador Feijó",
        "addr:suburb": "Vila Mathias",
        "amenity": "college",
        "internet_access": "yes",
        "name": "ETEC Dona Escolástica Rosa",
        "operator": "Centro Paula Souza",
        "operator:type": "public",
        "website": "http://etecescolasticarosa.com.br/",
        "id": "node/6907066930"
      },
      "geometry": {
        "type": "Point",
        "coordinates": [
          -46.3264499,
          -23.9424138
        ]
      }
    },
    {
      "type": "Feature",
      "id": "node/8408275336",
      "properties": {
        "timestamp": "2022-05-24T13:44:58Z",
        "version": 2,
        "changeset": 121425515,
        "addr:city": "Santos",
        "addr:housenumber": "178",
        "addr:postcode": "11025230",
        "addr:street": "Rua Octavio Corrêa",
        "addr:suburb": "Estuário",
        "amenity": "college",
        "name": "GRUPO INCATEP",
        "website": "https://www.grupoincatep.com.br/",
        "id": "node/8408275336"
      },
      "geometry": {
        "type": "Point",
        "coordinates": [
          -46.2947789,
          -23.9754441
        ]
      }
    }
  ]
}
