{
  "type": "FeatureCollection",
  "features": [
    {
      "type": "Feature",
      "id": "way/234472637",
      "properties": {
        "timestamp": "2015-07-09T18:23:42Z",
        "version": 4,
        "changeset": 32526118,
        "name": "Hotel Atlântico",
        "tourism": "hotel",
        "id": "way/234472637"
      },
      "geometry": {
        "type": "Polygon",
        "coordinates": [
          [
            [
              -46.3332779,
              -23.9685435
            ],
            [
              -46.3333048,
              -23.9688817
            ],
            [
              -46.3333369,
              -23.9688817
            ],
            [
              -46.3333505,
              -23.9690361
            ],
            [
              -46.3335568,
              -23.969014
            ],
            [
              -46.3335758,
              -23.9692248
            ],
            [
              -46.3333076,
              -23.9692959
            ],
            [
              -46.3332727,
              -23.9692836
            ],
            [
              -46.3332618,
              -23.9692322
            ],
            [
              -46.3332325,
              -23.9685484
            ],
            [
              -46.3332779,
              -23.9685435
            ]
          ]
        ]
      }
    },
    {
      "type": "Feature",
      "id": "way/298580883",
      "properties": {
        "timestamp": "2019-12-02T18:57:10Z",
        "version": 13,
        "changeset": 77838825,
        "addr:city": "Santos",
        "addr:housenumber": "565",
        "addr:street": "Avenida Washington Luiz",
        "addr:suburb": "Boqueirão",
        "building": "yes",
        "building:levels": "24",
        "height": "72",
        "name": "Condomínio Clube XV Hotel, Flats & Centro de Negócios",
        "tourism": "hotel",
        "id": "way/298580883"
      },
      "geometry": {
        "type": "Polygon",
        "coordinates": [
          [
            [
              -46.3290899,
              -23.9704797
            ],
            [
              -46.3288987,
              -23.9705657
            ],
            [
              -46.3284795,
              -23.9698189
            ],
            [
              -46.3289997,
              -23.9697945
            ],
            [
              -46.3290596,
              -23.9702802
            ],
            [
              -46.3290899,
              -23.9704797
            ]
          ]
        ]
      }
    },
    {
      "type": "Feature",
      "id": "way/364927644",
      "properties": {
        "timestamp": "2024-11-23T00:07:28Z",
        "version": 4,
        "changeset": 159479533,
        "addr:city": "Santos",
        "addr:housenumber": "555",
        "addr:postcode": "11060-003",
        "addr:street": "Avenida Anna Costa",
        "addr:suburb": "Gonzaga",
        "building": "hotel",
        "name": "Parque Balneário Hotel",
        "phone": "+55 13 3285 6900",
        "tourism": "hotel",
        "id": "way/364927644"
      },
      "geometry": {
        "type": "Polygon",
        "coordinates": [
          [
            [
              -46.3329069,
              -23.9689264
            ],
            [
              -46.3329469,
              -23.9692233
            ],
            [
              -46.3325667,
              -23.9692639
            ],
            [
              -46.3325287,
              -23.9689657
            ],
            [
              -46.3329069,
              -23.9689264
            ]
          ]
        ]
      }
    },
    {
      "type": "Feature",
      "id": "way/700850328",
      "properties": {
        "timestamp": "2024-03-31T02:39:51Z",
        "version": 3,
        "changeset": 149374625,
        "addr:city": "Santos",
        "addr:country": "BR",
        "addr:housenumber": "77",
        "addr:postcode": "11060301",
        "addr:street": "Avenida Marechal Floriano Peixoto",
        "addr:suburb": "Gonzaga",
        "brand": "Ibis Budget",
        "brand:wikidata": "Q1458135",
        "brand:wikipedia": "en:Ibis Budget",
        "building": "hotel",
        "check_date": "2024-03-30",
        "email": "H9611-re@accor.com",
        "fax": "+55 13 35003550",
        "internet_access": "wlan",
        "internet_access:fee": "no",
        "name": "Ibis Budget Santos Gonzaga",
        "operator": "Accor Hotels",
        "phone": "+55 13 35003550",
        "rooms": "165",
        "smoking": "no",
        "stars": "3",
        "toilets:wheelchair": "yes",
        "tourism": "hotel",
        "website": "https://www.accorhotels.com/gb/hotel-9611-ibis-budget-santos-gonzaga/index.shtml",
        "wheelchair": "yes",
        "id": "way/700850328"
      },
      "geometry": {
        "type": "Polygon",
        "coordinates": [
          [
            [
              -46.3358273,
              -23.9677053
            ],
            [
              -46.3355899,
              -23.9677555
            ],
            [
              -46.3354861,
              -23.967346
            ],
            [
              -46.3357235,
              -23.9672958
            ],
            [
              -46.3358273,
              -23.9677053
            ]
          ]
        ]
      }
    },
    {
      "type": "Feature",
      "id": "node/460154758",
      "properties": {
        "timestamp": "2017-03-08T20:28:49Z",
        "version": 3,
        "changeset": 46691279,
        "addr:street": "Avenida Anna Costa",
        "name": "Hotel Parque Balneário",
        "tourism": "hotel",
        "id": "node/460154758"
      },
      "geometry": {
        "type": "Point",
        "coordinates": [
          -46.3327006,
          -23.9690536
        ]
      }
    },
    {
      "type": "Feature",
      "id": "node/2062380097",
      "properties": {
        "timestamp": "2012-12-11T22:19:46Z",
        "version": 1,
        "changeset": 14243529,
        "tourism": "hotel",
        "id": "node/2062380097"
      },
      "geometry": {
        "type": "Point",
        "coordinates": [
          -46.3097552,
          -23.97494
        ]
      }
    },
    {
      "type": "Feature",
      "id": "node/2588212727",
      "properties": {
        "timestamp": "2017-03-08T19:40:20Z",
        "version": 2,
        "changeset": 46690276,
        "addr:city": "Santos",
        "addr:housenumber": "130",
        "addr:street": "Rua Bittencourt",
        "addr:suburb": "Vila Nova",
        "name": "Monte Serrat Hotel",
        "phone": "+55 13 3232-6624",
        "tourism": "hotel",
        "id": "node/2588212727"
      },
      "geometry": {
        "type": "Point",
        "coordinates": [
          -46.3242158,
          -23.938806
        ]
      }
    },
    {
      "type": "Feature",
      "id": "node/4670194422",
      "properties": {
        "timestamp": "2017-02-19T18:36:59Z",
        "version": 2,
        "changeset": 46223549,
        "addr:city": "Santos",
        "addr:housenumber": "21",
        "addr:street": "Avenida Almirante Cochrane",
        "addr:suburb": "Embaré",
        "internet_access": "yes",
        "name": "Hotel Casarão",
        "tourism": "hotel",
        "id": "node/4670194422"
      },
      "geometry": {
        "type": "Point",
        "coordinates": [
          -46.314643,
          -23.9766746
        ]
      }
    },
    {
      "type": "Feature",
      "id": "node/4692736187",
      "properties": {
        "timestamp": "2021-10-29T14:35:12Z",
        "version": 6,
        "changeset": 113127637,
        "addr:city": "Santos",
        "addr:housenumber": "565",
        "addr:street": "Avenida Washington Luiz",
        "addr:suburb": "Boqueirão",
        "brand": "Mercure",
        "brand:wikidata": "Q1709809",
        "brand:wikipedia": "en:Mercure (hotel)",
        "name": "Mercure Santos Hotel",
        "phone": "+55 13 3036-1013",
        "tourism": "hotel",
        "id": "node/4692736187"
      },
      "geometry": {
        "type": "Point",
        "coordinates": [
          -46.3289818,
          -23.9701332
        ]
      }
    },
    {
      "type": "Feature",
      "id": "node/5981825139",
      "properties": {
        "timestamp": "2024-02-09T13:45:18Z",
        "version": 2,
        "changeset": 147257851,
        "addr:housenumber": "42",
        "addr:street": "Avenida Marechal Floriano Peixoto",
        "brand": "Bourbon Hotéis e Resorts",
        "contact:phone": "55 13 32086400",
        "internet_access": "wlan",
        "internet_access:fee": "no",
        "name": "Bourbon Santos Convention Hotel",
        "tourism": "hotel",
        "website": "https://www.bourbon.com.br/hotel/bourbon-santos",
        "id": "node/5981825139"
      },
      "geometry": {
        "type": "Point",
        "coordinates": [
          -46.3343105,
          -23.9670999
        ]
      }
    },
    {
      "type": "Feature",
      "id": "node/6228420089",
      "properties": {
        "timestamp": "2019-10-07T04:29:31Z",
        "version": 2,
        "changeset": 75356490,
        "name": "Comfort Hotel",
        "tourism": "hotel",
        "id": "node/6228420089"
      },
      "geometry": {
        "type": "Point",
        "coordinates": [
          -46.3030213,
          -23.9895811
        ]
      }
    },
    {
      "type": "Feature",
      "id": "node/6288444345",
      "properties": {
        "timestamp": "2022-12-30T16:30:41Z",
        "version": 4,
        "changeset": 130694477,
        "addr:city": "Santos",
        "addr:housenumber": "241 Gonzaga",
        "addr:postcode": "11060-301",
        "addr:street": "Avenida Marechal Floriano Peixoto",
        "addr:suburb": "Santos",
        "brand": "Park Inn",
        "brand:wikidata": "Q60711675",
        "brand:wikipedia": "ru:Park Inn by Radisson",
        "email": "PD_SABR@parkinn.com",
        "name": "Park Inn by Radisson Santos",
        "phone": "+55 13-350-02610",
        "tourism": "hotel",
        "website": "https://www.radissonhotels.com/en-us/hotels/park-inn-santos",
        "id": "node/6288444345"
      },
      "geometry": {
        "type": "Point",
        "coordinates": [
          -46.3415373,
          -23.9667685
        ]
      }
    },
    {
      "type": "Feature",
      "id": "node/6680662186",
      "properties": {
        "timestamp": "2019-08-03T22:37:58Z",
        "version": 1,
        "changeset": 72978682,
        "addr:city": "Santos",
        "addr:housenumber": "16",
        "addr:postcode": "11065-260",
        "addr:street": "Rua Newton Prado",
        "addr:suburb": "José Menino",
        "alt_name": "Marinu's Hotel",
        "email": "contato@marinushotel.com.br",
        "name": "Marinus Hotel",
        "phone": "+55 13 3237-6500",
        "tourism": "hotel",
        "website": "https://www.marinushotel.com.br/",
        "id": "node/6680662186"
      },
      "geometry": {
        "type": "Point",
        "coordinates": [
          -46.3504803,
          -23.9672622
        ]
      }
    },
    {
      "type": "Feature",
      "id": "node/10903705608",
      "properties": {
        "timestamp": "2023-05-16T21:49:52Z",
        "version": 1,
        "changeset": 136187282,
        "name": "Praiamar Residence",
        "tourism": "hotel",
        "id": "node/10903705608"
      },
      "geometry": {
        "type": "Point",
        "coordinates": [
          -46.3087358,
          -23.9787644
        ]
      }
    },
    {
      "type": "Feature",
      "id": "node/12442373314",
      "properties": {
        "timestamp": "2024-12-22T21:48:30Z",
        "version": 1,
        "changeset": 160516481,
        "brand": "Ibis",
        "brand:wikidata": "Q920166",
        "name": "Ibis",
        "tourism": "hotel",
        "id": "node/12442373314"
      },
      "geometry": {
        "type": "Point",
        "coordinates": [
          -46.3379988,
          -23.9311883
        ]
      }
    }
  ]
}
