{
  "type": "FeatureCollection",
  "features": [
    {
      "type": "Feature",
      "id": "node/9184073218",
      "properties": {
        "timestamp": "2021-11-28T05:29:35Z",
        "version": 2,
        "changeset": 114313313,
        "addr:housenumber": "102",
        "addr:street": "Rua Doutor Oswaldo Cruz",
        "amenity": "nursing_home",
        "name": "Recanto Plenitude",
        "phone": "13974113494",
        "id": "node/9184073218"
      },
      "geometry": {
        "type": "Point",
        "coordinates": [
          -46.3219777,
          -23.9593828
        ]
      }
    },
    {
      "type": "Feature",
      "id": "node/9208361618",
      "properties": {
        "timestamp": "2021-10-28T19:18:51Z",
        "version": 1,
        "changeset": 113095100,
        "addr:street": "Avenida Conselheiro Nébias",
        "amenity": "nursing_home",
        "name": "São Miguel Arcanjo",
        "phone": "32231931",
        "id": "node/9208361618"
      },
      "geometry": {
        "type": "Point",
        "coordinates": [
          -46.3213482,
          -23.9415043
        ]
      }
    }
  ]
}
