{
  "type": "FeatureCollection",
  "features": [
    {
      "type": "Feature",
      "id": "way/422277718",
      "properties": {
        "timestamp": "2021-01-25T00:29:47Z",
        "version": 2,
        "changeset": 98079550,
        "amenity": "pharmacy",
        "brand": "Droga Raia",
        "brand:wikidata": "Q10357101",
        "brand:wikipedia": "pt:RaiaDrogasil",
        "building": "commercial",
        "drive_through": "no",
        "healthcare": "pharmacy",
        "name": "Droga Raia",
        "id": "way/422277718"
      },
      "geometry": {
        "type": "Polygon",
        "coordinates": [
          [
            [
              -46.2993797,
              -23.9757296
            ],
            [
              -46.2995885,
              -23.9759915
            ],
            [
              -46.2993549,
              -23.9761661
            ],
            [
              -46.2992169,
              -23.97604
            ],
            [
              -46.2993797,
              -23.9757296
            ]
          ]
        ]
      }
    },
    {
      "type": "Feature",
      "id": "way/444285328",
      "properties": {
        "timestamp": "2017-06-11T17:26:07Z",
        "version": 5,
        "changeset": 49447441,
        "addr:city": "Santos",
        "addr:housenumber": "47",
        "addr:postcode": "11087-200",
        "addr:street": "Rua Professor Luís Gomes Cruz",
        "addr:suburb": "Jardim Castelo",
        "amenity": "pharmacy",
        "building": "house",
        "drive_through": "no",
        "name": "Drogaria Reis",
        "opening_hours": "08:00-22:00",
        "phone": "+55 13 3299-5006",
        "id": "way/444285328"
      },
      "geometry": {
        "type": "Polygon",
        "coordinates": [
          [
            [
              -46.3769693,
              -23.9454847
            ],
            [
              -46.3769775,
              -23.945546
            ],
            [
              -46.3768514,
              -23.945559
            ],
            [
              -46.3767376,
              -23.9455757
            ],
            [
              -46.3767356,
              -23.94552
            ],
            [
              -46.3768453,
              -23.9454977
            ],
            [
              -46.3769693,
              -23.9454847
            ]
          ]
        ]
      }
    },
    {
      "type": "Feature",
      "id": "way/483129848",
      "properties": {
        "timestamp": "2023-05-19T12:42:36Z",
        "version": 4,
        "changeset": 136288787,
        "addr:city": "Santos",
        "addr:housenumber": "21",
        "addr:postcode": "11045-301",
        "addr:street": "Avenida Doutor Epitácio Pessoa",
        "addr:suburb": "Boqueirão",
        "amenity": "pharmacy",
        "brand": "Drogaria São Paulo",
        "brand:wikidata": "Q5308184",
        "brand:wikipedia": "en:Grupo DPSP",
        "building": "yes",
        "dispensing": "yes",
        "healthcare": "pharmacy",
        "name": "Drogaria São Paulo",
        "phone": "+55 13 3284-1341",
        "wheelchair": "yes",
        "id": "way/483129848"
      },
      "geometry": {
        "type": "Polygon",
        "coordinates": [
          [
            [
              -46.3234914,
              -23.9705344
            ],
            [
              -46.3235109,
              -23.9707688
            ],
            [
              -46.3233728,
              -23.9708319
            ],
            [
              -46.3233498,
              -23.9705457
            ],
            [
              -46.3234914,
              -23.9705344
            ]
          ]
        ]
      }
    },
    {
      "type": "Feature",
      "id": "way/483799691",
      "properties": {
        "timestamp": "2021-11-10T21:27:32Z",
        "version": 3,
        "changeset": 113626926,
        "addr:city": "Santos",
        "addr:housenumber": "53",
        "addr:street": "Rua Alexandre Martins",
        "addr:suburb": "Aparecida",
        "amenity": "pharmacy",
        "brand": "Farma Conde",
        "brand:wikidata": "Q100492677",
        "building": "yes",
        "healthcare": "pharmacy",
        "name": "Farma Conde",
        "phone": "+55 13 3324-6769",
        "id": "way/483799691"
      },
      "geometry": {
        "type": "Polygon",
        "coordinates": [
          [
            [
              -46.3117562,
              -23.976899
            ],
            [
              -46.3118129,
              -23.9769654
            ],
            [
              -46.3117162,
              -23.9770343
            ],
            [
              -46.311708,
              -23.9770248
            ],
            [
              -46.3116024,
              -23.9771001
            ],
            [
              -46.3115539,
              -23.9770432
            ],
            [
              -46.3117562,
              -23.976899
            ]
          ]
        ]
      }
    },
    {
      "type": "Feature",
      "id": "way/485442863",
      "properties": {
        "timestamp": "2020-03-23T05:59:53Z",
        "version": 2,
        "changeset": 82505603,
        "addr:city": "Santos",
        "addr:housenumber": "547",
        "addr:street": "Avenida Conselheiro Nébias",
        "addr:suburb": "Boqueirão",
        "amenity": "pharmacy",
        "brand": "Droga Raia",
        "brand:wikidata": "Q10357101",
        "brand:wikipedia": "pt:RaiaDrogasil",
        "building": "yes",
        "healthcare": "pharmacy",
        "name": "Droga Raia",
        "phone": "+55 13 3233-2721",
        "id": "way/485442863"
      },
      "geometry": {
        "type": "Polygon",
        "coordinates": [
          [
            [
              -46.322691,
              -23.9579668
            ],
            [
              -46.3227276,
              -23.9579956
            ],
            [
              -46.3227332,
              -23.9580843
            ],
            [
              -46.3225343,
              -23.9580949
            ],
            [
              -46.3225267,
              -23.9579755
            ],
            [
              -46.322691,
              -23.9579668
            ]
          ]
        ]
      }
    },
    {
      "type": "Feature",
      "id": "way/485448930",
      "properties": {
        "timestamp": "2020-03-23T05:59:53Z",
        "version": 2,
        "changeset": 82505603,
        "addr:city": "Santos",
        "addr:housenumber": "536",
        "addr:postcode": "11045-200",
        "addr:street": "Avenida Siqueira Campos",
        "addr:suburb": "Boqueirão",
        "amenity": "pharmacy",
        "brand": "Drogasil",
        "brand:wikidata": "Q5308185",
        "brand:wikipedia": "pt:Drogasil",
        "building": "yes",
        "healthcare": "pharmacy",
        "name": "Drogasil",
        "phone": "+55 13 3224-3643",
        "wheelchair": "yes",
        "id": "way/485448930"
      },
      "geometry": {
        "type": "Polygon",
        "coordinates": [
          [
            [
              -46.3201157,
              -23.9669781
            ],
            [
              -46.3201206,
              -23.9670712
            ],
            [
              -46.3199048,
              -23.9670806
            ],
            [
              -46.3199,
              -23.9669875
            ],
            [
              -46.3201157,
              -23.9669781
            ]
          ]
        ]
      }
    },
    {
      "type": "Feature",
      "id": "way/489914182",
      "properties": {
        "timestamp": "2017-04-27T19:42:45Z",
        "version": 1,
        "changeset": 48206736,
        "addr:city": "Santos",
        "addr:housenumber": "175",
        "addr:postcode": "11.070-061",
        "addr:street": "Avenida Doutor Moura Ribeiro",
        "addr:suburb": "Marapé",
        "amenity": "pharmacy",
        "building": "yes",
        "name": "Farma Conde",
        "phone": "+55 13 3225-6793",
        "id": "way/489914182"
      },
      "geometry": {
        "type": "Polygon",
        "coordinates": [
          [
            [
              -46.3513161,
              -23.95667
            ],
            [
              -46.3512951,
              -23.9567884
            ],
            [
              -46.3512356,
              -23.9567788
            ],
            [
              -46.3512461,
              -23.9567361
            ],
            [
              -46.3511854,
              -23.9567233
            ],
            [
              -46.3511702,
              -23.9566998
            ],
            [
              -46.3512274,
              -23.9566486
            ],
            [
              -46.3513161,
              -23.95667
            ]
          ]
        ]
      }
    },
    {
      "type": "Feature",
      "id": "way/501258099",
      "properties": {
        "timestamp": "2022-11-03T18:23:03Z",
        "version": 9,
        "changeset": 128438380,
        "addr:city": "Santos",
        "addr:housenumber": "101",
        "addr:street": "Rua Oswaldo Cochrane",
        "addr:suburb": "Embaré",
        "amenity": "pharmacy",
        "brand": "Farma Conde",
        "brand:wikidata": "Q100492677",
        "building": "yes",
        "building:colour": "orange",
        "building:levels": "2",
        "healthcare": "pharmacy",
        "name": "Farma Conde",
        "roof:colour": "grey",
        "wheelchair": "limited",
        "id": "way/501258099"
      },
      "geometry": {
        "type": "Polygon",
        "coordinates": [
          [
            [
              -46.3161349,
              -23.9735758
            ],
            [
              -46.3161817,
              -23.9736349
            ],
            [
              -46.31592,
              -23.973808
            ],
            [
              -46.3158732,
              -23.9737489
            ],
            [
              -46.3161349,
              -23.9735758
            ]
          ]
        ]
      }
    },
    {
      "type": "Feature",
      "id": "way/756594041",
      "properties": {
        "timestamp": "2019-12-18T15:01:34Z",
        "version": 1,
        "changeset": 78588526,
        "amenity": "pharmacy",
        "building": "yes",
        "dispensing": "yes",
        "healthcare": "pharmacy",
        "name": "PoupaMed",
        "id": "way/756594041"
      },
      "geometry": {
        "type": "Polygon",
        "coordinates": [
          [
            [
              -46.3368362,
              -23.9533528
            ],
            [
              -46.3368044,
              -23.9531622
            ],
            [
              -46.3368985,
              -23.9531491
            ],
            [
              -46.3369303,
              -23.9533399
            ],
            [
              -46.3368362,
              -23.9533528
            ]
          ]
        ]
      }
    },
    {
      "type": "Feature",
      "id": "way/756594042",
      "properties": {
        "timestamp": "2023-11-08T19:52:04Z",
        "version": 2,
        "changeset": 143795674,
        "amenity": "pharmacy",
        "brand": "Droga Raia",
        "brand:wikidata": "Q10357101",
        "brand:wikipedia": "pt:RaiaDrogasil",
        "building": "yes",
        "check_date": "2023-11-08",
        "dispensing": "yes",
        "healthcare": "pharmacy",
        "name": "Droga Raia",
        "id": "way/756594042"
      },
      "geometry": {
        "type": "Polygon",
        "coordinates": [
          [
            [
              -46.3385978,
              -23.9657552
            ],
            [
              -46.3383809,
              -23.965771
            ],
            [
              -46.3383744,
              -23.9656664
            ],
            [
              -46.3385494,
              -23.9656541
            ],
            [
              -46.3385687,
              -23.9656636
            ],
            [
              -46.3385882,
              -23.9656731
            ],
            [
              -46.3385978,
              -23.9657552
            ]
          ]
        ]
      }
    },
    {
      "type": "Feature",
      "id": "way/1268119043",
      "properties": {
        "timestamp": "2024-04-01T10:30:16Z",
        "version": 1,
        "changeset": 149427492,
        "addr:city": "Santos",
        "addr:housenumber": "637",
        "addr:street": "Avenida Conselheiro Nébias",
        "amenity": "pharmacy",
        "brand": "Drogaria São Paulo",
        "brand:wikidata": "Q5308184",
        "building": "yes",
        "healthcare": "pharmacy",
        "height": "8",
        "name": "Drogaria São Paulo",
        "id": "way/1268119043"
      },
      "geometry": {
        "type": "Polygon",
        "coordinates": [
          [
            [
              -46.3231006,
              -23.9624189
            ],
            [
              -46.3231016,
              -23.9625282
            ],
            [
              -46.3228372,
              -23.9625304
            ],
            [
              -46.3228361,
              -23.962421
            ],
            [
              -46.3231006,
              -23.9624189
            ]
          ]
        ]
      }
    },
    {
      "type": "Feature",
      "id": "node/460149340",
      "properties": {
        "timestamp": "2020-03-23T05:59:53Z",
        "version": 5,
        "changeset": 82505603,
        "addr:city": "Santos",
        "addr:street": "Praça da Independência",
        "addr:suburb": "Gonzaga",
        "amenity": "pharmacy",
        "healthcare": "pharmacy",
        "name": "Poupa Farma",
        "opening_hours": "open",
        "id": "node/460149340"
      },
      "geometry": {
        "type": "Point",
        "coordinates": [
          -46.3332133,
          -23.9675923
        ]
      }
    },
    {
      "type": "Feature",
      "id": "node/2062380070",
      "properties": {
        "timestamp": "2021-01-25T00:29:47Z",
        "version": 4,
        "changeset": 98079550,
        "addr:city": "Santos",
        "addr:housenumber": "387",
        "addr:postcode": "11045-301",
        "addr:street": "Avenida Doutor Epitácio Pessoa",
        "addr:suburb": "Aparecida",
        "amenity": "pharmacy",
        "brand": "Drogasil",
        "brand:wikidata": "Q5308185",
        "brand:wikipedia": "pt:Drogasil",
        "healthcare": "pharmacy",
        "name": "Drogasil",
        "phone": "+55 13 3227-2971",
        "wheelchair": "yes",
        "id": "node/2062380070"
      },
      "geometry": {
        "type": "Point",
        "coordinates": [
          -46.3121095,
          -23.9774782
        ]
      }
    },
    {
      "type": "Feature",
      "id": "node/2062380072",
      "properties": {
        "timestamp": "2021-01-25T00:29:47Z",
        "version": 4,
        "changeset": 98079550,
        "addr:city": "Santos",
        "addr:housenumber": "372",
        "addr:postcode": "11030-600",
        "addr:street": "Avenida Doutor Epitácio Pessoa",
        "addr:suburb": "Aparecida",
        "amenity": "pharmacy",
        "healthcare": "pharmacy",
        "name": "Poupafarma",
        "phone": "+55 13 3227-3998",
        "id": "node/2062380072"
      },
      "geometry": {
        "type": "Point",
        "coordinates": [
          -46.311892,
          -23.9779123
        ]
      }
    },
    {
      "type": "Feature",
      "id": "node/2062380095",
      "properties": {
        "timestamp": "2021-01-25T00:29:47Z",
        "version": 3,
        "changeset": 98079550,
        "addr:city": "Santos",
        "addr:housenumber": "385",
        "addr:street": "Avenida Doutor Epitácio Pessoa",
        "addr:suburb": "Aparecida",
        "amenity": "pharmacy",
        "healthcare": "pharmacy",
        "name": "Rosa Gálica",
        "phone": "+55 13 3271-1177",
        "id": "node/2062380095"
      },
      "geometry": {
        "type": "Point",
        "coordinates": [
          -46.312181,
          -23.9774332
        ]
      }
    },
    {
      "type": "Feature",
      "id": "node/2062518724",
      "properties": {
        "timestamp": "2021-01-25T00:29:47Z",
        "version": 4,
        "changeset": 98079550,
        "amenity": "pharmacy",
        "healthcare": "pharmacy",
        "id": "node/2062518724"
      },
      "geometry": {
        "type": "Point",
        "coordinates": [
          -46.3009252,
          -23.9767953
        ]
      }
    },
    {
      "type": "Feature",
      "id": "node/2062521550",
      "properties": {
        "timestamp": "2021-01-25T00:29:47Z",
        "version": 2,
        "changeset": 98079550,
        "amenity": "pharmacy",
        "healthcare": "pharmacy",
        "id": "node/2062521550"
      },
      "geometry": {
        "type": "Point",
        "coordinates": [
          -46.3085798,
          -23.9713008
        ]
      }
    },
    {
      "type": "Feature",
      "id": "node/2062521554",
      "properties": {
        "timestamp": "2021-01-25T00:29:47Z",
        "version": 2,
        "changeset": 98079550,
        "amenity": "pharmacy",
        "brand": "Drogasil",
        "brand:wikidata": "Q5308185",
        "brand:wikipedia": "pt:Drogasil",
        "healthcare": "pharmacy",
        "name": "Drogasil",
        "wheelchair": "yes",
        "id": "node/2062521554"
      },
      "geometry": {
        "type": "Point",
        "coordinates": [
          -46.3064019,
          -23.9684897
        ]
      }
    },
    {
      "type": "Feature",
      "id": "node/2062522731",
      "properties": {
        "timestamp": "2021-01-25T00:29:47Z",
        "version": 2,
        "changeset": 98079550,
        "amenity": "pharmacy",
        "healthcare": "pharmacy",
        "id": "node/2062522731"
      },
      "geometry": {
        "type": "Point",
        "coordinates": [
          -46.3052431,
          -23.9735582
        ]
      }
    },
    {
      "type": "Feature",
      "id": "node/2062560694",
      "properties": {
        "timestamp": "2021-01-25T00:29:47Z",
        "version": 2,
        "changeset": 98079550,
        "amenity": "pharmacy",
        "healthcare": "pharmacy",
        "id": "node/2062560694"
      },
      "geometry": {
        "type": "Point",
        "coordinates": [
          -46.3072708,
          -23.9834733
        ]
      }
    },
    {
      "type": "Feature",
      "id": "node/2067231427",
      "properties": {
        "timestamp": "2021-11-10T21:27:32Z",
        "version": 4,
        "changeset": 113626926,
        "amenity": "pharmacy",
        "brand": "Farma Conde",
        "brand:wikidata": "Q100492677",
        "healthcare": "pharmacy",
        "name": "Farma Conde",
        "id": "node/2067231427"
      },
      "geometry": {
        "type": "Point",
        "coordinates": [
          -46.3035055,
          -23.9750432
        ]
      }
    },
    {
      "type": "Feature",
      "id": "node/2069209890",
      "properties": {
        "timestamp": "2021-11-10T21:27:32Z",
        "version": 3,
        "changeset": 113626926,
        "addr:street": "Avenida Doutor Pedro Lessa",
        "amenity": "pharmacy",
        "healthcare": "pharmacy",
        "name": "Poupafarma",
        "id": "node/2069209890"
      },
      "geometry": {
        "type": "Point",
        "coordinates": [
          -46.3165296,
          -23.9659701
        ]
      }
    },
    {
      "type": "Feature",
      "id": "node/2429299903",
      "properties": {
        "timestamp": "2022-11-01T18:21:33Z",
        "version": 5,
        "changeset": 128358765,
        "amenity": "pharmacy",
        "brand": "Drogaria São Paulo",
        "brand:wikidata": "Q5308184",
        "brand:wikipedia": "en:Grupo DPSP",
        "healthcare": "pharmacy",
        "name": "Drogaria São Paulo",
        "wheelchair": "yes",
        "id": "node/2429299903"
      },
      "geometry": {
        "type": "Point",
        "coordinates": [
          -46.3005306,
          -23.9885741
        ]
      }
    },
    {
      "type": "Feature",
      "id": "node/2817039303",
      "properties": {
        "timestamp": "2021-01-25T00:29:47Z",
        "version": 3,
        "changeset": 98079550,
        "amenity": "pharmacy",
        "healthcare": "pharmacy",
        "name": "Poupa Farma",
        "id": "node/2817039303"
      },
      "geometry": {
        "type": "Point",
        "coordinates": [
          -46.3155542,
          -23.9751244
        ]
      }
    },
    {
      "type": "Feature",
      "id": "node/2903393694",
      "properties": {
        "timestamp": "2020-03-23T05:59:53Z",
        "version": 2,
        "changeset": 82505603,
        "addr:city": "Santos",
        "addr:street": "Avenida Marechal Floriano Peixoto",
        "amenity": "pharmacy",
        "brand": "Droga Raia",
        "brand:wikidata": "Q10357101",
        "brand:wikipedia": "pt:RaiaDrogasil",
        "healthcare": "pharmacy",
        "name": "Droga Raia",
        "source": "survey",
        "id": "node/2903393694"
      },
      "geometry": {
        "type": "Point",
        "coordinates": [
          -46.3336359,
          -23.9672494
        ]
      }
    },
    {
      "type": "Feature",
      "id": "node/2903463762",
      "properties": {
        "timestamp": "2024-03-30T22:50:10Z",
        "version": 4,
        "changeset": 149370990,
        "addr:city": "Santos",
        "addr:postcode": "11060-002",
        "addr:street": "Avenida Anna Costa",
        "amenity": "pharmacy",
        "brand": "Drogasil",
        "brand:wikidata": "Q5308185",
        "brand:wikipedia": "pt:Drogasil",
        "check_date": "2024-03-30",
        "healthcare": "pharmacy",
        "name": "Drogasil",
        "wheelchair": "yes",
        "id": "node/2903463762"
      },
      "geometry": {
        "type": "Point",
        "coordinates": [
          -46.3332118,
          -23.9686874
        ]
      }
    },
    {
      "type": "Feature",
      "id": "node/3101426998",
      "properties": {
        "timestamp": "2022-11-02T23:41:27Z",
        "version": 5,
        "changeset": 128414041,
        "addr:city": "Santos",
        "addr:housenumber": "101",
        "addr:street": "Avenida Dino Bueno",
        "addr:suburb": "Ponta da Praia",
        "amenity": "pharmacy",
        "healthcare": "pharmacy",
        "name": "Poupafarma",
        "wheelchair": "limited",
        "id": "node/3101426998"
      },
      "geometry": {
        "type": "Point",
        "coordinates": [
          -46.3010157,
          -23.9827714
        ]
      }
    },
    {
      "type": "Feature",
      "id": "node/3489267404",
      "properties": {
        "timestamp": "2022-10-15T17:54:34Z",
        "version": 2,
        "changeset": 127582464,
        "amenity": "pharmacy",
        "brand": "Drogasil",
        "brand:wikidata": "Q5308185",
        "healthcare": "pharmacy",
        "name": "Drogasil",
        "wheelchair": "yes",
        "id": "node/3489267404"
      },
      "geometry": {
        "type": "Point",
        "coordinates": [
          -46.3288787,
          -23.9340447
        ]
      }
    },
    {
      "type": "Feature",
      "id": "node/4758835393",
      "properties": {
        "timestamp": "2020-03-23T05:59:53Z",
        "version": 2,
        "changeset": 82505603,
        "addr:city": "Santos",
        "addr:housenumber": "1",
        "addr:postcode": "11045-301",
        "addr:street": "Avenida Doutor Epitácio Pessoa",
        "addr:suburb": "Boqueirão",
        "amenity": "pharmacy",
        "brand": "Drogasil",
        "brand:wikidata": "Q5308185",
        "brand:wikipedia": "pt:Drogasil",
        "healthcare": "pharmacy",
        "name": "Drogasil",
        "wheelchair": "yes",
        "id": "node/4758835393"
      },
      "geometry": {
        "type": "Point",
        "coordinates": [
          -46.3239082,
          -23.9705332
        ]
      }
    },
    {
      "type": "Feature",
      "id": "node/4758840477",
      "properties": {
        "timestamp": "2021-04-22T21:42:30Z",
        "version": 2,
        "changeset": 103438833,
        "addr:city": "Santos",
        "addr:housenumber": "63",
        "addr:postcode": "11060-301",
        "addr:street": "Avenida Marechal Floriano Peixoto",
        "addr:suburb": "Gonzaga",
        "amenity": "pharmacy",
        "brand": "Drogaria São Paulo",
        "brand:wikidata": "Q5308184",
        "brand:wikipedia": "en:Grupo DPSP",
        "healthcare": "pharmacy",
        "name": "Drogaria São Paulo",
        "phone": "+55 13 3284-5552",
        "id": "node/4758840477"
      },
      "geometry": {
        "type": "Point",
        "coordinates": [
          -46.3349243,
          -23.9673094
        ]
      }
    },
    {
      "type": "Feature",
      "id": "node/6192926576",
      "properties": {
        "timestamp": "2019-01-08T17:19:23Z",
        "version": 1,
        "changeset": 66135052,
        "amenity": "pharmacy",
        "brand": "Drogaria São Paulo",
        "brand:wikidata": "Q5308184",
        "brand:wikipedia": "en:Grupo DPSP",
        "dispensing": "yes",
        "drive_through": "no",
        "healthcare": "pharmacy",
        "name": "Drogaria São Paulo",
        "id": "node/6192926576"
      },
      "geometry": {
        "type": "Point",
        "coordinates": [
          -46.32368,
          -23.9650093
        ]
      }
    },
    {
      "type": "Feature",
      "id": "node/6831821396",
      "properties": {
        "timestamp": "2022-11-02T23:39:24Z",
        "version": 2,
        "changeset": 128414041,
        "amenity": "pharmacy",
        "dispensing": "yes",
        "healthcare": "pharmacy",
        "name": "Raia",
        "wheelchair": "yes",
        "id": "node/6831821396"
      },
      "geometry": {
        "type": "Point",
        "coordinates": [
          -46.3133713,
          -23.9758016
        ]
      }
    },
    {
      "type": "Feature",
      "id": "node/6848822924",
      "properties": {
        "timestamp": "2022-11-03T18:21:49Z",
        "version": 2,
        "changeset": 128438380,
        "amenity": "pharmacy",
        "dispensing": "yes",
        "healthcare": "pharmacy",
        "name": "Alkimista",
        "wheelchair": "limited",
        "id": "node/6848822924"
      },
      "geometry": {
        "type": "Point",
        "coordinates": [
          -46.3075529,
          -23.9823421
        ]
      }
    },
    {
      "type": "Feature",
      "id": "node/7066632273",
      "properties": {
        "timestamp": "2019-12-18T15:01:34Z",
        "version": 1,
        "changeset": 78588526,
        "entrance": "yes",
        "id": "node/7066632273"
      },
      "geometry": {
        "type": "Point",
        "coordinates": [
          -46.3385687,
          -23.9656636
        ]
      }
    },
    {
      "type": "Feature",
      "id": "node/7829860349",
      "properties": {
        "timestamp": "2020-08-20T14:38:22Z",
        "version": 1,
        "changeset": 89697836,
        "amenity": "pharmacy",
        "dispensing": "yes",
        "healthcare": "pharmacy",
        "id": "node/7829860349"
      },
      "geometry": {
        "type": "Point",
        "coordinates": [
          -46.3827026,
          -23.9330646
        ]
      }
    },
    {
      "type": "Feature",
      "id": "node/9883344122",
      "properties": {
        "timestamp": "2024-10-29T17:29:18Z",
        "version": 2,
        "changeset": 158509131,
        "addr:street": "Avenida Anna Costa",
        "amenity": "pharmacy",
        "brand": "Droga Raia",
        "brand:wikidata": "Q10357101",
        "healthcare": "pharmacy",
        "name": "Droga Raia",
        "id": "node/9883344122"
      },
      "geometry": {
        "type": "Point",
        "coordinates": [
          -46.3324832,
          -23.9674831
        ]
      }
    },
    {
      "type": "Feature",
      "id": "node/10903712354",
      "properties": {
        "timestamp": "2023-05-16T22:27:56Z",
        "version": 1,
        "changeset": 136187969,
        "amenity": "pharmacy",
        "brand": "Drogaria São Paulo",
        "brand:wikidata": "Q5308184",
        "healthcare": "pharmacy",
        "name": "Drogaria São Paulo",
        "id": "node/10903712354"
      },
      "geometry": {
        "type": "Point",
        "coordinates": [
          -46.3090132,
          -23.977818
        ]
      }
    }
  ]
}
