{
  "type": "FeatureCollection",
  "features": [
    {
      "type": "Feature",
      "id": "way/476445741",
      "properties": {
        "timestamp": "2017-05-28T20:34:38Z",
        "version": 2,
        "changeset": 49054478,
        "addr:city": "Santos",
        "addr:housenumber": "19",
        "addr:postcode": "11025-190",
        "addr:street": "Praça Visconde de Ouro Preto",
        "addr:suburb": "Estuário",
        "amenity": "social_facility",
        "building": "yes",
        "name": "Cras-ZOI - Centro de Referência de Assistência Social da Zona Orla e Intermediária",
        "phone": "+55 13 3203-2903",
        "social_facility": "assisted_living",
        "id": "way/476445741"
      },
      "geometry": {
        "type": "Polygon",
        "coordinates": [
          [
            [
              -46.3013322,
              -23.972003
            ],
            [
              -46.3014226,
              -23.9721262
            ],
            [
              -46.3013516,
              -23.9721697
            ],
            [
              -46.3012612,
              -23.9720465
            ],
            [
              -46.3013322,
              -23.972003
            ]
          ]
        ]
      }
    },
    {
      "type": "Feature",
      "id": "way/495068563",
      "properties": {
        "timestamp": "2023-10-17T07:59:21Z",
        "version": 3,
        "changeset": 142699558,
        "addr:city": "Santos",
        "addr:housenumber": "340",
        "addr:postcode": "11060-002",
        "addr:street": "Avenida Anna Costa",
        "addr:suburb": "Campo Grande",
        "amenity": "social_facility",
        "building": "yes",
        "email": "contato@forumdacidadania.org.br",
        "name": "Estação da Cidadania",
        "old_name": "Estação Ferroviária Sorocabana",
        "phone": "+55 13 3221-2034",
        "social_facility": "outreach",
        "website": "https://forumdacidadania.org.br/site/",
        "id": "way/495068563"
      },
      "geometry": {
        "type": "Polygon",
        "coordinates": [
          [
            [
              -46.3325043,
              -23.9587287
            ],
            [
              -46.3325074,
              -23.9587657
            ],
            [
              -46.332361,
              -23.9587759
            ],
            [
              -46.3323811,
              -23.959016
            ],
            [
              -46.3323196,
              -23.9590203
            ],
            [
              -46.3323136,
              -23.9589493
            ],
            [
              -46.3322178,
              -23.958956
            ],
            [
              -46.3322107,
              -23.958872
            ],
            [
              -46.3321809,
              -23.9588741
            ],
            [
              -46.3321753,
              -23.9588074
            ],
            [
              -46.3322085,
              -23.9588051
            ],
            [
              -46.3322043,
              -23.9587563
            ],
            [
              -46.332265,
              -23.958752
            ],
            [
              -46.332263,
              -23.9587289
            ],
            [
              -46.3323484,
              -23.9587229
            ],
            [
              -46.3323498,
              -23.9587396
            ],
            [
              -46.3325043,
              -23.9587287
            ]
          ]
        ]
      }
    },
    {
      "type": "Feature",
      "id": "node/6228418855",
      "properties": {
        "timestamp": "2019-10-07T04:29:31Z",
        "version": 2,
        "changeset": 75356490,
        "amenity": "social_facility",
        "name": "Casa Gran Tempo",
        "social_facility": "nursing_home",
        "social_facility:for": "senior",
        "id": "node/6228418855"
      },
      "geometry": {
        "type": "Point",
        "coordinates": [
          -46.302101,
          -23.9890277
        ]
      }
    },
    {
      "type": "Feature",
      "id": "node/6792780550",
      "properties": {
        "timestamp": "2024-11-23T01:23:55Z",
        "version": 3,
        "changeset": 159480437,
        "addr:city": "Santos",
        "addr:country": "BR",
        "addr:housenumber": "361",
        "addr:postcode": "11055-001",
        "addr:street": "Avenida Washington Luiz",
        "alt_name": "Stella Maris Seafarers",
        "amenity": "social_facility",
        "contact:phone": "+55/13/3224-2880",
        "name": "Missão aos Marinheiros",
        "name:de": "Seemannsmission Santos",
        "social_facility": "outreach",
        "social_facility:for": "seafarer",
        "id": "node/6792780550"
      },
      "geometry": {
        "type": "Point",
        "coordinates": [
          -46.3278168,
          -23.9604944
        ]
      }
    },
    {
      "type": "Feature",
      "id": "node/9208361817",
      "properties": {
        "timestamp": "2023-02-01T15:06:46Z",
        "version": 2,
        "changeset": 131967314,
        "addr:city": "Santos",
        "addr:housenumber": "452",
        "addr:street": "Avenida Conselheiro Nébias",
        "alt_name": "Centro de Referência Especializado de Assistência Social Zona Leste - Região central histórica",
        "amenity": "social_facility",
        "name": "CREAS Zona Leste - Região central histórica",
        "social_facility": "outreach",
        "social_facility:for": "underprivileged;abused;victim",
        "id": "node/9208361817"
      },
      "geometry": {
        "type": "Point",
        "coordinates": [
          -46.3225342,
          -23.9534902
        ]
      }
    }
  ]
}
