{
  "type": "FeatureCollection",
  "features": [
    {
      "type": "Feature",
      "id": "way/685097880",
      "properties": {
        "timestamp": "2019-04-21T16:48:42Z",
        "version": 1,
        "changeset": 69429207,
        "addr:city": "Camboriú",
        "addr:housenumber": "787",
        "addr:postcode": "88340-000",
        "addr:street": "Rua José Francisco Bernardes",
        "addr:suburb": "Areias",
        "amenity": "hospital",
        "healthcare": "hospital",
        "healthcare:speciality": "general",
        "name": "Hospital Cirúrgico Camboriú",
        "id": "way/685097880"
      },
      "geometry": {
        "type": "Polygon",
        "coordinates": [
          [
            [
              -48.6559576,
              -27.0295305
            ],
            [
              -48.6562098,
              -27.0300513
            ],
            [
              -48.6550189,
              -27.0302663
            ],
            [
              -48.6549411,
              -27.029767
            ],
            [
              -48.6559576,
              -27.0295305
            ]
          ]
        ]
      }
    }
  ]
}
