{
  "type": "FeatureCollection",
  "features": [
    {
      "type": "Feature",
      "id": "node/10959531105",
      "properties": {
        "timestamp": "2023-09-08T21:37:45Z",
        "version": 3,
        "changeset": 141003561,
        "addr:housenumber": "2185",
        "addr:postcode": "9578-000",
        "addr:street": "Rua Capitão Cruz",
        "amenity": "clinic",
        "check_date": "2023-06-06",
        "healthcare": "clinic",
        "internet_access": "wlan",
        "name": "Clínica Omedic",
        "opening_hours": "Mo-Fr 08:00-12:00,13:00-18:00",
        "phone": "+55 51 36322548",
        "wheelchair": "yes",
        "id": "node/10959531105"
      },
      "geometry": {
        "type": "Point",
        "coordinates": [
          -51.4607881,
          -29.6844031
        ]
      }
    },
    {
      "type": "Feature",
      "id": "node/11489384625",
      "properties": {
        "timestamp": "2024-01-05T00:03:46Z",
        "version": 1,
        "changeset": 145901426,
        "addr:city": "Montenegro",
        "addr:housenumber": "240",
        "addr:postcode": "95780-000",
        "addr:street": "Rua Tietê",
        "addr:suburb": "Senai",
        "amenity": "clinic",
        "healthcare": "clinic",
        "name": "Unidade de Saúde da Família 2 Esperança",
        "phone": "+55 51 3649 3529",
        "ref:CNES": "3168328",
        "short_name": "USF 2 Esperança",
        "source": "IEDE/RS;Prefeitura Montenegro",
        "id": "node/11489384625"
      },
      "geometry": {
        "type": "Point",
        "coordinates": [
          -51.4924249,
          -29.6902022
        ]
      }
    }
  ]
}
