{
  "type": "FeatureCollection",
  "features": [
    {
      "type": "Feature",
      "id": "node/687446736",
      "properties": {
        "timestamp": "2020-08-07T20:18:49Z",
        "version": 5,
        "changeset": 89108160,
        "addr:city": "Montenegro",
        "addr:country": "BR",
        "addr:housenumber": "1000",
        "addr:state": "RS",
        "addr:street": "Rua Buarque de Macedo",
        "amenity": "doctors",
        "healthcare": "doctor",
        "name": "Tour Life",
        "id": "node/687446736"
      },
      "geometry": {
        "type": "Point",
        "coordinates": [
          -51.4562204,
          -29.6768243
        ]
      }
    },
    {
      "type": "Feature",
      "id": "node/3072794604",
      "properties": {
        "timestamp": "2023-09-08T21:37:45Z",
        "version": 4,
        "changeset": 141003561,
        "addr:city": "Montenegro",
        "addr:housenumber": "1190",
        "addr:street": "Rua Osvaldo Aranha",
        "addr:suburb": "Centro",
        "amenity": "doctors",
        "healthcare": "doctor",
        "name": "Doutora Belkis Efrom",
        "opening_hours": "14:00+",
        "phone": "+55 51 3632-1757",
        "id": "node/3072794604"
      },
      "geometry": {
        "type": "Point",
        "coordinates": [
          -51.4626769,
          -29.6870704
        ]
      }
    },
    {
      "type": "Feature",
      "id": "node/12306007423",
      "properties": {
        "timestamp": "2024-11-02T00:02:56Z",
        "version": 1,
        "changeset": 158641354,
        "addr:city": "Montenegro",
        "addr:housenumber": "1042",
        "addr:postcode": "92510-285",
        "addr:street": "Rua Santos Dumont",
        "addr:suburb": "Centro",
        "amenity": "doctors",
        "healthcare": "doctor",
        "healthcare:speciality": "psychiatry",
        "healthcare:speciality:de": "psychotherapist",
        "name": "Clínica Médica e Psiquiátrica, Dra. Susana Wildt Rosa",
        "name:pt": "Clínica Médica e Psiquiátrica, Dra. Susana Wildt Rosa",
        "opening_hours": "Mo-Sa 10:00-18:00",
        "operator": "Dra. Susana Wildt Rosa",
        "phone": "+55 51 3632 2000",
        "wheelchair": "yes",
        "id": "node/12306007423"
      },
      "geometry": {
        "type": "Point",
        "coordinates": [
          -51.4631714,
          -29.6844155
        ]
      }
    }
  ]
}
