{
  "type": "FeatureCollection",
  "features": [
    {
      "type": "Feature",
      "id": "way/894095566",
      "properties": {
        "timestamp": "2022-09-07T03:22:48Z",
        "version": 3,
        "changeset": 125880697,
        "addr:city": "Balneário Rincão",
        "addr:housenumber": "264",
        "addr:postcode": "88828-000",
        "addr:street": "Avenida Leoberto Leal",
        "addr:suburb": "Centro",
        "building": "yes",
        "email": "camarabalneariorincao@gmail.com",
        "government": "legislative",
        "name": "Câmara de Vereadores de Balneário Rincão",
        "office": "government",
        "phone": "+55 48 99978-9540",
        "website": "https://www.camararincao.sc.gov.br/",
        "id": "way/894095566"
      },
      "geometry": {
        "type": "Polygon",
        "coordinates": [
          [
            [
              -49.2300534,
              -28.8257963
            ],
            [
              -49.2299774,
              -28.8259644
            ],
            [
              -49.2298716,
              -28.8259277
            ],
            [
              -49.2299476,
              -28.8257595
            ],
            [
              -49.2300534,
              -28.8257963
            ]
          ]
        ]
      }
    }
  ]
}
