{
  "type": "FeatureCollection",
  "features": [
    {
      "type": "Feature",
      "id": "node/10768858751",
      "properties": {
        "timestamp": "2023-04-05T00:11:10Z",
        "version": 2,
        "changeset": 134517114,
        "addr:housenumber": "321",
        "addr:street": "Rua das Flores",
        "addr:suburb": "Conjunto Itapira",
        "amenity": "social_facility",
        "name": "Centro de Atenção Psicossocial I",
        "id": "node/10768858751"
      },
      "geometry": {
        "type": "Point",
        "coordinates": [
          -49.0589601,
          -25.3742572
        ]
      }
    },
    {
      "type": "Feature",
      "id": "node/10785717410",
      "properties": {
        "timestamp": "2023-04-05T00:11:10Z",
        "version": 1,
        "changeset": 134517114,
        "addr:housenumber": "116",
        "addr:street": "Avenida Dom Pedro II",
        "addr:suburb": "Centro",
        "amenity": "social_facility",
        "name": "Centro de Referência da Assistência Social Sede",
        "id": "node/10785717410"
      },
      "geometry": {
        "type": "Point",
        "coordinates": [
          -49.0736193,
          -25.3691262
        ]
      }
    },
    {
      "type": "Feature",
      "id": "node/10785717411",
      "properties": {
        "timestamp": "2023-04-05T00:11:10Z",
        "version": 1,
        "changeset": 134517114,
        "amenity": "social_facility",
        "name": "Centro de Referência da Assistência Social Menino Deus",
        "id": "node/10785717411"
      },
      "geometry": {
        "type": "Point",
        "coordinates": [
          -49.1023667,
          -25.3691759
        ]
      }
    },
    {
      "type": "Feature",
      "id": "node/10785717416",
      "properties": {
        "timestamp": "2023-04-05T00:11:10Z",
        "version": 1,
        "changeset": 134517114,
        "addr:housenumber": "209",
        "addr:street": "Rua Pedro Cambio Cortiano",
        "addr:suburb": "Jardim Pinheiros",
        "amenity": "social_facility",
        "name": "Centro de Referência Especializado de Assistência Social Ida Berlez Vidolin",
        "id": "node/10785717416"
      },
      "geometry": {
        "type": "Point",
        "coordinates": [
          -49.0665846,
          -25.3669052
        ]
      }
    }
  ]
}
