{
  "type": "FeatureCollection",
  "features": [
    {
      "type": "Feature",
      "id": "way/605077199",
      "properties": {
        "timestamp": "2018-07-04T20:24:25Z",
        "version": 1,
        "changeset": 60418573,
        "amenity": "school",
        "id": "way/605077199"
      },
      "geometry": {
        "type": "Polygon",
        "coordinates": [
          [
            [
              -38.3989596,
              -6.4112611
            ],
            [
              -38.3990192,
              -6.4114737
            ],
            [
              -38.3986554,
              -6.4115743
            ],
            [
              -38.3985959,
              -6.4113617
            ],
            [
              -38.3989596,
              -6.4112611
            ]
          ]
        ]
      }
    },
    {
      "type": "Feature",
      "id": "way/617693171",
      "properties": {
        "timestamp": "2023-12-12T19:00:31Z",
        "version": 14,
        "changeset": 145050017,
        "addr:city": "Uiraúna",
        "addr:postcode": "58915000",
        "addr:street": "Rua Manoel Mariano",
        "addr:suburb": "Centro",
        "amenity": "school",
        "name": "Escola Estadual Dr. Jose Duarte Filho",
        "id": "way/617693171"
      },
      "geometry": {
        "type": "Polygon",
        "coordinates": [
          [
            [
              -38.4133385,
              -6.5250839
            ],
            [
              -38.4133007,
              -6.5249586
            ],
            [
              -38.4132591,
              -6.5249106
            ],
            [
              -38.4132013,
              -6.5249053
            ],
            [
              -38.4131425,
              -6.5244436
            ],
            [
              -38.4131171,
              -6.5243251
            ],
            [
              -38.4137633,
              -6.5242249
            ],
            [
              -38.4140536,
              -6.5248831
            ],
            [
              -38.4138209,
              -6.5249815
            ],
            [
              -38.4136972,
              -6.5250338
            ],
            [
              -38.4133385,
              -6.5250839
            ]
          ]
        ]
      }
    },
    {
      "type": "Feature",
      "id": "way/617695973",
      "properties": {
        "timestamp": "2018-08-19T20:20:25Z",
        "version": 7,
        "changeset": 61803319,
        "addr:city": "Uiraúna",
        "addr:postcode": "58915000",
        "addr:street": "Rua José Gomes de Galiza",
        "addr:suburb": "Retiro",
        "amenity": "school",
        "name": "Escola Municipal Lica Duarte",
        "id": "way/617695973"
      },
      "geometry": {
        "type": "Polygon",
        "coordinates": [
          [
            [
              -38.4050068,
              -6.5150347
            ],
            [
              -38.4048325,
              -6.5147762
            ],
            [
              -38.4050873,
              -6.5145844
            ],
            [
              -38.4052885,
              -6.5148828
            ],
            [
              -38.4050068,
              -6.5150347
            ]
          ]
        ]
      }
    },
    {
      "type": "Feature",
      "id": "way/618042134",
      "properties": {
        "timestamp": "2023-12-12T18:53:19Z",
        "version": 4,
        "changeset": 145049839,
        "addr:city": "Uirauna",
        "addr:housenumber": "34",
        "addr:postcode": "5891500",
        "addr:street": "Rua Brasiliano Vieira",
        "addr:suburb": "Alto Bela Vsita",
        "amenity": "school",
        "name": "Escola Ernani Satiro",
        "id": "way/618042134"
      },
      "geometry": {
        "type": "Polygon",
        "coordinates": [
          [
            [
              -38.4164978,
              -6.5113979
            ],
            [
              -38.4164093,
              -6.5118136
            ],
            [
              -38.4161545,
              -6.5117656
            ],
            [
              -38.4161759,
              -6.5114005
            ],
            [
              -38.4164978,
              -6.5113979
            ]
          ]
        ]
      }
    },
    {
      "type": "Feature",
      "id": "way/618059489",
      "properties": {
        "timestamp": "2018-08-19T17:27:35Z",
        "version": 1,
        "changeset": 61799475,
        "addr:city": "Uiraúna",
        "addr:housenumber": "88",
        "addr:postcode": "58915000",
        "addr:street": "Rua João Pessoa",
        "addr:suburb": "São José",
        "amenity": "school",
        "name": "Escola Jovelina Gomes",
        "id": "way/618059489"
      },
      "geometry": {
        "type": "Polygon",
        "coordinates": [
          [
            [
              -38.4081773,
              -6.5190127
            ],
            [
              -38.4074061,
              -6.5187142
            ],
            [
              -38.4076207,
              -6.5182825
            ],
            [
              -38.4083449,
              -6.5185543
            ],
            [
              -38.4081773,
              -6.5190127
            ]
          ]
        ]
      }
    },
    {
      "type": "Feature",
      "id": "way/618085905",
      "properties": {
        "timestamp": "2018-08-19T20:18:22Z",
        "version": 1,
        "changeset": 61803278,
        "addr:city": "Uiraúna",
        "addr:housenumber": "177",
        "addr:postcode": "58915000",
        "addr:street": "Rua Manoel Mariano",
        "addr:suburb": "Centro",
        "amenity": "school",
        "name": "Escola Municipal Benevenuto Mariano",
        "id": "way/618085905"
      },
      "geometry": {
        "type": "Polygon",
        "coordinates": [
          [
            [
              -38.4123776,
              -6.5245442
            ],
            [
              -38.4123172,
              -6.5240378
            ],
            [
              -38.4129462,
              -6.5239712
            ],
            [
              -38.4130226,
              -6.5244709
            ],
            [
              -38.4123776,
              -6.5245442
            ]
          ]
        ]
      }
    },
    {
      "type": "Feature",
      "id": "node/5841896066",
      "properties": {
        "timestamp": "2018-08-19T14:28:31Z",
        "version": 1,
        "changeset": 61795011,
        "addr:city": "Uiraúna",
        "addr:postcode": "58915000",
        "addr:street": "Rua José Gomes de Galiza",
        "addr:suburb": "Retiro",
        "amenity": "school",
        "name": "Escola Municipal Lica Duarte",
        "id": "node/5841896066"
      },
      "geometry": {
        "type": "Point",
        "coordinates": [
          -38.4050633,
          -6.5147935
        ]
      }
    },
    {
      "type": "Feature",
      "id": "node/5842185229",
      "properties": {
        "timestamp": "2018-08-19T17:27:35Z",
        "version": 1,
        "changeset": 61799475,
        "addr:city": "Uiraúna",
        "addr:housenumber": "88",
        "addr:postcode": "58915000",
        "addr:street": "Rua João Pessoa",
        "addr:suburb": "São José",
        "amenity": "school",
        "name": "Escola Jovelina Gomes",
        "id": "node/5842185229"
      },
      "geometry": {
        "type": "Point",
        "coordinates": [
          -38.4079318,
          -6.518469
        ]
      }
    },
    {
      "type": "Feature",
      "id": "node/5842245571",
      "properties": {
        "timestamp": "2018-08-19T18:05:24Z",
        "version": 1,
        "changeset": 61800247,
        "addr:city": "Uiraúna",
        "addr:postcode": "58915000",
        "addr:street": "Rua Manoel Mariano",
        "addr:suburb": "Centro",
        "amenity": "school",
        "name": "Escola Estadual Dr. Jose Duarte Filho",
        "id": "node/5842245571"
      },
      "geometry": {
        "type": "Point",
        "coordinates": [
          -38.4135506,
          -6.5245456
        ]
      }
    },
    {
      "type": "Feature",
      "id": "node/5842245572",
      "properties": {
        "timestamp": "2018-08-19T18:05:24Z",
        "version": 1,
        "changeset": 61800247,
        "amenity": "school",
        "name": "Escola Ernani Satiro",
        "id": "node/5842245572"
      },
      "geometry": {
        "type": "Point",
        "coordinates": [
          -38.416371,
          -6.5114536
        ]
      }
    },
    {
      "type": "Feature",
      "id": "node/5842432095",
      "properties": {
        "timestamp": "2018-08-19T20:18:22Z",
        "version": 1,
        "changeset": 61803278,
        "amenity": "school",
        "name": "Escola Municipal Benevenuto Mariano",
        "id": "node/5842432095"
      },
      "geometry": {
        "type": "Point",
        "coordinates": [
          -38.4128979,
          -6.5242031
        ]
      }
    }
  ]
}
