{
  "type": "FeatureCollection",
  "features": [
    {
      "type": "Feature",
      "id": "way/786039879",
      "properties": {
        "timestamp": "2020-03-30T23:26:13Z",
        "version": 1,
        "changeset": 82846222,
        "addr:city": "Estiva Gerbi",
        "addr:housenumber": "49",
        "addr:street": "Rua Daniel dos Santos",
        "addr:suburb": "Centro",
        "amenity": "clinic",
        "building": "yes",
        "healthcare": "clinic",
        "name": "Posto MÃ©dico Natal Diegues",
        "id": "way/786039879"
      },
      "geometry": {
        "type": "Polygon",
        "coordinates": [
          [
            [
              -46.952135,
              -22.2759266
            ],
            [
              -46.9521582,
              -22.2761685
            ],
            [
              -46.9515899,
              -22.2762151
            ],
            [
              -46.9515667,
              -22.2759733
            ],
            [
              -46.952135,
              -22.2759266
            ]
          ]
        ]
      }
    }
  ]
}
