{
  "type": "FeatureCollection",
  "features": [
    {
      "type": "Feature",
      "id": "way/251665162",
      "properties": {
        "timestamp": "2023-08-19T14:05:22Z",
        "version": 6,
        "changeset": 140096460,
        "addr:city": "Toledo",
        "addr:housenumber": "3215",
        "addr:postcode": "85903-590",
        "addr:street": "Avenida Ministro Cirne Lima",
        "addr:suburb": "Jardim Coopagro",
        "amenity": "clinic",
        "building": "yes",
        "healthcare": "clinic",
        "healthcare:speciality": "dentistry;paediatrics;vaccination",
        "name": "Unidade Básica de Saúde Jardim Coopagro",
        "opening_hours": "Mo-Fr 07:00-19:00",
        "operator": "Prefeitura do Município de Toledo",
        "operator:type": "government",
        "phone": "+55 45 3277 1577",
        "wheelchair": "yes",
        "id": "way/251665162"
      },
      "geometry": {
        "type": "Polygon",
        "coordinates": [
          [
            [
              -53.7622404,
              -24.7169272
            ],
            [
              -53.7626608,
              -24.7169218
            ],
            [
              -53.7626635,
              -24.7171655
            ],
            [
              -53.7625262,
              -24.7171716
            ],
            [
              -53.7625295,
              -24.7172955
            ],
            [
              -53.7623869,
              -24.7172981
            ],
            [
              -53.76214,
              -24.7173106
            ],
            [
              -53.7622404,
              -24.7169272
            ]
          ]
        ]
      }
    },
    {
      "type": "Feature",
      "id": "node/3250165431",
      "properties": {
        "timestamp": "2020-08-25T05:55:00Z",
        "version": 2,
        "changeset": 89891632,
        "amenity": "clinic",
        "healthcare": "clinic",
        "name": "Allabor Laboratórios",
        "id": "node/3250165431"
      },
      "geometry": {
        "type": "Point",
        "coordinates": [
          -53.7164696,
          -24.7199428
        ]
      }
    },
    {
      "type": "Feature",
      "id": "node/3250192804",
      "properties": {
        "timestamp": "2020-08-25T05:55:00Z",
        "version": 2,
        "changeset": 89891632,
        "amenity": "clinic",
        "healthcare": "clinic",
        "name": "INOPAR - Instituto de Odontologia e Pesquisa do Paraná",
        "id": "node/3250192804"
      },
      "geometry": {
        "type": "Point",
        "coordinates": [
          -53.7226705,
          -24.7204124
        ]
      }
    },
    {
      "type": "Feature",
      "id": "node/9463685823",
      "properties": {
        "timestamp": "2022-01-31T17:01:52Z",
        "version": 1,
        "changeset": 116831847,
        "addr:city": "Toledo",
        "addr:housenumber": "926",
        "addr:postcode": "85901190",
        "addr:street": "Rua Rui Barbosa",
        "addr:suburb": "Centro",
        "air_conditioning": "yes",
        "amenity": "clinic",
        "healthcare": "clinic",
        "healthcare:speciality": "psychology;mental_health",
        "name": "Clínica Apoiar",
        "opening_hours": "Mo-Sa 08:00-18:00",
        "operator": "Elói Welter Jr.",
        "operator:type": "business",
        "wheelchair": "yes",
        "id": "node/9463685823"
      },
      "geometry": {
        "type": "Point",
        "coordinates": [
          -53.7372473,
          -24.7357831
        ]
      }
    },
    {
      "type": "Feature",
      "id": "node/9463685824",
      "properties": {
        "timestamp": "2022-01-31T17:01:52Z",
        "version": 1,
        "changeset": 116831847,
        "addr:city": "Toledo",
        "addr:housenumber": "926",
        "addr:postcode": "85901190",
        "addr:street": "Rua Rui Barbosa",
        "addr:suburb": "Centro",
        "air_conditioning": "yes",
        "amenity": "clinic",
        "healthcare": "clinic",
        "healthcare:speciality": "psychology;mental_health",
        "name": "Psicólogo Elói Welter Jr.",
        "opening_hours": "Mo-Sa 09:00-20:00",
        "operator": "Elói Welter Jr.",
        "operator:type": "business",
        "wheelchair": "yes",
        "id": "node/9463685824"
      },
      "geometry": {
        "type": "Point",
        "coordinates": [
          -53.7371926,
          -24.7357838
        ]
      }
    }
  ]
}
