{
  "type": "FeatureCollection",
  "features": [
    {
      "type": "Feature",
      "id": "way/425819311",
      "properties": {
        "timestamp": "2022-07-29T16:51:49Z",
        "version": 3,
        "changeset": 124240163,
        "addr:housenumber": "8607",
        "addr:street": "Avenida Rui Barbosa",
        "building": "yes",
        "email": "contato@bikebrasilsjp.com.br",
        "name": "Bike Brasil",
        "phone": "+55 41 3556 1012",
        "shop": "bicycle",
        "website": "https://www.bikebrasilsjp.com.br/index.php?route=common/home",
        "id": "way/425819311"
      },
      "geometry": {
        "type": "Polygon",
        "coordinates": [
          [
            [
              -49.1980421,
              -25.5334825
            ],
            [
              -49.198091,
              -25.53354
            ],
            [
              -49.1978718,
              -25.5336302
            ],
            [
              -49.1978409,
              -25.5335636
            ],
            [
              -49.1980421,
              -25.5334825
            ]
          ]
        ]
      }
    },
    {
      "type": "Feature",
      "id": "node/3475266922",
      "properties": {
        "timestamp": "2021-06-20T05:09:34Z",
        "version": 4,
        "changeset": 106652453,
        "addr:city": "São José dos Pinhais",
        "addr:housename": "Estrela Bike Shop",
        "addr:housenumber": "1524",
        "addr:postcode": "83005-420",
        "addr:street": "Rua Visconde do Rio Branco",
        "addr:suburb": "Centro",
        "name": "Estrela Bikes",
        "shop": "bicycle",
        "source": "Bing",
        "website": "https://www.estrelabikes.com.br/",
        "id": "node/3475266922"
      },
      "geometry": {
        "type": "Point",
        "coordinates": [
          -49.2035078,
          -25.5357291
        ]
      }
    },
    {
      "type": "Feature",
      "id": "node/3475287761",
      "properties": {
        "timestamp": "2022-05-26T16:05:09Z",
        "version": 4,
        "changeset": 121534704,
        "addr:housenumber": "210",
        "addr:street": "Rua Professor Jorge Mansos do Nascimento Teixeira",
        "name": "Bike Shoping",
        "shop": "bicycle",
        "website": "https://www.bikeshoping.com.br/",
        "id": "node/3475287761"
      },
      "geometry": {
        "type": "Point",
        "coordinates": [
          -49.1931652,
          -25.5429919
        ]
      }
    },
    {
      "type": "Feature",
      "id": "node/3475288248",
      "properties": {
        "timestamp": "2016-01-05T12:10:33Z",
        "version": 2,
        "changeset": 36379203,
        "addr:city": "São José dos Pinhais",
        "addr:housenumber": "223",
        "addr:street": "Rua Teresina",
        "name": "Bicicletaria",
        "shop": "bicycle",
        "id": "node/3475288248"
      },
      "geometry": {
        "type": "Point",
        "coordinates": [
          -49.1686069,
          -25.5588979
        ]
      }
    },
    {
      "type": "Feature",
      "id": "node/3475291016",
      "properties": {
        "timestamp": "2016-01-05T12:10:33Z",
        "version": 2,
        "changeset": 36379203,
        "addr:city": "São José dos Pinhais - PR",
        "addr:housenumber": "420",
        "addr:street": "Rua São Salvador",
        "name": "Bicicletaria",
        "shop": "bicycle",
        "source": "GPS",
        "id": "node/3475291016"
      },
      "geometry": {
        "type": "Point",
        "coordinates": [
          -49.1712623,
          -25.5602481
        ]
      }
    },
    {
      "type": "Feature",
      "id": "node/6545867600",
      "properties": {
        "timestamp": "2019-06-13T19:53:21Z",
        "version": 1,
        "changeset": 71230596,
        "name": "Fiets",
        "shop": "bicycle",
        "id": "node/6545867600"
      },
      "geometry": {
        "type": "Point",
        "coordinates": [
          -49.195615,
          -25.5475219
        ]
      }
    },
    {
      "type": "Feature",
      "id": "node/6996134278",
      "properties": {
        "timestamp": "2019-11-21T12:13:24Z",
        "version": 1,
        "changeset": 77375089,
        "addr:housenumber": "9524",
        "addr:street": "Avenida Rui Barbosa",
        "name": "BikeBel - YoBike",
        "shop": "bicycle",
        "id": "node/6996134278"
      },
      "geometry": {
        "type": "Point",
        "coordinates": [
          -49.20347,
          -25.5412867
        ]
      }
    }
  ]
}
