{
  "type": "FeatureCollection",
  "features": [
    {
      "type": "Feature",
      "id": "way/428106869",
      "properties": {
        "timestamp": "2018-07-03T20:16:38Z",
        "version": 3,
        "changeset": 60390403,
        "addr:city": "Cotia",
        "addr:housenumber": "s/n",
        "addr:street": "Estrada Maria Quitéria",
        "addr:suburb": "Jardim Japão",
        "amenity": "clinic",
        "building": "yes",
        "healthcare": "clinic",
        "name": "Unidade Básica de Saúde Jardim Japão",
        "opening_hours": "Mo-Fr 08:00-17:00; PH off",
        "phone": "+55 11 4611 4433",
        "id": "way/428106869"
      },
      "geometry": {
        "type": "Polygon",
        "coordinates": [
          [
            [
              -47.0733815,
              -23.6632186
            ],
            [
              -47.0732903,
              -23.6632505
            ],
            [
              -47.0732072,
              -23.6630024
            ],
            [
              -47.0733144,
              -23.6629803
            ],
            [
              -47.0733815,
              -23.6632186
            ]
          ]
        ]
      }
    },
    {
      "type": "Feature",
      "id": "way/428365410",
      "properties": {
        "timestamp": "2023-09-06T10:06:23Z",
        "version": 3,
        "changeset": 140887654,
        "addr:city": "Cotia",
        "addr:housenumber": "105",
        "addr:postcode": "06727-100",
        "addr:street": "Rua Urupema",
        "addr:suburb": "Jardim dos Oliveiras",
        "amenity": "clinic",
        "building": "yes",
        "healthcare": "clinic",
        "healthcare:speciality": "general;paediatrics;vaccination;gynaecology",
        "name": "Unidade Básica de Saúde Benedito Florêncio da  Costa",
        "opening_hours": "Mo-Fr 08:00-17:00; Sa,Su,PH off",
        "operator:ref:vatin": "BR46523049000120",
        "phone": "+55 11 4242 8342",
        "ref:CNES": "6911854",
        "short_name": "UBS Jardim dos Oliveiras",
        "source": "CNES",
        "id": "way/428365410"
      },
      "geometry": {
        "type": "Polygon",
        "coordinates": [
          [
            [
              -47.0216464,
              -23.6688397
            ],
            [
              -47.0216008,
              -23.6690326
            ],
            [
              -47.021511,
              -23.6690252
            ],
            [
              -47.0215553,
              -23.6688262
            ],
            [
              -47.0216464,
              -23.6688397
            ]
          ]
        ]
      }
    },
    {
      "type": "Feature",
      "id": "way/430123889",
      "properties": {
        "timestamp": "2018-06-20T18:30:53Z",
        "version": 2,
        "changeset": 60019028,
        "addr:city": "Cotia",
        "addr:housenumber": "1927",
        "addr:street": "Estrada dos Fischer's",
        "addr:suburb": "Jardim Sandra",
        "amenity": "clinic",
        "building": "yes",
        "healthcare": "clinic",
        "healthcare:speciality": "general",
        "name": "UBS Jardim Sandra",
        "phone": "+55 11 4243 1553",
        "id": "way/430123889"
      },
      "geometry": {
        "type": "Polygon",
        "coordinates": [
          [
            [
              -46.952557,
              -23.6363173
            ],
            [
              -46.9524283,
              -23.6363002
            ],
            [
              -46.9525007,
              -23.6361159
            ],
            [
              -46.9525865,
              -23.6361282
            ],
            [
              -46.952557,
              -23.6363173
            ]
          ]
        ]
      }
    },
    {
      "type": "Feature",
      "id": "way/1036318733",
      "properties": {
        "timestamp": "2023-09-06T10:06:23Z",
        "version": 2,
        "changeset": 140887654,
        "addr:housenumber": "191",
        "addr:postcode": "06717-235",
        "addr:street": "Rua Topázio",
        "addr:suburb": "Jardim Normura",
        "amenity": "clinic",
        "building": "yes",
        "healthcare": "clinic",
        "name": "Cotimed Medicina e Segurança do Trabalho",
        "phone": "+55 11 4616 1155",
        "ref:CNES": "9788042",
        "ref:vatin": "BR09182881000183",
        "website": "https://www.cotimed.com.br/",
        "id": "way/1036318733"
      },
      "geometry": {
        "type": "Polygon",
        "coordinates": [
          [
            [
              -46.9156858,
              -23.6072579
            ],
            [
              -46.9156214,
              -23.6073341
            ],
            [
              -46.9155544,
              -23.6073021
            ],
            [
              -46.9156348,
              -23.6072284
            ],
            [
              -46.9156858,
              -23.6072579
            ]
          ]
        ]
      }
    },
    {
      "type": "Feature",
      "id": "way/1036322469",
      "properties": {
        "timestamp": "2022-03-01T16:22:24Z",
        "version": 1,
        "changeset": 117985997,
        "addr:street": "Rua Topázio",
        "addr:suburb": "Jardim Normura",
        "amenity": "clinic",
        "building": "yes",
        "healthcare": "clinic",
        "name": "Clínica da Mulher",
        "id": "way/1036322469"
      },
      "geometry": {
        "type": "Polygon",
        "coordinates": [
          [
            [
              -46.9158912,
              -23.6080692
            ],
            [
              -46.9157276,
              -23.6081429
            ],
            [
              -46.9156284,
              -23.6079487
            ],
            [
              -46.9158,
              -23.6078799
            ],
            [
              -46.915851,
              -23.6079733
            ],
            [
              -46.9158912,
              -23.6080692
            ]
          ]
        ]
      }
    },
    {
      "type": "Feature",
      "id": "way/1036360177",
      "properties": {
        "timestamp": "2023-09-06T10:06:23Z",
        "version": 3,
        "changeset": 140887654,
        "addr:housenumber": "358",
        "addr:postcode": "06704-220",
        "addr:street": "Rua Vicente Strifezzi",
        "addr:suburb": "Mirizola",
        "amenity": "clinic",
        "building": "yes",
        "healthcare": "clinic",
        "healthcare:speciality": "general;paediatrics;gynaecology;vaccination",
        "name": "Unidade Básica de Saúde Miguel Mirizola",
        "opening_hours": "Mo-Fr 08:00-17:00; Sa,Su,PH off",
        "operator:ref:vatin": "BR46523049000120",
        "phone": "+55 11 4703 5292",
        "ref": "CNES-2746441",
        "ref:CNES": "2746441",
        "short_name": "UBS Miguel Mirizola",
        "source": "CNES",
        "id": "way/1036360177"
      },
      "geometry": {
        "type": "Polygon",
        "coordinates": [
          [
            [
              -46.9207649,
              -23.5797944
            ],
            [
              -46.9207195,
              -23.5799387
            ],
            [
              -46.9206793,
              -23.5799313
            ],
            [
              -46.9206605,
              -23.5799608
            ],
            [
              -46.9205988,
              -23.5799535
            ],
            [
              -46.9206095,
              -23.579919
            ],
            [
              -46.9204915,
              -23.5798822
            ],
            [
              -46.9205344,
              -23.5797888
            ],
            [
              -46.9205827,
              -23.5798133
            ],
            [
              -46.9205908,
              -23.5797617
            ],
            [
              -46.9206283,
              -23.5797421
            ],
            [
              -46.9207649,
              -23.5797944
            ]
          ]
        ]
      }
    },
    {
      "type": "Feature",
      "id": "way/1036616015",
      "properties": {
        "timestamp": "2022-03-02T17:45:58Z",
        "version": 2,
        "changeset": 118028300,
        "addr:postcode": "06722-555",
        "addr:street": "Estrada Municipal da Cachoeira",
        "addr:suburb": "Cachoeira",
        "amenity": "clinic",
        "building": "yes",
        "healthcare": "clinic",
        "healthcare:speciality": "general;vaccination;paediatrics;gynaecology",
        "name": "Unidade Básica de Saúde Cachoeira",
        "opening_hours": "Mo-Fr 08:00-17:00; Sa ,Su,PH Off",
        "ref": "CNES-2746506",
        "short_name": "UBS Cachoeira",
        "source": "CNES",
        "id": "way/1036616015"
      },
      "geometry": {
        "type": "Polygon",
        "coordinates": [
          [
            [
              -47.0481167,
              -23.7339947
            ],
            [
              -47.0479894,
              -23.7340252
            ],
            [
              -47.0479652,
              -23.7339337
            ],
            [
              -47.0481032,
              -23.7339016
            ],
            [
              -47.0481122,
              -23.733932
            ],
            [
              -47.0481167,
              -23.7339947
            ]
          ]
        ]
      }
    },
    {
      "type": "Feature",
      "id": "way/1037151396",
      "properties": {
        "timestamp": "2022-03-04T15:00:45Z",
        "version": 3,
        "changeset": 118096709,
        "addr:housenumber": "12",
        "addr:postcode": "06715-770",
        "addr:street": "Rua Pedro Rodrigues",
        "addr:suburb": "Rio Cotia",
        "amenity": "clinic",
        "building": "yes",
        "healthcare": "clinic",
        "healthcare:speciality": "general;paediatrics;vaccination;gynaecology",
        "name": "Unidade Básica de Saúde Rio Cotia",
        "opening_hours": "Mo-Fr 08:00-17:00; Sa,Su,PH off",
        "operator": "Secretaria de Saúde",
        "operator:type": "government",
        "phone": "+55 11 4703 4218",
        "ref": "CNES-2746816",
        "short_name": "UBS Rio Cotia",
        "source": "CNES",
        "id": "way/1037151396"
      },
      "geometry": {
        "type": "Polygon",
        "coordinates": [
          [
            [
              -46.8831236,
              -23.6042888
            ],
            [
              -46.8831276,
              -23.6043642
            ],
            [
              -46.8829097,
              -23.604374
            ],
            [
              -46.8829056,
              -23.6042985
            ],
            [
              -46.8831236,
              -23.6042888
            ]
          ]
        ]
      }
    },
    {
      "type": "Feature",
      "id": "way/1299088926",
      "properties": {
        "timestamp": "2024-07-18T10:30:15Z",
        "version": 2,
        "changeset": 154094327,
        "addr:street": "Rua Santo Antônio",
        "amenity": "clinic",
        "building": "yes",
        "healthcare": "clinic",
        "healthcare:speciality": "vaccination",
        "name": "UBS - ASSA",
        "operator": "Ministério da Saúde",
        "operator:wikidata": "Q6867090",
        "wheelchair": "yes",
        "id": "way/1299088926"
      },
      "geometry": {
        "type": "Polygon",
        "coordinates": [
          [
            [
              -46.8405229,
              -23.5945708
            ],
            [
              -46.8404653,
              -23.5946871
            ],
            [
              -46.8402881,
              -23.5946134
            ],
            [
              -46.8403457,
              -23.5944971
            ],
            [
              -46.8405229,
              -23.5945708
            ]
          ]
        ]
      }
    },
    {
      "type": "Feature",
      "id": "node/2684571405",
      "properties": {
        "timestamp": "2019-03-06T03:02:19Z",
        "version": 3,
        "changeset": 67828242,
        "amenity": "clinic",
        "name": "Delboni",
        "opening_hours": "Mo-Fr 06:00-19:00; Sa 06:00-13:00; Su off",
        "website": "https://www.delboniauriemo.com.br/unidades/visualizar/granja-viana",
        "id": "node/2684571405"
      },
      "geometry": {
        "type": "Point",
        "coordinates": [
          -46.8366708,
          -23.5923241
        ]
      }
    },
    {
      "type": "Feature",
      "id": "node/9556958105",
      "properties": {
        "timestamp": "2023-06-13T23:07:02Z",
        "version": 3,
        "changeset": 137305313,
        "addr:housenumber": "350",
        "addr:postcode": "06703-600",
        "addr:street": "Avenida Vasco Massafeli",
        "addr:suburb": "Portão",
        "amenity": "clinic",
        "healthcare": "clinic",
        "healthcare:speciality": "general;gynaecology;paediatrics;vaccination",
        "name": "Unidade Básica de Saúde Portão",
        "opening_hours": "off",
        "operator": "Secretaria da Saúde",
        "operator:ref:vatin": "BR46523049000120",
        "operator:type": "government",
        "ref": "CNES-6804845",
        "ref:CNES": "6804845",
        "short_name": "UBS Portão",
        "source": "CNES",
        "id": "node/9556958105"
      },
      "geometry": {
        "type": "Point",
        "coordinates": [
          -46.9043962,
          -23.5968843
        ]
      }
    }
  ]
}
