{
  "type": "FeatureCollection",
  "features": [
    {
      "type": "Feature",
      "id": "way/425808134",
      "properties": {
        "timestamp": "2024-06-28T01:09:05Z",
        "version": 3,
        "changeset": 153270982,
        "addr:city": "Cotia",
        "addr:country": "BR",
        "addr:housenumber": "700",
        "addr:postcode": "06702-155",
        "addr:street": "Rua Nelson Ranieri",
        "addr:suburb": "Lajeado",
        "amenity": "college",
        "contact:email": "renataboaventura.fatec@gmail.com",
        "email": "fateccotiasecretaria@gmail.com",
        "name": "Faculdade de Tecnologia - Cotia",
        "operator": "Centro Paula Souza",
        "phone": "+55 11 4616 3284",
        "website": "https://fateccotia.edu.br/",
        "id": "way/425808134"
      },
      "geometry": {
        "type": "Polygon",
        "coordinates": [
          [
            [
              -46.9248397,
              -23.5979266
            ],
            [
              -46.9248874,
              -23.5980933
            ],
            [
              -46.924799,
              -23.5981146
            ],
            [
              -46.9248068,
              -23.5981387
            ],
            [
              -46.9247704,
              -23.5982269
            ],
            [
              -46.9243533,
              -23.5982604
            ],
            [
              -46.9242997,
              -23.5980958
            ],
            [
              -46.9246879,
              -23.5979895
            ],
            [
              -46.924683,
              -23.597969
            ],
            [
              -46.9248397,
              -23.5979266
            ]
          ]
        ]
      }
    },
    {
      "type": "Feature",
      "id": "way/717323523",
      "properties": {
        "timestamp": "2022-03-19T01:21:46Z",
        "version": 3,
        "changeset": 118652231,
        "addr:city": "Cotia",
        "addr:housenumber": "555",
        "addr:postcode": "06717-235",
        "addr:street": "Rua Topázio",
        "addr:suburb": "Jardim Nomura",
        "amenity": "college",
        "email": "e222.secretaria@etec.sp.gov.br",
        "name": "Escola Tecnica Estadual de Cotia",
        "operator": "Centro Paula Souza",
        "operator:type": "government",
        "phone": "+55 11 4614 3093",
        "ref": "INEP-35438261",
        "short_name": "Etec de Cotia",
        "source": "CADMEC 2017;INEP",
        "website": "https://www.etecdecotia.com.br/",
        "id": "way/717323523"
      },
      "geometry": {
        "type": "Polygon",
        "coordinates": [
          [
            [
              -46.912883,
              -23.6052988
            ],
            [
              -46.9131059,
              -23.6050263
            ],
            [
              -46.9132475,
              -23.6051236
            ],
            [
              -46.9130245,
              -23.6054025
            ],
            [
              -46.912883,
              -23.6052988
            ]
          ]
        ]
      }
    },
    {
      "type": "Feature",
      "id": "way/1037442806",
      "properties": {
        "timestamp": "2024-06-18T19:25:43Z",
        "version": 2,
        "changeset": 152863382,
        "addr:city": "Cotia",
        "addr:housenumber": "955",
        "addr:street": "Rua Direita",
        "addr:suburb": "Vila Santo Antônio",
        "amenity": "college",
        "building": "yes",
        "name": "SENAI - RIcardo Lerner",
        "wheelchair": "yes",
        "id": "way/1037442806"
      },
      "geometry": {
        "type": "Polygon",
        "coordinates": [
          [
            [
              -46.8470596,
              -23.5906444
            ],
            [
              -46.8470542,
              -23.5907243
            ],
            [
              -46.8470964,
              -23.5907148
            ],
            [
              -46.8471092,
              -23.5909019
            ],
            [
              -46.8470696,
              -23.5909185
            ],
            [
              -46.8470763,
              -23.5909784
            ],
            [
              -46.8462821,
              -23.5910412
            ],
            [
              -46.8462753,
              -23.5909869
            ],
            [
              -46.8462263,
              -23.5909867
            ],
            [
              -46.8462554,
              -23.5914906
            ],
            [
              -46.84626,
              -23.5915895
            ],
            [
              -46.8462217,
              -23.5916048
            ],
            [
              -46.8462325,
              -23.5916668
            ],
            [
              -46.8462116,
              -23.5916767
            ],
            [
              -46.8462148,
              -23.5918518
            ],
            [
              -46.8460827,
              -23.5918529
            ],
            [
              -46.8460525,
              -23.591505
            ],
            [
              -46.8460135,
              -23.5909959
            ],
            [
              -46.8460081,
              -23.5908066
            ],
            [
              -46.8462442,
              -23.5907894
            ],
            [
              -46.8462549,
              -23.5907058
            ],
            [
              -46.8470596,
              -23.5906444
            ]
          ]
        ]
      }
    },
    {
      "type": "Feature",
      "id": "node/5046608387",
      "properties": {
        "timestamp": "2018-10-01T01:22:43Z",
        "version": 3,
        "changeset": 63078950,
        "addr": "BR",
        "addr:city": "Cotia",
        "addr:housenumber": "359",
        "addr:street": "Rua José Felix de Oliveira",
        "addr:suburb": "Granja Viana",
        "amenity": "college",
        "contact:mobile": "+55 11 96941 4151",
        "email": "atendimento@derosegranjaviana.com.br",
        "name": "DeRose Method Granja Viana",
        "name:pt": "Método DeRose Granja Viana",
        "network": "DeRose Method",
        "phone": "+55 11 4551 3239",
        "training": "derose_method",
        "website": "https://www.derosegranjaviana.com.br",
        "id": "node/5046608387"
      },
      "geometry": {
        "type": "Point",
        "coordinates": [
          -46.8397264,
          -23.5909678
        ]
      }
    }
  ]
}
