{
  "type": "FeatureCollection",
  "features": [
    {
      "type": "Feature",
      "id": "way/481652739",
      "properties": {
        "timestamp": "2020-04-08T01:27:35Z",
        "version": 2,
        "changeset": 83221879,
        "addr:city": "Cotia",
        "addr:housenumber": "485",
        "addr:postcode": "06709-048",
        "addr:street": "Rua Ushima Kira",
        "addr:suburb": "Granja Viana",
        "amenity": "pharmacy",
        "building": "yes",
        "dispensing": "yes",
        "healthcare": "pharmacy",
        "name": "Droga Onofre",
        "phone": "+55 11 4777 9040",
        "id": "way/481652739"
      },
      "geometry": {
        "type": "Polygon",
        "coordinates": [
          [
            [
              -46.8355877,
              -23.5921127
            ],
            [
              -46.8355233,
              -23.5922135
            ],
            [
              -46.8353999,
              -23.5921594
            ],
            [
              -46.835408,
              -23.5921447
            ],
            [
              -46.8353624,
              -23.5921176
            ],
            [
              -46.835408,
              -23.5920267
            ],
            [
              -46.8354683,
              -23.5920525
            ],
            [
              -46.8354589,
              -23.5920709
            ],
            [
              -46.8355877,
              -23.5921127
            ]
          ]
        ]
      }
    },
    {
      "type": "Feature",
      "id": "way/724338663",
      "properties": {
        "timestamp": "2019-09-13T13:53:32Z",
        "version": 1,
        "changeset": 74439712,
        "amenity": "pharmacy",
        "building": "yes",
        "dispensing": "yes",
        "healthcare": "pharmacy",
        "id": "way/724338663"
      },
      "geometry": {
        "type": "Polygon",
        "coordinates": [
          [
            [
              -46.9190414,
              -23.6030378
            ],
            [
              -46.9190301,
              -23.6031585
            ],
            [
              -46.9189467,
              -23.6031519
            ],
            [
              -46.9189581,
              -23.6030312
            ],
            [
              -46.9190414,
              -23.6030378
            ]
          ]
        ]
      }
    },
    {
      "type": "Feature",
      "id": "way/1299028159",
      "properties": {
        "timestamp": "2024-07-04T11:56:45Z",
        "version": 1,
        "changeset": 153543220,
        "addr:city": "Cotia",
        "addr:housenumber": "485",
        "addr:postcode": "06711500",
        "addr:street": "Rua dos Manacás",
        "addr:suburb": "Jardim da Glória",
        "amenity": "pharmacy",
        "building": "yes",
        "dispensing": "yes",
        "healthcare": "pharmacy",
        "name": "Drogaria Viana",
        "id": "way/1299028159"
      },
      "geometry": {
        "type": "Polygon",
        "coordinates": [
          [
            [
              -46.8422269,
              -23.5981429
            ],
            [
              -46.842143,
              -23.5982633
            ],
            [
              -46.842064,
              -23.5982171
            ],
            [
              -46.8421478,
              -23.5980967
            ],
            [
              -46.8422269,
              -23.5981429
            ]
          ]
        ]
      }
    },
    {
      "type": "Feature",
      "id": "way/1301611351",
      "properties": {
        "timestamp": "2024-07-26T12:46:01Z",
        "version": 3,
        "changeset": 154441119,
        "addr:street": "Avenida João Paulo Ablas",
        "amenity": "pharmacy",
        "building": "yes",
        "healthcare": "pharmacy",
        "name": "Conde",
        "id": "way/1301611351"
      },
      "geometry": {
        "type": "Polygon",
        "coordinates": [
          [
            [
              -46.8416219,
              -23.5997017
            ],
            [
              -46.8414308,
              -23.5997733
            ],
            [
              -46.8414036,
              -23.5997123
            ],
            [
              -46.8415947,
              -23.5996408
            ],
            [
              -46.8416219,
              -23.5997017
            ]
          ]
        ]
      }
    },
    {
      "type": "Feature",
      "id": "node/2684571406",
      "properties": {
        "timestamp": "2020-04-08T01:27:35Z",
        "version": 4,
        "changeset": 83221879,
        "addr:city": "Cotia",
        "addr:postcode": "06709-015",
        "addr:street": "Rua Ushima Kira",
        "amenity": "pharmacy",
        "brand": "Droga Raia",
        "brand:wikidata": "Q10357101",
        "brand:wikipedia": "pt:RaiaDrogasil",
        "healthcare": "pharmacy",
        "name": "Droga Raia",
        "opening_hours": "Mo-Sa 08:00-22:00",
        "website": "https://www.drogaraia.com.br/",
        "id": "node/2684571406"
      },
      "geometry": {
        "type": "Point",
        "coordinates": [
          -46.8367198,
          -23.5925028
        ]
      }
    },
    {
      "type": "Feature",
      "id": "node/7377356850",
      "properties": {
        "timestamp": "2024-07-18T10:30:15Z",
        "version": 2,
        "changeset": 154094327,
        "addr:street": "Rua Ushima Kira",
        "amenity": "pharmacy",
        "brand": "Drogasil",
        "brand:wikidata": "Q5308185",
        "brand:wikipedia": "pt:Drogasil",
        "dispensing": "yes",
        "healthcare": "pharmacy",
        "name": "Drogasil",
        "wheelchair": "yes",
        "id": "node/7377356850"
      },
      "geometry": {
        "type": "Point",
        "coordinates": [
          -46.837949,
          -23.5932411
        ]
      }
    },
    {
      "type": "Feature",
      "id": "node/9552361042",
      "properties": {
        "timestamp": "2022-03-03T17:17:46Z",
        "version": 1,
        "changeset": 118063906,
        "addr:housenumber": "820",
        "addr:postcode": "06705-490",
        "addr:street": "Avenida Fernando Nobre",
        "addr:suburb": "Parque Rincão",
        "amenity": "pharmacy",
        "dispensing": "yes",
        "drive_through": "no",
        "healthcare": "pharmacy",
        "name": "Drogaria Gala Pharma",
        "phone": "+55 11 4612 1815",
        "id": "node/9552361042"
      },
      "geometry": {
        "type": "Point",
        "coordinates": [
          -46.8808467,
          -23.5892274
        ]
      }
    },
    {
      "type": "Feature",
      "id": "node/11896266449",
      "properties": {
        "timestamp": "2024-05-11T03:56:17Z",
        "version": 1,
        "changeset": 151170058,
        "amenity": "pharmacy",
        "healthcare": "pharmacy",
        "id": "node/11896266449"
      },
      "geometry": {
        "type": "Point",
        "coordinates": [
          -46.9513851,
          -23.6356646
        ]
      }
    },
    {
      "type": "Feature",
      "id": "node/12408372203",
      "properties": {
        "timestamp": "2024-12-09T23:53:43Z",
        "version": 1,
        "changeset": 160110913,
        "amenity": "pharmacy",
        "brand": "Droga Raia",
        "brand:wikidata": "Q10357101",
        "healthcare": "pharmacy",
        "name": "Droga Raia",
        "id": "node/12408372203"
      },
      "geometry": {
        "type": "Point",
        "coordinates": [
          -46.9708756,
          -23.6159639
        ]
      }
    }
  ]
}
