{
  "type": "FeatureCollection",
  "features": [
    {
      "type": "Feature",
      "id": "way/236112414",
      "properties": {
        "timestamp": "2022-03-01T15:20:48Z",
        "version": 7,
        "changeset": 117983891,
        "addr:city": "Cotia",
        "addr:country": "BR",
        "addr:postcode": "06717-100",
        "addr:street": "Avenida Professor Manoel José Pedroso",
        "addr:suburb": "Parque Bahia",
        "amenity": "school",
        "contact:phone": "+55 11 4703 2328",
        "email": "e010561a@educacao.sp.gov.br",
        "name": "Escola Estadual Zacarias Antônio da Silva",
        "operator": "Secretaria da Educação do Estado de São Paulo",
        "operator:type": "government",
        "phone": "+55 11 4614 0495",
        "ref": "INEP-35010561",
        "religion": "none",
        "id": "way/236112414"
      },
      "geometry": {
        "type": "Polygon",
        "coordinates": [
          [
            [
              -46.9199622,
              -23.6068135
            ],
            [
              -46.9204786,
              -23.60817
            ],
            [
              -46.9199869,
              -23.608424
            ],
            [
              -46.919534,
              -23.6073612
            ],
            [
              -46.9195032,
              -23.6071523
            ],
            [
              -46.9194292,
              -23.6066921
            ],
            [
              -46.9195716,
              -23.6066834
            ],
            [
              -46.9197169,
              -23.6066967
            ],
            [
              -46.9198411,
              -23.6067441
            ],
            [
              -46.9199622,
              -23.6068135
            ]
          ]
        ]
      }
    },
    {
      "type": "Feature",
      "id": "way/236112546",
      "properties": {
        "timestamp": "2022-03-06T01:32:08Z",
        "version": 7,
        "changeset": 118145254,
        "addr:city": "Cotia",
        "addr:housenumber": "1936",
        "addr:postcode": "06717-100",
        "addr:street": "Avenida Professor Manoel José Pedroso",
        "addr:suburb": "Parque Bahia",
        "amenity": "school",
        "contact:phone": "+55 11 470 34175",
        "email": "e010558a@educacao.sp.gov.br",
        "name": "Escola Estadual Idomineu Antunes Caldeira",
        "operator": "Secretaria Estadual de Educação do Estado de São Paulo",
        "operator:type": "government",
        "phone": "+55 11 4614 0066",
        "ref": "INEP-35010558",
        "religion": "none",
        "id": "way/236112546"
      },
      "geometry": {
        "type": "Polygon",
        "coordinates": [
          [
            [
              -46.9109191,
              -23.6045203
            ],
            [
              -46.9111308,
              -23.605358
            ],
            [
              -46.9107913,
              -23.6053974
            ],
            [
              -46.9106401,
              -23.6049073
            ],
            [
              -46.9105413,
              -23.6045474
            ],
            [
              -46.9109191,
              -23.6045203
            ]
          ]
        ]
      }
    },
    {
      "type": "Feature",
      "id": "way/236112610",
      "properties": {
        "timestamp": "2020-03-19T01:36:51Z",
        "version": 6,
        "changeset": 82368100,
        "addr:city": "Cotia",
        "addr:housenumber": "1894",
        "addr:postcode": "06717-100",
        "addr:street": "Avenida Professor Manoel José Pedroso",
        "addr:suburb": "Parque Bahia",
        "amenity": "school",
        "name": "Colégio Desafio",
        "operator": "Fundação Instituto de Pesquisa Econômica, Social e Cultural – FINPEC",
        "operator:type": "private",
        "phone": "+55 11 4616 7622",
        "website": "https://www.cdesafio.com.br/",
        "id": "way/236112610"
      },
      "geometry": {
        "type": "Polygon",
        "coordinates": [
          [
            [
              -46.9114524,
              -23.6044687
            ],
            [
              -46.9115777,
              -23.6053423
            ],
            [
              -46.9111652,
              -23.6053502
            ],
            [
              -46.911058,
              -23.6045199
            ],
            [
              -46.9114524,
              -23.6044687
            ]
          ]
        ]
      }
    },
    {
      "type": "Feature",
      "id": "way/422309860",
      "properties": {
        "timestamp": "2022-03-05T23:30:44Z",
        "version": 7,
        "changeset": 118143590,
        "addr:city": "Cotia",
        "addr:housenumber": "2011",
        "addr:postcode": "06703-000",
        "addr:street": "Avenida Professor José Barreto",
        "addr:suburb": "Jardim Dinorah",
        "amenity": "school",
        "contact:phone": "+55 11 4614 0268",
        "email": "e035488a@educacao.sp.gov.br",
        "name": "Escola Estadual Professor Pedro Casemiro Leite",
        "operator": "Secretaria da Educação do Estado de São Paulo",
        "operator:type": "government",
        "phone": "+55 11 4616 7573",
        "ref": "INEP-35035488",
        "religion": "none",
        "source": "CADMEc 2017;INEP",
        "id": "way/422309860"
      },
      "geometry": {
        "type": "Polygon",
        "coordinates": [
          [
            [
              -46.9089716,
              -23.6006441
            ],
            [
              -46.9090275,
              -23.6007167
            ],
            [
              -46.9088295,
              -23.6014157
            ],
            [
              -46.9081354,
              -23.6012377
            ],
            [
              -46.9084721,
              -23.6004659
            ],
            [
              -46.9089716,
              -23.6006441
            ]
          ]
        ]
      }
    },
    {
      "type": "Feature",
      "id": "way/427532332",
      "properties": {
        "timestamp": "2017-09-01T23:37:24Z",
        "version": 2,
        "changeset": 51658002,
        "addr:street": "Rua São Geremias",
        "amenity": "school",
        "id": "way/427532332"
      },
      "geometry": {
        "type": "Polygon",
        "coordinates": [
          [
            [
              -46.9393803,
              -23.6320624
            ],
            [
              -46.9390504,
              -23.6323892
            ],
            [
              -46.9389753,
              -23.6323671
            ],
            [
              -46.9388009,
              -23.6325317
            ],
            [
              -46.938589,
              -23.6324162
            ],
            [
              -46.9391416,
              -23.6319125
            ],
            [
              -46.9393803,
              -23.6320624
            ]
          ]
        ]
      }
    },
    {
      "type": "Feature",
      "id": "way/427536895",
      "properties": {
        "timestamp": "2022-03-09T01:53:13Z",
        "version": 4,
        "changeset": 118258084,
        "addr:city": "Cotia",
        "addr:housenumber": "200",
        "addr:postcode": "06700-218",
        "addr:street": "Rua Exacta",
        "addr:suburb": "Jardim Leonor",
        "amenity": "school",
        "contact:phone": "+55 11 4614 0526",
        "email": "e910570a@educacao.sp.gov.br",
        "name": "Escola Estadual Vila São Joaquim II",
        "operator": "Secretaria da  Educação do Estado de São Paulo",
        "operator:type": "government",
        "phone": "+55 11 4703 5930",
        "ref": "INEP-35910570",
        "religion": "none",
        "short_name": "EE Vila São Joaquim II",
        "source": "CADMEC 2017;INEP",
        "id": "way/427536895"
      },
      "geometry": {
        "type": "Polygon",
        "coordinates": [
          [
            [
              -46.9310429,
              -23.6085606
            ],
            [
              -46.9312259,
              -23.6087501
            ],
            [
              -46.9312289,
              -23.6088007
            ],
            [
              -46.9311998,
              -23.6088561
            ],
            [
              -46.9309275,
              -23.6089796
            ],
            [
              -46.9307874,
              -23.6090453
            ],
            [
              -46.9305612,
              -23.6088129
            ],
            [
              -46.9302546,
              -23.6085977
            ],
            [
              -46.9304032,
              -23.60845
            ],
            [
              -46.9306567,
              -23.6082264
            ],
            [
              -46.9310429,
              -23.6085606
            ]
          ]
        ]
      }
    },
    {
      "type": "Feature",
      "id": "way/428078117",
      "properties": {
        "timestamp": "2019-07-28T14:42:43Z",
        "version": 3,
        "changeset": 72739853,
        "addr:city": "Cotia",
        "addr:country": "BR",
        "addr:housenumber": "50",
        "addr:postcode": "06710-530",
        "addr:street": "Rua Riacho",
        "addr:suburb": "Jardim Guerreiro",
        "amenity": "school",
        "contact:phone": "+55 11 4702 2326",
        "email": "e010509a@educacao.sp.gov.br",
        "name": "Escola Estadual Fernando Nobre",
        "operator": "Secretaria da Educação do Estado de São Paulo",
        "operator:type": "government",
        "phone": "+55 11 4617 4305",
        "ref": "35010509",
        "id": "way/428078117"
      },
      "geometry": {
        "type": "Polygon",
        "coordinates": [
          [
            [
              -46.8157991,
              -23.590719
            ],
            [
              -46.8158765,
              -23.5906336
            ],
            [
              -46.815958,
              -23.5905641
            ],
            [
              -46.8164234,
              -23.5902286
            ],
            [
              -46.8163878,
              -23.5905015
            ],
            [
              -46.81631,
              -23.5907239
            ],
            [
              -46.8162846,
              -23.5907718
            ],
            [
              -46.8162009,
              -23.5909392
            ],
            [
              -46.8161892,
              -23.5910638
            ],
            [
              -46.8162152,
              -23.5912008
            ],
            [
              -46.8162463,
              -23.591288
            ],
            [
              -46.8162336,
              -23.5913077
            ],
            [
              -46.8162222,
              -23.5913145
            ],
            [
              -46.8161816,
              -23.5913043
            ],
            [
              -46.8159667,
              -23.5912794
            ],
            [
              -46.8158527,
              -23.5912555
            ],
            [
              -46.8158031,
              -23.5912315
            ],
            [
              -46.8157521,
              -23.5911725
            ],
            [
              -46.8157991,
              -23.590719
            ]
          ]
        ]
      }
    },
    {
      "type": "Feature",
      "id": "way/428106872",
      "properties": {
        "timestamp": "2022-03-03T03:05:26Z",
        "version": 4,
        "changeset": 118039700,
        "addr:city": "Cotia",
        "addr:housenumber": "1",
        "addr:postcode": "06725-010",
        "addr:street": "Estrada Maria Quitéria",
        "addr:suburb": "Jardim Japão",
        "amenity": "school",
        "contact:phone": "+55 11 4611 0211",
        "email": "e046590a@educacao.sp.gov.br",
        "name": "Escola Estadual Professora Erotides Aparecida Oliveira da Silva",
        "operator": "Secretaria da Educação do Estado de São Paulo",
        "operator:type": "government",
        "phone": "+55 11 4611 0973",
        "religion": "none",
        "source": "CADMEC 2017;INEP",
        "id": "way/428106872"
      },
      "geometry": {
        "type": "Polygon",
        "coordinates": [
          [
            [
              -47.0734566,
              -23.6628181
            ],
            [
              -47.0733386,
              -23.6628255
            ],
            [
              -47.073301,
              -23.6625946
            ],
            [
              -47.0734217,
              -23.6625847
            ],
            [
              -47.0734566,
              -23.6628181
            ]
          ]
        ]
      }
    },
    {
      "type": "Feature",
      "id": "way/428108944",
      "properties": {
        "timestamp": "2022-03-09T00:36:17Z",
        "version": 4,
        "changeset": 118256918,
        "addr:city": "Cotia",
        "addr:country": "BR",
        "addr:housenumber": "65",
        "addr:postcode": "06700-499",
        "addr:street": "Rua Cabralia",
        "addr:suburb": "Jardim Araruama",
        "amenity": "school",
        "contact:phone": "+55 11 4614 0246",
        "email": "e904843a@educacao.sp.gov.br",
        "name": "Escola Estadual Tenente Ernesto Caetano de Souza",
        "operator": "Secretaria da Educação do Estado de São Paulo",
        "operator:type": "government",
        "phone": "+55 11 4703 2813",
        "ref": "INEP-35904843",
        "religion": "none",
        "source": "CADMEC 2017;INEP",
        "id": "way/428108944"
      },
      "geometry": {
        "type": "Polygon",
        "coordinates": [
          [
            [
              -46.9393009,
              -23.610574
            ],
            [
              -46.9392553,
              -23.6107584
            ],
            [
              -46.9391883,
              -23.6108567
            ],
            [
              -46.9390836,
              -23.6109919
            ],
            [
              -46.9386667,
              -23.6114323
            ],
            [
              -46.9382662,
              -23.6110911
            ],
            [
              -46.9385287,
              -23.6108169
            ],
            [
              -46.9387245,
              -23.6109932
            ],
            [
              -46.9389227,
              -23.6107903
            ],
            [
              -46.9391051,
              -23.6104266
            ],
            [
              -46.9393009,
              -23.610574
            ]
          ]
        ]
      }
    },
    {
      "type": "Feature",
      "id": "way/428111031",
      "properties": {
        "timestamp": "2022-03-03T23:13:17Z",
        "version": 4,
        "changeset": 118073693,
        "addr:city": "Cotia",
        "addr:housenumber": "56",
        "addr:postcode": "06715-350",
        "addr:street": "Rua Tundra",
        "addr:suburb": "Paisagem Renoir",
        "amenity": "school",
        "contact:phone": "+55 11 4614 0225",
        "email": "eE010522a@educacao.sp.gov.br",
        "name": "Escola Estadual Professora Antonieta Di Lascio Ozeki",
        "operator": "Secretaria da Educação do Estado de São Paulo",
        "operator:type": "government",
        "phone": "+55 11 4703 4365",
        "ref": "INEP-35010522",
        "religion": "none",
        "source": "CADMEC 20147;INEP",
        "id": "way/428111031"
      },
      "geometry": {
        "type": "Polygon",
        "coordinates": [
          [
            [
              -46.8758438,
              -23.6017078
            ],
            [
              -46.875816,
              -23.6021029
            ],
            [
              -46.8756594,
              -23.6024292
            ],
            [
              -46.8751037,
              -23.6027779
            ],
            [
              -46.8751113,
              -23.6026056
            ],
            [
              -46.8752175,
              -23.60202
            ],
            [
              -46.8752524,
              -23.6016974
            ],
            [
              -46.8753195,
              -23.6016698
            ],
            [
              -46.8758438,
              -23.6017078
            ]
          ]
        ]
      }
    },
    {
      "type": "Feature",
      "id": "way/428121328",
      "properties": {
        "timestamp": "2022-03-05T23:43:55Z",
        "version": 2,
        "changeset": 118143781,
        "addr:city": "Cotia",
        "addr:housenumber": "601",
        "addr:postcode": "06708-280",
        "addr:street": "Rua Direita",
        "addr:suburb": "Vila Santo Antônio",
        "amenity": "school",
        "name": "Escola Estadual Professor Ary Bouzan",
        "operator": "Secretaria Estadual da Educação do Estado de São Paulo",
        "operator:type": "government",
        "phone": "+55 11 4617 4306",
        "ref": "INEP-35036675",
        "religion": "none",
        "short_name": "EE Professor Ary Bouzan",
        "source": "CADMEC 2017;INEP",
        "id": "way/428121328"
      },
      "geometry": {
        "type": "Polygon",
        "coordinates": [
          [
            [
              -46.8466494,
              -23.5896102
            ],
            [
              -46.8461022,
              -23.5895758
            ],
            [
              -46.8462068,
              -23.5886565
            ],
            [
              -46.8465984,
              -23.5887007
            ],
            [
              -46.8467432,
              -23.5889269
            ],
            [
              -46.8468613,
              -23.5892022
            ],
            [
              -46.8466494,
              -23.5896102
            ]
          ]
        ]
      }
    },
    {
      "type": "Feature",
      "id": "way/428281717",
      "properties": {
        "timestamp": "2020-03-19T01:36:51Z",
        "version": 5,
        "changeset": 82368100,
        "addr:city": "Cotia",
        "addr:country": "BR",
        "addr:housenumber": "450",
        "addr:postcode": "06719-460",
        "addr:street": "Rua dos Coqueirais",
        "addr:suburb": "Jardim Petrópolis",
        "amenity": "school",
        "contact:phone": "+55 11 4703 7733",
        "email": "e917011a@educacao.sp.gov.br",
        "name": "Escola Estadual Fernão Dias Paes Leme",
        "operator": "Secretaria da Educação do Estado de São Paulo",
        "operator:type": "government",
        "phone": "+55 11 4614 0308",
        "id": "way/428281717"
      },
      "geometry": {
        "type": "Polygon",
        "coordinates": [
          [
            [
              -46.9294204,
              -23.6198568
            ],
            [
              -46.9293245,
              -23.6199481
            ],
            [
              -46.9294003,
              -23.6200172
            ],
            [
              -46.929237,
              -23.6201955
            ],
            [
              -46.9291728,
              -23.6202613
            ],
            [
              -46.9291243,
              -23.6203573
            ],
            [
              -46.9290395,
              -23.6204184
            ],
            [
              -46.9288464,
              -23.6202562
            ],
            [
              -46.9287766,
              -23.6202267
            ],
            [
              -46.9289406,
              -23.6200166
            ],
            [
              -46.9291314,
              -23.6197868
            ],
            [
              -46.9292581,
              -23.6196959
            ],
            [
              -46.9294204,
              -23.6198568
            ]
          ]
        ]
      }
    },
    {
      "type": "Feature",
      "id": "way/428367933",
      "properties": {
        "timestamp": "2022-03-01T23:58:52Z",
        "version": 5,
        "changeset": 117998777,
        "addr:city": "Cotia",
        "addr:country": "BR",
        "addr:housenumber": "120",
        "addr:postcode": "06700-625",
        "addr:street": "Rua Acre",
        "addr:suburb": "Parque Santa Rita de Cassia",
        "amenity": "school",
        "contact:phone": "+55 11 4614 0303",
        "email": "e010583a@educacao.sp.gov.br",
        "name": "Escola Estadual Professor Odair Pacheco Pedroso",
        "operator": "Secretaria da Educação do Estado de São Paulo",
        "operator:type": "government",
        "phone": "+55 11 4703 2153",
        "ref": "INEP-35010583",
        "religion": "none",
        "source": "CADMEC 2017",
        "id": "way/428367933"
      },
      "geometry": {
        "type": "Polygon",
        "coordinates": [
          [
            [
              -46.9438372,
              -23.6071445
            ],
            [
              -46.9438064,
              -23.6072608
            ],
            [
              -46.9437326,
              -23.6073485
            ],
            [
              -46.9435139,
              -23.6074578
            ],
            [
              -46.9434392,
              -23.6075225
            ],
            [
              -46.9433116,
              -23.6075657
            ],
            [
              -46.9430219,
              -23.6075744
            ],
            [
              -46.9426798,
              -23.6075835
            ],
            [
              -46.9426506,
              -23.6073462
            ],
            [
              -46.94261,
              -23.6073423
            ],
            [
              -46.9426087,
              -23.6071776
            ],
            [
              -46.9425855,
              -23.6070066
            ],
            [
              -46.9427566,
              -23.6070514
            ],
            [
              -46.9428333,
              -23.6070665
            ],
            [
              -46.9428914,
              -23.6070694
            ],
            [
              -46.9433988,
              -23.60711
            ],
            [
              -46.9438372,
              -23.6071445
            ]
          ]
        ]
      }
    },
    {
      "type": "Feature",
      "id": "way/428642996",
      "properties": {
        "timestamp": "2022-03-05T22:51:41Z",
        "version": 6,
        "changeset": 118142939,
        "addr:city": "Cotia",
        "addr:country": "BR",
        "addr:housenumber": "445",
        "addr:postcode": "06716-130",
        "addr:street": "Rua Recife",
        "addr:suburb": "Jardim dos Ipes",
        "amenity": "school",
        "contact:phone": "+55 11 4614 0422",
        "email": "e043850a@educacao.sp.gov.br",
        "name": "Escola Estadual Professor Carlos Dias de Sant Anna",
        "operator": "Secretaria da Educação do Estado de São Paulo",
        "operator:type": "government",
        "phone": "+55 11 4703 4308",
        "ref": "INEP-35043850",
        "religion": "none",
        "id": "way/428642996"
      },
      "geometry": {
        "type": "Polygon",
        "coordinates": [
          [
            [
              -46.8920362,
              -23.6027411
            ],
            [
              -46.8920228,
              -23.6036234
            ],
            [
              -46.8919638,
              -23.6036873
            ],
            [
              -46.8915239,
              -23.6038619
            ],
            [
              -46.8912342,
              -23.6040057
            ],
            [
              -46.8911832,
              -23.6039725
            ],
            [
              -46.8911483,
              -23.6027313
            ],
            [
              -46.8920362,
              -23.6027411
            ]
          ]
        ]
      }
    },
    {
      "type": "Feature",
      "id": "way/428663352",
      "properties": {
        "timestamp": "2022-03-06T16:48:25Z",
        "version": 5,
        "changeset": 118166795,
        "addr:city": "Cotia",
        "addr:country": "BR",
        "addr:housenumber": "200",
        "addr:postcode": "06714-300",
        "addr:street": "Rua Euricledes Formiga",
        "addr:suburb": "Jardim Claúdio",
        "amenity": "school",
        "contact:phone": "+55 11 4703 4276",
        "name": "Escola Estadual Jornalista Roberto Corte Real",
        "operator": "Secretaria da Educação do Estado de São Paulo",
        "operator:type": "government",
        "phone": "+55 11 4614 0350",
        "ref": "INEP-35044748",
        "religion": "none",
        "source": "CADMEC 2017",
        "id": "way/428663352"
      },
      "geometry": {
        "type": "Polygon",
        "coordinates": [
          [
            [
              -46.8806343,
              -23.5994234
            ],
            [
              -46.8802916,
              -23.5994465
            ],
            [
              -46.879914,
              -23.5994474
            ],
            [
              -46.8803673,
              -23.5985699
            ],
            [
              -46.8806704,
              -23.5987125
            ],
            [
              -46.880488,
              -23.5991524
            ],
            [
              -46.8806343,
              -23.5994234
            ]
          ]
        ]
      }
    },
    {
      "type": "Feature",
      "id": "way/429395444",
      "properties": {
        "timestamp": "2022-03-06T15:06:39Z",
        "version": 3,
        "changeset": 118162666,
        "addr:city": "Cotia",
        "addr:country": "BR",
        "addr:housenumber": "546",
        "addr:postcode": "06719-150",
        "addr:street": "Estrada da Velha Olaria",
        "addr:suburb": "Jardim Arco Iris",
        "amenity": "school",
        "contact:phone": "+55 11 4703 5576",
        "email": "e048136a@educacao.sp.gov.br",
        "name": "Escola Estadual Kenkiti Simomoto",
        "operator": "Secretaria da Educação do Estado de São Paulo",
        "operator:type": "government",
        "phone": "+55 11 4614 0463",
        "ref": "INEP-35048136",
        "religion": "none",
        "source": "CADMEC 2017",
        "id": "way/429395444"
      },
      "geometry": {
        "type": "Polygon",
        "coordinates": [
          [
            [
              -46.9379997,
              -23.6195201
            ],
            [
              -46.9378549,
              -23.6200165
            ],
            [
              -46.9372111,
              -23.6198519
            ],
            [
              -46.9372621,
              -23.6195668
            ],
            [
              -46.9372675,
              -23.6194415
            ],
            [
              -46.9372675,
              -23.6193481
            ],
            [
              -46.9379997,
              -23.6195201
            ]
          ]
        ]
      }
    },
    {
      "type": "Feature",
      "id": "way/429395445",
      "properties": {
        "timestamp": "2022-03-06T15:06:39Z",
        "version": 3,
        "changeset": 118162666,
        "addr:city": "Cotia",
        "addr:country": "BR",
        "addr:housenumber": "2451",
        "addr:postcode": "06719-150",
        "addr:street": "Estrada Velha da Olaria",
        "addr:suburb": "Jardim Arco Iris",
        "amenity": "school",
        "email": "emjardimpanorama@cotia.sp.gov.br",
        "name": "Escola Municipal Jardim Panorama",
        "phone": "+55 11 4243 0100",
        "ref": "INEP-35099454",
        "religion": "none",
        "source": "CADMEC 2017",
        "id": "way/429395445"
      },
      "geometry": {
        "type": "Polygon",
        "coordinates": [
          [
            [
              -46.9374534,
              -23.6203157
            ],
            [
              -46.9370967,
              -23.6202002
            ],
            [
              -46.9372147,
              -23.619861
            ],
            [
              -46.9375757,
              -23.6199581
            ],
            [
              -46.9374534,
              -23.6203157
            ]
          ]
        ]
      }
    },
    {
      "type": "Feature",
      "id": "way/429407198",
      "properties": {
        "timestamp": "2022-03-06T00:51:03Z",
        "version": 4,
        "changeset": 118144618,
        "addr:city": "Cotia",
        "addr:housenumber": "92",
        "addr:postcode": "06703-785",
        "addr:street": "Rua Potengi",
        "addr:suburb": "Jardim Rio das Pedras",
        "amenity": "school",
        "contact:phone": "+55 11 4614 0233",
        "email": "e910582a@educacao.sp.gov.br",
        "name": "Escola Estadual Deputada Conceição da Costa Neves",
        "operator": "Secretaria de Educação do Estado de São Paulo",
        "operator:type": "government",
        "phone": "+55 11 4703 4846",
        "ref": "INEP-",
        "religion": "none",
        "source": "CADMEC 2017;INEP",
        "id": "way/429407198"
      },
      "geometry": {
        "type": "Polygon",
        "coordinates": [
          [
            [
              -46.9074555,
              -23.5953644
            ],
            [
              -46.9073763,
              -23.5955741
            ],
            [
              -46.9071738,
              -23.5955065
            ],
            [
              -46.9070745,
              -23.5957057
            ],
            [
              -46.9067209,
              -23.5956226
            ],
            [
              -46.9066582,
              -23.5956336
            ],
            [
              -46.9064303,
              -23.5956026
            ],
            [
              -46.9061198,
              -23.595541
            ],
            [
              -46.9064,
              -23.595011
            ],
            [
              -46.9074555,
              -23.5953644
            ]
          ]
        ]
      }
    },
    {
      "type": "Feature",
      "id": "way/432970540",
      "properties": {
        "timestamp": "2022-03-01T21:56:34Z",
        "version": 6,
        "changeset": 117996327,
        "addr:city": "Cotia",
        "addr:housenumber": "419",
        "addr:postcode": "06704-205",
        "addr:street": "Rua Vicente Strifezzi",
        "addr:suburb": "Jardim Mirizola",
        "amenity": "school",
        "contact:phone": "+55 11 4703 5797",
        "name": "EM Crianças de Cotia",
        "phone": "+55 11 46144975",
        "ref": "INEP-35220292",
        "religion": "none",
        "source": "CADMEC 201;INEP",
        "id": "way/432970540"
      },
      "geometry": {
        "type": "Polygon",
        "coordinates": [
          [
            [
              -46.9184032,
              -23.5797056
            ],
            [
              -46.9182879,
              -23.579851
            ],
            [
              -46.9177723,
              -23.5801268
            ],
            [
              -46.9176892,
              -23.5799586
            ],
            [
              -46.9175288,
              -23.5798362
            ],
            [
              -46.9181962,
              -23.5794931
            ],
            [
              -46.9184032,
              -23.5797056
            ]
          ]
        ]
      }
    },
    {
      "type": "Feature",
      "id": "way/434681318",
      "properties": {
        "timestamp": "2018-06-30T20:29:33Z",
        "version": 2,
        "changeset": 60309860,
        "addr:city": "Cotia",
        "addr:housenumber": "64",
        "addr:postcode": "06722-555",
        "addr:street": "Rua Cachoeira",
        "addr:suburb": "Morro Grande",
        "amenity": "school",
        "contact:phone": "+55 11 4243 8518",
        "email": "emvicentina@cotia.sp.gov.br",
        "name": "EM Vicentina Pires de Oliveira",
        "phone": "+55 11 4243 0325",
        "id": "way/434681318"
      },
      "geometry": {
        "type": "Polygon",
        "coordinates": [
          [
            [
              -46.9563818,
              -23.6501994
            ],
            [
              -46.9561953,
              -23.6501724
            ],
            [
              -46.9562276,
              -23.6499943
            ],
            [
              -46.9564153,
              -23.6500213
            ],
            [
              -46.9563818,
              -23.6501994
            ]
          ]
        ]
      }
    },
    {
      "type": "Feature",
      "id": "way/434798965",
      "properties": {
        "timestamp": "2022-02-28T17:50:55Z",
        "version": 3,
        "changeset": 117953377,
        "addr:city": "Caúcaia do Alto",
        "addr:housenumber": "405",
        "addr:postcode": "06725-105",
        "addr:street": "Avenida Inocêncio Pires de Oliveira",
        "addr:suburb": "Centro",
        "amenity": "school",
        "contact:phone": "+55 11 4611 1641",
        "email": "e908551a@educacao.sp.gov.br",
        "name": "Escola Estadual Sidronia Nunes Pires",
        "operator": "Secretaria da Educação do Estado de São Paulo",
        "operator:type": "government",
        "phone": "+55 11 4611 0520",
        "ref": "INEP-35908551",
        "religion": "none",
        "source": "CADMEC 2017",
        "id": "way/434798965"
      },
      "geometry": {
        "type": "Polygon",
        "coordinates": [
          [
            [
              -47.0246465,
              -23.6845793
            ],
            [
              -47.0244829,
              -23.6850583
            ],
            [
              -47.02433,
              -23.6852081
            ],
            [
              -47.0242629,
              -23.6852081
            ],
            [
              -47.0240443,
              -23.6849858
            ],
            [
              -47.0237748,
              -23.6848372
            ],
            [
              -47.0240725,
              -23.684206
            ],
            [
              -47.0246465,
              -23.6845793
            ]
          ]
        ]
      }
    },
    {
      "type": "Feature",
      "id": "way/434802050",
      "properties": {
        "timestamp": "2022-03-16T00:37:09Z",
        "version": 5,
        "changeset": 118531262,
        "addr:city": "Caucaia do Alto",
        "addr:country": "BR",
        "addr:housenumber": "135",
        "addr:postcode": "06727-188",
        "addr:street": "Rua Teruo Tomita",
        "addr:suburb": "Caucaia do Alto",
        "amenity": "school",
        "contact:phone": "+55 11 4611 9297",
        "email": "emprefeitoivo@gmail.com",
        "name": "Escola Municipal Prefeito Ivo Mario Isaac Pires",
        "phone": "+55 11 4242 2547",
        "religion": "none",
        "id": "way/434802050"
      },
      "geometry": {
        "type": "Polygon",
        "coordinates": [
          [
            [
              -47.0266452,
              -23.6904322
            ],
            [
              -47.0266774,
              -23.6904666
            ],
            [
              -47.0266968,
              -23.6908006
            ],
            [
              -47.026406,
              -23.6908868
            ],
            [
              -47.0260444,
              -23.6910469
            ],
            [
              -47.0259491,
              -23.6910278
            ],
            [
              -47.0255911,
              -23.6908141
            ],
            [
              -47.0266452,
              -23.6904322
            ]
          ]
        ]
      }
    },
    {
      "type": "Feature",
      "id": "way/446534747",
      "properties": {
        "timestamp": "2022-03-15T01:30:17Z",
        "version": 3,
        "changeset": 118491375,
        "addr:city": "Cotia",
        "addr:housenumber": "181",
        "addr:postcode": "06719-480",
        "addr:street": "Rua das Bananeiras",
        "addr:suburb": "Jardim Petrópolis",
        "amenity": "school",
        "contact:phone": "+55 11 4243 0069",
        "name": "Escola Municipal Benvinda dos Santos Oliveira",
        "phone": "+55 11 4614 5573",
        "ref": "INEP-35283423",
        "religion": "none",
        "short_name": "EMEB Benvinda dos Santos Oliveira",
        "source": "CADMEC 2017;INEP",
        "id": "way/446534747"
      },
      "geometry": {
        "type": "Polygon",
        "coordinates": [
          [
            [
              -46.9273404,
              -23.6217497
            ],
            [
              -46.9274788,
              -23.6218776
            ],
            [
              -46.9273556,
              -23.6219887
            ],
            [
              -46.927211,
              -23.6220358
            ],
            [
              -46.9271451,
              -23.6218686
            ],
            [
              -46.9270631,
              -23.6216494
            ],
            [
              -46.9271009,
              -23.6216296
            ],
            [
              -46.9272997,
              -23.6217622
            ],
            [
              -46.9273404,
              -23.6217497
            ]
          ]
        ]
      }
    },
    {
      "type": "Feature",
      "id": "way/446535996",
      "properties": {
        "timestamp": "2018-04-29T23:59:58Z",
        "version": 2,
        "changeset": 58539949,
        "addr:city": "Cotia",
        "addr:housenumber": "80",
        "addr:street": "Rua São Francisco de Assis",
        "addr:suburb": "Monte Santo",
        "amenity": "school",
        "name": "Escola Municipal Francisco A. Azevedo",
        "phone": "+55 11 4703 2183",
        "id": "way/446535996"
      },
      "geometry": {
        "type": "Polygon",
        "coordinates": [
          [
            [
              -46.9217555,
              -23.6128428
            ],
            [
              -46.9216804,
              -23.6129012
            ],
            [
              -46.9216053,
              -23.6129276
            ],
            [
              -46.9215007,
              -23.6127445
            ],
            [
              -46.9215222,
              -23.6126757
            ],
            [
              -46.9215772,
              -23.6126376
            ],
            [
              -46.9217555,
              -23.6128428
            ]
          ]
        ]
      }
    },
    {
      "type": "Feature",
      "id": "way/473045360",
      "properties": {
        "timestamp": "2017-08-27T12:27:11Z",
        "version": 2,
        "changeset": 51480841,
        "addr:city": "Cotia",
        "addr:housenumber": "97",
        "addr:postcode": "06716-520",
        "addr:street": "Avenida Eldorado",
        "addr:suburb": "Jardim Sabiá",
        "amenity": "school",
        "name": "Escola Municipal do Jardim Sabiá",
        "id": "way/473045360"
      },
      "geometry": {
        "type": "Polygon",
        "coordinates": [
          [
            [
              -46.8979537,
              -23.6011932
            ],
            [
              -46.898003,
              -23.6014247
            ],
            [
              -46.8970387,
              -23.6012299
            ],
            [
              -46.8971003,
              -23.6011396
            ],
            [
              -46.8974269,
              -23.6010944
            ],
            [
              -46.8979537,
              -23.6011932
            ]
          ]
        ]
      }
    },
    {
      "type": "Feature",
      "id": "way/473045362",
      "properties": {
        "timestamp": "2022-03-22T01:55:10Z",
        "version": 2,
        "changeset": 118758352,
        "addr:city": "Cotia",
        "addr:housenumber": "220",
        "addr:postcode": "06716-530",
        "addr:street": "Rua Benedito dos Santos",
        "addr:suburb": "Jardim Sabiá",
        "amenity": "school",
        "name": "Escola Planeta Terra",
        "id": "way/473045362"
      },
      "geometry": {
        "type": "Polygon",
        "coordinates": [
          [
            [
              -46.8964847,
              -23.60229
            ],
            [
              -46.8964661,
              -23.6025832
            ],
            [
              -46.8962629,
              -23.6025596
            ],
            [
              -46.8962699,
              -23.6022494
            ],
            [
              -46.8964847,
              -23.60229
            ]
          ]
        ]
      }
    },
    {
      "type": "Feature",
      "id": "way/520043779",
      "properties": {
        "timestamp": "2022-03-01T22:10:18Z",
        "version": 4,
        "changeset": 117996645,
        "addr:city": "Cotia",
        "addr:street": "Avenida Lyons",
        "amenity": "school",
        "id": "way/520043779"
      },
      "geometry": {
        "type": "Polygon",
        "coordinates": [
          [
            [
              -46.9298101,
              -23.608484
            ],
            [
              -46.9295177,
              -23.6087422
            ],
            [
              -46.9290729,
              -23.6082844
            ],
            [
              -46.9289093,
              -23.6081074
            ],
            [
              -46.9289013,
              -23.6080853
            ],
            [
              -46.92904,
              -23.6079218
            ],
            [
              -46.9291162,
              -23.6078026
            ],
            [
              -46.9298101,
              -23.608484
            ]
          ]
        ]
      }
    },
    {
      "type": "Feature",
      "id": "way/544012340",
      "properties": {
        "timestamp": "2017-12-02T02:21:20Z",
        "version": 1,
        "changeset": 54256123,
        "amenity": "school",
        "name": "Espaço Potencial",
        "operator": "Objetivo",
        "id": "way/544012340"
      },
      "geometry": {
        "type": "Polygon",
        "coordinates": [
          [
            [
              -46.9207455,
              -23.6038516
            ],
            [
              -46.9207415,
              -23.6042325
            ],
            [
              -46.9202419,
              -23.6042281
            ],
            [
              -46.9202459,
              -23.6038471
            ],
            [
              -46.9207455,
              -23.6038516
            ]
          ]
        ]
      }
    },
    {
      "type": "Feature",
      "id": "way/548637127",
      "properties": {
        "timestamp": "2022-03-04T13:05:51Z",
        "version": 3,
        "changeset": 118092582,
        "addr:city": "Cotia",
        "addr:country": "BR",
        "addr:housenumber": "151",
        "addr:postcode": "06715-675",
        "addr:street": "Rua Mississipi",
        "addr:suburb": "Jardim Belizário",
        "amenity": "school",
        "contact:phone": "+55 11 4616 7957",
        "email": "emchacaracantagalo@cotia.sp.gov.br",
        "name": "Escola Municipal Professor José da Costa Chaves",
        "phone": "+55 11 4243 0381",
        "ref": "INEP-35219903",
        "religion": "none",
        "source": "CADMEC 2017",
        "id": "way/548637127"
      },
      "geometry": {
        "type": "Polygon",
        "coordinates": [
          [
            [
              -46.8834038,
              -23.6096817
            ],
            [
              -46.8832463,
              -23.61034
            ],
            [
              -46.8831525,
              -23.6102865
            ],
            [
              -46.883103,
              -23.6103611
            ],
            [
              -46.8828039,
              -23.6101016
            ],
            [
              -46.8832003,
              -23.6095439
            ],
            [
              -46.8834038,
              -23.6096817
            ]
          ]
        ]
      }
    },
    {
      "type": "Feature",
      "id": "way/599408047",
      "properties": {
        "timestamp": "2019-09-13T03:27:53Z",
        "version": 2,
        "changeset": 74415225,
        "addr:city": "Cotia",
        "addr:housenumber": "700",
        "addr:postcode": "06702-155",
        "addr:street": "Rua Nelson Ranieri",
        "addr:suburb": "Lajeado",
        "amenity": "school",
        "denomination": "roman_catholic",
        "name": "Colégio Madre Iva",
        "operator": "Rede Azul de Educação",
        "religion": "christian",
        "website": "https://www.colegiomadreiva.com.br/",
        "id": "way/599408047"
      },
      "geometry": {
        "type": "Polygon",
        "coordinates": [
          [
            [
              -46.9255998,
              -23.5977236
            ],
            [
              -46.9259378,
              -23.5982152
            ],
            [
              -46.9255153,
              -23.5984831
            ],
            [
              -46.9250091,
              -23.5981451
            ],
            [
              -46.924889,
              -23.5978612
            ],
            [
              -46.9243963,
              -23.5979873
            ],
            [
              -46.924221,
              -23.5980572
            ],
            [
              -46.9241572,
              -23.5983382
            ],
            [
              -46.9239184,
              -23.5985253
            ],
            [
              -46.9234192,
              -23.5985593
            ],
            [
              -46.9230531,
              -23.5986453
            ],
            [
              -46.9228479,
              -23.5981316
            ],
            [
              -46.9229693,
              -23.5980099
            ],
            [
              -46.9231228,
              -23.5979374
            ],
            [
              -46.923666,
              -23.5976449
            ],
            [
              -46.9242373,
              -23.5974729
            ],
            [
              -46.9248381,
              -23.5973647
            ],
            [
              -46.9255998,
              -23.5977236
            ]
          ]
        ]
      }
    },
    {
      "type": "Feature",
      "id": "way/600910938",
      "properties": {
        "timestamp": "2019-07-28T15:15:10Z",
        "version": 2,
        "changeset": 72740507,
        "addr:city": "Cotia",
        "addr:housenumber": "255",
        "addr:postcode": "06710-500",
        "addr:street": "Estrada Municipal do Espigão",
        "addr:suburb": "Chácara Pavoeiro",
        "amenity": "school",
        "contact:phone": "+55 11 4702 2344",
        "email": "benjaminjafet@yahoo.com.br",
        "name": "Escola Municipal Engenheiro Eduardo Benjamin Jafet",
        "phone": "+55 11 4613 0287",
        "ref": "35220309",
        "id": "way/600910938"
      },
      "geometry": {
        "type": "Polygon",
        "coordinates": [
          [
            [
              -46.824245,
              -23.6029029
            ],
            [
              -46.8243999,
              -23.6027782
            ],
            [
              -46.8245468,
              -23.6026498
            ],
            [
              -46.8247707,
              -23.6029496
            ],
            [
              -46.8243979,
              -23.6032003
            ],
            [
              -46.824245,
              -23.6029029
            ]
          ]
        ]
      }
    },
    {
      "type": "Feature",
      "id": "way/603856416",
      "properties": {
        "timestamp": "2018-06-30T20:07:21Z",
        "version": 1,
        "changeset": 60309599,
        "addr:city": "Cotia",
        "addr:housenumber": "122",
        "addr:postcode": "06703-780",
        "addr:street": "Rua Parapanema",
        "addr:suburb": "Portão",
        "amenity": "school",
        "contact:mobile": "+55 11 95043 7113",
        "email": "contato@colegioeeolimpo.com.br",
        "name": "Colégio Olimpo",
        "operator": "COC",
        "phone": "+55 11 4614 1664",
        "website": "http://www.colegioeeolimpo.com.br/index",
        "id": "way/603856416"
      },
      "geometry": {
        "type": "Polygon",
        "coordinates": [
          [
            [
              -46.9041051,
              -23.5955952
            ],
            [
              -46.9039576,
              -23.5959738
            ],
            [
              -46.9036196,
              -23.5959
            ],
            [
              -46.903507,
              -23.5958312
            ],
            [
              -46.9033219,
              -23.5957304
            ],
            [
              -46.9033219,
              -23.5957034
            ],
            [
              -46.903043,
              -23.5955657
            ],
            [
              -46.9031717,
              -23.595256
            ],
            [
              -46.9038959,
              -23.595519
            ],
            [
              -46.9041051,
              -23.5955952
            ]
          ]
        ]
      }
    },
    {
      "type": "Feature",
      "id": "way/620375595",
      "properties": {
        "timestamp": "2024-10-05T13:35:56Z",
        "version": 2,
        "changeset": 157501552,
        "addr:city": "Cotia",
        "addr:housenumber": "km 8",
        "addr:postcode": "06720-400",
        "addr:street": "Estrada de Caucaia do Alto",
        "addr:suburb": "Jardim Santa Paula",
        "amenity": "school",
        "contact:phone": "+55 11 4611 9333",
        "email": "dayjos@ig.com.br",
        "name": "Escola Municipal Assis José de Oliveira",
        "phone": "+55 11 4611 0351",
        "id": "way/620375595"
      },
      "geometry": {
        "type": "Polygon",
        "coordinates": [
          [
            [
              -47.0098003,
              -23.6684074
            ],
            [
              -47.0095697,
              -23.6685081
            ],
            [
              -47.0096341,
              -23.6686162
            ],
            [
              -47.0093202,
              -23.6687341
            ],
            [
              -47.0092438,
              -23.6684921
            ],
            [
              -47.0097199,
              -23.6682833
            ],
            [
              -47.0098003,
              -23.6684074
            ]
          ]
        ]
      }
    },
    {
      "type": "Feature",
      "id": "way/686750805",
      "properties": {
        "timestamp": "2019-04-30T01:34:20Z",
        "version": 1,
        "changeset": 69716442,
        "amenity": "school",
        "id": "way/686750805"
      },
      "geometry": {
        "type": "Polygon",
        "coordinates": [
          [
            [
              -46.9182237,
              -23.597998
            ],
            [
              -46.9182968,
              -23.5981966
            ],
            [
              -46.9182203,
              -23.5982202
            ],
            [
              -46.9182504,
              -23.5983021
            ],
            [
              -46.9180102,
              -23.5983763
            ],
            [
              -46.9179724,
              -23.5982738
            ],
            [
              -46.9179375,
              -23.5982846
            ],
            [
              -46.9178721,
              -23.5981067
            ],
            [
              -46.9182237,
              -23.597998
            ]
          ]
        ]
      }
    },
    {
      "type": "Feature",
      "id": "way/717323528",
      "properties": {
        "timestamp": "2022-03-06T01:32:08Z",
        "version": 3,
        "changeset": 118145254,
        "addr:housenumber": "17",
        "addr:postcode": "06716-715",
        "addr:street": "Rua Vasper",
        "addr:suburb": "Vila Santo Antônio do Portão",
        "amenity": "school",
        "contact:phone": "+55 11 4703 2719",
        "email": "emfmoliveira@ig.com.br",
        "name": "Escola Municipal Francisca Manoel de Oliveira",
        "phone": "+55 11 4243 0037",
        "ref": "INEP-35099405",
        "religion": "none",
        "id": "way/717323528"
      },
      "geometry": {
        "type": "Polygon",
        "coordinates": [
          [
            [
              -46.9105236,
              -23.6049143
            ],
            [
              -46.9099788,
              -23.6048771
            ],
            [
              -46.9099788,
              -23.6047132
            ],
            [
              -46.9100032,
              -23.6045865
            ],
            [
              -46.9100682,
              -23.6045343
            ],
            [
              -46.9101902,
              -23.6045269
            ],
            [
              -46.9103284,
              -23.6045492
            ],
            [
              -46.910426,
              -23.6046088
            ],
            [
              -46.9105236,
              -23.6049143
            ]
          ]
        ]
      }
    },
    {
      "type": "Feature",
      "id": "way/724198423",
      "properties": {
        "timestamp": "2019-09-13T03:06:52Z",
        "version": 1,
        "changeset": 74414856,
        "amenity": "school",
        "name": "Escola Municipal Recanto Vista Alegre",
        "operator": "Prefeitura de Cotia",
        "id": "way/724198423"
      },
      "geometry": {
        "type": "Polygon",
        "coordinates": [
          [
            [
              -46.9298922,
              -23.5956795
            ],
            [
              -46.9297573,
              -23.5958339
            ],
            [
              -46.9296051,
              -23.5957223
            ],
            [
              -46.9297401,
              -23.5955678
            ],
            [
              -46.9298922,
              -23.5956795
            ]
          ]
        ]
      }
    },
    {
      "type": "Feature",
      "id": "way/724814629",
      "properties": {
        "timestamp": "2019-09-30T23:07:17Z",
        "version": 2,
        "changeset": 75122556,
        "addr:city": "Cotia",
        "addr:postcode": "06702415",
        "addr:street": "Rua Ruy Barbosa",
        "addr:suburb": "Chácara Vista Alegre",
        "amenity": "school",
        "name": "Escola Municipal Sílvio Pedroso",
        "id": "way/724814629"
      },
      "geometry": {
        "type": "Polygon",
        "coordinates": [
          [
            [
              -46.9274662,
              -23.5851827
            ],
            [
              -46.927512,
              -23.5852663
            ],
            [
              -46.9275381,
              -23.5852543
            ],
            [
              -46.9275888,
              -23.585347
            ],
            [
              -46.9271054,
              -23.5855691
            ],
            [
              -46.9270089,
              -23.5853928
            ],
            [
              -46.9274662,
              -23.5851827
            ]
          ]
        ]
      }
    },
    {
      "type": "Feature",
      "id": "way/724814630",
      "properties": {
        "timestamp": "2019-09-30T23:07:17Z",
        "version": 2,
        "changeset": 75122556,
        "addr:city": "Cotia",
        "addr:housenumber": "63",
        "addr:postcode": "06702415",
        "addr:street": "Rua Ruy Barbosa",
        "addr:suburb": "Chácara Vista Alegre",
        "amenity": "school",
        "denomination": "seventh_day_adventist",
        "name": "Colégio Adventista",
        "religion": "christian",
        "id": "way/724814630"
      },
      "geometry": {
        "type": "Polygon",
        "coordinates": [
          [
            [
              -46.92676,
              -23.5844854
            ],
            [
              -46.9270007,
              -23.5845789
            ],
            [
              -46.9271278,
              -23.5847526
            ],
            [
              -46.9273647,
              -23.5846589
            ],
            [
              -46.9274894,
              -23.5848577
            ],
            [
              -46.9272201,
              -23.584972
            ],
            [
              -46.926901,
              -23.585461
            ],
            [
              -46.9263549,
              -23.5853604
            ],
            [
              -46.9264596,
              -23.5850519
            ],
            [
              -46.92676,
              -23.5844854
            ]
          ]
        ]
      }
    },
    {
      "type": "Feature",
      "id": "way/773914445",
      "properties": {
        "timestamp": "2020-02-19T03:23:49Z",
        "version": 1,
        "changeset": 81197347,
        "amenity": "school",
        "id": "way/773914445"
      },
      "geometry": {
        "type": "Polygon",
        "coordinates": [
          [
            [
              -46.920924,
              -23.5657201
            ],
            [
              -46.9208907,
              -23.565795
            ],
            [
              -46.9208436,
              -23.5657774
            ],
            [
              -46.9206851,
              -23.5661338
            ],
            [
              -46.9205722,
              -23.5660916
            ],
            [
              -46.920764,
              -23.5656603
            ],
            [
              -46.920924,
              -23.5657201
            ]
          ]
        ]
      }
    },
    {
      "type": "Feature",
      "id": "way/972380414",
      "properties": {
        "timestamp": "2021-08-13T22:51:37Z",
        "version": 3,
        "changeset": 109651481,
        "addr:postcode": "6715-125",
        "addr:street": "Estrada do Potuverá",
        "addr:suburb": "Jardim Samambaia",
        "amenity": "school",
        "email": "emflorentinafernandesdeoliveira@cotia.sp.gov.br",
        "name": "Escola Municipal Florentina Francisca de Oliveira",
        "phone": "+55 11 4703 2755",
        "ref": "INEP-35219859",
        "short_name": "EM Florentina Francisca de Oliveira",
        "source": "CADMEC 2017;INPE",
        "id": "way/972380414"
      },
      "geometry": {
        "type": "Polygon",
        "coordinates": [
          [
            [
              -46.9055973,
              -23.7099729
            ],
            [
              -46.9053766,
              -23.7100309
            ],
            [
              -46.9053353,
              -23.7099199
            ],
            [
              -46.9053849,
              -23.7098971
            ],
            [
              -46.9053937,
              -23.7098705
            ],
            [
              -46.9054737,
              -23.7098054
            ],
            [
              -46.905512,
              -23.7099249
            ],
            [
              -46.9055791,
              -23.7099025
            ],
            [
              -46.9055973,
              -23.7099729
            ]
          ]
        ]
      }
    },
    {
      "type": "Feature",
      "id": "way/1036391360",
      "properties": {
        "timestamp": "2022-03-01T21:56:34Z",
        "version": 1,
        "changeset": 117996327,
        "addr:housenumber": "369",
        "addr:postcode": "06704-205",
        "addr:street": "Rua Vicente Strifezzi",
        "addr:suburb": "Jardim Mirizola",
        "amenity": "school",
        "email": "emcriancasdecotia2@cotia.sp.gov.br",
        "name": "EM Crianças de Cotia II",
        "ref": "INEP-35050672",
        "religion": "none",
        "source": "CADMEC 2017;INEP",
        "id": "way/1036391360"
      },
      "geometry": {
        "type": "Polygon",
        "coordinates": [
          [
            [
              -46.917771,
              -23.5801391
            ],
            [
              -46.9176464,
              -23.5802003
            ],
            [
              -46.9174106,
              -23.5803255
            ],
            [
              -46.917338,
              -23.580159
            ],
            [
              -46.9174084,
              -23.5800468
            ],
            [
              -46.9175217,
              -23.5798506
            ],
            [
              -46.91768,
              -23.5799597
            ],
            [
              -46.917771,
              -23.5801391
            ]
          ]
        ]
      }
    },
    {
      "type": "Feature",
      "id": "way/1036396042",
      "properties": {
        "timestamp": "2022-03-01T22:23:31Z",
        "version": 1,
        "changeset": 117996900,
        "addr:street": "Rua José Gaspar de Oliveira",
        "amenity": "school",
        "id": "way/1036396042"
      },
      "geometry": {
        "type": "Polygon",
        "coordinates": [
          [
            [
              -46.9287388,
              -23.6054708
            ],
            [
              -46.9289561,
              -23.6057387
            ],
            [
              -46.9287066,
              -23.6059181
            ],
            [
              -46.928602,
              -23.6057756
            ],
            [
              -46.9287469,
              -23.6057092
            ],
            [
              -46.9286396,
              -23.6055396
            ],
            [
              -46.9287388,
              -23.6054708
            ]
          ]
        ]
      }
    },
    {
      "type": "Feature",
      "id": "way/1036405926",
      "properties": {
        "timestamp": "2022-03-01T23:36:57Z",
        "version": 1,
        "changeset": 117998406,
        "addr:housenumber": "67",
        "addr:postcode": "06717-195",
        "addr:street": "Rua Professora Isaura Bayer Lein",
        "addr:suburb": "Vila Mont Serrat",
        "amenity": "school",
        "email": "emfranciscooliveira@cotia.sp.gov.br",
        "name": "Escola Municipal Francisco Nunes de Oliveira",
        "phone": "+55 11 4703 5754",
        "ref": "INEP-35099417",
        "religion": "none",
        "source": "CADMEC 2017;INEP",
        "id": "way/1036405926"
      },
      "geometry": {
        "type": "Polygon",
        "coordinates": [
          [
            [
              -46.9232729,
              -23.6059484
            ],
            [
              -46.9233535,
              -23.6059797
            ],
            [
              -46.9233856,
              -23.6060267
            ],
            [
              -46.9234772,
              -23.6063861
            ],
            [
              -46.9232233,
              -23.6064024
            ],
            [
              -46.9231945,
              -23.6060463
            ],
            [
              -46.9230392,
              -23.6060294
            ],
            [
              -46.9230249,
              -23.6059471
            ],
            [
              -46.9232729,
              -23.6059484
            ]
          ]
        ]
      }
    },
    {
      "type": "Feature",
      "id": "way/1036418010",
      "properties": {
        "timestamp": "2022-03-03T02:33:18Z",
        "version": 2,
        "changeset": 118039294,
        "addr:housenumber": "450",
        "addr:postcode": "06725-153",
        "addr:street": "Estrada da Água Espraiada",
        "addr:suburb": "Água Espraiada",
        "amenity": "school",
        "contact:phone": "+55 11 4611 0157",
        "email": "e043862a@educacao.sp.gov.br",
        "name": "EScola Estadual Republica da Costa Rica",
        "operator": "Secretaria da Educação do Estado de São Paulo",
        "operator:type": "government",
        "phone": "+55 11 4611 0311",
        "ref": "INEP-35043862",
        "religion": "none",
        "source": "CADMEC 2017;INEP",
        "id": "way/1036418010"
      },
      "geometry": {
        "type": "Polygon",
        "coordinates": [
          [
            [
              -47.0475643,
              -23.6611805
            ],
            [
              -47.0477065,
              -23.661237
            ],
            [
              -47.0478326,
              -23.66135
            ],
            [
              -47.0479425,
              -23.6615637
            ],
            [
              -47.0471862,
              -23.661576
            ],
            [
              -47.0471808,
              -23.6614458
            ],
            [
              -47.047162,
              -23.6613058
            ],
            [
              -47.0475643,
              -23.6611805
            ]
          ]
        ]
      }
    },
    {
      "type": "Feature",
      "id": "way/1036605224",
      "properties": {
        "timestamp": "2022-03-03T01:29:35Z",
        "version": 4,
        "changeset": 118038626,
        "addr:postcode": "06722-555",
        "addr:street": "Estrada Municipal da Cachoeira",
        "addr:suburb": "Cachoeira",
        "amenity": "school",
        "building": "church",
        "contact:phone": "+55 11 4611 9326",
        "name": "Escola Municipal Rosa Maciel de Oliveira",
        "phone": "+55 11 4611 2420",
        "religion": "none",
        "source": "CADMEC 2017;INEP",
        "id": "way/1036605224"
      },
      "geometry": {
        "type": "Polygon",
        "coordinates": [
          [
            [
              -47.0480212,
              -23.7340631
            ],
            [
              -47.0480605,
              -23.7340603
            ],
            [
              -47.0480787,
              -23.734199
            ],
            [
              -47.0480484,
              -23.7342462
            ],
            [
              -47.0480515,
              -23.7344071
            ],
            [
              -47.0479666,
              -23.7344099
            ],
            [
              -47.0479333,
              -23.7340714
            ],
            [
              -47.0480212,
              -23.7340631
            ]
          ]
        ]
      }
    },
    {
      "type": "Feature",
      "id": "way/1036620573",
      "properties": {
        "timestamp": "2022-03-03T02:18:21Z",
        "version": 2,
        "changeset": 118039083,
        "addr:housenumber": "5275",
        "addr:postcode": "06722-555",
        "addr:street": "Estrada Municipal da Cachoeira",
        "addr:suburb": "Cachoeira",
        "amenity": "school",
        "contact:phone": "+55 11 4611 1166",
        "email": "e918763a@educacao.sp.gov.br",
        "name": "Escola Estadual Roque Savioli",
        "operator": "Secretaria da Educação do Estado de São Paulo",
        "operator:type": "government",
        "phone": "+55 11 4611 2069",
        "ref": "INEP-35918763",
        "religion": "none",
        "source": "CADMEC 2017;INEP",
        "id": "way/1036620573"
      },
      "geometry": {
        "type": "Polygon",
        "coordinates": [
          [
            [
              -47.0476196,
              -23.7335978
            ],
            [
              -47.0476973,
              -23.7340075
            ],
            [
              -47.0471436,
              -23.734062
            ],
            [
              -47.0470686,
              -23.7336547
            ],
            [
              -47.0476196,
              -23.7335978
            ]
          ]
        ]
      }
    },
    {
      "type": "Feature",
      "id": "way/1036692344",
      "properties": {
        "timestamp": "2022-03-03T02:06:42Z",
        "version": 1,
        "changeset": 118038935,
        "addr:housenumber": "310",
        "addr:postcode": "06729-500",
        "addr:street": "Estrada dos Mendes",
        "addr:suburb": "Mendes",
        "amenity": "school",
        "email": "emjosemendesdasilva@cotia.sp.gov.br",
        "name": "Escola Municipal José Mendes da Silva",
        "phone": "+55 11 4611 9331",
        "religion": "none",
        "source": "CADMEC 2017;INEP",
        "id": "way/1036692344"
      },
      "geometry": {
        "type": "Polygon",
        "coordinates": [
          [
            [
              -47.0282932,
              -23.7607177
            ],
            [
              -47.0284872,
              -23.7609396
            ],
            [
              -47.0282326,
              -23.7611115
            ],
            [
              -47.0280508,
              -23.760898
            ],
            [
              -47.0282932,
              -23.7607177
            ]
          ]
        ]
      }
    },
    {
      "type": "Feature",
      "id": "way/1036845954",
      "properties": {
        "timestamp": "2022-03-03T15:07:32Z",
        "version": 1,
        "changeset": 118059431,
        "addr:housenumber": "1897",
        "addr:postcode": "06705-490",
        "addr:street": "Avenida Fernando Nobre",
        "addr:suburb": "Parque Rincão",
        "amenity": "school",
        "email": "rejane@docegeracao.com.br",
        "name": "Doce  Geração",
        "phone": "+55 11 4612 4221",
        "ref": "INEP-35301267",
        "source": "INEP",
        "website": "https://docegeracao.com.br/",
        "id": "way/1036845954"
      },
      "geometry": {
        "type": "Polygon",
        "coordinates": [
          [
            [
              -46.886126,
              -23.5820356
            ],
            [
              -46.8861931,
              -23.5827411
            ],
            [
              -46.8854743,
              -23.582778
            ],
            [
              -46.8854313,
              -23.5822003
            ],
            [
              -46.886126,
              -23.5820356
            ]
          ]
        ]
      }
    },
    {
      "type": "Feature",
      "id": "way/1036888105",
      "properties": {
        "timestamp": "2024-06-28T01:07:16Z",
        "version": 2,
        "changeset": 153270965,
        "addr:housenumber": "1332",
        "addr:postcode": "06705-490",
        "addr:street": "Avenida Fernando Nobre",
        "addr:suburb": "Parque Rincão",
        "amenity": "school",
        "contact:mobile": "+55 11 97263 0781",
        "email": "colegiosidarta@sidarta.org.br",
        "name": "Colégio Sidarta",
        "phone": "+55 11 4612 2711",
        "website": "https://www.sidarta.org.br/colegio/pt/",
        "id": "way/1036888105"
      },
      "geometry": {
        "type": "Polygon",
        "coordinates": [
          [
            [
              -46.8823064,
              -23.5827348
            ],
            [
              -46.8831841,
              -23.5839368
            ],
            [
              -46.882887,
              -23.584289
            ],
            [
              -46.8826963,
              -23.5844129
            ],
            [
              -46.8824894,
              -23.5844997
            ],
            [
              -46.8823391,
              -23.5841976
            ],
            [
              -46.8819939,
              -23.5842808
            ],
            [
              -46.8819211,
              -23.5839927
            ],
            [
              -46.8815239,
              -23.5840539
            ],
            [
              -46.8810759,
              -23.5832643
            ],
            [
              -46.8823064,
              -23.5827348
            ]
          ]
        ]
      }
    },
    {
      "type": "Feature",
      "id": "way/1036995735",
      "properties": {
        "timestamp": "2024-12-09T23:53:43Z",
        "version": 4,
        "changeset": 160110913,
        "addr:housenumber": "km 1",
        "addr:postcode": "06720-480",
        "addr:street": "Estrada Prefeito Ivo Mário Isaac Pires",
        "addr:suburb": "Pedras",
        "amenity": "school",
        "contact:phone": "+55 11 4614 0118",
        "name": "Escola Estadual Ana Macieira de Oliveira",
        "operator": "Secretaria da Educação do Estado de São Paulo",
        "operator:type": "government",
        "operator:wikidata": "Q10369245",
        "phone": "+55 11 4703 4579",
        "ref:INEP": "35010625",
        "religion": "none",
        "source": "CADMEC 2017;INEP",
        "id": "way/1036995735"
      },
      "geometry": {
        "type": "Polygon",
        "coordinates": [
          [
            [
              -46.9763047,
              -23.6202882
            ],
            [
              -46.976164,
              -23.6209457
            ],
            [
              -46.9760622,
              -23.6209976
            ],
            [
              -46.9760212,
              -23.6209904
            ],
            [
              -46.9759703,
              -23.6209617
            ],
            [
              -46.9756711,
              -23.6208221
            ],
            [
              -46.9758198,
              -23.6202291
            ],
            [
              -46.9763047,
              -23.6202882
            ]
          ]
        ]
      }
    },
    {
      "type": "Feature",
      "id": "way/1037169637",
      "properties": {
        "timestamp": "2022-03-04T16:28:58Z",
        "version": 1,
        "changeset": 118099814,
        "addr:housenumber": "445",
        "addr:postcode": "06719-400",
        "addr:street": "Estrada dos Fischer's",
        "addr:suburb": "Jardim Sandra",
        "amenity": "school",
        "contact:phone": "+55 11 4615 0841",
        "email": "emmariaaparecida@cotia.sp.gov.br",
        "name": "Escola Municipal Professora Maria Aparecida de Oliveira Pedroso",
        "phone": "+55 11 4703 4588",
        "ref": "INEP-35219927",
        "religion": "none",
        "source": "CADMEC 2017;INEP",
        "id": "way/1037169637"
      },
      "geometry": {
        "type": "Polygon",
        "coordinates": [
          [
            [
              -46.9518585,
              -23.6362496
            ],
            [
              -46.9518531,
              -23.6363847
            ],
            [
              -46.9515125,
              -23.6365985
            ],
            [
              -46.9514294,
              -23.636429
            ],
            [
              -46.9514079,
              -23.6363184
            ],
            [
              -46.9514615,
              -23.6361808
            ],
            [
              -46.9518585,
              -23.6362496
            ]
          ]
        ]
      }
    },
    {
      "type": "Feature",
      "id": "way/1037436981",
      "properties": {
        "timestamp": "2022-03-05T22:48:08Z",
        "version": 1,
        "changeset": 118142859,
        "addr:housenumber": "206",
        "addr:postcode": "06717-210",
        "addr:street": "Avenida Nossa Senhora de Fátima",
        "addr:suburb": "Vila Monte Serrat",
        "amenity": "school",
        "email": "e010595a@educacao.sp.gov.br",
        "name": "Escola Estadual Batista Cepelos",
        "operator": "Secretaria da Educação do Estado de São Paulo",
        "operator:type": "government",
        "ref": "INEP-35010595",
        "religion": "none",
        "source": "CADMEC 2017;INEP",
        "id": "way/1037436981"
      },
      "geometry": {
        "type": "Polygon",
        "coordinates": [
          [
            [
              -46.9259742,
              -23.6066323
            ],
            [
              -46.9267654,
              -23.6071631
            ],
            [
              -46.926693,
              -23.6072983
            ],
            [
              -46.9269129,
              -23.6074458
            ],
            [
              -46.9267896,
              -23.6075638
            ],
            [
              -46.9262719,
              -23.6075392
            ],
            [
              -46.9256121,
              -23.6070919
            ],
            [
              -46.9259742,
              -23.6066323
            ]
          ]
        ]
      }
    },
    {
      "type": "Feature",
      "id": "way/1037439973",
      "properties": {
        "timestamp": "2022-03-05T23:23:24Z",
        "version": 1,
        "changeset": 118143492,
        "addr:housenumber": "645",
        "addr:postcode": "067131-00",
        "addr:street": "Estrada do Embu",
        "addr:suburb": "Jardim Torino",
        "amenity": "school",
        "contact:phone": "+55 11 4617 4304",
        "email": "e010510a@educacao.sp.gov.br",
        "name": "Escola Estadual Professor Carlos Ferreira de Moraes",
        "operator": "Secretaria da Educação do Estado de São Paulo",
        "operator:type": "government",
        "phone": "+55 11  4702 5080",
        "religion": "none",
        "source": "CADMEC 2017;INEP",
        "id": "way/1037439973"
      },
      "geometry": {
        "type": "Polygon",
        "coordinates": [
          [
            [
              -46.8557967,
              -23.6025539
            ],
            [
              -46.8555647,
              -23.6027616
            ],
            [
              -46.85533,
              -23.6029987
            ],
            [
              -46.8544985,
              -23.6020771
            ],
            [
              -46.8554239,
              -23.6020721
            ],
            [
              -46.8557967,
              -23.6025539
            ]
          ]
        ]
      }
    },
    {
      "type": "Feature",
      "id": "way/1038000004",
      "properties": {
        "timestamp": "2022-03-07T14:48:17Z",
        "version": 1,
        "changeset": 118200324,
        "addr:housenumber": "6650",
        "addr:postcode": "06719-500",
        "addr:street": "Estrada do Morro Grande",
        "addr:suburb": "Jardim Isis",
        "amenity": "school",
        "contact:phone": "+55 11 4703 4101",
        "email": "e010571a@educacao.sp.gov.br",
        "name": "Escola Estadual Professor José Barreto",
        "operator": "Secretaria da Educação do Estado de São Paulo",
        "operator:type": "government",
        "phone": "+55 11  4614 0395",
        "ref": "INEP-35010571",
        "religion": "none",
        "source": "CADMEC 2017;INEP",
        "id": "way/1038000004"
      },
      "geometry": {
        "type": "Polygon",
        "coordinates": [
          [
            [
              -46.9592926,
              -23.6472325
            ],
            [
              -46.9593689,
              -23.647512
            ],
            [
              -46.9587247,
              -23.6477152
            ],
            [
              -46.9585721,
              -23.647855
            ],
            [
              -46.9585189,
              -23.6476925
            ],
            [
              -46.9585863,
              -23.6475576
            ],
            [
              -46.9586946,
              -23.6473771
            ],
            [
              -46.9592926,
              -23.6472325
            ]
          ]
        ]
      }
    },
    {
      "type": "Feature",
      "id": "way/1038100692",
      "properties": {
        "timestamp": "2022-03-08T01:43:13Z",
        "version": 2,
        "changeset": 118217903,
        "addr:housenumber": "391",
        "addr:postcode": "06720-149",
        "addr:street": "Rua Carmem Miranda",
        "addr:suburb": "Parque Mirante da Mata",
        "amenity": "school",
        "contact:phone": "+55 11 4703 5744",
        "email": "emmirantedamata@cotia.sp.gov.br",
        "name": "Escola Municipal Mirante do Mar",
        "phone": "+55 11 4243 0165",
        "ref": "INEP-35099429",
        "religion": "none",
        "source": "CADMEC 2017;INEP",
        "id": "way/1038100692"
      },
      "geometry": {
        "type": "Polygon",
        "coordinates": [
          [
            [
              -46.9502551,
              -23.619009
            ],
            [
              -46.9502337,
              -23.6190999
            ],
            [
              -46.9498957,
              -23.6190459
            ],
            [
              -46.9499091,
              -23.6189377
            ],
            [
              -46.9502551,
              -23.619009
            ]
          ]
        ]
      }
    },
    {
      "type": "Feature",
      "id": "way/1038124441",
      "properties": {
        "timestamp": "2022-03-08T01:52:00Z",
        "version": 1,
        "changeset": 118218018,
        "addr:housenumber": "60",
        "addr:postcode": "06720-146",
        "addr:street": "Rua Dolores Duran",
        "addr:suburb": "Parque Mirante da Mata",
        "amenity": "school",
        "contact:phone": "+55 11 4615 0750",
        "email": "cejoserobertodamacesno@cotia.sp.gov.br",
        "name": "Centro Educacional José Roberto Maceno",
        "phone": "+55 11 4616 1047",
        "ref": "INEP-35063320",
        "religion": "none",
        "source": "CADMEC 2017;INEP",
        "id": "way/1038124441"
      },
      "geometry": {
        "type": "Polygon",
        "coordinates": [
          [
            [
              -46.9530459,
              -23.6179476
            ],
            [
              -46.9529189,
              -23.6180958
            ],
            [
              -46.9523449,
              -23.6178525
            ],
            [
              -46.9524146,
              -23.6175773
            ],
            [
              -46.9524373,
              -23.6175336
            ],
            [
              -46.9524615,
              -23.6175056
            ],
            [
              -46.9525004,
              -23.6174937
            ],
            [
              -46.9530406,
              -23.6178995
            ],
            [
              -46.9530492,
              -23.6179261
            ],
            [
              -46.9530459,
              -23.6179476
            ]
          ]
        ]
      }
    },
    {
      "type": "Feature",
      "id": "way/1038387843",
      "properties": {
        "timestamp": "2022-03-08T23:29:17Z",
        "version": 1,
        "changeset": 118255909,
        "addr:housenumber": "500",
        "addr:postcode": "06725-025",
        "addr:street": "Avenida Luiz Ferreira Gil",
        "addr:suburb": "Jardim São Luiz",
        "amenity": "school",
        "contact:phone": "+55 11 4611 2443",
        "email": "e048112a@educacao.sp.gov.br",
        "name": "Escola Estadual Deputado Dagoberto Salles Filho",
        "operator": "Secretaria da Educação do Estado de São Paulo",
        "operator:type": "government",
        "phone": "+55 11 4611 0699",
        "ref": "INEP-35048112",
        "religion": "none",
        "source": "CADMEC 2017;INEP",
        "id": "way/1038387843"
      },
      "geometry": {
        "type": "Polygon",
        "coordinates": [
          [
            [
              -47.0206847,
              -23.6923377
            ],
            [
              -47.0209851,
              -23.6926177
            ],
            [
              -47.0206579,
              -23.6929616
            ],
            [
              -47.0203119,
              -23.6927479
            ],
            [
              -47.0206847,
              -23.6923377
            ]
          ]
        ]
      }
    },
    {
      "type": "Feature",
      "id": "way/1040987476",
      "properties": {
        "timestamp": "2022-03-17T02:47:41Z",
        "version": 1,
        "changeset": 118572919,
        "addr:housenumber": "730",
        "addr:postcode": "06725-108",
        "addr:street": "Avenida Luiz Sacramento",
        "addr:suburb": "Centro",
        "amenity": "school",
        "email": "ceuc_caucaia@cotia.sp.gov.br",
        "name": "Centro Educacional Unificado Prefeito Carmelino Pires de Oliveira",
        "phone": "+55 11 4242 0007",
        "ref": "INEP-35470752",
        "religion": "none",
        "source": "CADMEC 2017;INEP",
        "id": "way/1040987476"
      },
      "geometry": {
        "type": "Polygon",
        "coordinates": [
          [
            [
              -47.0283307,
              -23.6907572
            ],
            [
              -47.028784,
              -23.6912853
            ],
            [
              -47.0278774,
              -23.6920639
            ],
            [
              -47.0276521,
              -23.6920467
            ],
            [
              -47.0275126,
              -23.6920147
            ],
            [
              -47.027121,
              -23.6917568
            ],
            [
              -47.0269789,
              -23.6916709
            ],
            [
              -47.0269064,
              -23.6914105
            ],
            [
              -47.0269976,
              -23.6912239
            ],
            [
              -47.028202,
              -23.6906491
            ],
            [
              -47.0283307,
              -23.6907572
            ]
          ]
        ]
      }
    },
    {
      "type": "Feature",
      "id": "way/1041273460",
      "properties": {
        "timestamp": "2022-03-17T21:46:13Z",
        "version": 1,
        "changeset": 118611977,
        "addr:housenumber": "211",
        "addr:postcode": "06716-170",
        "addr:street": "Rua Belém",
        "addr:suburb": "Jardim dos Ipes",
        "amenity": "school",
        "email": "emfranciscodepaulacarraro@cotia.sp.gov.br",
        "name": "Escola Municipal Francisco de Paula Carraro",
        "ref": "INEP-35099442",
        "religion": "none",
        "short_name": "EM Francisco de Paula Carraro",
        "source": "CADMEC 2017;INEP",
        "id": "way/1041273460"
      },
      "geometry": {
        "type": "Polygon",
        "coordinates": [
          [
            [
              -46.8943131,
              -23.6011444
            ],
            [
              -46.8943292,
              -23.6018498
            ],
            [
              -46.8936828,
              -23.6018375
            ],
            [
              -46.8936801,
              -23.6011174
            ],
            [
              -46.8943131,
              -23.6011444
            ]
          ]
        ]
      }
    },
    {
      "type": "Feature",
      "id": "way/1041568101",
      "properties": {
        "timestamp": "2022-03-19T01:21:46Z",
        "version": 1,
        "changeset": 118652231,
        "addr:housenumber": "572",
        "addr:postcode": "06717-235",
        "addr:street": "Rua Topázio",
        "addr:suburb": "Jardim Nomura",
        "amenity": "school",
        "email": "cevilasaofrancisco@cotia.sp.gov.br",
        "name": "Centro Educacional Jardim Nomura",
        "ref": "INEP-35438261",
        "religion": "none",
        "short_name": "CE Jardim Nomura",
        "source": "CADMEC 2017;INEP",
        "id": "way/1041568101"
      },
      "geometry": {
        "type": "Polygon",
        "coordinates": [
          [
            [
              -46.912861,
              -23.6054801
            ],
            [
              -46.9127537,
              -23.605603
            ],
            [
              -46.912625,
              -23.6054899
            ],
            [
              -46.9127242,
              -23.605372
            ],
            [
              -46.912861,
              -23.6054801
            ]
          ]
        ]
      }
    },
    {
      "type": "Feature",
      "id": "way/1042493663",
      "properties": {
        "timestamp": "2022-03-22T02:22:17Z",
        "version": 3,
        "changeset": 118758670,
        "addr:housenumber": "1",
        "addr:postcode": "06716-205",
        "addr:street": "Rua Itú",
        "addr:suburb": "Jardim Bairro Branco",
        "amenity": "school",
        "email": "emaguinaldosouzaestrela@cotia.sp.gov.br",
        "name": "Escola Municipal Aguinaldo Souza Estrela",
        "phone": "+55 11 4703 4374",
        "ref": "INEP-35067520",
        "religion": "none",
        "short_name": "EM Aguinaldo Souza Estrela",
        "source": "CADMEC 2017;INEP",
        "id": "way/1042493663"
      },
      "geometry": {
        "type": "Polygon",
        "coordinates": [
          [
            [
              -46.8965173,
              -23.6069752
            ],
            [
              -46.8969936,
              -23.6072318
            ],
            [
              -46.8969564,
              -23.6073051
            ],
            [
              -46.8969027,
              -23.6073803
            ],
            [
              -46.8967121,
              -23.6072907
            ],
            [
              -46.8964035,
              -23.6071463
            ],
            [
              -46.8965173,
              -23.6069752
            ]
          ]
        ]
      }
    },
    {
      "type": "Feature",
      "id": "way/1293502930",
      "properties": {
        "timestamp": "2024-09-14T15:09:22Z",
        "version": 7,
        "changeset": 156616833,
        "addr:city": "Cotia",
        "addr:street": "Rodovia Raposo Tavares",
        "amenity": "school",
        "building": "yes",
        "layer": "1",
        "name": "Colégio Rio Branco - Unidade Granja Viana",
        "religion": "none",
        "website": "https://www.crb.g12.br/",
        "id": "way/1293502930"
      },
      "geometry": {
        "type": "Polygon",
        "coordinates": [
          [
            [
              -46.8391441,
              -23.5949343
            ],
            [
              -46.8394033,
              -23.5951992
            ],
            [
              -46.8398094,
              -23.595885
            ],
            [
              -46.8404394,
              -23.596524
            ],
            [
              -46.8401664,
              -23.5967477
            ],
            [
              -46.8397796,
              -23.5970647
            ],
            [
              -46.839396,
              -23.5971581
            ],
            [
              -46.8393708,
              -23.5972804
            ],
            [
              -46.8393478,
              -23.5973916
            ],
            [
              -46.8390259,
              -23.5972442
            ],
            [
              -46.8389454,
              -23.597281
            ],
            [
              -46.8388274,
              -23.5972392
            ],
            [
              -46.8386289,
              -23.5973154
            ],
            [
              -46.8383902,
              -23.5975072
            ],
            [
              -46.8382427,
              -23.5976817
            ],
            [
              -46.8381569,
              -23.5977849
            ],
            [
              -46.8382534,
              -23.5979889
            ],
            [
              -46.8385511,
              -23.5981388
            ],
            [
              -46.838637,
              -23.5982863
            ],
            [
              -46.8385461,
              -23.5983551
            ],
            [
              -46.8381438,
              -23.5981118
            ],
            [
              -46.8380177,
              -23.5979373
            ],
            [
              -46.8378997,
              -23.5978636
            ],
            [
              -46.8376878,
              -23.5983674
            ],
            [
              -46.8374839,
              -23.5986624
            ],
            [
              -46.8373472,
              -23.5988885
            ],
            [
              -46.8372291,
              -23.5990679
            ],
            [
              -46.8371487,
              -23.5991466
            ],
            [
              -46.8369122,
              -23.5990493
            ],
            [
              -46.8365693,
              -23.5989082
            ],
            [
              -46.8367534,
              -23.5985351
            ],
            [
              -46.8374813,
              -23.5970598
            ],
            [
              -46.8377817,
              -23.5959622
            ],
            [
              -46.8375751,
              -23.5959966
            ],
            [
              -46.8377119,
              -23.5951732
            ],
            [
              -46.8375617,
              -23.594947
            ],
            [
              -46.8374652,
              -23.5946226
            ],
            [
              -46.8372291,
              -23.5940572
            ],
            [
              -46.8371487,
              -23.5936984
            ],
            [
              -46.837213,
              -23.5936394
            ],
            [
              -46.8374062,
              -23.5936885
            ],
            [
              -46.8375751,
              -23.5938655
            ],
            [
              -46.8377763,
              -23.5943374
            ],
            [
              -46.8378294,
              -23.5944123
            ],
            [
              -46.8379506,
              -23.5945832
            ],
            [
              -46.8381411,
              -23.5948143
            ],
            [
              -46.8385434,
              -23.5947922
            ],
            [
              -46.8385531,
              -23.5947033
            ],
            [
              -46.8385917,
              -23.5943497
            ],
            [
              -46.8390208,
              -23.5945845
            ],
            [
              -46.8390709,
              -23.5948466
            ],
            [
              -46.839146,
              -23.5949008
            ],
            [
              -46.8391441,
              -23.5949343
            ]
          ]
        ]
      }
    },
    {
      "type": "Feature",
      "id": "way/1293691095",
      "properties": {
        "timestamp": "2024-07-04T11:56:45Z",
        "version": 2,
        "changeset": 153543220,
        "addr:city": "Cotia",
        "addr:housenumber": "300",
        "addr:postcode": "06712100",
        "addr:street": "Rua Mesopotâmia",
        "addr:suburb": "Jardim Passárgada",
        "amenity": "school",
        "name": "SESI -  Cotia",
        "website": "https://cotia.sesisp.org.br/",
        "id": "way/1293691095"
      },
      "geometry": {
        "type": "Polygon",
        "coordinates": [
          [
            [
              -46.8474362,
              -23.6051285
            ],
            [
              -46.8481279,
              -23.6027906
            ],
            [
              -46.8482959,
              -23.6028392
            ],
            [
              -46.8484727,
              -23.602931
            ],
            [
              -46.8486879,
              -23.6030336
            ],
            [
              -46.8488706,
              -23.6032011
            ],
            [
              -46.8490092,
              -23.6033955
            ],
            [
              -46.8491212,
              -23.6036332
            ],
            [
              -46.8491611,
              -23.6037644
            ],
            [
              -46.8491595,
              -23.6039033
            ],
            [
              -46.849152,
              -23.6040945
            ],
            [
              -46.8491098,
              -23.6042949
            ],
            [
              -46.8490571,
              -23.6044434
            ],
            [
              -46.8489612,
              -23.6046212
            ],
            [
              -46.8488491,
              -23.6047638
            ],
            [
              -46.8486359,
              -23.6049291
            ],
            [
              -46.8484272,
              -23.6050729
            ],
            [
              -46.8481839,
              -23.6051411
            ],
            [
              -46.8478893,
              -23.6051715
            ],
            [
              -46.8474362,
              -23.6051285
            ]
          ]
        ]
      }
    },
    {
      "type": "Feature",
      "id": "way/1300108533",
      "properties": {
        "timestamp": "2024-07-08T21:11:08Z",
        "version": 1,
        "changeset": 153721408,
        "addr:street": "Rodovia Raposo Tavares",
        "amenity": "school",
        "name": "Escola Estadual Vinicus de Moraes",
        "operator": "Governo do Estado de São Paulo",
        "operator:type": "government",
        "operator:wikidata": "Q10290787",
        "id": "way/1300108533"
      },
      "geometry": {
        "type": "Polygon",
        "coordinates": [
          [
            [
              -46.8385591,
              -23.5943255
            ],
            [
              -46.8385531,
              -23.5947033
            ],
            [
              -46.8380553,
              -23.5946802
            ],
            [
              -46.8380049,
              -23.5946151
            ],
            [
              -46.8380003,
              -23.5944136
            ],
            [
              -46.8378294,
              -23.5944123
            ],
            [
              -46.8377965,
              -23.5943129
            ],
            [
              -46.8376774,
              -23.5940568
            ],
            [
              -46.8376041,
              -23.5938806
            ],
            [
              -46.8385591,
              -23.5943255
            ]
          ]
        ]
      }
    },
    {
      "type": "Feature",
      "id": "way/1300124859",
      "properties": {
        "timestamp": "2024-07-09T00:05:25Z",
        "version": 1,
        "changeset": 153724362,
        "addr:city": "Cotia",
        "addr:housenumber": "1",
        "addr:street": "Rua Comendador Viana",
        "addr:suburb": "Vila Santo Antônio",
        "amenity": "school",
        "name": "Escola Municipal João Jayme Juvenal Ricci Ayres",
        "operator": "Prefeitura de Cotia",
        "operator:type": "public",
        "id": "way/1300124859"
      },
      "geometry": {
        "type": "Polygon",
        "coordinates": [
          [
            [
              -46.8441919,
              -23.5944242
            ],
            [
              -46.8436186,
              -23.5945186
            ],
            [
              -46.8435832,
              -23.5945112
            ],
            [
              -46.8435767,
              -23.5944876
            ],
            [
              -46.8435751,
              -23.5944611
            ],
            [
              -46.8436009,
              -23.5944197
            ],
            [
              -46.8437426,
              -23.5942205
            ],
            [
              -46.84377,
              -23.5941999
            ],
            [
              -46.8438086,
              -23.5941807
            ],
            [
              -46.8438779,
              -23.5941689
            ],
            [
              -46.843923,
              -23.5941866
            ],
            [
              -46.8441726,
              -23.5943356
            ],
            [
              -46.8441919,
              -23.594346
            ],
            [
              -46.8441951,
              -23.5943622
            ],
            [
              -46.8441935,
              -23.5943873
            ],
            [
              -46.8441951,
              -23.5944094
            ],
            [
              -46.8441919,
              -23.5944242
            ]
          ]
        ]
      }
    },
    {
      "type": "Feature",
      "id": "way/1300124861",
      "properties": {
        "timestamp": "2024-07-09T00:05:25Z",
        "version": 1,
        "changeset": 153724362,
        "addr:street": "Rua Santo Antônio",
        "amenity": "school",
        "name": "Escola Maré Educação Infantil e Fundamental I",
        "id": "way/1300124861"
      },
      "geometry": {
        "type": "Polygon",
        "coordinates": [
          [
            [
              -46.8412595,
              -23.5939582
            ],
            [
              -46.8412625,
              -23.594523
            ],
            [
              -46.8412637,
              -23.5946648
            ],
            [
              -46.8410989,
              -23.5946006
            ],
            [
              -46.8410901,
              -23.5942568
            ],
            [
              -46.8410891,
              -23.5939741
            ],
            [
              -46.8412595,
              -23.5939582
            ]
          ]
        ]
      }
    },
    {
      "type": "Feature",
      "id": "way/1300124865",
      "properties": {
        "timestamp": "2024-07-09T00:05:25Z",
        "version": 1,
        "changeset": 153724362,
        "addr:housenumber": "81",
        "addr:street": "Rua José Felix de Oliveira",
        "amenity": "school",
        "name": "Colégio Objetivo Granja Viana",
        "id": "way/1300124865"
      },
      "geometry": {
        "type": "Polygon",
        "coordinates": [
          [
            [
              -46.8394194,
              -23.5932278
            ],
            [
              -46.8394483,
              -23.5931868
            ],
            [
              -46.8408558,
              -23.5931633
            ],
            [
              -46.840901,
              -23.5936588
            ],
            [
              -46.8405934,
              -23.5936735
            ],
            [
              -46.8400217,
              -23.5936027
            ],
            [
              -46.8397802,
              -23.5936234
            ],
            [
              -46.8395789,
              -23.5936145
            ],
            [
              -46.8394017,
              -23.5935968
            ],
            [
              -46.8394194,
              -23.5932278
            ]
          ]
        ]
      }
    },
    {
      "type": "Feature",
      "id": "way/1302089114",
      "properties": {
        "timestamp": "2024-07-18T10:39:53Z",
        "version": 2,
        "changeset": 154094681,
        "addr:city": "Cotia",
        "addr:housenumber": "420",
        "addr:postcode": "0678360",
        "addr:street": "Avenida Dona Cherubina Viana",
        "addr:suburb": "Vila Santo Antônio",
        "amenity": "school",
        "name": "Jardim dos Passarinhos - Escola Waldorf",
        "operator": "Waldorf",
        "operator:type": "private",
        "id": "way/1302089114"
      },
      "geometry": {
        "type": "Polygon",
        "coordinates": [
          [
            [
              -46.8427326,
              -23.5951809
            ],
            [
              -46.8427819,
              -23.5954975
            ],
            [
              -46.842244,
              -23.5955459
            ],
            [
              -46.8422082,
              -23.595353
            ],
            [
              -46.8421909,
              -23.5952182
            ],
            [
              -46.8422811,
              -23.5952152
            ],
            [
              -46.8424265,
              -23.595202
            ],
            [
              -46.8425431,
              -23.5951939
            ],
            [
              -46.8427326,
              -23.5951809
            ]
          ]
        ]
      }
    },
    {
      "type": "Feature",
      "id": "way/1304454621",
      "properties": {
        "timestamp": "2024-07-29T13:44:11Z",
        "version": 1,
        "changeset": 154563799,
        "addr:city": "Cotia",
        "addr:housenumber": "110",
        "addr:postcode": "06708280",
        "addr:street": "Rua Direita",
        "addr:suburb": "Vila Santo Antõnio",
        "amenity": "school",
        "name": "Fadelito Granja Viana | Berçário e Escola de Educação Infantil",
        "id": "way/1304454621"
      },
      "geometry": {
        "type": "Polygon",
        "coordinates": [
          [
            [
              -46.8456357,
              -23.5972486
            ],
            [
              -46.8456769,
              -23.5974895
            ],
            [
              -46.8452502,
              -23.5975509
            ],
            [
              -46.8452089,
              -23.5973101
            ],
            [
              -46.8456357,
              -23.5972486
            ]
          ]
        ]
      }
    },
    {
      "type": "Feature",
      "id": "way/1327114790",
      "properties": {
        "timestamp": "2024-10-21T22:20:49Z",
        "version": 1,
        "changeset": 158189603,
        "addr:city": "Cotia",
        "addr:housenumber": "351",
        "addr:postcode": "06724100",
        "addr:street": "Estrada do Caputera",
        "addr:suburb": "Ressaca",
        "amenity": "school",
        "capacity": "360",
        "grades": "1-5",
        "mobile": "11916212144",
        "name": "EM Elydia Scopel Cremonezzi",
        "opening_hours": "We-Fr 08:00-12:00, 13:00-17:00; Mo 07:00-17:40",
        "operator": "Prefeitura",
        "operator:type": "government",
        "id": "way/1327114790"
      },
      "geometry": {
        "type": "Polygon",
        "coordinates": [
          [
            [
              -46.8966352,
              -23.680806
            ],
            [
              -46.8965387,
              -23.6811256
            ],
            [
              -46.8961422,
              -23.6810211
            ],
            [
              -46.8962364,
              -23.680898
            ],
            [
              -46.8963183,
              -23.6807911
            ],
            [
              -46.8966254,
              -23.6807869
            ],
            [
              -46.8966352,
              -23.680806
            ]
          ]
        ]
      }
    },
    {
      "type": "Feature",
      "id": "node/9896408119",
      "properties": {
        "timestamp": "2023-10-21T13:44:53Z",
        "version": 2,
        "changeset": 142925394,
        "addr:postcode": "06709015",
        "addr:street": "Rodovia Raposo Tavares",
        "amenity": "school",
        "name": "Colégio Rio Branco",
        "name:en": "Rio Branco School",
        "website": "https://crb.g12.br",
        "id": "node/9896408119"
      },
      "geometry": {
        "type": "Point",
        "coordinates": [
          -46.8395406,
          -23.5950754
        ]
      }
    },
    {
      "type": "Feature",
      "id": "node/12256205101",
      "properties": {
        "timestamp": "2024-10-16T23:55:08Z",
        "version": 2,
        "changeset": 157986953,
        "amenity": "school",
        "name": "E.M MIKIO UMEDA VEREADOR - NEI RESSACA",
        "id": "node/12256205101"
      },
      "geometry": {
        "type": "Point",
        "coordinates": [
          -46.8964095,
          -23.6807403
        ]
      }
    },
    {
      "type": "Feature",
      "id": "node/12277488031",
      "properties": {
        "timestamp": "2024-10-21T22:20:49Z",
        "version": 1,
        "changeset": 158189603,
        "addr:city": "Cotia",
        "addr:housenumber": "351",
        "addr:postcode": "06724100",
        "addr:street": "Estrada do Caputera",
        "id": "node/12277488031"
      },
      "geometry": {
        "type": "Point",
        "coordinates": [
          -46.8962364,
          -23.680898
        ]
      }
    }
  ]
}
