{
  "type": "FeatureCollection",
  "features": [
    {
      "type": "Feature",
      "id": "node/6011030668",
      "properties": {
        "timestamp": "2023-04-26T08:47:30Z",
        "version": 2,
        "changeset": 135374911,
        "addr:housenumber": "1017",
        "addr:postcode": "98270-000",
        "addr:street": "Luigi Basso",
        "addr:suburb": "Centro",
        "amenity": "hospital",
        "email": "cbsrb@comnet.com.br",
        "fax": "+55 55 3377 1212",
        "healthcare": "hospital",
        "name": "Hospital Pejucara",
        "official_name": "Associacao Hospitalar Rio Branco De Pejucara",
        "ref:CNES": "2261138",
        "ref:vatin": "BR89129217000100",
        "id": "node/6011030668"
      },
      "geometry": {
        "type": "Point",
        "coordinates": [
          -53.6559715,
          -28.4250685
        ]
      }
    },
    {
      "type": "Feature",
      "id": "node/6878146028",
      "properties": {
        "timestamp": "2023-07-21T05:03:34Z",
        "version": 3,
        "changeset": 138793352,
        "addr:city": "Pejuçara",
        "addr:housenumber": "1293",
        "addr:postcode": "98270-000",
        "addr:street": "Rua Antônio Alves Ramos",
        "addr:suburb": "centro",
        "amenity": "hospital",
        "emergency": "no",
        "healthcare": "hospital",
        "name": "Laboratório São José - Análises Clínicas",
        "operator": "Laboratório",
        "operator:type": "private",
        "ref:CNES": "2260352",
        "ref:vatin": "BR01944136000112",
        "id": "node/6878146028"
      },
      "geometry": {
        "type": "Point",
        "coordinates": [
          -53.6563138,
          -28.422971
        ]
      }
    }
  ]
}
