{
  "type": "FeatureCollection",
  "features": [
    {
      "type": "Feature",
      "id": "node/4794306225",
      "properties": {
        "timestamp": "2018-04-02T15:36:24Z",
        "version": 2,
        "changeset": 57743114,
        "name": "CASA EDIONARIO",
        "name:en": "EDIONARIO HOME",
        "name:pt": "EDIONARIO HOME",
        "tourism": "guest_house",
        "id": "node/4794306225"
      },
      "geometry": {
        "type": "Point",
        "coordinates": [
          -40.5412933,
          -9.3568112
        ]
      }
    },
    {
      "type": "Feature",
      "id": "node/5357121734",
      "properties": {
        "timestamp": "2022-11-25T22:52:39Z",
        "version": 5,
        "changeset": 129384954,
        "addr:city": "Petrolina",
        "addr:housenumber": "75",
        "addr:postcode": "56308-015",
        "addr:street": "Rua Francisco Bosco",
        "fixme": "87 3861-7464",
        "name": "Hotel Orla Guest House",
        "name:en": "Orla Guest House Hotel",
        "tourism": "guest_house",
        "id": "node/5357121734"
      },
      "geometry": {
        "type": "Point",
        "coordinates": [
          -40.5052291,
          -9.4011221
        ]
      }
    }
  ]
}
