{
  "type": "FeatureCollection",
  "features": [
    {
      "type": "Feature",
      "id": "way/733222002",
      "properties": {
        "timestamp": "2022-02-22T17:50:28Z",
        "version": 2,
        "changeset": 117738199,
        "amenity": "school",
        "name": "Escola Estadual De Anajanopolis",
        "id": "way/733222002"
      },
      "geometry": {
        "type": "Polygon",
        "coordinates": [
          [
            [
              -47.9298572,
              -9.3072721
            ],
            [
              -47.9300621,
              -9.3070546
            ],
            [
              -47.9304719,
              -9.3074306
            ],
            [
              -47.930267,
              -9.3076481
            ],
            [
              -47.9298572,
              -9.3072721
            ]
          ]
        ]
      }
    },
    {
      "type": "Feature",
      "id": "way/1037852111",
      "properties": {
        "timestamp": "2022-03-07T01:03:36Z",
        "version": 1,
        "changeset": 118178897,
        "addr:city": "Pedro Afonso",
        "addr:housenumber": "300",
        "addr:postcode": "77710-000",
        "addr:street": "Rua Constâncio Gomes",
        "addr:suburb": "Centro",
        "amenity": "school",
        "name": "Colegio Cristo Rei",
        "phone": "+55 63 3466 1379",
        "id": "way/1037852111"
      },
      "geometry": {
        "type": "Polygon",
        "coordinates": [
          [
            [
              -48.1763462,
              -8.9670977
            ],
            [
              -48.1764042,
              -8.9678283
            ],
            [
              -48.1758384,
              -8.9680357
            ],
            [
              -48.1751947,
              -8.9677809
            ],
            [
              -48.1751607,
              -8.9672023
            ],
            [
              -48.1763462,
              -8.9670977
            ]
          ]
        ]
      }
    },
    {
      "type": "Feature",
      "id": "way/1037853063",
      "properties": {
        "timestamp": "2022-03-07T01:08:50Z",
        "version": 1,
        "changeset": 118178962,
        "addr:city": "Pedro Afonso",
        "addr:housenumber": "375",
        "addr:postcode": "77710-000",
        "addr:street": "Rua Constâncio Gomes",
        "addr:suburb": "Centro",
        "amenity": "school",
        "name": "Escola Municipal Jandevam",
        "phone": "+55 63 3466 2299",
        "id": "way/1037853063"
      },
      "geometry": {
        "type": "Polygon",
        "coordinates": [
          [
            [
              -48.1758692,
              -8.9686134
            ],
            [
              -48.1758955,
              -8.968983
            ],
            [
              -48.1753121,
              -8.969068
            ],
            [
              -48.1752894,
              -8.9686878
            ],
            [
              -48.1758692,
              -8.9686134
            ]
          ]
        ]
      }
    },
    {
      "type": "Feature",
      "id": "way/1037853064",
      "properties": {
        "timestamp": "2022-03-07T01:08:50Z",
        "version": 1,
        "changeset": 118178962,
        "addr:city": "Pedro Afonso",
        "addr:housenumber": "1101",
        "addr:postcode": "77710-000",
        "addr:street": "Rua Constâncio Gomes",
        "addr:suburb": "Centro",
        "amenity": "school",
        "name": "Escola Estadual Ana Amorim",
        "phone": "+55 63 3466 1895",
        "id": "way/1037853064"
      },
      "geometry": {
        "type": "Polygon",
        "coordinates": [
          [
            [
              -48.1762798,
              -8.9750676
            ],
            [
              -48.1763067,
              -8.9755989
            ],
            [
              -48.1758225,
              -8.9756228
            ],
            [
              -48.1760141,
              -8.9750807
            ],
            [
              -48.1762798,
              -8.9750676
            ]
          ]
        ]
      }
    },
    {
      "type": "Feature",
      "id": "way/1037853881",
      "properties": {
        "timestamp": "2022-03-07T01:20:15Z",
        "version": 1,
        "changeset": 118179064,
        "addr:city": "Pedro Afonso",
        "addr:postcode": "77710-000",
        "addr:street": "Avenida João Damaceno de Sá",
        "addr:suburb": "Centro",
        "amenity": "school",
        "name": "Escola Especial Santuario Da Vida",
        "phone": "+55 63 3466 2326",
        "id": "way/1037853881"
      },
      "geometry": {
        "type": "Polygon",
        "coordinates": [
          [
            [
              -48.1742745,
              -8.9748513
            ],
            [
              -48.1743048,
              -8.9753593
            ],
            [
              -48.1737007,
              -8.9753945
            ],
            [
              -48.1736704,
              -8.9748864
            ],
            [
              -48.1742745,
              -8.9748513
            ]
          ]
        ]
      }
    },
    {
      "type": "Feature",
      "id": "way/1037853882",
      "properties": {
        "timestamp": "2022-03-07T01:20:15Z",
        "version": 1,
        "changeset": 118179064,
        "addr:city": "Pedro Afonso",
        "addr:postcode": "77710-000",
        "addr:street": "Rua Salatiel Francisco Sales",
        "addr:suburb": "Centro",
        "amenity": "school",
        "name": "CEMEI - Mãe Helena",
        "phone": "+55 63 3466 1565",
        "id": "way/1037853882"
      },
      "geometry": {
        "type": "Polygon",
        "coordinates": [
          [
            [
              -48.1720637,
              -8.9763208
            ],
            [
              -48.1720738,
              -8.9765428
            ],
            [
              -48.1717711,
              -8.9765563
            ],
            [
              -48.1717609,
              -8.9763343
            ],
            [
              -48.1720637,
              -8.9763208
            ]
          ]
        ]
      }
    },
    {
      "type": "Feature",
      "id": "way/1037853883",
      "properties": {
        "timestamp": "2022-03-07T01:20:15Z",
        "version": 1,
        "changeset": 118179064,
        "addr:city": "Pedro Afonso",
        "addr:postcode": "77710-000",
        "addr:street": "Rua Souza Aguiar",
        "addr:suburb": "Jardim Bela Vista",
        "amenity": "school",
        "name": "Escola Municipal Sousa Aguiar",
        "phone": "+55 63 3466 1618",
        "id": "way/1037853883"
      },
      "geometry": {
        "type": "Polygon",
        "coordinates": [
          [
            [
              -48.1704318,
              -8.9822336
            ],
            [
              -48.1702319,
              -8.982982
            ],
            [
              -48.1693642,
              -8.9827155
            ],
            [
              -48.1695621,
              -8.9819986
            ],
            [
              -48.1704318,
              -8.9822336
            ]
          ]
        ]
      }
    },
    {
      "type": "Feature",
      "id": "way/1037855660",
      "properties": {
        "timestamp": "2022-03-07T01:49:02Z",
        "version": 1,
        "changeset": 118179327,
        "addr:city": "Pedro Afonso",
        "addr:housenumber": "240",
        "addr:postcode": "77710-000",
        "addr:street": "Rua Sete",
        "addr:suburb": "Setor Bela Vista II",
        "amenity": "school",
        "name": "Coed - Cooperativa De Educadores De Pedro Afonso",
        "phone": "+55 63 3466 2263",
        "id": "way/1037855660"
      },
      "geometry": {
        "type": "Polygon",
        "coordinates": [
          [
            [
              -48.1667649,
              -8.984544
            ],
            [
              -48.1665761,
              -8.9849527
            ],
            [
              -48.1663315,
              -8.9848212
            ],
            [
              -48.1665358,
              -8.9844247
            ],
            [
              -48.1667649,
              -8.984544
            ]
          ]
        ]
      }
    },
    {
      "type": "Feature",
      "id": "way/1037855662",
      "properties": {
        "timestamp": "2022-03-07T01:49:02Z",
        "version": 1,
        "changeset": 118179327,
        "amenity": "school",
        "name": "Escola Municipal Jose Combas Alameda",
        "id": "way/1037855662"
      },
      "geometry": {
        "type": "Polygon",
        "coordinates": [
          [
            [
              -48.1590117,
              -8.9914114
            ],
            [
              -48.1587907,
              -8.9919024
            ],
            [
              -48.1581435,
              -8.9916023
            ],
            [
              -48.1583489,
              -8.9910977
            ],
            [
              -48.1590117,
              -8.9914114
            ]
          ]
        ]
      }
    },
    {
      "type": "Feature",
      "id": "way/1038265335",
      "properties": {
        "timestamp": "2022-03-08T14:03:36Z",
        "version": 1,
        "changeset": 118238170,
        "amenity": "school",
        "name": "Esc Mul Boa Esperança",
        "id": "way/1038265335"
      },
      "geometry": {
        "type": "Polygon",
        "coordinates": [
          [
            [
              -48.2089616,
              -9.308865
            ],
            [
              -48.2094714,
              -9.3086564
            ],
            [
              -48.2096273,
              -9.3090275
            ],
            [
              -48.2091175,
              -9.3092361
            ],
            [
              -48.2089616,
              -9.308865
            ]
          ]
        ]
      }
    },
    {
      "type": "Feature",
      "id": "node/9527919030",
      "properties": {
        "timestamp": "2022-02-22T17:50:11Z",
        "version": 1,
        "changeset": 117738188,
        "amenity": "school",
        "name": "Escola Estadual Bom Tempo",
        "id": "node/9527919030"
      },
      "geometry": {
        "type": "Point",
        "coordinates": [
          -48.0209787,
          -9.1713254
        ]
      }
    },
    {
      "type": "Feature",
      "id": "node/9559428137",
      "properties": {
        "timestamp": "2022-03-07T01:20:56Z",
        "version": 1,
        "changeset": 118179074,
        "addr:city": "Pedro Afonso",
        "addr:housenumber": "1301",
        "addr:postcode": "77710-000",
        "addr:street": "Rua Souza Aguiar",
        "addr:suburb": "Jardim Bela Vista",
        "amenity": "school",
        "name": "Esfotec",
        "phone": "+55 63 3466 1777",
        "id": "node/9559428137"
      },
      "geometry": {
        "type": "Point",
        "coordinates": [
          -48.1691736,
          -8.9826467
        ]
      }
    }
  ]
}
