{
  "type": "FeatureCollection",
  "features": [
    {
      "type": "Feature",
      "id": "way/1037855661",
      "properties": {
        "timestamp": "2022-03-07T01:49:02Z",
        "version": 1,
        "changeset": 118179327,
        "addr:city": "Pedro Afonso",
        "addr:housenumber": "1441",
        "addr:postcode": "77710-000",
        "addr:street": "Rua Cear√°",
        "addr:suburb": "Setor Zacarias Campelo",
        "amenity": "university",
        "name": "IFTO - Campus Avancado Pedro Afonso",
        "id": "way/1037855661"
      },
      "geometry": {
        "type": "Polygon",
        "coordinates": [
          [
            [
              -48.162029,
              -8.986155
            ],
            [
              -48.1626254,
              -8.9870655
            ],
            [
              -48.1617811,
              -8.9880409
            ],
            [
              -48.1605302,
              -8.9886874
            ],
            [
              -48.1597324,
              -8.9878191
            ],
            [
              -48.162029,
              -8.986155
            ]
          ]
        ]
      }
    }
  ]
}
