{
  "type": "FeatureCollection",
  "features": [
    {
      "type": "Feature",
      "id": "node/4213945499",
      "properties": {
        "timestamp": "2022-10-21T23:40:46Z",
        "version": 2,
        "changeset": 127905469,
        "addr:city": "Peçanha",
        "addr:housenumber": "102",
        "addr:postcode": "39700-000",
        "addr:street": "Rua Doutor Alfredo Marinho Falcão",
        "addr:suburb": "Centro",
        "government": "administrative",
        "name": "Secretaria Municipal de Agricultura e Meio Ambiente",
        "office": "government",
        "operator": "Município de Peçanha",
        "id": "node/4213945499"
      },
      "geometry": {
        "type": "Point",
        "coordinates": [
          -42.5571394,
          -18.5498631
        ]
      }
    },
    {
      "type": "Feature",
      "id": "node/10119964091",
      "properties": {
        "timestamp": "2022-10-21T23:40:46Z",
        "version": 1,
        "changeset": 127905469,
        "email": "pecanha@emater.mg.gov.br",
        "government": "administrative",
        "name": "Escritório local da Emater",
        "office": "government",
        "phone": "+55 33 3411 2217",
        "id": "node/10119964091"
      },
      "geometry": {
        "type": "Point",
        "coordinates": [
          -42.5572234,
          -18.5498942
        ]
      }
    },
    {
      "type": "Feature",
      "id": "node/10119964092",
      "properties": {
        "timestamp": "2022-10-21T23:40:46Z",
        "version": 1,
        "changeset": 127905469,
        "addr:city": "Peçanha",
        "addr:postcode": "39700-000",
        "addr:street": "Rua Doutor Alfredo Marinho Falcão",
        "addr:suburb": "Centro",
        "office": "government",
        "phone": "+55 33 3411 1417",
        "id": "node/10119964092"
      },
      "geometry": {
        "type": "Point",
        "coordinates": [
          -42.5573048,
          -18.5499252
        ]
      }
    },
    {
      "type": "Feature",
      "id": "node/10123468645",
      "properties": {
        "timestamp": "2022-10-23T18:27:14Z",
        "version": 2,
        "changeset": 127969289,
        "addr:city": "Peçanha",
        "addr:housenumber": "47",
        "addr:postcode": "39700-000",
        "addr:street": "Avenida dos Bragas",
        "addr:suburb": "Centro",
        "email": "aps11024090@inss.gov.br",
        "government": "social_services",
        "name": "Agência da Previdência Social em Peçanha",
        "office": "government",
        "id": "node/10123468645"
      },
      "geometry": {
        "type": "Point",
        "coordinates": [
          -42.5604653,
          -18.5479747
        ]
      }
    },
    {
      "type": "Feature",
      "id": "node/10124721620",
      "properties": {
        "timestamp": "2022-10-23T18:27:14Z",
        "version": 1,
        "changeset": 127969289,
        "addr:city": "Peçanha",
        "addr:housenumber": "72",
        "addr:postcode": "39700-000",
        "addr:street": "Praça Getúlio Vargas",
        "addr:suburb": "Centro",
        "government": "register_office",
        "name": "Cartório de Registro de Pessoas Naturais de Peçanha",
        "office": "government",
        "id": "node/10124721620"
      },
      "geometry": {
        "type": "Point",
        "coordinates": [
          -42.5580271,
          -18.5488864
        ]
      }
    },
    {
      "type": "Feature",
      "id": "node/10126094149",
      "properties": {
        "timestamp": "2022-10-24T13:17:04Z",
        "version": 1,
        "changeset": 127997020,
        "addr:city": "Peçanha",
        "addr:housenumber": "234",
        "addr:postcode": "39700-000",
        "addr:street": "Praça Simão Carlos Pereira",
        "addr:suburb": "Centro",
        "government": "prosecutor",
        "name": "Ministério Público da Comarca de Peçanha",
        "office": "government",
        "phone": "+55 33 3411 1307",
        "id": "node/10126094149"
      },
      "geometry": {
        "type": "Point",
        "coordinates": [
          -42.5598571,
          -18.5465916
        ]
      }
    }
  ]
}
