{
  "type": "FeatureCollection",
  "features": [
    {
      "type": "Feature",
      "id": "node/4213944982",
      "properties": {
        "timestamp": "2022-10-23T10:41:16Z",
        "version": 2,
        "changeset": 127951874,
        "addr:city": "Peçanha",
        "addr:housenumber": "220",
        "addr:postcode": "39700-000",
        "addr:street": "Rua Ari Medeiros Braga",
        "addr:suburb": "Alvorada",
        "amenity": "school",
        "name": "Escola Estadual Abelardo da Cunha",
        "id": "node/4213944982"
      },
      "geometry": {
        "type": "Point",
        "coordinates": [
          -42.5603681,
          -18.5527163
        ]
      }
    },
    {
      "type": "Feature",
      "id": "node/4213944983",
      "properties": {
        "timestamp": "2022-10-23T23:13:07Z",
        "version": 3,
        "changeset": 127975839,
        "addr:city": "Peçanha",
        "addr:housenumber": "356",
        "addr:postcode": "39700-000",
        "addr:street": "Avenida Cantagalo",
        "addr:suburb": "Bomba",
        "amenity": "school",
        "name": "Escola Estadual Doutor Antônio da Cunha Pereira",
        "operator": "Governo do Estado de Minas",
        "operator:type": "public",
        "id": "node/4213944983"
      },
      "geometry": {
        "type": "Point",
        "coordinates": [
          -42.5630695,
          -18.543829
        ]
      }
    },
    {
      "type": "Feature",
      "id": "node/4213944984",
      "properties": {
        "timestamp": "2022-10-27T10:33:11Z",
        "version": 3,
        "changeset": 128122534,
        "addr:city": "Peçanha",
        "addr:housenumber": "151",
        "addr:postcode": "39700-000",
        "addr:street": "Avenida Nossa Senhora de Fátima",
        "addr:suburb": "Bomba",
        "amenity": "school",
        "name": "Escola Estadual Sady da Cunha",
        "operator": "Governo de Minas Gerais",
        "operator:type": "public",
        "id": "node/4213944984"
      },
      "geometry": {
        "type": "Point",
        "coordinates": [
          -42.5660613,
          -18.5396649
        ]
      }
    },
    {
      "type": "Feature",
      "id": "node/10119964101",
      "properties": {
        "timestamp": "2022-10-21T23:40:46Z",
        "version": 1,
        "changeset": 127905469,
        "addr:city": "Peçanha",
        "addr:housenumber": "161",
        "addr:postcode": "39700-000",
        "addr:street": "Avenida dos Bragas",
        "addr:suburb": "Centro",
        "amenity": "school",
        "name": "Escola Estadual Senador Simão da Cunha",
        "operator": "Governo de Minas Gerais",
        "operator:type": "public",
        "id": "node/10119964101"
      },
      "geometry": {
        "type": "Point",
        "coordinates": [
          -42.5593611,
          -18.548128
        ]
      }
    },
    {
      "type": "Feature",
      "id": "node/10120579971",
      "properties": {
        "timestamp": "2022-10-23T18:27:14Z",
        "version": 2,
        "changeset": 127969289,
        "addr:city": "Peçanha",
        "addr:housenumber": "280",
        "addr:postcode": "39700-000",
        "addr:street": "Praça Getúlio Vargas",
        "addr:suburb": "Centro",
        "amenity": "school",
        "name": "Instituto Educacional Bravieira",
        "operator": "Instituto Educacional Bravieira Limitada",
        "operator:type": "private",
        "id": "node/10120579971"
      },
      "geometry": {
        "type": "Point",
        "coordinates": [
          -42.5574456,
          -18.5482227
        ]
      }
    },
    {
      "type": "Feature",
      "id": "node/10123498567",
      "properties": {
        "timestamp": "2022-10-23T10:41:16Z",
        "version": 1,
        "changeset": 127951874,
        "addr:city": "Peçanha",
        "addr:postcode": "39700-000",
        "addr:suburb": "São Geraldo",
        "amenity": "school",
        "name": "Escola Municipal Doutor Odilon Behrens",
        "operator": "Município de Peçanha",
        "operator:type": "public",
        "id": "node/10123498567"
      },
      "geometry": {
        "type": "Point",
        "coordinates": [
          -42.5405382,
          -18.4637164
        ]
      }
    },
    {
      "type": "Feature",
      "id": "node/10124673641",
      "properties": {
        "timestamp": "2022-10-23T18:08:17Z",
        "version": 1,
        "changeset": 127968662,
        "addr:city": "Peçanha",
        "addr:housenumber": "25",
        "addr:postcode": "39700-000",
        "addr:street": "Rua José Bené",
        "addr:suburb": "Alvorada",
        "amenity": "school",
        "name": "Centro Educacional Maria Tereza Queiroz - Apae",
        "id": "node/10124673641"
      },
      "geometry": {
        "type": "Point",
        "coordinates": [
          -42.5593544,
          -18.55343
        ]
      }
    },
    {
      "type": "Feature",
      "id": "node/10125152058",
      "properties": {
        "timestamp": "2022-10-23T23:13:07Z",
        "version": 1,
        "changeset": 127975839,
        "addr:city": "Peçanha",
        "addr:housenumber": "32",
        "addr:postcode": "39",
        "addr:street": "Rua Ivan Polidoro",
        "addr:suburb": "Sagrado Coração de Jesus",
        "amenity": "school",
        "name": "Escola Municipal Thayanne Helenita Eleto",
        "operator": "Município de Peçanha",
        "operator:type": "public",
        "id": "node/10125152058"
      },
      "geometry": {
        "type": "Point",
        "coordinates": [
          -42.5668114,
          -18.5313036
        ]
      }
    },
    {
      "type": "Feature",
      "id": "node/10128190258",
      "properties": {
        "timestamp": "2022-10-25T13:48:36Z",
        "version": 1,
        "changeset": 128041358,
        "addr:city": "Peçanha",
        "addr:postcode": "39700-000",
        "addr:suburb": "Pedrosos",
        "amenity": "school",
        "name": "Escola Municipal Maria da Conceição França Faula",
        "operator": "Município de Peçanha",
        "operator:type": "public",
        "id": "node/10128190258"
      },
      "geometry": {
        "type": "Point",
        "coordinates": [
          -42.4620919,
          -18.6128938
        ]
      }
    },
    {
      "type": "Feature",
      "id": "node/10128706621",
      "properties": {
        "timestamp": "2022-10-25T18:26:15Z",
        "version": 1,
        "changeset": 128051935,
        "addr:city": "Peçanha",
        "addr:postcode": "39700-000",
        "addr:suburb": "Tronqueiras de Peçanha",
        "amenity": "school",
        "name": "Escola Municipal de Bom Jardim de Tronqueiras",
        "id": "node/10128706621"
      },
      "geometry": {
        "type": "Point",
        "coordinates": [
          -42.5936236,
          -18.689928
        ]
      }
    },
    {
      "type": "Feature",
      "id": "node/10134139557",
      "properties": {
        "timestamp": "2022-10-27T23:33:34Z",
        "version": 1,
        "changeset": 128149919,
        "addr:city": "Peçanha",
        "addr:postcode": "39700-000",
        "addr:suburb": "Córrego dos Alves",
        "amenity": "school",
        "name": "Escola Municipal Córrego dos Alves",
        "id": "node/10134139557"
      },
      "geometry": {
        "type": "Point",
        "coordinates": [
          -42.5030119,
          -18.7162099
        ]
      }
    },
    {
      "type": "Feature",
      "id": "node/10136023923",
      "properties": {
        "timestamp": "2022-10-28T18:36:11Z",
        "version": 1,
        "changeset": 128186941,
        "addr:city": "Peçanha",
        "addr:postcode": "39700-000",
        "addr:suburb": "São José",
        "amenity": "school",
        "name": "Escola Municipal São José",
        "id": "node/10136023923"
      },
      "geometry": {
        "type": "Point",
        "coordinates": [
          -42.4414542,
          -18.4763879
        ]
      }
    },
    {
      "type": "Feature",
      "id": "node/10136023924",
      "properties": {
        "timestamp": "2022-10-28T18:36:11Z",
        "version": 1,
        "changeset": 128186941,
        "addr:city": "Peçanha",
        "addr:postcode": "39700-000",
        "addr:suburb": "Sem Barra",
        "amenity": "school",
        "name": "Escola Municipal Sem Barra",
        "id": "node/10136023924"
      },
      "geometry": {
        "type": "Point",
        "coordinates": [
          -42.4411992,
          -18.4455107
        ]
      }
    },
    {
      "type": "Feature",
      "id": "node/10136054984",
      "properties": {
        "timestamp": "2022-10-28T18:36:11Z",
        "version": 1,
        "changeset": 128186941,
        "addr:city": "Peçanha",
        "addr:postcode": "39700-000",
        "addr:street": "Rua Pedro Aiala",
        "addr:suburb": "Santa Teresa do Bonito",
        "amenity": "school",
        "name": "Escola Municipal de Bonitinho",
        "id": "node/10136054984"
      },
      "geometry": {
        "type": "Point",
        "coordinates": [
          -42.4789837,
          -18.3863258
        ]
      }
    },
    {
      "type": "Feature",
      "id": "node/10137795621",
      "properties": {
        "timestamp": "2022-10-29T13:55:37Z",
        "version": 1,
        "changeset": 128212505,
        "addr:city": "Peçanha",
        "addr:postcode": "39700-000",
        "addr:suburb": "Córrego do Paiol",
        "amenity": "school",
        "name": "Escola Municipal de Paiol",
        "id": "node/10137795621"
      },
      "geometry": {
        "type": "Point",
        "coordinates": [
          -42.5219688,
          -18.4926391
        ]
      }
    },
    {
      "type": "Feature",
      "id": "node/10152478243",
      "properties": {
        "timestamp": "2022-11-02T20:30:49Z",
        "version": 1,
        "changeset": 128409546,
        "addr:city": "Peçanha",
        "amenity": "school",
        "name": "Escola Municipal dos Costas",
        "id": "node/10152478243"
      },
      "geometry": {
        "type": "Point",
        "coordinates": [
          -42.5375644,
          -18.5961305
        ]
      }
    },
    {
      "type": "Feature",
      "id": "node/10159484437",
      "properties": {
        "timestamp": "2022-11-05T14:30:34Z",
        "version": 1,
        "changeset": 128523131,
        "amenity": "school",
        "name": "Escola Municipal Maria de Borrachudos",
        "id": "node/10159484437"
      },
      "geometry": {
        "type": "Point",
        "coordinates": [
          -42.4509412,
          -18.7274292
        ]
      }
    }
  ]
}
