{
  "type": "FeatureCollection",
  "features": [
    {
      "type": "Feature",
      "id": "way/546903631",
      "properties": {
        "timestamp": "2021-08-07T21:28:24Z",
        "version": 3,
        "changeset": 109326315,
        "addr:city": "Ribas do Rio Pardo",
        "addr:housenumber": "111",
        "addr:postcode": "79180-000",
        "addr:street": "Travessa Horácio Lemos",
        "addr:suburb": "Centro",
        "building": "yes",
        "email": "cartorioderibas@gmail.com",
        "fax": "55 67 3238-1611",
        "government": "register_office",
        "name": "1° Cartório de Registro Público e de Protesto de Títulos Cambiais",
        "office": "government",
        "opening_hours": "Mo-Fr 08:00-17:00",
        "phone": "+55 67 3238 1100",
        "wheelchair": "yes",
        "id": "way/546903631"
      },
      "geometry": {
        "type": "Polygon",
        "coordinates": [
          [
            [
              -53.7562978,
              -20.4445944
            ],
            [
              -53.7563177,
              -20.4447282
            ],
            [
              -53.7559181,
              -20.4447805
            ],
            [
              -53.7558982,
              -20.4446466
            ],
            [
              -53.7562978,
              -20.4445944
            ]
          ]
        ]
      }
    },
    {
      "type": "Feature",
      "id": "way/547091035",
      "properties": {
        "timestamp": "2017-12-15T17:13:33Z",
        "version": 1,
        "changeset": 54659495,
        "addr:city": "Ribas do Rio Pardo",
        "addr:housenumber": "1637",
        "addr:postcode": "79180-000",
        "addr:street": "Rua Rachid Abes",
        "addr:suburb": "Jardim Vista Alegre",
        "building": "yes",
        "government": "administrative",
        "name": "DETRAN-Departamento Estadual de Trânsito do Estado de MS",
        "office": "government",
        "opening_hours": "Mo-Fr 07:30-13:30",
        "phone": "+55 (67) 3238-1404",
        "id": "way/547091035"
      },
      "geometry": {
        "type": "Polygon",
        "coordinates": [
          [
            [
              -53.7635944,
              -20.4545116
            ],
            [
              -53.7636241,
              -20.4547764
            ],
            [
              -53.7629631,
              -20.454849
            ],
            [
              -53.7629312,
              -20.45458
            ],
            [
              -53.7635944,
              -20.4545116
            ]
          ]
        ]
      }
    },
    {
      "type": "Feature",
      "id": "way/547103278",
      "properties": {
        "timestamp": "2017-12-15T18:02:45Z",
        "version": 1,
        "changeset": 54660719,
        "addr:city": "Ribas do Rio Pardo",
        "addr:housenumber": "64",
        "addr:postcode": "79180000",
        "addr:street": "Rua Marciana Costa Lemos",
        "addr:suburb": "Nossa Senhora da Conceição II",
        "building": "yes",
        "government": "legislative",
        "name": "Câmara Municipal",
        "office": "government",
        "phone": "+55 (67) 3238-1470/3238-1560",
        "id": "way/547103278"
      },
      "geometry": {
        "type": "Polygon",
        "coordinates": [
          [
            [
              -53.7613539,
              -20.4481236
            ],
            [
              -53.7614564,
              -20.4482391
            ],
            [
              -53.7611535,
              -20.4484477
            ],
            [
              -53.761014,
              -20.4482905
            ],
            [
              -53.7612025,
              -20.4481598
            ],
            [
              -53.7612381,
              -20.4482015
            ],
            [
              -53.7613539,
              -20.4481236
            ]
          ]
        ]
      }
    },
    {
      "type": "Feature",
      "id": "way/547103601",
      "properties": {
        "timestamp": "2017-12-15T18:05:56Z",
        "version": 1,
        "changeset": 54660810,
        "addr:city": "Ribas do Rio Pardo",
        "addr:postcode": "79180000",
        "addr:street": "Rua Francisco Teodoro de Souza",
        "addr:suburb": "Nossa Senhora da Conceição II",
        "building": "yes",
        "government": "yes",
        "name": "Sanesul",
        "office": "government",
        "phone": "+55 (67) 3238-1209",
        "id": "way/547103601"
      },
      "geometry": {
        "type": "Polygon",
        "coordinates": [
          [
            [
              -53.7615276,
              -20.4491377
            ],
            [
              -53.7615633,
              -20.4492226
            ],
            [
              -53.7614163,
              -20.4492726
            ],
            [
              -53.7613866,
              -20.4491864
            ],
            [
              -53.7615276,
              -20.4491377
            ]
          ]
        ]
      }
    },
    {
      "type": "Feature",
      "id": "way/547121371",
      "properties": {
        "timestamp": "2017-12-15T20:14:48Z",
        "version": 1,
        "changeset": 54663889,
        "addr:city": "Ribas do Rio Pardo",
        "addr:postcode": "79180-000",
        "addr:street": "Rua General Elizário Paim",
        "addr:suburb": "Jardim Vista Alegre",
        "building": "yes",
        "government": "public_service",
        "name": "Centro do Idoso",
        "office": "government",
        "id": "way/547121371"
      },
      "geometry": {
        "type": "Polygon",
        "coordinates": [
          [
            [
              -53.7579259,
              -20.4536051
            ],
            [
              -53.7577683,
              -20.4536243
            ],
            [
              -53.757756,
              -20.4535341
            ],
            [
              -53.7579198,
              -20.4535149
            ],
            [
              -53.7579259,
              -20.4536051
            ]
          ]
        ]
      }
    }
  ]
}
