{
  "type": "FeatureCollection",
  "features": [
    {
      "type": "Feature",
      "id": "way/546903637",
      "properties": {
        "timestamp": "2017-12-15T16:20:11Z",
        "version": 2,
        "changeset": 54657979,
        "addr:city": "Ribas do Rio Pardo",
        "addr:housenumber": "270",
        "addr:postcode": "79180000",
        "addr:street": "Rua Júlio Viana",
        "addr:suburb": "Nossa Senhora da Conceição II",
        "amenity": "hospital",
        "healthcare": "hospital",
        "healthcare:speciality": "general",
        "name": "Hospital 19 De Março",
        "phone": "+55 \t(67) 3238-1259",
        "website": "http://hospitalmunicipalderibasdoriopardo.placeweb.site/",
        "wheelchair": "yes",
        "id": "way/546903637"
      },
      "geometry": {
        "type": "Polygon",
        "coordinates": [
          [
            [
              -53.7622849,
              -20.4488115
            ],
            [
              -53.7627219,
              -20.4492502
            ],
            [
              -53.7624634,
              -20.4494698
            ],
            [
              -53.7625094,
              -20.4495168
            ],
            [
              -53.762292,
              -20.4497009
            ],
            [
              -53.7616818,
              -20.4490703
            ],
            [
              -53.7622849,
              -20.4488115
            ]
          ]
        ]
      }
    }
  ]
}
