{
  "type": "FeatureCollection",
  "features": [
    {
      "type": "Feature",
      "id": "way/546903626",
      "properties": {
        "timestamp": "2021-08-05T18:59:59Z",
        "version": 2,
        "changeset": 109217849,
        "addr:city": "Ribas do Rio Pardo",
        "addr:housenumber": "1859",
        "addr:postcode": "79180-000",
        "addr:street": "Rua Aureliano Moura Brandão",
        "addr:suburb": "Parque Estoril",
        "amenity": "pharmacy",
        "building": "yes",
        "fax": "+55 67 3238 1011",
        "healthcare": "pharmacy",
        "name": "Drogaria Estoril",
        "opening_hours": "Mo-Sa 07:00-20:00",
        "id": "way/546903626"
      },
      "geometry": {
        "type": "Polygon",
        "coordinates": [
          [
            [
              -53.7604293,
              -20.4585203
            ],
            [
              -53.7602744,
              -20.4585094
            ],
            [
              -53.7602793,
              -20.4584491
            ],
            [
              -53.7604341,
              -20.45846
            ],
            [
              -53.7604293,
              -20.4585203
            ]
          ]
        ]
      }
    },
    {
      "type": "Feature",
      "id": "way/547040799",
      "properties": {
        "timestamp": "2017-12-15T13:03:05Z",
        "version": 1,
        "changeset": 54652802,
        "addr:city": "Ribas do Rio Pardo",
        "addr:housenumber": "1359",
        "addr:postcode": "79180-000",
        "addr:street": "Avenida Aureliano Moura Brandão",
        "addr:suburb": "Jardim Vista Alegre",
        "amenity": "pharmacy",
        "building": "yes",
        "healthcare": "pharmacy",
        "name": "Farmais - Ribas Do Rio Pardo",
        "opening_hours": "Mo-Su 08:00-22:00",
        "phone": "+55 (67) 3238-3322",
        "id": "way/547040799"
      },
      "geometry": {
        "type": "Polygon",
        "coordinates": [
          [
            [
              -53.7604658,
              -20.456091
            ],
            [
              -53.7604874,
              -20.4562205
            ],
            [
              -53.7602584,
              -20.4561983
            ],
            [
              -53.7602713,
              -20.4560788
            ],
            [
              -53.7604658,
              -20.456091
            ]
          ]
        ]
      }
    },
    {
      "type": "Feature",
      "id": "way/547091030",
      "properties": {
        "timestamp": "2017-12-15T17:13:31Z",
        "version": 1,
        "changeset": 54659495,
        "addr:city": "Ribas do Rio Pardo",
        "addr:housenumber": "1063",
        "addr:postcode": "79180-000",
        "addr:street": "Avenida Aureliano Moura Brandão",
        "addr:suburb": "Jardim Vista Alegre",
        "amenity": "pharmacy",
        "building": "yes",
        "healthcare": "pharmacy",
        "name": "Drogaria Mais Saúde",
        "opening_hours": "Mo-Sa 08:00-20:00",
        "phone": "+55\t(67) 3238-2710",
        "id": "way/547091030"
      },
      "geometry": {
        "type": "Polygon",
        "coordinates": [
          [
            [
              -53.759961,
              -20.4521889
            ],
            [
              -53.7599695,
              -20.4522815
            ],
            [
              -53.759835,
              -20.4522974
            ],
            [
              -53.759823,
              -20.4522049
            ],
            [
              -53.759961,
              -20.4521889
            ]
          ]
        ]
      }
    },
    {
      "type": "Feature",
      "id": "way/547091032",
      "properties": {
        "timestamp": "2017-12-15T17:13:32Z",
        "version": 1,
        "changeset": 54659495,
        "addr:city": "Ribas do Rio Pardo",
        "addr:postcode": "79180-000",
        "addr:street": "Avenida Aureliano Moura Brandão",
        "addr:suburb": "Jardim Vista Alegre",
        "amenity": "pharmacy",
        "building": "yes",
        "healthcare": "pharmacy",
        "name": "MultiDrogas",
        "opening_hours": "Mo-Su 08:00-22:00",
        "phone": "+55 (67) 3238-1688",
        "id": "way/547091032"
      },
      "geometry": {
        "type": "Polygon",
        "coordinates": [
          [
            [
              -53.7604737,
              -20.4534721
            ],
            [
              -53.7606543,
              -20.4534498
            ],
            [
              -53.7606747,
              -20.4535791
            ],
            [
              -53.7604925,
              -20.453603
            ],
            [
              -53.7604737,
              -20.4534721
            ]
          ]
        ]
      }
    },
    {
      "type": "Feature",
      "id": "way/547702794",
      "properties": {
        "timestamp": "2017-12-18T16:20:40Z",
        "version": 1,
        "changeset": 54735479,
        "addr:city": "Ribas do Rio Pardo",
        "addr:housenumber": "737",
        "addr:postcode": "79180-000",
        "addr:street": "Avenida Aureliano Moura Brandão",
        "addr:suburb": "Santos Dumont",
        "amenity": "pharmacy",
        "building": "yes",
        "healthcare": "pharmacy",
        "name": "Farma Popular",
        "phone": "+55 (67) 3238-2602",
        "id": "way/547702794"
      },
      "geometry": {
        "type": "Polygon",
        "coordinates": [
          [
            [
              -53.759629,
              -20.4492882
            ],
            [
              -53.7594287,
              -20.4493156
            ],
            [
              -53.7594133,
              -20.4491742
            ],
            [
              -53.7596121,
              -20.449154
            ],
            [
              -53.759629,
              -20.4492882
            ]
          ]
        ]
      }
    },
    {
      "type": "Feature",
      "id": "way/547702808",
      "properties": {
        "timestamp": "2017-12-18T16:20:42Z",
        "version": 1,
        "changeset": 54735479,
        "addr:city": "Ribas do Rio Pardo",
        "addr:housenumber": "936",
        "addr:postcode": "79180-000",
        "addr:street": "Avenida Aureliano Moura Brandão",
        "addr:suburb": "Santos Dumont",
        "amenity": "pharmacy",
        "building": "yes",
        "healthcare": "pharmacy",
        "name": "Droga Dony",
        "phone": "+55 (67) 3238-1413",
        "id": "way/547702808"
      },
      "geometry": {
        "type": "Polygon",
        "coordinates": [
          [
            [
              -53.7602673,
              -20.4509997
            ],
            [
              -53.7602797,
              -20.4510991
            ],
            [
              -53.7601647,
              -20.4511133
            ],
            [
              -53.7601511,
              -20.4510124
            ],
            [
              -53.7602673,
              -20.4509997
            ]
          ]
        ]
      }
    }
  ]
}
