{
  "type": "FeatureCollection",
  "features": [
    {
      "type": "Feature",
      "id": "way/546903630",
      "properties": {
        "timestamp": "2021-08-07T21:28:24Z",
        "version": 3,
        "changeset": 109326315,
        "addr:city": "Ribas do Rio Pardo",
        "addr:housenumber": "1997",
        "addr:postcode": "79180-000",
        "addr:street": "Rua Conceição do Rio Pardo",
        "addr:suburb": "Centro",
        "amenity": "school",
        "email": "eedjpda@sed.ms.gov.br",
        "name": "EE Doutor João Ponce de Arruda",
        "phone": "+55 67 3238 1410",
        "wheelchair": "yes",
        "id": "way/546903630"
      },
      "geometry": {
        "type": "Polygon",
        "coordinates": [
          [
            [
              -53.7589732,
              -20.4446714
            ],
            [
              -53.7578519,
              -20.4448163
            ],
            [
              -53.7576949,
              -20.4437483
            ],
            [
              -53.7588161,
              -20.4436036
            ],
            [
              -53.7589732,
              -20.4446714
            ]
          ]
        ]
      }
    },
    {
      "type": "Feature",
      "id": "way/546903633",
      "properties": {
        "timestamp": "2021-08-07T21:28:24Z",
        "version": 2,
        "changeset": 109326315,
        "addr:city": "Ribas do Rio Pardo",
        "addr:housenumber": "513",
        "addr:postcode": "79180-000",
        "addr:street": "Rua Senador Filinto Muller",
        "addr:suburb": "Centro",
        "amenity": "school",
        "description": "Situação de Funcionamento: Em atividade Localização/Zona da escola: Urbana Dependência administrativa: Privada / Particular Regulamentação/Autorização no conselho ou órgão municipal, estadual ou federal de educação: Sim Educação Indígena: Não ",
        "email": "ecasociedadepestalozzi@hotmail.com",
        "fax": "+55 67 3238-4300",
        "name": "Escola Clinica Arco-Iris - Sociedade Pestalozzi",
        "note": "Categoria de escola privada: FILANTROPICA Número do CNPJ da escola privada: 01.782.288/0001-66 Número do CNPJ da mantenedora principal da escola privada: 01.782.288/0001-66 Conveniada com o Poder Público: Estadual Mantenedora da Escola: Instituições sem f",
        "phone": "+55 67 3238-1376",
        "wheelchair": "yes",
        "id": "way/546903633"
      },
      "geometry": {
        "type": "Polygon",
        "coordinates": [
          [
            [
              -53.7569509,
              -20.4441195
            ],
            [
              -53.7570186,
              -20.4445648
            ],
            [
              -53.7564485,
              -20.4446409
            ],
            [
              -53.7563808,
              -20.4441956
            ],
            [
              -53.7569509,
              -20.4441195
            ]
          ]
        ]
      }
    },
    {
      "type": "Feature",
      "id": "way/547040798",
      "properties": {
        "timestamp": "2019-04-11T14:26:57Z",
        "version": 3,
        "changeset": 69116321,
        "addr:city": "Ribas do Rio Pardo",
        "addr:housenumber": "1605-A",
        "addr:postcode": "79180-000",
        "addr:street": "Rua Cornélia Anconi Bunazar",
        "addr:suburb": "Jardim Vista Alegre",
        "amenity": "school",
        "name": "Centro Educacional Rosa Mosso",
        "phone": "+55 (67) 3238-1622",
        "website": "https://www.facebook.com/centroeducacionalrosamosso/",
        "id": "way/547040798"
      },
      "geometry": {
        "type": "Polygon",
        "coordinates": [
          [
            [
              -53.7604288,
              -20.4555631
            ],
            [
              -53.7604607,
              -20.4559819
            ],
            [
              -53.7593902,
              -20.4558681
            ],
            [
              -53.7584922,
              -20.4558468
            ],
            [
              -53.7584958,
              -20.4557555
            ],
            [
              -53.7604288,
              -20.4555631
            ]
          ]
        ]
      }
    },
    {
      "type": "Feature",
      "id": "way/547040801",
      "properties": {
        "timestamp": "2020-12-02T05:01:38Z",
        "version": 2,
        "changeset": 95128728,
        "addr:city": "Ribas do Rio Pardo",
        "addr:housenumber": "1780",
        "addr:postcode": "79180-000",
        "addr:street": "Rua Eldir Oliveira de Paula",
        "addr:suburb": "Parque Estoril",
        "amenity": "school",
        "name": "Escola Municipal Mareide Monteiro de Lima",
        "phone": "+55 (67) 3238-3664",
        "id": "way/547040801"
      },
      "geometry": {
        "type": "Polygon",
        "coordinates": [
          [
            [
              -53.7644645,
              -20.4586157
            ],
            [
              -53.7643031,
              -20.459788
            ],
            [
              -53.7632152,
              -20.4596675
            ],
            [
              -53.7632974,
              -20.4584947
            ],
            [
              -53.7644645,
              -20.4586157
            ]
          ]
        ]
      }
    },
    {
      "type": "Feature",
      "id": "way/547082091",
      "properties": {
        "timestamp": "2021-08-07T21:28:24Z",
        "version": 4,
        "changeset": 109326315,
        "addr:city": "Ribas do Rio Pardo",
        "addr:housenumber": "1676",
        "addr:postcode": "79180-000",
        "addr:street": "Avenida Nelson Lyrio",
        "addr:suburb": "Centro",
        "amenity": "school",
        "description": "Situação de Funcionamento: Em atividade Localização/Zona da escola: Urbana Dependência administrativa: Municipal Regulamentação/Autorização no conselho ou órgão municipal, estadual ou federal de educação: Sim Educação Indígena: Não Transporte Escolar públ",
        "name": "Escola Alcindo Vicente Ferreira",
        "phone": "+55 (67) 3238-2260",
        "id": "way/547082091"
      },
      "geometry": {
        "type": "Polygon",
        "coordinates": [
          [
            [
              -53.7563597,
              -20.4457215
            ],
            [
              -53.7563611,
              -20.4457311
            ],
            [
              -53.7564022,
              -20.4460263
            ],
            [
              -53.756435,
              -20.4462616
            ],
            [
              -53.7560242,
              -20.4463119
            ],
            [
              -53.755975,
              -20.4459593
            ],
            [
              -53.7559489,
              -20.4457717
            ],
            [
              -53.7563597,
              -20.4457215
            ]
          ]
        ]
      }
    },
    {
      "type": "Feature",
      "id": "way/547082092",
      "properties": {
        "timestamp": "2017-12-15T16:20:05Z",
        "version": 1,
        "changeset": 54657979,
        "addr:city": "Ribas do Rio Pardo",
        "addr:housenumber": "1175",
        "addr:postcode": "79180000",
        "addr:street": "Avenida Jesuino Alvares de Barros",
        "addr:suburb": "Nossa Senhora da Conceição II",
        "amenity": "school",
        "description": "Etapas de Ensino:\nEnsino Fundamental\nEnsino Médio\nEducação de Jovens e Adultos - Supletivo",
        "name": "Escola Estadual Eduardo Batista Amorim",
        "phone": "+55 (67) 3238-1293",
        "id": "way/547082092"
      },
      "geometry": {
        "type": "Polygon",
        "coordinates": [
          [
            [
              -53.7665783,
              -20.4514171
            ],
            [
              -53.7667163,
              -20.4522934
            ],
            [
              -53.7659612,
              -20.4524191
            ],
            [
              -53.7658156,
              -20.4515249
            ],
            [
              -53.7665783,
              -20.4514171
            ]
          ]
        ]
      }
    },
    {
      "type": "Feature",
      "id": "way/547082093",
      "properties": {
        "timestamp": "2017-12-15T16:20:05Z",
        "version": 1,
        "changeset": 54657979,
        "addr:city": "Ribas do Rio Pardo",
        "addr:housenumber": "374",
        "addr:postcode": "79180000",
        "addr:street": "Rua Waldemar Francisco da Silva",
        "addr:suburb": "Centro",
        "amenity": "school",
        "description": "Situação de Funcionamento: Em atividade\nLocalização/Zona da escola: Urbana\nDependência administrativa: Municipal\nRegulamentação/Autorização no conselho ou órgão municipal, estadual ou federal de educação: Sim\nEducação Indígena: Não",
        "name": "ESCOLA MUNICIPAL BALAO MAGICO",
        "phone": "+55 (67) 3238-1726",
        "id": "way/547082093"
      },
      "geometry": {
        "type": "Polygon",
        "coordinates": [
          [
            [
              -53.7558425,
              -20.4428337
            ],
            [
              -53.7558732,
              -20.4430887
            ],
            [
              -53.7553327,
              -20.4431426
            ],
            [
              -53.7553059,
              -20.4428948
            ],
            [
              -53.7558425,
              -20.4428337
            ]
          ]
        ]
      }
    },
    {
      "type": "Feature",
      "id": "way/547098556",
      "properties": {
        "timestamp": "2017-12-15T17:44:02Z",
        "version": 1,
        "changeset": 54660330,
        "addr:city": "Ribas do Rio Pardo",
        "addr:housenumber": "1148",
        "addr:postcode": "79180-000",
        "addr:street": "Rua Rachid Abes",
        "addr:suburb": "Jardim Vista Alegre",
        "amenity": "school",
        "email": "escolaisa@hotmail.com",
        "name": "Escola Municipal Iracy da Silva Almeida",
        "phone": "+55 (67) 3238-1426",
        "id": "way/547098556"
      },
      "geometry": {
        "type": "Polygon",
        "coordinates": [
          [
            [
              -53.7583529,
              -20.4550962
            ],
            [
              -53.7584053,
              -20.4555993
            ],
            [
              -53.7574881,
              -20.4556812
            ],
            [
              -53.7569237,
              -20.4556245
            ],
            [
              -53.7570601,
              -20.4552208
            ],
            [
              -53.7583529,
              -20.4550962
            ]
          ]
        ]
      }
    },
    {
      "type": "Feature",
      "id": "way/547706047",
      "properties": {
        "timestamp": "2017-12-18T16:44:12Z",
        "version": 1,
        "changeset": 54736054,
        "addr:city": "Ribas do Rio Pardo",
        "addr:housenumber": "221",
        "addr:postcode": "79180-000",
        "addr:street": "Rua Benjamim de Oliveira",
        "addr:suburb": "Centro",
        "amenity": "school",
        "description": "Situação de Funcionamento: Em atividade\nLocalização/Zona da escola: Urbana\nDependência administrativa: Municipal\nRegulamentação/Autorização no conselho ou órgão municipal, estadual ou federal de educação: Sim\nEducação Indígena: Não\n",
        "email": "emsaosebastiao@hotmail.com",
        "name": "Escola Municipal São Sebastião",
        "phone": "+55 (67) 3238-1760",
        "id": "way/547706047"
      },
      "geometry": {
        "type": "Polygon",
        "coordinates": [
          [
            [
              -53.7522806,
              -20.4430394
            ],
            [
              -53.7517515,
              -20.4430033
            ],
            [
              -53.751694,
              -20.4425953
            ],
            [
              -53.7522245,
              -20.4425296
            ],
            [
              -53.7523522,
              -20.4425484
            ],
            [
              -53.7522806,
              -20.4430394
            ]
          ]
        ]
      }
    }
  ]
}
