{
  "type": "FeatureCollection",
  "features": [
    {
      "type": "Feature",
      "id": "way/907799631",
      "properties": {
        "timestamp": "2021-02-16T17:10:15Z",
        "version": 1,
        "changeset": 99396438,
        "addr:city": "Buriti Bravo",
        "addr:postcode": "65685-000",
        "addr:street": "Praça Hercilia Moreira Lima",
        "amenity": "school",
        "name": "Unidade Escolar Alfredo Coelho",
        "id": "way/907799631"
      },
      "geometry": {
        "type": "Polygon",
        "coordinates": [
          [
            [
              -43.8374788,
              -5.8420936
            ],
            [
              -43.8375977,
              -5.8423045
            ],
            [
              -43.8373055,
              -5.8424674
            ],
            [
              -43.8371867,
              -5.8422565
            ],
            [
              -43.8374788,
              -5.8420936
            ]
          ]
        ]
      }
    },
    {
      "type": "Feature",
      "id": "way/907801266",
      "properties": {
        "timestamp": "2021-02-16T17:16:16Z",
        "version": 1,
        "changeset": 99396687,
        "addr:city": "Buriti Bravo",
        "addr:postcode": "65685-000",
        "amenity": "school",
        "name": "UE Flory Coelho",
        "id": "way/907801266"
      },
      "geometry": {
        "type": "Polygon",
        "coordinates": [
          [
            [
              -43.831403,
              -5.8286623
            ],
            [
              -43.8314633,
              -5.828855
            ],
            [
              -43.8310782,
              -5.8289743
            ],
            [
              -43.8310179,
              -5.8287814
            ],
            [
              -43.831403,
              -5.8286623
            ]
          ]
        ]
      }
    },
    {
      "type": "Feature",
      "id": "way/907803816",
      "properties": {
        "timestamp": "2021-02-17T17:06:07Z",
        "version": 2,
        "changeset": 99467671,
        "addr:city": "Buriti Bravo",
        "addr:postcode": "65685-000",
        "addr:street": "Travessa João Leocadio",
        "amenity": "school",
        "name": "UI Professor João Henrique Borges Leocadio",
        "id": "way/907803816"
      },
      "geometry": {
        "type": "Polygon",
        "coordinates": [
          [
            [
              -43.8307774,
              -5.8463667
            ],
            [
              -43.8313795,
              -5.8461269
            ],
            [
              -43.8314923,
              -5.8464073
            ],
            [
              -43.831568,
              -5.8463772
            ],
            [
              -43.8316974,
              -5.846699
            ],
            [
              -43.8310196,
              -5.8469688
            ],
            [
              -43.8307774,
              -5.8463667
            ]
          ]
        ]
      }
    },
    {
      "type": "Feature",
      "id": "way/908124187",
      "properties": {
        "timestamp": "2021-02-17T16:18:08Z",
        "version": 1,
        "changeset": 99465110,
        "addr:city": "Buriti Bravo",
        "addr:postcode": "65685-000",
        "addr:street": "Rua Santo Antônio",
        "amenity": "school",
        "name": "UE Ministro Paulo Renato Souza",
        "id": "way/908124187"
      },
      "geometry": {
        "type": "Polygon",
        "coordinates": [
          [
            [
              -43.838651,
              -5.8417842
            ],
            [
              -43.8376685,
              -5.8422547
            ],
            [
              -43.837346,
              -5.8415882
            ],
            [
              -43.8383286,
              -5.8411179
            ],
            [
              -43.838651,
              -5.8417842
            ]
          ]
        ]
      }
    },
    {
      "type": "Feature",
      "id": "way/908132390",
      "properties": {
        "timestamp": "2021-02-17T16:42:02Z",
        "version": 1,
        "changeset": 99466418,
        "addr:city": "Buriti Bravo",
        "addr:postcode": "65685-000",
        "addr:street": "Rua Joaquim Leite",
        "addr:suburb": "Centro",
        "amenity": "school",
        "name": "Unidade Escolar Padre Felix",
        "id": "way/908132390"
      },
      "geometry": {
        "type": "Polygon",
        "coordinates": [
          [
            [
              -43.8342607,
              -5.8341249
            ],
            [
              -43.8342607,
              -5.8342974
            ],
            [
              -43.8338117,
              -5.8342897
            ],
            [
              -43.8337962,
              -5.8341156
            ],
            [
              -43.8342607,
              -5.8341249
            ]
          ]
        ]
      }
    },
    {
      "type": "Feature",
      "id": "way/908137279",
      "properties": {
        "timestamp": "2021-02-17T16:59:55Z",
        "version": 1,
        "changeset": 99467315,
        "addr:city": "Buriti Bravo",
        "addr:housenumber": "14A",
        "addr:postcode": "65685-000",
        "addr:street": "Rua Alto Alegre",
        "amenity": "school",
        "name": "Centro de Educaçao Infantil Socorro Moreira Lima Costa",
        "id": "way/908137279"
      },
      "geometry": {
        "type": "Polygon",
        "coordinates": [
          [
            [
              -43.8453442,
              -5.8375341
            ],
            [
              -43.8454751,
              -5.83795
            ],
            [
              -43.8455184,
              -5.8381417
            ],
            [
              -43.8451701,
              -5.8382711
            ],
            [
              -43.8449556,
              -5.8376758
            ],
            [
              -43.8453442,
              -5.8375341
            ]
          ]
        ]
      }
    },
    {
      "type": "Feature",
      "id": "way/908151818",
      "properties": {
        "timestamp": "2021-02-17T18:03:24Z",
        "version": 1,
        "changeset": 99470164,
        "addr:city": "Buriti Bravo",
        "addr:postcode": "65685-000",
        "addr:street": "Rua do Campo",
        "amenity": "school",
        "name": "UE José Raposo",
        "id": "way/908151818"
      },
      "geometry": {
        "type": "Polygon",
        "coordinates": [
          [
            [
              -43.8450056,
              -5.8404499
            ],
            [
              -43.8449831,
              -5.8408165
            ],
            [
              -43.8447155,
              -5.8408002
            ],
            [
              -43.8447381,
              -5.8404336
            ],
            [
              -43.8450056,
              -5.8404499
            ]
          ]
        ]
      }
    },
    {
      "type": "Feature",
      "id": "way/908156202",
      "properties": {
        "timestamp": "2021-02-17T18:14:05Z",
        "version": 1,
        "changeset": 99470611,
        "addr:city": "Buriti Bravo",
        "addr:postcode": "65685-000",
        "addr:street": "Travessa Manula Costa",
        "amenity": "school",
        "name": "UE Manula Costa",
        "id": "way/908156202"
      },
      "geometry": {
        "type": "Polygon",
        "coordinates": [
          [
            [
              -43.8347504,
              -5.8306462
            ],
            [
              -43.8347539,
              -5.8308999
            ],
            [
              -43.834356,
              -5.830906
            ],
            [
              -43.8343567,
              -5.8306496
            ],
            [
              -43.8347504,
              -5.8306462
            ]
          ]
        ]
      }
    },
    {
      "type": "Feature",
      "id": "way/913930307",
      "properties": {
        "timestamp": "2021-03-05T17:51:43Z",
        "version": 1,
        "changeset": 100507617,
        "amenity": "school",
        "id": "way/913930307"
      },
      "geometry": {
        "type": "Polygon",
        "coordinates": [
          [
            [
              -43.8289037,
              -5.8395476
            ],
            [
              -43.8288879,
              -5.8395345
            ],
            [
              -43.8288768,
              -5.8395476
            ],
            [
              -43.8285373,
              -5.8392685
            ],
            [
              -43.8289345,
              -5.8387802
            ],
            [
              -43.8289371,
              -5.8387202
            ],
            [
              -43.8290282,
              -5.8387672
            ],
            [
              -43.8293388,
              -5.8390514
            ],
            [
              -43.8289037,
              -5.8395476
            ]
          ]
        ]
      }
    },
    {
      "type": "Feature",
      "id": "node/8429423913",
      "properties": {
        "timestamp": "2021-02-16T17:03:03Z",
        "version": 1,
        "changeset": 99396122,
        "addr:city": "Buriti Bravo",
        "addr:postcode": "65685-000",
        "addr:street": "Praça Lurdita Raposo",
        "amenity": "school",
        "name": "Unidade Escolar Menino Jesus",
        "phone": "+55 99 3572 0494",
        "id": "node/8429423913"
      },
      "geometry": {
        "type": "Point",
        "coordinates": [
          -43.8373494,
          -5.8379627
        ]
      }
    },
    {
      "type": "Feature",
      "id": "node/8429424630",
      "properties": {
        "timestamp": "2021-02-16T16:59:10Z",
        "version": 1,
        "changeset": 99395931,
        "addr:city": "Buriti Bravo",
        "addr:postcode": "65685-000",
        "addr:street": "Avenida Máximo Ferreira",
        "amenity": "school",
        "name": "UE Noca Coelho",
        "id": "node/8429424630"
      },
      "geometry": {
        "type": "Point",
        "coordinates": [
          -43.8353323,
          -5.8365755
        ]
      }
    },
    {
      "type": "Feature",
      "id": "node/8429426473",
      "properties": {
        "timestamp": "2021-02-16T17:01:06Z",
        "version": 1,
        "changeset": 99396022,
        "addr:city": "Buriti Bravo",
        "amenity": "school",
        "name": "EM Raimundo Francisco Pereira",
        "id": "node/8429426473"
      },
      "geometry": {
        "type": "Point",
        "coordinates": [
          -43.8843353,
          -5.9258474
        ]
      }
    },
    {
      "type": "Feature",
      "id": "node/8429427520",
      "properties": {
        "timestamp": "2021-02-16T17:06:25Z",
        "version": 1,
        "changeset": 99396279,
        "addr:city": "Buriti Bravo",
        "addr:postcode": "65685-000",
        "addr:street": "Praça Carneiro Frade",
        "amenity": "school",
        "name": "Unidade Integrada Moacir Coelho",
        "id": "node/8429427520"
      },
      "geometry": {
        "type": "Point",
        "coordinates": [
          -43.8417386,
          -5.8382468
        ]
      }
    },
    {
      "type": "Feature",
      "id": "node/8429457511",
      "properties": {
        "timestamp": "2021-02-16T17:14:24Z",
        "version": 1,
        "changeset": 99396600,
        "addr:city": "Buriti Bravo",
        "amenity": "school",
        "name": "EM Santa Rita",
        "id": "node/8429457511"
      },
      "geometry": {
        "type": "Point",
        "coordinates": [
          -43.7637118,
          -5.6324123
        ]
      }
    },
    {
      "type": "Feature",
      "id": "node/8432281250",
      "properties": {
        "timestamp": "2021-02-17T16:07:44Z",
        "version": 1,
        "changeset": 99464535,
        "addr:city": "Buriti Bravo",
        "addr:postcode": "65685-000",
        "addr:street": "Rua Duque de Caxias",
        "amenity": "school",
        "name": "UE Benedito Leite Ii",
        "id": "node/8432281250"
      },
      "geometry": {
        "type": "Point",
        "coordinates": [
          -43.8356475,
          -5.8397263
        ]
      }
    },
    {
      "type": "Feature",
      "id": "node/8432284173",
      "properties": {
        "timestamp": "2021-02-17T15:55:01Z",
        "version": 1,
        "changeset": 99463798,
        "addr:city": "Buriti Bravo",
        "addr:postcode": "65685-000",
        "amenity": "school",
        "name": "EM Ministro José Evandro Barros",
        "id": "node/8432284173"
      },
      "geometry": {
        "type": "Point",
        "coordinates": [
          -43.8488144,
          -5.7567956
        ]
      }
    },
    {
      "type": "Feature",
      "id": "node/8432293669",
      "properties": {
        "timestamp": "2021-02-17T15:53:30Z",
        "version": 1,
        "changeset": 99463720,
        "addr:city": "Buriti Bravo",
        "addr:postcode": "65685-000",
        "addr:street": "Rua Rio Branco",
        "amenity": "school",
        "name": "UE Marly Sarney",
        "id": "node/8432293669"
      },
      "geometry": {
        "type": "Point",
        "coordinates": [
          -43.8301325,
          -5.8410141
        ]
      }
    },
    {
      "type": "Feature",
      "id": "node/8432296139",
      "properties": {
        "timestamp": "2021-02-17T15:50:05Z",
        "version": 1,
        "changeset": 99463520,
        "addr:city": "Buriti Bravo",
        "addr:postcode": "65685-000",
        "amenity": "school",
        "name": "EM Gil Coelho De Sousa",
        "id": "node/8432296139"
      },
      "geometry": {
        "type": "Point",
        "coordinates": [
          -43.9831503,
          -5.8686594
        ]
      }
    },
    {
      "type": "Feature",
      "id": "node/8432296140",
      "properties": {
        "timestamp": "2021-02-17T15:51:40Z",
        "version": 1,
        "changeset": 99463607,
        "addr:city": "Buriti Bravo",
        "addr:postcode": "65685-000",
        "addr:street": "Rodovia MA-132",
        "amenity": "school",
        "name": "EM Candido Coelho",
        "id": "node/8432296140"
      },
      "geometry": {
        "type": "Point",
        "coordinates": [
          -44.0076957,
          -5.8960359
        ]
      }
    },
    {
      "type": "Feature",
      "id": "node/8432301020",
      "properties": {
        "timestamp": "2021-02-17T15:56:29Z",
        "version": 1,
        "changeset": 99463878,
        "addr:city": "Buriti Bravo",
        "addr:postcode": "65685-000",
        "amenity": "school",
        "name": "EM Goncalves Dias",
        "id": "node/8432301020"
      },
      "geometry": {
        "type": "Point",
        "coordinates": [
          -43.9100311,
          -5.7515991
        ]
      }
    },
    {
      "type": "Feature",
      "id": "node/8432309556",
      "properties": {
        "timestamp": "2021-02-17T15:58:46Z",
        "version": 1,
        "changeset": 99463998,
        "addr:city": "Buriti Bravo",
        "addr:postcode": "65685-000",
        "addr:street": "Rua São Mateus",
        "addr:suburb": "Centro",
        "amenity": "school",
        "name": "Escola Crista Evangelica",
        "id": "node/8432309556"
      },
      "geometry": {
        "type": "Point",
        "coordinates": [
          -43.8349171,
          -5.8341417
        ]
      }
    },
    {
      "type": "Feature",
      "id": "node/8432315518",
      "properties": {
        "timestamp": "2021-02-17T15:57:40Z",
        "version": 1,
        "changeset": 99463933,
        "addr:city": "Buriti Bravo",
        "addr:postcode": "65685-000",
        "addr:street": "Rua Fazenda Nova",
        "addr:suburb": "Fazenda Nova",
        "amenity": "school",
        "name": "Creche Santa Clara",
        "id": "node/8432315518"
      },
      "geometry": {
        "type": "Point",
        "coordinates": [
          -43.8244912,
          -5.8409446
        ]
      }
    },
    {
      "type": "Feature",
      "id": "node/8432318190",
      "properties": {
        "timestamp": "2021-02-17T16:04:45Z",
        "version": 1,
        "changeset": 99464361,
        "addr:city": "Buriti Bravo",
        "addr:postcode": "65685-00",
        "addr:suburb": "Lagoa do Gado",
        "amenity": "school",
        "name": "EM Doutor Antonio Dino",
        "id": "node/8432318190"
      },
      "geometry": {
        "type": "Point",
        "coordinates": [
          -43.9618849,
          -5.7981481
        ]
      }
    },
    {
      "type": "Feature",
      "id": "node/8432318337",
      "properties": {
        "timestamp": "2021-02-17T16:02:35Z",
        "version": 1,
        "changeset": 99464217,
        "addr:city": "Buriti Bravo",
        "addr:postcode": "65685-000",
        "amenity": "school",
        "name": "Em São Vicente",
        "id": "node/8432318337"
      },
      "geometry": {
        "type": "Point",
        "coordinates": [
          -43.7182666,
          -5.7871765
        ]
      }
    },
    {
      "type": "Feature",
      "id": "node/8432322372",
      "properties": {
        "timestamp": "2021-02-17T16:18:51Z",
        "version": 1,
        "changeset": 99465146,
        "addr:city": "Buriti Bravo",
        "addr:postcode": "65685-000",
        "addr:street": "Rua Fazenda Nova",
        "addr:suburb": "Fazenda Nova",
        "amenity": "school",
        "name": "Ue João Coimbra",
        "id": "node/8432322372"
      },
      "geometry": {
        "type": "Point",
        "coordinates": [
          -43.824519,
          -5.8412871
        ]
      }
    },
    {
      "type": "Feature",
      "id": "node/8432322412",
      "properties": {
        "timestamp": "2021-02-17T16:38:10Z",
        "version": 1,
        "changeset": 99466206,
        "addr:city": "Buriti Bravo",
        "addr:postcode": "65685-000",
        "addr:street": "Rua da Bandeira",
        "addr:suburb": "Centro",
        "amenity": "school",
        "name": "Colegio Presidente Kennedy",
        "id": "node/8432322412"
      },
      "geometry": {
        "type": "Point",
        "coordinates": [
          -43.8332082,
          -5.8341492
        ]
      }
    },
    {
      "type": "Feature",
      "id": "node/8432322413",
      "properties": {
        "timestamp": "2021-02-17T16:40:46Z",
        "version": 1,
        "changeset": 99466346,
        "addr:city": "Buriti Bravo",
        "addr:postcode": "65685-000",
        "amenity": "school",
        "name": "EM Antônio Barbosa de Carvalho",
        "id": "node/8432322413"
      },
      "geometry": {
        "type": "Point",
        "coordinates": [
          -43.9028934,
          -5.9272667
        ]
      }
    },
    {
      "type": "Feature",
      "id": "node/8432322929",
      "properties": {
        "timestamp": "2021-02-17T16:11:43Z",
        "version": 1,
        "changeset": 99464759,
        "addr:city": "Buriti Bravo",
        "addr:postcode": "65685-000",
        "amenity": "school",
        "name": "EM São Raimundo",
        "id": "node/8432322929"
      },
      "geometry": {
        "type": "Point",
        "coordinates": [
          -43.9365352,
          -5.9589384
        ]
      }
    },
    {
      "type": "Feature",
      "id": "node/8432335264",
      "properties": {
        "timestamp": "2021-02-17T16:06:43Z",
        "version": 1,
        "changeset": 99464489,
        "addr:city": "Buriti Bravo",
        "addr:housenumber": "376",
        "addr:postcode": "65685-000",
        "addr:street": "Rua da Bandeira",
        "addr:suburb": "Centro",
        "amenity": "school",
        "name": "Escola Educacional Betel",
        "id": "node/8432335264"
      },
      "geometry": {
        "type": "Point",
        "coordinates": [
          -43.8333892,
          -5.8349456
        ]
      }
    },
    {
      "type": "Feature",
      "id": "node/8432350813",
      "properties": {
        "timestamp": "2021-02-17T16:20:45Z",
        "version": 1,
        "changeset": 99465254,
        "addr:city": "Buriti Bravo",
        "addr:postcode": "65685-000",
        "amenity": "school",
        "name": "EM Anisio Alves da Silva",
        "id": "node/8432350813"
      },
      "geometry": {
        "type": "Point",
        "coordinates": [
          -43.8291553,
          -5.9767826
        ]
      }
    },
    {
      "type": "Feature",
      "id": "node/8432356008",
      "properties": {
        "timestamp": "2021-02-17T16:15:38Z",
        "version": 1,
        "changeset": 99464976,
        "addr:city": "Buriti Bravo",
        "addr:postcode": "65685-000",
        "amenity": "school",
        "name": "EM Santo Antônio",
        "id": "node/8432356008"
      },
      "geometry": {
        "type": "Point",
        "coordinates": [
          -43.6857672,
          -5.7698589
        ]
      }
    },
    {
      "type": "Feature",
      "id": "node/8432356179",
      "properties": {
        "timestamp": "2021-02-17T16:14:40Z",
        "version": 1,
        "changeset": 99464926,
        "addr:city": "Buriti Bravo",
        "addr:postcode": "65685-000",
        "amenity": "school",
        "name": "EM Santa Cruz",
        "id": "node/8432356179"
      },
      "geometry": {
        "type": "Point",
        "coordinates": [
          -43.8377336,
          -5.5675829
        ]
      }
    },
    {
      "type": "Feature",
      "id": "node/8432362969",
      "properties": {
        "timestamp": "2021-02-17T16:23:09Z",
        "version": 1,
        "changeset": 99465381,
        "addr:city": "Buriti Bravo",
        "addr:postcode": "65685-000",
        "amenity": "school",
        "name": "EM João Henrique Aires Guimaraes",
        "id": "node/8432362969"
      },
      "geometry": {
        "type": "Point",
        "coordinates": [
          -44.0150487,
          -5.7638879
        ]
      }
    },
    {
      "type": "Feature",
      "id": "node/8432371588",
      "properties": {
        "timestamp": "2021-02-17T16:30:29Z",
        "version": 1,
        "changeset": 99465774,
        "addr:city": "Buriti Bravo",
        "addr:postcode": "65685-000",
        "amenity": "school",
        "name": "EM Adalberto Costa Santos",
        "id": "node/8432371588"
      },
      "geometry": {
        "type": "Point",
        "coordinates": [
          -43.7752081,
          -5.6593986
        ]
      }
    },
    {
      "type": "Feature",
      "id": "node/8432372178",
      "properties": {
        "timestamp": "2021-02-17T16:24:58Z",
        "version": 1,
        "changeset": 99465472,
        "addr:city": "Buriti Bravo",
        "addr:postcode": "65685-000",
        "addr:street": "Rua da Bandeira",
        "amenity": "school",
        "name": "UE Laranjeiras",
        "id": "node/8432372178"
      },
      "geometry": {
        "type": "Point",
        "coordinates": [
          -43.8315002,
          -5.8312335
        ]
      }
    },
    {
      "type": "Feature",
      "id": "node/8432380373",
      "properties": {
        "timestamp": "2021-02-17T16:31:38Z",
        "version": 1,
        "changeset": 99465850,
        "addr:city": "Buriti Bravo",
        "addr:postcode": "65685-000",
        "amenity": "school",
        "name": "Em Quintina Pereira Coelho",
        "id": "node/8432380373"
      },
      "geometry": {
        "type": "Point",
        "coordinates": [
          -44.007749,
          -5.9178459
        ]
      }
    },
    {
      "type": "Feature",
      "id": "node/8432390676",
      "properties": {
        "timestamp": "2021-02-17T16:27:30Z",
        "version": 1,
        "changeset": 99465608,
        "addr:city": "Buriti Bravo",
        "addr:postcode": "65685-000",
        "addr:street": "Rua Macário Dias",
        "amenity": "school",
        "name": "Centro de Apoio Educação Criança Cidadã",
        "id": "node/8432390676"
      },
      "geometry": {
        "type": "Point",
        "coordinates": [
          -43.8337596,
          -5.8386595
        ]
      }
    },
    {
      "type": "Feature",
      "id": "node/8432393037",
      "properties": {
        "timestamp": "2021-02-17T16:35:08Z",
        "version": 1,
        "changeset": 99466067,
        "addr:city": "Buriti Bravo",
        "addr:postcode": "65685-000",
        "addr:street": "Rua das Violetas",
        "amenity": "school",
        "name": "Escolinha Infantil Recanto Do Saber",
        "id": "node/8432393037"
      },
      "geometry": {
        "type": "Point",
        "coordinates": [
          -43.8374711,
          -5.8432705
        ]
      }
    },
    {
      "type": "Feature",
      "id": "node/8432393559",
      "properties": {
        "timestamp": "2021-02-17T16:35:57Z",
        "version": 1,
        "changeset": 99466104,
        "addr:city": "Buriti Bravo",
        "addr:postcode": "65685-000",
        "amenity": "school",
        "name": "EM Nini Fonseca Aires",
        "id": "node/8432393559"
      },
      "geometry": {
        "type": "Point",
        "coordinates": [
          -43.9762303,
          -5.9005656
        ]
      }
    },
    {
      "type": "Feature",
      "id": "node/8432394244",
      "properties": {
        "timestamp": "2021-02-17T16:29:22Z",
        "version": 1,
        "changeset": 99465711,
        "addr:city": "Buriti Bravo",
        "addr:postcode": "65685-000",
        "addr:street": "Praça Zuza Paiva",
        "amenity": "school",
        "name": "Centro de Ensino Professora Zuleica Santos",
        "id": "node/8432394244"
      },
      "geometry": {
        "type": "Point",
        "coordinates": [
          -43.8295813,
          -5.8395737
        ]
      }
    },
    {
      "type": "Feature",
      "id": "node/8432396218",
      "properties": {
        "timestamp": "2021-02-17T16:32:37Z",
        "version": 1,
        "changeset": 99465912,
        "addr:city": "Buriti Bravo",
        "addr:postcode": "65685-000",
        "amenity": "school",
        "name": "Em Zacarias Pereira",
        "id": "node/8432396218"
      },
      "geometry": {
        "type": "Point",
        "coordinates": [
          -43.9507736,
          -5.8637721
        ]
      }
    },
    {
      "type": "Feature",
      "id": "node/8432421924",
      "properties": {
        "timestamp": "2021-02-17T16:37:03Z",
        "version": 1,
        "changeset": 99466149,
        "addr:city": "Buriti Bravo",
        "addr:postcode": "65685-000",
        "addr:street": "Rua da Glória I",
        "amenity": "school",
        "name": "Centro de Ensino Senador Carvalho Guimarães",
        "id": "node/8432421924"
      },
      "geometry": {
        "type": "Point",
        "coordinates": [
          -43.8354579,
          -5.835965
        ]
      }
    },
    {
      "type": "Feature",
      "id": "node/8432428907",
      "properties": {
        "timestamp": "2021-02-17T16:52:06Z",
        "version": 1,
        "changeset": 99466950,
        "addr:city": "Buriti Bravo",
        "addr:postcode": "65685-000",
        "amenity": "school",
        "name": "Ue Benedito Leite",
        "id": "node/8432428907"
      },
      "geometry": {
        "type": "Point",
        "coordinates": [
          -43.8365716,
          -5.8353436
        ]
      }
    },
    {
      "type": "Feature",
      "id": "node/8432430541",
      "properties": {
        "timestamp": "2021-02-17T16:39:27Z",
        "version": 1,
        "changeset": 99466274,
        "addr:city": "Buriti Bravo",
        "addr:postcode": "65685-000",
        "amenity": "school",
        "name": "Centro de Ensino Senador Carvalho Guimaraes",
        "id": "node/8432430541"
      },
      "geometry": {
        "type": "Point",
        "coordinates": [
          -43.950797,
          -5.8638335
        ]
      }
    },
    {
      "type": "Feature",
      "id": "node/8432435509",
      "properties": {
        "timestamp": "2021-02-17T16:43:03Z",
        "version": 1,
        "changeset": 99466461,
        "addr:city": "Buriti Bravo",
        "addr:postcode": "65685-000",
        "amenity": "school",
        "name": "EM Apolinario M da Silva",
        "id": "node/8432435509"
      },
      "geometry": {
        "type": "Point",
        "coordinates": [
          -44.0110119,
          -5.8481022
        ]
      }
    },
    {
      "type": "Feature",
      "id": "node/8432442712",
      "properties": {
        "timestamp": "2021-02-17T16:53:28Z",
        "version": 1,
        "changeset": 99467017,
        "addr:city": "Buriti Bravo",
        "addr:postcode": "65685-000",
        "addr:street": "Rodovia MA-132",
        "amenity": "school",
        "name": "EM São Sebastião",
        "id": "node/8432442712"
      },
      "geometry": {
        "type": "Point",
        "coordinates": [
          -43.9277888,
          -5.8654407
        ]
      }
    },
    {
      "type": "Feature",
      "id": "node/8432454133",
      "properties": {
        "timestamp": "2021-02-17T16:49:06Z",
        "version": 1,
        "changeset": 99466786,
        "addr:city": "Buriti Bravo",
        "addr:postcode": "65685-000",
        "amenity": "school",
        "name": "EM Santa Monica",
        "id": "node/8432454133"
      },
      "geometry": {
        "type": "Point",
        "coordinates": [
          -43.9867243,
          -5.9276986
        ]
      }
    },
    {
      "type": "Feature",
      "id": "node/8432456236",
      "properties": {
        "timestamp": "2021-02-17T16:50:00Z",
        "version": 1,
        "changeset": 99466844,
        "addr:city": "Buriti Bravo",
        "addr:postcode": "65685-000",
        "amenity": "school",
        "name": "EM Moacir Coelho de Sousa",
        "id": "node/8432456236"
      },
      "geometry": {
        "type": "Point",
        "coordinates": [
          -43.5922946,
          -5.7079522
        ]
      }
    },
    {
      "type": "Feature",
      "id": "node/8432457080",
      "properties": {
        "timestamp": "2021-02-17T17:09:11Z",
        "version": 1,
        "changeset": 99467797,
        "addr:city": "Buriti Bravo",
        "addr:postcode": "65685-000",
        "addr:street": "Rodovia MA-132",
        "amenity": "school",
        "name": "EM Feliciana Ferreira Leite",
        "id": "node/8432457080"
      },
      "geometry": {
        "type": "Point",
        "coordinates": [
          -43.9413965,
          -5.8821884
        ]
      }
    },
    {
      "type": "Feature",
      "id": "node/8432457735",
      "properties": {
        "timestamp": "2021-02-17T16:54:46Z",
        "version": 1,
        "changeset": 99467077,
        "addr:city": "Buriti Bravo",
        "addr:postcode": "EM Reunida Boa Esperança",
        "addr:suburb": "Campos Novos",
        "amenity": "school",
        "name": "EM Reunida Boa Esperança",
        "id": "node/8432457735"
      },
      "geometry": {
        "type": "Point",
        "coordinates": [
          -43.9164902,
          -5.8183105
        ]
      }
    },
    {
      "type": "Feature",
      "id": "node/8432460302",
      "properties": {
        "timestamp": "2021-02-17T17:00:53Z",
        "version": 1,
        "changeset": 99467352,
        "addr:city": "Buriti Bravo",
        "addr:postcode": "65685-000",
        "amenity": "school",
        "name": "EM Gerôncio Vieira Ferreira",
        "id": "node/8432460302"
      },
      "geometry": {
        "type": "Point",
        "coordinates": [
          -43.8306169,
          -5.9373243
        ]
      }
    },
    {
      "type": "Feature",
      "id": "node/8432460403",
      "properties": {
        "timestamp": "2021-02-17T17:11:32Z",
        "version": 1,
        "changeset": 99467908,
        "addr:city": "Buriti Bravo",
        "addr:postcode": "65685-000",
        "addr:street": "Rua Santa Luzia",
        "amenity": "school",
        "name": "Creche Mundica Raposo",
        "id": "node/8432460403"
      },
      "geometry": {
        "type": "Point",
        "coordinates": [
          -43.8330741,
          -5.8397073
        ]
      }
    },
    {
      "type": "Feature",
      "id": "node/8432468046",
      "properties": {
        "timestamp": "2021-02-17T17:02:58Z",
        "version": 1,
        "changeset": 99467505,
        "addr:city": "Buriti Bravo",
        "addr:postcode": "65685-000",
        "amenity": "school",
        "name": "EM Trajano Pereira",
        "id": "node/8432468046"
      },
      "geometry": {
        "type": "Point",
        "coordinates": [
          -43.8041959,
          -5.9132162
        ]
      }
    },
    {
      "type": "Feature",
      "id": "node/8432478663",
      "properties": {
        "timestamp": "2021-02-17T17:02:07Z",
        "version": 1,
        "changeset": 99467440,
        "addr:city": "Buriti Bravo",
        "addr:postcode": "65685-000",
        "amenity": "school",
        "name": "EM Cecilia Oliveira Almeida",
        "id": "node/8432478663"
      },
      "geometry": {
        "type": "Point",
        "coordinates": [
          -43.9254999,
          -5.6743771
        ]
      }
    },
    {
      "type": "Feature",
      "id": "node/8432488457",
      "properties": {
        "timestamp": "2021-02-17T17:10:10Z",
        "version": 1,
        "changeset": 99467843,
        "addr:city": "Buriti Bravo",
        "addr:postcode": "65685-000",
        "addr:street": "Rua Doutor Américo Costa",
        "amenity": "school",
        "name": "Escola Infantil Mundo Encantado",
        "id": "node/8432488457"
      },
      "geometry": {
        "type": "Point",
        "coordinates": [
          -43.8317446,
          -5.8343875
        ]
      }
    },
    {
      "type": "Feature",
      "id": "node/8432504249",
      "properties": {
        "timestamp": "2021-02-17T17:08:11Z",
        "version": 1,
        "changeset": 99467750,
        "addr:city": "Buriti Bravo",
        "addr:postcode": "65685-000",
        "addr:street": "Avenida Máximo Ferreira",
        "amenity": "school",
        "name": "Escola Crista Maranata",
        "id": "node/8432504249"
      },
      "geometry": {
        "type": "Point",
        "coordinates": [
          -43.8383479,
          -5.8364054
        ]
      }
    },
    {
      "type": "Feature",
      "id": "node/8432578809",
      "properties": {
        "timestamp": "2021-02-17T18:05:52Z",
        "version": 1,
        "changeset": 99470245,
        "addr:city": "Buriti Bravo",
        "addr:postcode": "65685-000",
        "amenity": "school",
        "name": "EM Padre Jader Santos Ribeiro",
        "id": "node/8432578809"
      },
      "geometry": {
        "type": "Point",
        "coordinates": [
          -43.6251572,
          -5.725894
        ]
      }
    },
    {
      "type": "Feature",
      "id": "node/8432605965",
      "properties": {
        "timestamp": "2021-02-17T18:11:46Z",
        "version": 1,
        "changeset": 99470524,
        "addr:city": "Buriti Bravo",
        "addr:postcode": "65685-000",
        "amenity": "school",
        "name": "EM Presidente Getulio Vargas",
        "id": "node/8432605965"
      },
      "geometry": {
        "type": "Point",
        "coordinates": [
          -43.8938863,
          -5.8072427
        ]
      }
    }
  ]
}
