{
  "type": "FeatureCollection",
  "features": [
    {
      "type": "Feature",
      "id": "way/1229956676",
      "properties": {
        "timestamp": "2023-12-09T18:09:07Z",
        "version": 1,
        "changeset": 144944033,
        "addr:city": "Santa Cruz do Sul",
        "addr:country": "BR",
        "addr:housenumber": "651",
        "addr:state": "Rio Grande do Sul",
        "addr:street": "Rua Marechal Floriano",
        "addr:suburb": "Centro",
        "building": "yes",
        "historic": "building",
        "name": "Casa de Artes Regina Simonis",
        "old_name": "Banco Pelotense",
        "start_date": "1922",
        "tourism": "gallery",
        "id": "way/1229956676"
      },
      "geometry": {
        "type": "Polygon",
        "coordinates": [
          [
            [
              -52.4280445,
              -29.7171752
            ],
            [
              -52.4278711,
              -29.7171761
            ],
            [
              -52.4278699,
              -29.71702
            ],
            [
              -52.4279743,
              -29.7170194
            ],
            [
              -52.4279748,
              -29.7170873
            ],
            [
              -52.4280438,
              -29.7170869
            ],
            [
              -52.4280445,
              -29.7171752
            ]
          ]
        ]
      }
    }
  ]
}
