{
  "type": "FeatureCollection",
  "features": [
    {
      "type": "Feature",
      "id": "way/944018379",
      "properties": {
        "timestamp": "2021-05-17T20:01:32Z",
        "version": 1,
        "changeset": 104846912,
        "addr:city": "Lagoa do Mato",
        "addr:postcode": "65683-000",
        "addr:street": "Rua Três",
        "addr:suburb": "Vila Nova",
        "amenity": "school",
        "name": "Centro de Ensino Porto do Saber",
        "id": "way/944018379"
      },
      "geometry": {
        "type": "Polygon",
        "coordinates": [
          [
            [
              -43.5283395,
              -6.0567679
            ],
            [
              -43.5287983,
              -6.0567402
            ],
            [
              -43.5286915,
              -6.057033
            ],
            [
              -43.5283674,
              -6.0571106
            ],
            [
              -43.5282903,
              -6.0569296
            ],
            [
              -43.5283395,
              -6.0567679
            ]
          ]
        ]
      }
    },
    {
      "type": "Feature",
      "id": "way/944020867",
      "properties": {
        "timestamp": "2021-05-17T20:12:57Z",
        "version": 1,
        "changeset": 104847324,
        "addr:city": "Lagoa do Mato",
        "addr:postcode": "65683-000",
        "addr:street": "Rua Nova",
        "addr:suburb": "Centro",
        "amenity": "school",
        "name": "Centro de Ensino Senador José Neiva",
        "id": "way/944020867"
      },
      "geometry": {
        "type": "Polygon",
        "coordinates": [
          [
            [
              -43.5243135,
              -6.0489062
            ],
            [
              -43.5247629,
              -6.0499254
            ],
            [
              -43.5241028,
              -6.0501435
            ],
            [
              -43.5238021,
              -6.0491584
            ],
            [
              -43.5243135,
              -6.0489062
            ]
          ]
        ]
      }
    },
    {
      "type": "Feature",
      "id": "way/944021080",
      "properties": {
        "timestamp": "2021-05-17T20:13:51Z",
        "version": 1,
        "changeset": 104847358,
        "addr:city": "Lagoa do Mato",
        "addr:postcode": "65683-000",
        "amenity": "school",
        "name": "UI Dom João VI",
        "id": "way/944021080"
      },
      "geometry": {
        "type": "Polygon",
        "coordinates": [
          [
            [
              -43.5837918,
              -5.994231
            ],
            [
              -43.5836874,
              -5.9947532
            ],
            [
              -43.5829842,
              -5.9946449
            ],
            [
              -43.5830713,
              -5.9941854
            ],
            [
              -43.5837918,
              -5.994231
            ]
          ]
        ]
      }
    },
    {
      "type": "Feature",
      "id": "way/944064921",
      "properties": {
        "timestamp": "2021-05-18T00:11:44Z",
        "version": 1,
        "changeset": 104852304,
        "addr:street": "Rua Principal",
        "amenity": "school",
        "name": "Unidade Integrada Noga Silva",
        "id": "way/944064921"
      },
      "geometry": {
        "type": "Polygon",
        "coordinates": [
          [
            [
              -43.5552623,
              -5.918077
            ],
            [
              -43.5551941,
              -5.9183338
            ],
            [
              -43.5549155,
              -5.9182306
            ],
            [
              -43.5549793,
              -5.9180022
            ],
            [
              -43.5552623,
              -5.918077
            ]
          ]
        ]
      }
    },
    {
      "type": "Feature",
      "id": "way/944871106",
      "properties": {
        "timestamp": "2022-02-08T23:02:35Z",
        "version": 2,
        "changeset": 117179893,
        "addr:city": "Lagoa do Mato",
        "addr:postcode": "65683-000",
        "amenity": "school",
        "name": "EM Dom Pedro II",
        "id": "way/944871106"
      },
      "geometry": {
        "type": "Polygon",
        "coordinates": [
          [
            [
              -43.4366359,
              -6.1602467
            ],
            [
              -43.4368166,
              -6.1602276
            ],
            [
              -43.4368404,
              -6.1604509
            ],
            [
              -43.4366598,
              -6.1604699
            ],
            [
              -43.4366359,
              -6.1602467
            ]
          ]
        ]
      }
    },
    {
      "type": "Feature",
      "id": "node/8740335790",
      "properties": {
        "timestamp": "2021-05-17T19:51:54Z",
        "version": 1,
        "changeset": 104846556,
        "addr:city": "Lagoa do Mato",
        "addr:postcode": "65683-000",
        "amenity": "school",
        "name": "Unidade integrada são Raimundo",
        "id": "node/8740335790"
      },
      "geometry": {
        "type": "Point",
        "coordinates": [
          -43.4693658,
          -5.9637955
        ]
      }
    },
    {
      "type": "Feature",
      "id": "node/8740340968",
      "properties": {
        "timestamp": "2021-05-17T20:03:07Z",
        "version": 1,
        "changeset": 104846978,
        "addr:city": "Lagoa do Mato",
        "addr:housenumber": "27",
        "addr:postcode": "65683-000",
        "addr:street": "Rua Pau Brasil",
        "addr:suburb": "Centro",
        "amenity": "school",
        "name": "UI Senador Alexandre Costa",
        "phone": "+55 99 3492 1140",
        "id": "node/8740340968"
      },
      "geometry": {
        "type": "Point",
        "coordinates": [
          -43.5269868,
          -6.0480047
        ]
      }
    },
    {
      "type": "Feature",
      "id": "node/8740359698",
      "properties": {
        "timestamp": "2021-05-17T20:05:24Z",
        "version": 1,
        "changeset": 104847059,
        "addr:city": "Lagoa do Mato",
        "addr:postcode": "65683-000",
        "amenity": "school",
        "name": "Em Ângelo Soares",
        "id": "node/8740359698"
      },
      "geometry": {
        "type": "Point",
        "coordinates": [
          -43.360191,
          -6.1085748
        ]
      }
    },
    {
      "type": "Feature",
      "id": "node/8740361577",
      "properties": {
        "timestamp": "2021-05-17T19:49:17Z",
        "version": 1,
        "changeset": 104846466,
        "addr:city": "Lagoa do Mato",
        "addr:postcode": "65683-000",
        "amenity": "school",
        "name": "UI Eneas Caze",
        "id": "node/8740361577"
      },
      "geometry": {
        "type": "Point",
        "coordinates": [
          -43.6664608,
          -5.8996802
        ]
      }
    },
    {
      "type": "Feature",
      "id": "node/8740369242",
      "properties": {
        "timestamp": "2021-05-17T19:50:37Z",
        "version": 1,
        "changeset": 104846519,
        "addr:city": "Lagoa do Mato",
        "addr:housenumber": "27",
        "addr:postcode": "65683-000",
        "addr:street": "Rua Pau Brasil",
        "addr:suburb": "Centro",
        "amenity": "school",
        "name": "CM Tia Diva Albuquerque",
        "id": "node/8740369242"
      },
      "geometry": {
        "type": "Point",
        "coordinates": [
          -43.5267587,
          -6.0480619
        ]
      }
    },
    {
      "type": "Feature",
      "id": "node/8740379268",
      "properties": {
        "timestamp": "2021-05-17T20:03:57Z",
        "version": 1,
        "changeset": 104847010,
        "addr:city": "Lagoa do Mato",
        "addr:postcode": "65683-000",
        "amenity": "school",
        "name": "UI Canuto Francisco Guimarães",
        "id": "node/8740379268"
      },
      "geometry": {
        "type": "Point",
        "coordinates": [
          -43.4876557,
          -6.1523145
        ]
      }
    },
    {
      "type": "Feature",
      "id": "node/8740764971",
      "properties": {
        "timestamp": "2021-05-18T00:10:27Z",
        "version": 1,
        "changeset": 104852273,
        "addr:city": "Lagoa do Mato",
        "amenity": "school",
        "name": "EM Tomaz Cosmo",
        "id": "node/8740764971"
      },
      "geometry": {
        "type": "Point",
        "coordinates": [
          -43.6101883,
          -5.8126265
        ]
      }
    },
    {
      "type": "Feature",
      "id": "node/8740766094",
      "properties": {
        "timestamp": "2021-05-17T23:59:37Z",
        "version": 1,
        "changeset": 104852127,
        "addr:city": "Lagoa do Mato",
        "addr:housenumber": "106",
        "addr:postcode": "65683-000",
        "addr:street": "Avenida Governadora Roseana Sarney",
        "addr:suburb": "Centro",
        "amenity": "school",
        "name": "EM Anália rocha",
        "phone": "+55 99 3492 1140",
        "id": "node/8740766094"
      },
      "geometry": {
        "type": "Point",
        "coordinates": [
          -43.5272157,
          -6.0480052
        ]
      }
    },
    {
      "type": "Feature",
      "id": "node/8740769553",
      "properties": {
        "timestamp": "2021-05-18T00:05:51Z",
        "version": 1,
        "changeset": 104852208,
        "addr:city": "Lagoa do Mato",
        "addr:postcode": "65683-000",
        "amenity": "school",
        "name": "UI Sete de Setembro",
        "id": "node/8740769553"
      },
      "geometry": {
        "type": "Point",
        "coordinates": [
          -43.518944,
          -6.0890602
        ]
      }
    }
  ]
}
