{
  "type": "FeatureCollection",
  "features": [
    {
      "type": "Feature",
      "id": "way/1362593785",
      "properties": {
        "timestamp": "2025-02-24T12:49:39Z",
        "version": 1,
        "changeset": 162891368,
        "addr:city": "Corrente",
        "addr:postcode": "64980000",
        "addr:street": "Rua Alberto Sabino",
        "addr:suburb": "Aeroporto",
        "amenity": "clinic",
        "healthcare": "clinic",
        "name": "UBS 'Aeroporto'",
        "operator": "Prefeitura Municipal de Corrente",
        "operator:type": "public",
        "id": "way/1362593785"
      },
      "geometry": {
        "type": "Polygon",
        "coordinates": [
          [
            [
              -45.1441046,
              -10.4525782
            ],
            [
              -45.1441523,
              -10.4527483
            ],
            [
              -45.1438052,
              -10.4528424
            ],
            [
              -45.1437575,
              -10.4526723
            ],
            [
              -45.1441046,
              -10.4525782
            ]
          ]
        ]
      }
    },
    {
      "type": "Feature",
      "id": "way/1362645135",
      "properties": {
        "timestamp": "2025-02-24T17:06:02Z",
        "version": 1,
        "changeset": 162901543,
        "addr:city": "Corrente",
        "addr:postcode": "64980-000",
        "addr:suburb": "Jacolândia",
        "amenity": "clinic",
        "building": "yes",
        "healthcare": "clinic",
        "name": "UBS Jacolândia/Nova Corrente",
        "operator": "Prefeitura Municipal de Corrente",
        "operator:type": "public",
        "id": "way/1362645135"
      },
      "geometry": {
        "type": "Polygon",
        "coordinates": [
          [
            [
              -45.186719,
              -10.4287779
            ],
            [
              -45.1869069,
              -10.4289809
            ],
            [
              -45.1866019,
              -10.4292552
            ],
            [
              -45.1864217,
              -10.4290582
            ],
            [
              -45.186719,
              -10.4287779
            ]
          ]
        ]
      }
    },
    {
      "type": "Feature",
      "id": "node/12577400526",
      "properties": {
        "timestamp": "2025-02-11T03:17:39Z",
        "version": 1,
        "changeset": 162374553,
        "addr:city": "Corrente",
        "addr:postcode": "64980000",
        "addr:street": "Rua Félix Casaco",
        "addr:suburb": "Vermelhão",
        "amenity": "clinic",
        "healthcare": "clinic",
        "name": "UBS Vermelhão",
        "operator": "Prefeitura Municipal de Corrente",
        "operator:type": "public",
        "id": "node/12577400526"
      },
      "geometry": {
        "type": "Point",
        "coordinates": [
          -45.1737959,
          -10.4514932
        ]
      }
    },
    {
      "type": "Feature",
      "id": "node/12577400527",
      "properties": {
        "timestamp": "2025-02-24T17:06:02Z",
        "version": 2,
        "changeset": 162901543,
        "addr:city": "Corrente",
        "addr:postcode": "64980-000",
        "addr:suburb": "Jacolândia",
        "amenity": "clinic",
        "healthcare": "clinic",
        "name": "UBS Jacolândia/Nova Corrente",
        "operator": "Prefeitura Municipal de Corrente",
        "operator:type": "public",
        "id": "node/12577400527"
      },
      "geometry": {
        "type": "Point",
        "coordinates": [
          -45.1867344,
          -10.4289645
        ]
      }
    },
    {
      "type": "Feature",
      "id": "node/12577400528",
      "properties": {
        "timestamp": "2025-02-11T03:17:39Z",
        "version": 1,
        "changeset": 162374553,
        "addr:city": "Corrente",
        "addr:postcode": "64980-000",
        "addr:street": "Rua Ipiranga",
        "amenity": "clinic",
        "healthcare": "clinic",
        "name": "UBS Sincerino",
        "operator": "Prefeitura Municipal de Corrente",
        "operator:type": "public",
        "id": "node/12577400528"
      },
      "geometry": {
        "type": "Point",
        "coordinates": [
          -45.1611514,
          -10.4400076
        ]
      }
    },
    {
      "type": "Feature",
      "id": "node/12577400529",
      "properties": {
        "timestamp": "2025-02-11T03:17:39Z",
        "version": 1,
        "changeset": 162374553,
        "addr:city": "Corrente",
        "addr:postcode": "64980000",
        "addr:street": "Rua João do Lago",
        "addr:suburb": "Morro do Piquí",
        "amenity": "clinic",
        "healthcare": "clinic",
        "name": "UBS Morro do Piquí",
        "id": "node/12577400529"
      },
      "geometry": {
        "type": "Point",
        "coordinates": [
          -45.1639411,
          -10.428686
        ]
      }
    },
    {
      "type": "Feature",
      "id": "node/12577400530",
      "properties": {
        "timestamp": "2025-02-24T12:49:39Z",
        "version": 2,
        "changeset": 162891368,
        "addr:city": "Corrente",
        "addr:postcode": "64980000",
        "addr:street": "Rua Alberto Sabino",
        "addr:suburb": "Aeroporto",
        "amenity": "clinic",
        "healthcare": "clinic",
        "name": "UBS 'Aeroporto'",
        "operator": "Prefeitura Municipal de Corrente",
        "operator:type": "public",
        "id": "node/12577400530"
      },
      "geometry": {
        "type": "Point",
        "coordinates": [
          -45.1439763,
          -10.452668
        ]
      }
    },
    {
      "type": "Feature",
      "id": "node/12577400531",
      "properties": {
        "timestamp": "2025-02-11T03:17:39Z",
        "version": 1,
        "changeset": 162374553,
        "addr:city": "Corrente",
        "addr:postcode": "64980000",
        "addr:street": "Rua João Pacheco Cavalcante",
        "addr:suburb": "Centro",
        "amenity": "clinic",
        "healthcare": "clinic",
        "name": "UBS Centro",
        "id": "node/12577400531"
      },
      "geometry": {
        "type": "Point",
        "coordinates": [
          -45.1669195,
          -10.4420285
        ]
      }
    }
  ]
}
