{
  "type": "FeatureCollection",
  "features": [
    {
      "type": "Feature",
      "id": "node/5029708923",
      "properties": {
        "timestamp": "2017-08-12T00:44:19Z",
        "version": 1,
        "changeset": 51047566,
        "name": "Hospedaria da Dica",
        "name:pt": "Hospedaria da Dica",
        "tourism": "hotel",
        "id": "node/5029708923"
      },
      "geometry": {
        "type": "Point",
        "coordinates": [
          -66.0954783,
          -2.5183666
        ]
      }
    },
    {
      "type": "Feature",
      "id": "node/5060401424",
      "properties": {
        "timestamp": "2017-08-26T15:18:13Z",
        "version": 1,
        "changeset": 51461433,
        "name": "Hotel Francis",
        "name:pt": "Hotel Francis",
        "tourism": "hotel",
        "id": "node/5060401424"
      },
      "geometry": {
        "type": "Point",
        "coordinates": [
          -66.0959296,
          -2.5140714
        ]
      }
    },
    {
      "type": "Feature",
      "id": "node/5060401425",
      "properties": {
        "timestamp": "2017-08-26T15:18:16Z",
        "version": 1,
        "changeset": 51461433,
        "name": "Hotel Eliana",
        "name:pt": "Hotel Eliana",
        "tourism": "hotel",
        "id": "node/5060401425"
      },
      "geometry": {
        "type": "Point",
        "coordinates": [
          -66.0964515,
          -2.5137029
        ]
      }
    },
    {
      "type": "Feature",
      "id": "node/5912512185",
      "properties": {
        "timestamp": "2021-08-18T00:18:06Z",
        "version": 2,
        "changeset": 109838941,
        "addr:housenumber": "362",
        "addr:street": "Rua Eurico Gaspar Dutra",
        "internet_access": "wlan",
        "name": "Hotel Oliveira",
        "opening_hours": "24/7",
        "phone": "+55 97 9 9152 3051",
        "tourism": "hotel",
        "id": "node/5912512185"
      },
      "geometry": {
        "type": "Point",
        "coordinates": [
          -66.1006064,
          -2.5161581
        ]
      }
    }
  ]
}
