{
  "type": "FeatureCollection",
  "features": [
    {
      "type": "Feature",
      "id": "node/9196429574",
      "properties": {
        "timestamp": "2021-11-21T12:14:39Z",
        "version": 2,
        "changeset": 114055445,
        "addr:city": "Antonina do Norte",
        "addr:housenumber": "27",
        "addr:street": "CE-371",
        "addr:suburb": "Serraria",
        "government": "healthcare",
        "name": "Vigilância Sanitária de Antonina do Norte",
        "office": "government",
        "website": "http://cnes.datasus.gov.br/Exibe_Ficha_Estabelecimento.asp?VCo_Unidade=2300806507220&VListar=1&VEstado=23&VMun=230080",
        "id": "node/9196429574"
      },
      "geometry": {
        "type": "Point",
        "coordinates": [
          -39.9794439,
          -6.7659748
        ]
      }
    },
    {
      "type": "Feature",
      "id": "node/9196429612",
      "properties": {
        "timestamp": "2021-10-23T21:03:43Z",
        "version": 1,
        "changeset": 112887699,
        "government": "legislative",
        "name": "Câmara Municipal de Vereadores de Antonina do Norte",
        "office": "government",
        "id": "node/9196429612"
      },
      "geometry": {
        "type": "Point",
        "coordinates": [
          -39.9882361,
          -6.7745552
        ]
      }
    },
    {
      "type": "Feature",
      "id": "node/9196431035",
      "properties": {
        "timestamp": "2021-10-23T21:03:43Z",
        "version": 1,
        "changeset": 112887699,
        "government": "education",
        "name": "Secretaria Municipal de Educação de Antonina do Norte",
        "office": "government",
        "id": "node/9196431035"
      },
      "geometry": {
        "type": "Point",
        "coordinates": [
          -39.981662,
          -6.7739506
        ]
      }
    },
    {
      "type": "Feature",
      "id": "node/9196431038",
      "properties": {
        "timestamp": "2021-11-21T12:14:39Z",
        "version": 2,
        "changeset": 114055445,
        "addr:city": "Antonina do Norte",
        "addr:housenumber": "26",
        "addr:street": "CE-371",
        "addr:suburb": "Serraria",
        "government": "healthcare",
        "name": "Secretaria Municipal de Saúde de Antonina do Norte",
        "office": "government",
        "website": "http://cnes.datasus.gov.br/Exibe_Ficha_Estabelecimento.asp?VCo_Unidade=2300806424031&VEstado=23&VCodMunicipio=230080",
        "id": "node/9196431038"
      },
      "geometry": {
        "type": "Point",
        "coordinates": [
          -39.9795377,
          -6.7659322
        ]
      }
    }
  ]
}
