{
  "type": "FeatureCollection",
  "features": [
    {
      "type": "Feature",
      "id": "node/9196431083",
      "properties": {
        "timestamp": "2021-10-23T21:03:43Z",
        "version": 1,
        "changeset": 112887699,
        "addr:city": "Antonina do Norte",
        "addr:housenumber": "20",
        "addr:postcode": "63570000",
        "addr:street": "Rua Igino Batista Maciel",
        "addr:suburb": "Castelo Branco",
        "amenity": "kindergarten",
        "name": "Creche Zeferino Paulino de Brito",
        "id": "node/9196431083"
      },
      "geometry": {
        "type": "Point",
        "coordinates": [
          -39.9873054,
          -6.7706532
        ]
      }
    },
    {
      "type": "Feature",
      "id": "node/9196431084",
      "properties": {
        "timestamp": "2021-10-23T21:03:43Z",
        "version": 1,
        "changeset": 112887699,
        "addr:city": "Antonina do Norte",
        "addr:postcode": "63570000",
        "addr:street": "Rua Coronel Virgílio Távora",
        "addr:suburb": "Centro",
        "amenity": "kindergarten",
        "name": "Creche Raimunda Alves de Souza",
        "id": "node/9196431084"
      },
      "geometry": {
        "type": "Point",
        "coordinates": [
          -39.9876863,
          -6.7732102
        ]
      }
    }
  ]
}
