{
  "type": "FeatureCollection",
  "features": [
    {
      "type": "Feature",
      "id": "way/1057913415",
      "properties": {
        "timestamp": "2022-10-22T01:46:24Z",
        "version": 3,
        "changeset": 127907038,
        "addr:city": "Silveiras",
        "addr:housenumber": "448",
        "addr:postcode": "12690-000",
        "addr:street": "Avenida Governador Carvalho Pinto",
        "addr:suburb": "Centro",
        "amenity": "kindergarten",
        "name": "Escolas Municipais de Educação Infantil e Ensino Fundamental Dom Edmund Benedict Nugent",
        "phone": "+55 12 3106 1300",
        "preschool": "yes",
        "ref": "INEP-35241568",
        "short_name": "EMEIEF Dom  Edmund Benedict Nugent",
        "source": "INEP",
        "id": "way/1057913415"
      },
      "geometry": {
        "type": "Polygon",
        "coordinates": [
          [
            [
              -44.850605,
              -22.662802
            ],
            [
              -44.8505791,
              -22.6622211
            ],
            [
              -44.8513499,
              -22.6621815
            ],
            [
              -44.8513984,
              -22.6627622
            ],
            [
              -44.850605,
              -22.662802
            ]
          ]
        ]
      }
    }
  ]
}
