{
  "type": "FeatureCollection",
  "features": [
    {
      "type": "Feature",
      "id": "way/975250351",
      "properties": {
        "timestamp": "2021-08-21T14:52:10Z",
        "version": 1,
        "changeset": 110031558,
        "addr:city": "Altamira do Maranhão",
        "addr:housenumber": "01",
        "addr:postcode": "65310-000",
        "addr:street": "Rua Doutor Miranda",
        "addr:suburb": "Bairro Alvorada",
        "amenity": "school",
        "name": "Unidade Escola Rosalino Lima Da Silva",
        "id": "way/975250351"
      },
      "geometry": {
        "type": "Polygon",
        "coordinates": [
          [
            [
              -45.4666378,
              -4.1615135
            ],
            [
              -45.4665191,
              -4.1618078
            ],
            [
              -45.4661406,
              -4.1616446
            ],
            [
              -45.4662529,
              -4.1613615
            ],
            [
              -45.4666378,
              -4.1615135
            ]
          ]
        ]
      }
    },
    {
      "type": "Feature",
      "id": "way/975273393",
      "properties": {
        "timestamp": "2021-08-21T17:30:50Z",
        "version": 1,
        "changeset": 110036716,
        "addr:city": "Altamira do Maranhão",
        "addr:postcode": "65310-000",
        "amenity": "school",
        "name": "EM de Curralinho",
        "id": "way/975273393"
      },
      "geometry": {
        "type": "Polygon",
        "coordinates": [
          [
            [
              -45.3748756,
              -4.1448888
            ],
            [
              -45.37495,
              -4.1450239
            ],
            [
              -45.3747845,
              -4.1451247
            ],
            [
              -45.374709,
              -4.1450095
            ],
            [
              -45.3748756,
              -4.1448888
            ]
          ]
        ]
      }
    },
    {
      "type": "Feature",
      "id": "way/975286152",
      "properties": {
        "timestamp": "2021-08-21T19:50:56Z",
        "version": 2,
        "changeset": 110040434,
        "addr:city": "Altamira do Maranhão",
        "addr:postcode": "65310-000",
        "addr:street": "Avenida Getúlio Vargas",
        "addr:suburb": "Centro",
        "amenity": "school",
        "name": "Colegio Governador Nunes Freire",
        "id": "way/975286152"
      },
      "geometry": {
        "type": "Polygon",
        "coordinates": [
          [
            [
              -45.4640143,
              -4.164235
            ],
            [
              -45.4639473,
              -4.1647624
            ],
            [
              -45.4635837,
              -4.1647164
            ],
            [
              -45.4636507,
              -4.164189
            ],
            [
              -45.4640143,
              -4.164235
            ]
          ]
        ]
      }
    },
    {
      "type": "Feature",
      "id": "way/975287651",
      "properties": {
        "timestamp": "2021-08-21T19:18:53Z",
        "version": 1,
        "changeset": 110039621,
        "addr:postcode": "65310-000",
        "amenity": "school",
        "name": "EM Centro do Davi",
        "phone": "+55 98 3664 0231",
        "id": "way/975287651"
      },
      "geometry": {
        "type": "Polygon",
        "coordinates": [
          [
            [
              -45.5856185,
              -4.2529822
            ],
            [
              -45.5856663,
              -4.2531814
            ],
            [
              -45.5855458,
              -4.2532101
            ],
            [
              -45.585498,
              -4.253011
            ],
            [
              -45.5856185,
              -4.2529822
            ]
          ]
        ]
      }
    },
    {
      "type": "Feature",
      "id": "way/975292032",
      "properties": {
        "timestamp": "2021-08-21T19:50:56Z",
        "version": 1,
        "changeset": 110040434,
        "addr:city": "Altamira do Maranhão",
        "addr:housenumber": "407",
        "addr:postcode": "65310-000",
        "addr:street": "Avenida Getúlio Vargas",
        "addr:suburb": "Centro",
        "amenity": "school",
        "name": "Centro De Ensino Gonçalves Dias",
        "phone": "+55 98 9 9194 1426",
        "id": "way/975292032"
      },
      "geometry": {
        "type": "Polygon",
        "coordinates": [
          [
            [
              -45.4639569,
              -4.1634819
            ],
            [
              -45.4639252,
              -4.1640014
            ],
            [
              -45.4634983,
              -4.1639754
            ],
            [
              -45.4635301,
              -4.1634559
            ],
            [
              -45.4639569,
              -4.1634819
            ]
          ]
        ]
      }
    },
    {
      "type": "Feature",
      "id": "way/975293769",
      "properties": {
        "timestamp": "2021-08-21T20:07:24Z",
        "version": 1,
        "changeset": 110040805,
        "addr:city": "Altamira do Maranhão",
        "addr:postcode": "65310-000",
        "amenity": "school",
        "name": "GE Ditador Ernesto Geisel",
        "id": "way/975293769"
      },
      "geometry": {
        "type": "Polygon",
        "coordinates": [
          [
            [
              -45.5250444,
              -4.1115762
            ],
            [
              -45.5250978,
              -4.1116975
            ],
            [
              -45.5248785,
              -4.1117936
            ],
            [
              -45.5248251,
              -4.1116722
            ],
            [
              -45.5250444,
              -4.1115762
            ]
          ]
        ]
      }
    },
    {
      "type": "Feature",
      "id": "way/975306624",
      "properties": {
        "timestamp": "2021-08-21T21:54:22Z",
        "version": 1,
        "changeset": 110043109,
        "addr:city": "Altamira do Maranhão",
        "addr:postcode": "65310-000",
        "amenity": "school",
        "name": "EM Nossa Senhora da Conceição",
        "id": "way/975306624"
      },
      "geometry": {
        "type": "Polygon",
        "coordinates": [
          [
            [
              -45.5846332,
              -4.2361096
            ],
            [
              -45.584618,
              -4.2362361
            ],
            [
              -45.5843026,
              -4.2361984
            ],
            [
              -45.5843179,
              -4.2360718
            ],
            [
              -45.5846332,
              -4.2361096
            ]
          ]
        ]
      }
    },
    {
      "type": "Feature",
      "id": "way/975307991",
      "properties": {
        "timestamp": "2021-08-21T22:11:34Z",
        "version": 1,
        "changeset": 110043459,
        "addr:city": "Altamira do Maranhão",
        "addr:postcode": "65310-000",
        "amenity": "school",
        "name": "EM Renovadora do Brasil",
        "phone": "+55 98 3664 0003",
        "id": "way/975307991"
      },
      "geometry": {
        "type": "Polygon",
        "coordinates": [
          [
            [
              -45.4344681,
              -4.2392767
            ],
            [
              -45.4346432,
              -4.2392314
            ],
            [
              -45.4346843,
              -4.2393896
            ],
            [
              -45.4345092,
              -4.2394349
            ],
            [
              -45.4344681,
              -4.2392767
            ]
          ]
        ]
      }
    },
    {
      "type": "Feature",
      "id": "node/9023472434",
      "properties": {
        "timestamp": "2021-08-20T19:46:20Z",
        "version": 1,
        "changeset": 110003936,
        "addr:city": "Altamira do Maranhão",
        "addr:postcode": "65310-000",
        "amenity": "school",
        "name": "GE de Jeju",
        "phone": "+55 98 3664 0184",
        "id": "node/9023472434"
      },
      "geometry": {
        "type": "Point",
        "coordinates": [
          -45.4846346,
          -4.0846385
        ]
      }
    },
    {
      "type": "Feature",
      "id": "node/9023851093",
      "properties": {
        "timestamp": "2021-08-20T21:53:18Z",
        "version": 1,
        "changeset": 110007545,
        "addr:city": "Altamira do Maranhão",
        "addr:postcode": "65310-000",
        "amenity": "school",
        "name": "UI Professora Ireni Alves Pereira",
        "id": "node/9023851093"
      },
      "geometry": {
        "type": "Point",
        "coordinates": [
          -45.462783,
          -4.1725552
        ]
      }
    },
    {
      "type": "Feature",
      "id": "node/9025327294",
      "properties": {
        "timestamp": "2021-08-21T19:31:00Z",
        "version": 1,
        "changeset": 110039916,
        "addr:city": "Altamira do Maranhão",
        "addr:postcode": "65310-000",
        "addr:street": "Rua do Campo",
        "addr:suburb": "São Raimundo",
        "amenity": "school",
        "name": "GE Ditador Castelo Branco",
        "id": "node/9025327294"
      },
      "geometry": {
        "type": "Point",
        "coordinates": [
          -45.4999942,
          -4.187006
        ]
      }
    },
    {
      "type": "Feature",
      "id": "node/9025328163",
      "properties": {
        "timestamp": "2021-08-21T19:39:56Z",
        "version": 1,
        "changeset": 110040166,
        "addr:city": "Altamira do Maranhão",
        "addr:postcode": "65310-000",
        "addr:street": "Avenida Getúlio Vargas",
        "addr:suburb": "Centro",
        "amenity": "school",
        "phone": "+55 98 3664 0095",
        "id": "node/9025328163"
      },
      "geometry": {
        "type": "Point",
        "coordinates": [
          -45.4663653,
          -4.1640229
        ]
      }
    },
    {
      "type": "Feature",
      "id": "node/9025559670",
      "properties": {
        "timestamp": "2021-08-21T22:45:20Z",
        "version": 1,
        "changeset": 110044083,
        "addr:city": "Altamira do Maranhão",
        "addr:housenumber": "73",
        "addr:postcode": "65310-000",
        "addr:suburb": "Aldeia",
        "amenity": "school",
        "name": "GE Gonçalves Dias",
        "id": "node/9025559670"
      },
      "geometry": {
        "type": "Point",
        "coordinates": [
          -45.4129435,
          -4.1421128
        ]
      }
    }
  ]
}
