{
  "type": "FeatureCollection",
  "features": [
    {
      "type": "Feature",
      "id": "way/311194067",
      "properties": {
        "timestamp": "2015-07-26T20:23:06Z",
        "version": 2,
        "changeset": 32896874,
        "amenity": "cinema",
        "building": "yes",
        "id": "way/311194067"
      },
      "geometry": {
        "type": "Polygon",
        "coordinates": [
          [
            [
              -50.787039,
              -29.3622731
            ],
            [
              -50.7871879,
              -29.3624012
            ],
            [
              -50.7870769,
              -29.3624991
            ],
            [
              -50.7869281,
              -29.3623712
            ],
            [
              -50.787039,
              -29.3622731
            ]
          ]
        ]
      }
    },
    {
      "type": "Feature",
      "id": "node/6437381819",
      "properties": {
        "timestamp": "2019-04-30T00:40:56Z",
        "version": 1,
        "changeset": 69715695,
        "addr:city": "Canela",
        "addr:housenumber": "255",
        "addr:postcode": "95680-000",
        "addr:street": "Rua Dona Carlinda",
        "addr:suburb": "Centro",
        "amenity": "cinema",
        "name": "Cine Magn√≥lia",
        "id": "node/6437381819"
      },
      "geometry": {
        "type": "Point",
        "coordinates": [
          -50.810885,
          -29.3605052
        ]
      }
    }
  ]
}
