{
  "type": "FeatureCollection",
  "features": [
    {
      "type": "Feature",
      "id": "way/1214144392",
      "properties": {
        "timestamp": "2024-11-23T00:56:20Z",
        "version": 2,
        "changeset": 159480166,
        "addr:city": "Canela",
        "addr:housenumber": "157",
        "addr:postcode": "95680016",
        "addr:street": "Rua Augusto Pestana",
        "addr:suburb": "Centro",
        "amenity": "dentist",
        "building": "house",
        "healthcare": "dentist",
        "healthcare:speciality": "prótese;implantodontia",
        "name": "Centro Clínico Salutare",
        "opening_hours": "Mo-Fr 08:00-18:00",
        "operator": "Felipe Lucena de Oliveira",
        "id": "way/1214144392"
      },
      "geometry": {
        "type": "Polygon",
        "coordinates": [
          [
            [
              -50.8137551,
              -29.3616425
            ],
            [
              -50.8136203,
              -29.3616439
            ],
            [
              -50.8136179,
              -29.3614709
            ],
            [
              -50.8137527,
              -29.3614695
            ],
            [
              -50.8137551,
              -29.3616425
            ]
          ]
        ]
      }
    },
    {
      "type": "Feature",
      "id": "node/11813904390",
      "properties": {
        "timestamp": "2024-04-14T11:18:18Z",
        "version": 2,
        "changeset": 149988121,
        "addr:city": "Canela",
        "addr:housenumber": "89/304",
        "addr:postcode": "95680210",
        "addr:street": "Rua Melvin Jones",
        "addr:suburb": "Centro",
        "amenity": "dentist",
        "check_date": "2024-04-13",
        "currency:XBT": "yes",
        "healthcare": "dentist",
        "healthcare:speciality": "endodontia;dentística;prótese;implante;harmonização_facial;clareamento_dental;periodontia",
        "mobile": "+55 51 981208765",
        "name": "Corrêa Ghisi Odontologia",
        "opening_hours": "Agendamento",
        "operator": "Lísia Corrêa e Alexandre Ghisi",
        "payment:lightning": "yes",
        "id": "node/11813904390"
      },
      "geometry": {
        "type": "Point",
        "coordinates": [
          -50.8146092,
          -29.3644734
        ]
      }
    }
  ]
}
