{
  "type": "FeatureCollection",
  "features": [
    {
      "type": "Feature",
      "id": "node/4554095190",
      "properties": {
        "timestamp": "2016-12-14T16:04:53Z",
        "version": 1,
        "changeset": 44401058,
        "addr:housenumber": "15",
        "addr:postcode": "69360000",
        "addr:street": "Rua Maria Paulina, N.S.L",
        "tourism": "guest_house",
        "id": "node/4554095190"
      },
      "geometry": {
        "type": "Point",
        "coordinates": [
          -61.1343922,
          1.8163527
        ]
      }
    },
    {
      "type": "Feature",
      "id": "node/4557515496",
      "properties": {
        "timestamp": "2016-12-16T18:02:30Z",
        "version": 1,
        "changeset": 44453398,
        "addr:street": "Quarentenaria",
        "name": "Casa Granja São José",
        "name:pt": "Casa Granja São José",
        "tourism": "guest_house",
        "id": "node/4557515496"
      },
      "geometry": {
        "type": "Point",
        "coordinates": [
          -61.1477421,
          1.7877608
        ]
      }
    }
  ]
}
