{
  "type": "FeatureCollection",
  "features": [
    {
      "type": "Feature",
      "id": "way/1136757847",
      "properties": {
        "timestamp": "2023-01-31T16:22:06Z",
        "version": 1,
        "changeset": 131928648,
        "addr:city": "Santa Clara do Sul",
        "addr:country": "BR",
        "addr:postcode": "95915-000",
        "addr:street": "Avenida Emancipação",
        "addr:suburb": "Centro",
        "amenity": "kindergarten",
        "name": "Escola Municipal de Educação Infantil Criança Feliz",
        "operator": "Prefeitura Municipal de Santa Clara do Sul",
        "id": "way/1136757847"
      },
      "geometry": {
        "type": "Polygon",
        "coordinates": [
          [
            [
              -52.083441,
              -29.4654416
            ],
            [
              -52.0834318,
              -29.4661007
            ],
            [
              -52.0829235,
              -29.4660953
            ],
            [
              -52.0829328,
              -29.4654362
            ],
            [
              -52.083441,
              -29.4654416
            ]
          ]
        ]
      }
    },
    {
      "type": "Feature",
      "id": "way/1146803905",
      "properties": {
        "timestamp": "2023-02-16T21:05:16Z",
        "version": 1,
        "changeset": 132648595,
        "addr:city": "Santa Clara do Sul",
        "addr:country": "BR",
        "addr:housenumber": "1237",
        "addr:postcode": "95915-000",
        "addr:state": "Rio Grande do Sul",
        "addr:street": "Avenida 28 de Maio",
        "addr:suburb": "Centro",
        "amenity": "kindergarten",
        "name": "Eescola Municipal de Educação Iinfantil Pequeno Mundo",
        "phone": "+55 (51) 37822261",
        "id": "way/1146803905"
      },
      "geometry": {
        "type": "Polygon",
        "coordinates": [
          [
            [
              -52.0884165,
              -29.4699084
            ],
            [
              -52.0879847,
              -29.4699046
            ],
            [
              -52.0879439,
              -29.4699056
            ],
            [
              -52.0879468,
              -29.4695241
            ],
            [
              -52.0879463,
              -29.4693793
            ],
            [
              -52.0879667,
              -29.4693793
            ],
            [
              -52.0879667,
              -29.4691291
            ],
            [
              -52.0882979,
              -29.4691291
            ],
            [
              -52.0882964,
              -29.4693191
            ],
            [
              -52.0882972,
              -29.4695352
            ],
            [
              -52.0882938,
              -29.4696154
            ],
            [
              -52.0884198,
              -29.4696165
            ],
            [
              -52.0884165,
              -29.4699084
            ]
          ]
        ]
      }
    }
  ]
}
