{
  "type": "FeatureCollection",
  "features": [
    {
      "type": "Feature",
      "id": "node/10671730538",
      "properties": {
        "timestamp": "2023-02-16T21:30:43Z",
        "version": 1,
        "changeset": 132649311,
        "addr:city": "Santa Clara do Sul",
        "addr:country": "BR",
        "addr:housename": "Sala 02",
        "addr:housenumber": "1460",
        "addr:postcode": "95915-000",
        "addr:state": "Rio Grande do Sul",
        "addr:street": "Avenida 28 de Maio",
        "addr:suburb": "Centro",
        "amenity": "pharmacy",
        "brand": "Agafarma",
        "brand:wikidata": "Q93735939",
        "healthcare": "pharmacy",
        "name": "Agafarma",
        "id": "node/10671730538"
      },
      "geometry": {
        "type": "Point",
        "coordinates": [
          -52.0901996,
          -29.4689563
        ]
      }
    },
    {
      "type": "Feature",
      "id": "node/10671730539",
      "properties": {
        "timestamp": "2023-02-16T21:30:43Z",
        "version": 1,
        "changeset": 132649311,
        "addr:city": "Santa Clara do Sul",
        "addr:country": "BR",
        "addr:housenumber": "1158",
        "addr:postcode": "95915-000",
        "addr:street": "Avenida 28 de Maio",
        "addr:suburb": "Centro",
        "amenity": "pharmacy",
        "dispensing": "yes",
        "name": "FÃ¡rmacias Associadas Drogativa",
        "phone": "+55 (51) 3782-1479",
        "id": "node/10671730539"
      },
      "geometry": {
        "type": "Point",
        "coordinates": [
          -52.0872465,
          -29.4690077
        ]
      }
    },
    {
      "type": "Feature",
      "id": "node/10671730556",
      "properties": {
        "timestamp": "2023-02-16T21:30:43Z",
        "version": 1,
        "changeset": 132649311,
        "addr:city": "Santa Clara do Sul",
        "addr:country": "BR",
        "addr:housename": "Sala 101",
        "addr:housenumber": "997",
        "addr:postcode": "95915-000",
        "addr:street": "Rua 9 de Fevereiro",
        "addr:suburb": "Centro",
        "amenity": "pharmacy",
        "brand": "Agafarma",
        "brand:wikidata": "Q93735939",
        "healthcare": "pharmacy",
        "name": "Agafarma",
        "phone": "+55 51 3782-1066",
        "id": "node/10671730556"
      },
      "geometry": {
        "type": "Point",
        "coordinates": [
          -52.0847815,
          -29.4682266
        ]
      }
    },
    {
      "type": "Feature",
      "id": "node/10961827266",
      "properties": {
        "timestamp": "2023-06-07T15:54:10Z",
        "version": 1,
        "changeset": 137062293,
        "amenity": "pharmacy",
        "check_date": "2023-06-06",
        "healthcare": "pharmacy",
        "id": "node/10961827266"
      },
      "geometry": {
        "type": "Point",
        "coordinates": [
          -52.0834647,
          -29.4695363
        ]
      }
    },
    {
      "type": "Feature",
      "id": "node/10961827268",
      "properties": {
        "timestamp": "2023-06-07T15:54:10Z",
        "version": 1,
        "changeset": 137062293,
        "amenity": "pharmacy",
        "check_date": "2023-06-06",
        "healthcare": "pharmacy",
        "name": "Asterfarma",
        "id": "node/10961827268"
      },
      "geometry": {
        "type": "Point",
        "coordinates": [
          -52.0854222,
          -29.4692341
        ]
      }
    }
  ]
}
