{
  "type": "FeatureCollection",
  "features": [
    {
      "type": "Feature",
      "id": "way/1146803897",
      "properties": {
        "timestamp": "2023-02-16T21:05:16Z",
        "version": 1,
        "changeset": 132648595,
        "addr:city": "Santa Clara do Sul",
        "addr:country": "BR",
        "addr:housenumber": "373",
        "addr:postcode": "95915-000",
        "addr:state": "Rio Grande do Sul",
        "addr:street": "Rua Coronel José Diel",
        "addr:suburb": "Centro",
        "amenity": "school",
        "name": "Escola Estadual de Ensino Médio Santa Clara",
        "id": "way/1146803897"
      },
      "geometry": {
        "type": "Polygon",
        "coordinates": [
          [
            [
              -52.0879164,
              -29.4708686
            ],
            [
              -52.0872318,
              -29.4708738
            ],
            [
              -52.0872236,
              -29.4700658
            ],
            [
              -52.0879083,
              -29.4700606
            ],
            [
              -52.0879164,
              -29.4708686
            ]
          ]
        ]
      }
    },
    {
      "type": "Feature",
      "id": "way/1146809935",
      "properties": {
        "timestamp": "2023-02-16T21:30:43Z",
        "version": 1,
        "changeset": 132649311,
        "addr:city": "Santa Clara do Sul",
        "addr:country": "BR",
        "addr:housenumber": "1069",
        "addr:postcode": "95915-000",
        "addr:state": "Rio Grande do Sul",
        "addr:street": "Avenida 28 de Maio",
        "addr:suburb": "Centro",
        "amenity": "school",
        "name": "Escola Municipal de Ensino Fundamental Professor Sereno Afonso Heisler",
        "id": "way/1146809935"
      },
      "geometry": {
        "type": "Polygon",
        "coordinates": [
          [
            [
              -52.0861668,
              -29.4691613
            ],
            [
              -52.0863846,
              -29.46916
            ],
            [
              -52.0863873,
              -29.469504
            ],
            [
              -52.0863906,
              -29.4699121
            ],
            [
              -52.0859628,
              -29.4699148
            ],
            [
              -52.0859607,
              -29.4696666
            ],
            [
              -52.0859594,
              -29.469504
            ],
            [
              -52.0861696,
              -29.4695027
            ],
            [
              -52.0861668,
              -29.4691613
            ]
          ]
        ]
      }
    },
    {
      "type": "Feature",
      "id": "way/1164982726",
      "properties": {
        "timestamp": "2023-05-05T04:15:38Z",
        "version": 2,
        "changeset": 135723483,
        "addr:city": "Santa Clara do Sul",
        "addr:country": "BR",
        "addr:hamlet": "Nova Santa Cruz",
        "addr:state": "Rio Grande do Sul",
        "addr:street": "Estrada Geral de Nova Santa Cruz",
        "alt_name": "Escola Municipal de Ensino Fundamental Frei Henrique de Coimbra",
        "amenity": "school",
        "contact:phone": "+55 (51) 3782-2146",
        "name": "EMEF Frei Henrique de Coimbra",
        "nohousenumber": "yes",
        "ref:INEP": "43083250",
        "id": "way/1164982726"
      },
      "geometry": {
        "type": "Polygon",
        "coordinates": [
          [
            [
              -52.1128782,
              -29.4487469
            ],
            [
              -52.1128811,
              -29.4491293
            ],
            [
              -52.1123171,
              -29.4491326
            ],
            [
              -52.1123142,
              -29.4487501
            ],
            [
              -52.1128782,
              -29.4487469
            ]
          ]
        ]
      }
    },
    {
      "type": "Feature",
      "id": "way/1168875222",
      "properties": {
        "timestamp": "2023-05-05T04:15:38Z",
        "version": 1,
        "changeset": 135723483,
        "addr:city": "Santa Clara do Sul",
        "addr:country": "BR",
        "addr:district": "Sampainho",
        "addr:postcode": "95915-000",
        "addr:street": "Estrada Geral de Sampainho",
        "amenity": "school",
        "contact:phone": "+55 (51) 3782-2481",
        "name": "EMEF Gustavo Seidel",
        "nohousenumber": "yes",
        "official_name": "Escola Municipal de Ensino Fundamental Gustavo Seidel",
        "operator": "Prefeitura Municipal de Santa Clara do Sul",
        "ref:INEP": "43083013",
        "id": "way/1168875222"
      },
      "geometry": {
        "type": "Polygon",
        "coordinates": [
          [
            [
              -52.1493929,
              -29.4577436
            ],
            [
              -52.1490865,
              -29.4579924
            ],
            [
              -52.1487057,
              -29.4576367
            ],
            [
              -52.149012,
              -29.457388
            ],
            [
              -52.1493929,
              -29.4577436
            ]
          ]
        ]
      }
    }
  ]
}
