{
  "type": "FeatureCollection",
  "features": [
    {
      "type": "Feature",
      "id": "node/6716261346",
      "properties": {
        "timestamp": "2019-08-16T18:07:28Z",
        "version": 1,
        "changeset": 73425920,
        "addr:city": "Cotiporã",
        "addr:housenumber": "46 Sala 01",
        "addr:postcode": "95335-000",
        "addr:street": "Praça Maurício Cardoso",
        "addr:suburb": "Centro",
        "amenity": "dentist",
        "healthcare": "dentist",
        "healthcare:speciality": "Ortodontia",
        "name": "Carla de Matos",
        "operator": "Carla de Matos",
        "id": "node/6716261346"
      },
      "geometry": {
        "type": "Point",
        "coordinates": [
          -51.6969532,
          -28.9951386
        ]
      }
    },
    {
      "type": "Feature",
      "id": "node/6716436290",
      "properties": {
        "timestamp": "2019-08-16T19:32:43Z",
        "version": 1,
        "changeset": 73428109,
        "addr:city": "Cotiporã",
        "addr:housenumber": "28",
        "addr:postcode": "95335-000",
        "addr:street": "Rua Andrea Argenta",
        "addr:suburb": "Centro",
        "amenity": "dentist",
        "healthcare": "dentist",
        "healthcare:speciality": "Odontologia",
        "name": "Clínica Odontológica Tres Guindani",
        "operator": "Juliano e Eliza Tres Guindani",
        "id": "node/6716436290"
      },
      "geometry": {
        "type": "Point",
        "coordinates": [
          -51.6971412,
          -28.9958362
        ]
      }
    },
    {
      "type": "Feature",
      "id": "node/6724582693",
      "properties": {
        "timestamp": "2019-08-19T17:07:39Z",
        "version": 1,
        "changeset": 73508116,
        "addr:city": "Cotiporã",
        "addr:housenumber": "120",
        "addr:postcode": "95335-000",
        "addr:street": "Praça Maurício Cardoso",
        "addr:suburb": "Centro",
        "amenity": "dentist",
        "healthcare": "dentist",
        "name": "Fabrício Vettori",
        "id": "node/6724582693"
      },
      "geometry": {
        "type": "Point",
        "coordinates": [
          -51.696717,
          -28.995982
        ]
      }
    },
    {
      "type": "Feature",
      "id": "node/6724721018",
      "properties": {
        "timestamp": "2019-08-19T17:56:13Z",
        "version": 1,
        "changeset": 73509927,
        "addr:city": "Cotiporã",
        "addr:housenumber": "120",
        "addr:postcode": "95335-000",
        "addr:street": "Praça Maurício Cardoso",
        "addr:suburb": "Centro",
        "amenity": "dentist",
        "healthcare": "dentist",
        "healthcare:speciality": "Odontologia;psicologia;fisioterapia;laboratório_de_análises_clínicas",
        "name": "Harmonizza Clínica Odontológica",
        "id": "node/6724721018"
      },
      "geometry": {
        "type": "Point",
        "coordinates": [
          -51.6967011,
          -28.9959282
        ]
      }
    },
    {
      "type": "Feature",
      "id": "node/6724772116",
      "properties": {
        "timestamp": "2019-08-19T18:15:53Z",
        "version": 1,
        "changeset": 73510604,
        "addr:city": "Cotiporã",
        "addr:housenumber": "141",
        "addr:postcode": "95335-000",
        "addr:street": "Rua Silveira Martins",
        "addr:suburb": "Centro",
        "amenity": "dentist",
        "healthcare": "dentist",
        "name": "Helio da Silveira",
        "id": "node/6724772116"
      },
      "geometry": {
        "type": "Point",
        "coordinates": [
          -51.6965268,
          -28.9930801
        ]
      }
    },
    {
      "type": "Feature",
      "id": "node/6732109839",
      "properties": {
        "timestamp": "2019-08-21T14:23:21Z",
        "version": 1,
        "changeset": 73583820,
        "addr:city": "Cotiporã",
        "addr:housenumber": "120",
        "addr:postcode": "95335-000",
        "addr:street": "Praça Maurício Cardoso",
        "addr:suburb": "Centro",
        "amenity": "dentist",
        "healthcare": "dentist",
        "name": "Leticia Wyzykowski",
        "id": "node/6732109839"
      },
      "geometry": {
        "type": "Point",
        "coordinates": [
          -51.6966733,
          -28.9959469
        ]
      }
    }
  ]
}
