{
  "type": "FeatureCollection",
  "features": [
    {
      "type": "Feature",
      "id": "node/6715562074",
      "properties": {
        "timestamp": "2019-08-16T12:14:44Z",
        "version": 1,
        "changeset": 73413169,
        "addr:city": "Cotiporã",
        "addr:housenumber": "61 sala 01",
        "addr:postcode": "95335-000",
        "addr:street": "Rua Bento Gonçalves",
        "addr:suburb": "Centro",
        "amenity": "veterinary",
        "name": "Agropecuária Amigo de Patas",
        "opening_hours": "Comercial",
        "operator": "Clínica Veterinária",
        "id": "node/6715562074"
      },
      "geometry": {
        "type": "Point",
        "coordinates": [
          -51.6962515,
          -28.9964425
        ]
      }
    },
    {
      "type": "Feature",
      "id": "node/6715694644",
      "properties": {
        "timestamp": "2019-08-16T13:28:05Z",
        "version": 1,
        "changeset": 73416361,
        "addr:city": "Cotiporã",
        "addr:housenumber": "120",
        "addr:postcode": "95335-000",
        "addr:street": "Linha Independência",
        "addr:suburb": "Centro",
        "amenity": "veterinary",
        "name": "Andreia Zechin Bavaresco ME",
        "id": "node/6715694644"
      },
      "geometry": {
        "type": "Point",
        "coordinates": [
          -51.7047315,
          -28.9951316
        ]
      }
    }
  ]
}
