{
  "type": "FeatureCollection",
  "features": [
    {
      "type": "Feature",
      "id": "way/781039455",
      "properties": {
        "timestamp": "2020-03-13T18:06:09Z",
        "version": 1,
        "changeset": 82176023,
        "addr:city": "Bodocó",
        "addr:housenumber": "S/N",
        "addr:postcode": "56220-000",
        "addr:street": "Rua Luzia Couto Lóssio de Alencar",
        "addr:suburb": "São Francisco",
        "amenity": "school",
        "phone": "+55 81 3878-1724",
        "website": "https://www.sescpe.org.br/",
        "id": "way/781039455"
      },
      "geometry": {
        "type": "Polygon",
        "coordinates": [
          [
            [
              -39.9419898,
              -7.7798816
            ],
            [
              -39.9422436,
              -7.7804043
            ],
            [
              -39.9427012,
              -7.7812926
            ],
            [
              -39.9424117,
              -7.7815379
            ],
            [
              -39.9416225,
              -7.7806217
            ],
            [
              -39.9419898,
              -7.7798816
            ]
          ]
        ]
      }
    },
    {
      "type": "Feature",
      "id": "node/11892060902",
      "properties": {
        "timestamp": "2024-05-09T19:29:40Z",
        "version": 1,
        "changeset": 151116681,
        "addr:city": "bodocó",
        "addr:housenumber": "00",
        "addr:postcode": "56220000",
        "addr:street": "Serra do Tucano I, Bodocó - PE",
        "addr:suburb": "Zona Rural",
        "amenity": "school",
        "grades": "1-10",
        "name": "Escola Municipal Antônio Alves De Medeiros",
        "operator": "prefeitura municipal de bodocó",
        "operator:type": "government_facility-public",
        "religion": "none",
        "id": "node/11892060902"
      },
      "geometry": {
        "type": "Point",
        "coordinates": [
          -39.966428,
          -7.5907538
        ]
      }
    }
  ]
}
