{
  "type": "FeatureCollection",
  "features": [
    {
      "type": "Feature",
      "id": "node/9310969990",
      "properties": {
        "timestamp": "2021-12-04T17:46:19Z",
        "version": 1,
        "changeset": 114561910,
        "addr:housenumber": "877",
        "addr:street": "Avenida Antônio Haddad",
        "addr:suburb": "Santo Antônio",
        "name": "Bicicletaria Santo Antônio",
        "shop": "bicycle",
        "id": "node/9310969990"
      },
      "geometry": {
        "type": "Point",
        "coordinates": [
          -45.1320024,
          -22.7440748
        ]
      }
    },
    {
      "type": "Feature",
      "id": "node/9313309697",
      "properties": {
        "timestamp": "2021-12-05T23:32:00Z",
        "version": 1,
        "changeset": 114597936,
        "addr:housenumber": "88",
        "addr:street": "Avenida São José",
        "email": "contato.bikecompany@gmail.com",
        "name": "Bike Company",
        "phone": "+55 12 3152 5801",
        "shop": "bicycle",
        "id": "node/9313309697"
      },
      "geometry": {
        "type": "Point",
        "coordinates": [
          -45.1220909,
          -22.7352096
        ]
      }
    },
    {
      "type": "Feature",
      "id": "node/9318722662",
      "properties": {
        "timestamp": "2021-12-07T16:50:21Z",
        "version": 1,
        "changeset": 114668455,
        "addr:housenumber": "593",
        "addr:street": "Avenida Tomaz Alves de Figueiredo",
        "addr:suburb": "Cidade Industrial",
        "contact:mobile": "+55 12 99680 1160",
        "name": "Aero Bike",
        "phone": "+55 12 3301 5455",
        "shop": "bicycle",
        "id": "node/9318722662"
      },
      "geometry": {
        "type": "Point",
        "coordinates": [
          -45.1231347,
          -22.7488655
        ]
      }
    }
  ]
}
