{
  "type": "FeatureCollection",
  "features": [
    {
      "type": "Feature",
      "id": "node/2619332104",
      "properties": {
        "timestamp": "2014-11-13T19:04:03Z",
        "version": 4,
        "changeset": 26762790,
        "addr:city": "Paraíso do Sul",
        "addr:postcode": "96530-000",
        "addr:street": "RST-287",
        "name": "Hotel Bela Vista",
        "tourism": "hotel",
        "id": "node/2619332104"
      },
      "geometry": {
        "type": "Point",
        "coordinates": [
          -53.1894728,
          -29.7318243
        ]
      }
    },
    {
      "type": "Feature",
      "id": "node/2619336847",
      "properties": {
        "timestamp": "2014-01-12T04:44:23Z",
        "version": 1,
        "changeset": 19946903,
        "addr:city": "Paraíso do Sul",
        "addr:postcode": "96530-000",
        "addr:street": "Avenida Primeiro de Janeiro",
        "name": "Hotel União",
        "tourism": "hotel",
        "id": "node/2619336847"
      },
      "geometry": {
        "type": "Point",
        "coordinates": [
          -53.176185,
          -29.731381
        ]
      }
    }
  ]
}
