{
  "type": "FeatureCollection",
  "features": [
    {
      "type": "Feature",
      "id": "node/2619333599",
      "properties": {
        "timestamp": "2024-08-31T23:26:24Z",
        "version": 5,
        "changeset": 156035009,
        "addr:city": "Paraíso do Sul",
        "addr:postcode": "96530-000",
        "addr:street": "Rua Max Retzlaff",
        "amenity": "pharmacy",
        "name": "Agafarma",
        "operator": "Agafarma",
        "id": "node/2619333599"
      },
      "geometry": {
        "type": "Point",
        "coordinates": [
          -53.1780219,
          -29.7329266
        ]
      }
    },
    {
      "type": "Feature",
      "id": "node/2619333601",
      "properties": {
        "timestamp": "2021-02-23T21:36:08Z",
        "version": 3,
        "changeset": 99856103,
        "addr:city": "Paraíso do Sul",
        "addr:postcode": "96530-000",
        "addr:street": "Rua Augusto Rohde",
        "amenity": "pharmacy",
        "name": "Farmácia Paraíso",
        "id": "node/2619333601"
      },
      "geometry": {
        "type": "Point",
        "coordinates": [
          -53.1793881,
          -29.7314526
        ]
      }
    },
    {
      "type": "Feature",
      "id": "node/2619333603",
      "properties": {
        "timestamp": "2020-12-13T01:39:43Z",
        "version": 2,
        "changeset": 95742009,
        "addr:city": "Paraíso do Sul",
        "addr:postcode": "96530-000",
        "addr:street": "Avenida Afonso Pena",
        "amenity": "pharmacy",
        "name": "Farmácia Nova",
        "id": "node/2619333603"
      },
      "geometry": {
        "type": "Point",
        "coordinates": [
          -53.1782257,
          -29.7318909
        ]
      }
    },
    {
      "type": "Feature",
      "id": "node/2619333659",
      "properties": {
        "timestamp": "2014-01-12T04:43:02Z",
        "version": 1,
        "changeset": 19946898,
        "addr:city": "Paraíso do Sul",
        "addr:postcode": "96530-000",
        "addr:street": "Avenida Primeiro de Janeiro",
        "amenity": "pharmacy",
        "name": "Farmácia Mara",
        "id": "node/2619333659"
      },
      "geometry": {
        "type": "Point",
        "coordinates": [
          -53.1771134,
          -29.7306008
        ]
      }
    },
    {
      "type": "Feature",
      "id": "node/3622402327",
      "properties": {
        "timestamp": "2020-12-13T02:22:35Z",
        "version": 2,
        "changeset": 95742462,
        "amenity": "pharmacy",
        "name": "Farmácia Pague Menos",
        "id": "node/3622402327"
      },
      "geometry": {
        "type": "Point",
        "coordinates": [
          -53.1795596,
          -29.7324877
        ]
      }
    }
  ]
}
