{
  "type": "FeatureCollection",
  "features": [
    {
      "type": "Feature",
      "id": "node/11966101808",
      "properties": {
        "timestamp": "2024-06-09T08:30:15Z",
        "version": 1,
        "changeset": 152443711,
        "addr:housenumber": "430",
        "addr:postcode": "96330-000",
        "addr:street": "Rua Zeca Maciel",
        "addr:suburb": "Centro",
        "amenity": "clinic",
        "name": "Clinica Vida e Saude",
        "ref:CNES": "5251443",
        "source": "DATASUS",
        "source:addr": "CNEFE 2022",
        "id": "node/11966101808"
      },
      "geometry": {
        "type": "Point",
        "coordinates": [
          -53.083834,
          -32.237231
        ]
      }
    },
    {
      "type": "Feature",
      "id": "node/11966101809",
      "properties": {
        "timestamp": "2024-06-09T08:30:15Z",
        "version": 1,
        "changeset": 152443711,
        "addr:housenumber": "734",
        "addr:postcode": "96330-000",
        "addr:street": "Rua Borges de Medeiros",
        "addr:suburb": "São Gabriel",
        "amenity": "clinic",
        "name": "Posto de Saude do Bairro São Gabriel",
        "operator:ref:vatin": "BR88860366000181",
        "ref:CNES": "3431460",
        "source": "DATASUS",
        "source:addr": "CNEFE 2022",
        "id": "node/11966101809"
      },
      "geometry": {
        "type": "Point",
        "coordinates": [
          -53.0725089,
          -32.2381365
        ]
      }
    },
    {
      "type": "Feature",
      "id": "node/11966101810",
      "properties": {
        "timestamp": "2024-06-09T08:30:15Z",
        "version": 1,
        "changeset": 152443711,
        "addr:housenumber": "674",
        "addr:postcode": "96330-000",
        "addr:street": "Avenida Maria Pereira das Neves",
        "addr:suburb": "Sao Jose",
        "amenity": "clinic",
        "name": "Unidade Basica de Saude Zona Leste",
        "official_name": "Prefeitura Municipal De Arroio Grande",
        "operator:ref:vatin": "BR88860366000181",
        "ref:CNES": "2232227",
        "source": "DATASUS",
        "source:addr": "CNEFE 2022",
        "id": "node/11966101810"
      },
      "geometry": {
        "type": "Point",
        "coordinates": [
          -53.071969,
          -32.245069
        ]
      }
    },
    {
      "type": "Feature",
      "id": "node/11966101811",
      "properties": {
        "timestamp": "2024-06-09T08:30:15Z",
        "version": 1,
        "changeset": 152443711,
        "addr:housenumber": "461",
        "addr:postcode": "96330-000",
        "addr:street": "Avenida da Saudade",
        "addr:suburb": "Branco Araujo",
        "amenity": "clinic",
        "name": "Unidade Basica de Saude Zona Norte",
        "operator:ref:vatin": "BR88860366000181",
        "ref:CNES": "2232235",
        "source": "DATASUS",
        "source:addr": "CNEFE 2022",
        "id": "node/11966101811"
      },
      "geometry": {
        "type": "Point",
        "coordinates": [
          -53.0757555,
          -32.2318327
        ]
      }
    }
  ]
}
