{
  "type": "FeatureCollection",
  "features": [
    {
      "type": "Feature",
      "id": "way/483940475",
      "properties": {
        "timestamp": "2023-12-09T11:49:07Z",
        "version": 2,
        "changeset": 144932187,
        "addr:city": "Fronteira dos Vales",
        "addr:housenumber": "126",
        "addr:street": "Avenida Joaquim Pinheiro de Almeida",
        "amenity": "school",
        "building": "school",
        "name": "Escola Municipal de Monte Castelo",
        "operator": "Município de Fronteira dos Vales",
        "id": "way/483940475"
      },
      "geometry": {
        "type": "Polygon",
        "coordinates": [
          [
            [
              -40.7610409,
              -16.8851088
            ],
            [
              -40.7609332,
              -16.8855768
            ],
            [
              -40.760456,
              -16.8854763
            ],
            [
              -40.7605637,
              -16.8850082
            ],
            [
              -40.7610409,
              -16.8851088
            ]
          ]
        ]
      }
    },
    {
      "type": "Feature",
      "id": "way/497743821",
      "properties": {
        "timestamp": "2023-12-24T11:37:19Z",
        "version": 2,
        "changeset": 145465685,
        "addr:city": "Fronteira dos Vales",
        "addr:postcode": "39870-000",
        "addr:street": "Rua Frei Afonso Mure",
        "addr:suburb": "Centro",
        "amenity": "school",
        "name": "Escola Municipal Fronteira dos Vales",
        "id": "way/497743821"
      },
      "geometry": {
        "type": "Polygon",
        "coordinates": [
          [
            [
              -40.9253639,
              -16.8933126
            ],
            [
              -40.9252908,
              -16.8934702
            ],
            [
              -40.9250489,
              -16.8933846
            ],
            [
              -40.925118,
              -16.8932134
            ],
            [
              -40.9253639,
              -16.8933126
            ]
          ]
        ]
      }
    },
    {
      "type": "Feature",
      "id": "way/497743822",
      "properties": {
        "timestamp": "2023-12-24T14:51:14Z",
        "version": 2,
        "changeset": 145471592,
        "addr:city": "Fronteira dos Vales",
        "addr:housenumber": "85",
        "addr:postcode": "39870-000",
        "addr:street": "Rua Antônio Ramalho dos Santos",
        "addr:suburb": "Centro",
        "amenity": "school",
        "name": "Pré Escola Escola Vovó Donana",
        "operator": "Município de Fronteira dos Vales",
        "operator:type": "public",
        "id": "way/497743822"
      },
      "geometry": {
        "type": "Polygon",
        "coordinates": [
          [
            [
              -40.9240207,
              -16.8951225
            ],
            [
              -40.9240703,
              -16.8954476
            ],
            [
              -40.9234226,
              -16.8955339
            ],
            [
              -40.923489,
              -16.8953672
            ],
            [
              -40.9234752,
              -16.8952668
            ],
            [
              -40.923771,
              -16.8952218
            ],
            [
              -40.9237631,
              -16.8951721
            ],
            [
              -40.9240207,
              -16.8951225
            ]
          ]
        ]
      }
    },
    {
      "type": "Feature",
      "id": "way/497743824",
      "properties": {
        "timestamp": "2024-01-28T21:51:16Z",
        "version": 3,
        "changeset": 146796456,
        "addr:city": "Fronteira dos Vales",
        "addr:housenumber": "10",
        "addr:postcode": "39870-000",
        "addr:street": "Rua Miguel Francisco Alves",
        "addr:suburb": "Centro",
        "amenity": "school",
        "email": "escola.146714@educacao.mg.gov.br",
        "name": "Escola Estadual de Pampã",
        "operator": "Secretaria de Estado da Educação de Minas Gerais",
        "operator:type": "public",
        "ref:INEP": "31146714",
        "wikidata": "Q124371163",
        "id": "way/497743824"
      },
      "geometry": {
        "type": "Polygon",
        "coordinates": [
          [
            [
              -40.9258291,
              -16.8908122
            ],
            [
              -40.9257294,
              -16.8911338
            ],
            [
              -40.9254987,
              -16.891085
            ],
            [
              -40.924745,
              -16.8910491
            ],
            [
              -40.9247584,
              -16.8906872
            ],
            [
              -40.9254084,
              -16.8907436
            ],
            [
              -40.9258291,
              -16.8908122
            ]
          ]
        ]
      }
    }
  ]
}
