{
  "type": "FeatureCollection",
  "features": [
    {
      "type": "Feature",
      "id": "node/11238375306",
      "properties": {
        "timestamp": "2023-10-04T14:20:21Z",
        "version": 1,
        "changeset": 142147850,
        "addr:city": "Piranhas",
        "addr:postcode": "57460-000",
        "addr:street": "Avenida Bernardes Soares de Souza ,",
        "addr:suburb": "Distrito - Piau",
        "amenity": "clinic",
        "healthcare": "clinic",
        "healthcare:speciality": "ambulatorial",
        "name": "Posto De Saúde Pedro José Dos Santos",
        "opening_hours": "24/7",
        "phone": "(82)36861113",
        "id": "node/11238375306"
      },
      "geometry": {
        "type": "Point",
        "coordinates": [
          -37.6717254,
          -9.4809811
        ]
      }
    },
    {
      "type": "Feature",
      "id": "node/11255984341",
      "properties": {
        "timestamp": "2023-10-11T19:35:10Z",
        "version": 1,
        "changeset": 142450368,
        "addr:city": "Piranhas",
        "addr:postcode": "57460-000",
        "addr:street": "Rodovia Al-220",
        "addr:suburb": "Distrito - Piau",
        "amenity": "clinic",
        "healthcare": "clinic",
        "name": "UBS - Unidade Básica de Saúde - Piau, Piranhas - AL,",
        "id": "node/11255984341"
      },
      "geometry": {
        "type": "Point",
        "coordinates": [
          -37.6718367,
          -9.4792085
        ]
      }
    }
  ]
}
