{
  "type": "FeatureCollection",
  "features": [
    {
      "type": "Feature",
      "id": "node/1027299058",
      "properties": {
        "timestamp": "2010-12-07T22:52:14Z",
        "version": 1,
        "changeset": 6580846,
        "amenity": "library",
        "name": "Biblioteca Pública",
        "id": "node/1027299058"
      },
      "geometry": {
        "type": "Point",
        "coordinates": [
          -37.7537395,
          -9.6248739
        ]
      }
    },
    {
      "type": "Feature",
      "id": "node/11243433518",
      "properties": {
        "timestamp": "2023-10-06T11:27:28Z",
        "version": 1,
        "changeset": 142228365,
        "addr:city": "Piranhas",
        "addr:postcode": "57460-000",
        "addr:street": "Avenida Bernardo Soares de Souza",
        "addr:suburb": "Distrito - Piau",
        "amenity": "library",
        "name": "Biblioteca Pública Municipal",
        "opening_hours": "Mo-Sa 08:00-17:00",
        "id": "node/11243433518"
      },
      "geometry": {
        "type": "Point",
        "coordinates": [
          -37.6719851,
          -9.4805689
        ]
      }
    }
  ]
}
