{
  "type": "FeatureCollection",
  "features": [
    {
      "type": "Feature",
      "id": "way/544553033",
      "properties": {
        "timestamp": "2017-12-31T17:52:15Z",
        "version": 3,
        "changeset": 55063395,
        "building": "yes",
        "building:levels": "1",
        "name": "Departamento Municipal de Educação",
        "office": "government",
        "id": "way/544553033"
      },
      "geometry": {
        "type": "Polygon",
        "coordinates": [
          [
            [
              -52.3452939,
              -23.9131494
            ],
            [
              -52.3452364,
              -23.9130474
            ],
            [
              -52.3454646,
              -23.91294
            ],
            [
              -52.3455221,
              -23.913042
            ],
            [
              -52.3452939,
              -23.9131494
            ]
          ]
        ]
      }
    },
    {
      "type": "Feature",
      "id": "way/550159495",
      "properties": {
        "timestamp": "2018-06-19T22:45:07Z",
        "version": 2,
        "changeset": 59992644,
        "addr:city": "Peabiru",
        "addr:postcode": "87250-000",
        "addr:street": "Rua Juvenal Portella",
        "addr:suburb": "Centro",
        "building": "yes",
        "government": "legislative",
        "name": "Câmara Municipal de Peabiru",
        "office": "government",
        "opening_hours": "Mo-Fr 08:00-17:00",
        "id": "way/550159495"
      },
      "geometry": {
        "type": "Polygon",
        "coordinates": [
          [
            [
              -52.3453883,
              -23.9127859
            ],
            [
              -52.3451751,
              -23.9128885
            ],
            [
              -52.3450741,
              -23.9127185
            ],
            [
              -52.3451751,
              -23.9126746
            ],
            [
              -52.345196,
              -23.9127024
            ],
            [
              -52.3452393,
              -23.9126848
            ],
            [
              -52.3453418,
              -23.9127009
            ],
            [
              -52.3453883,
              -23.9127859
            ]
          ]
        ]
      }
    },
    {
      "type": "Feature",
      "id": "node/5313957604",
      "properties": {
        "timestamp": "2022-07-29T22:46:41Z",
        "version": 2,
        "changeset": 124250273,
        "addr:city": "Peabiru",
        "addr:street": "Avenida Raposo Tavares",
        "addr:suburb": "Centro",
        "government": "register_office",
        "name": "Registro de Imóveis - CRI",
        "office": "government",
        "opening_hours": "Mo-Fr 08:00-17:00",
        "phone": "+55 44 3531 3015",
        "url": "www.cri.org.br",
        "id": "node/5313957604"
      },
      "geometry": {
        "type": "Point",
        "coordinates": [
          -52.3461881,
          -23.9162903
        ]
      }
    }
  ]
}
