{
  "type": "FeatureCollection",
  "features": [
    {
      "type": "Feature",
      "id": "way/1033318493",
      "properties": {
        "timestamp": "2022-02-19T18:56:43Z",
        "version": 1,
        "changeset": 117615876,
        "addr:city": "Sucupira",
        "addr:postcode": "77458-000",
        "addr:street": "Rua Pau Brasil",
        "addr:suburb": "Setor Vitoria",
        "amenity": "school",
        "name": "Escola Municipal Machado De Assis",
        "phone": "+55 63 3399 1102",
        "id": "way/1033318493"
      },
      "geometry": {
        "type": "Polygon",
        "coordinates": [
          [
            [
              -48.9120636,
              -11.9878786
            ],
            [
              -48.9125247,
              -11.987527
            ],
            [
              -48.9128479,
              -11.9879325
            ],
            [
              -48.9123867,
              -11.988284
            ],
            [
              -48.9120636,
              -11.9878786
            ]
          ]
        ]
      }
    },
    {
      "type": "Feature",
      "id": "way/1033318580",
      "properties": {
        "timestamp": "2022-02-19T18:57:41Z",
        "version": 1,
        "changeset": 117615901,
        "addr:city": "Sucupira",
        "addr:postcode": "77458-000",
        "addr:street": "Rua Tamburi",
        "addr:suburb": "Centro",
        "amenity": "school",
        "name": "Colegio Estadual Olavo Bilac",
        "phone": "+55 63 3399 1154",
        "id": "way/1033318580"
      },
      "geometry": {
        "type": "Polygon",
        "coordinates": [
          [
            [
              -48.9106524,
              -11.9870076
            ],
            [
              -48.911042,
              -11.9875345
            ],
            [
              -48.910398,
              -11.9879902
            ],
            [
              -48.9100083,
              -11.9874633
            ],
            [
              -48.9106524,
              -11.9870076
            ]
          ]
        ]
      }
    },
    {
      "type": "Feature",
      "id": "way/1033318710",
      "properties": {
        "timestamp": "2022-02-19T18:58:40Z",
        "version": 1,
        "changeset": 117615924,
        "addr:city": "Sucupira",
        "addr:postcode": "77458-000",
        "addr:street": "Rua Buriti",
        "addr:suburb": "Centro",
        "amenity": "school",
        "name": "Creche Municipal Doce Lar",
        "phone": "+55 63 3399 1113",
        "id": "way/1033318710"
      },
      "geometry": {
        "type": "Polygon",
        "coordinates": [
          [
            [
              -48.912721,
              -11.9846057
            ],
            [
              -48.9129458,
              -11.9849186
            ],
            [
              -48.9127975,
              -11.9850206
            ],
            [
              -48.9125726,
              -11.9847077
            ],
            [
              -48.912721,
              -11.9846057
            ]
          ]
        ]
      }
    }
  ]
}
