{
  "type": "FeatureCollection",
  "features": [
    {
      "type": "Feature",
      "id": "way/717307474",
      "properties": {
        "timestamp": "2021-08-25T13:23:32Z",
        "version": 3,
        "changeset": 110233337,
        "addr:city": "Santa Inês",
        "addr:postcode": "65300-640",
        "addr:street": "Avenida Castelo Branco",
        "addr:suburb": "Canaã",
        "amenity": "college",
        "campus": "Santa Inês",
        "name": "IFMA - Instituto Federal do Maranhão",
        "operator": "#IFES;IFMA",
        "website": "https://santaines.ifma.edu.br/",
        "id": "way/717307474"
      },
      "geometry": {
        "type": "Polygon",
        "coordinates": [
          [
            [
              -45.3988299,
              -3.6601068
            ],
            [
              -45.3974377,
              -3.66049
            ],
            [
              -45.3968207,
              -3.657825
            ],
            [
              -45.3982242,
              -3.6575696
            ],
            [
              -45.3988299,
              -3.6601068
            ]
          ]
        ]
      }
    }
  ]
}
