{
  "type": "FeatureCollection",
  "features": [
    {
      "type": "Feature",
      "id": "node/6960414567",
      "properties": {
        "timestamp": "2020-09-11T12:21:45Z",
        "version": 2,
        "changeset": 90758167,
        "addr:city": "Manacapuru",
        "addr:postcode": "69400000",
        "addr:street": "AM 352 - Km10",
        "addr:suburb": "Zona Rural",
        "name": "Cirandeira Bela Amazon Cabins Pousada SPA Turismo",
        "tourism": "hotel",
        "id": "node/6960414567"
      },
      "geometry": {
        "type": "Point",
        "coordinates": [
          -60.6826186,
          -3.1982695
        ]
      }
    },
    {
      "type": "Feature",
      "id": "node/7890790577",
      "properties": {
        "timestamp": "2020-09-09T16:05:42Z",
        "version": 1,
        "changeset": 90656173,
        "addr:city": "Manacapuru",
        "addr:housenumber": "557",
        "addr:postcode": "69400000",
        "addr:street": "Avenida Ribeiro Júnior",
        "addr:suburb": "Centro",
        "name": "Novo Hotel",
        "tourism": "hotel",
        "id": "node/7890790577"
      },
      "geometry": {
        "type": "Point",
        "coordinates": [
          -60.6190234,
          -3.298323
        ]
      }
    },
    {
      "type": "Feature",
      "id": "node/7890795399",
      "properties": {
        "timestamp": "2020-09-09T16:13:39Z",
        "version": 1,
        "changeset": 90656473,
        "addr:city": "Manacapuru",
        "addr:housenumber": "2310",
        "addr:postcode": "69400-000",
        "addr:street": "Rua Francisco Rodrigues",
        "addr:suburb": "São José",
        "name": "Hotel Amazon Experience",
        "tourism": "hotel",
        "id": "node/7890795399"
      },
      "geometry": {
        "type": "Point",
        "coordinates": [
          -60.6242065,
          -3.2784952
        ]
      }
    },
    {
      "type": "Feature",
      "id": "node/7890817921",
      "properties": {
        "timestamp": "2020-09-09T16:16:36Z",
        "version": 1,
        "changeset": 90656584,
        "addr:city": "Manacapuru",
        "addr:housenumber": "1046",
        "addr:postcode": "69400-000",
        "addr:street": "Avenida Manoel Urbano",
        "addr:suburb": "Terra Preta",
        "name": "Hotel Maranata",
        "tourism": "hotel",
        "id": "node/7890817921"
      },
      "geometry": {
        "type": "Point",
        "coordinates": [
          -60.6290982,
          -3.2955245
        ]
      }
    },
    {
      "type": "Feature",
      "id": "node/7896786084",
      "properties": {
        "timestamp": "2020-09-11T12:17:15Z",
        "version": 1,
        "changeset": 90757944,
        "addr:city": "Manacapuru",
        "addr:postcode": "69400000",
        "addr:street": "Rua 16 de Julho",
        "addr:suburb": "Liberdade",
        "name": "Novo Hotel 2",
        "tourism": "hotel",
        "id": "node/7896786084"
      },
      "geometry": {
        "type": "Point",
        "coordinates": [
          -60.6202385,
          -3.2940039
        ]
      }
    },
    {
      "type": "Feature",
      "id": "node/7897067802",
      "properties": {
        "timestamp": "2020-09-11T14:10:36Z",
        "version": 1,
        "changeset": 90763436,
        "addr:city": "Manacapuru",
        "addr:housenumber": "1121",
        "addr:postcode": "69400-000",
        "addr:street": "Rua Maria Walcacer Nogueira",
        "addr:suburb": "Terra Preta",
        "name": "Hotel Marlize",
        "tourism": "hotel",
        "id": "node/7897067802"
      },
      "geometry": {
        "type": "Point",
        "coordinates": [
          -60.632858,
          -3.2899517
        ]
      }
    },
    {
      "type": "Feature",
      "id": "node/7897097593",
      "properties": {
        "timestamp": "2020-09-11T14:16:57Z",
        "version": 1,
        "changeset": 90763734,
        "name": "Tucan Amazon Lodge",
        "tourism": "hotel",
        "id": "node/7897097593"
      },
      "geometry": {
        "type": "Point",
        "coordinates": [
          -60.4964328,
          -3.1175484
        ]
      }
    },
    {
      "type": "Feature",
      "id": "node/7897098827",
      "properties": {
        "timestamp": "2020-09-11T14:27:22Z",
        "version": 1,
        "changeset": 90764227,
        "addr:city": "Manacapuru-AM",
        "addr:housenumber": "96",
        "addr:postcode": "69400-000",
        "addr:street": "Praça Dezesseis de Julho",
        "addr:suburb": "Centro",
        "name": "Hotel Tiburtino",
        "tourism": "hotel",
        "id": "node/7897098827"
      },
      "geometry": {
        "type": "Point",
        "coordinates": [
          -60.6205164,
          -3.3022776
        ]
      }
    },
    {
      "type": "Feature",
      "id": "node/7905432224",
      "properties": {
        "timestamp": "2020-09-14T14:01:12Z",
        "version": 1,
        "changeset": 90870424,
        "addr:city": "Manacapuru",
        "addr:housenumber": "1103",
        "addr:postcode": "69400000",
        "addr:street": "Travessa Nice Ventura / Avenida Japurá",
        "addr:suburb": "Liberdade",
        "name": "Hotel Pousada Eirunepé",
        "tourism": "hotel",
        "id": "node/7905432224"
      },
      "geometry": {
        "type": "Point",
        "coordinates": [
          -60.6188174,
          -3.2844124
        ]
      }
    }
  ]
}
