{
  "type": "FeatureCollection",
  "features": [
    {
      "type": "Feature",
      "id": "way/261102991",
      "properties": {
        "timestamp": "2018-10-31T03:56:39Z",
        "version": 3,
        "changeset": 64030959,
        "addr:city": "Manacapuru",
        "addr:postcode": "69400-000",
        "addr:street": "Rua Waldemar Ventura",
        "addr:suburb": "São José",
        "amenity": "university",
        "building": "school",
        "name": "Universidade do Estado do Amazonas - Núcleo de Ensino Superior de Manacaparu",
        "phone": "+55 92 3361 4249",
        "start_date": "2001-08-01",
        "website": "http://www3.uea.edu.br/#",
        "id": "way/261102991"
      },
      "geometry": {
        "type": "Polygon",
        "coordinates": [
          [
            [
              -60.6284998,
              -3.2951142
            ],
            [
              -60.6281457,
              -3.2952722
            ],
            [
              -60.6281055,
              -3.2951811
            ],
            [
              -60.6282289,
              -3.2951222
            ],
            [
              -60.6281565,
              -3.2949508
            ],
            [
              -60.6280304,
              -3.2950071
            ],
            [
              -60.6279875,
              -3.2949107
            ],
            [
              -60.6283442,
              -3.29475
            ],
            [
              -60.6283818,
              -3.2948518
            ],
            [
              -60.6282557,
              -3.2949053
            ],
            [
              -60.6283255,
              -3.2950767
            ],
            [
              -60.6284569,
              -3.2950178
            ],
            [
              -60.6284998,
              -3.2951142
            ]
          ]
        ]
      }
    },
    {
      "type": "Feature",
      "id": "node/7905521653",
      "properties": {
        "timestamp": "2020-09-14T15:03:56Z",
        "version": 1,
        "changeset": 90873154,
        "addr:city": "Manacapuru-AM",
        "addr:housenumber": "1335",
        "addr:postcode": "69400-000",
        "addr:street": "Avenida Eduardo Ribeiro",
        "addr:suburb": "Centro",
        "amenity": "university",
        "name": "Pólo de Apoio Presencial de Manacapuru",
        "id": "node/7905521653"
      },
      "geometry": {
        "type": "Point",
        "coordinates": [
          -60.6184481,
          -3.3037701
        ]
      }
    }
  ]
}
