{
  "type": "FeatureCollection",
  "features": [
    {
      "type": "Feature",
      "id": "way/1038369141",
      "properties": {
        "timestamp": "2022-03-08T21:33:59Z",
        "version": 1,
        "changeset": 118253559,
        "addr:city": "Barrolândia",
        "addr:housenumber": "194",
        "addr:postcode": "77665-000",
        "addr:street": "Avenida Capitão Georginho",
        "addr:suburb": "Centro",
        "amenity": "school",
        "name": "Esc Est Presidente Costa E Silva",
        "phone": "+55 63 3376 1173",
        "id": "way/1038369141"
      },
      "geometry": {
        "type": "Polygon",
        "coordinates": [
          [
            [
              -48.7271051,
              -9.8322323
            ],
            [
              -48.7271293,
              -9.8325944
            ],
            [
              -48.726043,
              -9.8325733
            ],
            [
              -48.726051,
              -9.8322376
            ],
            [
              -48.7271051,
              -9.8322323
            ]
          ]
        ]
      }
    },
    {
      "type": "Feature",
      "id": "way/1038369315",
      "properties": {
        "timestamp": "2022-03-08T21:34:51Z",
        "version": 1,
        "changeset": 118253577,
        "addr:city": "Barrolândia",
        "addr:postcode": "77665-000",
        "addr:street": "Rua Castelo Branco",
        "addr:suburb": "Centro",
        "amenity": "school",
        "name": "Colegio Estadual Presidente Tancredo Neves",
        "phone": "+55 63 3376 1368",
        "id": "way/1038369315"
      },
      "geometry": {
        "type": "Polygon",
        "coordinates": [
          [
            [
              -48.728068,
              -9.8380174
            ],
            [
              -48.7280627,
              -9.83876
            ],
            [
              -48.7276174,
              -9.8387389
            ],
            [
              -48.727612,
              -9.8385354
            ],
            [
              -48.727486,
              -9.8380465
            ],
            [
              -48.728068,
              -9.8380174
            ]
          ]
        ]
      }
    },
    {
      "type": "Feature",
      "id": "way/1038369774",
      "properties": {
        "timestamp": "2022-03-08T21:35:48Z",
        "version": 1,
        "changeset": 118253604,
        "addr:city": "Barrolândia",
        "addr:housenumber": "207",
        "addr:postcode": "77665-000",
        "addr:street": "Rua Diogo Jardim",
        "addr:suburb": "Vila Nova",
        "amenity": "school",
        "name": "Escola Estadual Paulina Camara",
        "id": "way/1038369774"
      },
      "geometry": {
        "type": "Polygon",
        "coordinates": [
          [
            [
              -48.7302808,
              -9.8410381
            ],
            [
              -48.7302835,
              -9.8420344
            ],
            [
              -48.729798,
              -9.8420423
            ],
            [
              -48.7296452,
              -9.8410513
            ],
            [
              -48.7302808,
              -9.8410381
            ]
          ]
        ]
      }
    },
    {
      "type": "Feature",
      "id": "way/1038370201",
      "properties": {
        "timestamp": "2022-03-08T21:39:40Z",
        "version": 1,
        "changeset": 118253698,
        "addr:city": "Barrolândia",
        "addr:housenumber": "723",
        "addr:postcode": "77665-000",
        "addr:street": "Rua Manoel Nogueira Filho",
        "addr:suburb": "Vila Nova",
        "amenity": "school",
        "name": "Centro Municipal De Educacao Infantil Cristino Regenes Cardoso",
        "phone": "+55 63 3376 1195",
        "id": "way/1038370201"
      },
      "geometry": {
        "type": "Polygon",
        "coordinates": [
          [
            [
              -48.728373,
              -9.8420601
            ],
            [
              -48.728374,
              -9.8427812
            ],
            [
              -48.7279705,
              -9.8427818
            ],
            [
              -48.7279694,
              -9.8420607
            ],
            [
              -48.728373,
              -9.8420601
            ]
          ]
        ]
      }
    },
    {
      "type": "Feature",
      "id": "way/1038370202",
      "properties": {
        "timestamp": "2022-09-29T13:23:46Z",
        "version": 2,
        "changeset": 126780997,
        "addr:city": "Barrolândia",
        "addr:housenumber": "561",
        "addr:postcode": "77665-000",
        "addr:street": "Rua Manoel Nogueira Filho",
        "addr:suburb": "Vila Nova",
        "amenity": "school",
        "name": "Escola Municipal Criança Feliz",
        "id": "way/1038370202"
      },
      "geometry": {
        "type": "Polygon",
        "coordinates": [
          [
            [
              -48.7269893,
              -9.8420008
            ],
            [
              -48.7269781,
              -9.8427823
            ],
            [
              -48.7265286,
              -9.842775
            ],
            [
              -48.7265453,
              -9.8420008
            ],
            [
              -48.7269893,
              -9.8420008
            ]
          ]
        ]
      }
    },
    {
      "type": "Feature",
      "id": "way/1038370203",
      "properties": {
        "timestamp": "2022-03-08T21:39:40Z",
        "version": 1,
        "changeset": 118253698,
        "addr:city": "Barrolândia",
        "addr:housenumber": "290",
        "addr:postcode": "77665-000",
        "addr:street": "Rua 15 de Novembro",
        "addr:suburb": "Residencial Sul",
        "amenity": "school",
        "name": "Escola Municipal Marcella Couto Cabral",
        "phone": "+55 63 3376 1109",
        "id": "way/1038370203"
      },
      "geometry": {
        "type": "Polygon",
        "coordinates": [
          [
            [
              -48.7292872,
              -9.8443786
            ],
            [
              -48.7292548,
              -9.8450956
            ],
            [
              -48.7283252,
              -9.8450907
            ],
            [
              -48.7283526,
              -9.8444277
            ],
            [
              -48.7292872,
              -9.8443786
            ]
          ]
        ]
      }
    },
    {
      "type": "Feature",
      "id": "way/1038370204",
      "properties": {
        "timestamp": "2022-03-08T21:39:40Z",
        "version": 1,
        "changeset": 118253698,
        "addr:city": "Barrolândia",
        "addr:housenumber": "1556",
        "addr:postcode": "77665-000",
        "addr:street": "Avenida Capitão Georginho",
        "addr:suburb": "Vila Nova",
        "amenity": "school",
        "name": "Associacao De Apoio A Esc Especial Amor De Deus",
        "phone": "+55 63 3376 1166",
        "id": "way/1038370204"
      },
      "geometry": {
        "type": "Polygon",
        "coordinates": [
          [
            [
              -48.7265386,
              -9.8420231
            ],
            [
              -48.726532,
              -9.8422218
            ],
            [
              -48.7261276,
              -9.842209
            ],
            [
              -48.7261341,
              -9.8420102
            ],
            [
              -48.7265386,
              -9.8420231
            ]
          ]
        ]
      }
    }
  ]
}
