{
  "type": "FeatureCollection",
  "features": [
    {
      "type": "Feature",
      "id": "way/227605756",
      "properties": {
        "timestamp": "2021-04-30T17:15:27Z",
        "version": 4,
        "changeset": 103927111,
        "addr:housenumber": "852",
        "addr:postcode": "17930-000",
        "addr:street": "Rua Tiradentes",
        "addr:suburb": "Centro",
        "amenity": "school",
        "email": "escolaemilia@abcrede.com.br",
        "name": "Escola Municipal Professora Emilia Diogo Amaral",
        "phone": "+55 18 3851 1228",
        "ref": "INEP-35227213",
        "id": "way/227605756"
      },
      "geometry": {
        "type": "Polygon",
        "coordinates": [
          [
            [
              -51.5768445,
              -21.3846909
            ],
            [
              -51.5762621,
              -21.3852759
            ],
            [
              -51.5756753,
              -21.3847694
            ],
            [
              -51.5762576,
              -21.3841844
            ],
            [
              -51.5768445,
              -21.3846909
            ]
          ]
        ]
      }
    },
    {
      "type": "Feature",
      "id": "way/227605760",
      "properties": {
        "timestamp": "2021-04-30T17:03:47Z",
        "version": 5,
        "changeset": 103926546,
        "addr:housenumber": "852",
        "addr:postcode": "17930-000",
        "addr:street": "Rua Tiradentes",
        "addr:suburb": "Centro",
        "amenity": "school",
        "contact:phone": "+55 18 3851 1969",
        "email": "e031513a@educacao.sp.gov.br",
        "name": "Escola Estadual Léa Aparecida Vieira Guedes",
        "old_name": "Escola Estadual Tupi Paulista",
        "operator": "Secretaria da Educação do Estado de São Paulo",
        "operator:type": "government",
        "phone": "+55 18 3851 1221",
        "ref": "INEP-35031513",
        "source": "CADMEC 2017;INEP",
        "id": "way/227605760"
      },
      "geometry": {
        "type": "Polygon",
        "coordinates": [
          [
            [
              -51.576183,
              -21.3853644
            ],
            [
              -51.575582,
              -21.3859536
            ],
            [
              -51.5750568,
              -21.3854891
            ],
            [
              -51.5756579,
              -21.3848999
            ],
            [
              -51.576183,
              -21.3853644
            ]
          ]
        ]
      }
    },
    {
      "type": "Feature",
      "id": "way/680946002",
      "properties": {
        "timestamp": "2021-04-30T17:20:13Z",
        "version": 3,
        "changeset": 103927323,
        "addr:housenumber": "293",
        "addr:postcode": "17930-000",
        "addr:street": "Avenida São Paulo",
        "addr:suburb": "Centro",
        "amenity": "school",
        "contact:phone": "+55 18 3851 2475",
        "email": "anathereza@abcrede.com.br",
        "name": "Escola Municipal Professora Ana Thereza Copetti Ferreira",
        "phone": "+55 18 3851 1159",
        "ref": "INEP-35065328",
        "id": "way/680946002"
      },
      "geometry": {
        "type": "Polygon",
        "coordinates": [
          [
            [
              -51.576406,
              -21.3949579
            ],
            [
              -51.5769565,
              -21.3943734
            ],
            [
              -51.5771574,
              -21.3945995
            ],
            [
              -51.5771926,
              -21.3955711
            ],
            [
              -51.576406,
              -21.3949579
            ]
          ]
        ]
      }
    },
    {
      "type": "Feature",
      "id": "way/680946005",
      "properties": {
        "timestamp": "2021-04-30T17:23:46Z",
        "version": 3,
        "changeset": 103927483,
        "addr:housenumber": "1194",
        "addr:postcode": "17930-000",
        "addr:street": "Avenida Senador Piza",
        "addr:suburb": "Centro",
        "amenity": "school",
        "name": "Escola Municipal Professora Geny Barbosa Genovez",
        "phone": "+55 18 3851 4474",
        "ref": "INEP-35193948",
        "id": "way/680946005"
      },
      "geometry": {
        "type": "Polygon",
        "coordinates": [
          [
            [
              -51.5688232,
              -21.3874506
            ],
            [
              -51.5682294,
              -21.3880473
            ],
            [
              -51.5676641,
              -21.3875493
            ],
            [
              -51.5682654,
              -21.3869551
            ],
            [
              -51.5688232,
              -21.3874506
            ]
          ]
        ]
      }
    },
    {
      "type": "Feature",
      "id": "way/925938601",
      "properties": {
        "timestamp": "2021-04-04T18:07:35Z",
        "version": 1,
        "changeset": 102282713,
        "addr:housenumber": "367",
        "addr:postcode": "17930-000",
        "addr:street": "Avenida  João Moellers",
        "addr:suburb": "Centro",
        "amenity": "school",
        "email": "leais@abcrede.com.br",
        "name": "Lar Espirita Assistêncial Irmã Scheila",
        "phone": "+55 18 3851 2304",
        "ref": "INEP-35167009",
        "source": "CADMEC 2017;INEP",
        "id": "way/925938601"
      },
      "geometry": {
        "type": "Polygon",
        "coordinates": [
          [
            [
              -51.5777987,
              -21.3845914
            ],
            [
              -51.5776244,
              -21.3847738
            ],
            [
              -51.5776566,
              -21.3848012
            ],
            [
              -51.5775707,
              -21.3848712
            ],
            [
              -51.5774286,
              -21.3847713
            ],
            [
              -51.5777129,
              -21.3845165
            ],
            [
              -51.5777987,
              -21.3845914
            ]
          ]
        ]
      }
    },
    {
      "type": "Feature",
      "id": "way/937363711",
      "properties": {
        "timestamp": "2021-04-30T17:32:27Z",
        "version": 1,
        "changeset": 103927918,
        "addr:housenumber": "852",
        "addr:postcode": "17930-000",
        "addr:street": "Rua Arcebíspo Lemieux",
        "addr:suburb": "Jardim Portela",
        "amenity": "school",
        "contact:phone": "+55 18 3851 1552",
        "email": "emleonidas@abcrede.com.br",
        "name": "Escola Municipal Professor Leonidas Ramos de Oliveira",
        "phone": "+55 18 3851 1486",
        "ref": "INEP",
        "source": "CADMEC 2017;INEP",
        "id": "way/937363711"
      },
      "geometry": {
        "type": "Polygon",
        "coordinates": [
          [
            [
              -51.5708564,
              -21.3923778
            ],
            [
              -51.5704069,
              -21.3928207
            ],
            [
              -51.5700312,
              -21.3924902
            ],
            [
              -51.5704806,
              -21.3920472
            ],
            [
              -51.5708564,
              -21.3923778
            ]
          ]
        ]
      }
    },
    {
      "type": "Feature",
      "id": "node/8685036439",
      "properties": {
        "timestamp": "2021-04-30T16:52:20Z",
        "version": 1,
        "changeset": 103926011,
        "addr:housenumber": "Km 667,8",
        "addr:postcode": "17930-000",
        "addr:street": "Rodovia Comandante João Ribeiro de Barros",
        "addr:suburb": "Guaraciaba",
        "amenity": "school",
        "email": "cte@Tupi.sap.sp.gov.br",
        "name": "Escola Estadual Penitenciaria Compacta de Tupi Paulista",
        "operator": "Secretaria da Educação do Estado de São Paulo",
        "operator:type": "government",
        "phone": "+55 18 3851 1600",
        "ref": "INEP-35455349",
        "source": "CADMEC 2017;INEP",
        "id": "node/8685036439"
      },
      "geometry": {
        "type": "Point",
        "coordinates": [
          -51.6764263,
          -21.377967
        ]
      }
    },
    {
      "type": "Feature",
      "id": "node/8685043987",
      "properties": {
        "timestamp": "2021-04-30T16:58:39Z",
        "version": 2,
        "changeset": 103926297,
        "addr:housenumber": "Km 667,8",
        "addr:postcode": "17930-000",
        "addr:street": "Rodovia Comandante João Ribeiro de Barros",
        "addr:suburb": "Guaraciaba",
        "amenity": "school",
        "contact:phone": "+55 18 3851 4675",
        "name": "Escola Estadual Penitenciaria Feminina de Tupi Paulista",
        "operator": "Secretaria da Educação do Estado de São Paulo",
        "operator:type": "government",
        "phone": "+55 18 3851 4673",
        "ref": "INEP-35459636",
        "source": "CADMEC 2017;INEP",
        "id": "node/8685043987"
      },
      "geometry": {
        "type": "Point",
        "coordinates": [
          -51.6780952,
          -21.3771626
        ]
      }
    }
  ]
}
