{
  "type": "FeatureCollection",
  "features": [
    {
      "type": "Feature",
      "id": "node/11106189540",
      "properties": {
        "timestamp": "2023-08-11T02:18:33Z",
        "version": 1,
        "changeset": 139729374,
        "addr:city": "Virgolândia",
        "addr:housenumber": "48",
        "addr:postcode": "39715-000",
        "addr:street": "Rua Salvio Clementino da Silva",
        "addr:suburb": "Centro",
        "amenity": "school",
        "name": "Escola Estadual Juventino Alves Ferreira",
        "operator": "Governo de Minas Gerais",
        "operator:type": "public",
        "phone": "+55 33 3295 1227",
        "id": "node/11106189540"
      },
      "geometry": {
        "type": "Point",
        "coordinates": [
          -42.3092992,
          -18.4731288
        ]
      }
    },
    {
      "type": "Feature",
      "id": "node/11106189541",
      "properties": {
        "timestamp": "2023-08-11T02:18:33Z",
        "version": 1,
        "changeset": 139729374,
        "addr:city": "Virgolândia",
        "addr:housenumber": "93",
        "addr:postcode": "39715-000",
        "addr:street": "Rua João Rosa",
        "amenity": "school",
        "name": "Escola Estadual Joaquim Eleto",
        "operator": "Governo de Minas Gerais",
        "operator:type": "public",
        "phone": "+55 33 3295 1226",
        "id": "node/11106189541"
      },
      "geometry": {
        "type": "Point",
        "coordinates": [
          -42.3065875,
          -18.4705746
        ]
      }
    },
    {
      "type": "Feature",
      "id": "node/11106189547",
      "properties": {
        "timestamp": "2023-08-11T02:18:33Z",
        "version": 1,
        "changeset": 139729374,
        "addr:city": "Virgolândia",
        "addr:housenumber": "15",
        "addr:postcode": "39715-000",
        "addr:street": "Rua José Leite",
        "addr:suburb": "Centro",
        "amenity": "school",
        "name": "Escola Municipal Florêncio Malta",
        "operator": "Município de Virgolândia",
        "operator:type": "public",
        "id": "node/11106189547"
      },
      "geometry": {
        "type": "Point",
        "coordinates": [
          -42.3114175,
          -18.4760582
        ]
      }
    }
  ]
}
