{
  "type": "FeatureCollection",
  "features": [
    {
      "type": "Feature",
      "id": "node/4288986167",
      "properties": {
        "timestamp": "2021-07-30T14:48:46Z",
        "version": 2,
        "changeset": 108897255,
        "addr:postcode": "64490-000",
        "addr:street": "Avenida Alberto Leal Nunes",
        "name": "Hotel Central",
        "tourism": "hotel",
        "id": "node/4288986167"
      },
      "geometry": {
        "type": "Point",
        "coordinates": [
          -42.6879802,
          -6.2381938
        ]
      }
    },
    {
      "type": "Feature",
      "id": "node/5929943082",
      "properties": {
        "timestamp": "2021-07-30T14:48:46Z",
        "version": 2,
        "changeset": 108897255,
        "addr:city": "Regeneração",
        "addr:postcode": "64490-000",
        "addr:street": "Avenida Alberto Leal Nunes",
        "addr:suburb": "Centro",
        "name": "Hotel Kanayra",
        "tourism": "hotel",
        "id": "node/5929943082"
      },
      "geometry": {
        "type": "Point",
        "coordinates": [
          -42.6881781,
          -6.2388235
        ]
      }
    }
  ]
}
