{
  "type": "FeatureCollection",
  "features": [
    {
      "type": "Feature",
      "id": "way/1102722948",
      "properties": {
        "timestamp": "2022-10-10T22:16:11Z",
        "version": 1,
        "changeset": 127325717,
        "addr:city": "Taquara",
        "addr:housenumber": "1223",
        "addr:postcode": "95600-000",
        "addr:street": "Pinheiro Machado",
        "addr:suburb": "Centro",
        "amenity": "school",
        "name": "Centro Sinodal de Ensino Medio Dorothea Schäfke",
        "phone": "+55 51 3542-2202",
        "id": "way/1102722948"
      },
      "geometry": {
        "type": "Polygon",
        "coordinates": [
          [
            [
              -50.7804693,
              -29.6512775
            ],
            [
              -50.7805153,
              -29.6516148
            ],
            [
              -50.7797862,
              -29.6516897
            ],
            [
              -50.7797403,
              -29.6513526
            ],
            [
              -50.7804693,
              -29.6512775
            ]
          ]
        ]
      }
    },
    {
      "type": "Feature",
      "id": "node/1049732117",
      "properties": {
        "timestamp": "2011-12-04T22:46:35Z",
        "version": 2,
        "changeset": 10038387,
        "amenity": "school",
        "name": "Escola Municipal de Educação Fundamental Abrillina Gomes",
        "id": "node/1049732117"
      },
      "geometry": {
        "type": "Point",
        "coordinates": [
          -50.9306814,
          -29.7008643
        ]
      }
    },
    {
      "type": "Feature",
      "id": "node/3681454101",
      "properties": {
        "timestamp": "2020-04-17T23:51:22Z",
        "version": 4,
        "changeset": 83729129,
        "addr:city": "taquara",
        "addr:housenumber": "20",
        "addr:postcode": "95600-000",
        "addr:street": "Rua Professora Pascoalina Faedrich",
        "addr:suburb": "santa rosa",
        "amenity": "school",
        "name": "EMEF Rosa Elsa Mertins",
        "id": "node/3681454101"
      },
      "geometry": {
        "type": "Point",
        "coordinates": [
          -50.7705839,
          -29.6384032
        ]
      }
    },
    {
      "type": "Feature",
      "id": "node/3681462997",
      "properties": {
        "timestamp": "2016-09-27T13:50:32Z",
        "version": 3,
        "changeset": 42470987,
        "addr:city": "taquara",
        "addr:housenumber": "15",
        "addr:postcode": "95600-000",
        "addr:street": "Rua João Bayer",
        "addr:suburb": "petropolis",
        "amenity": "school",
        "name": "colégio municipal theóphilo sauer",
        "phone": "+55 51 3542-3037",
        "id": "node/3681462997"
      },
      "geometry": {
        "type": "Point",
        "coordinates": [
          -50.7680453,
          -29.6542534
        ]
      }
    },
    {
      "type": "Feature",
      "id": "node/3769808739",
      "properties": {
        "timestamp": "2022-07-20T23:21:36Z",
        "version": 4,
        "changeset": 123869461,
        "addr:city": "Taquara",
        "addr:housenumber": "2150",
        "addr:postcode": "95600-000",
        "addr:street": "Rua Júlio de Castilhos",
        "addr:suburb": "Centro",
        "amenity": "school",
        "name": "Colégio Santa Terezinha",
        "phone": "+55 51 3542-1328",
        "id": "node/3769808739"
      },
      "geometry": {
        "type": "Point",
        "coordinates": [
          -50.7813049,
          -29.6528016
        ]
      }
    },
    {
      "type": "Feature",
      "id": "node/3769819136",
      "properties": {
        "timestamp": "2024-11-24T21:58:43Z",
        "version": 7,
        "changeset": 159551286,
        "addr:city": "Taquara",
        "addr:housenumber": "2130",
        "addr:postcode": "95600-000",
        "addr:street": "Avenida Sebastião Amoretti",
        "addr:suburb": "Cruzeiro do sul",
        "amenity": "school",
        "name": "IACS - Instituto Adventista Cruzeiro do Sul",
        "phone": "+55 51 3541-6800",
        "website": "https://iacs.org.br/",
        "id": "node/3769819136"
      },
      "geometry": {
        "type": "Point",
        "coordinates": [
          -50.7893153,
          -29.6736612
        ]
      }
    },
    {
      "type": "Feature",
      "id": "node/3773368869",
      "properties": {
        "timestamp": "2016-09-27T13:50:15Z",
        "version": 3,
        "changeset": 42470987,
        "addr:city": "Taquara",
        "addr:housenumber": "554",
        "addr:postcode": "95600-000",
        "addr:street": "Rua Tristão Monteiro",
        "addr:suburb": "Petrópolis",
        "amenity": "school",
        "name": "Escola E.E.F. Tristão Monteiro",
        "phone": "+55 51 3542-6232",
        "id": "node/3773368869"
      },
      "geometry": {
        "type": "Point",
        "coordinates": [
          -50.7736659,
          -29.6464869
        ]
      }
    },
    {
      "type": "Feature",
      "id": "node/4014203423",
      "properties": {
        "timestamp": "2021-11-30T11:22:16Z",
        "version": 4,
        "changeset": 114378820,
        "addr:city": "Taquara",
        "addr:housenumber": "636",
        "addr:postcode": "95600-000",
        "addr:street": "Rua Espírito Santo",
        "addr:suburb": "Santa Terezinha",
        "amenity": "school",
        "name": "E.M.E.I Alice Maciel",
        "note": "Escola de educação infantil.",
        "operator": "Prefeitura Municipalde Taquara",
        "phone": "+55 51 3541-5816",
        "wheelchair": "limited",
        "id": "node/4014203423"
      },
      "geometry": {
        "type": "Point",
        "coordinates": [
          -50.7746585,
          -29.6567052
        ]
      }
    },
    {
      "type": "Feature",
      "id": "node/4016659231",
      "properties": {
        "timestamp": "2016-09-27T13:50:15Z",
        "version": 3,
        "changeset": 42470987,
        "addr:city": "Taquara",
        "addr:housenumber": "254",
        "addr:postcode": "95600-000",
        "addr:street": "Rua Medianeira",
        "addr:suburb": "Medianeira",
        "amenity": "school",
        "name": "EMEF João Martins Nunes",
        "operator": "Prefeitura Municipal de Taquara",
        "phone": "+55 51 3542-6108",
        "id": "node/4016659231"
      },
      "geometry": {
        "type": "Point",
        "coordinates": [
          -50.7662176,
          -29.6620055
        ]
      }
    },
    {
      "type": "Feature",
      "id": "node/4016663192",
      "properties": {
        "timestamp": "2016-09-27T13:50:02Z",
        "version": 3,
        "changeset": 42470987,
        "addr:city": "Taquara",
        "addr:housenumber": "1850",
        "addr:postcode": "95600-000",
        "addr:street": "Rua Guanabara",
        "addr:suburb": "Petropolis",
        "amenity": "school",
        "name": "AABB Comunidade",
        "operator": "Prefeitura mun de Taquara",
        "phone": "+55 51 3542-1431",
        "id": "node/4016663192"
      },
      "geometry": {
        "type": "Point",
        "coordinates": [
          -50.7716419,
          -29.656348
        ]
      }
    },
    {
      "type": "Feature",
      "id": "node/4016670038",
      "properties": {
        "timestamp": "2016-09-27T13:50:14Z",
        "version": 3,
        "changeset": 42470987,
        "addr:city": "Taquara",
        "addr:housenumber": "800",
        "addr:postcode": "95600-000",
        "addr:street": "Rua Santarém",
        "addr:suburb": "Bairro Mundo Novo",
        "amenity": "school",
        "name": "EMEF 17 de Abril",
        "phone": "+55 51 3541-4122",
        "id": "node/4016670038"
      },
      "geometry": {
        "type": "Point",
        "coordinates": [
          -50.7595081,
          -29.6542329
        ]
      }
    },
    {
      "type": "Feature",
      "id": "node/4016674321",
      "properties": {
        "timestamp": "2016-09-27T13:50:14Z",
        "version": 3,
        "changeset": 42470987,
        "addr:city": "Taquara",
        "addr:housenumber": "1440",
        "addr:postcode": "95600-000",
        "addr:street": "Rua Carolina Brodbeck",
        "addr:suburb": "Fogão Gaúcho",
        "amenity": "school",
        "name": "EMEF Calisto Eolálio Letti",
        "operator": "Prefeitura municipal de Taquara",
        "phone": "+55 51 3541-7176",
        "id": "node/4016674321"
      },
      "geometry": {
        "type": "Point",
        "coordinates": [
          -50.7841945,
          -29.6394382
        ]
      }
    },
    {
      "type": "Feature",
      "id": "node/4016676703",
      "properties": {
        "timestamp": "2016-11-30T19:38:12Z",
        "version": 4,
        "changeset": 44068192,
        "addr:city": "Taquara",
        "addr:housenumber": "2846",
        "addr:postcode": "95600-000",
        "addr:street": "Rua Cincinato Cardoso",
        "addr:suburb": "Santa Maria",
        "amenity": "school",
        "name": "EMEF Dr. Alípio Alfredo Sperb",
        "operator": "Prefeitura municipal de Taquara",
        "phone": "+55 51 98484-1807;+55 51 3179-3686",
        "id": "node/4016676703"
      },
      "geometry": {
        "type": "Point",
        "coordinates": [
          -50.7972002,
          -29.6396145
        ]
      }
    },
    {
      "type": "Feature",
      "id": "node/4016687398",
      "properties": {
        "timestamp": "2016-09-27T13:50:15Z",
        "version": 4,
        "changeset": 42470987,
        "addr:city": "Taquara",
        "addr:housenumber": "721",
        "addr:postcode": "95600-000",
        "addr:street": "Rua 19 de Março",
        "addr:suburb": "Cruzeiro do sul",
        "amenity": "school",
        "name": "EMEF Lauro Hampe Muller",
        "operator": "Prefeitura municipal de Taquara",
        "phone": "+55 51 3542-3355",
        "id": "node/4016687398"
      },
      "geometry": {
        "type": "Point",
        "coordinates": [
          -50.7891459,
          -29.6653925
        ]
      }
    },
    {
      "type": "Feature",
      "id": "node/4016697135",
      "properties": {
        "timestamp": "2016-09-27T13:50:15Z",
        "version": 3,
        "changeset": 42470987,
        "addr:city": "Taquara",
        "addr:housenumber": "2955",
        "addr:postcode": "95600-000",
        "addr:street": "Rua Adalberto Pereira dos Santos",
        "addr:suburb": "Bairro Eldorado",
        "amenity": "school",
        "name": "EMEF Getúlio Vargas",
        "operator": "Prefeitura municipal de Taquara",
        "phone": "+55 51 3542-1164",
        "id": "node/4016697135"
      },
      "geometry": {
        "type": "Point",
        "coordinates": [
          -50.7977986,
          -29.629144
        ]
      }
    },
    {
      "type": "Feature",
      "id": "node/4016707107",
      "properties": {
        "timestamp": "2016-09-27T13:50:15Z",
        "version": 3,
        "changeset": 42470987,
        "addr:city": "Taquara",
        "addr:housenumber": "334",
        "addr:postcode": "95600-000",
        "addr:street": "Rua São Francisco de Paula",
        "addr:suburb": "Bairro Medianeira",
        "amenity": "school",
        "name": "EMEF Nereu Wilhelms",
        "operator": "Prefeitura municipal de Taquara",
        "phone": "+55 51 3541-6412",
        "id": "node/4016707107"
      },
      "geometry": {
        "type": "Point",
        "coordinates": [
          -50.7648356,
          -29.6591717
        ]
      }
    },
    {
      "type": "Feature",
      "id": "node/4026632315",
      "properties": {
        "timestamp": "2016-09-27T13:50:15Z",
        "version": 3,
        "changeset": 42470987,
        "addr:city": "Taquara",
        "addr:housenumber": "424",
        "addr:postcode": "95600-000",
        "addr:street": "Rua Alfredo F. Kraemer",
        "addr:suburb": "Petrópolis",
        "amenity": "school",
        "name": "Escola de educação infantil dos comerciários e particular",
        "phone": "+55 51 3542-3066",
        "id": "node/4026632315"
      },
      "geometry": {
        "type": "Point",
        "coordinates": [
          -50.7712743,
          -29.6512599
        ]
      }
    },
    {
      "type": "Feature",
      "id": "node/6821619002",
      "properties": {
        "timestamp": "2021-11-29T17:47:56Z",
        "version": 2,
        "changeset": 114338570,
        "amenity": "school",
        "name": "Escola Estadual de Ensino Fundamental Rodolfo Von Ihering",
        "wheelchair": "limited",
        "id": "node/6821619002"
      },
      "geometry": {
        "type": "Point",
        "coordinates": [
          -50.7833501,
          -29.6506138
        ]
      }
    },
    {
      "type": "Feature",
      "id": "node/6841916962",
      "properties": {
        "timestamp": "2019-10-01T21:27:01Z",
        "version": 1,
        "changeset": 75171810,
        "amenity": "school",
        "name": "E.M.E.I Leonel de Moura Brizola",
        "id": "node/6841916962"
      },
      "geometry": {
        "type": "Point",
        "coordinates": [
          -50.7742524,
          -29.6665979
        ]
      }
    },
    {
      "type": "Feature",
      "id": "node/6841920110",
      "properties": {
        "timestamp": "2019-10-01T21:37:35Z",
        "version": 1,
        "changeset": 75172035,
        "amenity": "school",
        "name": "Escola Estadual de Ensino Médio Willibaldo Bernardo Samrsla",
        "id": "node/6841920110"
      },
      "geometry": {
        "type": "Point",
        "coordinates": [
          -50.7751136,
          -29.6733169
        ]
      }
    },
    {
      "type": "Feature",
      "id": "node/7015610697",
      "properties": {
        "timestamp": "2019-11-27T21:59:13Z",
        "version": 1,
        "changeset": 77654290,
        "amenity": "school",
        "name": "Escola Estadual de Ensino Médio Profa. Herminia Gaewersen Marques",
        "id": "node/7015610697"
      },
      "geometry": {
        "type": "Point",
        "coordinates": [
          -50.6907421,
          -29.6091539
        ]
      }
    },
    {
      "type": "Feature",
      "id": "node/7417148240",
      "properties": {
        "timestamp": "2020-04-18T14:21:05Z",
        "version": 1,
        "changeset": 83744738,
        "amenity": "school",
        "name": "EMEI Maria Arlete Wallauer Jaeger",
        "id": "node/7417148240"
      },
      "geometry": {
        "type": "Point",
        "coordinates": [
          -50.7594715,
          -29.6551535
        ]
      }
    },
    {
      "type": "Feature",
      "id": "node/7417508661",
      "properties": {
        "timestamp": "2020-04-18T17:11:56Z",
        "version": 1,
        "changeset": 83750120,
        "amenity": "school",
        "name": "EMEI Profa. Patrícia Cristina Kehl \"Tia Paty\"",
        "id": "node/7417508661"
      },
      "geometry": {
        "type": "Point",
        "coordinates": [
          -50.7673117,
          -29.6291235
        ]
      }
    },
    {
      "type": "Feature",
      "id": "node/8536647834",
      "properties": {
        "timestamp": "2021-03-19T11:49:20Z",
        "version": 1,
        "changeset": 101326793,
        "addr:city": "Taquara",
        "amenity": "school",
        "name": "Colégio Felipe Marx (Polivalente)",
        "id": "node/8536647834"
      },
      "geometry": {
        "type": "Point",
        "coordinates": [
          -50.786705,
          -29.653463
        ]
      }
    },
    {
      "type": "Feature",
      "id": "node/12089747074",
      "properties": {
        "timestamp": "2024-08-03T00:01:48Z",
        "version": 1,
        "changeset": 154756503,
        "amenity": "school",
        "name": "Escola Zeferino Vicente Neves Filho",
        "id": "node/12089747074"
      },
      "geometry": {
        "type": "Point",
        "coordinates": [
          -50.914425,
          -29.722287
        ]
      }
    }
  ]
}
