{
  "type": "FeatureCollection",
  "features": [
    {
      "type": "Feature",
      "id": "node/3554550653",
      "properties": {
        "timestamp": "2017-03-27T22:20:27Z",
        "version": 4,
        "changeset": 47214165,
        "addr:city": "Rio dos Cedros",
        "email": "contato@pousadalindnerhof.com.br",
        "name": "Pousada Lindnerhof",
        "phone": "+55 47 3036 5370",
        "source": "Bing;survey",
        "tourism": "guest_house",
        "id": "node/3554550653"
      },
      "geometry": {
        "type": "Point",
        "coordinates": [
          -49.3924116,
          -26.6120916
        ]
      }
    },
    {
      "type": "Feature",
      "id": "node/6024949774",
      "properties": {
        "timestamp": "2022-09-09T20:59:42Z",
        "version": 2,
        "changeset": 125996218,
        "addr:city": "Rio dos Cedros",
        "addr:street": "Rua Padre João Baptista Delsale",
        "name": "Recanto das Águias",
        "phone": "+55 47 3057-5933",
        "tourism": "guest_house",
        "website": "https://www.facebook.com/palmeirascasa/",
        "id": "node/6024949774"
      },
      "geometry": {
        "type": "Point",
        "coordinates": [
          -49.3416701,
          -26.6047411
        ]
      }
    },
    {
      "type": "Feature",
      "id": "node/6024949775",
      "properties": {
        "timestamp": "2022-09-09T20:59:42Z",
        "version": 2,
        "changeset": 125996218,
        "addr:city": "Rio dos Cedros",
        "addr:street": "Rua Padre João Baptista Delsale",
        "name": "Recanto Azul",
        "phone": "+55 47 3038-5329",
        "tourism": "guest_house",
        "website": "https://www.facebook.com/Recanto-AZUL-1378755449013603/",
        "id": "node/6024949775"
      },
      "geometry": {
        "type": "Point",
        "coordinates": [
          -49.3421569,
          -26.6045895
        ]
      }
    },
    {
      "type": "Feature",
      "id": "node/6025011958",
      "properties": {
        "timestamp": "2022-09-09T20:59:42Z",
        "version": 2,
        "changeset": 125996218,
        "addr:city": "Rio dos Cedros",
        "addr:street": "Rua Padre João Baptista Delsale",
        "name": "Flor da Terra",
        "phone": "+55 47 99229-9846",
        "tourism": "guest_house",
        "website": "https://www.facebook.com/flordaterrapousada/",
        "id": "node/6025011958"
      },
      "geometry": {
        "type": "Point",
        "coordinates": [
          -49.3432541,
          -26.5992466
        ]
      }
    },
    {
      "type": "Feature",
      "id": "node/11573188016",
      "properties": {
        "timestamp": "2025-02-21T12:59:53Z",
        "version": 2,
        "changeset": 162779597,
        "addr:suburb": "Alto Cedros",
        "email": "josajr@gmail.com",
        "guest_house": "guest_house",
        "internet_access": "wlan",
        "name": "Refúgio Endorfine-se",
        "phone": "47991464001",
        "tourism": "guest_house",
        "website": "https://endorfinese.com.br/refugio-endorfine-se/",
        "id": "node/11573188016"
      },
      "geometry": {
        "type": "Point",
        "coordinates": [
          -49.4034299,
          -26.6191357
        ]
      }
    }
  ]
}
