{
  "type": "FeatureCollection",
  "features": [
    {
      "type": "Feature",
      "id": "way/243323965",
      "properties": {
        "timestamp": "2019-08-02T18:53:53Z",
        "version": 5,
        "changeset": 72953347,
        "amenity": "school",
        "building": "yes",
        "id": "way/243323965"
      },
      "geometry": {
        "type": "Polygon",
        "coordinates": [
          [
            [
              -53.9887446,
              -25.2405665
            ],
            [
              -53.9888266,
              -25.2414973
            ],
            [
              -53.9877833,
              -25.2415725
            ],
            [
              -53.9877013,
              -25.2406417
            ],
            [
              -53.9887446,
              -25.2405665
            ]
          ]
        ]
      }
    },
    {
      "type": "Feature",
      "id": "way/702450209",
      "properties": {
        "timestamp": "2019-08-02T18:59:56Z",
        "version": 2,
        "changeset": 72953513,
        "amenity": "school",
        "id": "way/702450209"
      },
      "geometry": {
        "type": "Polygon",
        "coordinates": [
          [
            [
              -53.9814933,
              -25.2377221
            ],
            [
              -53.9814753,
              -25.2374883
            ],
            [
              -53.9817226,
              -25.237474
            ],
            [
              -53.9817158,
              -25.2373439
            ],
            [
              -53.9818237,
              -25.2373399
            ],
            [
              -53.9818462,
              -25.2376957
            ],
            [
              -53.9814933,
              -25.2377221
            ]
          ]
        ]
      }
    },
    {
      "type": "Feature",
      "id": "way/702452810",
      "properties": {
        "timestamp": "2019-08-02T19:03:09Z",
        "version": 3,
        "changeset": 72953595,
        "amenity": "school",
        "id": "way/702452810"
      },
      "geometry": {
        "type": "Polygon",
        "coordinates": [
          [
            [
              -53.9447332,
              -25.192059
            ],
            [
              -53.945401,
              -25.1929206
            ],
            [
              -53.9443443,
              -25.1933591
            ],
            [
              -53.9438353,
              -25.1924723
            ],
            [
              -53.9447332,
              -25.192059
            ]
          ]
        ]
      }
    },
    {
      "type": "Feature",
      "id": "node/6596554809",
      "properties": {
        "timestamp": "2019-08-08T18:52:11Z",
        "version": 6,
        "changeset": 73167763,
        "addr:city": "Matelândia",
        "addr:housenumber": "642",
        "addr:postcode": "85.887-000",
        "addr:street": "Rua Napoleão Laureano",
        "addr:suburb": "Centro",
        "amenity": "school",
        "name": "CEEBJA de Matelândia",
        "website": "http://www.mtdceebjamatelandia.seed.pr.gov.br/modules/noticias/",
        "id": "node/6596554809"
      },
      "geometry": {
        "type": "Point",
        "coordinates": [
          -53.9882418,
          -25.240834
        ]
      }
    },
    {
      "type": "Feature",
      "id": "node/6596646453",
      "properties": {
        "timestamp": "2019-08-06T16:47:47Z",
        "version": 2,
        "changeset": 73076255,
        "addr:city": "Matelândia",
        "addr:housenumber": "180",
        "addr:postcode": "85.887-000",
        "addr:street": "Rua Marechal Castelo Branco",
        "addr:suburb": "Agro Cafeeira",
        "amenity": "school",
        "name": "Colégio Estadual do Campo Rui Barbosa",
        "website": "http://www.mtdruibarbosa.seed.pr.gov.br/modules/liaise/",
        "id": "node/6596646453"
      },
      "geometry": {
        "type": "Point",
        "coordinates": [
          -53.9445347,
          -25.1926997
        ]
      }
    },
    {
      "type": "Feature",
      "id": "node/6677530587",
      "properties": {
        "timestamp": "2019-08-08T18:52:11Z",
        "version": 5,
        "changeset": 73167763,
        "addr:city": "Matelândia",
        "addr:housenumber": "642",
        "addr:postcode": "85.887-000",
        "addr:street": "Rua Napoleão Laureano",
        "addr:suburb": "Centro",
        "amenity": "school",
        "name": "Colégio Estadual Euclides da Cunha",
        "website": "http://www.mtdeuclides.seed.pr.gov.br/modules/liaise/",
        "id": "node/6677530587"
      },
      "geometry": {
        "type": "Point",
        "coordinates": [
          -53.9886494,
          -25.2412166
        ]
      }
    },
    {
      "type": "Feature",
      "id": "node/6677535979",
      "properties": {
        "timestamp": "2019-08-07T17:07:33Z",
        "version": 2,
        "changeset": 73121516,
        "addr:city": "Matelândia",
        "addr:housenumber": "639",
        "addr:postcode": "85.887-000",
        "addr:street": "Rua Ipanema",
        "addr:suburb": "Centro",
        "amenity": "school",
        "name": "Escola de Educação Especial Jesus Menino",
        "website": "http://www.mtdjesusmenino.seed.pr.gov.br/modules/liaise/",
        "id": "node/6677535979"
      },
      "geometry": {
        "type": "Point",
        "coordinates": [
          -53.9817858,
          -25.2375261
        ]
      }
    },
    {
      "type": "Feature",
      "id": "node/6684340610",
      "properties": {
        "timestamp": "2019-08-05T12:55:04Z",
        "version": 1,
        "changeset": 73022630,
        "addr:city": "Matelândia",
        "addr:postcode": "85.887-000",
        "addr:street": "Avenida Tiradentes",
        "addr:suburb": "Marquesita",
        "amenity": "school",
        "name": "Colégio Estadual do Campo São João Batista de La Salle",
        "website": "http://www.mtdlasalle.seed.pr.gov.br/modules/liaise/",
        "id": "node/6684340610"
      },
      "geometry": {
        "type": "Point",
        "coordinates": [
          -53.9645765,
          -25.3604168
        ]
      }
    }
  ]
}
