{
  "type": "FeatureCollection",
  "features": [
    {
      "type": "Feature",
      "id": "way/717425441",
      "properties": {
        "timestamp": "2024-06-07T10:29:26Z",
        "version": 2,
        "changeset": 152369239,
        "addr:city": "Estrela",
        "addr:housenumber": "378",
        "addr:postcode": "95880-000",
        "addr:street": "Rua Andreas Goellner",
        "addr:suburb": "Boa União",
        "amenity": "arts_centre",
        "building": "yes",
        "name": "CTG Raça Gaudéria",
        "website": "https://www.facebook.com/ctgracagauderia",
        "id": "way/717425441"
      },
      "geometry": {
        "type": "Polygon",
        "coordinates": [
          [
            [
              -51.9418429,
              -29.4849223
            ],
            [
              -51.9415848,
              -29.48498
            ],
            [
              -51.9415005,
              -29.4846946
            ],
            [
              -51.9417586,
              -29.4846368
            ],
            [
              -51.9418429,
              -29.4849223
            ]
          ]
        ]
      }
    }
  ]
}
