{
  "type": "FeatureCollection",
  "features": [
    {
      "type": "Feature",
      "id": "way/231350257",
      "properties": {
        "timestamp": "2020-04-11T00:16:05Z",
        "version": 2,
        "changeset": 83385646,
        "building": "yes",
        "government": "social_security",
        "name": "INSS",
        "office": "government",
        "id": "way/231350257"
      },
      "geometry": {
        "type": "Polygon",
        "coordinates": [
          [
            [
              -51.9618797,
              -29.4941397
            ],
            [
              -51.9617429,
              -29.4942948
            ],
            [
              -51.9614003,
              -29.4940659
            ],
            [
              -51.9615371,
              -29.4939108
            ],
            [
              -51.9618797,
              -29.4941397
            ]
          ]
        ]
      }
    },
    {
      "type": "Feature",
      "id": "node/6746368619",
      "properties": {
        "timestamp": "2023-10-25T05:54:12Z",
        "version": 2,
        "changeset": 143095396,
        "addr:city": "Estrela",
        "addr:housenumber": "180",
        "addr:postcode": "95880-000",
        "addr:street": "Rua Doutor Tostes",
        "addr:suburb": "Centro",
        "government": "register_office",
        "name": "Cartório Eleitoral - 21ª Zona",
        "office": "government",
        "phone": "+55 51 3720-3622",
        "website": "https://www.tre-rs.jus.br/",
        "id": "node/6746368619"
      },
      "geometry": {
        "type": "Point",
        "coordinates": [
          -51.9659968,
          -29.5032206
        ]
      }
    },
    {
      "type": "Feature",
      "id": "node/9643624177",
      "properties": {
        "timestamp": "2022-04-05T16:23:42Z",
        "version": 2,
        "changeset": 119351590,
        "addr:city": "Estrela",
        "addr:housenumber": "484",
        "addr:street": "Rua Tiradentes",
        "name": "CRAS de Estrela",
        "office": "government",
        "id": "node/9643624177"
      },
      "geometry": {
        "type": "Point",
        "coordinates": [
          -51.9656395,
          -29.5023373
        ]
      }
    }
  ]
}
