{
  "type": "FeatureCollection",
  "features": [
    {
      "type": "Feature",
      "id": "way/426002057",
      "properties": {
        "timestamp": "2023-10-16T02:18:11Z",
        "version": 4,
        "changeset": 142641238,
        "addr:city": "Osasco",
        "addr:housenumber": "215",
        "addr:postcode": "06097-010",
        "addr:street": "Rua Doutor Mariano Jatathy Marcondes Ferraz",
        "addr:suburb": "Centro",
        "building": "yes",
        "contact:email": "sanjose@hotelsanjose.com.br",
        "email": "reservas@hotelsanjose.com.br",
        "name": "San Jose Palace Hotel",
        "phone": "+55 11 3232 5656",
        "smoking": "outside",
        "tourism": "hotel",
        "website": "https://www.hotelsanjose.com.br/",
        "id": "way/426002057"
      },
      "geometry": {
        "type": "Polygon",
        "coordinates": [
          [
            [
              -46.779918,
              -23.5275863
            ],
            [
              -46.7800172,
              -23.5277775
            ],
            [
              -46.7798113,
              -23.5278673
            ],
            [
              -46.7797121,
              -23.5276762
            ],
            [
              -46.779918,
              -23.5275863
            ]
          ]
        ]
      }
    },
    {
      "type": "Feature",
      "id": "way/657449433",
      "properties": {
        "timestamp": "2018-12-24T01:26:55Z",
        "version": 1,
        "changeset": 65727627,
        "building": "yes",
        "tourism": "hotel",
        "id": "way/657449433"
      },
      "geometry": {
        "type": "Polygon",
        "coordinates": [
          [
            [
              -46.7741995,
              -23.5303194
            ],
            [
              -46.7742143,
              -23.530543
            ],
            [
              -46.7741071,
              -23.5305532
            ],
            [
              -46.7740923,
              -23.5303194
            ],
            [
              -46.7741995,
              -23.5303194
            ]
          ]
        ]
      }
    },
    {
      "type": "Feature",
      "id": "way/657449435",
      "properties": {
        "timestamp": "2018-12-24T01:26:55Z",
        "version": 1,
        "changeset": 65727627,
        "building": "yes",
        "name": "Nuvens Hotel",
        "tourism": "hotel",
        "id": "way/657449435"
      },
      "geometry": {
        "type": "Polygon",
        "coordinates": [
          [
            [
              -46.7743953,
              -23.5303025
            ],
            [
              -46.7744101,
              -23.5305295
            ],
            [
              -46.7743214,
              -23.530543
            ],
            [
              -46.7743103,
              -23.5303059
            ],
            [
              -46.7743953,
              -23.5303025
            ]
          ]
        ]
      }
    },
    {
      "type": "Feature",
      "id": "node/1695270612",
      "properties": {
        "timestamp": "2012-03-28T21:33:19Z",
        "version": 1,
        "changeset": 11131622,
        "name": "Hotel Casablanca",
        "tourism": "hotel",
        "id": "node/1695270612"
      },
      "geometry": {
        "type": "Point",
        "coordinates": [
          -46.7748718,
          -23.5298871
        ]
      }
    },
    {
      "type": "Feature",
      "id": "node/4243893268",
      "properties": {
        "timestamp": "2018-01-18T14:56:40Z",
        "version": 3,
        "changeset": 55551887,
        "addr:city": "Osasco",
        "addr:housenumber": "500",
        "addr:postcode": "06086-040",
        "addr:street": "Avenida Dion√≠sia Alves Barreto",
        "addr:suburb": "Jardim Bela Vista",
        "name": "Osasco Hotel",
        "phone": "+55 11 2109 4000",
        "tourism": "hotel",
        "website": "http://www.bwosascohotel.com.br/",
        "id": "node/4243893268"
      },
      "geometry": {
        "type": "Point",
        "coordinates": [
          -46.7842628,
          -23.5344475
        ]
      }
    }
  ]
}
