{
  "type": "FeatureCollection",
  "features": [
    {
      "type": "Feature",
      "id": "way/428753287",
      "properties": {
        "timestamp": "2022-09-10T21:06:25Z",
        "version": 2,
        "changeset": 126030105,
        "addr:city": "Osasco",
        "addr:housenumber": "970",
        "addr:postcode": "06093-008",
        "addr:street": "Rua Antônio Agú",
        "addr:suburb": "Centro",
        "amenity": "pharmacy",
        "building": "yes",
        "name": "Droga Raia",
        "opening_hours": "24/7",
        "phone": "+55 11 3699 0808",
        "id": "way/428753287"
      },
      "geometry": {
        "type": "Polygon",
        "coordinates": [
          [
            [
              -46.7804794,
              -23.5354214
            ],
            [
              -46.7807006,
              -23.5354976
            ],
            [
              -46.7804475,
              -23.5355998
            ],
            [
              -46.7804281,
              -23.5355576
            ],
            [
              -46.7804794,
              -23.5354214
            ]
          ]
        ]
      }
    },
    {
      "type": "Feature",
      "id": "way/647807625",
      "properties": {
        "timestamp": "2018-11-26T22:04:15Z",
        "version": 2,
        "changeset": 64913174,
        "addr:city": "Osasco",
        "addr:housenumber": "1666",
        "addr:postcode": "06086-060",
        "addr:street": "Avenida Santo Antônio",
        "addr:suburb": "Vila Osasco",
        "amenity": "pharmacy",
        "building": "yes",
        "drive_through": "no",
        "healthcare": "pharmacy",
        "name": "Drogaria Brandão",
        "opening_hours": "08:00-22:00",
        "id": "way/647807625"
      },
      "geometry": {
        "type": "Polygon",
        "coordinates": [
          [
            [
              -46.7784095,
              -23.5417305
            ],
            [
              -46.7784418,
              -23.5417559
            ],
            [
              -46.7783164,
              -23.5418655
            ],
            [
              -46.7782859,
              -23.5418282
            ],
            [
              -46.7784095,
              -23.5417305
            ]
          ]
        ]
      }
    },
    {
      "type": "Feature",
      "id": "way/654314444",
      "properties": {
        "timestamp": "2018-12-11T19:40:05Z",
        "version": 1,
        "changeset": 65387292,
        "addr:housenumber": "431",
        "addr:postcode": "06114-000",
        "addr:street": "Avenida Hildebrando de Lima",
        "amenity": "pharmacy",
        "building": "yes",
        "dispensing": "yes",
        "drive_through": "no",
        "healthcare": "pharmacy",
        "name": "Drogasil",
        "opening_hours": "24/7",
        "payment:cash": "yes",
        "payment:coins": "yes",
        "payment:credit_cards": "yes",
        "payment:debit_cards": "yes",
        "payment:notes": "yes",
        "id": "way/654314444"
      },
      "geometry": {
        "type": "Polygon",
        "coordinates": [
          [
            [
              -46.7938997,
              -23.5307783
            ],
            [
              -46.7938868,
              -23.5308816
            ],
            [
              -46.7937636,
              -23.5308688
            ],
            [
              -46.7937764,
              -23.5307655
            ],
            [
              -46.7938997,
              -23.5307783
            ]
          ]
        ]
      }
    },
    {
      "type": "Feature",
      "id": "way/675406741",
      "properties": {
        "timestamp": "2019-03-09T00:09:59Z",
        "version": 2,
        "changeset": 67945180,
        "addr:city": "Osasco",
        "addr:street": "Avenida Ayrton Senna",
        "addr:suburb": "Jardim Santa Maria",
        "amenity": "pharmacy",
        "building": "yes",
        "dispensing": "yes",
        "healthcare": "pharmacy",
        "name": "Drogaria Bem Estar",
        "id": "way/675406741"
      },
      "geometry": {
        "type": "Polygon",
        "coordinates": [
          [
            [
              -46.810856,
              -23.5832147
            ],
            [
              -46.8108907,
              -23.5831739
            ],
            [
              -46.8110035,
              -23.5832529
            ],
            [
              -46.8110799,
              -23.5833063
            ],
            [
              -46.8110473,
              -23.5833458
            ],
            [
              -46.810856,
              -23.5832147
            ]
          ]
        ]
      }
    },
    {
      "type": "Feature",
      "id": "way/1057634834",
      "properties": {
        "timestamp": "2024-11-23T17:42:23Z",
        "version": 3,
        "changeset": 159509227,
        "addr:housenumber": "120",
        "addr:postcode": "06053-000",
        "addr:street": "Avenida Cásper Líbero",
        "addr:suburb": "Bela Vista",
        "amenity": "pharmacy",
        "branch": "Osasco 17",
        "brand": "Drogasil",
        "brand:wikidata": "Q5308185",
        "building": "yes",
        "dispensing": "yes",
        "drive_through": "no",
        "healthcare": "pharmacy",
        "name": "Drogasil",
        "opening_hours": "Mo-Su,PH 07:00-23:00",
        "phone": "+55 11 3682 5692",
        "website": "https://www.drogasil.com.br/",
        "wheelchair": "yes",
        "id": "way/1057634834"
      },
      "geometry": {
        "type": "Polygon",
        "coordinates": [
          [
            [
              -46.7820151,
              -23.5444225
            ],
            [
              -46.7820226,
              -23.544488
            ],
            [
              -46.7820064,
              -23.5445056
            ],
            [
              -46.7819049,
              -23.5445913
            ],
            [
              -46.7818864,
              -23.5444386
            ],
            [
              -46.7820151,
              -23.5444225
            ]
          ]
        ]
      }
    },
    {
      "type": "Feature",
      "id": "way/1145194770",
      "properties": {
        "timestamp": "2023-02-14T16:19:48Z",
        "version": 1,
        "changeset": 132544731,
        "addr:street": "Avenida Valter Boveri",
        "amenity": "pharmacy",
        "brand": "Farma Conde",
        "brand:wikidata": "Q100492677",
        "building": "yes",
        "dispensing": "yes",
        "drive_through": "no",
        "healthcare": "pharmacy",
        "name": "Farma Conde",
        "id": "way/1145194770"
      },
      "geometry": {
        "type": "Polygon",
        "coordinates": [
          [
            [
              -46.797531,
              -23.5631652
            ],
            [
              -46.7975204,
              -23.5633182
            ],
            [
              -46.7974888,
              -23.5633472
            ],
            [
              -46.7973939,
              -23.5633375
            ],
            [
              -46.7974203,
              -23.5631523
            ],
            [
              -46.797531,
              -23.5631652
            ]
          ]
        ]
      }
    },
    {
      "type": "Feature",
      "id": "way/1147047474",
      "properties": {
        "timestamp": "2024-11-24T02:39:53Z",
        "version": 2,
        "changeset": 159519511,
        "addr:street": "Avenida Antônio Carlos Costa",
        "amenity": "pharmacy",
        "brand": "Drogaria São Paulo",
        "brand:wikidata": "Q5308184",
        "building": "yes",
        "dispensing": "yes",
        "drive_through": "no",
        "healthcare": "pharmacy",
        "name": "Drogaria São Paulo",
        "opening_hours": "24/7",
        "id": "way/1147047474"
      },
      "geometry": {
        "type": "Polygon",
        "coordinates": [
          [
            [
              -46.7861902,
              -23.5547142
            ],
            [
              -46.7862105,
              -23.5548084
            ],
            [
              -46.7862009,
              -23.5548366
            ],
            [
              -46.7860743,
              -23.5548536
            ],
            [
              -46.7860507,
              -23.5547293
            ],
            [
              -46.7861902,
              -23.5547142
            ]
          ]
        ]
      }
    },
    {
      "type": "Feature",
      "id": "way/1149197451",
      "properties": {
        "timestamp": "2023-02-24T16:18:02Z",
        "version": 1,
        "changeset": 132975429,
        "amenity": "pharmacy",
        "building": "yes",
        "healthcare": "pharmacy",
        "name": "Good Farma",
        "id": "way/1149197451"
      },
      "geometry": {
        "type": "Polygon",
        "coordinates": [
          [
            [
              -46.8076328,
              -23.5437744
            ],
            [
              -46.8075552,
              -23.5438403
            ],
            [
              -46.8075221,
              -23.5438126
            ],
            [
              -46.8075911,
              -23.5437441
            ],
            [
              -46.8076328,
              -23.5437744
            ]
          ]
        ]
      }
    },
    {
      "type": "Feature",
      "id": "way/1163712733",
      "properties": {
        "timestamp": "2023-11-17T15:07:43Z",
        "version": 2,
        "changeset": 144143182,
        "addr:city": "Osasco",
        "addr:housenumber": "12",
        "addr:postcode": "06233-030",
        "addr:street": "Rua Paula Rodrigues",
        "amenity": "pharmacy",
        "dispensing": "yes",
        "healthcare": "pharmacy",
        "name": "Drogaria e Perfumaria Genesis",
        "phone": "+55 11 3656-3140",
        "id": "way/1163712733"
      },
      "geometry": {
        "type": "Polygon",
        "coordinates": [
          [
            [
              -46.7870985,
              -23.5167202
            ],
            [
              -46.7871019,
              -23.5168021
            ],
            [
              -46.7870342,
              -23.516802
            ],
            [
              -46.7870241,
              -23.5167198
            ],
            [
              -46.7870985,
              -23.5167202
            ]
          ]
        ]
      }
    },
    {
      "type": "Feature",
      "id": "way/1163712738",
      "properties": {
        "timestamp": "2023-04-18T19:29:44Z",
        "version": 1,
        "changeset": 135074186,
        "addr:city": "Osasco",
        "addr:housenumber": "12",
        "addr:postcode": "06233-030",
        "addr:street": "Rua Paula Rodrigues",
        "amenity": "pharmacy",
        "dispensing": "yes",
        "healthcare": "pharmacy",
        "id": "way/1163712738"
      },
      "geometry": {
        "type": "Polygon",
        "coordinates": [
          [
            [
              -46.7874702,
              -23.5167223
            ],
            [
              -46.7874698,
              -23.5168021
            ],
            [
              -46.7874113,
              -23.5168021
            ],
            [
              -46.7874145,
              -23.516722
            ],
            [
              -46.7874702,
              -23.5167223
            ]
          ]
        ]
      }
    },
    {
      "type": "Feature",
      "id": "node/2104364972",
      "properties": {
        "timestamp": "2013-01-10T15:36:41Z",
        "version": 1,
        "changeset": 14599150,
        "amenity": "pharmacy",
        "id": "node/2104364972"
      },
      "geometry": {
        "type": "Point",
        "coordinates": [
          -46.7763302,
          -23.5479934
        ]
      }
    },
    {
      "type": "Feature",
      "id": "node/3627220953",
      "properties": {
        "timestamp": "2023-12-13T17:33:27Z",
        "version": 2,
        "changeset": 145083533,
        "addr:city": "Osasco",
        "addr:housenumber": "455",
        "addr:postcode": "06230-092",
        "addr:street": "Rua Vicente Rodrigues da Silva",
        "amenity": "pharmacy",
        "dispensing": "yes",
        "drive_through": "no",
        "healthcare": "pharmacy",
        "name": "Drogaria Nova Scala",
        "id": "node/3627220953"
      },
      "geometry": {
        "type": "Point",
        "coordinates": [
          -46.7927494,
          -23.5179969
        ]
      }
    },
    {
      "type": "Feature",
      "id": "node/3915280371",
      "properties": {
        "timestamp": "2023-06-04T19:02:52Z",
        "version": 2,
        "changeset": 136944893,
        "addr:city": "Osasco",
        "addr:street": "Avenida Getúlio Vargas",
        "amenity": "pharmacy",
        "healthcare": "pharmacy",
        "name": "Droga Assis",
        "id": "node/3915280371"
      },
      "geometry": {
        "type": "Point",
        "coordinates": [
          -46.7886185,
          -23.5185206
        ]
      }
    },
    {
      "type": "Feature",
      "id": "node/4253305633",
      "properties": {
        "timestamp": "2017-03-04T16:29:08Z",
        "version": 4,
        "changeset": 46576345,
        "addr:city": "Osasco",
        "addr:housenumber": "29;35;37",
        "addr:postcode": "06097-100",
        "addr:street": "Avenida João Batista",
        "addr:suburb": "Centro",
        "amenity": "pharmacy",
        "contact:phone": "+55 11 3682-1694;+55 11 3683-7671;0800 779 8767",
        "contact:website": "http://www.drogariasaopaulo.com.br",
        "drive_through": "no",
        "name": "Drogaria São Paulo",
        "opening_hours": "Mo-Su 07:00-23:00",
        "id": "node/4253305633"
      },
      "geometry": {
        "type": "Point",
        "coordinates": [
          -46.7769377,
          -23.5281898
        ]
      }
    },
    {
      "type": "Feature",
      "id": "node/4278463334",
      "properties": {
        "timestamp": "2023-02-13T16:11:00Z",
        "version": 5,
        "changeset": 132498055,
        "addr:city": "Osasco",
        "addr:housenumber": "940",
        "addr:postcode": "06016-008",
        "addr:street": "Rua Dona Primitiva Vianco",
        "addr:suburb": "Centro",
        "amenity": "pharmacy",
        "brand": "Drogaria São Paulo",
        "brand:wikidata": "Q5308184",
        "contact:phone": "+55 11 3681 3582",
        "dispensing": "yes",
        "drive_through": "no",
        "healthcare": "pharmacy",
        "name": "Drogaria São Paulo",
        "opening_hours": "24/7",
        "phone": "+55 11 3682 1668",
        "website": "https://www.drogariasaopaulo.com.br/",
        "id": "node/4278463334"
      },
      "geometry": {
        "type": "Point",
        "coordinates": [
          -46.7760943,
          -23.5366749
        ]
      }
    },
    {
      "type": "Feature",
      "id": "node/4717558264",
      "properties": {
        "timestamp": "2023-02-13T16:11:00Z",
        "version": 2,
        "changeset": 132498055,
        "addr:city": "Osasco",
        "addr:housenumber": "3192",
        "addr:postcode": "06090-015",
        "addr:street": "Avenida dos Autonomistas",
        "addr:suburb": "Centro",
        "amenity": "pharmacy",
        "brand": "Drogaria São Paulo",
        "brand:wikidata": "Q5308184",
        "contact:phone": "+55 11 3682-1471;+55 11 3654-2599;0800 779 8767",
        "contact:website": "http://www.drogariasaopaulo.com.br",
        "dispensing": "yes",
        "drive_through": "no",
        "healthcare": "pharmacy",
        "name": "Drogaria São Paulo",
        "opening_hours": "24/7",
        "id": "node/4717558264"
      },
      "geometry": {
        "type": "Point",
        "coordinates": [
          -46.7824948,
          -23.5344238
        ]
      }
    },
    {
      "type": "Feature",
      "id": "node/5192389674",
      "properties": {
        "timestamp": "2019-08-28T20:32:34Z",
        "version": 3,
        "changeset": 73856918,
        "addr:street": "Rua Professor João Antônio Prado",
        "amenity": "pharmacy",
        "dispensing": "yes",
        "drive_through": "no",
        "healthcare": "pharmacy",
        "name": "Drogaria Rio Branco",
        "phone": "+55 11 3683 3464",
        "id": "node/5192389674"
      },
      "geometry": {
        "type": "Point",
        "coordinates": [
          -46.7947411,
          -23.5406736
        ]
      }
    },
    {
      "type": "Feature",
      "id": "node/5320428934",
      "properties": {
        "timestamp": "2023-02-19T14:18:00Z",
        "version": 2,
        "changeset": 132750094,
        "addr:street": "Rua Narciso Sturlini",
        "amenity": "pharmacy",
        "contact:phone": "+55 11 98504 2573",
        "dispensing": "yes",
        "drive_through": "no",
        "healthcare": "pharmacy",
        "name": "Droga Forte",
        "phone": "+55 11 3699 3157",
        "id": "node/5320428934"
      },
      "geometry": {
        "type": "Point",
        "coordinates": [
          -46.774041,
          -23.5418286
        ]
      }
    },
    {
      "type": "Feature",
      "id": "node/9711617190",
      "properties": {
        "timestamp": "2022-05-03T15:44:48Z",
        "version": 1,
        "changeset": 120505478,
        "addr:street": "Avenida João de Andrade",
        "amenity": "pharmacy",
        "dispensing": "yes",
        "drive_through": "no",
        "healthcare": "pharmacy",
        "name": "Farma Frank I",
        "id": "node/9711617190"
      },
      "geometry": {
        "type": "Point",
        "coordinates": [
          -46.8014788,
          -23.5547042
        ]
      }
    },
    {
      "type": "Feature",
      "id": "node/10651950008",
      "properties": {
        "timestamp": "2023-02-12T15:28:04Z",
        "version": 1,
        "changeset": 132450529,
        "addr:street": "Rua General Nelson Braga Moreira",
        "amenity": "pharmacy",
        "dispensing": "yes",
        "drive_through": "no",
        "healthcare": "pharmacy",
        "name": "Droga Paes",
        "phone": "+55 11 3655 5983",
        "id": "node/10651950008"
      },
      "geometry": {
        "type": "Point",
        "coordinates": [
          -46.7920966,
          -23.5482484
        ]
      }
    },
    {
      "type": "Feature",
      "id": "node/10655322394",
      "properties": {
        "timestamp": "2023-02-13T14:59:24Z",
        "version": 1,
        "changeset": 132494615,
        "addr:postcode": "06114-000",
        "addr:street": "Rua Professor José de Azevedo Minhoto",
        "addr:suburb": "Km 18",
        "amenity": "pharmacy",
        "brand": "Drogaria São Paulo",
        "brand:wikidata": "Q5308184",
        "dispensing": "yes",
        "drive_through": "no",
        "healthcare": "pharmacy",
        "name": "Drogaria São Paulo",
        "id": "node/10655322394"
      },
      "geometry": {
        "type": "Point",
        "coordinates": [
          -46.7942864,
          -23.5298717
        ]
      }
    },
    {
      "type": "Feature",
      "id": "node/10669764357",
      "properties": {
        "timestamp": "2023-02-16T12:58:22Z",
        "version": 1,
        "changeset": 132628421,
        "addr:street": "Avenida João de Andrade",
        "amenity": "pharmacy",
        "dispensing": "yes",
        "drive_through": "no",
        "healthcare": "pharmacy",
        "name": "´Bifarma",
        "id": "node/10669764357"
      },
      "geometry": {
        "type": "Point",
        "coordinates": [
          -46.7988949,
          -23.5604908
        ]
      }
    },
    {
      "type": "Feature",
      "id": "node/10671337203",
      "properties": {
        "timestamp": "2023-02-16T18:47:48Z",
        "version": 1,
        "changeset": 132642999,
        "addr:street": "Avenida Sarah Veloso",
        "amenity": "pharmacy",
        "contact:mobile": "+55 11 98507 9897",
        "delivery": "yes",
        "dispensing": "yes",
        "drive_through": "no",
        "healthcare": "pharmacy",
        "name": "Drogabel",
        "phone": "+55 11 3609 2399",
        "id": "node/10671337203"
      },
      "geometry": {
        "type": "Point",
        "coordinates": [
          -46.7988796,
          -23.5642656
        ]
      }
    },
    {
      "type": "Feature",
      "id": "node/10671342013",
      "properties": {
        "timestamp": "2023-02-16T18:47:48Z",
        "version": 1,
        "changeset": 132642999,
        "addr:postcode": "06144-150",
        "addr:street": "Rua Dolores Lipiano Moioli",
        "addr:suburb": "Jardim Veloso",
        "amenity": "pharmacy",
        "brand": "Drogasil",
        "brand:wikidata": "Q5308185",
        "dispensing": "yes",
        "drive_through": "no",
        "healthcare": "pharmacy",
        "name": "Drogasil",
        "opening_hours": "Mo-Su, PH 07:00-23:00",
        "phone": "+55 11 4624 0348",
        "wheelchair": "yes",
        "id": "node/10671342013"
      },
      "geometry": {
        "type": "Point",
        "coordinates": [
          -46.7985717,
          -23.5643136
        ]
      }
    },
    {
      "type": "Feature",
      "id": "node/10671604263",
      "properties": {
        "timestamp": "2023-02-16T20:41:32Z",
        "version": 1,
        "changeset": 132647652,
        "addr:housenumber": "1424",
        "addr:street": "Avenida Benedito Alves Turíbio",
        "amenity": "pharmacy",
        "delivery": "yes",
        "dispensing": "yes",
        "drive_through": "no",
        "healthcare": "pharmacy",
        "name": "Drogaria Ponto Final",
        "id": "node/10671604263"
      },
      "geometry": {
        "type": "Point",
        "coordinates": [
          -46.8141079,
          -23.5514918
        ]
      }
    },
    {
      "type": "Feature",
      "id": "node/10673407654",
      "properties": {
        "timestamp": "2023-02-17T13:27:09Z",
        "version": 2,
        "changeset": 132675698,
        "addr:housenumber": "411",
        "addr:street": "Avenida Benedito Alves Turíbio",
        "addr:suburb": "Jardim Veloso",
        "amenity": "pharmacy",
        "dispensing": "yes",
        "drive_through": "no",
        "healthcare": "pharmacy",
        "name": "Hamilton Pharmácia",
        "phone": "+55 11 97793 4319",
        "id": "node/10673407654"
      },
      "geometry": {
        "type": "Point",
        "coordinates": [
          -46.8084472,
          -23.5582763
        ]
      }
    },
    {
      "type": "Feature",
      "id": "node/10673445699",
      "properties": {
        "timestamp": "2023-02-17T13:27:09Z",
        "version": 1,
        "changeset": 132675698,
        "addr:street": "Avenida Benedito Alves Turíbio",
        "addr:suburb": "Jardim Veloso",
        "amenity": "pharmacy",
        "contact:mobile": "+55 11 96875 7649",
        "contact:phone": "+55 11 3592 3577",
        "dispensing": "yes",
        "drive_through": "no",
        "healthcare": "pharmacy",
        "name": "Unifar Drogaria e Perfumaria",
        "phone": "+55 11 3692 6944",
        "id": "node/10673445699"
      },
      "geometry": {
        "type": "Point",
        "coordinates": [
          -46.8048508,
          -23.559368
        ]
      }
    },
    {
      "type": "Feature",
      "id": "node/10678398694",
      "properties": {
        "timestamp": "2023-02-19T15:04:37Z",
        "version": 1,
        "changeset": 132752064,
        "addr:housenumber": "76",
        "addr:street": "Avenida Analice Sakatauskas",
        "amenity": "pharmacy",
        "contact:mobile": "+55 11 95821 8054",
        "delivery": "yes",
        "dispensing": "yes",
        "drive_through": "no",
        "healthcare": "pharmacy",
        "name": "DrogaMed",
        "phone": "+55 11 3685 1836",
        "id": "node/10678398694"
      },
      "geometry": {
        "type": "Point",
        "coordinates": [
          -46.7758592,
          -23.5475241
        ]
      }
    },
    {
      "type": "Feature",
      "id": "node/10678617997",
      "properties": {
        "timestamp": "2023-02-19T16:16:13Z",
        "version": 1,
        "changeset": 132755086,
        "addr:street": "Avenida Antônio Carlos Costa",
        "amenity": "pharmacy",
        "healthcare": "pharmacy",
        "name": "Drogaria Rani",
        "id": "node/10678617997"
      },
      "geometry": {
        "type": "Point",
        "coordinates": [
          -46.7861785,
          -23.5545895
        ]
      }
    },
    {
      "type": "Feature",
      "id": "node/10679471545",
      "properties": {
        "timestamp": "2023-02-20T01:06:13Z",
        "version": 1,
        "changeset": 132770095,
        "addr:housenumber": "1480",
        "addr:street": "Rua João Carlos Munhoz Vaqueiro",
        "amenity": "pharmacy",
        "dispensing": "yes",
        "drive_through": "no",
        "healthcare": "pharmacy",
        "name": "Drogaria Omega",
        "phone": "+55 11 3691 5266",
        "id": "node/10679471545"
      },
      "geometry": {
        "type": "Point",
        "coordinates": [
          -46.801447,
          -23.5720408
        ]
      }
    },
    {
      "type": "Feature",
      "id": "node/10688350843",
      "properties": {
        "timestamp": "2024-06-04T21:52:42Z",
        "version": 2,
        "changeset": 152263624,
        "addr:housenumber": "668",
        "addr:street": "Avenida José Barbosa de Siqueira",
        "amenity": "pharmacy",
        "contact:mobile": "+55 11 97615 1932",
        "delivery": "yes",
        "dispensing": "yes",
        "drive_through": "no",
        "healthcare": "pharmacy",
        "name": "Farmácia Freitas",
        "phone": "+55 11 3605 6496",
        "id": "node/10688350843"
      },
      "geometry": {
        "type": "Point",
        "coordinates": [
          -46.8063755,
          -23.5510359
        ]
      }
    },
    {
      "type": "Feature",
      "id": "node/10691164912",
      "properties": {
        "timestamp": "2023-02-24T16:18:02Z",
        "version": 1,
        "changeset": 132975429,
        "addr:street": "Rua Elza Fagundes de Moraes",
        "amenity": "pharmacy",
        "contact:mobile": "+55 11 95408 1772",
        "dispensing": "no",
        "drive_through": "yes",
        "healthcare": "pharmacy",
        "name": "DrogaBig",
        "phone": "+55 11 3607 3613",
        "id": "node/10691164912"
      },
      "geometry": {
        "type": "Point",
        "coordinates": [
          -46.807748,
          -23.5449218
        ]
      }
    },
    {
      "type": "Feature",
      "id": "node/12368624357",
      "properties": {
        "timestamp": "2024-11-23T21:53:43Z",
        "version": 1,
        "changeset": 159515472,
        "addr:street": "Avenida Antônio Carlos Costa",
        "addr:suburb": "Jardim Bela Vista",
        "amenity": "pharmacy",
        "dispensing": "yes",
        "drive_through": "no",
        "healthcare": "pharmacy",
        "mobile": "+55 11 93294 6072",
        "name": "Campeão Farma",
        "phone": "+55 11 4624 7273",
        "id": "node/12368624357"
      },
      "geometry": {
        "type": "Point",
        "coordinates": [
          -46.7852544,
          -23.5505108
        ]
      }
    }
  ]
}
