{
  "type": "FeatureCollection",
  "features": [
    {
      "type": "Feature",
      "id": "node/3491299258",
      "properties": {
        "timestamp": "2021-11-22T02:47:58Z",
        "version": 4,
        "changeset": 114079060,
        "IJSN:tipoUnidad": "Hospital Geral",
        "addr:housenumber": "279",
        "addr:postcode": "29850-000",
        "addr:street": "Rua Floriano Rubim",
        "amenity": "hospital",
        "contact:phone": "(27) 3755-1025",
        "healthcare": "hospital",
        "name": "Clínica Santa Paula",
        "id": "node/3491299258"
      },
      "geometry": {
        "type": "Point",
        "coordinates": [
          -40.8288365,
          -18.3757078
        ]
      }
    },
    {
      "type": "Feature",
      "id": "node/3491299264",
      "properties": {
        "timestamp": "2022-01-17T12:12:40Z",
        "version": 3,
        "changeset": 116251855,
        "IJSN:tipoUnidad": "Hospital Geral",
        "addr:city": "Ecoporanga",
        "addr:housenumber": "195",
        "addr:place": "Nossa Senhora de Aparecida",
        "addr:postcode": "29850-000",
        "addr:street": "Rua Idalino Monteiro",
        "addr:suburb": "Nossa Senhora Aparecida",
        "alt_name": "Fundação Médico Assistencial do Trabalhador Rural",
        "amenity": "hospital",
        "contact:phone": "(27) 3755-1131",
        "healthcare": "hospital",
        "name": "Hospital FUMATRE",
        "operator": "Fundação Médico Assistêncial do Trabalhadores Rurais de Ecoporanga - Fumatre",
        "operator:type": "private",
        "short_name": "FUMATRE",
        "id": "node/3491299264"
      },
      "geometry": {
        "type": "Point",
        "coordinates": [
          -40.8305962,
          -18.3688722
        ]
      }
    }
  ]
}
