{
  "type": "FeatureCollection",
  "features": [
    {
      "type": "Feature",
      "id": "node/3998862198",
      "properties": {
        "timestamp": "2016-02-10T10:43:52Z",
        "version": 1,
        "changeset": 37121481,
        "IJSN:classeCnae": "Infantil",
        "addr:city": "Ecoporanga",
        "addr:postcode": "29850-000",
        "addr:street": "Rua Coronel Borges",
        "addr:suburb": "Prata dos Baianos",
        "alt_name": "Centro Municipal de Educação Infantil",
        "amenity": "kindergarten",
        "contact:phone": "(27) 3755-1368 / 3755-7025",
        "name": "CMEI Gente Miúda",
        "source": "IJSN",
        "id": "node/3998862198"
      },
      "geometry": {
        "type": "Point",
        "coordinates": [
          -41.003131,
          -18.3374335
        ]
      }
    },
    {
      "type": "Feature",
      "id": "node/3998862199",
      "properties": {
        "timestamp": "2016-02-10T10:43:52Z",
        "version": 1,
        "changeset": 37121481,
        "IJSN:classeCnae": "Infantil",
        "addr:city": "Ecoporanga",
        "addr:postcode": "29850-000",
        "addr:street": "Rua Principal",
        "addr:suburb": "Patrimônio do Dois",
        "alt_name": "Centro Municipal de Educação Infantil",
        "amenity": "kindergarten",
        "contact:phone": "(27) 3755-1368",
        "name": "CMEI Professora Aurora Araújo Franzotti",
        "source": "IJSN",
        "id": "node/3998862199"
      },
      "geometry": {
        "type": "Point",
        "coordinates": [
          -40.8891691,
          -18.4044483
        ]
      }
    }
  ]
}
