{
  "type": "FeatureCollection",
  "features": [
    {
      "type": "Feature",
      "id": "way/432760553",
      "properties": {
        "timestamp": "2016-07-23T14:47:35Z",
        "version": 1,
        "changeset": 40973173,
        "IJSN:administra": "Estadual",
        "IJSN:classeCnae": "Fundamental",
        "addr:city": "Ecoporanga",
        "addr:housenumber": "260",
        "addr:postcode": "29850-000",
        "addr:street": "Rua Joaquim de Souza Lima",
        "addr:suburb": "Nossa Senhora Aparecida",
        "alt_name": "Escola Estadual de Ensino Fundamental",
        "amenity": "school",
        "contact:phone": "(27) 3755-1329",
        "name": "EEEF Daniel Comboni",
        "source": "IJSN",
        "id": "way/432760553"
      },
      "geometry": {
        "type": "Polygon",
        "coordinates": [
          [
            [
              -40.8301732,
              -18.3694432
            ],
            [
              -40.8293742,
              -18.3696772
            ],
            [
              -40.8288807,
              -18.369886
            ],
            [
              -40.8283174,
              -18.3695958
            ],
            [
              -40.8287573,
              -18.3688576
            ],
            [
              -40.8298999,
              -18.3685776
            ],
            [
              -40.8301732,
              -18.3694432
            ]
          ]
        ]
      }
    },
    {
      "type": "Feature",
      "id": "way/432800829",
      "properties": {
        "timestamp": "2016-07-23T20:17:30Z",
        "version": 1,
        "changeset": 40978837,
        "IJSN:administra": "Estadual",
        "IJSN:classeCnae": "Fundamental e Médio",
        "addr:city": "Ecoporanga",
        "addr:housenumber": "586",
        "addr:postcode": "29850-000",
        "addr:street": "Praça Tolentino Xavier Ribeiro",
        "addr:suburb": "Centro",
        "alt_name": "Escola Estadual de Ensino Fundamental e Médio",
        "amenity": "school",
        "contact:phone": "(27) 3755-1328",
        "name": "EEEFM Ecoporanga",
        "source": "IJSN",
        "id": "way/432800829"
      },
      "geometry": {
        "type": "Polygon",
        "coordinates": [
          [
            [
              -40.8348582,
              -18.3721573
            ],
            [
              -40.8354306,
              -18.373302
            ],
            [
              -40.8350122,
              -18.3734548
            ],
            [
              -40.83417,
              -18.3723755
            ],
            [
              -40.8348582,
              -18.3721573
            ]
          ]
        ]
      }
    },
    {
      "type": "Feature",
      "id": "way/432800830",
      "properties": {
        "timestamp": "2016-07-23T20:17:30Z",
        "version": 1,
        "changeset": 40978837,
        "IJSN:administra": "Municipal",
        "IJSN:classeCnae": "Fundamental",
        "addr:city": "Ecoporanga",
        "addr:housenumber": "274",
        "addr:postcode": "29850-000",
        "addr:street": "Rua José Milton Chequer",
        "addr:suburb": "Centro",
        "alt_name": "Escola Municipal de Ensino Fundamental",
        "amenity": "school",
        "contact:phone": "(27) 3755-1194",
        "name": "EMEF Bolivar de Abreu",
        "source": "IJSN",
        "id": "way/432800830"
      },
      "geometry": {
        "type": "Polygon",
        "coordinates": [
          [
            [
              -40.8322525,
              -18.3735352
            ],
            [
              -40.8319898,
              -18.3737567
            ],
            [
              -40.831861,
              -18.3736192
            ],
            [
              -40.8321237,
              -18.3733976
            ],
            [
              -40.8322525,
              -18.3735352
            ]
          ]
        ]
      }
    },
    {
      "type": "Feature",
      "id": "way/432800831",
      "properties": {
        "timestamp": "2018-12-27T09:24:25Z",
        "version": 2,
        "changeset": 65806320,
        "IJSN:administra": "Municipal",
        "IJSN:classeCnae": "Fundamental",
        "addr:housenumber": "125",
        "addr:postcode": "29850-000",
        "addr:street": "Rua Coimbra",
        "alt_name": "Escola Municipal de Ensino Fundamental",
        "amenity": "school",
        "contact:phone": "(27) 3755-1624",
        "name": "Escola Professora Benedita Monteiro",
        "source": "IJSN",
        "id": "way/432800831"
      },
      "geometry": {
        "type": "Polygon",
        "coordinates": [
          [
            [
              -40.8364227,
              -18.3684569
            ],
            [
              -40.8361374,
              -18.3685941
            ],
            [
              -40.8357177,
              -18.3680392
            ],
            [
              -40.8358249,
              -18.3679818
            ],
            [
              -40.8360194,
              -18.3678712
            ],
            [
              -40.8364227,
              -18.3684569
            ]
          ]
        ]
      }
    },
    {
      "type": "Feature",
      "id": "way/804850154",
      "properties": {
        "timestamp": "2020-05-17T09:12:54Z",
        "version": 1,
        "changeset": 85327691,
        "IJSN:administra": "Estadual",
        "IJSN:classeCnae": "Fundamental",
        "addr:city": "Ecoporanga",
        "addr:housenumber": "31",
        "addr:postcode": "29850-000",
        "addr:street": "Rua Santa Cruz",
        "addr:suburb": "Cotaxé",
        "alt_name": "Escola Estadual de Ensino Fundamental",
        "amenity": "school",
        "contact:phone": "(27) 3755-5160",
        "name": "EEEF Cotaxé",
        "source": "IJSN",
        "id": "way/804850154"
      },
      "geometry": {
        "type": "Polygon",
        "coordinates": [
          [
            [
              -40.7172552,
              -18.1820641
            ],
            [
              -40.7173088,
              -18.1825024
            ],
            [
              -40.7167992,
              -18.1825355
            ],
            [
              -40.7167777,
              -18.1820641
            ],
            [
              -40.7172552,
              -18.1820641
            ]
          ]
        ]
      }
    },
    {
      "type": "Feature",
      "id": "node/3196324934",
      "properties": {
        "timestamp": "2019-07-11T17:33:19Z",
        "version": 3,
        "changeset": 72146221,
        "IJSN:administra": "Municipal",
        "IJSN:classeCnae": "Infantil e Fundamental",
        "addr:city": "Ecoporanga",
        "addr:postcode": "29850-000",
        "addr:suburb": "Centro",
        "alt_name": "Escola Municipal de Ensino Infantil e Fundamental",
        "amenity": "school",
        "contact:phone": "+55 27 3755-6001",
        "name": "EMEIEF Santa Luzia do Norte",
        "source": "IJSN",
        "id": "node/3196324934"
      },
      "geometry": {
        "type": "Point",
        "coordinates": [
          -40.6053386,
          -18.2032114
        ]
      }
    },
    {
      "type": "Feature",
      "id": "node/3196324938",
      "properties": {
        "timestamp": "2014-11-19T23:03:08Z",
        "version": 1,
        "changeset": 26897506,
        "amenity": "school",
        "id": "node/3196324938"
      },
      "geometry": {
        "type": "Point",
        "coordinates": [
          -40.6049992,
          -18.2033515
        ]
      }
    },
    {
      "type": "Feature",
      "id": "node/3998862200",
      "properties": {
        "timestamp": "2016-02-10T10:43:52Z",
        "version": 1,
        "changeset": 37121481,
        "IJSN:classeCnae": "Fundamental",
        "addr:city": "Ecoporanga",
        "addr:postcode": "29850-000",
        "addr:street": "Patrimônio do Dois",
        "addr:suburb": "Córrego Dois de Setembro",
        "alt_name": "Escola Municipal Pluridocente de Ensino Fundamental",
        "amenity": "school",
        "contact:phone": "(27) 3755-1255",
        "name": "EMPEF Córrego do Dois",
        "source": "IJSN",
        "id": "node/3998862200"
      },
      "geometry": {
        "type": "Point",
        "coordinates": [
          -40.8887205,
          -18.4051585
        ]
      }
    },
    {
      "type": "Feature",
      "id": "node/4024904422",
      "properties": {
        "timestamp": "2016-02-25T01:59:18Z",
        "version": 1,
        "changeset": 37426154,
        "IJSN:administra": "Privada",
        "IJSN:classeCnae": "Infantil e Fundamental",
        "addr:city": "Ecoporanga",
        "addr:housenumber": "559",
        "addr:postcode": "29850-000",
        "addr:street": "Avenida Milton Mota",
        "addr:suburb": "Centro",
        "alt_name": "Centro Educacional",
        "amenity": "school",
        "contact:phone": "(27) 3755-1544",
        "name": "Centro Educacional Galileu Galilei",
        "source": "IJSN",
        "id": "node/4024904422"
      },
      "geometry": {
        "type": "Point",
        "coordinates": [
          -40.8340223,
          -18.3720736
        ]
      }
    },
    {
      "type": "Feature",
      "id": "node/4024904455",
      "properties": {
        "timestamp": "2016-02-25T01:59:24Z",
        "version": 1,
        "changeset": 37426154,
        "IJSN:administra": "Estadual",
        "IJSN:classeCnae": "Fundamental",
        "addr:city": "Ecoporanga",
        "addr:postcode": "29850-000",
        "addr:street": "Rua Principal",
        "addr:suburb": "Centro",
        "alt_name": "Escola Estadual de Ensino Fundamental",
        "amenity": "school",
        "contact:phone": "(27) 3755-3094",
        "name": "EEEF Joassuba",
        "source": "IJSN",
        "id": "node/4024904455"
      },
      "geometry": {
        "type": "Point",
        "coordinates": [
          -40.6847962,
          -18.4065055
        ]
      }
    },
    {
      "type": "Feature",
      "id": "node/4024904460",
      "properties": {
        "timestamp": "2016-02-25T01:59:24Z",
        "version": 1,
        "changeset": 37426154,
        "IJSN:administra": "Estadual",
        "IJSN:classeCnae": "Fundamental",
        "addr:city": "Ecoporanga",
        "addr:postcode": "29850-000",
        "addr:street": "Rua Principal",
        "addr:suburb": "Prata dos Baianos",
        "alt_name": "Escola Estadual de Ensino Fundamental",
        "amenity": "school",
        "contact:phone": "(27) 3755-7081",
        "name": "EEEF Patrimônio Prata dos Baianos",
        "source": "IJSN",
        "id": "node/4024904460"
      },
      "geometry": {
        "type": "Point",
        "coordinates": [
          -41.0053455,
          -18.3399296
        ]
      }
    },
    {
      "type": "Feature",
      "id": "node/4024904464",
      "properties": {
        "timestamp": "2016-02-25T01:59:25Z",
        "version": 1,
        "changeset": 37426154,
        "IJSN:administra": "Estadual",
        "IJSN:classeCnae": "Fundamental",
        "addr:city": "Ecoporanga",
        "addr:postcode": "29850-000",
        "addr:street": "Rua São José",
        "addr:suburb": "Comunidade Santa Terezinha",
        "alt_name": "Escola Estadual de Ensino Fundamental",
        "amenity": "school",
        "contact:phone": "(27) 3755-8021",
        "name": "EEEF Santa Terezinha",
        "source": "IJSN",
        "id": "node/4024904464"
      },
      "geometry": {
        "type": "Point",
        "coordinates": [
          -40.8115471,
          -18.4928527
        ]
      }
    },
    {
      "type": "Feature",
      "id": "node/4024904813",
      "properties": {
        "timestamp": "2016-02-25T01:59:34Z",
        "version": 1,
        "changeset": 37426154,
        "IJSN:administra": "Estadual",
        "IJSN:classeCnae": "Fundamental e Médio",
        "addr:city": "Ecoporanga",
        "addr:postcode": "29850-000",
        "addr:street": "Rua Padre Luis Toni",
        "addr:suburb": "Imburana",
        "alt_name": "Escola Estadual de Ensino Fundamental e Médio",
        "amenity": "school",
        "contact:phone": "(27) 3755-4038",
        "name": "EEEFM José Teixeira Fialho",
        "source": "IJSN",
        "id": "node/4024904813"
      },
      "geometry": {
        "type": "Point",
        "coordinates": [
          -40.7064366,
          -18.2830779
        ]
      }
    },
    {
      "type": "Feature",
      "id": "node/4024905448",
      "properties": {
        "timestamp": "2016-02-25T02:00:29Z",
        "version": 1,
        "changeset": 37426154,
        "IJSN:administra": "Municipal",
        "IJSN:classeCnae": "Fundamental",
        "addr:city": "Ecoporanga",
        "addr:postcode": "29850-000",
        "addr:street": "Rodovia Barra de São Francisco-Ecoporanga Km05",
        "addr:suburb": "Comunidade Córrego do Paraíso",
        "alt_name": "Escola Municipal de Ensino Fundamental",
        "amenity": "school",
        "contact:phone": "(27) 9805-0893",
        "name": "EMEF Família Rural de Ecoporanga",
        "source": "IJSN",
        "id": "node/4024905448"
      },
      "geometry": {
        "type": "Point",
        "coordinates": [
          -40.8293618,
          -18.4353276
        ]
      }
    },
    {
      "type": "Feature",
      "id": "node/4024905902",
      "properties": {
        "timestamp": "2022-12-23T21:13:38Z",
        "version": 2,
        "changeset": 130437298,
        "IJSN:administra": "Municipal",
        "IJSN:classeCnae": "Infantil e Fundamental",
        "addr:city": "Ecoporanga",
        "addr:housenumber": "1106",
        "addr:postcode": "29850-000",
        "addr:street": "Avenida José Assis Baeta",
        "addr:suburb": "Vila Nova",
        "alt_name": "EMEIEF José Francisco de Oliveira",
        "amenity": "school",
        "contact:phone": "+55 27 3755 1208",
        "name": "Escola Municipal de Ensino Infantil e Fundamental José Francisco de Oliveira",
        "operator": "Município de Ecoporanga",
        "operator:type": "public",
        "source": "IJSN",
        "id": "node/4024905902"
      },
      "geometry": {
        "type": "Point",
        "coordinates": [
          -40.8285144,
          -18.3856273
        ]
      }
    },
    {
      "type": "Feature",
      "id": "node/4024905920",
      "properties": {
        "timestamp": "2016-02-25T02:01:14Z",
        "version": 1,
        "changeset": 37426154,
        "IJSN:administra": "Municipal",
        "IJSN:classeCnae": "Infantil e Fundamental",
        "addr:city": "Ecoporanga",
        "addr:postcode": "29850-000",
        "addr:suburb": "Córrego da Palmeira",
        "alt_name": "Escola Municipal de Ensino Infantil e Fundamental",
        "amenity": "school",
        "contact:phone": "(27) 3755-9041",
        "name": "EMEIEF Palmeiras",
        "source": "IJSN",
        "id": "node/4024905920"
      },
      "geometry": {
        "type": "Point",
        "coordinates": [
          -40.7812911,
          -18.4318361
        ]
      }
    },
    {
      "type": "Feature",
      "id": "node/4024906278",
      "properties": {
        "timestamp": "2016-02-25T02:01:55Z",
        "version": 1,
        "changeset": 37426154,
        "IJSN:administra": "Municipal",
        "IJSN:classeCnae": "Fundamental",
        "addr:city": "Ecoporanga",
        "addr:postcode": "29850-000",
        "addr:suburb": "Córrego da Faca",
        "alt_name": "Escola Municipal Unidocente de Ensino Fundamental",
        "amenity": "school",
        "name": "EMUEF Córrego da Faca",
        "source": "IJSN",
        "id": "node/4024906278"
      },
      "geometry": {
        "type": "Point",
        "coordinates": [
          -40.7070202,
          -18.2575519
        ]
      }
    },
    {
      "type": "Feature",
      "id": "node/4024906291",
      "properties": {
        "timestamp": "2016-02-25T02:01:57Z",
        "version": 1,
        "changeset": 37426154,
        "IJSN:administra": "Municipal",
        "IJSN:classeCnae": "Fundamental",
        "addr:city": "Ecoporanga",
        "addr:postcode": "29850-000",
        "addr:suburb": "Comunidade Paraíso",
        "alt_name": "Escola Municipal Unidocente de Ensino Fundamental",
        "amenity": "school",
        "name": "EMUEF Córrego do Paraíso",
        "source": "IJSN",
        "id": "node/4024906291"
      },
      "geometry": {
        "type": "Point",
        "coordinates": [
          -40.8293612,
          -18.4456097
        ]
      }
    },
    {
      "type": "Feature",
      "id": "node/4024906293",
      "properties": {
        "timestamp": "2016-02-25T02:01:57Z",
        "version": 1,
        "changeset": 37426154,
        "IJSN:administra": "Municipal",
        "IJSN:classeCnae": "Fundamental",
        "addr:city": "Ecoporanga",
        "addr:postcode": "29850-000",
        "addr:suburb": "Córrego dos Barbosas",
        "alt_name": "Escola Municipal Unidocente de Ensino Fundamental",
        "amenity": "school",
        "name": "EMUEF Córrego dos Barbosas",
        "source": "IJSN",
        "id": "node/4024906293"
      },
      "geometry": {
        "type": "Point",
        "coordinates": [
          -41.1182856,
          -18.2760129
        ]
      }
    },
    {
      "type": "Feature",
      "id": "node/4024906303",
      "properties": {
        "timestamp": "2016-02-25T02:01:59Z",
        "version": 1,
        "changeset": 37426154,
        "IJSN:administra": "Municipal",
        "IJSN:classeCnae": "Fundamental",
        "addr:city": "Ecoporanga",
        "addr:postcode": "29850-000",
        "addr:suburb": "Córrego da Explosão",
        "alt_name": "Escola Municipal Unidocente de Ensino Fundamental",
        "amenity": "school",
        "name": "EMUEF Fazenda Minerva",
        "source": "IJSN",
        "id": "node/4024906303"
      },
      "geometry": {
        "type": "Point",
        "coordinates": [
          -40.7564878,
          -18.2548534
        ]
      }
    },
    {
      "type": "Feature",
      "id": "node/4024906307",
      "properties": {
        "timestamp": "2016-02-25T02:01:59Z",
        "version": 1,
        "changeset": 37426154,
        "IJSN:administra": "Municipal",
        "IJSN:classeCnae": "Fundamental",
        "addr:city": "Ecoporanga",
        "addr:postcode": "29850-000",
        "addr:suburb": "Córrego Pau de Letra",
        "alt_name": "Escola Municipal Unidocente de Ensino Fundamental",
        "amenity": "school",
        "name": "EMUEF Fazenda Texeira",
        "source": "IJSN",
        "id": "node/4024906307"
      },
      "geometry": {
        "type": "Point",
        "coordinates": [
          -41.0974437,
          -18.2433953
        ]
      }
    },
    {
      "type": "Feature",
      "id": "node/4024906308",
      "properties": {
        "timestamp": "2016-02-25T02:01:59Z",
        "version": 1,
        "changeset": 37426154,
        "IJSN:administra": "Municipal",
        "IJSN:classeCnae": "Fundamental",
        "addr:city": "Ecoporanga",
        "addr:postcode": "29850-000",
        "addr:suburb": "Córrego Bonfim",
        "alt_name": "Escola Municipal Unidocente de Ensino Fundamental",
        "amenity": "school",
        "name": "EMUEF Fazenda Valdomiro Leandro de Freitas",
        "source": "IJSN",
        "id": "node/4024906308"
      },
      "geometry": {
        "type": "Point",
        "coordinates": [
          -41.0903659,
          -18.3489361
        ]
      }
    },
    {
      "type": "Feature",
      "id": "node/4024906339",
      "properties": {
        "timestamp": "2016-02-25T02:02:04Z",
        "version": 1,
        "changeset": 37426154,
        "IJSN:administra": "Municipal",
        "IJSN:classeCnae": "Fundamental",
        "addr:city": "Ecoporanga",
        "addr:postcode": "29850-000",
        "addr:suburb": "Muritiba",
        "alt_name": "Escola Municipal Unidocente de Ensino Fundamental",
        "amenity": "school",
        "name": "EMUEF Muritiba",
        "source": "IJSN",
        "id": "node/4024906339"
      },
      "geometry": {
        "type": "Point",
        "coordinates": [
          -40.7749221,
          -18.0877085
        ]
      }
    },
    {
      "type": "Feature",
      "id": "node/4024906349",
      "properties": {
        "timestamp": "2016-02-25T02:02:06Z",
        "version": 1,
        "changeset": 37426154,
        "IJSN:administra": "Municipal",
        "IJSN:classeCnae": "Fundamental",
        "addr:city": "Ecoporanga",
        "addr:postcode": "29850-000",
        "addr:suburb": "Patrimônio Santa Rita",
        "alt_name": "Escola Municipal Unidocente de Ensino Fundamental",
        "amenity": "school",
        "name": "EMUEF Patrimônio Santa Rita",
        "source": "IJSN",
        "id": "node/4024906349"
      },
      "geometry": {
        "type": "Point",
        "coordinates": [
          -40.9192597,
          -18.3092712
        ]
      }
    },
    {
      "type": "Feature",
      "id": "node/4024906351",
      "properties": {
        "timestamp": "2016-02-25T02:02:06Z",
        "version": 1,
        "changeset": 37426154,
        "IJSN:administra": "Municipal",
        "IJSN:classeCnae": "Fundamental",
        "addr:city": "Ecoporanga",
        "addr:postcode": "29850-000",
        "addr:suburb": "Patrimônio de Itapeba",
        "alt_name": "Escola Municipal Unidocente de Ensino Fundamental",
        "amenity": "school",
        "name": "EMUEF Patrimônio de Itapeba",
        "source": "IJSN",
        "id": "node/4024906351"
      },
      "geometry": {
        "type": "Point",
        "coordinates": [
          -40.6349083,
          -18.3239846
        ]
      }
    },
    {
      "type": "Feature",
      "id": "node/4024906366",
      "properties": {
        "timestamp": "2016-02-25T02:02:08Z",
        "version": 1,
        "changeset": 37426154,
        "IJSN:administra": "Municipal",
        "IJSN:classeCnae": "Fundamental",
        "addr:city": "Ecoporanga",
        "addr:postcode": "29850-000",
        "addr:suburb": "Córrego do Indaia",
        "alt_name": "Escola Municipal Unidocente de Ensino Fundamental",
        "amenity": "school",
        "name": "EMUEF Professora Paula Aguiar de Oliveira",
        "source": "IJSN",
        "id": "node/4024906366"
      },
      "geometry": {
        "type": "Point",
        "coordinates": [
          -40.965263,
          -18.3579286
        ]
      }
    },
    {
      "type": "Feature",
      "id": "node/4024906373",
      "properties": {
        "timestamp": "2016-02-25T02:02:09Z",
        "version": 1,
        "changeset": 37426154,
        "IJSN:administra": "Municipal",
        "IJSN:classeCnae": "Fundamental",
        "addr:city": "Ecoporanga",
        "addr:postcode": "29850-000",
        "addr:suburb": "Comunidade Ribeirãozinho",
        "alt_name": "Escola Municipal Unidocente de Ensino Fundamental",
        "amenity": "school",
        "contact:phone": "(27) 3755-1255",
        "name": "EMUEF Ribeirãozinho",
        "source": "IJSN",
        "id": "node/4024906373"
      },
      "geometry": {
        "type": "Point",
        "coordinates": [
          -40.8576769,
          -18.2158443
        ]
      }
    },
    {
      "type": "Feature",
      "id": "node/4024906595",
      "properties": {
        "timestamp": "2016-02-25T02:02:12Z",
        "version": 1,
        "changeset": 37426154,
        "IJSN:administra": "Municipal",
        "IJSN:classeCnae": "Fundamental",
        "addr:city": "Ecoporanga",
        "addr:postcode": "29850-000",
        "addr:suburb": "São Geraldo",
        "alt_name": "Escola Municipal Unidocente de Ensino Fundamental",
        "amenity": "school",
        "name": "EMUEF São Geraldo",
        "source": "IJSN",
        "id": "node/4024906595"
      },
      "geometry": {
        "type": "Point",
        "coordinates": [
          -40.7882638,
          -18.2343619
        ]
      }
    },
    {
      "type": "Feature",
      "id": "node/6165458884",
      "properties": {
        "timestamp": "2018-12-27T09:24:20Z",
        "version": 1,
        "changeset": 65806320,
        "amenity": "school",
        "name": "Escola Nossa Senhora Aparecida",
        "id": "node/6165458884"
      },
      "geometry": {
        "type": "Point",
        "coordinates": [
          -40.8365893,
          -18.3679666
        ]
      }
    },
    {
      "type": "Feature",
      "id": "node/6165460085",
      "properties": {
        "timestamp": "2019-03-23T13:41:09Z",
        "version": 2,
        "changeset": 68444628,
        "entrance": "main",
        "id": "node/6165460085"
      },
      "geometry": {
        "type": "Point",
        "coordinates": [
          -40.8358249,
          -18.3679818
        ]
      }
    },
    {
      "type": "Feature",
      "id": "node/6165460108",
      "properties": {
        "timestamp": "2018-12-27T09:24:20Z",
        "version": 1,
        "changeset": 65806320,
        "amenity": "school",
        "name": "Escola Jardim Encantado",
        "id": "node/6165460108"
      },
      "geometry": {
        "type": "Point",
        "coordinates": [
          -40.8293179,
          -18.3726682
        ]
      }
    }
  ]
}
