{
  "type": "FeatureCollection",
  "features": [
    {
      "type": "Feature",
      "id": "node/10014371053",
      "properties": {
        "timestamp": "2022-09-11T18:58:50Z",
        "version": 2,
        "changeset": 126061390,
        "addr:city": "Mimoso do Sul",
        "addr:postcode": "29400-000",
        "addr:suburb": "Conceição do Muqui",
        "government": "register_office",
        "name": "Cartório do Registro Civil e Tabelionato do Distrito de Conceição do Muqui",
        "office": "government",
        "id": "node/10014371053"
      },
      "geometry": {
        "type": "Point",
        "coordinates": [
          -41.508126,
          -20.9715873
        ]
      }
    },
    {
      "type": "Feature",
      "id": "node/10028094310",
      "properties": {
        "timestamp": "2022-09-15T18:28:25Z",
        "version": 1,
        "changeset": 126235706,
        "addr:city": "Mimoso do Sul",
        "addr:housenumber": "42",
        "addr:postcode": "29400-000",
        "addr:street": "Rua Ivone Feitosa de Aguiar",
        "addr:suburb": "Centro",
        "email": "p.mdosul@mpes.mp.br",
        "government": "prosecutor",
        "name": "Promotoria de Justiça da Comarca de Mimoso do Sul",
        "office": "government",
        "operator": "Ministério Público de Estado do Espírito Santo",
        "id": "node/10028094310"
      },
      "geometry": {
        "type": "Point",
        "coordinates": [
          -41.3638863,
          -21.0631179
        ]
      }
    },
    {
      "type": "Feature",
      "id": "node/10028096825",
      "properties": {
        "timestamp": "2022-09-15T18:28:25Z",
        "version": 1,
        "changeset": 126235706,
        "addr:city": "Mimoso do Sul",
        "addr:postcode": "29400-000",
        "addr:street": "Rua Gervasio Monteiro",
        "government": "register_office",
        "name": "Cartório da Quinta Zona Eleitoral",
        "office": "government",
        "operator": "Tribunal Regional Eleitoral do Estado do Espírito Santo",
        "phone": "+55 28 3555 1495",
        "id": "node/10028096825"
      },
      "geometry": {
        "type": "Point",
        "coordinates": [
          -41.3670421,
          -21.0621001
        ]
      }
    },
    {
      "type": "Feature",
      "id": "node/10029594650",
      "properties": {
        "timestamp": "2022-09-16T12:57:59Z",
        "version": 1,
        "changeset": 126263583,
        "addr:city": "Mimoso do Sul",
        "addr:housenumber": "1119",
        "addr:postcode": "29400-000",
        "addr:street": "Rodovia Rubens Rangel",
        "addr:suburb": "Alfredo Tunholi",
        "government": "administrative",
        "name": "Secretaria Municipal de Agricultura",
        "office": "government",
        "id": "node/10029594650"
      },
      "geometry": {
        "type": "Point",
        "coordinates": [
          -41.3548002,
          -21.0760701
        ]
      }
    },
    {
      "type": "Feature",
      "id": "node/10029622864",
      "properties": {
        "timestamp": "2022-09-16T13:45:16Z",
        "version": 1,
        "changeset": 126265358,
        "addr:city": "Mimoso do Sul",
        "addr:postcode": "29400-000",
        "addr:street": "Rua Crispin Braga",
        "email": "aps07001240@inss.gov.br",
        "government": "social_security",
        "name": "Agência da Previdência Social em Mimoso do Sul",
        "office": "government",
        "id": "node/10029622864"
      },
      "geometry": {
        "type": "Point",
        "coordinates": [
          -41.3594103,
          -21.0666768
        ]
      }
    }
  ]
}
