{
  "type": "FeatureCollection",
  "features": [
    {
      "type": "Feature",
      "id": "way/355457437",
      "properties": {
        "timestamp": "2016-02-25T02:03:06Z",
        "version": 4,
        "changeset": 37426154,
        "IJSN:administra": "Estadual",
        "IJSN:classeCnae": "Fundamental e Médio",
        "addr:city": "Mimoso do Sul",
        "addr:postcode": "29400-000",
        "addr:street": "Praça Deputado Evaldo Ribeiro Castro",
        "addr:suburb": "Bairro da Penha",
        "alt_name": "Escola Estadual de Ensino Fundamental e Médio",
        "amenity": "school",
        "contact:phone": "(28) 3555-1284",
        "name": "EEEFM Monsenhor Elias Tomasi",
        "note": "Local sem número",
        "source": "IJSN",
        "id": "way/355457437"
      },
      "geometry": {
        "type": "Polygon",
        "coordinates": [
          [
            [
              -41.3586239,
              -21.0594105
            ],
            [
              -41.3584204,
              -21.0600792
            ],
            [
              -41.3581111,
              -21.0599941
            ],
            [
              -41.3576554,
              -21.0596887
            ],
            [
              -41.3575697,
              -21.0596406
            ],
            [
              -41.3576669,
              -21.0593952
            ],
            [
              -41.3577069,
              -21.0594085
            ],
            [
              -41.3577841,
              -21.0591764
            ],
            [
              -41.3578617,
              -21.0590001
            ],
            [
              -41.3582043,
              -21.0591364
            ],
            [
              -41.3586239,
              -21.0594105
            ]
          ]
        ]
      }
    },
    {
      "type": "Feature",
      "id": "way/525956217",
      "properties": {
        "timestamp": "2017-09-19T17:00:33Z",
        "version": 1,
        "changeset": 52187374,
        "amenity": "school",
        "name": "EMEF Catharina Giovanini Faber",
        "id": "way/525956217"
      },
      "geometry": {
        "type": "Polygon",
        "coordinates": [
          [
            [
              -41.4964477,
              -21.0753612
            ],
            [
              -41.4964935,
              -21.0755469
            ],
            [
              -41.4962396,
              -21.0756015
            ],
            [
              -41.4961938,
              -21.0754158
            ],
            [
              -41.4964477,
              -21.0753612
            ]
          ]
        ]
      }
    },
    {
      "type": "Feature",
      "id": "way/681454486",
      "properties": {
        "timestamp": "2019-04-03T18:34:24Z",
        "version": 1,
        "changeset": 68852830,
        "addr:city": "Mimoso do Sul",
        "addr:postcode": "29400000",
        "addr:street": "Claudio Vivas",
        "addr:suburb": "Serrano",
        "amenity": "school",
        "name": "Associação Pestalozzi",
        "id": "way/681454486"
      },
      "geometry": {
        "type": "Polygon",
        "coordinates": [
          [
            [
              -41.3718918,
              -21.0615642
            ],
            [
              -41.371865,
              -21.0617744
            ],
            [
              -41.371696,
              -21.0617569
            ],
            [
              -41.3717037,
              -21.0616716
            ],
            [
              -41.3715914,
              -21.0616618
            ],
            [
              -41.3716236,
              -21.061374
            ],
            [
              -41.3717711,
              -21.0614365
            ],
            [
              -41.3718918,
              -21.0615642
            ]
          ]
        ]
      }
    },
    {
      "type": "Feature",
      "id": "node/2851995677",
      "properties": {
        "timestamp": "2014-05-11T23:12:01Z",
        "version": 1,
        "changeset": 22281418,
        "amenity": "school",
        "id": "node/2851995677"
      },
      "geometry": {
        "type": "Point",
        "coordinates": [
          -41.4607181,
          -21.2039891
        ]
      }
    },
    {
      "type": "Feature",
      "id": "node/4024904420",
      "properties": {
        "timestamp": "2016-02-25T01:59:18Z",
        "version": 1,
        "changeset": 37426154,
        "IJSN:administra": "Municipal",
        "IJSN:classeCnae": "Infantil e Fundamental",
        "addr:city": "Mimoso do Sul",
        "addr:postcode": "29400-000",
        "addr:street": "Fazenda Belo Monte",
        "addr:suburb": "Comunidade Belo Monte",
        "alt_name": "Centro Unidocente de Educação Fundamental",
        "amenity": "school",
        "name": "CUEF Doutor José Nicodemos Cysne",
        "source": "IJSN",
        "id": "node/4024904420"
      },
      "geometry": {
        "type": "Point",
        "coordinates": [
          -41.3290525,
          -21.0465947
        ]
      }
    },
    {
      "type": "Feature",
      "id": "node/4024904458",
      "properties": {
        "timestamp": "2022-09-16T16:30:55Z",
        "version": 3,
        "changeset": 126270943,
        "IJSN:administra": "Estadual",
        "IJSN:classeCnae": "Fundamental",
        "addr:city": "Mimoso do Sul",
        "addr:housenumber": "56",
        "addr:postcode": "29400-000",
        "addr:street": "Praça Darcy Francisco Pires",
        "addr:suburb": "Monte Cristo",
        "alt_name": "Escola Estadual de Ensino Fundamental",
        "amenity": "school",
        "contact:phone": "(28) 3555-1412",
        "name": "EEEF Monteiro da Silva",
        "operator": "Secretaria de Educação do Estado do Espírito Santo",
        "operator:type": "public",
        "source": "IJSN",
        "id": "node/4024904458"
      },
      "geometry": {
        "type": "Point",
        "coordinates": [
          -41.3674418,
          -21.0632088
        ]
      }
    },
    {
      "type": "Feature",
      "id": "node/4024904461",
      "properties": {
        "timestamp": "2016-02-25T01:59:25Z",
        "version": 1,
        "changeset": 37426154,
        "IJSN:administra": "Estadual",
        "IJSN:classeCnae": "Fundamental",
        "addr:city": "Mimoso do Sul",
        "addr:postcode": "29400-000",
        "addr:street": "Rua Nazle Albut Acha",
        "addr:suburb": "Centro",
        "alt_name": "Escola Estadual de Ensino Fundamental",
        "amenity": "school",
        "contact:phone": "(28) 3555-0335 / 3555-4023",
        "name": "EEEF Pedro José Vieira",
        "source": "IJSN",
        "id": "node/4024904461"
      },
      "geometry": {
        "type": "Point",
        "coordinates": [
          -41.3644887,
          -21.062393
        ]
      }
    },
    {
      "type": "Feature",
      "id": "node/4024904479",
      "properties": {
        "timestamp": "2022-09-15T23:47:37Z",
        "version": 2,
        "changeset": 126243026,
        "IJSN:administra": "Estadual",
        "IJSN:classeCnae": "Fundamental",
        "addr:city": "Mimoso do Sul",
        "addr:housenumber": "2",
        "addr:postcode": "29400-000",
        "addr:street": "Rua Joaquim Leite Guimarães",
        "addr:suburb": "Monte Cristo",
        "alt_name": "Escola Estadual de Ensino Fundamental e Médio",
        "amenity": "school",
        "name": "EEEFM Antônio Acha",
        "source": "IJSN",
        "id": "node/4024904479"
      },
      "geometry": {
        "type": "Point",
        "coordinates": [
          -41.367753,
          -21.0645343
        ]
      }
    },
    {
      "type": "Feature",
      "id": "node/4024904861",
      "properties": {
        "timestamp": "2016-02-25T01:59:43Z",
        "version": 1,
        "changeset": 37426154,
        "IJSN:administra": "Estadual",
        "IJSN:classeCnae": "Médio",
        "addr:city": "Mimoso do Sul",
        "addr:postcode": "29400-000",
        "addr:street": "Rua Custódio Gonçalves Figueira",
        "addr:suburb": "Comunidade São José das Torres",
        "alt_name": "Escola Estadual de Ensino Médio",
        "amenity": "school",
        "contact:phone": "(28) 3555-6317",
        "name": "EEEM Elisabeth Nazário Laurentino",
        "source": "IJSN",
        "id": "node/4024904861"
      },
      "geometry": {
        "type": "Point",
        "coordinates": [
          -41.2389417,
          -21.0688233
        ]
      }
    },
    {
      "type": "Feature",
      "id": "node/4024904992",
      "properties": {
        "timestamp": "2016-02-25T01:59:48Z",
        "version": 1,
        "changeset": 37426154,
        "IJSN:administra": "Estadual",
        "IJSN:classeCnae": "Fundamental",
        "addr:city": "Mimoso do Sul",
        "addr:postcode": "29400-000",
        "addr:street": "Fazenda Córrego da Reserva",
        "addr:suburb": "Comunidade Areia Branca",
        "alt_name": "Escola Estadual Pluridocente de Ensino Fundamental",
        "amenity": "school",
        "name": "EEPEF Córrego da Reserva",
        "source": "IJSN",
        "id": "node/4024904992"
      },
      "geometry": {
        "type": "Point",
        "coordinates": [
          -41.484448,
          -20.9937955
        ]
      }
    },
    {
      "type": "Feature",
      "id": "node/4024905027",
      "properties": {
        "timestamp": "2021-09-15T12:21:58Z",
        "version": 3,
        "changeset": 111242788,
        "IJSN:administra": "Estadual",
        "IJSN:classeCnae": "Fundamental",
        "addr:city": "Mimoso do Sul",
        "addr:postcode": "29400-000",
        "addr:street": "Rua Dona América",
        "addr:suburb": "Dona América",
        "alt_name": "Escola Estadual Unidocente de Ensino Fundamental",
        "amenity": "school",
        "name": "Escola Estadual Unidocente de Ensino Fundamental Dona América",
        "source": "IJSN",
        "id": "node/4024905027"
      },
      "geometry": {
        "type": "Point",
        "coordinates": [
          -41.4108803,
          -21.161622
        ]
      }
    },
    {
      "type": "Feature",
      "id": "node/4024905031",
      "properties": {
        "timestamp": "2016-02-25T01:59:54Z",
        "version": 1,
        "changeset": 37426154,
        "IJSN:administra": "Estadual",
        "IJSN:classeCnae": "Fundamental",
        "addr:city": "Mimoso do Sul",
        "addr:postcode": "29400-000",
        "addr:street": "Fazenda Boa Esperança",
        "addr:suburb": "Comunidade Coqueiro",
        "alt_name": "Escola Estadual Unidocente de Ensino Fundamental",
        "amenity": "school",
        "name": "EEUEF Fazenda Boa Esperança",
        "source": "IJSN",
        "id": "node/4024905031"
      },
      "geometry": {
        "type": "Point",
        "coordinates": [
          -41.3687301,
          -21.0116565
        ]
      }
    },
    {
      "type": "Feature",
      "id": "node/4024905035",
      "properties": {
        "timestamp": "2016-02-25T01:59:54Z",
        "version": 1,
        "changeset": 37426154,
        "IJSN:administra": "Estadual",
        "IJSN:classeCnae": "Fundamental",
        "addr:city": "Mimoso do Sul",
        "addr:postcode": "29400-000",
        "addr:street": "Fazenda Santo Amaro",
        "addr:suburb": "Comunidade Inhuma",
        "alt_name": "Escola Estadual Unidocente de Ensino Fundamental",
        "amenity": "school",
        "name": "EEUEF Fazenda Santo Amaro",
        "source": "IJSN",
        "id": "node/4024905035"
      },
      "geometry": {
        "type": "Point",
        "coordinates": [
          -41.3326302,
          -21.1208946
        ]
      }
    },
    {
      "type": "Feature",
      "id": "node/4024905036",
      "properties": {
        "timestamp": "2016-02-25T01:59:55Z",
        "version": 1,
        "changeset": 37426154,
        "IJSN:administra": "Estadual",
        "IJSN:classeCnae": "Fundamental",
        "addr:city": "Mimoso do Sul",
        "addr:postcode": "29400-000",
        "addr:street": "Fazenda Santo Antônio",
        "addr:suburb": "Comunidade Santa Rosa",
        "alt_name": "Escola Estadual Unidocente de Ensino Fundamental",
        "amenity": "school",
        "name": "EEUEF Fazenda Santo Antônio",
        "source": "IJSN",
        "id": "node/4024905036"
      },
      "geometry": {
        "type": "Point",
        "coordinates": [
          -41.2549004,
          -21.1010444
        ]
      }
    },
    {
      "type": "Feature",
      "id": "node/4024905048",
      "properties": {
        "timestamp": "2016-02-25T01:59:56Z",
        "version": 1,
        "changeset": 37426154,
        "IJSN:administra": "Estadual",
        "IJSN:classeCnae": "Fundamental",
        "addr:city": "Mimoso do Sul",
        "addr:postcode": "29400-000",
        "addr:suburb": "Comunidade Faz Palmeiras",
        "alt_name": "Escola Estadual Unidocente de Ensino Fundamental",
        "amenity": "school",
        "name": "EEUEF Palmeiras",
        "source": "IJSN",
        "id": "node/4024905048"
      },
      "geometry": {
        "type": "Point",
        "coordinates": [
          -41.2881723,
          -21.0218024
        ]
      }
    },
    {
      "type": "Feature",
      "id": "node/4024905049",
      "properties": {
        "timestamp": "2016-02-25T01:59:57Z",
        "version": 1,
        "changeset": 37426154,
        "IJSN:administra": "Estadual",
        "IJSN:classeCnae": "Fundamental",
        "addr:city": "Mimoso do Sul",
        "addr:postcode": "29400-000",
        "addr:street": "Rua Barro Branco",
        "addr:suburb": "Comunidade Barro Branco",
        "alt_name": "Escola Estadual Unidocente de Ensino Fundamental",
        "amenity": "school",
        "name": "EEUEF Palmerinha",
        "source": "IJSN",
        "id": "node/4024905049"
      },
      "geometry": {
        "type": "Point",
        "coordinates": [
          -41.4814247,
          -20.9300146
        ]
      }
    },
    {
      "type": "Feature",
      "id": "node/4024905064",
      "properties": {
        "timestamp": "2016-02-25T01:59:59Z",
        "version": 1,
        "changeset": 37426154,
        "IJSN:administra": "Privada",
        "IJSN:classeCnae": "Médio",
        "addr:city": "Mimoso do Sul",
        "addr:postcode": "29400-000",
        "addr:street": "Estrada de Belo Monte",
        "addr:suburb": "Comunidade Palmeiras",
        "alt_name": "Escola Família Agrícola",
        "amenity": "school",
        "contact:phone": "(28) 9915-0508",
        "name": "EFA de Belo Monte",
        "source": "IJSN",
        "id": "node/4024905064"
      },
      "geometry": {
        "type": "Point",
        "coordinates": [
          -41.3282754,
          -21.0453574
        ]
      }
    },
    {
      "type": "Feature",
      "id": "node/4024905257",
      "properties": {
        "timestamp": "2023-03-17T20:18:44Z",
        "version": 4,
        "changeset": 133803401,
        "IJSN:administra": "Municipal",
        "IJSN:classeCnae": "Infantil e Fundamental",
        "addr:city": "Mimoso do Sul",
        "addr:postcode": "29400-000",
        "addr:suburb": "Conceição do Muqui",
        "alt_name": "Escola Municipal de Ensino Fundamental",
        "amenity": "school",
        "contact:phone": "+55 28 3555 9116",
        "name": "EMEF Antônia Junger Poubel da Silva",
        "operator": "Secretaria Municipal de Educação",
        "operator:type": "public",
        "source": "IJSN",
        "id": "node/4024905257"
      },
      "geometry": {
        "type": "Point",
        "coordinates": [
          -41.5087464,
          -20.9722031
        ]
      }
    },
    {
      "type": "Feature",
      "id": "node/4024905395",
      "properties": {
        "timestamp": "2016-02-25T02:00:21Z",
        "version": 1,
        "changeset": 37426154,
        "IJSN:administra": "Municipal",
        "IJSN:classeCnae": "Infantil e Fundamental",
        "addr:city": "Mimoso do Sul",
        "addr:postcode": "29400-000",
        "addr:street": "Rua Nestor Lopes Barboza",
        "addr:suburb": "Comunidade Santo Antônio do Muqui",
        "alt_name": "Escola Municipal de Ensino Fundamental",
        "amenity": "school",
        "contact:phone": "(28) 3555-1015",
        "name": "EMEF Constancio Vivas",
        "source": "IJSN",
        "id": "node/4024905395"
      },
      "geometry": {
        "type": "Point",
        "coordinates": [
          -41.4622498,
          -21.0088694
        ]
      }
    },
    {
      "type": "Feature",
      "id": "node/4024905478",
      "properties": {
        "timestamp": "2016-02-25T02:00:35Z",
        "version": 1,
        "changeset": 37426154,
        "IJSN:administra": "Municipal",
        "IJSN:classeCnae": "Infantil e Fundamental",
        "addr:city": "Mimoso do Sul",
        "addr:postcode": "29400-000",
        "addr:street": "Rua Custódio Gonçalves Figueira",
        "addr:suburb": "São José das Torres",
        "alt_name": "Escola Municipal de Ensino Fundamental",
        "amenity": "school",
        "contact:phone": "(28) 3555--6317",
        "name": "EMEF José Gonçalves Figueira",
        "source": "IJSN",
        "id": "node/4024905478"
      },
      "geometry": {
        "type": "Point",
        "coordinates": [
          -41.2388746,
          -21.068787
        ]
      }
    },
    {
      "type": "Feature",
      "id": "node/4024905660",
      "properties": {
        "timestamp": "2016-02-25T02:00:48Z",
        "version": 1,
        "changeset": 37426154,
        "IJSN:administra": "Municipal",
        "IJSN:classeCnae": "Infantil e Fundamental",
        "addr:city": "Mimoso do Sul",
        "addr:postcode": "29440-000",
        "addr:street": "Rua Alice Bullos Nogueira",
        "addr:suburb": "Centro",
        "alt_name": "Escola Municipal de Ensino Fundamental",
        "amenity": "school",
        "contact:phone": "(28) 3555-7138",
        "name": "EMEF Professor Carlos Mattos",
        "source": "IJSN",
        "id": "node/4024905660"
      },
      "geometry": {
        "type": "Point",
        "coordinates": [
          -41.4624175,
          -21.2048949
        ]
      }
    },
    {
      "type": "Feature",
      "id": "node/4024905984",
      "properties": {
        "timestamp": "2016-02-25T02:01:25Z",
        "version": 1,
        "changeset": 37426154,
        "IJSN:administra": "Municipal",
        "IJSN:classeCnae": "Fundamental",
        "addr:city": "Mimoso do Sul",
        "addr:postcode": "29400-000",
        "addr:suburb": "Comunidade Pontões",
        "alt_name": "Escola Municipal Pluridocente de Ensino Fundamental",
        "amenity": "school",
        "name": "EMPEF Alto Pontões",
        "source": "IJSN",
        "id": "node/4024905984"
      },
      "geometry": {
        "type": "Point",
        "coordinates": [
          -41.5434523,
          -20.9504342
        ]
      }
    },
    {
      "type": "Feature",
      "id": "node/4024906092",
      "properties": {
        "timestamp": "2016-02-25T02:01:26Z",
        "version": 1,
        "changeset": 37426154,
        "IJSN:administra": "Municipal",
        "IJSN:classeCnae": "Fundamental",
        "addr:city": "Mimoso do Sul",
        "addr:postcode": "29400-000",
        "addr:suburb": "Comunidade Santa Rosa",
        "alt_name": "Escola Municipal Pluridocente de Ensino Fundamental",
        "amenity": "school",
        "contact:phone": "(28) 3555-4117",
        "name": "EMPEF Bandeira",
        "source": "IJSN",
        "id": "node/4024906092"
      },
      "geometry": {
        "type": "Point",
        "coordinates": [
          -41.2669254,
          -21.1143752
        ]
      }
    },
    {
      "type": "Feature",
      "id": "node/4024906126",
      "properties": {
        "timestamp": "2016-02-25T02:01:32Z",
        "version": 1,
        "changeset": 37426154,
        "IJSN:administra": "Municipal",
        "IJSN:classeCnae": "Fundamental",
        "addr:city": "Mimoso do Sul",
        "addr:postcode": "29400-000",
        "addr:suburb": "Fazenda União",
        "alt_name": "Escola Estadual Pluridocente de Ensino Fundamental",
        "amenity": "school",
        "name": "EMPEF Fazenda União",
        "source": "IJSN",
        "id": "node/4024906126"
      },
      "geometry": {
        "type": "Point",
        "coordinates": [
          -41.4582796,
          -21.133415
        ]
      }
    },
    {
      "type": "Feature",
      "id": "node/4024906146",
      "properties": {
        "timestamp": "2016-02-25T02:01:35Z",
        "version": 1,
        "changeset": 37426154,
        "IJSN:administra": "Municipal",
        "IJSN:classeCnae": "Fundamental",
        "addr:city": "Mimoso do Sul",
        "addr:postcode": "29400-000",
        "addr:suburb": "Comunidade Novo Mundo",
        "alt_name": "Escola Estadual Pluridocente de Ensino Fundamental",
        "amenity": "school",
        "contact:phone": "(28) 982-5102 / 3560-1136",
        "name": "EMPEF Palmeirinha",
        "source": "IJSN",
        "id": "node/4024906146"
      },
      "geometry": {
        "type": "Point",
        "coordinates": [
          -41.5164562,
          -20.9126417
        ]
      }
    },
    {
      "type": "Feature",
      "id": "node/4024906154",
      "properties": {
        "timestamp": "2016-02-25T02:01:36Z",
        "version": 1,
        "changeset": 37426154,
        "IJSN:administra": "Municipal",
        "IJSN:classeCnae": "Fundamental",
        "addr:city": "Mimoso do Sul",
        "addr:postcode": "29400-000",
        "addr:street": "Fazenda Rancho Alegre",
        "addr:suburb": "Comunidade Rancho Alegre",
        "alt_name": "Escola Municipal Pluridocente de Ensino Fundamental",
        "amenity": "school",
        "name": "EMPEF Rancho Alegre",
        "source": "IJSN",
        "id": "node/4024906154"
      },
      "geometry": {
        "type": "Point",
        "coordinates": [
          -41.301763,
          -21.1600589
        ]
      }
    },
    {
      "type": "Feature",
      "id": "node/4024906161",
      "properties": {
        "timestamp": "2016-02-25T02:01:37Z",
        "version": 1,
        "changeset": 37426154,
        "IJSN:administra": "Municipal",
        "IJSN:classeCnae": "Fundamental",
        "addr:city": "Mimoso do Sul",
        "addr:postcode": "29400-000",
        "addr:street": "Fazenda Santa Luzia",
        "addr:suburb": "Comunidade Santa Luzia",
        "alt_name": "Escola Municipal Pluridocente de Ensino Fundamental",
        "amenity": "school",
        "name": "EMPEF Santa Luzia",
        "source": "IJSN",
        "id": "node/4024906161"
      },
      "geometry": {
        "type": "Point",
        "coordinates": [
          -41.4929779,
          -20.8985031
        ]
      }
    },
    {
      "type": "Feature",
      "id": "node/4024906162",
      "properties": {
        "timestamp": "2016-02-25T02:01:37Z",
        "version": 1,
        "changeset": 37426154,
        "IJSN:administra": "Municipal",
        "IJSN:classeCnae": "Fundamental",
        "addr:city": "Mimoso do Sul",
        "addr:postcode": "29400-000",
        "addr:suburb": "Comunidade Jacutinga",
        "alt_name": "Escola Municipal Pluridocente de Ensino Fundamental",
        "amenity": "school",
        "name": "EMPEF Santo Agostinho",
        "source": "IJSN",
        "id": "node/4024906162"
      },
      "geometry": {
        "type": "Point",
        "coordinates": [
          -41.5040037,
          -20.9338132
        ]
      }
    },
    {
      "type": "Feature",
      "id": "node/4024906168",
      "properties": {
        "timestamp": "2019-12-20T17:04:05Z",
        "version": 4,
        "changeset": 78692778,
        "IJSN:administra": "Municipal",
        "IJSN:classeCnae": "Fundamental",
        "addr:city": "Mimoso do Sul",
        "addr:postcode": "29400-000",
        "addr:suburb": "Comunidade Vargem Alegre",
        "alt_name": "Escola Municipal Pluridocente de Ensino Fundamental",
        "amenity": "school",
        "contact:phone": "(28) 3555-4936",
        "name": "EMPEF São Rafael",
        "source": "IJSN",
        "id": "node/4024906168"
      },
      "geometry": {
        "type": "Point",
        "coordinates": [
          -41.451535,
          -20.9261845
        ]
      }
    },
    {
      "type": "Feature",
      "id": "node/4024906286",
      "properties": {
        "timestamp": "2016-02-25T02:01:56Z",
        "version": 1,
        "changeset": 37426154,
        "IJSN:administra": "Municipal",
        "IJSN:classeCnae": "Fundamental",
        "addr:city": "Mimoso do Sul",
        "addr:postcode": "29400-000",
        "addr:suburb": "Comunidade Palmeirinha",
        "alt_name": "Escola Municipal Unidocente de Ensino Fundamental",
        "amenity": "school",
        "name": "EMUEF Córrego do Jardim",
        "source": "IJSN",
        "id": "node/4024906286"
      },
      "geometry": {
        "type": "Point",
        "coordinates": [
          -41.52318,
          -20.9273399
        ]
      }
    },
    {
      "type": "Feature",
      "id": "node/4024906326",
      "properties": {
        "timestamp": "2020-03-20T19:11:51Z",
        "version": 2,
        "changeset": 82444512,
        "IJSN:administra": "Municipal",
        "IJSN:classeCnae": "Fundamental",
        "addr:city": "Mimoso do Sul",
        "addr:postcode": "29400-000",
        "addr:street": "Fazenda Jacutinga",
        "addr:suburb": "Comunidade São José",
        "alt_name": "Escola Municipal Unidocente de Ensino Fundamental",
        "amenity": "school",
        "name": "EMUEF Jacutinga",
        "source": "IJSN",
        "id": "node/4024906326"
      },
      "geometry": {
        "type": "Point",
        "coordinates": [
          -41.3932723,
          -21.0193866
        ]
      }
    },
    {
      "type": "Feature",
      "id": "node/4024906337",
      "properties": {
        "timestamp": "2016-02-25T02:02:04Z",
        "version": 1,
        "changeset": 37426154,
        "IJSN:administra": "Municipal",
        "IJSN:classeCnae": "Fundamental",
        "addr:city": "Mimoso do Sul",
        "addr:postcode": "29400-000",
        "addr:suburb": "Comunidade de Mundo Novo",
        "alt_name": "Escola Municipal Unidocente de Ensino Fundamental",
        "amenity": "school",
        "name": "EMUEF Mundo Novo",
        "source": "IJSN",
        "id": "node/4024906337"
      },
      "geometry": {
        "type": "Point",
        "coordinates": [
          -41.5074433,
          -20.9066193
        ]
      }
    },
    {
      "type": "Feature",
      "id": "node/4024906338",
      "properties": {
        "timestamp": "2016-02-25T02:02:04Z",
        "version": 1,
        "changeset": 37426154,
        "IJSN:administra": "Municipal",
        "IJSN:classeCnae": "Fundamental",
        "addr:city": "Mimoso do Sul",
        "addr:postcode": "29400-000",
        "addr:suburb": "Comunidade Santa Cruz",
        "alt_name": "Escola Municipal Unidocente de Ensino Fundamental",
        "amenity": "school",
        "name": "EMUEF Mundo Novo",
        "source": "IJSN",
        "id": "node/4024906338"
      },
      "geometry": {
        "type": "Point",
        "coordinates": [
          -41.4997262,
          -21.0052752
        ]
      }
    },
    {
      "type": "Feature",
      "id": "node/4024906342",
      "properties": {
        "timestamp": "2020-01-08T22:13:47Z",
        "version": 2,
        "changeset": 79357828,
        "IJSN:administra": "Municipal",
        "IJSN:classeCnae": "Fundamental",
        "addr:city": "Mimoso do Sul",
        "addr:postcode": "29400-000",
        "addr:suburb": "Comunidade Novo Brasil",
        "alt_name": "Escola Municipal Unidocente de Ensino Fundamental",
        "amenity": "school",
        "name": "EMUEF Novo Brasil",
        "source": "IJSN",
        "id": "node/4024906342"
      },
      "geometry": {
        "type": "Point",
        "coordinates": [
          -41.537141,
          -20.9158629
        ]
      }
    },
    {
      "type": "Feature",
      "id": "node/4024906345",
      "properties": {
        "timestamp": "2016-02-25T02:02:05Z",
        "version": 1,
        "changeset": 37426154,
        "IJSN:administra": "Municipal",
        "IJSN:classeCnae": "Fundamental",
        "addr:city": "Mimoso do Sul",
        "addr:postcode": "29400-000",
        "addr:street": "Fazenda Oriente",
        "addr:suburb": "Comunidade Muribeca",
        "alt_name": "Escola Municipal Unidocente de Ensino Fundamental",
        "amenity": "school",
        "name": "EMUEF Oriente",
        "source": "IJSN",
        "id": "node/4024906345"
      },
      "geometry": {
        "type": "Point",
        "coordinates": [
          -41.5597467,
          -20.9226714
        ]
      }
    },
    {
      "type": "Feature",
      "id": "node/4024906594",
      "properties": {
        "timestamp": "2020-01-17T14:55:34Z",
        "version": 2,
        "changeset": 79703296,
        "IJSN:administra": "Municipal",
        "IJSN:classeCnae": "Fundamental",
        "addr:city": "Mimoso do Sul",
        "addr:postcode": "29400-000",
        "addr:suburb": "Comunidade Palmeirinha",
        "alt_name": "Escola Municipal Unidocente de Ensino Fundamental",
        "amenity": "school",
        "name": "EMUEF São Francisco",
        "source": "IJSN",
        "id": "node/4024906594"
      },
      "geometry": {
        "type": "Point",
        "coordinates": [
          -41.5169652,
          -20.9356718
        ]
      }
    },
    {
      "type": "Feature",
      "id": "node/4024906605",
      "properties": {
        "timestamp": "2016-02-25T02:02:14Z",
        "version": 1,
        "changeset": 37426154,
        "IJSN:administra": "Municipal",
        "IJSN:classeCnae": "Fundamental",
        "addr:city": "Mimoso do Sul",
        "addr:postcode": "29400-000",
        "addr:street": "Fazenda Termopilas",
        "addr:suburb": "Comunidade Mimoso do Sul",
        "alt_name": "Escola Municipal Unidocente de Ensino Fundamental",
        "amenity": "school",
        "name": "EMUEF Termopilas",
        "source": "IJSN",
        "id": "node/4024906605"
      },
      "geometry": {
        "type": "Point",
        "coordinates": [
          -41.4071683,
          -21.0554682
        ]
      }
    },
    {
      "type": "Feature",
      "id": "node/10017095051",
      "properties": {
        "timestamp": "2023-03-17T20:18:44Z",
        "version": 2,
        "changeset": 133803401,
        "IJSN:administra": "Estadual",
        "IJSN:classeCnae": "Médio",
        "addr:city": "Mimoso do Sul",
        "addr:postcode": "29400-000",
        "addr:state": "Espírito Santo",
        "addr:street": "Rua Principal",
        "addr:suburb": "Conceição do Muqui",
        "alt_name": "Escola Estadual de Ensino Médio",
        "amenity": "school",
        "contact:phone": "+55 28 3555 9202;+55 28 3555 9188",
        "name": "EEEM Antônio Sabatini Simoni",
        "operator": "Secretaria de Educação do Estado do Espirito Santo",
        "operator:type": "public",
        "source": "IJSN;microsoft/BuildingFootprints",
        "id": "node/10017095051"
      },
      "geometry": {
        "type": "Point",
        "coordinates": [
          -41.508993,
          -20.9738351
        ]
      }
    }
  ]
}
