{
  "type": "FeatureCollection",
  "features": [
    {
      "type": "Feature",
      "id": "way/508564073",
      "properties": {
        "timestamp": "2017-07-19T03:16:04Z",
        "version": 1,
        "changeset": 50393892,
        "IJSN:administra": "Municipal",
        "IJSN:classeCnae": "Infantil",
        "addr:city": "Cariacica",
        "addr:place": "Prolar",
        "addr:postcode": "29154-816",
        "addr:street": "Rua Carupaity",
        "alt_name": "Centro Municipal de Educação Infantil",
        "amenity": "kindergarten",
        "contact:phone": "(27) 3254-2212 / 3254-5280",
        "name": "CMEI Eliza Leal Bezerra",
        "short_name": "CMEI",
        "id": "way/508564073"
      },
      "geometry": {
        "type": "Polygon",
        "coordinates": [
          [
            [
              -40.4270026,
              -20.2604165
            ],
            [
              -40.4272382,
              -20.2606951
            ],
            [
              -40.4270515,
              -20.2608389
            ],
            [
              -40.4269128,
              -20.2608679
            ],
            [
              -40.4267296,
              -20.2606456
            ],
            [
              -40.4267697,
              -20.2605834
            ],
            [
              -40.4270026,
              -20.2604165
            ]
          ]
        ]
      }
    },
    {
      "type": "Feature",
      "id": "way/684630217",
      "properties": {
        "timestamp": "2019-04-18T17:21:17Z",
        "version": 1,
        "changeset": 69353243,
        "IJSN:administra": "Municipal",
        "IJSN:classeCnae": "Infantil",
        "addr:city": "Cariacica",
        "addr:place": "Nova Rosa da Penha II",
        "addr:postcode": "29157-328",
        "addr:street": "Rua 82",
        "alt_name": "Centro Municipal de Educação Infantil",
        "amenity": "kindergarten",
        "contact:phone": "+55 27 3254-7171;+55 27 3254-5315",
        "name": "CMEI Dom João Batista da Motta e Albuquerque",
        "short_name": "CMEI",
        "id": "way/684630217"
      },
      "geometry": {
        "type": "Polygon",
        "coordinates": [
          [
            [
              -40.3829404,
              -20.2560584
            ],
            [
              -40.3829221,
              -20.2563469
            ],
            [
              -40.3827412,
              -20.2563369
            ],
            [
              -40.3827595,
              -20.2560483
            ],
            [
              -40.3829404,
              -20.2560584
            ]
          ]
        ]
      }
    },
    {
      "type": "Feature",
      "id": "way/684630220",
      "properties": {
        "timestamp": "2019-04-18T17:21:17Z",
        "version": 1,
        "changeset": 69353243,
        "IJSN:administra": "Municipal",
        "IJSN:classeCnae": "Infantil",
        "addr:city": "Cariacica",
        "addr:place": "Nova Rosa da Penha",
        "addr:postcode": "29157-277",
        "addr:street": "Rua Cinco",
        "alt_name": "Centro Municipal de Educação Infantil",
        "amenity": "kindergarten",
        "contact:phone": "+55 27 3284-3612;+55 27 3254-5167",
        "name": "CMEI Maria Ribeiro Rezende",
        "short_name": "CMEI",
        "id": "way/684630220"
      },
      "geometry": {
        "type": "Polygon",
        "coordinates": [
          [
            [
              -40.3862611,
              -20.2638217
            ],
            [
              -40.3856788,
              -20.2637881
            ],
            [
              -40.3857034,
              -20.2634121
            ],
            [
              -40.3862857,
              -20.2634457
            ],
            [
              -40.3862611,
              -20.2638217
            ]
          ]
        ]
      }
    },
    {
      "type": "Feature",
      "id": "way/797039549",
      "properties": {
        "timestamp": "2020-04-27T16:26:51Z",
        "version": 1,
        "changeset": 84210195,
        "IJSN:administra": "Municipal",
        "IJSN:classeCnae": "Infantil",
        "addr:city": "Cariacica",
        "addr:country": "BR",
        "addr:place": "Padre Gabriel",
        "addr:postcode": "29141-859",
        "addr:state": "ES",
        "addr:street": "Rua Nativo da Natividade",
        "alt_name": "Centro Municipal de Educação Infantil",
        "amenity": "kindergarten",
        "contact:phone": "+55 27 3396-1275",
        "name": "CMEI Princípio do Saber",
        "short_name": "CMEI",
        "id": "way/797039549"
      },
      "geometry": {
        "type": "Polygon",
        "coordinates": [
          [
            [
              -40.3953774,
              -20.372634
            ],
            [
              -40.3955403,
              -20.3727748
            ],
            [
              -40.3955494,
              -20.3727896
            ],
            [
              -40.3955538,
              -20.3728061
            ],
            [
              -40.395553,
              -20.3728232
            ],
            [
              -40.3955455,
              -20.3728425
            ],
            [
              -40.3955316,
              -20.3728584
            ],
            [
              -40.3951614,
              -20.3729948
            ],
            [
              -40.395148,
              -20.3729835
            ],
            [
              -40.3952828,
              -20.3726522
            ],
            [
              -40.3952905,
              -20.3726392
            ],
            [
              -40.3953018,
              -20.3726286
            ],
            [
              -40.3953157,
              -20.3726214
            ],
            [
              -40.3953375,
              -20.3726178
            ],
            [
              -40.3953591,
              -20.3726222
            ],
            [
              -40.3953774,
              -20.372634
            ]
          ]
        ]
      }
    },
    {
      "type": "Feature",
      "id": "node/3460744523",
      "properties": {
        "timestamp": "2024-04-22T23:18:51Z",
        "version": 3,
        "changeset": 150369461,
        "IJSN:administra": "Privada",
        "IJSN:classeCnae": "Infantil",
        "addr:city": "Cariacica",
        "addr:housenumber": "103",
        "addr:place": "Santana",
        "addr:postcode": "29154-150",
        "addr:street": "Rua Santos Dumont",
        "amenity": "kindergarten",
        "check_date": "2024-04-22",
        "contact:phone": "+55 27 3246-0020",
        "name": "AACCD Creche Bem Me Quer",
        "id": "node/3460744523"
      },
      "geometry": {
        "type": "Point",
        "coordinates": [
          -40.389067,
          -20.3089026
        ]
      }
    },
    {
      "type": "Feature",
      "id": "node/3460744528",
      "properties": {
        "timestamp": "2019-07-11T17:33:19Z",
        "version": 2,
        "changeset": 72146221,
        "IJSN:administra": "Privada",
        "IJSN:classeCnae": "Infantil",
        "addr:city": "Cariacica",
        "addr:housenumber": "71",
        "addr:place": "Jardim América",
        "addr:postcode": "29140-040",
        "addr:street": "Rua Amazonas",
        "alt_name": "Centro Educacional",
        "amenity": "kindergarten",
        "contact:phone": "+55 27 3226-1416",
        "name": "CE Alegria do Saber",
        "short_name": "CE",
        "id": "node/3460744528"
      },
      "geometry": {
        "type": "Point",
        "coordinates": [
          -40.3574468,
          -20.3370559
        ]
      }
    },
    {
      "type": "Feature",
      "id": "node/3460744530",
      "properties": {
        "timestamp": "2019-07-11T17:33:19Z",
        "version": 2,
        "changeset": 72146221,
        "IJSN:administra": "Privada",
        "IJSN:classeCnae": "Infantil",
        "addr:city": "Cariacica",
        "addr:housenumber": "104",
        "addr:place": "São Francisco",
        "addr:postcode": "29145-438",
        "addr:street": "Rua São Paulo",
        "alt_name": "Centro Educacional",
        "amenity": "kindergarten",
        "contact:phone": "+55 27 3344-7063",
        "name": "CE Caminho do Sol",
        "short_name": "CE",
        "id": "node/3460744530"
      },
      "geometry": {
        "type": "Point",
        "coordinates": [
          -40.4026039,
          -20.3459548
        ]
      }
    },
    {
      "type": "Feature",
      "id": "node/3460744531",
      "properties": {
        "timestamp": "2019-07-11T17:33:19Z",
        "version": 3,
        "changeset": 72146221,
        "IJSN:administra": "Privada",
        "IJSN:classeCnae": "Infantil",
        "addr:city": "Cariacica",
        "addr:country": "BR",
        "addr:housenumber": "220",
        "addr:place": "Castelo Branco",
        "addr:postcode": "29140-822",
        "addr:state": "ES",
        "addr:street": "Rua Vinte e Três",
        "alt_name": "Centro Educacional",
        "amenity": "kindergarten",
        "contact:phone": "+55 27 3042-1021",
        "name": "CE Cantinho da Criança",
        "short_name": "CE",
        "id": "node/3460744531"
      },
      "geometry": {
        "type": "Point",
        "coordinates": [
          -40.3736921,
          -20.3729312
        ]
      }
    },
    {
      "type": "Feature",
      "id": "node/3460744532",
      "properties": {
        "timestamp": "2019-07-11T17:33:19Z",
        "version": 3,
        "changeset": 72146221,
        "IJSN:administra": "Privada",
        "IJSN:classeCnae": "Infantil",
        "addr:city": "Cariacica",
        "addr:country": "BR",
        "addr:housenumber": "17",
        "addr:place": "Bela Aurora",
        "addr:postcode": "29141-600",
        "addr:state": "ES",
        "addr:street": "Rua Colatina",
        "alt_name": "Centro Educacional",
        "amenity": "kindergarten",
        "contact:phone": "+55 27 3316-5055;+55 27 3326-2543",
        "name": "CE Estrela do Amanhã LTDA ME",
        "short_name": "CE",
        "id": "node/3460744532"
      },
      "geometry": {
        "type": "Point",
        "coordinates": [
          -40.3683308,
          -20.3518726
        ]
      }
    },
    {
      "type": "Feature",
      "id": "node/3460744533",
      "properties": {
        "timestamp": "2019-07-11T17:33:19Z",
        "version": 2,
        "changeset": 72146221,
        "IJSN:administra": "Privada",
        "IJSN:classeCnae": "Infantil",
        "addr:city": "Cariacica",
        "addr:housenumber": "17",
        "addr:place": "Alto Lage",
        "addr:postcode": "29151-040",
        "addr:street": "Rua Maria Ortiz",
        "alt_name": "Centro Educacional",
        "amenity": "kindergarten",
        "contact:phone": "+55 27 3396-7943",
        "name": "CE LMB Soares Ltda ME",
        "short_name": "CE",
        "id": "node/3460744533"
      },
      "geometry": {
        "type": "Point",
        "coordinates": [
          -40.3675505,
          -20.3289641
        ]
      }
    },
    {
      "type": "Feature",
      "id": "node/3460744534",
      "properties": {
        "timestamp": "2019-07-11T17:33:19Z",
        "version": 2,
        "changeset": 72146221,
        "IJSN:administra": "Privada",
        "IJSN:classeCnae": "Infantil",
        "addr:city": "Cariacica",
        "addr:place": "Cariacica Sede",
        "addr:postcode": "29156-970",
        "addr:street": "Estrada da Fazenda Roças Velhas",
        "alt_name": "Centro Educacional",
        "amenity": "kindergarten",
        "contact:phone": "+55 27 3254-3062",
        "name": "CE Montanha da Esperança",
        "short_name": "CE",
        "id": "node/3460744534"
      },
      "geometry": {
        "type": "Point",
        "coordinates": [
          -40.4217664,
          -20.2769321
        ]
      }
    },
    {
      "type": "Feature",
      "id": "node/3460744535",
      "properties": {
        "timestamp": "2019-07-11T17:33:19Z",
        "version": 3,
        "changeset": 72146221,
        "IJSN:administra": "Privada",
        "IJSN:classeCnae": "Infantil",
        "addr:city": "Cariacica",
        "addr:country": "BR",
        "addr:housenumber": "30",
        "addr:place": "Boa Sorte",
        "addr:postcode": "29141-241",
        "addr:state": "ES",
        "addr:street": "Rua Rio Grande do Sul",
        "alt_name": "Centro Educacional",
        "amenity": "kindergarten",
        "contact:phone": "+55 27 3326-7120",
        "name": "CE Mundo Moderno",
        "short_name": "CE",
        "id": "node/3460744535"
      },
      "geometry": {
        "type": "Point",
        "coordinates": [
          -40.3665925,
          -20.3510531
        ]
      }
    },
    {
      "type": "Feature",
      "id": "node/3460744537",
      "properties": {
        "timestamp": "2019-07-11T17:33:19Z",
        "version": 2,
        "changeset": 72146221,
        "IJSN:administra": "Privada",
        "IJSN:classeCnae": "Infantil",
        "addr:city": "Cariacica",
        "addr:housenumber": "15",
        "addr:place": "Oriente",
        "addr:postcode": "29150-570",
        "addr:street": "Rua Jairo Maia",
        "alt_name": "Centro Educacional",
        "amenity": "kindergarten",
        "contact:phone": "+55 27 3336-9176",
        "name": "CE Pedacinho do Céu",
        "short_name": "CE",
        "id": "node/3460744537"
      },
      "geometry": {
        "type": "Point",
        "coordinates": [
          -40.3816927,
          -20.3275472
        ]
      }
    },
    {
      "type": "Feature",
      "id": "node/3460744538",
      "properties": {
        "timestamp": "2019-07-11T17:33:19Z",
        "version": 2,
        "changeset": 72146221,
        "IJSN:administra": "Privada",
        "IJSN:classeCnae": "Infantil",
        "addr:city": "Cariacica",
        "addr:housenumber": "240",
        "addr:place": "Porto de Santana",
        "addr:postcode": "29153-024",
        "addr:street": "Rua Manoel Coutinho",
        "alt_name": "Centro Educacional",
        "amenity": "kindergarten",
        "contact:phone": "+55 27 3286-3385",
        "name": "CE Pequenos Brilhantes",
        "short_name": "CE",
        "id": "node/3460744538"
      },
      "geometry": {
        "type": "Point",
        "coordinates": [
          -40.3667449,
          -20.3061856
        ]
      }
    },
    {
      "type": "Feature",
      "id": "node/3460744539",
      "properties": {
        "timestamp": "2019-07-11T17:33:19Z",
        "version": 3,
        "changeset": 72146221,
        "IJSN:administra": "Privada",
        "IJSN:classeCnae": "Infantil",
        "addr:city": "Cariacica",
        "addr:country": "BR",
        "addr:housenumber": "38",
        "addr:place": "São Francisco",
        "addr:postcode": "29145-414",
        "addr:state": "ES",
        "addr:street": "Rua São José",
        "alt_name": "Centro Educacional",
        "amenity": "kindergarten",
        "contact:phone": "+55 27 3341-1382",
        "name": "CE Pequenos Passos",
        "short_name": "CE",
        "id": "node/3460744539"
      },
      "geometry": {
        "type": "Point",
        "coordinates": [
          -40.4030886,
          -20.3494349
        ]
      }
    },
    {
      "type": "Feature",
      "id": "node/3460744540",
      "properties": {
        "timestamp": "2019-07-11T17:33:19Z",
        "version": 2,
        "changeset": 72146221,
        "IJSN:administra": "Privada",
        "IJSN:classeCnae": "Infantil",
        "addr:city": "Cariacica",
        "addr:housenumber": "3",
        "addr:place": "Cariacica Sede",
        "addr:postcode": "29156-140",
        "addr:street": "Avenida Lopes Loureiro",
        "alt_name": "Centro Educacional",
        "amenity": "kindergarten",
        "contact:phone": "+55 27 3254-22628",
        "name": "CE Samaritano",
        "short_name": "CE",
        "id": "node/3460744540"
      },
      "geometry": {
        "type": "Point",
        "coordinates": [
          -40.4171642,
          -20.2670019
        ]
      }
    },
    {
      "type": "Feature",
      "id": "node/3460744549",
      "properties": {
        "timestamp": "2019-07-11T17:33:19Z",
        "version": 3,
        "changeset": 72146221,
        "IJSN:administra": "Privada",
        "IJSN:classeCnae": "Infantil",
        "addr:city": "Cariacica",
        "addr:country": "BR",
        "addr:housenumber": "125",
        "addr:place": "Boa Sorte",
        "addr:postcode": "29141-260",
        "addr:state": "ES",
        "addr:street": "Rua Dom Pedro II",
        "alt_name": "Centro de Educação Infantil",
        "amenity": "kindergarten",
        "contact:phone": "+55 27 3319-6632",
        "name": "CEI Criança e Cia",
        "short_name": "CEI",
        "id": "node/3460744549"
      },
      "geometry": {
        "type": "Point",
        "coordinates": [
          -40.3694408,
          -20.3492364
        ]
      }
    },
    {
      "type": "Feature",
      "id": "node/3460744550",
      "properties": {
        "timestamp": "2019-07-11T17:33:19Z",
        "version": 2,
        "changeset": 72146221,
        "IJSN:administra": "Privada",
        "IJSN:classeCnae": "Infantil",
        "addr:city": "Cariacica",
        "addr:place": "Nova Esperança",
        "addr:postcode": "29157-520",
        "addr:street": "Rua Vitória",
        "alt_name": "Centro de Educação Infantil",
        "amenity": "kindergarten",
        "contact:phone": "+55 27 3254-6689",
        "name": "CEI Fé e Alegria",
        "short_name": "CEI",
        "id": "node/3460744550"
      },
      "geometry": {
        "type": "Point",
        "coordinates": [
          -40.3960139,
          -20.2615243
        ]
      }
    },
    {
      "type": "Feature",
      "id": "node/3460744551",
      "properties": {
        "timestamp": "2019-07-11T17:33:19Z",
        "version": 2,
        "changeset": 72146221,
        "IJSN:administra": "Privada",
        "IJSN:classeCnae": "Infantil",
        "addr:city": "Cariacica",
        "addr:place": "Vila Independência",
        "addr:postcode": "29148-700",
        "addr:street": "Rua São Luiz",
        "alt_name": "Centro de Educação Infantil",
        "amenity": "kindergarten",
        "contact:phone": "+55 27 3386-3971;+55 27 9732-3514",
        "name": "CEI Piquitito",
        "short_name": "CEI",
        "id": "node/3460744551"
      },
      "geometry": {
        "type": "Point",
        "coordinates": [
          -40.402571,
          -20.3335027
        ]
      }
    },
    {
      "type": "Feature",
      "id": "node/3460744553",
      "properties": {
        "timestamp": "2019-09-29T11:59:31Z",
        "version": 4,
        "changeset": 75060345,
        "IJSN:administra": "Privada",
        "IJSN:classeCnae": "Infantil",
        "addr:housenumber": "15",
        "addr:postcode": "29143-800",
        "addr:state": "ES",
        "addr:street": "Avenida Bahia",
        "alt_name": "Centro de Educação Infantil",
        "amenity": "kindergarten",
        "contact:phone": "+55 27 3316-8656",
        "name": "CEI Sofia",
        "short_name": "CEI",
        "id": "node/3460744553"
      },
      "geometry": {
        "type": "Point",
        "coordinates": [
          -40.3672134,
          -20.3665272
        ]
      }
    },
    {
      "type": "Feature",
      "id": "node/3460744556",
      "properties": {
        "timestamp": "2019-07-11T17:33:19Z",
        "version": 3,
        "changeset": 72146221,
        "IJSN:administra": "Municipal",
        "IJSN:classeCnae": "Infantil",
        "addr:city": "Cariacica",
        "addr:country": "BR",
        "addr:housenumber": "150",
        "addr:place": "Jardim Campo Grande",
        "addr:postcode": "29144-828",
        "addr:state": "ES",
        "addr:street": "Rua Ceará",
        "alt_name": "Centro Municipal de Educação Infantil",
        "amenity": "kindergarten",
        "contact:phone": "+55 27 3396-8423",
        "name": "CMEI Altiva Belmon de Campos",
        "short_name": "CMEI",
        "id": "node/3460744556"
      },
      "geometry": {
        "type": "Point",
        "coordinates": [
          -40.3946127,
          -20.3631673
        ]
      }
    },
    {
      "type": "Feature",
      "id": "node/3460744559",
      "properties": {
        "timestamp": "2023-10-17T16:11:32Z",
        "version": 3,
        "changeset": 142720019,
        "IJSN:administra": "Municipal",
        "IJSN:classeCnae": "Infantil",
        "addr:city": "Cariacica",
        "addr:place": "Antônio Ferreira Borges",
        "addr:postcode": "29158-000",
        "addr:street": "Rua 15",
        "alt_name": "Centro Municipal de Educação Infantil",
        "amenity": "kindergarten",
        "contact:phone": "+55 27 3284-5404",
        "name": "CMEI Amélia Virginia Barbosa Machado",
        "short_name": "CMEI",
        "id": "node/3460744559"
      },
      "geometry": {
        "type": "Point",
        "coordinates": [
          -40.4271277,
          -20.2666978
        ]
      }
    },
    {
      "type": "Feature",
      "id": "node/3460744560",
      "properties": {
        "timestamp": "2019-07-11T17:33:19Z",
        "version": 2,
        "changeset": 72146221,
        "IJSN:administra": "Municipal",
        "IJSN:classeCnae": "Infantil",
        "addr:city": "Cariacica",
        "addr:housenumber": "12",
        "addr:place": "Itaquari",
        "addr:postcode": "29151-560",
        "addr:street": "Rua Muniz Freire",
        "alt_name": "Centro Municipal de Educação Infantil",
        "amenity": "kindergarten",
        "contact:phone": "+55 27 3396-8144",
        "name": "CMEI Ana Lúcia Ferreira da Silva",
        "short_name": "CMEI",
        "id": "node/3460744560"
      },
      "geometry": {
        "type": "Point",
        "coordinates": [
          -40.3605357,
          -20.3250483
        ]
      }
    },
    {
      "type": "Feature",
      "id": "node/3460744561",
      "properties": {
        "timestamp": "2019-07-11T17:33:19Z",
        "version": 2,
        "changeset": 72146221,
        "IJSN:administra": "Municipal",
        "IJSN:classeCnae": "Infantil",
        "addr:city": "Cariacica",
        "addr:place": "Flexal I",
        "addr:postcode": "29155-602",
        "addr:street": "Rua Vicente Santório Fantini",
        "alt_name": "Centro Municipal de Educação Infantil",
        "amenity": "kindergarten",
        "contact:phone": "+55 27 3336-4511;+55 27 33364367",
        "name": "CMEI Aparecida da Conceição Casagrande Camilio",
        "short_name": "CMEI",
        "id": "node/3460744561"
      },
      "geometry": {
        "type": "Point",
        "coordinates": [
          -40.3791522,
          -20.2895065
        ]
      }
    },
    {
      "type": "Feature",
      "id": "node/3460744562",
      "properties": {
        "timestamp": "2019-07-11T17:33:19Z",
        "version": 2,
        "changeset": 72146221,
        "IJSN:administra": "Municipal",
        "IJSN:classeCnae": "Infantil",
        "addr:city": "Cariacica",
        "addr:place": "Vale dos Reis",
        "addr:postcode": "29158-213",
        "addr:street": "Rua Rei Ciro",
        "alt_name": "Centro Municipal de Educação Infantil",
        "amenity": "kindergarten",
        "contact:phone": "+55 27 3396-8937",
        "name": "CMEI Benedito Ribeiro de Almeida",
        "short_name": "CMEI",
        "id": "node/3460744562"
      },
      "geometry": {
        "type": "Point",
        "coordinates": [
          -40.4281562,
          -20.3240447
        ]
      }
    },
    {
      "type": "Feature",
      "id": "node/3460744563",
      "properties": {
        "timestamp": "2019-07-11T17:33:19Z",
        "version": 3,
        "changeset": 72146221,
        "IJSN:administra": "Municipal",
        "IJSN:classeCnae": "Infantil",
        "addr:city": "Cariacica",
        "addr:country": "BR",
        "addr:place": "Maracanã",
        "addr:postcode": "29142-866",
        "addr:state": "ES",
        "addr:street": "Rua Treze",
        "alt_name": "Centro Municipal de Educação Infantil",
        "amenity": "kindergarten",
        "contact:phone": "+55 27 3366-0658;+55 27 3286-7416",
        "name": "CMEI Cecília Meireles",
        "short_name": "CMEI",
        "id": "node/3460744563"
      },
      "geometry": {
        "type": "Point",
        "coordinates": [
          -40.3732768,
          -20.3610823
        ]
      }
    },
    {
      "type": "Feature",
      "id": "node/3460744564",
      "properties": {
        "timestamp": "2019-07-11T17:33:19Z",
        "version": 2,
        "changeset": 72146221,
        "IJSN:administra": "Municipal",
        "IJSN:classeCnae": "Infantil",
        "addr:city": "Cariacica",
        "addr:place": "Cariacica Sede",
        "addr:postcode": "29156-100",
        "addr:street": "Rua Duque de Caxias",
        "alt_name": "Centro Municipal de Educação Infantil",
        "amenity": "kindergarten",
        "contact:phone": "+55 27 3254-2849;+55 27 3254-3489",
        "name": "CMEI Cleto Prudêncio Rodrigues",
        "short_name": "CMEI",
        "id": "node/3460744564"
      },
      "geometry": {
        "type": "Point",
        "coordinates": [
          -40.4176579,
          -20.2669667
        ]
      }
    },
    {
      "type": "Feature",
      "id": "node/3460744565",
      "properties": {
        "timestamp": "2019-07-11T17:33:19Z",
        "version": 2,
        "changeset": 72146221,
        "IJSN:administra": "Municipal",
        "IJSN:classeCnae": "Infantil",
        "addr:city": "Cariacica",
        "addr:housenumber": "330",
        "addr:place": "Nova Brasília",
        "addr:postcode": "29149-411",
        "addr:street": "Rua H",
        "alt_name": "Centro Municipal de Educação Infantil",
        "amenity": "kindergarten",
        "contact:phone": "+55 27 3286-6167;+55 27 3336-5383",
        "name": "CMEI Corina Serrano Mota",
        "short_name": "CMEI",
        "id": "node/3460744565"
      },
      "geometry": {
        "type": "Point",
        "coordinates": [
          -40.3880156,
          -20.3241684
        ]
      }
    },
    {
      "type": "Feature",
      "id": "node/3460744566",
      "properties": {
        "timestamp": "2024-04-23T17:43:51Z",
        "version": 3,
        "changeset": 150408361,
        "IJSN:administra": "Municipal",
        "IJSN:classeCnae": "Infantil",
        "addr:city": "Cariacica",
        "addr:housenumber": "1",
        "addr:place": "Santana",
        "addr:postcode": "29154-310",
        "addr:street": "Rua A",
        "alt_name": "Centro Municipal de Educação Infantil",
        "amenity": "kindergarten",
        "check_date": "2024-04-23",
        "contact:phone": "+55 27 3386-1490;+55 27 3343-5804",
        "name": "CMEI Darcy Rodrigues Cardoso",
        "short_name": "CMEI",
        "id": "node/3460744566"
      },
      "geometry": {
        "type": "Point",
        "coordinates": [
          -40.3887676,
          -20.3126878
        ]
      }
    },
    {
      "type": "Feature",
      "id": "node/3460744571",
      "properties": {
        "timestamp": "2019-07-11T17:33:19Z",
        "version": 3,
        "changeset": 72146221,
        "IJSN:administra": "Municipal",
        "IJSN:classeCnae": "Infantil",
        "addr:city": "Cariacica",
        "addr:country": "BR",
        "addr:place": "Castelo Branco",
        "addr:postcode": "29140-830",
        "addr:state": "ES",
        "addr:street": "Avenida Governador Gerson Camata, Beco 15",
        "alt_name": "Centro Municipal de Educação Infantil",
        "amenity": "kindergarten",
        "contact:phone": "+55 27 3316-7321-3031",
        "name": "CMEI Emiliana Giles Bragança (Anexo)",
        "short_name": "CMEI",
        "id": "node/3460744571"
      },
      "geometry": {
        "type": "Point",
        "coordinates": [
          -40.3756591,
          -20.3706798
        ]
      }
    },
    {
      "type": "Feature",
      "id": "node/3460744572",
      "properties": {
        "timestamp": "2019-07-11T17:33:19Z",
        "version": 3,
        "changeset": 72146221,
        "IJSN:administra": "Municipal",
        "IJSN:classeCnae": "Infantil",
        "addr:city": "Cariacica",
        "addr:country": "BR",
        "addr:place": "Castelo Branco",
        "addr:postcode": "29140-830",
        "addr:state": "ES",
        "addr:street": "Rua Presidente Arthur Costa e Silva",
        "alt_name": "Centro Municipal de Educação Infantil",
        "amenity": "kindergarten",
        "contact:phone": "+55 27 3326-3031",
        "name": "CMEI Emiliana Giles Bragança",
        "short_name": "CMEI",
        "id": "node/3460744572"
      },
      "geometry": {
        "type": "Point",
        "coordinates": [
          -40.3768942,
          -20.3708965
        ]
      }
    },
    {
      "type": "Feature",
      "id": "node/3460744573",
      "properties": {
        "timestamp": "2019-06-06T17:31:05Z",
        "version": 2,
        "changeset": 70998019,
        "IJSN:administra": "Municipal",
        "IJSN:classeCnae": "Infantil",
        "addr:city": "Cariacica",
        "addr:place": "Itacibá",
        "addr:postcode": "29150-200",
        "addr:street": "Rua Imaculada Conceição",
        "alt_name": "Centro Municipal de Educação Infantil",
        "amenity": "kindergarten",
        "contact:phone": "+55 27 3386-2219;+55 27 3343-0436",
        "name": "CMEI Erenita Rodrigues Trancoso",
        "short_name": "CMEI",
        "id": "node/3460744573"
      },
      "geometry": {
        "type": "Point",
        "coordinates": [
          -40.3742928,
          -20.3240218
        ]
      }
    },
    {
      "type": "Feature",
      "id": "node/3460744574",
      "properties": {
        "timestamp": "2019-07-11T17:33:19Z",
        "version": 2,
        "changeset": 72146221,
        "IJSN:administra": "Municipal",
        "IJSN:classeCnae": "Infantil",
        "addr:city": "Cariacica",
        "addr:housenumber": "78",
        "addr:place": "Vale Esperança",
        "addr:postcode": "29141-020",
        "addr:street": "Avenida Central",
        "alt_name": "Centro Municipal de Educação Infantil",
        "amenity": "kindergarten",
        "contact:phone": "+55 27 3326-9953;+55 27 3326-5995",
        "name": "CMEI Geraldo Menegucci",
        "short_name": "CMEI",
        "id": "node/3460744574"
      },
      "geometry": {
        "type": "Point",
        "coordinates": [
          -40.3685476,
          -20.3429387
        ]
      }
    },
    {
      "type": "Feature",
      "id": "node/3460744575",
      "properties": {
        "timestamp": "2019-07-11T17:33:19Z",
        "version": 2,
        "changeset": 72146221,
        "IJSN:administra": "Municipal",
        "IJSN:classeCnae": "Infantil",
        "addr:city": "Cariacica",
        "addr:place": "Vila Prudêncio",
        "addr:postcode": "29155-634",
        "addr:street": "Rua Santa Clara",
        "alt_name": "Centro Municipal de Educação Infantil",
        "amenity": "kindergarten",
        "contact:phone": "+55 27 3236-4631;+55 27 3386-1801",
        "name": "CMEI Ivan Roberto de Sousa",
        "short_name": "CMEI",
        "id": "node/3460744575"
      },
      "geometry": {
        "type": "Point",
        "coordinates": [
          -40.3810886,
          -20.2956729
        ]
      }
    },
    {
      "type": "Feature",
      "id": "node/3460744576",
      "properties": {
        "timestamp": "2019-07-11T17:33:19Z",
        "version": 2,
        "changeset": 72146221,
        "IJSN:administra": "Municipal",
        "IJSN:classeCnae": "Infantil",
        "addr:city": "Cariacica",
        "addr:place": "Novo Brasil",
        "addr:postcode": "29158-029",
        "addr:street": "Rua Amazonas",
        "alt_name": "Centro Municipal de Educação Infantil",
        "amenity": "kindergarten",
        "contact:phone": "+55 27 3286-2829;+55 27 3286-2790",
        "name": "CMEI Jacy Pereira",
        "short_name": "CMEI",
        "id": "node/3460744576"
      },
      "geometry": {
        "type": "Point",
        "coordinates": [
          -40.4420042,
          -20.3123408
        ]
      }
    },
    {
      "type": "Feature",
      "id": "node/3460744577",
      "properties": {
        "timestamp": "2019-07-11T17:33:19Z",
        "version": 3,
        "changeset": 72146221,
        "IJSN:administra": "Municipal",
        "IJSN:classeCnae": "Infantil",
        "addr:city": "Cariacica",
        "addr:country": "BR",
        "addr:place": "São Geraldo II",
        "addr:postcode": "29100-000",
        "addr:state": "ES",
        "addr:street": "Rua Central",
        "alt_name": "Centro Municipal de Educação Infantil",
        "amenity": "kindergarten",
        "contact:phone": "+55 27 3286-7163",
        "name": "CMEI Jaime dos Santos",
        "short_name": "CMEI",
        "id": "node/3460744577"
      },
      "geometry": {
        "type": "Point",
        "coordinates": [
          -40.3801724,
          -20.3522115
        ]
      }
    },
    {
      "type": "Feature",
      "id": "node/3460744578",
      "properties": {
        "timestamp": "2019-07-11T17:33:19Z",
        "version": 2,
        "changeset": 72146221,
        "IJSN:administra": "Municipal",
        "IJSN:classeCnae": "Infantil",
        "addr:city": "Cariacica",
        "addr:place": "Novo Horizonte",
        "addr:postcode": "29147-621",
        "addr:street": "Avenida São José",
        "alt_name": "Centro Municipal de Educação Infantil",
        "amenity": "kindergarten",
        "contact:phone": "+55 27 3226-9397;+55 27 3336-0387",
        "name": "CMEI José Luis Araujo",
        "short_name": "CMEI",
        "id": "node/3460744578"
      },
      "geometry": {
        "type": "Point",
        "coordinates": [
          -40.4184882,
          -20.3353668
        ]
      }
    },
    {
      "type": "Feature",
      "id": "node/3460744579",
      "properties": {
        "timestamp": "2019-07-11T17:33:19Z",
        "version": 2,
        "changeset": 72146221,
        "IJSN:administra": "Municipal",
        "IJSN:classeCnae": "Infantil",
        "addr:city": "Cariacica",
        "addr:place": "Presidente Médice",
        "addr:postcode": "29153-650",
        "addr:street": "Rua São Sebastião",
        "alt_name": "Centro Municipal de Educação Infantil",
        "amenity": "kindergarten",
        "contact:phone": "+55 27 3343-5800;+55 27 3343-4544",
        "name": "CMEI João Colombo",
        "short_name": "CMEI",
        "id": "node/3460744579"
      },
      "geometry": {
        "type": "Point",
        "coordinates": [
          -40.3702575,
          -20.3048147
        ]
      }
    },
    {
      "type": "Feature",
      "id": "node/3460744581",
      "properties": {
        "timestamp": "2019-07-11T17:33:19Z",
        "version": 3,
        "changeset": 72146221,
        "IJSN:administra": "Municipal",
        "IJSN:classeCnae": "Infantil",
        "addr:city": "Cariacica",
        "addr:country": "BR",
        "addr:place": "Bela Aurora",
        "addr:postcode": "29141-665",
        "addr:state": "ES",
        "addr:street": "Rua Apolo XI",
        "alt_name": "Centro Municipal de Educação Infantil",
        "amenity": "kindergarten",
        "contact:phone": "+55 27 3316-2493",
        "name": "CMEI Larissa Pereira Batista",
        "short_name": "CMEI",
        "id": "node/3460744581"
      },
      "geometry": {
        "type": "Point",
        "coordinates": [
          -40.3673553,
          -20.3541044
        ]
      }
    },
    {
      "type": "Feature",
      "id": "node/3460744583",
      "properties": {
        "timestamp": "2019-07-11T17:33:19Z",
        "version": 2,
        "changeset": 72146221,
        "IJSN:administra": "Municipal",
        "IJSN:classeCnae": "Infantil",
        "addr:city": "Cariacica",
        "addr:housenumber": "28",
        "addr:place": "Vera Cruz",
        "addr:postcode": "29146-794",
        "addr:street": "Rua José Antônio da Silva",
        "alt_name": "Centro Municipal de Educação Infantil",
        "amenity": "kindergarten",
        "contact:phone": "+55 27 3396-6973;+55 27 3343-6948",
        "name": "CMEI Maria Aparecida Lacerda Moura",
        "short_name": "CMEI",
        "id": "node/3460744583"
      },
      "geometry": {
        "type": "Point",
        "coordinates": [
          -40.3762821,
          -20.3365156
        ]
      }
    },
    {
      "type": "Feature",
      "id": "node/3460744584",
      "properties": {
        "timestamp": "2019-07-11T17:33:19Z",
        "version": 3,
        "changeset": 72146221,
        "IJSN:administra": "Municipal",
        "IJSN:classeCnae": "Infantil",
        "addr:city": "Cariacica",
        "addr:country": "BR",
        "addr:housenumber": "157",
        "addr:place": "Liberdade",
        "addr:postcode": "29141-305",
        "addr:state": "ES",
        "addr:street": "Rua Volta Redonda",
        "alt_name": "Centro Municipal de Educação Infantil",
        "amenity": "kindergarten",
        "contact:phone": "+55 27 3316-9451",
        "name": "CMEI Maria Inês Gurtler",
        "short_name": "CMEI",
        "id": "node/3460744584"
      },
      "geometry": {
        "type": "Point",
        "coordinates": [
          -40.3751777,
          -20.390874
        ]
      }
    },
    {
      "type": "Feature",
      "id": "node/3460744586",
      "properties": {
        "timestamp": "2019-07-11T17:33:19Z",
        "version": 2,
        "changeset": 72146221,
        "IJSN:administra": "Municipal",
        "IJSN:classeCnae": "Infantil",
        "addr:city": "Cariacica",
        "addr:place": "Flexal II",
        "addr:postcode": "29155-599",
        "addr:street": "Rua Nossa Senhora da Penha",
        "alt_name": "Centro Municipal de Educação Infantil",
        "amenity": "kindergarten",
        "contact:phone": "+55 27 3236-3008",
        "name": "CMEI Maria Rachel do Nascimento",
        "short_name": "CMEI",
        "id": "node/3460744586"
      },
      "geometry": {
        "type": "Point",
        "coordinates": [
          -40.3819954,
          -20.2837294
        ]
      }
    },
    {
      "type": "Feature",
      "id": "node/3460744591",
      "properties": {
        "timestamp": "2019-07-11T17:33:19Z",
        "version": 2,
        "changeset": 72146221,
        "IJSN:administra": "Municipal",
        "IJSN:classeCnae": "Infantil",
        "addr:city": "Cariacica",
        "addr:place": "Alto Boa Vista",
        "addr:postcode": "29152-060",
        "addr:street": "Rua Pio XII",
        "alt_name": "Centro Municipal de Educação Infantil",
        "amenity": "kindergarten",
        "contact:phone": "+55 27 3336-5223;+55 27 3236-1109",
        "name": "CMEI Rafael Capucho Mazioli",
        "short_name": "CMEI",
        "id": "node/3460744591"
      },
      "geometry": {
        "type": "Point",
        "coordinates": [
          -40.3610706,
          -20.3230252
        ]
      }
    },
    {
      "type": "Feature",
      "id": "node/3460744592",
      "properties": {
        "timestamp": "2019-07-11T17:33:19Z",
        "version": 2,
        "changeset": 72146221,
        "IJSN:administra": "Municipal",
        "IJSN:classeCnae": "Infantil",
        "addr:city": "Cariacica",
        "addr:place": "Flexal II",
        "addr:postcode": "29155-577",
        "addr:street": "Rua da Liberdade",
        "alt_name": "Centro Municipal de Educação Infantil",
        "amenity": "kindergarten",
        "contact:phone": "+55 27 3366-1999;+55 27 3343-4032",
        "name": "CMEI Rosalina Marques de Souza",
        "short_name": "CMEI",
        "id": "node/3460744592"
      },
      "geometry": {
        "type": "Point",
        "coordinates": [
          -40.3864805,
          -20.2861025
        ]
      }
    },
    {
      "type": "Feature",
      "id": "node/3460745594",
      "properties": {
        "timestamp": "2019-07-11T17:33:19Z",
        "version": 3,
        "changeset": 72146221,
        "IJSN:administra": "Municipal",
        "IJSN:classeCnae": "Infantil",
        "addr:city": "Cariacica",
        "addr:country": "BR",
        "addr:place": "Bela Aurora",
        "addr:postcode": "29141-580",
        "addr:state": "ES",
        "addr:street": "Rua Barão do Itapemirim",
        "alt_name": "Centro Municipal de Educação Infantil",
        "amenity": "kindergarten",
        "contact:phone": "+55 27 3346-6451;+55 27 3346-6453",
        "name": "CMEI Tarcílio Montanari",
        "short_name": "CMEI",
        "id": "node/3460745594"
      },
      "geometry": {
        "type": "Point",
        "coordinates": [
          -40.3705134,
          -20.3514035
        ]
      }
    },
    {
      "type": "Feature",
      "id": "node/3460745595",
      "properties": {
        "timestamp": "2019-07-11T17:33:19Z",
        "version": 2,
        "changeset": 72146221,
        "IJSN:administra": "Municipal",
        "IJSN:classeCnae": "Infantil",
        "addr:city": "Cariacica",
        "addr:place": "Itanguá",
        "addr:postcode": "29147-380",
        "addr:street": "Rua Tereza Tironi Martins",
        "alt_name": "Centro Municipal de Educação Infantil",
        "amenity": "kindergarten",
        "contact:phone": "+55 27 3286-5913;+55 27 3216-2561",
        "name": "CMEI Tereza Tironi Martins",
        "short_name": "CMEI",
        "id": "node/3460745595"
      },
      "geometry": {
        "type": "Point",
        "coordinates": [
          -40.3904185,
          -20.3336011
        ]
      }
    },
    {
      "type": "Feature",
      "id": "node/3460745596",
      "properties": {
        "timestamp": "2019-07-11T17:33:19Z",
        "version": 3,
        "changeset": 72146221,
        "IJSN:administra": "Municipal",
        "IJSN:classeCnae": "Infantil",
        "addr:city": "Cariacica",
        "addr:country": "BR",
        "addr:place": "Sotelândia",
        "addr:postcode": "29140-641",
        "addr:state": "ES",
        "addr:street": "Rua Sargento Brandão",
        "alt_name": "Centro Municipal de Educação Infantil",
        "amenity": "kindergarten",
        "contact:phone": "+55 27 3316-5084",
        "name": "CMEI Vinicius de Moraes",
        "short_name": "CMEI",
        "id": "node/3460745596"
      },
      "geometry": {
        "type": "Point",
        "coordinates": [
          -40.3613742,
          -20.3572353
        ]
      }
    },
    {
      "type": "Feature",
      "id": "node/3460745597",
      "properties": {
        "timestamp": "2019-07-11T17:33:19Z",
        "version": 2,
        "changeset": 72146221,
        "IJSN:administra": "Municipal",
        "IJSN:classeCnae": "Infantil",
        "addr:city": "Cariacica",
        "addr:housenumber": "19",
        "addr:place": "Flexal I",
        "addr:postcode": "29155-600",
        "addr:street": "Rua São Benedito",
        "alt_name": "Centro Municipal de Educação Infantil",
        "amenity": "kindergarten",
        "contact:phone": "+55 27 3226-9214",
        "name": "CMEI Wilson Alves do Nascimento",
        "short_name": "CMEI",
        "id": "node/3460745597"
      },
      "geometry": {
        "type": "Point",
        "coordinates": [
          -40.3779085,
          -20.2876049
        ]
      }
    },
    {
      "type": "Feature",
      "id": "node/3460745600",
      "properties": {
        "timestamp": "2019-07-11T17:33:19Z",
        "version": 3,
        "changeset": 72146221,
        "IJSN:administra": "Privada",
        "IJSN:classeCnae": "Infantil",
        "addr:city": "Cariacica",
        "addr:country": "BR",
        "addr:place": "Santa Bárbara",
        "addr:postcode": "29145-210",
        "addr:state": "ES",
        "addr:street": "Rua Manoel Freire Correia",
        "alt_name": "Centro Educacional",
        "amenity": "kindergarten",
        "contact:phone": "+55 27 3396-0383;+55 27 3396-5251",
        "name": "Centro Educacional Para Vida",
        "short_name": "CE",
        "id": "node/3460745600"
      },
      "geometry": {
        "type": "Point",
        "coordinates": [
          -40.388712,
          -20.3551745
        ]
      }
    },
    {
      "type": "Feature",
      "id": "node/3460745602",
      "properties": {
        "timestamp": "2019-07-11T17:33:19Z",
        "version": 2,
        "changeset": 72146221,
        "IJSN:administra": "Privada",
        "IJSN:classeCnae": "Infantil",
        "addr:city": "Cariacica",
        "addr:housenumber": "217",
        "addr:place": "Nova Brasília",
        "addr:postcode": "29149-330",
        "addr:street": "Rua Afonso Cláudio",
        "alt_name": "Centro Educional",
        "amenity": "kindergarten",
        "contact:phone": "+55 27 3336-5687",
        "name": "Centro Educacional Ursinho Pimpão",
        "short_name": "CE",
        "id": "node/3460745602"
      },
      "geometry": {
        "type": "Point",
        "coordinates": [
          -40.3926664,
          -20.325928
        ]
      }
    },
    {
      "type": "Feature",
      "id": "node/3460745609",
      "properties": {
        "timestamp": "2019-07-11T17:33:19Z",
        "version": 2,
        "changeset": 72146221,
        "IJSN:administra": "Privada",
        "IJSN:classeCnae": "Infantil",
        "addr:city": "Cariacica",
        "addr:housenumber": "58",
        "addr:place": "Jarim América",
        "addr:postcode": "29140-280",
        "addr:street": "Rua Costa Rica",
        "amenity": "kindergarten",
        "contact:phone": "+55 27 3090-3614;+55 27 3343-9981",
        "name": "Creche Alfa",
        "id": "node/3460745609"
      },
      "geometry": {
        "type": "Point",
        "coordinates": [
          -40.3671485,
          -20.3344015
        ]
      }
    },
    {
      "type": "Feature",
      "id": "node/3460745610",
      "properties": {
        "timestamp": "2019-07-11T17:33:19Z",
        "version": 3,
        "changeset": 72146221,
        "IJSN:administra": "Privada",
        "IJSN:classeCnae": "Infantil",
        "addr:city": "Cariacica",
        "addr:country": "BR",
        "addr:housenumber": "552",
        "addr:place": "Rosa da Penha",
        "addr:postcode": "29143-320",
        "addr:state": "ES",
        "addr:street": "Rua Amazonas",
        "amenity": "kindergarten",
        "contact:phone": "+55 27 3073-5328",
        "name": "Creche Cantinho Criança",
        "id": "node/3460745610"
      },
      "geometry": {
        "type": "Point",
        "coordinates": [
          -40.3836632,
          -20.3544425
        ]
      }
    },
    {
      "type": "Feature",
      "id": "node/3460745611",
      "properties": {
        "timestamp": "2019-07-11T17:33:19Z",
        "version": 3,
        "changeset": 72146221,
        "IJSN:administra": "Privada",
        "IJSN:classeCnae": "Infantil",
        "addr:city": "Cariacica",
        "addr:housenumber": "6",
        "addr:place": "Prolar",
        "addr:postcode": "29154-821",
        "addr:street": "Rua Dezesseis",
        "amenity": "kindergarten",
        "contact:phone": "+55 27 3254-3343",
        "name": "Creche Comunitária Renascer",
        "id": "node/3460745611"
      },
      "geometry": {
        "type": "Point",
        "coordinates": [
          -40.431218,
          -20.2577562
        ]
      }
    },
    {
      "type": "Feature",
      "id": "node/3460745612",
      "properties": {
        "timestamp": "2019-07-11T17:33:19Z",
        "version": 2,
        "changeset": 72146221,
        "IJSN:administra": "Privada",
        "IJSN:classeCnae": "Infantil",
        "addr:city": "Cariacica",
        "addr:housenumber": "9",
        "addr:place": "Alto Lage",
        "addr:postcode": "29151-075",
        "addr:street": "Rua Albérico Rodrigues",
        "amenity": "kindergarten",
        "contact:phone": "+55 27 3396-8017",
        "name": "Creche Escola Passarinhos do Saber",
        "id": "node/3460745612"
      },
      "geometry": {
        "type": "Point",
        "coordinates": [
          -40.3686983,
          -20.3300612
        ]
      }
    },
    {
      "type": "Feature",
      "id": "node/3460745613",
      "properties": {
        "timestamp": "2019-07-11T17:33:19Z",
        "version": 2,
        "changeset": 72146221,
        "IJSN:administra": "Privada",
        "IJSN:classeCnae": "Infantil",
        "addr:city": "Cariacica",
        "addr:housenumber": "28",
        "addr:place": "Alto Lage",
        "addr:postcode": "29151-130",
        "addr:street": "Rua Arthur Mazeli",
        "amenity": "kindergarten",
        "contact:phone": "+55 27 8825-0634",
        "name": "Creche Palhaçinho Feliz",
        "id": "node/3460745613"
      },
      "geometry": {
        "type": "Point",
        "coordinates": [
          -40.3666525,
          -20.3295931
        ]
      }
    },
    {
      "type": "Feature",
      "id": "node/3460745614",
      "properties": {
        "timestamp": "2019-07-11T17:33:19Z",
        "version": 2,
        "changeset": 72146221,
        "IJSN:administra": "Privada",
        "IJSN:classeCnae": "Infantil",
        "addr:city": "Cariacica",
        "addr:housenumber": "50",
        "addr:place": "Jardim América",
        "addr:postcode": "29140-070",
        "addr:street": "Rua México",
        "amenity": "kindergarten",
        "contact:phone": "+55 27 9943-0218;+55 27 3071-2785",
        "name": "Creche Ser Criança",
        "id": "node/3460745614"
      },
      "geometry": {
        "type": "Point",
        "coordinates": [
          -40.3606059,
          -20.3369528
        ]
      }
    },
    {
      "type": "Feature",
      "id": "node/3460745665",
      "properties": {
        "timestamp": "2019-07-11T17:33:19Z",
        "version": 2,
        "changeset": 72146221,
        "IJSN:administra": "Privada",
        "IJSN:classeCnae": "Infantil",
        "addr:city": "Cariacica",
        "addr:housenumber": "40",
        "addr:place": "Oriente",
        "addr:postcode": "29150-533",
        "addr:street": "Rua Adilson Coelho",
        "alt_name": "Escola Infantil",
        "amenity": "kindergarten",
        "contact:phone": "+55 27 3226-7049",
        "name": "EI Primeiros Passos",
        "short_name": "EI",
        "id": "node/3460745665"
      },
      "geometry": {
        "type": "Point",
        "coordinates": [
          -40.3807302,
          -20.3275217
        ]
      }
    },
    {
      "type": "Feature",
      "id": "node/3460746424",
      "properties": {
        "timestamp": "2019-07-11T17:33:19Z",
        "version": 2,
        "changeset": 72146221,
        "IJSN:administra": "Privada",
        "IJSN:classeCnae": "Infantil",
        "addr:city": "Cariacica",
        "addr:place": "Mucurici",
        "addr:postcode": "29148-540",
        "addr:street": "Rua Sebastião Vieira",
        "alt_name": "Escola Moranguinho",
        "amenity": "kindergarten",
        "contact:phone": "+55 27 9611-9550;+55 27 3386-9500",
        "name": "Escola Moranguinho",
        "id": "node/3460746424"
      },
      "geometry": {
        "type": "Point",
        "coordinates": [
          -40.4000821,
          -20.3286557
        ]
      }
    },
    {
      "type": "Feature",
      "id": "node/3460746426",
      "properties": {
        "timestamp": "2019-07-11T17:33:19Z",
        "version": 2,
        "changeset": 72146221,
        "IJSN:administra": "Privada",
        "IJSN:classeCnae": "Infantil",
        "addr:city": "Cariacica",
        "addr:housenumber": "55",
        "addr:place": "Santa Fé",
        "addr:postcode": "29100-000",
        "addr:street": "Rua Mochuara",
        "amenity": "kindergarten",
        "contact:phone": "+55 27 3286-5017;+55 27 9803-6853",
        "name": "Escolinha Tia Piti",
        "id": "node/3460746426"
      },
      "geometry": {
        "type": "Point",
        "coordinates": [
          -40.385273,
          -20.346217
        ]
      }
    }
  ]
}
