{
  "type": "FeatureCollection",
  "features": [
    {
      "type": "Feature",
      "id": "way/497941126",
      "properties": {
        "timestamp": "2017-06-03T20:49:21Z",
        "version": 1,
        "changeset": 49229113,
        "amenity": "school",
        "id": "way/497941126"
      },
      "geometry": {
        "type": "Polygon",
        "coordinates": [
          [
            [
              -53.8768441,
              -24.4823636
            ],
            [
              -53.8768689,
              -24.4827678
            ],
            [
              -53.8764955,
              -24.4827868
            ],
            [
              -53.8764708,
              -24.4823825
            ],
            [
              -53.8768441,
              -24.4823636
            ]
          ]
        ]
      }
    },
    {
      "type": "Feature",
      "id": "node/4357481807",
      "properties": {
        "timestamp": "2020-04-18T00:02:14Z",
        "version": 3,
        "changeset": 83729273,
        "addr:city": "Nova Santa Rosa",
        "addr:housenumber": "1200",
        "addr:postcode": "85930000",
        "addr:street": "Avenida Tucunduva",
        "addr:suburb": "Centro",
        "amenity": "school",
        "name": "Colegio Estadual Marechal Gaspar Dutra",
        "website": "http://www.nsrgaspardutra.seed.pr.gov.br/modules/noticias/",
        "id": "node/4357481807"
      },
      "geometry": {
        "type": "Point",
        "coordinates": [
          -53.9490958,
          -24.4705678
        ]
      }
    },
    {
      "type": "Feature",
      "id": "node/4475037125",
      "properties": {
        "timestamp": "2016-11-01T13:01:21Z",
        "version": 1,
        "changeset": 43325401,
        "addr:city": "Nova Santa Rosa",
        "addr:housenumber": "1033",
        "addr:postcode": "85930000",
        "addr:street": "Avenida Tucunduva",
        "addr:suburb": "Centro",
        "amenity": "school",
        "name": "Escola Municipal Get√∫lio Vargas",
        "id": "node/4475037125"
      },
      "geometry": {
        "type": "Point",
        "coordinates": [
          -53.9498857,
          -24.4690818
        ]
      }
    }
  ]
}
