{
  "type": "FeatureCollection",
  "features": [
    {
      "type": "Feature",
      "id": "way/345762490",
      "properties": {
        "timestamp": "2021-05-16T15:10:44Z",
        "version": 4,
        "changeset": 104773306,
        "addr:city": "Palotina",
        "addr:housenumber": "1448",
        "addr:postcode": "85950-000",
        "addr:street": "Rua Ipiranga",
        "addr:suburb": "Centro",
        "amenity": "school",
        "name": "Escola Municipal Joaquim Monteiro Martins Franco",
        "id": "way/345762490"
      },
      "geometry": {
        "type": "Polygon",
        "coordinates": [
          [
            [
              -53.8357398,
              -24.2844663
            ],
            [
              -53.8356456,
              -24.284756
            ],
            [
              -53.8355767,
              -24.2847374
            ],
            [
              -53.8355442,
              -24.2847286
            ],
            [
              -53.8353115,
              -24.2846657
            ],
            [
              -53.8352061,
              -24.2846372
            ],
            [
              -53.8351959,
              -24.2846345
            ],
            [
              -53.8352037,
              -24.2846106
            ],
            [
              -53.8347057,
              -24.2844761
            ],
            [
              -53.8347921,
              -24.2842103
            ],
            [
              -53.8350065,
              -24.2842682
            ],
            [
              -53.8353003,
              -24.2843475
            ],
            [
              -53.8354057,
              -24.284376
            ],
            [
              -53.8356384,
              -24.2844389
            ],
            [
              -53.8357398,
              -24.2844663
            ]
          ]
        ]
      }
    },
    {
      "type": "Feature",
      "id": "way/345762491",
      "properties": {
        "timestamp": "2021-05-16T15:10:44Z",
        "version": 4,
        "changeset": 104773306,
        "addr:city": "Palotina",
        "addr:housenumber": "1280",
        "addr:postcode": "85950-000",
        "addr:street": "Rua 5 de Julho",
        "addr:suburb": "Centro",
        "amenity": "school",
        "name": "Colégio Estadual Barão do Rio Branco",
        "phone": "+55 44 3649 5315",
        "website": "http://www.potriobranco.seed.pr.gov.br/",
        "id": "way/345762491"
      },
      "geometry": {
        "type": "Polygon",
        "coordinates": [
          [
            [
              -53.8356456,
              -24.284756
            ],
            [
              -53.8354581,
              -24.2853327
            ],
            [
              -53.8345104,
              -24.2850767
            ],
            [
              -53.8345997,
              -24.2848021
            ],
            [
              -53.8346753,
              -24.2845696
            ],
            [
              -53.8347057,
              -24.2844761
            ],
            [
              -53.8352037,
              -24.2846106
            ],
            [
              -53.8351959,
              -24.2846345
            ],
            [
              -53.8352061,
              -24.2846372
            ],
            [
              -53.8353115,
              -24.2846657
            ],
            [
              -53.8355442,
              -24.2847286
            ],
            [
              -53.8355767,
              -24.2847374
            ],
            [
              -53.8356456,
              -24.284756
            ]
          ]
        ]
      }
    },
    {
      "type": "Feature",
      "id": "way/345796894",
      "properties": {
        "timestamp": "2019-06-10T17:07:42Z",
        "version": 3,
        "changeset": 71111093,
        "addr:city": "Palotina",
        "addr:housenumber": "512",
        "addr:postcode": "85950-000",
        "addr:street": "Rua Vereador Antônio Pozzan",
        "addr:suburb": "Centro",
        "amenity": "school",
        "name": "Centro de Excelência em Educação",
        "phone": "+55 44 3649 5145",
        "short_name": "CEEDUC",
        "website": "http://www.colegioceeduc.com.br/",
        "id": "way/345796894"
      },
      "geometry": {
        "type": "Polygon",
        "coordinates": [
          [
            [
              -53.8422079,
              -24.2803838
            ],
            [
              -53.8422415,
              -24.280278
            ],
            [
              -53.8423654,
              -24.2798877
            ],
            [
              -53.8428339,
              -24.2800112
            ],
            [
              -53.8428678,
              -24.2799045
            ],
            [
              -53.8430609,
              -24.2799555
            ],
            [
              -53.8428696,
              -24.2805583
            ],
            [
              -53.8427508,
              -24.280527
            ],
            [
              -53.842579,
              -24.2804817
            ],
            [
              -53.8423049,
              -24.2804094
            ],
            [
              -53.8422079,
              -24.2803838
            ]
          ]
        ]
      }
    },
    {
      "type": "Feature",
      "id": "way/345796895",
      "properties": {
        "timestamp": "2024-09-29T22:32:29Z",
        "version": 6,
        "changeset": 157273026,
        "addr:city": "Palotina",
        "addr:housenumber": "486",
        "addr:postcode": "85950-000",
        "addr:street": "Rua Dom Pedro I",
        "addr:suburb": "Centro",
        "amenity": "school",
        "name": "AGAMI",
        "id": "way/345796895"
      },
      "geometry": {
        "type": "Polygon",
        "coordinates": [
          [
            [
              -53.8451331,
              -24.2811767
            ],
            [
              -53.8449789,
              -24.2811351
            ],
            [
              -53.8445687,
              -24.2810245
            ],
            [
              -53.8444666,
              -24.280997
            ],
            [
              -53.8445139,
              -24.2808515
            ],
            [
              -53.8446656,
              -24.2803842
            ],
            [
              -53.8451354,
              -24.2805092
            ],
            [
              -53.8451881,
              -24.2803447
            ],
            [
              -53.8452676,
              -24.2800965
            ],
            [
              -53.8454623,
              -24.280149
            ],
            [
              -53.845383,
              -24.2803965
            ],
            [
              -53.8452165,
              -24.2809163
            ],
            [
              -53.8451331,
              -24.2811767
            ]
          ]
        ]
      }
    },
    {
      "type": "Feature",
      "id": "way/354959261",
      "properties": {
        "timestamp": "2024-08-31T19:28:58Z",
        "version": 4,
        "changeset": 156029519,
        "addr:city": "Palotina",
        "addr:housenumber": "671",
        "addr:postcode": "85950-000",
        "addr:street": "Rua 1º de Janeiro",
        "addr:suburb": "Por do Sol",
        "amenity": "school",
        "name": "Colégio Cecília Meireles",
        "phone": "+55 44 3649 3432",
        "website": "https://ceciliameireles.com/",
        "id": "way/354959261"
      },
      "geometry": {
        "type": "Polygon",
        "coordinates": [
          [
            [
              -53.8445685,
              -24.278214
            ],
            [
              -53.8451691,
              -24.2783699
            ],
            [
              -53.8451698,
              -24.2784869
            ],
            [
              -53.8451722,
              -24.2788557
            ],
            [
              -53.8451503,
              -24.2789231
            ],
            [
              -53.8446436,
              -24.2787852
            ],
            [
              -53.8445567,
              -24.2787616
            ],
            [
              -53.8445685,
              -24.278214
            ]
          ]
        ]
      }
    },
    {
      "type": "Feature",
      "id": "way/356796852",
      "properties": {
        "timestamp": "2024-09-29T13:52:07Z",
        "version": 6,
        "changeset": 157254673,
        "addr:city": "Palotina",
        "addr:country": "BR",
        "addr:housenumber": "1513",
        "addr:postcode": "85950-000",
        "addr:street": "Avenida Shirley Saurin",
        "addr:suburb": "Jardim Ouro Verde",
        "amenity": "school",
        "name": "Escola Estadual Professora Shirley Saurin e Centro de Atenção Integral a Criança e ao Adolescente",
        "operator": "Estado do Paraná",
        "phone": "+55 44 3649 1722",
        "short_name": "CAIC",
        "id": "way/356796852"
      },
      "geometry": {
        "type": "Polygon",
        "coordinates": [
          [
            [
              -53.8379494,
              -24.263984
            ],
            [
              -53.8395271,
              -24.2639722
            ],
            [
              -53.8395298,
              -24.2647803
            ],
            [
              -53.839416,
              -24.2647802
            ],
            [
              -53.8385014,
              -24.2647831
            ],
            [
              -53.8380155,
              -24.2647793
            ],
            [
              -53.837963,
              -24.2647789
            ],
            [
              -53.8373946,
              -24.2647772
            ],
            [
              -53.8373505,
              -24.2647771
            ],
            [
              -53.8373505,
              -24.2643136
            ],
            [
              -53.8373506,
              -24.2632465
            ],
            [
              -53.8379517,
              -24.2632294
            ],
            [
              -53.8379494,
              -24.263984
            ]
          ]
        ]
      }
    },
    {
      "type": "Feature",
      "id": "way/548624739",
      "properties": {
        "timestamp": "2019-02-09T21:43:27Z",
        "version": 2,
        "changeset": 67059751,
        "addr:city": "Palotina",
        "addr:country": "BR",
        "addr:housenumber": "292",
        "addr:place": "Escola Estadual Santa Terezinha e Escola Municipal Vale Verde",
        "addr:postcode": "85950-000",
        "addr:street": "Avenida Werno Bruno Ritter",
        "addr:suburb": "União",
        "amenity": "school",
        "name": "Escola Estadual Santa Terezinha e Escola Municipal Vale Verde",
        "id": "way/548624739"
      },
      "geometry": {
        "type": "Polygon",
        "coordinates": [
          [
            [
              -53.851357,
              -24.2876166
            ],
            [
              -53.8505025,
              -24.2873827
            ],
            [
              -53.8506444,
              -24.2869507
            ],
            [
              -53.8514993,
              -24.2871847
            ],
            [
              -53.851357,
              -24.2876166
            ]
          ]
        ]
      }
    },
    {
      "type": "Feature",
      "id": "way/669357449",
      "properties": {
        "timestamp": "2019-02-09T21:43:28Z",
        "version": 2,
        "changeset": 67059751,
        "addr:city": "Palotina",
        "addr:country": "BR",
        "addr:housenumber": "230",
        "addr:place": "Escola Municipal Celino Rocha de Araujo",
        "addr:postcode": "85950-000",
        "addr:street": "Rua das Orquídeas",
        "addr:suburb": "COHAPAR",
        "amenity": "school",
        "name": "Escola Estadual Domingos Francisco Zardo e Escola Municipal Celino Rocha de Araujo",
        "operator": "Estado do Paraná e Município de Palotina",
        "phone": "+55 44 3649 4859",
        "id": "way/669357449"
      },
      "geometry": {
        "type": "Polygon",
        "coordinates": [
          [
            [
              -53.8510124,
              -24.2741968
            ],
            [
              -53.8509998,
              -24.2755899
            ],
            [
              -53.8504064,
              -24.2755854
            ],
            [
              -53.850419,
              -24.2741923
            ],
            [
              -53.8510124,
              -24.2741968
            ]
          ]
        ]
      }
    },
    {
      "type": "Feature",
      "id": "way/669357450",
      "properties": {
        "timestamp": "2019-02-09T15:04:54Z",
        "version": 1,
        "changeset": 67051156,
        "addr:city": "Palotina",
        "addr:country": "BR",
        "addr:housenumber": "838",
        "addr:place": "CMEI Arco-Íris",
        "addr:postcode": "85950-000",
        "addr:street": "Rua Cartola",
        "addr:suburb": "Dallas",
        "amenity": "school",
        "name": "CMEI Arco-Íris",
        "operator": "Município de Palotina",
        "phone": "+55 44 3649 3680",
        "wheelchair": "yes",
        "id": "way/669357450"
      },
      "geometry": {
        "type": "Polygon",
        "coordinates": [
          [
            [
              -53.8391186,
              -24.3005558
            ],
            [
              -53.8386801,
              -24.3004384
            ],
            [
              -53.8385717,
              -24.3007747
            ],
            [
              -53.8381927,
              -24.3006732
            ],
            [
              -53.8383179,
              -24.3002846
            ],
            [
              -53.8384971,
              -24.2997286
            ],
            [
              -53.8387101,
              -24.2997856
            ],
            [
              -53.8390204,
              -24.2998687
            ],
            [
              -53.8393146,
              -24.2999474
            ],
            [
              -53.8391186,
              -24.3005558
            ]
          ]
        ]
      }
    },
    {
      "type": "Feature",
      "id": "way/669418136",
      "properties": {
        "timestamp": "2020-04-26T13:56:31Z",
        "version": 3,
        "changeset": 84143380,
        "addr:city": "Palotina",
        "addr:country": "BR",
        "addr:housenumber": "1038",
        "addr:postcode": "85950-000",
        "addr:street": "Rua Monteiro Lobato",
        "addr:suburb": "Centro",
        "amenity": "school",
        "building": "school",
        "name": "CEEBJA Palotina",
        "operator": "Estado do Paraná",
        "phone": "+55 44 3649 5214",
        "id": "way/669418136"
      },
      "geometry": {
        "type": "Polygon",
        "coordinates": [
          [
            [
              -53.8383272,
              -24.2875048
            ],
            [
              -53.8382824,
              -24.2874927
            ],
            [
              -53.8383033,
              -24.2874285
            ],
            [
              -53.8383247,
              -24.2874343
            ],
            [
              -53.8383459,
              -24.2874401
            ],
            [
              -53.8383501,
              -24.2874274
            ],
            [
              -53.8384707,
              -24.2874601
            ],
            [
              -53.8384679,
              -24.2874686
            ],
            [
              -53.8384124,
              -24.2876385
            ],
            [
              -53.838313,
              -24.2876115
            ],
            [
              -53.8382941,
              -24.2876064
            ],
            [
              -53.8383272,
              -24.2875048
            ]
          ]
        ]
      }
    },
    {
      "type": "Feature",
      "id": "way/669418137",
      "properties": {
        "timestamp": "2019-02-09T21:43:25Z",
        "version": 1,
        "changeset": 67059751,
        "addr:city": "Palotina",
        "addr:country": "BR",
        "addr:housenumber": "2785",
        "addr:place": "Escola Estadual Tancredo Neves",
        "addr:postcode": "85950-000",
        "addr:street": "Rua 21 de Abril",
        "addr:suburb": "Osvaldo Cruz",
        "amenity": "school",
        "name": "Escola Estadual Tancredo Neves",
        "operator": "Estado do Paraná",
        "phone": "+55 44 3649 0655",
        "id": "way/669418137"
      },
      "geometry": {
        "type": "Polygon",
        "coordinates": [
          [
            [
              -53.8334349,
              -24.2992748
            ],
            [
              -53.8329823,
              -24.2991594
            ],
            [
              -53.8331038,
              -24.2987639
            ],
            [
              -53.8335563,
              -24.2988794
            ],
            [
              -53.8334724,
              -24.2991527
            ],
            [
              -53.8334349,
              -24.2992748
            ]
          ]
        ]
      }
    },
    {
      "type": "Feature",
      "id": "way/669418138",
      "properties": {
        "timestamp": "2024-10-01T23:12:30Z",
        "version": 3,
        "changeset": 157359553,
        "addr:city": "Palotina",
        "addr:country": "BR",
        "addr:housenumber": "265",
        "addr:postcode": "85950-000",
        "addr:street": "Rua São Paulo",
        "addr:suburb": "Pioneiro",
        "amenity": "school",
        "name": "Escola Leonardo Da Vinci",
        "operator": "Município de Palotina",
        "phone": "+55 44 3649 5663",
        "id": "way/669418138"
      },
      "geometry": {
        "type": "Polygon",
        "coordinates": [
          [
            [
              -53.8258377,
              -24.2819006
            ],
            [
              -53.8258074,
              -24.2819991
            ],
            [
              -53.8257397,
              -24.282198
            ],
            [
              -53.8257845,
              -24.2822103
            ],
            [
              -53.8257295,
              -24.2823775
            ],
            [
              -53.825688,
              -24.2824936
            ],
            [
              -53.8254164,
              -24.2824206
            ],
            [
              -53.8256043,
              -24.2818401
            ],
            [
              -53.8258316,
              -24.2818987
            ],
            [
              -53.8258377,
              -24.2819006
            ]
          ]
        ]
      }
    },
    {
      "type": "Feature",
      "id": "way/669516143",
      "properties": {
        "timestamp": "2022-05-11T02:16:49Z",
        "version": 2,
        "changeset": 120816024,
        "addr:city": "Palotina",
        "addr:country": "BR",
        "addr:housenumber": "599",
        "addr:place": "APAE",
        "addr:postcode": "85950-000",
        "addr:street": "Rua Duque de Caxias",
        "addr:suburb": "Centro",
        "amenity": "school",
        "name": "Rouxinol, E-EI EF MOD ED ESP",
        "operator": "APAE Brasil",
        "phone": "+55 44 3649 2237",
        "short_name": "APAE",
        "website": "https://palotina.apaepr.org.br/",
        "id": "way/669516143"
      },
      "geometry": {
        "type": "Polygon",
        "coordinates": [
          [
            [
              -53.8446176,
              -24.2820808
            ],
            [
              -53.8447622,
              -24.2816455
            ],
            [
              -53.8453367,
              -24.2818041
            ],
            [
              -53.8451922,
              -24.2822394
            ],
            [
              -53.8447161,
              -24.282108
            ],
            [
              -53.8446176,
              -24.2820808
            ]
          ]
        ]
      }
    },
    {
      "type": "Feature",
      "id": "way/824027935",
      "properties": {
        "timestamp": "2020-07-08T04:26:00Z",
        "version": 1,
        "changeset": 87682995,
        "amenity": "school",
        "name": "Escola Municipal Vereador Luis Moacir Percicotti",
        "id": "way/824027935"
      },
      "geometry": {
        "type": "Polygon",
        "coordinates": [
          [
            [
              -53.8319845,
              -24.2746775
            ],
            [
              -53.8317842,
              -24.2746831
            ],
            [
              -53.8317934,
              -24.2743095
            ],
            [
              -53.8320861,
              -24.2743123
            ],
            [
              -53.8320861,
              -24.2745258
            ],
            [
              -53.8319845,
              -24.2745314
            ],
            [
              -53.8319845,
              -24.2746775
            ]
          ]
        ]
      }
    },
    {
      "type": "Feature",
      "id": "way/1231068029",
      "properties": {
        "timestamp": "2023-12-14T11:00:53Z",
        "version": 1,
        "changeset": 145107089,
        "amenity": "school",
        "disused": "yes",
        "name": "Escola Municipal Padre José de Anchieta",
        "id": "way/1231068029"
      },
      "geometry": {
        "type": "Polygon",
        "coordinates": [
          [
            [
              -53.8332483,
              -24.3471501
            ],
            [
              -53.8332493,
              -24.3472033
            ],
            [
              -53.8332515,
              -24.3473239
            ],
            [
              -53.8332573,
              -24.3476403
            ],
            [
              -53.8331647,
              -24.3476355
            ],
            [
              -53.8324323,
              -24.3476343
            ],
            [
              -53.832356,
              -24.3476342
            ],
            [
              -53.8323554,
              -24.3471575
            ],
            [
              -53.8332483,
              -24.3471501
            ]
          ]
        ]
      }
    },
    {
      "type": "Feature",
      "id": "way/1257133722",
      "properties": {
        "timestamp": "2024-03-03T12:48:33Z",
        "version": 1,
        "changeset": 148164475,
        "amenity": "school",
        "id": "way/1257133722"
      },
      "geometry": {
        "type": "Polygon",
        "coordinates": [
          [
            [
              -53.8410057,
              -24.2894676
            ],
            [
              -53.8409925,
              -24.2895082
            ],
            [
              -53.8409581,
              -24.2896137
            ],
            [
              -53.8409491,
              -24.2896414
            ],
            [
              -53.8408872,
              -24.2896247
            ],
            [
              -53.8408823,
              -24.2896234
            ],
            [
              -53.8408447,
              -24.2896132
            ],
            [
              -53.8408222,
              -24.2896071
            ],
            [
              -53.8407621,
              -24.2895908
            ],
            [
              -53.8407784,
              -24.2895408
            ],
            [
              -53.84079,
              -24.2895053
            ],
            [
              -53.8408067,
              -24.2894539
            ],
            [
              -53.8408187,
              -24.289417
            ],
            [
              -53.8408242,
              -24.2894002
            ],
            [
              -53.8408743,
              -24.2892464
            ],
            [
              -53.8409344,
              -24.2892627
            ],
            [
              -53.8410613,
              -24.289297
            ],
            [
              -53.8410323,
              -24.2893858
            ],
            [
              -53.8410057,
              -24.2894676
            ]
          ]
        ]
      }
    },
    {
      "type": "Feature",
      "id": "node/3524460714",
      "properties": {
        "timestamp": "2022-04-21T18:01:52Z",
        "version": 3,
        "changeset": 120013500,
        "traffic_calming": "bump",
        "id": "node/3524460714"
      },
      "geometry": {
        "type": "Point",
        "coordinates": [
          -53.8446656,
          -24.2803842
        ]
      }
    },
    {
      "type": "Feature",
      "id": "node/6268064091",
      "properties": {
        "timestamp": "2019-02-09T15:04:53Z",
        "version": 1,
        "changeset": 67051156,
        "entrance": "main",
        "id": "node/6268064091"
      },
      "geometry": {
        "type": "Point",
        "coordinates": [
          -53.8345997,
          -24.2848021
        ]
      }
    },
    {
      "type": "Feature",
      "id": "node/6268064094",
      "properties": {
        "timestamp": "2019-02-09T15:04:53Z",
        "version": 1,
        "changeset": 67051156,
        "entrance": "main",
        "id": "node/6268064094"
      },
      "geometry": {
        "type": "Point",
        "coordinates": [
          -53.8350065,
          -24.2842682
        ]
      }
    },
    {
      "type": "Feature",
      "id": "node/6268064102",
      "properties": {
        "timestamp": "2019-02-09T15:04:53Z",
        "version": 1,
        "changeset": 67051156,
        "entrance": "yes",
        "id": "node/6268064102"
      },
      "geometry": {
        "type": "Point",
        "coordinates": [
          -53.8387101,
          -24.2997856
        ]
      }
    },
    {
      "type": "Feature",
      "id": "node/6268064105",
      "properties": {
        "timestamp": "2019-02-09T15:04:53Z",
        "version": 1,
        "changeset": 67051156,
        "entrance": "main",
        "id": "node/6268064105"
      },
      "geometry": {
        "type": "Point",
        "coordinates": [
          -53.8390204,
          -24.2998687
        ]
      }
    },
    {
      "type": "Feature",
      "id": "node/6268701490",
      "properties": {
        "timestamp": "2020-04-26T13:56:31Z",
        "version": 3,
        "changeset": 84143380,
        "entrance": "main",
        "id": "node/6268701490"
      },
      "geometry": {
        "type": "Point",
        "coordinates": [
          -53.8383247,
          -24.2874343
        ]
      }
    },
    {
      "type": "Feature",
      "id": "node/6268701503",
      "properties": {
        "timestamp": "2019-02-16T11:27:52Z",
        "version": 2,
        "changeset": 67251609,
        "entrance": "main",
        "id": "node/6268701503"
      },
      "geometry": {
        "type": "Point",
        "coordinates": [
          -53.8373505,
          -24.2643136
        ]
      }
    },
    {
      "type": "Feature",
      "id": "node/6268701504",
      "properties": {
        "timestamp": "2019-02-09T21:43:25Z",
        "version": 1,
        "changeset": 67059751,
        "entrance": "main",
        "id": "node/6268701504"
      },
      "geometry": {
        "type": "Point",
        "coordinates": [
          -53.8334724,
          -24.2991527
        ]
      }
    },
    {
      "type": "Feature",
      "id": "node/6268701509",
      "properties": {
        "timestamp": "2020-08-04T17:24:12Z",
        "version": 2,
        "changeset": 88941217,
        "entrance": "main",
        "id": "node/6268701509"
      },
      "geometry": {
        "type": "Point",
        "coordinates": [
          -53.8258074,
          -24.2819991
        ]
      }
    },
    {
      "type": "Feature",
      "id": "node/6269673670",
      "properties": {
        "timestamp": "2019-02-10T14:28:56Z",
        "version": 1,
        "changeset": 67072997,
        "entrance": "main",
        "id": "node/6269673670"
      },
      "geometry": {
        "type": "Point",
        "coordinates": [
          -53.8447161,
          -24.282108
        ]
      }
    },
    {
      "type": "Feature",
      "id": "node/6537570744",
      "properties": {
        "timestamp": "2019-06-10T17:07:42Z",
        "version": 1,
        "changeset": 71111093,
        "highway": "crossing",
        "id": "node/6537570744"
      },
      "geometry": {
        "type": "Point",
        "coordinates": [
          -53.842579,
          -24.2804817
        ]
      }
    },
    {
      "type": "Feature",
      "id": "node/6537570745",
      "properties": {
        "timestamp": "2019-06-10T17:07:42Z",
        "version": 1,
        "changeset": 71111093,
        "traffic_calming": "bump",
        "id": "node/6537570745"
      },
      "geometry": {
        "type": "Point",
        "coordinates": [
          -53.8427508,
          -24.280527
        ]
      }
    },
    {
      "type": "Feature",
      "id": "node/6537570746",
      "properties": {
        "timestamp": "2019-06-10T17:07:42Z",
        "version": 1,
        "changeset": 71111093,
        "highway": "crossing",
        "id": "node/6537570746"
      },
      "geometry": {
        "type": "Point",
        "coordinates": [
          -53.8423049,
          -24.2804094
        ]
      }
    },
    {
      "type": "Feature",
      "id": "node/6537570747",
      "properties": {
        "timestamp": "2024-09-29T22:32:29Z",
        "version": 2,
        "changeset": 157273026,
        "highway": "crossing",
        "traffic_calming": "table",
        "id": "node/6537570747"
      },
      "geometry": {
        "type": "Point",
        "coordinates": [
          -53.8422415,
          -24.280278
        ]
      }
    },
    {
      "type": "Feature",
      "id": "node/6556242600",
      "properties": {
        "timestamp": "2019-06-18T21:04:34Z",
        "version": 1,
        "changeset": 71380530,
        "traffic_calming": "bump",
        "id": "node/6556242600"
      },
      "geometry": {
        "type": "Point",
        "coordinates": [
          -53.8380155,
          -24.2647793
        ]
      }
    },
    {
      "type": "Feature",
      "id": "node/6556242606",
      "properties": {
        "timestamp": "2024-09-29T22:32:29Z",
        "version": 2,
        "changeset": 157273026,
        "traffic_calming": "bump",
        "id": "node/6556242606"
      },
      "geometry": {
        "type": "Point",
        "coordinates": [
          -53.8449789,
          -24.2811351
        ]
      }
    },
    {
      "type": "Feature",
      "id": "node/9683389410",
      "properties": {
        "timestamp": "2024-09-29T22:32:29Z",
        "version": 2,
        "changeset": 157273026,
        "traffic_calming": "bump",
        "id": "node/9683389410"
      },
      "geometry": {
        "type": "Point",
        "coordinates": [
          -53.8445687,
          -24.2810245
        ]
      }
    },
    {
      "type": "Feature",
      "id": "node/9683389411",
      "properties": {
        "timestamp": "2022-04-21T18:01:52Z",
        "version": 1,
        "changeset": 120013500,
        "traffic_calming": "bump",
        "id": "node/9683389411"
      },
      "geometry": {
        "type": "Point",
        "coordinates": [
          -53.8445139,
          -24.2808515
        ]
      }
    },
    {
      "type": "Feature",
      "id": "node/9683430119",
      "properties": {
        "timestamp": "2022-04-21T18:01:52Z",
        "version": 1,
        "changeset": 120013500,
        "crossing": "marked",
        "highway": "crossing",
        "traffic_calming": "table",
        "id": "node/9683430119"
      },
      "geometry": {
        "type": "Point",
        "coordinates": [
          -53.8446436,
          -24.2787852
        ]
      }
    },
    {
      "type": "Feature",
      "id": "node/12208964533",
      "properties": {
        "timestamp": "2024-09-29T13:52:07Z",
        "version": 1,
        "changeset": 157254673,
        "traffic_calming": "table",
        "id": "node/12208964533"
      },
      "geometry": {
        "type": "Point",
        "coordinates": [
          -53.8373946,
          -24.2647772
        ]
      }
    }
  ]
}
