{
  "type": "FeatureCollection",
  "features": [
    {
      "type": "Feature",
      "id": "node/4701104628",
      "properties": {
        "timestamp": "2022-07-11T05:10:22Z",
        "version": 3,
        "changeset": 123454463,
        "addr:city": "Canoas",
        "addr:housenumber": "6750",
        "addr:postcode": "92310-001",
        "addr:street": "Avenida Guilherme Schell",
        "air_conditioning": "yes",
        "amenity": "cinema",
        "brand": "Cinemark",
        "brand:wikidata": "Q707530",
        "brand:wikipedia": "en:Cinemark Theatres",
        "level": "2",
        "name": "Cinemark Canoas",
        "screen": "7",
        "website": "https://www.cinemark.com.br/canoas/cinemas?cinema=693",
        "wheelchair": "yes",
        "id": "node/4701104628"
      },
      "geometry": {
        "type": "Point",
        "coordinates": [
          -51.1837172,
          -29.9107681
        ]
      }
    },
    {
      "type": "Feature",
      "id": "node/9880198203",
      "properties": {
        "timestamp": "2024-02-06T00:08:23Z",
        "version": 3,
        "changeset": 147113782,
        "addr:housenumber": "4545",
        "addr:street": "Avenida Farroupilha",
        "air_conditioning": "yes",
        "amenity": "cinema",
        "brand": "UCI",
        "brand:wikidata": "Q521922",
        "check_date": "2024-02-05",
        "level": "3",
        "name": "UCI ParkShopping Canoas",
        "opening_hours": "Mo-Su 14:30-22:30",
        "payment:cash": "yes",
        "payment:contactless": "yes",
        "payment:credit_cards": "yes",
        "payment:debit_cards": "yes",
        "payment:mastercard": "yes",
        "payment:pix": "yes",
        "payment:visa": "yes",
        "screen": "7",
        "website": "https://www.ucicinemas.com.br/Cinemas/UCI-PARKSHOPPING-CANOAS/info",
        "wheelchair": "yes",
        "id": "node/9880198203"
      },
      "geometry": {
        "type": "Point",
        "coordinates": [
          -51.1642466,
          -29.9146281
        ]
      }
    }
  ]
}
