{
  "type": "FeatureCollection",
  "features": [
    {
      "type": "Feature",
      "id": "way/571440303",
      "properties": {
        "timestamp": "2024-01-21T20:55:21Z",
        "version": 3,
        "changeset": 146527766,
        "addr:city": "Canoas",
        "addr:housenumber": "340",
        "addr:street": "Rua Allan Kardec",
        "amenity": "kindergarten",
        "name": "E.M.E.I Idara Rocha",
        "phone": "+55 51 3475 8178",
        "id": "way/571440303"
      },
      "geometry": {
        "type": "Polygon",
        "coordinates": [
          [
            [
              -51.1957253,
              -29.9489295
            ],
            [
              -51.1955712,
              -29.9493017
            ],
            [
              -51.1945438,
              -29.9490873
            ],
            [
              -51.1946092,
              -29.9489052
            ],
            [
              -51.1952537,
              -29.9488081
            ],
            [
              -51.1957253,
              -29.9489295
            ]
          ]
        ]
      }
    },
    {
      "type": "Feature",
      "id": "way/683800130",
      "properties": {
        "timestamp": "2019-04-14T22:58:08Z",
        "version": 1,
        "changeset": 69215940,
        "addr:city": "Canoas",
        "addr:housenumber": "370",
        "addr:postcode": "92010-200",
        "addr:street": "Rua Regente Feijó",
        "addr:suburb": "centro",
        "amenity": "kindergarten",
        "area": "yes",
        "name": "Recanto do Maranguinho",
        "id": "way/683800130"
      },
      "geometry": {
        "type": "Polygon",
        "coordinates": [
          [
            [
              -51.178518,
              -29.9143086
            ],
            [
              -51.1785336,
              -29.914538
            ],
            [
              -51.1784129,
              -29.9145515
            ],
            [
              -51.1783974,
              -29.914312
            ],
            [
              -51.178518,
              -29.9143086
            ]
          ]
        ]
      }
    },
    {
      "type": "Feature",
      "id": "node/3606228200",
      "properties": {
        "timestamp": "2015-06-20T02:18:35Z",
        "version": 1,
        "changeset": 32087809,
        "addr:housenumber": "405",
        "addr:postcode": "92310-114",
        "addr:street": "Rua Araçá",
        "amenity": "kindergarten",
        "contact:phone": "+55 51 3465-4876",
        "name": "Escola de educação Infantil Pequeninos",
        "id": "node/3606228200"
      },
      "geometry": {
        "type": "Point",
        "coordinates": [
          -51.1846665,
          -29.9236949
        ]
      }
    },
    {
      "type": "Feature",
      "id": "node/5512327062",
      "properties": {
        "timestamp": "2021-01-24T23:54:52Z",
        "version": 2,
        "changeset": 98078970,
        "addr:city": "Canoas",
        "addr:housenumber": "1991",
        "addr:postcode": "92415-570",
        "addr:street": "Avenida 17 de Abril",
        "amenity": "kindergarten",
        "name": "Cara Melada",
        "phone": "+55 51 3468 4808",
        "id": "node/5512327062"
      },
      "geometry": {
        "type": "Point",
        "coordinates": [
          -51.135998,
          -29.8906424
        ]
      }
    },
    {
      "type": "Feature",
      "id": "node/9755987072",
      "properties": {
        "timestamp": "2022-05-20T00:14:10Z",
        "version": 1,
        "changeset": 121218174,
        "addr:city": "Canoas",
        "addr:housenumber": "460",
        "addr:postcode": "92200-610",
        "addr:street": "Rua Edgar Fritz Muller",
        "addr:suburb": "Rio Branco",
        "amenity": "kindergarten",
        "name": "E.M.E.I. Meu Pedacinho de Chão",
        "phone": "+55 51 3476 1038",
        "id": "node/9755987072"
      },
      "geometry": {
        "type": "Point",
        "coordinates": [
          -51.1813683,
          -29.9584466
        ]
      }
    }
  ]
}
