{
  "type": "FeatureCollection",
  "features": [
    {
      "type": "Feature",
      "id": "relation/12230476",
      "properties": {
        "timestamp": "2021-01-25T00:28:25Z",
        "version": 1,
        "changeset": 98079519,
        "addr:city": "Canoas",
        "addr:housenumber": "321",
        "addr:postcode": "92035-525",
        "addr:street": "Rua Santa Fé",
        "amenity": "school",
        "name": "E.M.E.I Laney Langaro",
        "phone": "+55 51 3428 6822",
        "type": "multipolygon",
        "id": "relation/12230476"
      },
      "geometry": {
        "type": "Polygon",
        "coordinates": [
          [
            [
              -51.1284935,
              -29.9196336
            ],
            [
              -51.1277757,
              -29.9195128
            ],
            [
              -51.1278632,
              -29.919156
            ],
            [
              -51.1286036,
              -29.9192886
            ],
            [
              -51.1284935,
              -29.9196336
            ]
          ]
        ]
      }
    },
    {
      "type": "Feature",
      "id": "relation/12230528",
      "properties": {
        "timestamp": "2021-02-26T22:56:43Z",
        "version": 2,
        "changeset": 100078004,
        "addr:city": "Canoas",
        "addr:housenumber": "164",
        "addr:postcode": "92032-300",
        "addr:street": "Rua Pinhal",
        "addr:suburb": "Estancia Velha",
        "amenity": "school",
        "name": "EMEI Ulisses Machado Filho",
        "phone": "+55 51 3466 1093",
        "type": "multipolygon",
        "id": "relation/12230528"
      },
      "geometry": {
        "type": "Polygon",
        "coordinates": [
          [
            [
              -51.1449223,
              -29.9205801
            ],
            [
              -51.144408,
              -29.9206095
            ],
            [
              -51.1443528,
              -29.9198827
            ],
            [
              -51.144867,
              -29.9198534
            ],
            [
              -51.1449223,
              -29.9205801
            ]
          ]
        ]
      }
    },
    {
      "type": "Feature",
      "id": "relation/12230529",
      "properties": {
        "timestamp": "2021-02-26T22:48:08Z",
        "version": 2,
        "changeset": 100077809,
        "addr:city": "Canoas",
        "addr:housenumber": "25",
        "addr:postcode": "92025-760",
        "addr:street": "Rua Pinhal",
        "addr:suburb": "Estancia Velha",
        "amenity": "school",
        "name": "EMEF Engenheiro Ildo Meneghetti",
        "phone": "+55 51 3472 9125",
        "type": "multipolygon",
        "id": "relation/12230529"
      },
      "geometry": {
        "type": "Polygon",
        "coordinates": [
          [
            [
              -51.144867,
              -29.9198534
            ],
            [
              -51.14567,
              -29.9198054
            ],
            [
              -51.1457279,
              -29.9205318
            ],
            [
              -51.1449223,
              -29.9205801
            ],
            [
              -51.144867,
              -29.9198534
            ]
          ]
        ]
      }
    },
    {
      "type": "Feature",
      "id": "relation/12341436",
      "properties": {
        "timestamp": "2021-02-20T12:13:30Z",
        "version": 1,
        "changeset": 99638583,
        "addr:city": "Canoas",
        "addr:street": "Rua Vereador Antônio Ferreira Alves",
        "addr:suburb": "Mathias Velho",
        "amenity": "school",
        "name": "Escola Rio De Janeiro",
        "type": "multipolygon",
        "id": "relation/12341436"
      },
      "geometry": {
        "type": "Polygon",
        "coordinates": [
          [
            [
              -51.1906433,
              -29.9091081
            ],
            [
              -51.1891011,
              -29.9091853
            ],
            [
              -51.1890365,
              -29.9086172
            ],
            [
              -51.1905654,
              -29.9085497
            ],
            [
              -51.1906433,
              -29.9091081
            ]
          ]
        ]
      }
    },
    {
      "type": "Feature",
      "id": "relation/12342327",
      "properties": {
        "timestamp": "2021-02-20T17:45:07Z",
        "version": 1,
        "changeset": 99653779,
        "addr:city": "Canoas",
        "addr:street": "Rua Derly da Costa Leite",
        "amenity": "school",
        "name": "EMEI Irmã Schies Stefanny",
        "phone": "+55 51 8943 9149",
        "type": "multipolygon",
        "id": "relation/12342327"
      },
      "geometry": {
        "type": "Polygon",
        "coordinates": [
          [
            [
              -51.1980639,
              -29.9093255
            ],
            [
              -51.1980396,
              -29.9089528
            ],
            [
              -51.1987467,
              -29.9089182
            ],
            [
              -51.198771,
              -29.9092908
            ],
            [
              -51.1980639,
              -29.9093255
            ]
          ]
        ]
      }
    },
    {
      "type": "Feature",
      "id": "relation/12342338",
      "properties": {
        "timestamp": "2021-02-27T15:29:18Z",
        "version": 2,
        "changeset": 100102700,
        "addr:city": "Canoas",
        "addr:housenumber": "3430",
        "addr:postcode": "92330-001",
        "addr:street": "Avenida Rio Grande do Sul",
        "addr:suburb": "Mathias Velho",
        "amenity": "school",
        "name": "E.M.E.F Tereza Franciscutti",
        "type": "multipolygon",
        "id": "relation/12342338"
      },
      "geometry": {
        "type": "Polygon",
        "coordinates": [
          [
            [
              -51.2179925,
              -29.9018752
            ],
            [
              -51.2177075,
              -29.901892
            ],
            [
              -51.217113,
              -29.9019066
            ],
            [
              -51.2167859,
              -29.9017186
            ],
            [
              -51.2167252,
              -29.9016572
            ],
            [
              -51.2166994,
              -29.9015646
            ],
            [
              -51.2166893,
              -29.9014292
            ],
            [
              -51.2179511,
              -29.9013834
            ],
            [
              -51.2179925,
              -29.9018752
            ]
          ]
        ]
      }
    },
    {
      "type": "Feature",
      "id": "relation/12348439",
      "properties": {
        "timestamp": "2021-02-22T14:17:04Z",
        "version": 1,
        "changeset": 99753222,
        "addr:city": "Canoas",
        "addr:housenumber": "1431",
        "addr:postcode": "92120-190",
        "addr:street": "Rua Bagé",
        "amenity": "school",
        "name": "E.M.E.I. Tia Maria Lucia",
        "phone": "+55 51 3464 6489",
        "type": "multipolygon",
        "id": "relation/12348439"
      },
      "geometry": {
        "type": "Polygon",
        "coordinates": [
          [
            [
              -51.1616916,
              -29.9539648
            ],
            [
              -51.161099,
              -29.9534346
            ],
            [
              -51.1611232,
              -29.9534037
            ],
            [
              -51.1617198,
              -29.9534341
            ],
            [
              -51.1616916,
              -29.9539648
            ]
          ]
        ]
      }
    },
    {
      "type": "Feature",
      "id": "relation/12348444",
      "properties": {
        "timestamp": "2021-02-22T14:17:04Z",
        "version": 1,
        "changeset": 99753222,
        "addr:city": "Canoas",
        "addr:housenumber": "15",
        "addr:postcode": "92032-635",
        "addr:street": "Rua Jabuticabas",
        "amenity": "school",
        "name": "E.M.E.I. Teresinha Tergolina",
        "phone": "+55 3475 7440",
        "type": "multipolygon",
        "id": "relation/12348444"
      },
      "geometry": {
        "type": "Polygon",
        "coordinates": [
          [
            [
              -51.1396338,
              -29.9145768
            ],
            [
              -51.1391233,
              -29.9146143
            ],
            [
              -51.1390752,
              -29.9141224
            ],
            [
              -51.1395955,
              -29.9140916
            ],
            [
              -51.1396338,
              -29.9145768
            ]
          ]
        ]
      }
    },
    {
      "type": "Feature",
      "id": "relation/12348445",
      "properties": {
        "timestamp": "2021-02-27T20:58:43Z",
        "version": 2,
        "changeset": 100116013,
        "addr:city": "Canoas",
        "addr:housenumber": "461",
        "addr:postcode": "92420-250",
        "addr:street": "Rua João Leivas de Carvalho",
        "addr:suburb": "São José",
        "amenity": "school",
        "name": "Escola Municipal Miguel Lampert",
        "phone": "+55 51 3477 3833",
        "type": "multipolygon",
        "id": "relation/12348445"
      },
      "geometry": {
        "type": "Polygon",
        "coordinates": [
          [
            [
              -51.1749277,
              -29.8830937
            ],
            [
              -51.1749019,
              -29.8825589
            ],
            [
              -51.1759083,
              -29.8825225
            ],
            [
              -51.1759341,
              -29.8830571
            ],
            [
              -51.1749277,
              -29.8830937
            ]
          ]
        ]
      }
    },
    {
      "type": "Feature",
      "id": "relation/12373669",
      "properties": {
        "timestamp": "2021-04-07T21:45:17Z",
        "version": 2,
        "changeset": 102507810,
        "addr:city": "Canoas",
        "addr:housenumber": "1255",
        "addr:postcode": "92200-290",
        "addr:street": "Rua Pistóia",
        "addr:suburb": "Rio Branco",
        "amenity": "school",
        "name": "Escola Estadual Ensino Fundamental Antônio Francisco Lisboa",
        "type": "multipolygon",
        "id": "relation/12373669"
      },
      "geometry": {
        "type": "Polygon",
        "coordinates": [
          [
            [
              -51.1860094,
              -29.9541132
            ],
            [
              -51.1861625,
              -29.9536648
            ],
            [
              -51.1870352,
              -29.9538955
            ],
            [
              -51.1868769,
              -29.9543448
            ],
            [
              -51.1860094,
              -29.9541132
            ]
          ]
        ]
      }
    },
    {
      "type": "Feature",
      "id": "relation/12373682",
      "properties": {
        "timestamp": "2021-02-27T15:32:44Z",
        "version": 2,
        "changeset": 100102859,
        "addr:city": "Canoas",
        "addr:housenumber": "1320",
        "addr:postcode": "92410-350",
        "addr:street": "Avenida Boqueirão",
        "addr:suburb": "Igara",
        "amenity": "school",
        "name": "E.E.E.M Érico Veríssimo",
        "phone": "+55 51 3478 2427",
        "type": "multipolygon",
        "id": "relation/12373682"
      },
      "geometry": {
        "type": "Polygon",
        "coordinates": [
          [
            [
              -51.1625957,
              -29.9041224
            ],
            [
              -51.163488,
              -29.9041557
            ],
            [
              -51.1639519,
              -29.9037254
            ],
            [
              -51.164531,
              -29.9036127
            ],
            [
              -51.1649241,
              -29.9039365
            ],
            [
              -51.1643146,
              -29.9045871
            ],
            [
              -51.1631512,
              -29.904673
            ],
            [
              -51.1625957,
              -29.9041224
            ]
          ]
        ]
      }
    },
    {
      "type": "Feature",
      "id": "relation/12374892",
      "properties": {
        "timestamp": "2021-02-27T21:09:01Z",
        "version": 1,
        "changeset": 100116281,
        "addr:city": "Canoas",
        "addr:housenumber": "235",
        "addr:postcode": "92410-410",
        "addr:street": "Rua Madeira",
        "amenity": "school",
        "name": "EMEI Carrossel",
        "phone": "+55 51 3478 1146",
        "type": "multipolygon",
        "id": "relation/12374892"
      },
      "geometry": {
        "type": "Polygon",
        "coordinates": [
          [
            [
              -51.1631382,
              -29.9026172
            ],
            [
              -51.1629711,
              -29.9032578
            ],
            [
              -51.1624398,
              -29.9034522
            ],
            [
              -51.1626911,
              -29.9025261
            ],
            [
              -51.1631382,
              -29.9026172
            ]
          ]
        ]
      }
    },
    {
      "type": "Feature",
      "id": "relation/12378836",
      "properties": {
        "timestamp": "2023-11-08T12:28:37Z",
        "version": 2,
        "changeset": 143778176,
        "addr:city": "Canoas",
        "addr:housenumber": "1231",
        "addr:postcode": "92020-303",
        "addr:street": "Avenida Inconfidência",
        "addr:suburb": "Marechal Rondon",
        "amenity": "school",
        "name": "Colégio ULBRA Cristo Redentor",
        "phone": "+55 51 3472 5166",
        "type": "multipolygon",
        "website": "https://www.ulbra.br/cristoredentor",
        "id": "relation/12378836"
      },
      "geometry": {
        "type": "Polygon",
        "coordinates": [
          [
            [
              -51.1688113,
              -29.9222014
            ],
            [
              -51.168681,
              -29.9211091
            ],
            [
              -51.1696808,
              -29.9213942
            ],
            [
              -51.1697492,
              -29.9221196
            ],
            [
              -51.1688113,
              -29.9222014
            ]
          ]
        ]
      }
    },
    {
      "type": "Feature",
      "id": "relation/12394997",
      "properties": {
        "timestamp": "2021-03-03T22:33:27Z",
        "version": 1,
        "changeset": 100377234,
        "addr:city": "Canoas",
        "addr:housenumber": "421",
        "addr:postcode": "92325-090",
        "addr:street": "Rua Uruguaiana",
        "addr:suburb": "Mathias Velho",
        "amenity": "school",
        "name": "EMEF João Palma da Silva",
        "phone": "+55 51 3472 9322",
        "type": "multipolygon",
        "id": "relation/12394997"
      },
      "geometry": {
        "type": "Polygon",
        "coordinates": [
          [
            [
              -51.1995628,
              -29.9036376
            ],
            [
              -51.198312,
              -29.9037007
            ],
            [
              -51.1982831,
              -29.9032703
            ],
            [
              -51.1982796,
              -29.903218
            ],
            [
              -51.1995304,
              -29.9031548
            ],
            [
              -51.1995628,
              -29.9036376
            ]
          ]
        ]
      }
    },
    {
      "type": "Feature",
      "id": "relation/12394998",
      "properties": {
        "timestamp": "2021-03-03T22:33:27Z",
        "version": 1,
        "changeset": 100377234,
        "addr:city": "Canoas",
        "addr:housenumber": "400",
        "addr:postcode": "92330-010",
        "addr:street": "Rua Caçapava",
        "addr:suburb": "Mathias Velho",
        "amenity": "school",
        "name": "EMEF Bilíngue Para Surdos Vitoria",
        "type": "multipolygon",
        "id": "relation/12394998"
      },
      "geometry": {
        "type": "Polygon",
        "coordinates": [
          [
            [
              -51.1982831,
              -29.9032703
            ],
            [
              -51.198312,
              -29.9037007
            ],
            [
              -51.1972792,
              -29.9037561
            ],
            [
              -51.1972485,
              -29.903326
            ],
            [
              -51.1982831,
              -29.9032703
            ]
          ]
        ]
      }
    },
    {
      "type": "Feature",
      "id": "way/258016761",
      "properties": {
        "timestamp": "2021-01-25T00:44:29Z",
        "version": 3,
        "changeset": 98079765,
        "addr:city": "Canoas",
        "addr:housenumber": "400",
        "addr:postcode": "92325-560",
        "addr:street": "Rua Professora Dona Sara",
        "amenity": "school",
        "name": "Escola Municipal de Educação Infantil Professora Carmen Ferreira",
        "phone": "+55 51 3466 0559",
        "id": "way/258016761"
      },
      "geometry": {
        "type": "Polygon",
        "coordinates": [
          [
            [
              -51.2270354,
              -29.9093459
            ],
            [
              -51.2270049,
              -29.909001
            ],
            [
              -51.2276733,
              -29.9089537
            ],
            [
              -51.2277062,
              -29.9092897
            ],
            [
              -51.2270354,
              -29.9093459
            ]
          ]
        ]
      }
    },
    {
      "type": "Feature",
      "id": "way/258016763",
      "properties": {
        "timestamp": "2021-02-28T22:34:00Z",
        "version": 3,
        "changeset": 100159198,
        "addr:city": "Canoas",
        "addr:housenumber": "100",
        "addr:postcode": "92320-062",
        "addr:street": "Rua Professora Dona Sara",
        "addr:suburb": "Porto Belo",
        "amenity": "school",
        "name": "Escola Municipal de Ensino Fundamental Max Adolfo Oderich",
        "phone": "+55 51 3427 3362",
        "id": "way/258016763"
      },
      "geometry": {
        "type": "Polygon",
        "coordinates": [
          [
            [
              -51.2275481,
              -29.9109521
            ],
            [
              -51.2271717,
              -29.9110729
            ],
            [
              -51.2271429,
              -29.9110816
            ],
            [
              -51.2270935,
              -29.9099573
            ],
            [
              -51.2274628,
              -29.9099369
            ],
            [
              -51.2275481,
              -29.9109521
            ]
          ]
        ]
      }
    },
    {
      "type": "Feature",
      "id": "way/258899805",
      "properties": {
        "timestamp": "2021-02-26T22:24:00Z",
        "version": 4,
        "changeset": 100077171,
        "addr:city": "Canoas",
        "addr:postcode": "92415-000",
        "addr:street": "Avenida 17 de Abril",
        "addr:suburb": "Guajuviras",
        "amenity": "school",
        "name": "Escola Jussara Maria Polidoro",
        "phone": "+55 51 3468 4034",
        "id": "way/258899805"
      },
      "geometry": {
        "type": "Polygon",
        "coordinates": [
          [
            [
              -51.1395319,
              -29.8985609
            ],
            [
              -51.1384614,
              -29.8987797
            ],
            [
              -51.1382978,
              -29.898224
            ],
            [
              -51.1381784,
              -29.8979911
            ],
            [
              -51.1379091,
              -29.8976211
            ],
            [
              -51.1394501,
              -29.897497
            ],
            [
              -51.1395526,
              -29.8984343
            ],
            [
              -51.1395319,
              -29.8985609
            ]
          ]
        ]
      }
    },
    {
      "type": "Feature",
      "id": "way/310711227",
      "properties": {
        "timestamp": "2023-05-30T17:18:43Z",
        "version": 3,
        "changeset": 136756046,
        "addr:city": "Canoas",
        "addr:housenumber": "197",
        "addr:postcode": "92025-590",
        "addr:street": "Rua Porto Seguro",
        "amenity": "school",
        "name": "Escola de Ensino Fundamental Jacob Longoni",
        "operator": "Governo do Estado do Rio Grande do Sul",
        "operator:type": "public",
        "phone": "+55 51 3236 2573",
        "id": "way/310711227"
      },
      "geometry": {
        "type": "Polygon",
        "coordinates": [
          [
            [
              -51.1582809,
              -29.9325589
            ],
            [
              -51.1587392,
              -29.9328794
            ],
            [
              -51.1583676,
              -29.9331263
            ],
            [
              -51.1580792,
              -29.9331049
            ],
            [
              -51.157881,
              -29.9327782
            ],
            [
              -51.1582809,
              -29.9325589
            ]
          ]
        ]
      }
    },
    {
      "type": "Feature",
      "id": "way/312645526",
      "properties": {
        "timestamp": "2021-02-26T23:04:17Z",
        "version": 3,
        "changeset": 100078193,
        "addr:city": "Canoas",
        "addr:housenumber": "125",
        "addr:postcode": "92030-440",
        "addr:street": "Rua Alberto Rodrigues de Oliveira",
        "addr:suburb": "Olaria",
        "amenity": "school",
        "name": "Escola Municipal de Ensino Fundamental Governador Walter Peracchi de Barcelos",
        "phone": "+55 51 3476 1331",
        "id": "way/312645526"
      },
      "geometry": {
        "type": "Polygon",
        "coordinates": [
          [
            [
              -51.130524,
              -29.9233053
            ],
            [
              -51.1310618,
              -29.9247201
            ],
            [
              -51.1299647,
              -29.9243581
            ],
            [
              -51.130524,
              -29.9233053
            ]
          ]
        ]
      }
    },
    {
      "type": "Feature",
      "id": "way/317834004",
      "properties": {
        "timestamp": "2014-12-18T18:34:55Z",
        "version": 2,
        "changeset": 27556007,
        "addr:housenumber": "281",
        "addr:street": "Rua Ernesto Che Guevara",
        "amenity": "school",
        "capacity": "400",
        "fee": "no",
        "name": "Escola Municipal de Ensino Fundamental Paulo Freire",
        "operator": "Prefeitura Municipal",
        "short_name": "E.M.E.F. Paulo Freire",
        "id": "way/317834004"
      },
      "geometry": {
        "type": "Polygon",
        "coordinates": [
          [
            [
              -51.126948,
              -29.8906338
            ],
            [
              -51.1269616,
              -29.8919853
            ],
            [
              -51.1266676,
              -29.8916656
            ],
            [
              -51.1264106,
              -29.8913208
            ],
            [
              -51.1262253,
              -29.8910002
            ],
            [
              -51.1261053,
              -29.8906547
            ],
            [
              -51.1263149,
              -29.8906493
            ],
            [
              -51.126948,
              -29.8906338
            ]
          ]
        ]
      }
    },
    {
      "type": "Feature",
      "id": "way/335956389",
      "properties": {
        "timestamp": "2021-06-13T15:05:16Z",
        "version": 4,
        "changeset": 106286788,
        "addr:city": "canoas",
        "addr:housenumber": "35",
        "addr:postcode": "92320-230",
        "addr:street": "Rua Wenceslau Braz",
        "addr:suburb": "Mato Grande",
        "alt_name": "Escola Municipal de Ensino Fundamendal Rio Grande do Sul",
        "amenity": "school",
        "name": "EMEF Rio Grande do Sul",
        "phone": "+55 51 3466 1803",
        "id": "way/335956389"
      },
      "geometry": {
        "type": "Polygon",
        "coordinates": [
          [
            [
              -51.1932407,
              -29.9281792
            ],
            [
              -51.1931683,
              -29.9283861
            ],
            [
              -51.1926709,
              -29.9280486
            ],
            [
              -51.1928076,
              -29.9277991
            ],
            [
              -51.1932407,
              -29.9281792
            ]
          ]
        ]
      }
    },
    {
      "type": "Feature",
      "id": "way/460992969",
      "properties": {
        "timestamp": "2021-08-13T05:34:50Z",
        "version": 6,
        "changeset": 109604785,
        "amenity": "school",
        "barrier": "fence",
        "id": "way/460992969"
      },
      "geometry": {
        "type": "Polygon",
        "coordinates": [
          [
            [
              -51.1408557,
              -29.9009033
            ],
            [
              -51.1410748,
              -29.901182
            ],
            [
              -51.1407741,
              -29.9014061
            ],
            [
              -51.1409701,
              -29.9016515
            ],
            [
              -51.1410547,
              -29.9017572
            ],
            [
              -51.1405678,
              -29.9020337
            ],
            [
              -51.1404335,
              -29.9016678
            ],
            [
              -51.1398055,
              -29.9018014
            ],
            [
              -51.1397365,
              -29.90184
            ],
            [
              -51.1396888,
              -29.9017768
            ],
            [
              -51.1393044,
              -29.9012578
            ],
            [
              -51.1397074,
              -29.9011683
            ],
            [
              -51.1408557,
              -29.9009033
            ]
          ]
        ]
      }
    },
    {
      "type": "Feature",
      "id": "way/461995390",
      "properties": {
        "timestamp": "2021-03-03T22:53:07Z",
        "version": 2,
        "changeset": 100377637,
        "addr:city": "Canoas",
        "addr:housenumber": "1301",
        "addr:postcode": "92415-000",
        "addr:street": "Avenida 17 de Abril",
        "addr:suburb": "Guajuviras",
        "amenity": "school",
        "name": "Escola Estadual de Ensino Médio Cônego José Leão Hartmann",
        "phone": "+55 51 3468 6160",
        "id": "way/461995390"
      },
      "geometry": {
        "type": "Polygon",
        "coordinates": [
          [
            [
              -51.1348044,
              -29.8957751
            ],
            [
              -51.1349962,
              -29.8960541
            ],
            [
              -51.134618,
              -29.8961936
            ],
            [
              -51.1346153,
              -29.8963866
            ],
            [
              -51.134559,
              -29.896468
            ],
            [
              -51.1345778,
              -29.8966284
            ],
            [
              -51.1344651,
              -29.8966819
            ],
            [
              -51.1344705,
              -29.8969633
            ],
            [
              -51.1339233,
              -29.8970005
            ],
            [
              -51.1332447,
              -29.8966587
            ],
            [
              -51.1333936,
              -29.8959029
            ],
            [
              -51.1348044,
              -29.8957751
            ]
          ]
        ]
      }
    },
    {
      "type": "Feature",
      "id": "way/461995392",
      "properties": {
        "timestamp": "2016-12-27T01:29:57Z",
        "version": 1,
        "changeset": 44695375,
        "amenity": "school",
        "fixme": "name",
        "id": "way/461995392"
      },
      "geometry": {
        "type": "Polygon",
        "coordinates": [
          [
            [
              -51.1349929,
              -29.9022031
            ],
            [
              -51.135135,
              -29.9036098
            ],
            [
              -51.134443,
              -29.9036982
            ],
            [
              -51.1343116,
              -29.9030774
            ],
            [
              -51.1341936,
              -29.9029076
            ],
            [
              -51.1340809,
              -29.9021357
            ],
            [
              -51.1345422,
              -29.9021403
            ],
            [
              -51.1349929,
              -29.9022031
            ]
          ]
        ]
      }
    },
    {
      "type": "Feature",
      "id": "way/543081420",
      "properties": {
        "timestamp": "2021-02-26T22:46:19Z",
        "version": 3,
        "changeset": 100077770,
        "addr:city": "Canoas",
        "addr:housenumber": "1676",
        "addr:postcode": "92200-300",
        "addr:street": "Rua Primavera",
        "addr:suburb": "Rio Branco",
        "amenity": "school",
        "name": "Escola Municipal de Ensino Fundamental Doutor Nelson Pain Terra",
        "phone": "+55 51 3466 7241",
        "id": "way/543081420"
      },
      "geometry": {
        "type": "Polygon",
        "coordinates": [
          [
            [
              -51.1937156,
              -29.9649162
            ],
            [
              -51.1935317,
              -29.9654832
            ],
            [
              -51.1930651,
              -29.9653599
            ],
            [
              -51.193247,
              -29.964798
            ],
            [
              -51.1937156,
              -29.9649162
            ]
          ]
        ]
      }
    },
    {
      "type": "Feature",
      "id": "way/544149386",
      "properties": {
        "timestamp": "2021-02-27T20:53:02Z",
        "version": 6,
        "changeset": 100115873,
        "addr:city": "Canoas",
        "addr:housenumber": "465",
        "addr:postcode": "92340-180",
        "addr:street": "Rua São Paulo",
        "addr:suburb": "Mathias Velho",
        "amenity": "school",
        "building:levels": "1",
        "name": "EMEF Ceará",
        "phone": "+55 51 3472 7582",
        "id": "way/544149386"
      },
      "geometry": {
        "type": "Polygon",
        "coordinates": [
          [
            [
              -51.1827287,
              -29.8981131
            ],
            [
              -51.1827558,
              -29.8985741
            ],
            [
              -51.1820766,
              -29.8986142
            ],
            [
              -51.1820397,
              -29.8981459
            ],
            [
              -51.1827287,
              -29.8981131
            ]
          ]
        ]
      }
    },
    {
      "type": "Feature",
      "id": "way/546786262",
      "properties": {
        "timestamp": "2021-04-01T07:45:45Z",
        "version": 4,
        "changeset": 102104103,
        "addr:city": "Canoas",
        "addr:housenumber": "21",
        "addr:postcode": "92420-690",
        "addr:street": "Rua Marselha",
        "addr:suburb": "São José",
        "amenity": "school",
        "name": "EMEI Jornalista Marione Machado Leite",
        "phone": "+55 51 3464 1598",
        "id": "way/546786262"
      },
      "geometry": {
        "type": "Polygon",
        "coordinates": [
          [
            [
              -51.1416265,
              -29.8824171
            ],
            [
              -51.1415638,
              -29.882382
            ],
            [
              -51.1407772,
              -29.8824319
            ],
            [
              -51.1407399,
              -29.8819964
            ],
            [
              -51.1415754,
              -29.8819317
            ],
            [
              -51.1416265,
              -29.8824171
            ]
          ]
        ]
      }
    },
    {
      "type": "Feature",
      "id": "way/550960678",
      "properties": {
        "timestamp": "2020-05-20T14:01:37Z",
        "version": 2,
        "changeset": 85504156,
        "addr:street": "Avenida Farroupilha",
        "amenity": "school",
        "name": "Colégio Adventista",
        "id": "way/550960678"
      },
      "geometry": {
        "type": "Polygon",
        "coordinates": [
          [
            [
              -51.166475,
              -29.9065017
            ],
            [
              -51.166542,
              -29.9068458
            ],
            [
              -51.1649997,
              -29.9069714
            ],
            [
              -51.1649541,
              -29.9066203
            ],
            [
              -51.165736,
              -29.906561
            ],
            [
              -51.166475,
              -29.9065017
            ]
          ]
        ]
      }
    },
    {
      "type": "Feature",
      "id": "way/558041723",
      "properties": {
        "timestamp": "2021-01-25T00:45:46Z",
        "version": 2,
        "changeset": 98079784,
        "addr:city": "Canoas",
        "addr:housenumber": "455",
        "addr:postcode": "92330-370",
        "addr:street": "Rua Uruguaiana",
        "addr:suburb": "Mathias Velho",
        "amenity": "school",
        "name": "Escola Pingo de Gente",
        "phone": "+55 51 3476 1408",
        "id": "way/558041723"
      },
      "geometry": {
        "type": "Polygon",
        "coordinates": [
          [
            [
              -51.1994709,
              -29.9027135
            ],
            [
              -51.199476,
              -29.9028602
            ],
            [
              -51.1994382,
              -29.9028613
            ],
            [
              -51.1994408,
              -29.9029483
            ],
            [
              -51.199221,
              -29.9029513
            ],
            [
              -51.1992194,
              -29.9028684
            ],
            [
              -51.1992588,
              -29.9028678
            ],
            [
              -51.1992576,
              -29.9028298
            ],
            [
              -51.1992175,
              -29.9028306
            ],
            [
              -51.1992137,
              -29.9027174
            ],
            [
              -51.1994709,
              -29.9027135
            ]
          ]
        ]
      }
    },
    {
      "type": "Feature",
      "id": "way/623167531",
      "properties": {
        "timestamp": "2021-02-26T22:12:12Z",
        "version": 2,
        "changeset": 100076855,
        "addr:city": "Canoas",
        "addr:housenumber": "1250",
        "addr:postcode": "92425-240",
        "addr:street": "Rua Ramiro Barcelos",
        "addr:suburb": "São José",
        "amenity": "school",
        "name": "EMEF Governador Leonel de Moura Brizola",
        "operator": "Prefeitura de Canoas",
        "operator:type": "government",
        "phone": "+55 51 3463 4259",
        "id": "way/623167531"
      },
      "geometry": {
        "type": "Polygon",
        "coordinates": [
          [
            [
              -51.1518119,
              -29.8819941
            ],
            [
              -51.1518607,
              -29.8827555
            ],
            [
              -51.1511615,
              -29.8827907
            ],
            [
              -51.1511208,
              -29.8820223
            ],
            [
              -51.1518119,
              -29.8819941
            ]
          ]
        ]
      }
    },
    {
      "type": "Feature",
      "id": "way/700399017",
      "properties": {
        "timestamp": "2021-02-28T22:10:42Z",
        "version": 2,
        "changeset": 100158557,
        "addr:city": "Canoas",
        "addr:housenumber": "91",
        "addr:postcode": "92030-790",
        "addr:street": "Rua Doutor Olavo Fernandes",
        "addr:suburb": "Estância Velha",
        "amenity": "school",
        "name": "E.M. E. F. Irmão Pedro",
        "phone": "+55 51 3472 7535",
        "id": "way/700399017"
      },
      "geometry": {
        "type": "Polygon",
        "coordinates": [
          [
            [
              -51.1400075,
              -29.9234822
            ],
            [
              -51.1407166,
              -29.9234463
            ],
            [
              -51.1407831,
              -29.9244321
            ],
            [
              -51.140342,
              -29.9244544
            ],
            [
              -51.1403158,
              -29.9240646
            ],
            [
              -51.1400477,
              -29.9240782
            ],
            [
              -51.1400075,
              -29.9234822
            ]
          ]
        ]
      }
    },
    {
      "type": "Feature",
      "id": "way/700399019",
      "properties": {
        "timestamp": "2021-02-27T15:19:09Z",
        "version": 2,
        "changeset": 100102247,
        "addr:city": "Canoas",
        "addr:housenumber": "211",
        "addr:postcode": "92025-755",
        "addr:street": "Rua A. J. Renner",
        "addr:suburb": "Estância Velha",
        "amenity": "school",
        "name": "EMEF Rondônia",
        "phone": "+55 51 34724279",
        "id": "way/700399019"
      },
      "geometry": {
        "type": "Polygon",
        "coordinates": [
          [
            [
              -51.146387,
              -29.9251614
            ],
            [
              -51.1468021,
              -29.925141
            ],
            [
              -51.1468475,
              -29.925838
            ],
            [
              -51.1464326,
              -29.9258584
            ],
            [
              -51.146387,
              -29.9251614
            ]
          ]
        ]
      }
    },
    {
      "type": "Feature",
      "id": "way/700401031",
      "properties": {
        "timestamp": "2021-02-28T22:44:58Z",
        "version": 2,
        "changeset": 100159445,
        "addr:city": "Canoas",
        "addr:housenumber": "2985",
        "addr:postcode": "92027-033",
        "addr:street": "Avenida Santos Ferreira",
        "amenity": "school",
        "name": "E. E. E. M. Gomes Jardim",
        "phone": "+55 51 3426 1053",
        "id": "way/700401031"
      },
      "geometry": {
        "type": "Polygon",
        "coordinates": [
          [
            [
              -51.1509337,
              -29.9285478
            ],
            [
              -51.1516042,
              -29.9286687
            ],
            [
              -51.1516257,
              -29.930082
            ],
            [
              -51.1509498,
              -29.9300773
            ],
            [
              -51.1509337,
              -29.9285478
            ]
          ]
        ]
      }
    },
    {
      "type": "Feature",
      "id": "way/755943086",
      "properties": {
        "timestamp": "2021-01-24T23:54:52Z",
        "version": 4,
        "changeset": 98078970,
        "amenity": "school",
        "name": "Escola Municipal Carlos Drummond de Andrade",
        "id": "way/755943086"
      },
      "geometry": {
        "type": "Polygon",
        "coordinates": [
          [
            [
              -51.138423,
              -29.8915849
            ],
            [
              -51.1381083,
              -29.8916188
            ],
            [
              -51.1376942,
              -29.8916188
            ],
            [
              -51.1372542,
              -29.8915837
            ],
            [
              -51.136459,
              -29.8914163
            ],
            [
              -51.1369686,
              -29.8906216
            ],
            [
              -51.1382827,
              -29.8907082
            ],
            [
              -51.138423,
              -29.8915849
            ]
          ]
        ]
      }
    },
    {
      "type": "Feature",
      "id": "way/843718826",
      "properties": {
        "timestamp": "2021-02-28T22:47:40Z",
        "version": 3,
        "changeset": 100159502,
        "addr:city": "Canoas",
        "addr:housenumber": "654",
        "addr:postcode": "92110-470",
        "addr:street": "Rua Artur Bernardes",
        "addr:suburb": "Niterói",
        "amenity": "school",
        "building:levels": "2",
        "name": "Escola Municipal Santos Dumont",
        "phone": "+55 51 3425 7740",
        "smoking": "no",
        "wheelchair": "yes",
        "id": "way/843718826"
      },
      "geometry": {
        "type": "Polygon",
        "coordinates": [
          [
            [
              -51.1699855,
              -29.9613343
            ],
            [
              -51.1699564,
              -29.9621573
            ],
            [
              -51.1693609,
              -29.9621555
            ],
            [
              -51.169406,
              -29.9613277
            ],
            [
              -51.1699855,
              -29.9613343
            ]
          ]
        ]
      }
    },
    {
      "type": "Feature",
      "id": "way/899654738",
      "properties": {
        "timestamp": "2021-01-24T23:30:34Z",
        "version": 1,
        "changeset": 98078602,
        "addr:city": "Canoas",
        "addr:housenumber": "530",
        "addr:postcode": "92320-060",
        "addr:street": "Rua Roberto Francisco Behrens",
        "amenity": "school",
        "name": "E.M.E.I. Meu Tesouro",
        "id": "way/899654738"
      },
      "geometry": {
        "type": "Polygon",
        "coordinates": [
          [
            [
              -51.1956289,
              -29.9338089
            ],
            [
              -51.1953137,
              -29.9339008
            ],
            [
              -51.19495,
              -29.9333772
            ],
            [
              -51.1951722,
              -29.9332375
            ],
            [
              -51.1955734,
              -29.9332199
            ],
            [
              -51.1956289,
              -29.9338089
            ]
          ]
        ]
      }
    },
    {
      "type": "Feature",
      "id": "way/899660748",
      "properties": {
        "timestamp": "2022-05-19T23:22:49Z",
        "version": 3,
        "changeset": 121217232,
        "addr:city": "Canoas",
        "addr:housenumber": "670",
        "addr:postcode": "92200-300",
        "addr:street": "Rua Primavera",
        "addr:suburb": "Rio Branco",
        "amenity": "school",
        "name": "E.M.E.I. Vó Pedra",
        "phone": "+55 51 3785 4286",
        "id": "way/899660748"
      },
      "geometry": {
        "type": "Polygon",
        "coordinates": [
          [
            [
              -51.1835875,
              -29.9623374
            ],
            [
              -51.1833575,
              -29.9629985
            ],
            [
              -51.1828584,
              -29.9628682
            ],
            [
              -51.1830885,
              -29.9622071
            ],
            [
              -51.1835875,
              -29.9623374
            ]
          ]
        ]
      }
    },
    {
      "type": "Feature",
      "id": "way/899661911",
      "properties": {
        "timestamp": "2021-01-25T00:30:53Z",
        "version": 1,
        "changeset": 98079559,
        "addr:city": "Canoas",
        "addr:housenumber": "235",
        "addr:postcode": "92412-550",
        "addr:street": "Rua dos Buritis",
        "amenity": "school",
        "name": "E.M.E.I Julieta Villamil Balestro",
        "id": "way/899661911"
      },
      "geometry": {
        "type": "Polygon",
        "coordinates": [
          [
            [
              -51.1497045,
              -29.895948
            ],
            [
              -51.1497223,
              -29.8963836
            ],
            [
              -51.1490049,
              -29.8964057
            ],
            [
              -51.1489871,
              -29.89597
            ],
            [
              -51.1497045,
              -29.895948
            ]
          ]
        ]
      }
    },
    {
      "type": "Feature",
      "id": "way/899666167",
      "properties": {
        "timestamp": "2021-01-25T01:01:05Z",
        "version": 1,
        "changeset": 98079989,
        "addr:city": "Canoas",
        "addr:housenumber": "175",
        "addr:postcode": "92032-700",
        "addr:street": "Rua Fernando Pessoa",
        "amenity": "school",
        "name": "EMEI Nilton Leal",
        "phone": "+55 51 8944 0784",
        "id": "way/899666167"
      },
      "geometry": {
        "type": "Polygon",
        "coordinates": [
          [
            [
              -51.195145,
              -29.9195382
            ],
            [
              -51.1949329,
              -29.9202269
            ],
            [
              -51.1944598,
              -29.9202453
            ],
            [
              -51.1944157,
              -29.9195736
            ],
            [
              -51.195145,
              -29.9195382
            ]
          ]
        ]
      }
    },
    {
      "type": "Feature",
      "id": "way/909648400",
      "properties": {
        "timestamp": "2023-05-30T18:21:14Z",
        "version": 2,
        "changeset": 136758435,
        "addr:city": "Canoas",
        "addr:housenumber": "101",
        "addr:postcode": "92025-650",
        "addr:street": "Rua Nicolau Coelho",
        "amenity": "school",
        "grades": "0-5",
        "name": "Escola Municipal de Educação Infantil Pintando o Sete",
        "operator": "Prefeitura Municipal de Canoas",
        "operator:type": "public",
        "phone": "+55 51 3476 2263",
        "religion": "none",
        "id": "way/909648400"
      },
      "geometry": {
        "type": "Polygon",
        "coordinates": [
          [
            [
              -51.1555408,
              -29.9302897
            ],
            [
              -51.1555528,
              -29.9306426
            ],
            [
              -51.1553008,
              -29.9306491
            ],
            [
              -51.1552889,
              -29.9302962
            ],
            [
              -51.1555408,
              -29.9302897
            ]
          ]
        ]
      }
    },
    {
      "type": "Feature",
      "id": "way/909648411",
      "properties": {
        "timestamp": "2021-02-27T21:10:19Z",
        "version": 2,
        "changeset": 100116319,
        "addr:city": "Canoas",
        "addr:housenumber": "1582",
        "addr:postcode": "92030-490",
        "addr:street": "Rua Ernesto da Silva Rocha",
        "addr:suburb": "Estância Velha",
        "amenity": "school",
        "name": "EMEF Arthur Oscar Jochims",
        "phone": "+55 51 3425 7748",
        "id": "way/909648411"
      },
      "geometry": {
        "type": "Polygon",
        "coordinates": [
          [
            [
              -51.1438626,
              -29.9112425
            ],
            [
              -51.143919,
              -29.9119939
            ],
            [
              -51.1434986,
              -29.9119745
            ],
            [
              -51.1429152,
              -29.9120186
            ],
            [
              -51.142857,
              -29.9112928
            ],
            [
              -51.1438626,
              -29.9112425
            ]
          ]
        ]
      }
    },
    {
      "type": "Feature",
      "id": "way/909648414",
      "properties": {
        "timestamp": "2021-02-22T14:17:04Z",
        "version": 1,
        "changeset": 99753222,
        "addr:city": "Canoas",
        "addr:housenumber": "55",
        "addr:postcode": "92032-080",
        "addr:street": "Rua Capão da Canoa",
        "amenity": "school",
        "name": "E.M.E.I. Tia Lourdes",
        "phone": "+55 51 3476 2552",
        "id": "way/909648414"
      },
      "geometry": {
        "type": "Polygon",
        "coordinates": [
          [
            [
              -51.1463743,
              -29.9108457
            ],
            [
              -51.1463934,
              -29.9111292
            ],
            [
              -51.1457834,
              -29.9111601
            ],
            [
              -51.1457643,
              -29.9108765
            ],
            [
              -51.1463743,
              -29.9108457
            ]
          ]
        ]
      }
    },
    {
      "type": "Feature",
      "id": "way/909648422",
      "properties": {
        "timestamp": "2021-02-22T14:17:04Z",
        "version": 1,
        "changeset": 99753222,
        "addr:city": "Canoas",
        "addr:housenumber": "705",
        "addr:postcode": "92415-999",
        "addr:street": "Rua 08a",
        "amenity": "school",
        "name": "E.M.E.I. Olga Ronchetti",
        "phone": "+55 51 3463 7989",
        "id": "way/909648422"
      },
      "geometry": {
        "type": "Polygon",
        "coordinates": [
          [
            [
              -51.1298275,
              -29.8992926
            ],
            [
              -51.1305059,
              -29.8993389
            ],
            [
              -51.1304762,
              -29.8996644
            ],
            [
              -51.1297979,
              -29.8996179
            ],
            [
              -51.1298275,
              -29.8992926
            ]
          ]
        ]
      }
    },
    {
      "type": "Feature",
      "id": "way/911375771",
      "properties": {
        "timestamp": "2021-02-26T22:01:23Z",
        "version": 2,
        "changeset": 100076529,
        "addr:city": "Canoas",
        "addr:housenumber": "55",
        "addr:postcode": "92032-040",
        "addr:street": "Rua Arroio Teixeira",
        "addr:suburb": "Jardim Atlântico",
        "amenity": "school",
        "name": "Escola Estadual de Ensino Médio Professora Margot Terezinha Noal Giacomazzi",
        "phone": "+55 51 3466 8756",
        "id": "way/911375771"
      },
      "geometry": {
        "type": "Polygon",
        "coordinates": [
          [
            [
              -51.1476045,
              -29.9075749
            ],
            [
              -51.1470328,
              -29.9082667
            ],
            [
              -51.145887,
              -29.9075551
            ],
            [
              -51.1472386,
              -29.9073477
            ],
            [
              -51.1476045,
              -29.9075749
            ]
          ]
        ]
      }
    },
    {
      "type": "Feature",
      "id": "way/911377933",
      "properties": {
        "timestamp": "2021-02-26T22:04:00Z",
        "version": 1,
        "changeset": 100076613,
        "addr:city": "Canoas",
        "addr:housenumber": "5888",
        "addr:postcode": "92310-364",
        "addr:street": "Avenida Guilherme Schell",
        "addr:suburb": "Centro",
        "amenity": "school",
        "denomination": "catholic",
        "name": "Colégio Maria Auxiliadora",
        "religion": "christian",
        "id": "way/911377933"
      },
      "geometry": {
        "type": "Polygon",
        "coordinates": [
          [
            [
              -51.1845868,
              -29.9166145
            ],
            [
              -51.1847206,
              -29.9169752
            ],
            [
              -51.1844449,
              -29.9170699
            ],
            [
              -51.1847565,
              -29.9176738
            ],
            [
              -51.1846847,
              -29.9177996
            ],
            [
              -51.1845934,
              -29.9180047
            ],
            [
              -51.1837237,
              -29.9181249
            ],
            [
              -51.1836421,
              -29.9178605
            ],
            [
              -51.18281,
              -29.9179877
            ],
            [
              -51.1829471,
              -29.9169327
            ],
            [
              -51.183231,
              -29.9169412
            ],
            [
              -51.1839521,
              -29.9166853
            ],
            [
              -51.1845868,
              -29.9166145
            ]
          ]
        ]
      }
    },
    {
      "type": "Feature",
      "id": "way/911378218",
      "properties": {
        "timestamp": "2021-02-26T22:06:19Z",
        "version": 1,
        "changeset": 100076676,
        "addr:city": "Canoas",
        "addr:housenumber": "100",
        "addr:postcode": "92020-580",
        "addr:street": "Rua Senador Alberto Pasqualini",
        "addr:suburb": "Vila Rosa",
        "amenity": "school",
        "name": "Escola Estadual Ensino Fundamental Padre Jaeger",
        "phone": "+55 51 3477 7098",
        "id": "way/911378218"
      },
      "geometry": {
        "type": "Polygon",
        "coordinates": [
          [
            [
              -51.1758827,
              -29.9055279
            ],
            [
              -51.1759011,
              -29.9057939
            ],
            [
              -51.1750002,
              -29.9058406
            ],
            [
              -51.1749819,
              -29.9055748
            ],
            [
              -51.1758827,
              -29.9055279
            ]
          ]
        ]
      }
    },
    {
      "type": "Feature",
      "id": "way/911381992",
      "properties": {
        "timestamp": "2024-04-28T00:08:44Z",
        "version": 3,
        "changeset": 150600191,
        "addr:city": "Canoas",
        "addr:housenumber": "975",
        "addr:postcode": "92025-370",
        "addr:street": "Rua Monte Castelo",
        "addr:suburb": "Nossa Senhora das Graças",
        "amenity": "school",
        "name": "Escola Municipal Duque de Caxias",
        "phone": "+55 51 3466 9424",
        "religion": "none",
        "id": "way/911381992"
      },
      "geometry": {
        "type": "Polygon",
        "coordinates": [
          [
            [
              -51.1657705,
              -29.9283403
            ],
            [
              -51.1657883,
              -29.9286536
            ],
            [
              -51.1656265,
              -29.9286589
            ],
            [
              -51.1656303,
              -29.9287985
            ],
            [
              -51.1651256,
              -29.9288106
            ],
            [
              -51.1651008,
              -29.9284308
            ],
            [
              -51.1657705,
              -29.9283403
            ]
          ]
        ]
      }
    },
    {
      "type": "Feature",
      "id": "way/911382453",
      "properties": {
        "timestamp": "2021-06-13T15:05:16Z",
        "version": 3,
        "changeset": 106286788,
        "addr:city": "Canoas",
        "addr:housenumber": "4240",
        "addr:postcode": "92020-090",
        "addr:street": "Avenida Rio Grande do Sul",
        "addr:suburb": "Mathias Velho",
        "alt_name": "Escola Municipal de Ensino Fundamendal Professor Thiago Wurth",
        "amenity": "school",
        "name": "EMEF Professor Thiago Wurth",
        "phone": "+55 51 3236-2546",
        "id": "way/911382453"
      },
      "geometry": {
        "type": "Polygon",
        "coordinates": [
          [
            [
              -51.2286029,
              -29.9007629
            ],
            [
              -51.2286456,
              -29.901312
            ],
            [
              -51.227469,
              -29.9013806
            ],
            [
              -51.2274264,
              -29.9008314
            ],
            [
              -51.2286029,
              -29.9007629
            ]
          ]
        ]
      }
    },
    {
      "type": "Feature",
      "id": "way/911382645",
      "properties": {
        "timestamp": "2021-06-13T15:05:16Z",
        "version": 2,
        "changeset": 106286788,
        "addr:city": "Canoas",
        "addr:housenumber": "660",
        "addr:postcode": "92330-390",
        "addr:street": "Rua Campinas",
        "addr:suburb": "Mathias Velho",
        "amenity": "school",
        "name": "Colegio São João",
        "phone": "+55 51 3472 5084",
        "id": "way/911382645"
      },
      "geometry": {
        "type": "Polygon",
        "coordinates": [
          [
            [
              -51.1972229,
              -29.9047719
            ],
            [
              -51.1972556,
              -29.9051466
            ],
            [
              -51.1969363,
              -29.9051675
            ],
            [
              -51.196948,
              -29.9053009
            ],
            [
              -51.1962333,
              -29.9053478
            ],
            [
              -51.1961889,
              -29.9048397
            ],
            [
              -51.1972229,
              -29.9047719
            ]
          ]
        ]
      }
    },
    {
      "type": "Feature",
      "id": "way/911382758",
      "properties": {
        "timestamp": "2021-02-26T22:35:23Z",
        "version": 1,
        "changeset": 100077528,
        "addr:city": "Canoas",
        "addr:housenumber": "925",
        "addr:postcode": "92200-150",
        "addr:street": "Rua Doutor Nelson Pain Terra",
        "addr:suburb": "Rio Branco",
        "amenity": "school",
        "name": "EMEF General Osório",
        "phone": "+55 51 3466 8177",
        "id": "way/911382758"
      },
      "geometry": {
        "type": "Polygon",
        "coordinates": [
          [
            [
              -51.185758,
              -29.9565851
            ],
            [
              -51.185653,
              -29.9568843
            ],
            [
              -51.1851879,
              -29.9567616
            ],
            [
              -51.1852929,
              -29.9564625
            ],
            [
              -51.185758,
              -29.9565851
            ]
          ]
        ]
      }
    },
    {
      "type": "Feature",
      "id": "way/911383369",
      "properties": {
        "timestamp": "2021-02-26T22:40:10Z",
        "version": 1,
        "changeset": 100077643,
        "addr:city": "Canoas",
        "addr:housenumber": "200",
        "addr:postcode": "92410-000",
        "addr:street": "Rua Araguaia",
        "addr:suburb": "Igara",
        "amenity": "school",
        "name": "Escola Estadual Ensino Fundamental Professor Germano Witrock",
        "phone": "+55 51 3478 2153",
        "id": "way/911383369"
      },
      "geometry": {
        "type": "Polygon",
        "coordinates": [
          [
            [
              -51.1741169,
              -29.9001435
            ],
            [
              -51.174186,
              -29.9013776
            ],
            [
              -51.1737019,
              -29.9014014
            ],
            [
              -51.1739065,
              -29.9001372
            ],
            [
              -51.1741169,
              -29.9001435
            ]
          ]
        ]
      }
    },
    {
      "type": "Feature",
      "id": "way/911384694",
      "properties": {
        "timestamp": "2021-02-26T22:52:00Z",
        "version": 1,
        "changeset": 100077893,
        "addr:city": "Canoas",
        "addr:housenumber": "555",
        "addr:postcode": "92020-040",
        "addr:street": "Rua São Pedro",
        "addr:suburb": "Marechal Rondon",
        "amenity": "school",
        "name": "EMEF Prefeito Edgar Fontoura",
        "phone": "+55 51 3428 6275",
        "id": "way/911384694"
      },
      "geometry": {
        "type": "Polygon",
        "coordinates": [
          [
            [
              -51.169322,
              -29.9180953
            ],
            [
              -51.1694025,
              -29.9189621
            ],
            [
              -51.169187,
              -29.9189771
            ],
            [
              -51.169162,
              -29.918708
            ],
            [
              -51.1690302,
              -29.9187172
            ],
            [
              -51.1689747,
              -29.9181195
            ],
            [
              -51.169322,
              -29.9180953
            ]
          ]
        ]
      }
    },
    {
      "type": "Feature",
      "id": "way/911384764",
      "properties": {
        "timestamp": "2021-02-26T22:53:22Z",
        "version": 1,
        "changeset": 100077918,
        "addr:city": "Canoas",
        "addr:housenumber": "580",
        "addr:postcode": "92420-170",
        "addr:street": "Rua Bolivia",
        "addr:suburb": "São José",
        "amenity": "school",
        "name": "Escola Estadual Ensino Fundamental Vasco da Gama",
        "id": "way/911384764"
      },
      "geometry": {
        "type": "Polygon",
        "coordinates": [
          [
            [
              -51.1737258,
              -29.8856414
            ],
            [
              -51.1737342,
              -29.8860229
            ],
            [
              -51.173238,
              -29.8860311
            ],
            [
              -51.1732296,
              -29.8856497
            ],
            [
              -51.1737258,
              -29.8856414
            ]
          ]
        ]
      }
    },
    {
      "type": "Feature",
      "id": "way/911385621",
      "properties": {
        "timestamp": "2021-02-26T22:59:33Z",
        "version": 1,
        "changeset": 100078075,
        "addr:city": "Canoas",
        "addr:housenumber": "2656",
        "addr:postcode": "92200-291",
        "addr:street": "Travesa Pistóia",
        "addr:suburb": "Fátima",
        "amenity": "school",
        "name": "E.M.E.I. Carinha de Anjo",
        "phone": "+55 51 3466 8717",
        "id": "way/911385621"
      },
      "geometry": {
        "type": "Polygon",
        "coordinates": [
          [
            [
              -51.1923671,
              -29.9426476
            ],
            [
              -51.1920548,
              -29.9431298
            ],
            [
              -51.1914401,
              -29.9429736
            ],
            [
              -51.1915274,
              -29.9427091
            ],
            [
              -51.1911219,
              -29.9425977
            ],
            [
              -51.1912131,
              -29.9423487
            ],
            [
              -51.1923671,
              -29.9426476
            ]
          ]
        ]
      }
    },
    {
      "type": "Feature",
      "id": "way/911387170",
      "properties": {
        "timestamp": "2021-02-26T23:10:31Z",
        "version": 1,
        "changeset": 100078358,
        "addr:city": "Canoas",
        "addr:housenumber": "2292",
        "addr:postcode": "92330-000",
        "addr:street": "Avenida Rio Grande do Sul",
        "addr:suburb": "Mathias Velho",
        "amenity": "school",
        "name": "Escola Estadual Ensino Fundamental Doutor Victor Hugo Ludwig",
        "id": "way/911387170"
      },
      "geometry": {
        "type": "Polygon",
        "coordinates": [
          [
            [
              -51.2040348,
              -29.9015225
            ],
            [
              -51.2040792,
              -29.9024718
            ],
            [
              -51.2040302,
              -29.9024735
            ],
            [
              -51.203938,
              -29.9025417
            ],
            [
              -51.2037964,
              -29.9025242
            ],
            [
              -51.2035357,
              -29.9024122
            ],
            [
              -51.2034323,
              -29.9023323
            ],
            [
              -51.2033974,
              -29.902268
            ],
            [
              -51.2033671,
              -29.901739
            ],
            [
              -51.2034536,
              -29.9016464
            ],
            [
              -51.2036705,
              -29.9015353
            ],
            [
              -51.2040348,
              -29.9015225
            ]
          ]
        ]
      }
    },
    {
      "type": "Feature",
      "id": "way/911387386",
      "properties": {
        "timestamp": "2021-02-26T23:12:09Z",
        "version": 1,
        "changeset": 100078384,
        "addr:city": "Canoas",
        "addr:housenumber": "276",
        "addr:postcode": "92410-290",
        "addr:street": "Rua Tietê",
        "addr:suburb": "Igara",
        "amenity": "school",
        "name": "Escola Estadual Ensino Fundamental Coronel Vicente Freire",
        "phone": "+55 51 3478 1345",
        "id": "way/911387386"
      },
      "geometry": {
        "type": "Polygon",
        "coordinates": [
          [
            [
              -51.170474,
              -29.9002074
            ],
            [
              -51.1704899,
              -29.9006659
            ],
            [
              -51.1698501,
              -29.900531
            ],
            [
              -51.1691799,
              -29.9002692
            ],
            [
              -51.170474,
              -29.9002074
            ]
          ]
        ]
      }
    },
    {
      "type": "Feature",
      "id": "way/911387561",
      "properties": {
        "timestamp": "2021-02-26T23:13:57Z",
        "version": 1,
        "changeset": 100078416,
        "addr:city": "Canoas",
        "addr:housenumber": "360",
        "addr:postcode": "92340-160",
        "addr:street": "Rua Rio de Janeiro",
        "addr:suburb": "Mathias Velho",
        "amenity": "school",
        "name": "CEIA",
        "phone": "+55 51 3463 3401",
        "id": "way/911387561"
      },
      "geometry": {
        "type": "Polygon",
        "coordinates": [
          [
            [
              -51.1854667,
              -29.9070573
            ],
            [
              -51.1855392,
              -29.907696
            ],
            [
              -51.1848584,
              -29.9077489
            ],
            [
              -51.1848011,
              -29.9073948
            ],
            [
              -51.1854667,
              -29.9070573
            ]
          ]
        ]
      }
    },
    {
      "type": "Feature",
      "id": "way/911388192",
      "properties": {
        "timestamp": "2021-02-26T23:17:10Z",
        "version": 1,
        "changeset": 100078479,
        "addr:city": "Canoas",
        "addr:postcode": "92120-100",
        "addr:street": "Rua Santa Cruz",
        "addr:suburb": "Niteroi",
        "amenity": "school",
        "name": "Instituto Estadual Educação Doutor Carlos Chagas",
        "phone": "+55 51 3051 1678",
        "id": "way/911388192"
      },
      "geometry": {
        "type": "Polygon",
        "coordinates": [
          [
            [
              -51.1740073,
              -29.947075
            ],
            [
              -51.1724168,
              -29.9470124
            ],
            [
              -51.1724586,
              -29.9462147
            ],
            [
              -51.1740491,
              -29.9462775
            ],
            [
              -51.1740073,
              -29.947075
            ]
          ]
        ]
      }
    },
    {
      "type": "Feature",
      "id": "way/911540278",
      "properties": {
        "timestamp": "2021-02-27T15:11:23Z",
        "version": 1,
        "changeset": 100101942,
        "addr:city": "Canoas",
        "addr:housenumber": "1845",
        "addr:postcode": "92320-620",
        "addr:street": "Rua Clóvis Beviláqua",
        "addr:suburb": "Vila Cerne",
        "amenity": "school",
        "name": "EMEI Vó Picucha",
        "phone": "+55 51 3477 5000",
        "id": "way/911540278"
      },
      "geometry": {
        "type": "Polygon",
        "coordinates": [
          [
            [
              -51.2170907,
              -29.9120115
            ],
            [
              -51.2171316,
              -29.9125541
            ],
            [
              -51.216617,
              -29.9125833
            ],
            [
              -51.2165762,
              -29.9120406
            ],
            [
              -51.2170907,
              -29.9120115
            ]
          ]
        ]
      }
    },
    {
      "type": "Feature",
      "id": "way/911541372",
      "properties": {
        "timestamp": "2021-06-12T18:16:08Z",
        "version": 2,
        "changeset": 106262031,
        "addr:city": "Canoas",
        "addr:housenumber": "1055",
        "addr:postcode": "92330-001",
        "addr:street": "Avenida Rio Grande do Sul",
        "addr:suburb": "Mathias Velho",
        "alt_name": "Escola Estadual de Ensino Médio Bento Gonçalves",
        "amenity": "school",
        "name": "E.E.E.M Bento Gonçalves",
        "phone": "+55 51 3472-5115",
        "id": "way/911541372"
      },
      "geometry": {
        "type": "Polygon",
        "coordinates": [
          [
            [
              -51.1908124,
              -29.9016845
            ],
            [
              -51.1908641,
              -29.9026624
            ],
            [
              -51.1903774,
              -29.9026817
            ],
            [
              -51.1903259,
              -29.9017038
            ],
            [
              -51.1908124,
              -29.9016845
            ]
          ]
        ]
      }
    },
    {
      "type": "Feature",
      "id": "way/911542248",
      "properties": {
        "timestamp": "2023-11-10T10:35:48Z",
        "version": 2,
        "changeset": 143857003,
        "addr:city": "Canoas",
        "addr:housenumber": "821",
        "addr:postcode": "92120-000",
        "addr:street": "Rua Tamoio",
        "addr:suburb": "Niterói",
        "amenity": "school",
        "name": "Colégio La Salle Niterói",
        "phone": "+55 51 3475 1690",
        "website": "https://lasalle.edu.br/niteroi",
        "id": "way/911542248"
      },
      "geometry": {
        "type": "Polygon",
        "coordinates": [
          [
            [
              -51.168159,
              -29.9542151
            ],
            [
              -51.1682034,
              -29.9541287
            ],
            [
              -51.1682227,
              -29.9536732
            ],
            [
              -51.1690661,
              -29.9537001
            ],
            [
              -51.1690312,
              -29.9545176
            ],
            [
              -51.1681473,
              -29.9544892
            ],
            [
              -51.168159,
              -29.9542151
            ]
          ]
        ]
      }
    },
    {
      "type": "Feature",
      "id": "way/911542685",
      "properties": {
        "timestamp": "2021-02-27T15:25:34Z",
        "version": 1,
        "changeset": 100102538,
        "addr:city": "Canoas",
        "addr:housenumber": "160",
        "addr:postcode": "92110-420",
        "addr:street": "Rua Alberto Bins",
        "addr:suburb": "Chacara Barreto",
        "amenity": "school",
        "name": "EMEF Farroupilha",
        "phone": "+55 51 3476 0953",
        "id": "way/911542685"
      },
      "geometry": {
        "type": "Polygon",
        "coordinates": [
          [
            [
              -51.1693339,
              -29.9366496
            ],
            [
              -51.1693415,
              -29.9369099
            ],
            [
              -51.1683286,
              -29.9369518
            ],
            [
              -51.1683196,
              -29.9366165
            ],
            [
              -51.1693339,
              -29.9366496
            ]
          ]
        ]
      }
    },
    {
      "type": "Feature",
      "id": "way/911544109",
      "properties": {
        "timestamp": "2021-02-27T15:36:59Z",
        "version": 2,
        "changeset": 100103062,
        "addr:city": "Canoas",
        "addr:housenumber": "415",
        "addr:postcode": "92310-410",
        "addr:street": "Rua Coronel Camisão",
        "addr:suburb": "Harmônia",
        "amenity": "school",
        "name": "Escola Estadual Ensino Fundamental Professora Clotilde Batista",
        "phone": "+55 51 3476 3089",
        "id": "way/911544109"
      },
      "geometry": {
        "type": "Polygon",
        "coordinates": [
          [
            [
              -51.1960029,
              -29.9135674
            ],
            [
              -51.1960518,
              -29.9141983
            ],
            [
              -51.195767,
              -29.9142149
            ],
            [
              -51.195718,
              -29.913584
            ],
            [
              -51.1960029,
              -29.9135674
            ]
          ]
        ]
      }
    },
    {
      "type": "Feature",
      "id": "way/911615171",
      "properties": {
        "timestamp": "2021-02-27T20:48:47Z",
        "version": 1,
        "changeset": 100115757,
        "addr:city": "Canoas",
        "addr:housenumber": "23",
        "addr:postcode": "92320-350",
        "addr:street": "Rua dos Cedros",
        "addr:suburb": "Cinco Colônias",
        "amenity": "school",
        "name": "EMEF Arthur Pereira de Vargas",
        "phone": "+55 51 3429 1725",
        "id": "way/911615171"
      },
      "geometry": {
        "type": "Polygon",
        "coordinates": [
          [
            [
              -51.2072642,
              -29.9167987
            ],
            [
              -51.2073238,
              -29.9173902
            ],
            [
              -51.2071312,
              -29.9174878
            ],
            [
              -51.206281,
              -29.917552
            ],
            [
              -51.2062133,
              -29.9168781
            ],
            [
              -51.2072642,
              -29.9167987
            ]
          ]
        ]
      }
    },
    {
      "type": "Feature",
      "id": "way/911616177",
      "properties": {
        "timestamp": "2021-02-27T20:55:41Z",
        "version": 1,
        "changeset": 100115939,
        "addr:city": "Canoas",
        "addr:housenumber": "150",
        "addr:postcode": "92035-800",
        "addr:street": "Rua José Danilo Menezes",
        "addr:suburb": "São Vicente",
        "amenity": "school",
        "name": "EMEF General Neto",
        "phone": "+55 51 3426 3215",
        "id": "way/911616177"
      },
      "geometry": {
        "type": "Polygon",
        "coordinates": [
          [
            [
              -51.1196666,
              -29.915236
            ],
            [
              -51.1193981,
              -29.9154319
            ],
            [
              -51.1191773,
              -29.9152046
            ],
            [
              -51.1194458,
              -29.9150087
            ],
            [
              -51.1196666,
              -29.915236
            ]
          ]
        ]
      }
    },
    {
      "type": "Feature",
      "id": "way/911619073",
      "properties": {
        "timestamp": "2021-02-27T21:03:07Z",
        "version": 1,
        "changeset": 100116118,
        "addr:city": "Canoas",
        "addr:housenumber": "378",
        "addr:postcode": "92325-220",
        "addr:street": "Rua Nossa Senhora da Conceição",
        "amenity": "school",
        "name": "Escola Luterana de Ensino Fundamental Santa Cruz",
        "phone": "+55 51 3464 4821",
        "id": "way/911619073"
      },
      "geometry": {
        "type": "Polygon",
        "coordinates": [
          [
            [
              -51.2276589,
              -29.9072127
            ],
            [
              -51.2276767,
              -29.9076651
            ],
            [
              -51.2269304,
              -29.9076871
            ],
            [
              -51.2269126,
              -29.9072348
            ],
            [
              -51.2276589,
              -29.9072127
            ]
          ]
        ]
      }
    },
    {
      "type": "Feature",
      "id": "way/911619133",
      "properties": {
        "timestamp": "2021-02-27T21:04:28Z",
        "version": 1,
        "changeset": 100116154,
        "addr:city": "Canoas",
        "addr:housenumber": "455",
        "addr:postcode": "92200-570",
        "addr:street": "Rua Büttembender",
        "addr:suburb": "Fátima",
        "amenity": "school",
        "name": "Escola Estadual Ensino Fundamental Fátima",
        "id": "way/911619133"
      },
      "geometry": {
        "type": "Polygon",
        "coordinates": [
          [
            [
              -51.1822797,
              -29.9438296
            ],
            [
              -51.1820973,
              -29.9443588
            ],
            [
              -51.1814128,
              -29.9441817
            ],
            [
              -51.1815953,
              -29.9436524
            ],
            [
              -51.1822797,
              -29.9438296
            ]
          ]
        ]
      }
    },
    {
      "type": "Feature",
      "id": "way/911619379",
      "properties": {
        "timestamp": "2021-02-27T21:07:31Z",
        "version": 1,
        "changeset": 100116224,
        "addr:city": "Canoas",
        "addr:housenumber": "291",
        "addr:postcode": "92310-360",
        "addr:street": "Rua Victor Kessler",
        "addr:suburb": "Centro",
        "amenity": "school",
        "name": "Escola Estadual de Ensino Médio André Leão Puente",
        "id": "way/911619379"
      },
      "geometry": {
        "type": "Polygon",
        "coordinates": [
          [
            [
              -51.1855188,
              -29.9155854
            ],
            [
              -51.1852941,
              -29.9156029
            ],
            [
              -51.185252,
              -29.9151975
            ],
            [
              -51.1859575,
              -29.9151424
            ],
            [
              -51.1860378,
              -29.9159154
            ],
            [
              -51.1855569,
              -29.9159529
            ],
            [
              -51.1855188,
              -29.9155854
            ]
          ]
        ]
      }
    },
    {
      "type": "Feature",
      "id": "way/911620488",
      "properties": {
        "timestamp": "2021-02-27T21:17:27Z",
        "version": 1,
        "changeset": 100116524,
        "addr:city": "Canoas",
        "addr:housenumber": "1001",
        "addr:postcode": "92110-460",
        "addr:street": "Rua 11 de Junho",
        "addr:suburb": "Niteroí",
        "amenity": "school",
        "name": "EMEF Theodoro Bogen",
        "phone": "+55 51 3475 5768",
        "id": "way/911620488"
      },
      "geometry": {
        "type": "Polygon",
        "coordinates": [
          [
            [
              -51.165961,
              -29.9409861
            ],
            [
              -51.1659715,
              -29.9414422
            ],
            [
              -51.1654201,
              -29.9414518
            ],
            [
              -51.1654096,
              -29.9409956
            ],
            [
              -51.165961,
              -29.9409861
            ]
          ]
        ]
      }
    },
    {
      "type": "Feature",
      "id": "way/912187846",
      "properties": {
        "timestamp": "2021-02-28T22:08:52Z",
        "version": 2,
        "changeset": 100158507,
        "addr:city": "Canoas",
        "addr:housenumber": "2260",
        "addr:postcode": "92200-664",
        "addr:street": "Rua Cairu",
        "addr:suburb": "Fátima",
        "amenity": "school",
        "name": "Escola Estadual de Ensino Médio Guarani",
        "id": "way/912187846"
      },
      "geometry": {
        "type": "Polygon",
        "coordinates": [
          [
            [
              -51.1851162,
              -29.942455
            ],
            [
              -51.1849764,
              -29.9428731
            ],
            [
              -51.1840345,
              -29.9426365
            ],
            [
              -51.1841742,
              -29.9422185
            ],
            [
              -51.1851162,
              -29.942455
            ]
          ]
        ]
      }
    },
    {
      "type": "Feature",
      "id": "way/912192110",
      "properties": {
        "timestamp": "2021-02-28T22:21:06Z",
        "version": 1,
        "changeset": 100158872,
        "addr:city": "Canoas",
        "addr:housenumber": "1340",
        "addr:postcode": "92310-430",
        "addr:street": "Rua Coronel Vicente",
        "addr:suburb": "Harmônia",
        "amenity": "school",
        "name": "Escola Luterana Doutor Martinho Lutero",
        "phone": "+55 51 3472 7629",
        "id": "way/912192110"
      },
      "geometry": {
        "type": "Polygon",
        "coordinates": [
          [
            [
              -51.1965645,
              -29.9183374
            ],
            [
              -51.1965921,
              -29.9187153
            ],
            [
              -51.1963809,
              -29.9194378
            ],
            [
              -51.1958464,
              -29.919467
            ],
            [
              -51.1957673,
              -29.9183811
            ],
            [
              -51.1965645,
              -29.9183374
            ]
          ]
        ]
      }
    },
    {
      "type": "Feature",
      "id": "way/912194019",
      "properties": {
        "timestamp": "2021-02-28T22:29:01Z",
        "version": 1,
        "changeset": 100159062,
        "addr:city": "Canoas",
        "addr:housenumber": "3893",
        "addr:postcode": "92330-500",
        "addr:street": "Rua Florianópolis",
        "addr:suburb": "Mathias Velho",
        "amenity": "school",
        "name": "EMEF David Canabarro",
        "id": "way/912194019"
      },
      "geometry": {
        "type": "Polygon",
        "coordinates": [
          [
            [
              -51.222193,
              -29.9057717
            ],
            [
              -51.2222238,
              -29.9062007
            ],
            [
              -51.2213836,
              -29.9062462
            ],
            [
              -51.2213527,
              -29.9058171
            ],
            [
              -51.222193,
              -29.9057717
            ]
          ]
        ]
      }
    },
    {
      "type": "Feature",
      "id": "way/912194373",
      "properties": {
        "timestamp": "2021-02-28T22:30:35Z",
        "version": 1,
        "changeset": 100159111,
        "addr:city": "Canoas",
        "addr:housenumber": "147",
        "addr:postcode": "92020-270",
        "addr:street": "Rua Santini Longoni",
        "amenity": "school",
        "name": "Colégio Estadual Marechal Rondon",
        "phone": "+55 51 3059 1692",
        "website": "http://www.marechalrondon.can.relrs.g12.br/",
        "id": "way/912194373"
      },
      "geometry": {
        "type": "Polygon",
        "coordinates": [
          [
            [
              -51.1761459,
              -29.9188292
            ],
            [
              -51.1761846,
              -29.9194062
            ],
            [
              -51.1761457,
              -29.9195173
            ],
            [
              -51.1756032,
              -29.9195445
            ],
            [
              -51.1755913,
              -29.9193673
            ],
            [
              -51.1754822,
              -29.9193728
            ],
            [
              -51.1754481,
              -29.9188644
            ],
            [
              -51.1761459,
              -29.9188292
            ]
          ]
        ]
      }
    },
    {
      "type": "Feature",
      "id": "way/912194773",
      "properties": {
        "timestamp": "2024-04-28T00:08:44Z",
        "version": 2,
        "changeset": 150600191,
        "addr:city": "Canoas",
        "addr:housenumber": "315",
        "addr:postcode": "92110-040",
        "addr:street": "Rua da Figueira",
        "addr:suburb": "Nossa Senhora das Graças",
        "amenity": "school",
        "name": "Escola Estadual Ensino Fundamental Protásio Diogo de Jesus",
        "religion": "none",
        "id": "way/912194773"
      },
      "geometry": {
        "type": "Polygon",
        "coordinates": [
          [
            [
              -51.1743413,
              -29.9317435
            ],
            [
              -51.1743337,
              -29.9320845
            ],
            [
              -51.1736166,
              -29.9320724
            ],
            [
              -51.1736242,
              -29.9317313
            ],
            [
              -51.1743413,
              -29.9317435
            ]
          ]
        ]
      }
    },
    {
      "type": "Feature",
      "id": "way/912195524",
      "properties": {
        "timestamp": "2021-02-28T22:36:30Z",
        "version": 1,
        "changeset": 100159248,
        "addr:city": "Canoas",
        "addr:housenumber": "2901",
        "addr:postcode": "92025-728",
        "addr:street": "Avenida Santos Ferreira",
        "addr:suburb": "Estância Velha",
        "amenity": "school",
        "name": "Centro Educacional Geração Vida - Unidade Estancia Velha",
        "phone": "+55 51 3150 1270",
        "id": "way/912195524"
      },
      "geometry": {
        "type": "Polygon",
        "coordinates": [
          [
            [
              -51.1466297,
              -29.9271447
            ],
            [
              -51.1466582,
              -29.9278058
            ],
            [
              -51.1461228,
              -29.927816
            ],
            [
              -51.146047,
              -29.9268121
            ],
            [
              -51.1463786,
              -29.9269579
            ],
            [
              -51.1465208,
              -29.9270359
            ],
            [
              -51.1466297,
              -29.9271447
            ]
          ]
        ]
      }
    },
    {
      "type": "Feature",
      "id": "way/912195978",
      "properties": {
        "timestamp": "2021-02-28T22:41:11Z",
        "version": 1,
        "changeset": 100159346,
        "addr:city": "Canoas",
        "addr:housenumber": "963",
        "addr:postcode": "92320-620",
        "addr:street": "Rua Clóvis Bevilacqua",
        "addr:suburb": "Harmonia",
        "amenity": "school",
        "name": "Escola Estadual de Ensino Médio Guilherme de Almeida",
        "phone": "+55 51 3467 1495",
        "id": "way/912195978"
      },
      "geometry": {
        "type": "Polygon",
        "coordinates": [
          [
            [
              -51.2083419,
              -29.9126166
            ],
            [
              -51.2089834,
              -29.9125676
            ],
            [
              -51.2090451,
              -29.9131732
            ],
            [
              -51.2084035,
              -29.9132223
            ],
            [
              -51.2083419,
              -29.9126166
            ]
          ]
        ]
      }
    },
    {
      "type": "Feature",
      "id": "way/912196416",
      "properties": {
        "timestamp": "2021-02-28T22:43:26Z",
        "version": 1,
        "changeset": 100159395,
        "addr:city": "Canoas",
        "addr:housenumber": "525",
        "addr:postcode": "92325-360",
        "addr:street": "Rua São Pedro Pescador",
        "addr:suburb": "Harmônia",
        "amenity": "school",
        "name": "EMEF Joao Paulo I",
        "id": "way/912196416"
      },
      "geometry": {
        "type": "Polygon",
        "coordinates": [
          [
            [
              -51.2078286,
              -29.9091482
            ],
            [
              -51.2078584,
              -29.9095482
            ],
            [
              -51.206841,
              -29.9096052
            ],
            [
              -51.2068112,
              -29.909205
            ],
            [
              -51.2078286,
              -29.9091482
            ]
          ]
        ]
      }
    },
    {
      "type": "Feature",
      "id": "way/912196965",
      "properties": {
        "timestamp": "2021-02-28T22:46:38Z",
        "version": 1,
        "changeset": 100159487,
        "addr:city": "Canoas",
        "addr:housenumber": "625",
        "addr:postcode": "92420-250",
        "addr:street": "Rua João Leivas de Carvalho",
        "amenity": "school",
        "name": "E.M.E.I. Bem me Quer",
        "phone": "+55 51 3477 4590",
        "id": "way/912196965"
      },
      "geometry": {
        "type": "Polygon",
        "coordinates": [
          [
            [
              -51.1738626,
              -29.883175
            ],
            [
              -51.1742915,
              -29.8835557
            ],
            [
              -51.1736221,
              -29.8835546
            ],
            [
              -51.173623,
              -29.8831746
            ],
            [
              -51.1738626,
              -29.883175
            ]
          ]
        ]
      }
    },
    {
      "type": "Feature",
      "id": "way/912197451",
      "properties": {
        "timestamp": "2021-02-28T22:49:47Z",
        "version": 1,
        "changeset": 100159556,
        "addr:city": "Canoas",
        "addr:housenumber": "1721",
        "addr:postcode": "92120-110",
        "addr:street": "Rua Santos Dumont",
        "addr:suburb": "Niteroí",
        "amenity": "school",
        "name": "Escola Estadual de Ensino Médio João XXIII",
        "phone": "+55 51 3475 1196",
        "id": "way/912197451"
      },
      "geometry": {
        "type": "Polygon",
        "coordinates": [
          [
            [
              -51.1591062,
              -29.9457131
            ],
            [
              -51.159082,
              -29.9465021
            ],
            [
              -51.1585189,
              -29.9464891
            ],
            [
              -51.1585433,
              -29.9457
            ],
            [
              -51.1591062,
              -29.9457131
            ]
          ]
        ]
      }
    },
    {
      "type": "Feature",
      "id": "way/912197579",
      "properties": {
        "timestamp": "2021-02-28T22:51:09Z",
        "version": 1,
        "changeset": 100159585,
        "addr:city": "Canoas",
        "addr:housenumber": "207",
        "addr:postcode": "92120-030",
        "addr:street": "Rua Júlio de Castilhos",
        "addr:suburb": "Niterói",
        "amenity": "school",
        "name": "Colégio Rui Barbosa",
        "phone": "+55 51 3475 4725",
        "id": "way/912197579"
      },
      "geometry": {
        "type": "Polygon",
        "coordinates": [
          [
            [
              -51.174075,
              -29.955789
            ],
            [
              -51.1740597,
              -29.9561816
            ],
            [
              -51.1736325,
              -29.9561691
            ],
            [
              -51.1736478,
              -29.9557764
            ],
            [
              -51.174075,
              -29.955789
            ]
          ]
        ]
      }
    },
    {
      "type": "Feature",
      "id": "way/913306502",
      "properties": {
        "timestamp": "2021-03-03T21:33:25Z",
        "version": 1,
        "changeset": 100375654,
        "addr:city": "Canoas",
        "addr:housenumber": "1359",
        "addr:postcode": "92120-170",
        "addr:street": "Rua Alegrete",
        "addr:suburb": "Niteroí",
        "amenity": "school",
        "name": "Escola Estadual Ensino Fundamental Guanabara",
        "phone": "+55 51 3475 3539",
        "id": "way/913306502"
      },
      "geometry": {
        "type": "Polygon",
        "coordinates": [
          [
            [
              -51.1630188,
              -29.9544356
            ],
            [
              -51.1630097,
              -29.9548278
            ],
            [
              -51.1627524,
              -29.9548234
            ],
            [
              -51.1622344,
              -29.954422
            ],
            [
              -51.1630188,
              -29.9544356
            ]
          ]
        ]
      }
    },
    {
      "type": "Feature",
      "id": "way/913310706",
      "properties": {
        "timestamp": "2021-03-03T21:50:00Z",
        "version": 1,
        "changeset": 100376149,
        "addr:city": "Canoas",
        "addr:housenumber": "2020",
        "addr:postcode": "92330-390",
        "addr:street": "Rua Campinas",
        "addr:suburb": "Mathias Velho",
        "amenity": "school",
        "name": "E.E.E.M. São Francisco de Assis",
        "phone": "+55 51 3466 6600",
        "id": "way/913310706"
      },
      "geometry": {
        "type": "Polygon",
        "coordinates": [
          [
            [
              -51.2120118,
              -29.9062029
            ],
            [
              -51.2109671,
              -29.9062555
            ],
            [
              -51.2108197,
              -29.9040549
            ],
            [
              -51.211864,
              -29.9040022
            ],
            [
              -51.2120118,
              -29.9062029
            ]
          ]
        ]
      }
    },
    {
      "type": "Feature",
      "id": "way/913310891",
      "properties": {
        "timestamp": "2021-03-03T21:51:56Z",
        "version": 1,
        "changeset": 100376194,
        "addr:city": "Canoas",
        "addr:housenumber": "2001",
        "addr:postcode": "92340-330",
        "addr:street": "Rua Erechim",
        "addr:suburb": "Mathias Velho",
        "amenity": "school",
        "name": "EMEF Professora Odette Yolanda Oliveira Freitas",
        "phone": "+55 51 3466 0661",
        "id": "way/913310891"
      },
      "geometry": {
        "type": "Polygon",
        "coordinates": [
          [
            [
              -51.2340299,
              -29.9034021
            ],
            [
              -51.2335283,
              -29.9034302
            ],
            [
              -51.2334751,
              -29.9027145
            ],
            [
              -51.2339766,
              -29.9026864
            ],
            [
              -51.2340299,
              -29.9034021
            ]
          ]
        ]
      }
    },
    {
      "type": "Feature",
      "id": "way/913311555",
      "properties": {
        "timestamp": "2021-03-03T21:56:19Z",
        "version": 1,
        "changeset": 100376313,
        "addr:city": "Canoas",
        "addr:housenumber": "1400",
        "addr:postcode": "92310-500",
        "addr:street": "Rua José Maia Filho",
        "addr:suburb": "Harmonia",
        "amenity": "school",
        "name": "EEEM Affonso Charlier",
        "phone": "+55 51 3472 4629",
        "id": "way/913311555"
      },
      "geometry": {
        "type": "Polygon",
        "coordinates": [
          [
            [
              -51.1929259,
              -29.9103095
            ],
            [
              -51.191951,
              -29.9104097
            ],
            [
              -51.1917732,
              -29.9091106
            ],
            [
              -51.1927483,
              -29.9090104
            ],
            [
              -51.1929259,
              -29.9103095
            ]
          ]
        ]
      }
    },
    {
      "type": "Feature",
      "id": "way/913311957",
      "properties": {
        "timestamp": "2021-03-03T21:57:32Z",
        "version": 1,
        "changeset": 100376340,
        "addr:city": "Canoas",
        "addr:housenumber": "1037",
        "addr:postcode": "92200-450",
        "addr:street": "Rua Montenegro",
        "amenity": "school",
        "name": "EMEI Gilda Schiavon",
        "phone": "+55 51 3466 7235",
        "id": "way/913311957"
      },
      "geometry": {
        "type": "Polygon",
        "coordinates": [
          [
            [
              -51.2013241,
              -29.9639133
            ],
            [
              -51.2011402,
              -29.9644337
            ],
            [
              -51.2008477,
              -29.9643562
            ],
            [
              -51.2009771,
              -29.9639896
            ],
            [
              -51.201169,
              -29.9638722
            ],
            [
              -51.2013241,
              -29.9639133
            ]
          ]
        ]
      }
    },
    {
      "type": "Feature",
      "id": "way/913315832",
      "properties": {
        "timestamp": "2021-03-03T22:17:57Z",
        "version": 1,
        "changeset": 100376854,
        "addr:city": "Canoas",
        "addr:housenumber": "664",
        "addr:postcode": "92200-290",
        "addr:street": "Rua Polivalente",
        "addr:suburb": "Rio Branco",
        "amenity": "school",
        "name": "Escola Estadual de Ensino Médio Visconde Do Rio Branco",
        "id": "way/913315832"
      },
      "geometry": {
        "type": "Polygon",
        "coordinates": [
          [
            [
              -51.1873684,
              -29.9597684
            ],
            [
              -51.1870124,
              -29.9607619
            ],
            [
              -51.1850198,
              -29.9602263
            ],
            [
              -51.1853759,
              -29.9592324
            ],
            [
              -51.1873684,
              -29.9597684
            ]
          ]
        ]
      }
    },
    {
      "type": "Feature",
      "id": "way/913315921",
      "properties": {
        "timestamp": "2021-03-03T22:19:31Z",
        "version": 1,
        "changeset": 100376892,
        "addr:city": "Canoas",
        "addr:housenumber": "278",
        "addr:postcode": "92120-170",
        "addr:street": "Rua Alegrete",
        "addr:suburb": "Niterói",
        "amenity": "school",
        "name": "Escola Estadual Ensino Fundamental Augusto Severo",
        "id": "way/913315921"
      },
      "geometry": {
        "type": "Polygon",
        "coordinates": [
          [
            [
              -51.1730868,
              -29.9542509
            ],
            [
              -51.1730751,
              -29.9546194
            ],
            [
              -51.1725197,
              -29.9546061
            ],
            [
              -51.1725315,
              -29.9542376
            ],
            [
              -51.1730868,
              -29.9542509
            ]
          ]
        ]
      }
    },
    {
      "type": "Feature",
      "id": "way/1296431905",
      "properties": {
        "timestamp": "2024-06-26T18:07:49Z",
        "version": 1,
        "changeset": 153215151,
        "amenity": "school",
        "name": "EEEF Planalto Canoense",
        "id": "way/1296431905"
      },
      "geometry": {
        "type": "Polygon",
        "coordinates": [
          [
            [
              -51.1224097,
              -29.9214016
            ],
            [
              -51.1215862,
              -29.92149
            ],
            [
              -51.1214709,
              -29.9208135
            ],
            [
              -51.1222917,
              -29.9206949
            ],
            [
              -51.1224097,
              -29.9214016
            ]
          ]
        ]
      }
    },
    {
      "type": "Feature",
      "id": "node/836204320",
      "properties": {
        "timestamp": "2023-11-10T10:35:47Z",
        "version": 5,
        "changeset": 143857003,
        "addr:housenumber": "3393",
        "addr:street": "Rua Tamoio",
        "amenity": "school",
        "name": "Colégio Espírito Santo",
        "website": "https://ces.g12.br/",
        "id": "node/836204320"
      },
      "geometry": {
        "type": "Point",
        "coordinates": [
          -51.1678311,
          -29.9306849
        ]
      }
    },
    {
      "type": "Feature",
      "id": "node/836693709",
      "properties": {
        "timestamp": "2013-06-07T22:21:31Z",
        "version": 3,
        "changeset": 16463268,
        "addr:housenumber": "10",
        "addr:postcode": "92025-765",
        "addr:street": "Rua Manacás",
        "amenity": "school",
        "name": "Escola de Educação Infantil Formiguinha",
        "website": "http://www.escolaformiguinha.com",
        "id": "node/836693709"
      },
      "geometry": {
        "type": "Point",
        "coordinates": [
          -51.1545131,
          -29.9276642
        ]
      }
    },
    {
      "type": "Feature",
      "id": "node/849153055",
      "properties": {
        "timestamp": "2021-02-26T22:58:16Z",
        "version": 3,
        "changeset": 100078041,
        "addr:city": "Canoas",
        "addr:postcode": "92025-510",
        "addr:street": "Rua Indígena",
        "addr:suburb": "Nossa Senhora das Graças",
        "amenity": "school",
        "name": "Escola Estadual Jasmelino Jardim",
        "phone": "+55 51 3476 9011",
        "id": "node/849153055"
      },
      "geometry": {
        "type": "Point",
        "coordinates": [
          -51.160083,
          -29.9338573
        ]
      }
    },
    {
      "type": "Feature",
      "id": "node/849587995",
      "properties": {
        "timestamp": "2023-11-10T10:35:46Z",
        "version": 3,
        "changeset": 143857003,
        "addr:street": "Rua Tamoio",
        "amenity": "school",
        "name": "Colégio Espírito Santo",
        "website": "https://ces.g12.br/",
        "id": "node/849587995"
      },
      "geometry": {
        "type": "Point",
        "coordinates": [
          -51.1684319,
          -29.9300898
        ]
      }
    },
    {
      "type": "Feature",
      "id": "node/1804604034",
      "properties": {
        "timestamp": "2012-06-28T01:24:59Z",
        "version": 1,
        "changeset": 12042420,
        "amenity": "school",
        "name": "QI - Escolas e Faculdades",
        "id": "node/1804604034"
      },
      "geometry": {
        "type": "Point",
        "coordinates": [
          -51.1777773,
          -29.904304
        ]
      }
    },
    {
      "type": "Feature",
      "id": "node/2641342433",
      "properties": {
        "timestamp": "2014-01-29T13:17:18Z",
        "version": 2,
        "changeset": 20265039,
        "amenity": "school",
        "name": "Escolinha Infantil Paraíso da Criança",
        "id": "node/2641342433"
      },
      "geometry": {
        "type": "Point",
        "coordinates": [
          -51.161057,
          -29.9047482
        ]
      }
    },
    {
      "type": "Feature",
      "id": "node/2641995958",
      "properties": {
        "timestamp": "2021-02-27T20:54:02Z",
        "version": 3,
        "changeset": 100115897,
        "addr:city": "Canoas",
        "addr:housenumber": "10",
        "addr:postcode": "92030-360",
        "addr:street": "Rua Jacob Longoni",
        "amenity": "school",
        "name": "Ulbra Paz",
        "phone": "+55 51 3472 7758",
        "id": "node/2641995958"
      },
      "geometry": {
        "type": "Point",
        "coordinates": [
          -51.1305309,
          -29.9247139
        ]
      }
    },
    {
      "type": "Feature",
      "id": "node/3241414367",
      "properties": {
        "timestamp": "2014-12-18T18:24:36Z",
        "version": 1,
        "changeset": 27555825,
        "entrance": "main",
        "id": "node/3241414367"
      },
      "geometry": {
        "type": "Point",
        "coordinates": [
          -51.1263149,
          -29.8906493
        ]
      }
    },
    {
      "type": "Feature",
      "id": "node/3429050609",
      "properties": {
        "timestamp": "2021-03-03T22:21:06Z",
        "version": 3,
        "changeset": 100376927,
        "addr:city": "Canoas",
        "addr:housenumber": "830",
        "addr:postcode": "92120-002",
        "addr:street": "Rua Oscar Pedro Kulzer",
        "addr:suburb": "Vila Hercules",
        "amenity": "school",
        "name": "EMEF Tancredo de Almeida Neves",
        "phone": "+55 51 3051 1557",
        "id": "node/3429050609"
      },
      "geometry": {
        "type": "Point",
        "coordinates": [
          -51.1495591,
          -29.919117
        ]
      }
    },
    {
      "type": "Feature",
      "id": "node/3606228201",
      "properties": {
        "timestamp": "2015-06-20T02:18:35Z",
        "version": 1,
        "changeset": 32087809,
        "addr:housenumber": "43",
        "addr:postcode": "92310-010",
        "addr:street": "Rua Afonso Charlier",
        "amenity": "school",
        "contact:phone": "+55 51 3031-7833",
        "name": "Espaço Criativo Riska e Rabiska",
        "id": "node/3606228201"
      },
      "geometry": {
        "type": "Point",
        "coordinates": [
          -51.1842275,
          -29.919312
        ]
      }
    },
    {
      "type": "Feature",
      "id": "node/4732234966",
      "properties": {
        "timestamp": "2017-05-02T02:08:52Z",
        "version": 4,
        "changeset": 48321573,
        "addr:city": "Canoas",
        "addr:housenumber": "1300",
        "addr:postcode": "92120-030",
        "addr:street": "Rua Lajeado",
        "addr:suburb": "Niterói",
        "amenity": "school",
        "name": "Centro de Pastoral do Colégio La Salle Niterói",
        "id": "node/4732234966"
      },
      "geometry": {
        "type": "Point",
        "coordinates": [
          -51.1717136,
          -29.9541644
        ]
      }
    },
    {
      "type": "Feature",
      "id": "node/7289652484",
      "properties": {
        "timestamp": "2020-03-12T21:25:42Z",
        "version": 1,
        "changeset": 82131027,
        "amenity": "school",
        "name": "EMEI Marilene da Silva Machado",
        "id": "node/7289652484"
      },
      "geometry": {
        "type": "Point",
        "coordinates": [
          -51.1962574,
          -29.9230746
        ]
      }
    },
    {
      "type": "Feature",
      "id": "node/7289660885",
      "properties": {
        "timestamp": "2020-03-12T21:25:42Z",
        "version": 1,
        "changeset": 82131027,
        "amenity": "school",
        "name": "EMEF Assis Brasil",
        "id": "node/7289660885"
      },
      "geometry": {
        "type": "Point",
        "coordinates": [
          -51.1951765,
          -29.9344628
        ]
      }
    },
    {
      "type": "Feature",
      "id": "node/8358883001",
      "properties": {
        "timestamp": "2021-01-24T23:00:20Z",
        "version": 2,
        "changeset": 98078106,
        "addr:city": "Canoas",
        "addr:housenumber": "721",
        "addr:postcode": "92020-320",
        "addr:street": "Avenida Inconfidência",
        "amenity": "school",
        "name": "E.M.E.I. Vó Babali",
        "phone": "+55 51 3463 9326",
        "id": "node/8358883001"
      },
      "geometry": {
        "type": "Point",
        "coordinates": [
          -51.1709938,
          -29.9211526
        ]
      }
    },
    {
      "type": "Feature",
      "id": "node/8358916335",
      "properties": {
        "timestamp": "2021-01-24T23:16:01Z",
        "version": 1,
        "changeset": 98078370,
        "addr:city": "Canoas",
        "addr:housenumber": "55",
        "addr:postcode": "92330-240",
        "addr:street": "Rua São Lourenço",
        "amenity": "school",
        "name": "E.M.E.I. Vó Sara",
        "phone": "+55 51 3426 3483",
        "id": "node/8358916335"
      },
      "geometry": {
        "type": "Point",
        "coordinates": [
          -51.2278958,
          -29.9016026
        ]
      }
    },
    {
      "type": "Feature",
      "id": "node/8358917126",
      "properties": {
        "timestamp": "2021-01-24T23:09:28Z",
        "version": 1,
        "changeset": 98078269,
        "addr:city": "Canoas",
        "addr:housenumber": "1036",
        "addr:postcode": "92110-260",
        "addr:street": "Rua Gomes Freire de Andrade",
        "amenity": "school",
        "name": "E.M.E.I. Mundo Mágico",
        "phone": "+55 51 3476 6993",
        "id": "node/8358917126"
      },
      "geometry": {
        "type": "Point",
        "coordinates": [
          -51.167992,
          -29.9400935
        ]
      }
    },
    {
      "type": "Feature",
      "id": "node/8358920477",
      "properties": {
        "timestamp": "2021-01-25T18:10:51Z",
        "version": 2,
        "changeset": 98138382,
        "addr:city": "Canoas",
        "addr:postcode": "92415-710",
        "addr:street": "Avenida 17 de Abril",
        "amenity": "school",
        "name": "E.M.E.I. Vó Corina",
        "phone": "+55 51 3468 3027",
        "id": "node/8358920477"
      },
      "geometry": {
        "type": "Point",
        "coordinates": [
          -51.1398113,
          -29.9016666
        ]
      }
    },
    {
      "type": "Feature",
      "id": "node/8358926645",
      "properties": {
        "timestamp": "2021-01-24T23:14:06Z",
        "version": 1,
        "changeset": 98078345,
        "addr:city": "Canoas",
        "addr:housenumber": "735",
        "addr:postcode": "92330-460",
        "addr:street": "Rua Taquari",
        "amenity": "school",
        "name": "E.M.E.I. Recanto do Filhote",
        "phone": "+55 51 3426 3836",
        "id": "node/8358926645"
      },
      "geometry": {
        "type": "Point",
        "coordinates": [
          -51.2151222,
          -29.8999444
        ]
      }
    },
    {
      "type": "Feature",
      "id": "node/8358927609",
      "properties": {
        "timestamp": "2021-01-24T23:24:00Z",
        "version": 1,
        "changeset": 98078496,
        "addr:city": "Canoas",
        "addr:housenumber": "120",
        "addr:postcode": "92035-800",
        "addr:street": "Rua José Danilo Menezes",
        "amenity": "school",
        "name": "E.M.E.I. Pé-de-Moleque",
        "phone": "+55 51 3478 4279",
        "id": "node/8358927609"
      },
      "geometry": {
        "type": "Point",
        "coordinates": [
          -51.1204607,
          -29.9159918
        ]
      }
    },
    {
      "type": "Feature",
      "id": "node/8358941414",
      "properties": {
        "timestamp": "2021-02-26T22:09:14Z",
        "version": 2,
        "changeset": 100076768,
        "addr:city": "Canoas",
        "addr:housenumber": "634",
        "addr:postcode": "92320-700",
        "addr:street": "Rua José Veríssimo",
        "addr:suburb": "Harmonia",
        "amenity": "school",
        "name": "EMEI Mãe Augusta",
        "phone": "+55 51 3472 8255",
        "id": "node/8358941414"
      },
      "geometry": {
        "type": "Point",
        "coordinates": [
          -51.2052989,
          -29.9121392
        ]
      }
    },
    {
      "type": "Feature",
      "id": "node/8358972494",
      "properties": {
        "timestamp": "2021-01-25T00:01:58Z",
        "version": 1,
        "changeset": 98079087,
        "addr:city": "Canoas",
        "addr:housenumber": "195",
        "addr:postcode": "92310-450",
        "addr:street": "Rua Fernão de Magalhães",
        "amenity": "school",
        "name": "E.M.E.I. Vovó Doralice",
        "id": "node/8358972494"
      },
      "geometry": {
        "type": "Point",
        "coordinates": [
          -51.193091,
          -29.9157782
        ]
      }
    },
    {
      "type": "Feature",
      "id": "node/8359001577",
      "properties": {
        "timestamp": "2021-01-25T00:42:47Z",
        "version": 1,
        "changeset": 98079729,
        "addr:city": "Canoas",
        "addr:housenumber": "333",
        "addr:postcode": "92420-070",
        "addr:street": "Rua Engenheiro Rebouças",
        "amenity": "school",
        "name": "EMEI Vó Inezinha",
        "phone": "+55 51 3477 5000",
        "id": "node/8359001577"
      },
      "geometry": {
        "type": "Point",
        "coordinates": [
          -51.1833876,
          -29.8864993
        ]
      }
    },
    {
      "type": "Feature",
      "id": "node/8359008218",
      "properties": {
        "timestamp": "2021-01-25T00:25:38Z",
        "version": 1,
        "changeset": 98079480,
        "addr:city": "Canoas",
        "addr:housenumber": "300",
        "addr:postcode": "92440-390",
        "addr:street": "Rua Dona Luci",
        "amenity": "school",
        "name": "E.M.E.I. Vó Nelsa",
        "phone": "+55 51 3426 1245",
        "id": "node/8359008218"
      },
      "geometry": {
        "type": "Point",
        "coordinates": [
          -51.1317527,
          -29.8972133
        ]
      }
    },
    {
      "type": "Feature",
      "id": "node/8359021312",
      "properties": {
        "timestamp": "2024-05-08T22:12:11Z",
        "version": 2,
        "changeset": 151077226,
        "addr:city": "Canoas",
        "addr:housenumber": "282",
        "addr:postcode": "92200-650",
        "addr:street": "Rua João Nicolau",
        "amenity": "school",
        "name": "EMEI Vó maria Aldina",
        "phone": "+55 51 3476 2330",
        "id": "node/8359021312"
      },
      "geometry": {
        "type": "Point",
        "coordinates": [
          -51.1800751,
          -29.9451715
        ]
      }
    },
    {
      "type": "Feature",
      "id": "node/8359021361",
      "properties": {
        "timestamp": "2024-05-20T19:00:55Z",
        "version": 2,
        "changeset": 151596133,
        "addr:city": "Canoas",
        "addr:housenumber": "154",
        "addr:postcode": "92120-100",
        "addr:street": "Rua Santa Cruz",
        "amenity": "school",
        "name": "E.M.E.I. Beija-Flor",
        "phone": "+55 51 3464 6490",
        "id": "node/8359021361"
      },
      "geometry": {
        "type": "Point",
        "coordinates": [
          -51.1749595,
          -29.9469642
        ]
      }
    },
    {
      "type": "Feature",
      "id": "node/8359040134",
      "properties": {
        "timestamp": "2021-01-25T00:56:47Z",
        "version": 1,
        "changeset": 98079922,
        "addr:city": "Canoas",
        "addr:housenumber": "500",
        "addr:postcode": "92130-180",
        "addr:street": "Rua Paulo Fonteles",
        "amenity": "school",
        "name": "EMEI Vó Lola",
        "phone": "+55 51 3477 3689",
        "id": "node/8359040134"
      },
      "geometry": {
        "type": "Point",
        "coordinates": [
          -51.155183,
          -29.959866
        ]
      }
    },
    {
      "type": "Feature",
      "id": "node/8359045737",
      "properties": {
        "timestamp": "2021-01-25T00:59:05Z",
        "version": 1,
        "changeset": 98079954,
        "addr:city": "Canoas",
        "addr:postcode": "92110-000",
        "addr:street": "Rua Venâncio Aires",
        "amenity": "school",
        "name": "EMEI Pequeno Polegar",
        "phone": "+55 51 3472 5617",
        "id": "node/8359045737"
      },
      "geometry": {
        "type": "Point",
        "coordinates": [
          -51.17406,
          -29.939262
        ]
      }
    },
    {
      "type": "Feature",
      "id": "node/8462401307",
      "properties": {
        "timestamp": "2021-02-26T22:36:48Z",
        "version": 1,
        "changeset": 100077568,
        "addr:city": "Canoas",
        "addr:housenumber": "184",
        "addr:postcode": "92310-360",
        "addr:street": "Rua Victor Kessler",
        "addr:suburb": "Centro",
        "amenity": "school",
        "name": "Escolinha Jeitinho de Anjo",
        "phone": "+55 51 3476 5058",
        "id": "node/8462401307"
      },
      "geometry": {
        "type": "Point",
        "coordinates": [
          -51.1845796,
          -29.9162588
        ]
      }
    },
    {
      "type": "Feature",
      "id": "node/8462416797",
      "properties": {
        "timestamp": "2021-02-26T22:08:05Z",
        "version": 1,
        "changeset": 100076732,
        "addr:city": "Canoas",
        "addr:housenumber": "203",
        "addr:postcode": "92420-310",
        "addr:street": "Rua Pindorama",
        "addr:suburb": "São José",
        "amenity": "school",
        "name": "EEI Pingo de Gente",
        "phone": "+55 51 3032 0845",
        "id": "node/8462416797"
      },
      "geometry": {
        "type": "Point",
        "coordinates": [
          -51.1743349,
          -29.884771
        ]
      }
    },
    {
      "type": "Feature",
      "id": "node/8462426248",
      "properties": {
        "timestamp": "2022-05-19T23:30:03Z",
        "version": 2,
        "changeset": 121217404,
        "addr:city": "Canoas",
        "addr:housenumber": "1285",
        "addr:postcode": "92200-250",
        "addr:street": "Rua Ana Nery",
        "addr:suburb": "Rio Branco",
        "amenity": "school",
        "name": "Escola Maria Imaculada",
        "phone": "+55 51 3466 7536",
        "id": "node/8462426248"
      },
      "geometry": {
        "type": "Point",
        "coordinates": [
          -51.1898022,
          -29.9607314
        ]
      }
    },
    {
      "type": "Feature",
      "id": "node/8462429471",
      "properties": {
        "timestamp": "2021-02-26T22:44:32Z",
        "version": 1,
        "changeset": 100077745,
        "addr:city": "Canoas",
        "addr:housenumber": "195",
        "addr:postcode": "92325-010",
        "addr:street": "Rua Fernão de Magalhães",
        "addr:suburb": "Harmonia",
        "amenity": "school",
        "name": "EMEI Vovó Doralice",
        "id": "node/8462429471"
      },
      "geometry": {
        "type": "Point",
        "coordinates": [
          -51.1931979,
          -29.9169744
        ]
      }
    },
    {
      "type": "Feature",
      "id": "node/8462429749",
      "properties": {
        "timestamp": "2021-02-26T22:14:33Z",
        "version": 1,
        "changeset": 100076914,
        "addr:city": "Canoas",
        "addr:housenumber": "229",
        "addr:postcode": "92120-130",
        "addr:street": "Rua Capistrano de Abreu",
        "addr:suburb": "Niteroí",
        "amenity": "school",
        "name": "Colégio Luterano Concórdia",
        "phone": "+55 51 3475 1243",
        "id": "node/8462429749"
      },
      "geometry": {
        "type": "Point",
        "coordinates": [
          -51.1742416,
          -29.9501585
        ]
      }
    },
    {
      "type": "Feature",
      "id": "node/8462446724",
      "properties": {
        "timestamp": "2021-02-26T22:29:01Z",
        "version": 1,
        "changeset": 100077348,
        "addr:city": "Canoas",
        "addr:housenumber": "220",
        "addr:postcode": "92120-160",
        "addr:street": "Rua Protásio Alves",
        "addr:suburb": "Niteroí",
        "amenity": "school",
        "name": "Feliz Idade Recreação e Educação Infantil",
        "phone": "+55 51 3464 1416",
        "id": "node/8462446724"
      },
      "geometry": {
        "type": "Point",
        "coordinates": [
          -51.1743388,
          -29.948914
        ]
      }
    },
    {
      "type": "Feature",
      "id": "node/8462447054",
      "properties": {
        "timestamp": "2021-02-26T22:56:22Z",
        "version": 1,
        "changeset": 100077995,
        "addr:city": "Canoas",
        "addr:housenumber": "4000",
        "addr:postcode": "92323-120",
        "addr:street": "Avenida Guilherme Schell",
        "addr:suburb": "Centro",
        "amenity": "school",
        "name": "EMEF Ícaro",
        "phone": "+55 51 3472 6853",
        "id": "node/8462447054"
      },
      "geometry": {
        "type": "Point",
        "coordinates": [
          -51.1784251,
          -29.9332225
        ]
      }
    },
    {
      "type": "Feature",
      "id": "node/8462465189",
      "properties": {
        "timestamp": "2021-02-26T22:41:28Z",
        "version": 1,
        "changeset": 100077682,
        "addr:city": "Canoas",
        "addr:housenumber": "504",
        "addr:postcode": "92130-290",
        "addr:street": "Rua Artur Bernardes",
        "addr:suburb": "Niterói",
        "amenity": "school",
        "name": "Associação Assistencial Beneficente Niterói",
        "phone": "+55 51 3475 4786",
        "id": "node/8462465189"
      },
      "geometry": {
        "type": "Point",
        "coordinates": [
          -51.1701764,
          -29.9620751
        ]
      }
    },
    {
      "type": "Feature",
      "id": "node/8462483777",
      "properties": {
        "timestamp": "2021-02-26T23:07:34Z",
        "version": 1,
        "changeset": 100078268,
        "addr:city": "Canoas",
        "addr:housenumber": "179",
        "addr:postcode": "92420-310",
        "addr:street": "Rua Pindorama",
        "addr:suburb": "São José",
        "amenity": "school",
        "name": "EEF Kessler",
        "phone": "+55 51 3427 4524",
        "id": "node/8462483777"
      },
      "geometry": {
        "type": "Point",
        "coordinates": [
          -51.1745511,
          -29.8836888
        ]
      }
    },
    {
      "type": "Feature",
      "id": "node/8462484238",
      "properties": {
        "timestamp": "2021-02-26T23:01:24Z",
        "version": 1,
        "changeset": 100078126,
        "addr:city": "Canoas",
        "addr:housenumber": "35",
        "addr:postcode": "92310-080",
        "addr:street": "Avenida Guilherme Schell",
        "addr:suburb": "Centro",
        "amenity": "school",
        "name": "Maternal e Recreação Criança Esperança",
        "phone": "+55 51 3031 1051",
        "id": "node/8462484238"
      },
      "geometry": {
        "type": "Point",
        "coordinates": [
          -51.1810146,
          -29.9227442
        ]
      }
    },
    {
      "type": "Feature",
      "id": "node/8462485743",
      "properties": {
        "timestamp": "2021-02-26T23:05:44Z",
        "version": 1,
        "changeset": 100078232,
        "addr:city": "Canoas",
        "addr:housenumber": "185",
        "addr:postcode": "92310-300",
        "addr:street": "Rua Mathias Velho",
        "addr:suburb": "Centro",
        "amenity": "school",
        "name": "Colégio Unificado Canoas",
        "phone": "+55 51 3059 3909",
        "id": "node/8462485743"
      },
      "geometry": {
        "type": "Point",
        "coordinates": [
          -51.1847576,
          -29.9115493
        ]
      }
    },
    {
      "type": "Feature",
      "id": "node/8462493879",
      "properties": {
        "timestamp": "2021-02-26T23:03:31Z",
        "version": 1,
        "changeset": 100078171,
        "addr:city": "Canoas",
        "addr:housenumber": "3000",
        "addr:postcode": "92200-714",
        "addr:street": "Avenida Guilherme Schell",
        "addr:suburb": "Fátima",
        "amenity": "school",
        "name": "Escola de Educação Profissional Doutor Bernardino",
        "phone": "+55 51 3466 9936",
        "id": "node/8462493879"
      },
      "geometry": {
        "type": "Point",
        "coordinates": [
          -51.1776074,
          -29.9416621
        ]
      }
    },
    {
      "type": "Feature",
      "id": "node/8462506444",
      "properties": {
        "timestamp": "2021-02-26T23:15:25Z",
        "version": 1,
        "changeset": 100078440,
        "addr:city": "Canoas",
        "addr:postcode": "92340-042",
        "addr:street": "Avenida Guilherme Schell",
        "addr:suburb": "Mathias Velho",
        "amenity": "school",
        "name": "Associação Educacional Por Amor",
        "phone": "+55 51 3059 0159",
        "id": "node/8462506444"
      },
      "geometry": {
        "type": "Point",
        "coordinates": [
          -51.1785952,
          -29.9022744
        ]
      }
    },
    {
      "type": "Feature",
      "id": "node/8462507439",
      "properties": {
        "timestamp": "2021-06-13T16:28:01Z",
        "version": 2,
        "changeset": 106289421,
        "addr:city": "Canoas",
        "addr:housenumber": "1450",
        "addr:postcode": "92325-330",
        "addr:street": "Rua Engenheiro Kindler",
        "addr:suburb": "Vila Cerne",
        "amenity": "school",
        "name": "EMEF Gonçalves Dias",
        "phone": "+55 51 3472-4487",
        "id": "node/8462507439"
      },
      "geometry": {
        "type": "Point",
        "coordinates": [
          -51.2164437,
          -29.9133363
        ]
      }
    },
    {
      "type": "Feature",
      "id": "node/8463871243",
      "properties": {
        "timestamp": "2021-02-27T15:21:08Z",
        "version": 1,
        "changeset": 100102309,
        "addr:city": "Canoas",
        "addr:housenumber": "1435",
        "addr:postcode": "92200-440",
        "addr:street": "Rua Doutor Nelson Pain Terra",
        "addr:suburb": "Rio Branco",
        "amenity": "school",
        "name": "EMEF Coronel Francisco Pinto Bandeira",
        "phone": "+55 51 3466 8180",
        "id": "node/8463871243"
      },
      "geometry": {
        "type": "Point",
        "coordinates": [
          -51.1904358,
          -29.9579921
        ]
      }
    },
    {
      "type": "Feature",
      "id": "node/8463879437",
      "properties": {
        "timestamp": "2021-02-27T15:23:52Z",
        "version": 1,
        "changeset": 100102480,
        "addr:city": "Canoas",
        "addr:housenumber": "261",
        "addr:postcode": "92325-000",
        "addr:street": "Rua da Associação",
        "addr:suburb": "Harmônia",
        "amenity": "school",
        "name": "Associação Beneficente e Educadora Vó Maria",
        "id": "node/8463879437"
      },
      "geometry": {
        "type": "Point",
        "coordinates": [
          -51.2085503,
          -29.9088922
        ]
      }
    },
    {
      "type": "Feature",
      "id": "node/8464509799",
      "properties": {
        "timestamp": "2021-02-27T21:15:25Z",
        "version": 1,
        "changeset": 100116475,
        "addr:city": "Canoas",
        "addr:housenumber": "178",
        "addr:postcode": "92340-180",
        "addr:street": "Rua São Paulo",
        "addr:suburb": "Mathias Velho",
        "amenity": "school",
        "name": "Centro Educacional Geração Vida - Unidade Mathias Velh",
        "id": "node/8464509799"
      },
      "geometry": {
        "type": "Point",
        "coordinates": [
          -51.1790124,
          -29.899078
        ]
      }
    },
    {
      "type": "Feature",
      "id": "node/8464544396",
      "properties": {
        "timestamp": "2021-02-27T21:01:25Z",
        "version": 1,
        "changeset": 100116081,
        "addr:city": "Canoas",
        "addr:housenumber": "938",
        "addr:postcode": "92200-250",
        "addr:street": "Rua Ana Nery",
        "addr:suburb": "Rio Branco",
        "amenity": "school",
        "name": "Associação Cultural Beneficente Jardim de Infância Pinóquio",
        "phone": "+55 51 3472 9129",
        "id": "node/8464544396"
      },
      "geometry": {
        "type": "Point",
        "coordinates": [
          -51.1785066,
          -29.9588161
        ]
      }
    },
    {
      "type": "Feature",
      "id": "node/8473689804",
      "properties": {
        "timestamp": "2021-02-28T22:02:45Z",
        "version": 1,
        "changeset": 100158329,
        "addr:city": "Canoas",
        "addr:housenumber": "459",
        "addr:postcode": "92130-370",
        "addr:street": "Rua Iraí",
        "addr:suburb": "Niterói",
        "amenity": "school",
        "name": "Esc Ens Fun São José",
        "id": "node/8473689804"
      },
      "geometry": {
        "type": "Point",
        "coordinates": [
          -51.1722836,
          -29.9643248
        ]
      }
    },
    {
      "type": "Feature",
      "id": "node/8473781257",
      "properties": {
        "timestamp": "2021-02-28T22:07:40Z",
        "version": 1,
        "changeset": 100158479,
        "addr:city": "Canoas",
        "addr:housenumber": "800",
        "addr:postcode": "92200-750",
        "addr:street": "Rua Rui Barbosa",
        "addr:suburb": "Fátima",
        "amenity": "school",
        "name": "EEI Reino Encantado",
        "id": "node/8473781257"
      },
      "geometry": {
        "type": "Point",
        "coordinates": [
          -51.1854382,
          -29.9435568
        ]
      }
    },
    {
      "type": "Feature",
      "id": "node/8473810911",
      "properties": {
        "timestamp": "2021-02-28T22:27:14Z",
        "version": 1,
        "changeset": 100159010,
        "addr:city": "Canoas",
        "addr:housenumber": "121",
        "addr:postcode": "92420-560",
        "addr:street": "Rua Licínio Cardoso",
        "addr:suburb": "São José",
        "amenity": "school",
        "name": "Unidade Ensino São Marcos",
        "id": "node/8473810911"
      },
      "geometry": {
        "type": "Point",
        "coordinates": [
          -51.1761566,
          -29.8818769
        ]
      }
    },
    {
      "type": "Feature",
      "id": "node/8473817842",
      "properties": {
        "timestamp": "2021-02-28T22:25:02Z",
        "version": 1,
        "changeset": 100158963,
        "addr:city": "Canoas",
        "addr:housenumber": "2914",
        "addr:postcode": "92030-020",
        "addr:street": "Rua Flores da Cunha",
        "amenity": "school",
        "name": "Centro Educacional Geração Vida - Unidade Olaria",
        "phone": "+55 51 9 8430 9721",
        "id": "node/8473817842"
      },
      "geometry": {
        "type": "Point",
        "coordinates": [
          -51.1354563,
          -29.9263328
        ]
      }
    },
    {
      "type": "Feature",
      "id": "node/8473820560",
      "properties": {
        "timestamp": "2021-02-28T22:38:05Z",
        "version": 1,
        "changeset": 100159283,
        "addr:city": "Canoas",
        "addr:housenumber": "75",
        "addr:postcode": "92310-500",
        "addr:street": "Rua José Maia Filho",
        "addr:suburb": "Harmonia",
        "amenity": "school",
        "name": "Escola de Ensino Médio Logus",
        "phone": "+55 51 3104 4595",
        "id": "node/8473820560"
      },
      "geometry": {
        "type": "Point",
        "coordinates": [
          -51.192657,
          -29.9218909
        ]
      }
    },
    {
      "type": "Feature",
      "id": "node/8473823923",
      "properties": {
        "timestamp": "2021-02-28T22:23:44Z",
        "version": 1,
        "changeset": 100158924,
        "addr:city": "Canoas",
        "addr:housenumber": "241",
        "addr:postcode": "92200-750",
        "addr:street": "Rua Rui Barbosa",
        "addr:suburb": "Fátima",
        "amenity": "school",
        "name": "EEI Trem da Alegria",
        "phone": "+55 51 3472 2959",
        "id": "node/8473823923"
      },
      "geometry": {
        "type": "Point",
        "coordinates": [
          -51.1798537,
          -29.9418006
        ]
      }
    },
    {
      "type": "Feature",
      "id": "node/8484041746",
      "properties": {
        "timestamp": "2021-03-03T21:59:23Z",
        "version": 1,
        "changeset": 100376392,
        "addr:city": "Canoas",
        "addr:housenumber": "250",
        "addr:postcode": "92420-120",
        "addr:street": "Rua Senador Salgado Filho",
        "addr:suburb": "São Luiz",
        "amenity": "school",
        "name": "Escola Estadual Ensino Fundamental Cristóvão Colombo",
        "phone": "+55 51 3477 7300",
        "id": "node/8484041746"
      },
      "geometry": {
        "type": "Point",
        "coordinates": [
          -51.1823802,
          -29.8875453
        ]
      }
    },
    {
      "type": "Feature",
      "id": "node/8484047047",
      "properties": {
        "timestamp": "2021-03-03T21:54:48Z",
        "version": 1,
        "changeset": 100376273,
        "addr:city": "Canoas",
        "addr:housenumber": "1045",
        "addr:postcode": "92200-011",
        "addr:street": "Rua Boa Esperança",
        "addr:suburb": "Rio Branco",
        "amenity": "school",
        "name": "EEI Anjos e Marmanjos",
        "phone": "+55 51 3465 6131",
        "id": "node/8484047047"
      },
      "geometry": {
        "type": "Point",
        "coordinates": [
          -51.1871506,
          -29.9555337
        ]
      }
    },
    {
      "type": "Feature",
      "id": "node/8484053642",
      "properties": {
        "timestamp": "2021-03-03T22:14:59Z",
        "version": 1,
        "changeset": 100376789,
        "addr:city": "Canoas",
        "addr:housenumber": "371",
        "addr:postcode": "92310-190",
        "addr:street": "Rua Domingos Martins",
        "addr:suburb": "Centro",
        "amenity": "school",
        "name": "Associação Educacional Geração Vida - Unidade Centro",
        "id": "node/8484053642"
      },
      "geometry": {
        "type": "Point",
        "coordinates": [
          -51.181517,
          -29.9149103
        ]
      }
    },
    {
      "type": "Feature",
      "id": "node/8484058476",
      "properties": {
        "timestamp": "2021-03-03T22:30:29Z",
        "version": 1,
        "changeset": 100377161,
        "addr:city": "Canoas",
        "addr:housenumber": "460",
        "addr:postcode": "92020-342",
        "addr:street": "Avenida Inconfidência",
        "addr:suburb": "Marechal Rondon",
        "amenity": "school",
        "name": "Escola Ensino Médio O Acadêmico",
        "phone": "+55 51 3472 5433",
        "id": "node/8484058476"
      },
      "geometry": {
        "type": "Point",
        "coordinates": [
          -51.1756634,
          -29.9246667
        ]
      }
    },
    {
      "type": "Feature",
      "id": "node/8484067499",
      "properties": {
        "timestamp": "2021-03-03T22:22:56Z",
        "version": 1,
        "changeset": 100376973,
        "addr:city": "Canoas",
        "addr:housenumber": "329",
        "addr:postcode": "92110-470",
        "addr:street": "Rua Osvaldo Cruz",
        "addr:suburb": "Niterói",
        "amenity": "school",
        "name": "Escola Estadual de Ensino Médio Barão do Amazonas",
        "id": "node/8484067499"
      },
      "geometry": {
        "type": "Point",
        "coordinates": [
          -51.1732271,
          -29.940102
        ]
      }
    },
    {
      "type": "Feature",
      "id": "node/8484074472",
      "properties": {
        "timestamp": "2021-03-03T22:25:48Z",
        "version": 1,
        "changeset": 100377045,
        "addr:city": "Canoas",
        "addr:housenumber": "515",
        "addr:postcode": "92200-300",
        "addr:street": "Rua Primavera",
        "addr:suburb": "Rio Branco",
        "amenity": "school",
        "name": "Escola Estadual Ensino Fundamental Bartolomeu de Gusmão",
        "id": "node/8484074472"
      },
      "geometry": {
        "type": "Point",
        "coordinates": [
          -51.1815839,
          -29.9615377
        ]
      }
    },
    {
      "type": "Feature",
      "id": "node/8484096124",
      "properties": {
        "timestamp": "2021-03-03T22:28:23Z",
        "version": 1,
        "changeset": 100377108,
        "addr:city": "Canoas",
        "addr:housenumber": "1740",
        "addr:postcode": "92110-470",
        "addr:street": "Rua Concórdia",
        "addr:suburb": "Niteroí",
        "amenity": "school",
        "name": "EMEF Pernambuco",
        "id": "node/8484096124"
      },
      "geometry": {
        "type": "Point",
        "coordinates": [
          -51.1586369,
          -29.950207
        ]
      }
    },
    {
      "type": "Feature",
      "id": "node/8484096608",
      "properties": {
        "timestamp": "2021-03-03T22:24:38Z",
        "version": 1,
        "changeset": 100377016,
        "addr:city": "Canoas",
        "addr:housenumber": "166",
        "addr:postcode": "92110-340",
        "addr:street": "Rua Nações Unidas",
        "addr:suburb": "Nossa Senhora das Graças",
        "amenity": "school",
        "name": "Kaiser Escola Infantil Ltda",
        "phone": "+55 51 3476 6146",
        "id": "node/8484096608"
      },
      "geometry": {
        "type": "Point",
        "coordinates": [
          -51.176045,
          -29.929942
        ]
      }
    },
    {
      "type": "Feature",
      "id": "node/8484116356",
      "properties": {
        "timestamp": "2021-03-03T22:56:10Z",
        "version": 1,
        "changeset": 100377694,
        "addr:city": "Canoas",
        "addr:housenumber": "41",
        "addr:postcode": "92110-450",
        "addr:street": "Rua Cristovão Colombo",
        "addr:suburb": "Niterói",
        "amenity": "school",
        "name": "Escola Ensino Médio Ministro Rubem Carlos Ludwig",
        "phone": "+55 51 3476 5325",
        "id": "node/8484116356"
      },
      "geometry": {
        "type": "Point",
        "coordinates": [
          -51.1765832,
          -29.9390889
        ]
      }
    },
    {
      "type": "Feature",
      "id": "node/8484117058",
      "properties": {
        "timestamp": "2021-03-03T22:58:29Z",
        "version": 1,
        "changeset": 100377737,
        "addr:city": "Canoas",
        "addr:housenumber": "6206",
        "addr:postcode": "92310-564",
        "addr:street": "Avenida Guilherme Schell",
        "addr:suburb": "Centro",
        "amenity": "school",
        "name": "Escola Especial Pestalozzi de Canoas",
        "phone": "+55 51 3466 5915",
        "id": "node/8484117058"
      },
      "geometry": {
        "type": "Point",
        "coordinates": [
          -51.1833132,
          -29.9152934
        ]
      }
    },
    {
      "type": "Feature",
      "id": "node/9001347584",
      "properties": {
        "timestamp": "2021-08-13T05:34:50Z",
        "version": 3,
        "changeset": 109604785,
        "barrier": "gate",
        "id": "node/9001347584"
      },
      "geometry": {
        "type": "Point",
        "coordinates": [
          -51.1396888,
          -29.9017768
        ]
      }
    },
    {
      "type": "Feature",
      "id": "node/9755918878",
      "properties": {
        "timestamp": "2022-05-19T23:36:44Z",
        "version": 1,
        "changeset": 121217516,
        "amenity": "school",
        "name": "Escola Estadual de Ensino Fundamental Álvaro Moreyra",
        "id": "node/9755918878"
      },
      "geometry": {
        "type": "Point",
        "coordinates": [
          -51.1848442,
          -29.9640962
        ]
      }
    },
    {
      "type": "Feature",
      "id": "node/10695867172",
      "properties": {
        "timestamp": "2023-02-27T00:31:32Z",
        "version": 1,
        "changeset": 133063608,
        "amenity": "school",
        "name": "Colégio Leonardo da Vinci",
        "id": "node/10695867172"
      },
      "geometry": {
        "type": "Point",
        "coordinates": [
          -51.1735708,
          -29.9103858
        ]
      }
    }
  ]
}
