{
  "type": "FeatureCollection",
  "features": [
    {
      "type": "Feature",
      "id": "node/12084918424",
      "properties": {
        "timestamp": "2024-07-31T10:44:31Z",
        "version": 1,
        "changeset": 154642612,
        "addr:city": "Piracaia",
        "addr:housenumber": "21",
        "addr:postcode": "12970-000",
        "addr:street": "Rua Jan Antonim Bata",
        "addr:suburb": "Centro",
        "amenity": "pharmacy",
        "healthcare": "pharmacy",
        "name": "Farma Conde",
        "opening_hours": "Mo-Sa 07:00-22:00; Su 08:00-22:00",
        "id": "node/12084918424"
      },
      "geometry": {
        "type": "Point",
        "coordinates": [
          -46.3570971,
          -23.0545081
        ]
      }
    },
    {
      "type": "Feature",
      "id": "node/12192600523",
      "properties": {
        "timestamp": "2024-09-22T11:46:50Z",
        "version": 1,
        "changeset": 156947432,
        "addr:city": "Piracaia",
        "addr:housenumber": "47",
        "addr:postcode": "12970-000",
        "addr:street": "Rua Tenente Ant√¥nio Batista",
        "addr:suburb": "Centro",
        "amenity": "pharmacy",
        "healthcare": "pharmacy",
        "mobile": "+55 11 96318-2313",
        "name": "Farma Lim",
        "opening_hours": "Mo-Sa 08:00-20:00",
        "phone": "+55 11 4036-7133",
        "id": "node/12192600523"
      },
      "geometry": {
        "type": "Point",
        "coordinates": [
          -46.3623533,
          -23.0535458
        ]
      }
    }
  ]
}
