{
  "type": "FeatureCollection",
  "features": [
    {
      "type": "Feature",
      "id": "node/8204263430",
      "properties": {
        "timestamp": "2020-12-08T04:48:48Z",
        "version": 1,
        "changeset": 95457972,
        "name": "WE Ciclobike",
        "shop": "bicycle",
        "id": "node/8204263430"
      },
      "geometry": {
        "type": "Point",
        "coordinates": [
          -51.060225,
          0.0882079
        ]
      }
    },
    {
      "type": "Feature",
      "id": "node/10569436775",
      "properties": {
        "timestamp": "2023-01-20T05:15:55Z",
        "version": 1,
        "changeset": 131492144,
        "addr:city": "Macapá",
        "addr:housenumber": "157",
        "addr:postcode": "68900-101",
        "addr:street": "Avenida Coriolano Jucá",
        "addr:suburb": "Central",
        "name": "Elite Bike",
        "shop": "bicycle",
        "id": "node/10569436775"
      },
      "geometry": {
        "type": "Point",
        "coordinates": [
          -51.0514453,
          0.0384482
        ]
      }
    }
  ]
}
