{
  "type": "FeatureCollection",
  "features": [
    {
      "type": "Feature",
      "id": "way/1119202518",
      "properties": {
        "timestamp": "2023-03-25T05:01:17Z",
        "version": 2,
        "changeset": 134091779,
        "addr:city": "Macapá",
        "addr:housenumber": "1217",
        "addr:postcode": "68900-095",
        "addr:street": "Avenida Ataíde Teive",
        "addr:suburb": "Central",
        "amenity": "dentist",
        "building": "yes",
        "healthcare": "dentist",
        "name": "Odonto Advance",
        "opening_hours": "Mo-Fr 08:00-12:00,14:00-19:00",
        "website": "https://odontoadvance.com.br/",
        "id": "way/1119202518"
      },
      "geometry": {
        "type": "Polygon",
        "coordinates": [
          [
            [
              -51.063352,
              0.0306662
            ],
            [
              -51.0633666,
              0.0304233
            ],
            [
              -51.0632291,
              0.0304062
            ],
            [
              -51.0632071,
              0.0306564
            ],
            [
              -51.063352,
              0.0306662
            ]
          ]
        ]
      }
    },
    {
      "type": "Feature",
      "id": "way/1124069958",
      "properties": {
        "timestamp": "2022-12-22T06:30:12Z",
        "version": 1,
        "changeset": 130358752,
        "amenity": "dentist",
        "building": "yes",
        "healthcare": "dentist",
        "name": "Uniodonto Amapá",
        "id": "way/1124069958"
      },
      "geometry": {
        "type": "Polygon",
        "coordinates": [
          [
            [
              -51.0742252,
              0.0369922
            ],
            [
              -51.0745066,
              0.0370034
            ],
            [
              -51.0745164,
              0.0368147
            ],
            [
              -51.0742389,
              0.0368015
            ],
            [
              -51.0742252,
              0.0369922
            ]
          ]
        ]
      }
    },
    {
      "type": "Feature",
      "id": "way/1306067569",
      "properties": {
        "timestamp": "2024-08-07T03:57:01Z",
        "version": 1,
        "changeset": 154915941,
        "addr:city": "Macapá",
        "addr:housenumber": "1227",
        "addr:postcode": "68900-074",
        "addr:street": "Avenida Raimundo Álvares da Costa",
        "addr:suburb": "Central",
        "amenity": "dentist",
        "building": "yes",
        "healthcare": "dentist",
        "name": "Instituto Norte de Otorrino(Into)",
        "id": "way/1306067569"
      },
      "geometry": {
        "type": "Polygon",
        "coordinates": [
          [
            [
              -51.0612818,
              0.0424896
            ],
            [
              -51.0614065,
              0.042495
            ],
            [
              -51.0614226,
              0.0422549
            ],
            [
              -51.0613005,
              0.0422469
            ],
            [
              -51.0612818,
              0.0424896
            ]
          ]
        ]
      }
    },
    {
      "type": "Feature",
      "id": "node/5377984317",
      "properties": {
        "timestamp": "2018-02-01T13:37:45Z",
        "version": 1,
        "changeset": 55966221,
        "amenity": "dentist",
        "healthcare": "dentist",
        "name": "Dentista do Trabalhador",
        "id": "node/5377984317"
      },
      "geometry": {
        "type": "Point",
        "coordinates": [
          -51.0504959,
          0.036942
        ]
      }
    },
    {
      "type": "Feature",
      "id": "node/10202818888",
      "properties": {
        "timestamp": "2022-11-19T22:48:27Z",
        "version": 1,
        "changeset": 129140373,
        "addr:city": "Macapá",
        "addr:housenumber": "1503",
        "addr:postcode": "68900-075",
        "addr:street": "Rua Jovino Dinoá",
        "addr:suburb": "Central",
        "amenity": "dentist",
        "healthcare": "dentist",
        "name": "Odonto Imagem Macapá",
        "id": "node/10202818888"
      },
      "geometry": {
        "type": "Point",
        "coordinates": [
          -51.0598567,
          0.0386942
        ]
      }
    },
    {
      "type": "Feature",
      "id": "node/10872743770",
      "properties": {
        "timestamp": "2023-05-06T04:01:09Z",
        "version": 1,
        "changeset": 135762325,
        "amenity": "dentist",
        "healthcare": "dentist",
        "name": "Prime Odonto",
        "phone": "+55 96 3223-7539",
        "id": "node/10872743770"
      },
      "geometry": {
        "type": "Point",
        "coordinates": [
          -51.0659305,
          0.0317677
        ]
      }
    },
    {
      "type": "Feature",
      "id": "node/12096382418",
      "properties": {
        "timestamp": "2024-08-07T03:57:01Z",
        "version": 1,
        "changeset": 154915941,
        "addr:city": "Macapá",
        "addr:housenumber": "1236",
        "addr:postcode": "68900-074",
        "addr:street": "Avenida Raimundo Álvares da Costa",
        "addr:suburb": "Central",
        "amenity": "dentist",
        "healthcare": "dentist",
        "name": "Belarmino Odontologia",
        "phone": "+55 96 99131-9096",
        "id": "node/12096382418"
      },
      "geometry": {
        "type": "Point",
        "coordinates": [
          -51.0614353,
          0.0426714
        ]
      }
    },
    {
      "type": "Feature",
      "id": "node/12109648034",
      "properties": {
        "timestamp": "2024-08-14T04:25:24Z",
        "version": 1,
        "changeset": 155221285,
        "addr:city": "Macapá",
        "addr:housenumber": "44",
        "addr:postcode": "68900-020",
        "addr:street": "Avenida Mendonça Júnior",
        "addr:suburb": "Central",
        "amenity": "dentist",
        "healthcare": "dentist",
        "name": "Clinica Dentali",
        "id": "node/12109648034"
      },
      "geometry": {
        "type": "Point",
        "coordinates": [
          -51.0505628,
          0.0334322
        ]
      }
    }
  ]
}
