{
  "type": "FeatureCollection",
  "features": [
    {
      "type": "Feature",
      "id": "way/333477015",
      "properties": {
        "timestamp": "2023-01-04T06:43:44Z",
        "version": 3,
        "changeset": 130852905,
        "name": "Departamento Estadual de Trânsito",
        "office": "government",
        "id": "way/333477015"
      },
      "geometry": {
        "type": "Polygon",
        "coordinates": [
          [
            [
              -51.0555786,
              0.0751836
            ],
            [
              -51.0553616,
              0.0735816
            ],
            [
              -51.0541412,
              0.0737586
            ],
            [
              -51.0542766,
              0.0747899
            ],
            [
              -51.0542804,
              0.0748188
            ],
            [
              -51.0548356,
              0.074741
            ],
            [
              -51.054908,
              0.0752775
            ],
            [
              -51.0555786,
              0.0751836
            ]
          ]
        ]
      }
    },
    {
      "type": "Feature",
      "id": "way/522167596",
      "properties": {
        "timestamp": "2023-01-06T06:47:00Z",
        "version": 7,
        "changeset": 130934233,
        "addr:city": "Macapá",
        "addr:housenumber": "840",
        "addr:postcode": "68900-073",
        "addr:street": "Avenida FAB",
        "addr:suburb": "Central",
        "government": "administrative",
        "name": "Prefeitura Municipal de Macapá",
        "office": "government",
        "opening_hours": "Mo-Su 08:00-18:00",
        "website": "https://macapa.ap.gov.br/",
        "id": "way/522167596"
      },
      "geometry": {
        "type": "Polygon",
        "coordinates": [
          [
            [
              -51.0577809,
              0.0407485
            ],
            [
              -51.0576498,
              0.0407395
            ],
            [
              -51.0576286,
              0.0407381
            ],
            [
              -51.0576123,
              0.040737
            ],
            [
              -51.0574008,
              0.0407224
            ],
            [
              -51.0573823,
              0.0407212
            ],
            [
              -51.0573646,
              0.04072
            ],
            [
              -51.0572659,
              0.0407132
            ],
            [
              -51.0572561,
              0.0407125
            ],
            [
              -51.0572437,
              0.0407117
            ],
            [
              -51.0571768,
              0.0407071
            ],
            [
              -51.057161,
              0.040706
            ],
            [
              -51.0571528,
              0.0407054
            ],
            [
              -51.0570697,
              0.0406997
            ],
            [
              -51.0570525,
              0.0409498
            ],
            [
              -51.0570411,
              0.0411162
            ],
            [
              -51.0570226,
              0.0413855
            ],
            [
              -51.0577338,
              0.0414343
            ],
            [
              -51.057749,
              0.0412129
            ],
            [
              -51.05775,
              0.0411988
            ],
            [
              -51.0577809,
              0.0407485
            ]
          ]
        ]
      }
    },
    {
      "type": "Feature",
      "id": "way/522174124",
      "properties": {
        "timestamp": "2023-01-23T06:29:02Z",
        "version": 11,
        "changeset": 131592512,
        "addr:city": "Macapá",
        "addr:postcode": "68900-073",
        "addr:street": "Avenida FAB",
        "addr:suburb": "Central",
        "government": "yes",
        "name": "Câmara Municipal de Macapá",
        "office": "government",
        "website": "https://www.macapa.ap.leg.br/",
        "id": "way/522174124"
      },
      "geometry": {
        "type": "Polygon",
        "coordinates": [
          [
            [
              -51.0570697,
              0.0406997
            ],
            [
              -51.0570414,
              0.0406978
            ],
            [
              -51.0570248,
              0.0406967
            ],
            [
              -51.0568165,
              0.0406823
            ],
            [
              -51.056647,
              0.0406707
            ],
            [
              -51.0566235,
              0.0410136
            ],
            [
              -51.0565999,
              0.0413565
            ],
            [
              -51.0566814,
              0.0413621
            ],
            [
              -51.0570226,
              0.0413855
            ],
            [
              -51.0570411,
              0.0411162
            ],
            [
              -51.0570525,
              0.0409498
            ],
            [
              -51.0570697,
              0.0406997
            ]
          ]
        ]
      }
    },
    {
      "type": "Feature",
      "id": "way/526784603",
      "properties": {
        "timestamp": "2024-12-25T07:36:25Z",
        "version": 5,
        "changeset": 160594764,
        "addr:city": "Macapá",
        "addr:housenumber": "259",
        "addr:postcode": "68900-082",
        "addr:street": "Rua General Rondon",
        "addr:suburb": "Central",
        "building": "yes",
        "government": "yes",
        "name": "Palácio do Setentrião",
        "office": "government",
        "id": "way/526784603"
      },
      "geometry": {
        "type": "Polygon",
        "coordinates": [
          [
            [
              -51.0548871,
              0.0411468
            ],
            [
              -51.055186,
              0.0411652
            ],
            [
              -51.0551983,
              0.0409495
            ],
            [
              -51.0552133,
              0.0406852
            ],
            [
              -51.0552136,
              0.0406801
            ],
            [
              -51.0549086,
              0.04066
            ],
            [
              -51.0548871,
              0.0411468
            ]
          ]
        ]
      }
    },
    {
      "type": "Feature",
      "id": "way/544779402",
      "properties": {
        "timestamp": "2017-12-05T14:29:00Z",
        "version": 1,
        "changeset": 54366883,
        "building": "yes",
        "government": "yes",
        "name": "Imprensa Oficial",
        "office": "government",
        "id": "way/544779402"
      },
      "geometry": {
        "type": "Polygon",
        "coordinates": [
          [
            [
              -51.0758569,
              0.0439188
            ],
            [
              -51.0760888,
              0.0439468
            ],
            [
              -51.0761016,
              0.0438385
            ],
            [
              -51.0758646,
              0.0438118
            ],
            [
              -51.0758569,
              0.0439188
            ]
          ]
        ]
      }
    },
    {
      "type": "Feature",
      "id": "way/581407350",
      "properties": {
        "timestamp": "2022-12-24T09:11:31Z",
        "version": 2,
        "changeset": 130448629,
        "building": "yes",
        "name": "Secretaria de Saúde do Amapá",
        "office": "government",
        "website": "https://saude.portal.ap.gov.br/",
        "id": "way/581407350"
      },
      "geometry": {
        "type": "Polygon",
        "coordinates": [
          [
            [
              -51.0581594,
              0.0404486
            ],
            [
              -51.0581926,
              0.0398282
            ],
            [
              -51.058011,
              0.0398185
            ],
            [
              -51.0579778,
              0.0404389
            ],
            [
              -51.0581594,
              0.0404486
            ]
          ]
        ]
      }
    },
    {
      "type": "Feature",
      "id": "way/581671970",
      "properties": {
        "timestamp": "2018-04-19T19:22:33Z",
        "version": 1,
        "changeset": 58242807,
        "building": "yes",
        "office": "government",
        "id": "way/581671970"
      },
      "geometry": {
        "type": "Polygon",
        "coordinates": [
          [
            [
              -51.0822201,
              0.0728763
            ],
            [
              -51.0820892,
              0.0726693
            ],
            [
              -51.0820078,
              0.0727206
            ],
            [
              -51.0821352,
              0.072933
            ],
            [
              -51.0822201,
              0.0728763
            ]
          ]
        ]
      }
    },
    {
      "type": "Feature",
      "id": "way/610691988",
      "properties": {
        "timestamp": "2022-12-03T20:54:24Z",
        "version": 5,
        "changeset": 129688913,
        "addr:city": "Macapá",
        "addr:housenumber": "1610",
        "addr:postcode": "68900-083",
        "addr:street": "Rua Eliézer Levy",
        "addr:suburb": "Central",
        "building": "yes",
        "description": "Fundação Municipal de Cultura de Macapá",
        "email": "fumcultmacapa@gmail.com",
        "government": "administrative",
        "name": "Fundação Municipal de Cultura",
        "office": "government",
        "opening_hours": "08:00-14:00",
        "phone": "+55 96 98802-9159",
        "website": "http://cultura.macapa.ap.gov.br",
        "id": "way/610691988"
      },
      "geometry": {
        "type": "Polygon",
        "coordinates": [
          [
            [
              -51.0563982,
              0.0372568
            ],
            [
              -51.0563907,
              0.0374031
            ],
            [
              -51.056656,
              0.0374167
            ],
            [
              -51.0566635,
              0.0372704
            ],
            [
              -51.0563982,
              0.0372568
            ]
          ]
        ]
      }
    },
    {
      "type": "Feature",
      "id": "way/678819223",
      "properties": {
        "timestamp": "2023-04-03T06:33:01Z",
        "version": 6,
        "changeset": 134438932,
        "addr:city": "Macapá",
        "addr:housenumber": "1111",
        "addr:postcode": "68900-100",
        "addr:street": "Rua Cândido Mendes",
        "addr:suburb": "Central",
        "building": "yes",
        "building:levels": "3",
        "name": "Agência de Fomento do Amapá",
        "office": "government",
        "website": "https://afap.ap.gov.br/",
        "id": "way/678819223"
      },
      "geometry": {
        "type": "Polygon",
        "coordinates": [
          [
            [
              -51.0505244,
              0.0363104
            ],
            [
              -51.05011,
              0.0362916
            ],
            [
              -51.0501031,
              0.0364433
            ],
            [
              -51.0505175,
              0.0364621
            ],
            [
              -51.0505244,
              0.0363104
            ]
          ]
        ]
      }
    },
    {
      "type": "Feature",
      "id": "way/678819227",
      "properties": {
        "timestamp": "2023-01-03T05:55:41Z",
        "version": 2,
        "changeset": 130812100,
        "addr:city": "Macapá",
        "addr:housenumber": "29",
        "addr:postcode": "68900-090",
        "addr:street": "Rua Binga Uchôa",
        "addr:suburb": "Central",
        "building": "yes",
        "email": "comunicacao@setur.ap.gov.br",
        "government": "yes",
        "name": "Secretaria de Turismo do Amapá",
        "office": "government",
        "phone": "+55 96 3212-5335",
        "website": "https://setur.portal.ap.gov.br",
        "id": "way/678819227"
      },
      "geometry": {
        "type": "Polygon",
        "coordinates": [
          [
            [
              -51.0500537,
              0.0362889
            ],
            [
              -51.0499142,
              0.0362809
            ],
            [
              -51.0499071,
              0.0364044
            ],
            [
              -51.0500466,
              0.0364125
            ],
            [
              -51.0500537,
              0.0362889
            ]
          ]
        ]
      }
    },
    {
      "type": "Feature",
      "id": "way/681384568",
      "properties": {
        "timestamp": "2022-12-04T08:35:07Z",
        "version": 2,
        "changeset": 129697083,
        "addr:city": "Macapá",
        "addr:housenumber": "448",
        "addr:postcode": "68900-100",
        "addr:street": "Rua Cândido Mendes",
        "addr:suburb": "Central",
        "building": "yes",
        "name": "Super Fácil SIAC – Sistema Integrado de Atendimento ao Cidadão",
        "office": "government",
        "website": "https://superfacil.portal.ap.gov.br/",
        "id": "way/681384568"
      },
      "geometry": {
        "type": "Polygon",
        "coordinates": [
          [
            [
              -51.0507334,
              0.0422543
            ],
            [
              -51.0507567,
              0.0419555
            ],
            [
              -51.0503107,
              0.0419204
            ],
            [
              -51.0502944,
              0.042224
            ],
            [
              -51.0507334,
              0.0422543
            ]
          ]
        ]
      }
    },
    {
      "type": "Feature",
      "id": "way/1117414503",
      "properties": {
        "timestamp": "2023-01-03T05:55:41Z",
        "version": 2,
        "changeset": 130812100,
        "addr:city": "Macapá",
        "addr:postcode": "68900-015",
        "addr:street": "Avenida Antônio Coelho de Carvalho",
        "addr:suburb": "Central",
        "building": "yes",
        "building:levels": "6",
        "email": "contato@pge.ap.gov.br",
        "name": "Procuradoria do Estado do Amapá",
        "note": "Categoria: Serviço Número de pavimentos: 6 Estado de conservação: Ótimo Ano de liberação:",
        "office": "government",
        "phone": "+55 96 3131-2913",
        "website": "https://pge.portal.ap.gov.br/",
        "id": "way/1117414503"
      },
      "geometry": {
        "type": "Polygon",
        "coordinates": [
          [
            [
              -51.0546498,
              0.0317609
            ],
            [
              -51.0545205,
              0.0317546
            ],
            [
              -51.0545015,
              0.032112
            ],
            [
              -51.0546303,
              0.0321174
            ],
            [
              -51.0546498,
              0.0317609
            ]
          ]
        ]
      }
    },
    {
      "type": "Feature",
      "id": "way/1124069965",
      "properties": {
        "timestamp": "2022-12-22T06:30:12Z",
        "version": 1,
        "changeset": 130358752,
        "addr:city": "Macapá",
        "addr:housenumber": "52",
        "addr:postcode": "68900-060",
        "addr:street": "Avenida Mendonça Furtado",
        "addr:suburb": "Central",
        "building": "yes",
        "government": "yes",
        "name": "Secretaria Estadual do Meio Ambiente",
        "office": "government",
        "id": "way/1124069965"
      },
      "geometry": {
        "type": "Polygon",
        "coordinates": [
          [
            [
              -51.0522401,
              0.0367041
            ],
            [
              -51.0525868,
              0.0367251
            ],
            [
              -51.0526063,
              0.0364169
            ],
            [
              -51.0522416,
              0.0364105
            ],
            [
              -51.0522401,
              0.0367041
            ]
          ]
        ]
      }
    },
    {
      "type": "Feature",
      "id": "way/1124614689",
      "properties": {
        "timestamp": "2023-07-26T06:51:28Z",
        "version": 2,
        "changeset": 139020886,
        "building": "yes",
        "name": "Assembleia Legislativa do Amapá",
        "office": "government",
        "website": "http://www.al.ap.gov.br/",
        "id": "way/1124614689"
      },
      "geometry": {
        "type": "Polygon",
        "coordinates": [
          [
            [
              -51.0623688,
              0.04086
            ],
            [
              -51.0623859,
              0.0405987
            ],
            [
              -51.0624088,
              0.0402474
            ],
            [
              -51.061986,
              0.040226
            ],
            [
              -51.0619528,
              0.0408346
            ],
            [
              -51.0621057,
              0.0408439
            ],
            [
              -51.0623688,
              0.04086
            ]
          ]
        ]
      }
    },
    {
      "type": "Feature",
      "id": "way/1124614692",
      "properties": {
        "timestamp": "2022-12-24T09:11:31Z",
        "version": 1,
        "changeset": 130448629,
        "addr:city": "Macapá",
        "addr:housenumber": "1276",
        "addr:postcode": "68900-073",
        "addr:street": "Avenida FAB",
        "addr:suburb": "Central",
        "building": "yes",
        "government": "yes",
        "name": "Secretaria de Infraestrutura do Amapá",
        "office": "government",
        "website": "http://seinf.ap.gov.br/",
        "id": "way/1124614692"
      },
      "geometry": {
        "type": "Polygon",
        "coordinates": [
          [
            [
              -51.0613764,
              0.0414027
            ],
            [
              -51.0613881,
              0.0411214
            ],
            [
              -51.0610652,
              0.0411116
            ],
            [
              -51.0610594,
              0.0413886
            ],
            [
              -51.0613764,
              0.0414027
            ]
          ]
        ]
      }
    },
    {
      "type": "Feature",
      "id": "way/1126110665",
      "properties": {
        "timestamp": "2023-01-03T05:55:41Z",
        "version": 2,
        "changeset": 130812100,
        "addr:city": "Macapá",
        "addr:postcode": "68903-883",
        "addr:street": "Rua do Araxá",
        "addr:suburb": "Araxá",
        "building": "yes",
        "government": "prosecutor",
        "name": "Ministério Público do Amapá",
        "office": "government",
        "website": "https://mpap.mp.br",
        "id": "way/1126110665"
      },
      "geometry": {
        "type": "Polygon",
        "coordinates": [
          [
            [
              -51.0603492,
              0.008905
            ],
            [
              -51.0595929,
              0.0087436
            ],
            [
              -51.0595441,
              0.0089757
            ],
            [
              -51.0602907,
              0.0091376
            ],
            [
              -51.0603492,
              0.008905
            ]
          ]
        ]
      }
    },
    {
      "type": "Feature",
      "id": "way/1126110710",
      "properties": {
        "timestamp": "2022-12-31T21:31:11Z",
        "version": 1,
        "changeset": 130733827,
        "building": "yes",
        "government": "administrative",
        "name": "Secretaria de Administração do Amapá",
        "office": "government",
        "website": "https://sead.portal.ap.gov.br/",
        "id": "way/1126110710"
      },
      "geometry": {
        "type": "Polygon",
        "coordinates": [
          [
            [
              -51.0609767,
              0.0414204
            ],
            [
              -51.0609979,
              0.0410209
            ],
            [
              -51.0607729,
              0.041008
            ],
            [
              -51.0607437,
              0.0414061
            ],
            [
              -51.0609767,
              0.0414204
            ]
          ]
        ]
      }
    },
    {
      "type": "Feature",
      "id": "way/1126110711",
      "properties": {
        "timestamp": "2022-12-31T21:31:11Z",
        "version": 1,
        "changeset": 130733827,
        "building": "yes",
        "name": "Secretaria de Planejamento do Amapá",
        "office": "government",
        "website": "https://seplan.portal.ap.gov.br/",
        "id": "way/1126110711"
      },
      "geometry": {
        "type": "Polygon",
        "coordinates": [
          [
            [
              -51.0601158,
              0.0413678
            ],
            [
              -51.0601274,
              0.0409595
            ],
            [
              -51.0598855,
              0.0409439
            ],
            [
              -51.0598667,
              0.0413525
            ],
            [
              -51.0601158,
              0.0413678
            ]
          ]
        ]
      }
    },
    {
      "type": "Feature",
      "id": "way/1126110712",
      "properties": {
        "timestamp": "2022-12-31T21:31:11Z",
        "version": 1,
        "changeset": 130733827,
        "addr:city": "Macapá",
        "addr:postcode": "68900-083",
        "addr:street": "Rua Eliézer Levy",
        "addr:suburb": "Central",
        "building": "yes",
        "name": "Receita Federal do Brasil",
        "office": "government",
        "website": "https://www.gov.br/receitafederal/pt-br",
        "id": "way/1126110712"
      },
      "geometry": {
        "type": "Polygon",
        "coordinates": [
          [
            [
              -51.0567015,
              0.0395613
            ],
            [
              -51.0567303,
              0.0391361
            ],
            [
              -51.0563255,
              0.0390971
            ],
            [
              -51.0562943,
              0.0395316
            ],
            [
              -51.0567015,
              0.0395613
            ]
          ]
        ]
      }
    },
    {
      "type": "Feature",
      "id": "way/1126621259",
      "properties": {
        "timestamp": "2023-01-03T05:55:41Z",
        "version": 1,
        "changeset": 130812100,
        "addr:city": "Macapá",
        "addr:street": "BR-210",
        "building": "yes",
        "email": "setrap@setrap.ap.gov.br",
        "government": "yes",
        "name": "Secretaria Estadual de Transportes",
        "office": "government",
        "website": "https://setrap.portal.ap.gov.br/",
        "id": "way/1126621259"
      },
      "geometry": {
        "type": "Polygon",
        "coordinates": [
          [
            [
              -51.0608146,
              0.0772634
            ],
            [
              -51.0608107,
              0.0769986
            ],
            [
              -51.0604044,
              0.0770181
            ],
            [
              -51.0604069,
              0.0772644
            ],
            [
              -51.0608146,
              0.0772634
            ]
          ]
        ]
      }
    },
    {
      "type": "Feature",
      "id": "way/1126853739",
      "properties": {
        "timestamp": "2023-01-04T06:43:44Z",
        "version": 1,
        "changeset": 130852905,
        "building": "yes",
        "government": "prosecutor",
        "name": "Complexo Cidadão Zona Norte",
        "office": "government",
        "id": "way/1126853739"
      },
      "geometry": {
        "type": "Polygon",
        "coordinates": [
          [
            [
              -51.055627,
              0.0758248
            ],
            [
              -51.0555933,
              0.0756254
            ],
            [
              -51.0552841,
              0.0756971
            ],
            [
              -51.0552256,
              0.0754303
            ],
            [
              -51.055033,
              0.0754654
            ],
            [
              -51.0551115,
              0.0758039
            ],
            [
              -51.0551935,
              0.0757881
            ],
            [
              -51.0551651,
              0.0758333
            ],
            [
              -51.0551819,
              0.0758713
            ],
            [
              -51.0552588,
              0.0758509
            ],
            [
              -51.0552762,
              0.0759026
            ],
            [
              -51.055627,
              0.0758248
            ]
          ]
        ]
      }
    },
    {
      "type": "Feature",
      "id": "way/1126853748",
      "properties": {
        "timestamp": "2023-01-04T06:43:44Z",
        "version": 1,
        "changeset": 130852905,
        "addr:city": "Macapá",
        "addr:housenumber": "1405",
        "addr:postcode": "68908-571",
        "addr:street": "Rua Adilson José Pinto Pereira",
        "addr:suburb": "São Lázaro",
        "building": "yes",
        "name": "Instituto Nacional de Colonização e Reforma Agrária - INCRA",
        "office": "government",
        "id": "way/1126853748"
      },
      "geometry": {
        "type": "Polygon",
        "coordinates": [
          [
            [
              -51.0565316,
              0.0771503
            ],
            [
              -51.0567472,
              0.0773205
            ],
            [
              -51.0568623,
              0.0771864
            ],
            [
              -51.0568145,
              0.0771557
            ],
            [
              -51.0567262,
              0.0770855
            ],
            [
              -51.056555,
              0.0771094
            ],
            [
              -51.0565316,
              0.0771503
            ]
          ]
        ]
      }
    },
    {
      "type": "Feature",
      "id": "way/1127408562",
      "properties": {
        "timestamp": "2023-01-05T04:27:01Z",
        "version": 1,
        "changeset": 130889722,
        "addr:city": "Macapá",
        "addr:housenumber": "2562",
        "addr:postcode": "68901-283",
        "addr:street": "Avenida Padre Júlio Maria Lombaerd",
        "addr:suburb": "Santa Rita",
        "building": "yes",
        "name": "Controladoria Geral do Estado do Amapá",
        "office": "government",
        "website": "https://cge.portal.ap.gov.br/",
        "id": "way/1127408562"
      },
      "geometry": {
        "type": "Polygon",
        "coordinates": [
          [
            [
              -51.0719569,
              0.0358191
            ],
            [
              -51.0719496,
              0.0361223
            ],
            [
              -51.0720764,
              0.0361263
            ],
            [
              -51.0720778,
              0.0358382
            ],
            [
              -51.0720264,
              0.0358394
            ],
            [
              -51.0720271,
              0.0358176
            ],
            [
              -51.0719569,
              0.0358191
            ]
          ]
        ]
      }
    },
    {
      "type": "Feature",
      "id": "way/1133972041",
      "properties": {
        "timestamp": "2024-12-26T20:55:59Z",
        "version": 3,
        "changeset": 160653332,
        "addr:city": "Macapá",
        "addr:housenumber": "308",
        "addr:postcode": "68900-060",
        "addr:street": "Avenida Mendonça Furtado",
        "addr:suburb": "Central",
        "building": "yes",
        "name": "Secretaria Municipal de Assistência Social",
        "office": "government",
        "id": "way/1133972041"
      },
      "geometry": {
        "type": "Polygon",
        "coordinates": [
          [
            [
              -51.0548039,
              0.0368858
            ],
            [
              -51.0548159,
              0.0366364
            ],
            [
              -51.0546567,
              0.0366288
            ],
            [
              -51.0546448,
              0.0368782
            ],
            [
              -51.0548039,
              0.0368858
            ]
          ]
        ]
      }
    },
    {
      "type": "Feature",
      "id": "way/1137668547",
      "properties": {
        "timestamp": "2023-02-03T19:15:22Z",
        "version": 1,
        "changeset": 132054518,
        "building": "yes",
        "government": "register_office",
        "name": "2o Ofício de Notas e Anexos Cristiane Passos",
        "office": "government",
        "id": "way/1137668547"
      },
      "geometry": {
        "type": "Polygon",
        "coordinates": [
          [
            [
              -51.0734239,
              0.0219901
            ],
            [
              -51.0734322,
              0.0218404
            ],
            [
              -51.0731635,
              0.0218311
            ],
            [
              -51.073161,
              0.0219871
            ],
            [
              -51.0734239,
              0.0219901
            ]
          ]
        ]
      }
    },
    {
      "type": "Feature",
      "id": "way/1147279413",
      "properties": {
        "timestamp": "2023-02-18T07:35:59Z",
        "version": 1,
        "changeset": 132704436,
        "building": "yes",
        "name": "Secretaria Municipal de Agricultura",
        "office": "government",
        "id": "way/1147279413"
      },
      "geometry": {
        "type": "Polygon",
        "coordinates": [
          [
            [
              -51.0671633,
              0.0286656
            ],
            [
              -51.0671813,
              0.0284525
            ],
            [
              -51.0670828,
              0.0284423
            ],
            [
              -51.0670609,
              0.0286569
            ],
            [
              -51.0671633,
              0.0286656
            ]
          ]
        ]
      }
    },
    {
      "type": "Feature",
      "id": "way/1149570255",
      "properties": {
        "timestamp": "2023-02-26T06:40:30Z",
        "version": 1,
        "changeset": 133030368,
        "building": "yes",
        "name": "IBAMA",
        "office": "government",
        "id": "way/1149570255"
      },
      "geometry": {
        "type": "Polygon",
        "coordinates": [
          [
            [
              -51.0646244,
              0.032485
            ],
            [
              -51.064602,
              0.0328225
            ],
            [
              -51.0646053,
              0.0328226
            ],
            [
              -51.0651257,
              0.0328454
            ],
            [
              -51.0651267,
              0.0328454
            ],
            [
              -51.0651491,
              0.0325055
            ],
            [
              -51.0646244,
              0.032485
            ]
          ]
        ]
      }
    },
    {
      "type": "Feature",
      "id": "way/1149570256",
      "properties": {
        "timestamp": "2023-02-26T06:40:30Z",
        "version": 1,
        "changeset": 133030368,
        "building": "yes",
        "name": "Superintendência Regional do Trabalho e Emprego",
        "office": "government",
        "id": "way/1149570256"
      },
      "geometry": {
        "type": "Polygon",
        "coordinates": [
          [
            [
              -51.0646053,
              0.0328226
            ],
            [
              -51.0645812,
              0.0331351
            ],
            [
              -51.0651074,
              0.0331556
            ],
            [
              -51.0651257,
              0.0328454
            ],
            [
              -51.0646053,
              0.0328226
            ]
          ]
        ]
      }
    },
    {
      "type": "Feature",
      "id": "way/1151548865",
      "properties": {
        "timestamp": "2023-03-05T15:27:28Z",
        "version": 1,
        "changeset": 133329641,
        "building": "yes",
        "name": "Companhia de Trânsito e Transporte de Macapá",
        "office": "government",
        "id": "way/1151548865"
      },
      "geometry": {
        "type": "Polygon",
        "coordinates": [
          [
            [
              -51.0828103,
              0.0390733
            ],
            [
              -51.0828078,
              0.0392064
            ],
            [
              -51.0835047,
              0.0392488
            ],
            [
              -51.0835169,
              0.0391216
            ],
            [
              -51.0828103,
              0.0390733
            ]
          ]
        ]
      }
    },
    {
      "type": "Feature",
      "id": "way/1155364082",
      "properties": {
        "timestamp": "2023-03-19T06:21:11Z",
        "version": 1,
        "changeset": 133845938,
        "building": "yes",
        "government": "prosecutor",
        "name": "Divisão de Garagem e Transporte",
        "office": "government",
        "operator": "Ministério Público do Amapá",
        "id": "way/1155364082"
      },
      "geometry": {
        "type": "Polygon",
        "coordinates": [
          [
            [
              -51.0629817,
              0.0957564
            ],
            [
              -51.0627081,
              0.0954394
            ],
            [
              -51.0625184,
              0.095595
            ],
            [
              -51.0628095,
              0.0959061
            ],
            [
              -51.0629817,
              0.0957564
            ]
          ]
        ]
      }
    },
    {
      "type": "Feature",
      "id": "way/1158351036",
      "properties": {
        "timestamp": "2023-03-30T05:20:48Z",
        "version": 1,
        "changeset": 134287073,
        "building": "yes",
        "name": "Agência Nacional de Telecomunicações",
        "office": "government",
        "id": "way/1158351036"
      },
      "geometry": {
        "type": "Polygon",
        "coordinates": [
          [
            [
              -51.0611053,
              0.0163428
            ],
            [
              -51.0610985,
              0.0165037
            ],
            [
              -51.0613828,
              0.0165174
            ],
            [
              -51.0613959,
              0.016354
            ],
            [
              -51.0611053,
              0.0163428
            ]
          ]
        ]
      }
    },
    {
      "type": "Feature",
      "id": "way/1160626261",
      "properties": {
        "timestamp": "2023-04-08T06:50:44Z",
        "version": 1,
        "changeset": 134640353,
        "building": "yes",
        "name": "Controladoria Geral da União (CGU)",
        "office": "government",
        "id": "way/1160626261"
      },
      "geometry": {
        "type": "Polygon",
        "coordinates": [
          [
            [
              -51.0571161,
              0.0393139
            ],
            [
              -51.0573604,
              0.0393242
            ],
            [
              -51.0573658,
              0.0391671
            ],
            [
              -51.0571205,
              0.0391588
            ],
            [
              -51.0571161,
              0.0393139
            ]
          ]
        ]
      }
    },
    {
      "type": "Feature",
      "id": "way/1169230633",
      "properties": {
        "timestamp": "2023-05-06T04:01:09Z",
        "version": 1,
        "changeset": 135762325,
        "building": "yes",
        "name": "Secretaria Municipal de Obras",
        "office": "government",
        "id": "way/1169230633"
      },
      "geometry": {
        "type": "Polygon",
        "coordinates": [
          [
            [
              -51.0650416,
              0.0277765
            ],
            [
              -51.065326,
              0.0277877
            ],
            [
              -51.0653264,
              0.0276687
            ],
            [
              -51.065145,
              0.0276638
            ],
            [
              -51.0651499,
              0.0275112
            ],
            [
              -51.0650558,
              0.0275048
            ],
            [
              -51.0650416,
              0.0277765
            ]
          ]
        ]
      }
    },
    {
      "type": "Feature",
      "id": "way/1172606440",
      "properties": {
        "timestamp": "2024-08-14T04:25:24Z",
        "version": 2,
        "changeset": 155221285,
        "addr:city": "Macapá",
        "addr:housenumber": "289",
        "addr:postcode": "68900-110",
        "addr:street": "Rua São José",
        "addr:suburb": "Central",
        "building": "yes",
        "name": "Prodap",
        "office": "government",
        "website": "https://www.prodap.ap.gov.br/",
        "id": "way/1172606440"
      },
      "geometry": {
        "type": "Polygon",
        "coordinates": [
          [
            [
              -51.0510793,
              0.0412197
            ],
            [
              -51.0510612,
              0.0415348
            ],
            [
              -51.0514231,
              0.041545
            ],
            [
              -51.0514416,
              0.0412363
            ],
            [
              -51.0510793,
              0.0412197
            ]
          ]
        ]
      }
    },
    {
      "type": "Feature",
      "id": "way/1175521264",
      "properties": {
        "timestamp": "2023-05-24T04:48:57Z",
        "version": 1,
        "changeset": 136479876,
        "building": "yes",
        "name": "Instituto de Defesa do Consumidor (PROCON-AP)",
        "office": "government",
        "website": "https://procon.portal.ap.gov.br/",
        "id": "way/1175521264"
      },
      "geometry": {
        "type": "Polygon",
        "coordinates": [
          [
            [
              -51.0605462,
              0.0312155
            ],
            [
              -51.060693,
              0.0312209
            ],
            [
              -51.0607042,
              0.0310746
            ],
            [
              -51.0605496,
              0.0310692
            ],
            [
              -51.0605462,
              0.0312155
            ]
          ]
        ]
      }
    },
    {
      "type": "Feature",
      "id": "way/1190107070",
      "properties": {
        "timestamp": "2023-07-17T07:08:14Z",
        "version": 1,
        "changeset": 138606571,
        "building": "yes",
        "government": "yes",
        "name": "Tribunal de Contas da União",
        "office": "government",
        "id": "way/1190107070"
      },
      "geometry": {
        "type": "Polygon",
        "coordinates": [
          [
            [
              -51.0824276,
              -0.0092385
            ],
            [
              -51.08249,
              -0.0095263
            ],
            [
              -51.0822539,
              -0.0095643
            ],
            [
              -51.0821974,
              -0.0092727
            ],
            [
              -51.0824276,
              -0.0092385
            ]
          ]
        ]
      }
    },
    {
      "type": "Feature",
      "id": "way/1192257824",
      "properties": {
        "timestamp": "2023-07-26T06:51:28Z",
        "version": 1,
        "changeset": 139020886,
        "building": "yes",
        "name": "Amapá Previdência (AMPREV)",
        "office": "government",
        "website": "https://amprev.ap.gov.br/",
        "id": "way/1192257824"
      },
      "geometry": {
        "type": "Polygon",
        "coordinates": [
          [
            [
              -51.0500631,
              0.0353662
            ],
            [
              -51.050046,
              0.0356734
            ],
            [
              -51.0501569,
              0.0356795
            ],
            [
              -51.0501738,
              0.0353723
            ],
            [
              -51.0500631,
              0.0353662
            ]
          ]
        ]
      }
    },
    {
      "type": "Feature",
      "id": "way/1210663633",
      "properties": {
        "timestamp": "2023-09-25T02:59:16Z",
        "version": 1,
        "changeset": 141709923,
        "building": "yes",
        "name": "Secretaria Municipal de Zeladoria Urbana",
        "office": "government",
        "id": "way/1210663633"
      },
      "geometry": {
        "type": "Polygon",
        "coordinates": [
          [
            [
              -51.0658724,
              0.0278373
            ],
            [
              -51.0658966,
              0.0274591
            ],
            [
              -51.065792,
              0.0274483
            ],
            [
              -51.0657651,
              0.0278373
            ],
            [
              -51.0658724,
              0.0278373
            ]
          ]
        ]
      }
    },
    {
      "type": "Feature",
      "id": "way/1308385091",
      "properties": {
        "timestamp": "2024-08-17T05:22:02Z",
        "version": 1,
        "changeset": 155353953,
        "building": "yes",
        "name": "Secretaria de Estado da Fazenda (SEFAZ)",
        "office": "government",
        "website": "https://www.sefaz.ap.gov.br",
        "id": "way/1308385091"
      },
      "geometry": {
        "type": "Polygon",
        "coordinates": [
          [
            [
              -51.0509034,
              0.0412103
            ],
            [
              -51.0508645,
              0.04174
            ],
            [
              -51.051016,
              0.0417494
            ],
            [
              -51.0510563,
              0.041217
            ],
            [
              -51.0509034,
              0.0412103
            ]
          ]
        ]
      }
    },
    {
      "type": "Feature",
      "id": "way/1308735434",
      "properties": {
        "timestamp": "2024-08-19T05:22:55Z",
        "version": 1,
        "changeset": 155442381,
        "building": "yes",
        "government": "prosecutor",
        "name": "Promotoria de Defesa do Consumidor - MP/AP",
        "office": "government",
        "id": "way/1308735434"
      },
      "geometry": {
        "type": "Polygon",
        "coordinates": [
          [
            [
              -51.0763321,
              0.0432871
            ],
            [
              -51.0765064,
              0.0433032
            ],
            [
              -51.0765131,
              0.0431932
            ],
            [
              -51.0763401,
              0.0431825
            ],
            [
              -51.0763321,
              0.0432871
            ]
          ]
        ]
      }
    },
    {
      "type": "Feature",
      "id": "way/1322056717",
      "properties": {
        "timestamp": "2024-10-08T05:14:31Z",
        "version": 1,
        "changeset": 157607459,
        "building": "yes",
        "name": "Superintendência IPHAN - Amapá",
        "office": "government",
        "id": "way/1322056717"
      },
      "geometry": {
        "type": "Polygon",
        "coordinates": [
          [
            [
              -51.0617563,
              0.0317337
            ],
            [
              -51.0617804,
              0.0314762
            ],
            [
              -51.0616423,
              0.0314628
            ],
            [
              -51.0616168,
              0.0317297
            ],
            [
              -51.0617563,
              0.0317337
            ]
          ]
        ]
      }
    },
    {
      "type": "Feature",
      "id": "way/1322056723",
      "properties": {
        "timestamp": "2024-10-08T05:14:31Z",
        "version": 1,
        "changeset": 157607459,
        "addr:city": "Macapá",
        "addr:housenumber": "1585",
        "addr:postcode": "68900-030",
        "addr:street": "Avenida Padre Júlio Maria Lombaerd",
        "addr:suburb": "Central",
        "building": "yes",
        "government": "prosecutor",
        "name": "Complexo Cidadão Zona Sul",
        "office": "government",
        "id": "way/1322056723"
      },
      "geometry": {
        "type": "Polygon",
        "coordinates": [
          [
            [
              -51.0634032,
              0.0349658
            ],
            [
              -51.0634112,
              0.0347458
            ],
            [
              -51.0629311,
              0.0347177
            ],
            [
              -51.0629177,
              0.0349309
            ],
            [
              -51.0634032,
              0.0349658
            ]
          ]
        ]
      }
    },
    {
      "type": "Feature",
      "id": "way/1346118869",
      "properties": {
        "timestamp": "2024-12-25T07:36:25Z",
        "version": 1,
        "changeset": 160594764,
        "building": "yes",
        "name": "Defensoria Pública do Amapá",
        "office": "government",
        "id": "way/1346118869"
      },
      "geometry": {
        "type": "Polygon",
        "coordinates": [
          [
            [
              -51.0556761,
              0.0406827
            ],
            [
              -51.0556754,
              0.0407041
            ],
            [
              -51.0556668,
              0.0409779
            ],
            [
              -51.0556587,
              0.0412353
            ],
            [
              -51.0558773,
              0.0412474
            ],
            [
              -51.0559081,
              0.0406868
            ],
            [
              -51.0556761,
              0.0406827
            ]
          ]
        ]
      }
    },
    {
      "type": "Feature",
      "id": "way/1346118870",
      "properties": {
        "timestamp": "2024-12-25T07:36:25Z",
        "version": 1,
        "changeset": 160594764,
        "building": "yes",
        "government": "prosecutor",
        "name": "Complexo Cidadão Centro",
        "office": "government",
        "id": "way/1346118870"
      },
      "geometry": {
        "type": "Polygon",
        "coordinates": [
          [
            [
              -51.0552133,
              0.0406852
            ],
            [
              -51.0551983,
              0.0409495
            ],
            [
              -51.0556668,
              0.0409779
            ],
            [
              -51.0556754,
              0.0407041
            ],
            [
              -51.0552133,
              0.0406852
            ]
          ]
        ]
      }
    },
    {
      "type": "Feature",
      "id": "way/1365892126",
      "properties": {
        "timestamp": "2025-03-10T06:42:07Z",
        "version": 1,
        "changeset": 163427832,
        "addr:city": "Macapá",
        "addr:housenumber": "0377",
        "addr:postcode": "68900-082",
        "addr:street": "Rua General Rondon",
        "addr:suburb": "Central",
        "building": "yes",
        "name": "Secretaria de Estado de Afrodescendentes - Seafro",
        "office": "government",
        "id": "way/1365892126"
      },
      "geometry": {
        "type": "Polygon",
        "coordinates": [
          [
            [
              -51.0544125,
              0.0425146
            ],
            [
              -51.0545641,
              0.042524
            ],
            [
              -51.0545721,
              0.0423886
            ],
            [
              -51.0544715,
              0.0423819
            ],
            [
              -51.0544635,
              0.0424543
            ],
            [
              -51.0544152,
              0.0424503
            ],
            [
              -51.0544125,
              0.0425146
            ]
          ]
        ]
      }
    },
    {
      "type": "Feature",
      "id": "node/3265705416",
      "properties": {
        "timestamp": "2022-12-06T05:51:35Z",
        "version": 8,
        "changeset": 129766185,
        "addr:city": "Macapá",
        "addr:housenumber": "170",
        "addr:postcode": "68900-010",
        "addr:street": "Avenida Coaracy Nunes",
        "addr:suburb": "Central",
        "name": "IBGE - Fundação Instituto Brasileiro de Geografia e Estatística",
        "office": "government",
        "opening_hours": "Mo-Fr 07:00-19:00",
        "phone": "+55 96 30822710",
        "website": "https://www.ibge.gov.br/",
        "wheelchair": "yes",
        "id": "node/3265705416"
      },
      "geometry": {
        "type": "Point",
        "coordinates": [
          -51.0524564,
          0.0324929
        ]
      }
    },
    {
      "type": "Feature",
      "id": "node/3405868878",
      "properties": {
        "timestamp": "2023-01-03T05:55:41Z",
        "version": 2,
        "changeset": 130812100,
        "name": "Laboratório Central do Amapá",
        "office": "government",
        "website": "http://lacen.ap.gov.br/",
        "id": "node/3405868878"
      },
      "geometry": {
        "type": "Point",
        "coordinates": [
          -51.0567137,
          0.0784569
        ]
      }
    },
    {
      "type": "Feature",
      "id": "node/3405888276",
      "properties": {
        "timestamp": "2015-03-18T19:18:54Z",
        "version": 1,
        "changeset": 29577077,
        "name": "Horto Municipal",
        "office": "government",
        "id": "node/3405888276"
      },
      "geometry": {
        "type": "Point",
        "coordinates": [
          -51.056674,
          0.084359
        ]
      }
    },
    {
      "type": "Feature",
      "id": "node/3405888606",
      "properties": {
        "timestamp": "2015-03-18T19:20:16Z",
        "version": 1,
        "changeset": 29577102,
        "name": "Secretaria Municipal de Meio Ambiente",
        "office": "government",
        "id": "node/3405888606"
      },
      "geometry": {
        "type": "Point",
        "coordinates": [
          -51.0566633,
          0.0860488
        ]
      }
    },
    {
      "type": "Feature",
      "id": "node/4774612578",
      "properties": {
        "timestamp": "2023-09-19T06:16:11Z",
        "version": 3,
        "changeset": 141451661,
        "addr:city": "Macapá",
        "addr:street": "Avenida Pinhal",
        "addr:suburb": "Brasil Novo",
        "government": "yes",
        "name": "Centro de Triagem de Animais Silvestres - CETAS IBAMA",
        "office": "government",
        "id": "node/4774612578"
      },
      "geometry": {
        "type": "Point",
        "coordinates": [
          -51.0828114,
          0.0881608
        ]
      }
    },
    {
      "type": "Feature",
      "id": "node/5257730893",
      "properties": {
        "timestamp": "2017-12-01T14:12:04Z",
        "version": 1,
        "changeset": 54237131,
        "name": "SERPRO",
        "office": "government",
        "id": "node/5257730893"
      },
      "geometry": {
        "type": "Point",
        "coordinates": [
          -51.062972,
          0.0441905
        ]
      }
    },
    {
      "type": "Feature",
      "id": "node/5257730894",
      "properties": {
        "timestamp": "2017-12-01T14:12:04Z",
        "version": 1,
        "changeset": 54237131,
        "name": "DNIT",
        "office": "government",
        "id": "node/5257730894"
      },
      "geometry": {
        "type": "Point",
        "coordinates": [
          -51.0633233,
          0.0438639
        ]
      }
    },
    {
      "type": "Feature",
      "id": "node/5562629748",
      "properties": {
        "timestamp": "2018-04-18T18:19:46Z",
        "version": 1,
        "changeset": 58210305,
        "name": "Prédio Administrativo",
        "office": "government",
        "id": "node/5562629748"
      },
      "geometry": {
        "type": "Point",
        "coordinates": [
          -51.0834963,
          -0.0087304
        ]
      }
    },
    {
      "type": "Feature",
      "id": "node/5562629749",
      "properties": {
        "timestamp": "2018-04-18T18:19:46Z",
        "version": 1,
        "changeset": 58210305,
        "name": "Prédio da Pós Graduação",
        "office": "government",
        "id": "node/5562629749"
      },
      "geometry": {
        "type": "Point",
        "coordinates": [
          -51.08425,
          -0.008827
        ]
      }
    },
    {
      "type": "Feature",
      "id": "node/5562629751",
      "properties": {
        "timestamp": "2018-04-18T18:19:46Z",
        "version": 1,
        "changeset": 58210305,
        "name": "Prédio de fisioterapia",
        "office": "government",
        "id": "node/5562629751"
      },
      "geometry": {
        "type": "Point",
        "coordinates": [
          -51.0872058,
          -0.0095727
        ]
      }
    },
    {
      "type": "Feature",
      "id": "node/5562629752",
      "properties": {
        "timestamp": "2024-10-09T13:37:55Z",
        "version": 2,
        "changeset": 157672927,
        "name": "Prédio de enfermagem",
        "office": "government",
        "id": "node/5562629752"
      },
      "geometry": {
        "type": "Point",
        "coordinates": [
          -51.087466,
          -0.0093634
        ]
      }
    },
    {
      "type": "Feature",
      "id": "node/5562629753",
      "properties": {
        "timestamp": "2018-04-18T18:19:47Z",
        "version": 1,
        "changeset": 58210305,
        "name": "Prédio de Ciências da Saúde",
        "office": "government",
        "id": "node/5562629753"
      },
      "geometry": {
        "type": "Point",
        "coordinates": [
          -51.0877771,
          -0.0093366
        ]
      }
    },
    {
      "type": "Feature",
      "id": "node/5562629754",
      "properties": {
        "timestamp": "2024-10-09T13:37:55Z",
        "version": 2,
        "changeset": 157672927,
        "name": "Prédio de Farmácia",
        "office": "government",
        "id": "node/5562629754"
      },
      "geometry": {
        "type": "Point",
        "coordinates": [
          -51.0869912,
          -0.0097765
        ]
      }
    },
    {
      "type": "Feature",
      "id": "node/5562677954",
      "properties": {
        "timestamp": "2019-01-28T15:02:42Z",
        "version": 2,
        "changeset": 66708893,
        "name": "Centro de Referência em Tratamentos Naturais",
        "office": "government",
        "id": "node/5562677954"
      },
      "geometry": {
        "type": "Point",
        "coordinates": [
          -51.0576206,
          0.0404175
        ]
      }
    },
    {
      "type": "Feature",
      "id": "node/5562677959",
      "properties": {
        "timestamp": "2018-04-18T18:49:05Z",
        "version": 1,
        "changeset": 58211089,
        "name": "Residência do governador",
        "office": "government",
        "id": "node/5562677959"
      },
      "geometry": {
        "type": "Point",
        "coordinates": [
          -51.0503088,
          0.0392683
        ]
      }
    },
    {
      "type": "Feature",
      "id": "node/5562708237",
      "properties": {
        "timestamp": "2018-04-18T19:02:15Z",
        "version": 1,
        "changeset": 58211505,
        "name": "Palácio do Setentrião",
        "office": "government",
        "id": "node/5562708237"
      },
      "geometry": {
        "type": "Point",
        "coordinates": [
          -51.0554312,
          0.0406615
        ]
      }
    },
    {
      "type": "Feature",
      "id": "node/5562708238",
      "properties": {
        "timestamp": "2018-04-18T19:02:15Z",
        "version": 1,
        "changeset": 58211505,
        "name": "Vice-governadoria",
        "office": "government",
        "id": "node/5562708238"
      },
      "geometry": {
        "type": "Point",
        "coordinates": [
          -51.0542047,
          0.0405825
        ]
      }
    },
    {
      "type": "Feature",
      "id": "node/5562708239",
      "properties": {
        "timestamp": "2018-04-18T19:02:15Z",
        "version": 1,
        "changeset": 58211505,
        "name": "Farmácia Popular",
        "office": "government",
        "id": "node/5562708239"
      },
      "geometry": {
        "type": "Point",
        "coordinates": [
          -51.0540202,
          0.0405649
        ]
      }
    },
    {
      "type": "Feature",
      "id": "node/5562708240",
      "properties": {
        "timestamp": "2018-04-18T19:02:15Z",
        "version": 1,
        "changeset": 58211505,
        "name": "Central de Imunização",
        "office": "government",
        "id": "node/5562708240"
      },
      "geometry": {
        "type": "Point",
        "coordinates": [
          -51.05395,
          0.0405649
        ]
      }
    },
    {
      "type": "Feature",
      "id": "node/8204379258",
      "properties": {
        "timestamp": "2020-12-08T05:35:23Z",
        "version": 1,
        "changeset": 95460633,
        "government": "prosecutor",
        "name": "Procuradoria Geral de Justiça",
        "office": "government",
        "id": "node/8204379258"
      },
      "geometry": {
        "type": "Point",
        "coordinates": [
          -51.0600577,
          0.0088959
        ]
      }
    },
    {
      "type": "Feature",
      "id": "node/10173084484",
      "properties": {
        "timestamp": "2022-12-07T08:48:48Z",
        "version": 2,
        "changeset": 129811888,
        "addr:city": "Macapá",
        "addr:housenumber": "2529",
        "addr:postcode": "68900-067",
        "addr:street": "Rua Leopoldo Machado",
        "addr:suburb": "Central",
        "government": "social_security",
        "name": "Instituto Nacional do Seguro Social - Macapá",
        "office": "government",
        "operator": "Instituto Nacional do Seguro Social",
        "operator:short": "INSS",
        "operator:wikidata": "Q10302614",
        "website": "https://www.gov.br/inss/pt-br",
        "id": "node/10173084484"
      },
      "geometry": {
        "type": "Point",
        "coordinates": [
          -51.0625479,
          0.0295797
        ]
      }
    },
    {
      "type": "Feature",
      "id": "node/10173084486",
      "properties": {
        "timestamp": "2022-11-10T08:54:36Z",
        "version": 1,
        "changeset": 128722070,
        "addr:city": "Macapá",
        "addr:housenumber": "265",
        "addr:postcode": "68902-005",
        "addr:street": "Avenida Anhangueras",
        "addr:suburb": "Beirol",
        "name": "Secretaria de Saúde do Amapá",
        "office": "government",
        "website": "https://saude.portal.ap.gov.br",
        "id": "node/10173084486"
      },
      "geometry": {
        "type": "Point",
        "coordinates": [
          -51.0616646,
          0.0205693
        ]
      }
    },
    {
      "type": "Feature",
      "id": "node/10236171611",
      "properties": {
        "timestamp": "2022-12-03T19:43:52Z",
        "version": 1,
        "changeset": 129687283,
        "addr:city": "Macapá",
        "addr:housenumber": "876",
        "addr:postcode": "68900-098",
        "addr:street": "Rua Tiradentes",
        "addr:suburb": "Central",
        "government": "register_office",
        "name": "Cartório Jucá Cruz",
        "office": "government",
        "opening_hours": "Mo-Fr 09:00-15:00",
        "phone": "+55 96 99202-1455",
        "website": "https://www.cartoriojucacruz.com.br/",
        "id": "node/10236171611"
      },
      "geometry": {
        "type": "Point",
        "coordinates": [
          -51.0533776,
          0.0347695
        ]
      }
    },
    {
      "type": "Feature",
      "id": "node/10575961990",
      "properties": {
        "timestamp": "2023-01-23T06:29:02Z",
        "version": 1,
        "changeset": 131592512,
        "government": "yes",
        "name": "Secretaria de Desporto e Lazer do Amapá",
        "office": "government",
        "website": "https://sedel.portal.ap.gov.br/",
        "id": "node/10575961990"
      },
      "geometry": {
        "type": "Point",
        "coordinates": [
          -51.0705193,
          0.0341864
        ]
      }
    },
    {
      "type": "Feature",
      "id": "node/10578445622",
      "properties": {
        "timestamp": "2023-01-24T08:07:23Z",
        "version": 1,
        "changeset": 131638681,
        "addr:city": "Macapá",
        "addr:housenumber": "669",
        "addr:postcode": "68908-150",
        "addr:street": "Rua José Serafim",
        "addr:suburb": "Laguinho",
        "name": "Empresa Municipal de Desenvolvimento e Urbanização de Macapá",
        "office": "government",
        "id": "node/10578445622"
      },
      "geometry": {
        "type": "Point",
        "coordinates": [
          -51.0522752,
          0.0469882
        ]
      }
    },
    {
      "type": "Feature",
      "id": "node/10675671047",
      "properties": {
        "timestamp": "2023-02-18T07:35:59Z",
        "version": 1,
        "changeset": 132704436,
        "addr:city": "Macapá",
        "addr:postcode": "68909-803",
        "addr:street": "Rua Cícero Marquês de Souza",
        "addr:suburb": "Novo Horizonte",
        "government": "yes",
        "name": "CIOSP do Novo Horizonte",
        "office": "government",
        "id": "node/10675671047"
      },
      "geometry": {
        "type": "Point",
        "coordinates": [
          -51.0503054,
          0.0923691
        ]
      }
    },
    {
      "type": "Feature",
      "id": "node/10712404804",
      "properties": {
        "timestamp": "2023-03-05T15:27:28Z",
        "version": 1,
        "changeset": 133329641,
        "name": "Instituto Macapaense de Turismo",
        "office": "government",
        "id": "node/10712404804"
      },
      "geometry": {
        "type": "Point",
        "coordinates": [
          -51.0541105,
          0.0314376
        ]
      }
    },
    {
      "type": "Feature",
      "id": "node/10762089589",
      "properties": {
        "timestamp": "2023-03-25T21:10:08Z",
        "version": 1,
        "changeset": 134118531,
        "government": "register_office",
        "office": "government",
        "id": "node/10762089589"
      },
      "geometry": {
        "type": "Point",
        "coordinates": [
          -51.0539138,
          0.0517217
        ]
      }
    },
    {
      "type": "Feature",
      "id": "node/10794748419",
      "properties": {
        "timestamp": "2023-04-08T06:50:44Z",
        "version": 1,
        "changeset": 134640353,
        "addr:city": "Macapá",
        "addr:housenumber": "1175",
        "addr:postcode": "68900-020",
        "addr:street": "Avenida Mendonça Júnior",
        "addr:suburb": "Central",
        "name": "Secretaria de Trabalho e Empreendedorismo do Amapá",
        "office": "government",
        "website": "https://sete.portal.ap.gov.br/",
        "id": "node/10794748419"
      },
      "geometry": {
        "type": "Point",
        "coordinates": [
          -51.0604283,
          0.0337564
        ]
      }
    },
    {
      "type": "Feature",
      "id": "node/10894637352",
      "properties": {
        "timestamp": "2023-05-13T21:06:13Z",
        "version": 1,
        "changeset": 136067196,
        "addr:city": "Macapá",
        "addr:housenumber": "916",
        "addr:postcode": "68901-050",
        "addr:street": "Avenida Cônego Domingos Maltês",
        "addr:suburb": "Trem",
        "name": "Agência Amapá",
        "office": "government",
        "website": "https://ageamapa.portal.ap.gov.br",
        "id": "node/10894637352"
      },
      "geometry": {
        "type": "Point",
        "coordinates": [
          -51.0639519,
          0.0286724
        ]
      }
    }
  ]
}
