{
  "type": "FeatureCollection",
  "features": [
    {
      "type": "Feature",
      "id": "way/485974643",
      "properties": {
        "timestamp": "2023-01-03T05:55:41Z",
        "version": 6,
        "changeset": 130812100,
        "addr:city": "Macapá",
        "addr:country": "BR",
        "addr:housenumber": "303",
        "addr:postcode": "68900-098",
        "addr:state": "Amapá",
        "addr:street": "Rua Tiradentes",
        "addr:suburb": "Central",
        "brand:wikipedia": "en:Ibis (hotel)",
        "building": "yes",
        "contact:email": "h6349-re@accor.com.br",
        "contact:fax": "+55 96 2101-9051",
        "contact:phone": "+55 96 2101-9050",
        "contact:website": "http://www.accorhotels.com/gb/hotel-6349-ibis-macapa/index.shtml",
        "name": "Amapá Hotel",
        "not:brand:wikidata": "Q920166",
        "note": "Categoria: Hospedagem.\nNúmero de pavimentos: 8\nEstado de conservação: Ótimo.\nAno de liberação: 2010",
        "tourism": "hotel",
        "id": "way/485974643"
      },
      "geometry": {
        "type": "Polygon",
        "coordinates": [
          [
            [
              -51.0528357,
              0.040032
            ],
            [
              -51.0528423,
              0.039957
            ],
            [
              -51.0528598,
              0.0397584
            ],
            [
              -51.0525674,
              0.0397369
            ],
            [
              -51.052546,
              0.0400185
            ],
            [
              -51.0528357,
              0.040032
            ]
          ]
        ]
      }
    },
    {
      "type": "Feature",
      "id": "way/581404021",
      "properties": {
        "timestamp": "2022-12-17T08:18:59Z",
        "version": 2,
        "changeset": 130179204,
        "addr:city": "Macapá",
        "addr:postcode": "68908-129",
        "addr:street": "Avenida Marcílio Dias",
        "addr:suburb": "Jesus de Nazaré",
        "building": "yes",
        "internet_access": "yes",
        "name": "San Marino",
        "tourism": "hotel",
        "id": "way/581404021"
      },
      "geometry": {
        "type": "Polygon",
        "coordinates": [
          [
            [
              -51.0623217,
              0.0508225
            ],
            [
              -51.0623519,
              0.0504003
            ],
            [
              -51.0621934,
              0.050389
            ],
            [
              -51.0621632,
              0.0508112
            ],
            [
              -51.0623217,
              0.0508225
            ]
          ]
        ]
      }
    },
    {
      "type": "Feature",
      "id": "way/874847054",
      "properties": {
        "timestamp": "2022-12-03T17:01:09Z",
        "version": 4,
        "changeset": 129683312,
        "addr:city": "Macapá",
        "addr:housenumber": "1104",
        "addr:postcode": "68900-098",
        "addr:street": "Rua Tiradentes",
        "addr:suburb": "Central",
        "building": "yes",
        "name": "Frota Palace Hotel",
        "note": "Categoria: Hospedagem \nNúmero de pavimentos: 4\nEstado de conservação: Bom\nAno de liberação:",
        "tourism": "hotel",
        "id": "way/874847054"
      },
      "geometry": {
        "type": "Polygon",
        "coordinates": [
          [
            [
              -51.0537525,
              0.0327069
            ],
            [
              -51.0534931,
              0.0326866
            ],
            [
              -51.0534829,
              0.0328168
            ],
            [
              -51.0537423,
              0.0328371
            ],
            [
              -51.0537525,
              0.0327069
            ]
          ]
        ]
      }
    },
    {
      "type": "Feature",
      "id": "way/1089811391",
      "properties": {
        "timestamp": "2023-01-04T06:43:44Z",
        "version": 4,
        "changeset": 130852905,
        "addr:city": "Macapá",
        "addr:housenumber": "1689",
        "addr:postcode": "68900-110",
        "addr:street": "Rua São José",
        "addr:suburb": "Central",
        "building": "yes",
        "email": "reserva@magnusplazahotel.com",
        "name": "Magnus Plaza Hotel",
        "phone": "+55 96 3223-2202",
        "tourism": "hotel",
        "website": "http://www.magunsplazahotel.com/",
        "id": "way/1089811391"
      },
      "geometry": {
        "type": "Polygon",
        "coordinates": [
          [
            [
              -51.0516565,
              0.0381489
            ],
            [
              -51.0516513,
              0.0381486
            ],
            [
              -51.0514727,
              0.0381377
            ],
            [
              -51.0514011,
              0.0381333
            ],
            [
              -51.0513936,
              0.0381328
            ],
            [
              -51.0513761,
              0.0384517
            ],
            [
              -51.0513749,
              0.0384734
            ],
            [
              -51.0516324,
              0.0384922
            ],
            [
              -51.0516565,
              0.0381489
            ]
          ]
        ]
      }
    },
    {
      "type": "Feature",
      "id": "way/1090680120",
      "properties": {
        "timestamp": "2022-08-31T07:43:38Z",
        "version": 1,
        "changeset": 125599200,
        "addr:city": "Macapá",
        "addr:housenumber": "969",
        "addr:postcode": "68901-281",
        "addr:street": "Avenida Salgado Filho",
        "addr:suburb": "Santa Rita",
        "building": "yes",
        "name": "Hotel Mais",
        "phone": "+55 96 3225-2266",
        "tourism": "hotel",
        "id": "way/1090680120"
      },
      "geometry": {
        "type": "Polygon",
        "coordinates": [
          [
            [
              -51.0732538,
              0.0336973
            ],
            [
              -51.0732726,
              0.033405
            ],
            [
              -51.0731251,
              0.0333942
            ],
            [
              -51.073109,
              0.0336866
            ],
            [
              -51.0732538,
              0.0336973
            ]
          ]
        ]
      }
    },
    {
      "type": "Feature",
      "id": "way/1119235560",
      "properties": {
        "timestamp": "2022-12-03T19:43:52Z",
        "version": 1,
        "changeset": 129687283,
        "addr:city": "Macapá",
        "addr:housenumber": "755",
        "addr:postcode": "68900-098",
        "addr:street": "Rua Tiradentes",
        "addr:suburb": "Central",
        "building": "yes",
        "building:levels": "4",
        "name": "Hotel Amazonas",
        "phone": "+55 96 3225-4386",
        "tourism": "hotel",
        "id": "way/1119235560"
      },
      "geometry": {
        "type": "Polygon",
        "coordinates": [
          [
            [
              -51.0530084,
              0.0355766
            ],
            [
              -51.052986,
              0.0359985
            ],
            [
              -51.0531382,
              0.0360058
            ],
            [
              -51.053164,
              0.035583
            ],
            [
              -51.0530084,
              0.0355766
            ]
          ]
        ]
      }
    },
    {
      "type": "Feature",
      "id": "way/1119245832",
      "properties": {
        "timestamp": "2022-12-03T20:54:24Z",
        "version": 1,
        "changeset": 129688913,
        "addr:city": "Macapá",
        "addr:postcode": "68900-073",
        "addr:street": "Avenida FAB",
        "addr:suburb": "Central",
        "building": "yes",
        "name": "Apart Hotel Mont Blanc",
        "tourism": "hotel",
        "id": "way/1119245832"
      },
      "geometry": {
        "type": "Polygon",
        "coordinates": [
          [
            [
              -51.0586202,
              0.0411555
            ],
            [
              -51.0586314,
              0.0408317
            ],
            [
              -51.0584895,
              0.0408239
            ],
            [
              -51.0584734,
              0.0411462
            ],
            [
              -51.0586202,
              0.0411555
            ]
          ]
        ]
      }
    },
    {
      "type": "Feature",
      "id": "way/1119326470",
      "properties": {
        "timestamp": "2023-07-26T06:51:28Z",
        "version": 2,
        "changeset": 139020886,
        "addr:city": "Macapá",
        "addr:housenumber": "1007",
        "addr:postcode": "68908-181",
        "addr:street": "Rua General Rondon",
        "addr:suburb": "Laguinho",
        "building": "yes",
        "building:levels": "5",
        "description": "Categoria: Hospedagem.\nNúmero de pavimentos: 5\nEstado de conservação: Bom.",
        "height": "16",
        "name": "Hotel Versalles",
        "tourism": "hotel",
        "id": "way/1119326470"
      },
      "geometry": {
        "type": "Polygon",
        "coordinates": [
          [
            [
              -51.0543092,
              0.0435325
            ],
            [
              -51.0545413,
              0.0435511
            ],
            [
              -51.0545452,
              0.0434326
            ],
            [
              -51.054317,
              0.0434194
            ],
            [
              -51.0543092,
              0.0435325
            ]
          ]
        ]
      }
    },
    {
      "type": "Feature",
      "id": "way/1119326485",
      "properties": {
        "timestamp": "2022-12-04T08:35:07Z",
        "version": 1,
        "changeset": 129697083,
        "addr:city": "Macapá",
        "addr:housenumber": "39",
        "addr:postcode": "68908-198",
        "addr:street": "Avenida Ernestino Borges",
        "addr:suburb": "Laguinho",
        "building": "yes",
        "building:levels": "3",
        "internet_access": "wlan",
        "name": "Hotel e Restaurante Macapaba",
        "phone": "+55 96 3217-2578",
        "tourism": "hotel",
        "website": "http://www.hotelmacapaba.com.br",
        "id": "way/1119326485"
      },
      "geometry": {
        "type": "Polygon",
        "coordinates": [
          [
            [
              -51.0506356,
              0.0425976
            ],
            [
              -51.0506561,
              0.0422792
            ],
            [
              -51.0505624,
              0.0422709
            ],
            [
              -51.0505424,
              0.0425957
            ],
            [
              -51.0506356,
              0.0425976
            ]
          ]
        ]
      }
    },
    {
      "type": "Feature",
      "id": "way/1119764894",
      "properties": {
        "timestamp": "2022-12-31T04:35:08Z",
        "version": 2,
        "changeset": 130709041,
        "addr:city": "Macapá",
        "addr:housenumber": "1553",
        "addr:postcode": "68900-015",
        "addr:street": "Avenida Antônio Coelho de Carvalho",
        "addr:suburb": "Central",
        "building": "yes",
        "building:levels": "5",
        "name": "Hotel Amazônia",
        "phone": "+55 96 99195-9476",
        "tourism": "hotel",
        "id": "way/1119764894"
      },
      "geometry": {
        "type": "Polygon",
        "coordinates": [
          [
            [
              -51.0651888,
              0.0320009
            ],
            [
              -51.0650449,
              0.031995
            ],
            [
              -51.0650181,
              0.0322891
            ],
            [
              -51.0651693,
              0.0323003
            ],
            [
              -51.0651888,
              0.0320009
            ]
          ]
        ]
      }
    },
    {
      "type": "Feature",
      "id": "way/1119764895",
      "properties": {
        "timestamp": "2023-05-13T21:06:13Z",
        "version": 2,
        "changeset": 136067196,
        "addr:city": "Macapá",
        "addr:housenumber": "1623",
        "addr:postcode": "68900-115",
        "addr:street": "Avenida Henrique Galúcio",
        "addr:suburb": "Central",
        "building": "yes",
        "name": "Hotel Holliday",
        "tourism": "hotel",
        "website": "https://holliday.nhotel.online/",
        "id": "way/1119764895"
      },
      "geometry": {
        "type": "Polygon",
        "coordinates": [
          [
            [
              -51.0650966,
              0.0312713
            ],
            [
              -51.0650865,
              0.0312706
            ],
            [
              -51.0650217,
              0.0312657
            ],
            [
              -51.0649669,
              0.0312616
            ],
            [
              -51.0649444,
              0.0315288
            ],
            [
              -51.0650746,
              0.0315405
            ],
            [
              -51.0650751,
              0.0315353
            ],
            [
              -51.0650966,
              0.0312713
            ]
          ]
        ]
      }
    },
    {
      "type": "Feature",
      "id": "way/1119764901",
      "properties": {
        "timestamp": "2023-05-13T21:06:13Z",
        "version": 2,
        "changeset": 136067196,
        "addr:city": "Macapá",
        "addr:housenumber": "1976",
        "addr:postcode": "68900-030",
        "addr:street": "Avenida Padre Júlio Maria Lombaerd",
        "addr:suburb": "Central",
        "building": "yes",
        "building:levels": "4",
        "description": "Categoria: Moradia. Número de Pavimentos: 4 Estado de conservação: Ótimo Ano de liberação:",
        "name": "Hotel Norte",
        "tourism": "hotel",
        "id": "way/1119764901"
      },
      "geometry": {
        "type": "Polygon",
        "coordinates": [
          [
            [
              -51.0670878,
              0.0357145
            ],
            [
              -51.0671085,
              0.0354447
            ],
            [
              -51.0671097,
              0.0354292
            ],
            [
              -51.0669819,
              0.035419
            ],
            [
              -51.0669634,
              0.0357072
            ],
            [
              -51.0670878,
              0.0357145
            ]
          ]
        ]
      }
    },
    {
      "type": "Feature",
      "id": "way/1119764912",
      "properties": {
        "timestamp": "2022-12-06T05:51:35Z",
        "version": 1,
        "changeset": 129766185,
        "addr:city": "Macapá",
        "addr:postcode": "68900-098",
        "addr:street": "Rua Tiradentes",
        "addr:suburb": "Central",
        "building": "yes",
        "building:levels": "4",
        "name": "Hotel JK",
        "note": "Categoria: Hospedagem \nNúmero de pavimentos: 4\nEstado de conservação: Bom \nAno de liberação:",
        "tourism": "hotel",
        "id": "way/1119764912"
      },
      "geometry": {
        "type": "Polygon",
        "coordinates": [
          [
            [
              -51.0534375,
              0.031226
            ],
            [
              -51.0534429,
              0.0311353
            ],
            [
              -51.0531464,
              0.0311216
            ],
            [
              -51.0531448,
              0.0311431
            ],
            [
              -51.0531395,
              0.0312133
            ],
            [
              -51.0532408,
              0.0312176
            ],
            [
              -51.0534375,
              0.031226
            ]
          ]
        ]
      }
    },
    {
      "type": "Feature",
      "id": "way/1119764917",
      "properties": {
        "timestamp": "2022-12-06T05:51:35Z",
        "version": 1,
        "changeset": 129766185,
        "addr:city": "Macapá",
        "addr:housenumber": "2390",
        "addr:postcode": "68900-110",
        "addr:street": "Rua São José",
        "addr:suburb": "Central",
        "building": "yes",
        "building:levels": "4",
        "email": "marahotelmacapa@gmail.com",
        "name": "Mara Hotel",
        "note": "Categoria: Misto (Hospedagem/Serviço)\nNúmero de pavimentos: 4\nEstado de conservação: Bom.\nAno de liberação:",
        "phone": "+55 96 3223-0087",
        "tourism": "hotel",
        "website": "https://www.marahotel-macapa.com/",
        "id": "way/1119764917"
      },
      "geometry": {
        "type": "Polygon",
        "coordinates": [
          [
            [
              -51.0523754,
              0.031599
            ],
            [
              -51.0522715,
              0.0315917
            ],
            [
              -51.052251,
              0.0318795
            ],
            [
              -51.0522553,
              0.0318796
            ],
            [
              -51.0523533,
              0.0318839
            ],
            [
              -51.0523754,
              0.031599
            ]
          ]
        ]
      }
    },
    {
      "type": "Feature",
      "id": "way/1120046317",
      "properties": {
        "timestamp": "2022-12-07T08:48:48Z",
        "version": 1,
        "changeset": 129811888,
        "addr:city": "Macapá",
        "addr:postcode": "68900-098",
        "addr:street": "Rua Tiradentes",
        "addr:suburb": "Central",
        "building": "yes",
        "name": "Centro Hotel",
        "tourism": "hotel",
        "id": "way/1120046317"
      },
      "geometry": {
        "type": "Polygon",
        "coordinates": [
          [
            [
              -51.0526702,
              0.0425798
            ],
            [
              -51.052679,
              0.0424545
            ],
            [
              -51.0525113,
              0.0424433
            ],
            [
              -51.0524996,
              0.0425672
            ],
            [
              -51.0526702,
              0.0425798
            ]
          ]
        ]
      }
    },
    {
      "type": "Feature",
      "id": "way/1120046327",
      "properties": {
        "timestamp": "2022-12-07T08:48:48Z",
        "version": 1,
        "changeset": 129811888,
        "addr:city": "Macapá",
        "addr:housenumber": "1284",
        "addr:postcode": "68900-040",
        "addr:street": "Avenida Professora Cora de Carvalho",
        "addr:suburb": "Central",
        "building": "yes",
        "building:levels": "4",
        "name": "New Business Hotel",
        "tourism": "hotel",
        "id": "way/1120046327"
      },
      "geometry": {
        "type": "Polygon",
        "coordinates": [
          [
            [
              -51.0602509,
              0.0357965
            ],
            [
              -51.0602343,
              0.0360189
            ],
            [
              -51.0604908,
              0.0360365
            ],
            [
              -51.0605138,
              0.0358194
            ],
            [
              -51.0602509,
              0.0357965
            ]
          ]
        ]
      }
    },
    {
      "type": "Feature",
      "id": "way/1120271103",
      "properties": {
        "timestamp": "2022-12-08T07:37:47Z",
        "version": 1,
        "changeset": 129848817,
        "addr:city": "Macapá",
        "addr:housenumber": "2109",
        "addr:postcode": "68900-083",
        "addr:street": "Rua Eliézer Levy",
        "addr:suburb": "Central",
        "building": "yes",
        "building:levels": "5",
        "name": "Hotel Rio Mar",
        "note": "Categoria: Hospedagem \nNúmero de pavimentos: 5\nEstado de conservação: Ótimo \nAno de liberação:",
        "tourism": "hotel",
        "id": "way/1120271103"
      },
      "geometry": {
        "type": "Polygon",
        "coordinates": [
          [
            [
              -51.0565498,
              0.0329204
            ],
            [
              -51.056561,
              0.0327161
            ],
            [
              -51.0562528,
              0.0326971
            ],
            [
              -51.0562387,
              0.0329082
            ],
            [
              -51.0565498,
              0.0329204
            ]
          ]
        ]
      }
    },
    {
      "type": "Feature",
      "id": "way/1121145908",
      "properties": {
        "timestamp": "2022-12-12T05:51:45Z",
        "version": 1,
        "changeset": 129985130,
        "addr:city": "Macapá",
        "addr:housenumber": "160",
        "addr:postcode": "68901-025",
        "addr:street": "Avenida Feliciano Coelho",
        "addr:suburb": "Trem",
        "building": "yes",
        "building:levels": "10",
        "description": "Categoria: Hotel\nNúmero de pavimentos: 8\nEstado de conservação: ótimo\nAno de liberação: 2016",
        "email": "hoteldoforte@hotmail.com",
        "name": "Forte Express",
        "phone": "+55 (96) 3223-2855",
        "tourism": "hotel",
        "website": "https://hoteldoforte.com/express/",
        "id": "way/1121145908"
      },
      "geometry": {
        "type": "Polygon",
        "coordinates": [
          [
            [
              -51.0552404,
              0.0291079
            ],
            [
              -51.055255,
              0.0288197
            ],
            [
              -51.055016,
              0.028805
            ],
            [
              -51.0550048,
              0.0291045
            ],
            [
              -51.0552404,
              0.0291079
            ]
          ]
        ]
      }
    },
    {
      "type": "Feature",
      "id": "way/1122309193",
      "properties": {
        "timestamp": "2022-12-15T14:30:13Z",
        "version": 1,
        "changeset": 130117986,
        "building": "yes",
        "name": "Amazon Plaza Hotel",
        "tourism": "hotel",
        "id": "way/1122309193"
      },
      "geometry": {
        "type": "Polygon",
        "coordinates": [
          [
            [
              -51.0523512,
              0.0280724
            ],
            [
              -51.0523673,
              0.0276794
            ],
            [
              -51.0520512,
              0.0279305
            ],
            [
              -51.0520493,
              0.0280666
            ],
            [
              -51.0523512,
              0.0280724
            ]
          ]
        ]
      }
    },
    {
      "type": "Feature",
      "id": "way/1122562575",
      "properties": {
        "timestamp": "2022-12-16T06:46:36Z",
        "version": 1,
        "changeset": 130141231,
        "addr:city": "Macapá",
        "addr:postcode": "68900-067",
        "addr:street": "Rua Leopoldo Machado",
        "addr:suburb": "Central",
        "building": "yes",
        "name": "Hotel Glória Macapá",
        "tourism": "hotel",
        "id": "way/1122562575"
      },
      "geometry": {
        "type": "Polygon",
        "coordinates": [
          [
            [
              -51.0622991,
              0.0336504
            ],
            [
              -51.0623059,
              0.0335099
            ],
            [
              -51.0620719,
              0.0335036
            ],
            [
              -51.0620699,
              0.0336401
            ],
            [
              -51.0622991,
              0.0336504
            ]
          ]
        ]
      }
    },
    {
      "type": "Feature",
      "id": "way/1123522224",
      "properties": {
        "timestamp": "2022-12-20T06:04:13Z",
        "version": 1,
        "changeset": 130273768,
        "building": "yes",
        "name": "Hotel Orla",
        "tourism": "hotel",
        "id": "way/1123522224"
      },
      "geometry": {
        "type": "Polygon",
        "coordinates": [
          [
            [
              -51.0563907,
              0.0211838
            ],
            [
              -51.056279,
              0.0211814
            ],
            [
              -51.0562621,
              0.0212079
            ],
            [
              -51.0562535,
              0.0213259
            ],
            [
              -51.0563869,
              0.0213249
            ],
            [
              -51.0563907,
              0.0211838
            ]
          ]
        ]
      }
    },
    {
      "type": "Feature",
      "id": "way/1123806187",
      "properties": {
        "timestamp": "2024-04-10T06:16:30Z",
        "version": 2,
        "changeset": 149803988,
        "addr:city": "Macapá",
        "addr:housenumber": "248",
        "addr:postcode": "68901-470",
        "addr:street": "Rua Beira Rio",
        "addr:suburb": "Trem",
        "air_conditioning": "yes",
        "bar": "yes",
        "building": "yes",
        "building:levels": "3",
        "email": "hoteldoforte@hotmail.com",
        "internet_access": "wlan",
        "name": "Hotel do Forte",
        "phone": "+55 96 3223-2855",
        "rooms": "105",
        "tourism": "hotel",
        "website": "https://hoteldoforte.com/forte",
        "id": "way/1123806187"
      },
      "geometry": {
        "type": "Polygon",
        "coordinates": [
          [
            [
              -51.0528463,
              0.0274216
            ],
            [
              -51.052862,
              0.0272486
            ],
            [
              -51.0528294,
              0.0272496
            ],
            [
              -51.0525305,
              0.0275353
            ],
            [
              -51.052533,
              0.0276399
            ],
            [
              -51.0525737,
              0.0276903
            ],
            [
              -51.0528155,
              0.0276899
            ],
            [
              -51.0528236,
              0.0274203
            ],
            [
              -51.0528463,
              0.0274216
            ]
          ]
        ]
      }
    },
    {
      "type": "Feature",
      "id": "way/1124614696",
      "properties": {
        "timestamp": "2022-12-24T09:11:31Z",
        "version": 1,
        "changeset": 130448629,
        "addr:city": "Macapá",
        "addr:housenumber": "333",
        "addr:postcode": "68900-010",
        "addr:street": "Avenida Coaracy Nunes",
        "addr:suburb": "Central",
        "building": "yes",
        "name": "Hotel América",
        "phone": "+55 96 98801-0030",
        "tourism": "hotel",
        "id": "way/1124614696"
      },
      "geometry": {
        "type": "Polygon",
        "coordinates": [
          [
            [
              -51.0540648,
              0.0323631
            ],
            [
              -51.0540844,
              0.0320315
            ],
            [
              -51.0539527,
              0.0320222
            ],
            [
              -51.0539307,
              0.0323592
            ],
            [
              -51.0540648,
              0.0323631
            ]
          ]
        ]
      }
    },
    {
      "type": "Feature",
      "id": "way/1125704850",
      "properties": {
        "timestamp": "2022-12-29T20:20:53Z",
        "version": 1,
        "changeset": 130661676,
        "building": "yes",
        "name": "Atalanta Hotel",
        "tourism": "hotel",
        "id": "way/1125704850"
      },
      "geometry": {
        "type": "Polygon",
        "coordinates": [
          [
            [
              -51.0614738,
              0.0334965
            ],
            [
              -51.0615104,
              0.0330678
            ],
            [
              -51.0612534,
              0.0330595
            ],
            [
              -51.0612397,
              0.0332453
            ],
            [
              -51.0613387,
              0.0332463
            ],
            [
              -51.0613221,
              0.033495
            ],
            [
              -51.0614738,
              0.0334965
            ]
          ]
        ]
      }
    },
    {
      "type": "Feature",
      "id": "way/1125975960",
      "properties": {
        "timestamp": "2022-12-31T04:35:08Z",
        "version": 1,
        "changeset": 130709041,
        "addr:city": "Macapá",
        "addr:housenumber": "48",
        "addr:postcode": "68900-091",
        "addr:street": "Rua Rio Maracá",
        "addr:suburb": "Central",
        "building": "yes",
        "name": "Hotel Central",
        "tourism": "hotel",
        "id": "way/1125975960"
      },
      "geometry": {
        "type": "Polygon",
        "coordinates": [
          [
            [
              -51.0527512,
              0.0300949
            ],
            [
              -51.052738,
              0.0303807
            ],
            [
              -51.0528568,
              0.0303814
            ],
            [
              -51.0528729,
              0.0300998
            ],
            [
              -51.0527512,
              0.0300949
            ]
          ]
        ]
      }
    },
    {
      "type": "Feature",
      "id": "way/1126621228",
      "properties": {
        "timestamp": "2023-01-03T05:55:41Z",
        "version": 1,
        "changeset": 130812100,
        "addr:city": "Macapá",
        "addr:housenumber": "1415",
        "addr:postcode": "68900-060",
        "addr:street": "Avenida Mendonça Furtado",
        "addr:suburb": "Central",
        "air_conditioning": "yes",
        "building": "yes",
        "email": "equatorialhotel@hotmail.com",
        "internet_access": "wlan",
        "internet_access:fee": "no",
        "name": "Equatorial Hotel",
        "phone": "+55 96 3225-2135, +55 31 99794-3154",
        "tourism": "hotel",
        "website": "https://hotelequatorial.com.br",
        "id": "way/1126621228"
      },
      "geometry": {
        "type": "Polygon",
        "coordinates": [
          [
            [
              -51.0644218,
              0.0374451
            ],
            [
              -51.0644209,
              0.0376212
            ],
            [
              -51.064534,
              0.037621
            ],
            [
              -51.0645362,
              0.0374486
            ],
            [
              -51.0644218,
              0.0374451
            ]
          ]
        ]
      }
    },
    {
      "type": "Feature",
      "id": "way/1126853746",
      "properties": {
        "timestamp": "2023-01-04T06:43:44Z",
        "version": 1,
        "changeset": 130852905,
        "building": "yes",
        "name": "Hotel Verde Mares",
        "tourism": "hotel",
        "id": "way/1126853746"
      },
      "geometry": {
        "type": "Polygon",
        "coordinates": [
          [
            [
              -51.0555894,
              0.0721039
            ],
            [
              -51.0559396,
              0.07206
            ],
            [
              -51.0559298,
              0.0719327
            ],
            [
              -51.0555772,
              0.0719732
            ],
            [
              -51.0555894,
              0.0721039
            ]
          ]
        ]
      }
    },
    {
      "type": "Feature",
      "id": "way/1126853755",
      "properties": {
        "timestamp": "2024-09-29T06:28:19Z",
        "version": 3,
        "changeset": 157237688,
        "addr:city": "Macapá",
        "addr:housenumber": "485",
        "addr:postcode": "68900-101",
        "addr:street": "Avenida Coriolano Jucá",
        "addr:suburb": "Central",
        "building": "yes",
        "name": "Hotel Santo Antônio",
        "tourism": "hotel",
        "id": "way/1126853755"
      },
      "geometry": {
        "type": "Polygon",
        "coordinates": [
          [
            [
              -51.053924,
              0.0386433
            ],
            [
              -51.0539264,
              0.0386434
            ],
            [
              -51.0540718,
              0.0386492
            ],
            [
              -51.0540859,
              0.0382664
            ],
            [
              -51.0539416,
              0.0382649
            ],
            [
              -51.0539351,
              0.0384056
            ],
            [
              -51.053924,
              0.0386433
            ]
          ]
        ]
      }
    },
    {
      "type": "Feature",
      "id": "way/1151548857",
      "properties": {
        "timestamp": "2023-03-05T15:27:28Z",
        "version": 1,
        "changeset": 133329641,
        "addr:city": "Macapá",
        "addr:housenumber": "626",
        "addr:postcode": "68900-030",
        "addr:street": "Avenida Padre Júlio Maria Lombaerd",
        "addr:suburb": "Central",
        "building": "yes",
        "name": "Hotel Xenios",
        "phone": "+55 96 3223-3424",
        "tourism": "hotel",
        "id": "way/1151548857"
      },
      "geometry": {
        "type": "Polygon",
        "coordinates": [
          [
            [
              -51.0546165,
              0.0345488
            ],
            [
              -51.054598,
              0.0348926
            ],
            [
              -51.0547146,
              0.0348985
            ],
            [
              -51.0547341,
              0.0345547
            ],
            [
              -51.0546165,
              0.0345488
            ]
          ]
        ]
      }
    },
    {
      "type": "Feature",
      "id": "way/1160626260",
      "properties": {
        "timestamp": "2023-04-08T06:50:44Z",
        "version": 1,
        "changeset": 134640353,
        "building": "yes",
        "name": "Royal Hotel e Gastronomia",
        "tourism": "hotel",
        "id": "way/1160626260"
      },
      "geometry": {
        "type": "Polygon",
        "coordinates": [
          [
            [
              -51.0612033,
              0.033852
            ],
            [
              -51.0612096,
              0.0336223
            ],
            [
              -51.0610804,
              0.0336193
            ],
            [
              -51.0610701,
              0.0338476
            ],
            [
              -51.0612033,
              0.033852
            ]
          ]
        ]
      }
    },
    {
      "type": "Feature",
      "id": "way/1172606444",
      "properties": {
        "timestamp": "2023-05-13T21:06:13Z",
        "version": 1,
        "changeset": 136067196,
        "addr:city": "Macapá",
        "addr:housenumber": "1410",
        "addr:postcode": "68900-095",
        "addr:street": "Avenida Ataíde Teive",
        "addr:suburb": "Central",
        "building": "yes",
        "name": "B&B Hotel",
        "tourism": "hotel",
        "id": "way/1172606444"
      },
      "geometry": {
        "type": "Polygon",
        "coordinates": [
          [
            [
              -51.0650217,
              0.0312657
            ],
            [
              -51.0650438,
              0.0309664
            ],
            [
              -51.0649882,
              0.030963
            ],
            [
              -51.0649669,
              0.0312616
            ],
            [
              -51.0650217,
              0.0312657
            ]
          ]
        ]
      }
    },
    {
      "type": "Feature",
      "id": "node/1744251422",
      "properties": {
        "timestamp": "2018-04-18T18:49:07Z",
        "version": 3,
        "changeset": 58211089,
        "name": "Hotel Macapá",
        "tourism": "hotel",
        "id": "node/1744251422"
      },
      "geometry": {
        "type": "Point",
        "coordinates": [
          -51.0488888,
          0.0352956
        ]
      }
    },
    {
      "type": "Feature",
      "id": "node/4895811821",
      "properties": {
        "timestamp": "2022-11-30T02:59:44Z",
        "version": 3,
        "changeset": 129542217,
        "addr:city": "Macapá",
        "addr:housenumber": "890",
        "addr:postcode": "68907-312",
        "addr:street": "Avenida Maria Marques da Costa",
        "addr:suburb": "Pantanal",
        "tourism": "hotel",
        "id": "node/4895811821"
      },
      "geometry": {
        "type": "Point",
        "coordinates": [
          -51.0469299,
          0.0717875
        ]
      }
    },
    {
      "type": "Feature",
      "id": "node/5423608783",
      "properties": {
        "timestamp": "2018-02-19T23:47:24Z",
        "version": 1,
        "changeset": 56506346,
        "addr:city": "Macapá",
        "addr:housenumber": "640",
        "addr:street": "Rua do Matadouro",
        "name": "CETA Ecotel",
        "tourism": "hotel",
        "id": "node/5423608783"
      },
      "geometry": {
        "type": "Point",
        "coordinates": [
          -51.1196637,
          -0.0490187
        ]
      }
    },
    {
      "type": "Feature",
      "id": "node/6427308285",
      "properties": {
        "timestamp": "2022-08-23T15:55:51Z",
        "version": 2,
        "changeset": 125278403,
        "addr:city": "Macapá",
        "addr:housenumber": "1693",
        "addr:postcode": "68900-075",
        "addr:street": "Rua Jovino Dinoá",
        "addr:suburb": "Central",
        "name": "Pousada Ekinox",
        "tourism": "hotel",
        "id": "node/6427308285"
      },
      "geometry": {
        "type": "Point",
        "coordinates": [
          -51.0599708,
          0.0369428
        ]
      }
    },
    {
      "type": "Feature",
      "id": "node/10310214818",
      "properties": {
        "timestamp": "2023-01-06T06:47:00Z",
        "version": 1,
        "changeset": 130934233,
        "addr:city": "Macapá",
        "addr:housenumber": "214",
        "addr:postcode": "68900-115",
        "addr:street": "Avenida Henrique Galúcio",
        "addr:suburb": "Central",
        "name": "Hotel Caissara II",
        "phone": "+55 96 3222-8350",
        "tourism": "hotel",
        "id": "node/10310214818"
      },
      "geometry": {
        "type": "Point",
        "coordinates": [
          -51.0524585,
          0.0308095
        ]
      }
    },
    {
      "type": "Feature",
      "id": "node/10312072234",
      "properties": {
        "timestamp": "2023-01-06T22:24:58Z",
        "version": 1,
        "changeset": 130964321,
        "addr:city": "Macapá",
        "addr:housenumber": "1525",
        "addr:postcode": "68903-361",
        "addr:street": "Avenida Equatorial",
        "addr:suburb": "Pedrinhas",
        "name": "Apart Hotel Meio do Mundo",
        "tourism": "hotel",
        "id": "node/10312072234"
      },
      "geometry": {
        "type": "Point",
        "coordinates": [
          -51.0682999,
          0.0006677
        ]
      }
    }
  ]
}
