{
  "type": "FeatureCollection",
  "features": [
    {
      "type": "Feature",
      "id": "way/1111247190",
      "properties": {
        "timestamp": "2022-12-04T08:35:07Z",
        "version": 2,
        "changeset": 129697083,
        "addr:city": "Macapá",
        "addr:postcode": "68908-121",
        "addr:street": "Rua Jovino Dinoá",
        "addr:suburb": "Laguinho",
        "amenity": "kindergarten",
        "name": "Escola Municipal Rondônia",
        "id": "way/1111247190"
      },
      "geometry": {
        "type": "Polygon",
        "coordinates": [
          [
            [
              -51.0594044,
              0.0455314
            ],
            [
              -51.0594204,
              0.0452122
            ],
            [
              -51.0588259,
              0.0451666
            ],
            [
              -51.058808,
              0.0454921
            ],
            [
              -51.0594044,
              0.0455314
            ]
          ]
        ]
      }
    },
    {
      "type": "Feature",
      "id": "way/1308735433",
      "properties": {
        "timestamp": "2024-08-19T05:22:55Z",
        "version": 1,
        "changeset": 155442381,
        "addr:city": "Macapá",
        "addr:housenumber": "2679",
        "addr:postcode": "68901-076",
        "addr:street": "Avenida Procópio Rola",
        "addr:suburb": "Santa Rita",
        "amenity": "kindergarten",
        "name": "Centro Educacional Tempo de Brincar",
        "phone": "+55 96 3223-8088",
        "id": "way/1308735433"
      },
      "geometry": {
        "type": "Polygon",
        "coordinates": [
          [
            [
              -51.0768967,
              0.0427614
            ],
            [
              -51.077071,
              0.0427775
            ],
            [
              -51.0770912,
              0.0425133
            ],
            [
              -51.0769047,
              0.0425052
            ],
            [
              -51.0768967,
              0.0427614
            ]
          ]
        ]
      }
    }
  ]
}
