{
  "type": "FeatureCollection",
  "features": [
    {
      "type": "Feature",
      "id": "way/723562422",
      "properties": {
        "timestamp": "2024-12-07T17:41:30Z",
        "version": 3,
        "changeset": 160034866,
        "addr:city": "Eirunepé",
        "addr:postcode": "69880000",
        "addr:street": "Rua Monsenhor Coutinho",
        "addr:suburb": "Nossa Senhora Aparecida",
        "amenity": "college",
        "camping:tents": "Eirunepé",
        "name": "Instituto Federal do Amazonas",
        "nohousenumber": "yes",
        "operator": "#IFES",
        "website": "http://www2.ifam.edu.br/campus/eirunepe",
        "id": "way/723562422"
      },
      "geometry": {
        "type": "Polygon",
        "coordinates": [
          [
            [
              -69.8721721,
              -6.6585575
            ],
            [
              -69.8720718,
              -6.6586166
            ],
            [
              -69.8719974,
              -6.6584826
            ],
            [
              -69.8720887,
              -6.6584254
            ],
            [
              -69.8721344,
              -6.6584934
            ],
            [
              -69.8721721,
              -6.6585575
            ]
          ]
        ]
      }
    }
  ]
}
