{
  "type": "FeatureCollection",
  "features": [
    {
      "type": "Feature",
      "id": "node/8500321298",
      "properties": {
        "timestamp": "2023-04-06T01:55:07Z",
        "version": 2,
        "changeset": 134558329,
        "amenity": "clinic",
        "government": "healthcare",
        "name": "Clínica de Fisioterapia Municipal",
        "office": "government",
        "id": "node/8500321298"
      },
      "geometry": {
        "type": "Point",
        "coordinates": [
          -42.3938278,
          -17.9887047
        ]
      }
    },
    {
      "type": "Feature",
      "id": "node/10772063409",
      "properties": {
        "timestamp": "2023-03-29T23:36:53Z",
        "version": 1,
        "changeset": 134282215,
        "addr:city": "Água Boa",
        "addr:housenumber": "186",
        "addr:postcode": "39790-000",
        "addr:street": "Avenida Espírito Santo",
        "addr:suburb": "Centro",
        "amenity": "clinic",
        "healthcare": "clinic",
        "healthcare:speciality": "psychiatry",
        "name": "Centro de Atenção Psicossocial",
        "operator": "Município de Água Boa",
        "operator:type": "public",
        "id": "node/10772063409"
      },
      "geometry": {
        "type": "Point",
        "coordinates": [
          -42.3899308,
          -17.9924792
        ]
      }
    },
    {
      "type": "Feature",
      "id": "node/10773288465",
      "properties": {
        "timestamp": "2023-03-30T12:20:15Z",
        "version": 1,
        "changeset": 134302484,
        "addr:city": "Água Boa",
        "addr:district": "Palmeira do Resplendor",
        "addr:postcode": "39790-000",
        "addr:street": "Rodovia Br-120",
        "addr:suburb": "Vila Verde",
        "amenity": "clinic",
        "healthcare": "clinic",
        "healthcare:speciality": "general",
        "name": "Unidade Básica de Saúde de Palmeiras de Resplendor",
        "operator": "Município de",
        "operator:type": "public",
        "id": "node/10773288465"
      },
      "geometry": {
        "type": "Point",
        "coordinates": [
          -42.4110257,
          -17.8067905
        ]
      }
    },
    {
      "type": "Feature",
      "id": "node/10799083625",
      "properties": {
        "timestamp": "2023-04-10T10:41:49Z",
        "version": 1,
        "changeset": 134722847,
        "addr:city": "Água Boa",
        "addr:housenumber": "144",
        "addr:postcode": "39790-000",
        "addr:street": "Rua Darcy Alves Oliveira",
        "addr:suburb": "Centro",
        "amenity": "clinic",
        "healthcare": "clinic",
        "healthcare:speciality": "general",
        "name": "Centro de Saúde José Godinho Sobrinho",
        "operator": "Município de Água Boa",
        "operator:type": "public",
        "phone": "+55 33 3515 1213",
        "id": "node/10799083625"
      },
      "geometry": {
        "type": "Point",
        "coordinates": [
          -42.3913211,
          -17.9919849
        ]
      }
    },
    {
      "type": "Feature",
      "id": "node/10805554767",
      "properties": {
        "timestamp": "2023-04-12T21:05:47Z",
        "version": 1,
        "changeset": 134837042,
        "addr:city": "Água Boa",
        "addr:housenumber": "96",
        "addr:postcode": "39790-000",
        "addr:street": "Rua Mestra Maria Augusta",
        "addr:suburb": "Centro",
        "amenity": "clinic",
        "healthcare": "clinic",
        "healthcare:speciality": "general",
        "name": "Unidade de Saúde da Família Vila dos Operários",
        "operator": "Município de Água Boa",
        "operator:type": "public",
        "phone": "+55 33 3515 1272",
        "id": "node/10805554767"
      },
      "geometry": {
        "type": "Point",
        "coordinates": [
          -42.3919848,
          -17.9950545
        ]
      }
    }
  ]
}
