{
  "type": "FeatureCollection",
  "features": [
    {
      "type": "Feature",
      "id": "node/10795011472",
      "properties": {
        "timestamp": "2023-04-08T11:22:17Z",
        "version": 1,
        "changeset": 134648375,
        "tourism": "hotel",
        "id": "node/10795011472"
      },
      "geometry": {
        "type": "Point",
        "coordinates": [
          -42.3773079,
          -18.0338389
        ]
      }
    },
    {
      "type": "Feature",
      "id": "node/10796902958",
      "properties": {
        "timestamp": "2023-04-09T11:49:36Z",
        "version": 1,
        "changeset": 134684711,
        "addr:city": "Água Boa",
        "addr:housenumber": "31",
        "addr:postcode": "39790-000",
        "addr:street": "Praça da Matriz",
        "addr:suburb": "Centro",
        "name": "Hotel Beira Rio",
        "tourism": "hotel",
        "id": "node/10796902958"
      },
      "geometry": {
        "type": "Point",
        "coordinates": [
          -42.390524,
          -17.995803
        ]
      }
    },
    {
      "type": "Feature",
      "id": "node/10799309315",
      "properties": {
        "timestamp": "2023-04-10T13:10:32Z",
        "version": 1,
        "changeset": 134729698,
        "addr:city": "Água Boa",
        "addr:housenumber": "130",
        "addr:postcode": "39790-000",
        "addr:street": "Avenida José Soares de Almeida",
        "addr:suburb": "Santa Clara",
        "name": "Hotel e Restaurante Lirio dos Vales",
        "phone": "+55 33 3515 1428;+55 33 3515 1136",
        "tourism": "hotel",
        "id": "node/10799309315"
      },
      "geometry": {
        "type": "Point",
        "coordinates": [
          -42.3877687,
          -18.006291
        ]
      }
    }
  ]
}
