{
  "type": "FeatureCollection",
  "features": [
    {
      "type": "Feature",
      "id": "way/474708496",
      "properties": {
        "timestamp": "2017-02-14T23:53:54Z",
        "version": 1,
        "changeset": 46093291,
        "amenity": "school",
        "name": "EE José Bonifácio Santana",
        "id": "way/474708496"
      },
      "geometry": {
        "type": "Polygon",
        "coordinates": [
          [
            [
              -42.3107846,
              -17.865129
            ],
            [
              -42.3106443,
              -17.8653611
            ],
            [
              -42.3103923,
              -17.8652006
            ],
            [
              -42.3105305,
              -17.86498
            ],
            [
              -42.3107846,
              -17.865129
            ]
          ]
        ]
      }
    },
    {
      "type": "Feature",
      "id": "way/493002116",
      "properties": {
        "timestamp": "2023-04-07T20:52:14Z",
        "version": 3,
        "changeset": 134632444,
        "addr:city": "Água Boa",
        "addr:housenumber": "20",
        "addr:postcode": "39790-000",
        "addr:street": "Praça Santo Antônio",
        "addr:suburb": "Santo Antônio do Surubim",
        "amenity": "school",
        "email": "escola.41751@educacao.mg.gov.br",
        "name": "Escola Estadual Modesto Alves Barroso",
        "operator": "Estado de Minas Gerais",
        "operator:type": "public",
        "id": "way/493002116"
      },
      "geometry": {
        "type": "Polygon",
        "coordinates": [
          [
            [
              -42.2099459,
              -18.1409459
            ],
            [
              -42.2098852,
              -18.1413401
            ],
            [
              -42.2096696,
              -18.1417064
            ],
            [
              -42.2095796,
              -18.1416824
            ],
            [
              -42.2096214,
              -18.1412711
            ],
            [
              -42.209663,
              -18.140917
            ],
            [
              -42.2099459,
              -18.1409459
            ]
          ]
        ]
      }
    },
    {
      "type": "Feature",
      "id": "way/915077735",
      "properties": {
        "timestamp": "2023-03-30T00:01:20Z",
        "version": 2,
        "changeset": 134282525,
        "addr:city": "Água Boa",
        "addr:housenumber": "208",
        "addr:postcode": "39790-000",
        "addr:street": "Rua Dom João Pimenta",
        "addr:suburb": "Centro",
        "amenity": "school",
        "email": "escola.41700@educacao.mg.gov.br",
        "name": "Escola Estadual Adão Marques de Aleluias",
        "operator": "Governo de Minas Gerais",
        "operator:type": "public",
        "phone": "+55 33 3515 1389",
        "source": "IBGE",
        "id": "way/915077735"
      },
      "geometry": {
        "type": "Polygon",
        "coordinates": [
          [
            [
              -42.3907664,
              -17.9900778
            ],
            [
              -42.3907959,
              -17.9904962
            ],
            [
              -42.3906323,
              -17.9909312
            ],
            [
              -42.3898598,
              -17.9906696
            ],
            [
              -42.3898705,
              -17.9905166
            ],
            [
              -42.389951,
              -17.9903303
            ],
            [
              -42.3901548,
              -17.9899757
            ],
            [
              -42.3902863,
              -17.9898201
            ],
            [
              -42.3906296,
              -17.9900625
            ],
            [
              -42.3907664,
              -17.9900778
            ]
          ]
        ]
      }
    },
    {
      "type": "Feature",
      "id": "way/1158307796",
      "properties": {
        "timestamp": "2023-03-30T00:01:20Z",
        "version": 2,
        "changeset": 134282525,
        "addr:city": "Água Boa",
        "addr:housenumber": "11",
        "addr:postcode": "39790-000",
        "addr:street": "Rua Dom João Pimenta",
        "addr:suburb": "Centro",
        "amenity": "school",
        "email": "escola.41734@educacao.mg.gov.br",
        "name": "Escola Estadual Doutor Alfredo Sá",
        "phone": "+55 33 3515 1203",
        "source": "IBGE",
        "id": "way/1158307796"
      },
      "geometry": {
        "type": "Polygon",
        "coordinates": [
          [
            [
              -42.3905346,
              -17.9924271
            ],
            [
              -42.3904614,
              -17.9925322
            ],
            [
              -42.390448,
              -17.9925464
            ],
            [
              -42.3903863,
              -17.9925069
            ],
            [
              -42.3902898,
              -17.9926395
            ],
            [
              -42.3900963,
              -17.992495
            ],
            [
              -42.3902127,
              -17.9922261
            ],
            [
              -42.3902503,
              -17.9922478
            ],
            [
              -42.3905346,
              -17.9924271
            ]
          ]
        ]
      }
    },
    {
      "type": "Feature",
      "id": "way/1158311079",
      "properties": {
        "timestamp": "2023-04-10T10:41:49Z",
        "version": 2,
        "changeset": 134722847,
        "addr:city": "Água Boa",
        "addr:housenumber": "114",
        "addr:postcode": "39790-000",
        "addr:street": "Praça José Godinho de Azevedo",
        "addr:suburb": "Centro",
        "amenity": "school",
        "email": "escola.41742@educacao.mg.gov.br",
        "name": "Escola Estadual Joaquim Pimenta de Araújo",
        "operator": "Governo de Minas Gerais",
        "operator:type": "public",
        "phone": "+55 33 3515 1220",
        "id": "way/1158311079"
      },
      "geometry": {
        "type": "Polygon",
        "coordinates": [
          [
            [
              -42.3895278,
              -17.9957647
            ],
            [
              -42.3895496,
              -17.9958846
            ],
            [
              -42.3895715,
              -17.9960044
            ],
            [
              -42.3893167,
              -17.9961744
            ],
            [
              -42.3892282,
              -17.996272
            ],
            [
              -42.3890264,
              -17.9962064
            ],
            [
              -42.3889008,
              -17.9958681
            ],
            [
              -42.3889061,
              -17.9958344
            ],
            [
              -42.3895278,
              -17.9957647
            ]
          ]
        ]
      }
    },
    {
      "type": "Feature",
      "id": "way/1158441715",
      "properties": {
        "timestamp": "2023-03-30T12:20:15Z",
        "version": 1,
        "changeset": 134302484,
        "addr:city": "Água Boa",
        "addr:district": "Palmeira do Resplendor",
        "addr:postcode": "39790-000",
        "addr:street": "Praça São José",
        "addr:suburb": "Centro",
        "amenity": "school",
        "email": "escola.41726@educacao.mg.gov.br",
        "name": "Escola Estadual do Resplendor",
        "operator": "Governo de Minas Gerais",
        "operator:type": "public",
        "phone": "+55 33 3515 2068",
        "id": "way/1158441715"
      },
      "geometry": {
        "type": "Polygon",
        "coordinates": [
          [
            [
              -42.4155555,
              -17.8022899
            ],
            [
              -42.415283,
              -17.802573
            ],
            [
              -42.4147716,
              -17.8021737
            ],
            [
              -42.4149468,
              -17.8019462
            ],
            [
              -42.4152883,
              -17.8020911
            ],
            [
              -42.4155555,
              -17.8022899
            ]
          ]
        ]
      }
    },
    {
      "type": "Feature",
      "id": "node/4118902038",
      "properties": {
        "timestamp": "2023-04-10T11:06:51Z",
        "version": 3,
        "changeset": 134724007,
        "addr:city": "Água Boa",
        "addr:postcode": "39790-000",
        "addr:street": "Rua Cinco",
        "addr:suburb": "Curumin",
        "amenity": "school",
        "name": "Instituição Meninos de Jesus",
        "id": "node/4118902038"
      },
      "geometry": {
        "type": "Point",
        "coordinates": [
          -42.3958952,
          -17.9871309
        ]
      }
    },
    {
      "type": "Feature",
      "id": "node/10229083064",
      "properties": {
        "timestamp": "2023-04-07T19:59:12Z",
        "version": 2,
        "changeset": 134631001,
        "addr:city": "Água Boa",
        "addr:housenumber": "507",
        "addr:postcode": "39790-000",
        "addr:street": "Avenida Jk",
        "addr:suburb": "Graminha",
        "amenity": "school",
        "email": "escola.41718@educacao.mg.gov.br",
        "name": "Escola Estadual Laureano Teixeira de Souza",
        "operator": "Governo de Minas Gerais",
        "operator:type": "public",
        "id": "node/10229083064"
      },
      "geometry": {
        "type": "Point",
        "coordinates": [
          -42.2652822,
          -18.2321283
        ]
      }
    },
    {
      "type": "Feature",
      "id": "node/10799083622",
      "properties": {
        "timestamp": "2023-04-10T10:41:49Z",
        "version": 1,
        "changeset": 134722847,
        "access": "yes",
        "entrance": "yes",
        "wheelchair": "yes",
        "id": "node/10799083622"
      },
      "geometry": {
        "type": "Point",
        "coordinates": [
          -42.3895496,
          -17.9958846
        ]
      }
    }
  ]
}
