{
  "type": "FeatureCollection",
  "features": [
    {
      "type": "Feature",
      "id": "way/681717204",
      "properties": {
        "timestamp": "2019-11-14T00:28:10Z",
        "version": 3,
        "changeset": 77043767,
        "addr:city": "Afrânio",
        "addr:postcode": "56360-000",
        "addr:street": "Rua Coronel Clementino Coelho",
        "addr:suburb": "Centro",
        "building": "yes",
        "government": "administrative",
        "name": "Secretaria de Educação",
        "office": "government",
        "opening_hours": "Mo-Fr 08:00-17:00; Sa,Su,PH off",
        "wheelchair": "yes",
        "id": "way/681717204"
      },
      "geometry": {
        "type": "Polygon",
        "coordinates": [
          [
            [
              -41.0056475,
              -8.5159423
            ],
            [
              -41.0055118,
              -8.5159266
            ],
            [
              -41.0055302,
              -8.5157711
            ],
            [
              -41.0056659,
              -8.5157868
            ],
            [
              -41.0056589,
              -8.5158498
            ],
            [
              -41.0056475,
              -8.5159423
            ]
          ]
        ]
      }
    },
    {
      "type": "Feature",
      "id": "way/681717208",
      "properties": {
        "timestamp": "2019-11-15T12:33:00Z",
        "version": 4,
        "changeset": 77125671,
        "addr:city": "Afrânio",
        "addr:housenumber": "203",
        "addr:postcode": "56360-000",
        "addr:street": "Rua Coronel Clementino Coelho",
        "addr:suburb": "Centro",
        "building": "yes",
        "government": "administrative",
        "name": "Posto Avançado Detran/PE",
        "office": "government",
        "opening_hours": "Mo-Fr 08:00-14:00",
        "operator": "PMA",
        "phone": "+55 87 3868-1901",
        "smoking": "outside",
        "website": "https://www.detran.pe.gov.br/",
        "wheelchair": "limited",
        "id": "way/681717208"
      },
      "geometry": {
        "type": "Polygon",
        "coordinates": [
          [
            [
              -41.0056691,
              -8.515733
            ],
            [
              -41.0056662,
              -8.5157564
            ],
            [
              -41.0055406,
              -8.5157411
            ],
            [
              -41.0055435,
              -8.5157177
            ],
            [
              -41.0056691,
              -8.515733
            ]
          ]
        ]
      }
    }
  ]
}
