{
  "type": "FeatureCollection",
  "features": [
    {
      "type": "Feature",
      "id": "node/8575385068",
      "properties": {
        "timestamp": "2021-03-30T13:46:51Z",
        "version": 1,
        "changeset": 101990131,
        "addr:housenumber": "3548",
        "addr:street": "Rua Belem",
        "addr:suburb": "São José",
        "amenity": "school",
        "name": "Escola Municipal Independência",
        "id": "node/8575385068"
      },
      "geometry": {
        "type": "Point",
        "coordinates": [
          -53.5387384,
          -25.7667073
        ]
      }
    },
    {
      "type": "Feature",
      "id": "node/8575385069",
      "properties": {
        "timestamp": "2021-03-30T13:46:51Z",
        "version": 1,
        "changeset": 101990131,
        "addr:housenumber": "2776",
        "addr:street": "Rua Belém",
        "addr:suburb": "Centro",
        "amenity": "school",
        "name": "Colégio Estadual Doze de Novembro",
        "id": "node/8575385069"
      },
      "geometry": {
        "type": "Point",
        "coordinates": [
          -53.5337629,
          -25.7723909
        ]
      }
    },
    {
      "type": "Feature",
      "id": "node/8575385070",
      "properties": {
        "timestamp": "2021-03-30T13:46:51Z",
        "version": 1,
        "changeset": 101990131,
        "addr:housenumber": "2776",
        "addr:street": "Rua Belém",
        "addr:suburb": "Centro",
        "amenity": "school",
        "name": "Escola Municipal 24 de Junho",
        "id": "node/8575385070"
      },
      "geometry": {
        "type": "Point",
        "coordinates": [
          -53.5337629,
          -25.772397
        ]
      }
    },
    {
      "type": "Feature",
      "id": "node/8575385071",
      "properties": {
        "timestamp": "2023-01-17T21:33:29Z",
        "version": 4,
        "changeset": 131397186,
        "addr:city": "Realeza",
        "addr:housenumber": "3671",
        "addr:street": "Rua José de Alencar",
        "amenity": "school",
        "name": "Escola Estadual Dom Carlos Eduardo",
        "id": "node/8575385071"
      },
      "geometry": {
        "type": "Point",
        "coordinates": [
          -53.5344374,
          -25.7749319
        ]
      }
    },
    {
      "type": "Feature",
      "id": "node/8575385072",
      "properties": {
        "timestamp": "2021-03-30T13:46:51Z",
        "version": 1,
        "changeset": 101990131,
        "addr:housenumber": "2342",
        "addr:street": "Rua Marco Aurélio",
        "addr:suburb": "João Paulo II",
        "amenity": "school",
        "name": "Colégio Estadual João Paulo II",
        "id": "node/8575385072"
      },
      "geometry": {
        "type": "Point",
        "coordinates": [
          -53.5233787,
          -25.7705624
        ]
      }
    },
    {
      "type": "Feature",
      "id": "node/8575385073",
      "properties": {
        "timestamp": "2021-03-30T13:46:51Z",
        "version": 1,
        "changeset": 101990131,
        "addr:housenumber": "2342",
        "addr:street": "Rua Marco Aurélio",
        "addr:suburb": "João Paulo II",
        "amenity": "school",
        "name": "Escola Municipal Juscelino Kubitchek",
        "id": "node/8575385073"
      },
      "geometry": {
        "type": "Point",
        "coordinates": [
          -53.5233948,
          -25.770531
        ]
      }
    },
    {
      "type": "Feature",
      "id": "node/8575385074",
      "properties": {
        "timestamp": "2021-03-30T13:46:51Z",
        "version": 1,
        "changeset": 101990131,
        "addr:street": "Rua Luís dos Santos",
        "addr:suburb": "Jardim Marchese",
        "amenity": "school",
        "name": "Escola Municipal Profª Greuza Dal Molin",
        "id": "node/8575385074"
      },
      "geometry": {
        "type": "Point",
        "coordinates": [
          -53.5387182,
          -25.7817865
        ]
      }
    },
    {
      "type": "Feature",
      "id": "node/10274070461",
      "properties": {
        "timestamp": "2022-12-19T19:09:01Z",
        "version": 1,
        "changeset": 130260946,
        "amenity": "school",
        "name": "Escola Municipal Santo Antonio",
        "id": "node/10274070461"
      },
      "geometry": {
        "type": "Point",
        "coordinates": [
          -53.5434449,
          -25.7733958
        ]
      }
    },
    {
      "type": "Feature",
      "id": "node/10274070462",
      "properties": {
        "timestamp": "2022-12-19T19:09:01Z",
        "version": 1,
        "changeset": 130260946,
        "amenity": "school",
        "name": "Escola Municipal Menino Jesus",
        "id": "node/10274070462"
      },
      "geometry": {
        "type": "Point",
        "coordinates": [
          -53.5268653,
          -25.7822148
        ]
      }
    }
  ]
}
