{
  "type": "FeatureCollection",
  "features": [
    {
      "type": "Feature",
      "id": "way/641272922",
      "properties": {
        "timestamp": "2018-11-05T15:47:54Z",
        "version": 1,
        "changeset": 64202053,
        "building": "yes",
        "building:levels": "2",
        "height": "7",
        "name": "Roma",
        "tourism": "hotel",
        "id": "way/641272922"
      },
      "geometry": {
        "type": "Polygon",
        "coordinates": [
          [
            [
              -37.9807549,
              -4.9443427
            ],
            [
              -37.9805864,
              -4.9445461
            ],
            [
              -37.9805008,
              -4.9444757
            ],
            [
              -37.9806692,
              -4.9442723
            ],
            [
              -37.9807549,
              -4.9443427
            ]
          ]
        ]
      }
    },
    {
      "type": "Feature",
      "id": "way/642935247",
      "properties": {
        "timestamp": "2018-11-10T19:53:58Z",
        "version": 1,
        "changeset": 64360634,
        "building": "yes",
        "building:levels": "2",
        "height": "6",
        "tourism": "hotel",
        "id": "way/642935247"
      },
      "geometry": {
        "type": "Polygon",
        "coordinates": [
          [
            [
              -37.9868415,
              -4.948496
            ],
            [
              -37.9866343,
              -4.9484226
            ],
            [
              -37.9867429,
              -4.948295
            ],
            [
              -37.9868824,
              -4.9484399
            ],
            [
              -37.9868415,
              -4.948496
            ]
          ]
        ]
      }
    },
    {
      "type": "Feature",
      "id": "node/4548509803",
      "properties": {
        "timestamp": "2021-08-12T21:21:28Z",
        "version": 2,
        "changeset": 109594600,
        "addr:housenumber": "2222",
        "addr:postcode": "62900-000",
        "addr:street": "rua eliza marciel santiago",
        "email": "princesahotelrussas@hotmail.com",
        "internet_access": "wlan",
        "name": "Princesa Hotel",
        "name:pt": "Princesa Hotel",
        "opening_hours": "24/7",
        "operator": "Douglas",
        "phone": "88 34111410",
        "tourism": "hotel",
        "website": "http://www.princesahotel.com.br",
        "id": "node/4548509803"
      },
      "geometry": {
        "type": "Point",
        "coordinates": [
          -37.9772585,
          -4.9375429
        ]
      }
    },
    {
      "type": "Feature",
      "id": "node/7047901692",
      "properties": {
        "timestamp": "2019-12-10T22:48:42Z",
        "version": 1,
        "changeset": 78229401,
        "addr:housenumber": "183",
        "addr:street": "Rua Ocion Lopes da Silveira",
        "name": "Francisco Ribeiro Perna",
        "tourism": "hotel",
        "id": "node/7047901692"
      },
      "geometry": {
        "type": "Point",
        "coordinates": [
          -37.966938,
          -4.9260626
        ]
      }
    },
    {
      "type": "Feature",
      "id": "node/7167030359",
      "properties": {
        "timestamp": "2021-08-14T17:48:54Z",
        "version": 2,
        "changeset": 109678561,
        "addr:housenumber": "1166",
        "addr:street": "Avenida Dom Lino",
        "name": "Hotel Morada",
        "phone": "+55 88 9 9994 7072",
        "tourism": "hotel",
        "id": "node/7167030359"
      },
      "geometry": {
        "type": "Point",
        "coordinates": [
          -37.9751892,
          -4.9404373
        ]
      }
    }
  ]
}
