{
  "type": "FeatureCollection",
  "features": [
    {
      "type": "Feature",
      "id": "node/3058714378",
      "properties": {
        "timestamp": "2019-07-11T17:33:19Z",
        "version": 3,
        "changeset": 72146221,
        "IJSN:administra": "Municipal",
        "IJSN:classeCnae": "Infantil e Fundamental",
        "addr:city": "São Roque do Canaã",
        "addr:postcode": "29667-000",
        "addr:suburb": "Comunidade São Jacinto",
        "alt_name": "Escola Municipal de Ensino Infantil e Fundamental",
        "amenity": "school",
        "contact:phone": "+55 27 3729-1718",
        "name": "EMEIEF Darly Nerty Vervloet",
        "source": "IJSN",
        "id": "node/3058714378"
      },
      "geometry": {
        "type": "Point",
        "coordinates": [
          -40.6101011,
          -19.7207497
        ]
      }
    },
    {
      "type": "Feature",
      "id": "node/3058717246",
      "properties": {
        "timestamp": "2014-09-04T07:31:59Z",
        "version": 1,
        "changeset": 25220411,
        "amenity": "school",
        "id": "node/3058717246"
      },
      "geometry": {
        "type": "Point",
        "coordinates": [
          -40.6618949,
          -19.7381857
        ]
      }
    },
    {
      "type": "Feature",
      "id": "node/3058718942",
      "properties": {
        "timestamp": "2019-07-11T17:33:19Z",
        "version": 3,
        "changeset": 72146221,
        "IJSN:administra": "Estadual",
        "IJSN:classeCnae": "Fundamental e Médio",
        "addr:city": "São Roque do Canaã",
        "addr:housenumber": "80",
        "addr:postcode": "29665-000",
        "addr:street": "Rodovia ES - 080 - Km 30",
        "addr:suburb": "Vila Verde",
        "alt_name": "Escola Estadual de Ensino Fundamental e Médio",
        "amenity": "school",
        "contact:phone": "+55 27 3729-1325;+55 27 3729-1030",
        "name": "EEEFM David Roldi",
        "source": "IJSN",
        "id": "node/3058718942"
      },
      "geometry": {
        "type": "Point",
        "coordinates": [
          -40.6574207,
          -19.751881
        ]
      }
    },
    {
      "type": "Feature",
      "id": "node/4024904394",
      "properties": {
        "timestamp": "2016-02-25T01:59:13Z",
        "version": 1,
        "changeset": 37426154,
        "IJSN:administra": "Privada",
        "IJSN:classeCnae": "Fundamental",
        "addr:city": "São Roque do Canaã",
        "addr:housenumber": "866",
        "addr:postcode": "29665-000",
        "addr:street": "Rodovia Armando Martinelli",
        "addr:suburb": "Cinco Casinhas",
        "alt_name": "Centro Educacional",
        "amenity": "school",
        "contact:phone": "(27) 3729-1767",
        "name": "CE Mão Amiga",
        "source": "IJSN",
        "id": "node/4024904394"
      },
      "geometry": {
        "type": "Point",
        "coordinates": [
          -40.6531166,
          -19.7364312
        ]
      }
    },
    {
      "type": "Feature",
      "id": "node/4024904798",
      "properties": {
        "timestamp": "2016-02-25T01:59:31Z",
        "version": 1,
        "changeset": 37426154,
        "IJSN:administra": "Estadual",
        "IJSN:classeCnae": "Fundamental e Médio",
        "addr:city": "São Roque do Canaã",
        "addr:postcode": "29665-000",
        "addr:street": "Rua Baixo Santa Júlia",
        "addr:suburb": "Comunidade Baixo Santa Júlia",
        "alt_name": "Escola Estadual de Ensino Fundamental e Médio",
        "amenity": "school",
        "contact:phone": "(27) 9746-3553",
        "name": "EEEFM Felício Melotti",
        "source": "IJSN",
        "id": "node/4024904798"
      },
      "geometry": {
        "type": "Point",
        "coordinates": [
          -40.6965794,
          -19.6787027
        ]
      }
    },
    {
      "type": "Feature",
      "id": "node/4024905900",
      "properties": {
        "timestamp": "2016-02-25T02:01:11Z",
        "version": 1,
        "changeset": 37426154,
        "IJSN:administra": "Municipal",
        "IJSN:classeCnae": "Infantil e Fundamental",
        "addr:city": "São Roque do Canaã",
        "addr:postcode": "29665-000",
        "addr:suburb": "Comunidade São Damácio",
        "alt_name": "Escola Municipal de Ensino Infantil e Fundamental",
        "amenity": "school",
        "contact:phone": "(27) 9806-7574",
        "name": "EMEIEF Josephir Boschetti",
        "source": "IJSN",
        "id": "node/4024905900"
      },
      "geometry": {
        "type": "Point",
        "coordinates": [
          -40.6493237,
          -19.7635027
        ]
      }
    },
    {
      "type": "Feature",
      "id": "node/4024905910",
      "properties": {
        "timestamp": "2016-02-25T02:01:13Z",
        "version": 1,
        "changeset": 37426154,
        "IJSN:administra": "Municipal",
        "IJSN:classeCnae": "Infantil e Fundamental",
        "addr:city": "São Roque do Canaã",
        "addr:postcode": "29669-000",
        "addr:street": "Rodovia ES - 448",
        "addr:suburb": "Comunidade São Francisco de Assis",
        "alt_name": "Escola Municipal de Ensino Infantil e Fundamental",
        "amenity": "school",
        "contact:phone": "(27) 9806-5791",
        "name": "EMEIEF Luiz Mônico",
        "source": "IJSN",
        "id": "node/4024905910"
      },
      "geometry": {
        "type": "Point",
        "coordinates": [
          -40.7259456,
          -19.751874
        ]
      }
    },
    {
      "type": "Feature",
      "id": "node/4024906178",
      "properties": {
        "timestamp": "2016-02-25T02:01:40Z",
        "version": 1,
        "changeset": 37426154,
        "IJSN:administra": "Municipal",
        "IJSN:classeCnae": "Infantil e Fundamental",
        "addr:city": "São Roque do Canaã",
        "addr:postcode": "29669-000",
        "addr:suburb": "Comunidade Santa Luzia",
        "alt_name": "Escola Municipal Pluridocente de Ensino Infantil",
        "amenity": "school",
        "contact:phone": "(27) 9820-3855",
        "name": "EMPEIE Alto Santa Luzia",
        "source": "IJSN",
        "id": "node/4024906178"
      },
      "geometry": {
        "type": "Point",
        "coordinates": [
          -40.7310236,
          -19.7968912
        ]
      }
    }
  ]
}
