{
  "type": "FeatureCollection",
  "features": [
    {
      "type": "Feature",
      "id": "way/313630134",
      "properties": {
        "timestamp": "2014-11-19T23:30:31Z",
        "version": 1,
        "changeset": 26897506,
        "amenity": "school",
        "id": "way/313630134"
      },
      "geometry": {
        "type": "Polygon",
        "coordinates": [
          [
            [
              -40.4054089,
              -18.3233595
            ],
            [
              -40.40525,
              -18.3238498
            ],
            [
              -40.4050845,
              -18.3238026
            ],
            [
              -40.4050381,
              -18.3233721
            ],
            [
              -40.4054089,
              -18.3233595
            ]
          ]
        ]
      }
    },
    {
      "type": "Feature",
      "id": "way/313630136",
      "properties": {
        "timestamp": "2016-02-25T02:03:09Z",
        "version": 2,
        "changeset": 37426154,
        "IJSN:administra": "Estadual",
        "IJSN:classeCnae": "Médio",
        "addr:city": "Pinheiros",
        "addr:housenumber": "285",
        "addr:postcode": "29985-000",
        "addr:street": "Rua Ana Ataídes",
        "addr:suburb": "Comunidade São João do Sobrado",
        "alt_name": "Escola Estadual de Ensino Médio",
        "amenity": "school",
        "contact:phone": "(27) 3765-5132 / 3765-5265 / 3765-5132",
        "name": "EEEFM São João do Sobrado",
        "source": "IJSN",
        "id": "way/313630136"
      },
      "geometry": {
        "type": "Polygon",
        "coordinates": [
          [
            [
              -40.4058095,
              -18.3184031
            ],
            [
              -40.4051242,
              -18.3184566
            ],
            [
              -40.4050812,
              -18.3181423
            ],
            [
              -40.4057963,
              -18.3180983
            ],
            [
              -40.4058095,
              -18.3184031
            ]
          ]
        ]
      }
    },
    {
      "type": "Feature",
      "id": "way/427233855",
      "properties": {
        "timestamp": "2016-06-25T17:35:05Z",
        "version": 1,
        "changeset": 40285696,
        "IJSN:administra": "Municipal",
        "IJSN:classeCnae": "Fundamental",
        "addr:city": "Pinheiros",
        "addr:postcode": "29980-000",
        "addr:street": "Fazenda José Lopes Pinto",
        "addr:suburb": "Comunidade Água Limpa",
        "alt_name": "Escola Municipal Unidocente de Ensino Fundamental",
        "amenity": "school",
        "name": "EMUEF Água Limpa",
        "source": "IJSN",
        "id": "way/427233855"
      },
      "geometry": {
        "type": "Polygon",
        "coordinates": [
          [
            [
              -40.1904001,
              -18.376612
            ],
            [
              -40.1905607,
              -18.3765974
            ],
            [
              -40.1905796,
              -18.3768309
            ],
            [
              -40.1904078,
              -18.3768264
            ],
            [
              -40.1904001,
              -18.376612
            ]
          ]
        ]
      }
    },
    {
      "type": "Feature",
      "id": "way/427463978",
      "properties": {
        "timestamp": "2016-06-26T17:17:52Z",
        "version": 1,
        "changeset": 40304895,
        "IJSN:administra": "Municipal",
        "IJSN:classeCnae": "Fundamental",
        "addr:city": "Pinheiros",
        "addr:postcode": "29980-000",
        "addr:suburb": "Comunidade Capitão",
        "alt_name": "Escola Pólo Municipal de Ensino Fundamental",
        "amenity": "school",
        "name": "EPMEF Antônio Bruneli",
        "source": "IJSN",
        "id": "way/427463978"
      },
      "geometry": {
        "type": "Polygon",
        "coordinates": [
          [
            [
              -40.046933,
              -18.3445216
            ],
            [
              -40.0477553,
              -18.3451238
            ],
            [
              -40.0466767,
              -18.3452795
            ],
            [
              -40.046933,
              -18.3445216
            ]
          ]
        ]
      }
    },
    {
      "type": "Feature",
      "id": "way/428771529",
      "properties": {
        "timestamp": "2016-07-02T17:21:08Z",
        "version": 1,
        "changeset": 40444630,
        "IJSN:administra": "Municipal",
        "IJSN:classeCnae": "Fundamental",
        "addr:city": "Pinheiros",
        "addr:postcode": "29980-000",
        "addr:street": "Rua das Camélias",
        "addr:suburb": "Pinheirinho",
        "alt_name": "Escola Municipal de Ensino Fundamental",
        "amenity": "school",
        "contact:phone": "(27) 3765-0267",
        "name": "EMEF Pinheirinho",
        "source": "IJSN",
        "id": "way/428771529"
      },
      "geometry": {
        "type": "Polygon",
        "coordinates": [
          [
            [
              -40.2338497,
              -18.4036175
            ],
            [
              -40.2339367,
              -18.4038698
            ],
            [
              -40.2335526,
              -18.4039661
            ],
            [
              -40.2334746,
              -18.4037245
            ],
            [
              -40.2338497,
              -18.4036175
            ]
          ]
        ]
      }
    },
    {
      "type": "Feature",
      "id": "way/1019215027",
      "properties": {
        "timestamp": "2022-01-07T20:25:37Z",
        "version": 1,
        "changeset": 115891146,
        "IJSN:administra": "Privada",
        "IJSN:classeCnae": "Infantil, Fundamental e Médio",
        "addr:city": "Pinheiros",
        "addr:housenumber": "189",
        "addr:postcode": "29980-000",
        "addr:street": "Rua Pedro Herkenhoff",
        "addr:suburb": "Centro",
        "alt_name": "Centro Educacional",
        "amenity": "school",
        "contact:phone": "(27) 3765-2117",
        "name": "Centro Educacional Coopepi",
        "operator": "Cooperativa Educacional de Pinheiros - Coopepi",
        "operator:type": "private",
        "source": "IJSN",
        "id": "way/1019215027"
      },
      "geometry": {
        "type": "Polygon",
        "coordinates": [
          [
            [
              -40.2154591,
              -18.4094572
            ],
            [
              -40.2153779,
              -18.4095705
            ],
            [
              -40.2154069,
              -18.4095893
            ],
            [
              -40.2153672,
              -18.4096446
            ],
            [
              -40.2153323,
              -18.4096221
            ],
            [
              -40.2153422,
              -18.4096083
            ],
            [
              -40.2149971,
              -18.4093855
            ],
            [
              -40.2151017,
              -18.4092396
            ],
            [
              -40.2151262,
              -18.4092554
            ],
            [
              -40.2151432,
              -18.4092317
            ],
            [
              -40.215273,
              -18.4093154
            ],
            [
              -40.2152584,
              -18.4093357
            ],
            [
              -40.2153395,
              -18.409388
            ],
            [
              -40.2153118,
              -18.4094267
            ],
            [
              -40.2152537,
              -18.4093892
            ],
            [
              -40.215219,
              -18.4094376
            ],
            [
              -40.2153098,
              -18.4094962
            ],
            [
              -40.2153761,
              -18.4094037
            ],
            [
              -40.2154591,
              -18.4094572
            ]
          ]
        ]
      }
    },
    {
      "type": "Feature",
      "id": "way/1133103284",
      "properties": {
        "timestamp": "2023-01-18T10:37:49Z",
        "version": 1,
        "changeset": 131416627,
        "IJSN:administra": "Privada",
        "IJSN:classeCnae": "Fundamental",
        "addr:city": "Pinheiros",
        "addr:postcode": "29980-000",
        "addr:suburb": "Comunidade Polonesa",
        "alt_name": "EFA de Pinheiros",
        "amenity": "school",
        "contact:phone": "+55 27 99913 3520",
        "email": "efapinheiro@hotmail.com",
        "name": "Escola Família Agrícola de Pinheiros",
        "operator": "Movimento de Educação Promocional do Espírito Santo (MEPES)",
        "operator:type": "community",
        "postal_code": "29980-000",
        "source": "IJSN",
        "id": "way/1133103284"
      },
      "geometry": {
        "type": "Polygon",
        "coordinates": [
          [
            [
              -40.1918238,
              -18.3960259
            ],
            [
              -40.1890263,
              -18.3996311
            ],
            [
              -40.1878247,
              -18.3994682
            ],
            [
              -40.1872775,
              -18.3995319
            ],
            [
              -40.1866955,
              -18.399481
            ],
            [
              -40.1863924,
              -18.3992799
            ],
            [
              -40.1899812,
              -18.3949379
            ],
            [
              -40.1902199,
              -18.3950117
            ],
            [
              -40.1905606,
              -18.395251
            ],
            [
              -40.1908717,
              -18.3955029
            ],
            [
              -40.1918238,
              -18.3960259
            ]
          ]
        ]
      }
    },
    {
      "type": "Feature",
      "id": "node/4024904457",
      "properties": {
        "timestamp": "2016-02-25T01:59:24Z",
        "version": 1,
        "changeset": 37426154,
        "IJSN:administra": "Estadual",
        "IJSN:classeCnae": "Fundamental",
        "addr:city": "Pinheiros",
        "addr:housenumber": "62",
        "addr:postcode": "29980-000",
        "addr:suburb": "Comunidade Bento Covre",
        "alt_name": "Escola Estadual de Ensino Fundamental",
        "amenity": "school",
        "contact:phone": "(27) 3765-2599",
        "name": "EEEF Margem do Itauninhas",
        "source": "IJSN",
        "id": "node/4024904457"
      },
      "geometry": {
        "type": "Point",
        "coordinates": [
          -40.2506854,
          -18.4002142
        ]
      }
    },
    {
      "type": "Feature",
      "id": "node/4024904873",
      "properties": {
        "timestamp": "2016-02-25T01:59:45Z",
        "version": 1,
        "changeset": 37426154,
        "IJSN:administra": "Estadual",
        "IJSN:classeCnae": "Médio",
        "addr:city": "Pinheiros",
        "addr:housenumber": "320",
        "addr:postcode": "29980-000",
        "addr:street": "Rua Eurico Resende",
        "addr:suburb": "Centro",
        "alt_name": "Escola Estadual de Ensino Médio",
        "amenity": "school",
        "contact:phone": "(27) 3765-1134 / 3765-1918 / 3765-1134",
        "name": "EEEM Nossa Senhora de Lourdes",
        "source": "IJSN",
        "id": "node/4024904873"
      },
      "geometry": {
        "type": "Point",
        "coordinates": [
          -40.2119488,
          -18.4105084
        ]
      }
    },
    {
      "type": "Feature",
      "id": "node/4024905001",
      "properties": {
        "timestamp": "2016-02-25T01:59:49Z",
        "version": 1,
        "changeset": 37426154,
        "IJSN:administra": "Estadual",
        "IJSN:classeCnae": "Fundamental",
        "addr:city": "Pinheiros",
        "addr:housenumber": "10",
        "addr:postcode": "29980-000",
        "addr:suburb": "Comunidade Bento Covre",
        "alt_name": "Escola Estadual Pluridocente de Ensino Fundamental",
        "amenity": "school",
        "name": "EEPEF Maria Olinda de Menezes",
        "source": "IJSN",
        "id": "node/4024905001"
      },
      "geometry": {
        "type": "Point",
        "coordinates": [
          -40.255301,
          -18.3993756
        ]
      }
    },
    {
      "type": "Feature",
      "id": "node/4024905005",
      "properties": {
        "timestamp": "2016-02-25T01:59:50Z",
        "version": 1,
        "changeset": 37426154,
        "IJSN:administra": "Estadual",
        "IJSN:classeCnae": "Fundamental",
        "addr:city": "Pinheiros",
        "addr:housenumber": "32",
        "addr:postcode": "29980-000",
        "addr:suburb": "Comunidade São João do Sobrado",
        "alt_name": "Escola Estadual Pluridocente de Ensino Fundamental",
        "amenity": "school",
        "name": "EEPEF Saturnino Ribeiro dos Santos",
        "source": "IJSN",
        "id": "node/4024905005"
      },
      "geometry": {
        "type": "Point",
        "coordinates": [
          -40.3991305,
          -18.3550143
        ]
      }
    },
    {
      "type": "Feature",
      "id": "node/4024905433",
      "properties": {
        "timestamp": "2016-02-25T02:00:27Z",
        "version": 1,
        "changeset": 37426154,
        "IJSN:administra": "Municipal",
        "IJSN:classeCnae": "Fundamental",
        "addr:city": "Pinheiros",
        "addr:housenumber": "439",
        "addr:postcode": "29980-000",
        "addr:street": "Avenida Agenor Luiz Heringer",
        "addr:suburb": "Centro",
        "alt_name": "Escola Municipal de Ensino Fundamental",
        "amenity": "school",
        "contact:phone": "(27) 3765-1319 / 3765-1811 / 3765-1319",
        "name": "EMEF Doutor Emir de Macedo Gomes",
        "source": "IJSN",
        "id": "node/4024905433"
      },
      "geometry": {
        "type": "Point",
        "coordinates": [
          -40.213273,
          -18.412321
        ]
      }
    },
    {
      "type": "Feature",
      "id": "node/4024905480",
      "properties": {
        "timestamp": "2016-02-25T02:00:35Z",
        "version": 1,
        "changeset": 37426154,
        "IJSN:administra": "Municipal",
        "IJSN:classeCnae": "Fundamental",
        "addr:city": "Pinheiros",
        "addr:postcode": "29980-000",
        "addr:street": "Praça Domiciano Medina",
        "addr:suburb": "Domiciano Medina",
        "alt_name": "Escola Municipal de Ensino Fundamental",
        "amenity": "school",
        "contact:phone": "(27) 3765-2471",
        "name": "EMEF José Pinheiro",
        "source": "IJSN",
        "id": "node/4024905480"
      },
      "geometry": {
        "type": "Point",
        "coordinates": [
          -40.2177553,
          -18.4120075
        ]
      }
    },
    {
      "type": "Feature",
      "id": "node/4024905488",
      "properties": {
        "timestamp": "2016-02-25T02:00:36Z",
        "version": 1,
        "changeset": 37426154,
        "IJSN:administra": "Municipal",
        "IJSN:classeCnae": "Fundamental",
        "addr:city": "Pinheiros",
        "addr:housenumber": "281",
        "addr:postcode": "29980-000",
        "addr:street": "Rua Castro Alves",
        "addr:suburb": "Vila Verde",
        "alt_name": "Escola Municipal de Ensino Fundamental",
        "amenity": "school",
        "contact:phone": "(27) 3765-1054",
        "name": "EMEF Juracy Cardoso Viana",
        "source": "IJSN",
        "id": "node/4024905488"
      },
      "geometry": {
        "type": "Point",
        "coordinates": [
          -40.2198897,
          -18.4172179
        ]
      }
    },
    {
      "type": "Feature",
      "id": "node/4024905605",
      "properties": {
        "timestamp": "2016-02-25T02:00:39Z",
        "version": 1,
        "changeset": 37426154,
        "IJSN:administra": "Municipal",
        "IJSN:classeCnae": "Fundamental",
        "addr:city": "Pinheiros",
        "addr:postcode": "29980-000",
        "addr:street": "Rodovia Pinheiros Boa Esperança Km 02",
        "addr:suburb": "Comunidade Pinheiros",
        "alt_name": "Escola Municipal de Ensino Fundamental",
        "amenity": "school",
        "name": "EMEF Maria Edileuza da Silva Pereira",
        "source": "IJSN",
        "id": "node/4024905605"
      },
      "geometry": {
        "type": "Point",
        "coordinates": [
          -40.2193079,
          -18.4221335
        ]
      }
    },
    {
      "type": "Feature",
      "id": "node/4024905712",
      "properties": {
        "timestamp": "2016-02-25T02:00:57Z",
        "version": 1,
        "changeset": 37426154,
        "IJSN:administra": "Municipal",
        "IJSN:classeCnae": "Fundamental",
        "addr:city": "Pinheiros",
        "addr:housenumber": "139",
        "addr:postcode": "29980-000",
        "addr:street": "Rua Dr. Osvaldo Cruz",
        "addr:suburb": "Canário",
        "alt_name": "Escola Municipal de Ensino Fundamental",
        "amenity": "school",
        "contact:phone": "(27) 3765-1843",
        "name": "EMEF São José de Jundiá",
        "source": "IJSN",
        "id": "node/4024905712"
      },
      "geometry": {
        "type": "Point",
        "coordinates": [
          -40.2167698,
          -18.4076468
        ]
      }
    },
    {
      "type": "Feature",
      "id": "node/4024905736",
      "properties": {
        "timestamp": "2016-02-25T02:01:01Z",
        "version": 1,
        "changeset": 37426154,
        "IJSN:administra": "Municipal",
        "IJSN:classeCnae": "Fundamental",
        "addr:city": "Pinheiros",
        "addr:postcode": "29980-000",
        "addr:street": "Rua Amélio Favaro",
        "addr:suburb": "Centro",
        "alt_name": "Escola Municipal de Ensino Fundamental",
        "amenity": "school",
        "contact:phone": "(27) 3765-2340",
        "name": "EMEF Vila Nova",
        "source": "IJSN",
        "id": "node/4024905736"
      },
      "geometry": {
        "type": "Point",
        "coordinates": [
          -40.2130292,
          -18.4174487
        ]
      }
    },
    {
      "type": "Feature",
      "id": "node/4024905763",
      "properties": {
        "timestamp": "2016-02-25T02:01:05Z",
        "version": 1,
        "changeset": 37426154,
        "IJSN:administra": "Municipal",
        "IJSN:classeCnae": "Infantil e Fundamental",
        "addr:city": "Pinheiros",
        "addr:housenumber": "421",
        "addr:postcode": "29980-000",
        "addr:street": "Rua Pio Favaro",
        "addr:suburb": "Vila Nova",
        "alt_name": "Escola Municipal de Ensino Infantil e Fundamental",
        "amenity": "school",
        "contact:phone": "(27) 3765-1827",
        "name": "EMEIEF Augusto Ruschi",
        "source": "IJSN",
        "id": "node/4024905763"
      },
      "geometry": {
        "type": "Point",
        "coordinates": [
          -40.2071087,
          -18.4147721
        ]
      }
    },
    {
      "type": "Feature",
      "id": "node/4024906118",
      "properties": {
        "timestamp": "2016-02-25T02:01:30Z",
        "version": 1,
        "changeset": 37426154,
        "IJSN:administra": "Municipal",
        "IJSN:classeCnae": "Fundamental",
        "addr:city": "Pinheiros",
        "addr:postcode": "29980-000",
        "addr:street": "Fazenda Afonso Cremasco",
        "addr:suburb": "Comunidade Córrego Sobrado",
        "alt_name": "Escola Municipal Pluridocente de Ensino Fundamental",
        "amenity": "school",
        "name": "EMPEF Fazenda Cremasco",
        "source": "IJSN",
        "id": "node/4024906118"
      },
      "geometry": {
        "type": "Point",
        "coordinates": [
          -40.4288672,
          -18.3289578
        ]
      }
    },
    {
      "type": "Feature",
      "id": "node/4024906129",
      "properties": {
        "timestamp": "2016-02-25T02:01:32Z",
        "version": 1,
        "changeset": 37426154,
        "IJSN:administra": "Municipal",
        "IJSN:classeCnae": "Fundamental",
        "addr:city": "Pinheiros",
        "addr:housenumber": "175",
        "addr:postcode": "29980-000",
        "addr:street": "Rua Olimpia",
        "addr:suburb": "Santo Antõnio",
        "alt_name": "Escola Municipal Pluridocente de Ensino Fundamental",
        "amenity": "school",
        "contact:phone": "(27) 3765-1440 / 3765-1440",
        "name": "EMPEF Governador Carlos Lindemberg",
        "source": "IJSN",
        "id": "node/4024906129"
      },
      "geometry": {
        "type": "Point",
        "coordinates": [
          -40.221314,
          -18.4116198
        ]
      }
    },
    {
      "type": "Feature",
      "id": "node/4024906135",
      "properties": {
        "timestamp": "2016-02-25T02:01:33Z",
        "version": 1,
        "changeset": 37426154,
        "IJSN:administra": "Municipal",
        "IJSN:classeCnae": "Fundamental",
        "addr:city": "Pinheiros",
        "addr:postcode": "29980-000",
        "addr:suburb": "Comunidade Vila Fernandes",
        "alt_name": "Escola Municipal Pluridocente de Ensino Fundamental",
        "amenity": "school",
        "name": "EMPEF Lapinha",
        "source": "IJSN",
        "id": "node/4024906135"
      },
      "geometry": {
        "type": "Point",
        "coordinates": [
          -40.1407717,
          -18.4424428
        ]
      }
    },
    {
      "type": "Feature",
      "id": "node/4024906265",
      "properties": {
        "timestamp": "2016-02-25T02:01:53Z",
        "version": 1,
        "changeset": 37426154,
        "IJSN:administra": "Municipal",
        "IJSN:classeCnae": "Fundamental",
        "addr:city": "Pinheiros",
        "addr:postcode": "29980-000",
        "addr:suburb": "Comunidade Reserva Florestal Córrego do Veado",
        "alt_name": "Escola Municipal Unidocente de Ensino Fundamental",
        "amenity": "school",
        "name": "EMUEF Córrego Santa Rita",
        "source": "IJSN",
        "id": "node/4024906265"
      },
      "geometry": {
        "type": "Point",
        "coordinates": [
          -40.1543408,
          -18.3097805
        ]
      }
    },
    {
      "type": "Feature",
      "id": "node/4024906269",
      "properties": {
        "timestamp": "2016-02-25T02:01:54Z",
        "version": 1,
        "changeset": 37426154,
        "IJSN:administra": "Municipal",
        "IJSN:classeCnae": "Fundamental",
        "addr:city": "Pinheiros",
        "addr:postcode": "29980-000",
        "addr:suburb": "Comunidade Cremasco",
        "alt_name": "Escola Municipal Unidocente de Ensino Fundamental",
        "amenity": "school",
        "name": "EMUEF Córrego São Domingos",
        "source": "IJSN",
        "id": "node/4024906269"
      },
      "geometry": {
        "type": "Point",
        "coordinates": [
          -40.292711,
          -18.4127259
        ]
      }
    },
    {
      "type": "Feature",
      "id": "node/4024906300",
      "properties": {
        "timestamp": "2016-02-25T02:01:58Z",
        "version": 1,
        "changeset": 37426154,
        "IJSN:administra": "Municipal",
        "IJSN:classeCnae": "Fundamental",
        "addr:city": "Pinheiros",
        "addr:postcode": "29980-000",
        "addr:street": "Fazenda Cinelândia",
        "addr:suburb": "Comunidade São João do Sobrado",
        "alt_name": "Escola Municipal Unidocente de Ensino Fundamental",
        "amenity": "school",
        "name": "EMUEF Fazenda Cinelândia",
        "source": "IJSN",
        "id": "node/4024906300"
      },
      "geometry": {
        "type": "Point",
        "coordinates": [
          -40.4129383,
          -18.3301184
        ]
      }
    }
  ]
}
