{
  "type": "FeatureCollection",
  "features": [
    {
      "type": "Feature",
      "id": "node/7008098562",
      "properties": {
        "timestamp": "2021-06-12T18:16:03Z",
        "version": 2,
        "changeset": 106262031,
        "addr:city": "Westf치lia",
        "addr:postcode": "95893-000",
        "addr:street": "Avenida Henrique Uebel",
        "addr:suburb": "Bela Vista",
        "amenity": "school",
        "name": "EEEM Westf치lia",
        "id": "node/7008098562"
      },
      "geometry": {
        "type": "Point",
        "coordinates": [
          -51.7670121,
          -29.4167665
        ]
      }
    },
    {
      "type": "Feature",
      "id": "node/7008109259",
      "properties": {
        "timestamp": "2021-06-12T18:16:03Z",
        "version": 2,
        "changeset": 106262031,
        "addr:city": "Westf치lia",
        "addr:postcode": "95893-000",
        "addr:street": "Avenida Henrique Uebel",
        "addr:suburb": "Bela Vista",
        "amenity": "school",
        "name": "Bloco B da EMEF Vila Schmidt",
        "id": "node/7008109259"
      },
      "geometry": {
        "type": "Point",
        "coordinates": [
          -51.7661994,
          -29.4176868
        ]
      }
    },
    {
      "type": "Feature",
      "id": "node/7008122054",
      "properties": {
        "timestamp": "2021-06-12T18:16:03Z",
        "version": 2,
        "changeset": 106262031,
        "addr:city": "Westf치lia",
        "addr:postcode": "95893-000",
        "addr:street": "Avenida Henrique Uebel",
        "addr:suburb": "Bela Vista",
        "amenity": "school",
        "name": "EMEF Vila Schmidt",
        "id": "node/7008122054"
      },
      "geometry": {
        "type": "Point",
        "coordinates": [
          -51.7668765,
          -29.4172201
        ]
      }
    }
  ]
}
