{
  "type": "FeatureCollection",
  "features": [
    {
      "type": "Feature",
      "id": "way/842154386",
      "properties": {
        "timestamp": "2020-08-29T14:02:38Z",
        "version": 1,
        "changeset": 90120829,
        "addr:housenumber": "32",
        "addr:postcode": "12820-000",
        "addr:street": "Rua Comendador Sampaio",
        "addr:suburb": "Centro",
        "amenity": "school",
        "contact:phone": "+55 12 3107 1557",
        "email": "e012543a@educacao.sp.gov.br",
        "name": "Escola Estadual Barão de Bocaína",
        "operator": "Secretaria da Educação do Estado de São Paulo",
        "operator:type": "government",
        "phone": "+55 12 3107 1556",
        "ref": "INEP-35012543",
        "id": "way/842154386"
      },
      "geometry": {
        "type": "Polygon",
        "coordinates": [
          [
            [
              -44.6966064,
              -22.580749
            ],
            [
              -44.6966386,
              -22.5812542
            ],
            [
              -44.6963543,
              -22.5812641
            ],
            [
              -44.6963034,
              -22.5807663
            ],
            [
              -44.6966064,
              -22.580749
            ]
          ]
        ]
      }
    }
  ]
}
