{
  "type": "FeatureCollection",
  "features": [
    {
      "type": "Feature",
      "id": "node/3835812957",
      "properties": {
        "timestamp": "2020-05-11T20:48:15Z",
        "version": 2,
        "changeset": 85045685,
        "amenity": "school",
        "name": "Escola Manoel Joaquim dos Santos",
        "id": "node/3835812957"
      },
      "geometry": {
        "type": "Point",
        "coordinates": [
          -36.1528542,
          -8.2483624
        ]
      }
    },
    {
      "type": "Feature",
      "id": "node/10167867514",
      "properties": {
        "timestamp": "2022-11-08T02:49:12Z",
        "version": 1,
        "changeset": 128620023,
        "addr:city": "SÃ£o Caitano",
        "addr:postcode": "55130-000",
        "addr:street": "Avenida Luiz Coimbra",
        "addr:suburb": "Centro",
        "amenity": "school",
        "name": "Escola Pio XII",
        "nohousenumber": "yes",
        "id": "node/10167867514"
      },
      "geometry": {
        "type": "Point",
        "coordinates": [
          -36.1387077,
          -8.3260668
        ]
      }
    }
  ]
}
