{
  "type": "FeatureCollection",
  "features": [
    {
      "type": "Feature",
      "id": "node/4481001090",
      "properties": {
        "timestamp": "2022-03-04T16:54:02Z",
        "version": 3,
        "changeset": 118100739,
        "addr:city": "Vitória de Santo Antão",
        "addr:housenumber": "350",
        "addr:postcode": "55602-020",
        "addr:street": "Rua Melo Verçosa",
        "addr:suburb": "Matriz",
        "amenity": "doctors",
        "healthcare": "doctor",
        "name": "Centro Médico de Vitória Unimed",
        "note": "Salas 05 e 06",
        "phone": "+55 81 3523 7632",
        "source": "http://www.unimedrecife.com.br/unidades.php?currentPage=1",
        "website": "https://www.unimedrecife.com.br/",
        "id": "node/4481001090"
      },
      "geometry": {
        "type": "Point",
        "coordinates": [
          -35.2932123,
          -8.1152797
        ]
      }
    },
    {
      "type": "Feature",
      "id": "node/4986752123",
      "properties": {
        "timestamp": "2022-03-04T16:54:02Z",
        "version": 3,
        "changeset": 118100739,
        "amenity": "doctors",
        "healthcare": "doctor",
        "name": "clinica de Vitória 2",
        "name:pt": "clinica de Vitória 2",
        "id": "node/4986752123"
      },
      "geometry": {
        "type": "Point",
        "coordinates": [
          -35.2931334,
          -8.1142624
        ]
      }
    }
  ]
}
