{
  "type": "FeatureCollection",
  "features": [
    {
      "type": "Feature",
      "id": "way/427444690",
      "properties": {
        "timestamp": "2022-03-04T16:10:52Z",
        "version": 7,
        "changeset": 118099122,
        "addr:city": "Vitória de Santo Antão",
        "addr:housenumber": "58",
        "addr:street": "Rua Melo Verçosa",
        "addr:suburb": "Centro",
        "amenity": "pharmacy",
        "brand": "Drogasil",
        "brand:wikidata": "Q5308185",
        "brand:wikipedia": "pt:Drogasil",
        "building": "yes",
        "dispensing": "yes",
        "healthcare": "pharmacy",
        "name": "Drogasil",
        "opening_hours": "Mo-Su 07:00-23:00",
        "phone": "+55 81 3145-0240",
        "website": "https://www.drogasil.com.br/",
        "wheelchair": "yes",
        "id": "way/427444690"
      },
      "geometry": {
        "type": "Polygon",
        "coordinates": [
          [
            [
              -35.2966376,
              -8.117562
            ],
            [
              -35.2965336,
              -8.1177594
            ],
            [
              -35.2964746,
              -8.1177251
            ],
            [
              -35.2964798,
              -8.1177146
            ],
            [
              -35.296543,
              -8.1175879
            ],
            [
              -35.2965765,
              -8.1175206
            ],
            [
              -35.2966376,
              -8.117562
            ]
          ]
        ]
      }
    },
    {
      "type": "Feature",
      "id": "way/636629443",
      "properties": {
        "timestamp": "2018-12-08T22:22:03Z",
        "version": 2,
        "changeset": 65302461,
        "addr:city": "Vitória de Santo Antão",
        "addr:housenumber": "948",
        "addr:street": "Avenida Mariana Amália",
        "addr:suburb": "Centro",
        "amenity": "pharmacy",
        "building": "yes",
        "dispensing": "yes",
        "healthcare": "pharmacy",
        "name": "Farmacia Permanente",
        "opening_hours": "Mo-Sa 07:00-22:00",
        "phone": "+55 81 3523-9400",
        "id": "way/636629443"
      },
      "geometry": {
        "type": "Polygon",
        "coordinates": [
          [
            [
              -35.2959341,
              -8.1188735
            ],
            [
              -35.2960757,
              -8.1189471
            ],
            [
              -35.2960181,
              -8.1190659
            ],
            [
              -35.2959677,
              -8.1190802
            ],
            [
              -35.2958405,
              -8.1189709
            ],
            [
              -35.2959341,
              -8.1188735
            ]
          ]
        ]
      }
    },
    {
      "type": "Feature",
      "id": "way/637149359",
      "properties": {
        "timestamp": "2018-12-08T22:22:03Z",
        "version": 2,
        "changeset": 65302461,
        "addr:city": "Vitória de Santo Antão",
        "addr:street": "Avenida Mariana Amália",
        "addr:suburb": "Centro",
        "amenity": "pharmacy",
        "building": "yes",
        "dispensing": "yes",
        "healthcare": "pharmacy",
        "name": "Farmácia Nossa Senhora de Fátima",
        "opening_hours": "24/7",
        "phone": "+55 81 3523-4500",
        "id": "way/637149359"
      },
      "geometry": {
        "type": "Polygon",
        "coordinates": [
          [
            [
              -35.2955884,
              -8.1192551
            ],
            [
              -35.295772,
              -8.1193233
            ],
            [
              -35.2957128,
              -8.1194795
            ],
            [
              -35.2955292,
              -8.1194114
            ],
            [
              -35.2955884,
              -8.1192551
            ]
          ]
        ]
      }
    },
    {
      "type": "Feature",
      "id": "way/641623151",
      "properties": {
        "timestamp": "2022-03-13T15:04:15Z",
        "version": 2,
        "changeset": 118433245,
        "amenity": "pharmacy",
        "building": "yes",
        "dispensing": "yes",
        "healthcare": "pharmacy",
        "name": "Diariamente",
        "id": "way/641623151"
      },
      "geometry": {
        "type": "Polygon",
        "coordinates": [
          [
            [
              -35.2845502,
              -8.1136756
            ],
            [
              -35.2845611,
              -8.113823
            ],
            [
              -35.2844731,
              -8.1138356
            ],
            [
              -35.2844724,
              -8.1136993
            ],
            [
              -35.2845502,
              -8.1136756
            ]
          ]
        ]
      }
    },
    {
      "type": "Feature",
      "id": "way/653651106",
      "properties": {
        "timestamp": "2022-05-22T15:00:28Z",
        "version": 3,
        "changeset": 121322594,
        "addr:city": "Vitória de Santo Antão",
        "addr:street": "Avenida Mariana Amália",
        "addr:suburb": "Centro",
        "amenity": "pharmacy",
        "brand": "Pague Menos",
        "brand:wikidata": "Q7124466",
        "brand:wikipedia": "pt:Pague Menos",
        "building": "yes",
        "dispensing": "yes",
        "healthcare": "pharmacy",
        "name": "Pague Menos",
        "phone": "+55 81 3523-7850",
        "website": "https://www.paguemenos.com.br",
        "id": "way/653651106"
      },
      "geometry": {
        "type": "Polygon",
        "coordinates": [
          [
            [
              -35.2953753,
              -8.1205133
            ],
            [
              -35.2953625,
              -8.1205448
            ],
            [
              -35.2953262,
              -8.1205208
            ],
            [
              -35.2953394,
              -8.1204904
            ],
            [
              -35.2953753,
              -8.1205133
            ]
          ]
        ]
      }
    },
    {
      "type": "Feature",
      "id": "node/5615909874",
      "properties": {
        "timestamp": "2018-05-13T21:52:02Z",
        "version": 1,
        "changeset": 58934942,
        "amenity": "pharmacy",
        "dispensing": "yes",
        "healthcare": "pharmacy",
        "id": "node/5615909874"
      },
      "geometry": {
        "type": "Point",
        "coordinates": [
          -35.285221,
          -8.1143959
        ]
      }
    },
    {
      "type": "Feature",
      "id": "node/9429717743",
      "properties": {
        "timestamp": "2022-01-19T00:09:37Z",
        "version": 1,
        "changeset": 116319991,
        "amenity": "pharmacy",
        "dispensing": "yes",
        "healthcare": "pharmacy",
        "name": "Melhor Farma",
        "id": "node/9429717743"
      },
      "geometry": {
        "type": "Point",
        "coordinates": [
          -35.2945845,
          -8.122799
        ]
      }
    }
  ]
}
