{
  "type": "FeatureCollection",
  "features": [
    {
      "type": "Feature",
      "id": "node/12444827030",
      "properties": {
        "timestamp": "2024-12-23T17:59:15Z",
        "version": 1,
        "changeset": 160548523,
        "addr:city": "Minas Novas",
        "addr:housenumber": "395",
        "addr:postcode": "39650-000",
        "addr:street": "Avenida Delfim Moreira",
        "addr:suburb": "Saudade",
        "amenity": "clinic",
        "healthcare": "clinic",
        "healthcare:speciality": "general",
        "name": "Policlínica Municipal Domingos Mota",
        "operator": "Município de Minas Novas",
        "operator:type": "public",
        "id": "node/12444827030"
      },
      "geometry": {
        "type": "Point",
        "coordinates": [
          -42.5876368,
          -17.2197851
        ]
      }
    },
    {
      "type": "Feature",
      "id": "node/12446153062",
      "properties": {
        "timestamp": "2024-12-24T02:23:20Z",
        "version": 1,
        "changeset": 160560369,
        "addr:city": "Minas Novas",
        "addr:housenumber": "420",
        "addr:postcode": "39650-000",
        "addr:street": "Avenida Delfim Moreira",
        "addr:suburb": "Saudade",
        "amenity": "clinic",
        "healthcare": "clinic",
        "healthcare:speciality": "general",
        "name": "Unidade Básica de Saúde Eustáquio Fausto Fernandes",
        "operator": "Município de Minas Novas",
        "operator:type": "public",
        "id": "node/12446153062"
      },
      "geometry": {
        "type": "Point",
        "coordinates": [
          -42.5872045,
          -17.2200048
        ]
      }
    },
    {
      "type": "Feature",
      "id": "node/12448007541",
      "properties": {
        "timestamp": "2024-12-24T11:17:33Z",
        "version": 1,
        "changeset": 160571480,
        "addr:city": "Minas Novas",
        "addr:housenumber": "101",
        "addr:postcode": "39650-000",
        "addr:street": "Rua Nossa Senhora Aparecida",
        "addr:suburb": "Vila Cemig",
        "amenity": "clinic",
        "healthcare": "clinic",
        "healthcare:speciality": "psychiatry;behavior",
        "name": "Centro de Atendimento Psicossocial",
        "operator": "Município de Minas Novas",
        "operator:type": "public",
        "id": "node/12448007541"
      },
      "geometry": {
        "type": "Point",
        "coordinates": [
          -42.5793858,
          -17.2237916
        ]
      }
    }
  ]
}
