{
  "type": "FeatureCollection",
  "features": [
    {
      "type": "Feature",
      "id": "node/12444827027",
      "properties": {
        "timestamp": "2024-12-24T02:23:20Z",
        "version": 2,
        "changeset": 160560369,
        "addr:city": "Minas Novas",
        "addr:housenumber": "60",
        "addr:postcode": "39650-000",
        "addr:street": "Rua Márcio Freire",
        "addr:suburb": "Vila Cemig",
        "government": "education",
        "name": "Secretaria Municipal de Educação de Minas Novas",
        "office": "government",
        "id": "node/12444827027"
      },
      "geometry": {
        "type": "Point",
        "coordinates": [
          -42.5796007,
          -17.2217574
        ]
      }
    },
    {
      "type": "Feature",
      "id": "node/12444945874",
      "properties": {
        "timestamp": "2024-12-23T19:08:53Z",
        "version": 1,
        "changeset": 160550541,
        "addr:city": "Minas Novas",
        "addr:housenumber": "69",
        "addr:postcode": "39650-000",
        "addr:street": "Rua Major José Benicio",
        "addr:suburb": "Santana",
        "government": "social_security",
        "name": "Agência da Previdência Social em Minas Novas",
        "office": "government",
        "operator": "Instituto Nacional do Seguro Social",
        "operator:short": "INSS",
        "operator:wikidata": "Q10302614",
        "id": "node/12444945874"
      },
      "geometry": {
        "type": "Point",
        "coordinates": [
          -42.5929071,
          -17.2169849
        ]
      }
    },
    {
      "type": "Feature",
      "id": "node/12446153064",
      "properties": {
        "timestamp": "2024-12-24T02:23:20Z",
        "version": 1,
        "changeset": 160560369,
        "addr:city": "Minas Novas",
        "addr:housenumber": "311",
        "addr:postcode": "39650-000",
        "addr:street": "Avenida Delfim Moreira",
        "addr:suburb": "Saudade",
        "government": "agriculture",
        "name": "Instituto Mineiro de Agropecuária - Ima",
        "office": "government",
        "id": "node/12446153064"
      },
      "geometry": {
        "type": "Point",
        "coordinates": [
          -42.5883401,
          -17.2197534
        ]
      }
    },
    {
      "type": "Feature",
      "id": "node/12448007571",
      "properties": {
        "timestamp": "2024-12-24T11:17:33Z",
        "version": 1,
        "changeset": 160571480,
        "addr:city": "Minas Novas",
        "addr:housenumber": "59",
        "addr:postcode": "39650-000",
        "addr:street": "Praça Sebastião Leme do Prado",
        "addr:suburb": "Centro",
        "government": "agriculture",
        "name": "Emater Minas",
        "office": "government",
        "id": "node/12448007571"
      },
      "geometry": {
        "type": "Point",
        "coordinates": [
          -42.5949279,
          -17.218001
        ]
      }
    }
  ]
}
