{
  "type": "FeatureCollection",
  "features": [
    {
      "type": "Feature",
      "id": "node/1577287654",
      "properties": {
        "timestamp": "2024-12-24T11:17:33Z",
        "version": 4,
        "changeset": 160571480,
        "addr:city": "Minas Novas",
        "addr:housenumber": "90",
        "addr:postcode": "39650-000",
        "addr:street": "Rua Nossa Senhora Aparecida",
        "addr:suburb": "Vila Cemig",
        "email": "grandehotelminasnovas@gmail.com",
        "internet_access": "yes",
        "name": "Grande Hotel de Minas Novas",
        "phone": "+ 55 33 3764 1228",
        "tourism": "hotel",
        "website": "https://www.pedraspreciosas.tur.br/minas-novas",
        "id": "node/1577287654"
      },
      "geometry": {
        "type": "Point",
        "coordinates": [
          -42.5800319,
          -17.2240474
        ]
      }
    },
    {
      "type": "Feature",
      "id": "node/12448007543",
      "properties": {
        "timestamp": "2024-12-24T11:17:33Z",
        "version": 1,
        "changeset": 160571480,
        "addr:city": "Minas Novas",
        "addr:housenumber": "619",
        "addr:postcode": "39650-000",
        "addr:street": "Avenida Delfim Moreira",
        "addr:suburb": "Saudade",
        "email": "jkpalacehotelmn@bol.com.br",
        "name": "Hotel Jk",
        "phone": "+55 33 3764 1107",
        "tourism": "hotel",
        "id": "node/12448007543"
      },
      "geometry": {
        "type": "Point",
        "coordinates": [
          -42.5854748,
          -17.2199274
        ]
      }
    },
    {
      "type": "Feature",
      "id": "node/12448007569",
      "properties": {
        "timestamp": "2024-12-24T11:17:33Z",
        "version": 1,
        "changeset": 160571480,
        "addr:city": "Minas Novas",
        "addr:housenumber": "21",
        "addr:postcode": "39650-000",
        "addr:street": "Rua São José",
        "addr:suburb": "Centro",
        "name": "Pensão do Tutu",
        "tourism": "hotel",
        "id": "node/12448007569"
      },
      "geometry": {
        "type": "Point",
        "coordinates": [
          -42.5956645,
          -17.2179076
        ]
      }
    },
    {
      "type": "Feature",
      "id": "node/12448007570",
      "properties": {
        "timestamp": "2024-12-24T11:17:33Z",
        "version": 1,
        "changeset": 160571480,
        "addr:city": "Minas Novas",
        "addr:housenumber": "75",
        "addr:postcode": "39650-000",
        "addr:street": "Rua Coronel Bento Gonçalves",
        "addr:suburb": "Centro",
        "name": "Hotel Marajuara",
        "tourism": "hotel",
        "id": "node/12448007570"
      },
      "geometry": {
        "type": "Point",
        "coordinates": [
          -42.5944403,
          -17.2175439
        ]
      }
    }
  ]
}
