{
  "type": "FeatureCollection",
  "features": [
    {
      "type": "Feature",
      "id": "way/1217872933",
      "properties": {
        "timestamp": "2024-12-07T14:22:20Z",
        "version": 2,
        "changeset": 160028682,
        "addr:city": "Alecrim",
        "addr:country": "BR",
        "addr:housenumber": "687;717",
        "addr:postcode": "98950-000",
        "addr:state": "Rio Grande do Sul",
        "addr:street": "Rua Vereador Emílio Marino Kuhn",
        "addr:suburb": "Centro",
        "amenity": "kindergarten",
        "contact:phone": "+55 55 3546-1300",
        "name": "Escola Dona Elisa Warpechowsi",
        "official_name": "Escola Municipal de Educação Infantil Dona Elisa Warpechowsi",
        "operator": "Prefeitura Municipal de Alecrim",
        "ref:INEP": "43188583",
        "short_name": "EMEI Dona Elisa Warpechowsi",
        "id": "way/1217872933"
      },
      "geometry": {
        "type": "Polygon",
        "coordinates": [
          [
            [
              -54.7699329,
              -27.6610709
            ],
            [
              -54.7698203,
              -27.661672
            ],
            [
              -54.769021,
              -27.6616933
            ],
            [
              -54.7691605,
              -27.6609593
            ],
            [
              -54.7699329,
              -27.6610709
            ]
          ]
        ]
      }
    }
  ]
}
