{
  "type": "FeatureCollection",
  "features": [
    {
      "type": "Feature",
      "id": "way/724623331",
      "properties": {
        "timestamp": "2019-09-14T20:37:49Z",
        "version": 1,
        "changeset": 74484017,
        "addr:city": "Planalto",
        "addr:postcode": "45190000",
        "addr:street": "Avenida Ayrton Senna",
        "addr:suburb": "CEAC",
        "amenity": "clinic",
        "building": "yes",
        "healthcare": "clinic",
        "id": "way/724623331"
      },
      "geometry": {
        "type": "Polygon",
        "coordinates": [
          [
            [
              -40.4714679,
              -14.6752501
            ],
            [
              -40.4716761,
              -14.6750842
            ],
            [
              -40.4719945,
              -14.6753409
            ],
            [
              -40.4717924,
              -14.6755514
            ],
            [
              -40.4714067,
              -14.6753054
            ],
            [
              -40.4714679,
              -14.6752501
            ]
          ]
        ]
      }
    },
    {
      "type": "Feature",
      "id": "way/725171189",
      "properties": {
        "timestamp": "2021-06-07T20:42:36Z",
        "version": 3,
        "changeset": 105994455,
        "addr:city": "Planalto",
        "addr:postcode": "45190-000",
        "addr:street": "Rua Aloisio Lacerda",
        "addr:suburb": "Urbis",
        "amenity": "clinic",
        "building": "yes",
        "healthcare": "clinic",
        "id": "way/725171189"
      },
      "geometry": {
        "type": "Polygon",
        "coordinates": [
          [
            [
              -40.4823477,
              -14.6698184
            ],
            [
              -40.4820634,
              -14.6697562
            ],
            [
              -40.482168,
              -14.6693514
            ],
            [
              -40.4824362,
              -14.6694085
            ],
            [
              -40.4823477,
              -14.6698184
            ]
          ]
        ]
      }
    },
    {
      "type": "Feature",
      "id": "way/728245992",
      "properties": {
        "timestamp": "2022-04-16T22:55:02Z",
        "version": 5,
        "changeset": 119800700,
        "addr:city": "Planalto",
        "addr:postcode": "45190-000",
        "addr:street": "Rua Joaquim Sales",
        "addr:suburb": "Urbis",
        "amenity": "clinic",
        "building": "yes",
        "government": "healthcare",
        "healthcare": "clinic",
        "id": "way/728245992"
      },
      "geometry": {
        "type": "Polygon",
        "coordinates": [
          [
            [
              -40.4815169,
              -14.6691031
            ],
            [
              -40.4817942,
              -14.6691463
            ],
            [
              -40.4817457,
              -14.6694041
            ],
            [
              -40.4814749,
              -14.6693543
            ],
            [
              -40.4815169,
              -14.6691031
            ]
          ]
        ]
      }
    }
  ]
}
