{
  "type": "FeatureCollection",
  "features": [
    {
      "type": "Feature",
      "id": "way/687602010",
      "properties": {
        "timestamp": "2024-10-01T13:05:17Z",
        "version": 2,
        "changeset": 157338844,
        "addr:city": "Maracanaú",
        "addr:housenumber": "37",
        "addr:postcode": "61939-135",
        "addr:street": "Avenida Yolanda Pontes Vidal Queiroz",
        "addr:suburb": "Distrito Industrial I",
        "brand": "Ibis Styles",
        "brand:wikidata": "Q3147425",
        "building": "commercial",
        "name": "ibis Styles Maracanaú",
        "phone": "+55 85 3014 8200",
        "stars": "3",
        "tourism": "hotel",
        "website": "https://all.accor.com/hotel/B305/index.pt.shtml",
        "id": "way/687602010"
      },
      "geometry": {
        "type": "Polygon",
        "coordinates": [
          [
            [
              -38.6184898,
              -3.8697829
            ],
            [
              -38.6185336,
              -3.869938
            ],
            [
              -38.6181962,
              -3.8700328
            ],
            [
              -38.6181525,
              -3.8698777
            ],
            [
              -38.6184898,
              -3.8697829
            ]
          ]
        ]
      }
    }
  ]
}
