{
  "type": "FeatureCollection",
  "features": [
    {
      "type": "Feature",
      "id": "way/292306368",
      "properties": {
        "timestamp": "2017-05-11T21:10:10Z",
        "version": 2,
        "changeset": 48604982,
        "addr:city": "Lapa",
        "addr:housenumber": "102",
        "addr:postcode": "83750000",
        "addr:street": "Rua Amintas de Barros",
        "addr:suburb": "Centro",
        "amenity": "clinic",
        "building": "yes",
        "name": "Laboratório Visão",
        "phone": "+55 41 36221881",
        "wheelchair": "yes",
        "id": "way/292306368"
      },
      "geometry": {
        "type": "Polygon",
        "coordinates": [
          [
            [
              -49.717588,
              -25.76664
            ],
            [
              -49.7175249,
              -25.7668293
            ],
            [
              -49.7173475,
              -25.7667746
            ],
            [
              -49.7174339,
              -25.7665958
            ],
            [
              -49.717588,
              -25.76664
            ]
          ]
        ]
      }
    }
  ]
}
