{
  "type": "FeatureCollection",
  "features": [
    {
      "type": "Feature",
      "id": "node/3124637009",
      "properties": {
        "timestamp": "2014-10-11T20:16:32Z",
        "version": 1,
        "changeset": 26012760,
        "amenity": "pharmacy",
        "name": "Farm√°cia Santa Terezinha",
        "id": "node/3124637009"
      },
      "geometry": {
        "type": "Point",
        "coordinates": [
          -49.7171155,
          -25.7689507
        ]
      }
    },
    {
      "type": "Feature",
      "id": "node/7372759824",
      "properties": {
        "timestamp": "2020-04-06T16:00:30Z",
        "version": 1,
        "changeset": 83155868,
        "addr:city": "Lapa",
        "addr:housenumber": "103",
        "addr:postcode": "83750-000",
        "addr:street": "Rua Amintas de Barros",
        "addr:suburb": "Centro",
        "amenity": "pharmacy",
        "brand": "Rede Hiperfarma",
        "dispensing": "yes",
        "healthcare": "pharmacy",
        "name": "Hiperfarma Lapa",
        "id": "node/7372759824"
      },
      "geometry": {
        "type": "Point",
        "coordinates": [
          -49.7177174,
          -25.7666796
        ]
      }
    },
    {
      "type": "Feature",
      "id": "node/7372780348",
      "properties": {
        "timestamp": "2020-04-06T15:56:13Z",
        "version": 1,
        "changeset": 83155700,
        "addr:city": "Lapa",
        "addr:housenumber": "1825",
        "addr:postcode": "83750-000",
        "addr:street": "Avenida Doutor Manoel Pedro",
        "addr:suburb": "Centro",
        "amenity": "pharmacy",
        "brand": "Rede Hiperfarma",
        "dispensing": "yes",
        "healthcare": "pharmacy",
        "name": "Hiperfarma Lapa",
        "id": "node/7372780348"
      },
      "geometry": {
        "type": "Point",
        "coordinates": [
          -49.7195668,
          -25.7681399
        ]
      }
    }
  ]
}
