{
  "type": "FeatureCollection",
  "features": [
    {
      "type": "Feature",
      "id": "node/6974670895",
      "properties": {
        "timestamp": "2019-11-13T19:29:07Z",
        "version": 1,
        "changeset": 77033611,
        "addr:city": "Lapa",
        "addr:housenumber": "79",
        "addr:postcode": "83750000",
        "addr:street": "Rua Amintas de Barros",
        "addr:suburb": "Centro",
        "amenity": "veterinary",
        "name": "Clínica Veterinária Haroldo Suplicy Filho",
        "id": "node/6974670895"
      },
      "geometry": {
        "type": "Point",
        "coordinates": [
          -49.7176159,
          -25.7668952
        ]
      }
    },
    {
      "type": "Feature",
      "id": "node/7182828185",
      "properties": {
        "timestamp": "2021-02-18T16:26:39Z",
        "version": 2,
        "changeset": 99536998,
        "addr:housenumber": "57",
        "addr:postcode": "83750-000",
        "addr:street": "Rua Desembargador Westphallen",
        "amenity": "veterinary",
        "email": "gatinha.cao2008@gmail.com",
        "internet_access": "wlan",
        "name": "Gatinha.Cão",
        "opening_hours": "Mo-Fr 08:30-18:00; Sa 08:30-14:00",
        "phone": "+55 41 984128512",
        "website": "https://instagram.com/gatinha.cao2008",
        "id": "node/7182828185"
      },
      "geometry": {
        "type": "Point",
        "coordinates": [
          -49.7198167,
          -25.7698359
        ]
      }
    }
  ]
}
