{
  "type": "FeatureCollection",
  "features": [
    {
      "type": "Feature",
      "id": "way/321620336",
      "properties": {
        "timestamp": "2023-04-24T09:59:38Z",
        "version": 4,
        "changeset": 135294351,
        "addr:city": "Frei Inocêncio",
        "addr:housenumber": "15",
        "addr:postcode": "35112-000",
        "addr:street": "Rua Sargento Odílio Rodrigues da Silva",
        "addr:suburb": "Planalto",
        "amenity": "school",
        "name": "Escola Municipal Professora Terezinha Sarmento de Oliveira",
        "operator": "Município de Frei Inocêncio",
        "operator:type": "public",
        "phone": "+55 33 8409 4592",
        "source": "IBGE",
        "id": "way/321620336"
      },
      "geometry": {
        "type": "Polygon",
        "coordinates": [
          [
            [
              -41.9101241,
              -18.5598511
            ],
            [
              -41.9098096,
              -18.5603866
            ],
            [
              -41.9093561,
              -18.5601589
            ],
            [
              -41.9096696,
              -18.559605
            ],
            [
              -41.9101241,
              -18.5598511
            ]
          ]
        ]
      }
    },
    {
      "type": "Feature",
      "id": "way/488959937",
      "properties": {
        "timestamp": "2017-04-24T00:15:37Z",
        "version": 1,
        "changeset": 48074704,
        "amenity": "school",
        "id": "way/488959937"
      },
      "geometry": {
        "type": "Polygon",
        "coordinates": [
          [
            [
              -41.7483072,
              -18.570984
            ],
            [
              -41.7483274,
              -18.571247
            ],
            [
              -41.7478193,
              -18.5712821
            ],
            [
              -41.7477991,
              -18.571019
            ],
            [
              -41.7483072,
              -18.570984
            ]
          ]
        ]
      }
    },
    {
      "type": "Feature",
      "id": "way/494503904",
      "properties": {
        "timestamp": "2017-05-18T21:07:40Z",
        "version": 1,
        "changeset": 48803833,
        "amenity": "school",
        "id": "way/494503904"
      },
      "geometry": {
        "type": "Polygon",
        "coordinates": [
          [
            [
              -41.9498651,
              -18.3988189
            ],
            [
              -41.9498438,
              -18.3992015
            ],
            [
              -41.9495336,
              -18.399186
            ],
            [
              -41.9495548,
              -18.3988034
            ],
            [
              -41.9498651,
              -18.3988189
            ]
          ]
        ]
      }
    },
    {
      "type": "Feature",
      "id": "node/10836147598",
      "properties": {
        "timestamp": "2023-04-24T01:54:32Z",
        "version": 1,
        "changeset": 135281830,
        "addr:city": "Frei Inocêncio",
        "addr:postcode": "35112-000",
        "addr:street": "Rua Prefeito José Pedro da Silva",
        "addr:suburb": "Centro",
        "amenity": "school",
        "name": "Escola Estadual João Brasileiro Passos",
        "operator": "Governo do Estado de Minas Gerais",
        "operator:type": "public",
        "id": "node/10836147598"
      },
      "geometry": {
        "type": "Point",
        "coordinates": [
          -41.9051991,
          -18.5656293
        ]
      }
    },
    {
      "type": "Feature",
      "id": "node/10836147599",
      "properties": {
        "timestamp": "2023-04-24T01:54:32Z",
        "version": 1,
        "changeset": 135281830,
        "addr:city": "Frei Inocêncio",
        "addr:housenumber": "81",
        "addr:postcode": "35112-000",
        "addr:street": "Rua Osório Caetano",
        "addr:suburb": "Centro",
        "amenity": "school",
        "email": "emdjsouzalima@hotmail.com",
        "name": "Escola Municipal Doutor João de Souza Lima",
        "operator": "Município de Frei Inocêncio",
        "operator:type": "public",
        "id": "node/10836147599"
      },
      "geometry": {
        "type": "Point",
        "coordinates": [
          -41.9066498,
          -18.5691225
        ]
      }
    },
    {
      "type": "Feature",
      "id": "node/10836147600",
      "properties": {
        "timestamp": "2023-04-24T01:54:32Z",
        "version": 1,
        "changeset": 135281830,
        "addr:city": "Frei Inocêncio",
        "addr:housenumber": "61",
        "addr:postcode": "35112-000",
        "addr:street": "Rua Santa Maria",
        "addr:suburb": "Centro",
        "amenity": "school",
        "email": "escola.42901@educacao.mg.gov.br",
        "name": "Escola Estadual Frei Inocêncio",
        "operator": "Governo do Estado de Minas Gerais",
        "operator:type": "public",
        "phone": "+55 33 3284 1155",
        "id": "node/10836147600"
      },
      "geometry": {
        "type": "Point",
        "coordinates": [
          -41.9091956,
          -18.5644001
        ]
      }
    },
    {
      "type": "Feature",
      "id": "node/10836716239",
      "properties": {
        "timestamp": "2023-04-24T09:59:38Z",
        "version": 1,
        "changeset": 135294351,
        "addr:city": "Frei Inocêncio",
        "addr:postcode": "35112-000",
        "addr:street": "Rua Antônio Balbino dos Anjos",
        "addr:suburb": "Pantanal",
        "amenity": "school",
        "name": "Pem Wilma Glória Nunes Mourão",
        "operator": "Município de Frei Inocêncio",
        "operator:type": "public",
        "id": "node/10836716239"
      },
      "geometry": {
        "type": "Point",
        "coordinates": [
          -41.90914,
          -18.5588028
        ]
      }
    }
  ]
}
