{
  "type": "FeatureCollection",
  "features": [
    {
      "type": "Feature",
      "id": "way/742639719",
      "properties": {
        "timestamp": "2022-02-09T21:04:29Z",
        "version": 2,
        "changeset": 117219222,
        "addr:city": "Miguel Le達o",
        "addr:housenumber": "13",
        "addr:postcode": "64445-000",
        "addr:street": "Rua do Bode",
        "addr:suburb": "Centro",
        "amenity": "school",
        "name": "Unid Esc Prefeito Jose Alves Da Silva",
        "id": "way/742639719"
      },
      "geometry": {
        "type": "Polygon",
        "coordinates": [
          [
            [
              -42.7380772,
              -5.6813387
            ],
            [
              -42.7384171,
              -5.6806272
            ],
            [
              -42.7387258,
              -5.6807732
            ],
            [
              -42.7385333,
              -5.6811762
            ],
            [
              -42.7385148,
              -5.6811674
            ],
            [
              -42.7383674,
              -5.681476
            ],
            [
              -42.7380772,
              -5.6813387
            ]
          ]
        ]
      }
    },
    {
      "type": "Feature",
      "id": "way/1029858456",
      "properties": {
        "timestamp": "2022-02-09T21:02:30Z",
        "version": 1,
        "changeset": 117219153,
        "addr:city": "Miguel Le達o",
        "addr:housenumber": "32",
        "addr:postcode": "64445-000",
        "addr:street": "Rua Jo達o Ferry",
        "addr:suburb": "Centro",
        "amenity": "school",
        "name": "U E Estado Do Acre",
        "id": "way/1029858456"
      },
      "geometry": {
        "type": "Polygon",
        "coordinates": [
          [
            [
              -42.7388843,
              -5.6800821
            ],
            [
              -42.7386944,
              -5.6804767
            ],
            [
              -42.7385855,
              -5.6805463
            ],
            [
              -42.7381702,
              -5.6803429
            ],
            [
              -42.7383856,
              -5.6798677
            ],
            [
              -42.7388843,
              -5.6800821
            ]
          ]
        ]
      }
    },
    {
      "type": "Feature",
      "id": "node/9493806281",
      "properties": {
        "timestamp": "2022-02-09T21:05:16Z",
        "version": 1,
        "changeset": 117219252,
        "addr:city": "Miguel Le達o",
        "addr:postcode": "64445-000",
        "addr:street": "Rua da Gameleira",
        "addr:suburb": "Centro",
        "amenity": "school",
        "name": "Unidade Escolar Vovo Cristina",
        "id": "node/9493806281"
      },
      "geometry": {
        "type": "Point",
        "coordinates": [
          -42.7350743,
          -5.6838337
        ]
      }
    }
  ]
}
