{
  "type": "FeatureCollection",
  "features": [
    {
      "type": "Feature",
      "id": "node/12344825401",
      "properties": {
        "timestamp": "2024-11-15T21:31:01Z",
        "version": 1,
        "changeset": 159187933,
        "addr:postcode": "75170-000",
        "addr:street": "Praça 14 De Novembro, 197 - Centro",
        "amenity": "school",
        "name": "Colégio Estadual da Polícia Militar de Goiás",
        "id": "node/12344825401"
      },
      "geometry": {
        "type": "Point",
        "coordinates": [
          -49.0211774,
          -16.5056488
        ]
      }
    },
    {
      "type": "Feature",
      "id": "node/12344861601",
      "properties": {
        "timestamp": "2024-11-15T22:04:30Z",
        "version": 1,
        "changeset": 159188771,
        "addr:postcode": "75170-000",
        "addr:street": "Rua Joao Lima De Abreu, 234 - Centro",
        "amenity": "school",
        "name": "CEPI José Resio",
        "id": "node/12344861601"
      },
      "geometry": {
        "type": "Point",
        "coordinates": [
          -49.0241808,
          -16.5067611
        ]
      }
    }
  ]
}
