{
  "type": "FeatureCollection",
  "features": [
    {
      "type": "Feature",
      "id": "node/3494231364",
      "properties": {
        "timestamp": "2016-08-30T04:20:58Z",
        "version": 2,
        "changeset": 41792713,
        "IJSN:administra": "Municipal",
        "IJSN:classeCnae": "Infantil",
        "addr:city": "Ibatiba",
        "addr:place": "Brasil Novo",
        "addr:postcode": "29395-000",
        "addr:street": "Rua Orly Barros",
        "alt_name": "Creche Municipal",
        "amenity": "kindergarten",
        "name": "Creche Municipal Branca de Neve",
        "short_name": "CM",
        "id": "node/3494231364"
      },
      "geometry": {
        "type": "Point",
        "coordinates": [
          -41.5079816,
          -20.2372742
        ]
      }
    },
    {
      "type": "Feature",
      "id": "node/3494231365",
      "properties": {
        "timestamp": "2015-05-03T03:02:20Z",
        "version": 1,
        "changeset": 30737057,
        "IJSN:administra": "Privada",
        "IJSN:classeCnae": "Infantil",
        "addr:city": "Ibatiba",
        "addr:place": "IpÃª",
        "addr:postcode": "29395-000",
        "addr:street": "Rua Eucarlinda Saraiva de Souza",
        "amenity": "kindergarten",
        "name": "Creche Pequeno Polegar",
        "id": "node/3494231365"
      },
      "geometry": {
        "type": "Point",
        "coordinates": [
          -41.5116687,
          -20.2306479
        ]
      }
    },
    {
      "type": "Feature",
      "id": "node/3494231366",
      "properties": {
        "timestamp": "2015-05-03T03:02:20Z",
        "version": 1,
        "changeset": 30737057,
        "IJSN:administra": "Municipal",
        "IJSN:classeCnae": "Infantil",
        "addr:city": "Ibatiba",
        "addr:place": "Distrito Santa Clara",
        "addr:postcode": "29395-000",
        "addr:street": "Rua Principal",
        "alt_name": "Creche Municipal",
        "amenity": "kindergarten",
        "name": "Creche de Santa Clara",
        "short_name": "CM",
        "id": "node/3494231366"
      },
      "geometry": {
        "type": "Point",
        "coordinates": [
          -41.5851908,
          -20.2350027
        ]
      }
    }
  ]
}
