{
  "type": "FeatureCollection",
  "features": [
    {
      "type": "Feature",
      "id": "way/387758555",
      "properties": {
        "timestamp": "2015-12-26T03:39:37Z",
        "version": 1,
        "changeset": 36169681,
        "addr:city": "Ibatiba",
        "addr:postcode": "29395-000",
        "amenity": "school",
        "name": "EEEFM Profª Maria Trindade de Oliveira",
        "id": "way/387758555"
      },
      "geometry": {
        "type": "Polygon",
        "coordinates": [
          [
            [
              -41.5080428,
              -20.2345649
            ],
            [
              -41.5085998,
              -20.2348243
            ],
            [
              -41.5083721,
              -20.2351905
            ],
            [
              -41.5078761,
              -20.234893
            ],
            [
              -41.5080428,
              -20.2345649
            ]
          ]
        ]
      }
    },
    {
      "type": "Feature",
      "id": "way/436632524",
      "properties": {
        "timestamp": "2016-08-10T22:10:40Z",
        "version": 1,
        "changeset": 41377019,
        "addr:city": "Ibatiba",
        "addr:postcode": "29395-000",
        "addr:street": "Rua Orli Barros",
        "addr:suburb": "Novo Horizonte",
        "amenity": "school",
        "name": "EMEF Helena Almoquedice Valadão",
        "id": "way/436632524"
      },
      "geometry": {
        "type": "Polygon",
        "coordinates": [
          [
            [
              -41.508934,
              -20.2375123
            ],
            [
              -41.5088589,
              -20.2377664
            ],
            [
              -41.5085461,
              -20.2376686
            ],
            [
              -41.5086198,
              -20.2374248
            ],
            [
              -41.508934,
              -20.2375123
            ]
          ]
        ]
      }
    },
    {
      "type": "Feature",
      "id": "way/454682797",
      "properties": {
        "timestamp": "2016-11-20T15:03:27Z",
        "version": 1,
        "changeset": 43823762,
        "amenity": "school",
        "name": "EMEF David Gomes de Oliveira",
        "id": "way/454682797"
      },
      "geometry": {
        "type": "Polygon",
        "coordinates": [
          [
            [
              -41.5048891,
              -20.2311486
            ],
            [
              -41.5047076,
              -20.2315886
            ],
            [
              -41.5042578,
              -20.231363
            ],
            [
              -41.5044823,
              -20.2309618
            ],
            [
              -41.5048891,
              -20.2311486
            ]
          ]
        ]
      }
    },
    {
      "type": "Feature",
      "id": "way/454682801",
      "properties": {
        "timestamp": "2016-11-20T15:03:28Z",
        "version": 1,
        "changeset": 43823762,
        "amenity": "school",
        "name": "EMEF Eunice Pereira Silveira",
        "id": "way/454682801"
      },
      "geometry": {
        "type": "Polygon",
        "coordinates": [
          [
            [
              -41.510382,
              -20.2375532
            ],
            [
              -41.510598,
              -20.2379248
            ],
            [
              -41.5104324,
              -20.2380014
            ],
            [
              -41.5102908,
              -20.2381095
            ],
            [
              -41.5100123,
              -20.237873
            ],
            [
              -41.5101827,
              -20.2376433
            ],
            [
              -41.510382,
              -20.2375532
            ]
          ]
        ]
      }
    },
    {
      "type": "Feature",
      "id": "node/3494231360",
      "properties": {
        "timestamp": "2016-03-09T19:11:41Z",
        "version": 2,
        "changeset": 37716865,
        "IJSN:administra": "Privada",
        "IJSN:classeCnae": "Ensino Especial",
        "addr:city": "Ibatiba",
        "addr:country": "BR",
        "addr:housenumber": "5",
        "addr:place": "Brasil Novo",
        "addr:postcode": "29395-000",
        "addr:state": "ES",
        "addr:street": "Rua Pedro Antônio de Amorim",
        "alt_name": "Centro de Atendimento Educacional Especializado",
        "amenity": "school",
        "name": "CAEE João Ferreira Sobrinho",
        "id": "node/3494231360"
      },
      "geometry": {
        "type": "Point",
        "coordinates": [
          -41.505285,
          -20.2350341
        ]
      }
    },
    {
      "type": "Feature",
      "id": "node/3494231361",
      "properties": {
        "timestamp": "2016-03-09T19:11:42Z",
        "version": 2,
        "changeset": 37716865,
        "IJSN:administra": "Privada",
        "IJSN:classeCnae": "Ensino Especial",
        "addr:city": "Ibatiba",
        "addr:country": "BR",
        "addr:place": "Boa Esperança",
        "addr:postcode": "29395-000",
        "addr:state": "ES",
        "addr:street": "Rua Manoel Luis Trindade",
        "alt_name": "Centro de Atendimento Educacional Especializado",
        "amenity": "school",
        "contact:phone": "(28) 3543-1662",
        "name": "CAEE Reviver",
        "id": "node/3494231361"
      },
      "geometry": {
        "type": "Point",
        "coordinates": [
          -41.5054944,
          -20.2318781
        ]
      }
    },
    {
      "type": "Feature",
      "id": "node/3494231362",
      "properties": {
        "timestamp": "2016-03-09T19:11:45Z",
        "version": 2,
        "changeset": 37716865,
        "IJSN:administra": "Privada",
        "IJSN:classeCnae": "Infantil e Fundamental",
        "addr:city": "Ibatiba",
        "addr:country": "BR",
        "addr:housenumber": "18",
        "addr:place": "Boa Esperança",
        "addr:postcode": "29395-000",
        "addr:state": "ES",
        "addr:street": "Rua Manoel Luis Trindade",
        "alt_name": "Centro Educacional",
        "amenity": "school",
        "contact:phone": "(28) 9882-4440",
        "name": "CE Crescer",
        "id": "node/3494231362"
      },
      "geometry": {
        "type": "Point",
        "coordinates": [
          -41.5051511,
          -20.2317088
        ]
      }
    },
    {
      "type": "Feature",
      "id": "node/3494231363",
      "properties": {
        "timestamp": "2015-05-03T03:02:20Z",
        "version": 1,
        "changeset": 30737057,
        "IJSN:administra": "Privada",
        "IJSN:classeCnae": "Infantil e Fundamental",
        "addr:city": "Ibatiba",
        "addr:housenumber": "286",
        "addr:place": "Centro",
        "addr:postcode": "29395-000",
        "addr:street": "Rua Salomão Fadlalah",
        "amenity": "school",
        "contact:phone": "(28) 3543-1586",
        "name": "Colégio Ágape",
        "id": "node/3494231363"
      },
      "geometry": {
        "type": "Point",
        "coordinates": [
          -41.5098608,
          -20.2351444
        ]
      }
    },
    {
      "type": "Feature",
      "id": "node/3494231367",
      "properties": {
        "timestamp": "2016-03-09T19:12:19Z",
        "version": 2,
        "changeset": 37716865,
        "IJSN:administra": "Estadual",
        "IJSN:classeCnae": "Fundamental e Médio",
        "addr:city": "Ibatiba",
        "addr:country": "BR",
        "addr:place": "Centro",
        "addr:postcode": "29395-000",
        "addr:state": "ES",
        "addr:street": "Avenida Afonso Cláudio",
        "alt_name": "Escola Estadual de Ensino Fundamental e Médio",
        "amenity": "school",
        "contact:phone": "(28) 3543-1171",
        "name": "EEEFM Professora Maria Trindade de Oliveira",
        "id": "node/3494231367"
      },
      "geometry": {
        "type": "Point",
        "coordinates": [
          -41.5083202,
          -20.2347939
        ]
      }
    },
    {
      "type": "Feature",
      "id": "node/3494231368",
      "properties": {
        "timestamp": "2016-03-09T19:12:36Z",
        "version": 2,
        "changeset": 37716865,
        "IJSN:administra": "Municipal",
        "IJSN:classeCnae": "Infantil e Fundamental",
        "addr:city": "Ibatiba",
        "addr:country": "BR",
        "addr:place": "Comunidade Ponta",
        "addr:postcode": "29395-000",
        "addr:state": "ES",
        "addr:street": "Córrego do Pontal",
        "alt_name": "Escola Municipal",
        "amenity": "school",
        "name": "EM Fazenda do Fama",
        "id": "node/3494231368"
      },
      "geometry": {
        "type": "Point",
        "coordinates": [
          -41.6317679,
          -20.270885
        ]
      }
    },
    {
      "type": "Feature",
      "id": "node/3494231371",
      "properties": {
        "timestamp": "2016-03-09T19:13:00Z",
        "version": 2,
        "changeset": 37716865,
        "IJSN:administra": "Municipal",
        "IJSN:classeCnae": "Infantil e Fundamental",
        "addr:city": "Ibatiba",
        "addr:country": "BR",
        "addr:place": "Novo Horizonte",
        "addr:postcode": "29395-000",
        "addr:state": "ES",
        "addr:street": "Rua Orly Barros",
        "alt_name": "Escola Municipal de Ensino Infantil e Fundamental",
        "amenity": "school",
        "contact:phone": "(28) 3543-1433",
        "name": "EMEF Helena Almodice Valadão",
        "id": "node/3494231371"
      },
      "geometry": {
        "type": "Point",
        "coordinates": [
          -41.5088078,
          -20.2375905
        ]
      }
    },
    {
      "type": "Feature",
      "id": "node/3494231372",
      "properties": {
        "timestamp": "2016-03-09T19:13:17Z",
        "version": 2,
        "changeset": 37716865,
        "IJSN:administra": "Municipal",
        "IJSN:classeCnae": "Infantil e Fundamental",
        "addr:city": "Ibatiba",
        "addr:country": "BR",
        "addr:place": "Distrito Santa Clara",
        "addr:postcode": "29395-000",
        "addr:state": "ES",
        "addr:street": "Rua Principal",
        "alt_name": "Escola Municipal de Ensino Infantil e Fundamental",
        "amenity": "school",
        "contact:phone": "(28) 3543-4025",
        "name": "EMEIEF Adelaide Rodrigues Moreira",
        "id": "node/3494231372"
      },
      "geometry": {
        "type": "Point",
        "coordinates": [
          -41.5838429,
          -20.2357296
        ]
      }
    },
    {
      "type": "Feature",
      "id": "node/3494231373",
      "properties": {
        "timestamp": "2016-03-09T19:13:18Z",
        "version": 2,
        "changeset": 37716865,
        "IJSN:administra": "Municipal",
        "IJSN:classeCnae": "Infantil e Fundamental",
        "addr:city": "Ibatiba",
        "addr:country": "BR",
        "addr:place": "Distrito Criciúma",
        "addr:postcode": "29395-000",
        "addr:state": "ES",
        "addr:street": "Córrego Crisciúma",
        "alt_name": "Escola Municipal de Ensino Infantil e Fundamental",
        "amenity": "school",
        "contact:phone": "(28) 9882-0782",
        "name": "EMEIEF Agenor de Souza Lee",
        "id": "node/3494231373"
      },
      "geometry": {
        "type": "Point",
        "coordinates": [
          -41.6207601,
          -20.2188923
        ]
      }
    },
    {
      "type": "Feature",
      "id": "node/3494231374",
      "properties": {
        "timestamp": "2016-03-09T19:13:18Z",
        "version": 2,
        "changeset": 37716865,
        "IJSN:administra": "Municipal",
        "IJSN:classeCnae": "Fundamental",
        "addr:city": "Ibatiba",
        "addr:country": "BR",
        "addr:place": "Comunidade Cachoeira Alegre",
        "addr:postcode": "29395-000",
        "addr:state": "ES",
        "addr:street": "Cachoeira Alegre",
        "alt_name": "Escola Municipal de Ensino Infantil e Fundamental",
        "amenity": "school",
        "name": "EMEIEF Cachoeira Alegre",
        "id": "node/3494231374"
      },
      "geometry": {
        "type": "Point",
        "coordinates": [
          -41.4845241,
          -20.3018121
        ]
      }
    },
    {
      "type": "Feature",
      "id": "node/3494231375",
      "properties": {
        "timestamp": "2016-03-09T19:13:18Z",
        "version": 2,
        "changeset": 37716865,
        "IJSN:administra": "Municipal",
        "IJSN:classeCnae": "Infantil e Fundamental",
        "addr:city": "Ibatiba",
        "addr:country": "BR",
        "addr:place": "Comunidade Peroba",
        "addr:postcode": "29395-000",
        "addr:state": "ES",
        "addr:street": "Córrego das Perobas",
        "alt_name": "Escola Municipal de Ensino Infantil e Fundamental",
        "amenity": "school",
        "name": "EMEIEF Eliana Marlene Coitinho",
        "id": "node/3494231375"
      },
      "geometry": {
        "type": "Point",
        "coordinates": [
          -41.543174,
          -20.2645919
        ]
      }
    },
    {
      "type": "Feature",
      "id": "node/3494231376",
      "properties": {
        "timestamp": "2016-03-09T19:13:19Z",
        "version": 2,
        "changeset": 37716865,
        "IJSN:administra": "Municipal",
        "IJSN:classeCnae": "Infantil e Fundamental",
        "addr:city": "Ibatiba",
        "addr:country": "BR",
        "addr:place": "Comunidade Santa Maria de Baixo",
        "addr:postcode": "29395-000",
        "addr:state": "ES",
        "addr:street": "Córrego Santa Maria de Baixo",
        "alt_name": "Escola Municipal de Ensino Infantil e Fundamental",
        "amenity": "school",
        "contact:phone": "(28) 3543-1337",
        "name": "EMEIEF Santa Maria",
        "id": "node/3494231376"
      },
      "geometry": {
        "type": "Point",
        "coordinates": [
          -41.4825456,
          -20.2490958
        ]
      }
    },
    {
      "type": "Feature",
      "id": "node/3494231377",
      "properties": {
        "timestamp": "2020-05-11T10:05:24Z",
        "version": 3,
        "changeset": 85016838,
        "IJSN:administra": "Municipal",
        "IJSN:classeCnae": "Fundamental",
        "addr:city": "Ibatiba",
        "addr:country": "BR",
        "addr:place": "Comunidade Ineses",
        "addr:postcode": "29395-000",
        "addr:state": "ES",
        "addr:street": "Córrego dos Inêses",
        "addr:suburb": "Alto Inêses",
        "alt_name": "Escola Municipal Unidocente de Ensino Fundamental",
        "amenity": "school",
        "name": "EMUEF Alto Inês",
        "id": "node/3494231377"
      },
      "geometry": {
        "type": "Point",
        "coordinates": [
          -41.4203253,
          -20.2141652
        ]
      }
    },
    {
      "type": "Feature",
      "id": "node/3494231378",
      "properties": {
        "timestamp": "2016-03-09T19:13:23Z",
        "version": 2,
        "changeset": 37716865,
        "IJSN:administra": "Municipal",
        "IJSN:classeCnae": "Infantil e Fundamental",
        "addr:city": "Ibatiba",
        "addr:country": "BR",
        "addr:place": "Comunidade Mata da Onça",
        "addr:postcode": "29395-000",
        "addr:state": "ES",
        "addr:street": "Córrego Santa Clara",
        "alt_name": "Escola Municipal Unidocente de Ensino Fundamental",
        "amenity": "school",
        "name": "EMUEF Boa Vista",
        "id": "node/3494231378"
      },
      "geometry": {
        "type": "Point",
        "coordinates": [
          -41.5605498,
          -20.2159881
        ]
      }
    },
    {
      "type": "Feature",
      "id": "node/3494231379",
      "properties": {
        "timestamp": "2016-03-09T19:13:26Z",
        "version": 2,
        "changeset": 37716865,
        "IJSN:administra": "Municipal",
        "IJSN:classeCnae": "Infantil e Fundamental",
        "addr:city": "Ibatiba",
        "addr:country": "BR",
        "addr:place": "Comunidade Santa Isabel",
        "addr:postcode": "29395-000",
        "addr:state": "ES",
        "addr:street": "Córrego da Neblina",
        "alt_name": "Escola Municipal Unidocente de Ensino Fundamental",
        "amenity": "school",
        "name": "EMUEF Rafael de Oliveira",
        "id": "node/3494231379"
      },
      "geometry": {
        "type": "Point",
        "coordinates": [
          -41.6112218,
          -20.2397664
        ]
      }
    }
  ]
}
