{
  "type": "FeatureCollection",
  "features": [
    {
      "type": "Feature",
      "id": "way/790044295",
      "properties": {
        "timestamp": "2020-04-21T04:19:00Z",
        "version": 2,
        "changeset": 83851436,
        "addr:city": "Campos dos Goytacazes",
        "addr:housenumber": "352",
        "addr:postcode": "28035-642",
        "addr:street": "Rua Gil de Gois",
        "addr:suburb": "Maria de Queiroz",
        "building": "yes",
        "description": "Galeria de arte, teatro, biblioteca e jardim sensorial do SESC Campos (SESC RJ)",
        "email": "falecomagente@sescrio.org.br",
        "name": "Centro Cultural SESC Campos (Casarão SESC)",
        "opening_hours": "Mo-Su 09:00-22:00",
        "operator": "SESC - Serviço Social do Comércio no Estado do Rio de Janeiro/Governo Federal/Ministério do Desenvolvimento Social/SESC Nacional",
        "phone": "(22) 2725-1209",
        "tourism": "gallery",
        "website": "https://www.sescrio.org.br/",
        "id": "way/790044295"
      },
      "geometry": {
        "type": "Polygon",
        "coordinates": [
          [
            [
              -41.3346922,
              -21.7519795
            ],
            [
              -41.3348398,
              -21.7523945
            ],
            [
              -41.334655,
              -21.7524554
            ],
            [
              -41.3345371,
              -21.7521377
            ],
            [
              -41.3345855,
              -21.7521206
            ],
            [
              -41.3345646,
              -21.7520841
            ],
            [
              -41.334596,
              -21.7520732
            ],
            [
              -41.3345816,
              -21.752016
            ],
            [
              -41.3346922,
              -21.7519795
            ]
          ]
        ]
      }
    }
  ]
}
