{
  "type": "FeatureCollection",
  "features": [
    {
      "type": "Feature",
      "id": "way/552156194",
      "properties": {
        "timestamp": "2024-02-22T10:52:14Z",
        "version": 3,
        "changeset": 147767459,
        "addr:city": "Campos dos Goytacazes",
        "addr:housenumber": "346",
        "addr:postcode": "28051-250",
        "addr:street": "Rua Doutor Silvio Bastos Tavares",
        "addr:suburb": "Parque Leopoldina",
        "brand": "Tulip Inn",
        "building": "hotel",
        "name": "Tulip Inn Campos",
        "phone": "+55 22",
        "tourism": "hotel",
        "id": "way/552156194"
      },
      "geometry": {
        "type": "Polygon",
        "coordinates": [
          [
            [
              -41.3489393,
              -21.7562382
            ],
            [
              -41.3490288,
              -21.7563622
            ],
            [
              -41.3486683,
              -21.7565866
            ],
            [
              -41.3485788,
              -21.7564625
            ],
            [
              -41.3489393,
              -21.7562382
            ]
          ]
        ]
      }
    },
    {
      "type": "Feature",
      "id": "way/776317251",
      "properties": {
        "timestamp": "2020-02-25T19:08:47Z",
        "version": 1,
        "changeset": 81469708,
        "addr:city": "Campos dos Goytacazes",
        "addr:housenumber": "120",
        "addr:street": "Avenida Olavo Saldanha",
        "addr:suburb": "Farol de São Thomé",
        "building": "yes",
        "internet_access": "yes",
        "name": "Hotel Garoupas",
        "tourism": "hotel",
        "id": "way/776317251"
      },
      "geometry": {
        "type": "Polygon",
        "coordinates": [
          [
            [
              -41.0413252,
              -22.0381639
            ],
            [
              -41.0415237,
              -22.0382635
            ],
            [
              -41.0417105,
              -22.0383457
            ],
            [
              -41.0416568,
              -22.0384345
            ],
            [
              -41.0412575,
              -22.0382613
            ],
            [
              -41.0413252,
              -22.0381639
            ]
          ]
        ]
      }
    },
    {
      "type": "Feature",
      "id": "way/776317647",
      "properties": {
        "timestamp": "2020-02-25T19:12:11Z",
        "version": 1,
        "changeset": 81469803,
        "addr:city": "Campos dos Goytacazes",
        "addr:housenumber": "32",
        "addr:postcode": "28140-000",
        "addr:street": "Avenida Olavo Saldanha",
        "addr:suburb": "Farol de São Thomé",
        "building": "yes",
        "internet_access": "yes",
        "name": "Pousada São Thomé",
        "phone": "+55 22 2747-1177",
        "tourism": "hotel",
        "id": "way/776317647"
      },
      "geometry": {
        "type": "Polygon",
        "coordinates": [
          [
            [
              -41.0402861,
              -22.0374064
            ],
            [
              -41.0402978,
              -22.0373891
            ],
            [
              -41.0403842,
              -22.0374259
            ],
            [
              -41.0403585,
              -22.0374562
            ],
            [
              -41.040564,
              -22.037586
            ],
            [
              -41.0404099,
              -22.0378241
            ],
            [
              -41.0403235,
              -22.0377873
            ],
            [
              -41.0400923,
              -22.0376683
            ],
            [
              -41.0402861,
              -22.0374064
            ]
          ]
        ]
      }
    },
    {
      "type": "Feature",
      "id": "way/1030063761",
      "properties": {
        "timestamp": "2022-02-10T14:28:06Z",
        "version": 1,
        "changeset": 117248688,
        "addr:city": "Campos dos Goytacazes",
        "addr:housenumber": "424",
        "addr:postcode": "28020740",
        "addr:street": "Avenida 28 de Março",
        "addr:suburb": "Centro",
        "air_conditioning": "yes",
        "building": "apartments",
        "internet_access": "wlan",
        "internet_access:fee": "customers",
        "name": "Hotel Via Parque Flat Service",
        "tourism": "hotel",
        "wheelchair": "yes",
        "id": "way/1030063761"
      },
      "geometry": {
        "type": "Polygon",
        "coordinates": [
          [
            [
              -41.3282224,
              -21.7646163
            ],
            [
              -41.3282572,
              -21.7647134
            ],
            [
              -41.3283055,
              -21.7648504
            ],
            [
              -41.3283806,
              -21.7648355
            ],
            [
              -41.3284074,
              -21.764823
            ],
            [
              -41.3284369,
              -21.7648978
            ],
            [
              -41.3284423,
              -21.7649301
            ],
            [
              -41.3284396,
              -21.7649526
            ],
            [
              -41.3284477,
              -21.7649924
            ],
            [
              -41.3284718,
              -21.7650123
            ],
            [
              -41.3284986,
              -21.7650148
            ],
            [
              -41.3285255,
              -21.7650871
            ],
            [
              -41.3284852,
              -21.765112
            ],
            [
              -41.3284718,
              -21.7651568
            ],
            [
              -41.3284799,
              -21.7651917
            ],
            [
              -41.3285201,
              -21.7652988
            ],
            [
              -41.3285255,
              -21.7653362
            ],
            [
              -41.3284852,
              -21.7653561
            ],
            [
              -41.3284584,
              -21.7653412
            ],
            [
              -41.3283565,
              -21.7653686
            ],
            [
              -41.328327,
              -21.7653984
            ],
            [
              -41.3282814,
              -21.7654109
            ],
            [
              -41.328217,
              -21.7652764
            ],
            [
              -41.3281419,
              -21.7651045
            ],
            [
              -41.3280507,
              -21.7649102
            ],
            [
              -41.3280105,
              -21.7648106
            ],
            [
              -41.3279649,
              -21.7647134
            ],
            [
              -41.3280748,
              -21.7646686
            ],
            [
              -41.328158,
              -21.7646337
            ],
            [
              -41.3282224,
              -21.7646163
            ]
          ]
        ]
      }
    },
    {
      "type": "Feature",
      "id": "node/1232303261",
      "properties": {
        "timestamp": "2011-04-04T12:59:03Z",
        "version": 1,
        "changeset": 7764770,
        "name": "Palace Hotel",
        "tourism": "hotel",
        "id": "node/1232303261"
      },
      "geometry": {
        "type": "Point",
        "coordinates": [
          -41.3273254,
          -21.7521762
        ]
      }
    },
    {
      "type": "Feature",
      "id": "node/1232303284",
      "properties": {
        "timestamp": "2024-02-20T18:45:08Z",
        "version": 2,
        "changeset": 147704080,
        "addr:city": "Campos dos Goytacazes",
        "addr:housenumber": "64",
        "addr:street": "Avenida Doutor Nilo Peçanha",
        "addr:suburb": "Parque Santo Amaro",
        "name": "Alameda Inn",
        "tourism": "hotel",
        "id": "node/1232303284"
      },
      "geometry": {
        "type": "Point",
        "coordinates": [
          -41.331524,
          -21.7650521
        ]
      }
    },
    {
      "type": "Feature",
      "id": "node/2098957314",
      "properties": {
        "timestamp": "2024-02-20T18:45:08Z",
        "version": 2,
        "changeset": 147704080,
        "addr:city": "Campos dos Goytacazes",
        "addr:housenumber": "643",
        "addr:postcode": "28020-740",
        "addr:street": "Avenida Vinte e Oito de Março",
        "addr:suburb": "Parque Santo Amaro",
        "brand": "Comfort",
        "name": "Comfort Hotel",
        "phone": "+55 22 2733 2200",
        "tourism": "hotel",
        "id": "node/2098957314"
      },
      "geometry": {
        "type": "Point",
        "coordinates": [
          -41.3325172,
          -21.7643492
        ]
      }
    },
    {
      "type": "Feature",
      "id": "node/3089179324",
      "properties": {
        "timestamp": "2014-09-21T15:03:16Z",
        "version": 1,
        "changeset": 25581226,
        "name": "Hotel Terrazzo",
        "tourism": "hotel",
        "id": "node/3089179324"
      },
      "geometry": {
        "type": "Point",
        "coordinates": [
          -41.3245682,
          -21.75732
        ]
      }
    },
    {
      "type": "Feature",
      "id": "node/11646485617",
      "properties": {
        "timestamp": "2024-02-20T18:45:08Z",
        "version": 1,
        "changeset": 147704080,
        "addr:city": "Campos dos Goytacazes",
        "addr:housenumber": "101",
        "addr:postcode": "28030-002",
        "addr:street": "Avenida Doutor Nilo Peçanha",
        "addr:suburb": "Parque Santo Amaro",
        "brand": "Hotel Gramado de Campos Limitada",
        "name": "Hotel Gramado",
        "tourism": "hotel",
        "id": "node/11646485617"
      },
      "geometry": {
        "type": "Point",
        "coordinates": [
          -41.3327007,
          -21.7653299
        ]
      }
    }
  ]
}
