{
  "type": "FeatureCollection",
  "features": [
    {
      "type": "Feature",
      "id": "way/1033350792",
      "properties": {
        "timestamp": "2022-02-19T22:21:47Z",
        "version": 1,
        "changeset": 117621212,
        "addr:city": "Santa Rosa do Tocantins",
        "addr:postcode": "77375-000",
        "addr:street": "Rua Um",
        "amenity": "school",
        "name": "Escola Municipal Pedro Rodrigues Neto",
        "phone": "+55 63 3388 5061",
        "id": "way/1033350792"
      },
      "geometry": {
        "type": "Polygon",
        "coordinates": [
          [
            [
              -47.9097046,
              -11.2995147
            ],
            [
              -47.9097958,
              -11.3000644
            ],
            [
              -47.9089268,
              -11.3002485
            ],
            [
              -47.9088061,
              -11.2997251
            ],
            [
              -47.9097046,
              -11.2995147
            ]
          ]
        ]
      }
    },
    {
      "type": "Feature",
      "id": "way/1033350796",
      "properties": {
        "timestamp": "2022-02-19T22:22:08Z",
        "version": 1,
        "changeset": 117621217,
        "amenity": "school",
        "name": "Escola Municipal Benedito Pinto",
        "id": "way/1033350796"
      },
      "geometry": {
        "type": "Polygon",
        "coordinates": [
          [
            [
              -47.909954,
              -11.2921
            ],
            [
              -47.9100238,
              -11.2927313
            ],
            [
              -47.9097234,
              -11.2927287
            ],
            [
              -47.9096375,
              -11.2921316
            ],
            [
              -47.909954,
              -11.2921
            ]
          ]
        ]
      }
    },
    {
      "type": "Feature",
      "id": "way/1033475362",
      "properties": {
        "timestamp": "2022-02-20T13:13:24Z",
        "version": 1,
        "changeset": 117638238,
        "addr:city": "Santa Rosa do Tocantins",
        "addr:postcode": "77375-000",
        "addr:street": "Rua Alice Aires",
        "addr:suburb": "Centro",
        "amenity": "school",
        "name": "Escola Municipal Tia Mireta",
        "phone": "+55 63 3388 1280",
        "id": "way/1033475362"
      },
      "geometry": {
        "type": "Polygon",
        "coordinates": [
          [
            [
              -48.1168462,
              -11.453638
            ],
            [
              -48.116696,
              -11.4541822
            ],
            [
              -48.1158109,
              -11.4539193
            ],
            [
              -48.1159584,
              -11.4534093
            ],
            [
              -48.1168462,
              -11.453638
            ]
          ]
        ]
      }
    },
    {
      "type": "Feature",
      "id": "way/1033475868",
      "properties": {
        "timestamp": "2022-02-20T13:14:39Z",
        "version": 1,
        "changeset": 117638294,
        "addr:city": "Santa Rosa do Tocantins",
        "addr:postcode": "77375-000",
        "addr:street": "Rua Angélica Ribeiro Aranha",
        "addr:suburb": "Centro",
        "amenity": "school",
        "name": "Esc Est Tenente Salvador Ribeiro",
        "phone": "+55 63 3388 1145",
        "id": "way/1033475868"
      },
      "geometry": {
        "type": "Polygon",
        "coordinates": [
          [
            [
              -48.115481,
              -11.4489614
            ],
            [
              -48.1153415,
              -11.4495187
            ],
            [
              -48.1144752,
              -11.4492742
            ],
            [
              -48.1146093,
              -11.4487248
            ],
            [
              -48.115481,
              -11.4489614
            ]
          ]
        ]
      }
    },
    {
      "type": "Feature",
      "id": "way/1033476554",
      "properties": {
        "timestamp": "2022-02-20T13:18:17Z",
        "version": 1,
        "changeset": 117638413,
        "addr:city": "Santa Rosa do Tocantins",
        "addr:housenumber": "281",
        "addr:postcode": "77375-000",
        "addr:street": "Avenida José Martins Torres",
        "addr:suburb": "Centro",
        "amenity": "school",
        "name": "Escola Estadual Professor Zacharias Nunes Da Silveira",
        "id": "way/1033476554"
      },
      "geometry": {
        "type": "Polygon",
        "coordinates": [
          [
            [
              -48.1206921,
              -11.4486965
            ],
            [
              -48.1205619,
              -11.4487942
            ],
            [
              -48.1199873,
              -11.4486626
            ],
            [
              -48.1200898,
              -11.4483437
            ],
            [
              -48.1203183,
              -11.4481795
            ],
            [
              -48.1206921,
              -11.4486965
            ]
          ]
        ]
      }
    },
    {
      "type": "Feature",
      "id": "node/9520679325",
      "properties": {
        "timestamp": "2022-02-20T00:08:12Z",
        "version": 1,
        "changeset": 117622865,
        "amenity": "school",
        "name": "Escola Municipal Vereador Jose Aires Da Silva",
        "id": "node/9520679325"
      },
      "geometry": {
        "type": "Point",
        "coordinates": [
          -48.354557,
          -11.3270544
        ]
      }
    },
    {
      "type": "Feature",
      "id": "node/9521593289",
      "properties": {
        "timestamp": "2022-02-20T13:15:26Z",
        "version": 1,
        "changeset": 117638318,
        "addr:city": "Santa Rosa do Tocantins",
        "addr:postcode": "77375-000",
        "addr:street": "Avenida José Martins Torres",
        "addr:suburb": "Centro",
        "amenity": "school",
        "name": "Creche Municipal Ana Thomaz Nunes - Tia Noca",
        "phone": "+55 63 3388 1149",
        "id": "node/9521593289"
      },
      "geometry": {
        "type": "Point",
        "coordinates": [
          -48.1196518,
          -11.4488746
        ]
      }
    },
    {
      "type": "Feature",
      "id": "node/9521671719",
      "properties": {
        "timestamp": "2022-02-20T13:19:20Z",
        "version": 1,
        "changeset": 117638462,
        "addr:city": "Santa Rosa do Tocantins",
        "addr:postcode": "77375-000",
        "addr:street": "Rua Rosa Nunes",
        "addr:suburb": "Centro",
        "amenity": "school",
        "name": "Centro Educacional Aquarela",
        "phone": "+55 63 3388 1101",
        "id": "node/9521671719"
      },
      "geometry": {
        "type": "Point",
        "coordinates": [
          -48.1207073,
          -11.448573
        ]
      }
    }
  ]
}
