{
  "type": "FeatureCollection",
  "features": [
    {
      "type": "Feature",
      "id": "way/966000213",
      "properties": {
        "timestamp": "2024-12-20T13:56:37Z",
        "version": 3,
        "changeset": 160434854,
        "addr:city": "São José de Ubá",
        "addr:postcode": "28445-000;28455000",
        "addr:street": "Avenida Gil Godinho de Oliveira",
        "addr:suburb": "Centro",
        "building": "yes",
        "government": "healthcare",
        "name": "Secretaria Municipal de Saúde de São José de Ubá",
        "office": "government",
        "operator": "Município",
        "operator:type": "public",
        "id": "way/966000213"
      },
      "geometry": {
        "type": "Polygon",
        "coordinates": [
          [
            [
              -41.9392181,
              -21.3586892
            ],
            [
              -41.9392117,
              -21.3586804
            ],
            [
              -41.9391948,
              -21.3586912
            ],
            [
              -41.9390751,
              -21.3585275
            ],
            [
              -41.9390908,
              -21.3585176
            ],
            [
              -41.9390679,
              -21.3584862
            ],
            [
              -41.9391967,
              -21.3584045
            ],
            [
              -41.9393105,
              -21.3585602
            ],
            [
              -41.9392829,
              -21.3585777
            ],
            [
              -41.9393181,
              -21.3586258
            ],
            [
              -41.9392181,
              -21.3586892
            ]
          ]
        ]
      }
    },
    {
      "type": "Feature",
      "id": "node/12436747695",
      "properties": {
        "timestamp": "2024-12-20T13:56:37Z",
        "version": 1,
        "changeset": 160434854,
        "addr:city": "São José de Ubá",
        "addr:housenumber": "150",
        "addr:postcode": "28455-000",
        "addr:street": "Praça Hamilton Machado Valeriote",
        "addr:suburb": "Centro",
        "government": "culture",
        "name": "Secretaria Municipal de Cultura de São José de Ubá",
        "office": "government",
        "id": "node/12436747695"
      },
      "geometry": {
        "type": "Point",
        "coordinates": [
          -41.9401532,
          -21.3581133
        ]
      }
    },
    {
      "type": "Feature",
      "id": "node/12436829917",
      "properties": {
        "timestamp": "2024-12-20T13:56:37Z",
        "version": 1,
        "changeset": 160434854,
        "addr:city": "São José de Ubá",
        "addr:postcode": "28455-000",
        "addr:street": "Rua José Guedes das Neves",
        "addr:suburb": "Nova Ubá",
        "government": "agriculture",
        "name": "Secretaria Municipal de Agricultura, Ciência e Tecnologia",
        "office": "government",
        "id": "node/12436829917"
      },
      "geometry": {
        "type": "Point",
        "coordinates": [
          -41.9372341,
          -21.3602897
        ]
      }
    },
    {
      "type": "Feature",
      "id": "node/12436829920",
      "properties": {
        "timestamp": "2024-12-20T13:56:37Z",
        "version": 1,
        "changeset": 160434854,
        "addr:city": "São José de Ubá",
        "addr:postcode": "28455-000",
        "addr:street": "Rua Alibabá de Souza Lessa",
        "addr:suburb": "Nova Ubá",
        "government": "administrative",
        "name": "Secretaria Municipal de Obras e Serviços Públicos",
        "office": "government",
        "id": "node/12436829920"
      },
      "geometry": {
        "type": "Point",
        "coordinates": [
          -41.9367183,
          -21.3598281
        ]
      }
    }
  ]
}
