{
  "type": "FeatureCollection",
  "features": [
    {
      "type": "Feature",
      "id": "way/966000209",
      "properties": {
        "timestamp": "2024-12-18T13:49:45Z",
        "version": 2,
        "changeset": 160352254,
        "addr:city": "São José de Ubá",
        "addr:postcode": "28455-000",
        "addr:street": "Rua Roque Rosa Vieira",
        "addr:suburb": "Centro",
        "amenity": "social_facility",
        "brand": "apae",
        "building": "school",
        "name": "Apae",
        "operator": "Associação de Pais e Amigos dos Excepcionais de São José de Ubá",
        "operator:type": "private",
        "social_facility": "childrens_centre",
        "social_facility:for": "disabled",
        "id": "way/966000209"
      },
      "geometry": {
        "type": "Polygon",
        "coordinates": [
          [
            [
              -41.9451294,
              -21.361305
            ],
            [
              -41.9449175,
              -21.3611938
            ],
            [
              -41.9451414,
              -21.3608241
            ],
            [
              -41.9453386,
              -21.3609278
            ],
            [
              -41.9451294,
              -21.361305
            ]
          ]
        ]
      }
    },
    {
      "type": "Feature",
      "id": "node/12436747697",
      "properties": {
        "timestamp": "2024-12-20T13:56:37Z",
        "version": 1,
        "changeset": 160434854,
        "addr:city": "São José de Ubá",
        "addr:postcode": "28455-000",
        "addr:street": "Rua José Guedes das Neves",
        "addr:suburb": "Nova Ubá",
        "amenity": "social_facility",
        "name": "Espaço da Melhor Idade",
        "operator": "Município São José de Ubá",
        "operator:type": "public",
        "id": "node/12436747697"
      },
      "geometry": {
        "type": "Point",
        "coordinates": [
          -41.9371972,
          -21.3601138
        ]
      }
    }
  ]
}
