{
  "type": "FeatureCollection",
  "features": [
    {
      "type": "Feature",
      "id": "node/6902747012",
      "properties": {
        "timestamp": "2019-11-03T12:14:03Z",
        "version": 2,
        "changeset": 76549521,
        "addr:city": "Martinópolis",
        "addr:postcode": "19500000",
        "addr:street": "R. Tacyan Menezes de Lucena",
        "addr:suburb": "Centro",
        "amenity": "library",
        "description": "Em Homenagem ao Escritor  de Literatura Brasileira, José Martiniano de Alencar (José de Alencar) a Biblioteca Municipal de Martinópolis pelo Prefeito Luiz Antônio Leite de Oliveira,  através da Lei nº 1.543 de 29 de Novembro de 1987...",
        "internet_access": "yes",
        "internet_access:fee": "no",
        "internet_access:ssid": "wifi livre",
        "name": "Biblioteca Municipal de Martinópolis",
        "operator": "Prefeitura de Martinópolis",
        "operator:type": "public",
        "start_date": "20 de Março de 1941",
        "website": "http://www.martinopolis.sp.gov.br/site/index.php?p=biblioteca",
        "wheelchair": "yes",
        "id": "node/6902747012"
      },
      "geometry": {
        "type": "Point",
        "coordinates": [
          -51.1716298,
          -22.1497863
        ]
      }
    }
  ]
}
