{
  "type": "FeatureCollection",
  "features": [
    {
      "type": "Feature",
      "id": "way/182049024",
      "properties": {
        "timestamp": "2015-01-16T03:46:23Z",
        "version": 2,
        "changeset": 28178322,
        "amenity": "school",
        "name": "Escola Municipal José Nunes dos Santos",
        "id": "way/182049024"
      },
      "geometry": {
        "type": "Polygon",
        "coordinates": [
          [
            [
              -51.0291997,
              -21.9926019
            ],
            [
              -51.029497,
              -21.9935529
            ],
            [
              -51.028334,
              -21.9938654
            ],
            [
              -51.0280368,
              -21.9929144
            ],
            [
              -51.0291997,
              -21.9926019
            ]
          ]
        ]
      }
    },
    {
      "type": "Feature",
      "id": "way/198528243",
      "properties": {
        "timestamp": "2018-07-16T01:31:20Z",
        "version": 3,
        "changeset": 60743700,
        "addr:city": "Martinópolis",
        "addr:housenumber": "980",
        "addr:postcode": "19500-000",
        "addr:street": "Avenida Padre João Schneider",
        "addr:suburb": "Centro",
        "amenity": "school",
        "barrier": "wall",
        "contact:phone": "+55 18 3275 4377",
        "email": "e032505a@educacao.sp.gov.br",
        "name": "Escola Estadual Coronel João Gomes Martins",
        "operator": "Secretaria da Educação do Estado de São Paulo",
        "phone": "+55 18 3275 1195",
        "id": "way/198528243"
      },
      "geometry": {
        "type": "Polygon",
        "coordinates": [
          [
            [
              -51.1777551,
              -22.1477194
            ],
            [
              -51.1774539,
              -22.1483853
            ],
            [
              -51.1763232,
              -22.1479467
            ],
            [
              -51.1766244,
              -22.1472808
            ],
            [
              -51.1777551,
              -22.1477194
            ]
          ]
        ]
      }
    },
    {
      "type": "Feature",
      "id": "way/608174537",
      "properties": {
        "timestamp": "2018-07-16T01:49:43Z",
        "version": 1,
        "changeset": 60743888,
        "addr:city": "Martinópolis",
        "addr:housenumber": "41",
        "addr:postcode": "19505-000",
        "addr:street": "Rua Vereador e Pioneiro Francisco Percinoto",
        "addr:suburb": "Teçaindá",
        "amenity": "school",
        "contact:phone": "+55 18 3274 1247",
        "email": "e032451a@educacao.sp.gov.br",
        "name": "Escola Estadual João Batista Berbet",
        "operator": "Secretaria da Educação do Estado de São Paulo",
        "phone": "+55 18 3274 1134",
        "id": "way/608174537"
      },
      "geometry": {
        "type": "Polygon",
        "coordinates": [
          [
            [
              -51.1371271,
              -22.0043632
            ],
            [
              -51.1364672,
              -22.004505
            ],
            [
              -51.1361668,
              -22.003468
            ],
            [
              -51.1368588,
              -22.0033063
            ],
            [
              -51.1371271,
              -22.0043632
            ]
          ]
        ]
      }
    }
  ]
}
