{
  "type": "FeatureCollection",
  "features": [
    {
      "type": "Feature",
      "id": "node/2476467400",
      "properties": {
        "timestamp": "2024-06-30T11:57:54Z",
        "version": 2,
        "changeset": 153365776,
        "name": "59° CIRETRAN",
        "office": "government",
        "id": "node/2476467400"
      },
      "geometry": {
        "type": "Point",
        "coordinates": [
          -57.2802237,
          -14.7736931
        ]
      }
    },
    {
      "type": "Feature",
      "id": "node/12036122977",
      "properties": {
        "timestamp": "2024-08-09T14:48:04Z",
        "version": 3,
        "changeset": 155027172,
        "addr:city": "Nova Olímpia",
        "addr:housenumber": "51",
        "addr:postcode": "78370000",
        "addr:street": "Rua Geraldo Gregório da Silva",
        "addr:suburb": "São João",
        "air_conditioning": "yes",
        "government": "public_service",
        "name": "Núcleo de Fiscalização e Arrecadação / Sala do Empreendedor",
        "office": "government",
        "phone": "06533321269",
        "website": "https://linktr.ee/saladoempreendedor.no",
        "wheelchair": "yes",
        "id": "node/12036122977"
      },
      "geometry": {
        "type": "Point",
        "coordinates": [
          -57.2849878,
          -14.7765201
        ]
      }
    },
    {
      "type": "Feature",
      "id": "node/12040975434",
      "properties": {
        "timestamp": "2024-07-08T05:44:13Z",
        "version": 1,
        "changeset": 153686850,
        "government": "public_service",
        "name": "Secretaria de Saúde",
        "office": "government",
        "opening_hours": "Mo-Fr 08:00-17:00",
        "id": "node/12040975434"
      },
      "geometry": {
        "type": "Point",
        "coordinates": [
          -57.2913431,
          -14.782445
        ]
      }
    },
    {
      "type": "Feature",
      "id": "node/12139287082",
      "properties": {
        "timestamp": "2024-08-27T06:55:08Z",
        "version": 1,
        "changeset": 155813931,
        "government": "register_office",
        "name": "Cartório Central",
        "office": "government",
        "id": "node/12139287082"
      },
      "geometry": {
        "type": "Point",
        "coordinates": [
          -57.2887974,
          -14.7820486
        ]
      }
    }
  ]
}
