{
  "type": "FeatureCollection",
  "features": [
    {
      "type": "Feature",
      "id": "node/4024904848",
      "properties": {
        "timestamp": "2016-02-25T01:59:40Z",
        "version": 1,
        "changeset": 37426154,
        "IJSN:administra": "Estadual",
        "IJSN:classeCnae": "Fundamental e Médio",
        "addr:city": "São Domingos do Norte",
        "addr:housenumber": "98",
        "addr:postcode": "29745-000",
        "addr:street": "Rua Thereza Fiorentini",
        "addr:suburb": "Centro",
        "alt_name": "Escola Estadual de Ensino Fundamental e Médio",
        "amenity": "school",
        "contact:phone": "(27) 3742-1050",
        "name": "EEEFM São Domingos",
        "source": "IJSN",
        "id": "node/4024904848"
      },
      "geometry": {
        "type": "Point",
        "coordinates": [
          -40.6225999,
          -19.1474812
        ]
      }
    },
    {
      "type": "Feature",
      "id": "node/4024905286",
      "properties": {
        "timestamp": "2016-02-25T02:00:19Z",
        "version": 1,
        "changeset": 37426154,
        "IJSN:administra": "Municipal",
        "IJSN:classeCnae": "Infantil e Fundamental",
        "addr:city": "São Domingos do Norte",
        "addr:postcode": "29745-000",
        "addr:street": "Estrada Municipal",
        "addr:suburb": "Fazenda Braço do Sul",
        "alt_name": "Escola Municipal de Ensino Fundamental",
        "amenity": "school",
        "contact:phone": "(27) 9947-4466",
        "name": "EMEF Braço do Sul",
        "source": "IJSN",
        "id": "node/4024905286"
      },
      "geometry": {
        "type": "Point",
        "coordinates": [
          -40.6805431,
          -19.1106103
        ]
      }
    },
    {
      "type": "Feature",
      "id": "node/4024905404",
      "properties": {
        "timestamp": "2016-02-25T02:00:22Z",
        "version": 1,
        "changeset": 37426154,
        "IJSN:administra": "Municipal",
        "IJSN:classeCnae": "Infantil e Fundamental",
        "addr:city": "São Domingos do Norte",
        "addr:postcode": "29745-000",
        "addr:suburb": "Córrego Dumer",
        "alt_name": "Escola Municipal de Ensino Fundamental",
        "amenity": "school",
        "contact:phone": "(27) 9926-0157",
        "name": "EMEF Córrego Dumer",
        "source": "IJSN",
        "id": "node/4024905404"
      },
      "geometry": {
        "type": "Point",
        "coordinates": [
          -40.4689707,
          -19.0817318
        ]
      }
    },
    {
      "type": "Feature",
      "id": "node/4024905408",
      "properties": {
        "timestamp": "2016-02-25T02:00:23Z",
        "version": 1,
        "changeset": 37426154,
        "IJSN:administra": "Municipal",
        "IJSN:classeCnae": "Fundamental",
        "addr:city": "São Domingos do Norte",
        "addr:postcode": "29745-000",
        "addr:suburb": "Comunidade Córrego Divisa",
        "alt_name": "Escola Municipal de Ensino Fundamental",
        "amenity": "school",
        "contact:phone": "(27) 9729-1066",
        "name": "EMEF Córrego da Divisa",
        "source": "IJSN",
        "id": "node/4024905408"
      },
      "geometry": {
        "type": "Point",
        "coordinates": [
          -40.5641685,
          -19.1204583
        ]
      }
    },
    {
      "type": "Feature",
      "id": "node/4024905647",
      "properties": {
        "timestamp": "2016-02-25T02:00:46Z",
        "version": 1,
        "changeset": 37426154,
        "IJSN:administra": "Municipal",
        "IJSN:classeCnae": "Infantil e Fundamental",
        "addr:city": "São Domingos do Norte",
        "addr:postcode": "29745-000",
        "addr:suburb": "Comunidade Santo Antônio de Novo Brasil",
        "alt_name": "Escola Municipal de Ensino Fundamental",
        "amenity": "school",
        "contact:phone": "(27) 9969-2785",
        "name": "EMEF Patrimônio de Santo Antônio",
        "source": "IJSN",
        "id": "node/4024905647"
      },
      "geometry": {
        "type": "Point",
        "coordinates": [
          -40.4197626,
          -19.0779671
        ]
      }
    },
    {
      "type": "Feature",
      "id": "node/4024906675",
      "properties": {
        "timestamp": "2016-02-25T02:02:24Z",
        "version": 1,
        "changeset": 37426154,
        "IJSN:administra": "Municipal",
        "IJSN:classeCnae": "Fundamental",
        "addr:city": "São Domingos do Norte",
        "addr:postcode": "29745-000",
        "addr:suburb": "Centro",
        "alt_name": "Escola Pluridocente Municipal",
        "amenity": "school",
        "contact:phone": "(27) 3742-1979",
        "name": "EPM Ananias Custódio",
        "source": "IJSN",
        "id": "node/4024906675"
      },
      "geometry": {
        "type": "Point",
        "coordinates": [
          -40.6236316,
          -19.1446559
        ]
      }
    },
    {
      "type": "Feature",
      "id": "node/4024906686",
      "properties": {
        "timestamp": "2016-02-25T02:02:26Z",
        "version": 1,
        "changeset": 37426154,
        "IJSN:administra": "Municipal",
        "IJSN:classeCnae": "Fundamental",
        "addr:city": "São Domingos do Norte",
        "addr:postcode": "29745-000",
        "addr:street": "Rodovia ES 080",
        "addr:suburb": "Córrego São Gonçalo",
        "alt_name": "Escola Pluridocente Municipal",
        "amenity": "school",
        "name": "EPM Córrego São Gonçalo",
        "source": "IJSN",
        "id": "node/4024906686"
      },
      "geometry": {
        "type": "Point",
        "coordinates": [
          -40.6349642,
          -19.2306489
        ]
      }
    },
    {
      "type": "Feature",
      "id": "node/4024906838",
      "properties": {
        "timestamp": "2016-02-25T02:02:34Z",
        "version": 1,
        "changeset": 37426154,
        "IJSN:administra": "Municipal",
        "IJSN:classeCnae": "Fundamental",
        "addr:city": "São Domingos do Norte",
        "addr:postcode": "29745-000",
        "addr:suburb": "Córrego Boa Esperança",
        "alt_name": "Escola Unidocente Municipal",
        "amenity": "school",
        "name": "EUM Adventista Luis Ludtke",
        "source": "IJSN",
        "id": "node/4024906838"
      },
      "geometry": {
        "type": "Point",
        "coordinates": [
          -40.5101356,
          -19.0772661
        ]
      }
    },
    {
      "type": "Feature",
      "id": "node/4024906839",
      "properties": {
        "timestamp": "2016-02-25T02:02:34Z",
        "version": 1,
        "changeset": 37426154,
        "IJSN:administra": "Municipal",
        "IJSN:classeCnae": "Fundamental",
        "addr:city": "São Domingos do Norte",
        "addr:postcode": "29745-000",
        "addr:suburb": "Córrego Bela Vista",
        "alt_name": "Escola Unidocente Municipal",
        "amenity": "school",
        "name": "EUM Adventista de Bela Vista",
        "source": "IJSN",
        "id": "node/4024906839"
      },
      "geometry": {
        "type": "Point",
        "coordinates": [
          -40.5101809,
          -19.1023949
        ]
      }
    },
    {
      "type": "Feature",
      "id": "node/4024906840",
      "properties": {
        "timestamp": "2016-02-25T02:02:34Z",
        "version": 1,
        "changeset": 37426154,
        "IJSN:administra": "Municipal",
        "IJSN:classeCnae": "Fundamental",
        "addr:city": "São Domingos do Norte",
        "addr:postcode": "29745-000",
        "addr:suburb": "Comunidade Córrego Maromba",
        "alt_name": "Escola Unidocente Municipal",
        "amenity": "school",
        "name": "EUM Adventista de Morobá",
        "source": "IJSN",
        "id": "node/4024906840"
      },
      "geometry": {
        "type": "Point",
        "coordinates": [
          -40.5438135,
          -19.110071
        ]
      }
    },
    {
      "type": "Feature",
      "id": "node/4024906849",
      "properties": {
        "timestamp": "2016-02-25T02:02:36Z",
        "version": 1,
        "changeset": 37426154,
        "IJSN:administra": "Municipal",
        "IJSN:classeCnae": "Fundamental",
        "addr:city": "São Domingos do Norte",
        "addr:postcode": "29745-000",
        "addr:suburb": "Fazenda Pupim",
        "alt_name": "Escola Unidocente Municipal",
        "amenity": "school",
        "name": "EUM Braço do Sul",
        "source": "IJSN",
        "id": "node/4024906849"
      },
      "geometry": {
        "type": "Point",
        "coordinates": [
          -40.6080106,
          -19.076135
        ]
      }
    },
    {
      "type": "Feature",
      "id": "node/4024906855",
      "properties": {
        "timestamp": "2016-02-25T02:02:37Z",
        "version": 1,
        "changeset": 37426154,
        "IJSN:administra": "Municipal",
        "IJSN:classeCnae": "Fundamental",
        "addr:city": "São Domingos do Norte",
        "addr:postcode": "29745-000",
        "addr:suburb": "Córrego Alegre",
        "alt_name": "Escola Unidocente Municipal",
        "amenity": "school",
        "name": "EUM Córrego Alegre",
        "source": "IJSN",
        "id": "node/4024906855"
      },
      "geometry": {
        "type": "Point",
        "coordinates": [
          -40.5053464,
          -19.1296894
        ]
      }
    },
    {
      "type": "Feature",
      "id": "node/4024906857",
      "properties": {
        "timestamp": "2016-02-25T02:02:37Z",
        "version": 1,
        "changeset": 37426154,
        "IJSN:administra": "Municipal",
        "IJSN:classeCnae": "Fundamental",
        "addr:city": "São Domingos do Norte",
        "addr:postcode": "29745-000",
        "addr:suburb": "Córrego São Benedito",
        "alt_name": "Escola Unidocente Municipal",
        "amenity": "school",
        "name": "EUM Córrego Dumer",
        "source": "IJSN",
        "id": "node/4024906857"
      },
      "geometry": {
        "type": "Point",
        "coordinates": [
          -40.4826863,
          -19.1017967
        ]
      }
    },
    {
      "type": "Feature",
      "id": "node/4024906858",
      "properties": {
        "timestamp": "2016-02-25T02:02:37Z",
        "version": 1,
        "changeset": 37426154,
        "IJSN:administra": "Municipal",
        "IJSN:classeCnae": "Fundamental",
        "addr:city": "São Domingos do Norte",
        "addr:postcode": "29745-000",
        "addr:suburb": "Córrego Feio",
        "alt_name": "Escola Unidocente Municipal",
        "amenity": "school",
        "name": "EUM Córrego Feio",
        "source": "IJSN",
        "id": "node/4024906858"
      },
      "geometry": {
        "type": "Point",
        "coordinates": [
          -40.500897,
          -19.0882751
        ]
      }
    },
    {
      "type": "Feature",
      "id": "node/4024906861",
      "properties": {
        "timestamp": "2016-02-25T02:02:38Z",
        "version": 1,
        "changeset": 37426154,
        "IJSN:administra": "Municipal",
        "IJSN:classeCnae": "Fundamental",
        "addr:city": "São Domingos do Norte",
        "addr:postcode": "29745-000",
        "addr:suburb": "Comunidade Córrego Negro",
        "alt_name": "Escola Unidocente Municipal",
        "amenity": "school",
        "name": "EUM Córrego Negro",
        "source": "IJSN",
        "id": "node/4024906861"
      },
      "geometry": {
        "type": "Point",
        "coordinates": [
          -40.5930843,
          -19.1562985
        ]
      }
    },
    {
      "type": "Feature",
      "id": "node/4024906878",
      "properties": {
        "timestamp": "2016-02-25T02:02:40Z",
        "version": 1,
        "changeset": 37426154,
        "IJSN:administra": "Municipal",
        "IJSN:classeCnae": "Fundamental",
        "addr:city": "São Domingos do Norte",
        "addr:postcode": "29745-000",
        "addr:suburb": "Comunidade Catete",
        "alt_name": "Escola Unidocente Municipal",
        "amenity": "school",
        "name": "EUM Manoel Rozindo da Silva",
        "source": "IJSN",
        "id": "node/4024906878"
      },
      "geometry": {
        "type": "Point",
        "coordinates": [
          -40.5158932,
          -19.0598238
        ]
      }
    },
    {
      "type": "Feature",
      "id": "node/4024906883",
      "properties": {
        "timestamp": "2016-02-25T02:02:41Z",
        "version": 1,
        "changeset": 37426154,
        "IJSN:administra": "Municipal",
        "IJSN:classeCnae": "Fundamental",
        "addr:city": "São Domingos do Norte",
        "addr:postcode": "29745-000",
        "addr:suburb": "Patrimônio de São Francisco",
        "alt_name": "Escola Unidocente Municipal",
        "amenity": "school",
        "name": "EUM Patrimônio de São Francisco",
        "source": "IJSN",
        "id": "node/4024906883"
      },
      "geometry": {
        "type": "Point",
        "coordinates": [
          -40.5338353,
          -19.1301529
        ]
      }
    },
    {
      "type": "Feature",
      "id": "node/4024906894",
      "properties": {
        "timestamp": "2016-02-25T02:02:43Z",
        "version": 1,
        "changeset": 37426154,
        "IJSN:administra": "Municipal",
        "IJSN:classeCnae": "Fundamental",
        "addr:city": "São Domingos do Norte",
        "addr:postcode": "29745-000",
        "addr:suburb": "Córrego Dumer",
        "alt_name": "Escola Unidocente Municipal",
        "amenity": "school",
        "name": "EUM São Paulo da Cruz",
        "source": "IJSN",
        "id": "node/4024906894"
      },
      "geometry": {
        "type": "Point",
        "coordinates": [
          -40.465536,
          -19.0743566
        ]
      }
    }
  ]
}
