{
  "type": "FeatureCollection",
  "features": [
    {
      "type": "Feature",
      "id": "way/182301698",
      "properties": {
        "timestamp": "2024-09-30T07:31:03Z",
        "version": 3,
        "changeset": 157283099,
        "addr:city": "Bauru",
        "addr:street": "Rua Bartolomeu de Gusmão",
        "amenity": "dentist",
        "building": "yes",
        "healthcare": "dentist",
        "name": "Mantenus",
        "wikidata": "Q130337311",
        "id": "way/182301698"
      },
      "geometry": {
        "type": "Polygon",
        "coordinates": [
          [
            [
              -49.0579704,
              -22.3478318
            ],
            [
              -49.0577396,
              -22.3480301
            ],
            [
              -49.0576725,
              -22.3479633
            ],
            [
              -49.0579032,
              -22.347765
            ],
            [
              -49.0579704,
              -22.3478318
            ]
          ]
        ]
      }
    },
    {
      "type": "Feature",
      "id": "way/1319538497",
      "properties": {
        "timestamp": "2024-09-30T07:13:35Z",
        "version": 1,
        "changeset": 157282503,
        "addr:city": "Bauru",
        "addr:street": "Rua Martinho Bueno",
        "amenity": "dentist",
        "building": "yes",
        "healthcare": "dentist",
        "name": "Odontologia",
        "wikidata": "Q130337313",
        "id": "way/1319538497"
      },
      "geometry": {
        "type": "Polygon",
        "coordinates": [
          [
            [
              -49.066203,
              -22.3446445
            ],
            [
              -49.066096,
              -22.3449797
            ],
            [
              -49.0660013,
              -22.3449538
            ],
            [
              -49.0661083,
              -22.3446186
            ],
            [
              -49.066203,
              -22.3446445
            ]
          ]
        ]
      }
    },
    {
      "type": "Feature",
      "id": "node/12211140322",
      "properties": {
        "timestamp": "2024-09-30T08:01:34Z",
        "version": 1,
        "changeset": 157284238,
        "addr:city": "Bauru",
        "addr:housenumber": "1015",
        "addr:street": "Avenida Comendador José da Silva Martha",
        "amenity": "dentist",
        "healthcare": "dentist",
        "name": "Dabus Odontologia",
        "id": "node/12211140322"
      },
      "geometry": {
        "type": "Point",
        "coordinates": [
          -49.0752829,
          -22.3428307
        ]
      }
    },
    {
      "type": "Feature",
      "id": "node/12496697339",
      "properties": {
        "timestamp": "2025-01-13T01:43:13Z",
        "version": 2,
        "changeset": 161292967,
        "addr:city": "Bauru",
        "addr:housenumber": "19-52",
        "addr:postcode": "17012110",
        "addr:street": "Rua Gustavo Maciel",
        "addr:suburb": "Jardim Nasralla",
        "amenity": "dentist",
        "check_date": "2025-01-12",
        "contact:facebook": "https://www.facebook.com/share/1HEuQhHhF8/?mibextid=wwXIfr",
        "contact:instagram": "https://www.instagram.com/pamorimdr?igsh=MWNidzUxMTY4NW96NQ%3D%3D&utm_source=qr",
        "currency:XBT": "yes",
        "healthcare": "dentist",
        "healthcare:speciality": "dental_oral_maxillo_facial_surgery;dentistry;dentist",
        "mobile": "+55 14 99899 4846",
        "name": "IOMCA - (Dr Pedro Amorim)",
        "opening_hours": "Mo-Sa 08:00-18:00",
        "operator": "Dr Pedro Amorim",
        "payment:lightning": "yes",
        "payment:lightning_contactless": "yes",
        "payment:nfc": "yes",
        "payment:onchain": "yes",
        "id": "node/12496697339"
      },
      "geometry": {
        "type": "Point",
        "coordinates": [
          -49.0685804,
          -22.3314336
        ]
      }
    }
  ]
}
