{
  "type": "FeatureCollection",
  "features": [
    {
      "type": "Feature",
      "id": "way/1251753049",
      "properties": {
        "timestamp": "2024-02-17T19:17:06Z",
        "version": 1,
        "changeset": 147584644,
        "addr:city": "Itapecerica da Serra",
        "addr:housenumber": "18",
        "addr:postcode": "06850905",
        "addr:street": "Praça Professor Porcino Rodrigues",
        "addr:suburb": "Centro",
        "amenity": "dentist",
        "building": "yes",
        "healthcare": "dentist",
        "name": "Clínica Brasil Sorriso",
        "id": "way/1251753049"
      },
      "geometry": {
        "type": "Polygon",
        "coordinates": [
          [
            [
              -46.849508,
              -23.7145942
            ],
            [
              -46.8495963,
              -23.7148348
            ],
            [
              -46.8494359,
              -23.7148842
            ],
            [
              -46.8493475,
              -23.7146436
            ],
            [
              -46.849508,
              -23.7145942
            ]
          ]
        ]
      }
    },
    {
      "type": "Feature",
      "id": "way/1251756555",
      "properties": {
        "timestamp": "2024-02-17T19:40:22Z",
        "version": 2,
        "changeset": 147585268,
        "addr:city": "Itapecerica da Serra",
        "addr:housenumber": "214A",
        "addr:postcode": "06850-100",
        "addr:street": "Avenida Quinze de Novembro",
        "addr:suburb": "Centro",
        "amenity": "dentist",
        "healthcare": "dentist",
        "name": "Bella Odonto Dentista",
        "id": "way/1251756555"
      },
      "geometry": {
        "type": "Polygon",
        "coordinates": [
          [
            [
              -46.8492062,
              -23.7144866
            ],
            [
              -46.8492393,
              -23.7146234
            ],
            [
              -46.8489319,
              -23.7146843
            ],
            [
              -46.8489302,
              -23.7145547
            ],
            [
              -46.8490379,
              -23.7145281
            ],
            [
              -46.8491876,
              -23.7144912
            ],
            [
              -46.8492062,
              -23.7144866
            ]
          ]
        ]
      }
    },
    {
      "type": "Feature",
      "id": "way/1251759575",
      "properties": {
        "timestamp": "2024-02-17T19:46:58Z",
        "version": 2,
        "changeset": 147585481,
        "addr:city": "Itapecerica da Serra",
        "addr:housenumber": "244",
        "addr:postcode": "06850-100",
        "addr:street": "Avenida Quinze de Novembro",
        "addr:suburb": "Centro",
        "amenity": "dentist",
        "building": "yes",
        "healthcare": "dentist",
        "name": "Sorridents Itapecerica da Serra",
        "opening_hours": "Seg-sexta, 08-20, sab 08-18",
        "id": "way/1251759575"
      },
      "geometry": {
        "type": "Polygon",
        "coordinates": [
          [
            [
              -46.8490615,
              -23.7141343
            ],
            [
              -46.8490757,
              -23.7142073
            ],
            [
              -46.8487377,
              -23.7142737
            ],
            [
              -46.8487164,
              -23.7142056
            ],
            [
              -46.8487623,
              -23.7141961
            ],
            [
              -46.8490615,
              -23.7141343
            ]
          ]
        ]
      }
    },
    {
      "type": "Feature",
      "id": "way/1251760769",
      "properties": {
        "timestamp": "2024-02-17T19:55:35Z",
        "version": 1,
        "changeset": 147585722,
        "addr:city": "Itapecerica da Serra",
        "addr:housenumber": "233",
        "addr:postcode": "06550",
        "addr:street": "Avenida Quinze de Novembro",
        "addr:suburb": "Centro",
        "amenity": "dentist",
        "healthcare": "dentist",
        "name": "OdontoCompany",
        "id": "way/1251760769"
      },
      "geometry": {
        "type": "Polygon",
        "coordinates": [
          [
            [
              -46.8495937,
              -23.7141844
            ],
            [
              -46.8496014,
              -23.7142436
            ],
            [
              -46.8493117,
              -23.7143311
            ],
            [
              -46.8492778,
              -23.7142733
            ],
            [
              -46.8495937,
              -23.7141844
            ]
          ]
        ]
      }
    },
    {
      "type": "Feature",
      "id": "node/8957693377",
      "properties": {
        "timestamp": "2021-07-28T16:03:49Z",
        "version": 1,
        "changeset": 108768744,
        "addr:street": "Avenida Quinze de Novembro",
        "addr:suburb": "Centro",
        "amenity": "dentist",
        "contact:mobile": "+55 11 96604 6422",
        "healthcare": "dentist",
        "name": "Nascimento odontologia Especealizada",
        "phone": "+55 11 4566 0066",
        "id": "node/8957693377"
      },
      "geometry": {
        "type": "Point",
        "coordinates": [
          -46.8494399,
          -23.7106969
        ]
      }
    },
    {
      "type": "Feature",
      "id": "node/11635598314",
      "properties": {
        "timestamp": "2024-02-17T20:02:14Z",
        "version": 1,
        "changeset": 147585947,
        "addr:city": "Itapecerica da Serra",
        "addr:housenumber": "268",
        "addr:postcode": "06850-060",
        "addr:street": "Rua São João",
        "addr:suburb": "Centro",
        "amenity": "dentist",
        "healthcare": "dentist",
        "name": "OdontoMille",
        "id": "node/11635598314"
      },
      "geometry": {
        "type": "Point",
        "coordinates": [
          -46.8500093,
          -23.7136717
        ]
      }
    }
  ]
}
