{
  "type": "FeatureCollection",
  "features": [
    {
      "type": "Feature",
      "id": "way/1251760658",
      "properties": {
        "timestamp": "2024-02-17T19:53:59Z",
        "version": 1,
        "changeset": 147585688,
        "addr:city": "Itapecerica da Serra",
        "addr:housenumber": "215",
        "addr:postcode": "06850-100",
        "addr:street": "Avenida Quinze de Novembro",
        "addr:suburb": "Centro",
        "amenity": "doctors",
        "building": "yes",
        "healthcare": "doctor",
        "healthcare:speciality": "ophthalmology",
        "name": "Olhar Certo Clínicas Oftalmológicas",
        "id": "way/1251760658"
      },
      "geometry": {
        "type": "Polygon",
        "coordinates": [
          [
            [
              -46.8495937,
              -23.7142535
            ],
            [
              -46.8496106,
              -23.7142549
            ],
            [
              -46.8496368,
              -23.7143085
            ],
            [
              -46.8493148,
              -23.7144129
            ],
            [
              -46.8492825,
              -23.7143508
            ],
            [
              -46.8495937,
              -23.7142535
            ]
          ]
        ]
      }
    },
    {
      "type": "Feature",
      "id": "way/1251775635",
      "properties": {
        "timestamp": "2024-02-17T21:12:20Z",
        "version": 1,
        "changeset": 147588021,
        "addr:city": "Itapecerica da Serra",
        "addr:housenumber": "35",
        "addr:postcode": "06850-125",
        "addr:street": "Praça Ferreira Domingues",
        "addr:suburb": "Centro",
        "amenity": "doctors",
        "building": "yes",
        "healthcare": "doctor",
        "healthcare:speciality": "orthopaedics",
        "name": "Cotis Clínica de Ortopedia e Traumatologia",
        "id": "way/1251775635"
      },
      "geometry": {
        "type": "Polygon",
        "coordinates": [
          [
            [
              -46.849498,
              -23.7133616
            ],
            [
              -46.8495915,
              -23.7133169
            ],
            [
              -46.8496362,
              -23.7134658
            ],
            [
              -46.8495305,
              -23.7134975
            ],
            [
              -46.849498,
              -23.7133616
            ]
          ]
        ]
      }
    }
  ]
}
