{
  "type": "FeatureCollection",
  "features": [
    {
      "type": "Feature",
      "id": "way/624565549",
      "properties": {
        "timestamp": "2023-04-18T00:55:46Z",
        "version": 3,
        "changeset": 135036854,
        "addr:city": "Itapecirica da Serra",
        "addr:housenumber": "286",
        "addr:street": "Rua Major Manoel Francisco de Moraes",
        "addr:suburb": "Centro",
        "building": "public",
        "building:levels": "1",
        "government": "healthcare",
        "name": "Secretaria da Saúde",
        "office": "government",
        "id": "way/624565549"
      },
      "geometry": {
        "type": "Polygon",
        "coordinates": [
          [
            [
              -46.851301,
              -23.7145808
            ],
            [
              -46.851242,
              -23.7146736
            ],
            [
              -46.8510484,
              -23.7145704
            ],
            [
              -46.8511074,
              -23.7144776
            ],
            [
              -46.851301,
              -23.7145808
            ]
          ]
        ]
      }
    },
    {
      "type": "Feature",
      "id": "way/965411161",
      "properties": {
        "timestamp": "2021-07-18T17:54:04Z",
        "version": 1,
        "changeset": 108202467,
        "building": "yes",
        "government": "administrative",
        "name": "Agência Nacional de Transportes Terrestres",
        "office": "government",
        "id": "way/965411161"
      },
      "geometry": {
        "type": "Polygon",
        "coordinates": [
          [
            [
              -46.9093067,
              -23.767303
            ],
            [
              -46.9093329,
              -23.7673434
            ],
            [
              -46.9092929,
              -23.7673699
            ],
            [
              -46.9092598,
              -23.7673257
            ],
            [
              -46.9093067,
              -23.767303
            ]
          ]
        ]
      }
    },
    {
      "type": "Feature",
      "id": "way/967127806",
      "properties": {
        "timestamp": "2024-02-13T16:30:25Z",
        "version": 3,
        "changeset": 147416798,
        "addr:housenumber": "1030",
        "addr:street": "Avenida Quinze de Novembro",
        "addr:suburb": "Centro",
        "building": "yes",
        "government": "social_security",
        "name": "Instituto Nacional do Seguro Social - INSS",
        "office": "government",
        "operator": "Instituto Nacional do Seguro Social",
        "operator:short": "INSS",
        "operator:wikidata": "Q10302614",
        "website": "https://www.gov.br/inss/pt-br",
        "id": "way/967127806"
      },
      "geometry": {
        "type": "Polygon",
        "coordinates": [
          [
            [
              -46.8498682,
              -23.707843
            ],
            [
              -46.8497909,
              -23.7080297
            ],
            [
              -46.8494163,
              -23.7078806
            ],
            [
              -46.8495065,
              -23.7076926
            ],
            [
              -46.8498682,
              -23.707843
            ]
          ]
        ]
      }
    },
    {
      "type": "Feature",
      "id": "way/1251776851",
      "properties": {
        "timestamp": "2024-02-17T21:17:55Z",
        "version": 1,
        "changeset": 147588178,
        "addr:city": "Itapecerica da Serra",
        "addr:street": "Rua Major Manuel Francisco de Moraes",
        "addr:suburb": "Centro",
        "building": "yes",
        "government": "yes",
        "name": "Secretaria de Trânsito e Transporte, Segurança e Defesa Civil",
        "office": "government",
        "id": "way/1251776851"
      },
      "geometry": {
        "type": "Polygon",
        "coordinates": [
          [
            [
              -46.8505113,
              -23.7134814
            ],
            [
              -46.8507165,
              -23.713577
            ],
            [
              -46.8505325,
              -23.7138086
            ],
            [
              -46.8502564,
              -23.7136547
            ],
            [
              -46.8505113,
              -23.7134814
            ]
          ]
        ]
      }
    },
    {
      "type": "Feature",
      "id": "way/1251777141",
      "properties": {
        "timestamp": "2024-02-17T21:21:12Z",
        "version": 1,
        "changeset": 147588274,
        "addr:city": "Itapecerica da Serra",
        "addr:street": "Rua Major Manuel Francisco de Moraes",
        "addr:suburb": "Centro",
        "building": "yes",
        "government": "yes",
        "name": "Poupatempo Itapecerics",
        "office": "government",
        "id": "way/1251777141"
      },
      "geometry": {
        "type": "Polygon",
        "coordinates": [
          [
            [
              -46.8529459,
              -23.7149464
            ],
            [
              -46.8528008,
              -23.7150518
            ],
            [
              -46.852615,
              -23.7150469
            ],
            [
              -46.8525301,
              -23.7149805
            ],
            [
              -46.8528397,
              -23.7147698
            ],
            [
              -46.8529618,
              -23.7149432
            ],
            [
              -46.8529459,
              -23.7149464
            ]
          ]
        ]
      }
    },
    {
      "type": "Feature",
      "id": "node/8936268635",
      "properties": {
        "timestamp": "2021-07-20T16:25:31Z",
        "version": 1,
        "changeset": 108329599,
        "addr:housenumber": "100",
        "addr:postcode": "06850-840",
        "addr:street": "Rua Treze de Maio",
        "addr:suburb": "Centro",
        "government": "administrative",
        "name": "240ª Ciretran Itapecerica da Serra",
        "office": "government",
        "opening_hours": "Mo-Fr 09:00-17:00; Sa,Su,PH off",
        "id": "node/8936268635"
      },
      "geometry": {
        "type": "Point",
        "coordinates": [
          -46.8482669,
          -23.7182532
        ]
      }
    },
    {
      "type": "Feature",
      "id": "node/8936268639",
      "properties": {
        "timestamp": "2021-07-20T16:25:31Z",
        "version": 1,
        "changeset": 108329599,
        "addr:housenumber": "100",
        "addr:postcode": "06850-840",
        "addr:street": "Rua Treze de Maio",
        "addr:suburb": "Centro",
        "government": "administrative",
        "name": "Ministério do Trabalho e Emprego",
        "office": "government",
        "id": "node/8936268639"
      },
      "geometry": {
        "type": "Point",
        "coordinates": [
          -46.8483092,
          -23.7183182
        ]
      }
    },
    {
      "type": "Feature",
      "id": "node/8936268640",
      "properties": {
        "timestamp": "2021-07-20T16:25:31Z",
        "version": 1,
        "changeset": 108329599,
        "addr:housenumber": "100",
        "addr:postcode": "06850-840",
        "addr:street": "Rua Treze de Maio",
        "addr:suburb": "Centro",
        "government": "administrative",
        "name": "PAT - Posto de Atendimento ao Trabalhador",
        "office": "government",
        "id": "node/8936268640"
      },
      "geometry": {
        "type": "Point",
        "coordinates": [
          -46.8483515,
          -23.7183545
        ]
      }
    },
    {
      "type": "Feature",
      "id": "node/8936268642",
      "properties": {
        "timestamp": "2021-07-20T16:25:31Z",
        "version": 1,
        "changeset": 108329599,
        "addr:housenumber": "100",
        "addr:postcode": "06850-840",
        "addr:street": "Rua Treze de Maio",
        "addr:suburb": "Centro",
        "government": "administrative",
        "name": "Banco do Povo",
        "office": "government",
        "id": "node/8936268642"
      },
      "geometry": {
        "type": "Point",
        "coordinates": [
          -46.848445,
          -23.7184228
        ]
      }
    },
    {
      "type": "Feature",
      "id": "node/8936561779",
      "properties": {
        "timestamp": "2021-07-23T16:51:35Z",
        "version": 2,
        "changeset": 108504659,
        "addr:postcode": "06850-845",
        "addr:street": "Rua David Farah",
        "addr:suburb": "Jardim Santa Izabel",
        "contact:phone": "+55 11 4666 5526",
        "email": "ze201@tre-sp.jus.br",
        "fax": "+55 11 4667 4178",
        "government": "register_office",
        "name": "Cartório Eleitoral 201ª Zona",
        "office": "government",
        "opening_hours": "Mo-Fr 12:00-18:00; Sa,Su,PH off",
        "phone": "+55 11 4666 3128",
        "source": "https://www.tre-sp.jus.br/eleitor/zonas-eleitorais/consulta-a-zonas-eleitorais",
        "website": "https://tre-sp.jus.br/eleitor/zonas-eleitorais/zonas-eleitorais",
        "id": "node/8936561779"
      },
      "geometry": {
        "type": "Point",
        "coordinates": [
          -46.8463027,
          -23.7191482
        ]
      }
    },
    {
      "type": "Feature",
      "id": "node/8942628565",
      "properties": {
        "timestamp": "2024-02-13T14:37:32Z",
        "version": 2,
        "changeset": 147411963,
        "addr:housenumber": "1814",
        "addr:street": "Rua Solimões",
        "addr:suburb": "Cidade Santa Júlia",
        "government": "administrative",
        "name": "Conselho Tuteral",
        "office": "government",
        "id": "node/8942628565"
      },
      "geometry": {
        "type": "Point",
        "coordinates": [
          -46.8069734,
          -23.7560411
        ]
      }
    },
    {
      "type": "Feature",
      "id": "node/8957735481",
      "properties": {
        "timestamp": "2023-04-18T07:14:44Z",
        "version": 3,
        "changeset": 135044418,
        "addr:housenumber": "1668",
        "addr:street": "Avenida Quinze de Novembro",
        "admin_level": "8",
        "government": "education",
        "name": "Diretoria de Ensino Região de Itapecerica da Serra",
        "office": "government",
        "id": "node/8957735481"
      },
      "geometry": {
        "type": "Point",
        "coordinates": [
          -46.8508301,
          -23.7023228
        ]
      }
    }
  ]
}
