{
  "type": "FeatureCollection",
  "features": [
    {
      "type": "Feature",
      "id": "way/1251754374",
      "properties": {
        "timestamp": "2024-02-17T19:24:15Z",
        "version": 1,
        "changeset": 147584814,
        "addr:city": "Itapecerica da Serra",
        "addr:street": "Pra√ßa Professor Porcino Rodrigues",
        "addr:suburb": "Centro",
        "amenity": "library",
        "building": "yes",
        "name": "Biblioteca Municipal de Itapecerica da serra",
        "opening_hours": "Seg-sex. 08-16:30",
        "id": "way/1251754374"
      },
      "geometry": {
        "type": "Polygon",
        "coordinates": [
          [
            [
              -46.8501247,
              -23.7143731
            ],
            [
              -46.8502298,
              -23.714588
            ],
            [
              -46.8500161,
              -23.7146607
            ],
            [
              -46.8499286,
              -23.7144351
            ],
            [
              -46.8501247,
              -23.7143731
            ]
          ]
        ]
      }
    }
  ]
}
