{
  "type": "FeatureCollection",
  "features": [
    {
      "type": "Feature",
      "id": "way/966230701",
      "properties": {
        "timestamp": "2023-10-27T15:32:27Z",
        "version": 2,
        "changeset": 143217142,
        "addr:street": "Avenida Quinze de Novembro",
        "addr:suburb": "Centro",
        "amenity": "pharmacy",
        "building": "yes",
        "dispensing": "yes",
        "healthcare": "pharmacy",
        "name": "PenseMais farma",
        "id": "way/966230701"
      },
      "geometry": {
        "type": "Polygon",
        "coordinates": [
          [
            [
              -46.8489791,
              -23.7113374
            ],
            [
              -46.848898,
              -23.711461
            ],
            [
              -46.8488294,
              -23.7114218
            ],
            [
              -46.8488123,
              -23.7112579
            ],
            [
              -46.8489791,
              -23.7113374
            ]
          ]
        ]
      }
    },
    {
      "type": "Feature",
      "id": "way/967983384",
      "properties": {
        "timestamp": "2021-07-27T22:26:28Z",
        "version": 1,
        "changeset": 108711652,
        "addr:housenumber": "322",
        "addr:street": "Rua Manoel Maxíminio da Rosa",
        "addr:suburb": "Jardim Virgínia",
        "amenity": "pharmacy",
        "building": "yes",
        "dispensing": "yes",
        "drive_through": "no",
        "healthcare": "pharmacy",
        "name": "Droga Délia",
        "phone": "+55 11 4667 1498",
        "id": "way/967983384"
      },
      "geometry": {
        "type": "Polygon",
        "coordinates": [
          [
            [
              -46.8522228,
              -23.721954
            ],
            [
              -46.8522506,
              -23.721997
            ],
            [
              -46.8521483,
              -23.7220619
            ],
            [
              -46.8521191,
              -23.7220216
            ],
            [
              -46.8522228,
              -23.721954
            ]
          ]
        ]
      }
    },
    {
      "type": "Feature",
      "id": "way/968240366",
      "properties": {
        "timestamp": "2021-07-28T17:24:32Z",
        "version": 1,
        "changeset": 108772248,
        "addr:street": "Rua Pedro José Rotger Domingues",
        "amenity": "pharmacy",
        "building": "yes",
        "dispensing": "yes",
        "drive_through": "no",
        "healthcare": "pharmacy",
        "name": "Kaká Drogaria e Perfumaria",
        "phone": "+55 11 4666 2748",
        "id": "way/968240366"
      },
      "geometry": {
        "type": "Polygon",
        "coordinates": [
          [
            [
              -46.8494105,
              -23.71301
            ],
            [
              -46.849438,
              -23.7130693
            ],
            [
              -46.8492906,
              -23.7131242
            ],
            [
              -46.8492664,
              -23.7130545
            ],
            [
              -46.8494105,
              -23.71301
            ]
          ]
        ]
      }
    },
    {
      "type": "Feature",
      "id": "way/968927026",
      "properties": {
        "timestamp": "2024-02-17T17:33:32Z",
        "version": 3,
        "changeset": 147581243,
        "addr:city": "Itapecerica da Serra",
        "addr:housenumber": "80",
        "addr:postcode": "06850-040",
        "addr:street": "Avenida Eduardo Roberto Daher",
        "addr:suburb": "Centro",
        "amenity": "pharmacy",
        "building": "pharmacy",
        "building:levels": "1",
        "dispensing": "yes",
        "healthcare": "pharmacy",
        "name": "Ultrafarma Popular",
        "opening_hours": "Domingo-sexta, 08-22. Sábado 08-21.",
        "id": "way/968927026"
      },
      "geometry": {
        "type": "Polygon",
        "coordinates": [
          [
            [
              -46.8508568,
              -23.7158194
            ],
            [
              -46.850891,
              -23.715938
            ],
            [
              -46.8507831,
              -23.7159776
            ],
            [
              -46.8507616,
              -23.7159127
            ],
            [
              -46.8507417,
              -23.7158524
            ],
            [
              -46.8508568,
              -23.7158194
            ]
          ]
        ]
      }
    },
    {
      "type": "Feature",
      "id": "way/1251715304",
      "properties": {
        "timestamp": "2024-02-17T17:27:51Z",
        "version": 1,
        "changeset": 147581050,
        "addr:city": "Itapecerica da Serra",
        "addr:housenumber": "52",
        "addr:postcode": "06850-036",
        "addr:street": "Avenida Eduardo Roberto Daher",
        "addr:suburb": "Centro",
        "amenity": "pharmacy",
        "brand": "Drogasil",
        "brand:wikidata": "Q5308185",
        "building": "pharmacy",
        "dispensing": "yes",
        "healthcare": "pharmacy",
        "name": "Drogasil",
        "opening_hours": "24/7",
        "wheelchair": "yes",
        "id": "way/1251715304"
      },
      "geometry": {
        "type": "Polygon",
        "coordinates": [
          [
            [
              -46.8500749,
              -23.7160354
            ],
            [
              -46.8501333,
              -23.7160236
            ],
            [
              -46.8501718,
              -23.7160119
            ],
            [
              -46.8502314,
              -23.7161733
            ],
            [
              -46.8501426,
              -23.7162224
            ],
            [
              -46.8501176,
              -23.7161531
            ],
            [
              -46.8500749,
              -23.7160354
            ]
          ]
        ]
      }
    },
    {
      "type": "Feature",
      "id": "way/1251736136",
      "properties": {
        "timestamp": "2024-02-17T18:12:01Z",
        "version": 1,
        "changeset": 147582676,
        "addr:city": "Itapecerica da Serra",
        "addr:housenumber": "142",
        "addr:postcode": "06850-100",
        "addr:street": "Avenida Quinze de Novembro",
        "addr:suburb": "Centro",
        "amenity": "pharmacy",
        "building": "pharmacy",
        "healthcare": "pharmacy",
        "name": "Pense Farma Mega Store",
        "id": "way/1251736136"
      },
      "geometry": {
        "type": "Polygon",
        "coordinates": [
          [
            [
              -46.8493737,
              -23.7151856
            ],
            [
              -46.8491241,
              -23.7152914
            ],
            [
              -46.849101,
              -23.7152999
            ],
            [
              -46.8490347,
              -23.7151179
            ],
            [
              -46.8493244,
              -23.7150319
            ],
            [
              -46.8493737,
              -23.7151856
            ]
          ]
        ]
      }
    },
    {
      "type": "Feature",
      "id": "node/8936359170",
      "properties": {
        "timestamp": "2021-07-20T17:24:44Z",
        "version": 1,
        "changeset": 108331901,
        "addr:housenumber": "60",
        "addr:street": "Rua Luiz Gama",
        "addr:suburb": "Centro",
        "amenity": "pharmacy",
        "dispensing": "yes",
        "healthcare": "pharmacy",
        "name": "Drogaria e Perfumaria Kaká",
        "phone": "+55 11 4165 1260",
        "id": "node/8936359170"
      },
      "geometry": {
        "type": "Point",
        "coordinates": [
          -46.8494315,
          -23.7178926
        ]
      }
    },
    {
      "type": "Feature",
      "id": "node/8942425640",
      "properties": {
        "timestamp": "2021-07-22T19:46:45Z",
        "version": 1,
        "changeset": 108448171,
        "addr:street": "Rua Maria Sayeg",
        "addr:suburb": "Jardim das Oliveiras",
        "amenity": "pharmacy",
        "dispensing": "yes",
        "healthcare": "pharmacy",
        "name": "Tem Farma",
        "phone": "+55 11 4669 1248",
        "id": "node/8942425640"
      },
      "geometry": {
        "type": "Point",
        "coordinates": [
          -46.8088495,
          -23.7576315
        ]
      }
    },
    {
      "type": "Feature",
      "id": "node/8942628557",
      "properties": {
        "timestamp": "2021-07-22T21:25:25Z",
        "version": 1,
        "changeset": 108451543,
        "addr:street": "Rua Solimões",
        "addr:suburb": "Cidade Santa Júlia",
        "amenity": "pharmacy",
        "dispensing": "yes",
        "healthcare": "pharmacy",
        "name": "Tem Farmácia",
        "id": "node/8942628557"
      },
      "geometry": {
        "type": "Point",
        "coordinates": [
          -46.807336,
          -23.7564183
        ]
      }
    },
    {
      "type": "Feature",
      "id": "node/8947567951",
      "properties": {
        "timestamp": "2023-08-19T10:55:14Z",
        "version": 2,
        "changeset": 140089833,
        "addr:street": "Avenida Quinze de Novembro",
        "amenity": "pharmacy",
        "brand": "Drogaria São Paulo",
        "brand:wikidata": "Q5308184",
        "brand:wikipedia": "en:Grupo DPSP",
        "dispensing": "yes",
        "drive_through": "no",
        "healthcare": "pharmacy",
        "name": "Drogaria São Paulo",
        "opening_hours": "24/7",
        "id": "node/8947567951"
      },
      "geometry": {
        "type": "Point",
        "coordinates": [
          -46.8500569,
          -23.7080978
        ]
      }
    },
    {
      "type": "Feature",
      "id": "node/8957693374",
      "properties": {
        "timestamp": "2021-07-28T16:03:49Z",
        "version": 1,
        "changeset": 108768744,
        "addr:housenumber": "605",
        "addr:postcode": "06850100",
        "addr:street": "Avenida Quinze de Novembro",
        "addr:suburb": "Centro",
        "amenity": "pharmacy",
        "brand": "Drogasil",
        "brand:wikidata": "Q5308185",
        "brand:wikipedia": "pt:Drogasil",
        "dispensing": "yes",
        "drive_through": "no",
        "healthcare": "pharmacy",
        "name": "Drogasil",
        "opening_hours": "Mo-Su,PH 07:00-23:00",
        "phone": "+55 11 4165 1126",
        "website": "https://www.drogasil.com.br/nossas-lojas?search=avenida%20quinze%20de%20novembro",
        "wheelchair": "yes",
        "id": "node/8957693374"
      },
      "geometry": {
        "type": "Point",
        "coordinates": [
          -46.8494748,
          -23.7105445
        ]
      }
    },
    {
      "type": "Feature",
      "id": "node/11603439574",
      "properties": {
        "timestamp": "2024-02-09T19:47:06Z",
        "version": 1,
        "changeset": 147270432,
        "addr:housenumber": "1680",
        "addr:street": "Avenida Quinze de Novembro",
        "amenity": "pharmacy",
        "dispensing": "yes",
        "drive_through": "no",
        "healthcare": "pharmacy",
        "name": "Drogamil",
        "phone": "+55 11 4667 2271",
        "id": "node/11603439574"
      },
      "geometry": {
        "type": "Point",
        "coordinates": [
          -46.8509553,
          -23.7016422
        ]
      }
    }
  ]
}
