{
  "type": "FeatureCollection",
  "features": [
    {
      "type": "Feature",
      "id": "way/1126169721",
      "properties": {
        "timestamp": "2023-01-01T11:47:36Z",
        "version": 1,
        "changeset": 130744862,
        "addr:city": "Muqui",
        "addr:postcode": "29480-000",
        "addr:street": "Rua Eduardo Carlos Cabral",
        "addr:suburb": "São Pedro",
        "amenity": "school",
        "name": "Escola Estadual de Ensino Fundamental e Médio Senador Dirceu Cardoso",
        "operator": "Governo do Espírito Santo",
        "operator:type": "public",
        "id": "way/1126169721"
      },
      "geometry": {
        "type": "Polygon",
        "coordinates": [
          [
            [
              -41.3372756,
              -20.9467729
            ],
            [
              -41.3368027,
              -20.947546
            ],
            [
              -41.335938,
              -20.9471925
            ],
            [
              -41.3361198,
              -20.9468428
            ],
            [
              -41.3363181,
              -20.9466559
            ],
            [
              -41.3364444,
              -20.9466041
            ],
            [
              -41.3367402,
              -20.9465062
            ],
            [
              -41.3372756,
              -20.9467729
            ]
          ]
        ]
      }
    },
    {
      "type": "Feature",
      "id": "node/4024904393",
      "properties": {
        "timestamp": "2016-02-25T01:59:13Z",
        "version": 1,
        "changeset": 37426154,
        "IJSN:administra": "Privada",
        "IJSN:classeCnae": "Fundamental",
        "addr:city": "Muqui",
        "addr:housenumber": "110",
        "addr:postcode": "29480-000",
        "addr:street": "Rua Cel Mateus Paiva",
        "addr:suburb": "Santo Agostinho",
        "alt_name": "Centro Educacional",
        "amenity": "school",
        "contact:phone": "(28) 3554-1799",
        "name": "CE Muquiense",
        "source": "IJSN",
        "id": "node/4024904393"
      },
      "geometry": {
        "type": "Point",
        "coordinates": [
          -41.3451458,
          -20.9490457
        ]
      }
    },
    {
      "type": "Feature",
      "id": "node/4024904400",
      "properties": {
        "timestamp": "2016-02-25T01:59:14Z",
        "version": 1,
        "changeset": 37426154,
        "IJSN:administra": "Municipal",
        "IJSN:classeCnae": "Infantil e Fundamental",
        "addr:city": "Muqui",
        "addr:housenumber": "519",
        "addr:postcode": "29480-000",
        "addr:street": "Rua Joaquim Afonso",
        "addr:suburb": "Boa Esperança",
        "alt_name": "Centro de Educação Infantil",
        "amenity": "school",
        "name": "CEI Tio Pedro",
        "source": "IJSN",
        "id": "node/4024904400"
      },
      "geometry": {
        "type": "Point",
        "coordinates": [
          -41.3377059,
          -20.9592042
        ]
      }
    },
    {
      "type": "Feature",
      "id": "node/4024904456",
      "properties": {
        "timestamp": "2021-11-16T13:34:08Z",
        "version": 3,
        "changeset": 113852468,
        "IJSN:administra": "Estadual",
        "IJSN:classeCnae": "Fundamental",
        "addr:city": "Muqui",
        "addr:postcode": "29480-000",
        "addr:street": "Rua Coronel Marcondes",
        "addr:suburb": "Centro",
        "alt_name": "Escola Estadual de Ensino Fundamental",
        "amenity": "school",
        "name": "EEEF Marcondes de Souza",
        "source": "IJSN",
        "id": "node/4024904456"
      },
      "geometry": {
        "type": "Point",
        "coordinates": [
          -41.3437729,
          -20.9511689
        ]
      }
    },
    {
      "type": "Feature",
      "id": "node/4024904792",
      "properties": {
        "timestamp": "2016-02-25T01:59:30Z",
        "version": 1,
        "changeset": 37426154,
        "IJSN:administra": "Estadual",
        "IJSN:classeCnae": "Fundamental e Médio",
        "addr:city": "Muqui",
        "addr:postcode": "29480-000",
        "addr:suburb": "Boa Esperança",
        "alt_name": "Escola Estadual de Ensino Fundamental e Médio",
        "amenity": "school",
        "name": "EEEFM Dirceu Cardoso",
        "source": "IJSN",
        "id": "node/4024904792"
      },
      "geometry": {
        "type": "Point",
        "coordinates": [
          -41.339355,
          -20.9594765
        ]
      }
    },
    {
      "type": "Feature",
      "id": "node/4024905040",
      "properties": {
        "timestamp": "2016-02-25T01:59:55Z",
        "version": 1,
        "changeset": 37426154,
        "IJSN:administra": "Estadual",
        "IJSN:classeCnae": "Fundamental",
        "addr:city": "Mimoso do Sul",
        "addr:postcode": "29400-000",
        "addr:street": "Fazenda São José",
        "addr:suburb": "Comunidade Santo Antônio do Muqui",
        "alt_name": "Escola Estadual Unidocente de Ensino Fundamental",
        "amenity": "school",
        "name": "EEUEF Fazenda São José",
        "source": "IJSN",
        "id": "node/4024905040"
      },
      "geometry": {
        "type": "Point",
        "coordinates": [
          -41.4184758,
          -21.0042883
        ]
      }
    },
    {
      "type": "Feature",
      "id": "node/4024905441",
      "properties": {
        "timestamp": "2016-02-25T02:00:28Z",
        "version": 1,
        "changeset": 37426154,
        "IJSN:administra": "Municipal",
        "IJSN:classeCnae": "Infantil e Fundamental",
        "addr:city": "Muqui",
        "addr:housenumber": "161",
        "addr:postcode": "29480-000",
        "addr:street": "Rua Jarbas Coelho",
        "addr:suburb": "Distrito de Camara",
        "alt_name": "Escola Municipal de Ensino Fundamental",
        "amenity": "school",
        "contact:phone": "(28) 3554-4026",
        "name": "EMEF Ercy Arruda Bonfim",
        "source": "IJSN",
        "id": "node/4024905441"
      },
      "geometry": {
        "type": "Point",
        "coordinates": [
          -41.2707857,
          -20.8964453
        ]
      }
    },
    {
      "type": "Feature",
      "id": "node/4024905460",
      "properties": {
        "timestamp": "2016-02-25T02:00:31Z",
        "version": 1,
        "changeset": 37426154,
        "IJSN:administra": "Municipal",
        "IJSN:classeCnae": "Infantil e Fundamental",
        "addr:city": "Muqui",
        "addr:postcode": "29480-000",
        "addr:suburb": "Comunidade Fortaleza",
        "alt_name": "Escola Municipal de Ensino Fundamental",
        "amenity": "school",
        "name": "EMEF Fortaleza",
        "source": "IJSN",
        "id": "node/4024905460"
      },
      "geometry": {
        "type": "Point",
        "coordinates": [
          -41.2661436,
          -20.977618
        ]
      }
    },
    {
      "type": "Feature",
      "id": "node/4024905463",
      "properties": {
        "timestamp": "2016-02-25T02:00:32Z",
        "version": 1,
        "changeset": 37426154,
        "IJSN:administra": "Municipal",
        "IJSN:classeCnae": "Fundamental",
        "addr:city": "Muqui",
        "addr:postcode": "29480-000",
        "addr:street": "Rua Coronel Mateus Paiva",
        "addr:suburb": "Centro",
        "alt_name": "Escola Municipal de Ensino Fundamental",
        "amenity": "school",
        "name": "EMEF Frei Pedro Domingos Izcara",
        "source": "IJSN",
        "id": "node/4024905463"
      },
      "geometry": {
        "type": "Point",
        "coordinates": [
          -41.345859,
          -20.9455326
        ]
      }
    },
    {
      "type": "Feature",
      "id": "node/4024905723",
      "properties": {
        "timestamp": "2016-02-25T02:00:58Z",
        "version": 1,
        "changeset": 37426154,
        "IJSN:administra": "Municipal",
        "IJSN:classeCnae": "Infantil e Fundamental",
        "addr:city": "Muqui",
        "addr:postcode": "29480-000",
        "addr:street": "Rua Projetada",
        "addr:suburb": "San Domingo",
        "alt_name": "Escola Municipal de Ensino Fundamental",
        "amenity": "school",
        "contact:phone": "(28) 3554-2027",
        "name": "EMEF São Vicente de Paulo",
        "source": "IJSN",
        "id": "node/4024905723"
      },
      "geometry": {
        "type": "Point",
        "coordinates": [
          -41.3404139,
          -20.9499422
        ]
      }
    },
    {
      "type": "Feature",
      "id": "node/4024905982",
      "properties": {
        "timestamp": "2016-02-25T02:01:25Z",
        "version": 1,
        "changeset": 37426154,
        "IJSN:administra": "Municipal",
        "IJSN:classeCnae": "Infantil e Fundamental",
        "addr:city": "Muqui",
        "addr:postcode": "29480-000",
        "addr:suburb": "Comunidade Aliança",
        "alt_name": "Escola Municipal Pluridocente de Ensino Fundamental",
        "amenity": "school",
        "name": "EMPEF Aliança",
        "source": "IJSN",
        "id": "node/4024905982"
      },
      "geometry": {
        "type": "Point",
        "coordinates": [
          -41.3529717,
          -20.8792948
        ]
      }
    },
    {
      "type": "Feature",
      "id": "node/4024906098",
      "properties": {
        "timestamp": "2016-02-25T02:01:27Z",
        "version": 1,
        "changeset": 37426154,
        "IJSN:administra": "Municipal",
        "IJSN:classeCnae": "Infantil e Fundamental",
        "addr:city": "Muqui",
        "addr:postcode": "29480-000",
        "addr:street": "Fazenda Bom Destino",
        "addr:suburb": "Comunidade Bom Destino",
        "alt_name": "Escola Municipal Pluridocente de Ensino Fundamental",
        "amenity": "school",
        "name": "EMPEF Bom Destino",
        "source": "IJSN",
        "id": "node/4024906098"
      },
      "geometry": {
        "type": "Point",
        "coordinates": [
          -41.413685,
          -20.9365278
        ]
      }
    },
    {
      "type": "Feature",
      "id": "node/4024906241",
      "properties": {
        "timestamp": "2016-02-25T02:01:50Z",
        "version": 1,
        "changeset": 37426154,
        "IJSN:administra": "Municipal",
        "IJSN:classeCnae": "Fundamental",
        "addr:city": "Muqui",
        "addr:postcode": "29480-000",
        "addr:suburb": "Comunidade Palmeiras",
        "alt_name": "Escola Municipal Unidocente de Ensino Fundamental",
        "amenity": "school",
        "name": "EMUEF Cachoeira Alta",
        "source": "IJSN",
        "id": "node/4024906241"
      },
      "geometry": {
        "type": "Point",
        "coordinates": [
          -41.4063989,
          -20.8993038
        ]
      }
    },
    {
      "type": "Feature",
      "id": "node/4024906312",
      "properties": {
        "timestamp": "2016-02-25T02:02:00Z",
        "version": 1,
        "changeset": 37426154,
        "IJSN:administra": "Municipal",
        "IJSN:classeCnae": "Fundamental",
        "addr:city": "Muqui",
        "addr:postcode": "29480-000",
        "addr:street": "Fazenda São Domingos",
        "addr:suburb": "Comunidade São Luís",
        "alt_name": "Escola Municipal Unidocente de Ensino Fundamental",
        "amenity": "school",
        "name": "EMUEF Fonte Limpa",
        "source": "IJSN",
        "id": "node/4024906312"
      },
      "geometry": {
        "type": "Point",
        "coordinates": [
          -41.3383032,
          -20.8838779
        ]
      }
    },
    {
      "type": "Feature",
      "id": "node/4024906313",
      "properties": {
        "timestamp": "2016-02-25T02:02:00Z",
        "version": 1,
        "changeset": 37426154,
        "IJSN:administra": "Municipal",
        "IJSN:classeCnae": "Fundamental",
        "addr:city": "Muqui",
        "addr:postcode": "29480-000",
        "addr:street": "Fazenda Fortuna",
        "addr:suburb": "Comunidade São Luís",
        "alt_name": "Escola Municipal Unidocente de Ensino Fundamental",
        "amenity": "school",
        "name": "EMUEF Fortuna",
        "source": "IJSN",
        "id": "node/4024906313"
      },
      "geometry": {
        "type": "Point",
        "coordinates": [
          -41.3395501,
          -20.8845262
        ]
      }
    },
    {
      "type": "Feature",
      "id": "node/4024906315",
      "properties": {
        "timestamp": "2016-02-25T02:02:00Z",
        "version": 1,
        "changeset": 37426154,
        "IJSN:administra": "Municipal",
        "IJSN:classeCnae": "Fundamental",
        "addr:city": "Muqui",
        "addr:postcode": "29480-000",
        "addr:street": "Sítio Cravo",
        "addr:suburb": "Comunidade São Luís",
        "alt_name": "Escola Municipal Unidocente de Ensino Fundamental",
        "amenity": "school",
        "name": "EMUEF Genésio Fraga",
        "source": "IJSN",
        "id": "node/4024906315"
      },
      "geometry": {
        "type": "Point",
        "coordinates": [
          -41.3237688,
          -20.8664553
        ]
      }
    },
    {
      "type": "Feature",
      "id": "node/4024906335",
      "properties": {
        "timestamp": "2016-02-25T02:02:03Z",
        "version": 1,
        "changeset": 37426154,
        "IJSN:administra": "Municipal",
        "IJSN:classeCnae": "Fundamental",
        "addr:city": "Muqui",
        "addr:postcode": "29480-000",
        "addr:street": "Fazenda Morro Alto",
        "addr:suburb": "Comunidade Santa Bárbara",
        "alt_name": "Escola Municipal Unidocente de Ensino Fundamental",
        "amenity": "school",
        "name": "EMUEF Morro Alto",
        "source": "IJSN",
        "id": "node/4024906335"
      },
      "geometry": {
        "type": "Point",
        "coordinates": [
          -41.4074689,
          -20.8710438
        ]
      }
    },
    {
      "type": "Feature",
      "id": "node/4024906346",
      "properties": {
        "timestamp": "2016-02-25T02:02:05Z",
        "version": 1,
        "changeset": 37426154,
        "IJSN:administra": "Municipal",
        "IJSN:classeCnae": "Fundamental",
        "addr:city": "Muqui",
        "addr:postcode": "29480-000",
        "addr:street": "Fazenda Paineiras",
        "addr:suburb": "Comunidade Recreio",
        "alt_name": "Escola Municipal Unidocente de Ensino Fundamental",
        "amenity": "school",
        "name": "EMUEF Paineiras",
        "source": "IJSN",
        "id": "node/4024906346"
      },
      "geometry": {
        "type": "Point",
        "coordinates": [
          -41.2670246,
          -20.8603483
        ]
      }
    },
    {
      "type": "Feature",
      "id": "node/4024906374",
      "properties": {
        "timestamp": "2016-02-25T02:02:09Z",
        "version": 1,
        "changeset": 37426154,
        "IJSN:administra": "Municipal",
        "IJSN:classeCnae": "Fundamental",
        "addr:city": "Muqui",
        "addr:postcode": "29480-000",
        "addr:street": "Fazenda Morro Alto",
        "addr:suburb": "Comunidade Rio Claro",
        "alt_name": "Escola Municipal Unidocente de Ensino Fundamental",
        "amenity": "school",
        "name": "EMUEF Rio Claro de Cima",
        "source": "IJSN",
        "id": "node/4024906374"
      },
      "geometry": {
        "type": "Point",
        "coordinates": [
          -41.3703811,
          -20.9343771
        ]
      }
    },
    {
      "type": "Feature",
      "id": "node/4024906590",
      "properties": {
        "timestamp": "2016-02-25T02:02:12Z",
        "version": 1,
        "changeset": 37426154,
        "IJSN:administra": "Municipal",
        "IJSN:classeCnae": "Fundamental",
        "addr:city": "Muqui",
        "addr:postcode": "29480-000",
        "addr:street": "Sítio Serra do Puri",
        "addr:suburb": "Comunidade São Luís",
        "alt_name": "Escola Municipal Unidocente de Ensino Fundamental",
        "amenity": "school",
        "name": "EMUEF Serra do Puri",
        "source": "IJSN",
        "id": "node/4024906590"
      },
      "geometry": {
        "type": "Point",
        "coordinates": [
          -41.3351986,
          -20.8678529
        ]
      }
    },
    {
      "type": "Feature",
      "id": "node/4024906592",
      "properties": {
        "timestamp": "2016-02-25T02:02:12Z",
        "version": 1,
        "changeset": 37426154,
        "IJSN:administra": "Municipal",
        "IJSN:classeCnae": "Fundamental",
        "addr:city": "Muqui",
        "addr:postcode": "29480-000",
        "addr:street": "Fazenda São Domingos das Três Barras",
        "addr:suburb": "Comunidade Fazenda São Domingos",
        "alt_name": "Escola Municipal Unidocente de Ensino Fundamental",
        "amenity": "school",
        "name": "EMUEF São Domingos das Três Barras",
        "source": "IJSN",
        "id": "node/4024906592"
      },
      "geometry": {
        "type": "Point",
        "coordinates": [
          -41.4477223,
          -20.9779461
        ]
      }
    },
    {
      "type": "Feature",
      "id": "node/11070600958",
      "properties": {
        "timestamp": "2023-07-27T07:15:06Z",
        "version": 1,
        "changeset": 139070825,
        "IJSN:administra": "Privada",
        "IJSN:classeCnae": "Fundamental",
        "addr:city": "Muqui",
        "addr:housenumber": "110",
        "addr:postcode": "29480-000",
        "addr:street": "Rua Cel Mateus Paiva",
        "addr:suburb": "Santo Agostinho",
        "alt_name": "Centro Educacional",
        "amenity": "school",
        "contact:phone": "(28) 3554-1799",
        "name": "CE Muquiense",
        "source": "IJSN",
        "id": "node/11070600958"
      },
      "geometry": {
        "type": "Point",
        "coordinates": [
          -41.3475122,
          -20.9551341
        ]
      }
    }
  ]
}
