{
  "type": "FeatureCollection",
  "features": [
    {
      "type": "Feature",
      "id": "way/907519430",
      "properties": {
        "timestamp": "2022-02-16T17:53:10Z",
        "version": 3,
        "changeset": 117487444,
        "addr:city": "Gurupi",
        "addr:postcode": "77420-550",
        "addr:street": "Avenida Jerusalem",
        "addr:suburb": "Bela Vista",
        "amenity": "school",
        "name": "Escola Municipal Agripino De Sousa Galvao",
        "phone": "+55 63 3312 3962",
        "id": "way/907519430"
      },
      "geometry": {
        "type": "Polygon",
        "coordinates": [
          [
            [
              -49.0722722,
              -11.7653115
            ],
            [
              -49.072832,
              -11.7653826
            ],
            [
              -49.0727613,
              -11.7659169
            ],
            [
              -49.0722014,
              -11.7658459
            ],
            [
              -49.0722722,
              -11.7653115
            ]
          ]
        ]
      }
    },
    {
      "type": "Feature",
      "id": "way/907521772",
      "properties": {
        "timestamp": "2022-02-16T18:01:03Z",
        "version": 3,
        "changeset": 117487776,
        "addr:city": "Gurupi",
        "addr:housenumber": "390",
        "addr:postcode": "77415-300",
        "addr:street": "Rua Quarenta e Oito",
        "amenity": "school",
        "name": "Escola Municipal Professora Ilsa Borges Vieira",
        "phone": "+55 63 3316 1374",
        "id": "way/907521772"
      },
      "geometry": {
        "type": "Polygon",
        "coordinates": [
          [
            [
              -49.0660194,
              -11.7491199
            ],
            [
              -49.0660513,
              -11.749657
            ],
            [
              -49.0649471,
              -11.749735
            ],
            [
              -49.0649524,
              -11.7496709
            ],
            [
              -49.0658248,
              -11.7491286
            ],
            [
              -49.0660194,
              -11.7491199
            ]
          ]
        ]
      }
    },
    {
      "type": "Feature",
      "id": "way/1032071249",
      "properties": {
        "timestamp": "2022-02-16T17:57:42Z",
        "version": 2,
        "changeset": 117487625,
        "addr:city": "Gurupi",
        "addr:housenumber": "1530",
        "addr:postcode": "77415-370",
        "addr:street": "Avenida B",
        "addr:suburb": "Nova Fronteira",
        "amenity": "school",
        "name": "Centro Municipal De Educacao Infantil Senador Joao Ribeiro",
        "id": "way/1032071249"
      },
      "geometry": {
        "type": "Polygon",
        "coordinates": [
          [
            [
              -49.0719518,
              -11.7581215
            ],
            [
              -49.071854,
              -11.7588461
            ],
            [
              -49.0714411,
              -11.7587927
            ],
            [
              -49.071539,
              -11.7580681
            ],
            [
              -49.0719518,
              -11.7581215
            ]
          ]
        ]
      }
    },
    {
      "type": "Feature",
      "id": "way/1032072599",
      "properties": {
        "timestamp": "2022-02-16T17:59:02Z",
        "version": 1,
        "changeset": 117487699,
        "addr:city": "Gurupi",
        "addr:housenumber": "525",
        "addr:postcode": "77415-410",
        "addr:street": "Rua Cinquenta e Seis",
        "addr:suburb": "Nova Fronteira",
        "amenity": "school",
        "name": "Escola Municipal Professor Joel Ferreira Soares",
        "phone": "+55 63 3316 1375",
        "id": "way/1032072599"
      },
      "geometry": {
        "type": "Polygon",
        "coordinates": [
          [
            [
              -49.0718682,
              -11.7486412
            ],
            [
              -49.0724637,
              -11.7493318
            ],
            [
              -49.0720265,
              -11.7496732
            ],
            [
              -49.0715007,
              -11.7490377
            ],
            [
              -49.0714981,
              -11.7489878
            ],
            [
              -49.0718682,
              -11.7486412
            ]
          ]
        ]
      }
    },
    {
      "type": "Feature",
      "id": "way/1032072704",
      "properties": {
        "timestamp": "2022-02-16T18:00:10Z",
        "version": 1,
        "changeset": 117487737,
        "addr:city": "Gurupi",
        "addr:housenumber": "500",
        "addr:postcode": "77415-300",
        "addr:street": "Viela Dois",
        "amenity": "school",
        "name": "Centro Municipal De Educacao Infantil Tania Maria Marinho Scotta",
        "id": "way/1032072704"
      },
      "geometry": {
        "type": "Polygon",
        "coordinates": [
          [
            [
              -49.064692,
              -11.7500934
            ],
            [
              -49.0647229,
              -11.7504372
            ],
            [
              -49.0639793,
              -11.7505078
            ],
            [
              -49.0639381,
              -11.7503062
            ],
            [
              -49.064234,
              -11.7501198
            ],
            [
              -49.064692,
              -11.7500934
            ]
          ]
        ]
      }
    },
    {
      "type": "Feature",
      "id": "way/1032073157",
      "properties": {
        "timestamp": "2022-02-16T18:02:09Z",
        "version": 1,
        "changeset": 117487812,
        "addr:city": "Gurupi",
        "addr:housenumber": "390",
        "addr:postcode": "77410-030",
        "addr:street": "Rua N9",
        "addr:suburb": "Novo Horizonte",
        "amenity": "school",
        "name": "Instituicao Beneficente Irma Dulce",
        "id": "way/1032073157"
      },
      "geometry": {
        "type": "Polygon",
        "coordinates": [
          [
            [
              -49.0629767,
              -11.7448676
            ],
            [
              -49.0631966,
              -11.7454584
            ],
            [
              -49.0620084,
              -11.7456685
            ],
            [
              -49.0618341,
              -11.745272
            ],
            [
              -49.0629767,
              -11.7448676
            ]
          ]
        ]
      }
    },
    {
      "type": "Feature",
      "id": "way/1032073213",
      "properties": {
        "timestamp": "2022-02-16T18:03:07Z",
        "version": 1,
        "changeset": 117487841,
        "addr:city": "Gurupi",
        "addr:housenumber": "60",
        "addr:postcode": "77410-030",
        "addr:street": "Rua Dez",
        "addr:suburb": "Novo Horizonte",
        "amenity": "school",
        "name": "Sescler - Servico Social Do Comercio",
        "phone": "+55 63 3301 2126",
        "id": "way/1032073213"
      },
      "geometry": {
        "type": "Polygon",
        "coordinates": [
          [
            [
              -49.0616091,
              -11.7451574
            ],
            [
              -49.0618406,
              -11.7456902
            ],
            [
              -49.0606268,
              -11.7458782
            ],
            [
              -49.0604938,
              -11.7454986
            ],
            [
              -49.0615572,
              -11.745134
            ],
            [
              -49.0616091,
              -11.7451574
            ]
          ]
        ]
      }
    },
    {
      "type": "Feature",
      "id": "way/1032073475",
      "properties": {
        "timestamp": "2022-02-16T18:04:39Z",
        "version": 1,
        "changeset": 117487886,
        "addr:city": "Gurupi",
        "addr:housenumber": "2360",
        "addr:postcode": "77405-110",
        "addr:street": "Rua Presidente Juscelino Kubitschek",
        "addr:suburb": "Setor Central",
        "amenity": "school",
        "name": "Creche Espirita Pre - Escola Maria Madalena",
        "id": "way/1032073475"
      },
      "geometry": {
        "type": "Polygon",
        "coordinates": [
          [
            [
              -49.060623,
              -11.7387828
            ],
            [
              -49.0603516,
              -11.7391453
            ],
            [
              -49.0596276,
              -11.7386259
            ],
            [
              -49.0598991,
              -11.7382632
            ],
            [
              -49.060623,
              -11.7387828
            ]
          ]
        ]
      }
    },
    {
      "type": "Feature",
      "id": "way/1032073754",
      "properties": {
        "timestamp": "2022-02-16T18:05:52Z",
        "version": 1,
        "changeset": 117487927,
        "addr:city": "Gurupi",
        "addr:housenumber": "2245",
        "addr:postcode": "77410-090",
        "addr:street": "Avenida Brasília",
        "addr:suburb": "Setor Central",
        "amenity": "school",
        "name": "Associação Bercario Espirita Maria De Nazare",
        "id": "way/1032073754"
      },
      "geometry": {
        "type": "Polygon",
        "coordinates": [
          [
            [
              -49.0620186,
              -11.7364686
            ],
            [
              -49.0618337,
              -11.7367078
            ],
            [
              -49.0615021,
              -11.7364621
            ],
            [
              -49.0616871,
              -11.7362228
            ],
            [
              -49.0620186,
              -11.7364686
            ]
          ]
        ]
      }
    },
    {
      "type": "Feature",
      "id": "way/1032074358",
      "properties": {
        "timestamp": "2022-02-16T18:14:24Z",
        "version": 2,
        "changeset": 117488271,
        "addr:city": "Gurupi",
        "addr:housenumber": "2190",
        "addr:postcode": "77405-090",
        "addr:street": "Rua Presidente Castelo Branco",
        "addr:suburb": "Setor Central",
        "amenity": "school",
        "name": "Colegio Estadual Girassol De Tempo Integral Jose Seabra Lemos",
        "phone": "+55 63 3312 1773",
        "religion": "christian",
        "id": "way/1032074358"
      },
      "geometry": {
        "type": "Polygon",
        "coordinates": [
          [
            [
              -49.0607511,
              -11.734478
            ],
            [
              -49.0603771,
              -11.7349317
            ],
            [
              -49.059975,
              -11.734614
            ],
            [
              -49.0603492,
              -11.7341603
            ],
            [
              -49.0607511,
              -11.734478
            ]
          ]
        ]
      }
    },
    {
      "type": "Feature",
      "id": "way/1032074551",
      "properties": {
        "timestamp": "2022-02-16T18:14:24Z",
        "version": 2,
        "changeset": 117488271,
        "addr:city": "Gurupi",
        "addr:housenumber": "2061",
        "addr:postcode": "77405-090",
        "addr:street": "Rua Presidente Castelo Branco",
        "addr:suburb": "Setor Central",
        "amenity": "school",
        "denomination": "adventist",
        "name": "Colegio Adventista De Gurupi",
        "religion": "christian",
        "id": "way/1032074551"
      },
      "geometry": {
        "type": "Polygon",
        "coordinates": [
          [
            [
              -49.0623196,
              -11.7324362
            ],
            [
              -49.0621061,
              -11.7327083
            ],
            [
              -49.0617348,
              -11.732429
            ],
            [
              -49.0619483,
              -11.7321569
            ],
            [
              -49.0623196,
              -11.7324362
            ]
          ]
        ]
      }
    },
    {
      "type": "Feature",
      "id": "way/1032074918",
      "properties": {
        "timestamp": "2022-02-16T18:14:24Z",
        "version": 3,
        "changeset": 117488271,
        "addr:city": "Gurupi",
        "addr:housenumber": "1641",
        "addr:postcode": "77410-050",
        "addr:street": "Avenida Ceará",
        "addr:suburb": "Setor Central",
        "amenity": "school",
        "name": "Colegio Positivo De Gurupi",
        "phone": "+55 63 3351 1362",
        "id": "way/1032074918"
      },
      "geometry": {
        "type": "Polygon",
        "coordinates": [
          [
            [
              -49.063078,
              -11.7315786
            ],
            [
              -49.0625062,
              -11.7323452
            ],
            [
              -49.0622788,
              -11.7321826
            ],
            [
              -49.0625117,
              -11.7318703
            ],
            [
              -49.0622915,
              -11.7317128
            ],
            [
              -49.0626303,
              -11.7312585
            ],
            [
              -49.063078,
              -11.7315786
            ]
          ]
        ]
      }
    },
    {
      "type": "Feature",
      "id": "way/1032075857",
      "properties": {
        "timestamp": "2022-02-16T18:14:24Z",
        "version": 1,
        "changeset": 117488271,
        "addr:city": "Gurupi",
        "addr:postcode": "77405-120",
        "addr:street": "Rua Presidente Getulio Vargas",
        "addr:suburb": "Setor Central",
        "amenity": "school",
        "name": "Instituto Municipal De Educacao Infantil Silny Rodrigues Dos Santos",
        "phone": "+55 63 3316 1402",
        "id": "way/1032075857"
      },
      "geometry": {
        "type": "Polygon",
        "coordinates": [
          [
            [
              -49.0649749,
              -11.7341737
            ],
            [
              -49.064613,
              -11.7338999
            ],
            [
              -49.0649779,
              -11.7334376
            ],
            [
              -49.0653398,
              -11.7337114
            ],
            [
              -49.0649749,
              -11.7341737
            ]
          ]
        ]
      }
    },
    {
      "type": "Feature",
      "id": "way/1032077006",
      "properties": {
        "timestamp": "2022-02-16T18:19:16Z",
        "version": 1,
        "changeset": 117488440,
        "addr:city": "Gurupi",
        "addr:housenumber": "1273",
        "addr:postcode": "77403-040",
        "addr:street": "Avenida São Paulo",
        "addr:suburb": "Setor Central",
        "amenity": "school",
        "name": "Centro De Ensino Medio De Gurupi",
        "id": "way/1032077006"
      },
      "geometry": {
        "type": "Polygon",
        "coordinates": [
          [
            [
              -49.0706349,
              -11.7258013
            ],
            [
              -49.0700749,
              -11.7265437
            ],
            [
              -49.0693353,
              -11.7260089
            ],
            [
              -49.0698953,
              -11.7252666
            ],
            [
              -49.0706349,
              -11.7258013
            ]
          ]
        ]
      }
    },
    {
      "type": "Feature",
      "id": "way/1032077518",
      "properties": {
        "timestamp": "2022-02-16T18:22:32Z",
        "version": 1,
        "changeset": 117488552,
        "addr:city": "Gurupi",
        "addr:postcode": "77403-090",
        "addr:street": "Avenida Rio de Janeiro",
        "addr:suburb": "Setor Central",
        "amenity": "school",
        "name": "Colegio Militar Do Estado Do Tocantins Presidente Costa E Silva",
        "phone": "+55 63 3312 2041",
        "id": "way/1032077518"
      },
      "geometry": {
        "type": "Polygon",
        "coordinates": [
          [
            [
              -49.0756436,
              -11.7210874
            ],
            [
              -49.0750539,
              -11.7218572
            ],
            [
              -49.074305,
              -11.7213071
            ],
            [
              -49.0748948,
              -11.7205374
            ],
            [
              -49.0756436,
              -11.7210874
            ]
          ]
        ]
      }
    },
    {
      "type": "Feature",
      "id": "way/1032077619",
      "properties": {
        "timestamp": "2022-02-16T18:23:45Z",
        "version": 1,
        "changeset": 117488592,
        "addr:city": "Gurupi",
        "addr:housenumber": "1830",
        "addr:postcode": "77403-110",
        "addr:street": "Avenida Minas Gerais",
        "addr:suburb": "Setor Central",
        "amenity": "school",
        "name": "Escola Municipal Odair Lucio",
        "phone": "+55 63 3313 2627",
        "id": "way/1032077619"
      },
      "geometry": {
        "type": "Polygon",
        "coordinates": [
          [
            [
              -49.0813295,
              -11.723202
            ],
            [
              -49.0810593,
              -11.7235446
            ],
            [
              -49.0807145,
              -11.7232838
            ],
            [
              -49.0809846,
              -11.7229413
            ],
            [
              -49.0813295,
              -11.723202
            ]
          ]
        ]
      }
    },
    {
      "type": "Feature",
      "id": "way/1032078594",
      "properties": {
        "timestamp": "2022-02-16T18:28:18Z",
        "version": 1,
        "changeset": 117488749,
        "addr:city": "Gurupi",
        "addr:postcode": "77405-370",
        "addr:street": "Rua Perimetral Oeste",
        "addr:suburb": "Setor Pedroso",
        "amenity": "school",
        "name": "Escola Municipal Gilberto Rezende Rocha Filho",
        "id": "way/1032078594"
      },
      "geometry": {
        "type": "Polygon",
        "coordinates": [
          [
            [
              -49.0871756,
              -11.7163367
            ],
            [
              -49.0874626,
              -11.7168383
            ],
            [
              -49.0874358,
              -11.7168908
            ],
            [
              -49.0865453,
              -11.7168856
            ],
            [
              -49.0865077,
              -11.7168278
            ],
            [
              -49.086497,
              -11.7163761
            ],
            [
              -49.0865506,
              -11.7163235
            ],
            [
              -49.0871756,
              -11.7163367
            ]
          ]
        ]
      }
    },
    {
      "type": "Feature",
      "id": "way/1032078669",
      "properties": {
        "timestamp": "2022-02-16T18:29:11Z",
        "version": 1,
        "changeset": 117488771,
        "addr:city": "Gurupi",
        "addr:postcode": "77430-010",
        "addr:street": "Rua Vinete e Nove",
        "amenity": "school",
        "name": "Escola Municipal Professor Valnir De Souza Soares",
        "phone": "+55 63 3351 2839",
        "id": "way/1032078669"
      },
      "geometry": {
        "type": "Polygon",
        "coordinates": [
          [
            [
              -49.0861191,
              -11.7111477
            ],
            [
              -49.0866431,
              -11.7108682
            ],
            [
              -49.0869933,
              -11.7114974
            ],
            [
              -49.0864692,
              -11.711777
            ],
            [
              -49.0861191,
              -11.7111477
            ]
          ]
        ]
      }
    },
    {
      "type": "Feature",
      "id": "way/1032078997",
      "properties": {
        "timestamp": "2022-02-16T18:30:35Z",
        "version": 1,
        "changeset": 117488811,
        "addr:city": "Gurupi",
        "addr:housenumber": "506",
        "addr:postcode": "77430-700",
        "addr:street": "Rua 108",
        "amenity": "school",
        "name": "Centro Municipal De Educacao Infantil Irma Divina",
        "phone": "+55 63 3312 1244",
        "id": "way/1032078997"
      },
      "geometry": {
        "type": "Polygon",
        "coordinates": [
          [
            [
              -49.0961083,
              -11.7216698
            ],
            [
              -49.0961228,
              -11.7221653
            ],
            [
              -49.0954612,
              -11.722184
            ],
            [
              -49.0954467,
              -11.7216883
            ],
            [
              -49.0961083,
              -11.7216698
            ]
          ]
        ]
      }
    },
    {
      "type": "Feature",
      "id": "way/1032079224",
      "properties": {
        "timestamp": "2022-02-16T18:31:42Z",
        "version": 1,
        "changeset": 117488849,
        "addr:city": "Gurupi",
        "addr:housenumber": "435",
        "addr:postcode": "77430-720",
        "addr:street": "Rua 110",
        "amenity": "school",
        "name": "Escola Municipal Domingos Barreira De Amorim",
        "phone": "+55 63 3313 1977",
        "id": "way/1032079224"
      },
      "geometry": {
        "type": "Polygon",
        "coordinates": [
          [
            [
              -49.0972903,
              -11.7216758
            ],
            [
              -49.0972913,
              -11.7222441
            ],
            [
              -49.0970205,
              -11.7222446
            ],
            [
              -49.0970197,
              -11.7216762
            ],
            [
              -49.0972903,
              -11.7216758
            ]
          ]
        ]
      }
    },
    {
      "type": "Feature",
      "id": "way/1032079413",
      "properties": {
        "timestamp": "2022-02-16T18:32:41Z",
        "version": 1,
        "changeset": 117488887,
        "addr:city": "Gurupi",
        "addr:postcode": "77425-170",
        "addr:street": "Rua S 16",
        "addr:suburb": "Parque Sol Nascente",
        "amenity": "school",
        "name": "Escola Estadual Dr Joaquim Pereira Da Costa",
        "phone": "+55 63 3313 1288",
        "id": "way/1032079413"
      },
      "geometry": {
        "type": "Polygon",
        "coordinates": [
          [
            [
              -49.0957077,
              -11.7272488
            ],
            [
              -49.0956701,
              -11.7276007
            ],
            [
              -49.0946616,
              -11.7274195
            ],
            [
              -49.0947153,
              -11.7271674
            ],
            [
              -49.0957077,
              -11.7272488
            ]
          ]
        ]
      }
    },
    {
      "type": "Feature",
      "id": "way/1032080055",
      "properties": {
        "timestamp": "2022-02-16T18:33:58Z",
        "version": 1,
        "changeset": 117488914,
        "addr:city": "Gurupi",
        "addr:housenumber": "842",
        "addr:postcode": "77425-260",
        "addr:street": "Rua José Simão Corrêa",
        "addr:suburb": "Alto da Boa Vista",
        "amenity": "school",
        "name": "Escola Municipal Lenival Correia Ferreira",
        "phone": "+55 63 3314 2026",
        "id": "way/1032080055"
      },
      "geometry": {
        "type": "Polygon",
        "coordinates": [
          [
            [
              -49.0993904,
              -11.7319051
            ],
            [
              -49.0992965,
              -11.7324539
            ],
            [
              -49.0984355,
              -11.7322701
            ],
            [
              -49.0985374,
              -11.7317738
            ],
            [
              -49.0993904,
              -11.7319051
            ]
          ]
        ]
      }
    },
    {
      "type": "Feature",
      "id": "way/1032080669",
      "properties": {
        "timestamp": "2022-02-16T18:36:23Z",
        "version": 1,
        "changeset": 117489015,
        "addr:city": "Gurupi",
        "addr:postcode": "7403-230",
        "addr:street": "Rua Três",
        "amenity": "school",
        "name": "Educandario Evangelico Ebenezer",
        "phone": "+55 63 3313 1260",
        "id": "way/1032080669"
      },
      "geometry": {
        "type": "Polygon",
        "coordinates": [
          [
            [
              -49.0828224,
              -11.7295021
            ],
            [
              -49.0821464,
              -11.7295888
            ],
            [
              -49.0816529,
              -11.7289664
            ],
            [
              -49.0818192,
              -11.728772
            ],
            [
              -49.0828224,
              -11.7295021
            ]
          ]
        ]
      }
    },
    {
      "type": "Feature",
      "id": "way/1033319234",
      "properties": {
        "timestamp": "2022-02-19T19:02:13Z",
        "version": 1,
        "changeset": 117616015,
        "addr:city": "Gurupi",
        "addr:postcode": "77410-540",
        "addr:street": "Rua Córsega",
        "addr:suburb": "Jardim Sevilha",
        "amenity": "school",
        "name": "Escola Municipal De Tempo Integral Jose Pereira Da Cruz",
        "phone": "+55 63 3316 1376",
        "id": "way/1033319234"
      },
      "geometry": {
        "type": "Polygon",
        "coordinates": [
          [
            [
              -49.0491081,
              -11.7393647
            ],
            [
              -49.0487924,
              -11.7397012
            ],
            [
              -49.0483131,
              -11.7392884
            ],
            [
              -49.0485676,
              -11.7389664
            ],
            [
              -49.0491081,
              -11.7393647
            ]
          ]
        ]
      }
    },
    {
      "type": "Feature",
      "id": "way/1033321235",
      "properties": {
        "timestamp": "2022-02-19T19:13:34Z",
        "version": 1,
        "changeset": 117616294,
        "addr:city": "Gurupi",
        "addr:housenumber": "1243",
        "addr:postcode": "77410-090",
        "addr:street": "Avenida Brasília",
        "addr:suburb": "Setor Central",
        "amenity": "school",
        "name": "Escola Municipal Antonio De Almeida Veras",
        "phone": "+55 63 3351 1341",
        "id": "way/1033321235"
      },
      "geometry": {
        "type": "Polygon",
        "coordinates": [
          [
            [
              -49.0540908,
              -11.7304766
            ],
            [
              -49.0537576,
              -11.7309128
            ],
            [
              -49.0529999,
              -11.7303581
            ],
            [
              -49.0533332,
              -11.7299217
            ],
            [
              -49.0540908,
              -11.7304766
            ]
          ]
        ]
      }
    },
    {
      "type": "Feature",
      "id": "way/1033321486",
      "properties": {
        "timestamp": "2022-02-19T19:14:33Z",
        "version": 1,
        "changeset": 117616322,
        "addr:city": "Gurupi",
        "addr:housenumber": "1075",
        "addr:postcode": "77410-060",
        "addr:street": "Avenida Paraiba",
        "addr:suburb": "Setor Central",
        "amenity": "school",
        "name": "Centro De Ensino Medio Bom Jesus",
        "phone": "+55 63 3312 2203",
        "id": "way/1033321486"
      },
      "geometry": {
        "type": "Polygon",
        "coordinates": [
          [
            [
              -49.0578108,
              -11.7290504
            ],
            [
              -49.0572341,
              -11.7297989
            ],
            [
              -49.0565045,
              -11.7292369
            ],
            [
              -49.0570919,
              -11.7285068
            ],
            [
              -49.0578108,
              -11.7290504
            ]
          ]
        ]
      }
    },
    {
      "type": "Feature",
      "id": "way/1033321599",
      "properties": {
        "timestamp": "2022-02-19T19:16:25Z",
        "version": 1,
        "changeset": 117616359,
        "addr:city": "Gurupi",
        "addr:housenumber": "1103",
        "addr:postcode": "77410-060",
        "addr:street": "Avenida Paraiba",
        "addr:suburb": "Setor Central",
        "amenity": "school",
        "name": "Instituto Presbiteriano Educacional",
        "phone": "+55 63 98427 8919",
        "id": "way/1033321599"
      },
      "geometry": {
        "type": "Polygon",
        "coordinates": [
          [
            [
              -49.0582077,
              -11.7293276
            ],
            [
              -49.0579961,
              -11.7296103
            ],
            [
              -49.0577083,
              -11.7294038
            ],
            [
              -49.0579199,
              -11.7291211
            ],
            [
              -49.0582077,
              -11.7293276
            ]
          ]
        ]
      }
    },
    {
      "type": "Feature",
      "id": "way/1033322329",
      "properties": {
        "timestamp": "2022-02-19T19:19:48Z",
        "version": 1,
        "changeset": 117616478,
        "addr:city": "Gurupi",
        "addr:housenumber": "1327",
        "addr:postcode": "77410-020",
        "addr:street": "Avenida Maranhão",
        "addr:suburb": "Setor Central",
        "amenity": "school",
        "name": "Centro Educ Fe E Alegria Paroquial Bernardo Sayao",
        "id": "way/1033322329"
      },
      "geometry": {
        "type": "Polygon",
        "coordinates": [
          [
            [
              -49.0625623,
              -11.7270205
            ],
            [
              -49.0622195,
              -11.7274524
            ],
            [
              -49.0618549,
              -11.727175
            ],
            [
              -49.0621976,
              -11.726743
            ],
            [
              -49.0625623,
              -11.7270205
            ]
          ]
        ]
      }
    },
    {
      "type": "Feature",
      "id": "way/1033322774",
      "properties": {
        "timestamp": "2022-02-19T19:22:11Z",
        "version": 1,
        "changeset": 117616577,
        "addr:city": "Gurupi",
        "addr:housenumber": "497",
        "addr:postcode": "77440-650",
        "addr:street": "Avenida Vinte e Um de Outubro",
        "addr:suburb": "Setor Aeroporto",
        "amenity": "school",
        "name": "Escola Estadual Setor Aeroporto",
        "id": "way/1033322774"
      },
      "geometry": {
        "type": "Polygon",
        "coordinates": [
          [
            [
              -49.0560512,
              -11.7154779
            ],
            [
              -49.0561666,
              -11.7158823
            ],
            [
              -49.0557052,
              -11.71599
            ],
            [
              -49.0555845,
              -11.7156065
            ],
            [
              -49.0560512,
              -11.7154779
            ]
          ]
        ]
      }
    },
    {
      "type": "Feature",
      "id": "way/1033322780",
      "properties": {
        "timestamp": "2022-02-19T19:23:51Z",
        "version": 2,
        "changeset": 117616620,
        "addr:city": "Gurupi",
        "addr:housenumber": "1055",
        "addr:postcode": "7440-320",
        "addr:street": "Avenida Santos Dumont",
        "addr:suburb": "Setor Aeroporto III",
        "amenity": "school",
        "name": "Centro Municipal De Educacao Infantil Raimunda Regino De Lima",
        "id": "way/1033322780"
      },
      "geometry": {
        "type": "Polygon",
        "coordinates": [
          [
            [
              -49.0464175,
              -11.7134226
            ],
            [
              -49.0467802,
              -11.7141354
            ],
            [
              -49.0463818,
              -11.7143298
            ],
            [
              -49.0460189,
              -11.7136171
            ],
            [
              -49.0464175,
              -11.7134226
            ]
          ]
        ]
      }
    },
    {
      "type": "Feature",
      "id": "way/1033322916",
      "properties": {
        "timestamp": "2022-02-19T19:23:11Z",
        "version": 1,
        "changeset": 117616599,
        "addr:city": "Gurupi",
        "addr:postcode": "77440-430",
        "addr:street": "Avenida Aeroporto",
        "addr:suburb": "Setor Aeroporto III",
        "amenity": "school",
        "name": "Escola Estadual Hercilia Carvalho Da Silva",
        "phone": "+55 63 3351 3733",
        "id": "way/1033322916"
      },
      "geometry": {
        "type": "Polygon",
        "coordinates": [
          [
            [
              -49.048195,
              -11.7125915
            ],
            [
              -49.0483774,
              -11.7129933
            ],
            [
              -49.048187,
              -11.7130695
            ],
            [
              -49.0483399,
              -11.7133741
            ],
            [
              -49.0480663,
              -11.7135291
            ],
            [
              -49.0477444,
              -11.7128121
            ],
            [
              -49.048195,
              -11.7125915
            ]
          ]
        ]
      }
    },
    {
      "type": "Feature",
      "id": "way/1033323435",
      "properties": {
        "timestamp": "2022-02-19T19:25:21Z",
        "version": 1,
        "changeset": 117616659,
        "addr:city": "Gurupi",
        "addr:housenumber": "858",
        "addr:postcode": "77440-440",
        "addr:street": "Rua Perimetral Norte",
        "addr:suburb": "Setor Aeroporto III",
        "amenity": "school",
        "name": "Escola Municipal Vila Nova",
        "id": "way/1033323435"
      },
      "geometry": {
        "type": "Polygon",
        "coordinates": [
          [
            [
              -49.0477712,
              -11.7108162
            ],
            [
              -49.0481462,
              -11.7115451
            ],
            [
              -49.0478689,
              -11.7116819
            ],
            [
              -49.0474937,
              -11.7109531
            ],
            [
              -49.0477712,
              -11.7108162
            ]
          ]
        ]
      }
    },
    {
      "type": "Feature",
      "id": "way/1033323532",
      "properties": {
        "timestamp": "2022-02-19T19:27:13Z",
        "version": 1,
        "changeset": 117616703,
        "addr:city": "Gurupi",
        "addr:housenumber": "67",
        "addr:postcode": "77410-440",
        "addr:street": "Avenida Linolandia",
        "addr:suburb": "Alto dos Buritis",
        "amenity": "school",
        "name": "Escola Municipal Antonio Lino De Sousa",
        "phone": "+55 63 3316 1387",
        "id": "way/1033323532"
      },
      "geometry": {
        "type": "Polygon",
        "coordinates": [
          [
            [
              -49.0469454,
              -11.7321327
            ],
            [
              -49.0470263,
              -11.7326258
            ],
            [
              -49.0461273,
              -11.7327671
            ],
            [
              -49.0460464,
              -11.7322741
            ],
            [
              -49.0469454,
              -11.7321327
            ]
          ]
        ]
      }
    },
    {
      "type": "Feature",
      "id": "way/1033323752",
      "properties": {
        "timestamp": "2022-02-19T19:28:32Z",
        "version": 1,
        "changeset": 117616740,
        "addr:city": "Gurupi",
        "addr:housenumber": "545",
        "addr:postcode": "77410-470",
        "addr:street": "Alameda Madrid",
        "addr:suburb": "Jardim Sevilha",
        "amenity": "school",
        "name": "IFTO - Campus Gurupi",
        "phone": "+55 63 3311 5400",
        "id": "way/1033323752"
      },
      "geometry": {
        "type": "Polygon",
        "coordinates": [
          [
            [
              -49.0557589,
              -11.7385151
            ],
            [
              -49.0553753,
              -11.7397914
            ],
            [
              -49.0547182,
              -11.7395997
            ],
            [
              -49.0547316,
              -11.7394263
            ],
            [
              -49.0541656,
              -11.7390009
            ],
            [
              -49.0543802,
              -11.7383129
            ],
            [
              -49.054466,
              -11.7382367
            ],
            [
              -49.0557589,
              -11.7385151
            ]
          ]
        ]
      }
    },
    {
      "type": "Feature",
      "id": "way/1033336661",
      "properties": {
        "timestamp": "2022-02-19T20:45:01Z",
        "version": 1,
        "changeset": 117618843,
        "addr:city": "Gurupi",
        "addr:housenumber": "238",
        "addr:postcode": "77413-770",
        "addr:street": "Rua X",
        "addr:suburb": "União V",
        "amenity": "school",
        "name": "Escola Municipal Orlindo Pereira Da Mota",
        "id": "way/1033336661"
      },
      "geometry": {
        "type": "Polygon",
        "coordinates": [
          [
            [
              -49.0694854,
              -11.7395707
            ],
            [
              -49.0691625,
              -11.7399947
            ],
            [
              -49.0687628,
              -11.739703
            ],
            [
              -49.0690858,
              -11.7392789
            ],
            [
              -49.0694854,
              -11.7395707
            ]
          ]
        ]
      }
    },
    {
      "type": "Feature",
      "id": "way/1033336777",
      "properties": {
        "timestamp": "2022-02-19T20:46:30Z",
        "version": 1,
        "changeset": 117618905,
        "addr:city": "Gurupi",
        "addr:housenumber": "2929",
        "addr:postcode": "77405-260",
        "addr:street": "Avenida Ceará",
        "addr:suburb": "Setor Casego",
        "amenity": "school",
        "name": "Associacao Gurupiense Dos Amigos Do Basquetebol",
        "phone": "+55 63 3312 5080",
        "id": "way/1033336777"
      },
      "geometry": {
        "type": "Polygon",
        "coordinates": [
          [
            [
              -49.0731047,
              -11.7391664
            ],
            [
              -49.0720506,
              -11.7406002
            ],
            [
              -49.0707766,
              -11.7397231
            ],
            [
              -49.0719701,
              -11.7382446
            ],
            [
              -49.0731047,
              -11.7391664
            ]
          ]
        ]
      }
    },
    {
      "type": "Feature",
      "id": "way/1033341464",
      "properties": {
        "timestamp": "2022-02-19T21:14:40Z",
        "version": 1,
        "changeset": 117619780,
        "addr:city": "Gurupi",
        "addr:housenumber": "91",
        "addr:postcode": "77423-450",
        "addr:street": "Rua A",
        "addr:suburb": "Vila Guaracy",
        "amenity": "school",
        "name": "Escola Estadual Vila Guaracy",
        "phone": "+55 63 3314 1251",
        "id": "way/1033341464"
      },
      "geometry": {
        "type": "Polygon",
        "coordinates": [
          [
            [
              -49.079829,
              -11.7399292
            ],
            [
              -49.0794597,
              -11.7402722
            ],
            [
              -49.0793222,
              -11.7401528
            ],
            [
              -49.079645,
              -11.7397549
            ],
            [
              -49.079829,
              -11.7399292
            ]
          ]
        ]
      }
    },
    {
      "type": "Feature",
      "id": "way/1033341506",
      "properties": {
        "timestamp": "2022-02-19T21:15:43Z",
        "version": 1,
        "changeset": 117619806,
        "addr:city": "Gurupi",
        "addr:housenumber": "370",
        "addr:postcode": "77423-350",
        "addr:street": "Rua E",
        "amenity": "school",
        "name": "Associacao De Apoio A Escola Especial Sao Francisco De Assis",
        "phone": "+55 63 3314 1404",
        "id": "way/1033341506"
      },
      "geometry": {
        "type": "Polygon",
        "coordinates": [
          [
            [
              -49.085357,
              -11.7391112
            ],
            [
              -49.0855689,
              -11.7397336
            ],
            [
              -49.0848474,
              -11.7400198
            ],
            [
              -49.0846919,
              -11.7392189
            ],
            [
              -49.085357,
              -11.7391112
            ]
          ]
        ]
      }
    },
    {
      "type": "Feature",
      "id": "way/1033342104",
      "properties": {
        "timestamp": "2022-02-19T21:19:22Z",
        "version": 1,
        "changeset": 117619880,
        "addr:city": "Gurupi",
        "addr:housenumber": "451",
        "addr:postcode": "77423-160",
        "addr:street": "Rua Oito",
        "addr:suburb": "Waldir Lins I",
        "amenity": "school",
        "name": "Escola Estadual Dr Waldir Lins",
        "phone": "+55 63 3314 1459",
        "id": "way/1033342104"
      },
      "geometry": {
        "type": "Polygon",
        "coordinates": [
          [
            [
              -49.0879507,
              -11.73768
            ],
            [
              -49.0880983,
              -11.7383155
            ],
            [
              -49.0873741,
              -11.7384678
            ],
            [
              -49.0872292,
              -11.7378454
            ],
            [
              -49.0879507,
              -11.73768
            ]
          ]
        ]
      }
    },
    {
      "type": "Feature",
      "id": "way/1033342308",
      "properties": {
        "timestamp": "2022-02-19T21:20:19Z",
        "version": 1,
        "changeset": 117619904,
        "addr:city": "Gurupi",
        "addr:postcode": "77425-520",
        "addr:street": "Rua A 07",
        "amenity": "school",
        "name": "Escola Municipal Dr Ulisses Guimaraes",
        "phone": "+55 63 3312 4745",
        "id": "way/1033342308"
      },
      "geometry": {
        "type": "Polygon",
        "coordinates": [
          [
            [
              -49.116578,
              -11.7303451
            ],
            [
              -49.1157787,
              -11.7309885
            ],
            [
              -49.1147273,
              -11.7310722
            ],
            [
              -49.1146794,
              -11.7304959
            ],
            [
              -49.116578,
              -11.7303451
            ]
          ]
        ]
      }
    },
    {
      "type": "Feature",
      "id": "way/1033342448",
      "properties": {
        "timestamp": "2022-02-19T21:21:13Z",
        "version": 2,
        "changeset": 117619934,
        "addr:city": "Gurupi",
        "addr:housenumber": "674",
        "addr:postcode": "77426-120",
        "addr:street": "Rua 9",
        "addr:suburb": "Campo Belo",
        "amenity": "school",
        "name": "Centro Municipal De Educacao Infantil Oneide De Sousa Coelho",
        "id": "way/1033342448"
      },
      "geometry": {
        "type": "Polygon",
        "coordinates": [
          [
            [
              -49.1297484,
              -11.7236962
            ],
            [
              -49.1298042,
              -11.7241028
            ],
            [
              -49.1292311,
              -11.7241781
            ],
            [
              -49.1291753,
              -11.7237716
            ],
            [
              -49.1297484,
              -11.7236962
            ]
          ]
        ]
      }
    },
    {
      "type": "Feature",
      "id": "way/1033342629",
      "properties": {
        "timestamp": "2022-02-19T21:22:01Z",
        "version": 1,
        "changeset": 117619954,
        "amenity": "school",
        "name": "Escola Municipal Elizeu De Carvalho",
        "id": "way/1033342629"
      },
      "geometry": {
        "type": "Polygon",
        "coordinates": [
          [
            [
              -49.0401424,
              -11.6397845
            ],
            [
              -49.0404777,
              -11.6407433
            ],
            [
              -49.039614,
              -11.6410297
            ],
            [
              -49.0392707,
              -11.6400761
            ],
            [
              -49.0401424,
              -11.6397845
            ]
          ]
        ]
      }
    },
    {
      "type": "Feature",
      "id": "way/1033360124",
      "properties": {
        "timestamp": "2022-02-20T00:03:40Z",
        "version": 1,
        "changeset": 117622822,
        "amenity": "school",
        "name": "Escola Municipal De Tempo Integral Benevenuto Alves Moreira",
        "id": "way/1033360124"
      },
      "geometry": {
        "type": "Polygon",
        "coordinates": [
          [
            [
              -48.6434266,
              -11.4377931
            ],
            [
              -48.6436598,
              -11.4382411
            ],
            [
              -48.6430109,
              -11.4385657
            ],
            [
              -48.6427777,
              -11.4381176
            ],
            [
              -48.6434266,
              -11.4377931
            ]
          ]
        ]
      }
    },
    {
      "type": "Feature",
      "id": "node/9511116745",
      "properties": {
        "timestamp": "2022-02-16T18:17:26Z",
        "version": 1,
        "changeset": 117488386,
        "addr:city": "Gurupi",
        "addr:housenumber": "1340",
        "addr:postcode": "77405-100",
        "addr:street": "Rua Antônio Lisboa da Cruz",
        "addr:suburb": "Setor Central",
        "amenity": "school",
        "name": "Grupo Educacional Moderno",
        "phone": "+55 63 3312 5555",
        "id": "node/9511116745"
      },
      "geometry": {
        "type": "Point",
        "coordinates": [
          -49.0667827,
          -11.7277478
        ]
      }
    },
    {
      "type": "Feature",
      "id": "node/9511123889",
      "properties": {
        "timestamp": "2022-02-16T18:15:20Z",
        "version": 1,
        "changeset": 117488303,
        "addr:city": "Gurupi",
        "addr:housenumber": "2089",
        "addr:postcode": "77410-050",
        "addr:street": "Avenida Ceará",
        "addr:suburb": "Setor Central",
        "amenity": "school",
        "name": "Escola Tecnica Evangelica Do Tocantins",
        "phone": "+55 63 3312 7274",
        "id": "node/9511123889"
      },
      "geometry": {
        "type": "Point",
        "coordinates": [
          -49.0663724,
          -11.7341662
        ]
      }
    },
    {
      "type": "Feature",
      "id": "node/9511138726",
      "properties": {
        "timestamp": "2022-02-16T18:14:24Z",
        "version": 2,
        "changeset": 117488271,
        "addr:city": "Gurupi",
        "addr:housenumber": "1843",
        "addr:postcode": "77410-050",
        "addr:street": "Avenida Ceará",
        "addr:suburb": "Setor Central",
        "amenity": "school",
        "name": "Centro Educacional De Gurupi",
        "phone": "+55 63 3312 2393",
        "id": "node/9511138726"
      },
      "geometry": {
        "type": "Point",
        "coordinates": [
          -49.0644895,
          -11.7327428
        ]
      }
    },
    {
      "type": "Feature",
      "id": "node/9511142960",
      "properties": {
        "timestamp": "2022-02-16T18:25:42Z",
        "version": 1,
        "changeset": 117488661,
        "addr:city": "Gurupi",
        "addr:housenumber": "1990",
        "addr:postcode": "77403-170",
        "addr:street": "Avenida Roraima",
        "amenity": "school",
        "name": "Instituto Educacional Passo A Passo",
        "id": "node/9511142960"
      },
      "geometry": {
        "type": "Point",
        "coordinates": [
          -49.084354,
          -11.7232122
        ]
      }
    },
    {
      "type": "Feature",
      "id": "node/9511144198",
      "properties": {
        "timestamp": "2022-02-16T18:34:56Z",
        "version": 1,
        "changeset": 117488956,
        "addr:city": "Gurupi",
        "addr:housenumber": "162",
        "addr:postcode": "77425-300",
        "addr:street": "Rua Horácio Joaquim Lemos",
        "addr:suburb": "Alto da Boa Vista",
        "amenity": "school",
        "name": "Centro Educacional Pingo De Gente",
        "id": "node/9511144198"
      },
      "geometry": {
        "type": "Point",
        "coordinates": [
          -49.0888868,
          -11.7291555
        ]
      }
    },
    {
      "type": "Feature",
      "id": "node/9511145872",
      "properties": {
        "timestamp": "2022-02-16T18:18:23Z",
        "version": 1,
        "changeset": 117488416,
        "addr:city": "Gurupi",
        "addr:housenumber": "973",
        "addr:postcode": "77405-105",
        "addr:street": "Rua Presidente Juscelino Kubitschek",
        "addr:suburb": "Setor Central",
        "amenity": "school",
        "name": "Colegio Bernardo Sayao De Gurupi",
        "phone": "+55 63 3351 2271",
        "id": "node/9511145872"
      },
      "geometry": {
        "type": "Point",
        "coordinates": [
          -49.0693657,
          -11.7256967
        ]
      }
    },
    {
      "type": "Feature",
      "id": "node/9511146730",
      "properties": {
        "timestamp": "2022-02-16T18:16:43Z",
        "version": 1,
        "changeset": 117488366,
        "addr:city": "Gurupi",
        "addr:housenumber": "1344",
        "addr:postcode": "77402-090",
        "addr:street": "Rua Presidente Getulio Vargas",
        "addr:suburb": "Setor Central",
        "amenity": "school",
        "name": "Instituto Presbiteriano Araguaia",
        "phone": "+55 63 3312 3330",
        "id": "node/9511146730"
      },
      "geometry": {
        "type": "Point",
        "coordinates": [
          -49.0677617,
          -11.7299276
        ]
      }
    },
    {
      "type": "Feature",
      "id": "node/9511149506",
      "properties": {
        "timestamp": "2022-02-16T18:20:21Z",
        "version": 1,
        "changeset": 117488471,
        "addr:city": "Gurupi",
        "addr:housenumber": "1660",
        "addr:postcode": "77403-050",
        "addr:street": "Avenida Paraná",
        "addr:suburb": "Setor Central",
        "amenity": "school",
        "name": "Escola Sagrado Coracao De Maria",
        "phone": "+55 63 3312 1363",
        "id": "node/9511149506"
      },
      "geometry": {
        "type": "Point",
        "coordinates": [
          -49.0746523,
          -11.7270939
        ]
      }
    },
    {
      "type": "Feature",
      "id": "node/9511152347",
      "properties": {
        "timestamp": "2022-02-16T18:27:14Z",
        "version": 1,
        "changeset": 117488713,
        "addr:city": "Gurupi",
        "addr:housenumber": "10",
        "addr:postcode": "77403-160",
        "addr:street": "Rua Newton Rocha Gomes",
        "addr:suburb": "Vila Alagoana",
        "amenity": "school",
        "name": "Instituto Tecnico Profissionalizante De Gurupi Ltda - Intep",
        "id": "node/9511152347"
      },
      "geometry": {
        "type": "Point",
        "coordinates": [
          -49.0829713,
          -11.7216548
        ]
      }
    },
    {
      "type": "Feature",
      "id": "node/9511177038",
      "properties": {
        "timestamp": "2022-02-16T18:38:25Z",
        "version": 1,
        "changeset": 117489091,
        "addr:city": "Gurupi",
        "addr:housenumber": "486",
        "addr:postcode": "77423-410",
        "addr:street": "Rua M",
        "amenity": "school",
        "name": "Centro De Ensino Medio Ary Ribeiro Valadao Filho",
        "id": "node/9511177038"
      },
      "geometry": {
        "type": "Point",
        "coordinates": [
          -49.0792818,
          -11.7355423
        ]
      }
    },
    {
      "type": "Feature",
      "id": "node/9520309807",
      "properties": {
        "timestamp": "2022-02-19T19:10:04Z",
        "version": 1,
        "changeset": 117616214,
        "addr:city": "Gurupi",
        "addr:housenumber": "1361",
        "addr:postcode": "77410-130",
        "addr:street": "Avenida Território do Guaporé",
        "addr:suburb": "Setor Central",
        "amenity": "school",
        "name": "Centro Educacional Gotinhas Do Saber Ltda Me",
        "phone": "+55 63 3351 2711",
        "id": "node/9520309807"
      },
      "geometry": {
        "type": "Point",
        "coordinates": [
          -49.0517865,
          -11.7344656
        ]
      }
    },
    {
      "type": "Feature",
      "id": "node/9520317489",
      "properties": {
        "timestamp": "2022-02-19T19:17:55Z",
        "version": 1,
        "changeset": 117616414,
        "addr:city": "Gurupi",
        "addr:housenumber": "1345",
        "addr:postcode": "77410-050",
        "addr:street": "Avenida Ceará",
        "addr:suburb": "Setor Central",
        "amenity": "school",
        "name": "Escola Infantil Cantinho Feliz",
        "id": "node/9520317489"
      },
      "geometry": {
        "type": "Point",
        "coordinates": [
          -49.0603213,
          -11.7295389
        ]
      }
    },
    {
      "type": "Feature",
      "id": "node/9520453241",
      "properties": {
        "timestamp": "2022-02-19T20:47:35Z",
        "version": 1,
        "changeset": 117618948,
        "addr:city": "Gurupi",
        "addr:housenumber": "109",
        "addr:postcode": "77423-030",
        "addr:street": "Rua D",
        "addr:suburb": "Waldir Lins I",
        "amenity": "school",
        "name": "Sesc Escola",
        "phone": "+55 63 3301 2100",
        "id": "node/9520453241"
      },
      "geometry": {
        "type": "Point",
        "coordinates": [
          -49.0773319,
          -11.7340612
        ]
      }
    }
  ]
}
