{
  "type": "FeatureCollection",
  "features": [
    {
      "type": "Feature",
      "id": "way/417722961",
      "properties": {
        "timestamp": "2021-08-30T18:11:55Z",
        "version": 3,
        "changeset": 110474521,
        "addr:city": "Rio Grande da Serra",
        "addr:country": "BR",
        "addr:housenumber": "500",
        "addr:postcode": "09450-000",
        "addr:street": "Rua Prefeito Cido Franco",
        "addr:suburb": "Vila Arnoud",
        "amenity": "clinic",
        "building": "yes",
        "emergency": "yes",
        "healthcare": "clinic",
        "healthcare:speciality": "general;emergency",
        "name": "Unidade Básica do  Centro",
        "opening_hours": "Mo - Fr 07:00-17:00; Sa,Su,PH off",
        "operator": "Secretaria Municipal da Saúde",
        "operator:type": "government",
        "phone": "+55 11 4820 8020",
        "id": "way/417722961"
      },
      "geometry": {
        "type": "Polygon",
        "coordinates": [
          [
            [
              -46.3964103,
              -23.7423009
            ],
            [
              -46.3964406,
              -23.742392
            ],
            [
              -46.3963922,
              -23.7424157
            ],
            [
              -46.3963257,
              -23.7423595
            ],
            [
              -46.3963195,
              -23.7423188
            ],
            [
              -46.3964103,
              -23.7423009
            ]
          ]
        ]
      }
    },
    {
      "type": "Feature",
      "id": "way/1209100130",
      "properties": {
        "timestamp": "2023-09-19T22:36:31Z",
        "version": 2,
        "changeset": 141488072,
        "addr:housenumber": "373",
        "addr:street": "Avenida Jean Lieutaud",
        "addr:suburb": "Santa Tereza",
        "amenity": "clinic",
        "healthcare": "clinic",
        "healthcare:speciality": "general;paediatrics;vaccination;ginecologia",
        "name": "Unidade Básica de Saúde Maria Rosa Alonso Franco",
        "opening_hours": "Mo-Fr 07:00-17:00; PH off",
        "operator": "Secretaria Municipal de Saúde",
        "operator:type": "government",
        "phone": "+55 11 2770 0195",
        "ref:CNES": "2748142",
        "short_name": "UBS Santa Tereza",
        "source": "CNES",
        "id": "way/1209100130"
      },
      "geometry": {
        "type": "Polygon",
        "coordinates": [
          [
            [
              -46.4028308,
              -23.7521926
            ],
            [
              -46.4026025,
              -23.7524523
            ],
            [
              -46.4023741,
              -23.7522976
            ],
            [
              -46.402557,
              -23.7521049
            ],
            [
              -46.4026094,
              -23.7520859
            ],
            [
              -46.4026687,
              -23.7520967
            ],
            [
              -46.4028308,
              -23.7521926
            ]
          ]
        ]
      }
    },
    {
      "type": "Feature",
      "id": "way/1210293553",
      "properties": {
        "timestamp": "2023-09-23T22:35:00Z",
        "version": 2,
        "changeset": 141663057,
        "addr:housenumber": "177",
        "addr:postcode": "09450-000",
        "addr:street": "Avenida Doutor Rui Trindade",
        "addr:suburb": "Parque América",
        "amenity": "clinic",
        "healthcare": "clinic",
        "healthcare:speciality": "general;paediatrics;ginecologia;vaccination",
        "name": "Unidade Básica de Saúde Parque América",
        "opening_hours": "Mo-Fr 07:00-17:00; PH off",
        "operator": "Secretaria da Saúde",
        "operator:type": "government",
        "phone": "+55 11 2770 0198",
        "ref:CNES": "2748126",
        "source": "CNES",
        "id": "way/1210293553"
      },
      "geometry": {
        "type": "Polygon",
        "coordinates": [
          [
            [
              -46.4103954,
              -23.7613253
            ],
            [
              -46.410435,
              -23.7614825
            ],
            [
              -46.4102649,
              -23.761518
            ],
            [
              -46.4102154,
              -23.7613434
            ],
            [
              -46.4102847,
              -23.7613268
            ],
            [
              -46.4102913,
              -23.7613472
            ],
            [
              -46.4103954,
              -23.7613253
            ]
          ]
        ]
      }
    },
    {
      "type": "Feature",
      "id": "way/1210435585",
      "properties": {
        "timestamp": "2023-09-23T22:29:43Z",
        "version": 1,
        "changeset": 141662975,
        "addr:housenumber": "55",
        "addr:postcode": "09450-000",
        "addr:street": "Rua José Dotta",
        "addr:suburb": "Vila Lopes",
        "amenity": "clinic",
        "building": "yes",
        "healthcare": "clinic",
        "healthcare:speciality": "general;paediatrics;ginecologia;vaccination",
        "name": "Unidade Básica de Saúde Vicente Cardoso",
        "opening_hours": "Mo-Fr 07:00-17:00; PH off",
        "operator": "Secretaria da Saúde",
        "operator:type": "government",
        "phone": "+55 11 2770 0196",
        "short_name": "UBS Vila Lopes",
        "id": "way/1210435585"
      },
      "geometry": {
        "type": "Polygon",
        "coordinates": [
          [
            [
              -46.3909979,
              -23.7291888
            ],
            [
              -46.3910326,
              -23.7292175
            ],
            [
              -46.3910998,
              -23.7292739
            ],
            [
              -46.3911145,
              -23.7292636
            ],
            [
              -46.3911682,
              -23.7293005
            ],
            [
              -46.3911099,
              -23.7293621
            ],
            [
              -46.3909453,
              -23.7292431
            ],
            [
              -46.3909979,
              -23.7291888
            ]
          ]
        ]
      }
    },
    {
      "type": "Feature",
      "id": "way/1210759739",
      "properties": {
        "timestamp": "2023-09-25T13:13:38Z",
        "version": 1,
        "changeset": 141731173,
        "addr:housenumber": "60",
        "addr:postcode": "09450-000",
        "addr:street": "Rua dos Sábias",
        "addr:suburb": "Vila Niwa",
        "amenity": "clinic",
        "building": "yes",
        "healthcare": "clinic",
        "healthcare:speciality": "general;paediatrics;vaccination;ginecologia",
        "name": "Unidade Básica de Saúde Vila Niwa",
        "opening_hours": "Mo-Fr 07:00-17:00; PH off",
        "operator": "Secretaria da Saúde",
        "operator:type": "government",
        "phone": "+55 11 2770 0199",
        "ref:CNES": "7215207",
        "short_name": "UBS Vila Niwa",
        "source": "CNES",
        "id": "way/1210759739"
      },
      "geometry": {
        "type": "Polygon",
        "coordinates": [
          [
            [
              -46.3585031,
              -23.7388557
            ],
            [
              -46.3585344,
              -23.7389452
            ],
            [
              -46.3584219,
              -23.7389739
            ],
            [
              -46.3583961,
              -23.7388811
            ],
            [
              -46.3585031,
              -23.7388557
            ]
          ]
        ]
      }
    },
    {
      "type": "Feature",
      "id": "way/1211073073",
      "properties": {
        "timestamp": "2023-09-26T23:39:43Z",
        "version": 2,
        "changeset": 141794890,
        "addr:housenumber": "151",
        "addr:street": "Rua Aruja",
        "addr:suburb": "Vila Conde",
        "amenity": "clinic",
        "building": "yes",
        "healthcare": "clinic",
        "healthcare:speciality": "general;paediatrics;vaccination;ginecologia",
        "name": "Unidade Básica de Saúde Vila Conde",
        "opening_hours": "Mo-Fr 07:00-17:00; PH off",
        "operator": "Secretaria da Saúde",
        "operator:type": "government",
        "short_name": "UBS Vila Conde",
        "id": "way/1211073073"
      },
      "geometry": {
        "type": "Polygon",
        "coordinates": [
          [
            [
              -46.3791208,
              -23.7477778
            ],
            [
              -46.3792085,
              -23.7478677
            ],
            [
              -46.3790748,
              -23.7479576
            ],
            [
              -46.3789912,
              -23.7478792
            ],
            [
              -46.3791208,
              -23.7477778
            ]
          ]
        ]
      }
    }
  ]
}
