{
  "type": "FeatureCollection",
  "features": [
    {
      "type": "Feature",
      "id": "way/1210575564",
      "properties": {
        "timestamp": "2023-09-24T16:28:11Z",
        "version": 1,
        "changeset": 141690232,
        "addr:housenumber": "347",
        "addr:street": "Rua Prefeito Carlos José Carlson",
        "addr:suburb": "Centro",
        "building": "yes",
        "government": "public_service",
        "name": "Conselho Tutelar",
        "office": "government",
        "old_addr:housenumber": "55",
        "phone": "+55 11 2770 0155",
        "id": "way/1210575564"
      },
      "geometry": {
        "type": "Polygon",
        "coordinates": [
          [
            [
              -46.3934813,
              -23.7454284
            ],
            [
              -46.393548,
              -23.7454866
            ],
            [
              -46.3934617,
              -23.7455626
            ],
            [
              -46.393478,
              -23.745579
            ],
            [
              -46.3934406,
              -23.7456073
            ],
            [
              -46.3933494,
              -23.7455298
            ],
            [
              -46.393395,
              -23.745491
            ],
            [
              -46.3934096,
              -23.7454985
            ],
            [
              -46.3934813,
              -23.7454284
            ]
          ]
        ]
      }
    },
    {
      "type": "Feature",
      "id": "way/1210575567",
      "properties": {
        "timestamp": "2023-09-24T16:28:11Z",
        "version": 1,
        "changeset": 141690232,
        "addr:housenumber": "280",
        "addr:street": "Rua Prefeito Carlos José Carlson",
        "addr:suburb": "Vila Albano",
        "building": "yes",
        "government": "public_service",
        "name": "Secretaria de Desenvolvimento Econômico e Turístico",
        "office": "government",
        "opening_hours": "Mo-Fr 08:00-17:00; PH off",
        "phone": "+55 11 2770 0182",
        "id": "way/1210575567"
      },
      "geometry": {
        "type": "Polygon",
        "coordinates": [
          [
            [
              -46.3931898,
              -23.7447607
            ],
            [
              -46.3933506,
              -23.7448792
            ],
            [
              -46.3932614,
              -23.7449529
            ],
            [
              -46.3931295,
              -23.7447905
            ],
            [
              -46.3931898,
              -23.7447607
            ]
          ]
        ]
      }
    },
    {
      "type": "Feature",
      "id": "node/11215862070",
      "properties": {
        "timestamp": "2023-09-24T16:28:11Z",
        "version": 1,
        "changeset": 141690232,
        "addr:street": "Rua Prefeito Carlos José Carlson",
        "addr:suburb": "Vila Albano",
        "government": "public_service",
        "name": "SEBRAE",
        "office": "government",
        "id": "node/11215862070"
      },
      "geometry": {
        "type": "Point",
        "coordinates": [
          -46.3931857,
          -23.744824
        ]
      }
    },
    {
      "type": "Feature",
      "id": "node/11541811569",
      "properties": {
        "timestamp": "2024-01-23T01:08:15Z",
        "version": 1,
        "changeset": 146574291,
        "addr:housenumber": "700",
        "addr:street": "Rua do Progresso",
        "name": "Prefeitura Municipal de Rio Grande da Serra",
        "office": "government",
        "id": "node/11541811569"
      },
      "geometry": {
        "type": "Point",
        "coordinates": [
          -46.3967853,
          -23.7504585
        ]
      }
    }
  ]
}
