{
  "type": "FeatureCollection",
  "features": [
    {
      "type": "Feature",
      "id": "node/4823094092",
      "properties": {
        "timestamp": "2025-03-08T14:49:53Z",
        "version": 4,
        "changeset": 163367277,
        "addr:city": "Vitória",
        "addr:postcode": "29060-230",
        "addr:street": "Avenida Dante Michelini",
        "addr:suburb": "Jardim da Penha",
        "amenity": "bicycle_rental",
        "capacity": "28",
        "email": "bikevitoria@serttel.com.br",
        "fee": "yes",
        "name": "Bike Vitória - Estação 14",
        "network": "Sistema de Bicicletas Públicas Bike Vitória",
        "opening_hours": "Mo-Su 05:00-23:59",
        "operator": "Serttel",
        "operator:type": "private",
        "payment:app": "yes",
        "phone": "40034704",
        "website": "https://www.bikevitoria.com",
        "id": "node/4823094092"
      },
      "geometry": {
        "type": "Point",
        "coordinates": [
          -40.2892054,
          -20.2926507
        ]
      }
    },
    {
      "type": "Feature",
      "id": "node/4823094093",
      "properties": {
        "timestamp": "2025-02-01T11:08:43Z",
        "version": 3,
        "changeset": 162006704,
        "amenity": "bicycle_rental",
        "bicycle_rental": "docking_station",
        "capacity": "20",
        "operator": "PMV",
        "id": "node/4823094093"
      },
      "geometry": {
        "type": "Point",
        "coordinates": [
          -40.2913874,
          -20.3011136
        ]
      }
    },
    {
      "type": "Feature",
      "id": "node/4823094094",
      "properties": {
        "timestamp": "2017-04-28T14:07:37Z",
        "version": 1,
        "changeset": 48229546,
        "amenity": "bicycle_rental",
        "operator": "PMV",
        "id": "node/4823094094"
      },
      "geometry": {
        "type": "Point",
        "coordinates": [
          -40.2916396,
          -20.3037172
        ]
      }
    },
    {
      "type": "Feature",
      "id": "node/4823094095",
      "properties": {
        "timestamp": "2024-10-21T20:31:54Z",
        "version": 2,
        "changeset": 158186909,
        "amenity": "bicycle_rental",
        "bicycle_rental": "docking_station",
        "operator": "PMV",
        "id": "node/4823094095"
      },
      "geometry": {
        "type": "Point",
        "coordinates": [
          -40.3008825,
          -20.2794251
        ]
      }
    },
    {
      "type": "Feature",
      "id": "node/4823094096",
      "properties": {
        "timestamp": "2017-04-28T14:07:37Z",
        "version": 1,
        "changeset": 48229546,
        "amenity": "bicycle_rental",
        "operator": "PMV",
        "id": "node/4823094096"
      },
      "geometry": {
        "type": "Point",
        "coordinates": [
          -40.3327739,
          -20.2837286
        ]
      }
    },
    {
      "type": "Feature",
      "id": "node/4823094097",
      "properties": {
        "timestamp": "2017-04-28T14:07:37Z",
        "version": 1,
        "changeset": 48229546,
        "amenity": "bicycle_rental",
        "operator": "PMV",
        "id": "node/4823094097"
      },
      "geometry": {
        "type": "Point",
        "coordinates": [
          -40.3436047,
          -20.2935918
        ]
      }
    },
    {
      "type": "Feature",
      "id": "node/4823094098",
      "properties": {
        "timestamp": "2017-04-28T14:07:37Z",
        "version": 1,
        "changeset": 48229546,
        "amenity": "bicycle_rental",
        "operator": "PMV",
        "id": "node/4823094098"
      },
      "geometry": {
        "type": "Point",
        "coordinates": [
          -40.3458752,
          -20.2977282
        ]
      }
    },
    {
      "type": "Feature",
      "id": "node/4823094099",
      "properties": {
        "timestamp": "2017-04-28T14:07:37Z",
        "version": 1,
        "changeset": 48229546,
        "amenity": "bicycle_rental",
        "operator": "PMV",
        "id": "node/4823094099"
      },
      "geometry": {
        "type": "Point",
        "coordinates": [
          -40.3558678,
          -20.3115246
        ]
      }
    },
    {
      "type": "Feature",
      "id": "node/4823094100",
      "properties": {
        "timestamp": "2017-04-28T14:07:37Z",
        "version": 1,
        "changeset": 48229546,
        "amenity": "bicycle_rental",
        "operator": "PMV",
        "id": "node/4823094100"
      },
      "geometry": {
        "type": "Point",
        "coordinates": [
          -40.3532392,
          -20.3200498
        ]
      }
    },
    {
      "type": "Feature",
      "id": "node/4823094101",
      "properties": {
        "timestamp": "2017-04-28T14:07:37Z",
        "version": 1,
        "changeset": 48229546,
        "amenity": "bicycle_rental",
        "operator": "PMV",
        "id": "node/4823094101"
      },
      "geometry": {
        "type": "Point",
        "coordinates": [
          -40.342682,
          -20.3198146
        ]
      }
    },
    {
      "type": "Feature",
      "id": "node/4823094102",
      "properties": {
        "timestamp": "2017-04-28T14:07:37Z",
        "version": 1,
        "changeset": 48229546,
        "amenity": "bicycle_rental",
        "operator": "PMV",
        "id": "node/4823094102"
      },
      "geometry": {
        "type": "Point",
        "coordinates": [
          -40.3360248,
          -20.3217627
        ]
      }
    },
    {
      "type": "Feature",
      "id": "node/4823094103",
      "properties": {
        "timestamp": "2017-04-28T14:07:37Z",
        "version": 1,
        "changeset": 48229546,
        "amenity": "bicycle_rental",
        "operator": "PMV",
        "id": "node/4823094103"
      },
      "geometry": {
        "type": "Point",
        "coordinates": [
          -40.3305557,
          -20.3207478
        ]
      }
    },
    {
      "type": "Feature",
      "id": "node/4823094104",
      "properties": {
        "timestamp": "2017-04-28T14:07:37Z",
        "version": 1,
        "changeset": 48229546,
        "amenity": "bicycle_rental",
        "operator": "PMV",
        "id": "node/4823094104"
      },
      "geometry": {
        "type": "Point",
        "coordinates": [
          -40.3207442,
          -20.3181583
        ]
      }
    },
    {
      "type": "Feature",
      "id": "node/4823094105",
      "properties": {
        "timestamp": "2017-04-28T14:07:37Z",
        "version": 1,
        "changeset": 48229546,
        "amenity": "bicycle_rental",
        "operator": "PMV",
        "id": "node/4823094105"
      },
      "geometry": {
        "type": "Point",
        "coordinates": [
          -40.3095299,
          -20.318025
        ]
      }
    },
    {
      "type": "Feature",
      "id": "node/4823094106",
      "properties": {
        "timestamp": "2017-04-28T14:07:37Z",
        "version": 1,
        "changeset": 48229546,
        "amenity": "bicycle_rental",
        "operator": "PMV",
        "id": "node/4823094106"
      },
      "geometry": {
        "type": "Point",
        "coordinates": [
          -40.2981734,
          -20.3165108
        ]
      }
    },
    {
      "type": "Feature",
      "id": "node/12531997835",
      "properties": {
        "timestamp": "2025-03-08T14:49:53Z",
        "version": 2,
        "changeset": 163367277,
        "addr:city": "Vitória",
        "addr:postcode": "29060-230",
        "addr:street": "Avenida Dante Michelini",
        "addr:suburb": "Jardim da Penha",
        "amenity": "bicycle_rental",
        "capacity": "28",
        "email": "bikevitoria@serttel.com.br",
        "fee": "yes",
        "name": "Bike Vitória - Estação 16",
        "network": "Sistema de Bicicletas Públicas Bike Vitória",
        "opening_hours": "Mo-Su 05:00-23:59",
        "operator": "Serttel",
        "operator:type": "private",
        "payment:app": "yes",
        "phone": "40034704",
        "website": "https://www.bikevitoria.com",
        "id": "node/12531997835"
      },
      "geometry": {
        "type": "Point",
        "coordinates": [
          -40.2907893,
          -20.2872676
        ]
      }
    },
    {
      "type": "Feature",
      "id": "node/12531997836",
      "properties": {
        "timestamp": "2025-03-08T14:49:53Z",
        "version": 2,
        "changeset": 163367277,
        "addr:city": "Vitória",
        "addr:postcode": "29060-230",
        "addr:street": "Avenida Dante Michelini",
        "addr:suburb": "Jardim da Penha",
        "amenity": "bicycle_rental",
        "capacity": "20",
        "email": "bikevitoria@serttel.com.br",
        "fee": "yes",
        "name": "Bike Vitória - Estação 17",
        "network": "Sistema de Bicicletas Públicas Bike Vitória",
        "opening_hours": "Mo-Su 05:00-23:59",
        "operator": "Serttel",
        "operator:type": "private",
        "payment:app": "yes",
        "phone": "40034704",
        "website": "https://www.bikevitoria.com",
        "id": "node/12531997836"
      },
      "geometry": {
        "type": "Point",
        "coordinates": [
          -40.2893472,
          -20.2830128
        ]
      }
    },
    {
      "type": "Feature",
      "id": "node/12531997837",
      "properties": {
        "timestamp": "2025-03-08T14:49:53Z",
        "version": 2,
        "changeset": 163367277,
        "addr:city": "Vitória",
        "addr:postcode": "29060-230",
        "addr:street": "Avenida Dante Michelini",
        "addr:suburb": "Jardim da Penha",
        "amenity": "bicycle_rental",
        "capacity": "12",
        "email": "bikevitoria@serttel.com.br",
        "fee": "yes",
        "name": "Bike Vitória Kids - Estação 102",
        "network": "Sistema de Bicicletas Públicas Bike Vitória",
        "opening_hours": "Mo-Su 05:00-23:59",
        "operator": "Serttel",
        "operator:type": "private",
        "payment:app": "yes",
        "phone": "40034704",
        "website": "https://www.bikevitoria.com",
        "id": "node/12531997837"
      },
      "geometry": {
        "type": "Point",
        "coordinates": [
          -40.2894802,
          -20.2832728
        ]
      }
    },
    {
      "type": "Feature",
      "id": "node/12531997838",
      "properties": {
        "timestamp": "2025-03-08T14:49:53Z",
        "version": 2,
        "changeset": 163367277,
        "addr:city": "Vitória",
        "addr:postcode": "29060-230",
        "addr:street": "Avenida Dante Michelini",
        "addr:suburb": "Jardim da Penha",
        "amenity": "bicycle_rental",
        "capacity": "12",
        "email": "bikevitoria@serttel.com.br",
        "fee": "yes",
        "name": "Bike Vitória - Estação 18",
        "network": "Sistema de Bicicletas Públicas Bike Vitória",
        "opening_hours": "Mo-Su 05:00-23:59",
        "operator": "Serttel",
        "operator:type": "private",
        "payment:app": "yes",
        "phone": "40034704",
        "website": "https://www.bikevitoria.com",
        "id": "node/12531997838"
      },
      "geometry": {
        "type": "Point",
        "coordinates": [
          -40.2789798,
          -20.272826
        ]
      }
    },
    {
      "type": "Feature",
      "id": "node/12531997839",
      "properties": {
        "timestamp": "2025-01-25T16:31:14Z",
        "version": 1,
        "changeset": 161753058,
        "addr:city": "Vitória",
        "addr:postcode": "29060-230",
        "addr:street": "Avenida Dante Michelini",
        "addr:suburb": "Jardim da Penha",
        "amenity": "bicycle_rental",
        "capacity": "28",
        "email": "bikevitoria@serttel.com.br",
        "fee": "yes",
        "name": "Bike Vitória - Estação 19",
        "network": "Sistema de Bicicletas Públicas Bike Vitória",
        "opening_hours": "Su-Su 05:00-23:59",
        "operator": "Serttel",
        "operator:type": "private",
        "payment:app": "yes",
        "phone": "40034704",
        "website": "https://www.bikevitoria.com",
        "id": "node/12531997839"
      },
      "geometry": {
        "type": "Point",
        "coordinates": [
          -40.269203,
          -20.266898
        ]
      }
    },
    {
      "type": "Feature",
      "id": "node/12531997840",
      "properties": {
        "timestamp": "2025-03-08T14:49:53Z",
        "version": 2,
        "changeset": 163367277,
        "addr:city": "Vitória",
        "addr:postcode": "29060-230",
        "addr:street": "Avenida Dante Michelini",
        "addr:suburb": "Jardim da Penha",
        "amenity": "bicycle_rental",
        "capacity": "12",
        "email": "bikevitoria@serttel.com.br",
        "fee": "yes",
        "name": "Bike Vitória Kids - Estação 101",
        "network": "Sistema de Bicicletas Públicas Bike Vitória",
        "opening_hours": "Mo-Su 05:00-23:59",
        "operator": "Serttel",
        "operator:type": "private",
        "payment:app": "yes",
        "phone": "40034704",
        "website": "https://www.bikevitoria.com",
        "id": "node/12531997840"
      },
      "geometry": {
        "type": "Point",
        "coordinates": [
          -40.2693704,
          -20.2669664
        ]
      }
    },
    {
      "type": "Feature",
      "id": "node/12531997841",
      "properties": {
        "timestamp": "2025-01-25T16:31:14Z",
        "version": 1,
        "changeset": 161753058,
        "addr:city": "Vitória",
        "addr:postcode": "29060-230",
        "addr:street": "Avenida Dante Michelini",
        "addr:suburb": "Jardim da Penha",
        "amenity": "bicycle_rental",
        "capacity": "20",
        "email": "bikevitoria@serttel.com.br",
        "fee": "yes",
        "name": "Bike Vitória - Estação 20",
        "network": "Sistema de Bicicletas Públicas Bike Vitória",
        "opening_hours": "Su-Su 05:00-23:59",
        "operator": "Serttel",
        "operator:type": "private",
        "payment:app": "yes",
        "phone": "40034704",
        "website": "https://www.bikevitoria.com",
        "id": "node/12531997841"
      },
      "geometry": {
        "type": "Point",
        "coordinates": [
          -40.2630853,
          -20.2648918
        ]
      }
    }
  ]
}
