{
  "type": "FeatureCollection",
  "features": [
    {
      "type": "Feature",
      "id": "way/51374307",
      "properties": {
        "timestamp": "2018-10-08T20:43:06Z",
        "version": 5,
        "changeset": 63324862,
        "addr:housenumber": "250",
        "addr:street": "Rua Anselmo Serrat",
        "addr:suburb": "Monte Belo",
        "amenity": "social_facility",
        "building": "yes",
        "building:levels": "1",
        "name": "Sociedade de Assistência Velhice Desamparada",
        "social_facility": "nursing_home",
        "source": "Planimetria de Vitoria",
        "id": "way/51374307"
      },
      "geometry": {
        "type": "Polygon",
        "coordinates": [
          [
            [
              -40.3140283,
              -20.3136241
            ],
            [
              -40.3140636,
              -20.3135832
            ],
            [
              -40.3140778,
              -20.3135695
            ],
            [
              -40.3139576,
              -20.3134711
            ],
            [
              -40.3139493,
              -20.3134802
            ],
            [
              -40.313934,
              -20.3134713
            ],
            [
              -40.3139458,
              -20.3134531
            ],
            [
              -40.3139368,
              -20.3134486
            ],
            [
              -40.3139318,
              -20.3134577
            ],
            [
              -40.3139217,
              -20.3134713
            ],
            [
              -40.3138518,
              -20.3134177
            ],
            [
              -40.3138184,
              -20.3133953
            ],
            [
              -40.3138597,
              -20.3133272
            ],
            [
              -40.3138877,
              -20.3133451
            ],
            [
              -40.3139775,
              -20.3131999
            ],
            [
              -40.3139678,
              -20.3131954
            ],
            [
              -40.3140367,
              -20.3130865
            ],
            [
              -40.3141934,
              -20.3131802
            ],
            [
              -40.3141159,
              -20.3132892
            ],
            [
              -40.3141237,
              -20.3132937
            ],
            [
              -40.3140811,
              -20.3133527
            ],
            [
              -40.3141197,
              -20.313384
            ],
            [
              -40.3141543,
              -20.3134154
            ],
            [
              -40.3141896,
              -20.3134422
            ],
            [
              -40.3142306,
              -20.313478
            ],
            [
              -40.3142363,
              -20.3134825
            ],
            [
              -40.3142936,
              -20.3135273
            ],
            [
              -40.3143391,
              -20.3135676
            ],
            [
              -40.3143343,
              -20.3135721
            ],
            [
              -40.3143422,
              -20.3135766
            ],
            [
              -40.3143599,
              -20.31359
            ],
            [
              -40.3143537,
              -20.3135991
            ],
            [
              -40.3143886,
              -20.3136259
            ],
            [
              -40.3143027,
              -20.3137214
            ],
            [
              -40.3143012,
              -20.3137215
            ],
            [
              -40.3142946,
              -20.313717
            ],
            [
              -40.3142421,
              -20.3136722
            ],
            [
              -40.3142264,
              -20.3136904
            ],
            [
              -40.3141947,
              -20.3136635
            ],
            [
              -40.3141799,
              -20.3136817
            ],
            [
              -40.3141682,
              -20.3136728
            ],
            [
              -40.3141326,
              -20.3137092
            ],
            [
              -40.3140519,
              -20.3136465
            ],
            [
              -40.3140283,
              -20.3136241
            ]
          ]
        ]
      }
    },
    {
      "type": "Feature",
      "id": "way/51429549",
      "properties": {
        "timestamp": "2023-02-01T15:06:46Z",
        "version": 4,
        "changeset": 131967314,
        "addr:city": "Fortaleza",
        "addr:housenumber": "70",
        "addr:street": "Avenida Professor Fernando Duarte Rabelo",
        "addr:suburb": "Segurança do Lar",
        "alt_name": "Centro de Referência Especializado de Assistência Social",
        "amenity": "social_facility",
        "building": "yes",
        "building:levels": "1",
        "name": "CREAS",
        "social_facility": "outreach",
        "social_facility:for": "underprivileged;abused;victim",
        "source": "Planimetria de Vitoria",
        "id": "way/51429549"
      },
      "geometry": {
        "type": "Polygon",
        "coordinates": [
          [
            [
              -40.2966968,
              -20.2643659
            ],
            [
              -40.2967312,
              -20.2643701
            ],
            [
              -40.2967315,
              -20.2643611
            ],
            [
              -40.2967518,
              -20.2643655
            ],
            [
              -40.2967539,
              -20.2643203
            ],
            [
              -40.2968849,
              -20.2643238
            ],
            [
              -40.2968729,
              -20.2645633
            ],
            [
              -40.2966888,
              -20.2645556
            ],
            [
              -40.2966968,
              -20.2643659
            ]
          ]
        ]
      }
    },
    {
      "type": "Feature",
      "id": "node/3999139436",
      "properties": {
        "timestamp": "2016-02-10T13:37:14Z",
        "version": 1,
        "changeset": 37124622,
        "addr:city": "Vitória",
        "addr:housenumber": "305",
        "addr:postcode": "29047-550",
        "addr:street": "Rua das Palmeiras",
        "addr:suburb": "Itararé",
        "alt_name": "Centro de Referência de Assistência Social",
        "amenity": "social_facility",
        "contact:phone": "3215-3132 /3215-3368",
        "name": "CRAS - Itararé",
        "social_facility": "outreach",
        "source": "IJSN",
        "id": "node/3999139436"
      },
      "geometry": {
        "type": "Point",
        "coordinates": [
          -40.3068063,
          -20.2957549
        ]
      }
    },
    {
      "type": "Feature",
      "id": "node/3999140671",
      "properties": {
        "timestamp": "2016-02-10T13:37:21Z",
        "version": 1,
        "changeset": 37124622,
        "addr:city": "Vitória",
        "addr:housenumber": "115",
        "addr:postcode": "29018-120",
        "addr:street": "Rua Loren Reno",
        "addr:suburb": "Parque Moscoso",
        "alt_name": "Centro de Referência de Assistência Social",
        "amenity": "social_facility",
        "contact:phone": "3132-8190 /3132-8074",
        "name": "CRAS - Região Centro",
        "social_facility": "outreach",
        "source": "IJSN",
        "id": "node/3999140671"
      },
      "geometry": {
        "type": "Point",
        "coordinates": [
          -40.3415963,
          -20.3165752
        ]
      }
    },
    {
      "type": "Feature",
      "id": "node/3999140672",
      "properties": {
        "timestamp": "2016-02-10T13:37:21Z",
        "version": 1,
        "changeset": 37124622,
        "addr:city": "Vitória",
        "addr:housenumber": "186",
        "addr:postcode": "29045-650",
        "addr:street": "Rua Pedro Lima do Rosário",
        "addr:suburb": "Gurigica",
        "alt_name": "Centro de Referência de Assistência Social",
        "amenity": "social_facility",
        "contact:phone": "3235-2605 /3327-9865",
        "name": "CRAS - Região Consolação",
        "social_facility": "outreach",
        "source": "IJSN",
        "id": "node/3999140672"
      },
      "geometry": {
        "type": "Point",
        "coordinates": [
          -40.3068214,
          -20.3061813
        ]
      }
    },
    {
      "type": "Feature",
      "id": "node/3999140673",
      "properties": {
        "timestamp": "2017-04-08T19:42:27Z",
        "version": 2,
        "changeset": 47577374,
        "addr:city": "Vitória",
        "addr:housenumber": "104",
        "addr:postcode": "29070-815",
        "addr:street": "Rua Bertino Borges",
        "addr:suburb": "Antônio Honório",
        "alt_name": "Centro de Referência de Assistência Social",
        "amenity": "social_facility",
        "contact:phone": "3317-8792 /3317-9858",
        "name": "CRAS - Região Continental",
        "social_facility": "outreach",
        "source": "IJSN",
        "id": "node/3999140673"
      },
      "geometry": {
        "type": "Point",
        "coordinates": [
          -40.297987,
          -20.2620605
        ]
      }
    },
    {
      "type": "Feature",
      "id": "node/3999140674",
      "properties": {
        "timestamp": "2016-02-10T13:37:21Z",
        "version": 1,
        "changeset": 37124622,
        "addr:city": "Vitória",
        "addr:housenumber": "51",
        "addr:postcode": "29031-670",
        "addr:street": "Rua Bela Vista",
        "addr:suburb": "Inhanguetá",
        "alt_name": "Centro de Referência de Assistência Social",
        "amenity": "social_facility",
        "contact:phone": "3233-9692 /3233-9685",
        "name": "CRAS - Região Inhanguetá",
        "social_facility": "outreach",
        "source": "IJSN",
        "id": "node/3999140674"
      },
      "geometry": {
        "type": "Point",
        "coordinates": [
          -40.3471965,
          -20.296648
        ]
      }
    },
    {
      "type": "Feature",
      "id": "node/3999140675",
      "properties": {
        "timestamp": "2016-02-10T13:37:21Z",
        "version": 1,
        "changeset": 37124622,
        "addr:city": "Vitória",
        "addr:housenumber": "888",
        "addr:postcode": "29040-712",
        "addr:street": "Avenida Paulino Muller",
        "addr:suburb": "Jucutuquara",
        "alt_name": "Centro de Referência de Assistência Social",
        "amenity": "social_facility",
        "contact:phone": "3132-8359 /3132-8360",
        "name": "CRAS - Região Jucutuquara",
        "social_facility": "outreach",
        "source": "IJSN",
        "id": "node/3999140675"
      },
      "geometry": {
        "type": "Point",
        "coordinates": [
          -40.3206888,
          -20.3099471
        ]
      }
    },
    {
      "type": "Feature",
      "id": "node/3999140676",
      "properties": {
        "timestamp": "2016-02-10T13:37:22Z",
        "version": 1,
        "changeset": 37124622,
        "addr:city": "Vitória",
        "addr:housenumber": "81",
        "addr:postcode": "29043-020",
        "addr:street": "Rua Rui Barbosa",
        "addr:suburb": "Maruípe",
        "alt_name": "Centro de Referência de Assistência Social",
        "amenity": "social_facility",
        "contact:phone": "3314-5311 /3314-5336",
        "name": "CRAS - Região Maruípe",
        "social_facility": "outreach",
        "source": "IJSN",
        "id": "node/3999140676"
      },
      "geometry": {
        "type": "Point",
        "coordinates": [
          -40.3178334,
          -20.2957001
        ]
      }
    },
    {
      "type": "Feature",
      "id": "node/3999140677",
      "properties": {
        "timestamp": "2016-02-10T13:37:22Z",
        "version": 1,
        "changeset": 37124622,
        "addr:city": "Vitória",
        "addr:housenumber": "269",
        "addr:postcode": "29050-680",
        "addr:street": "Rua Francisco Rubim",
        "addr:suburb": "Bento Ferreira",
        "alt_name": "Centro de Referência de Assistência Social",
        "amenity": "social_facility",
        "contact:phone": "3382-5473 /3315-4376",
        "name": "CRAS - Região Praia do Canto",
        "social_facility": "outreach",
        "source": "IJSN",
        "id": "node/3999140677"
      },
      "geometry": {
        "type": "Point",
        "coordinates": [
          -40.3074329,
          -20.3134096
        ]
      }
    },
    {
      "type": "Feature",
      "id": "node/3999140678",
      "properties": {
        "timestamp": "2016-02-10T13:37:22Z",
        "version": 1,
        "changeset": 37124622,
        "addr:city": "Vitória",
        "addr:housenumber": "3375",
        "addr:postcode": "29045-110",
        "addr:street": "Avenida Leitão da Silva",
        "addr:suburb": "Andorinhas",
        "alt_name": "Centro de Referência de Assistência Social",
        "amenity": "social_facility",
        "contact:phone": "(27) 3332-7942/3332-5975",
        "name": "CRAS - Região Santa Martha",
        "social_facility": "outreach",
        "source": "IJSN",
        "id": "node/3999140678"
      },
      "geometry": {
        "type": "Point",
        "coordinates": [
          -40.3060803,
          -20.2868823
        ]
      }
    },
    {
      "type": "Feature",
      "id": "node/3999140679",
      "properties": {
        "timestamp": "2016-02-10T13:37:22Z",
        "version": 1,
        "changeset": 37124622,
        "addr:city": "Vitória",
        "addr:housenumber": "215",
        "addr:postcode": "29026-010",
        "addr:street": "Rua Albuquerque Tovar",
        "addr:suburb": "Snato Antônio",
        "alt_name": "Centro de Referência de Assistência Social",
        "amenity": "social_facility",
        "contact:phone": "3132-8189 /3332-5975",
        "name": "CRAS - Região Santo Antônio",
        "social_facility": "outreach",
        "source": "IJSN",
        "id": "node/3999140679"
      },
      "geometry": {
        "type": "Point",
        "coordinates": [
          -40.3559887,
          -20.3093242
        ]
      }
    },
    {
      "type": "Feature",
      "id": "node/3999140680",
      "properties": {
        "timestamp": "2016-02-10T13:37:22Z",
        "version": 1,
        "changeset": 37124622,
        "addr:city": "Vitória",
        "addr:housenumber": "40",
        "addr:postcode": "29032-115",
        "addr:street": "Rua José Francisco de Oliveira",
        "addr:suburb": "Santo André",
        "alt_name": "Centro de Referência de Assistência Social",
        "amenity": "social_facility",
        "contact:phone": "3332-6889 /3332-2001",
        "name": "CRAS - Região São Pedro Território I",
        "social_facility": "outreach",
        "source": "IJSN",
        "id": "node/3999140680"
      },
      "geometry": {
        "type": "Point",
        "coordinates": [
          -40.3319963,
          -20.2781818
        ]
      }
    },
    {
      "type": "Feature",
      "id": "node/3999140681",
      "properties": {
        "timestamp": "2016-02-10T13:37:22Z",
        "version": 1,
        "changeset": 37124622,
        "addr:city": "Vitória",
        "addr:housenumber": "79",
        "addr:postcode": "29032-115",
        "addr:street": "Rua Tancredo Neves",
        "addr:suburb": "Resistência",
        "alt_name": "Centro de Referência de Assistência Social",
        "amenity": "social_facility",
        "contact:phone": "(27) 3225-2713/3225-2965",
        "name": "CRAS - Região São Pedro Território II",
        "social_facility": "outreach",
        "source": "IJSN",
        "id": "node/3999140681"
      },
      "geometry": {
        "type": "Point",
        "coordinates": [
          -40.3179559,
          -20.2722545
        ]
      }
    },
    {
      "type": "Feature",
      "id": "node/4768226826",
      "properties": {
        "timestamp": "2017-08-25T19:44:30Z",
        "version": 3,
        "changeset": 51443270,
        "addr:street": "Av. Robert Kennedy",
        "addr:suburb": "Itararé",
        "amenity": "social_facility",
        "description": "Espaço destinado aos moradores da comunidade de Itararé para reuniões, capacitações profissionais, geração de renda e eventos sociais e ou comunitários.",
        "image": "http://backend-mapabem.rhcloud.com/static/media/None/19f5b983f4884292b188999e22a6ec03.jpg",
        "name": "Movimento Comunitário de Itararé",
        "social_facility": "outreach",
        "source": "IFES",
        "id": "node/4768226826"
      },
      "geometry": {
        "type": "Point",
        "coordinates": [
          -40.3075802,
          -20.2976162
        ]
      }
    },
    {
      "type": "Feature",
      "id": "node/4768226850",
      "properties": {
        "timestamp": "2022-05-17T13:41:21Z",
        "version": 4,
        "changeset": 121101664,
        "addr:housenumber": "131",
        "addr:street": "Rua Professora Anízia Correa Rocha",
        "addr:suburb": "Consolação",
        "amenity": "social_facility",
        "description": "O Instituto João XXIII atua nas comunidades por meio de projetos de arte educação desenvolvidos com o objetivo de estimular plenamente as potencialidades das futuras gerações, por meio de suas frentes de atuação.",
        "image": "http://backend-mapabem.rhcloud.com/static/media/None/ef8e92328466441992f1a36f602dbdb8.jpg",
        "name": "Instituto João XXIII",
        "social_facility": "outreach",
        "source": "IFES",
        "website": "https://www.joaoxxiii.org.br/",
        "id": "node/4768226850"
      },
      "geometry": {
        "type": "Point",
        "coordinates": [
          -40.3106581,
          -20.3073501
        ]
      }
    }
  ]
}
