{
  "type": "FeatureCollection",
  "features": [
    {
      "type": "Feature",
      "id": "node/5037771058",
      "properties": {
        "timestamp": "2021-08-05T19:36:32Z",
        "version": 2,
        "changeset": 109219097,
        "addr:city": "Iguatemi",
        "addr:housenumber": "2649",
        "addr:postcode": "79960-000",
        "addr:street": "Avenida Jardelino José Moreira",
        "addr:suburb": "Centro",
        "name": "SIMTED de Iguatemi",
        "office": "government",
        "phone": "+55 67 3471 1822",
        "id": "node/5037771058"
      },
      "geometry": {
        "type": "Point",
        "coordinates": [
          -54.5632079,
          -23.6688567
        ]
      }
    },
    {
      "type": "Feature",
      "id": "node/5037771070",
      "properties": {
        "timestamp": "2021-08-05T19:46:41Z",
        "version": 3,
        "changeset": 109219484,
        "addr:city": "Iguatemi",
        "addr:housenumber": "1739",
        "addr:postcode": "79960-000",
        "addr:street": "Avenida Presidente Vargas",
        "addr:suburb": "Centro",
        "name": "SANESUL de Iguatemi",
        "office": "government",
        "phone": "+55 67 3471 1195",
        "id": "node/5037771070"
      },
      "geometry": {
        "type": "Point",
        "coordinates": [
          -54.5597211,
          -23.6767642
        ]
      }
    },
    {
      "type": "Feature",
      "id": "node/5037771079",
      "properties": {
        "timestamp": "2021-08-05T21:25:55Z",
        "version": 2,
        "changeset": 109222713,
        "addr:city": "Iguatemi",
        "addr:housenumber": "1229",
        "addr:postcode": "79960-000",
        "addr:street": "Avenida Laudelino Peixoto",
        "addr:suburb": "Centro",
        "government": "register_office",
        "name": "Cartório Eleitoral de Iguatemi",
        "office": "government",
        "phone": "+55 67 3471 1242",
        "id": "node/5037771079"
      },
      "geometry": {
        "type": "Point",
        "coordinates": [
          -54.56298,
          -23.6812496
        ]
      }
    },
    {
      "type": "Feature",
      "id": "node/5037771090",
      "properties": {
        "timestamp": "2017-08-15T21:57:47Z",
        "version": 1,
        "changeset": 51153583,
        "government": "register_office",
        "name": "Serviço de Registros e Protestos",
        "office": "government",
        "id": "node/5037771090"
      },
      "geometry": {
        "type": "Point",
        "coordinates": [
          -54.5611507,
          -23.6839417
        ]
      }
    },
    {
      "type": "Feature",
      "id": "node/5678505121",
      "properties": {
        "timestamp": "2018-06-09T21:51:55Z",
        "version": 1,
        "changeset": 59700473,
        "addr:street": "Avenida Lindolfo Martins Faris",
        "name": "Secretaria municipal de Desenvolvimento econômico e Meio Ambiente",
        "office": "government",
        "id": "node/5678505121"
      },
      "geometry": {
        "type": "Point",
        "coordinates": [
          -54.5634224,
          -23.6838323
        ]
      }
    }
  ]
}
