{
  "type": "FeatureCollection",
  "features": [
    {
      "type": "Feature",
      "id": "node/5037771066",
      "properties": {
        "timestamp": "2021-08-04T22:47:12Z",
        "version": 2,
        "changeset": 109166939,
        "addr:city": "Iguatemi",
        "addr:postcode": "79960-000",
        "addr:street": "Rua Prefeito Gelson Andrade Moreira",
        "amenity": "hospital",
        "healthcare": "hospital",
        "name": "Hospital de Iguatemi",
        "id": "node/5037771066"
      },
      "geometry": {
        "type": "Point",
        "coordinates": [
          -54.5633367,
          -23.6764424
        ]
      }
    },
    {
      "type": "Feature",
      "id": "node/5037771085",
      "properties": {
        "timestamp": "2023-05-16T01:59:36Z",
        "version": 3,
        "changeset": 136147494,
        "addr:city": "Iguatemi",
        "addr:housenumber": "1081",
        "addr:postcode": "79960-000",
        "addr:street": "Avenida Laudelino Peixoto",
        "addr:suburb": "Centro",
        "amenity": "hospital",
        "healthcare": "hospital",
        "name": "Hospital São Judas Tadeu",
        "phone": "+55 67 3471 1766",
        "ref:CNES": "2374226",
        "ref:vatin": "BR40995874000140",
        "id": "node/5037771085"
      },
      "geometry": {
        "type": "Point",
        "coordinates": [
          -54.5628405,
          -23.6822124
        ]
      }
    },
    {
      "type": "Feature",
      "id": "node/5037771097",
      "properties": {
        "timestamp": "2023-05-16T01:59:36Z",
        "version": 3,
        "changeset": 136147494,
        "addr:city": "Iguatemi",
        "addr:postcode": "79960-000",
        "addr:street": "Avenida Presidente Vargas",
        "addr:suburb": "Centro",
        "amenity": "hospital",
        "healthcare": "hospital",
        "name": "Hospital São Lucas",
        "ref:CNES": "2376318",
        "id": "node/5037771097"
      },
      "geometry": {
        "type": "Point",
        "coordinates": [
          -54.5588252,
          -23.6810481
        ]
      }
    }
  ]
}
