{
  "type": "FeatureCollection",
  "features": [
    {
      "type": "Feature",
      "id": "node/5037771075",
      "properties": {
        "timestamp": "2021-08-05T19:42:01Z",
        "version": 2,
        "changeset": 109219322,
        "addr:city": "Iguatemi",
        "addr:housenumber": "930",
        "addr:postcode": "79960-000",
        "addr:street": "Avenida Octaviano dos Santos",
        "addr:suburb": "Centro",
        "name": "Hotel karand√°",
        "phone": "+55 67 3471 2797",
        "tourism": "hotel",
        "id": "node/5037771075"
      },
      "geometry": {
        "type": "Point",
        "coordinates": [
          -54.5581627,
          -23.6782872
        ]
      }
    },
    {
      "type": "Feature",
      "id": "node/5037771091",
      "properties": {
        "timestamp": "2021-08-05T19:01:08Z",
        "version": 2,
        "changeset": 109217881,
        "addr:city": "Iguatemi",
        "addr:housenumber": "1025",
        "addr:postcode": "79960-000",
        "addr:street": "Avenida Presidente Vargas",
        "addr:suburb": "Centro",
        "internet_access": "yes",
        "name": "Hotel Seriema",
        "phone": "+55 67 3471 1166",
        "tourism": "hotel",
        "id": "node/5037771091"
      },
      "geometry": {
        "type": "Point",
        "coordinates": [
          -54.5587206,
          -23.6829543
        ]
      }
    }
  ]
}
