{
  "type": "FeatureCollection",
  "features": [
    {
      "type": "Feature",
      "id": "node/8423907917",
      "properties": {
        "timestamp": "2021-02-15T00:50:22Z",
        "version": 2,
        "changeset": 99271575,
        "addr:street": "Avenida Antônio Custodio Porto",
        "amenity": "pharmacy",
        "name": "Farma Vida",
        "opening_hours": "Mo-Sa 07:00-19:00; Su 07:00-13:00",
        "id": "node/8423907917"
      },
      "geometry": {
        "type": "Point",
        "coordinates": [
          -36.5502197,
          -9.9332384
        ]
      }
    },
    {
      "type": "Feature",
      "id": "node/8423928617",
      "properties": {
        "timestamp": "2021-02-15T00:50:24Z",
        "version": 2,
        "changeset": 99271575,
        "addr:street": "Avenida Antônio Custodio Porto",
        "amenity": "pharmacy",
        "name": "MedFarma",
        "opening_hours": "Mo-Sa 07:00-19:00; Su 07:00-13:00",
        "id": "node/8423928617"
      },
      "geometry": {
        "type": "Point",
        "coordinates": [
          -36.5505082,
          -9.9332988
        ]
      }
    }
  ]
}
