{
  "type": "FeatureCollection",
  "features": [
    {
      "type": "Feature",
      "id": "way/1129018093",
      "properties": {
        "timestamp": "2023-01-09T18:17:01Z",
        "version": 1,
        "changeset": 131069320,
        "addr:city": "Araruama",
        "addr:housenumber": "138",
        "addr:street": "Rua MÃ©xico",
        "addr:suburb": "Centro",
        "amenity": "dentist",
        "building": "yes",
        "healthcare": "dentist",
        "name": "Revita",
        "opening_hours": "Mo-Fr 09:00-19:00; Sa 09:00-14:30",
        "phone": "+55 22 974011740;+55 22 26658959",
        "website": "https://revitaodontologiaavancada.com.br/",
        "id": "way/1129018093"
      },
      "geometry": {
        "type": "Polygon",
        "coordinates": [
          [
            [
              -42.3351669,
              -22.8725591
            ],
            [
              -42.3351373,
              -22.8726418
            ],
            [
              -42.3349956,
              -22.8725987
            ],
            [
              -42.3350252,
              -22.872516
            ],
            [
              -42.3351669,
              -22.8725591
            ]
          ]
        ]
      }
    }
  ]
}
