{
  "type": "FeatureCollection",
  "features": [
    {
      "type": "Feature",
      "id": "way/378404510",
      "properties": {
        "timestamp": "2021-08-25T23:20:35Z",
        "version": 2,
        "changeset": 110255412,
        "addr:city": "Araruama",
        "addr:housenumber": "1044",
        "addr:postcode": "28970000",
        "addr:street": "Rua Bernardo Vasconcelos",
        "addr:suburb": "Centro",
        "building": "yes",
        "emergency": "199",
        "name": "Secretaria de Proteção e Defesa Civil",
        "office": "government",
        "phone": "+55 22 2665-1001",
        "id": "way/378404510"
      },
      "geometry": {
        "type": "Polygon",
        "coordinates": [
          [
            [
              -42.3349324,
              -22.8651248
            ],
            [
              -42.3348617,
              -22.8652846
            ],
            [
              -42.3347785,
              -22.8652536
            ],
            [
              -42.3348157,
              -22.865164
            ],
            [
              -42.3347838,
              -22.8651525
            ],
            [
              -42.3348174,
              -22.8650906
            ],
            [
              -42.3348528,
              -22.8651053
            ],
            [
              -42.3348634,
              -22.8650906
            ],
            [
              -42.3349324,
              -22.8651248
            ]
          ]
        ]
      }
    },
    {
      "type": "Feature",
      "id": "way/976496942",
      "properties": {
        "timestamp": "2021-08-25T23:20:35Z",
        "version": 1,
        "changeset": 110255412,
        "addr:city": "Araruama",
        "addr:suburb": "Centro",
        "building": "yes",
        "name": "Instituto Nacional do Meio Ambiente",
        "office": "government",
        "id": "way/976496942"
      },
      "geometry": {
        "type": "Polygon",
        "coordinates": [
          [
            [
              -42.3372331,
              -22.8665855
            ],
            [
              -42.3369293,
              -22.866808
            ],
            [
              -42.3368584,
              -22.8667259
            ],
            [
              -42.3371621,
              -22.8665033
            ],
            [
              -42.3372331,
              -22.8665855
            ]
          ]
        ]
      }
    },
    {
      "type": "Feature",
      "id": "way/976496944",
      "properties": {
        "timestamp": "2021-08-25T23:20:35Z",
        "version": 1,
        "changeset": 110255412,
        "addr:city": "Araruama",
        "addr:housenumber": "755",
        "addr:street": "Rua Bernardo Vasconcelos",
        "addr:suburb": "Centro",
        "building": "yes",
        "name": "Secretaria de Segurança Pública",
        "office": "government",
        "id": "way/976496944"
      },
      "geometry": {
        "type": "Polygon",
        "coordinates": [
          [
            [
              -42.3372573,
              -22.8672833
            ],
            [
              -42.3371258,
              -22.8671331
            ],
            [
              -42.3373966,
              -22.8669318
            ],
            [
              -42.3373165,
              -22.8668402
            ],
            [
              -42.3374083,
              -22.866772
            ],
            [
              -42.3375623,
              -22.8669481
            ],
            [
              -42.3376102,
              -22.8669126
            ],
            [
              -42.3376677,
              -22.8669782
            ],
            [
              -42.3372573,
              -22.8672833
            ]
          ]
        ]
      }
    },
    {
      "type": "Feature",
      "id": "way/976496966",
      "properties": {
        "timestamp": "2021-08-25T23:20:35Z",
        "version": 1,
        "changeset": 110255412,
        "addr:city": "Araruama",
        "addr:housenumber": "120",
        "addr:street": "Rua Breno Resende",
        "addr:suburb": "Centro",
        "building": "yes",
        "name": "Câmara Municipal de Araruama",
        "office": "government",
        "id": "way/976496966"
      },
      "geometry": {
        "type": "Polygon",
        "coordinates": [
          [
            [
              -42.3402493,
              -22.8765612
            ],
            [
              -42.3404522,
              -22.8764662
            ],
            [
              -42.3405953,
              -22.8767256
            ],
            [
              -42.3405257,
              -22.8767582
            ],
            [
              -42.3405109,
              -22.8767314
            ],
            [
              -42.3403868,
              -22.8767894
            ],
            [
              -42.340426,
              -22.8768605
            ],
            [
              -42.340227,
              -22.8769536
            ],
            [
              -42.3401346,
              -22.876786
            ],
            [
              -42.3401948,
              -22.8767244
            ],
            [
              -42.3403096,
              -22.8766706
            ],
            [
              -42.3402493,
              -22.8765612
            ]
          ]
        ]
      }
    },
    {
      "type": "Feature",
      "id": "node/9923201086",
      "properties": {
        "timestamp": "2022-08-02T13:26:22Z",
        "version": 2,
        "changeset": 124392514,
        "addr:city": "Araruama",
        "addr:housenumber": "51",
        "addr:street": "Rua Ari Parreira",
        "addr:suburb": "Centro",
        "name": "Secretaria Municipal de Desenvolvimento Econômico, Cultura, Turismo, Esporte e Lazer",
        "office": "government",
        "opening_hours": "Mo-Fr 09:00-18:00",
        "phone": "+55 2665-5697",
        "id": "node/9923201086"
      },
      "geometry": {
        "type": "Point",
        "coordinates": [
          -42.3387852,
          -22.878004
        ]
      }
    },
    {
      "type": "Feature",
      "id": "node/12097099403",
      "properties": {
        "timestamp": "2024-08-07T12:51:17Z",
        "version": 1,
        "changeset": 154935038,
        "addr:street": "Rua Ataúlfo Alves",
        "name": "Cidade das Crianças - CRAS",
        "office": "government",
        "opening_hours": "Mo-Fr 08:00-12:00, 13:00-16:00",
        "id": "node/12097099403"
      },
      "geometry": {
        "type": "Point",
        "coordinates": [
          -42.3521516,
          -22.8699938
        ]
      }
    }
  ]
}
