{
  "type": "FeatureCollection",
  "features": [
    {
      "type": "Feature",
      "id": "node/4601951023",
      "properties": {
        "timestamp": "2023-07-26T16:34:13Z",
        "version": 3,
        "changeset": 139046384,
        "amenity": "clinic",
        "healthcare": "clinic",
        "name": "Centro de Saúde Alcobaça",
        "operator": "Secretaria Municipal de Saúde",
        "id": "node/4601951023"
      },
      "geometry": {
        "type": "Point",
        "coordinates": [
          -39.1924669,
          -17.5394831
        ]
      }
    },
    {
      "type": "Feature",
      "id": "node/11927071695",
      "properties": {
        "timestamp": "2024-05-22T22:22:56Z",
        "version": 1,
        "changeset": 151698791,
        "addr:city": "Alcobaça",
        "addr:postcode": "45910-000",
        "addr:street": "Rua Deolisano Rodrigues",
        "addr:suburb": "Centro",
        "amenity": "clinic",
        "healthcare": "clinic",
        "healthcare:speciality": "orthodontics",
        "name": "Centro de Especialidades Odontológicas",
        "id": "node/11927071695"
      },
      "geometry": {
        "type": "Point",
        "coordinates": [
          -39.1921663,
          -17.5409272
        ]
      }
    }
  ]
}
