{
  "type": "FeatureCollection",
  "features": [
    {
      "type": "Feature",
      "id": "node/9490807155",
      "properties": {
        "timestamp": "2023-08-19T09:28:09Z",
        "version": 2,
        "changeset": 140086950,
        "addr:city": "Congonhas",
        "addr:housenumber": "99",
        "addr:place": "Sala 104,108 e 109",
        "addr:postcode": "36410-066",
        "addr:street": "Avenida Presidente Vargas",
        "addr:suburb": "Centro",
        "air_conditioning": "yes",
        "amenity": "clinic",
        "description": "Salas 104, 108 e 109",
        "email": "ame.congonhas@outlook.com",
        "healthcare": "clinic",
        "healthcare:speciality": "ophthalmology;multi speciality;gynaecology;cardiology;dermatology",
        "level": "1",
        "name": "AME - Excelência em Visão",
        "opening_hours": "Mo-Sa 08:00-19:00",
        "operator": "Bruno de Miranda Cordeiro",
        "operator:type": "private",
        "website": "https://amecongonhas.com.br/",
        "wheelchair": "yes",
        "id": "node/9490807155"
      },
      "geometry": {
        "type": "Point",
        "coordinates": [
          -43.8603166,
          -20.5014234
        ]
      }
    }
  ]
}
