{
  "type": "FeatureCollection",
  "features": [
    {
      "type": "Feature",
      "id": "node/10830432892",
      "properties": {
        "timestamp": "2023-04-26T01:37:07Z",
        "version": 3,
        "changeset": 135364084,
        "addr:city": "Guaratinga",
        "addr:postcode": "45840-000",
        "addr:street": "Estrada Parque de Exposição",
        "amenity": "clinic",
        "healthcare": "clinic",
        "name": "Unidade Básica de Saúde",
        "id": "node/10830432892"
      },
      "geometry": {
        "type": "Point",
        "coordinates": [
          -39.7860856,
          -16.5874216
        ]
      }
    },
    {
      "type": "Feature",
      "id": "node/10831660919",
      "properties": {
        "timestamp": "2023-04-22T10:22:19Z",
        "version": 1,
        "changeset": 135222714,
        "addr:city": "Guaratinga",
        "addr:postcode": "45840-000",
        "addr:street": "Rua Marcionilio Chaves",
        "addr:suburb": "Centro",
        "amenity": "clinic",
        "healthcare": "clinic",
        "healthcare:speciality": "physiatry",
        "name": "Academia da Saúde",
        "operator": "Município de Guaratinga",
        "operator:type": "public",
        "id": "node/10831660919"
      },
      "geometry": {
        "type": "Point",
        "coordinates": [
          -39.7806546,
          -16.5828794
        ]
      }
    },
    {
      "type": "Feature",
      "id": "node/10833681021",
      "properties": {
        "timestamp": "2023-04-23T11:09:49Z",
        "version": 1,
        "changeset": 135257363,
        "amenity": "clinic",
        "healthcare": "clinic",
        "id": "node/10833681021"
      },
      "geometry": {
        "type": "Point",
        "coordinates": [
          -39.7792633,
          -16.5784178
        ]
      }
    }
  ]
}
