{
  "type": "FeatureCollection",
  "features": [
    {
      "type": "Feature",
      "id": "way/552999284",
      "properties": {
        "timestamp": "2024-09-13T12:33:26Z",
        "version": 3,
        "changeset": 156569867,
        "addr:city": "Guaratinga",
        "addr:postcode": "45840-000",
        "addr:street": "Praça da Lavoura",
        "addr:suburb": "Centro",
        "amenity": "school",
        "name": "Escola Municipal Jovina Pereira",
        "operator": "Município de Guaratinga",
        "operator:type": "public",
        "phone": "+55 73 3277 5003",
        "id": "way/552999284"
      },
      "geometry": {
        "type": "Polygon",
        "coordinates": [
          [
            [
              -39.9887067,
              -16.4555785
            ],
            [
              -39.9888147,
              -16.4558409
            ],
            [
              -39.9885384,
              -16.4559455
            ],
            [
              -39.9884304,
              -16.4556832
            ],
            [
              -39.9887067,
              -16.4555785
            ]
          ]
        ]
      }
    },
    {
      "type": "Feature",
      "id": "way/1164633907",
      "properties": {
        "timestamp": "2023-04-22T10:22:19Z",
        "version": 1,
        "changeset": 135222714,
        "addr:city": "Guaratinga",
        "addr:housenumber": "31",
        "addr:postcode": "45840-000",
        "addr:street": "Avenida Antônio Carlos Magalhães",
        "addr:suburb": "Centro",
        "amenity": "school",
        "name": "Instituto de Educação Guaratinga",
        "phone": "+55 73 98223 3921",
        "id": "way/1164633907"
      },
      "geometry": {
        "type": "Polygon",
        "coordinates": [
          [
            [
              -39.7796625,
              -16.5824777
            ],
            [
              -39.7793156,
              -16.5831312
            ],
            [
              -39.7786777,
              -16.5828599
            ],
            [
              -39.7790026,
              -16.5821796
            ],
            [
              -39.7793326,
              -16.5823287
            ],
            [
              -39.7796625,
              -16.5824777
            ]
          ]
        ]
      }
    },
    {
      "type": "Feature",
      "id": "way/1312125682",
      "properties": {
        "timestamp": "2024-08-30T01:00:29Z",
        "version": 1,
        "changeset": 155951978,
        "addr:city": "Guaratinga",
        "addr:district": "Barra Nova",
        "addr:postcode": "45840-000",
        "addr:street": "Praça Jesus Moura",
        "amenity": "school",
        "building": "yes",
        "name": "Escola Municipal Antônio Carlos Magalhães",
        "phone": "+55 73 3277 8002",
        "source": "microsoft/BuildingFootprints",
        "id": "way/1312125682"
      },
      "geometry": {
        "type": "Polygon",
        "coordinates": [
          [
            [
              -39.6776933,
              -16.6778547
            ],
            [
              -39.6776127,
              -16.6778204
            ],
            [
              -39.6776346,
              -16.6777732
            ],
            [
              -39.6774344,
              -16.677688
            ],
            [
              -39.6774792,
              -16.6775914
            ],
            [
              -39.67776,
              -16.677711
            ],
            [
              -39.6776933,
              -16.6778547
            ]
          ]
        ]
      }
    },
    {
      "type": "Feature",
      "id": "node/4578280091",
      "properties": {
        "timestamp": "2023-04-21T13:03:58Z",
        "version": 2,
        "changeset": 135192878,
        "addr:city": "Guaratinga",
        "addr:housenumber": "245",
        "addr:postcode": "45840-000",
        "addr:street": "Avenida Antônio Carlos Magalhães",
        "addr:suburb": "Centro",
        "amenity": "school",
        "name": "Escola Especial Luz e Vida",
        "operator": "Apae - Associação de Pais e Amigos dos Excepcionais",
        "operator:type": "private",
        "phone": "+55 73 3277 2375",
        "id": "node/4578280091"
      },
      "geometry": {
        "type": "Point",
        "coordinates": [
          -39.7787346,
          -16.5820882
        ]
      }
    },
    {
      "type": "Feature",
      "id": "node/10828227443",
      "properties": {
        "timestamp": "2023-04-21T00:28:04Z",
        "version": 1,
        "changeset": 135172871,
        "addr:city": "Guaratinga",
        "addr:housenumber": "747",
        "addr:postcode": "45840-000",
        "addr:street": "Avenida Brasil",
        "addr:suburb": "Centro",
        "amenity": "school",
        "name": "Colégio Estadual Jesus Moura",
        "phone": "+55 73 3277 2729",
        "id": "node/10828227443"
      },
      "geometry": {
        "type": "Point",
        "coordinates": [
          -39.7870354,
          -16.5844509
        ]
      }
    },
    {
      "type": "Feature",
      "id": "node/10829762905",
      "properties": {
        "timestamp": "2023-04-23T09:11:06Z",
        "version": 2,
        "changeset": 135253699,
        "addr:city": "Guaratinga",
        "addr:housenumber": "22",
        "addr:postcode": "45840-000",
        "addr:street": "Avenida Marechal Castelo Branco",
        "addr:suburb": "Centro",
        "amenity": "school",
        "email": "jp.muniz@uol.com.br",
        "name": "Ceda - Centro Educacional Delícia de Aprender",
        "phone": "+55 73 8103 9328",
        "id": "node/10829762905"
      },
      "geometry": {
        "type": "Point",
        "coordinates": [
          -39.7814264,
          -16.586641
        ]
      }
    },
    {
      "type": "Feature",
      "id": "node/10829762907",
      "properties": {
        "timestamp": "2023-04-21T13:03:58Z",
        "version": 1,
        "changeset": 135192878,
        "addr:city": "Guaratinga",
        "addr:housenumber": "570",
        "addr:postcode": "45840-000",
        "addr:street": "Avenida Juscelino Kubitschek",
        "addr:suburb": "Centro",
        "amenity": "school",
        "name": "Escola Municipal Renascer",
        "operator": "Município de Guaratinga",
        "operator:type": "public",
        "phone": "+55 73 3277 2364",
        "id": "node/10829762907"
      },
      "geometry": {
        "type": "Point",
        "coordinates": [
          -39.7798243,
          -16.5853802
        ]
      }
    },
    {
      "type": "Feature",
      "id": "node/10829762960",
      "properties": {
        "timestamp": "2023-04-21T13:03:58Z",
        "version": 1,
        "changeset": 135192878,
        "addr:city": "Guaratinga",
        "addr:housenumber": "400",
        "addr:postcode": "45840-000",
        "addr:street": "Rua Iracema Moura",
        "addr:suburb": "Centro",
        "amenity": "school",
        "name": "Escola Municipal Renascer Dois",
        "operator": "Município de Guaratinga",
        "operator:type": "public",
        "phone": "+55 73 98106 1775",
        "id": "node/10829762960"
      },
      "geometry": {
        "type": "Point",
        "coordinates": [
          -39.7797627,
          -16.5841844
        ]
      }
    },
    {
      "type": "Feature",
      "id": "node/10829762961",
      "properties": {
        "timestamp": "2023-04-21T13:03:58Z",
        "version": 1,
        "changeset": 135192878,
        "addr:city": "Guaratinga",
        "addr:housenumber": "205",
        "addr:postcode": "45840-000",
        "addr:street": "Avenida Bahia",
        "addr:suburb": "Novo Horizonte",
        "amenity": "school",
        "name": "Ipe - Instituto Presbiteriano de Educação",
        "operator": "Instituto Presbiteriano de Educação",
        "operator:type": "private",
        "phone": "+55 73 3277 2342",
        "id": "node/10829762961"
      },
      "geometry": {
        "type": "Point",
        "coordinates": [
          -39.7806292,
          -16.5814297
        ]
      }
    },
    {
      "type": "Feature",
      "id": "node/10829762964",
      "properties": {
        "timestamp": "2023-04-21T13:03:58Z",
        "version": 1,
        "changeset": 135192878,
        "addr:city": "Guaratinga",
        "addr:housenumber": "15",
        "addr:postcode": "45840-000",
        "addr:street": "Avenida Bahia",
        "addr:suburb": "Novo Horizonte",
        "amenity": "school",
        "name": "Escola Municipal Yeda Barradas Carneiro",
        "operator": "Município de Guaratinga",
        "operator:type": "public",
        "phone": "+55 73 3277 2363",
        "id": "node/10829762964"
      },
      "geometry": {
        "type": "Point",
        "coordinates": [
          -39.7812986,
          -16.5800888
        ]
      }
    },
    {
      "type": "Feature",
      "id": "node/10829762971",
      "properties": {
        "timestamp": "2023-04-21T13:03:58Z",
        "version": 1,
        "changeset": 135192878,
        "addr:city": "Guaratinga",
        "addr:housenumber": "40",
        "addr:postcode": "45840-000",
        "addr:street": "Praça Roberto Santos",
        "addr:suburb": "Novo Horizonte",
        "amenity": "school",
        "name": "Escola Municipal Joessy Pereira dos Santos",
        "operator": "Município de Guaratinga",
        "operator:type": "public",
        "phone": "+55 73 3277 2361",
        "id": "node/10829762971"
      },
      "geometry": {
        "type": "Point",
        "coordinates": [
          -39.7836344,
          -16.581473
        ]
      }
    },
    {
      "type": "Feature",
      "id": "node/10831635178",
      "properties": {
        "timestamp": "2023-04-22T10:22:19Z",
        "version": 1,
        "changeset": 135222714,
        "addr:city": "Guaratinga",
        "addr:postcode": "45840-000",
        "addr:street": "Rua Marcionilio Chaves",
        "addr:suburb": "Centro",
        "amenity": "school",
        "name": "Creche Municipal Vovó Vicência",
        "operator": "Município de Guaratinga",
        "operator:type": "public",
        "phone": "+55 73 98118 4628",
        "id": "node/10831635178"
      },
      "geometry": {
        "type": "Point",
        "coordinates": [
          -39.7810717,
          -16.5828285
        ]
      }
    },
    {
      "type": "Feature",
      "id": "node/10831635196",
      "properties": {
        "timestamp": "2023-04-22T10:22:19Z",
        "version": 1,
        "changeset": 135222714,
        "entrance": "yes",
        "id": "node/10831635196"
      },
      "geometry": {
        "type": "Point",
        "coordinates": [
          -39.7793326,
          -16.5823287
        ]
      }
    },
    {
      "type": "Feature",
      "id": "node/10833681020",
      "properties": {
        "timestamp": "2023-04-23T11:09:49Z",
        "version": 1,
        "changeset": 135257363,
        "addr:city": "Guaratinga",
        "amenity": "school",
        "name": "Cefebo",
        "id": "node/10833681020"
      },
      "geometry": {
        "type": "Point",
        "coordinates": [
          -39.7785948,
          -16.5789209
        ]
      }
    },
    {
      "type": "Feature",
      "id": "node/12169778187",
      "properties": {
        "timestamp": "2024-09-11T14:03:08Z",
        "version": 2,
        "changeset": 156486283,
        "addr:city": "Guaratinga",
        "addr:postcode": "45840-000",
        "addr:street": "Rua Bela Vista",
        "addr:suburb": "Cajuíta",
        "amenity": "school",
        "email": "emong.cajuita@hotmail.com",
        "name": "Escola Municipal Onilza Nunes Goes",
        "operator": "Município de Guaratinga",
        "operator:type": "public",
        "id": "node/12169778187"
      },
      "geometry": {
        "type": "Point",
        "coordinates": [
          -39.8492575,
          -16.7199227
        ]
      }
    }
  ]
}
