{
  "type": "FeatureCollection",
  "features": [
    {
      "type": "Feature",
      "id": "node/10232821345",
      "properties": {
        "timestamp": "2024-12-10T22:19:00Z",
        "version": 2,
        "changeset": 160146095,
        "addr:city": "Stela Dubois",
        "addr:postcode": "45345-000",
        "addr:street": "Av. Presidente Médici",
        "addr:suburb": "BR-116",
        "amenity": "dentist",
        "email": "clinicasorrici@gmail.com",
        "healthcare": "dentist",
        "name": "Clínica Sorrici",
        "nohousenumber": "yes",
        "opening_hours": "Mo-Sa 08:00-17:00",
        "phone": "+55 73 99812 2121",
        "id": "node/10232821345"
      },
      "geometry": {
        "type": "Point",
        "coordinates": [
          -40.0561763,
          -13.5134833
        ]
      }
    },
    {
      "type": "Feature",
      "id": "node/11592307233",
      "properties": {
        "timestamp": "2024-02-06T17:32:16Z",
        "version": 1,
        "changeset": 147144548,
        "addr:city": "Jaguaquara",
        "addr:housenumber": "321C",
        "addr:postcode": "45345000",
        "addr:street": "Rua Pedro Tavares Cafezeiro",
        "addr:suburb": "Palmeira",
        "amenity": "dentist",
        "healthcare": "dentist",
        "healthcare:speciality": "dental_oral_maxillo_facial_surgery",
        "name": "Oroklin",
        "operator": "Karen Lais Farias Reis Rodrigues",
        "id": "node/11592307233"
      },
      "geometry": {
        "type": "Point",
        "coordinates": [
          -39.9652944,
          -13.5248262
        ]
      }
    }
  ]
}
