{
  "type": "FeatureCollection",
  "features": [
    {
      "type": "Feature",
      "id": "way/490089607",
      "properties": {
        "timestamp": "2018-01-23T21:17:42Z",
        "version": 2,
        "changeset": 55696549,
        "addr:housenumber": "23810",
        "addr:street": "Avenida Doutor Pompílio Gomes Sobrinho",
        "building": "yes",
        "name": "Secretaria Municipal de Educação",
        "office": "government",
        "phone": "+55 51 3487-1905",
        "id": "way/490089607"
      },
      "geometry": {
        "type": "Polygon",
        "coordinates": [
          [
            [
              -50.7829973,
              -29.8802458
            ],
            [
              -50.7829205,
              -29.880303
            ],
            [
              -50.7828313,
              -29.8802129
            ],
            [
              -50.7829081,
              -29.8801557
            ],
            [
              -50.7829973,
              -29.8802458
            ]
          ]
        ]
      }
    },
    {
      "type": "Feature",
      "id": "way/550497960",
      "properties": {
        "timestamp": "2023-10-29T00:24:06Z",
        "version": 4,
        "changeset": 143289388,
        "addr:housenumber": "23830",
        "addr:street": "Avenida Doutor Pompílio Gomes Sobrinho",
        "building": "civic",
        "name": "Câmara Municipal de Vereadores",
        "office": "government",
        "phone": "+55 51 3487-1009",
        "website": "https://www.camaraglorinha.rs.gov.br/",
        "id": "way/550497960"
      },
      "geometry": {
        "type": "Polygon",
        "coordinates": [
          [
            [
              -50.7827145,
              -29.8801293
            ],
            [
              -50.7828843,
              -29.8803007
            ],
            [
              -50.7827366,
              -29.8804107
            ],
            [
              -50.782654,
              -29.8803272
            ],
            [
              -50.7826864,
              -29.8803031
            ],
            [
              -50.7825992,
              -29.8802151
            ],
            [
              -50.7827145,
              -29.8801293
            ]
          ]
        ]
      }
    },
    {
      "type": "Feature",
      "id": "node/5357708836",
      "properties": {
        "timestamp": "2018-01-23T21:17:28Z",
        "version": 1,
        "changeset": 55696549,
        "addr:housenumber": "23875",
        "addr:street": "Avenida Doutor Pompílio Gomes Sobrinho",
        "name": "Secretaria Municipal de Saúde",
        "office": "government",
        "phone": "+55 51 3487-1334",
        "website": "http://glorinha.rs.gov.br",
        "id": "node/5357708836"
      },
      "geometry": {
        "type": "Point",
        "coordinates": [
          -50.7825898,
          -29.880999
        ]
      }
    }
  ]
}
