{
  "type": "FeatureCollection",
  "features": [
    {
      "type": "Feature",
      "id": "way/435715072",
      "properties": {
        "timestamp": "2020-07-08T11:08:57Z",
        "version": 4,
        "changeset": 87706540,
        "addr:city": "Alagoinhas",
        "addr:housenumber": "49",
        "addr:postcode": "48030-030",
        "addr:street": "Rua Dantas Bião",
        "addr:suburb": "Centro",
        "amenity": "hospital",
        "description": "O Hospital está apto para atendimento de média e alta complexidades, possuindo Serviço de Diagnose e Terapia, Ambulatório Eletivo de Especialidades, Pronto Atendimento, Internação, Serviços de Apoio Assistencial.",
        "healthcare": "hospital",
        "name": "Hospital Dantas Bião",
        "id": "way/435715072"
      },
      "geometry": {
        "type": "Polygon",
        "coordinates": [
          [
            [
              -38.4171157,
              -12.1378724
            ],
            [
              -38.4172397,
              -12.1383777
            ],
            [
              -38.4161849,
              -12.1386252
            ],
            [
              -38.4161302,
              -12.1384024
            ],
            [
              -38.4162835,
              -12.1383664
            ],
            [
              -38.4162142,
              -12.138084
            ],
            [
              -38.4171157,
              -12.1378724
            ]
          ]
        ]
      }
    },
    {
      "type": "Feature",
      "id": "way/455594785",
      "properties": {
        "timestamp": "2020-04-30T20:02:16Z",
        "version": 3,
        "changeset": 84436487,
        "addr:housenumber": "11",
        "addr:street": "Praça Rui Barbosa",
        "amenity": "hospital",
        "building": "hospital",
        "emergency": "yes",
        "healthcare": "hospital",
        "name": "Hospital das Clínicas de Alagoinhas",
        "phone": "+55 75 34239300",
        "short_name": "HCA",
        "website": "https://www.hospitalhca.com.br/",
        "id": "way/455594785"
      },
      "geometry": {
        "type": "Polygon",
        "coordinates": [
          [
            [
              -38.421483,
              -12.1375408
            ],
            [
              -38.4215784,
              -12.1379372
            ],
            [
              -38.4213722,
              -12.1379846
            ],
            [
              -38.4213513,
              -12.1378977
            ],
            [
              -38.4211653,
              -12.1379405
            ],
            [
              -38.4211984,
              -12.1380778
            ],
            [
              -38.4211043,
              -12.1380995
            ],
            [
              -38.4211184,
              -12.1381584
            ],
            [
              -38.4210619,
              -12.1381714
            ],
            [
              -38.4209403,
              -12.1376655
            ],
            [
              -38.421483,
              -12.1375408
            ]
          ]
        ]
      }
    },
    {
      "type": "Feature",
      "id": "way/1316232716",
      "properties": {
        "timestamp": "2024-09-17T20:26:14Z",
        "version": 1,
        "changeset": 156746384,
        "addr:city": "Alagoinhas",
        "addr:housenumber": "16",
        "addr:postcode": "48030-573",
        "addr:street": "Rua José Batista Lira Sobrinho",
        "addr:suburb": "Jardim Petrolar",
        "amenity": "hospital",
        "healthcare": "hospital",
        "name": "Hemovida",
        "id": "way/1316232716"
      },
      "geometry": {
        "type": "Polygon",
        "coordinates": [
          [
            [
              -38.4123105,
              -12.1399804
            ],
            [
              -38.4124325,
              -12.140513
            ],
            [
              -38.4121723,
              -12.1405746
            ],
            [
              -38.4120463,
              -12.140042
            ],
            [
              -38.4123105,
              -12.1399804
            ]
          ]
        ]
      }
    },
    {
      "type": "Feature",
      "id": "way/1316232717",
      "properties": {
        "timestamp": "2024-09-17T20:26:14Z",
        "version": 1,
        "changeset": 156746384,
        "addr:city": "Alagoinhas",
        "addr:housenumber": "254-284",
        "addr:postcode": "48030-040",
        "addr:street": "Travessa Dantas Bião",
        "addr:suburb": "Jardim Petrolar",
        "amenity": "hospital",
        "healthcare": "hospital",
        "healthcare:speciality": "general",
        "name": "HAPVIDA",
        "id": "way/1316232717"
      },
      "geometry": {
        "type": "Polygon",
        "coordinates": [
          [
            [
              -38.4143135,
              -12.1403234
            ],
            [
              -38.4134641,
              -12.1404998
            ],
            [
              -38.4134145,
              -12.1402576
            ],
            [
              -38.4142533,
              -12.1400396
            ],
            [
              -38.4143135,
              -12.1403234
            ]
          ]
        ]
      }
    },
    {
      "type": "Feature",
      "id": "way/1316232722",
      "properties": {
        "timestamp": "2024-12-11T16:25:36Z",
        "version": 2,
        "changeset": 160175572,
        "addr:city": "Alagoinhas",
        "addr:postcode": "48005-020",
        "addr:street": "Rua Marechal Deodoro",
        "addr:suburb": "Centro",
        "amenity": "hospital",
        "healthcare": "laboratory",
        "name": "Laboratório Santa Maria",
        "nohousenumber": "yes",
        "id": "way/1316232722"
      },
      "geometry": {
        "type": "Polygon",
        "coordinates": [
          [
            [
              -38.4211939,
              -12.1401972
            ],
            [
              -38.4211297,
              -12.1404985
            ],
            [
              -38.4210876,
              -12.1405031
            ],
            [
              -38.4210024,
              -12.1401378
            ],
            [
              -38.4211939,
              -12.1401972
            ]
          ]
        ]
      }
    },
    {
      "type": "Feature",
      "id": "node/12182848145",
      "properties": {
        "timestamp": "2024-09-17T20:26:14Z",
        "version": 1,
        "changeset": 156746384,
        "addr:city": "Alagoinhas",
        "addr:housenumber": "175",
        "addr:postcode": "48005-020",
        "addr:street": "Rua Marechal Deodoro",
        "addr:suburb": "Centro",
        "amenity": "hospital",
        "healthcare": "clinic",
        "healthcare:speciality": "cardiology",
        "name": "Clínica Cardiocenter",
        "id": "node/12182848145"
      },
      "geometry": {
        "type": "Point",
        "coordinates": [
          -38.4208903,
          -12.1394388
        ]
      }
    },
    {
      "type": "Feature",
      "id": "node/12182848146",
      "properties": {
        "timestamp": "2024-12-11T16:25:36Z",
        "version": 2,
        "changeset": 160175572,
        "addr:city": "Alagoinhas",
        "addr:postcode": "48005-020",
        "addr:street": "Rua Marechal Deodoro",
        "addr:suburb": "Centro",
        "amenity": "hospital",
        "healthcare": "clinic",
        "healthcare:speciality": "occupational;otolaryngology",
        "name": "AUDIOCLÍNICA",
        "nohousenumber": "yes",
        "id": "node/12182848146"
      },
      "geometry": {
        "type": "Point",
        "coordinates": [
          -38.4206537,
          -12.1396509
        ]
      }
    }
  ]
}
