{
  "type": "FeatureCollection",
  "features": [
    {
      "type": "Feature",
      "id": "way/479769200",
      "properties": {
        "timestamp": "2022-11-30T18:42:56Z",
        "version": 2,
        "changeset": 129572499,
        "addr:city": "Santa Maria do Suaçuí",
        "addr:postcode": "39780-000",
        "addr:street": "Rua Papa Pio XII",
        "addr:suburb": "Poaia",
        "amenity": "school",
        "email": "escola.45179@educacao.mg.gov.br",
        "name": "Escola Estadual Imaculada Conceição",
        "operator": "Governo de Minas Gerais",
        "operator:type": "public",
        "phone": "+55 33 3431 4036",
        "id": "way/479769200"
      },
      "geometry": {
        "type": "Polygon",
        "coordinates": [
          [
            [
              -42.2133219,
              -18.3130498
            ],
            [
              -42.2135272,
              -18.3133925
            ],
            [
              -42.2133326,
              -18.3136008
            ],
            [
              -42.2132299,
              -18.3136411
            ],
            [
              -42.213106,
              -18.3136243
            ],
            [
              -42.2128654,
              -18.3132514
            ],
            [
              -42.2133219,
              -18.3130498
            ]
          ]
        ]
      }
    },
    {
      "type": "Feature",
      "id": "way/492983322",
      "properties": {
        "timestamp": "2022-11-30T18:42:56Z",
        "version": 2,
        "changeset": 129572499,
        "addr:city": "Santa Maria do Suaçuí",
        "addr:postcode": "39780-000",
        "addr:street": "Rua Barro Branco",
        "addr:suburb": "Brejo de Minas",
        "amenity": "school",
        "name": "Escola Municipal Dom Pedro Segundo",
        "operator": "Município de Santa Maria do Suaçuí",
        "operator:type": "public",
        "id": "way/492983322"
      },
      "geometry": {
        "type": "Polygon",
        "coordinates": [
          [
            [
              -42.382809,
              -18.294346
            ],
            [
              -42.3828218,
              -18.2946395
            ],
            [
              -42.3818075,
              -18.2946562
            ],
            [
              -42.381925,
              -18.2942545
            ],
            [
              -42.382286,
              -18.2942713
            ],
            [
              -42.382809,
              -18.294346
            ]
          ]
        ]
      }
    },
    {
      "type": "Feature",
      "id": "node/3200408645",
      "properties": {
        "timestamp": "2022-11-28T11:32:29Z",
        "version": 3,
        "changeset": 129472519,
        "amenity": "school",
        "name": "Escola Estadual Hauy Petruceli Mayrink",
        "operator": "Secretaria de Estado de Educação de Minas Gerais",
        "source": "IBGE",
        "id": "node/3200408645"
      },
      "geometry": {
        "type": "Point",
        "coordinates": [
          -42.4209411,
          -18.1900538
        ]
      }
    },
    {
      "type": "Feature",
      "id": "node/6893858649",
      "properties": {
        "timestamp": "2022-11-28T11:32:29Z",
        "version": 4,
        "changeset": 129472519,
        "addr:city": "Santa Maria do Suaçuí",
        "addr:housenumber": "1300",
        "addr:postcode": "39780-000",
        "addr:street": "Rua Fernão Dias",
        "addr:suburb": "São José do Puba",
        "amenity": "school",
        "name": "Centro Municipal de Educação Infantil Balão Mágico",
        "operator": "Municiípio de Santa Maria do Suaçuí",
        "operator:type": "public",
        "id": "node/6893858649"
      },
      "geometry": {
        "type": "Point",
        "coordinates": [
          -42.4337469,
          -18.1921715
        ]
      }
    },
    {
      "type": "Feature",
      "id": "node/10222610914",
      "properties": {
        "timestamp": "2022-11-28T01:14:47Z",
        "version": 1,
        "changeset": 129453754,
        "addr:city": "Santa Maria do Suaçuí",
        "addr:housenumber": "226",
        "addr:postcode": "39780-000",
        "addr:street": "Avenida Rodrigo Lacerda",
        "addr:suburb": "Centro",
        "amenity": "school",
        "email": "escola.45101@educacao.mg.gov.br",
        "name": "Escola Estadual Deputado Nacip Raydan",
        "operator": "Governo de Minas Gerais",
        "operator:type": "public",
        "phone": "+55 33 3431 1020",
        "id": "node/10222610914"
      },
      "geometry": {
        "type": "Point",
        "coordinates": [
          -42.4202958,
          -18.185629
        ]
      }
    },
    {
      "type": "Feature",
      "id": "node/10222690870",
      "properties": {
        "timestamp": "2022-11-28T03:02:16Z",
        "version": 1,
        "changeset": 129455658,
        "addr:city": "Santa Maria do Suaçuí",
        "addr:housenumber": "19",
        "addr:postcode": "39780-000",
        "addr:street": "Praça José de Sena Lima",
        "addr:suburb": "Centro",
        "amenity": "school",
        "email": "escola.45128@educacao.mg.gov.br",
        "name": "Escola Estadual Padre José Maria",
        "operator": "Governo de Minas Gerais",
        "phone": "+55 33 3431 1310",
        "id": "node/10222690870"
      },
      "geometry": {
        "type": "Point",
        "coordinates": [
          -42.4152146,
          -18.190508
        ]
      }
    },
    {
      "type": "Feature",
      "id": "node/10223439749",
      "properties": {
        "timestamp": "2022-11-28T11:32:29Z",
        "version": 1,
        "changeset": 129472519,
        "addr:city": "Santa Maria do Suaçuí",
        "addr:housenumber": "493",
        "addr:postcode": "39780-000",
        "addr:street": "Rua Antônio Sebe",
        "addr:suburb": "São José do Puba",
        "amenity": "school",
        "name": "Centro de Educação Municipal Vereador Jose Lopes Nunes",
        "operator": "Município de Santa Maria do Suaçuí",
        "operator:type": "public",
        "id": "node/10223439749"
      },
      "geometry": {
        "type": "Point",
        "coordinates": [
          -42.4271998,
          -18.1917505
        ]
      }
    },
    {
      "type": "Feature",
      "id": "node/10228956100",
      "properties": {
        "timestamp": "2022-11-30T17:33:15Z",
        "version": 1,
        "changeset": 129570386,
        "addr:city": "Santa Maria do Suaçuí",
        "addr:housenumber": "59",
        "addr:postcode": "39782-000",
        "addr:street": "Rua Cristalina",
        "addr:suburb": "Glucínio",
        "amenity": "school",
        "email": "escola.45136@educacao.mg.gov.br",
        "name": "Escola Estadual Ana Nunes Horta",
        "operator": "Governo de Minas Gerais",
        "operator:type": "public",
        "phone": "+55 33 3431 5001",
        "id": "node/10228956100"
      },
      "geometry": {
        "type": "Point",
        "coordinates": [
          -42.3389103,
          -18.210256
        ]
      }
    }
  ]
}
