{
  "type": "FeatureCollection",
  "features": [
    {
      "type": "Feature",
      "id": "node/2574547469",
      "properties": {
        "timestamp": "2023-01-13T16:22:28Z",
        "version": 19,
        "changeset": 131236882,
        "addr:city": "São Bernardo do Campo",
        "addr:country": "BR",
        "addr:housenumber": "1585",
        "addr:postcode": "09895-005",
        "addr:street": "Avenida Robert Kennedy",
        "addr:suburb": "Jardim Embaré",
        "image": "https://kartaview.org/details/5382041/0/track-info",
        "name": "Vera Cruz Bike Shop",
        "opening_hours": "Mo-Fr 09:00-18:00; Sa 09:00-13:00; Su,PH off",
        "payment:cash": "yes",
        "payment:coins": "yes",
        "payment:debit_cards": "yes",
        "payment:notes": "yes",
        "phone": "+55 11 4341 8857",
        "service:bicycle:bicycle": "yes",
        "service:bicycle:repair": "yes",
        "service:bicycle:second_hand": "yes",
        "shop": "bicycle",
        "id": "node/2574547469"
      },
      "geometry": {
        "type": "Point",
        "coordinates": [
          -46.5759776,
          -23.7042593
        ]
      }
    },
    {
      "type": "Feature",
      "id": "node/2951665118",
      "properties": {
        "timestamp": "2023-10-27T01:25:43Z",
        "version": 4,
        "changeset": 143188090,
        "addr:city": "São Bernardo do Campo",
        "addr:country": "BR",
        "addr:housenumber": "1688",
        "addr:postcode": "09720-000",
        "addr:street": "Avenida Brigadeiro Faria Lima",
        "name": "Bike Speranza",
        "phone": "+55 11 4339 3837",
        "shop": "bicycle",
        "website": "https://www.bikesperanza.com.br/",
        "id": "node/2951665118"
      },
      "geometry": {
        "type": "Point",
        "coordinates": [
          -46.5521134,
          -23.7133425
        ]
      }
    },
    {
      "type": "Feature",
      "id": "node/4934810924",
      "properties": {
        "timestamp": "2017-06-25T03:15:09Z",
        "version": 1,
        "changeset": 49805351,
        "addr:city": "São Bernardo do Campo",
        "addr:street": "Avenida João Firmino",
        "addr:suburb": "Assunção",
        "name": "GoodBike",
        "shop": "bicycle",
        "id": "node/4934810924"
      },
      "geometry": {
        "type": "Point",
        "coordinates": [
          -46.559952,
          -23.7191581
        ]
      }
    },
    {
      "type": "Feature",
      "id": "node/6805816886",
      "properties": {
        "timestamp": "2024-02-28T19:03:51Z",
        "version": 4,
        "changeset": 148025029,
        "addr:housenumber": "427",
        "addr:street": "Rua Doutor Cincinato Braga",
        "name": "ConsertaBike",
        "service:bicycle:repair": "yes",
        "shop": "bicycle",
        "id": "node/6805816886"
      },
      "geometry": {
        "type": "Point",
        "coordinates": [
          -46.5670435,
          -23.6976817
        ]
      }
    },
    {
      "type": "Feature",
      "id": "node/7101528842",
      "properties": {
        "timestamp": "2020-01-02T14:27:09Z",
        "version": 1,
        "changeset": 79117013,
        "addr:street": "Estrada dos Alvarengas",
        "service:bicycle:repair": "yes",
        "shop": "bicycle",
        "id": "node/7101528842"
      },
      "geometry": {
        "type": "Point",
        "coordinates": [
          -46.5958253,
          -23.7393155
        ]
      }
    },
    {
      "type": "Feature",
      "id": "node/9645662886",
      "properties": {
        "timestamp": "2024-02-28T19:03:51Z",
        "version": 4,
        "changeset": 148025029,
        "addr:street": "Rua Angelina Ronchi Martin Bianco",
        "addr:suburb": "Jardim Embaré",
        "contact:mobile": "+55 11 97418 3123",
        "name": "Bike House",
        "opening_hours": "Mo-Fr 09:00-12:00,14:00-18:00; PH off",
        "phone": "+55 11 4341 8731",
        "service:bicycle:repair": "yes",
        "shop": "bicycle",
        "id": "node/9645662886"
      },
      "geometry": {
        "type": "Point",
        "coordinates": [
          -46.5753825,
          -23.7031207
        ]
      }
    },
    {
      "type": "Feature",
      "id": "node/9900774184",
      "properties": {
        "timestamp": "2023-08-26T14:23:09Z",
        "version": 2,
        "changeset": 140414342,
        "addr:street": "Avenida Redenção",
        "addr:suburb": "Centro",
        "name": "PlanetaCiclo",
        "shop": "bicycle",
        "id": "node/9900774184"
      },
      "geometry": {
        "type": "Point",
        "coordinates": [
          -46.5548903,
          -23.6957771
        ]
      }
    },
    {
      "type": "Feature",
      "id": "node/11084409537",
      "properties": {
        "timestamp": "2023-08-02T22:26:49Z",
        "version": 1,
        "changeset": 139366432,
        "addr:housenumber": "909",
        "addr:street": "Rua Cristiano Angeli",
        "addr:suburb": "Assunção",
        "contact:phone": "+55 11 4104-3667",
        "email": "atendimento@cicloassuncao.com.br",
        "mobile": "+55 11 94757 6865",
        "name": "Ciclo Assunção",
        "payment:boleto_bancario": "yes",
        "payment:cash": "yes",
        "payment:coins": "yes",
        "payment:credit_cards": "yes",
        "payment:debit_cards": "yes",
        "payment:notes": "yes",
        "phone": "+55 11 4109 4459",
        "service:bicycle:repair": "yes",
        "shop": "bicycle",
        "website": "https://www.cicloassuncao.com.br/",
        "id": "node/11084409537"
      },
      "geometry": {
        "type": "Point",
        "coordinates": [
          -46.5721608,
          -23.7206069
        ]
      }
    },
    {
      "type": "Feature",
      "id": "node/12158244279",
      "properties": {
        "timestamp": "2024-09-05T17:50:48Z",
        "version": 1,
        "changeset": 156242537,
        "addr:street": "Rua dos Vianas",
        "name": "Sensation Bike",
        "shop": "bicycle",
        "id": "node/12158244279"
      },
      "geometry": {
        "type": "Point",
        "coordinates": [
          -46.5508537,
          -23.6978777
        ]
      }
    }
  ]
}
