{
  "type": "FeatureCollection",
  "features": [
    {
      "type": "Feature",
      "id": "way/557375431",
      "properties": {
        "timestamp": "2019-03-26T13:18:16Z",
        "version": 4,
        "changeset": 68546830,
        "addr:city": "São Bernardo do Campo",
        "addr:housenumber": "235",
        "addr:postcode": "09655-000",
        "addr:street": "Rua Luzern",
        "addr:suburb": "Suiço",
        "amenity": "community_centre",
        "building": "yes",
        "name": "Serviço de Ação Social do Evangelho Quadrangular",
        "phone": "+55 11 4361 5383",
        "id": "way/557375431"
      },
      "geometry": {
        "type": "Polygon",
        "coordinates": [
          [
            [
              -46.5990018,
              -23.6565034
            ],
            [
              -46.5989167,
              -23.6567377
            ],
            [
              -46.5988468,
              -23.656741
            ],
            [
              -46.5988088,
              -23.6567282
            ],
            [
              -46.5987813,
              -23.6566796
            ],
            [
              -46.5988627,
              -23.6564745
            ],
            [
              -46.5989443,
              -23.6564668
            ],
            [
              -46.5990018,
              -23.6565034
            ]
          ]
        ]
      }
    },
    {
      "type": "Feature",
      "id": "way/581591856",
      "properties": {
        "timestamp": "2019-07-14T16:14:24Z",
        "version": 2,
        "changeset": 72237027,
        "addr:city": "São Bernardo do Campo",
        "addr:housenumber": "856",
        "addr:postcode": "09692-030",
        "addr:street": "Rua Álvaro Alvim",
        "addr:suburb": "Paulicéia",
        "amenity": "community_centre",
        "building": "yes",
        "name": "Sociedade de Amigos Vila Pauliceia",
        "id": "way/581591856"
      },
      "geometry": {
        "type": "Polygon",
        "coordinates": [
          [
            [
              -46.5862973,
              -23.6661655
            ],
            [
              -46.5863995,
              -23.6663671
            ],
            [
              -46.5863135,
              -23.6664036
            ],
            [
              -46.5862114,
              -23.666202
            ],
            [
              -46.5862973,
              -23.6661655
            ]
          ]
        ]
      }
    },
    {
      "type": "Feature",
      "id": "way/628539256",
      "properties": {
        "timestamp": "2018-09-27T10:44:16Z",
        "version": 1,
        "changeset": 62973223,
        "addr:city": "São Bernardo do Campo",
        "addr:housenumber": "10",
        "addr:postcode": "09842-194",
        "addr:street": "Rua Professor Claudemir Gomes do Vale",
        "addr:suburb": "Parque Los Angeles",
        "amenity": "community_centre",
        "building": "yes",
        "name": "Sede da Sociedade Amigos do Parque Los Angeles",
        "operator": "Trabalhando pela Comunidade",
        "id": "way/628539256"
      },
      "geometry": {
        "type": "Polygon",
        "coordinates": [
          [
            [
              -46.6122532,
              -23.7732915
            ],
            [
              -46.6121781,
              -23.7734272
            ],
            [
              -46.6121146,
              -23.7733023
            ],
            [
              -46.6122551,
              -23.7732439
            ],
            [
              -46.6122532,
              -23.7732915
            ]
          ]
        ]
      }
    },
    {
      "type": "Feature",
      "id": "way/1035219797",
      "properties": {
        "timestamp": "2022-02-25T23:01:15Z",
        "version": 1,
        "changeset": 117865343,
        "addr:city": "São Bernardo do Campo",
        "addr:housenumber": "171",
        "addr:postcode": "09651000",
        "addr:street": "Rua Fernão Dias Paes Leme",
        "addr:suburb": "Parque",
        "amenity": "community_centre",
        "building": "yes",
        "name": "Sociedade Amigos Parque Santo Antonio - Sede Social",
        "id": "way/1035219797"
      },
      "geometry": {
        "type": "Polygon",
        "coordinates": [
          [
            [
              -46.5785612,
              -23.6590284
            ],
            [
              -46.5785558,
              -23.6592519
            ],
            [
              -46.5783359,
              -23.6592495
            ],
            [
              -46.5783413,
              -23.659021
            ],
            [
              -46.5785612,
              -23.6590284
            ]
          ]
        ]
      }
    },
    {
      "type": "Feature",
      "id": "node/10580308878",
      "properties": {
        "timestamp": "2023-01-24T23:12:27Z",
        "version": 2,
        "changeset": 131672533,
        "addr:housenumber": "291",
        "addr:postcode": "09635-900",
        "addr:street": "Avenida São João Batista",
        "addr:suburb": "Rudge Ramos",
        "amenity": "community_centre",
        "name": "Alcóolicos Anônimos Grupo Rudge Ramos",
        "opening_hours": "Mo-Fr 20:00-22:00; Sa 18:00-20:00; Su 09:00-11:00; PH off",
        "phone": "+55 11 3315 9333",
        "website": "https://www.aa.org.br/",
        "id": "node/10580308878"
      },
      "geometry": {
        "type": "Point",
        "coordinates": [
          -46.5712608,
          -23.6516979
        ]
      }
    },
    {
      "type": "Feature",
      "id": "node/10580351273",
      "properties": {
        "timestamp": "2023-01-24T23:31:14Z",
        "version": 1,
        "changeset": 131672933,
        "access": "yes",
        "addr:housenumber": "382",
        "addr:postcode": "09862-400",
        "addr:street": "Avenida Isaac Aizemberg",
        "addr:suburb": "Jardim Independência",
        "amenity": "community_centre",
        "name": "Alcóolicos Anônimos - Grupo Quinta Tradição",
        "opening_hours": "Mo-Su,PH 19:30⁠-⁠21:30",
        "website": "https://www.aa.org.br/",
        "id": "node/10580351273"
      },
      "geometry": {
        "type": "Point",
        "coordinates": [
          -46.5820326,
          -23.7019305
        ]
      }
    },
    {
      "type": "Feature",
      "id": "node/10580364867",
      "properties": {
        "timestamp": "2023-01-24T23:57:14Z",
        "version": 2,
        "changeset": 131673419,
        "addr:housenumber": "872",
        "addr:postcode": "09810-555",
        "addr:street": "Rua Cristiano Angeli",
        "addr:suburb": "Assunção",
        "amenity": "community_centre",
        "name": "Alcóolicos Anônimos -Grupo Primeira Tradição",
        "opening_hours": "Mo-Fr 20:00-22:00; Sa 18:00-20:00; Su 10:00-12:00; Ph 10:00-12:00,20:00-22:00",
        "phone": "+55 11 3315 9333",
        "website": "https://www.aa.org.br",
        "id": "node/10580364867"
      },
      "geometry": {
        "type": "Point",
        "coordinates": [
          -46.5717987,
          -23.7203866
        ]
      }
    },
    {
      "type": "Feature",
      "id": "node/10580399546",
      "properties": {
        "timestamp": "2023-01-25T00:14:18Z",
        "version": 1,
        "changeset": 131673692,
        "addr:housenumber": "1109",
        "addr:postcode": "09725-210",
        "addr:street": "Rua Jurubatuba",
        "addr:suburb": "Centro",
        "amenity": "community_centre",
        "name": "Alcóolicos Anônimos - Grupo São Bernardo",
        "opening_hours": "Mo-Fr 20:00-22:00; Sa 16:00-18:00; Su 18:00-20:00; PH off",
        "phone": "+55 11 3315 9333",
        "website": "https://www.aa.org.br/",
        "id": "node/10580399546"
      },
      "geometry": {
        "type": "Point",
        "coordinates": [
          -46.5533678,
          -23.7071881
        ]
      }
    },
    {
      "type": "Feature",
      "id": "node/11571673058",
      "properties": {
        "timestamp": "2024-02-04T02:34:39Z",
        "version": 2,
        "changeset": 147039558,
        "addr:housenumber": "2-291A",
        "addr:street": "Rua Matutina Rocha de Camampo",
        "addr:suburb": "D.E.R.",
        "amenity": "community_centre",
        "name": "Associação Comunitária do D.E.R. Nova Brasil",
        "old_addr:housenumber": "2119",
        "id": "node/11571673058"
      },
      "geometry": {
        "type": "Point",
        "coordinates": [
          -46.5591637,
          -23.7031103
        ]
      }
    },
    {
      "type": "Feature",
      "id": "node/11961647897",
      "properties": {
        "timestamp": "2024-06-06T22:00:11Z",
        "version": 1,
        "changeset": 152351147,
        "addr:street": "Rua Santo Dias da Silva",
        "amenity": "community_centre",
        "name": "APACES MMMCV - Sociedade Amigos do Sitio Bom Jesus",
        "id": "node/11961647897"
      },
      "geometry": {
        "type": "Point",
        "coordinates": [
          -46.5813357,
          -23.7381711
        ]
      }
    }
  ]
}
