{
  "type": "FeatureCollection",
  "features": [
    {
      "type": "Feature",
      "id": "way/288213435",
      "properties": {
        "timestamp": "2023-07-20T10:29:27Z",
        "version": 11,
        "changeset": 138757018,
        "addr:city": "São Bernardo do Campo",
        "addr:country": "BR",
        "addr:housenumber": "521",
        "addr:postcode": "09890-002",
        "addr:street": "Avenida Álvaro Guimarães",
        "addr:suburb": "Planalto",
        "amenity": "dentist",
        "building": "yes",
        "building:levels": "1",
        "healthcare": "dentist",
        "healthcare:speciality": "dentistry",
        "name": "Clinica Dental Sorridents",
        "phone": "+55 11 4509 9654",
        "smoking": "outside",
        "website": "https://sorridents.com.br/",
        "id": "way/288213435"
      },
      "geometry": {
        "type": "Polygon",
        "coordinates": [
          [
            [
              -46.568385,
              -23.6949977
            ],
            [
              -46.5683836,
              -23.6950505
            ],
            [
              -46.5681608,
              -23.6950454
            ],
            [
              -46.5681645,
              -23.6949813
            ],
            [
              -46.568385,
              -23.6949977
            ]
          ]
        ]
      }
    },
    {
      "type": "Feature",
      "id": "way/319594604",
      "properties": {
        "timestamp": "2023-08-26T14:51:57Z",
        "version": 12,
        "changeset": 140415503,
        "addr:city": "São Bernardo do Campo",
        "addr:country": "BR",
        "addr:housenumber": "369",
        "addr:postcode": "09750-670",
        "addr:street": "Avenida Lucas Nogueira Garcez",
        "addr:suburb": "Jardim do Mar",
        "amenity": "dentist",
        "building": "yes",
        "contact:mobile": "+55 11 98820 2332",
        "contact:phone": "+55 11 2374 2471",
        "drive_through": "no",
        "email": "sbc-lucasng@odontocompany.com",
        "healthcare": "dentist",
        "healthcare:speciality": "general;pediatric_dentistry;dental_prosthesis;implantodontics;dental",
        "name": "OdontoCompany",
        "opening_hours": "Mo-Fr 08:30-19:00; Sa 08:30-14:00; Su,PH off",
        "phone": "+55 11 2374 2466",
        "website": "https://odontocompany.com/",
        "id": "way/319594604"
      },
      "geometry": {
        "type": "Polygon",
        "coordinates": [
          [
            [
              -46.5542066,
              -23.6934924
            ],
            [
              -46.5542753,
              -23.6935321
            ],
            [
              -46.5543284,
              -23.6935768
            ],
            [
              -46.5543515,
              -23.6935963
            ],
            [
              -46.5543901,
              -23.6936288
            ],
            [
              -46.5542987,
              -23.6937374
            ],
            [
              -46.5541194,
              -23.6935864
            ],
            [
              -46.5542066,
              -23.6934924
            ]
          ]
        ]
      }
    },
    {
      "type": "Feature",
      "id": "way/333151593",
      "properties": {
        "timestamp": "2019-12-10T21:19:09Z",
        "version": 6,
        "changeset": 78227134,
        "addr:city": "São Bernardo do Campo",
        "addr:housenumber": "259",
        "addr:postcode": "09830-100",
        "addr:street": "Rua Rio Acima",
        "addr:suburb": "Riacho Grande",
        "amenity": "dentist",
        "building": "yes",
        "contact:phone": "+55 11 4354 8858",
        "healthcare": "dentist",
        "name": "Sorridents",
        "opening_hours": "Mo-Fr 08:00-18:00; Sa 08:00-14:00; Su,PH off",
        "phone": "+55 11 4101 8002",
        "ref": "CRO 021366",
        "website": "https://sorridents.com.br/sbc-riacho-grande/",
        "id": "way/333151593"
      },
      "geometry": {
        "type": "Polygon",
        "coordinates": [
          [
            [
              -46.530505,
              -23.77946
            ],
            [
              -46.5304111,
              -23.7794134
            ],
            [
              -46.5305586,
              -23.7791483
            ],
            [
              -46.5306498,
              -23.77919
            ],
            [
              -46.530505,
              -23.77946
            ]
          ]
        ]
      }
    },
    {
      "type": "Feature",
      "id": "way/439946253",
      "properties": {
        "timestamp": "2019-06-12T01:20:01Z",
        "version": 4,
        "changeset": 71161606,
        "addr:city": "São Bernardo do Campo",
        "addr:country": "BR",
        "addr:housenumber": "649",
        "addr:street": "Avenida Imperatriz Leopoldina",
        "addr:suburb": "Nova Petrópolis",
        "amenity": "dentist",
        "building": "yes",
        "emergency": "no",
        "healthcare": "dentist",
        "name": "Centro de Especialidades Odontológicas",
        "phone": "55 11 4122 4690",
        "id": "way/439946253"
      },
      "geometry": {
        "type": "Polygon",
        "coordinates": [
          [
            [
              -46.5454507,
              -23.7054775
            ],
            [
              -46.5455014,
              -23.7055626
            ],
            [
              -46.5453286,
              -23.7056449
            ],
            [
              -46.5452896,
              -23.7055487
            ],
            [
              -46.5454507,
              -23.7054775
            ]
          ]
        ]
      }
    },
    {
      "type": "Feature",
      "id": "way/619285003",
      "properties": {
        "timestamp": "2022-01-04T03:02:11Z",
        "version": 2,
        "changeset": 115734643,
        "addr:city": "São Bernardo do Campo",
        "addr:housenumber": "295",
        "addr:street": "Rua Marechal Deodoro",
        "addr:suburb": "Centro",
        "amenity": "dentist",
        "building": "yes",
        "healthcare": "dentist",
        "name": "Centro Odontológico Doutor  do Povo",
        "id": "way/619285003"
      },
      "geometry": {
        "type": "Polygon",
        "coordinates": [
          [
            [
              -46.5517625,
              -23.700449
            ],
            [
              -46.5517571,
              -23.7005153
            ],
            [
              -46.5515399,
              -23.7004908
            ],
            [
              -46.5515426,
              -23.7004294
            ],
            [
              -46.5517625,
              -23.700449
            ]
          ]
        ]
      }
    },
    {
      "type": "Feature",
      "id": "way/736939854",
      "properties": {
        "timestamp": "2019-10-20T04:52:37Z",
        "version": 1,
        "changeset": 75944007,
        "addr:street": "Avenida General Barreto de Menezes",
        "amenity": "dentist",
        "building": "yes",
        "contact:phone": "+55 11 4127 5286",
        "healthcare": "dentist",
        "healthcare:speciality": "general",
        "name": "Ortimplant Dentistas",
        "phone": "+55 11 2855 1285",
        "id": "way/736939854"
      },
      "geometry": {
        "type": "Polygon",
        "coordinates": [
          [
            [
              -46.5358479,
              -23.7358046
            ],
            [
              -46.5357677,
              -23.7358549
            ],
            [
              -46.5356601,
              -23.7356977
            ],
            [
              -46.535738,
              -23.7356578
            ],
            [
              -46.5358479,
              -23.7358046
            ]
          ]
        ]
      }
    },
    {
      "type": "Feature",
      "id": "way/854285912",
      "properties": {
        "timestamp": "2020-10-08T15:13:24Z",
        "version": 2,
        "changeset": 92182991,
        "addr:housenumber": "191",
        "addr:street": "Avenida Brigadeiro Faria Lima",
        "addr:suburb": "Centro",
        "amenity": "dentist",
        "building": "yes",
        "healthcare": "dentist",
        "healthcare:speciality": "dentistry",
        "name": "Sorria de Novo",
        "phone": "+55 11 4122 1467",
        "website": "https://www.sorriadenovo.com.br/",
        "id": "way/854285912"
      },
      "geometry": {
        "type": "Polygon",
        "coordinates": [
          [
            [
              -46.5520282,
              -23.7000104
            ],
            [
              -46.5521319,
              -23.7002055
            ],
            [
              -46.5519161,
              -23.7001986
            ],
            [
              -46.5519367,
              -23.700007
            ],
            [
              -46.5520282,
              -23.7000104
            ]
          ]
        ]
      }
    },
    {
      "type": "Feature",
      "id": "way/1017958662",
      "properties": {
        "timestamp": "2022-01-04T03:02:11Z",
        "version": 2,
        "changeset": 115734643,
        "addr:street": "Rua Marechal Deodoro",
        "addr:suburb": "Centro",
        "amenity": "dentist",
        "building": "yes",
        "contact:mobile": "+55 11 93245 2025",
        "healthcare": "dentist",
        "name": "Sorriso Odontologia",
        "phone": "+55 11 4330 6665",
        "id": "way/1017958662"
      },
      "geometry": {
        "type": "Polygon",
        "coordinates": [
          [
            [
              -46.5515743,
              -23.7022772
            ],
            [
              -46.5515674,
              -23.7023373
            ],
            [
              -46.5512378,
              -23.7023062
            ],
            [
              -46.5512468,
              -23.7022508
            ],
            [
              -46.5515743,
              -23.7022772
            ]
          ]
        ]
      }
    },
    {
      "type": "Feature",
      "id": "way/1177915312",
      "properties": {
        "timestamp": "2023-05-31T15:44:47Z",
        "version": 1,
        "changeset": 136795501,
        "addr:street": "Rua Giovani Giusti",
        "amenity": "dentist",
        "building": "yes",
        "healthcare": "dentist",
        "phone": "+55 11 4335 1080",
        "id": "way/1177915312"
      },
      "geometry": {
        "type": "Polygon",
        "coordinates": [
          [
            [
              -46.5426058,
              -23.71589
            ],
            [
              -46.5426836,
              -23.7159901
            ],
            [
              -46.5426116,
              -23.7160369
            ],
            [
              -46.5425339,
              -23.7159369
            ],
            [
              -46.5426058,
              -23.71589
            ]
          ]
        ]
      }
    },
    {
      "type": "Feature",
      "id": "node/3052872956",
      "properties": {
        "timestamp": "2020-04-11T15:49:30Z",
        "version": 2,
        "changeset": 83403203,
        "addr:city": "São Bernardo do Campo",
        "addr:street": "Rua Luis de Gois",
        "amenity": "dentist",
        "healthcare": "dentist",
        "name": "Vittá Ortodontia",
        "phone": "+55 11 4356 6656",
        "id": "node/3052872956"
      },
      "geometry": {
        "type": "Point",
        "coordinates": [
          -46.5616808,
          -23.7181443
        ]
      }
    },
    {
      "type": "Feature",
      "id": "node/3332699280",
      "properties": {
        "timestamp": "2021-08-14T16:22:05Z",
        "version": 6,
        "changeset": 109675990,
        "addr:city": "São Bernardo do Campo",
        "addr:country": "BR",
        "addr:housenumber": "314",
        "addr:street": "Rua Benedito Conrado Filho",
        "addr:suburb": "Jardim Embaré",
        "amenity": "dentist",
        "healthcare": "dentist",
        "name": "Doutora Maria Augusta N.Prando",
        "operator": "Doutora Maria Augusta N.Prando",
        "phone": "+55 11 4399 1223",
        "id": "node/3332699280"
      },
      "geometry": {
        "type": "Point",
        "coordinates": [
          -46.5731554,
          -23.7026097
        ]
      }
    },
    {
      "type": "Feature",
      "id": "node/5552712386",
      "properties": {
        "timestamp": "2023-08-29T13:20:27Z",
        "version": 2,
        "changeset": 140541856,
        "addr:city": "São Bernardo do Campo",
        "addr:housenumber": "71",
        "addr:street": "Avenida Índico",
        "addr:suburb": "Centro",
        "amenity": "dentist",
        "contact:mobile": "+55 11 94020 0329",
        "email": "administracao@risumodontologia.com.br",
        "healthcare": "dentist",
        "healthcare:speciality": "endodontics;implantology;dental;dental_surgery;pediatric;orthodontics;facial_orthodontics",
        "name": "Risum Odontologia Especializada",
        "phone": "+55 11 4853 0065",
        "website": "http://www.risumodontologia.com.br/",
        "id": "node/5552712386"
      },
      "geometry": {
        "type": "Point",
        "coordinates": [
          -46.5535543,
          -23.6962825
        ]
      }
    },
    {
      "type": "Feature",
      "id": "node/5595527615",
      "properties": {
        "timestamp": "2023-10-27T01:27:03Z",
        "version": 2,
        "changeset": 143188138,
        "addr:city": "São Bernardo do Campo",
        "addr:housenumber": "895",
        "addr:postcode": "09710-060",
        "addr:street": "Rua Santa Filomena",
        "addr:suburb": "Centro",
        "amenity": "dentist",
        "healthcare": "dentist",
        "healthcare:speciality": "orthodontics",
        "name": "Centro Odontológico COSB",
        "phone": "+55 11 4122 9700",
        "website": "https://cosb.com.br/",
        "id": "node/5595527615"
      },
      "geometry": {
        "type": "Point",
        "coordinates": [
          -46.5503762,
          -23.7065589
        ]
      }
    },
    {
      "type": "Feature",
      "id": "node/6058624762",
      "properties": {
        "timestamp": "2018-11-13T20:06:55Z",
        "version": 1,
        "changeset": 64456300,
        "addr:city": "São Bernardo do Campo",
        "addr:street": "Estrada do Rio Acima",
        "addr:suburb": "Jardim do Lago Azul",
        "amenity": "dentist",
        "healthcare": "dentist",
        "id": "node/6058624762"
      },
      "geometry": {
        "type": "Point",
        "coordinates": [
          -46.5330829,
          -23.7858028
        ]
      }
    },
    {
      "type": "Feature",
      "id": "node/6216340733",
      "properties": {
        "timestamp": "2019-06-12T01:29:53Z",
        "version": 3,
        "changeset": 71161757,
        "addr:housenumber": "55",
        "addr:street": "Rua Zelinda Zanella",
        "amenity": "dentist",
        "healthcare": "dentist",
        "healthcare:speciality": "general",
        "name": "Ocrusso Odontologia",
        "phone": "+55 11 4332 8789",
        "id": "node/6216340733"
      },
      "geometry": {
        "type": "Point",
        "coordinates": [
          -46.5498083,
          -23.7183
        ]
      }
    },
    {
      "type": "Feature",
      "id": "node/6632611614",
      "properties": {
        "timestamp": "2019-07-20T02:26:38Z",
        "version": 1,
        "changeset": 72450520,
        "addr:street": "Avenida da Praia",
        "amenity": "dentist",
        "contact:mobile": "+55 11 98875 1142",
        "healthcare": "dentist",
        "healthcare:speciality": "general",
        "name": "Orthimplant Dentistas",
        "phone": "+55 11 4354 0381",
        "id": "node/6632611614"
      },
      "geometry": {
        "type": "Point",
        "coordinates": [
          -46.5311424,
          -23.778847
        ]
      }
    },
    {
      "type": "Feature",
      "id": "node/6632611616",
      "properties": {
        "timestamp": "2019-07-20T02:26:38Z",
        "version": 1,
        "changeset": 72450520,
        "addr:street": "Avenida da Praia",
        "amenity": "dentist",
        "healthcare": "dentist",
        "name": "Doutora Miriam Fredi",
        "phone": "+55 11 4354 7073",
        "id": "node/6632611616"
      },
      "geometry": {
        "type": "Point",
        "coordinates": [
          -46.5311905,
          -23.7788369
        ]
      }
    },
    {
      "type": "Feature",
      "id": "node/6680181130",
      "properties": {
        "timestamp": "2019-08-03T15:25:57Z",
        "version": 1,
        "changeset": 72971787,
        "addr:street": "Rua Zelinda Zanella",
        "amenity": "dentist",
        "healthcare": "dentist",
        "name": "Castro Odontologia Avançada",
        "phone": "+55 11 4339 1040",
        "id": "node/6680181130"
      },
      "geometry": {
        "type": "Point",
        "coordinates": [
          -46.5503977,
          -23.7182011
        ]
      }
    },
    {
      "type": "Feature",
      "id": "node/6899254460",
      "properties": {
        "timestamp": "2019-10-20T00:00:26Z",
        "version": 1,
        "changeset": 75941838,
        "addr:housenumber": "1641",
        "addr:street": "Rua Marechal Deodoro",
        "amenity": "dentist",
        "healthcare": "dentist",
        "healthcare:speciality": "general",
        "name": "Odonto ABC",
        "id": "node/6899254460"
      },
      "geometry": {
        "type": "Point",
        "coordinates": [
          -46.550211,
          -23.7127317
        ]
      }
    },
    {
      "type": "Feature",
      "id": "node/6904026147",
      "properties": {
        "timestamp": "2019-10-22T14:19:46Z",
        "version": 2,
        "changeset": 76054114,
        "addr:housenumber": "509",
        "addr:street": "Avenida Álvaro Guimarães",
        "amenity": "dentist",
        "healthcare": "dentist",
        "healthcare:speciality": "general",
        "name": "Doutora Taeny Mubota",
        "phone": "+55 11 4390 7239",
        "id": "node/6904026147"
      },
      "geometry": {
        "type": "Point",
        "coordinates": [
          -46.5682566,
          -23.694922
        ]
      }
    },
    {
      "type": "Feature",
      "id": "node/6997557925",
      "properties": {
        "timestamp": "2019-11-21T23:39:40Z",
        "version": 1,
        "changeset": 77401016,
        "addr:street": "Avenida General Barreto de Menezes",
        "amenity": "dentist",
        "healthcare": "dentist",
        "name": "Odontologia D'Amico",
        "phone": "+55 11 4127 3915",
        "id": "node/6997557925"
      },
      "geometry": {
        "type": "Point",
        "coordinates": [
          -46.5353891,
          -23.7363312
        ]
      }
    },
    {
      "type": "Feature",
      "id": "node/7074020489",
      "properties": {
        "timestamp": "2022-01-21T20:20:21Z",
        "version": 2,
        "changeset": 116446291,
        "addr:housenumber": "3750",
        "addr:street": "Avenida Robert Kennedy",
        "amenity": "dentist",
        "healthcare": "dentist",
        "name": "Monfredini Odontologia",
        "phone": "+55 11 3907 5003",
        "id": "node/7074020489"
      },
      "geometry": {
        "type": "Point",
        "coordinates": [
          -46.5746146,
          -23.7234403
        ]
      }
    },
    {
      "type": "Feature",
      "id": "node/7289445137",
      "properties": {
        "timestamp": "2020-03-12T19:38:27Z",
        "version": 1,
        "changeset": 82128140,
        "addr:housenumber": "2080",
        "addr:postcode": "09780-001",
        "addr:street": "Rua Marechal Deodoro",
        "amenity": "dentist",
        "healthcare": "dentist",
        "name": "Sorrident's",
        "phone": "+55 11 4338 7270",
        "ref": "CRO 12080",
        "website": "https://sorridents.com.br/sbc-ferrazopolis/",
        "id": "node/7289445137"
      },
      "geometry": {
        "type": "Point",
        "coordinates": [
          -46.5490294,
          -23.7162569
        ]
      }
    },
    {
      "type": "Feature",
      "id": "node/8025766749",
      "properties": {
        "timestamp": "2023-02-06T18:16:07Z",
        "version": 3,
        "changeset": 132169464,
        "addr:housenumber": "390",
        "addr:street": "Avenida Índico",
        "addr:suburb": "Jardim do Mar",
        "amenity": "dentist",
        "contact:mobile": "+55 11 97725 2533",
        "healthcare": "dentist",
        "name": "Oral Sim Implantes",
        "phone": "+55 11 4122 1522",
        "id": "node/8025766749"
      },
      "geometry": {
        "type": "Point",
        "coordinates": [
          -46.554851,
          -23.6935604
        ]
      }
    },
    {
      "type": "Feature",
      "id": "node/8534208208",
      "properties": {
        "timestamp": "2021-03-25T18:13:50Z",
        "version": 2,
        "changeset": 101738572,
        "addr:housenumber": "652",
        "addr:postcode": "09895-020",
        "addr:street": "Rua Sérgio Cardoso",
        "addr:suburb": "Jardim Beatriz",
        "amenity": "dentist",
        "healthcare": "dentist",
        "healthcare:speciality": "general",
        "name": "Consultório Odontológico Doutora Cilene Rinaldi Fernandes",
        "phone": "+55 11 4341 4669",
        "ref": "CROSP-54219",
        "id": "node/8534208208"
      },
      "geometry": {
        "type": "Point",
        "coordinates": [
          -46.5764215,
          -23.7016385
        ]
      }
    },
    {
      "type": "Feature",
      "id": "node/8865985271",
      "properties": {
        "timestamp": "2021-06-26T16:30:08Z",
        "version": 2,
        "changeset": 107009739,
        "addr:housenumber": "2827",
        "addr:postcode": "09761-000",
        "addr:street": "Rua dos Vianas",
        "amenity": "dentist",
        "contact:mobile": "+55 11 98934 9665",
        "contact:phone": "+55 11 2356 0039",
        "email": "sp.sbcvianas@sorridents.com.br",
        "healthcare": "dentist",
        "name": "Sorridents",
        "opening_hours": "Mo-Fr 09:00-20:00; Sa 09:00-15:00; Su,PH off",
        "phone": "+55 11 2356 0060",
        "website": "https://sorridents.com.br/sbc-vianas/",
        "id": "node/8865985271"
      },
      "geometry": {
        "type": "Point",
        "coordinates": [
          -46.5278045,
          -23.7074447
        ]
      }
    },
    {
      "type": "Feature",
      "id": "node/9032827908",
      "properties": {
        "timestamp": "2021-08-24T17:37:59Z",
        "version": 1,
        "changeset": 110186786,
        "addr:street": "Avenida Luiz Pequini",
        "amenity": "dentist",
        "healthcare": "dentist",
        "name": "COSB",
        "id": "node/9032827908"
      },
      "geometry": {
        "type": "Point",
        "coordinates": [
          -46.5320358,
          -23.7139579
        ]
      }
    },
    {
      "type": "Feature",
      "id": "node/9657264265",
      "properties": {
        "timestamp": "2022-04-11T01:04:15Z",
        "version": 1,
        "changeset": 119554930,
        "addr:housenumber": "111",
        "addr:street": "Rua José Versolato",
        "addr:suburb": "Centro",
        "amenity": "dentist",
        "email": "contato@dentemergencia.com.br",
        "healthcare": "dentist",
        "name": "Dentemergência Odontonlogia Especializada",
        "opening_hours": "24/7",
        "phone": "+55 11 4330 4047",
        "website": "http://www.dentemergencia.com.br/sao-bernardo-do-campo/",
        "id": "node/9657264265"
      },
      "geometry": {
        "type": "Point",
        "coordinates": [
          -46.5489481,
          -23.6915049
        ]
      }
    },
    {
      "type": "Feature",
      "id": "node/9703598192",
      "properties": {
        "timestamp": "2022-05-12T19:02:45Z",
        "version": 2,
        "changeset": 120902762,
        "addr:housenumber": "2945",
        "addr:postcode": "09761-000",
        "addr:street": "Rua dos Vianas",
        "addr:suburb": "Santa Terezinha",
        "amenity": "dentist",
        "contact:mobile": "+55 11 97866 1568",
        "email": "sbc-vianas@odontocompany.com",
        "healthcare": "dentist",
        "name": "Odonto Company",
        "opening_hours": "Mo-Fr 09:00-19:00; Sa 09:00-17:00; Su,PH off",
        "phone": "+55 11 2356 8845",
        "id": "node/9703598192"
      },
      "geometry": {
        "type": "Point",
        "coordinates": [
          -46.5252079,
          -23.7079686
        ]
      }
    },
    {
      "type": "Feature",
      "id": "node/9886086797",
      "properties": {
        "timestamp": "2022-07-13T22:34:58Z",
        "version": 1,
        "changeset": 123583252,
        "addr:street": "Rua Doutor Cincinato Braga",
        "addr:suburb": "Planalto",
        "amenity": "dentist",
        "healthcare": "dentist",
        "phone": "+55 11 4341 7744",
        "id": "node/9886086797"
      },
      "geometry": {
        "type": "Point",
        "coordinates": [
          -46.5669435,
          -23.697669
        ]
      }
    },
    {
      "type": "Feature",
      "id": "node/9910691926",
      "properties": {
        "timestamp": "2022-07-26T01:43:05Z",
        "version": 1,
        "changeset": 124073462,
        "addr:housenumber": "5815",
        "addr:street": "Estrada dos Alvarengas",
        "addr:suburb": "Alvarenga",
        "amenity": "dentist",
        "healthcare": "dentist",
        "name": "Centro de Especialidades Odontológicas",
        "id": "node/9910691926"
      },
      "geometry": {
        "type": "Point",
        "coordinates": [
          -46.5978956,
          -23.7412261
        ]
      }
    },
    {
      "type": "Feature",
      "id": "node/10914132886",
      "properties": {
        "timestamp": "2023-05-20T15:13:46Z",
        "version": 2,
        "changeset": 136341924,
        "addr:housenumber": "3233",
        "addr:street": "Avenida Humberto de Alencar Castelo Branco",
        "amenity": "dentist",
        "contact:mobile": "+55 11 99784 8548",
        "healthcare": "dentist",
        "name": "Sorridents - Clinicas Odontológicas",
        "phone": "+55 11 2381 2515",
        "website": "https://sorridents.com.br/unidade/sbc-alves-dias",
        "id": "node/10914132886"
      },
      "geometry": {
        "type": "Point",
        "coordinates": [
          -46.5829894,
          -23.718062
        ]
      }
    },
    {
      "type": "Feature",
      "id": "node/11660141013",
      "properties": {
        "timestamp": "2024-02-24T18:36:28Z",
        "version": 1,
        "changeset": 147866699,
        "addr:street": "Avenida Álvaro Guimarães",
        "addr:suburb": "Planalto",
        "amenity": "dentist",
        "healthcare": "dentist",
        "healthcare:speciality": "cirurgia;implantes",
        "mobile": "+55 11 99476 0377",
        "name": "Doutor Flávio Braga",
        "operator": "Doutor Flávio Braga",
        "phone": "+55 11 4341 7137",
        "wheelchair": "no",
        "id": "node/11660141013"
      },
      "geometry": {
        "type": "Point",
        "coordinates": [
          -46.5681289,
          -23.6946877
        ]
      }
    },
    {
      "type": "Feature",
      "id": "node/11755487558",
      "properties": {
        "timestamp": "2024-03-23T13:56:21Z",
        "version": 1,
        "changeset": 149051850,
        "addr:housenumber": "3431",
        "addr:street": "Avenida Senador Vergueiro",
        "addr:suburb": "Rudge Ramos",
        "amenity": "dentist",
        "email": "contato@clermontodontologia.com.br",
        "healthcare": "dentist",
        "mobile": "+55 11 94068 6848",
        "name": "Clermont Odontologia",
        "phone": "+55 11 4368 1277",
        "website": "https://clermontodontologia.com.br/",
        "id": "node/11755487558"
      },
      "geometry": {
        "type": "Point",
        "coordinates": [
          -46.5613658,
          -23.6656739
        ]
      }
    }
  ]
}
