{
  "type": "FeatureCollection",
  "features": [
    {
      "type": "Feature",
      "id": "way/234300842",
      "properties": {
        "timestamp": "2019-03-06T03:54:53Z",
        "version": 14,
        "changeset": 67829179,
        "addr:city": "São Bernardo do Campo",
        "addr:country": "BR",
        "addr:housenumber": "999",
        "addr:postcode": "09710-060",
        "addr:street": "Rua Santa Filomena",
        "addr:suburb": "Centro",
        "building": "yes",
        "contact:email": "reservas@twintowersflat.com.br",
        "contact:phone": "+55 11 4126 5000",
        "email": "contato@twintowersflat.com.br",
        "internet_access": "wired",
        "internet_access:fee": "no",
        "name": "Twin Towers Flat",
        "old_name": "Hotel Mercure São Bernardo Twin Towers",
        "phone": "+55 11 2155 7700",
        "smoking": "outside",
        "tourism": "hotel",
        "website": "https://www.twintowersflat.com.br/",
        "wheelchair": "yes",
        "id": "way/234300842"
      },
      "geometry": {
        "type": "Polygon",
        "coordinates": [
          [
            [
              -46.5503338,
              -23.7071943
            ],
            [
              -46.5502715,
              -23.7075805
            ],
            [
              -46.5501086,
              -23.7075585
            ],
            [
              -46.5501582,
              -23.7072513
            ],
            [
              -46.5499478,
              -23.7072228
            ],
            [
              -46.5499606,
              -23.7071438
            ],
            [
              -46.5503338,
              -23.7071943
            ]
          ]
        ]
      }
    },
    {
      "type": "Feature",
      "id": "way/293250739",
      "properties": {
        "timestamp": "2023-10-27T01:23:41Z",
        "version": 8,
        "changeset": 143188018,
        "addr:city": "São Bernardo do Campo",
        "addr:country": "BR",
        "addr:housenumber": "140",
        "addr:postcode": "09726-150",
        "addr:street": "Avenida Antártico",
        "addr:suburb": "Jardim do Mar",
        "building": "yes",
        "email": "central@jardimhotel.com.br",
        "name": "Jardim Hotel",
        "phone": "+55 11 4125 6660",
        "rooms": "24",
        "smoking": "outside",
        "tourism": "hotel",
        "website": "https://www.jardimhotel.com.br/",
        "id": "way/293250739"
      },
      "geometry": {
        "type": "Polygon",
        "coordinates": [
          [
            [
              -46.5612986,
              -23.6887485
            ],
            [
              -46.5614603,
              -23.6889913
            ],
            [
              -46.5612636,
              -23.6891081
            ],
            [
              -46.5611696,
              -23.6889476
            ],
            [
              -46.5612084,
              -23.6889338
            ],
            [
              -46.5611653,
              -23.6888755
            ],
            [
              -46.5612195,
              -23.6888511
            ],
            [
              -46.5611869,
              -23.6887993
            ],
            [
              -46.5612986,
              -23.6887485
            ]
          ]
        ]
      }
    },
    {
      "type": "Feature",
      "id": "way/302684980",
      "properties": {
        "timestamp": "2021-03-10T12:07:48Z",
        "version": 5,
        "changeset": 100778020,
        "addr:city": "São Bernardo do Campo",
        "addr:country": "BR",
        "addr:street": "Avenida das Nações Unidas",
        "addr:suburb": "Chacara Inglesa",
        "building": "hotel",
        "name": "D. Fernando Hotel",
        "tourism": "hotel",
        "id": "way/302684980"
      },
      "geometry": {
        "type": "Polygon",
        "coordinates": [
          [
            [
              -46.5621205,
              -23.6900808
            ],
            [
              -46.5622599,
              -23.690092
            ],
            [
              -46.5622844,
              -23.6901565
            ],
            [
              -46.5623196,
              -23.6901972
            ],
            [
              -46.5623181,
              -23.6902435
            ],
            [
              -46.5620501,
              -23.6902308
            ],
            [
              -46.5620516,
              -23.6901789
            ],
            [
              -46.5621205,
              -23.6900808
            ]
          ]
        ]
      }
    },
    {
      "type": "Feature",
      "id": "way/302684982",
      "properties": {
        "timestamp": "2021-09-19T02:11:40Z",
        "version": 5,
        "changeset": 111393107,
        "addr:city": "São Bernardo do Campo",
        "addr:country": "BR",
        "addr:housename": "Pampas Palace Hotel",
        "addr:housenumber": "71",
        "addr:postcode": "09726-000",
        "addr:street": "Avenida Barão de Mauá",
        "addr:suburb": "Chacara Inglesa",
        "contact:phone": "+55 11 4126 2000",
        "internet_access": "wlan",
        "name": "Pampas Palace Hotel",
        "phone": "+55 11 4122 2000",
        "rooms": "162",
        "tourism": "hotel",
        "website": "http://www.pampaspalacehotel.com.br/",
        "id": "way/302684982"
      },
      "geometry": {
        "type": "Polygon",
        "coordinates": [
          [
            [
              -46.5601239,
              -23.6911298
            ],
            [
              -46.5602258,
              -23.6918075
            ],
            [
              -46.559971,
              -23.6918444
            ],
            [
              -46.5596825,
              -23.6914851
            ],
            [
              -46.5600246,
              -23.6910945
            ],
            [
              -46.560072,
              -23.691066
            ],
            [
              -46.5601002,
              -23.6910796
            ],
            [
              -46.5601239,
              -23.6911298
            ]
          ]
        ]
      }
    },
    {
      "type": "Feature",
      "id": "way/302686062",
      "properties": {
        "timestamp": "2024-03-05T20:02:12Z",
        "version": 6,
        "changeset": 148266144,
        "addr:city": "São Bernardo do Campo",
        "addr:country": "BR",
        "addr:housenumber": "1501",
        "addr:postcode": "09726-110",
        "addr:street": "Avenida das Nações Unidas",
        "addr:suburb": "Chácara Inglesa",
        "name": "New Life MBigucci",
        "smoking": "outside",
        "tourism": "hotel",
        "id": "way/302686062"
      },
      "geometry": {
        "type": "Polygon",
        "coordinates": [
          [
            [
              -46.5635988,
              -23.6898361
            ],
            [
              -46.5634029,
              -23.6905631
            ],
            [
              -46.5633132,
              -23.6906132
            ],
            [
              -46.5625984,
              -23.6907104
            ],
            [
              -46.5626179,
              -23.6900459
            ],
            [
              -46.5626786,
              -23.6899666
            ],
            [
              -46.5629359,
              -23.6899316
            ],
            [
              -46.5635988,
              -23.6898361
            ]
          ]
        ]
      }
    },
    {
      "type": "Feature",
      "id": "way/308895069",
      "properties": {
        "timestamp": "2024-04-22T23:37:11Z",
        "version": 5,
        "changeset": 150369678,
        "addr:city": "São Bernardo do Campo",
        "addr:country": "BR",
        "addr:housenumber": "11",
        "addr:postcode": "09720-260",
        "addr:street": "Rua Humberto de Campos",
        "addr:suburb": "Vila Alcantara",
        "building": "hotel",
        "building:levels": "1",
        "name": "Hotel Simba",
        "phone": "+55 11 2355 5607",
        "tourism": "hotel",
        "id": "way/308895069"
      },
      "geometry": {
        "type": "Polygon",
        "coordinates": [
          [
            [
              -46.5507729,
              -23.7225289
            ],
            [
              -46.5507625,
              -23.7227094
            ],
            [
              -46.5506092,
              -23.7227155
            ],
            [
              -46.5506158,
              -23.7225387
            ],
            [
              -46.5506252,
              -23.7225277
            ],
            [
              -46.5506373,
              -23.7225142
            ],
            [
              -46.5507729,
              -23.7225289
            ]
          ]
        ]
      }
    },
    {
      "type": "Feature",
      "id": "way/367464507",
      "properties": {
        "timestamp": "2024-05-04T15:34:11Z",
        "version": 8,
        "changeset": 150885875,
        "addr:city": "São Bernardo do Campo",
        "addr:housenumber": "500",
        "addr:street": "Rua Ana Maria Martinez",
        "addr:suburb": "Assunção",
        "contact:mobile": "+55 11 98967 2752",
        "contact:phone": "+55 11 2374 2940",
        "email": "contato@hoteldoncarlo.com.br",
        "internet_access": "wlan",
        "name": "Don Carlo Hotel",
        "phone": "+55 11 4109 2840",
        "start_date": "2002",
        "tourism": "hotel",
        "website": "https://doncarlohotel.com.br/",
        "id": "way/367464507"
      },
      "geometry": {
        "type": "Polygon",
        "coordinates": [
          [
            [
              -46.5724742,
              -23.724763
            ],
            [
              -46.5725305,
              -23.7247925
            ],
            [
              -46.5725198,
              -23.7250085
            ],
            [
              -46.5725171,
              -23.7251092
            ],
            [
              -46.5725064,
              -23.7252418
            ],
            [
              -46.5724044,
              -23.7252443
            ],
            [
              -46.5722676,
              -23.7252443
            ],
            [
              -46.572273,
              -23.7247262
            ],
            [
              -46.5724742,
              -23.724763
            ]
          ]
        ]
      }
    },
    {
      "type": "Feature",
      "id": "way/368377127",
      "properties": {
        "timestamp": "2023-07-20T08:58:23Z",
        "version": 5,
        "changeset": 138752722,
        "addr:city": "São Bernardo do Campo",
        "addr:country": "BR",
        "addr:housenumber": "77",
        "addr:postcode": "09890-000",
        "addr:street": "Avenida Álvaro Guimarães",
        "addr:suburb": "Planalto",
        "building": "hotel",
        "building:levels": "1",
        "name": "Hotel New Plaza",
        "phone": "+55 11 4341 4252",
        "tourism": "hotel",
        "id": "way/368377127"
      },
      "geometry": {
        "type": "Polygon",
        "coordinates": [
          [
            [
              -46.5666556,
              -23.6910222
            ],
            [
              -46.5664533,
              -23.6910843
            ],
            [
              -46.5664325,
              -23.6910275
            ],
            [
              -46.5666348,
              -23.6909654
            ],
            [
              -46.5666556,
              -23.6910222
            ]
          ]
        ]
      }
    },
    {
      "type": "Feature",
      "id": "way/377232898",
      "properties": {
        "timestamp": "2015-10-28T01:40:58Z",
        "version": 1,
        "changeset": 34917386,
        "addr:city": "Diadema",
        "addr:street": "Avenida Humberto Alencar Castelo Branco",
        "building": "yes",
        "tourism": "hotel",
        "id": "way/377232898"
      },
      "geometry": {
        "type": "Polygon",
        "coordinates": [
          [
            [
              -46.5844654,
              -23.6940137
            ],
            [
              -46.5842643,
              -23.69408
            ],
            [
              -46.5842106,
              -23.6939253
            ],
            [
              -46.5843742,
              -23.6938688
            ],
            [
              -46.5844654,
              -23.6940137
            ]
          ]
        ]
      }
    },
    {
      "type": "Feature",
      "id": "way/398259266",
      "properties": {
        "timestamp": "2017-06-06T20:33:29Z",
        "version": 3,
        "changeset": 49318195,
        "addr:city": "São Bernardo do Campo",
        "addr:country": "BR",
        "addr:street": "Rua Américo Brasiliense",
        "addr:suburb": "Centro",
        "building": "yes",
        "name": "Hotel Star",
        "tourism": "hotel",
        "id": "way/398259266"
      },
      "geometry": {
        "type": "Polygon",
        "coordinates": [
          [
            [
              -46.5524487,
              -23.7126452
            ],
            [
              -46.5525379,
              -23.7127784
            ],
            [
              -46.5524652,
              -23.7128126
            ],
            [
              -46.5523871,
              -23.7126718
            ],
            [
              -46.5524487,
              -23.7126452
            ]
          ]
        ]
      }
    },
    {
      "type": "Feature",
      "id": "way/466677607",
      "properties": {
        "timestamp": "2024-03-12T22:18:08Z",
        "version": 8,
        "changeset": 148569295,
        "addr:city": "São Bernardo do Campo",
        "addr:street": "Avenida Aldino Pinotti",
        "addr:suburb": "Centro",
        "brand": "Ibis",
        "brand:wikidata": "Q920166",
        "brand:wikipedia": "en:Ibis (hotel)",
        "building": "yes",
        "name": "Ibis",
        "tourism": "hotel",
        "id": "way/466677607"
      },
      "geometry": {
        "type": "Polygon",
        "coordinates": [
          [
            [
              -46.5522108,
              -23.692606
            ],
            [
              -46.5522215,
              -23.6927194
            ],
            [
              -46.5520025,
              -23.6927366
            ],
            [
              -46.5520225,
              -23.6929495
            ],
            [
              -46.5521315,
              -23.6929409
            ],
            [
              -46.552149,
              -23.693127
            ],
            [
              -46.5521578,
              -23.6932213
            ],
            [
              -46.5521744,
              -23.6933985
            ],
            [
              -46.552019,
              -23.6934107
            ],
            [
              -46.5519991,
              -23.6932433
            ],
            [
              -46.5519882,
              -23.6930821
            ],
            [
              -46.5519084,
              -23.6930884
            ],
            [
              -46.5518999,
              -23.6929982
            ],
            [
              -46.5518657,
              -23.6926331
            ],
            [
              -46.5522108,
              -23.692606
            ]
          ]
        ]
      }
    },
    {
      "type": "Feature",
      "id": "way/536510637",
      "properties": {
        "timestamp": "2017-10-28T23:35:19Z",
        "version": 1,
        "changeset": 53329952,
        "addr:city": "São Bernardo do Campo",
        "addr:street": "Avenida Senador Vergueiro",
        "addr:suburb": "Rudge Ramos",
        "building": "yes",
        "name": "Hotel Rudge Ramos",
        "tourism": "hotel",
        "id": "way/536510637"
      },
      "geometry": {
        "type": "Polygon",
        "coordinates": [
          [
            [
              -46.5694747,
              -23.6569039
            ],
            [
              -46.5693433,
              -23.657211
            ],
            [
              -46.5692789,
              -23.6571864
            ],
            [
              -46.5693326,
              -23.6570685
            ],
            [
              -46.5690241,
              -23.656958
            ],
            [
              -46.5690402,
              -23.6568867
            ],
            [
              -46.5693406,
              -23.6569899
            ],
            [
              -46.569405,
              -23.6568744
            ],
            [
              -46.5694747,
              -23.6569039
            ]
          ]
        ]
      }
    },
    {
      "type": "Feature",
      "id": "way/934039601",
      "properties": {
        "timestamp": "2021-04-22T20:15:21Z",
        "version": 1,
        "changeset": 103435688,
        "addr:city": "São Bernardo do Campo",
        "addr:country": "BR",
        "addr:housenumber": "106",
        "addr:postcode": "09720-080",
        "addr:street": "Rua São Savino",
        "addr:suburb": "Centro",
        "building": "yes",
        "internet_access": "wlan",
        "internet_access:fee": "no",
        "name": "Casablanca Hotel",
        "phone": "+55 11 4332 7036",
        "tourism": "hotel",
        "website": "http://www.casablancahotelsbc.com.br/",
        "id": "way/934039601"
      },
      "geometry": {
        "type": "Polygon",
        "coordinates": [
          [
            [
              -46.5531934,
              -23.7072029
            ],
            [
              -46.5534296,
              -23.7072265
            ],
            [
              -46.553428,
              -23.7073416
            ],
            [
              -46.5534159,
              -23.7073607
            ],
            [
              -46.5533983,
              -23.7073665
            ],
            [
              -46.5531992,
              -23.7073448
            ],
            [
              -46.5531934,
              -23.7072029
            ]
          ]
        ]
      }
    },
    {
      "type": "Feature",
      "id": "way/1200602101",
      "properties": {
        "timestamp": "2023-08-20T14:08:50Z",
        "version": 1,
        "changeset": 140135228,
        "addr:city": "São Bernardo do Campo",
        "addr:housenumber": "88",
        "addr:street": "Rua Belém",
        "addr:suburb": "Paulicéia",
        "building": "yes",
        "name": "Hotel Pauliceia",
        "phone": "+55 11 4178 8706",
        "tourism": "hotel",
        "id": "way/1200602101"
      },
      "geometry": {
        "type": "Polygon",
        "coordinates": [
          [
            [
              -46.5876219,
              -23.6694226
            ],
            [
              -46.5875134,
              -23.6694704
            ],
            [
              -46.5873811,
              -23.6692179
            ],
            [
              -46.5874896,
              -23.6691702
            ],
            [
              -46.5876219,
              -23.6694226
            ]
          ]
        ]
      }
    },
    {
      "type": "Feature",
      "id": "way/1200602102",
      "properties": {
        "timestamp": "2023-08-20T14:08:50Z",
        "version": 1,
        "changeset": 140135228,
        "addr:city": "São Bernardo do Campo",
        "addr:housenumber": "855",
        "addr:street": "Rua Miragaia",
        "addr:suburb": "Paulicéia",
        "building": "yes",
        "name": "Hotel de Ville",
        "tourism": "hotel",
        "id": "way/1200602102"
      },
      "geometry": {
        "type": "Polygon",
        "coordinates": [
          [
            [
              -46.5920744,
              -23.6713867
            ],
            [
              -46.5918189,
              -23.6714944
            ],
            [
              -46.5917656,
              -23.6713884
            ],
            [
              -46.592021,
              -23.6712806
            ],
            [
              -46.5920744,
              -23.6713867
            ]
          ]
        ]
      }
    },
    {
      "type": "Feature",
      "id": "node/5268724744",
      "properties": {
        "timestamp": "2017-12-06T21:21:25Z",
        "version": 1,
        "changeset": 54414824,
        "addr:city": "São Bernardo do Campo",
        "addr:street": "Rua Jurubatuba",
        "name": "Hotel Memories",
        "tourism": "hotel",
        "id": "node/5268724744"
      },
      "geometry": {
        "type": "Point",
        "coordinates": [
          -46.5527191,
          -23.7120414
        ]
      }
    },
    {
      "type": "Feature",
      "id": "node/6650971989",
      "properties": {
        "timestamp": "2019-07-26T15:02:06Z",
        "version": 1,
        "changeset": 72692042,
        "name": "Hotel Ideal",
        "tourism": "hotel",
        "id": "node/6650971989"
      },
      "geometry": {
        "type": "Point",
        "coordinates": [
          -46.5494631,
          -23.7194909
        ]
      }
    },
    {
      "type": "Feature",
      "id": "node/11725866796",
      "properties": {
        "timestamp": "2024-03-12T22:18:08Z",
        "version": 1,
        "changeset": 148569295,
        "amenity": "parking_entrance",
        "id": "node/11725866796"
      },
      "geometry": {
        "type": "Point",
        "coordinates": [
          -46.552149,
          -23.693127
        ]
      }
    },
    {
      "type": "Feature",
      "id": "node/11725866797",
      "properties": {
        "timestamp": "2024-03-12T22:18:08Z",
        "version": 1,
        "changeset": 148569295,
        "amenity": "parking_entrance",
        "id": "node/11725866797"
      },
      "geometry": {
        "type": "Point",
        "coordinates": [
          -46.5521578,
          -23.6932213
        ]
      }
    },
    {
      "type": "Feature",
      "id": "node/11725866799",
      "properties": {
        "timestamp": "2024-03-12T22:18:08Z",
        "version": 1,
        "changeset": 148569295,
        "amenity": "parking_entrance",
        "id": "node/11725866799"
      },
      "geometry": {
        "type": "Point",
        "coordinates": [
          -46.5519991,
          -23.6932433
        ]
      }
    },
    {
      "type": "Feature",
      "id": "node/11725866812",
      "properties": {
        "timestamp": "2024-03-12T22:18:08Z",
        "version": 1,
        "changeset": 148569295,
        "amenity": "parking_entrance",
        "id": "node/11725866812"
      },
      "geometry": {
        "type": "Point",
        "coordinates": [
          -46.5518999,
          -23.6929982
        ]
      }
    }
  ]
}
