{
  "type": "FeatureCollection",
  "features": [
    {
      "type": "Feature",
      "id": "way/179598580",
      "properties": {
        "timestamp": "2020-11-08T13:29:51Z",
        "version": 8,
        "changeset": 93739653,
        "addr:country": "BR",
        "addr:housenumber": "26",
        "addr:postcode": "09725-630",
        "addr:street": "Rua Doutor Fláquer",
        "addr:suburb": "Centro",
        "amenity": "library",
        "building": "yes",
        "internet_access": "wlan",
        "internet_access:fee": "no",
        "internet_access:ssid": "fundacaotoyota",
        "name": "Biblioteca Monteiro Lobato",
        "opening_hours": "Tu-Fr  09:00-21:00",
        "phone": "+55 11 4330 2888",
        "id": "way/179598580"
      },
      "geometry": {
        "type": "Polygon",
        "coordinates": [
          [
            [
              -46.5530306,
              -23.7097786
            ],
            [
              -46.5529968,
              -23.7100419
            ],
            [
              -46.5525758,
              -23.7099965
            ],
            [
              -46.5525893,
              -23.7098914
            ],
            [
              -46.5526937,
              -23.7099026
            ],
            [
              -46.5527034,
              -23.7098274
            ],
            [
              -46.5526089,
              -23.7098172
            ],
            [
              -46.5526196,
              -23.7097343
            ],
            [
              -46.5530306,
              -23.7097786
            ]
          ]
        ]
      }
    },
    {
      "type": "Feature",
      "id": "way/296961308",
      "properties": {
        "timestamp": "2022-08-03T18:59:02Z",
        "version": 6,
        "changeset": 124449453,
        "addr:city": "São Bernardo do Campo",
        "addr:housenumber": "284",
        "addr:postcode": "09830-110",
        "addr:street": "Avenida Araguaia",
        "addr:suburb": "Riacho Grande",
        "amenity": "library",
        "building": "public",
        "email": "biblioteca.machadodeassis@saobernardo.sp.gov.br",
        "internet_access": "no",
        "name": "Biblioteca Pública Municipal Machado de Assis",
        "opening_hours": "Mo-Fr 08:00-17:00",
        "operator": "Secretaria de Cultura e Juventude",
        "operator:type": "government",
        "phone": "+55 11 2630 7192",
        "id": "way/296961308"
      },
      "geometry": {
        "type": "Polygon",
        "coordinates": [
          [
            [
              -46.5311706,
              -23.7773612
            ],
            [
              -46.5312016,
              -23.7773874
            ],
            [
              -46.5312182,
              -23.7774228
            ],
            [
              -46.5312177,
              -23.7774613
            ],
            [
              -46.5312001,
              -23.7774963
            ],
            [
              -46.5311685,
              -23.7775218
            ],
            [
              -46.5311283,
              -23.7775333
            ],
            [
              -46.5310877,
              -23.7775241
            ],
            [
              -46.5310593,
              -23.7774984
            ],
            [
              -46.531044,
              -23.7774551
            ],
            [
              -46.5310422,
              -23.7774352
            ],
            [
              -46.5310502,
              -23.7774034
            ],
            [
              -46.5310675,
              -23.7773843
            ],
            [
              -46.5310901,
              -23.7773584
            ],
            [
              -46.5311307,
              -23.7773489
            ],
            [
              -46.5311706,
              -23.7773612
            ]
          ]
        ]
      }
    },
    {
      "type": "Feature",
      "id": "way/551328670",
      "properties": {
        "timestamp": "2023-01-17T19:49:53Z",
        "version": 6,
        "changeset": 131394136,
        "addr:city": "São Bernardo do Campo",
        "addr:housenumber": "460",
        "addr:street": "Rua Francisco Alves",
        "addr:suburb": "Paulicéia",
        "amenity": "library",
        "building": "yes",
        "internet_access": "wired",
        "internet_access:fee": "no",
        "name": "Biblioteca Pública Municipal Érico Veríssimo",
        "opening_hours": "Mo-Fr 08:00-17:00",
        "phone": "+55 11 4178 6648",
        "id": "way/551328670"
      },
      "geometry": {
        "type": "Polygon",
        "coordinates": [
          [
            [
              -46.5847348,
              -23.6689705
            ],
            [
              -46.5848067,
              -23.6689722
            ],
            [
              -46.5848021,
              -23.6689347
            ],
            [
              -46.5848829,
              -23.6689318
            ],
            [
              -46.5848743,
              -23.6689138
            ],
            [
              -46.5849577,
              -23.6688985
            ],
            [
              -46.5849492,
              -23.6688796
            ],
            [
              -46.5850326,
              -23.6688713
            ],
            [
              -46.5851145,
              -23.6690418
            ],
            [
              -46.584821,
              -23.6691648
            ],
            [
              -46.5847348,
              -23.6689705
            ]
          ]
        ]
      }
    },
    {
      "type": "Feature",
      "id": "way/637672315",
      "properties": {
        "timestamp": "2018-10-25T01:07:45Z",
        "version": 1,
        "changeset": 63850821,
        "addr:city": "São Bernardo do Campo",
        "addr:housenumber": "208",
        "addr:street": "Rua Helena Jacquey",
        "addr:suburb": "Rudge Ramos",
        "amenity": "library",
        "building": "yes",
        "contact:phone": "+55 11 4367 2330",
        "email": "dirmtsbc@gmail.com",
        "name": "Biblioteca Municipal Malba Tahan",
        "opening_hours": "Mo-Fr 09:00-18:00; Sa 08:00-14:00; Su,PH off",
        "phone": "+55 11 4368 1010",
        "id": "way/637672315"
      },
      "geometry": {
        "type": "Polygon",
        "coordinates": [
          [
            [
              -46.5701326,
              -23.6527469
            ],
            [
              -46.5702345,
              -23.6529656
            ],
            [
              -46.5701943,
              -23.6529828
            ],
            [
              -46.5701836,
              -23.6529631
            ],
            [
              -46.5700924,
              -23.6529901
            ],
            [
              -46.5701031,
              -23.6530245
            ],
            [
              -46.5700682,
              -23.6530294
            ],
            [
              -46.5699583,
              -23.6527887
            ],
            [
              -46.5699965,
              -23.6527782
            ],
            [
              -46.5700106,
              -23.6527997
            ],
            [
              -46.5700984,
              -23.6527709
            ],
            [
              -46.5701047,
              -23.6527488
            ],
            [
              -46.5701326,
              -23.6527469
            ]
          ]
        ]
      }
    },
    {
      "type": "Feature",
      "id": "way/1178446750",
      "properties": {
        "timestamp": "2023-08-16T06:55:29Z",
        "version": 2,
        "changeset": 139947283,
        "addr:city": "São Bernardo do Campo",
        "addr:housenumber": "90",
        "addr:postcode": "09895-400",
        "addr:street": "Avenida Dom Jaime de Barros Câmara",
        "addr:suburb": "Planalto",
        "amenity": "library",
        "building": "yes",
        "internet_access": "yes",
        "internet_access:fee": "customers",
        "name": "Biblioteca - UNINOVE",
        "operator": "UNINOVE - Campus São Bernardo do Campo",
        "operator:type": "private",
        "wikidata": "Q10387854",
        "wikimedia_commons": "Category:Uninove",
        "wikipedia": "pt:Universidade Nove de Julho",
        "id": "way/1178446750"
      },
      "geometry": {
        "type": "Polygon",
        "coordinates": [
          [
            [
              -46.5637686,
              -23.7060526
            ],
            [
              -46.5637761,
              -23.7062654
            ],
            [
              -46.5636018,
              -23.7062652
            ],
            [
              -46.5635954,
              -23.7060576
            ],
            [
              -46.5637686,
              -23.7060526
            ]
          ]
        ]
      }
    },
    {
      "type": "Feature",
      "id": "node/5304866024",
      "properties": {
        "timestamp": "2017-12-26T23:56:20Z",
        "version": 3,
        "changeset": 54943107,
        "addr:city": "São Bernardo do Campo",
        "addr:housenumber": "900",
        "addr:street": "Avenida João Firmino",
        "addr:suburb": "Assunção",
        "amenity": "library",
        "contact:email": "dirgrsbc@gmail.com",
        "contact:phone": "+55 11 4351 5422",
        "email": "bibliotecagr@oli.com.br",
        "name": "Biblioteca Guimarães Rosa",
        "opening_hours": "Mo-Fr 08:00-17:00; Sa 08:00-14:00; PH off",
        "phone": "+55 11 4351 6546",
        "id": "node/5304866024"
      },
      "geometry": {
        "type": "Point",
        "coordinates": [
          -46.5664335,
          -23.7213346
        ]
      }
    },
    {
      "type": "Feature",
      "id": "node/6964128401",
      "properties": {
        "timestamp": "2019-11-10T14:48:35Z",
        "version": 1,
        "changeset": 76870528,
        "amenity": "library",
        "id": "node/6964128401"
      },
      "geometry": {
        "type": "Point",
        "coordinates": [
          -46.5800362,
          -23.7263691
        ]
      }
    }
  ]
}
