{
  "type": "FeatureCollection",
  "features": [
    {
      "type": "Feature",
      "id": "way/179598540",
      "properties": {
        "timestamp": "2021-04-11T01:11:19Z",
        "version": 8,
        "changeset": 102720175,
        "addr:city": "São Bernardo do Campo",
        "addr:country": "BR",
        "addr:housenumber": "1577",
        "addr:postcode": "09710-190",
        "addr:street": "Rua Marechal Deodoro",
        "addr:suburb": "Centro",
        "amenity": "pharmacy",
        "brand": "Droga Raia",
        "brand:wikidata": "Q10357101",
        "brand:wikipedia": "pt:RaiaDrogasil",
        "building": "yes",
        "contact:mobile": "+55 11 94452 2459",
        "dispensing": "yes",
        "drive_through": "no",
        "healthcare": "pharmacy",
        "name": "Droga Raia",
        "opening_hours": "Mo-Sa 07:00-23:00; Su,PH 07:00-21:00",
        "operator": "Raia Drogasil",
        "phone": "+55 11 4121 5454",
        "website": "https://www.drogaraia.com.br/",
        "id": "way/179598540"
      },
      "geometry": {
        "type": "Polygon",
        "coordinates": [
          [
            [
              -46.5503328,
              -23.7120952
            ],
            [
              -46.5501505,
              -23.7120831
            ],
            [
              -46.5501611,
              -23.7119891
            ],
            [
              -46.5503444,
              -23.7120102
            ],
            [
              -46.5503328,
              -23.7120952
            ]
          ]
        ]
      }
    },
    {
      "type": "Feature",
      "id": "way/179598596",
      "properties": {
        "timestamp": "2022-01-04T03:02:11Z",
        "version": 6,
        "changeset": 115734643,
        "addr:city": "São Bernardo do Campo",
        "addr:country": "BR",
        "addr:housenumber": "296",
        "addr:postcode": "09710-000",
        "addr:street": "Rua Marechal Deodoro",
        "addr:suburb": "Centro",
        "amenity": "pharmacy",
        "brand": "Farma Conde",
        "brand:wikidata": "Q100492677",
        "building": "yes",
        "dispensing": "yes",
        "drive_through": "no",
        "healthcare": "pharmacy",
        "name": "Farma Conde",
        "phone": "+55 11  4332 8415",
        "id": "way/179598596"
      },
      "geometry": {
        "type": "Polygon",
        "coordinates": [
          [
            [
              -46.5518977,
              -23.7005507
            ],
            [
              -46.5519102,
              -23.7005185
            ],
            [
              -46.5519209,
              -23.7004819
            ],
            [
              -46.5522677,
              -23.7004932
            ],
            [
              -46.5522603,
              -23.700564
            ],
            [
              -46.5518977,
              -23.7005507
            ]
          ]
        ]
      }
    },
    {
      "type": "Feature",
      "id": "way/262098191",
      "properties": {
        "timestamp": "2024-01-27T15:29:12Z",
        "version": 11,
        "changeset": 146748680,
        "addr:city": "São Bernardo do Campo",
        "addr:country": "BR",
        "addr:housenumber": "529",
        "addr:postcode": "09750-000",
        "addr:street": "Avenida Lucas Nogueira Garcez",
        "addr:suburb": "Centro",
        "amenity": "pharmacy",
        "building": "yes",
        "contact:mobile": "+55 11 99849 4898",
        "contact:phone": "+55 11 2666 4676",
        "dispensing": "yes",
        "healthcare": "pharmacy",
        "name": "Herva's Pharmacia",
        "opening_hours": "Mo-Fr 08:00-18:30; Sa 08:30-12:30",
        "phone": "+55 11 3522 5008",
        "smoking": "outside",
        "website": "http://hervas-pharmacia.com.br/site/",
        "id": "way/262098191"
      },
      "geometry": {
        "type": "Polygon",
        "coordinates": [
          [
            [
              -46.5553775,
              -23.6927107
            ],
            [
              -46.5554543,
              -23.6928448
            ],
            [
              -46.555401,
              -23.6928737
            ],
            [
              -46.555421,
              -23.6929095
            ],
            [
              -46.5553986,
              -23.692924
            ],
            [
              -46.5553018,
              -23.6927597
            ],
            [
              -46.5553775,
              -23.6927107
            ]
          ]
        ]
      }
    },
    {
      "type": "Feature",
      "id": "way/284757328",
      "properties": {
        "timestamp": "2022-05-18T23:35:13Z",
        "version": 10,
        "changeset": 121168065,
        "addr:city": "São Bernardo do Campo",
        "addr:country": "BR",
        "addr:housenumber": "2633",
        "addr:street": "Rua Marechal Deodoro",
        "amenity": "pharmacy",
        "building": "yes",
        "contact:mobile": "+55 11 97510 9240",
        "contact:phone": "+55 11 4338 1500",
        "delivery": "yes",
        "dispensing": "yes",
        "drive_through": "no",
        "healthcare": "pharmacy",
        "layer": "-1",
        "name": "Drogaria Estação",
        "opening_hours": "24/7",
        "phone": "+55 11 4127 2201",
        "website": "https://www.drogariaestacao.com.br/",
        "id": "way/284757328"
      },
      "geometry": {
        "type": "Polygon",
        "coordinates": [
          [
            [
              -46.5494361,
              -23.7211092
            ],
            [
              -46.5494411,
              -23.7212619
            ],
            [
              -46.5493304,
              -23.7212648
            ],
            [
              -46.5490465,
              -23.7212725
            ],
            [
              -46.5490416,
              -23.7211198
            ],
            [
              -46.5494361,
              -23.7211092
            ]
          ]
        ]
      }
    },
    {
      "type": "Feature",
      "id": "way/284878204",
      "properties": {
        "timestamp": "2023-06-28T00:55:56Z",
        "version": 11,
        "changeset": 137856721,
        "addr:city": "São Bernardo do Campo",
        "addr:country": "BR",
        "addr:housenumber": "817",
        "addr:postcode": "09710-011",
        "addr:street": "Rua Marechal Deodoro",
        "addr:suburb": "Centro",
        "amenity": "pharmacy",
        "brand": "Drogasil",
        "brand:wikidata": "Q5308185",
        "brand:wikipedia": "pt:Drogasil",
        "building": "yes",
        "contact:phone": "+55 11 4330 0930",
        "dispensing": "yes",
        "drive_through": "no",
        "healthcare": "pharmacy",
        "name": "Drogasil",
        "opening_hours": "24/7",
        "operator": "Drogasil",
        "phone": "+55 11 4122 2121",
        "wheelchair": "yes",
        "id": "way/284878204"
      },
      "geometry": {
        "type": "Polygon",
        "coordinates": [
          [
            [
              -46.5512852,
              -23.7051977
            ],
            [
              -46.5512671,
              -23.7052507
            ],
            [
              -46.5512484,
              -23.7052772
            ],
            [
              -46.5512285,
              -23.7052888
            ],
            [
              -46.5510769,
              -23.7053315
            ],
            [
              -46.5510657,
              -23.7052702
            ],
            [
              -46.5512852,
              -23.7051977
            ]
          ]
        ]
      }
    },
    {
      "type": "Feature",
      "id": "way/284881133",
      "properties": {
        "timestamp": "2021-04-10T23:59:48Z",
        "version": 5,
        "changeset": 102719168,
        "addr:city": "São Bernardo do Campo",
        "addr:country": "BR",
        "addr:housenumber": "1695",
        "addr:postcode": "09710-190",
        "addr:street": "Rua Marechal Deodoro",
        "addr:suburb": "Centro",
        "amenity": "pharmacy",
        "brand": "Drogaria São Paulo",
        "brand:wikidata": "Q5308184",
        "brand:wikipedia": "en:Grupo DPSP",
        "building": "yes",
        "building:levels": "2",
        "contact:mobile": "+55 11 99754 1784",
        "contact:phone": "+55 11 4127 0022",
        "dispensing": "yes",
        "drive_through": "no",
        "healthcare": "pharmacy",
        "name": "Drogaria São Paulo",
        "opening_hours": "Mo-Fr 06:00-23:00; Sa,Su,PH 07:00-23:00",
        "phone": "+55 11 2758 4965",
        "id": "way/284881133"
      },
      "geometry": {
        "type": "Polygon",
        "coordinates": [
          [
            [
              -46.5499343,
              -23.7131395
            ],
            [
              -46.5499171,
              -23.7132245
            ],
            [
              -46.5498591,
              -23.7133014
            ],
            [
              -46.5497686,
              -23.7132972
            ],
            [
              -46.5498067,
              -23.7131281
            ],
            [
              -46.5499343,
              -23.7131395
            ]
          ]
        ]
      }
    },
    {
      "type": "Feature",
      "id": "way/286735365",
      "properties": {
        "timestamp": "2023-08-09T23:11:40Z",
        "version": 3,
        "changeset": 139681173,
        "addr:street": "Avenida Kennedy",
        "amenity": "pharmacy",
        "brand": "Drogasil",
        "brand:wikidata": "Q5308185",
        "brand:wikipedia": "pt:Drogasil",
        "building": "yes",
        "dispensing": "yes",
        "healthcare": "pharmacy",
        "name": "Drogasil",
        "wheelchair": "yes",
        "id": "way/286735365"
      },
      "geometry": {
        "type": "Polygon",
        "coordinates": [
          [
            [
              -46.5589106,
              -23.6839227
            ],
            [
              -46.5589104,
              -23.6840031
            ],
            [
              -46.5586653,
              -23.6840027
            ],
            [
              -46.5586176,
              -23.6839614
            ],
            [
              -46.558658,
              -23.6839222
            ],
            [
              -46.5589106,
              -23.6839227
            ]
          ]
        ]
      }
    },
    {
      "type": "Feature",
      "id": "way/288211483",
      "properties": {
        "timestamp": "2023-08-09T23:52:33Z",
        "version": 16,
        "changeset": 139681790,
        "addr:city": "São Bernardo do Campo",
        "addr:country": "BR",
        "addr:housenumber": "484",
        "addr:postcode": "09890-001",
        "addr:street": "Avenida Álvaro Guimarães",
        "addr:suburb": "Planalto",
        "amenity": "pharmacy",
        "branch": "S Bernardo Campo 11",
        "brand": "Drogasil",
        "brand:wikidata": "Q5308185",
        "brand:wikipedia": "pt:Drogasil",
        "building": "yes",
        "drive_through": "no",
        "healthcare": "pharmacy",
        "name": "Drogasil",
        "opening_hours": "Mo-Su,PH 07:00-23:00",
        "phone": "+55 11 4341 4836",
        "wheelchair": "yes",
        "id": "way/288211483"
      },
      "geometry": {
        "type": "Polygon",
        "coordinates": [
          [
            [
              -46.5687352,
              -23.6945895
            ],
            [
              -46.568788,
              -23.6947458
            ],
            [
              -46.5686557,
              -23.6947355
            ],
            [
              -46.5685771,
              -23.694697
            ],
            [
              -46.5685628,
              -23.6946483
            ],
            [
              -46.5687352,
              -23.6945895
            ]
          ]
        ]
      }
    },
    {
      "type": "Feature",
      "id": "way/297037423",
      "properties": {
        "timestamp": "2023-06-04T15:02:05Z",
        "version": 8,
        "changeset": 136936538,
        "addr:city": "São Bernardo do Campo",
        "addr:street": "Avenida Robert Kennedy",
        "addr:suburb": "Assunção",
        "amenity": "pharmacy",
        "building": "yes",
        "dispensing": "yes",
        "drive_through": "no",
        "healthcare": "pharmacy",
        "mobile": "+55 11 95437 3239",
        "name": "Drogaria Real",
        "phone": "+55 11 4109 2485",
        "id": "way/297037423"
      },
      "geometry": {
        "type": "Polygon",
        "coordinates": [
          [
            [
              -46.5739333,
              -23.7179684
            ],
            [
              -46.5739322,
              -23.7180563
            ],
            [
              -46.5738098,
              -23.718052
            ],
            [
              -46.5738132,
              -23.717964
            ],
            [
              -46.5738513,
              -23.7179615
            ],
            [
              -46.5739333,
              -23.7179684
            ]
          ]
        ]
      }
    },
    {
      "type": "Feature",
      "id": "way/298890384",
      "properties": {
        "timestamp": "2023-04-14T17:24:26Z",
        "version": 3,
        "changeset": 134913943,
        "addr:city": "São Bernardo do Campo",
        "addr:housenumber": "717",
        "addr:postcode": "09862-000",
        "addr:street": "Avenida Moinho Fabrini",
        "addr:suburb": "Jardim Brasília",
        "amenity": "pharmacy",
        "building": "yes",
        "contact:mobile": "+55 11 98869 8389",
        "contact:phone": "+55 11 2381 4311",
        "delivery": "yes",
        "dispensing": "yes",
        "email": "drogariadnafarma@gmail.com",
        "healthcare": "pharmacy",
        "name": "DNA Farma",
        "phone": "+55 11  4343 4311",
        "website": "https://drogariadnafarma.com.br/produtos",
        "id": "way/298890384"
      },
      "geometry": {
        "type": "Polygon",
        "coordinates": [
          [
            [
              -46.580857,
              -23.6993023
            ],
            [
              -46.5808382,
              -23.6993784
            ],
            [
              -46.5806773,
              -23.699344
            ],
            [
              -46.5806988,
              -23.6992704
            ],
            [
              -46.580857,
              -23.6993023
            ]
          ]
        ]
      }
    },
    {
      "type": "Feature",
      "id": "way/299934464",
      "properties": {
        "timestamp": "2024-06-18T01:19:12Z",
        "version": 13,
        "changeset": 152824796,
        "addr:city": "São Bernardo do Campo",
        "addr:country": "BR",
        "addr:housenumber": "607",
        "addr:postcode": "09750-650",
        "addr:street": "Avenida Lucas Nogueira Garcez",
        "addr:suburb": "Centro",
        "amenity": "pharmacy",
        "brand": "Drogaria São Paulo",
        "brand:wikidata": "Q5308184",
        "brand:wikipedia": "en:Grupo DPSP",
        "building": "yes",
        "building:levels": "1",
        "dispensing": "yes",
        "drive_through": "no",
        "healthcare": "pharmacy",
        "name": "Drogaria São Paulo",
        "opening_hours": "24/7",
        "operator": "Grupo DPSP",
        "phone": "+55 11 4941 0155",
        "ref:CNES": "873489",
        "ref:vatin": "BR61412110093650",
        "id": "way/299934464"
      },
      "geometry": {
        "type": "Polygon",
        "coordinates": [
          [
            [
              -46.556029,
              -23.6923495
            ],
            [
              -46.5560481,
              -23.6923803
            ],
            [
              -46.5560719,
              -23.6923656
            ],
            [
              -46.5560944,
              -23.6924021
            ],
            [
              -46.5560517,
              -23.6924285
            ],
            [
              -46.556075,
              -23.6924661
            ],
            [
              -46.5559842,
              -23.6925223
            ],
            [
              -46.5559193,
              -23.6924173
            ],
            [
              -46.556029,
              -23.6923495
            ]
          ]
        ]
      }
    },
    {
      "type": "Feature",
      "id": "way/301867682",
      "properties": {
        "timestamp": "2020-03-03T13:46:59Z",
        "version": 3,
        "changeset": 81730523,
        "addr:city": "São Bernardo do Campo",
        "addr:street": "Rua Marechal Deodoro",
        "amenity": "pharmacy",
        "building": "yes",
        "dispensing": "yes",
        "drive_through": "no",
        "healthcare": "pharmacy",
        "id": "way/301867682"
      },
      "geometry": {
        "type": "Polygon",
        "coordinates": [
          [
            [
              -46.5492119,
              -23.7170295
            ],
            [
              -46.549228,
              -23.7170934
            ],
            [
              -46.5490778,
              -23.7171277
            ],
            [
              -46.5490617,
              -23.7170442
            ],
            [
              -46.5492119,
              -23.7170295
            ]
          ]
        ]
      }
    },
    {
      "type": "Feature",
      "id": "way/311186179",
      "properties": {
        "timestamp": "2021-09-24T21:31:09Z",
        "version": 6,
        "changeset": 111667695,
        "addr:city": "São Bernardo do Campo",
        "addr:country": "BR",
        "addr:housenumber": "809",
        "addr:postcode": "09750-670",
        "addr:street": "Avenida Lucas Nogueira Garcez",
        "addr:suburb": "Centro",
        "amenity": "pharmacy",
        "building": "yes",
        "contact:mobile": "+55 11 93951 6711",
        "dispensing": "yes",
        "healthcare": "pharmacy",
        "name": "Ultrafarma Popular",
        "phone": "+55 11 2374 8547",
        "website": "https://www.ultrafarmapopular.com.br/",
        "id": "way/311186179"
      },
      "geometry": {
        "type": "Polygon",
        "coordinates": [
          [
            [
              -46.5577623,
              -23.6913825
            ],
            [
              -46.5578253,
              -23.6914762
            ],
            [
              -46.5577045,
              -23.6915444
            ],
            [
              -46.5576415,
              -23.6914507
            ],
            [
              -46.5577623,
              -23.6913825
            ]
          ]
        ]
      }
    },
    {
      "type": "Feature",
      "id": "way/319431488",
      "properties": {
        "timestamp": "2023-07-20T16:13:06Z",
        "version": 13,
        "changeset": 138772937,
        "addr:city": "São Bernardo do Campo",
        "addr:country": "BR",
        "addr:housenumber": "19",
        "addr:street": "Rua Caraíbas",
        "addr:suburb": "Centro",
        "amenity": "pharmacy",
        "building": "yes",
        "contact:mobile": "+55 11 99567 0515",
        "dispensing": "yes",
        "drive_through": "no",
        "healthcare": "pharmacy",
        "name": "Própharmacos",
        "opening_hours": "Mo-Fr 08:00-19:00; Sa 08:00-13:00; SU,PH off",
        "phone": "+55 11 4330 2005",
        "website": "https://www.propharmacos.com.br/",
        "id": "way/319431488"
      },
      "geometry": {
        "type": "Polygon",
        "coordinates": [
          [
            [
              -46.5532409,
              -23.6957462
            ],
            [
              -46.553143,
              -23.6957154
            ],
            [
              -46.5532066,
              -23.6955133
            ],
            [
              -46.5533044,
              -23.6955441
            ],
            [
              -46.5532707,
              -23.6956513
            ],
            [
              -46.5532409,
              -23.6957462
            ]
          ]
        ]
      }
    },
    {
      "type": "Feature",
      "id": "way/327507655",
      "properties": {
        "timestamp": "2019-06-12T02:01:08Z",
        "version": 3,
        "changeset": 71162188,
        "addr:city": "São Bernardo do Campo",
        "addr:country": "BR",
        "addr:housenumber": "100",
        "addr:postcode": "09771-120",
        "addr:street": "Rua Princesa Maria Amélia",
        "addr:suburb": "Nova Petrópolis",
        "amenity": "pharmacy",
        "brand": "Drogaria São Paulo",
        "brand:wikidata": "Q5308184",
        "brand:wikipedia": "en:Grupo DPSP",
        "building": "yes",
        "dispensing": "yes",
        "healthcare": "pharmacy",
        "name": "Drogaria São Paulo",
        "phone": "+55 11 4942 3509",
        "phone_1": "+55 11 4330 2499",
        "id": "way/327507655"
      },
      "geometry": {
        "type": "Polygon",
        "coordinates": [
          [
            [
              -46.5444098,
              -23.7028032
            ],
            [
              -46.5443481,
              -23.7028326
            ],
            [
              -46.5442354,
              -23.7026141
            ],
            [
              -46.5442971,
              -23.702587
            ],
            [
              -46.5444098,
              -23.7028032
            ]
          ]
        ]
      }
    },
    {
      "type": "Feature",
      "id": "way/335087877",
      "properties": {
        "timestamp": "2019-08-01T02:34:28Z",
        "version": 3,
        "changeset": 72878101,
        "addr:city": "São Bernardo do Campo",
        "addr:street": "Avenida Caminho do Mar",
        "addr:suburb": "Rudge Ramos",
        "amenity": "pharmacy",
        "building": "yes",
        "dispensing": "yes",
        "drive_through": "no",
        "healthcare": "pharmacy",
        "name": "BIfarna",
        "opening_hours": "24/7",
        "id": "way/335087877"
      },
      "geometry": {
        "type": "Polygon",
        "coordinates": [
          [
            [
              -46.5712838,
              -23.6558159
            ],
            [
              -46.5710826,
              -23.6558183
            ],
            [
              -46.5710826,
              -23.6556341
            ],
            [
              -46.5711979,
              -23.6556316
            ],
            [
              -46.5712033,
              -23.6556611
            ],
            [
              -46.5712838,
              -23.6556611
            ],
            [
              -46.5712838,
              -23.6558159
            ]
          ]
        ]
      }
    },
    {
      "type": "Feature",
      "id": "way/364571081",
      "properties": {
        "timestamp": "2022-04-11T01:04:15Z",
        "version": 5,
        "changeset": 119554930,
        "addr:city": "São Bernardo do Campo",
        "addr:country": "BR",
        "addr:housenumber": "403",
        "addr:street": "Avenida Índico",
        "addr:suburb": "Jardim do Mar",
        "amenity": "pharmacy",
        "building": "yes",
        "dispensing": "yes",
        "healthcare": "pharmacy",
        "id": "way/364571081"
      },
      "geometry": {
        "type": "Polygon",
        "coordinates": [
          [
            [
              -46.5562089,
              -23.6932435
            ],
            [
              -46.556118,
              -23.6932983
            ],
            [
              -46.555998,
              -23.6930992
            ],
            [
              -46.5560889,
              -23.6930444
            ],
            [
              -46.5562089,
              -23.6932435
            ]
          ]
        ]
      }
    },
    {
      "type": "Feature",
      "id": "way/365230648",
      "properties": {
        "timestamp": "2024-01-17T01:57:14Z",
        "version": 6,
        "changeset": 146344169,
        "addr:city": "São Bernardo do Campo",
        "addr:country": "BR",
        "addr:housenumber": "2187",
        "addr:street": "Rua Marechal Deodoro",
        "addr:suburb": "Centro",
        "amenity": "pharmacy",
        "branch": "S Bernardo Campo 12",
        "brand": "Drogasil",
        "brand:wikidata": "Q5308185",
        "brand:wikipedia": "pt:Drogasil",
        "building": "yes",
        "cuisine": "frutos_do_mar",
        "dispensing": "yes",
        "drive_through": "no",
        "healthcare": "pharmacy",
        "name": "Drogasil",
        "opening_hours": "Mo-Sa 00:01-24:00; Su,PH off",
        "payment:cash": "yes",
        "payment:coins": "yes",
        "payment:credit_cards": "yes",
        "payment:debit_cards": "yes",
        "payment:notes": "yes",
        "phone": "+55 11 4348 3176",
        "wheelchair": "yes",
        "id": "way/365230648"
      },
      "geometry": {
        "type": "Polygon",
        "coordinates": [
          [
            [
              -46.5489321,
              -23.7174426
            ],
            [
              -46.5489482,
              -23.7175703
            ],
            [
              -46.5487739,
              -23.7175924
            ],
            [
              -46.5487551,
              -23.7174672
            ],
            [
              -46.5489321,
              -23.7174426
            ]
          ]
        ]
      }
    },
    {
      "type": "Feature",
      "id": "way/375834954",
      "properties": {
        "timestamp": "2021-08-21T14:59:36Z",
        "version": 6,
        "changeset": 110031812,
        "addr:city": "São Bernardo do Campo",
        "addr:street": "Rua Carlos Copeinski",
        "addr:suburb": "Jardim Detroit",
        "amenity": "pharmacy",
        "building": "yes",
        "dispensing": "yes",
        "drive_through": "no",
        "healthcare": "pharmacy",
        "name": "Drogaria Detroit",
        "id": "way/375834954"
      },
      "geometry": {
        "type": "Polygon",
        "coordinates": [
          [
            [
              -46.5743641,
              -23.7382327
            ],
            [
              -46.5742161,
              -23.7381833
            ],
            [
              -46.5742407,
              -23.738135
            ],
            [
              -46.5743886,
              -23.7381791
            ],
            [
              -46.5743641,
              -23.7382327
            ]
          ]
        ]
      }
    },
    {
      "type": "Feature",
      "id": "way/385428374",
      "properties": {
        "timestamp": "2024-10-04T18:44:48Z",
        "version": 7,
        "changeset": 157474142,
        "addr:city": "São Bernardo do Campo",
        "addr:country": "BR",
        "addr:housenumber": "640",
        "addr:postcode": "09750-660",
        "addr:street": "Avenida Lucas Nogueira Garcez",
        "addr:suburb": "Centro",
        "amenity": "pharmacy",
        "building": "yes",
        "dispensing": "yes",
        "drive_through": "no",
        "healthcare": "pharmacy",
        "name": "PromoFarma",
        "website": "https://www.promofarma.com.br/",
        "id": "way/385428374"
      },
      "geometry": {
        "type": "Polygon",
        "coordinates": [
          [
            [
              -46.5562206,
              -23.6918933
            ],
            [
              -46.5561256,
              -23.6919477
            ],
            [
              -46.5560074,
              -23.6917858
            ],
            [
              -46.5561037,
              -23.6917269
            ],
            [
              -46.5562206,
              -23.6918933
            ]
          ]
        ]
      }
    },
    {
      "type": "Feature",
      "id": "way/391983087",
      "properties": {
        "timestamp": "2019-07-26T03:20:33Z",
        "version": 3,
        "changeset": 72667822,
        "amenity": "pharmacy",
        "building": "yes",
        "dispensing": "yes",
        "drive_through": "no",
        "healthcare": "pharmacy",
        "id": "way/391983087"
      },
      "geometry": {
        "type": "Polygon",
        "coordinates": [
          [
            [
              -46.5721211,
              -23.7361868
            ],
            [
              -46.5722042,
              -23.7361904
            ],
            [
              -46.572166,
              -23.7363801
            ],
            [
              -46.572089,
              -23.7363732
            ],
            [
              -46.5721211,
              -23.7361868
            ]
          ]
        ]
      }
    },
    {
      "type": "Feature",
      "id": "way/431424388",
      "properties": {
        "timestamp": "2022-08-16T18:48:21Z",
        "version": 6,
        "changeset": 124986283,
        "addr:city": "São Bernardo do Campo",
        "addr:country": "BR",
        "addr:housenumber": "73",
        "addr:postcode": "09770-000",
        "addr:street": "Avenida Francisco Prestes Maia",
        "addr:suburb": "Nova Petrópolis",
        "amenity": "pharmacy",
        "brand": "Drogaria São Paulo",
        "brand:wikidata": "Q5308184",
        "brand:wikipedia": "en:Grupo DPSP",
        "building": "yes",
        "contact:mobile": "+55 11 91040 3856",
        "contact:phone": "+55 11 4730 4226",
        "dispensing": "yes",
        "drive_through": "no",
        "healthcare": "pharmacy",
        "name": "Drogaria São Paulo",
        "opening_hours": "24/7",
        "operator": "Grupo DPSP",
        "phone": "+55 11 4330 4726",
        "id": "way/431424388"
      },
      "geometry": {
        "type": "Polygon",
        "coordinates": [
          [
            [
              -46.5499348,
              -23.7057492
            ],
            [
              -46.5498597,
              -23.7057861
            ],
            [
              -46.5497896,
              -23.7056868
            ],
            [
              -46.5498464,
              -23.7056575
            ],
            [
              -46.549863,
              -23.7056928
            ],
            [
              -46.5498884,
              -23.7056793
            ],
            [
              -46.5499348,
              -23.7057492
            ]
          ]
        ]
      }
    },
    {
      "type": "Feature",
      "id": "way/431432991",
      "properties": {
        "timestamp": "2023-08-18T15:43:33Z",
        "version": 7,
        "changeset": 140063672,
        "addr:city": "São Bernardo do Campo",
        "addr:country": "BR",
        "addr:housenumber": "1305",
        "addr:postcode": "09710-012",
        "addr:street": "Rua Marechal Deodoro",
        "addr:suburb": "Centro",
        "amenity": "pharmacy",
        "brand": "Drogaria São Paulo",
        "brand:wikidata": "Q5308184",
        "brand:wikipedia": "en:Grupo DPSP",
        "building": "yes",
        "contact:mobile": "+55 11 91038 7507",
        "contact:phone": "+55 11 4330 5067",
        "dispensing": "yes",
        "drive_through": "no",
        "healthcare": "pharmacy",
        "name": "Drogaria São Paulo",
        "opening_hours": "Mo-Fr 06:00-22:00; Sa 07:00-22:00; Su,PH off",
        "operator": "Grupo DPSP",
        "phone": "+55 11 4177 1756",
        "id": "way/431432991"
      },
      "geometry": {
        "type": "Polygon",
        "coordinates": [
          [
            [
              -46.5506845,
              -23.7096523
            ],
            [
              -46.5506729,
              -23.7097376
            ],
            [
              -46.5503128,
              -23.7096966
            ],
            [
              -46.5503243,
              -23.7096113
            ],
            [
              -46.5506845,
              -23.7096523
            ]
          ]
        ]
      }
    },
    {
      "type": "Feature",
      "id": "way/451803426",
      "properties": {
        "timestamp": "2024-10-17T22:56:37Z",
        "version": 5,
        "changeset": 158028993,
        "addr:city": "São Bernardo do Campo",
        "addr:country": "BR",
        "addr:housenumber": "231",
        "addr:street": "Rua Brasílio Machado",
        "amenity": "pharmacy",
        "brand": "Drogaria São Paulo",
        "brand:wikidata": "Q5308184",
        "brand:wikipedia": "en:Grupo DPSP",
        "building": "yes",
        "dispensing": "yes",
        "drive_through": "no",
        "healthcare": "pharmacy",
        "mobile": "+55 11 99585 8699",
        "name": "Drogaria São Paulo",
        "opening_hours": "Mo-Su 07:00-23:00; PH off",
        "phone": "+55 11 4853 0293",
        "wheelchair": "yes",
        "id": "way/451803426"
      },
      "geometry": {
        "type": "Polygon",
        "coordinates": [
          [
            [
              -46.5467195,
              -23.7170943
            ],
            [
              -46.5468163,
              -23.7171839
            ],
            [
              -46.546804,
              -23.7172174
            ],
            [
              -46.5467445,
              -23.7172589
            ],
            [
              -46.5466578,
              -23.717141
            ],
            [
              -46.5467195,
              -23.7170943
            ]
          ]
        ]
      }
    },
    {
      "type": "Feature",
      "id": "way/452520901",
      "properties": {
        "timestamp": "2022-12-02T16:29:26Z",
        "version": 8,
        "changeset": 129650916,
        "addr:city": "São Bernardo do Campo",
        "addr:country": "BR",
        "addr:housenumber": "601",
        "addr:postcode": "09710-180",
        "addr:street": "Rua Doutor Fláquer",
        "addr:suburb": "Nova Petrópolis",
        "amenity": "pharmacy",
        "brand": "Drogasil",
        "brand:wikidata": "Q5308185",
        "brand:wikipedia": "pt:RaiaDrogasil",
        "building": "yes",
        "contact:mobile": "+55 11 97180 5946",
        "dispensing": "yes",
        "drive_through": "no",
        "healthcare": "pharmacy",
        "name": "Drogasil",
        "opening_hours": "24/7",
        "phone": "+55 11 4121 9639",
        "website": "https://www.drogaraia.com.br/",
        "wheelchair": "yes",
        "id": "way/452520901"
      },
      "geometry": {
        "type": "Polygon",
        "coordinates": [
          [
            [
              -46.5458781,
              -23.7086449
            ],
            [
              -46.545776,
              -23.7085973
            ],
            [
              -46.5457551,
              -23.7086247
            ],
            [
              -46.5457382,
              -23.7086177
            ],
            [
              -46.5457414,
              -23.7086054
            ],
            [
              -46.5457186,
              -23.7085918
            ],
            [
              -46.545675,
              -23.7086002
            ],
            [
              -46.5457048,
              -23.7085082
            ],
            [
              -46.5459159,
              -23.7085906
            ],
            [
              -46.5458781,
              -23.7086449
            ]
          ]
        ]
      }
    },
    {
      "type": "Feature",
      "id": "way/453387667",
      "properties": {
        "timestamp": "2020-10-17T12:45:50Z",
        "version": 5,
        "changeset": 92627364,
        "addr:city": "São Bernardo do Campo",
        "addr:country": "BR",
        "addr:housenumber": "1668",
        "addr:postcode": "09710-200",
        "addr:street": "Rua Marechal Deodoro",
        "addr:suburb": "Centro",
        "amenity": "pharmacy",
        "building": "yes",
        "dispensing": "yes",
        "drive_through": "no",
        "healthcare": "pharmacy",
        "name": "UltraFarma Popular",
        "phone": "+55 11 5070-7004",
        "website": "https://www.ultrafarmapopular.com.br/nossas-lojas",
        "id": "way/453387667"
      },
      "geometry": {
        "type": "Polygon",
        "coordinates": [
          [
            [
              -46.5505412,
              -23.7129605
            ],
            [
              -46.5505358,
              -23.7130391
            ],
            [
              -46.5503186,
              -23.7130096
            ],
            [
              -46.5503373,
              -23.7129335
            ],
            [
              -46.5505412,
              -23.7129605
            ]
          ]
        ]
      }
    },
    {
      "type": "Feature",
      "id": "way/455107317",
      "properties": {
        "timestamp": "2023-07-15T20:14:59Z",
        "version": 6,
        "changeset": 138558340,
        "addr:city": "São Bernardo do Campo",
        "addr:country": "BR",
        "addr:housenumber": "355",
        "addr:postcode": "09890-002",
        "addr:street": "Avenida Álvaro Guimarães",
        "addr:suburb": "Planalto",
        "amenity": "pharmacy",
        "branch": "Feliz Farma Planalto",
        "building": "yes",
        "dispensing": "yes",
        "drive_through": "no",
        "healthcare": "pharmacy",
        "name": "Feliz Farma",
        "opening_hours": "Mo-Su,PH 08:00-18:00",
        "website": "https://felizfarma.com.br/",
        "id": "way/455107317"
      },
      "geometry": {
        "type": "Polygon",
        "coordinates": [
          [
            [
              -46.5679296,
              -23.6936937
            ],
            [
              -46.5679511,
              -23.69375
            ],
            [
              -46.567832,
              -23.6937881
            ],
            [
              -46.5678105,
              -23.6937319
            ],
            [
              -46.5679296,
              -23.6936937
            ]
          ]
        ]
      }
    },
    {
      "type": "Feature",
      "id": "way/461954242",
      "properties": {
        "timestamp": "2021-12-02T02:19:08Z",
        "version": 5,
        "changeset": 114464319,
        "addr:city": "São Bernardo do Campo",
        "addr:country": "BR",
        "addr:housenumber": "1613",
        "addr:street": "Avenida Maria Servidei Demarchi",
        "addr:suburb": "Demarchi",
        "amenity": "pharmacy",
        "building": "yes",
        "dispensing": "yes",
        "drive_through": "no",
        "healthcare": "pharmacy",
        "name": "Drogaria Coop",
        "opening_hours": "Mo-Sa 08:00-21:30,Su,PH off",
        "website": "https://www.portalcoop.com.br/",
        "id": "way/461954242"
      },
      "geometry": {
        "type": "Polygon",
        "coordinates": [
          [
            [
              -46.5533993,
              -23.7382579
            ],
            [
              -46.5534275,
              -23.7383837
            ],
            [
              -46.5531681,
              -23.7384165
            ],
            [
              -46.5531498,
              -23.7382923
            ],
            [
              -46.5533993,
              -23.7382579
            ]
          ]
        ]
      }
    },
    {
      "type": "Feature",
      "id": "way/461954244",
      "properties": {
        "timestamp": "2024-02-20T21:51:25Z",
        "version": 7,
        "changeset": 147709780,
        "addr:city": "São Bernardo do Campo",
        "addr:country": "BR",
        "addr:housenumber": "1500",
        "addr:postcode": "09820-000",
        "addr:street": "Avenida Maria Servidei Demarchi",
        "addr:suburb": "Demarchi",
        "amenity": "pharmacy",
        "brand": "Drogasil",
        "brand:wikidata": "Q5308185",
        "brand:wikipedia": "pt:Drogasil",
        "building": "yes",
        "dispensing": "yes",
        "drive_through": "no",
        "healthcare": "pharmacy",
        "name": "Drogasil",
        "opening_hours": "Mo-Su,PH 07:00-23:00",
        "phone": "+55 11 4347 0956",
        "website": "https://www.drogasil.com.br/",
        "wheelchair": "yes",
        "id": "way/461954244"
      },
      "geometry": {
        "type": "Polygon",
        "coordinates": [
          [
            [
              -46.5539348,
              -23.7373163
            ],
            [
              -46.5539333,
              -23.7374625
            ],
            [
              -46.5537924,
              -23.7374612
            ],
            [
              -46.553794,
              -23.737315
            ],
            [
              -46.5539348,
              -23.7373163
            ]
          ]
        ]
      }
    },
    {
      "type": "Feature",
      "id": "way/491592996",
      "properties": {
        "timestamp": "2024-06-18T01:13:07Z",
        "version": 8,
        "changeset": 152824708,
        "addr:city": "São Bernardo do Campo",
        "addr:housenumber": "1500",
        "addr:postcode": "09850-310",
        "addr:street": "Praça Giovani Breda",
        "addr:suburb": "Assunção",
        "amenity": "pharmacy",
        "brand": "Drogasil",
        "brand:wikidata": "Q5308185",
        "brand:wikipedia": "pt:Drogasil",
        "building": "yes",
        "dispensing": "yes",
        "drive_through": "no",
        "healthcare": "pharmacy",
        "name": "Drogasil",
        "opening_hours": "24/7",
        "phone": "+55 11 4104 3609",
        "website": "https://www.drogasil.com.br/",
        "wheelchair": "yes",
        "id": "way/491592996"
      },
      "geometry": {
        "type": "Polygon",
        "coordinates": [
          [
            [
              -46.5738649,
              -23.7235561
            ],
            [
              -46.5738711,
              -23.723648
            ],
            [
              -46.573823,
              -23.7236494
            ],
            [
              -46.5737584,
              -23.7236879
            ],
            [
              -46.5737067,
              -23.7236947
            ],
            [
              -46.5737116,
              -23.7235468
            ],
            [
              -46.5738649,
              -23.7235561
            ]
          ]
        ]
      }
    },
    {
      "type": "Feature",
      "id": "way/491598667",
      "properties": {
        "timestamp": "2023-10-31T20:50:32Z",
        "version": 8,
        "changeset": 143442336,
        "addr:city": "São Bernardo do Campo",
        "addr:country": "BR",
        "addr:housenumber": "620",
        "addr:postcode": "09895-400",
        "addr:street": "Avenida Dom Jaime de Barros Câmara",
        "addr:suburb": "Planalto",
        "amenity": "pharmacy",
        "brand": "Drogaria São Paulo",
        "brand:wikidata": "Q5308184",
        "brand:wikipedia": "en:Grupo DPSP",
        "building": "yes",
        "contact:mobile": "+55 11 99599 2893",
        "dispensing": "yes",
        "drive_through": "no",
        "healthcare": "pharmacy",
        "name": "Drogaria São Paulo",
        "opening_hours": "Mo-Fr 06:00-23:00; Sa-Su,PH 07:00-23:00",
        "operator": "Drogaria SP",
        "phone": "+55 11 4317 3360",
        "wheelchair": "yes",
        "id": "way/491598667"
      },
      "geometry": {
        "type": "Polygon",
        "coordinates": [
          [
            [
              -46.5681701,
              -23.7070908
            ],
            [
              -46.56817,
              -23.7071044
            ],
            [
              -46.5681688,
              -23.7072185
            ],
            [
              -46.5680153,
              -23.7072169
            ],
            [
              -46.5680167,
              -23.7070891
            ],
            [
              -46.5681701,
              -23.7070908
            ]
          ]
        ]
      }
    },
    {
      "type": "Feature",
      "id": "way/532522978",
      "properties": {
        "timestamp": "2019-05-25T23:44:03Z",
        "version": 2,
        "changeset": 70621505,
        "addr:city": "São Bernardo do Campo",
        "addr:street": "Avenida Caminho do Mar",
        "addr:suburb": "Rudge Ramos",
        "amenity": "pharmacy",
        "brand": "Drogasil",
        "brand:wikidata": "Q5308185",
        "brand:wikipedia": "pt:Drogasil",
        "building": "yes",
        "healthcare": "pharmacy",
        "name": "Drogasil",
        "wheelchair": "yes",
        "id": "way/532522978"
      },
      "geometry": {
        "type": "Polygon",
        "coordinates": [
          [
            [
              -46.5681234,
              -23.6674729
            ],
            [
              -46.5680778,
              -23.667581
            ],
            [
              -46.5679839,
              -23.6675662
            ],
            [
              -46.5680241,
              -23.6674483
            ],
            [
              -46.5681234,
              -23.6674729
            ]
          ]
        ]
      }
    },
    {
      "type": "Feature",
      "id": "way/555319810",
      "properties": {
        "timestamp": "2024-05-29T19:25:41Z",
        "version": 6,
        "changeset": 152004061,
        "addr:city": "São Bernardo do Campo",
        "addr:housenumber": "160",
        "addr:street": "Avenida Francisco Prestes Maia",
        "addr:suburb": "Nova Petrópolis",
        "amenity": "pharmacy",
        "building": "yes",
        "healthcare": "pharmacy",
        "name": "UltraFarma Popular",
        "id": "way/555319810"
      },
      "geometry": {
        "type": "Polygon",
        "coordinates": [
          [
            [
              -46.5494291,
              -23.7065234
            ],
            [
              -46.5494211,
              -23.7065958
            ],
            [
              -46.5493996,
              -23.7065933
            ],
            [
              -46.5493916,
              -23.7067284
            ],
            [
              -46.5491448,
              -23.7067186
            ],
            [
              -46.549122,
              -23.7066646
            ],
            [
              -46.5493004,
              -23.7065725
            ],
            [
              -46.5493004,
              -23.7065393
            ],
            [
              -46.5493607,
              -23.7065012
            ],
            [
              -46.5493594,
              -23.7064841
            ],
            [
              -46.5493956,
              -23.706473
            ],
            [
              -46.5494291,
              -23.7065234
            ]
          ]
        ]
      }
    },
    {
      "type": "Feature",
      "id": "way/558537929",
      "properties": {
        "timestamp": "2023-01-31T00:04:50Z",
        "version": 3,
        "changeset": 131900579,
        "addr:city": "São Bernardo do Campo",
        "addr:housenumber": "449",
        "addr:postcode": "09690-000",
        "addr:street": "Rua MMDC",
        "addr:suburb": "Paulicéia",
        "amenity": "pharmacy",
        "building": "yes",
        "healthcare": "pharmacy",
        "name": "HMS Natural",
        "phone": "+55 11 4930 8101",
        "website": "https://www.hmsnatural.com.br/",
        "id": "way/558537929"
      },
      "geometry": {
        "type": "Polygon",
        "coordinates": [
          [
            [
              -46.5884368,
              -23.6688532
            ],
            [
              -46.5884695,
              -23.668923
            ],
            [
              -46.5882658,
              -23.6690051
            ],
            [
              -46.5882459,
              -23.6689482
            ],
            [
              -46.5882881,
              -23.6689111
            ],
            [
              -46.5884368,
              -23.6688532
            ]
          ]
        ]
      }
    },
    {
      "type": "Feature",
      "id": "way/558537930",
      "properties": {
        "timestamp": "2018-02-04T15:59:52Z",
        "version": 1,
        "changeset": 56059391,
        "addr:city": "São Bernardo do Campo",
        "addr:housenumber": "761",
        "addr:street": "Rua MMDC",
        "addr:suburb": "Paulicéia",
        "amenity": "pharmacy",
        "building": "yes",
        "healthcare": "pharmacy",
        "name": "Drogaria Vip Farma",
        "phone": "+55 11 4178 0655",
        "id": "way/558537930"
      },
      "geometry": {
        "type": "Polygon",
        "coordinates": [
          [
            [
              -46.5897889,
              -23.6713877
            ],
            [
              -46.5898284,
              -23.6714639
            ],
            [
              -46.5896959,
              -23.6715215
            ],
            [
              -46.5896564,
              -23.6714453
            ],
            [
              -46.5897889,
              -23.6713877
            ]
          ]
        ]
      }
    },
    {
      "type": "Feature",
      "id": "way/558537933",
      "properties": {
        "timestamp": "2019-07-14T16:14:24Z",
        "version": 2,
        "changeset": 72237027,
        "addr:city": "São Bernardo do Campo",
        "addr:housenumber": "350",
        "addr:street": "Rua Dezessete de Março",
        "addr:suburb": "Vila Paulicéia",
        "amenity": "pharmacy",
        "building": "yes",
        "dispensing": "yes",
        "drive_through": "no",
        "healthcare": "pharmacy",
        "name": "Mais Saúde",
        "id": "way/558537933"
      },
      "geometry": {
        "type": "Polygon",
        "coordinates": [
          [
            [
              -46.5930406,
              -23.6657832
            ],
            [
              -46.5930776,
              -23.6658597
            ],
            [
              -46.5929277,
              -23.6659204
            ],
            [
              -46.5928907,
              -23.665844
            ],
            [
              -46.5930406,
              -23.6657832
            ]
          ]
        ]
      }
    },
    {
      "type": "Feature",
      "id": "way/682298924",
      "properties": {
        "timestamp": "2019-04-07T20:10:26Z",
        "version": 2,
        "changeset": 68985977,
        "addr:housenumber": "2563",
        "addr:street": "Avenida Humberto de Alencar Castelo Branco",
        "amenity": "pharmacy",
        "building": "yes",
        "dispensing": "yes",
        "drive_through": "no",
        "healthcare": "pharmacy",
        "name": "Droga Coop",
        "phone": "+55 11 4343 5064",
        "id": "way/682298924"
      },
      "geometry": {
        "type": "Polygon",
        "coordinates": [
          [
            [
              -46.5868952,
              -23.7130449
            ],
            [
              -46.5868673,
              -23.7131146
            ],
            [
              -46.5868672,
              -23.7131354
            ],
            [
              -46.586819,
              -23.713264
            ],
            [
              -46.5867569,
              -23.7132512
            ],
            [
              -46.5867644,
              -23.7132328
            ],
            [
              -46.5866925,
              -23.7132086
            ],
            [
              -46.5867744,
              -23.7130043
            ],
            [
              -46.5868952,
              -23.7130449
            ]
          ]
        ]
      }
    },
    {
      "type": "Feature",
      "id": "way/683001793",
      "properties": {
        "timestamp": "2019-04-10T22:39:31Z",
        "version": 1,
        "changeset": 69099180,
        "addr:housenumber": "248",
        "addr:street": "Avenida Dom Pedro de Alcântara",
        "addr:suburb": "Vila São Pedro",
        "amenity": "pharmacy",
        "building": "yes",
        "dispensing": "yes",
        "healthcare": "pharmacy",
        "name": "Drogaria Portal Farma",
        "id": "way/683001793"
      },
      "geometry": {
        "type": "Polygon",
        "coordinates": [
          [
            [
              -46.5279359,
              -23.7179479
            ],
            [
              -46.5280244,
              -23.7180301
            ],
            [
              -46.52797,
              -23.7180792
            ],
            [
              -46.5278815,
              -23.7179971
            ],
            [
              -46.5279359,
              -23.7179479
            ]
          ]
        ]
      }
    },
    {
      "type": "Feature",
      "id": "way/683004682",
      "properties": {
        "timestamp": "2022-06-01T21:54:51Z",
        "version": 2,
        "changeset": 121829100,
        "addr:housenumber": "1020",
        "addr:postcode": "09780-250",
        "addr:street": "Avenida Luis Pequini",
        "addr:suburb": "Santa Terezinha",
        "amenity": "pharmacy",
        "branch": "240",
        "brand": "Farma Conde",
        "brand:wikidata": "Q100492677",
        "building": "yes",
        "dispensing": "yes",
        "drive_through": "no",
        "email": "loja240@farmaconde.com.br",
        "healthcare": "pharmacy",
        "name": "Farma Conde",
        "phone": "+55 11 5851 0494",
        "id": "way/683004682"
      },
      "geometry": {
        "type": "Polygon",
        "coordinates": [
          [
            [
              -46.5317779,
              -23.7142274
            ],
            [
              -46.5316556,
              -23.7143099
            ],
            [
              -46.5315283,
              -23.7141949
            ],
            [
              -46.5316177,
              -23.7141508
            ],
            [
              -46.5316528,
              -23.7141502
            ],
            [
              -46.5317054,
              -23.7141633
            ],
            [
              -46.5317779,
              -23.7142274
            ]
          ]
        ]
      }
    },
    {
      "type": "Feature",
      "id": "way/683256763",
      "properties": {
        "timestamp": "2022-06-08T02:14:53Z",
        "version": 3,
        "changeset": 122094784,
        "addr:street": "Avenida Francisco Prestes Maia",
        "addr:suburb": "Santa Terezinha",
        "amenity": "pharmacy",
        "brand": "Droga Raia",
        "brand:wikidata": "Q10357101",
        "building": "yes",
        "dispensing": "yes",
        "healthcare": "pharmacy",
        "name": "Droga Raia",
        "id": "way/683256763"
      },
      "geometry": {
        "type": "Polygon",
        "coordinates": [
          [
            [
              -46.5437077,
              -23.7114773
            ],
            [
              -46.5436426,
              -23.7115671
            ],
            [
              -46.5435032,
              -23.7114128
            ],
            [
              -46.5435392,
              -23.7113634
            ],
            [
              -46.5437077,
              -23.7114773
            ]
          ]
        ]
      }
    },
    {
      "type": "Feature",
      "id": "way/757749759",
      "properties": {
        "timestamp": "2023-07-15T14:55:10Z",
        "version": 2,
        "changeset": 138548166,
        "addr:housenumber": "300 B",
        "addr:postcode": "09850-550",
        "addr:street": "Estrada dos Alvarengas",
        "addr:suburb": "Assunção",
        "amenity": "pharmacy",
        "building": "yes",
        "dispensing": "yes",
        "drive_through": "no",
        "healthcare": "pharmacy",
        "name": "FelizFarma",
        "opening_hours": "Mo-Su,PH 08:00-18:00",
        "website": "https://felizfarma.com.br/home",
        "id": "way/757749759"
      },
      "geometry": {
        "type": "Polygon",
        "coordinates": [
          [
            [
              -46.5753043,
              -23.727503
            ],
            [
              -46.5753057,
              -23.7275872
            ],
            [
              -46.5751548,
              -23.7275987
            ],
            [
              -46.5751546,
              -23.7275097
            ],
            [
              -46.5753043,
              -23.727503
            ]
          ]
        ]
      }
    },
    {
      "type": "Feature",
      "id": "way/768319145",
      "properties": {
        "timestamp": "2020-01-30T20:55:18Z",
        "version": 1,
        "changeset": 80337319,
        "addr:street": "Avenida Moinho Fabrini",
        "amenity": "pharmacy",
        "building": "yes",
        "dispensing": "yes",
        "drive_through": "no",
        "healthcare": "pharmacy",
        "name": "Feliz Farma",
        "id": "way/768319145"
      },
      "geometry": {
        "type": "Polygon",
        "coordinates": [
          [
            [
              -46.5819979,
              -23.6962486
            ],
            [
              -46.5819818,
              -23.6963027
            ],
            [
              -46.5818155,
              -23.6962732
            ],
            [
              -46.5818369,
              -23.6962143
            ],
            [
              -46.5819979,
              -23.6962486
            ]
          ]
        ]
      }
    },
    {
      "type": "Feature",
      "id": "way/877673369",
      "properties": {
        "timestamp": "2024-03-21T00:57:03Z",
        "version": 3,
        "changeset": 148939138,
        "addr:housenumber": "201",
        "addr:postcode": "09726-260",
        "addr:street": "Avenida Kennedy",
        "addr:suburb": "Jardim do Mar",
        "amenity": "pharmacy",
        "brand": "Farma Conde",
        "brand:wikidata": "Q100492677",
        "building": "yes",
        "dispensing": "yes",
        "drive_through": "no",
        "email": "loja44@farmaconde.com.br",
        "healthcare": "pharmacy",
        "name": "Farma Conde",
        "phone": "+55 11 4941 5991",
        "id": "way/877673369"
      },
      "geometry": {
        "type": "Polygon",
        "coordinates": [
          [
            [
              -46.5599298,
              -23.6872016
            ],
            [
              -46.5599721,
              -23.6873689
            ],
            [
              -46.559862,
              -23.6873894
            ],
            [
              -46.5598381,
              -23.6872688
            ],
            [
              -46.5598217,
              -23.6872202
            ],
            [
              -46.5599298,
              -23.6872016
            ]
          ]
        ]
      }
    },
    {
      "type": "Feature",
      "id": "way/877673370",
      "properties": {
        "timestamp": "2024-03-21T01:10:03Z",
        "version": 2,
        "changeset": 148939292,
        "addr:housenumber": "221",
        "addr:postcode": "09726-260",
        "addr:street": "Avenida Kennedy",
        "addr:suburb": "Jardim do Mar",
        "amenity": "pharmacy",
        "brand": "Drogaria São Paulo",
        "brand:wikidata": "Q5308184",
        "brand:wikipedia": "en:Grupo DPSP",
        "building": "yes",
        "dispensing": "yes",
        "drive_through": "no",
        "healthcare": "pharmacy",
        "name": "Drogaria São Paulo",
        "opening_hours": "24/7",
        "id": "way/877673370"
      },
      "geometry": {
        "type": "Polygon",
        "coordinates": [
          [
            [
              -46.5599472,
              -23.6870137
            ],
            [
              -46.5599624,
              -23.6870694
            ],
            [
              -46.5597951,
              -23.6871002
            ],
            [
              -46.5597764,
              -23.6870437
            ],
            [
              -46.5599472,
              -23.6870137
            ]
          ]
        ]
      }
    },
    {
      "type": "Feature",
      "id": "way/957370431",
      "properties": {
        "timestamp": "2024-03-05T20:26:21Z",
        "version": 5,
        "changeset": 148266940,
        "addr:housenumber": "250",
        "addr:street": "Rua Ernesta Pelosini",
        "addr:suburb": "Nova Petrópolis",
        "amenity": "pharmacy",
        "building": "yes",
        "dispensing": "yes",
        "drive_through": "no",
        "healthcare": "pharmacy",
        "name": "Coop Drogaria",
        "opening_hours": "Mo-Su,PH 08:00-21:30",
        "operator": "Coop",
        "phone": "+55 11 4118 2849",
        "website": "https://www.portalcoop.com.br/nossas-lojas#drogaria",
        "id": "way/957370431"
      },
      "geometry": {
        "type": "Polygon",
        "coordinates": [
          [
            [
              -46.5492126,
              -23.7012886
            ],
            [
              -46.5492602,
              -23.7013951
            ],
            [
              -46.5492265,
              -23.7014106
            ],
            [
              -46.5492457,
              -23.701448
            ],
            [
              -46.5491083,
              -23.701515
            ],
            [
              -46.5490803,
              -23.7014922
            ],
            [
              -46.5490991,
              -23.7013337
            ],
            [
              -46.5492126,
              -23.7012886
            ]
          ]
        ]
      }
    },
    {
      "type": "Feature",
      "id": "way/975272149",
      "properties": {
        "timestamp": "2021-08-21T17:19:36Z",
        "version": 1,
        "changeset": 110036381,
        "addr:street": "Avenida Dom Pedro de Alcântara",
        "amenity": "pharmacy",
        "building": "yes",
        "dispensing": "yes",
        "healthcare": "pharmacy",
        "name": "Louise Farma",
        "id": "way/975272149"
      },
      "geometry": {
        "type": "Polygon",
        "coordinates": [
          [
            [
              -46.5236345,
              -23.7226522
            ],
            [
              -46.5236158,
              -23.7227013
            ],
            [
              -46.5235085,
              -23.7226596
            ],
            [
              -46.523538,
              -23.7226105
            ],
            [
              -46.5236345,
              -23.7226522
            ]
          ]
        ]
      }
    },
    {
      "type": "Feature",
      "id": "way/995312061",
      "properties": {
        "timestamp": "2021-11-19T17:50:31Z",
        "version": 2,
        "changeset": 114001528,
        "addr:postcode": "09770-340",
        "addr:suburb": "Nova Petrópolis",
        "amenity": "pharmacy",
        "brand": "Drogasil",
        "brand:wikidata": "Q5308185",
        "brand:wikipedia": "pt:Drogasil",
        "building": "yes",
        "dispensing": "yes",
        "healthcare": "pharmacy",
        "name": "Drogasil",
        "opening_hours": "PH Mo-Fr 07:00-23:00",
        "phone": "+55 11 4104 0601",
        "wheelchair": "yes",
        "id": "way/995312061"
      },
      "geometry": {
        "type": "Polygon",
        "coordinates": [
          [
            [
              -46.5424542,
              -23.7040915
            ],
            [
              -46.5425148,
              -23.7042176
            ],
            [
              -46.5423945,
              -23.704264
            ],
            [
              -46.5423407,
              -23.7041374
            ],
            [
              -46.5424542,
              -23.7040915
            ]
          ]
        ]
      }
    },
    {
      "type": "Feature",
      "id": "way/1069021521",
      "properties": {
        "timestamp": "2022-06-12T17:04:12Z",
        "version": 1,
        "changeset": 122290610,
        "addr:housenumber": "548",
        "addr:street": "Avenida João Firmino",
        "addr:suburb": "Assunção",
        "amenity": "pharmacy",
        "branch": "262",
        "brand": "Farma Conde",
        "brand:wikidata": "Q100492677",
        "building": "yes",
        "dispensing": "yes",
        "drive_through": "no",
        "healthcare": "pharmacy",
        "name": "Farma Conde",
        "phone": "+55 11 4109 3623",
        "website": "https://www.farmaconde.com.br/",
        "id": "way/1069021521"
      },
      "geometry": {
        "type": "Polygon",
        "coordinates": [
          [
            [
              -46.5633954,
              -23.7199948
            ],
            [
              -46.5633688,
              -23.7201899
            ],
            [
              -46.5632606,
              -23.7201596
            ],
            [
              -46.5632816,
              -23.7199917
            ],
            [
              -46.5633954,
              -23.7199948
            ]
          ]
        ]
      }
    },
    {
      "type": "Feature",
      "id": "way/1074943731",
      "properties": {
        "timestamp": "2022-12-02T16:27:10Z",
        "version": 2,
        "changeset": 129650849,
        "addr:housenumber": "334",
        "addr:postcode": "09726-250",
        "addr:street": "Avenida Kennedy",
        "addr:suburb": "Jardim do Mar",
        "amenity": "pharmacy",
        "brand": "Drogasil",
        "brand:wikidata": "Q5308185",
        "building": "yes",
        "dispensing": "yes",
        "drive_through": "no",
        "healthcare": "pharmacy",
        "name": "Drogasil",
        "opening_hours": "24/7",
        "wheelchair": "yes",
        "id": "way/1074943731"
      },
      "geometry": {
        "type": "Polygon",
        "coordinates": [
          [
            [
              -46.55919,
              -23.6862185
            ],
            [
              -46.5592167,
              -23.686286
            ],
            [
              -46.5590754,
              -23.6862803
            ],
            [
              -46.5590709,
              -23.6862225
            ],
            [
              -46.55919,
              -23.6862185
            ]
          ]
        ]
      }
    },
    {
      "type": "Feature",
      "id": "way/1089193380",
      "properties": {
        "timestamp": "2022-08-25T18:19:40Z",
        "version": 1,
        "changeset": 125374008,
        "addr:street": "Avenida Senador Vergueiro",
        "amenity": "pharmacy",
        "brand": "Drogaria São Paulo",
        "brand:wikidata": "Q5308184",
        "building": "yes",
        "dispensing": "yes",
        "drive_through": "no",
        "healthcare": "pharmacy",
        "name": "Drogaria São Paulo",
        "website": "https://www.drogariasaopaulo.com.br/",
        "id": "way/1089193380"
      },
      "geometry": {
        "type": "Polygon",
        "coordinates": [
          [
            [
              -46.5661532,
              -23.6604529
            ],
            [
              -46.566253,
              -23.6605331
            ],
            [
              -46.5662041,
              -23.6605908
            ],
            [
              -46.5660972,
              -23.6605064
            ],
            [
              -46.5661532,
              -23.6604529
            ]
          ]
        ]
      }
    },
    {
      "type": "Feature",
      "id": "way/1136579808",
      "properties": {
        "timestamp": "2023-01-31T00:04:50Z",
        "version": 1,
        "changeset": 131900579,
        "addr:housenumber": "455",
        "addr:street": "Rua MMDC",
        "addr:suburb": "Paulicéia",
        "amenity": "pharmacy",
        "branch": "455",
        "brand": "Farma Conde",
        "brand:wikidata": "Q100492677",
        "building": "yes",
        "dispensing": "yes",
        "drive_through": "no",
        "email": "loja442@farmaconde.com.br",
        "healthcare": "pharmacy",
        "name": "Farma Conde",
        "website": "https://www.farmaconde.com.br/",
        "id": "way/1136579808"
      },
      "geometry": {
        "type": "Polygon",
        "coordinates": [
          [
            [
              -46.5884907,
              -23.668934
            ],
            [
              -46.5885288,
              -23.6689956
            ],
            [
              -46.5882941,
              -23.6690897
            ],
            [
              -46.5882674,
              -23.669027
            ],
            [
              -46.5884907,
              -23.668934
            ]
          ]
        ]
      }
    },
    {
      "type": "Feature",
      "id": "way/1158211277",
      "properties": {
        "timestamp": "2023-03-29T15:14:37Z",
        "version": 1,
        "changeset": 134267611,
        "addr:housenumber": "373",
        "addr:street": "Rua Atlântica",
        "addr:suburb": "Jardim do Mar",
        "amenity": "pharmacy",
        "building": "yes",
        "contact:mobile": "+55 11 98402 4004",
        "contact:phone": "+55 11 4337 1073",
        "dispensing": "yes",
        "drive_through": "no",
        "email": "atendimento@manipule.com.br",
        "healthcare": "pharmacy",
        "name": "Manipule Farmácia de Manipulação",
        "phone": "+55 11 4330 1789",
        "id": "way/1158211277"
      },
      "geometry": {
        "type": "Polygon",
        "coordinates": [
          [
            [
              -46.5556756,
              -23.6911662
            ],
            [
              -46.5557226,
              -23.6912384
            ],
            [
              -46.5555707,
              -23.6913213
            ],
            [
              -46.5555237,
              -23.691249
            ],
            [
              -46.5556756,
              -23.6911662
            ]
          ]
        ]
      }
    },
    {
      "type": "Feature",
      "id": "way/1185410799",
      "properties": {
        "timestamp": "2024-04-11T02:00:55Z",
        "version": 2,
        "changeset": 149844178,
        "addr:housenumber": "1495",
        "addr:postcode": "09725-011",
        "addr:street": "Rua Jurubatuba",
        "addr:suburb": "Centro",
        "amenity": "pharmacy",
        "branch": "S Bernardo Campo 22",
        "brand": "Drogasil",
        "brand:wikidata": "Q5308185",
        "building": "yes",
        "dispensing": "yes",
        "drive_through": "no",
        "healthcare": "pharmacy",
        "name": "Drogasil",
        "opening_hours": "Mo-Su,PH 07:00-23:00",
        "phone": "+55 11 5196 0889",
        "website": "https://www.drogasil.com.br/",
        "wheelchair": "yes",
        "id": "way/1185410799"
      },
      "geometry": {
        "type": "Polygon",
        "coordinates": [
          [
            [
              -46.5529769,
              -23.7107149
            ],
            [
              -46.5529637,
              -23.7108233
            ],
            [
              -46.5527887,
              -23.7108054
            ],
            [
              -46.552802,
              -23.710697
            ],
            [
              -46.5529769,
              -23.7107149
            ]
          ]
        ]
      }
    },
    {
      "type": "Feature",
      "id": "way/1189842480",
      "properties": {
        "timestamp": "2023-07-15T15:14:42Z",
        "version": 2,
        "changeset": 138548840,
        "addr:housenumber": "1306",
        "addr:postcode": "09812-020",
        "addr:street": "Avenida Presidente João Café Filho",
        "amenity": "pharmacy",
        "branch": "Feliz Farma Café Filho",
        "building": "yes",
        "dispensing": "yes",
        "drive_through": "no",
        "healthcare": "pharmacy",
        "name": "Feliz Farma",
        "opening_hours": "Mo-Su,Ph 08:00-18:00",
        "website": "https://felizfarma.com.br/",
        "id": "way/1189842480"
      },
      "geometry": {
        "type": "Polygon",
        "coordinates": [
          [
            [
              -46.5667022,
              -23.7269946
            ],
            [
              -46.5666941,
              -23.7271722
            ],
            [
              -46.5666478,
              -23.7271722
            ],
            [
              -46.5666478,
              -23.7271398
            ],
            [
              -46.5665581,
              -23.7270576
            ],
            [
              -46.5665811,
              -23.7269917
            ],
            [
              -46.5667022,
              -23.7269946
            ]
          ]
        ]
      }
    },
    {
      "type": "Feature",
      "id": "way/1195012564",
      "properties": {
        "timestamp": "2023-08-05T15:34:41Z",
        "version": 1,
        "changeset": 139485357,
        "amenity": "pharmacy",
        "brand": "Drogasil",
        "brand:wikidata": "Q5308185",
        "building": "yes",
        "healthcare": "pharmacy",
        "name": "Drogasil",
        "wheelchair": "yes",
        "id": "way/1195012564"
      },
      "geometry": {
        "type": "Polygon",
        "coordinates": [
          [
            [
              -46.5881743,
              -23.6681338
            ],
            [
              -46.5879883,
              -23.6682145
            ],
            [
              -46.5878749,
              -23.6679952
            ],
            [
              -46.588061,
              -23.6679145
            ],
            [
              -46.5881743,
              -23.6681338
            ]
          ]
        ]
      }
    },
    {
      "type": "Feature",
      "id": "way/1202286670",
      "properties": {
        "timestamp": "2024-01-17T01:41:38Z",
        "version": 3,
        "changeset": 146343951,
        "addr:housenumber": "874",
        "addr:street": "Avenida Capitão Casa",
        "amenity": "pharmacy",
        "branch": "S.Bernardo 16",
        "brand": "Drogasil",
        "brand:wikidata": "Q5308185",
        "building": "yes",
        "dispensing": "yes",
        "drive_through": "no",
        "healthcare": "pharmacy",
        "name": "Drogasil",
        "opening_hours": "Mo-Su, PH 07:00-23:00",
        "website": "https://www.drogasil.com.br/",
        "wheelchair": "yes",
        "id": "way/1202286670"
      },
      "geometry": {
        "type": "Polygon",
        "coordinates": [
          [
            [
              -46.5616284,
              -23.7262917
            ],
            [
              -46.5616319,
              -23.7262007
            ],
            [
              -46.561664,
              -23.7262018
            ],
            [
              -46.561792,
              -23.726206
            ],
            [
              -46.5618034,
              -23.7262063
            ],
            [
              -46.5617998,
              -23.7262973
            ],
            [
              -46.5616284,
              -23.7262917
            ]
          ]
        ]
      }
    },
    {
      "type": "Feature",
      "id": "way/1264677174",
      "properties": {
        "timestamp": "2024-03-21T01:10:03Z",
        "version": 1,
        "changeset": 148939292,
        "addr:housenumber": "495",
        "addr:postcode": "09726-261",
        "addr:street": "Avenida Kennedy",
        "addr:suburb": "Vila Dayse",
        "amenity": "pharmacy",
        "brand": "Drogaria São Paulo",
        "brand:wikidata": "Q5308184",
        "building": "yes",
        "dispensing": "yes",
        "drive_through": "no",
        "healthcare": "pharmacy",
        "name": "Drogaria São Paulo",
        "opening_hours": "PH,Mo-Su 07:00-23:00",
        "phone": "+55 11 4122 8390",
        "source": "kennedy II",
        "website": "https://www.drogariasaopaulo.com.br/institucional/nossas-lojas",
        "id": "way/1264677174"
      },
      "geometry": {
        "type": "Polygon",
        "coordinates": [
          [
            [
              -46.5593953,
              -23.6849718
            ],
            [
              -46.5594051,
              -23.6850414
            ],
            [
              -46.5593407,
              -23.6850468
            ],
            [
              -46.5593414,
              -23.6850708
            ],
            [
              -46.5591808,
              -23.68507
            ],
            [
              -46.5591672,
              -23.6850182
            ],
            [
              -46.5591945,
              -23.6849753
            ],
            [
              -46.5593953,
              -23.6849718
            ]
          ]
        ]
      }
    },
    {
      "type": "Feature",
      "id": "node/2553398176",
      "properties": {
        "timestamp": "2024-11-15T23:24:29Z",
        "version": 14,
        "changeset": 159190567,
        "addr:city": "São Bernardo do Campo",
        "addr:country": "BR",
        "addr:housename": "Lj 1",
        "addr:housenumber": "471",
        "addr:postcode": "09890-001",
        "addr:street": "Avenida Álvaro Guimarães",
        "addr:suburb": "Planalto",
        "amenity": "pharmacy",
        "contact:mobile": "+55 11 97415 4214",
        "contact:phone": "+55 114393 0309",
        "dispensing": "yes",
        "drive_through": "no",
        "healthcare": "pharmacy",
        "name": "Drogaria SP",
        "opening_hours": "Mo-Su,PH 07:00-23:00",
        "phone": "+55 11 4393 0316",
        "website": "https://www.drogariasaopaulo.com.br/index.php",
        "wheelchair": "yes",
        "id": "node/2553398176"
      },
      "geometry": {
        "type": "Point",
        "coordinates": [
          -46.5681706,
          -23.6946606
        ]
      }
    },
    {
      "type": "Feature",
      "id": "node/2599660607",
      "properties": {
        "timestamp": "2021-11-27T14:07:13Z",
        "version": 6,
        "changeset": 114295818,
        "addr:city": "São Bernardo do Campo",
        "addr:housenumber": "460",
        "addr:postcode": "09861-160",
        "addr:street": "Avenida Moinho Fabrini",
        "addr:suburb": "Jardim Brasília",
        "amenity": "pharmacy",
        "dispensing": "yes",
        "drive_through": "no",
        "healthcare": "pharmacy",
        "name": "Farmárcia Fabrini",
        "id": "node/2599660607"
      },
      "geometry": {
        "type": "Point",
        "coordinates": [
          -46.5816939,
          -23.6968965
        ]
      }
    },
    {
      "type": "Feature",
      "id": "node/2724383123",
      "properties": {
        "timestamp": "2020-12-13T01:19:00Z",
        "version": 8,
        "changeset": 95741789,
        "addr:city": "São Bernardo do Campo",
        "addr:country": "BR",
        "addr:housenumber": "29",
        "addr:postcode": "09895-595",
        "addr:street": "Rua Alfredo Calux",
        "addr:suburb": "Jardim Calux",
        "amenity": "pharmacy",
        "contact:phone": "+55 11 4341 7602",
        "dispensing": "yes",
        "drive_through": "no",
        "healthcare": "pharmacy",
        "name": "Droga Calux",
        "phone": "+55 11 4399 1234",
        "id": "node/2724383123"
      },
      "geometry": {
        "type": "Point",
        "coordinates": [
          -46.5708027,
          -23.7019488
        ]
      }
    },
    {
      "type": "Feature",
      "id": "node/2750991242",
      "properties": {
        "timestamp": "2024-03-20T13:56:17Z",
        "version": 7,
        "changeset": 148915037,
        "addr:city": "São Bernardo do Campo",
        "addr:housenumber": "175",
        "addr:postcode": "09830-110",
        "addr:street": "Avenida Araguaia",
        "addr:suburb": "Riacho Grande",
        "amenity": "pharmacy",
        "dispensing": "yes",
        "drive_through": "no",
        "healthcare": "pharmacy",
        "name": "Paris Pharma Drogaria",
        "phone": "+55 11 4354 7452",
        "id": "node/2750991242"
      },
      "geometry": {
        "type": "Point",
        "coordinates": [
          -46.5301296,
          -23.778137
        ]
      }
    },
    {
      "type": "Feature",
      "id": "node/2865658285",
      "properties": {
        "timestamp": "2022-09-12T01:00:38Z",
        "version": 11,
        "changeset": 126068184,
        "addr:city": "São Bernardo do Campo",
        "addr:housenumber": "842",
        "addr:street": "Avenida Robert Kennedy",
        "amenity": "pharmacy",
        "email": "drograiadeville@bol.com.br",
        "healthcare": "pharmacy",
        "name": "Drogaria Deville",
        "phone": "+55 11 4392 5380;+55 11 4343 4486",
        "id": "node/2865658285"
      },
      "geometry": {
        "type": "Point",
        "coordinates": [
          -46.5782236,
          -23.6978496
        ]
      }
    },
    {
      "type": "Feature",
      "id": "node/3013746086",
      "properties": {
        "timestamp": "2019-06-16T00:29:21Z",
        "version": 3,
        "changeset": 71290843,
        "addr:city": "São Bernardo do Campo",
        "addr:street": "Rua Rio Acima",
        "addr:suburb": "Finco",
        "amenity": "pharmacy",
        "dispensing": "yes",
        "drive_through": "no",
        "healthcare": "pharmacy",
        "name": "Drogaria São Vicente",
        "phone": "+55 11 4354 0433",
        "id": "node/3013746086"
      },
      "geometry": {
        "type": "Point",
        "coordinates": [
          -46.5361436,
          -23.787721
        ]
      }
    },
    {
      "type": "Feature",
      "id": "node/3056286708",
      "properties": {
        "timestamp": "2019-06-16T00:05:21Z",
        "version": 4,
        "changeset": 71290623,
        "addr:city": "São Bernardo do Campo",
        "addr:housenumber": "27",
        "addr:street": "Rua Sofia D'Angelo Caputo",
        "addr:suburb": "Riacho Grande",
        "amenity": "pharmacy",
        "dispensing": "yes",
        "drive_through": "no",
        "healthcare": "pharmacy",
        "name": "Drogaria Riacho Grande",
        "phone": "+55 11 4354 0222",
        "id": "node/3056286708"
      },
      "geometry": {
        "type": "Point",
        "coordinates": [
          -46.5305867,
          -23.7794119
        ]
      }
    },
    {
      "type": "Feature",
      "id": "node/3203462941",
      "properties": {
        "timestamp": "2024-05-15T15:37:17Z",
        "version": 5,
        "changeset": 151367474,
        "addr:city": "São Bernardo do Campo",
        "addr:housenumber": "3634",
        "addr:postcode": "09850-305",
        "addr:street": "Avenida Humberto Alencar Castelo Branco",
        "addr:suburb": "Parque Neide",
        "amenity": "pharmacy",
        "brand": "Drogaria São Paulo",
        "brand:wikidata": "Q5308184",
        "brand:wikipedia": "en:Grupo DPSP",
        "contact:phone": "+55 11 4352-5014;+55 11 4351-4506;0800 779 8767",
        "contact:website": "http://www.drogariasaopaulo.com.br",
        "dispensing": "yes",
        "healthcare": "pharmacy",
        "name": "Drogaria São Paulo",
        "id": "node/3203462941"
      },
      "geometry": {
        "type": "Point",
        "coordinates": [
          -46.5812097,
          -23.7211449
        ]
      }
    },
    {
      "type": "Feature",
      "id": "node/3369513533",
      "properties": {
        "timestamp": "2019-07-26T15:02:06Z",
        "version": 3,
        "changeset": 72692042,
        "addr:city": "São Bernardo do Campo",
        "addr:country": "BR",
        "addr:street": "Rua Jose Fornari",
        "addr:suburb": "Ferrazópolis",
        "amenity": "pharmacy",
        "dispensing": "yes",
        "drive_through": "no",
        "healthcare": "pharmacy",
        "id": "node/3369513533"
      },
      "geometry": {
        "type": "Point",
        "coordinates": [
          -46.5492952,
          -23.7236003
        ]
      }
    },
    {
      "type": "Feature",
      "id": "node/3380549104",
      "properties": {
        "timestamp": "2022-06-10T18:48:30Z",
        "version": 5,
        "changeset": 122223823,
        "addr:city": "São Bernardo do Campo",
        "addr:country": "BR",
        "addr:housenumber": "600",
        "addr:street": "Avenida Dom Jaime de Barros Câmara",
        "addr:suburb": "Jardim Calux",
        "amenity": "pharmacy",
        "dispensing": "yes",
        "drive_through": "no",
        "healthcare": "pharmacy",
        "name": "Drogaria Atual",
        "phone": "+55 11 4398 9066",
        "id": "node/3380549104"
      },
      "geometry": {
        "type": "Point",
        "coordinates": [
          -46.5676038,
          -23.7071886
        ]
      }
    },
    {
      "type": "Feature",
      "id": "node/3704915018",
      "properties": {
        "timestamp": "2024-10-07T05:30:41Z",
        "version": 3,
        "changeset": 157565206,
        "addr:city": "São Bernardo do Campo",
        "addr:street": "Estrada do Montanhão",
        "addr:suburb": "Montanhão",
        "amenity": "pharmacy",
        "dispensing": "yes",
        "drive_through": "no",
        "healthcare": "pharmacy",
        "name": "Drogaria Montanhão",
        "id": "node/3704915018"
      },
      "geometry": {
        "type": "Point",
        "coordinates": [
          -46.5258612,
          -23.7396034
        ]
      }
    },
    {
      "type": "Feature",
      "id": "node/3705026968",
      "properties": {
        "timestamp": "2019-07-17T02:58:35Z",
        "version": 4,
        "changeset": 72328252,
        "addr:city": "São Bernardo do Campo",
        "addr:country": "BR",
        "addr:street": "Avenida Visconde de Cairu",
        "amenity": "pharmacy",
        "dispensing": "yes",
        "drive_through": "no",
        "healthcare": "pharmacy",
        "id": "node/3705026968"
      },
      "geometry": {
        "type": "Point",
        "coordinates": [
          -46.5336128,
          -23.7375852
        ]
      }
    },
    {
      "type": "Feature",
      "id": "node/3712385570",
      "properties": {
        "timestamp": "2024-04-11T02:00:55Z",
        "version": 7,
        "changeset": 149844178,
        "addr:city": "São Bernardo do Campo",
        "addr:country": "BR",
        "addr:housenumber": "1500",
        "addr:postcode": "09725-001",
        "addr:street": "Rua Jurubatuba",
        "addr:suburb": "Centro",
        "amenity": "pharmacy",
        "brand": "Drogaria São Paulo",
        "brand:wikidata": "Q5308184",
        "brand:wikipedia": "en:Grupo DPSP",
        "contact:mobile": "+55 11 91040 4164",
        "contact:phone": "+55 11 4123 0441",
        "dispensing": "yes",
        "healthcare": "pharmacy",
        "name": "Drogaria São Paulo",
        "opening_hours": "24/7",
        "phone": "+55 11 4352 5014",
        "id": "node/3712385570"
      },
      "geometry": {
        "type": "Point",
        "coordinates": [
          -46.5535139,
          -23.7107636
        ]
      }
    },
    {
      "type": "Feature",
      "id": "node/3843888171",
      "properties": {
        "timestamp": "2019-06-12T02:01:08Z",
        "version": 5,
        "changeset": 71162188,
        "addr:city": "São Bernardo do Campo",
        "addr:country": "BR",
        "addr:housenumber": "200",
        "addr:street": "Praça Samuel Sabatini",
        "addr:suburb": "Centro",
        "amenity": "pharmacy",
        "brand": "Drogaria São Paulo",
        "brand:wikidata": "Q5308184",
        "brand:wikipedia": "en:Grupo DPSP",
        "dispensing": "yes",
        "healthcare": "pharmacy",
        "name": "Drogaria São Paulo",
        "id": "node/3843888171"
      },
      "geometry": {
        "type": "Point",
        "coordinates": [
          -46.549408,
          -23.6931037
        ]
      }
    },
    {
      "type": "Feature",
      "id": "node/3898110597",
      "properties": {
        "timestamp": "2021-12-02T02:19:08Z",
        "version": 5,
        "changeset": 114464319,
        "addr:housenumber": "1650",
        "addr:postcode": "09710-200",
        "addr:street": "Rua Marechal Deodoro",
        "addr:suburb": "Centro",
        "amenity": "pharmacy",
        "brand": "Farma Conde",
        "brand:wikidata": "Q100492677",
        "dispensing": "yes",
        "drive_through": "no",
        "email": "loja107@farmaconde.com.br",
        "healthcare": "pharmacy",
        "name": "Farma Conde",
        "phone": "+55 11 4330 0420",
        "website": "https://www.farmaconde.com.br/institucional/",
        "id": "node/3898110597"
      },
      "geometry": {
        "type": "Point",
        "coordinates": [
          -46.5503902,
          -23.7128178
        ]
      }
    },
    {
      "type": "Feature",
      "id": "node/4000738457",
      "properties": {
        "timestamp": "2020-04-17T15:10:03Z",
        "version": 7,
        "changeset": 83714157,
        "addr:city": "São Bernardo do Campo",
        "addr:country": "BR",
        "addr:street": "Rua Santa Filomena",
        "addr:suburb": "Centro",
        "amenity": "pharmacy",
        "contact:mobile": "+55 11 93370 1213",
        "dispensing": "yes",
        "drive_through": "no",
        "healthcare": "pharmacy",
        "name": "Medicare",
        "opening_hours": "Mo-Fr 08:00-18:00; Sa 09:00-13:00; PH off",
        "phone": "+55 11 4125 8678",
        "id": "node/4000738457"
      },
      "geometry": {
        "type": "Point",
        "coordinates": [
          -46.5507512,
          -23.7059025
        ]
      }
    },
    {
      "type": "Feature",
      "id": "node/4301387948",
      "properties": {
        "timestamp": "2023-08-29T13:14:21Z",
        "version": 7,
        "changeset": 140541562,
        "addr:city": "São Bernardo do Campo",
        "addr:country": "BR",
        "addr:housenumber": "62",
        "addr:street": "Avenida Índico",
        "addr:suburb": "Centro",
        "amenity": "pharmacy",
        "dispensing": "yes",
        "drive_through": "no",
        "healthcare": "pharmacy",
        "name": "Rede de Drogarias Nova Scarpelli",
        "payment:cash": "yes",
        "payment:coins": "yes",
        "payment:notes": "yes",
        "phone": "+55 11 4126 2487",
        "id": "node/4301387948"
      },
      "geometry": {
        "type": "Point",
        "coordinates": [
          -46.5532213,
          -23.6962709
        ]
      }
    },
    {
      "type": "Feature",
      "id": "node/4306207227",
      "properties": {
        "timestamp": "2019-06-12T01:08:49Z",
        "version": 4,
        "changeset": 71161464,
        "addr:city": "São Bernardo do Campo",
        "addr:country": "BR",
        "addr:housenumber": "25",
        "addr:street": "Rua Rodrigues Alves",
        "addr:suburb": "Centro",
        "amenity": "pharmacy",
        "dispensing": "yes",
        "drive_through": "no",
        "healthcare": "pharmacy",
        "name": "Droga Sandri",
        "opening_hours": "08:00-20:00",
        "payment:cash": "yes",
        "payment:coins": "yes",
        "payment:debit_cards": "yes",
        "payment:notes": "yes",
        "phone": "+55 11 4330 2505",
        "id": "node/4306207227"
      },
      "geometry": {
        "type": "Point",
        "coordinates": [
          -46.552678,
          -23.6991342
        ]
      }
    },
    {
      "type": "Feature",
      "id": "node/4446197799",
      "properties": {
        "timestamp": "2019-06-12T01:24:31Z",
        "version": 3,
        "changeset": 71161663,
        "addr:city": "São Bernardo do Campo",
        "addr:street": "Rua Marechal Deodoro",
        "amenity": "pharmacy",
        "dispensing": "yes",
        "drive_through": "no",
        "healthcare": "pharmacy",
        "name": "Drogaria Anchieta",
        "id": "node/4446197799"
      },
      "geometry": {
        "type": "Point",
        "coordinates": [
          -46.5493217,
          -23.7141431
        ]
      }
    },
    {
      "type": "Feature",
      "id": "node/4446740746",
      "properties": {
        "timestamp": "2019-06-12T01:24:31Z",
        "version": 4,
        "changeset": 71161663,
        "addr:city": "São Bernardo do Campo",
        "addr:country": "BR",
        "addr:housenumber": "1829",
        "addr:street": "Rua Marechal Deodoro",
        "amenity": "pharmacy",
        "dispensing": "yes",
        "drive_through": "no",
        "healthcare": "pharmacy",
        "name": "Farmácia Popular",
        "id": "node/4446740746"
      },
      "geometry": {
        "type": "Point",
        "coordinates": [
          -46.5494803,
          -23.7139223
        ]
      }
    },
    {
      "type": "Feature",
      "id": "node/4492985772",
      "properties": {
        "timestamp": "2019-06-12T01:20:01Z",
        "version": 3,
        "changeset": 71161606,
        "addr:city": "São Bernardo do Campo",
        "addr:country": "BR",
        "addr:housenumber": "1066",
        "addr:postcode": "09770-000",
        "addr:street": "Avenida Francisco Prestes Maia",
        "amenity": "pharmacy",
        "brand": "Drogasil",
        "brand:wikidata": "Q5308185",
        "brand:wikipedia": "pt:Drogasil",
        "healthcare": "pharmacy",
        "name": "Drogasil",
        "operator": "Drogasil",
        "wheelchair": "yes",
        "id": "node/4492985772"
      },
      "geometry": {
        "type": "Point",
        "coordinates": [
          -46.5435227,
          -23.7124429
        ]
      }
    },
    {
      "type": "Feature",
      "id": "node/4501463739",
      "properties": {
        "timestamp": "2019-06-12T01:11:04Z",
        "version": 3,
        "changeset": 71161496,
        "addr:city": "São Bernardo do Campo",
        "addr:country": "BR",
        "addr:housenumber": "433",
        "addr:postcode": "09710-010",
        "addr:street": "Rua Marechal Deodoro",
        "addr:suburb": "Centro",
        "amenity": "pharmacy",
        "dispensing": "yes",
        "drive_through": "no",
        "healthcare": "pharmacy",
        "name": "Drugstore Pague Menos",
        "phone": "+55 11 4123 3441",
        "website": "http://portal.paguemenos.com.br/portal/",
        "id": "node/4501463739"
      },
      "geometry": {
        "type": "Point",
        "coordinates": [
          -46.5516221,
          -23.7018162
        ]
      }
    },
    {
      "type": "Feature",
      "id": "node/4509005663",
      "properties": {
        "timestamp": "2019-06-16T23:41:40Z",
        "version": 3,
        "changeset": 71312004,
        "addr:country": "BR",
        "addr:street": "Avenida Francisco Prestes Maia",
        "amenity": "pharmacy",
        "drive_through": "no",
        "healthcare": "pharmacy",
        "id": "node/4509005663"
      },
      "geometry": {
        "type": "Point",
        "coordinates": [
          -46.5427591,
          -23.7135615
        ]
      }
    },
    {
      "type": "Feature",
      "id": "node/4685993478",
      "properties": {
        "timestamp": "2020-05-07T12:56:08Z",
        "version": 2,
        "changeset": 84834164,
        "amenity": "pharmacy",
        "dispensing": "yes",
        "healthcare": "pharmacy",
        "id": "node/4685993478"
      },
      "geometry": {
        "type": "Point",
        "coordinates": [
          -46.5338178,
          -23.7058594
        ]
      }
    },
    {
      "type": "Feature",
      "id": "node/4711874190",
      "properties": {
        "timestamp": "2019-07-26T03:10:34Z",
        "version": 4,
        "changeset": 72667651,
        "addr:city": "São Bernardo do Campo",
        "addr:street": "Avenida Humberto de Alencar Castelo Branco",
        "addr:suburb": "Parque Neide",
        "amenity": "pharmacy",
        "dispensing": "yes",
        "drive_through": "no",
        "healthcare": "pharmacy",
        "name": "Droga Neide",
        "phone": "+55 11 4109 6161",
        "id": "node/4711874190"
      },
      "geometry": {
        "type": "Point",
        "coordinates": [
          -46.5808005,
          -23.7214135
        ]
      }
    },
    {
      "type": "Feature",
      "id": "node/4908301050",
      "properties": {
        "timestamp": "2019-06-12T01:29:53Z",
        "version": 2,
        "changeset": 71161757,
        "addr:city": "São Bernardo do Campo",
        "addr:street": "Rua Joaquim Nabuco",
        "addr:suburb": "Centro",
        "amenity": "pharmacy",
        "dispensing": "yes",
        "healthcare": "pharmacy",
        "name": "Droga Coop",
        "id": "node/4908301050"
      },
      "geometry": {
        "type": "Point",
        "coordinates": [
          -46.5537035,
          -23.715266
        ]
      }
    },
    {
      "type": "Feature",
      "id": "node/5450712784",
      "properties": {
        "timestamp": "2024-06-18T01:28:43Z",
        "version": 12,
        "changeset": 152824902,
        "addr:city": "São Bernardo do Campo",
        "addr:street": "Avenida Amazonas",
        "addr:suburb": "Riacho Grande",
        "amenity": "pharmacy",
        "contact:mobile": "+55 11 91231 8461",
        "delivery": "yes",
        "dispensing": "yes",
        "drive_through": "no",
        "healthcare": "pharmacy",
        "name": "Drogaria  Nova Riacho",
        "opening_hours": "Mo-Su,PH 06:00-00:00",
        "payment:cash": "yes",
        "payment:coins": "yes",
        "payment:notes": "yes",
        "payment:pix": "yes",
        "phone": "+55 11 4354 0335",
        "id": "node/5450712784"
      },
      "geometry": {
        "type": "Point",
        "coordinates": [
          -46.5300897,
          -23.7777966
        ]
      }
    },
    {
      "type": "Feature",
      "id": "node/5551345892",
      "properties": {
        "timestamp": "2018-04-13T21:32:18Z",
        "version": 1,
        "changeset": 58076829,
        "addr:city": "São Bernardo do Campo",
        "addr:street": "Estrada dos Casa",
        "amenity": "pharmacy",
        "contact:phone": "+55 11 4109 7362",
        "delivery": "yes",
        "dispensing": "no",
        "drive_through": "no",
        "healthcare": "pharmacy",
        "name": "Drogaria Parque das Flôres",
        "payment:cash": "yes",
        "payment:coins": "yes",
        "payment:credit_cards": "yes",
        "payment:debit_cards": "yes",
        "payment:notes": "yes",
        "phone": "+55 11 4355 8202",
        "id": "node/5551345892"
      },
      "geometry": {
        "type": "Point",
        "coordinates": [
          -46.5697975,
          -23.7396074
        ]
      }
    },
    {
      "type": "Feature",
      "id": "node/5552712387",
      "properties": {
        "timestamp": "2023-08-29T13:20:27Z",
        "version": 2,
        "changeset": 140541856,
        "addr:city": "São Bernardo do Campo",
        "addr:street": "Avenida Índico",
        "addr:suburb": "Centro",
        "amenity": "pharmacy",
        "contact:phone": "+55 11 4332 6556",
        "dispensing": "no",
        "drive_through": "no",
        "healthcare": "pharmacy",
        "name": "Eficaz Fórmulas Farmácia de Manipulação",
        "phone": "+55 11 4125 5414",
        "id": "node/5552712387"
      },
      "geometry": {
        "type": "Point",
        "coordinates": [
          -46.5535597,
          -23.6961818
        ]
      }
    },
    {
      "type": "Feature",
      "id": "node/5560717123",
      "properties": {
        "timestamp": "2018-04-18T01:57:31Z",
        "version": 1,
        "changeset": 58186693,
        "addr:city": "São Bernardo do Campo",
        "addr:street": "Rua Neci Elói Dantas",
        "amenity": "pharmacy",
        "dispensing": "yes",
        "healthcare": "pharmacy",
        "name": "Drogaria Eduardo",
        "payment:cash": "yes",
        "payment:coins": "yes",
        "payment:credit_cards": "yes",
        "payment:debit_cards": "yes",
        "payment:notes": "yes",
        "id": "node/5560717123"
      },
      "geometry": {
        "type": "Point",
        "coordinates": [
          -46.6034095,
          -23.7422906
        ]
      }
    },
    {
      "type": "Feature",
      "id": "node/5623353251",
      "properties": {
        "timestamp": "2022-02-26T12:55:33Z",
        "version": 3,
        "changeset": 117878106,
        "addr:street": "Avenida Senador Vergueiro",
        "amenity": "pharmacy",
        "dispensing": "yes",
        "drive_through": "no",
        "healthcare": "pharmacy",
        "name": "Droga Mater",
        "phone": "+55 11 4368 5055",
        "id": "node/5623353251"
      },
      "geometry": {
        "type": "Point",
        "coordinates": [
          -46.5577966,
          -23.6748536
        ]
      }
    },
    {
      "type": "Feature",
      "id": "node/5623353264",
      "properties": {
        "timestamp": "2019-10-03T22:49:41Z",
        "version": 2,
        "changeset": 75254904,
        "addr:street": "Avenida Senador Vergueiro",
        "amenity": "pharmacy",
        "drive_through": "no",
        "healthcare": "pharmacy",
        "name": "Botica Verde",
        "id": "node/5623353264"
      },
      "geometry": {
        "type": "Point",
        "coordinates": [
          -46.5586142,
          -23.6731382
        ]
      }
    },
    {
      "type": "Feature",
      "id": "node/6121778085",
      "properties": {
        "timestamp": "2019-06-12T01:21:34Z",
        "version": 3,
        "changeset": 71161629,
        "addr:housenumber": "128",
        "addr:street": "Rua Municipal",
        "amenity": "pharmacy",
        "dispensing": "yes",
        "drive_through": "no",
        "email": "bioph2008@hotmail.com",
        "healthcare": "pharmacy",
        "name": "BioPharma",
        "payment:cash": "yes",
        "payment:coins": "yes",
        "payment:debit_cards": "yes",
        "payment:notes": "yes",
        "phone": "+55 11 4330 4000",
        "id": "node/6121778085"
      },
      "geometry": {
        "type": "Point",
        "coordinates": [
          -46.5491055,
          -23.7115269
        ]
      }
    },
    {
      "type": "Feature",
      "id": "node/6152746288",
      "properties": {
        "timestamp": "2024-02-20T21:51:25Z",
        "version": 2,
        "changeset": 147709780,
        "addr:postcode": "09820-000",
        "addr:street": "Avenida Maria Servidei Demarchi",
        "amenity": "pharmacy",
        "brand": "Extrafarma",
        "brand:wikidata": "Q20055480",
        "dispensing": "yes",
        "drive_through": "no",
        "healthcare": "pharmacy",
        "name": "Extrafarma",
        "website": "https://www.extrafarma.com.br/",
        "id": "node/6152746288"
      },
      "geometry": {
        "type": "Point",
        "coordinates": [
          -46.5534274,
          -23.7375331
        ]
      }
    },
    {
      "type": "Feature",
      "id": "node/6250551351",
      "properties": {
        "timestamp": "2019-01-31T22:51:17Z",
        "version": 1,
        "changeset": 66817315,
        "addr:street": "Avenida Senador Vergueiro",
        "amenity": "pharmacy",
        "brand": "Drogaria São Paulo",
        "brand:wikidata": "Q5308184",
        "brand:wikipedia": "en:Grupo DPSP",
        "dispensing": "yes",
        "drive_through": "no",
        "healthcare": "pharmacy",
        "name": "Drogaria São Paulo",
        "opening_hours": "Mo-Su,PH 06:00-23:00",
        "id": "node/6250551351"
      },
      "geometry": {
        "type": "Point",
        "coordinates": [
          -46.5601681,
          -23.6704704
        ]
      }
    },
    {
      "type": "Feature",
      "id": "node/6258896548",
      "properties": {
        "timestamp": "2019-11-11T01:49:58Z",
        "version": 2,
        "changeset": 76883761,
        "addr:street": "Avenida da Praia",
        "amenity": "pharmacy",
        "dispensing": "yes",
        "drive_through": "no",
        "healthcare": "pharmacy",
        "name": "RR Pharma",
        "id": "node/6258896548"
      },
      "geometry": {
        "type": "Point",
        "coordinates": [
          -46.5311067,
          -23.7788156
        ]
      }
    },
    {
      "type": "Feature",
      "id": "node/6283597613",
      "properties": {
        "timestamp": "2022-11-22T19:17:12Z",
        "version": 5,
        "changeset": 129252314,
        "addr:housenumber": "2841",
        "addr:postcode": "09761-000",
        "addr:street": "Rua dos Vianas",
        "addr:suburb": "Baeta Neves",
        "amenity": "pharmacy",
        "branch": "403",
        "brand": "Farma Conde",
        "brand:wikidata": "Q100492677",
        "dispensing": "yes",
        "drive_through": "no",
        "email": "loja403@farmaconde.com.br",
        "healthcare": "pharmacy",
        "name": "Farma Conde",
        "website": "https://www.farmaconde.com.br/",
        "id": "node/6283597613"
      },
      "geometry": {
        "type": "Point",
        "coordinates": [
          -46.5277044,
          -23.7074402
        ]
      }
    },
    {
      "type": "Feature",
      "id": "node/6312809310",
      "properties": {
        "timestamp": "2019-06-12T01:08:49Z",
        "version": 2,
        "changeset": 71161464,
        "addr:housenumber": "22",
        "addr:street": "Rua Leonardo Locatelli",
        "amenity": "pharmacy",
        "dispensing": "yes",
        "drive_through": "no",
        "healthcare": "pharmacy",
        "name": "Central Phamarcos",
        "opening_hours": "Mo-Sa 08:00-18:00",
        "id": "node/6312809310"
      },
      "geometry": {
        "type": "Point",
        "coordinates": [
          -46.5516731,
          -23.6999791
        ]
      }
    },
    {
      "type": "Feature",
      "id": "node/6621636330",
      "properties": {
        "timestamp": "2019-07-17T02:58:35Z",
        "version": 1,
        "changeset": 72328252,
        "addr:street": "Avenida General Barreto de Menezes",
        "amenity": "pharmacy",
        "dispensing": "yes",
        "drive_through": "no",
        "healthcare": "pharmacy",
        "name": "Drogaria Juruna",
        "phone": "+55 11 4127 5981",
        "id": "node/6621636330"
      },
      "geometry": {
        "type": "Point",
        "coordinates": [
          -46.5361153,
          -23.7359487
        ]
      }
    },
    {
      "type": "Feature",
      "id": "node/6668905995",
      "properties": {
        "timestamp": "2019-08-01T02:34:28Z",
        "version": 1,
        "changeset": 72878101,
        "amenity": "pharmacy",
        "dispensing": "yes",
        "drive_through": "no",
        "healthcare": "pharmacy",
        "name": "Farma 100",
        "operator": "Verdan & Sbardelini",
        "id": "node/6668905995"
      },
      "geometry": {
        "type": "Point",
        "coordinates": [
          -46.5715915,
          -23.655994
        ]
      }
    },
    {
      "type": "Feature",
      "id": "node/6668905996",
      "properties": {
        "timestamp": "2019-11-04T19:00:17Z",
        "version": 2,
        "changeset": 76609534,
        "addr:street": "Avenida Caminho do Mar",
        "amenity": "pharmacy",
        "dispensing": "yes",
        "drive_through": "no",
        "healthcare": "pharmacy",
        "name": "Farmácia Miravo",
        "phone": "+55 11 4338 7146",
        "id": "node/6668905996"
      },
      "geometry": {
        "type": "Point",
        "coordinates": [
          -46.571581,
          -23.6557628
        ]
      }
    },
    {
      "type": "Feature",
      "id": "node/6760847473",
      "properties": {
        "timestamp": "2024-04-11T02:00:55Z",
        "version": 2,
        "changeset": 149844178,
        "addr:street": "Rua Jurubatuba",
        "amenity": "pharmacy",
        "dispensing": "yes",
        "drive_through": "no",
        "healthcare": "pharmacy",
        "name": "Bifarma",
        "phone": "+55 11 4441 6420",
        "id": "node/6760847473"
      },
      "geometry": {
        "type": "Point",
        "coordinates": [
          -46.5532986,
          -23.7104823
        ]
      }
    },
    {
      "type": "Feature",
      "id": "node/6945861037",
      "properties": {
        "timestamp": "2019-11-04T23:45:53Z",
        "version": 2,
        "changeset": 76617483,
        "addr:street": "Avenida Antártico",
        "amenity": "pharmacy",
        "dispensing": "yes",
        "drive_through": "no",
        "healthcare": "pharmacy",
        "name": "Remédio Fácil Drogaria",
        "id": "node/6945861037"
      },
      "geometry": {
        "type": "Point",
        "coordinates": [
          -46.562752,
          -23.6882757
        ]
      }
    },
    {
      "type": "Feature",
      "id": "node/7100452052",
      "properties": {
        "timestamp": "2023-08-01T16:08:22Z",
        "version": 3,
        "changeset": 139307904,
        "addr:street": "Estrada dos Alvarengas",
        "amenity": "pharmacy",
        "dispensing": "yes",
        "drive_through": "no",
        "healthcare": "pharmacy",
        "name": "Master Farma",
        "id": "node/7100452052"
      },
      "geometry": {
        "type": "Point",
        "coordinates": [
          -46.5829373,
          -23.7351872
        ]
      }
    },
    {
      "type": "Feature",
      "id": "node/7692699396",
      "properties": {
        "timestamp": "2024-06-04T14:58:09Z",
        "version": 2,
        "changeset": 152248184,
        "addr:street": "Estrada Samuel Aizemberg",
        "amenity": "pharmacy",
        "dispensing": "yes",
        "drive_through": "no",
        "healthcare": "pharmacy",
        "name": "RicoFarma",
        "phone": "+55 11 4392 3759",
        "id": "node/7692699396"
      },
      "geometry": {
        "type": "Point",
        "coordinates": [
          -46.5929892,
          -23.7117732
        ]
      }
    },
    {
      "type": "Feature",
      "id": "node/7879398698",
      "properties": {
        "timestamp": "2023-07-15T20:20:45Z",
        "version": 3,
        "changeset": 138558511,
        "addr:housenumber": "185",
        "addr:postcode": "09810-260",
        "addr:street": "Avenida João Firmino",
        "addr:suburb": "Assunção",
        "amenity": "pharmacy",
        "branch": "Feliz Farma - João Firmino",
        "dispensing": "yes",
        "drive_through": "no",
        "healthcare": "pharmacy",
        "name": "FelizFarma",
        "opening_hours": "24/7",
        "website": "https://felizfarma.com.br/home",
        "id": "node/7879398698"
      },
      "geometry": {
        "type": "Point",
        "coordinates": [
          -46.5602373,
          -23.7193126
        ]
      }
    },
    {
      "type": "Feature",
      "id": "node/8616540555",
      "properties": {
        "timestamp": "2021-04-11T03:01:12Z",
        "version": 1,
        "changeset": 102721762,
        "addr:housenumber": "624",
        "addr:postcode": "09721-000",
        "addr:street": "Avenida Rotary",
        "addr:suburb": "Ferrazópolis",
        "amenity": "pharmacy",
        "brand": "Drogasil",
        "brand:wikidata": "Q5308185",
        "brand:wikipedia": "pt:Drogasil",
        "contact:phone": "+55 11 4127 6926",
        "dispensing": "yes",
        "drive_through": "no",
        "healthcare": "pharmacy",
        "name": "Drogasil",
        "opening_hours": "Mo-Sa 10:30-22:00; Su,PH off",
        "phone": "+55 11 4127 7110",
        "wheelchair": "yes",
        "id": "node/8616540555"
      },
      "geometry": {
        "type": "Point",
        "coordinates": [
          -46.544304,
          -23.723441
        ]
      }
    },
    {
      "type": "Feature",
      "id": "node/8769296397",
      "properties": {
        "timestamp": "2021-08-17T22:23:07Z",
        "version": 2,
        "changeset": 109836580,
        "addr:street": "Rua dos Vianas",
        "addr:suburb": "Parque São Bernardo",
        "amenity": "pharmacy",
        "dispensing": "yes",
        "drive_through": "no",
        "healthcare": "pharmacy",
        "name": "Drogaria TopFarma",
        "id": "node/8769296397"
      },
      "geometry": {
        "type": "Point",
        "coordinates": [
          -46.5253597,
          -23.7083573
        ]
      }
    },
    {
      "type": "Feature",
      "id": "node/9032827905",
      "properties": {
        "timestamp": "2023-07-15T20:33:02Z",
        "version": 2,
        "changeset": 138558810,
        "addr:housenumber": "969",
        "addr:postcode": "09780-250",
        "addr:street": "Avenida Luiz Pequini",
        "addr:suburb": "Santa Terezinha",
        "amenity": "pharmacy",
        "branch": "Feliz Farma - Luiz Pequine",
        "dispensing": "yes",
        "healthcare": "pharmacy",
        "name": "FelizFarma",
        "opening_hours": "Mo-Su,PH 08:00-20:00",
        "website": "https://felizfarma.com.br/home",
        "id": "node/9032827905"
      },
      "geometry": {
        "type": "Point",
        "coordinates": [
          -46.5322334,
          -23.7141525
        ]
      }
    },
    {
      "type": "Feature",
      "id": "node/9187968003",
      "properties": {
        "timestamp": "2022-06-12T17:04:12Z",
        "version": 4,
        "changeset": 122290610,
        "addr:street": "Avenida João Firmino",
        "addr:suburb": "Assunção",
        "amenity": "pharmacy",
        "dispensing": "yes",
        "drive_through": "no",
        "healthcare": "pharmacy",
        "name": "Central Pharmacos",
        "phone": "+55 11 4356 3189",
        "id": "node/9187968003"
      },
      "geometry": {
        "type": "Point",
        "coordinates": [
          -46.5634205,
          -23.7201893
        ]
      }
    },
    {
      "type": "Feature",
      "id": "node/9490804231",
      "properties": {
        "timestamp": "2022-02-08T20:35:46Z",
        "version": 1,
        "changeset": 117176375,
        "addr:street": "Avenida Padre Anchieta",
        "amenity": "pharmacy",
        "dispensing": "yes",
        "drive_through": "no",
        "healthcare": "pharmacy",
        "phone": "+55 11 4125 6377",
        "id": "node/9490804231"
      },
      "geometry": {
        "type": "Point",
        "coordinates": [
          -46.5726399,
          -23.6839856
        ]
      }
    },
    {
      "type": "Feature",
      "id": "node/9700583414",
      "properties": {
        "timestamp": "2024-06-04T12:56:29Z",
        "version": 8,
        "changeset": 152243218,
        "addr:housenumber": "1538",
        "addr:street": "Avenida Robert Kennedy",
        "addr:suburb": "Independência",
        "amenity": "pharmacy",
        "contact:mobile": "+55 11 91406 6672",
        "dispensing": "yes",
        "drive_through": "no",
        "healthcare": "pharmacy",
        "name": "Drogaria Minifarma",
        "opening_hours": "Mo-Sa 08:00-22:00; Su 08:00-18:00; PH off",
        "phone": "+55 11 4392 2552",
        "website": "https://drogariadnafarma.com.br/produtos",
        "id": "node/9700583414"
      },
      "geometry": {
        "type": "Point",
        "coordinates": [
          -46.5771696,
          -23.7037876
        ]
      }
    },
    {
      "type": "Feature",
      "id": "node/9813176809",
      "properties": {
        "timestamp": "2023-04-04T16:12:25Z",
        "version": 2,
        "changeset": 134503288,
        "addr:housenumber": "452",
        "addr:postcode": "09810-555",
        "addr:street": "Rua Cristiano Angeli",
        "addr:suburb": "Assunção",
        "amenity": "pharmacy",
        "contact:mobile": "+55 11 98146 8938",
        "dispensing": "yes",
        "drive_through": "no",
        "email": "contato@vickformulas.com.br",
        "healthcare": "pharmacy",
        "name": "Vick Fórmulas Farmácia de Manipulação",
        "phone": "+55 11 4352 7229",
        "website": "https://www.vickformulas.com.br/",
        "id": "node/9813176809"
      },
      "geometry": {
        "type": "Point",
        "coordinates": [
          -46.5675705,
          -23.7202907
        ]
      }
    },
    {
      "type": "Feature",
      "id": "node/9859123641",
      "properties": {
        "timestamp": "2022-06-30T21:51:49Z",
        "version": 1,
        "changeset": 123062333,
        "addr:housenumber": "322",
        "addr:postcode": "09726-251",
        "addr:street": "Avenida Kennedy",
        "addr:suburb": "Jardim do Mar",
        "amenity": "pharmacy",
        "dispensing": "yes",
        "drive_through": "no",
        "healthcare": "pharmacy",
        "name": "Drogarias Ultra Popular",
        "operator": "Drogaria Nova-Phamarcos",
        "phone": "+55 11 94514 9367",
        "id": "node/9859123641"
      },
      "geometry": {
        "type": "Point",
        "coordinates": [
          -46.5591916,
          -23.6863418
        ]
      }
    },
    {
      "type": "Feature",
      "id": "node/9859207719",
      "properties": {
        "timestamp": "2022-06-30T22:11:21Z",
        "version": 1,
        "changeset": 123062823,
        "addr:housenumber": "479",
        "addr:street": "Rua José Monteiro Filho",
        "addr:suburb": "Jardim do Mar",
        "amenity": "pharmacy",
        "contact:mobile": "+55 11 98541 0270",
        "contact:phone": "+55 11 4121 5940",
        "dispensing": "yes",
        "drive_through": "no",
        "healthcare": "pharmacy",
        "name": "Pólen Fármacia Homeopática",
        "phone": "+55 11 4125 2615",
        "website": "http://farmaciahomeopaticapolen.com.br/",
        "id": "node/9859207719"
      },
      "geometry": {
        "type": "Point",
        "coordinates": [
          -46.5590379,
          -23.6863591
        ]
      }
    },
    {
      "type": "Feature",
      "id": "node/9859259074",
      "properties": {
        "timestamp": "2022-06-30T22:50:42Z",
        "version": 1,
        "changeset": 123063518,
        "addr:street": "Avenida Kennedy",
        "addr:suburb": "Jardim do Mar",
        "amenity": "pharmacy",
        "dispensing": "yes",
        "drive_through": "no",
        "healthcare": "pharmacy",
        "name": "Farmácia de Manipulação Veterinária",
        "phone": "+55 11 4332 9032",
        "id": "node/9859259074"
      },
      "geometry": {
        "type": "Point",
        "coordinates": [
          -46.5591342,
          -23.6860576
        ]
      }
    },
    {
      "type": "Feature",
      "id": "node/10010255059",
      "properties": {
        "timestamp": "2023-07-15T20:33:02Z",
        "version": 3,
        "changeset": 138558810,
        "addr:housenumber": "86",
        "addr:postcode": "09780-250",
        "addr:street": "Avenida Luiz Pequini",
        "addr:suburb": "Santa Terezinha",
        "amenity": "pharmacy",
        "branch": "Feliz Farma Farina",
        "dispensing": "yes",
        "healthcare": "pharmacy",
        "name": "FelizFarma",
        "opening_hours": "Mo-Su,PH 08:00-18:00",
        "website": "https://felizfarma.com.br/home",
        "id": "node/10010255059"
      },
      "geometry": {
        "type": "Point",
        "coordinates": [
          -46.5261122,
          -23.7087186
        ]
      }
    },
    {
      "type": "Feature",
      "id": "node/10563333904",
      "properties": {
        "timestamp": "2023-01-17T19:40:29Z",
        "version": 1,
        "changeset": 131393835,
        "addr:street": "Rua MMDC",
        "addr:suburb": "Paulicéia",
        "amenity": "pharmacy",
        "brand": "Drogasil",
        "brand:wikidata": "Q5308185",
        "healthcare": "pharmacy",
        "name": "Drogasil",
        "wheelchair": "yes",
        "id": "node/10563333904"
      },
      "geometry": {
        "type": "Point",
        "coordinates": [
          -46.5880363,
          -23.6679744
        ]
      }
    },
    {
      "type": "Feature",
      "id": "node/10690740300",
      "properties": {
        "timestamp": "2023-06-19T13:05:11Z",
        "version": 2,
        "changeset": 137518615,
        "addr:housenumber": "158",
        "addr:street": "Avenida Doutor Rudge Ramos",
        "addr:suburb": "Rudge Ramos",
        "amenity": "pharmacy",
        "dispensing": "yes",
        "drive_through": "no",
        "healthcare": "pharmacy",
        "mobile": "+55 11 94875 4423",
        "name": "Farmácia Pró-Pharmacos",
        "phone": "+55 11 4368 0001",
        "id": "node/10690740300"
      },
      "geometry": {
        "type": "Point",
        "coordinates": [
          -46.5728861,
          -23.6531963
        ]
      }
    },
    {
      "type": "Feature",
      "id": "node/10771169854",
      "properties": {
        "timestamp": "2023-04-04T18:21:03Z",
        "version": 2,
        "changeset": 134508287,
        "addr:housenumber": "1250",
        "addr:street": "Rua Marechal Deodoro",
        "addr:suburb": "Centro",
        "amenity": "pharmacy",
        "contact:mobile": "+55 11 93329 3032",
        "contact:phone": "+55 11 4123 1058",
        "dispensing": "yes",
        "drive_through": "no",
        "email": "manipulemarechal@manipule.com.br",
        "healthcare": "pharmacy",
        "name": "Manipule Farmácia de Manipulação",
        "phone": "+55 11 4330 3135",
        "website": "https://manipule.com.br/index.asp",
        "id": "node/10771169854"
      },
      "geometry": {
        "type": "Point",
        "coordinates": [
          -46.5509907,
          -23.7091011
        ]
      }
    },
    {
      "type": "Feature",
      "id": "node/10914096076",
      "properties": {
        "timestamp": "2023-05-20T13:19:55Z",
        "version": 1,
        "changeset": 136337422,
        "addr:housenumber": "3101",
        "addr:postcode": "09851-000",
        "addr:street": "Avenida Humberto de Alencar Castelo Branco",
        "addr:suburb": "Jardim Imperador",
        "amenity": "pharmacy",
        "dispensing": "yes",
        "drive_through": "no",
        "healthcare": "pharmacy",
        "name": "Ultrafarma Popular",
        "opening_hours": "Mo-Sa 07:00-23:00; Su,PH off",
        "phone": "+55 11 2374 6031",
        "website": "https://www.ultrafarmalojas.com.br/",
        "id": "node/10914096076"
      },
      "geometry": {
        "type": "Point",
        "coordinates": [
          -46.5840406,
          -23.7168628
        ]
      }
    },
    {
      "type": "Feature",
      "id": "node/10989485088",
      "properties": {
        "timestamp": "2023-06-19T13:05:11Z",
        "version": 1,
        "changeset": 137518615,
        "addr:housenumber": "500",
        "addr:street": "Avenida Doutor Rudge Ramos",
        "addr:suburb": "Rudge Ramos",
        "amenity": "pharmacy",
        "dispensing": "yes",
        "drive_through": "no",
        "healthcare": "pharmacy",
        "mobile": "+55 11 997680 4190",
        "name": "Drogaria Coop",
        "opening_hours": "Mo-Su.PH 07:00-22:00",
        "phone": "+55 11 4177 4440",
        "website": "https://www.portalcoop.com.br/drogaria-coop/",
        "id": "node/10989485088"
      },
      "geometry": {
        "type": "Point",
        "coordinates": [
          -46.5754345,
          -23.6513834
        ]
      }
    },
    {
      "type": "Feature",
      "id": "node/11009016376",
      "properties": {
        "timestamp": "2024-03-06T16:59:40Z",
        "version": 2,
        "changeset": 148305381,
        "addr:street": "Praça Pedro Marçon",
        "amenity": "pharmacy",
        "dispensing": "yes",
        "drive_through": "no",
        "healthcare": "pharmacy",
        "name": "Capitão Farma",
        "phone": "+55 11 4355 7640",
        "id": "node/11009016376"
      },
      "geometry": {
        "type": "Point",
        "coordinates": [
          -46.5699963,
          -23.7254302
        ]
      }
    },
    {
      "type": "Feature",
      "id": "node/11048125786",
      "properties": {
        "timestamp": "2023-07-15T14:36:19Z",
        "version": 1,
        "changeset": 138547472,
        "amenity": "pharmacy",
        "healthcare": "pharmacy",
        "id": "node/11048125786"
      },
      "geometry": {
        "type": "Point",
        "coordinates": [
          -46.5461461,
          -23.7083299
        ]
      }
    },
    {
      "type": "Feature",
      "id": "node/11048150606",
      "properties": {
        "timestamp": "2023-07-15T15:02:27Z",
        "version": 1,
        "changeset": 138548415,
        "addr:housenumber": "2231",
        "addr:street": "Avenida Presidente João Café Filho",
        "addr:suburb": "Alvarenga",
        "amenity": "pharmacy",
        "branch": "Drogaria Café Filhho",
        "dispensing": "yes",
        "drive_through": "no",
        "healthcare": "pharmacy",
        "mobile": "+55 11 97388 9846",
        "name": "Coop Drogaria",
        "opening_hours": "Mo-Su,PH 08:00-22:00",
        "phone": "+55 11 4351 3433",
        "website": "https://www.coopdrogaria.com.br/",
        "id": "node/11048150606"
      },
      "geometry": {
        "type": "Point",
        "coordinates": [
          -46.5745169,
          -23.7283808
        ]
      }
    },
    {
      "type": "Feature",
      "id": "node/11062429628",
      "properties": {
        "timestamp": "2023-07-22T21:47:44Z",
        "version": 1,
        "changeset": 138872750,
        "addr:housenumber": "3561",
        "addr:postcode": "09850-305",
        "addr:street": "Avenida Humberto de Alencar Castelo Branco",
        "addr:suburb": "Alves Dias",
        "amenity": "pharmacy",
        "dispensing": "yes",
        "drive_through": "no",
        "healthcare": "pharmacy",
        "name": "Feliz Farma",
        "opening_hours": "Mo-Su,PH 08:00-18:00",
        "website": "https://felizfarma.com.br/",
        "id": "node/11062429628"
      },
      "geometry": {
        "type": "Point",
        "coordinates": [
          -46.5811885,
          -23.7204402
        ]
      }
    },
    {
      "type": "Feature",
      "id": "node/11186476565",
      "properties": {
        "timestamp": "2023-09-12T18:33:32Z",
        "version": 1,
        "changeset": 141176679,
        "addr:street": "Avenida Capitão Casa",
        "amenity": "pharmacy",
        "dispensing": "yes",
        "drive_through": "no",
        "healthcare": "pharmacy",
        "name": "Feliz Farma",
        "website": "https://felizfarma.com.br/",
        "id": "node/11186476565"
      },
      "geometry": {
        "type": "Point",
        "coordinates": [
          -46.5663028,
          -23.7291149
        ]
      }
    },
    {
      "type": "Feature",
      "id": "node/11303448640",
      "properties": {
        "timestamp": "2023-10-31T22:10:57Z",
        "version": 1,
        "changeset": 143444979,
        "addr:street": "Avenida Pereira Barreto",
        "amenity": "pharmacy",
        "brand": "Drogasil",
        "brand:wikidata": "Q5308185",
        "healthcare": "pharmacy",
        "name": "Drogasil",
        "wheelchair": "yes",
        "id": "node/11303448640"
      },
      "geometry": {
        "type": "Point",
        "coordinates": [
          -46.5475131,
          -23.6847837
        ]
      }
    },
    {
      "type": "Feature",
      "id": "node/11523784275",
      "properties": {
        "timestamp": "2024-01-17T00:33:30Z",
        "version": 1,
        "changeset": 146343060,
        "amenity": "pharmacy",
        "healthcare": "pharmacy",
        "name": "Drogaria Espacial",
        "id": "node/11523784275"
      },
      "geometry": {
        "type": "Point",
        "coordinates": [
          -46.5569951,
          -23.72607
        ]
      }
    },
    {
      "type": "Feature",
      "id": "node/11748138255",
      "properties": {
        "timestamp": "2024-03-20T14:05:32Z",
        "version": 1,
        "changeset": 148915580,
        "addr:street": "Rua Rio Acima",
        "addr:suburb": "Riacho Grande",
        "amenity": "pharmacy",
        "dispensing": "yes",
        "drive_through": "no",
        "healthcare": "pharmacy",
        "mobile": "+55 11 95291 0068",
        "name": "Nova Farma",
        "phone": "+55 11 4354 0335",
        "id": "node/11748138255"
      },
      "geometry": {
        "type": "Point",
        "coordinates": [
          -46.5312812,
          -23.7793191
        ]
      }
    },
    {
      "type": "Feature",
      "id": "node/11848492675",
      "properties": {
        "timestamp": "2024-04-25T21:45:19Z",
        "version": 1,
        "changeset": 150515288,
        "addr:housenumber": "50",
        "addr:street": "Avenida Brigadeiro Faria Lima",
        "addr:suburb": "Centro",
        "amenity": "pharmacy",
        "dispensing": "yes",
        "drive_through": "no",
        "email": "drogariaecomed@gmail.com",
        "healthcare": "pharmacy",
        "name": "Drogaria e Perfumaria Ecomed",
        "opening_hours": "Mo-Sa 08:00-23:00; Su 08:00 -14:00",
        "id": "node/11848492675"
      },
      "geometry": {
        "type": "Point",
        "coordinates": [
          -46.5522893,
          -23.6988833
        ]
      }
    }
  ]
}
