{
  "type": "FeatureCollection",
  "features": [
    {
      "type": "Feature",
      "id": "way/284929921",
      "properties": {
        "timestamp": "2023-08-10T20:44:32Z",
        "version": 6,
        "changeset": 139723580,
        "addr:city": "São Bernardo do Campo",
        "addr:housenumber": "1200",
        "addr:street": "Avenida Robert Kennedy",
        "addr:suburb": "Independência",
        "amenity": "veterinary",
        "building": "yes",
        "contact:facebook": "https://www.facebook.com/maisquebichopet/about",
        "contact:instagram": "https://www.instagram.com/maisquebicho/",
        "contact:twitter": "https://twitter.com/maisquebichovet",
        "email": "maisquebicho@maisquebicho.com.br",
        "name": "Clínica Veterinária Pet Shop Mais Que Bicho",
        "opening_hours": "Mo-Fr 08:00-18:00; Sa 08:00-17:00; Su,PH off",
        "phone": "+55 11 4390 8213",
        "website": "http://www.maisquebicho.com.br/",
        "id": "way/284929921"
      },
      "geometry": {
        "type": "Polygon",
        "coordinates": [
          [
            [
              -46.5774123,
              -23.7008847
            ],
            [
              -46.5776034,
              -23.7009249
            ],
            [
              -46.5775933,
              -23.7009549
            ],
            [
              -46.5774013,
              -23.7009138
            ],
            [
              -46.5774123,
              -23.7008847
            ]
          ]
        ]
      }
    },
    {
      "type": "Feature",
      "id": "way/294515871",
      "properties": {
        "timestamp": "2017-06-23T22:36:16Z",
        "version": 3,
        "changeset": 49782724,
        "addr:city": "São Bernardo do Campo",
        "addr:country": "BR",
        "addr:housenumber": "901",
        "addr:street": "Rua Continental",
        "amenity": "veterinary",
        "building": "yes",
        "name": "R & K",
        "id": "way/294515871"
      },
      "geometry": {
        "type": "Polygon",
        "coordinates": [
          [
            [
              -46.5640126,
              -23.6851001
            ],
            [
              -46.5640243,
              -23.6852383
            ],
            [
              -46.5637748,
              -23.6852561
            ],
            [
              -46.5637674,
              -23.6851696
            ],
            [
              -46.5639561,
              -23.6851561
            ],
            [
              -46.5639517,
              -23.6851045
            ],
            [
              -46.5640126,
              -23.6851001
            ]
          ]
        ]
      }
    },
    {
      "type": "Feature",
      "id": "way/296797340",
      "properties": {
        "timestamp": "2023-06-23T01:11:30Z",
        "version": 5,
        "changeset": 137667447,
        "addr:city": "São Bernardo do Campo",
        "addr:housenumber": "275",
        "addr:postcode": "09830-285",
        "addr:street": "Rua Antonio Caputo",
        "addr:suburb": "Riacho Grande",
        "amenity": "veterinary",
        "building": "house",
        "name": "Toca de Francisco",
        "phone": "+55 11 4101 9616",
        "id": "way/296797340"
      },
      "geometry": {
        "type": "Polygon",
        "coordinates": [
          [
            [
              -46.5306722,
              -23.7799125
            ],
            [
              -46.530638,
              -23.7800034
            ],
            [
              -46.530556,
              -23.7799764
            ],
            [
              -46.5305237,
              -23.7799445
            ],
            [
              -46.5305743,
              -23.779876
            ],
            [
              -46.5306054,
              -23.7798851
            ],
            [
              -46.5306722,
              -23.7799125
            ]
          ]
        ]
      }
    },
    {
      "type": "Feature",
      "id": "way/370079480",
      "properties": {
        "timestamp": "2023-10-27T01:25:37Z",
        "version": 6,
        "changeset": 143188086,
        "addr:city": "São Bernardo do Campo",
        "addr:country": "BR",
        "addr:housenumber": "136",
        "addr:postcode": "09751-020",
        "addr:street": "Rua Thales dos Santos Freire",
        "addr:suburb": "Baeta Neves",
        "amenity": "veterinary",
        "building": "yes",
        "name": "Hospital Veterinário Dr. Hato",
        "opening_hours": "24/7",
        "phone": "+55 11 4336 7185",
        "website": "https://drhato.com.br/",
        "id": "way/370079480"
      },
      "geometry": {
        "type": "Polygon",
        "coordinates": [
          [
            [
              -46.5477121,
              -23.6917696
            ],
            [
              -46.5475033,
              -23.6914567
            ],
            [
              -46.5476116,
              -23.6913986
            ],
            [
              -46.5478137,
              -23.6917049
            ],
            [
              -46.5477121,
              -23.6917696
            ]
          ]
        ]
      }
    },
    {
      "type": "Feature",
      "id": "way/664565241",
      "properties": {
        "timestamp": "2020-05-02T15:53:13Z",
        "version": 3,
        "changeset": 84527107,
        "addr:street": "Rua Wálter Carlos Zanini",
        "amenity": "veterinary",
        "building": "yes",
        "name": "Centro Veterinário Assunção",
        "opening_hours": "24/7",
        "phone": "+55 11 4351 4281",
        "id": "way/664565241"
      },
      "geometry": {
        "type": "Polygon",
        "coordinates": [
          [
            [
              -46.5651435,
              -23.7217636
            ],
            [
              -46.5650496,
              -23.7218442
            ],
            [
              -46.5649874,
              -23.7217974
            ],
            [
              -46.5649903,
              -23.7217395
            ],
            [
              -46.5650591,
              -23.7216812
            ],
            [
              -46.5651435,
              -23.7217636
            ]
          ]
        ]
      }
    },
    {
      "type": "Feature",
      "id": "way/731950144",
      "properties": {
        "timestamp": "2023-08-26T00:05:15Z",
        "version": 5,
        "changeset": 140392772,
        "addr:housenumber": "413",
        "addr:street": "Avenida Redenção",
        "addr:suburb": "Jardim das Américas",
        "amenity": "veterinary",
        "building": "yes",
        "contact:mobile": "+55 11 95640 2404",
        "name": "Popular Vet",
        "phone": "+55 11 4103 7757",
        "id": "way/731950144"
      },
      "geometry": {
        "type": "Polygon",
        "coordinates": [
          [
            [
              -46.5562121,
              -23.6957175
            ],
            [
              -46.5562199,
              -23.6957861
            ],
            [
              -46.5561664,
              -23.6958144
            ],
            [
              -46.5560452,
              -23.6958909
            ],
            [
              -46.5559878,
              -23.6958074
            ],
            [
              -46.5562121,
              -23.6957175
            ]
          ]
        ]
      }
    },
    {
      "type": "Feature",
      "id": "way/878382696",
      "properties": {
        "timestamp": "2023-10-28T11:57:20Z",
        "version": 2,
        "changeset": 143257748,
        "addr:housenumber": "14",
        "addr:postcode": "09892-010",
        "addr:street": "Rua Rio de Janeiro",
        "addr:suburb": "Jordanópolis",
        "amenity": "veterinary",
        "building": "yes",
        "contact:email": "contato@drakey.com.br",
        "contact:mobile": "+55 11 99980 9550",
        "email": "administrador@drakey.com.br",
        "name": "Centro Médico e Estético Veterinário Dra Key",
        "website": "https://drakey.com.br/",
        "id": "way/878382696"
      },
      "geometry": {
        "type": "Polygon",
        "coordinates": [
          [
            [
              -46.5715487,
              -23.6849268
            ],
            [
              -46.5714602,
              -23.6849587
            ],
            [
              -46.5714522,
              -23.6848998
            ],
            [
              -46.5715246,
              -23.6848728
            ],
            [
              -46.5715487,
              -23.6849268
            ]
          ]
        ]
      }
    },
    {
      "type": "Feature",
      "id": "way/1064847732",
      "properties": {
        "timestamp": "2022-05-29T13:56:00Z",
        "version": 1,
        "changeset": 121659629,
        "addr:housenumber": "765",
        "addr:street": "Rua Rio Acima",
        "addr:suburb": "Jardim Dona Luiza",
        "amenity": "veterinary",
        "building": "yes",
        "contact:mobile": "+55 11 94182 2875",
        "email": "polivetrg@uol.com.br",
        "name": "Policlinica Veterinária Riacho Grande",
        "phone": "+55 11 4354 9063",
        "website": "http://polivetrg.vet.br/index.html",
        "id": "way/1064847732"
      },
      "geometry": {
        "type": "Polygon",
        "coordinates": [
          [
            [
              -46.532375,
              -23.7821291
            ],
            [
              -46.5323207,
              -23.7822203
            ],
            [
              -46.5322878,
              -23.7822032
            ],
            [
              -46.5322718,
              -23.7822072
            ],
            [
              -46.5322513,
              -23.7822325
            ],
            [
              -46.5322113,
              -23.7822138
            ],
            [
              -46.5322931,
              -23.7820965
            ],
            [
              -46.532375,
              -23.7821291
            ]
          ]
        ]
      }
    },
    {
      "type": "Feature",
      "id": "way/1068616224",
      "properties": {
        "timestamp": "2023-10-31T21:00:40Z",
        "version": 4,
        "changeset": 143442674,
        "addr:street": "Avenida Dom Jaime de Barros Câmara",
        "addr:suburb": "Planalto",
        "amenity": "veterinary",
        "building": "yes",
        "mobile": "+55 11 97272 4552",
        "name": "Vip Care",
        "phone": "+55 11 4341 4552",
        "id": "way/1068616224"
      },
      "geometry": {
        "type": "Polygon",
        "coordinates": [
          [
            [
              -46.5695411,
              -23.7070162
            ],
            [
              -46.5695372,
              -23.7072461
            ],
            [
              -46.5694151,
              -23.707244
            ],
            [
              -46.5694191,
              -23.7070141
            ],
            [
              -46.5695411,
              -23.7070162
            ]
          ]
        ]
      }
    },
    {
      "type": "Feature",
      "id": "way/1070758062",
      "properties": {
        "timestamp": "2023-08-01T14:22:54Z",
        "version": 2,
        "changeset": 139303205,
        "addr:housenumber": "470",
        "addr:street": "Estrada dos Alvarengas",
        "amenity": "veterinary",
        "building": "yes",
        "contact:facebook": "https://pt-br.facebook.com/reinoanimalhospitalveterinario/",
        "contact:mobile": "+55 11 97557 0955",
        "name": "Reino Animal Hospital Veterinário",
        "opening_hours": "24/7",
        "phone": "+55 11 4930 3333",
        "id": "way/1070758062"
      },
      "geometry": {
        "type": "Polygon",
        "coordinates": [
          [
            [
              -46.576938,
              -23.7276599
            ],
            [
              -46.5769425,
              -23.7278129
            ],
            [
              -46.5768545,
              -23.7278151
            ],
            [
              -46.57685,
              -23.7276621
            ],
            [
              -46.576938,
              -23.7276599
            ]
          ]
        ]
      }
    },
    {
      "type": "Feature",
      "id": "way/1132977240",
      "properties": {
        "timestamp": "2023-06-07T20:49:18Z",
        "version": 2,
        "changeset": 137071543,
        "addr:housenumber": "111",
        "addr:street": "Rua Francisco Alves",
        "addr:suburb": "Paulicéia",
        "amenity": "veterinary",
        "building": "yes",
        "contact:instagram": "@ladoaladoanimal",
        "contact:mobile": "+55 11 94863 8191",
        "mobile": "+55 11 94863 8191",
        "name": "Lado a Lado Animal",
        "opening_hours": "24/7",
        "phone": "+55 11 2374 8463",
        "website": "http://www.ladoaladoanimal.vet.br/",
        "id": "way/1132977240"
      },
      "geometry": {
        "type": "Polygon",
        "coordinates": [
          [
            [
              -46.581777,
              -23.6707068
            ],
            [
              -46.5818356,
              -23.6708216
            ],
            [
              -46.581637,
              -23.6709135
            ],
            [
              -46.581566,
              -23.6707948
            ],
            [
              -46.581777,
              -23.6707068
            ]
          ]
        ]
      }
    },
    {
      "type": "Feature",
      "id": "way/1177911775",
      "properties": {
        "timestamp": "2023-05-31T15:44:47Z",
        "version": 2,
        "changeset": 136795501,
        "addr:housenumber": "508",
        "addr:street": "Rua Tiradentes",
        "addr:suburb": "Centro",
        "amenity": "veterinary",
        "building": "yes",
        "contact:instagram": "@hvetlab",
        "contact:mobile": "+55 11 94777 9176",
        "name": "HVet Centro de Diagnóstico Veterinário",
        "phone": "+55 11 4334 8590",
        "id": "way/1177911775"
      },
      "geometry": {
        "type": "Polygon",
        "coordinates": [
          [
            [
              -46.5423581,
              -23.7164046
            ],
            [
              -46.5424866,
              -23.7164498
            ],
            [
              -46.5424511,
              -23.7165295
            ],
            [
              -46.5423304,
              -23.716477
            ],
            [
              -46.5423581,
              -23.7164046
            ]
          ]
        ]
      }
    },
    {
      "type": "Feature",
      "id": "way/1177915311",
      "properties": {
        "timestamp": "2023-05-31T15:44:47Z",
        "version": 1,
        "changeset": 136795501,
        "addr:street": "Rua Tiradentes",
        "addr:suburb": "Centro",
        "amenity": "veterinary",
        "building": "yes",
        "name": "VetHealtHato",
        "id": "way/1177915311"
      },
      "geometry": {
        "type": "Polygon",
        "coordinates": [
          [
            [
              -46.5423932,
              -23.716615
            ],
            [
              -46.5423635,
              -23.7166765
            ],
            [
              -46.5422518,
              -23.7166367
            ],
            [
              -46.5422844,
              -23.7165769
            ],
            [
              -46.5423932,
              -23.716615
            ]
          ]
        ]
      }
    },
    {
      "type": "Feature",
      "id": "way/1195012562",
      "properties": {
        "timestamp": "2023-08-05T15:34:41Z",
        "version": 1,
        "changeset": 139485357,
        "amenity": "veterinary",
        "building": "yes",
        "id": "way/1195012562"
      },
      "geometry": {
        "type": "Polygon",
        "coordinates": [
          [
            [
              -46.5935889,
              -23.6724252
            ],
            [
              -46.5935553,
              -23.6724374
            ],
            [
              -46.5932253,
              -23.6724277
            ],
            [
              -46.5931749,
              -23.6723158
            ],
            [
              -46.5934438,
              -23.6721959
            ],
            [
              -46.5935332,
              -23.6724074
            ],
            [
              -46.5935589,
              -23.6724155
            ],
            [
              -46.5935889,
              -23.6724252
            ]
          ]
        ]
      }
    },
    {
      "type": "Feature",
      "id": "way/1291562745",
      "properties": {
        "timestamp": "2024-06-11T20:38:30Z",
        "version": 1,
        "changeset": 152561101,
        "addr:housenumber": "1740",
        "addr:street": "Avenida Doutor Rudge Ramos",
        "addr:suburb": "Rudge Ramos",
        "amenity": "veterinary",
        "building": "yes",
        "name": "Hospital Público Veterinário de São Bernardo do Campo",
        "opening_hours": "Mo-Fr 08:00-17:00; PH off",
        "operator": "Divisão de Veterinária e Controle de Zoonoses",
        "id": "way/1291562745"
      },
      "geometry": {
        "type": "Polygon",
        "coordinates": [
          [
            [
              -46.5833674,
              -23.6433562
            ],
            [
              -46.583442,
              -23.6435172
            ],
            [
              -46.5832879,
              -23.6435771
            ],
            [
              -46.5832133,
              -23.6434162
            ],
            [
              -46.5833674,
              -23.6433562
            ]
          ]
        ]
      }
    },
    {
      "type": "Feature",
      "id": "node/1705565808",
      "properties": {
        "timestamp": "2019-10-12T19:19:16Z",
        "version": 5,
        "changeset": 75608027,
        "addr:city": "São Bernardo do Campo",
        "addr:country": "BR",
        "addr:housename": "Veterinário",
        "addr:housenumber": "266",
        "addr:postcode": "09726-150",
        "addr:street": "Avenida Antártico",
        "amenity": "veterinary",
        "name": "Doutor Eduardo Andrade",
        "id": "node/1705565808"
      },
      "geometry": {
        "type": "Point",
        "coordinates": [
          -46.5625456,
          -23.6883862
        ]
      }
    },
    {
      "type": "Feature",
      "id": "node/2625131977",
      "properties": {
        "timestamp": "2022-04-28T17:42:10Z",
        "version": 7,
        "changeset": 120316727,
        "addr:city": "São Bernardo do Campo",
        "addr:housenumber": "56",
        "addr:postcode": "09850-170",
        "addr:street": "Rua Doutor Ildefonso Simões Lopes",
        "addr:suburb": "Assunção",
        "amenity": "veterinary",
        "contact:facebook": "https://www.facebook.com/crecherefugioanimal/",
        "contact:mobile": "+55 11 97605 7240",
        "description": "Creche e Hotel para animais de estimação. Veja as fotos em nossa página no Facebook: http://facebook.com/CrecheRefugioAnimal",
        "email": "contato@refugioanimal.com.br",
        "name": "Creche Refúgio Animal",
        "phone": "+55 11 2355 2499",
        "website": "http://www.refugioanimal.com.br/",
        "id": "node/2625131977"
      },
      "geometry": {
        "type": "Point",
        "coordinates": [
          -46.5728651,
          -23.7259251
        ]
      }
    },
    {
      "type": "Feature",
      "id": "node/3007940698",
      "properties": {
        "timestamp": "2020-02-29T18:25:15Z",
        "version": 3,
        "changeset": 81626860,
        "addr:city": "São Bernardo do Campo",
        "addr:country": "BR",
        "addr:housenumber": "990",
        "addr:postcode": "09726-000",
        "addr:street": "Avenida Kennedy",
        "amenity": "veterinary",
        "contact:mobile": "+55 11 94527 3975",
        "contact:phone": "+55 11 4317 1780",
        "email": "contato@primeabcvet.com.br",
        "name": "Prime ABC  Vet",
        "opening_hours": "24/7",
        "phone": "+55 11 4317 5300",
        "website": "https://primeabcvet.com.br/",
        "id": "node/3007940698"
      },
      "geometry": {
        "type": "Point",
        "coordinates": [
          -46.5573933,
          -23.680869
        ]
      }
    },
    {
      "type": "Feature",
      "id": "node/6121785387",
      "properties": {
        "timestamp": "2023-10-27T01:26:48Z",
        "version": 3,
        "changeset": 143188125,
        "addr:housenumber": "140",
        "addr:street": "Rua Municipal",
        "amenity": "veterinary",
        "contact:phone": "+55 11 4930 4561",
        "name": "Cão Bernardo Hospital Veterinário",
        "opening_hours": "24/7",
        "phone": "+55 11 4390 4551",
        "website": "https://caobernardo.com.br/",
        "id": "node/6121785387"
      },
      "geometry": {
        "type": "Point",
        "coordinates": [
          -46.5490496,
          -23.7115936
        ]
      }
    },
    {
      "type": "Feature",
      "id": "node/6858711549",
      "properties": {
        "timestamp": "2019-10-07T18:50:44Z",
        "version": 1,
        "changeset": 75390503,
        "addr:street": "Rua João Pessoa",
        "amenity": "veterinary",
        "contact:phone": "+55 11 2831 3989",
        "name": "Clínica Veterinária Dr. Carlyle",
        "phone": "+55 11 4125 7004",
        "id": "node/6858711549"
      },
      "geometry": {
        "type": "Point",
        "coordinates": [
          -46.5487505,
          -23.7099366
        ]
      }
    },
    {
      "type": "Feature",
      "id": "node/9190969609",
      "properties": {
        "timestamp": "2023-10-27T01:26:54Z",
        "version": 3,
        "changeset": 143188129,
        "addr:housenumber": "539",
        "addr:street": "Alameda Dona Tereza Cristina",
        "addr:suburb": "Nova Petrópolis",
        "amenity": "veterinary",
        "contact:mobile": "+55 11 96830 1385",
        "email": "contato@amitypet.com.br",
        "name": "Amity Pet",
        "phone": "+55 11 2833 2450",
        "website": "https://amitypet.com.br/",
        "id": "node/9190969609"
      },
      "geometry": {
        "type": "Point",
        "coordinates": [
          -46.5458616,
          -23.706543
        ]
      }
    },
    {
      "type": "Feature",
      "id": "node/9856985698",
      "properties": {
        "timestamp": "2022-06-30T01:18:44Z",
        "version": 1,
        "changeset": 123023720,
        "addr:street": "Avenida Kennedy",
        "amenity": "veterinary",
        "name": "Clínica Veterinária Kennedy",
        "id": "node/9856985698"
      },
      "geometry": {
        "type": "Point",
        "coordinates": [
          -46.559701,
          -23.6881035
        ]
      }
    },
    {
      "type": "Feature",
      "id": "node/10722411674",
      "properties": {
        "timestamp": "2023-03-08T23:49:32Z",
        "version": 1,
        "changeset": 133459340,
        "addr:street": "Rua Djalma Dutra",
        "addr:suburb": "Centro",
        "amenity": "veterinary",
        "id": "node/10722411674"
      },
      "geometry": {
        "type": "Point",
        "coordinates": [
          -46.554099,
          -23.7033717
        ]
      }
    },
    {
      "type": "Feature",
      "id": "node/10936504711",
      "properties": {
        "timestamp": "2023-06-07T20:18:38Z",
        "version": 2,
        "changeset": 137070736,
        "addr:housenumber": "431",
        "addr:postcode": "09750-000",
        "addr:street": "Avenida Lucas Nogueira Garcez",
        "addr:suburb": "Jardim do Mar",
        "amenity": "veterinary",
        "email": "contato@hospitalarbol.com.br",
        "name": "Árbol Hospital Veterinário",
        "website": "https://hospitalarbol.com.br/",
        "id": "node/10936504711"
      },
      "geometry": {
        "type": "Point",
        "coordinates": [
          -46.5543354,
          -23.693438
        ]
      }
    },
    {
      "type": "Feature",
      "id": "node/11589645785",
      "properties": {
        "timestamp": "2024-02-05T20:41:58Z",
        "version": 1,
        "changeset": 147109122,
        "addr:street": "Rua Secondo Modolin",
        "addr:suburb": "Vila Santa Rita de Cássia",
        "amenity": "veterinary",
        "id": "node/11589645785"
      },
      "geometry": {
        "type": "Point",
        "coordinates": [
          -46.5559912,
          -23.7153093
        ]
      }
    },
    {
      "type": "Feature",
      "id": "node/11684666066",
      "properties": {
        "timestamp": "2024-05-02T20:59:03Z",
        "version": 2,
        "changeset": 150811751,
        "addr:housenumber": "232",
        "addr:street": "Rua Wadia Jafet Assad",
        "addr:suburb": "Vila Flora",
        "amenity": "veterinary",
        "email": "petshopgpet@gmail.com",
        "name": "Dra. Amanda Veterinária",
        "opening_hours": "Tu-Fr 09:00-17:00, Sa 09:00-15:00; PH off; May 18-27 off",
        "operator": "Amanda Garcia Panangeiro",
        "id": "node/11684666066"
      },
      "geometry": {
        "type": "Point",
        "coordinates": [
          -46.570424,
          -23.7273807
        ]
      }
    }
  ]
}
