{
  "type": "FeatureCollection",
  "features": [
    {
      "type": "Feature",
      "id": "way/1038270569",
      "properties": {
        "timestamp": "2022-03-08T14:30:43Z",
        "version": 1,
        "changeset": 118239093,
        "addr:city": "Tupirama",
        "addr:postcode": "77704-000",
        "addr:street": "Rua Abraão Aguiar",
        "addr:suburb": "Centro",
        "amenity": "school",
        "name": "Escola Estadual Girassol De Tempo Integral Maria Da Gloria",
        "phone": "+55 63 3497 1134",
        "id": "way/1038270569"
      },
      "geometry": {
        "type": "Polygon",
        "coordinates": [
          [
            [
              -48.1915082,
              -8.9748169
            ],
            [
              -48.1912158,
              -8.9750977
            ],
            [
              -48.1908859,
              -8.9746765
            ],
            [
              -48.1911649,
              -8.9744672
            ],
            [
              -48.1915082,
              -8.9748169
            ]
          ]
        ]
      }
    },
    {
      "type": "Feature",
      "id": "way/1038270570",
      "properties": {
        "timestamp": "2022-03-08T14:30:43Z",
        "version": 1,
        "changeset": 118239093,
        "addr:city": "Tupirama",
        "addr:postcode": "Tupirama",
        "addr:street": "Rua 06",
        "addr:suburb": "Setor Novo Horizonte",
        "amenity": "school",
        "name": "Escola Municipal Maria Jose Alves Miranda",
        "phone": "+55 63 3497 1162",
        "id": "way/1038270570"
      },
      "geometry": {
        "type": "Polygon",
        "coordinates": [
          [
            [
              -48.1875248,
              -8.9781692
            ],
            [
              -48.187541,
              -8.9787708
            ],
            [
              -48.1867166,
              -8.9788646
            ],
            [
              -48.1866796,
              -8.9781852
            ],
            [
              -48.1875248,
              -8.9781692
            ]
          ]
        ]
      }
    },
    {
      "type": "Feature",
      "id": "node/9562761331",
      "properties": {
        "timestamp": "2022-03-08T14:30:43Z",
        "version": 1,
        "changeset": 118239093,
        "addr:city": "Tupirama",
        "addr:postcode": "77704-000",
        "addr:street": "Avenida Antônio Primo Lacerda",
        "addr:suburb": "Centro",
        "amenity": "school",
        "name": "Creche Municipal Anaides Brito Miranda",
        "id": "node/9562761331"
      },
      "geometry": {
        "type": "Point",
        "coordinates": [
          -48.1896038,
          -8.9742314
        ]
      }
    }
  ]
}
