{
  "type": "FeatureCollection",
  "features": [
    {
      "type": "Feature",
      "id": "way/929465082",
      "properties": {
        "timestamp": "2021-04-12T02:14:21Z",
        "version": 1,
        "changeset": 102762925,
        "addr:street": "Rua 14 de Setembro",
        "amenity": "school",
        "name": "EMEF Novo Saber",
        "id": "way/929465082"
      },
      "geometry": {
        "type": "Polygon",
        "coordinates": [
          [
            [
              -40.3282949,
              -19.2722844
            ],
            [
              -40.3286708,
              -19.27256
            ],
            [
              -40.3286568,
              -19.2725776
            ],
            [
              -40.3286965,
              -19.2726129
            ],
            [
              -40.3286475,
              -19.2726614
            ],
            [
              -40.3287082,
              -19.2727098
            ],
            [
              -40.3285984,
              -19.2728465
            ],
            [
              -40.3288109,
              -19.2730162
            ],
            [
              -40.3286078,
              -19.2732631
            ],
            [
              -40.3284677,
              -19.2731551
            ],
            [
              -40.3282762,
              -19.2730096
            ],
            [
              -40.3285401,
              -19.2727187
            ],
            [
              -40.3285214,
              -19.2727275
            ],
            [
              -40.3282995,
              -19.2725666
            ],
            [
              -40.3282715,
              -19.2725864
            ],
            [
              -40.3281805,
              -19.2725181
            ],
            [
              -40.3282038,
              -19.2724916
            ],
            [
              -40.3281384,
              -19.2724564
            ],
            [
              -40.3282949,
              -19.2722844
            ]
          ]
        ]
      }
    },
    {
      "type": "Feature",
      "id": "node/4024904438",
      "properties": {
        "timestamp": "2016-02-25T01:59:21Z",
        "version": 1,
        "changeset": 37426154,
        "IJSN:administra": "Municipal",
        "IJSN:classeCnae": "Fundamental",
        "addr:city": "Rio Bananal",
        "addr:postcode": "29920-000",
        "addr:suburb": "Comunidade Panorama",
        "alt_name": "Escola Comunitária Rural Municipal de Ensino Fundamental",
        "amenity": "school",
        "contact:phone": "(27) 3265-1176",
        "name": "ECRMEF Panorama",
        "source": "IJSN",
        "id": "node/4024904438"
      },
      "geometry": {
        "type": "Point",
        "coordinates": [
          -40.3597745,
          -19.3190896
        ]
      }
    },
    {
      "type": "Feature",
      "id": "node/4024904485",
      "properties": {
        "timestamp": "2016-02-25T01:59:29Z",
        "version": 1,
        "changeset": 37426154,
        "IJSN:administra": "Estadual",
        "IJSN:classeCnae": "Fundamental e Médio",
        "addr:city": "Rio Bananal",
        "addr:housenumber": "50",
        "addr:postcode": "29920-000",
        "addr:street": "Rua Padre Alessandro Ferloni",
        "addr:suburb": "Santo Antônio",
        "alt_name": "Escola Estadual de Ensino Fundamental e Médio",
        "amenity": "school",
        "contact:phone": "(27) 3265-1921",
        "name": "EEEFM Bananal",
        "source": "IJSN",
        "id": "node/4024904485"
      },
      "geometry": {
        "type": "Point",
        "coordinates": [
          -40.3283559,
          -19.2719783
        ]
      }
    },
    {
      "type": "Feature",
      "id": "node/4024905070",
      "properties": {
        "timestamp": "2016-02-25T02:00:00Z",
        "version": 1,
        "changeset": 37426154,
        "IJSN:administra": "Privada",
        "IJSN:classeCnae": "Fundamental",
        "addr:city": "Rio Bananal",
        "addr:postcode": "29920-000",
        "addr:suburb": "Comunidade São Geraldo",
        "alt_name": "Escola Família Agrícola",
        "amenity": "school",
        "contact:phone": "(27) 3265-2222",
        "name": "EFA de Rio Bananal",
        "source": "IJSN",
        "id": "node/4024905070"
      },
      "geometry": {
        "type": "Point",
        "coordinates": [
          -40.3031824,
          -19.2595342
        ]
      }
    },
    {
      "type": "Feature",
      "id": "node/4024905628",
      "properties": {
        "timestamp": "2016-02-25T02:00:43Z",
        "version": 1,
        "changeset": 37426154,
        "IJSN:administra": "Municipal",
        "IJSN:classeCnae": "Fundamental",
        "addr:city": "Rio Bananal",
        "addr:housenumber": "132",
        "addr:postcode": "29920-000",
        "addr:street": "Praça João Casagrande",
        "addr:suburb": "São Sebastião",
        "alt_name": "Escola Municipal de Ensino Fundamental",
        "amenity": "school",
        "contact:phone": "(27) 3265-1973",
        "name": "EMEF Novo Saber",
        "source": "IJSN",
        "id": "node/4024905628"
      },
      "geometry": {
        "type": "Point",
        "coordinates": [
          -40.3283711,
          -19.2724556
        ]
      }
    },
    {
      "type": "Feature",
      "id": "node/4024905727",
      "properties": {
        "timestamp": "2016-02-25T02:00:59Z",
        "version": 1,
        "changeset": 37426154,
        "IJSN:administra": "Municipal",
        "IJSN:classeCnae": "Fundamental",
        "addr:city": "Rio Bananal",
        "addr:postcode": "29920-000",
        "addr:street": "Avenida Jorge Torres",
        "addr:suburb": "Distrito de São Jorge do Tiradentes",
        "alt_name": "Escola Municipal de Ensino Fundamental",
        "amenity": "school",
        "contact:phone": "(27) 3265-6164",
        "name": "EMEF Tiradentes",
        "source": "IJSN",
        "id": "node/4024905727"
      },
      "geometry": {
        "type": "Point",
        "coordinates": [
          -40.3614493,
          -19.1212765
        ]
      }
    },
    {
      "type": "Feature",
      "id": "node/4024905904",
      "properties": {
        "timestamp": "2016-02-25T02:01:12Z",
        "version": 1,
        "changeset": 37426154,
        "IJSN:administra": "Municipal",
        "IJSN:classeCnae": "Infantil e Fundamental",
        "addr:city": "Rio Bananal",
        "addr:postcode": "29920-000",
        "addr:street": "Vila São Francisco",
        "addr:suburb": "Comunidade Córrego São Francisco",
        "alt_name": "Escola Municipal de Ensino Infantil e Fundamental",
        "amenity": "school",
        "contact:phone": "(27) 9922-1761",
        "name": "EMEIEF José Stefenoni",
        "source": "IJSN",
        "id": "node/4024905904"
      },
      "geometry": {
        "type": "Point",
        "coordinates": [
          -40.2734041,
          -19.3084063
        ]
      }
    },
    {
      "type": "Feature",
      "id": "node/4024905932",
      "properties": {
        "timestamp": "2016-02-25T02:01:16Z",
        "version": 1,
        "changeset": 37426154,
        "IJSN:administra": "Municipal",
        "IJSN:classeCnae": "Infantil e Fundamental",
        "addr:city": "Rio Bananal",
        "addr:postcode": "29920-000",
        "addr:suburb": "Comunidade Córrego Primavera",
        "alt_name": "Escola Municipal de Ensino Infantil e Fundamental",
        "amenity": "school",
        "name": "EMEIEF Primavera",
        "source": "IJSN",
        "id": "node/4024905932"
      },
      "geometry": {
        "type": "Point",
        "coordinates": [
          -40.3532014,
          -19.2255383
        ]
      }
    },
    {
      "type": "Feature",
      "id": "node/4024905970",
      "properties": {
        "timestamp": "2016-02-25T02:01:23Z",
        "version": 1,
        "changeset": 37426154,
        "IJSN:administra": "Municipal",
        "IJSN:classeCnae": "Infantil e Fundamental",
        "addr:city": "Rio Bananal",
        "addr:postcode": "29920-000",
        "addr:suburb": "Córrego Capivara",
        "alt_name": "Escola Municipal de Ensino Infantil Pluridocente e Ensino Fundamental",
        "amenity": "school",
        "name": "EMEIPEF Córrego Capivara",
        "source": "IJSN",
        "id": "node/4024905970"
      },
      "geometry": {
        "type": "Point",
        "coordinates": [
          -40.2569815,
          -19.2171558
        ]
      }
    },
    {
      "type": "Feature",
      "id": "node/4024905971",
      "properties": {
        "timestamp": "2016-02-25T02:01:23Z",
        "version": 1,
        "changeset": 37426154,
        "IJSN:administra": "Municipal",
        "IJSN:classeCnae": "Infantil e Fundamental",
        "addr:city": "Rio Bananal",
        "addr:postcode": "29920-000",
        "addr:suburb": "Comunidade Córrego Santa Rita",
        "alt_name": "Escola Municipal de Ensino Infantil Pluridocente e Ensino Fundamental",
        "amenity": "school",
        "contact:phone": "(27) 3265-1176",
        "name": "EMEIPEF Córrego Santa Rita",
        "source": "IJSN",
        "id": "node/4024905971"
      },
      "geometry": {
        "type": "Point",
        "coordinates": [
          -40.2812536,
          -19.1884701
        ]
      }
    },
    {
      "type": "Feature",
      "id": "node/4024905972",
      "properties": {
        "timestamp": "2016-02-25T02:01:23Z",
        "version": 1,
        "changeset": 37426154,
        "IJSN:administra": "Municipal",
        "IJSN:classeCnae": "Infantil e Fundamental",
        "addr:city": "Rio Bananal",
        "addr:postcode": "29920-000",
        "addr:suburb": "Comunidade Córrgeo São Bento",
        "alt_name": "Escola Municipal de Ensino Infantil Unidocente e Ensino Fundamental",
        "amenity": "school",
        "name": "EMEIUEF Córrego São Bento",
        "source": "IJSN",
        "id": "node/4024905972"
      },
      "geometry": {
        "type": "Point",
        "coordinates": [
          -40.2412301,
          -19.3129777
        ]
      }
    },
    {
      "type": "Feature",
      "id": "node/4024905973",
      "properties": {
        "timestamp": "2016-02-25T02:01:23Z",
        "version": 1,
        "changeset": 37426154,
        "IJSN:administra": "Municipal",
        "IJSN:classeCnae": "Infantil e Fundamental",
        "addr:city": "Rio Bananal",
        "addr:postcode": "29920-000",
        "addr:suburb": "Comunidade São Jacinto",
        "alt_name": "Escola Municipal de Ensino Infantil Unidocente e Ensino Fundamental",
        "amenity": "school",
        "name": "EMEIUEF São Jacinto",
        "source": "IJSN",
        "id": "node/4024905973"
      },
      "geometry": {
        "type": "Point",
        "coordinates": [
          -40.2978358,
          -19.3517141
        ]
      }
    },
    {
      "type": "Feature",
      "id": "node/4024905974",
      "properties": {
        "timestamp": "2016-02-25T02:01:23Z",
        "version": 1,
        "changeset": 37426154,
        "IJSN:administra": "Municipal",
        "IJSN:classeCnae": "Infantil e Fundamental",
        "addr:city": "Rio Bananal",
        "addr:postcode": "29920-000",
        "addr:suburb": "Córrego São Sebastião do Lacrimal",
        "alt_name": "Escola Municipal de Ensino Infantil Unidocente e Ensino Fundamental",
        "amenity": "school",
        "name": "EMEIUEF São Sebastião do Lacrimal",
        "source": "IJSN",
        "id": "node/4024905974"
      },
      "geometry": {
        "type": "Point",
        "coordinates": [
          -40.2581246,
          -19.1290662
        ]
      }
    },
    {
      "type": "Feature",
      "id": "node/4024906108",
      "properties": {
        "timestamp": "2016-02-25T02:01:29Z",
        "version": 1,
        "changeset": 37426154,
        "IJSN:administra": "Municipal",
        "IJSN:classeCnae": "Fundamental",
        "addr:city": "Rio Bananal",
        "addr:postcode": "29920-000",
        "addr:suburb": "Comunidade Córrego São Paulo",
        "alt_name": "Escola Municipal Pluridocente de Ensino Fundamental",
        "amenity": "school",
        "name": "EMPEF Córrego São Paulo",
        "source": "IJSN",
        "id": "node/4024906108"
      },
      "geometry": {
        "type": "Point",
        "coordinates": [
          -40.3427303,
          -19.1760857
        ]
      }
    },
    {
      "type": "Feature",
      "id": "node/4024906122",
      "properties": {
        "timestamp": "2016-02-25T02:01:31Z",
        "version": 1,
        "changeset": 37426154,
        "IJSN:administra": "Municipal",
        "IJSN:classeCnae": "Fundamental",
        "addr:city": "Rio Bananal",
        "addr:postcode": "29920-000",
        "addr:street": "Fazenda Pezzim",
        "addr:suburb": "Fazenda Pezzim",
        "alt_name": "Escola Municipal Pluridocente de Ensino Fundamental",
        "amenity": "school",
        "name": "EMPEF Fazenda Pezzim",
        "source": "IJSN",
        "id": "node/4024906122"
      },
      "geometry": {
        "type": "Point",
        "coordinates": [
          -40.3655892,
          -19.2885834
        ]
      }
    },
    {
      "type": "Feature",
      "id": "node/4024906210",
      "properties": {
        "timestamp": "2016-02-25T02:01:45Z",
        "version": 1,
        "changeset": 37426154,
        "IJSN:administra": "Municipal",
        "IJSN:classeCnae": "Fundamental",
        "addr:city": "Rio Bananal",
        "addr:postcode": "29920-000",
        "addr:suburb": "Comunidade Alto Bananal",
        "alt_name": "Escola Municipal Unidocente de Ensino Fundamental",
        "amenity": "school",
        "name": "EMUEF Alto Bananal",
        "source": "IJSN",
        "id": "node/4024906210"
      },
      "geometry": {
        "type": "Point",
        "coordinates": [
          -40.4161378,
          -19.2357951
        ]
      }
    },
    {
      "type": "Feature",
      "id": "node/4024906227",
      "properties": {
        "timestamp": "2016-02-25T02:01:47Z",
        "version": 1,
        "changeset": 37426154,
        "IJSN:administra": "Municipal",
        "IJSN:classeCnae": "Fundamental",
        "addr:city": "Rio Bananal",
        "addr:postcode": "29920-000",
        "addr:suburb": "Comunidade Barra do Córrego Primavera",
        "alt_name": "Escola Municipal Unidocente de Ensino Fundamental",
        "amenity": "school",
        "name": "EMUEF Barra do Córrego Primavera",
        "source": "IJSN",
        "id": "node/4024906227"
      },
      "geometry": {
        "type": "Point",
        "coordinates": [
          -40.3650202,
          -19.25395
        ]
      }
    },
    {
      "type": "Feature",
      "id": "node/4024906232",
      "properties": {
        "timestamp": "2016-02-25T02:01:48Z",
        "version": 1,
        "changeset": 37426154,
        "IJSN:administra": "Municipal",
        "IJSN:classeCnae": "Fundamental",
        "addr:city": "Rio Bananal",
        "addr:postcode": "29920-000",
        "addr:suburb": "Comunidade Córrego da Penha",
        "alt_name": "Escola Municipal Unidocente de Ensino Fundamental",
        "amenity": "school",
        "name": "EMUEF Bom Jesus da Lapa",
        "source": "IJSN",
        "id": "node/4024906232"
      },
      "geometry": {
        "type": "Point",
        "coordinates": [
          -40.2987369,
          -19.1019247
        ]
      }
    },
    {
      "type": "Feature",
      "id": "node/4024906254",
      "properties": {
        "timestamp": "2016-02-25T02:01:52Z",
        "version": 1,
        "changeset": 37426154,
        "IJSN:administra": "Municipal",
        "IJSN:classeCnae": "Fundamental",
        "addr:city": "Rio Bananal",
        "addr:postcode": "29920-000",
        "addr:suburb": "Comunidade Córrego Alegre",
        "alt_name": "Escola Municipal Unidocente de Ensino Fundamental",
        "amenity": "school",
        "name": "EMUEF Córrego Alegre",
        "source": "IJSN",
        "id": "node/4024906254"
      },
      "geometry": {
        "type": "Point",
        "coordinates": [
          -40.2877689,
          -19.2122477
        ]
      }
    },
    {
      "type": "Feature",
      "id": "node/4024906255",
      "properties": {
        "timestamp": "2016-02-25T02:01:52Z",
        "version": 1,
        "changeset": 37426154,
        "IJSN:administra": "Municipal",
        "IJSN:classeCnae": "Fundamental",
        "addr:city": "Rio Bananal",
        "addr:postcode": "29920-000",
        "addr:suburb": "Comunidade Varjão",
        "alt_name": "Escola Municipal Unidocente de Ensino Fundamental",
        "amenity": "school",
        "name": "EMUEF Córrego Bananal",
        "source": "IJSN",
        "id": "node/4024906255"
      },
      "geometry": {
        "type": "Point",
        "coordinates": [
          -40.2164246,
          -19.2539954
        ]
      }
    },
    {
      "type": "Feature",
      "id": "node/4024906257",
      "properties": {
        "timestamp": "2023-01-04T18:23:38Z",
        "version": 2,
        "changeset": 130877935,
        "IJSN:administra": "Municipal",
        "IJSN:classeCnae": "Fundamental",
        "addr:city": "Rio Bananal",
        "addr:postcode": "29200-000",
        "addr:suburb": "Córrego da Penha",
        "alt_name": "Escola Municipal Unidocente de Ensino Fundamental",
        "amenity": "school",
        "name": "EMUEF Córrego Cedro",
        "source": "IJSN",
        "id": "node/4024906257"
      },
      "geometry": {
        "type": "Point",
        "coordinates": [
          -40.2809828,
          -19.0994262
        ]
      }
    },
    {
      "type": "Feature",
      "id": "node/4024906258",
      "properties": {
        "timestamp": "2016-02-25T02:01:52Z",
        "version": 1,
        "changeset": 37426154,
        "IJSN:administra": "Municipal",
        "IJSN:classeCnae": "Fundamental",
        "addr:city": "Rio Bananal",
        "addr:postcode": "29920-000",
        "addr:suburb": "Comunidade Córrego Dez de Fevereiro",
        "alt_name": "Escola Municipal Unidocente de Ensino Fundamental",
        "amenity": "school",
        "name": "EMUEF Córrego Dez de Fevereiro",
        "source": "IJSN",
        "id": "node/4024906258"
      },
      "geometry": {
        "type": "Point",
        "coordinates": [
          -40.3427675,
          -19.3286301
        ]
      }
    },
    {
      "type": "Feature",
      "id": "node/4024906260",
      "properties": {
        "timestamp": "2016-02-25T02:01:52Z",
        "version": 1,
        "changeset": 37426154,
        "IJSN:administra": "Municipal",
        "IJSN:classeCnae": "Fundamental",
        "addr:city": "Rio Bananal",
        "addr:postcode": "29920-000",
        "addr:suburb": "Comunidade Córrego Gabriel Emílio",
        "alt_name": "Escola Municipal Unidocente de Ensino Fundamental",
        "amenity": "school",
        "name": "EMUEF Córrego Gabriel Emílio",
        "source": "IJSN",
        "id": "node/4024906260"
      },
      "geometry": {
        "type": "Point",
        "coordinates": [
          -40.3237461,
          -19.3464857
        ]
      }
    },
    {
      "type": "Feature",
      "id": "node/4024906262",
      "properties": {
        "timestamp": "2016-02-25T02:01:53Z",
        "version": 1,
        "changeset": 37426154,
        "IJSN:administra": "Municipal",
        "IJSN:classeCnae": "Fundamental",
        "addr:city": "Rio Bananal",
        "addr:postcode": "29920-000",
        "addr:suburb": "Córrego Lacrimal",
        "alt_name": "Escola Municipal Unidocente de Ensino Fundamental",
        "amenity": "school",
        "name": "EMUEF Córrego Lacrimal",
        "source": "IJSN",
        "id": "node/4024906262"
      },
      "geometry": {
        "type": "Point",
        "coordinates": [
          -40.263208,
          -19.1513048
        ]
      }
    },
    {
      "type": "Feature",
      "id": "node/4024906271",
      "properties": {
        "timestamp": "2016-02-25T02:01:54Z",
        "version": 1,
        "changeset": 37426154,
        "IJSN:administra": "Municipal",
        "IJSN:classeCnae": "Fundamental",
        "addr:city": "Rio Bananal",
        "addr:postcode": "29920-000",
        "addr:suburb": "Comunidade Córrego São Vicente",
        "alt_name": "Escola Municipal Unidocente de Ensino Fundamental",
        "amenity": "school",
        "name": "EMUEF Córrego São Vicente",
        "source": "IJSN",
        "id": "node/4024906271"
      },
      "geometry": {
        "type": "Point",
        "coordinates": [
          -40.3102365,
          -19.2312179
        ]
      }
    },
    {
      "type": "Feature",
      "id": "node/4024906283",
      "properties": {
        "timestamp": "2016-02-25T02:01:56Z",
        "version": 1,
        "changeset": 37426154,
        "IJSN:administra": "Municipal",
        "IJSN:classeCnae": "Fundamental",
        "addr:city": "Rio Bananal",
        "addr:postcode": "29920-000",
        "addr:suburb": "Comunidade Córrego da Penha",
        "alt_name": "Escola Municipal Unidocente de Ensino Fundamental",
        "amenity": "school",
        "name": "EMUEF Córrego da Penha",
        "source": "IJSN",
        "id": "node/4024906283"
      },
      "geometry": {
        "type": "Point",
        "coordinates": [
          -40.309044,
          -19.1341255
        ]
      }
    },
    {
      "type": "Feature",
      "id": "node/4024906298",
      "properties": {
        "timestamp": "2016-02-25T02:01:58Z",
        "version": 1,
        "changeset": 37426154,
        "IJSN:administra": "Municipal",
        "IJSN:classeCnae": "Fundamental",
        "addr:city": "Rio Bananal",
        "addr:postcode": "29920-000",
        "addr:street": "Fazenda Boa Sorte",
        "addr:suburb": "Fazenda Boa Sorte",
        "alt_name": "Escola Municipal Unidocente de Ensino Fundamental",
        "amenity": "school",
        "name": "EMUEF Fazenda Boa Sorte",
        "source": "IJSN",
        "id": "node/4024906298"
      },
      "geometry": {
        "type": "Point",
        "coordinates": [
          -40.2975298,
          -19.1626358
        ]
      }
    },
    {
      "type": "Feature",
      "id": "node/4024906301",
      "properties": {
        "timestamp": "2016-02-25T02:01:58Z",
        "version": 1,
        "changeset": 37426154,
        "IJSN:administra": "Municipal",
        "IJSN:classeCnae": "Fundamental",
        "addr:city": "Rio Bananal",
        "addr:postcode": "29920-000",
        "addr:street": "Fazenda Clarice",
        "addr:suburb": "Fazenda Clarice",
        "alt_name": "Escola Municipal Unidocente de Ensino Fundamental",
        "amenity": "school",
        "name": "EMUEF Fazenda Clarice",
        "source": "IJSN",
        "id": "node/4024906301"
      },
      "geometry": {
        "type": "Point",
        "coordinates": [
          -40.1985802,
          -19.258046
        ]
      }
    },
    {
      "type": "Feature",
      "id": "node/4024906302",
      "properties": {
        "timestamp": "2016-02-25T02:01:58Z",
        "version": 1,
        "changeset": 37426154,
        "IJSN:administra": "Municipal",
        "IJSN:classeCnae": "Fundamental",
        "addr:city": "Rio Bananal",
        "addr:postcode": "29920-000",
        "addr:street": "Fazenda Iriritimirim",
        "addr:suburb": "Comunidade Córrego Iriritimirim",
        "alt_name": "Escola Municipal Unidocente de Ensino Fundamental",
        "amenity": "school",
        "name": "EMUEF Fazenda Iriritimirim",
        "source": "IJSN",
        "id": "node/4024906302"
      },
      "geometry": {
        "type": "Point",
        "coordinates": [
          -40.4042464,
          -19.3134899
        ]
      }
    },
    {
      "type": "Feature",
      "id": "node/4024906305",
      "properties": {
        "timestamp": "2016-02-25T02:01:59Z",
        "version": 1,
        "changeset": 37426154,
        "IJSN:administra": "Municipal",
        "IJSN:classeCnae": "Fundamental",
        "addr:city": "Rio Bananal",
        "addr:postcode": "29920-000",
        "addr:street": "Fazenda Ronchetti",
        "addr:suburb": "Fazenda Ronchetti",
        "alt_name": "Escola Municipal Unidocente de Ensino Fundamental",
        "amenity": "school",
        "name": "EMUEF Fazenda Ronchetti",
        "source": "IJSN",
        "id": "node/4024906305"
      },
      "geometry": {
        "type": "Point",
        "coordinates": [
          -40.2173194,
          -19.3073416
        ]
      }
    },
    {
      "type": "Feature",
      "id": "node/4024906352",
      "properties": {
        "timestamp": "2016-02-25T02:02:06Z",
        "version": 1,
        "changeset": 37426154,
        "IJSN:administra": "Municipal",
        "IJSN:classeCnae": "Fundamental",
        "addr:city": "Rio Bananal",
        "addr:postcode": "29920-000",
        "addr:suburb": "Comunidade Tiradentes",
        "alt_name": "Escola Municipal Unidocente de Ensino Fundamental",
        "amenity": "school",
        "name": "EMUEF Patrimônio do Tiradentes",
        "source": "IJSN",
        "id": "node/4024906352"
      },
      "geometry": {
        "type": "Point",
        "coordinates": [
          -40.392881,
          -19.1798234
        ]
      }
    },
    {
      "type": "Feature",
      "id": "node/4024906378",
      "properties": {
        "timestamp": "2016-02-25T02:02:10Z",
        "version": 1,
        "changeset": 37426154,
        "IJSN:administra": "Municipal",
        "IJSN:classeCnae": "Fundamental",
        "addr:city": "Rio Bananal",
        "addr:postcode": "29920-000",
        "addr:suburb": "Comunidade Santa Emília",
        "alt_name": "Escola Municipal Unidocente de Ensino Fundamental",
        "amenity": "school",
        "name": "EMUEF Santa Emília",
        "source": "IJSN",
        "id": "node/4024906378"
      },
      "geometry": {
        "type": "Point",
        "coordinates": [
          -40.2120525,
          -19.1843608
        ]
      }
    },
    {
      "type": "Feature",
      "id": "node/4024906597",
      "properties": {
        "timestamp": "2016-02-25T02:02:13Z",
        "version": 1,
        "changeset": 37426154,
        "IJSN:administra": "Municipal",
        "IJSN:classeCnae": "Fundamental",
        "addr:city": "Rio Bananal",
        "addr:postcode": "29920-000",
        "addr:suburb": "Comunidade Córrego do Veado",
        "alt_name": "Escola Municipal Unidocente de Ensino Fundamental",
        "amenity": "school",
        "name": "EMUEF São Judas Tadeu",
        "source": "IJSN",
        "id": "node/4024906597"
      },
      "geometry": {
        "type": "Point",
        "coordinates": [
          -40.2461269,
          -19.1916146
        ]
      }
    },
    {
      "type": "Feature",
      "id": "node/4024906613",
      "properties": {
        "timestamp": "2016-02-25T02:02:15Z",
        "version": 1,
        "changeset": 37426154,
        "IJSN:administra": "Municipal",
        "IJSN:classeCnae": "Fundamental",
        "addr:city": "Rio Bananal",
        "addr:postcode": "29920-000",
        "addr:street": "Fazenda Ronchette",
        "addr:suburb": "Comunidade Bananalzinho",
        "alt_name": "Escola Municipal Unidocente de Ensino Fundamental",
        "amenity": "school",
        "name": "EMUEF Vitório Bachette",
        "source": "IJSN",
        "id": "node/4024906613"
      },
      "geometry": {
        "type": "Point",
        "coordinates": [
          -40.3941886,
          -19.2600798
        ]
      }
    }
  ]
}
