{
  "type": "FeatureCollection",
  "features": [
    {
      "type": "Feature",
      "id": "way/386045832",
      "properties": {
        "timestamp": "2024-11-23T13:59:45Z",
        "version": 7,
        "changeset": 159501079,
        "addr:city": "Balneário Piçarras",
        "addr:housenumber": "318",
        "addr:postcode": "88380-000",
        "addr:street": "Avenida Sambaqui",
        "addr:suburb": "Santo Antônio",
        "alt_name": "Universidade do Vale do Itajaí Balneário Piçarras",
        "amenity": "university",
        "name": "Univali Balneário Piçarras",
        "phone": "+55 47 3345 2020",
        "source": "survey",
        "wikipedia": "pt:Universidade do Vale do Itajaí",
        "id": "way/386045832"
      },
      "geometry": {
        "type": "Polygon",
        "coordinates": [
          [
            [
              -48.6874947,
              -26.753692
            ],
            [
              -48.688381,
              -26.7539716
            ],
            [
              -48.687759,
              -26.7552494
            ],
            [
              -48.6869012,
              -26.7549372
            ],
            [
              -48.6874947,
              -26.753692
            ]
          ]
        ]
      }
    }
  ]
}
