{
  "type": "FeatureCollection",
  "features": [
    {
      "type": "Feature",
      "id": "way/654088904",
      "properties": {
        "timestamp": "2024-10-17T14:51:18Z",
        "version": 3,
        "changeset": 158012241,
        "addr:city": "Marília",
        "addr:housenumber": "1450",
        "addr:postcode": "17520-080",
        "addr:street": "Avenida Reverendo Álvaro Simões",
        "addr:suburb": "Fragata",
        "amenity": "kindergarten",
        "brunch": "Unidade 1",
        "name": "Colégio Esmeraldas",
        "phone": "+55 14 3451 1548",
        "preschool": "yes",
        "website": "https://www.colegioesmeraldas.com.br",
        "id": "way/654088904"
      },
      "geometry": {
        "type": "Polygon",
        "coordinates": [
          [
            [
              -49.924532,
              -22.2334471
            ],
            [
              -49.9242797,
              -22.2334049
            ],
            [
              -49.9244812,
              -22.2326836
            ],
            [
              -49.9247388,
              -22.2327392
            ],
            [
              -49.924532,
              -22.2334471
            ]
          ]
        ]
      }
    },
    {
      "type": "Feature",
      "id": "way/1180781439",
      "properties": {
        "timestamp": "2024-10-17T14:51:18Z",
        "version": 3,
        "changeset": 158012241,
        "addr:city": "Marília",
        "addr:housenumber": "817",
        "addr:postcode": "17521-450",
        "addr:street": "Avenida Joquei Clube",
        "addr:suburb": "Joquei Clube",
        "amenity": "kindergarten",
        "email": "emeiarcoiris@marilia.sp.gov.br",
        "name": "EscolaMunicipal de Educação Infantil Arco-Iris",
        "opening_hours": "Mo-Fr 08:00-17:00; PH off",
        "operator": "Secretaria da Educação",
        "operator:type": "government",
        "phone": "+55 14 3417 6721",
        "preschool": "yes",
        "short_name": "EMEI - Arco Iris",
        "website": "https://educacao.marilia.sp.gov.br/-unidadesemei/",
        "id": "way/1180781439"
      },
      "geometry": {
        "type": "Polygon",
        "coordinates": [
          [
            [
              -49.9182338,
              -22.2385563
            ],
            [
              -49.9190664,
              -22.2384703
            ],
            [
              -49.9193075,
              -22.2385731
            ],
            [
              -49.9193611,
              -22.2386916
            ],
            [
              -49.9195439,
              -22.2401428
            ],
            [
              -49.9186563,
              -22.2402309
            ],
            [
              -49.9180861,
              -22.2391207
            ],
            [
              -49.9185044,
              -22.2390703
            ],
            [
              -49.9182338,
              -22.2385563
            ]
          ]
        ]
      }
    },
    {
      "type": "Feature",
      "id": "way/1182057949",
      "properties": {
        "timestamp": "2024-10-17T14:51:18Z",
        "version": 3,
        "changeset": 158012241,
        "addr:city": "Marília",
        "addr:housenumber": "865",
        "addr:postcode": "17521-182",
        "addr:street": "Rua Alexandre Chaia",
        "addr:suburb": "Jardim Esplanada",
        "amenity": "kindergarten",
        "operator:type": "government",
        "phone": "+55 14 3417 6507",
        "preschool": "yes",
        "short_name": "EMEF Professora Reny Pereira Cordeiro",
        "id": "way/1182057949"
      },
      "geometry": {
        "type": "Polygon",
        "coordinates": [
          [
            [
              -49.9155442,
              -22.2377939
            ],
            [
              -49.9158657,
              -22.2383881
            ],
            [
              -49.9151407,
              -22.2386979
            ],
            [
              -49.9148258,
              -22.2380097
            ],
            [
              -49.9155442,
              -22.2377939
            ]
          ]
        ]
      }
    },
    {
      "type": "Feature",
      "id": "way/1183055369",
      "properties": {
        "timestamp": "2023-06-18T23:34:16Z",
        "version": 1,
        "changeset": 137495525,
        "addr:city": "Marília",
        "addr:housenumber": "72",
        "addr:postcode": "17509-200",
        "addr:street": "Rua Sargento Ananias de Oliveira",
        "amenity": "kindergarten",
        "name": "EMEI Monteiro Lobato",
        "preschool": "yes",
        "id": "way/1183055369"
      },
      "geometry": {
        "type": "Polygon",
        "coordinates": [
          [
            [
              -49.9416871,
              -22.2175535
            ],
            [
              -49.9417026,
              -22.2176108
            ],
            [
              -49.9414234,
              -22.2182262
            ],
            [
              -49.9413968,
              -22.2182507
            ],
            [
              -49.9413623,
              -22.2182534
            ],
            [
              -49.9408794,
              -22.2181465
            ],
            [
              -49.9401172,
              -22.2176665
            ],
            [
              -49.9400854,
              -22.2176299
            ],
            [
              -49.9400893,
              -22.2175773
            ],
            [
              -49.9407144,
              -22.2168262
            ],
            [
              -49.9416871,
              -22.2175535
            ]
          ]
        ]
      }
    }
  ]
}
