{
  "type": "FeatureCollection",
  "features": [
    {
      "type": "Feature",
      "id": "way/973202302",
      "properties": {
        "timestamp": "2021-08-16T19:36:25Z",
        "version": 2,
        "changeset": 109769498,
        "addr:city": "Lima Duarte",
        "addr:postcode": "36140000",
        "addr:street": "Rua Tancredo Alves",
        "addr:suburb": "Centro",
        "amenity": "clinic",
        "building": "yes",
        "healthcare": "clinic",
        "name": "Policl√≠nica",
        "id": "way/973202302"
      },
      "geometry": {
        "type": "Polygon",
        "coordinates": [
          [
            [
              -43.7906111,
              -21.8402971
            ],
            [
              -43.790719,
              -21.84062
            ],
            [
              -43.790527,
              -21.8406719
            ],
            [
              -43.7904235,
              -21.8403443
            ],
            [
              -43.7906111,
              -21.8402971
            ]
          ]
        ]
      }
    }
  ]
}
