{
  "type": "FeatureCollection",
  "features": [
    {
      "type": "Feature",
      "id": "way/1229755046",
      "properties": {
        "timestamp": "2023-12-08T20:16:06Z",
        "version": 1,
        "changeset": 144916598,
        "addr:city": "Vieiras",
        "addr:housenumber": "27",
        "addr:postcode": "36893000",
        "addr:street": "Rua Paulo Renato Montezano",
        "addr:suburb": "Adolfo Rafael Fava",
        "amenity": "school",
        "name": "Centro Educacional Proinfancia Maria Ribeiro Soares",
        "id": "way/1229755046"
      },
      "geometry": {
        "type": "Polygon",
        "coordinates": [
          [
            [
              -42.2491454,
              -20.8640694
            ],
            [
              -42.2490966,
              -20.8644311
            ],
            [
              -42.2487462,
              -20.8643969
            ],
            [
              -42.2487904,
              -20.8639413
            ],
            [
              -42.2491454,
              -20.8640694
            ]
          ]
        ]
      }
    },
    {
      "type": "Feature",
      "id": "way/1229755365",
      "properties": {
        "timestamp": "2023-12-08T20:19:49Z",
        "version": 1,
        "changeset": 144916685,
        "addr:city": "Vieiras",
        "addr:housenumber": "114",
        "addr:postcode": "36895000",
        "addr:street": "Rua José Borges Filho",
        "addr:suburb": "Centro",
        "amenity": "school",
        "name": "Escola Estadual Assis Brasil",
        "id": "way/1229755365"
      },
      "geometry": {
        "type": "Polygon",
        "coordinates": [
          [
            [
              -42.2460114,
              -20.8645261
            ],
            [
              -42.2458694,
              -20.8648046
            ],
            [
              -42.2456086,
              -20.8646806
            ],
            [
              -42.2457576,
              -20.8644043
            ],
            [
              -42.2460114,
              -20.8645261
            ]
          ]
        ]
      }
    },
    {
      "type": "Feature",
      "id": "way/1229756826",
      "properties": {
        "timestamp": "2023-12-08T20:27:52Z",
        "version": 1,
        "changeset": 144916857,
        "amenity": "school",
        "name": "Escola Municipal José Soares de Souza Filho",
        "id": "way/1229756826"
      },
      "geometry": {
        "type": "Polygon",
        "coordinates": [
          [
            [
              -42.2408291,
              -20.8636472
            ],
            [
              -42.2411432,
              -20.8640899
            ],
            [
              -42.2407659,
              -20.8643818
            ],
            [
              -42.2404237,
              -20.863962
            ],
            [
              -42.2408291,
              -20.8636472
            ]
          ]
        ]
      }
    },
    {
      "type": "Feature",
      "id": "node/11401450922",
      "properties": {
        "timestamp": "2023-12-07T18:10:53Z",
        "version": 1,
        "changeset": 144876124,
        "addr:city": "Vieiras",
        "addr:housenumber": "02",
        "addr:postcode": "36895000",
        "addr:street": "Rua Antônia Lopes de Faria",
        "amenity": "school",
        "grades": "1-10",
        "name": "Escola Municipal José Soares de Souza Filho",
        "id": "node/11401450922"
      },
      "geometry": {
        "type": "Point",
        "coordinates": [
          -42.2407721,
          -20.8639159
        ]
      }
    },
    {
      "type": "Feature",
      "id": "node/11403355275",
      "properties": {
        "timestamp": "2023-12-08T14:57:41Z",
        "version": 1,
        "changeset": 144907092,
        "addr:city": "Vieiras",
        "addr:housenumber": "114",
        "addr:postcode": "36893-000",
        "addr:street": "Rua José Borges Filho",
        "addr:suburb": "Centro",
        "amenity": "school",
        "name": "Escola Estadual Assis Brasil",
        "id": "node/11403355275"
      },
      "geometry": {
        "type": "Point",
        "coordinates": [
          -42.2457651,
          -20.8645834
        ]
      }
    }
  ]
}
