{
  "type": "FeatureCollection",
  "features": [
    {
      "type": "Feature",
      "id": "way/764026932",
      "properties": {
        "timestamp": "2020-01-16T23:38:52Z",
        "version": 1,
        "changeset": 79669761,
        "amenity": "school",
        "id": "way/764026932"
      },
      "geometry": {
        "type": "Polygon",
        "coordinates": [
          [
            [
              -43.5213572,
              -9.367258
            ],
            [
              -43.5213062,
              -9.367393
            ],
            [
              -43.521266,
              -9.3673798
            ],
            [
              -43.5212177,
              -9.3675677
            ],
            [
              -43.5210112,
              -9.3674989
            ],
            [
              -43.5210997,
              -9.3671734
            ],
            [
              -43.5213572,
              -9.367258
            ]
          ]
        ]
      }
    },
    {
      "type": "Feature",
      "id": "node/10741726815",
      "properties": {
        "timestamp": "2023-03-17T15:00:06Z",
        "version": 1,
        "changeset": 133792047,
        "addr:city": "Campo Alegre de Lourdes",
        "addr:district": "Angico dos Dias",
        "addr:postcode": "47220-000",
        "addr:street": "Rua do Colégio",
        "addr:suburb": "Centro",
        "amenity": "school",
        "name": "Colégio Municipal Ismerindo Francisco",
        "operator": "Município de Campo Alegre de Lourdes",
        "phone": "+55 74 3533 2616",
        "id": "node/10741726815"
      },
      "geometry": {
        "type": "Point",
        "coordinates": [
          -43.3951352,
          -9.3308996
        ]
      }
    }
  ]
}
