{
  "type": "FeatureCollection",
  "features": [
    {
      "type": "Feature",
      "id": "node/6441871586",
      "properties": {
        "timestamp": "2022-06-09T02:53:10Z",
        "version": 3,
        "changeset": 122141196,
        "addr:street": "Avenida Paula Freitas",
        "amenity": "doctors",
        "healthcare": "doctor",
        "name": "Posto de Saúde do Salete",
        "opening_hours": "Mo-Fr 08:00-17:00",
        "phone": "+55 42 3522-7115",
        "id": "node/6441871586"
      },
      "geometry": {
        "type": "Point",
        "coordinates": [
          -51.0574947,
          -26.2268263
        ]
      }
    },
    {
      "type": "Feature",
      "id": "node/9620751275",
      "properties": {
        "timestamp": "2022-03-29T11:55:56Z",
        "version": 1,
        "changeset": 119066154,
        "addr:city": "União da Vitória",
        "addr:housenumber": "547",
        "addr:postcode": "84600000",
        "addr:street": "Rua Costa Carvalho",
        "addr:suburb": "centro",
        "amenity": "doctors",
        "contact:instagram": "https://www.instagram.com/dr.augustostrapassola/",
        "healthcare": "doctor",
        "healthcare:speciality": "dermatology",
        "name": "Dr. Augusto Strapassola Dermatologista",
        "opening_hours": "Mo-Fr 08:00-12:00, 13:30-18:00",
        "phone": "+55 42 3522-5856",
        "id": "node/9620751275"
      },
      "geometry": {
        "type": "Point",
        "coordinates": [
          -51.0885061,
          -26.2262081
        ]
      }
    },
    {
      "type": "Feature",
      "id": "node/11572006548",
      "properties": {
        "timestamp": "2024-01-31T05:38:12Z",
        "version": 1,
        "changeset": 146888383,
        "amenity": "doctors",
        "healthcare": "doctor",
        "healthcare:speciality": "general",
        "name": "Posto de Saude do Sagrada Familia",
        "id": "node/11572006548"
      },
      "geometry": {
        "type": "Point",
        "coordinates": [
          -51.0579167,
          -26.2267147
        ]
      }
    }
  ]
}
