{
  "type": "FeatureCollection",
  "features": [
    {
      "type": "Feature",
      "id": "way/496096851",
      "properties": {
        "timestamp": "2017-05-26T11:28:28Z",
        "version": 1,
        "changeset": 48999285,
        "amenity": "school",
        "id": "way/496096851"
      },
      "geometry": {
        "type": "Polygon",
        "coordinates": [
          [
            [
              -51.1154863,
              -26.14476
            ],
            [
              -51.1157899,
              -26.1450618
            ],
            [
              -51.1152285,
              -26.1455951
            ],
            [
              -51.1148922,
              -26.1452669
            ],
            [
              -51.1154863,
              -26.14476
            ]
          ]
        ]
      }
    },
    {
      "type": "Feature",
      "id": "way/801817858",
      "properties": {
        "timestamp": "2022-07-30T00:47:06Z",
        "version": 3,
        "changeset": 124251671,
        "addr:city": "União da Vitória",
        "addr:housenumber": "9",
        "addr:postcode": "84602-175",
        "addr:street": "Rua João Ribeiro Filho",
        "addr:suburb": "São Gabriel",
        "amenity": "school",
        "fax": "3522-2732",
        "name": "Escola Municipal Duque de Caxias",
        "operator": "Prefeitura Municipal de União da Vitória",
        "operator:type": "public",
        "phone": "+55 42 3524 7104",
        "polling_station": "yes",
        "source": "local knowledge;aerial imagery",
        "website": "http://escoladuquedecaxiasuva.blogspot.com/",
        "wheelchair": "yes",
        "id": "way/801817858"
      },
      "geometry": {
        "type": "Polygon",
        "coordinates": [
          [
            [
              -51.1215566,
              -26.2421791
            ],
            [
              -51.1210043,
              -26.2419957
            ],
            [
              -51.1212057,
              -26.2415081
            ],
            [
              -51.1217518,
              -26.2416897
            ],
            [
              -51.1215566,
              -26.2421791
            ]
          ]
        ]
      }
    },
    {
      "type": "Feature",
      "id": "way/815013751",
      "properties": {
        "timestamp": "2020-06-11T16:29:27Z",
        "version": 1,
        "changeset": 86526680,
        "addr:city": "União da Vitória",
        "addr:housenumber": "158",
        "addr:postcode": "84600-506",
        "addr:street": "Rua Expedicionários",
        "addr:suburb": "São Basílio Magno",
        "amenity": "school",
        "name": "Colégio Estadual Astolpho  Macedo Souza",
        "operator": "Secretaria do Estado da Educação - Seed-PR",
        "operator:type": "public",
        "website": "http://www.uvaastolphomacedo.seed.pr.gov.br/",
        "wheelchair": "yes",
        "id": "way/815013751"
      },
      "geometry": {
        "type": "Polygon",
        "coordinates": [
          [
            [
              -51.0926124,
              -26.2415878
            ],
            [
              -51.0922491,
              -26.2421019
            ],
            [
              -51.0913942,
              -26.2416159
            ],
            [
              -51.0917401,
              -26.2411263
            ],
            [
              -51.0917601,
              -26.241118
            ],
            [
              -51.0917863,
              -26.241118
            ],
            [
              -51.0926124,
              -26.2415878
            ]
          ]
        ]
      }
    },
    {
      "type": "Feature",
      "id": "way/905656318",
      "properties": {
        "timestamp": "2022-07-30T13:43:33Z",
        "version": 3,
        "changeset": 124268964,
        "addr:city": "União da Vitória",
        "addr:postcode": "84600-010",
        "addr:street": "Avenida Interventor Manoel Ribas",
        "addr:suburb": "São Bernardo",
        "amenity": "school",
        "grades": "7-12",
        "name": "Colégio Estadual Túlio de França",
        "nohousenumber": "yes",
        "operator": "Secretaria de Estado da Educação do Paraná",
        "operator:type": "public",
        "phone": "+55 42 3522 2393",
        "website": "http://www.uvatuliofranca.seed.pr.gov.br/",
        "id": "way/905656318"
      },
      "geometry": {
        "type": "Polygon",
        "coordinates": [
          [
            [
              -51.0939592,
              -26.2213954
            ],
            [
              -51.0943895,
              -26.2208103
            ],
            [
              -51.0950827,
              -26.2212236
            ],
            [
              -51.0949641,
              -26.2213935
            ],
            [
              -51.0951027,
              -26.2214792
            ],
            [
              -51.0949015,
              -26.2217542
            ],
            [
              -51.0948599,
              -26.2217637
            ],
            [
              -51.0939654,
              -26.2214216
            ],
            [
              -51.0939592,
              -26.2213954
            ]
          ]
        ]
      }
    },
    {
      "type": "Feature",
      "id": "way/940607653",
      "properties": {
        "timestamp": "2021-05-08T01:49:36Z",
        "version": 1,
        "changeset": 104346637,
        "addr:city": "União da Vitória",
        "addr:housenumber": "2685",
        "addr:postcode": "84601-015",
        "addr:street": "Rua Marechal Deodoro da Fonseca",
        "addr:suburb": "Rio D'Areia",
        "amenity": "school",
        "name": "Escola Lina Forte",
        "phone": "+55 42 3524-4730",
        "id": "way/940607653"
      },
      "geometry": {
        "type": "Polygon",
        "coordinates": [
          [
            [
              -51.0958759,
              -26.2540987
            ],
            [
              -51.095828,
              -26.2541883
            ],
            [
              -51.0954376,
              -26.2540201
            ],
            [
              -51.0954855,
              -26.2539307
            ],
            [
              -51.0958759,
              -26.2540987
            ]
          ]
        ]
      }
    },
    {
      "type": "Feature",
      "id": "node/4519671892",
      "properties": {
        "timestamp": "2016-11-24T23:31:12Z",
        "version": 1,
        "changeset": 43933851,
        "amenity": "school",
        "name": "Ceebja",
        "id": "node/4519671892"
      },
      "geometry": {
        "type": "Point",
        "coordinates": [
          -51.0886059,
          -26.2218531
        ]
      }
    },
    {
      "type": "Feature",
      "id": "node/4519751089",
      "properties": {
        "timestamp": "2016-11-24T23:31:19Z",
        "version": 1,
        "changeset": 43933851,
        "amenity": "school",
        "name": "Escola Municipal Vitória Fernandes",
        "id": "node/4519751089"
      },
      "geometry": {
        "type": "Point",
        "coordinates": [
          -51.0887358,
          -26.221657
        ]
      }
    },
    {
      "type": "Feature",
      "id": "node/4536836390",
      "properties": {
        "timestamp": "2016-12-04T01:10:58Z",
        "version": 1,
        "changeset": 44149141,
        "amenity": "school",
        "name": "Colégio Estadual José de Anchieta",
        "id": "node/4536836390"
      },
      "geometry": {
        "type": "Point",
        "coordinates": [
          -51.0856014,
          -26.2274627
        ]
      }
    },
    {
      "type": "Feature",
      "id": "node/11153617449",
      "properties": {
        "timestamp": "2023-08-29T16:52:01Z",
        "version": 1,
        "changeset": 140551819,
        "addr:city": "União da Vitória",
        "addr:housenumber": "2800",
        "addr:postcode": "84603-264",
        "addr:street": "Avenida Paula Freitas",
        "addr:suburb": "São Braz",
        "amenity": "school",
        "grades": "1-3 Ensino Médio",
        "name": "Instituto Federal do Paraná - Campus União da Vitória",
        "operator": "Governo Federal",
        "operator:type": "public",
        "website": "https://ifpr.edu.br/uniao-da-vitoria/",
        "id": "node/11153617449"
      },
      "geometry": {
        "type": "Point",
        "coordinates": [
          -51.0489635,
          -26.228378
        ]
      }
    },
    {
      "type": "Feature",
      "id": "node/11845854566",
      "properties": {
        "timestamp": "2024-04-25T00:51:19Z",
        "version": 1,
        "changeset": 150471500,
        "addr:street": "Av. Paula Freitas, 4385 - São Sebastião, União da Vitória - PR, 84604-000",
        "amenity": "school",
        "grades": "1-9",
        "name": "Escola Municipal Prof Miguelina Hessa Treuke",
        "id": "node/11845854566"
      },
      "geometry": {
        "type": "Point",
        "coordinates": [
          -51.0334611,
          -26.2262255
        ]
      }
    }
  ]
}
