{
  "type": "FeatureCollection",
  "features": [
    {
      "type": "Feature",
      "id": "node/3294599160",
      "properties": {
        "timestamp": "2015-01-17T14:27:32Z",
        "version": 1,
        "changeset": 28209812,
        "name": "Pousada Pequi",
        "source": "IBGE",
        "tourism": "guest_house",
        "id": "node/3294599160"
      },
      "geometry": {
        "type": "Point",
        "coordinates": [
          -43.4909302,
          -18.4159935
        ]
      }
    },
    {
      "type": "Feature",
      "id": "node/3294599561",
      "properties": {
        "timestamp": "2019-03-04T00:23:11Z",
        "version": 2,
        "changeset": 67750389,
        "addr:housenumber": "550",
        "addr:street": "Rua do Sol Nascente",
        "email": "info@pousadacapao.com",
        "internet_access": "wlan",
        "name": "Pousada do Capão",
        "phone": "+55 38 35416068",
        "tourism": "guest_house",
        "website": "https://www.pousadacapao.com/",
        "id": "node/3294599561"
      },
      "geometry": {
        "type": "Point",
        "coordinates": [
          -43.4898781,
          -18.4139614
        ]
      }
    },
    {
      "type": "Feature",
      "id": "node/3304969659",
      "properties": {
        "timestamp": "2022-08-12T17:30:01Z",
        "version": 4,
        "changeset": 124828016,
        "addr:city": "Serro",
        "addr:postcode": "39150-000",
        "addr:street": "Rua do Rosário",
        "addr:suburb": "Milho Verde",
        "email": "luardorosario@luardorosario.com.br",
        "internet_access": "wlan",
        "internet_access:fee": "no",
        "name": "Pousada Luar do Rosário",
        "phone": "+55 38 35414090;+55 31 87517846",
        "source": "survey",
        "tourism": "guest_house",
        "website": "https://luardorosario.com.br/",
        "id": "node/3304969659"
      },
      "geometry": {
        "type": "Point",
        "coordinates": [
          -43.4986772,
          -18.4730198
        ]
      }
    },
    {
      "type": "Feature",
      "id": "node/3304969660",
      "properties": {
        "timestamp": "2022-09-27T23:47:53Z",
        "version": 3,
        "changeset": 126717182,
        "addr:city": "Serro",
        "addr:housenumber": "75",
        "addr:postcode": "39150-000",
        "addr:street": "Rua Direita",
        "addr:suburb": "Milho Verde",
        "email": "pousadamorais_milhoverde@hotmail.com",
        "guest_house": "guest_house",
        "mobile": "+55 38 8801 9397",
        "name": "Pousada e Restaurante Morais",
        "phone": "+55 38 3541 4014",
        "source": "survey",
        "tourism": "guest_house",
        "id": "node/3304969660"
      },
      "geometry": {
        "type": "Point",
        "coordinates": [
          -43.498599,
          -18.47178
        ]
      }
    },
    {
      "type": "Feature",
      "id": "node/3336879031",
      "properties": {
        "timestamp": "2022-08-12T17:30:01Z",
        "version": 2,
        "changeset": 124828016,
        "addr:city": "Serro",
        "addr:housenumber": "350",
        "addr:postcode": "39150-000",
        "addr:street": "Rua do Cruzeirinho",
        "addr:suburb": "Milho Verde",
        "email": "pousadamilhoverde@hotmail.com",
        "name": "Pousada e Restaurante Milho Verde",
        "phone": "+55 38 8802 1019",
        "source": "survey",
        "tourism": "guest_house",
        "id": "node/3336879031"
      },
      "geometry": {
        "type": "Point",
        "coordinates": [
          -43.4988719,
          -18.4758976
        ]
      }
    },
    {
      "type": "Feature",
      "id": "node/9949798917",
      "properties": {
        "timestamp": "2022-08-12T17:30:01Z",
        "version": 1,
        "changeset": 124828016,
        "addr:city": "Serro",
        "addr:housenumber": "170",
        "addr:postcode": "39150-000",
        "addr:street": "Rua Varzea do Lageado",
        "addr:suburb": "Milho Verde",
        "email": "pousadaguerreirosdaluz@gmail.com",
        "guest_house": "agritourism",
        "name": "Pousada Guerreiros da Luz",
        "phone": "+55 38 98836 6938",
        "tourism": "guest_house",
        "id": "node/9949798917"
      },
      "geometry": {
        "type": "Point",
        "coordinates": [
          -43.4899705,
          -18.4643755
        ]
      }
    },
    {
      "type": "Feature",
      "id": "node/9949798919",
      "properties": {
        "timestamp": "2022-08-12T17:30:01Z",
        "version": 1,
        "changeset": 124828016,
        "addr:city": "Milho Verde",
        "addr:housenumber": "229",
        "addr:postcode": "39150-000",
        "addr:street": "Rua Manoel Espirdião",
        "addr:suburb": "Milho Verde",
        "email": "pousadaestradareal@hotmail.com",
        "guest_house": "guest_house",
        "name": "Pousada Estrada Real",
        "phone": "+55 38 8807 0322",
        "tourism": "guest_house",
        "id": "node/9949798919"
      },
      "geometry": {
        "type": "Point",
        "coordinates": [
          -43.4975729,
          -18.4729657
        ]
      }
    },
    {
      "type": "Feature",
      "id": "node/9949798920",
      "properties": {
        "timestamp": "2022-08-12T17:30:01Z",
        "version": 1,
        "changeset": 124828016,
        "addr:city": "Serro",
        "addr:housenumber": "240",
        "addr:postcode": "39150-000",
        "addr:street": "Rua do Cruzeirinho",
        "addr:suburb": "Milho Verde",
        "email": "pousadadonalourdes@gmail.com",
        "guest_house": "guest_house",
        "name": "Pousada Dona Lourdes",
        "phone": "+55 38 3541 4019",
        "tourism": "guest_house",
        "id": "node/9949798920"
      },
      "geometry": {
        "type": "Point",
        "coordinates": [
          -43.4992244,
          -18.4737433
        ]
      }
    },
    {
      "type": "Feature",
      "id": "node/9949798921",
      "properties": {
        "timestamp": "2022-08-12T17:30:01Z",
        "version": 1,
        "changeset": 124828016,
        "addr:city": "Serro",
        "addr:housenumber": "274",
        "addr:postcode": "39150-000",
        "addr:street": "Rua do Cruzeirinho",
        "addr:suburb": "Milho Verde",
        "email": "fogaoalenhamilhoverde@gmail.com",
        "guest_house": "guest_house",
        "name": "Pousada e Restaurante Fogão a Lenha",
        "phone": "+55 38 8807 4808",
        "tourism": "guest_house",
        "id": "node/9949798921"
      },
      "geometry": {
        "type": "Point",
        "coordinates": [
          -43.4992068,
          -18.4745657
        ]
      }
    },
    {
      "type": "Feature",
      "id": "node/9949798922",
      "properties": {
        "timestamp": "2022-08-12T17:30:01Z",
        "version": 1,
        "changeset": 124828016,
        "addr:city": "Serro",
        "addr:housenumber": "385",
        "addr:postcode": "39150-000",
        "addr:street": "Rua do Lajeado",
        "addr:suburb": "Milho Verde",
        "email": "lanemilhoverde@gmail.com",
        "guest_house": "guest_house",
        "mobile": "+55 38 8814 9550;+55 38 8827 2245",
        "name": "Pousada Sempre Viva",
        "tourism": "guest_house",
        "id": "node/9949798922"
      },
      "geometry": {
        "type": "Point",
        "coordinates": [
          -43.492698,
          -18.4688866
        ]
      }
    },
    {
      "type": "Feature",
      "id": "node/9949798924",
      "properties": {
        "timestamp": "2022-08-12T17:30:01Z",
        "version": 1,
        "changeset": 124828016,
        "addr:city": "Serro",
        "addr:housenumber": "160",
        "addr:postcode": "39150-000",
        "addr:street": "Rua do Campo",
        "addr:suburb": "Milho Verde",
        "email": "valdemardamiani@hotmail.com",
        "guest_house": "guest_house",
        "name": "Sertão Bistrô e Pousada",
        "phone": "+55 38 3541 4116",
        "tourism": "guest_house",
        "id": "node/9949798924"
      },
      "geometry": {
        "type": "Point",
        "coordinates": [
          -43.495712,
          -18.4681299
        ]
      }
    },
    {
      "type": "Feature",
      "id": "node/10035103612",
      "properties": {
        "timestamp": "2022-09-26T14:34:04Z",
        "version": 3,
        "changeset": 126659571,
        "addr:city": "Serro",
        "addr:housenumber": "44",
        "addr:postcode": "39150-000",
        "addr:street": "Praça Floriano Peixoto",
        "addr:suburb": "Centro",
        "email": "serro@pousadamariana.com.br",
        "guest_house": "guest_house",
        "name": "Pousada Mariana",
        "operator": "José Antônio Pires Filho",
        "phone": "+55 38 3541 1569",
        "tourism": "guest_house",
        "id": "node/10035103612"
      },
      "geometry": {
        "type": "Point",
        "coordinates": [
          -43.3859939,
          -18.6061856
        ]
      }
    },
    {
      "type": "Feature",
      "id": "node/10054495928",
      "properties": {
        "timestamp": "2022-09-26T19:31:14Z",
        "version": 1,
        "changeset": 126669552,
        "addr:city": "Serro",
        "addr:housenumber": "55",
        "addr:postcode": "39150-000",
        "addr:street": "Travessa Magalhaes",
        "addr:suburb": "Centro",
        "email": "noraldo@uai.com.br",
        "guest_house": "guest_house",
        "name": "Pousada Serrana",
        "operator": "Ricardo Jose Aguiar",
        "phone": "+55 38 3541 1949",
        "tourism": "guest_house",
        "id": "node/10054495928"
      },
      "geometry": {
        "type": "Point",
        "coordinates": [
          -43.3827955,
          -18.6045771
        ]
      }
    },
    {
      "type": "Feature",
      "id": "node/10054495937",
      "properties": {
        "timestamp": "2022-09-26T19:31:14Z",
        "version": 1,
        "changeset": 126669552,
        "addr:city": "Serro",
        "addr:housenumber": "75",
        "addr:postcode": "39150-000",
        "addr:street": "Rua Nacib Bahmed",
        "addr:suburb": "Centro",
        "email": "realltda@uai.com.br",
        "guest_house": "guest_house",
        "name": "Pousada do Queijo",
        "operator": "Roberto Mesquita Nunes",
        "phone": "+55 38 3541 1239",
        "tourism": "guest_house",
        "id": "node/10054495937"
      },
      "geometry": {
        "type": "Point",
        "coordinates": [
          -43.3804829,
          -18.6038108
        ]
      }
    }
  ]
}
