{
  "type": "FeatureCollection",
  "features": [
    {
      "type": "Feature",
      "id": "node/10056253936",
      "properties": {
        "timestamp": "2022-09-27T13:38:38Z",
        "version": 1,
        "changeset": 126699490,
        "addr:city": "Serro",
        "addr:housenumber": "237",
        "addr:postcode": "39150-000",
        "addr:street": "Rua São José",
        "addr:suburb": "Centro",
        "amenity": "pharmacy",
        "dispensing": "yes",
        "healthcare": "pharmacy",
        "name": "Drogaria São José Drugstore",
        "operator": "Organizações Reis Araujo Limitada",
        "id": "node/10056253936"
      },
      "geometry": {
        "type": "Point",
        "coordinates": [
          -43.3849083,
          -18.6051565
        ]
      }
    },
    {
      "type": "Feature",
      "id": "node/10056253937",
      "properties": {
        "timestamp": "2022-09-27T13:38:38Z",
        "version": 1,
        "changeset": 126699490,
        "addr:city": "Serro",
        "addr:housenumber": "69",
        "addr:postcode": "39150-000",
        "addr:street": "Rua Antônio Honório Pires",
        "addr:suburb": "Centro",
        "amenity": "pharmacy",
        "dispensing": "yes",
        "healthcare": "pharmacy",
        "name": "Drogaria Rocha Drugstore",
        "id": "node/10056253937"
      },
      "geometry": {
        "type": "Point",
        "coordinates": [
          -43.3815696,
          -18.6044647
        ]
      }
    },
    {
      "type": "Feature",
      "id": "node/10056253938",
      "properties": {
        "timestamp": "2022-09-27T13:38:38Z",
        "version": 1,
        "changeset": 126699490,
        "addr:city": "Serro",
        "addr:housenumber": "220",
        "addr:postcode": "39150-000",
        "addr:street": "Rua Barão de Diamantina",
        "addr:suburb": "Cidade Nova",
        "amenity": "pharmacy",
        "dispensing": "yes",
        "email": "drogariarochasoares@yahoo.com.br",
        "healthcare": "pharmacy",
        "name": "Drogaria Rocha",
        "phone": "+55 38 3541 1954",
        "id": "node/10056253938"
      },
      "geometry": {
        "type": "Point",
        "coordinates": [
          -43.3940023,
          -18.6012529
        ]
      }
    }
  ]
}
