{
  "type": "FeatureCollection",
  "features": [
    {
      "type": "Feature",
      "id": "way/638281281",
      "properties": {
        "timestamp": "2018-10-26T16:25:06Z",
        "version": 1,
        "changeset": 63906307,
        "amenity": "school",
        "id": "way/638281281"
      },
      "geometry": {
        "type": "Polygon",
        "coordinates": [
          [
            [
              -43.4996791,
              -18.5733564
            ],
            [
              -43.4996529,
              -18.5734161
            ],
            [
              -43.4994864,
              -18.5733505
            ],
            [
              -43.4995126,
              -18.5732908
            ],
            [
              -43.4996791,
              -18.5733564
            ]
          ]
        ]
      }
    },
    {
      "type": "Feature",
      "id": "way/638281282",
      "properties": {
        "timestamp": "2018-10-26T16:25:06Z",
        "version": 1,
        "changeset": 63906307,
        "amenity": "school",
        "id": "way/638281282"
      },
      "geometry": {
        "type": "Polygon",
        "coordinates": [
          [
            [
              -43.4996414,
              -18.5734575
            ],
            [
              -43.4996169,
              -18.5735105
            ],
            [
              -43.499463,
              -18.5734467
            ],
            [
              -43.4994875,
              -18.5733937
            ],
            [
              -43.4996414,
              -18.5734575
            ]
          ]
        ]
      }
    },
    {
      "type": "Feature",
      "id": "way/896569347",
      "properties": {
        "timestamp": "2021-01-18T13:15:30Z",
        "version": 1,
        "changeset": 97701596,
        "amenity": "school",
        "id": "way/896569347"
      },
      "geometry": {
        "type": "Polygon",
        "coordinates": [
          [
            [
              -43.2700044,
              -18.605316
            ],
            [
              -43.2696112,
              -18.6052801
            ],
            [
              -43.2696183,
              -18.6051835
            ],
            [
              -43.2700186,
              -18.6052172
            ],
            [
              -43.2700044,
              -18.605316
            ]
          ]
        ]
      }
    },
    {
      "type": "Feature",
      "id": "node/3294599156",
      "properties": {
        "timestamp": "2022-09-26T17:55:39Z",
        "version": 4,
        "changeset": 126666584,
        "addr:city": "Serro",
        "addr:postcode": "39150-000",
        "addr:street": "Largo do Comércio",
        "addr:suburb": "São Gonçalo do Rio das das Pedras",
        "amenity": "school",
        "name": "Escola Estadual Mestra Virgínia Reis",
        "operator": "Secretaria de Estado de Educação de Minas Gerais",
        "operator:type": "public",
        "source": "IBGE",
        "id": "node/3294599156"
      },
      "geometry": {
        "type": "Point",
        "coordinates": [
          -43.4956816,
          -18.4173237
        ]
      }
    },
    {
      "type": "Feature",
      "id": "node/3336880716",
      "properties": {
        "timestamp": "2022-08-14T22:28:25Z",
        "version": 2,
        "changeset": 124905598,
        "addr:city": "Serro",
        "addr:postcode": "39150-000",
        "addr:suburb": "Capivari",
        "amenity": "school",
        "name": "Escola Municipal Desembargador Dario Lins",
        "operator": "Município do Serro",
        "operator:type": "public",
        "source": "survey",
        "id": "node/3336880716"
      },
      "geometry": {
        "type": "Point",
        "coordinates": [
          -43.4183654,
          -18.4361488
        ]
      }
    },
    {
      "type": "Feature",
      "id": "node/4569004989",
      "properties": {
        "timestamp": "2020-02-05T14:51:46Z",
        "version": 3,
        "changeset": 80595274,
        "addr:city": "Serro",
        "addr:housenumber": "192",
        "addr:postcode": "39150-000",
        "addr:street": "Praça Pedro Lessa",
        "addr:suburb": "Centro",
        "amenity": "school",
        "name": "Escola Estadual Joaquim Salles",
        "id": "node/4569004989"
      },
      "geometry": {
        "type": "Point",
        "coordinates": [
          -43.3921236,
          -18.603524
        ]
      }
    },
    {
      "type": "Feature",
      "id": "node/4823668362",
      "properties": {
        "timestamp": "2022-09-27T12:16:40Z",
        "version": 3,
        "changeset": 126696104,
        "addr:city": "Serro",
        "addr:housenumber": "74",
        "addr:postcode": "39150-000",
        "addr:street": "Praça João Pessoa",
        "addr:suburb": "Centro",
        "amenity": "school",
        "name": "Colégio Nossa Senhora da Conceição",
        "id": "node/4823668362"
      },
      "geometry": {
        "type": "Point",
        "coordinates": [
          -43.3838224,
          -18.6064382
        ]
      }
    },
    {
      "type": "Feature",
      "id": "node/4823668555",
      "properties": {
        "timestamp": "2022-09-26T17:55:39Z",
        "version": 4,
        "changeset": 126666584,
        "addr:city": "Serro",
        "addr:postcode": "39150-000",
        "amenity": "school",
        "name": "Escola Estadual Ministro Edmundo Lins",
        "source": "IBGE",
        "id": "node/4823668555"
      },
      "geometry": {
        "type": "Point",
        "coordinates": [
          -43.3796862,
          -18.6033366
        ]
      }
    },
    {
      "type": "Feature",
      "id": "node/4823668556",
      "properties": {
        "timestamp": "2022-09-26T14:04:28Z",
        "version": 2,
        "changeset": 126658442,
        "addr:city": "Serro",
        "addr:housenumber": "84",
        "addr:postcode": "39150-000",
        "addr:street": "Rua Luiz Advincula Reis",
        "addr:suburb": "Centro",
        "amenity": "school",
        "name": "Escola Estadual Doutor João Pinheiro",
        "source": "IBGE",
        "id": "node/4823668556"
      },
      "geometry": {
        "type": "Point",
        "coordinates": [
          -43.3791245,
          -18.6043026
        ]
      }
    },
    {
      "type": "Feature",
      "id": "node/5007472757",
      "properties": {
        "timestamp": "2022-09-27T17:42:29Z",
        "version": 3,
        "changeset": 126707951,
        "amenity": "school",
        "id": "node/5007472757"
      },
      "geometry": {
        "type": "Point",
        "coordinates": [
          -43.4993961,
          -18.57347
        ]
      }
    },
    {
      "type": "Feature",
      "id": "node/10035041832",
      "properties": {
        "timestamp": "2022-09-26T17:55:39Z",
        "version": 3,
        "changeset": 126666584,
        "addr:city": "Serro",
        "addr:housenumber": "110",
        "addr:postcode": "39150-000",
        "addr:street": "Rua Santa Rita",
        "addr:suburb": "Centro",
        "amenity": "school",
        "name": "Grupo Escolar João Nepomuceno Kubitschek",
        "id": "node/10035041832"
      },
      "geometry": {
        "type": "Point",
        "coordinates": [
          -43.3856155,
          -18.6063399
        ]
      }
    },
    {
      "type": "Feature",
      "id": "node/10053862871",
      "properties": {
        "timestamp": "2022-09-26T14:04:28Z",
        "version": 1,
        "changeset": 126658442,
        "addr:city": "Serro",
        "addr:housenumber": "100",
        "addr:postcode": "39150-000",
        "addr:street": "Ladeira da Matriz",
        "addr:suburb": "Centro",
        "amenity": "school",
        "name": "Escola Municipal Infantil Irmã Carvalho",
        "id": "node/10053862871"
      },
      "geometry": {
        "type": "Point",
        "coordinates": [
          -43.3789128,
          -18.6037358
        ]
      }
    },
    {
      "type": "Feature",
      "id": "node/10054330073",
      "properties": {
        "timestamp": "2022-09-26T17:55:39Z",
        "version": 1,
        "changeset": 126666584,
        "addr:city": "Serro",
        "addr:housenumber": "318",
        "addr:postcode": "39150-000",
        "addr:street": "Rua do Rosário",
        "addr:suburb": "Centro",
        "amenity": "school",
        "name": "Escola Estadual Luiza de Marilac",
        "id": "node/10054330073"
      },
      "geometry": {
        "type": "Point",
        "coordinates": [
          -43.3756671,
          -18.6062483
        ]
      }
    },
    {
      "type": "Feature",
      "id": "node/10054330087",
      "properties": {
        "timestamp": "2022-09-26T17:55:39Z",
        "version": 1,
        "changeset": 126666584,
        "addr:city": "Serro",
        "addr:postcode": "39150-000",
        "addr:street": "Rua Artur Roberto da Silva",
        "addr:suburb": "Deputado Augusto Clementino",
        "amenity": "school",
        "name": "Escola Estadual Doutor Antonio Tolentino",
        "id": "node/10054330087"
      },
      "geometry": {
        "type": "Point",
        "coordinates": [
          -43.4360918,
          -18.6942912
        ]
      }
    },
    {
      "type": "Feature",
      "id": "node/10056736939",
      "properties": {
        "timestamp": "2022-09-27T17:42:29Z",
        "version": 1,
        "changeset": 126707951,
        "addr:city": "Serro",
        "addr:housenumber": "200",
        "addr:postcode": "39150-000",
        "addr:street": "Rua Pouso Alto",
        "addr:suburb": "Pedro Lessa",
        "amenity": "school",
        "name": "Escola Estadual Mestra Rosa Madureira Fagundes",
        "id": "node/10056736939"
      },
      "geometry": {
        "type": "Point",
        "coordinates": [
          -43.5284616,
          -18.5633858
        ]
      }
    },
    {
      "type": "Feature",
      "id": "node/10057314045",
      "properties": {
        "timestamp": "2022-09-27T23:47:53Z",
        "version": 1,
        "changeset": 126717182,
        "addr:city": "Serro",
        "addr:postcode": "39150-000",
        "addr:street": "Rua São Geraldo",
        "addr:suburb": "Três Barras da Estrada Real",
        "amenity": "school",
        "name": "Escola Municipal José Sales Gomes",
        "source": "IBGE",
        "id": "node/10057314045"
      },
      "geometry": {
        "type": "Point",
        "coordinates": [
          -43.4601136,
          -18.5168956
        ]
      }
    },
    {
      "type": "Feature",
      "id": "node/10098076673",
      "properties": {
        "timestamp": "2022-10-13T13:21:02Z",
        "version": 1,
        "changeset": 127470697,
        "amenity": "school",
        "name": "Escola Estadual Rio das Pedras",
        "id": "node/10098076673"
      },
      "geometry": {
        "type": "Point",
        "coordinates": [
          -43.4498934,
          -18.7483923
        ]
      }
    }
  ]
}
