{
  "type": "FeatureCollection",
  "features": [
    {
      "type": "Feature",
      "id": "way/490288054",
      "properties": {
        "timestamp": "2022-08-29T17:24:59Z",
        "version": 3,
        "changeset": 125534165,
        "addr:city": "Tombos",
        "addr:postcode": "36844-000",
        "addr:street": "Rua Manoel Ferreira Dias",
        "addr:suburb": "√Ågua Santa de Minas",
        "amenity": "clinic",
        "building": "yes",
        "building:levels": "1",
        "healthcare": "clinic",
        "id": "way/490288054"
      },
      "geometry": {
        "type": "Polygon",
        "coordinates": [
          [
            [
              -42.158649,
              -20.8744799
            ],
            [
              -42.1587348,
              -20.8745749
            ],
            [
              -42.1586592,
              -20.8746345
            ],
            [
              -42.1585734,
              -20.8745395
            ],
            [
              -42.158649,
              -20.8744799
            ]
          ]
        ]
      }
    }
  ]
}
