{
  "type": "FeatureCollection",
  "features": [
    {
      "type": "Feature",
      "id": "way/318109702",
      "properties": {
        "timestamp": "2022-08-26T17:20:27Z",
        "version": 2,
        "changeset": 125416761,
        "addr:city": "Tombos",
        "addr:postcode": "36844-000",
        "addr:street": "Rua Américo Theodoro da Cunha",
        "addr:suburb": "Catuné",
        "amenity": "school",
        "email": "escola.99546@educacao.mg.gov.br",
        "name": "Escola Estadual Antonia Martins De Barros",
        "operator": "Secretaria de Educação do Estado de Minas Gerais",
        "operator:type": "public",
        "phone": "+55 32 3751 4062",
        "id": "way/318109702"
      },
      "geometry": {
        "type": "Polygon",
        "coordinates": [
          [
            [
              -42.1501144,
              -20.9207662
            ],
            [
              -42.1501562,
              -20.9211337
            ],
            [
              -42.1497756,
              -20.9212585
            ],
            [
              -42.14967,
              -20.9213214
            ],
            [
              -42.149644,
              -20.9210938
            ],
            [
              -42.149694,
              -20.920961
            ],
            [
              -42.1497914,
              -20.9208872
            ],
            [
              -42.1501144,
              -20.9207662
            ]
          ]
        ]
      }
    },
    {
      "type": "Feature",
      "id": "node/9979829545",
      "properties": {
        "timestamp": "2022-08-26T13:06:14Z",
        "version": 1,
        "changeset": 125406754,
        "addr:city": "Tombos",
        "addr:housenumber": "475",
        "addr:postcode": "36844-000",
        "addr:street": "Avenida Imaculada Conceição",
        "addr:suburb": "Quebra Copos",
        "amenity": "school",
        "name": "Escola Estadual Ilka Campos Vargas",
        "operator": "Secretaria de Educação do Estado de Minas Gerais",
        "operator:type": "public",
        "phone": "+55 32 3751-1974",
        "id": "node/9979829545"
      },
      "geometry": {
        "type": "Point",
        "coordinates": [
          -42.0264141,
          -20.9123844
        ]
      }
    },
    {
      "type": "Feature",
      "id": "node/9979829548",
      "properties": {
        "timestamp": "2022-08-26T13:06:14Z",
        "version": 1,
        "changeset": 125406754,
        "addr:city": "Tombos",
        "addr:housenumber": "333",
        "addr:postcode": "36844-000",
        "addr:street": "Avenida Imaculada Conceição",
        "addr:suburb": "Quebra Copos",
        "amenity": "school",
        "name": "Escola Municipal Emilio Soares",
        "operator": "Município de Tombos",
        "operator:type": "public",
        "phone": "+55 32 3751 1185",
        "id": "node/9979829548"
      },
      "geometry": {
        "type": "Point",
        "coordinates": [
          -42.0264109,
          -20.9137968
        ]
      }
    },
    {
      "type": "Feature",
      "id": "node/9979829549",
      "properties": {
        "timestamp": "2022-08-26T13:06:14Z",
        "version": 1,
        "changeset": 125406754,
        "addr:city": "Tombos",
        "addr:housenumber": "306",
        "addr:postcode": "36844-000",
        "addr:street": "Rua Domingos Amado Vicente",
        "addr:suburb": "Niterói",
        "amenity": "school",
        "name": "Escola Municipal Marieta Guariglia Bravo",
        "operator": "Município de Tombos",
        "operator:type": "public",
        "phone": "+55 32 3751 2386",
        "id": "node/9979829549"
      },
      "geometry": {
        "type": "Point",
        "coordinates": [
          -42.0294475,
          -20.9061203
        ]
      }
    },
    {
      "type": "Feature",
      "id": "node/9979829550",
      "properties": {
        "timestamp": "2022-08-26T13:06:14Z",
        "version": 1,
        "changeset": 125406754,
        "addr:city": "Tombos",
        "addr:postcode": "36844-000",
        "addr:street": "Parque Antônio Guimarães de Almeida",
        "addr:suburb": "Niterói",
        "amenity": "school",
        "name": "Centro Municipal de Educação Infantil Olivia Quintão",
        "operator": "Município de Tombos",
        "operator:type": "public",
        "phone": "+55 32 3751 2168",
        "id": "node/9979829550"
      },
      "geometry": {
        "type": "Point",
        "coordinates": [
          -42.028199,
          -20.9130671
        ]
      }
    },
    {
      "type": "Feature",
      "id": "node/9979829555",
      "properties": {
        "timestamp": "2022-08-26T13:06:14Z",
        "version": 1,
        "changeset": 125406754,
        "addr:city": "Tombos",
        "addr:housenumber": "219",
        "addr:postcode": "36844-000",
        "addr:street": "Rua Rua Sebastião Rocha",
        "addr:suburb": "Niterói",
        "amenity": "school",
        "name": "Centro Educacional Rosely Gallo Ferreira",
        "id": "node/9979829555"
      },
      "geometry": {
        "type": "Point",
        "coordinates": [
          -42.0301665,
          -20.9053026
        ]
      }
    },
    {
      "type": "Feature",
      "id": "node/9980221432",
      "properties": {
        "timestamp": "2022-08-29T17:24:59Z",
        "version": 2,
        "changeset": 125534165,
        "addr:city": "Tombos",
        "addr:housenumber": "13",
        "addr:postcode": "36844-000",
        "addr:street": "Rua Silvino Moraes",
        "addr:suburb": "Água Santa de Minas",
        "amenity": "school",
        "name": "Escola Municipal Savina Lazaroni",
        "operator": "Município de Tombos",
        "operator:type": "public",
        "id": "node/9980221432"
      },
      "geometry": {
        "type": "Point",
        "coordinates": [
          -42.1584984,
          -20.8749905
        ]
      }
    }
  ]
}
