{
  "type": "FeatureCollection",
  "features": [
    {
      "type": "Feature",
      "id": "node/9979803814",
      "properties": {
        "timestamp": "2022-08-26T13:06:14Z",
        "version": 1,
        "changeset": 125406754,
        "addr:city": "Tombos",
        "addr:postcode": "36844-000",
        "addr:street": "Travessa Capitão Pinheiro",
        "addr:suburb": "Niterói",
        "amenity": "social_facility",
        "name": "Associação de Pais e Amigos dos Excepcionais de Tombos - Apae",
        "phone": "+55 32 3751 1305",
        "social_facility": "day_care",
        "id": "node/9979803814"
      },
      "geometry": {
        "type": "Point",
        "coordinates": [
          -42.0278905,
          -20.9128664
        ]
      }
    },
    {
      "type": "Feature",
      "id": "node/9987064912",
      "properties": {
        "timestamp": "2022-08-29T22:39:18Z",
        "version": 1,
        "changeset": 125543437,
        "addr:city": "Tombos",
        "addr:housenumber": "153",
        "addr:postcode": "36844-000",
        "addr:street": "Rua Francisco Américo",
        "addr:suburb": "Quebra Copos",
        "amenity": "social_facility",
        "email": "etcdetombos@oi.com.br",
        "name": "Lar dos Idosos Arlinda Gomes Garcia",
        "phone": "+55 32 3751 1248",
        "social_facility": "group_home",
        "social_facility:for": "senior",
        "wheelchair": "yes",
        "id": "node/9987064912"
      },
      "geometry": {
        "type": "Point",
        "coordinates": [
          -42.0239941,
          -20.9126827
        ]
      }
    }
  ]
}
