{
  "type": "FeatureCollection",
  "features": [
    {
      "type": "Feature",
      "id": "way/362811390",
      "properties": {
        "timestamp": "2021-01-18T23:23:05Z",
        "version": 2,
        "changeset": 97725325,
        "addr:city": "Itapetinga",
        "addr:housenumber": "4",
        "addr:postcode": "45700-000",
        "addr:street": "Avenida Cinquentenário",
        "breakfast": "no",
        "building": "yes",
        "description": "flat-like rooms, breakfast possible in nearby JJ Bakery; quartos como flats e café da manhã possível, por exemplo, na padaria JJ",
        "internet_access": "wlan",
        "internet_access:fee": "no",
        "name": "Hotel Hercília Pacheco",
        "phone": "+55 77 3261-2068",
        "tourism": "hotel",
        "wheelchair": "no",
        "id": "way/362811390"
      },
      "geometry": {
        "type": "Polygon",
        "coordinates": [
          [
            [
              -40.2509228,
              -15.2469519
            ],
            [
              -40.2511801,
              -15.2470809
            ],
            [
              -40.2510691,
              -15.2472245
            ],
            [
              -40.2509455,
              -15.2471595
            ],
            [
              -40.2509228,
              -15.2469519
            ]
          ]
        ]
      }
    },
    {
      "type": "Feature",
      "id": "node/1484083714",
      "properties": {
        "timestamp": "2021-01-18T23:39:40Z",
        "version": 11,
        "changeset": 97725640,
        "addr:city": "Itapetinga",
        "addr:housenumber": "81",
        "addr:postcode": "45700-000",
        "addr:street": "Praça Dairy Valley",
        "email": "goitacazhotel@hotmail.com",
        "name": "Hotel Goitacaz",
        "phone": "+55 77 3262-1207",
        "tourism": "hotel",
        "wheelchair": "no",
        "id": "node/1484083714"
      },
      "geometry": {
        "type": "Point",
        "coordinates": [
          -40.2489621,
          -15.2456885
        ]
      }
    },
    {
      "type": "Feature",
      "id": "node/1484083715",
      "properties": {
        "timestamp": "2021-01-18T17:53:55Z",
        "version": 5,
        "changeset": 97713841,
        "name": "Hotel Morumbi",
        "phone": "+55 77 3262-2770",
        "phone_1": "+55 77 3261-4040",
        "tourism": "hotel",
        "id": "node/1484083715"
      },
      "geometry": {
        "type": "Point",
        "coordinates": [
          -40.258114,
          -15.2520622
        ]
      }
    },
    {
      "type": "Feature",
      "id": "node/1484083716",
      "properties": {
        "timestamp": "2021-01-18T23:56:00Z",
        "version": 9,
        "changeset": 97725979,
        "alt_name": "Pousada Central",
        "amenity": "restaurant",
        "name": "Restaurante Nonô e Pousada",
        "phone": "+55 77 3261-3659",
        "tourism": "hotel",
        "wheelchair": "no",
        "id": "node/1484083716"
      },
      "geometry": {
        "type": "Point",
        "coordinates": [
          -40.2468647,
          -15.2460157
        ]
      }
    },
    {
      "type": "Feature",
      "id": "node/1593034682",
      "properties": {
        "timestamp": "2017-07-31T19:38:45Z",
        "version": 11,
        "changeset": 50731776,
        "addr:city": "Itapetinga",
        "addr:country": "BR",
        "addr:housenumber": "84",
        "addr:postcode": "45700-000",
        "addr:street": "Rua Dois de Julho",
        "amenity": "restaurant",
        "name": "Hotel Del Rey",
        "phone": "+55-77-3261.2103",
        "source": "Bing; knowledge",
        "tourism": "hotel",
        "id": "node/1593034682"
      },
      "geometry": {
        "type": "Point",
        "coordinates": [
          -40.2477811,
          -15.2455082
        ]
      }
    },
    {
      "type": "Feature",
      "id": "node/3688752744",
      "properties": {
        "timestamp": "2021-01-18T23:46:49Z",
        "version": 3,
        "changeset": 97725799,
        "addr:city": "Itapetinga",
        "addr:country": "BR",
        "addr:housenumber": "26",
        "addr:postcode": "45700-000",
        "addr:street": "Rua Dois de Julho",
        "name": "Itahotel",
        "phone": "+55 77 3262-1683",
        "source": "Bing; knowledge",
        "tourism": "hotel",
        "id": "node/3688752744"
      },
      "geometry": {
        "type": "Point",
        "coordinates": [
          -40.2472405,
          -15.2455611
        ]
      }
    },
    {
      "type": "Feature",
      "id": "node/3711321321",
      "properties": {
        "timestamp": "2021-01-21T19:04:57Z",
        "version": 3,
        "changeset": 97923700,
        "name": "Pousada Bela Vista",
        "phone": "+55 77 9 8158-3037;+55 77 9 9910-9995;+55 77 9 9202-2114",
        "tourism": "hotel",
        "id": "node/3711321321"
      },
      "geometry": {
        "type": "Point",
        "coordinates": [
          -40.2447129,
          -15.2469771
        ]
      }
    },
    {
      "type": "Feature",
      "id": "node/3724819084",
      "properties": {
        "timestamp": "2021-08-03T22:08:08Z",
        "version": 3,
        "changeset": 109115515,
        "addr:city": "Itapetinga",
        "addr:country": "BR",
        "addr:housenumber": "78",
        "addr:postcode": "45700-000",
        "addr:street": "Rua Marechal Deodoro da Fonseca",
        "addr:suburb": "Centro",
        "name": "Hotel Lacerda",
        "phone": "+55 77 3261 2014",
        "source": "Bing;knowledge",
        "tourism": "hotel",
        "id": "node/3724819084"
      },
      "geometry": {
        "type": "Point",
        "coordinates": [
          -40.2480085,
          -15.2463991
        ]
      }
    },
    {
      "type": "Feature",
      "id": "node/3724849778",
      "properties": {
        "timestamp": "2021-08-03T20:25:57Z",
        "version": 3,
        "changeset": 109112735,
        "addr:city": "Itapetinga",
        "addr:country": "BR",
        "addr:street": "Avenida Itabuna",
        "addr:suburb": "São Francisco de Assis",
        "name": "Pousada Santo Antônio",
        "phone": "+55 77 3261 2391",
        "source": "Bing;knowledge",
        "tourism": "hotel",
        "id": "node/3724849778"
      },
      "geometry": {
        "type": "Point",
        "coordinates": [
          -40.2417462,
          -15.2415166
        ]
      }
    },
    {
      "type": "Feature",
      "id": "node/7914168186",
      "properties": {
        "timestamp": "2020-09-16T19:58:39Z",
        "version": 1,
        "changeset": 91005520,
        "name": "9",
        "tourism": "hotel",
        "id": "node/7914168186"
      },
      "geometry": {
        "type": "Point",
        "coordinates": [
          -40.2065897,
          -15.3142056
        ]
      }
    }
  ]
}
