{
  "type": "FeatureCollection",
  "features": [
    {
      "type": "Feature",
      "id": "way/166266068",
      "properties": {
        "timestamp": "2021-01-19T16:33:49Z",
        "version": 3,
        "changeset": 97781550,
        "amenity": "veterinary",
        "name": "Casa das Rações",
        "phone": "+55 77 3261-2949",
        "shop": "pet",
        "id": "way/166266068"
      },
      "geometry": {
        "type": "Polygon",
        "coordinates": [
          [
            [
              -40.2461559,
              -15.2475448
            ],
            [
              -40.2459767,
              -15.2475516
            ],
            [
              -40.2459734,
              -15.2474718
            ],
            [
              -40.2461527,
              -15.2474651
            ],
            [
              -40.2461559,
              -15.2475448
            ]
          ]
        ]
      }
    },
    {
      "type": "Feature",
      "id": "way/359227250",
      "properties": {
        "timestamp": "2021-01-18T23:11:39Z",
        "version": 5,
        "changeset": 97725077,
        "addr:city": "Itapetinga",
        "addr:housenumber": "156",
        "addr:postcode": "45700-000",
        "addr:street": "Rua Montes Claros",
        "amenity": "veterinary",
        "building": "yes",
        "name": "Espaço Animal",
        "phone": "+55 77 3261-9446",
        "shop": "pet",
        "id": "way/359227250"
      },
      "geometry": {
        "type": "Polygon",
        "coordinates": [
          [
            [
              -40.2512098,
              -15.2489601
            ],
            [
              -40.2513905,
              -15.2489436
            ],
            [
              -40.251396,
              -15.2489995
            ],
            [
              -40.2512153,
              -15.2490159
            ],
            [
              -40.2512098,
              -15.2489601
            ]
          ]
        ]
      }
    },
    {
      "type": "Feature",
      "id": "node/3645269734",
      "properties": {
        "timestamp": "2015-07-11T00:24:39Z",
        "version": 1,
        "changeset": 32556174,
        "amenity": "veterinary",
        "name": "Dr. Paulo Ferraz",
        "source": "Bing; knowledge",
        "id": "node/3645269734"
      },
      "geometry": {
        "type": "Point",
        "coordinates": [
          -40.2466413,
          -15.246351
        ]
      }
    },
    {
      "type": "Feature",
      "id": "node/3724970305",
      "properties": {
        "timestamp": "2021-08-03T20:25:28Z",
        "version": 3,
        "changeset": 109112718,
        "addr:city": "Itapetinga",
        "addr:country": "BR",
        "addr:housenumber": "47",
        "addr:postcode": "45700-000",
        "addr:street": "Avenida das Palmeiras",
        "addr:suburb": "Morumbi",
        "amenity": "veterinary",
        "name": "Safira PET",
        "phone": "+55 77 3261 7994",
        "shop": "pet",
        "id": "node/3724970305"
      },
      "geometry": {
        "type": "Point",
        "coordinates": [
          -40.2528823,
          -15.2465629
        ]
      }
    }
  ]
}
