{
  "type": "FeatureCollection",
  "features": [
    {
      "type": "Feature",
      "id": "way/709816201",
      "properties": {
        "timestamp": "2023-02-02T14:06:44Z",
        "version": 2,
        "changeset": 132004950,
        "addr:city": "Nova Viçosa",
        "addr:postcode": "45920-000",
        "building": "yes",
        "name": "Câmara Municipal de Nova Viçosa",
        "office": "government",
        "id": "way/709816201"
      },
      "geometry": {
        "type": "Polygon",
        "coordinates": [
          [
            [
              -39.3718487,
              -17.8940574
            ],
            [
              -39.3718081,
              -17.894336
            ],
            [
              -39.3715784,
              -17.8942973
            ],
            [
              -39.3716434,
              -17.8940245
            ],
            [
              -39.3718487,
              -17.8940574
            ]
          ]
        ]
      }
    },
    {
      "type": "Feature",
      "id": "way/709818856",
      "properties": {
        "timestamp": "2023-02-02T14:06:44Z",
        "version": 2,
        "changeset": 132004950,
        "addr:city": "Nova Viçosa",
        "addr:postcode": "45920-000",
        "addr:street": "Rua Visconde São Lourenço",
        "addr:suburb": "Centro",
        "building": "yes",
        "government": "administrative",
        "name": "Secretaria de Turismo",
        "office": "government",
        "id": "way/709818856"
      },
      "geometry": {
        "type": "Polygon",
        "coordinates": [
          [
            [
              -39.3725724,
              -17.8910299
            ],
            [
              -39.37256,
              -17.8911349
            ],
            [
              -39.3724182,
              -17.8911196
            ],
            [
              -39.3724306,
              -17.8910147
            ],
            [
              -39.3725724,
              -17.8910299
            ]
          ]
        ]
      }
    },
    {
      "type": "Feature",
      "id": "node/10669356277",
      "properties": {
        "timestamp": "2023-02-16T10:49:09Z",
        "version": 1,
        "changeset": 132622143,
        "addr:city": "Nova Viçosa",
        "addr:housenumber": "1000",
        "addr:postcode": "45928-000",
        "addr:street": "Avenida Marechal Castelo Branco",
        "addr:suburb": "Posto da Mata",
        "email": "saude@novavicosa.ba.gov.br",
        "government": "administrative",
        "name": "Secretaria Municipal de Saúde de Nova Viçosa",
        "office": "government",
        "phone": "+55 73 3208 1124",
        "id": "node/10669356277"
      },
      "geometry": {
        "type": "Point",
        "coordinates": [
          -39.8629558,
          -17.8893899
        ]
      }
    },
    {
      "type": "Feature",
      "id": "node/11274719488",
      "properties": {
        "timestamp": "2023-10-19T14:14:30Z",
        "version": 1,
        "changeset": 142818309,
        "addr:city": "Nova Viçosa",
        "addr:housenumber": "90",
        "addr:postcode": "45920-000",
        "addr:street": "Avenida Oceânica",
        "addr:suburb": "Centro",
        "government": "administrative",
        "name": "Secretaria Municipal de Meio Ambiente",
        "office": "government",
        "opening_hours": "Mo-Fr 07:00-13:00",
        "phone": "+55 73 99939 6641",
        "id": "node/11274719488"
      },
      "geometry": {
        "type": "Point",
        "coordinates": [
          -39.3726348,
          -17.8917984
        ]
      }
    }
  ]
}
