{
  "type": "FeatureCollection",
  "features": [
    {
      "type": "Feature",
      "id": "way/1137255508",
      "properties": {
        "timestamp": "2023-02-02T14:06:44Z",
        "version": 1,
        "changeset": 132004950,
        "addr:city": "Nova Viçosa",
        "addr:housenumber": "20",
        "addr:postcode": "45920-000",
        "addr:street": "Rua Ituassu",
        "addr:suburb": "Centro",
        "amenity": "school",
        "email": "ue13579@educ.ba.gov.br",
        "name": "Colégio Estadual John Kennedy",
        "operator": "Governo da Bahia",
        "operator:type": "public",
        "phone": "+55 73 3208 1345",
        "id": "way/1137255508"
      },
      "geometry": {
        "type": "Polygon",
        "coordinates": [
          [
            [
              -39.3731633,
              -17.8929757
            ],
            [
              -39.3726298,
              -17.8929056
            ],
            [
              -39.3726691,
              -17.892328
            ],
            [
              -39.3732175,
              -17.8924162
            ],
            [
              -39.3731633,
              -17.8929757
            ]
          ]
        ]
      }
    },
    {
      "type": "Feature",
      "id": "way/1137328860",
      "properties": {
        "timestamp": "2023-02-02T18:31:00Z",
        "version": 1,
        "changeset": 132014424,
        "addr:city": "Nova Viçosa",
        "addr:postcode": "45920-000",
        "addr:street": "Rua Duque de Caxias",
        "addr:suburb": "Petronilio Leandro",
        "amenity": "school",
        "name": "Escola Municipal João Paranaguá Filho",
        "id": "way/1137328860"
      },
      "geometry": {
        "type": "Polygon",
        "coordinates": [
          [
            [
              -39.3747911,
              -17.9027158
            ],
            [
              -39.3748797,
              -17.9031496
            ],
            [
              -39.3743576,
              -17.9032563
            ],
            [
              -39.3743085,
              -17.9031894
            ],
            [
              -39.3741412,
              -17.9033004
            ],
            [
              -39.3740482,
              -17.9028612
            ],
            [
              -39.3747911,
              -17.9027158
            ]
          ]
        ]
      }
    },
    {
      "type": "Feature",
      "id": "node/10665771159",
      "properties": {
        "timestamp": "2023-02-16T17:45:20Z",
        "version": 2,
        "changeset": 132640453,
        "addr:city": "Nova Viçosa",
        "addr:district": "Posto da Mata",
        "addr:postcode": "45928-000",
        "addr:street": "Rua Peruipe",
        "addr:suburb": "Centro",
        "amenity": "school",
        "email": "ceetpostodamata@gmail.com",
        "name": "Colégio Estadual Eraldo Tinoco",
        "operator": "Governo da Bahia",
        "operator:type": "public",
        "phone": "+55 73 3209 1308",
        "id": "node/10665771159"
      },
      "geometry": {
        "type": "Point",
        "coordinates": [
          -39.8486545,
          -17.8861315
        ]
      }
    },
    {
      "type": "Feature",
      "id": "node/10665952760",
      "properties": {
        "timestamp": "2023-02-16T17:45:20Z",
        "version": 2,
        "changeset": 132640453,
        "addr:city": "Nova Viçosa",
        "addr:district": "Posto da Mata",
        "addr:postcode": "45928-000",
        "addr:suburb": "Baía dos Anjos",
        "amenity": "school",
        "name": "Escola Municipal Baía dos Anjos",
        "operator": "Município de Nova Viçosa",
        "operator:type": "public",
        "phone": "+55 73 3209 2022",
        "id": "node/10665952760"
      },
      "geometry": {
        "type": "Point",
        "coordinates": [
          -39.837876,
          -17.8852504
        ]
      }
    },
    {
      "type": "Feature",
      "id": "node/10665952761",
      "properties": {
        "timestamp": "2023-02-16T17:45:20Z",
        "version": 2,
        "changeset": 132640453,
        "addr:city": "Nova Viçosa",
        "addr:district": "Posto da Mata",
        "addr:housenumber": "862",
        "addr:postcode": "45928-000",
        "addr:street": "Avenida João Durval Carneiro",
        "addr:suburb": "Centro",
        "amenity": "school",
        "name": "Escola Municipal Laura Bandeira",
        "operator": "Município de Nova Viçosa",
        "operator:type": "public",
        "phone": "+55 73 3209 1055",
        "id": "node/10665952761"
      },
      "geometry": {
        "type": "Point",
        "coordinates": [
          -39.8529014,
          -17.887301
        ]
      }
    },
    {
      "type": "Feature",
      "id": "node/10669356276",
      "properties": {
        "timestamp": "2023-02-16T10:49:09Z",
        "version": 1,
        "changeset": 132622143,
        "addr:city": "Nova Viçosa",
        "addr:housenumber": "304",
        "addr:postcode": "45928-000",
        "addr:street": "Rua Inglaterra",
        "addr:suburb": "Posto da Mata",
        "amenity": "school",
        "name": "Escola Municipal de Ensino Fundamental Professor Abel Dias de Melo",
        "operator": "Município de Nova Viçosa",
        "operator:type": "public",
        "phone": "+55 73 3209 1055",
        "id": "node/10669356276"
      },
      "geometry": {
        "type": "Point",
        "coordinates": [
          -39.8585389,
          -17.8922737
        ]
      }
    },
    {
      "type": "Feature",
      "id": "node/10669356280",
      "properties": {
        "timestamp": "2023-02-16T22:19:13Z",
        "version": 2,
        "changeset": 132650740,
        "addr:city": "Nova Viçosa",
        "addr:district": "Posto da Mata",
        "addr:housenumber": "100",
        "addr:postcode": "45928-000",
        "addr:street": "Rua Girassol",
        "addr:suburb": "Cidade Alta",
        "amenity": "school",
        "name": "Colégio Estadual Professora Jane Assis Peixoto",
        "operator": "Governo do Estado da Bahia",
        "operator:type": "public",
        "phone": "+55 73 3209 3114",
        "id": "node/10669356280"
      },
      "geometry": {
        "type": "Point",
        "coordinates": [
          -39.8560524,
          -17.8838548
        ]
      }
    },
    {
      "type": "Feature",
      "id": "node/10670023169",
      "properties": {
        "timestamp": "2023-02-16T17:45:20Z",
        "version": 2,
        "changeset": 132640453,
        "addr:city": "Nova Viçosa",
        "addr:district": "Posto da Mata",
        "addr:postcode": "45928-000",
        "addr:state": "Bahia",
        "addr:street": "Rua Ilhéus",
        "amenity": "school",
        "name": "Escola Municipal Deputado Oscar Cardoso",
        "operator": "Município de Nova Viçosa",
        "operator:type": "public",
        "id": "node/10670023169"
      },
      "geometry": {
        "type": "Point",
        "coordinates": [
          -39.8700493,
          -17.8891619
        ]
      }
    },
    {
      "type": "Feature",
      "id": "node/10671156035",
      "properties": {
        "timestamp": "2023-02-16T17:45:20Z",
        "version": 1,
        "changeset": 132640453,
        "addr:city": "Nova Viçosa",
        "addr:district": "Posto da Mata",
        "addr:housenumber": "827",
        "addr:postcode": "45928-000",
        "addr:street": "Rua João Gaspar Dutra",
        "addr:suburb": "Cajueiro",
        "amenity": "school",
        "email": "midian_27@hotmail.com",
        "name": "Escola Municipal Jorge Amado",
        "operator": "Município de Nova Viçosa",
        "operator:type": "public",
        "id": "node/10671156035"
      },
      "geometry": {
        "type": "Point",
        "coordinates": [
          -39.8627949,
          -17.8825446
        ]
      }
    },
    {
      "type": "Feature",
      "id": "node/10672773033",
      "properties": {
        "timestamp": "2023-02-17T10:02:53Z",
        "version": 1,
        "changeset": 132667282,
        "addr:city": "Nova Viçosa",
        "addr:district": "Posto da Mata",
        "addr:postcode": "45928-000",
        "addr:street": "Rua das Andorinhas",
        "addr:suburb": "Jardim Eucalipto",
        "amenity": "school",
        "name": "Escola Municipal Professor Cleicson Costa Barbalho",
        "operator": "Município de Nova Viçosa",
        "operator:type": "public",
        "phone": "+55 73 99952 0880",
        "id": "node/10672773033"
      },
      "geometry": {
        "type": "Point",
        "coordinates": [
          -39.8672777,
          -17.882167
        ]
      }
    },
    {
      "type": "Feature",
      "id": "node/10673032506",
      "properties": {
        "timestamp": "2023-02-17T10:55:46Z",
        "version": 1,
        "changeset": 132669450,
        "addr:city": "Nova Viçosa",
        "addr:district": "Argolo",
        "addr:postcode": "45925-000",
        "addr:street": "Avenida Rio de Janeiro",
        "addr:suburb": "Centro",
        "amenity": "school",
        "name": "Escola Municipal Deolisano Rodrigues de Souza",
        "operator": "Município de Nova Viçosa",
        "operator:type": "public",
        "phone": "+55 73 99806 4746",
        "id": "node/10673032506"
      },
      "geometry": {
        "type": "Point",
        "coordinates": [
          -40.0202993,
          -17.9009658
        ]
      }
    }
  ]
}
