{
  "type": "FeatureCollection",
  "features": [
    {
      "type": "Feature",
      "id": "node/10060612637",
      "properties": {
        "timestamp": "2022-09-29T10:52:13Z",
        "version": 1,
        "changeset": 126774206,
        "addr:city": "Guanhães",
        "addr:housenumber": "3239",
        "addr:postcode": "39740-000",
        "addr:street": "Avenida Governador Milton Campos",
        "addr:suburb": "Centro",
        "government": "prosecutor",
        "name": "Unidade do Sebrae de Guanhães",
        "office": "government",
        "id": "node/10060612637"
      },
      "geometry": {
        "type": "Point",
        "coordinates": [
          -42.9392627,
          -18.7794318
        ]
      }
    },
    {
      "type": "Feature",
      "id": "node/10061123517",
      "properties": {
        "timestamp": "2022-09-29T14:34:52Z",
        "version": 1,
        "changeset": 126784007,
        "addr:city": "Guanhães",
        "addr:postcode": "39740-000",
        "addr:street": "Avenida Governador Milton Campos",
        "addr:suburb": "Centro",
        "alt_name": "Administração Fazendário de Guanhães",
        "government": "tax",
        "name": "Secretaria de Estado da Fazenda - Sefa",
        "office": "government",
        "phone": "+55 33 3421 1004",
        "id": "node/10061123517"
      },
      "geometry": {
        "type": "Point",
        "coordinates": [
          -42.9361109,
          -18.7751988
        ]
      }
    },
    {
      "type": "Feature",
      "id": "node/10061720817",
      "properties": {
        "timestamp": "2023-11-13T21:29:09Z",
        "version": 2,
        "changeset": 143987760,
        "addr:city": "Guanhães",
        "addr:housenumber": "751",
        "addr:postcode": "39740-000",
        "addr:street": "Avenida Ciro Nunes",
        "addr:suburb": "Amazonas",
        "government": "administrative",
        "name": "Departamento de Edificações e Estradas de Rodagem de Minas Gerais - DER/MG",
        "office": "government",
        "phone": "+55 38 3532 6550",
        "website": "https://www.der.mg.gov.br/",
        "id": "node/10061720817"
      },
      "geometry": {
        "type": "Point",
        "coordinates": [
          -42.9442246,
          -18.7832668
        ]
      }
    },
    {
      "type": "Feature",
      "id": "node/10064312959",
      "properties": {
        "timestamp": "2022-09-30T13:39:17Z",
        "version": 1,
        "changeset": 126824107,
        "addr:city": "Guanhães",
        "addr:housenumber": "2619",
        "addr:postcode": "39740-000",
        "addr:street": "Avenida Governador Milton Campos",
        "addr:suburb": "Centro",
        "government": "prosecutor",
        "name": "Promotoria de Justiça da Comarca de Guanhães",
        "office": "government",
        "operator": "Ministério Público do Estado de Minas Gerais",
        "phone": "+55 33 3421 1523",
        "id": "node/10064312959"
      },
      "geometry": {
        "type": "Point",
        "coordinates": [
          -42.9359844,
          -18.775158
        ]
      }
    },
    {
      "type": "Feature",
      "id": "node/10064312961",
      "properties": {
        "timestamp": "2022-09-30T13:39:17Z",
        "version": 1,
        "changeset": 126824107,
        "addr:city": "Guanhães",
        "addr:housenumber": "20",
        "addr:postcode": "39740-000",
        "addr:street": "Avenida Alberto Caldeira",
        "addr:suburb": "Centro",
        "email": "zona121@tre-mg.jus.br",
        "government": "register_office",
        "name": "Cartório da 121º Zona Eleitoral de Guanhães",
        "office": "government",
        "operator": "Tribunal Regional Eleitoral do Estado de Minas Gerais",
        "phone": "+55 33 3421 104",
        "website": "https://www.tre-mg.jus.br/",
        "id": "node/10064312961"
      },
      "geometry": {
        "type": "Point",
        "coordinates": [
          -42.933138,
          -18.7757251
        ]
      }
    },
    {
      "type": "Feature",
      "id": "node/10064312969",
      "properties": {
        "timestamp": "2022-09-30T13:39:17Z",
        "version": 1,
        "changeset": 126824107,
        "addr:city": "Guanhães",
        "addr:housenumber": "2241",
        "addr:postcode": "39740-000",
        "addr:street": "Avenida Governador Milton Campos",
        "addr:suburb": "Centro",
        "email": "cartorioegidio@yahoo.com.br",
        "government": "register_office",
        "name": "Cartório de Ofício de registro civil das pessoas naturais",
        "office": "government",
        "phone": "+55 33 3421 2177",
        "id": "node/10064312969"
      },
      "geometry": {
        "type": "Point",
        "coordinates": [
          -42.9332488,
          -18.7741223
        ]
      }
    },
    {
      "type": "Feature",
      "id": "node/10075682771",
      "properties": {
        "timestamp": "2022-10-04T18:57:12Z",
        "version": 1,
        "changeset": 127011100,
        "addr:city": "Guanhães",
        "addr:housenumber": "2709",
        "addr:postcode": "39740-000",
        "addr:street": "Avenida Governador Milton Campos",
        "addr:suburb": "Centro",
        "email": "guanhaes@ima.mg.gov.br",
        "government": "administrative",
        "name": "Instituto Mineiro de Agropecuária",
        "office": "government",
        "phone": "+55 33 3421 1002",
        "id": "node/10075682771"
      },
      "geometry": {
        "type": "Point",
        "coordinates": [
          -42.9364582,
          -18.7755027
        ]
      }
    },
    {
      "type": "Feature",
      "id": "node/10075682772",
      "properties": {
        "timestamp": "2022-10-04T18:57:12Z",
        "version": 1,
        "changeset": 127011100,
        "addr:city": "Guanhães",
        "addr:housenumber": "205",
        "addr:postcode": "39740-000",
        "addr:street": "Rua Doutor Odilon Behrens",
        "addr:suburb": "Centro",
        "email": "guanhaes@emater.mg.gov.br",
        "government": "administrative",
        "name": "Empresa de Assistência Técnica e Extensão Rural de Minas Gerais - Emater",
        "office": "government",
        "phone": "+55 33 3421 2840",
        "id": "node/10075682772"
      },
      "geometry": {
        "type": "Point",
        "coordinates": [
          -42.9364665,
          -18.776442
        ]
      }
    },
    {
      "type": "Feature",
      "id": "node/10091728092",
      "properties": {
        "timestamp": "2022-10-11T09:34:18Z",
        "version": 1,
        "changeset": 127348223,
        "addr:city": "Guanhães",
        "addr:housenumber": "179",
        "addr:postcode": "39740-000",
        "addr:street": "Praça Néria Coelho Guimarães",
        "addr:suburb": "Centro",
        "email": "aps11032050@inss.gov.br",
        "government": "social_security",
        "name": "Agência da Previdência Social em Guanhães",
        "office": "government",
        "id": "node/10091728092"
      },
      "geometry": {
        "type": "Point",
        "coordinates": [
          -42.9338293,
          -18.7763375
        ]
      }
    }
  ]
}
