{
  "type": "FeatureCollection",
  "features": [
    {
      "type": "Feature",
      "id": "node/5240762949",
      "properties": {
        "timestamp": "2022-09-28T19:11:17Z",
        "version": 2,
        "changeset": 126752884,
        "name": "Hotel Caravelle",
        "tourism": "hotel",
        "id": "node/5240762949"
      },
      "geometry": {
        "type": "Point",
        "coordinates": [
          -42.9305631,
          -18.7700661
        ]
      }
    },
    {
      "type": "Feature",
      "id": "node/6272097112",
      "properties": {
        "timestamp": "2019-02-11T17:02:07Z",
        "version": 1,
        "changeset": 67106686,
        "internet_access": "wlan",
        "name": "Hotel Estrela D'alva",
        "tourism": "hotel",
        "id": "node/6272097112"
      },
      "geometry": {
        "type": "Point",
        "coordinates": [
          -42.9382413,
          -18.7794432
        ]
      }
    },
    {
      "type": "Feature",
      "id": "node/10059632515",
      "properties": {
        "timestamp": "2022-09-29T10:52:13Z",
        "version": 2,
        "changeset": 126774206,
        "addr:city": "Guanhães",
        "addr:housenumber": "3237",
        "addr:postcode": "39740-000",
        "addr:street": "Avenida Governador Milton Campos",
        "addr:suburb": "Centro",
        "name": "Santorini Hotel",
        "phone": "+55 +55 33 3421 0440",
        "tourism": "hotel",
        "id": "node/10059632515"
      },
      "geometry": {
        "type": "Point",
        "coordinates": [
          -42.9391663,
          -18.7792964
        ]
      }
    },
    {
      "type": "Feature",
      "id": "node/10060612636",
      "properties": {
        "timestamp": "2022-09-29T10:52:13Z",
        "version": 1,
        "changeset": 126774206,
        "addr:city": "Guanhães",
        "addr:housenumber": "3212",
        "addr:postcode": "39740-000",
        "addr:street": "Avenida Governador Milton Campos",
        "addr:suburb": "Centro",
        "name": "Hotel Flor do Campo",
        "phone": "+55 33 3421 1914",
        "tourism": "hotel",
        "id": "node/10060612636"
      },
      "geometry": {
        "type": "Point",
        "coordinates": [
          -42.9392997,
          -18.779178
        ]
      }
    }
  ]
}
