{
  "type": "FeatureCollection",
  "features": [
    {
      "type": "Feature",
      "id": "way/1098881678",
      "properties": {
        "timestamp": "2022-09-29T17:16:24Z",
        "version": 1,
        "changeset": 126790689,
        "addr:city": "Guanhães",
        "addr:postcode": "39740-000",
        "addr:street": "Rua Doutor Abilio Gama Cerqueira Pereira",
        "addr:suburb": "Nova União",
        "amenity": "school",
        "name": "Escola Municipal Gustavo Coelho",
        "id": "way/1098881678"
      },
      "geometry": {
        "type": "Polygon",
        "coordinates": [
          [
            [
              -42.948542,
              -18.7575145
            ],
            [
              -42.9482702,
              -18.7583196
            ],
            [
              -42.9480434,
              -18.7585694
            ],
            [
              -42.9475257,
              -18.7587649
            ],
            [
              -42.9474453,
              -18.7587446
            ],
            [
              -42.947802,
              -18.7573401
            ],
            [
              -42.948542,
              -18.7575145
            ]
          ]
        ]
      }
    },
    {
      "type": "Feature",
      "id": "node/3764194271",
      "properties": {
        "timestamp": "2022-09-30T00:25:55Z",
        "version": 2,
        "changeset": 126801623,
        "addr:city": "Guanhães",
        "addr:housenumber": "353",
        "addr:postcode": "39740-000",
        "addr:suburb": "Correntinho",
        "amenity": "school",
        "email": "escola.43681@educacao.mg.gov.br",
        "name": "Escola Estadual Tenente José Coelho da Rocha",
        "phone": "+55 33 3421 9113",
        "id": "node/3764194271"
      },
      "geometry": {
        "type": "Point",
        "coordinates": [
          -42.7741409,
          -18.6759248
        ]
      }
    },
    {
      "type": "Feature",
      "id": "node/4141951729",
      "properties": {
        "timestamp": "2016-04-23T01:36:18Z",
        "version": 1,
        "changeset": 38803454,
        "addr:city": "Guanhães",
        "addr:housenumber": "544",
        "addr:postcode": "39740-000",
        "addr:street": "Rua Wantuil Caldeira",
        "addr:suburb": "Expansão",
        "amenity": "school",
        "name": "Instituto Presbiteriano Gammon",
        "id": "node/4141951729"
      },
      "geometry": {
        "type": "Point",
        "coordinates": [
          -42.9328749,
          -18.7879431
        ]
      }
    },
    {
      "type": "Feature",
      "id": "node/6044689514",
      "properties": {
        "timestamp": "2018-11-07T18:57:45Z",
        "version": 1,
        "changeset": 64271022,
        "amenity": "school",
        "id": "node/6044689514"
      },
      "geometry": {
        "type": "Point",
        "coordinates": [
          -42.9575238,
          -18.7953456
        ]
      }
    },
    {
      "type": "Feature",
      "id": "node/8338873908",
      "properties": {
        "timestamp": "2022-10-11T00:22:16Z",
        "version": 4,
        "changeset": 127328551,
        "addr:city": "Guanhães",
        "addr:housenumber": "43",
        "addr:postcode": "39742-000",
        "addr:street": "Rua São Geraldo",
        "addr:suburb": "Sapucaia de Guanhães",
        "amenity": "school",
        "name": "Escola Estadual Otávio Nunes Leite",
        "operator": "Secretaria de Educação do Estado de Minas Gerais",
        "operator:type": "public",
        "id": "node/8338873908"
      },
      "geometry": {
        "type": "Point",
        "coordinates": [
          -42.6185782,
          -18.9204394
        ]
      }
    },
    {
      "type": "Feature",
      "id": "node/8342182872",
      "properties": {
        "timestamp": "2022-09-29T21:35:46Z",
        "version": 2,
        "changeset": 126799171,
        "addr:city": "Guanhães",
        "addr:housenumber": "160",
        "addr:postcode": "39740-000",
        "addr:street": "Rua Belo Horizonte",
        "amenity": "school",
        "name": "Escola Estadual Senador Francisco Nunes Coelho",
        "id": "node/8342182872"
      },
      "geometry": {
        "type": "Point",
        "coordinates": [
          -42.933913,
          -18.7699736
        ]
      }
    },
    {
      "type": "Feature",
      "id": "node/10061707211",
      "properties": {
        "timestamp": "2022-09-29T17:16:24Z",
        "version": 1,
        "changeset": 126790689,
        "addr:city": "Guanhães",
        "addr:housenumber": "100",
        "addr:postcode": "39740-000",
        "addr:street": "Avenida Vitória Régia",
        "addr:suburb": "Jardins",
        "amenity": "school",
        "name": "Colégio Vygotsky",
        "operator": "Instituto Valare de Educacao Limitada",
        "operator:type": "private",
        "id": "node/10061707211"
      },
      "geometry": {
        "type": "Point",
        "coordinates": [
          -42.9474478,
          -18.7883516
        ]
      }
    },
    {
      "type": "Feature",
      "id": "node/10062510627",
      "properties": {
        "timestamp": "2022-09-29T21:35:46Z",
        "version": 1,
        "changeset": 126799171,
        "addr:city": "Guanhães",
        "addr:housenumber": "31",
        "addr:postcode": "39740-000",
        "addr:street": "Rua Claudionor Nunes",
        "addr:suburb": "Centro",
        "amenity": "school",
        "email": "escola.43567@educacao.mg.gov.br",
        "name": "Escola Estadual Altivo Coelho",
        "operator": "Secretaria de Educação do Estado de Minas Gerais",
        "operator:type": "public",
        "phone": "+55 33 3421 1757",
        "id": "node/10062510627"
      },
      "geometry": {
        "type": "Point",
        "coordinates": [
          -42.9354614,
          -18.7771361
        ]
      }
    },
    {
      "type": "Feature",
      "id": "node/10062510653",
      "properties": {
        "timestamp": "2022-09-29T21:35:46Z",
        "version": 1,
        "changeset": 126799171,
        "addr:city": "Guanhães",
        "addr:housenumber": "263",
        "addr:postcode": "39740-000",
        "addr:street": "Praça Benedito Pereira",
        "addr:suburb": "Centro",
        "amenity": "school",
        "email": "escola.43613@educacao.mg.gov.br",
        "name": "Escola Estadual Odilon Behrens",
        "operator": "Secretaria de Educação do Estado de Minas Gerais",
        "operator:type": "public",
        "phone": "+55 33 3421 2575",
        "id": "node/10062510653"
      },
      "geometry": {
        "type": "Point",
        "coordinates": [
          -42.9369659,
          -18.7786053
        ]
      }
    },
    {
      "type": "Feature",
      "id": "node/10062510665",
      "properties": {
        "timestamp": "2022-09-29T21:35:46Z",
        "version": 1,
        "changeset": 126799171,
        "addr:city": "Guanhães",
        "addr:postcode": "39740-000",
        "addr:street": "Rua Josefina Pimentel",
        "addr:suburb": "Recanto da Serra",
        "amenity": "school",
        "email": "empingodeluz@yahoo.com.br",
        "name": "Escola Municipal Pingo de Luz",
        "phone": "+55 33 3421 4051",
        "id": "node/10062510665"
      },
      "geometry": {
        "type": "Point",
        "coordinates": [
          -42.9370285,
          -18.7799896
        ]
      }
    },
    {
      "type": "Feature",
      "id": "node/10062716260",
      "properties": {
        "timestamp": "2022-09-30T02:33:17Z",
        "version": 1,
        "changeset": 126802631,
        "addr:city": "Guanhães",
        "addr:housenumber": "118",
        "addr:postcode": "39743-000",
        "addr:street": "Rua Jose Inês de Souza",
        "addr:suburb": "Vila do Taquaral",
        "amenity": "school",
        "name": "Escola Estadual Nossa Senhora do Carmo",
        "id": "node/10062716260"
      },
      "geometry": {
        "type": "Point",
        "coordinates": [
          -42.7949355,
          -18.8844579
        ]
      }
    },
    {
      "type": "Feature",
      "id": "node/10063917843",
      "properties": {
        "timestamp": "2022-09-30T10:05:19Z",
        "version": 1,
        "changeset": 126815946,
        "addr:city": "Guanhães",
        "addr:postcode": "39744-000",
        "addr:street": "Rua Altina Machado",
        "addr:suburb": "Farias",
        "amenity": "school",
        "name": "Escola Estadual Alberto Cadeira Lott",
        "id": "node/10063917843"
      },
      "geometry": {
        "type": "Point",
        "coordinates": [
          -42.8252717,
          -19.012769
        ]
      }
    },
    {
      "type": "Feature",
      "id": "node/11240820352",
      "properties": {
        "timestamp": "2023-10-05T10:28:41Z",
        "version": 1,
        "changeset": 142183018,
        "amenity": "school",
        "name": "Novo Ser",
        "id": "node/11240820352"
      },
      "geometry": {
        "type": "Point",
        "coordinates": [
          -42.9454406,
          -18.7856383
        ]
      }
    }
  ]
}
