{
  "type": "FeatureCollection",
  "features": [
    {
      "type": "Feature",
      "id": "way/1016284400",
      "properties": {
        "timestamp": "2024-10-05T13:35:56Z",
        "version": 3,
        "changeset": 157501552,
        "addr:city": "Pedro Canário",
        "addr:housenumber": "km 0",
        "addr:postcode": "29970-000",
        "addr:street": "Rodovia Governador Mário Covas",
        "addr:suburb": "Córrego Dourado",
        "building": "yes",
        "email": "pdalunz@idaf.es.gov.br",
        "government": "agriculture",
        "name": "Posto de Fiscalização Agropecuária Amarílio Lunz",
        "office": "government",
        "opening_hours": "24/7",
        "operator": "Instituto de Defesa Agropecuária e Florestal do Espírito Santo - Idaf",
        "phone": "+55 27 3764 2613",
        "website": "https://idaf.es.gov.br/contatosidaf/pedro-canario",
        "id": "way/1016284400"
      },
      "geometry": {
        "type": "Polygon",
        "coordinates": [
          [
            [
              -39.9204485,
              -18.1776121
            ],
            [
              -39.9203091,
              -18.1777064
            ],
            [
              -39.9201868,
              -18.1775434
            ],
            [
              -39.9203262,
              -18.1774491
            ],
            [
              -39.9204485,
              -18.1776121
            ]
          ]
        ]
      }
    },
    {
      "type": "Feature",
      "id": "node/10549104312",
      "properties": {
        "timestamp": "2023-01-13T14:47:38Z",
        "version": 1,
        "changeset": 131232978,
        "addr:city": "Pedro Canário",
        "addr:postcode": "29970-000",
        "addr:street": "Rua Canavieiras",
        "addr:suburb": "Novo Horizonte",
        "government": "prosecutor",
        "name": "Promotoria de Justiça de Pedro Canário",
        "office": "government",
        "opening_hours": "Mo-Fr 12:00-18:00",
        "operator": "Ministério Público do Estado do Espírito Santo",
        "phone": "+55 27 3764 1341",
        "id": "node/10549104312"
      },
      "geometry": {
        "type": "Point",
        "coordinates": [
          -39.9578079,
          -18.2933063
        ]
      }
    },
    {
      "type": "Feature",
      "id": "node/10552798848",
      "properties": {
        "timestamp": "2023-01-13T19:53:39Z",
        "version": 1,
        "changeset": 131243333,
        "addr:city": "Pedro Canário",
        "addr:housenumber": "430",
        "addr:postcode": "29970-000",
        "addr:street": "Avenida Vila Velha",
        "addr:suburb": "Centro",
        "email": "pedrocanario@incaper.es.gov.br",
        "government": "agriculture",
        "name": "Escritório de Desenvolvimento Rural do Incaper",
        "office": "government",
        "phone": "+55 27 3764 1145",
        "id": "node/10552798848"
      },
      "geometry": {
        "type": "Point",
        "coordinates": [
          -39.9554611,
          -18.3020089
        ]
      }
    },
    {
      "type": "Feature",
      "id": "node/10552798849",
      "properties": {
        "timestamp": "2023-01-13T19:53:39Z",
        "version": 1,
        "changeset": 131243333,
        "addr:city": "Pedro Canário",
        "addr:housenumber": "430",
        "addr:postcode": "29970-000",
        "addr:street": "Avenida Vila Velha",
        "addr:suburb": "Centro",
        "email": "glpcanario@idaf.es.gov.br",
        "government": "agriculture",
        "name": "Escritório Local do Idaf",
        "office": "government",
        "phone": "+55 27 3764 2613",
        "id": "node/10552798849"
      },
      "geometry": {
        "type": "Point",
        "coordinates": [
          -39.9553722,
          -18.3021373
        ]
      }
    },
    {
      "type": "Feature",
      "id": "node/10554578517",
      "properties": {
        "timestamp": "2023-01-14T14:22:29Z",
        "version": 1,
        "changeset": 131266790,
        "addr:city": "Pedro Canário",
        "addr:postcode": "29970-000",
        "addr:street": "Avenida Alberto dos Reis Castro",
        "addr:suburb": "Novo Horizonte",
        "government": "social_security",
        "name": "Agência da Previdência Social em Pedro Canário",
        "office": "government",
        "id": "node/10554578517"
      },
      "geometry": {
        "type": "Point",
        "coordinates": [
          -39.9603097,
          -18.2944799
        ]
      }
    },
    {
      "type": "Feature",
      "id": "node/10562121576",
      "properties": {
        "timestamp": "2023-01-17T12:48:31Z",
        "version": 1,
        "changeset": 131377996,
        "addr:city": "Pedro Canário",
        "addr:housenumber": "275",
        "addr:postcode": "29970-000",
        "addr:street": "Rua Amália Negreiro de Castro",
        "addr:suburb": "Centro",
        "email": "zmail27@tre-es.jus.br",
        "government": "register_office",
        "mobile": "+55 27 98170 5609",
        "name": "Cartório Eleitoral da 27ª Zona",
        "office": "government",
        "operator": "Tribunal Regional Eleitoral do Estado do Espírito Santo",
        "phone": "+55 27 3764 1492",
        "id": "node/10562121576"
      },
      "geometry": {
        "type": "Point",
        "coordinates": [
          -39.9535041,
          -18.3003213
        ]
      }
    }
  ]
}
