{
  "type": "FeatureCollection",
  "features": [
    {
      "type": "Feature",
      "id": "node/4604398093",
      "properties": {
        "timestamp": "2023-01-13T14:47:38Z",
        "version": 3,
        "changeset": 131232978,
        "addr:city": "Pedro Canário",
        "addr:postcode": "29970-000",
        "addr:street": "Rua Caltrem",
        "name": "Ápides Palace Hotel",
        "tourism": "hotel",
        "id": "node/4604398093"
      },
      "geometry": {
        "type": "Point",
        "coordinates": [
          -39.956678,
          -18.2914744
        ]
      }
    },
    {
      "type": "Feature",
      "id": "node/10553693357",
      "properties": {
        "timestamp": "2023-01-14T01:15:44Z",
        "version": 1,
        "changeset": 131250058,
        "addr:city": "Pedro Canário",
        "addr:housenumber": "590",
        "addr:postcode": "29970-000",
        "addr:street": "Avenida Salvador",
        "addr:suburb": "Centro",
        "name": "Hotel Lm",
        "phone": "+55 27 3764 2146",
        "tourism": "hotel",
        "id": "node/10553693357"
      },
      "geometry": {
        "type": "Point",
        "coordinates": [
          -39.956311,
          -18.2946046
        ]
      }
    }
  ]
}
