{
  "type": "FeatureCollection",
  "features": [
    {
      "type": "Feature",
      "id": "way/1131763225",
      "properties": {
        "timestamp": "2023-01-13T19:12:21Z",
        "version": 1,
        "changeset": 131242269,
        "addr:city": "Pedro Canário",
        "addr:postcode": "29970-000",
        "addr:street": "Avenida Espírito Santo",
        "addr:suburb": "Felinto Damião",
        "amenity": "kindergarten",
        "name": "Centro de Educação Infantil Municipal Oficina dos Sonhos",
        "operator": "Município de Pedro Canário",
        "operator:type": "public",
        "phone": "+55 27 3764 2055",
        "id": "way/1131763225"
      },
      "geometry": {
        "type": "Polygon",
        "coordinates": [
          [
            [
              -39.9472836,
              -18.2981994
            ],
            [
              -39.9471951,
              -18.2985199
            ],
            [
              -39.9467457,
              -18.2984116
            ],
            [
              -39.9468644,
              -18.29808
            ],
            [
              -39.9472836,
              -18.2981994
            ]
          ]
        ]
      }
    }
  ]
}
