{
  "type": "FeatureCollection",
  "features": [
    {
      "type": "Feature",
      "id": "way/252898031",
      "properties": {
        "timestamp": "2015-12-04T13:57:08Z",
        "version": 2,
        "changeset": 35747801,
        "addr:city": "Bofete",
        "addr:housenumber": "155",
        "addr:postcode": "18590-000",
        "addr:street": "Rua Ernesto Eburneo",
        "amenity": "clinic",
        "building": "yes",
        "emergency": "yes",
        "name": "Unidade Básica de Saúde Bruno Novaes",
        "phone": "+55 14 38831340",
        "short_name": "UBS Bruno Novaes",
        "wheelchair": "yes",
        "id": "way/252898031"
      },
      "geometry": {
        "type": "Polygon",
        "coordinates": [
          [
            [
              -48.2603626,
              -23.1037076
            ],
            [
              -48.2604351,
              -23.1037568
            ],
            [
              -48.2603061,
              -23.1039071
            ],
            [
              -48.2602494,
              -23.1038456
            ],
            [
              -48.2603626,
              -23.1037076
            ]
          ]
        ]
      }
    }
  ]
}
