{
  "type": "FeatureCollection",
  "features": [
    {
      "type": "Feature",
      "id": "node/12496332631",
      "properties": {
        "timestamp": "2025-02-12T15:17:22Z",
        "version": 8,
        "changeset": 162434425,
        "addr:city": "Urussanga",
        "addr:housenumber": "170",
        "addr:postcode": "88840-000",
        "addr:street": "Rua Vidal Ramos",
        "addr:suburb": "Centro",
        "amenity": "dentist",
        "check_date:currency:XBT": "2025-01-12",
        "currency:XBT": "yes",
        "healthcare": "dentist",
        "healthcare:speciality": "dentist;orthodontics;implantology;paediatrics;periodontia;dental_oral_maxillo_facial_surgery;invisalign;harmonização_facial",
        "instagram": "https://www.instagram.com/drafabiolazanin",
        "name": "Consultório odontológico Dra Fabiola Zanin",
        "opening_hours": "Mo-Fr 08:00-18:00",
        "payment:bitcoin": "yes",
        "payment:lightning": "yes",
        "phone": "048996572209",
        "website": "https://fabiolazanin.com.br/",
        "id": "node/12496332631"
      },
      "geometry": {
        "type": "Point",
        "coordinates": [
          -49.3229071,
          -28.5232336
        ]
      }
    }
  ]
}
