{
  "type": "FeatureCollection",
  "features": [
    {
      "type": "Feature",
      "id": "node/5448081122",
      "properties": {
        "timestamp": "2019-10-07T17:03:36Z",
        "version": 2,
        "changeset": 75387085,
        "amenity": "cinema",
        "brand": "Cinemark",
        "brand:wikidata": "Q707530",
        "brand:wikipedia": "en:Cinemark Theatres",
        "name": "Cinemark",
        "id": "node/5448081122"
      },
      "geometry": {
        "type": "Point",
        "coordinates": [
          -46.548349,
          -23.488606
        ]
      }
    },
    {
      "type": "Feature",
      "id": "node/5543482776",
      "properties": {
        "timestamp": "2024-04-10T23:26:58Z",
        "version": 2,
        "changeset": 149841971,
        "addr:city": "Guarulhos",
        "addr:street": "Avenida Roza Molina Pannocchia",
        "addr:suburb": "Vila Rio de Janeiro",
        "amenity": "cinema",
        "brand": "Moviecom",
        "brand:wikidata": "Q10332780",
        "name": "Moviecom",
        "opening_hours": "13:00-00:00",
        "id": "node/5543482776"
      },
      "geometry": {
        "type": "Point",
        "coordinates": [
          -46.5366155,
          -23.4282628
        ]
      }
    }
  ]
}
