{
  "type": "FeatureCollection",
  "features": [
    {
      "type": "Feature",
      "id": "relation/4453911",
      "properties": {
        "timestamp": "2023-09-07T23:06:26Z",
        "version": 5,
        "changeset": 140961337,
        "addr:city": "Guarulhos",
        "addr:housenumber": "25",
        "addr:postcode": "07191-290",
        "addr:street": "Rua Esmeralda",
        "addr:suburb": "Jardim Santa Bárbara",
        "amenity": "clinic",
        "email": "ubsvlfatima@gmail.com",
        "emergency": "no",
        "healthcare": "clinic",
        "name": "UBS Vila Fátima",
        "opening_hours": "Mo-Fr 07:00-17:00",
        "operator:ref:vatin": "BR46319000000150",
        "phone": "+55 11 2408 8287",
        "phone_1": "+55 11 2409 9112",
        "ref:CNES": "2054531",
        "short_name": "UBS Vila Fátima",
        "type": "multipolygon",
        "id": "relation/4453911"
      },
      "geometry": {
        "type": "MultiPolygon",
        "coordinates": [
          [
            [
              [
                -46.5097179,
                -23.4596558
              ],
              [
                -46.5097863,
                -23.4596651
              ],
              [
                -46.5097772,
                -23.4597212
              ],
              [
                -46.5097422,
                -23.4597164
              ],
              [
                -46.5097088,
                -23.4597119
              ],
              [
                -46.5097179,
                -23.4596558
              ]
            ]
          ],
          [
            [
              [
                -46.5097402,
                -23.459432
              ],
              [
                -46.5096992,
                -23.459627
              ],
              [
                -46.5095796,
                -23.4596059
              ],
              [
                -46.5096207,
                -23.4594108
              ],
              [
                -46.5097402,
                -23.459432
              ]
            ]
          ]
        ]
      }
    },
    {
      "type": "Feature",
      "id": "way/228846516",
      "properties": {
        "timestamp": "2022-10-28T15:10:11Z",
        "version": 5,
        "changeset": 128179643,
        "addr:city": "Guarulhos",
        "addr:postcode": "07170-550",
        "addr:street": "Rua São Paulo",
        "addr:suburb": "Jardim Ponte Alta",
        "amenity": "clinic",
        "building": "yes",
        "healthcare": "clinic",
        "healthcare:speciality": "general;paediatrics;vaccination;gynaecology",
        "name": "Unidade Básica de Saúde Ponte Alta",
        "opening_hours": "Mo-Fr 07:00-17:00; Sa,Su,PH off",
        "operator": "Secretaria da Saúde",
        "operator:type": "government",
        "phone": "+55 11 2439 8303",
        "ref": "INEP-3323005",
        "short_name": "UBS Ponte Alta",
        "source": "bing;CNES",
        "id": "way/228846516"
      },
      "geometry": {
        "type": "Polygon",
        "coordinates": [
          [
            [
              -46.4221932,
              -23.3980207
            ],
            [
              -46.4222424,
              -23.3979948
            ],
            [
              -46.4223888,
              -23.398013
            ],
            [
              -46.4223624,
              -23.3981846
            ],
            [
              -46.4221644,
              -23.3981587
            ],
            [
              -46.4221932,
              -23.3980207
            ]
          ]
        ]
      }
    },
    {
      "type": "Feature",
      "id": "way/298503414",
      "properties": {
        "timestamp": "2023-09-07T23:06:26Z",
        "version": 8,
        "changeset": 140961337,
        "addr:city": "Guarulhos",
        "addr:housenumber": "78",
        "addr:postcode": "07190-029",
        "addr:street": "Rua Professora Maria Del Pilar Muñoz Bononato",
        "addr:suburb": "Parque Cecap",
        "amenity": "clinic",
        "building": "yes",
        "healthcare": "clinic",
        "name": "Unidade Básica de Saúde Parque Cecap",
        "operator:ref:vatin": "BR46319000000150",
        "ref:CNES": "2040085",
        "id": "way/298503414"
      },
      "geometry": {
        "type": "Polygon",
        "coordinates": [
          [
            [
              -46.4966906,
              -23.4606646
            ],
            [
              -46.4965985,
              -23.4608715
            ],
            [
              -46.4963923,
              -23.4607943
            ],
            [
              -46.4964843,
              -23.4605874
            ],
            [
              -46.4966906,
              -23.4606646
            ]
          ]
        ]
      }
    },
    {
      "type": "Feature",
      "id": "way/422974560",
      "properties": {
        "timestamp": "2024-02-15T21:16:23Z",
        "version": 2,
        "changeset": 147508506,
        "addr:city": "Guarulhos",
        "addr:housenumber": "237",
        "addr:street": "Rua Tapiramuta",
        "addr:suburb": "Vila Nova Bonsucesso",
        "amenity": "clinic",
        "healthcare": "clinic",
        "name": "UBS Nova Bonsucesso",
        "id": "way/422974560"
      },
      "geometry": {
        "type": "Polygon",
        "coordinates": [
          [
            [
              -46.4037889,
              -23.4082379
            ],
            [
              -46.4038437,
              -23.4082616
            ],
            [
              -46.4038231,
              -23.4083412
            ],
            [
              -46.4030357,
              -23.4086442
            ],
            [
              -46.4030093,
              -23.4086285
            ],
            [
              -46.4030064,
              -23.4086001
            ],
            [
              -46.4031364,
              -23.4082917
            ],
            [
              -46.4032538,
              -23.4080113
            ],
            [
              -46.4035502,
              -23.4081099
            ],
            [
              -46.403577,
              -23.4081714
            ],
            [
              -46.4037889,
              -23.4082379
            ]
          ]
        ]
      }
    },
    {
      "type": "Feature",
      "id": "way/441479957",
      "properties": {
        "timestamp": "2016-09-08T16:26:28Z",
        "version": 1,
        "changeset": 42007592,
        "addr:city": "Guarulhos",
        "addr:street": "Rua Lions",
        "addr:suburb": "Vila Rio de Janeiro",
        "amenity": "clinic",
        "building": "yes",
        "name": "UBS Vila Rio de Janeiro",
        "id": "way/441479957"
      },
      "geometry": {
        "type": "Polygon",
        "coordinates": [
          [
            [
              -46.5365953,
              -23.4406664
            ],
            [
              -46.5363083,
              -23.4406664
            ],
            [
              -46.5365282,
              -23.4403932
            ],
            [
              -46.5368313,
              -23.4405335
            ],
            [
              -46.5367884,
              -23.4405667
            ],
            [
              -46.5367616,
              -23.4406639
            ],
            [
              -46.5365953,
              -23.4406664
            ]
          ]
        ]
      }
    },
    {
      "type": "Feature",
      "id": "way/462602782",
      "properties": {
        "timestamp": "2023-09-07T23:06:26Z",
        "version": 4,
        "changeset": 140961337,
        "addr:city": "Guarulhos",
        "addr:housenumber": "79",
        "addr:postcode": "07155-120",
        "addr:street": "Rua Pocrane",
        "addr:suburb": "Haroldo Veloso",
        "amenity": "clinic",
        "building": "yes",
        "healthcare": "clinic",
        "healthcare:speciality": "general;paediatrics;vaccination;gynaecology",
        "name": "Unidade Básica de Saúde Haroldo Veloso",
        "opening_hours": "Mo-Fr 0700-17:00; sa,Su,PH off",
        "operator:ref:vatin": "BR46319000000150",
        "phone": "+55 11 2469 7006",
        "ref": "CNES-2090554",
        "ref:CNES": "2090554",
        "short_name": "UBS Haroldo Veloso",
        "source": "CNES",
        "id": "way/462602782"
      },
      "geometry": {
        "type": "Polygon",
        "coordinates": [
          [
            [
              -46.4709708,
              -23.4157865
            ],
            [
              -46.470834,
              -23.4160572
            ],
            [
              -46.4704156,
              -23.4158849
            ],
            [
              -46.4705631,
              -23.4156142
            ],
            [
              -46.4709708,
              -23.4157865
            ]
          ]
        ]
      }
    },
    {
      "type": "Feature",
      "id": "way/529273179",
      "properties": {
        "timestamp": "2022-05-26T02:19:29Z",
        "version": 4,
        "changeset": 121498240,
        "addr:city": "Guarulhos",
        "addr:housenumber": "116",
        "addr:postcode": "07151-480",
        "addr:street": "Rua Taipú",
        "addr:suburb": "Jardim São João",
        "amenity": "clinic",
        "building": "yes",
        "email": "cemeg.saojoao@gmail.com",
        "healthcare": "clinic",
        "loc_name": "CEMEG São João",
        "name": "Centro de Especialidades Médicas de Guarulhos São João",
        "opening_hours": "Mo-Fr 07:00-19:00; Sa,Su,PH off",
        "operator": "Secretaria da Saúde do Munícipio de Guarulhos",
        "operator:type": "government",
        "phone": "+55 11 2086 2280",
        "ref": "CNES-2053241",
        "source": "CNES",
        "id": "way/529273179"
      },
      "geometry": {
        "type": "Polygon",
        "coordinates": [
          [
            [
              -46.4586216,
              -23.4098189
            ],
            [
              -46.458379,
              -23.4101328
            ],
            [
              -46.4583374,
              -23.4101258
            ],
            [
              -46.4582293,
              -23.4100558
            ],
            [
              -46.4582316,
              -23.4100442
            ],
            [
              -46.4582094,
              -23.4100422
            ],
            [
              -46.4583548,
              -23.4098352
            ],
            [
              -46.4583005,
              -23.4097952
            ],
            [
              -46.4584054,
              -23.409671
            ],
            [
              -46.4586216,
              -23.4098189
            ]
          ]
        ]
      }
    },
    {
      "type": "Feature",
      "id": "way/531342123",
      "properties": {
        "timestamp": "2023-09-07T23:06:26Z",
        "version": 5,
        "changeset": 140961337,
        "addr:city": "Guarulhos",
        "addr:housenumber": "370",
        "addr:postcode": "07044-020",
        "addr:street": "Rua Fritz Reimann",
        "addr:suburb": "Vila São João",
        "amenity": "clinic",
        "building": "yes",
        "healthcare": "clinic",
        "name": "Gamédica",
        "opening_hours": "Mo-Fr 08:00-18:00",
        "phone": "+55 11 2422 2448",
        "ref:CNES": "2718286",
        "ref:vatin": "BR61007340000139",
        "id": "way/531342123"
      },
      "geometry": {
        "type": "Polygon",
        "coordinates": [
          [
            [
              -46.5535569,
              -23.4802642
            ],
            [
              -46.553565,
              -23.480312
            ],
            [
              -46.5535233,
              -23.4803139
            ],
            [
              -46.5535453,
              -23.480358
            ],
            [
              -46.5534717,
              -23.4803773
            ],
            [
              -46.5534546,
              -23.4802815
            ],
            [
              -46.5535569,
              -23.4802642
            ]
          ]
        ]
      }
    },
    {
      "type": "Feature",
      "id": "way/531547680",
      "properties": {
        "timestamp": "2023-09-07T23:06:26Z",
        "version": 4,
        "changeset": 140961337,
        "addr:city": "Guarulhos",
        "addr:housenumber": "412",
        "addr:postcode": "07044-000",
        "addr:street": "Rua Cavadas",
        "addr:suburb": "Vila São João",
        "amenity": "clinic",
        "building": "yes",
        "healthcare": "clinic",
        "healthcare:speciality": "general;paediatrics;vaccination;gynaecology",
        "name": "Unidade Básica de Saúde Cavadas",
        "opening_hours": "Mo-Fr 07:00-17:00; Sa,Su,PH off",
        "operator": "Secretaria da Saúde",
        "operator:ref:vatin": "BR46319000000150",
        "operator:type": "government",
        "phone": "+55 11 2425 5405",
        "ref": "CNES-2084597",
        "ref:CNES": "2084597",
        "short_name": "UBS Cavadas",
        "source": "CNES",
        "id": "way/531547680"
      },
      "geometry": {
        "type": "Polygon",
        "coordinates": [
          [
            [
              -46.5521643,
              -23.479142
            ],
            [
              -46.5521947,
              -23.4793111
            ],
            [
              -46.5520932,
              -23.4793262
            ],
            [
              -46.5520687,
              -23.4791595
            ],
            [
              -46.5521643,
              -23.479142
            ]
          ]
        ]
      }
    },
    {
      "type": "Feature",
      "id": "way/550054733",
      "properties": {
        "timestamp": "2022-09-27T22:35:57Z",
        "version": 2,
        "changeset": 126716023,
        "addr:housenumber": "74",
        "addr:street": "Rua Lagoa de Dentro",
        "amenity": "clinic",
        "building": "yes",
        "healthcare": "clinic",
        "name": "Clinica Médica São João",
        "operator": "Doutor Eduardo Carneiro",
        "operator:type": "private",
        "id": "way/550054733"
      },
      "geometry": {
        "type": "Polygon",
        "coordinates": [
          [
            [
              -46.4561791,
              -23.4137098
            ],
            [
              -46.4561963,
              -23.4137262
            ],
            [
              -46.4562556,
              -23.4138468
            ],
            [
              -46.456174,
              -23.4138806
            ],
            [
              -46.4561051,
              -23.4137405
            ],
            [
              -46.4561791,
              -23.4137098
            ]
          ]
        ]
      }
    },
    {
      "type": "Feature",
      "id": "way/550054736",
      "properties": {
        "timestamp": "2022-09-27T22:35:57Z",
        "version": 2,
        "changeset": 126716023,
        "addr:street": "Rua Lagoa de Dentro",
        "amenity": "clinic",
        "building": "yes",
        "healthcare": "clinic",
        "name": "Clinica Médica São João",
        "operator": "Doutor Eduardo Carneiro",
        "operator:type": "private",
        "phone": "+55 11 2229 2930",
        "id": "way/550054736"
      },
      "geometry": {
        "type": "Polygon",
        "coordinates": [
          [
            [
              -46.4560472,
              -23.4134556
            ],
            [
              -46.4560756,
              -23.413461
            ],
            [
              -46.456096,
              -23.4134827
            ],
            [
              -46.4561379,
              -23.413592
            ],
            [
              -46.4560727,
              -23.4136103
            ],
            [
              -46.4560021,
              -23.4134781
            ],
            [
              -46.4560472,
              -23.4134556
            ]
          ]
        ]
      }
    },
    {
      "type": "Feature",
      "id": "way/609610039",
      "properties": {
        "timestamp": "2022-05-25T19:54:59Z",
        "version": 3,
        "changeset": 121491100,
        "addr:city": "Guarulhos",
        "addr:postcode": "07178-540",
        "addr:street": "Avenida Serra da Mantiqueira",
        "addr:suburb": "Vila Carmela",
        "amenity": "clinic",
        "building": "yes",
        "healthcare": "clinic",
        "healthcare:speciality": "general;paediatrics;vaccination;gynaecology",
        "name": "Unidade Básica de Saúde Vila Carmela",
        "opening_hours": "Mo-Fr 07:00-17:00; Sa,Su,PH off",
        "operator": "Secretaria da Saúde de Guarulhos",
        "operator:type": "government",
        "phone": "+55 11 2436 0985",
        "ref": "CNES-2064405",
        "source": "CNES",
        "id": "way/609610039"
      },
      "geometry": {
        "type": "Polygon",
        "coordinates": [
          [
            [
              -46.3936285,
              -23.398636
            ],
            [
              -46.3936147,
              -23.3987167
            ],
            [
              -46.393481,
              -23.3986929
            ],
            [
              -46.3934788,
              -23.3987155
            ],
            [
              -46.3936032,
              -23.3987446
            ],
            [
              -46.393575,
              -23.3988259
            ],
            [
              -46.3933523,
              -23.398781
            ],
            [
              -46.3934018,
              -23.3986102
            ],
            [
              -46.3934723,
              -23.3986213
            ],
            [
              -46.3934823,
              -23.3986013
            ],
            [
              -46.3936285,
              -23.398636
            ]
          ]
        ]
      }
    },
    {
      "type": "Feature",
      "id": "way/726999482",
      "properties": {
        "timestamp": "2023-09-07T23:06:26Z",
        "version": 3,
        "changeset": 140961337,
        "addr:city": "Guarulhos",
        "addr:housenumber": "233",
        "addr:postcode": "07085-380",
        "addr:street": "Rua Adolfo Noronha de Vasconcelos",
        "addr:suburb": "Paque Continental III",
        "amenity": "clinic",
        "building": "yes",
        "emergency": "no",
        "healthcare": "clinic",
        "healthcare:speciality": "general;dentistry;vaccination;paediatrics;gynaecology",
        "name": "Unidade Básica de Saúde Cambará",
        "opening_hours": "Mo-Fr 07:00-17:00",
        "operator": "Secretaria da Saúde",
        "operator:ref:vatin": "BR46319000000150",
        "operator:type": "government",
        "phone": "+55 11 2086 1059",
        "ref": "CNES-5501083",
        "ref:CNES": "5501083",
        "short_name": "UBS Cambará",
        "source": "CNES",
        "id": "way/726999482"
      },
      "geometry": {
        "type": "Polygon",
        "coordinates": [
          [
            [
              -46.5562983,
              -23.4211663
            ],
            [
              -46.5562669,
              -23.4212306
            ],
            [
              -46.5561335,
              -23.4211673
            ],
            [
              -46.556168,
              -23.4211087
            ],
            [
              -46.5562983,
              -23.4211663
            ]
          ]
        ]
      }
    },
    {
      "type": "Feature",
      "id": "way/732410147",
      "properties": {
        "timestamp": "2022-05-28T00:32:20Z",
        "version": 2,
        "changeset": 121597315,
        "addr:housenumber": "555",
        "addr:street": "Rua Cabo João Teruel Fregoni",
        "amenity": "clinic",
        "building": "yes",
        "healthcare": "clinic",
        "name": "Centro Clinico Guarulos II",
        "operator": "Notre Dame Intermédica",
        "operator:type": "private",
        "id": "way/732410147"
      },
      "geometry": {
        "type": "Polygon",
        "coordinates": [
          [
            [
              -46.5524716,
              -23.5038109
            ],
            [
              -46.5526885,
              -23.5039329
            ],
            [
              -46.552672,
              -23.5039883
            ],
            [
              -46.5525912,
              -23.5039562
            ],
            [
              -46.5524539,
              -23.5041023
            ],
            [
              -46.5523292,
              -23.5039939
            ],
            [
              -46.5523349,
              -23.5039388
            ],
            [
              -46.5524716,
              -23.5038109
            ]
          ]
        ]
      }
    },
    {
      "type": "Feature",
      "id": "way/734932314",
      "properties": {
        "timestamp": "2023-12-08T22:19:29Z",
        "version": 6,
        "changeset": 144919515,
        "addr:housenumber": "393",
        "addr:postcode": "07161-200",
        "addr:street": "Rua Jaboticabal",
        "addr:suburb": "Cidade Soberana",
        "amenity": "clinic",
        "building": "yes",
        "healthcare": "clinic",
        "healthcare:speciality": "general;gynaecology;paediatrics;vaccination",
        "name": "Unidade Básica de Saúde Soberana",
        "opening_hours": "Mo-Fr 07:00-17:00; Sa,Su,PH off",
        "operator": "Secretaria de Saúde",
        "operator:ref:vatin": "BR46319000000150",
        "operator:type": "government",
        "ref:CNES": "3011542",
        "source": "CNES",
        "id": "way/734932314"
      },
      "geometry": {
        "type": "Polygon",
        "coordinates": [
          [
            [
              -46.4388518,
              -23.400591
            ],
            [
              -46.4388262,
              -23.4006904
            ],
            [
              -46.4386303,
              -23.4006479
            ],
            [
              -46.4386227,
              -23.4006711
            ],
            [
              -46.4388182,
              -23.4007225
            ],
            [
              -46.4387945,
              -23.4008217
            ],
            [
              -46.4384687,
              -23.4007652
            ],
            [
              -46.4385189,
              -23.4005228
            ],
            [
              -46.4388518,
              -23.400591
            ]
          ]
        ]
      }
    },
    {
      "type": "Feature",
      "id": "way/800806544",
      "properties": {
        "timestamp": "2023-08-19T14:21:32Z",
        "version": 2,
        "changeset": 140097130,
        "addr:housenumber": "546",
        "addr:postcode": "07172-100",
        "addr:street": "Rua Marinópolis",
        "addr:suburb": "Jardim Presidente Dutra",
        "alt_name": "UBS Marinópolis",
        "amenity": "clinic",
        "building": "yes",
        "healthcare": "clinic",
        "healthcare:speciality": "general;paediatrics;gynaecology",
        "name": "Unidade Básica de Saúde Marinópolis",
        "opening_hours": "Mo-Fr 08:00-17:00; PH off",
        "phone": "+55 11 3988 0299",
        "ref": "CNES 5997399",
        "id": "way/800806544"
      },
      "geometry": {
        "type": "Polygon",
        "coordinates": [
          [
            [
              -46.4292487,
              -23.4204561
            ],
            [
              -46.429221,
              -23.4205798
            ],
            [
              -46.4289993,
              -23.4205374
            ],
            [
              -46.4290215,
              -23.4204832
            ],
            [
              -46.4290418,
              -23.4204154
            ],
            [
              -46.4292487,
              -23.4204561
            ]
          ]
        ]
      }
    },
    {
      "type": "Feature",
      "id": "way/804683959",
      "properties": {
        "timestamp": "2020-05-16T16:10:20Z",
        "version": 1,
        "changeset": 85309436,
        "addr:city": "Guarulhos",
        "addr:housenumber": "13",
        "addr:street": "Rua Antônio Vita",
        "amenity": "clinic",
        "building": "yes",
        "healthcare": "clinic",
        "height": "8",
        "id": "way/804683959"
      },
      "geometry": {
        "type": "Polygon",
        "coordinates": [
          [
            [
              -46.5248924,
              -23.4615826
            ],
            [
              -46.524813,
              -23.4614909
            ],
            [
              -46.5247581,
              -23.4614265
            ],
            [
              -46.5248216,
              -23.4613823
            ],
            [
              -46.5249522,
              -23.461538
            ],
            [
              -46.5248924,
              -23.4615826
            ]
          ]
        ]
      }
    },
    {
      "type": "Feature",
      "id": "way/844668933",
      "properties": {
        "timestamp": "2020-09-06T00:57:37Z",
        "version": 1,
        "changeset": 90467326,
        "addr:housenumber": "25",
        "addr:street": "Rua Murilo Mendes",
        "amenity": "clinic",
        "building": "yes",
        "healthcare": "clinic",
        "healthcare:speciality": "general;paediatrics;gynaecology",
        "name": "Unidade Básica de Saúde Piratininga",
        "id": "way/844668933"
      },
      "geometry": {
        "type": "Polygon",
        "coordinates": [
          [
            [
              -46.3801109,
              -23.433809
            ],
            [
              -46.3801457,
              -23.4338902
            ],
            [
              -46.3801001,
              -23.433905
            ],
            [
              -46.3801109,
              -23.4339246
            ],
            [
              -46.3800653,
              -23.4339419
            ],
            [
              -46.3800653,
              -23.4339197
            ],
            [
              -46.3799472,
              -23.433964
            ],
            [
              -46.3799446,
              -23.4339419
            ],
            [
              -46.3799043,
              -23.433873
            ],
            [
              -46.3801109,
              -23.433809
            ]
          ]
        ]
      }
    },
    {
      "type": "Feature",
      "id": "way/890869235",
      "properties": {
        "timestamp": "2022-09-24T17:43:58Z",
        "version": 5,
        "changeset": 126592345,
        "addr:housenumber": "230",
        "addr:postcode": "07152-430",
        "addr:street": "Rua Martinica",
        "addr:suburb": "Jardim Bananal",
        "amenity": "clinic",
        "building": "yes",
        "healthcare": "clinic",
        "healthcare:speciality": "general;paediatrics;vaccination;gynaecology",
        "name": "Unidade Básica de Saúde Bananal",
        "opening_hours": "Mo-Fr 07:00-17:00; Sa,Su,PH off",
        "phone": "+55 11 2229 4535",
        "ref": "CNES-3338525",
        "short_name": "UBS Bananal",
        "source": "CNES",
        "id": "way/890869235"
      },
      "geometry": {
        "type": "Polygon",
        "coordinates": [
          [
            [
              -46.4697333,
              -23.4022038
            ],
            [
              -46.4696892,
              -23.402262
            ],
            [
              -46.4695864,
              -23.4022427
            ],
            [
              -46.4696542,
              -23.4021533
            ],
            [
              -46.4697333,
              -23.4022038
            ]
          ]
        ]
      }
    },
    {
      "type": "Feature",
      "id": "way/944401396",
      "properties": {
        "timestamp": "2021-12-29T02:59:13Z",
        "version": 3,
        "changeset": 115496080,
        "addr:city": "Guarulhos",
        "addr:housenumber": "310",
        "addr:postcode": "07174-020",
        "addr:street": "Rua Elias Dabarian",
        "addr:suburb": "Residencial Parque Cumbica",
        "amenity": "clinic",
        "healthcare": "clinic",
        "healthcare:speciality": "general;paediatrics;vaccination;gynaecology",
        "name": "Unidade Básica de Saúde Inocoop",
        "opening_hours": "Mo-Fr 078:00-17:00; Sa,Su,PH off",
        "operator": "PMG",
        "operator:type": "government",
        "phone": "+55 11 2431 9940",
        "ref": "CNES-2064383",
        "short_name": "UBS  Inocoop",
        "source": "CNES",
        "id": "way/944401396"
      },
      "geometry": {
        "type": "Polygon",
        "coordinates": [
          [
            [
              -46.4175093,
              -23.4226536
            ],
            [
              -46.4175485,
              -23.4227771
            ],
            [
              -46.4176606,
              -23.4231298
            ],
            [
              -46.4174617,
              -23.4231803
            ],
            [
              -46.4174946,
              -23.4232806
            ],
            [
              -46.4172313,
              -23.4233497
            ],
            [
              -46.4171902,
              -23.4233448
            ],
            [
              -46.4171663,
              -23.4233375
            ],
            [
              -46.4171491,
              -23.4233193
            ],
            [
              -46.4169864,
              -23.422795
            ],
            [
              -46.4175093,
              -23.4226536
            ]
          ]
        ]
      }
    },
    {
      "type": "Feature",
      "id": "way/949145506",
      "properties": {
        "timestamp": "2021-05-31T17:19:24Z",
        "version": 1,
        "changeset": 105637028,
        "addr:city": "Guarulhos",
        "addr:housenumber": "56",
        "addr:postcode": "07023-070",
        "addr:street": "Rua Doutor Nilo Peçanha",
        "addr:suburb": "Centro",
        "amenity": "clinic",
        "building": "yes",
        "healthcare": "clinic",
        "name": "Endocrinologia Metabólica Paulista",
        "id": "way/949145506"
      },
      "geometry": {
        "type": "Polygon",
        "coordinates": [
          [
            [
              -46.5322777,
              -23.4696542
            ],
            [
              -46.5321839,
              -23.4696335
            ],
            [
              -46.5322596,
              -23.4694564
            ],
            [
              -46.5323522,
              -23.4694709
            ],
            [
              -46.5322777,
              -23.4696542
            ]
          ]
        ]
      }
    },
    {
      "type": "Feature",
      "id": "way/1035911907",
      "properties": {
        "timestamp": "2023-10-26T17:08:52Z",
        "version": 3,
        "changeset": 143171818,
        "amenity": "clinic",
        "healthcare": "hospital",
        "landuse": "healthcare",
        "name": "UBS São Ricardo",
        "id": "way/1035911907"
      },
      "geometry": {
        "type": "Polygon",
        "coordinates": [
          [
            [
              -46.5458263,
              -23.4536598
            ],
            [
              -46.5458348,
              -23.4536717
            ],
            [
              -46.5459094,
              -23.4537762
            ],
            [
              -46.5459544,
              -23.4538391
            ],
            [
              -46.545819,
              -23.4539184
            ],
            [
              -46.5457682,
              -23.4539022
            ],
            [
              -46.5455521,
              -23.4538332
            ],
            [
              -46.5458263,
              -23.4536598
            ]
          ]
        ]
      }
    },
    {
      "type": "Feature",
      "id": "way/1036612551",
      "properties": {
        "timestamp": "2022-08-08T00:39:53Z",
        "version": 6,
        "changeset": 124616722,
        "addr:city": "Guarulhos",
        "addr:housenumber": "45",
        "addr:postcode": "07262-140",
        "addr:street": "Rua São Geraldo da Piedade",
        "addr:suburb": "Jardim Jacy",
        "amenity": "clinic",
        "building": "yes",
        "healthcare": "clinic",
        "healthcare:speciality": "general;paediatrics;vaccination;gynaecology",
        "layer": "-1",
        "name": "Unidade Básica de Saúde Jardim Jacy",
        "operator": "Secretaria da Saúde",
        "operator:type": "government",
        "phone": "+55 11 2498 3142",
        "ref": "CNES-2040093",
        "short_name": "UBS Jardim Jacy",
        "source": "CNES",
        "id": "way/1036612551"
      },
      "geometry": {
        "type": "Polygon",
        "coordinates": [
          [
            [
              -46.3952897,
              -23.4745479
            ],
            [
              -46.3952406,
              -23.4745996
            ],
            [
              -46.3952027,
              -23.4745657
            ],
            [
              -46.3951838,
              -23.474582
            ],
            [
              -46.3952356,
              -23.4746301
            ],
            [
              -46.3952091,
              -23.4746517
            ],
            [
              -46.3951834,
              -23.4746308
            ],
            [
              -46.3951697,
              -23.4746439
            ],
            [
              -46.3951895,
              -23.4746651
            ],
            [
              -46.3951692,
              -23.4746871
            ],
            [
              -46.3951768,
              -23.4746989
            ],
            [
              -46.3951152,
              -23.4747596
            ],
            [
              -46.3950619,
              -23.4747109
            ],
            [
              -46.3950441,
              -23.4747289
            ],
            [
              -46.3949393,
              -23.4746411
            ],
            [
              -46.3950038,
              -23.4745795
            ],
            [
              -46.3950719,
              -23.4746383
            ],
            [
              -46.3950873,
              -23.4746257
            ],
            [
              -46.3950256,
              -23.4745574
            ],
            [
              -46.3950881,
              -23.4745004
            ],
            [
              -46.3951616,
              -23.4745689
            ],
            [
              -46.3951773,
              -23.4745512
            ],
            [
              -46.3951114,
              -23.4744863
            ],
            [
              -46.3951573,
              -23.4744312
            ],
            [
              -46.3952897,
              -23.4745479
            ]
          ]
        ]
      }
    },
    {
      "type": "Feature",
      "id": "way/1059056778",
      "properties": {
        "timestamp": "2022-10-08T18:41:30Z",
        "version": 3,
        "changeset": 127216425,
        "addr:city": "Guarulhos",
        "addr:housenumber": "299",
        "addr:postcode": "07131-430",
        "addr:street": "Rua Delmiro",
        "addr:suburb": "Jardim dos Afonsos",
        "amenity": "clinic",
        "building": "yes",
        "healthcare": "clinic",
        "healthcare:speciality": "general;paediatrics;vaccination;gynaecology",
        "name": "Unidade Básica de Saúde Morros",
        "opening_hours": "Mo-Fr 07:00-17:00; Sa , Su, PH off",
        "operator": "Secretaria de Saúde",
        "operator:type": "government",
        "phone": "+55 11 2404 5583",
        "ref:CNES": "2052318",
        "short_name": "UBS Morros",
        "source": "CNES",
        "id": "way/1059056778"
      },
      "geometry": {
        "type": "Polygon",
        "coordinates": [
          [
            [
              -46.5221858,
              -23.4283195
            ],
            [
              -46.5221658,
              -23.428439
            ],
            [
              -46.5221248,
              -23.4284355
            ],
            [
              -46.5221196,
              -23.4284753
            ],
            [
              -46.5221007,
              -23.4284715
            ],
            [
              -46.5220906,
              -23.4284896
            ],
            [
              -46.5220676,
              -23.428482
            ],
            [
              -46.5220682,
              -23.4284623
            ],
            [
              -46.5220465,
              -23.4284537
            ],
            [
              -46.5220357,
              -23.4284268
            ],
            [
              -46.5220057,
              -23.428366
            ],
            [
              -46.5220158,
              -23.4282961
            ],
            [
              -46.5221858,
              -23.4283195
            ]
          ]
        ]
      }
    },
    {
      "type": "Feature",
      "id": "way/1070665576",
      "properties": {
        "timestamp": "2022-07-06T13:41:33Z",
        "version": 2,
        "changeset": 123279038,
        "addr:housenumber": "200",
        "addr:postcode": "07263-721",
        "addr:street": "Rua do Poente",
        "addr:suburb": "Conjunto habitacional Marcos Freire",
        "amenity": "clinic",
        "healthcare": "clinic",
        "healthcare:speciality": "general;paediatrics;vaccination;gynaecology",
        "name": "Unidade Básica de Saúde  Marcos Freire",
        "opening_hours": "Mo-Fr 07:00-17:00; Sa,Su,PH off",
        "phone": "+55 11 2498 6837",
        "ref": "CNES-2062100",
        "short_name": "USB Marcos Freire",
        "source": "CNES",
        "id": "way/1070665576"
      },
      "geometry": {
        "type": "Polygon",
        "coordinates": [
          [
            [
              -46.4046638,
              -23.4618514
            ],
            [
              -46.4046336,
              -23.4617551
            ],
            [
              -46.4048144,
              -23.4617006
            ],
            [
              -46.4047943,
              -23.4616337
            ],
            [
              -46.4048776,
              -23.4616079
            ],
            [
              -46.4048983,
              -23.4616737
            ],
            [
              -46.4050707,
              -23.4616209
            ],
            [
              -46.4051067,
              -23.4617123
            ],
            [
              -46.4049739,
              -23.4617608
            ],
            [
              -46.404985,
              -23.4617871
            ],
            [
              -46.4048045,
              -23.4618467
            ],
            [
              -46.4047986,
              -23.4618233
            ],
            [
              -46.4047626,
              -23.4618137
            ],
            [
              -46.4046638,
              -23.4618514
            ]
          ]
        ]
      }
    },
    {
      "type": "Feature",
      "id": "way/1071030530",
      "properties": {
        "timestamp": "2022-06-18T14:32:19Z",
        "version": 1,
        "changeset": 122549334,
        "addr:housenumber": "422",
        "addr:street": "Avenida Salgado Filho",
        "amenity": "clinic",
        "building": "yes",
        "healthcare": "clinic",
        "healthcare:speciality": "surgery;general;orthopaedics;paediatrics",
        "name": "Centro Médico HBC Saúde",
        "phone": "+55 11 2442 3344",
        "website": "https://hbcsaude.com.br/",
        "id": "way/1071030530"
      },
      "geometry": {
        "type": "Polygon",
        "coordinates": [
          [
            [
              -46.5317091,
              -23.4614822
            ],
            [
              -46.5316171,
              -23.461629
            ],
            [
              -46.5314018,
              -23.4615176
            ],
            [
              -46.531492,
              -23.4613607
            ],
            [
              -46.5317091,
              -23.4614822
            ]
          ]
        ]
      }
    },
    {
      "type": "Feature",
      "id": "way/1077149472",
      "properties": {
        "timestamp": "2023-09-07T23:06:26Z",
        "version": 3,
        "changeset": 140961337,
        "addr:housenumber": "1361",
        "addr:postcode": "07130-000",
        "addr:street": "Avenida Brigadeiro Faria Lima",
        "addr:suburb": "Cocaia",
        "amenity": "clinic",
        "building": "yes",
        "healthcare": "clinic",
        "healthcare:speciality": "general;paediatrics;vaccination;gynaecology",
        "name": "Unidade Básica de Saúde Jovaia",
        "opening_hours": "Mo-Fr 07:00-17:00; Sa , Su,PH off",
        "operator": "Secretaria Municipal de Saúde",
        "operator:ref:vatin": "BR46319000000150",
        "operator:type": "government",
        "phone": "+55 11 2401 4808",
        "ref": "CNES-2061082",
        "ref:CNES": "2061082",
        "short_name": "UBS Jovaiá",
        "source": "CNES",
        "id": "way/1077149472"
      },
      "geometry": {
        "type": "Polygon",
        "coordinates": [
          [
            [
              -46.5214605,
              -23.4431604
            ],
            [
              -46.5213927,
              -23.4433393
            ],
            [
              -46.5212569,
              -23.4433028
            ],
            [
              -46.5213205,
              -23.4431199
            ],
            [
              -46.5214605,
              -23.4431604
            ]
          ]
        ]
      }
    },
    {
      "type": "Feature",
      "id": "way/1097998390",
      "properties": {
        "timestamp": "2022-09-28T00:22:14Z",
        "version": 2,
        "changeset": 126717604,
        "addr:housenumber": "2430",
        "addr:street": "Rodovia Vereador Francisco de Almeida",
        "addr:suburb": "Jardim São João",
        "amenity": "clinic",
        "building": "yes",
        "email": "fisiomedclin@yahoo.com.br",
        "healthcare": "clinic",
        "name": "Fisiomed Clínica Médica  e Fisioterapia",
        "phone": "+55 11 2467 2801",
        "id": "way/1097998390"
      },
      "geometry": {
        "type": "Polygon",
        "coordinates": [
          [
            [
              -46.4550336,
              -23.4161833
            ],
            [
              -46.455084,
              -23.4162767
            ],
            [
              -46.4550583,
              -23.4163075
            ],
            [
              -46.4549615,
              -23.4162658
            ],
            [
              -46.4549822,
              -23.4162558
            ],
            [
              -46.4549773,
              -23.4162468
            ],
            [
              -46.4549437,
              -23.4162549
            ],
            [
              -46.454914,
              -23.4162177
            ],
            [
              -46.4550336,
              -23.4161833
            ]
          ]
        ]
      }
    },
    {
      "type": "Feature",
      "id": "way/1098367988",
      "properties": {
        "timestamp": "2023-09-07T23:06:26Z",
        "version": 3,
        "changeset": 140961337,
        "addr:housenumber": "111",
        "addr:postcode": "07150-000",
        "addr:street": "Avenida Coqueiral",
        "addr:suburb": "Cidade Seródio",
        "amenity": "clinic",
        "building": "yes",
        "healthcare": "clinic",
        "healthcare:speciality": "general;paediatrics;intensive;gynaecology",
        "name": "Unidade Básica de Saúde Cidade Seródio",
        "opening_hours": "Mo-Fr 07:00-17:00; sa,Su,PH off",
        "operator:ref:vatin": "BR46319000000150",
        "phone": "+55 11 2467 9598",
        "ref": "CNES-2054493",
        "ref:CNES": "2054493",
        "source": "CNES",
        "id": "way/1098367988"
      },
      "geometry": {
        "type": "Polygon",
        "coordinates": [
          [
            [
              -46.4573133,
              -23.4171349
            ],
            [
              -46.4573953,
              -23.4172348
            ],
            [
              -46.4572192,
              -23.4173565
            ],
            [
              -46.4571372,
              -23.4172567
            ],
            [
              -46.4573133,
              -23.4171349
            ]
          ]
        ]
      }
    },
    {
      "type": "Feature",
      "id": "way/1105052455",
      "properties": {
        "timestamp": "2023-09-07T23:06:26Z",
        "version": 2,
        "changeset": 140961337,
        "addr:housenumber": "354",
        "addr:postcode": "07071-070",
        "addr:street": "Rua Dona Eugênia Machado da Silva",
        "addr:suburb": "Vila Galvão",
        "amenity": "clinic",
        "building": "yes",
        "healthcare": "clinic",
        "healthcare:speciality": "general;paediatrics;vaccination;gynaecology",
        "name": "Unidade Básica de Saúde Vila Galvão",
        "opening_hours": "Mo-Fr 07:00-19:00; Sa,Su,PH off",
        "operator": "Secretaria da Saúde de Guarulhos",
        "operator:ref:vatin": "BR46319000000150",
        "operator:type": "government",
        "phone": "+55 11 2404 0902",
        "ref": "CNES-2062062",
        "ref:CNES": "2062062",
        "short_name": "UBS Vila Galvão",
        "source": "https://www.guarulhos.sp.gov.br/unidades-basicas-de-saude-ubs;CNES",
        "id": "way/1105052455"
      },
      "geometry": {
        "type": "Polygon",
        "coordinates": [
          [
            [
              -46.5687252,
              -23.4545543
            ],
            [
              -46.5686635,
              -23.4546724
            ],
            [
              -46.5686099,
              -23.4546478
            ],
            [
              -46.5686652,
              -23.4545301
            ],
            [
              -46.5686459,
              -23.4545231
            ],
            [
              -46.5686601,
              -23.4544991
            ],
            [
              -46.568631,
              -23.4544936
            ],
            [
              -46.5686717,
              -23.4543973
            ],
            [
              -46.5686065,
              -23.4543709
            ],
            [
              -46.5686455,
              -23.4543002
            ],
            [
              -46.5688254,
              -23.4543571
            ],
            [
              -46.5687252,
              -23.4544611
            ],
            [
              -46.5686795,
              -23.4545335
            ],
            [
              -46.5687252,
              -23.4545543
            ]
          ]
        ]
      }
    },
    {
      "type": "Feature",
      "id": "way/1106183894",
      "properties": {
        "timestamp": "2022-10-22T22:12:31Z",
        "version": 1,
        "changeset": 127939297,
        "amenity": "clinic",
        "building": "yes",
        "healthcare": "clinic",
        "name": "UBS Uirapuru",
        "operator": "Prefeitura de Guarulhos",
        "operator:type": "public",
        "id": "way/1106183894"
      },
      "geometry": {
        "type": "Polygon",
        "coordinates": [
          [
            [
              -46.452573,
              -23.4543335
            ],
            [
              -46.4524979,
              -23.4541859
            ],
            [
              -46.4524469,
              -23.4540789
            ],
            [
              -46.4524429,
              -23.4539743
            ],
            [
              -46.4524805,
              -23.4539115
            ],
            [
              -46.4525542,
              -23.4538574
            ],
            [
              -46.4529351,
              -23.453695
            ],
            [
              -46.4531228,
              -23.4540604
            ],
            [
              -46.452573,
              -23.4543335
            ]
          ]
        ]
      }
    },
    {
      "type": "Feature",
      "id": "way/1161378830",
      "properties": {
        "timestamp": "2023-04-11T19:27:56Z",
        "version": 2,
        "changeset": 134788005,
        "addr:city": "Guarulhos",
        "addr:housenumber": "248",
        "addr:postcode": "07159-690",
        "addr:street": "Rua Gabriela Gurgel de Freitas",
        "addr:suburb": "Parque Residencial Bambi",
        "amenity": "clinic",
        "barrier": "wall",
        "healthcare": "clinic",
        "healthcare:speciality": "general;paediatrics;gynaecology;vaccination",
        "name": "UBS Bambi",
        "opening_hours": "Mo-Fr 07:00-17:00; Sa,Su,PH off",
        "operator": "Secretaria de Saúde de Guarulhos",
        "operator:type": "government",
        "phone": "+55 11 2279-6689",
        "ref": "CNES-2090570",
        "short_name": "Unidade Básica de Saúde Bambi",
        "source": "CNES",
        "id": "way/1161378830"
      },
      "geometry": {
        "type": "Polygon",
        "coordinates": [
          [
            [
              -46.4021766,
              -23.3869865
            ],
            [
              -46.4022502,
              -23.387184
            ],
            [
              -46.4021211,
              -23.3872245
            ],
            [
              -46.4020453,
              -23.3870281
            ],
            [
              -46.4021109,
              -23.3870073
            ],
            [
              -46.4021766,
              -23.3869865
            ]
          ]
        ]
      }
    },
    {
      "type": "Feature",
      "id": "way/1196532732",
      "properties": {
        "timestamp": "2023-08-09T19:09:07Z",
        "version": 1,
        "changeset": 139674617,
        "addr:city": "Guarulhos",
        "addr:street": "Avenida Doutor Emilio Ribas",
        "addr:suburb": "Jardim Tranquilidade, Gopoúva;Tranquilidade",
        "amenity": "clinic",
        "building": "yes",
        "healthcare": "clinic",
        "name": "UBS Tranquilidade",
        "id": "way/1196532732"
      },
      "geometry": {
        "type": "Polygon",
        "coordinates": [
          [
            [
              -46.5510721,
              -23.4650634
            ],
            [
              -46.5509649,
              -23.4648331
            ],
            [
              -46.5512023,
              -23.4647401
            ],
            [
              -46.5513095,
              -23.4649705
            ],
            [
              -46.5510721,
              -23.4650634
            ]
          ]
        ]
      }
    },
    {
      "type": "Feature",
      "id": "way/1211523869",
      "properties": {
        "timestamp": "2023-09-28T08:02:11Z",
        "version": 1,
        "changeset": 141851986,
        "addr:city": "Guarulhos",
        "addr:street": "Rua Soldado Jair da Silva Tavares",
        "addr:suburb": "Torres Tibagy",
        "amenity": "clinic",
        "building": "hospital",
        "healthcare": "clinic",
        "name": "UBS São Ricardo",
        "id": "way/1211523869"
      },
      "geometry": {
        "type": "Polygon",
        "coordinates": [
          [
            [
              -46.5459094,
              -23.4537762
            ],
            [
              -46.5457341,
              -23.453882
            ],
            [
              -46.5456592,
              -23.4537778
            ],
            [
              -46.5458348,
              -23.4536717
            ],
            [
              -46.5459094,
              -23.4537762
            ]
          ]
        ]
      }
    },
    {
      "type": "Feature",
      "id": "way/1228639755",
      "properties": {
        "timestamp": "2023-12-04T14:02:40Z",
        "version": 1,
        "changeset": 144756633,
        "addr:housenumber": "84",
        "addr:postcode": "07272-340",
        "addr:street": "Rua Jaboatão",
        "addr:suburb": "Jardim dos Pimentas",
        "amenity": "clinic",
        "building": "yes",
        "healthcare": "clinic",
        "healthcare:speciality": "general;paediatrics;vaccination;ginecologia",
        "name": "Unidade Básica de Saúde Doutor João Fierdelice",
        "opening_hours": "Mo-Fr 07:00-17:00; PH off",
        "operator": "Secretaria da Saúde",
        "operator:type": "government",
        "phone": "+55 11 2499 3050",
        "ref:CNES": "2062119",
        "short_name": "UBS Pimentas",
        "source": "CNES",
        "id": "way/1228639755"
      },
      "geometry": {
        "type": "Polygon",
        "coordinates": [
          [
            [
              -46.420054,
              -23.4666273
            ],
            [
              -46.4200321,
              -23.466771
            ],
            [
              -46.4200618,
              -23.4667812
            ],
            [
              -46.4200417,
              -23.4668739
            ],
            [
              -46.4200019,
              -23.466848
            ],
            [
              -46.4199914,
              -23.4668021
            ],
            [
              -46.4199584,
              -23.4667812
            ],
            [
              -46.4199295,
              -23.466754
            ],
            [
              -46.419953,
              -23.4666177
            ],
            [
              -46.4199807,
              -23.4665996
            ],
            [
              -46.420054,
              -23.4666273
            ]
          ]
        ]
      }
    },
    {
      "type": "Feature",
      "id": "node/1831563480",
      "properties": {
        "timestamp": "2020-07-04T01:31:42Z",
        "version": 4,
        "changeset": 87520694,
        "amenity": "clinic",
        "emergency": "no",
        "healthcare": "clinic",
        "name": "UBS Jardim Vila Galvão",
        "id": "node/1831563480"
      },
      "geometry": {
        "type": "Point",
        "coordinates": [
          -46.5604239,
          -23.4636108
        ]
      }
    },
    {
      "type": "Feature",
      "id": "node/4226927003",
      "properties": {
        "timestamp": "2024-02-15T21:16:23Z",
        "version": 2,
        "changeset": 147508506,
        "entrance": "main",
        "id": "node/4226927003"
      },
      "geometry": {
        "type": "Point",
        "coordinates": [
          -46.4031364,
          -23.4082917
        ]
      }
    },
    {
      "type": "Feature",
      "id": "node/4338124008",
      "properties": {
        "timestamp": "2017-10-19T13:26:08Z",
        "version": 2,
        "changeset": 53068906,
        "addr:street": "Rua Osvaldo Cruz",
        "amenity": "clinic",
        "name": "Ambulatório da Criança",
        "id": "node/4338124008"
      },
      "geometry": {
        "type": "Point",
        "coordinates": [
          -46.5287554,
          -23.4673111
        ]
      }
    },
    {
      "type": "Feature",
      "id": "node/6353494268",
      "properties": {
        "timestamp": "2019-10-07T17:03:36Z",
        "version": 2,
        "changeset": 75387085,
        "addr:postcode": "07034-911",
        "addr:street": "Rodovia Presidente Dutra",
        "addr:suburb": "Itapegica",
        "amenity": "clinic",
        "healthcare": "clinic",
        "healthcare:speciality": "general",
        "name": "Dr.Consulta",
        "opening_hours": "Mo-Fr 06:45-19:00; Sa 06:45-13:00; Su,PH off",
        "id": "node/6353494268"
      },
      "geometry": {
        "type": "Point",
        "coordinates": [
          -46.5498742,
          -23.4874708
        ]
      }
    },
    {
      "type": "Feature",
      "id": "node/6353494269",
      "properties": {
        "timestamp": "2024-06-28T01:07:59Z",
        "version": 2,
        "changeset": 153270965,
        "addr:postcode": "07034-911",
        "addr:street": "Rodovia Presidente Dutra",
        "addr:suburb": "Itapegica",
        "amenity": "clinic",
        "healthcare": "clinic",
        "healthcare:speciality": "ophthalmology;otolaryngology",
        "name": "CEMA",
        "opening_hours": "Mo-Fr 09:00-19:00; Sa 09:00-13:00; Su,PH off",
        "website": "https://www.cemahospital.com.br/cema-guarulhos/",
        "id": "node/6353494269"
      },
      "geometry": {
        "type": "Point",
        "coordinates": [
          -46.5484514,
          -23.4888729
        ]
      }
    },
    {
      "type": "Feature",
      "id": "node/7489935556",
      "properties": {
        "timestamp": "2021-10-18T13:47:58Z",
        "version": 3,
        "changeset": 112654243,
        "addr:housenumber": "375",
        "addr:postcode": "07170-010",
        "addr:street": "Rua Nova York",
        "addr:suburb": "Jardim Presidente Dutra",
        "alt_name": "UBS Presidente Dutra",
        "amenity": "clinic",
        "contact:phone": "+55 11 2432 5649",
        "healthcare": "clinic",
        "healthcare:speciality": "general;gynaecology;paediatrics",
        "name": "Unidade Básica de Saúde Jardim Presidente Dutra",
        "opening_hours": "Mo-Fr 07:00-17:00; Sa,Su,PH off",
        "opening_hours:covid19": "Mo-Fr 08:00-17:00; PH off",
        "phone": "+55 11 2431 9526",
        "ref": "CNES-4048326",
        "source": "http://cnes.datasus.gov.br/pages/estabelecimentos/ficha/identificacao/3518804048326",
        "id": "node/7489935556"
      },
      "geometry": {
        "type": "Point",
        "coordinates": [
          -46.4379563,
          -23.43141
        ]
      }
    },
    {
      "type": "Feature",
      "id": "node/7532994982",
      "properties": {
        "timestamp": "2020-05-18T15:03:28Z",
        "version": 1,
        "changeset": 85390582,
        "addr:city": "Guarulhos",
        "addr:housenumber": "908",
        "addr:street": "Avenida Paulo Faccini",
        "amenity": "clinic",
        "healthcare": "clinic",
        "name": "Unimed",
        "id": "node/7532994982"
      },
      "geometry": {
        "type": "Point",
        "coordinates": [
          -46.5265568,
          -23.464144
        ]
      }
    },
    {
      "type": "Feature",
      "id": "node/8786526678",
      "properties": {
        "timestamp": "2022-03-27T19:02:36Z",
        "version": 2,
        "changeset": 118992612,
        "addr:city": "Guarulhos",
        "addr:housenumber": "56",
        "addr:postcode": "07023-070",
        "addr:street": "Rua Doutor Nilo Peçanha",
        "addr:suburb": "Centro",
        "amenity": "clinic",
        "healthcare": "clinic",
        "healthcare:speciality": "endocrinology",
        "name": "Endocrinologia Metabologia Paulista",
        "id": "node/8786526678"
      },
      "geometry": {
        "type": "Point",
        "coordinates": [
          -46.5322442,
          -23.4695735
        ]
      }
    },
    {
      "type": "Feature",
      "id": "node/8786533374",
      "properties": {
        "timestamp": "2021-05-31T17:19:24Z",
        "version": 1,
        "changeset": 105637028,
        "addr:city": "Guarulhos",
        "addr:housenumber": "56",
        "addr:postcode": "07023-070",
        "addr:street": "Rua Doutor Nilo Peçanha",
        "addr:suburb": "Centro",
        "id": "node/8786533374"
      },
      "geometry": {
        "type": "Point",
        "coordinates": [
          -46.5323522,
          -23.4694709
        ]
      }
    },
    {
      "type": "Feature",
      "id": "node/9374780110",
      "properties": {
        "timestamp": "2023-09-07T23:06:26Z",
        "version": 2,
        "changeset": 140961337,
        "addr:housenumber": "166",
        "addr:postcode": "07153-450",
        "addr:street": "Rua Hilário Pires de Freitas",
        "addr:suburb": "Jardim Fortaleza",
        "amenity": "clinic",
        "healthcare": "clinic",
        "healthcare:speciality": "general;gynaecology;paediatrics;vaccination",
        "name": "Unidade Básica de Saúde Jardim Fortaleza",
        "opening_hours": "Mo-Fr 07:00 - 17:00; Sa,Su,PH off",
        "operator:ref:vatin": "BR46319000000150",
        "phone": "+55 11 2467 5360",
        "ref": "CNES-2044188",
        "ref:CNES": "2044188",
        "source": "CNES",
        "id": "node/9374780110"
      },
      "geometry": {
        "type": "Point",
        "coordinates": [
          -46.449096,
          -23.3782651
        ]
      }
    },
    {
      "type": "Feature",
      "id": "node/10801982695",
      "properties": {
        "timestamp": "2023-04-11T15:20:43Z",
        "version": 1,
        "changeset": 134779254,
        "addr:city": "Guarulhos",
        "addr:housenumber": "248",
        "addr:postcode": "07159-690",
        "addr:street": "Rua Gabriela Gurgel de Freitas",
        "id": "node/10801982695"
      },
      "geometry": {
        "type": "Point",
        "coordinates": [
          -46.4021109,
          -23.3870073
        ]
      }
    }
  ]
}
