{
  "type": "FeatureCollection",
  "features": [
    {
      "type": "Feature",
      "id": "way/199771848",
      "properties": {
        "timestamp": "2024-04-15T02:06:41Z",
        "version": 6,
        "changeset": 150015028,
        "addr:city": "Guarulhos",
        "addr:country": "BR",
        "addr:housenumber": "10",
        "addr:postcode": "07190-017",
        "addr:street": "Avenida Ministro Evandro Lins e Silva",
        "barrier": "wall",
        "brand": "Marriott",
        "brand:wikidata": "Q3918608",
        "fax": "+55 11 2464 0594",
        "name": "São Paulo Airport Marriott Hotel",
        "phone": "+55 11 2468 6999",
        "stars": "5",
        "tourism": "hotel",
        "website": "https://www.marriott.com.br/hotels/travel/saoap-sao-paulo-airport-marriott-hotel/",
        "id": "way/199771848"
      },
      "geometry": {
        "type": "Polygon",
        "coordinates": [
          [
            [
              -46.4932697,
              -23.4561233
            ],
            [
              -46.4931414,
              -23.45648
            ],
            [
              -46.4928983,
              -23.4569341
            ],
            [
              -46.4927224,
              -23.4570793
            ],
            [
              -46.4925728,
              -23.4571431
            ],
            [
              -46.4925286,
              -23.4571579
            ],
            [
              -46.492487,
              -23.4571692
            ],
            [
              -46.4924506,
              -23.4571885
            ],
            [
              -46.4922356,
              -23.4572096
            ],
            [
              -46.4920151,
              -23.4571601
            ],
            [
              -46.4918468,
              -23.4570365
            ],
            [
              -46.491566,
              -23.4555537
            ],
            [
              -46.4930731,
              -23.4560461
            ],
            [
              -46.4932697,
              -23.4561233
            ]
          ]
        ]
      }
    },
    {
      "type": "Feature",
      "id": "way/469692439",
      "properties": {
        "timestamp": "2024-04-15T02:06:41Z",
        "version": 5,
        "changeset": 150015028,
        "addr:city": "Guarulhos",
        "addr:postcode": "07190-100",
        "addr:street": "Rodovia Hélio Smidt",
        "brand": "Pullman",
        "brand:wikidata": "Q3410757",
        "fax": "+55 11 2124 5801",
        "internet_access": "yes",
        "internet_access:fee": "no",
        "name": "Hotel Pullman São Paulo Guarulhos Airport",
        "phone": "+55 11 2124 5800",
        "stars": "5",
        "tourism": "hotel",
        "id": "way/469692439"
      },
      "geometry": {
        "type": "Polygon",
        "coordinates": [
          [
            [
              -46.4876001,
              -23.4509721
            ],
            [
              -46.4874635,
              -23.4509132
            ],
            [
              -46.487432,
              -23.4508332
            ],
            [
              -46.4875249,
              -23.4504056
            ],
            [
              -46.4879064,
              -23.4498655
            ],
            [
              -46.4880354,
              -23.4498493
            ],
            [
              -46.4884771,
              -23.4496596
            ],
            [
              -46.4887547,
              -23.4495999
            ],
            [
              -46.4890516,
              -23.4496368
            ],
            [
              -46.4893692,
              -23.4497426
            ],
            [
              -46.4896657,
              -23.4498542
            ],
            [
              -46.4895944,
              -23.4501221
            ],
            [
              -46.4895636,
              -23.450474
            ],
            [
              -46.4893714,
              -23.4510236
            ],
            [
              -46.4889659,
              -23.4511258
            ],
            [
              -46.4876001,
              -23.4509721
            ]
          ]
        ]
      }
    },
    {
      "type": "Feature",
      "id": "way/684248644",
      "properties": {
        "timestamp": "2019-04-16T19:58:58Z",
        "version": 1,
        "changeset": 69285510,
        "addr:housenumber": "63",
        "addr:street": "Rua Soldado José de Andrade",
        "building": "hotel",
        "email": "reservas.gru@bristolhoteis.com.br",
        "internet_access": "wlan",
        "name": "Bristol International Airport",
        "rooms": "330",
        "tourism": "hotel",
        "website": "http://www.bristolhoteis.com.br/hotel,bristolinternationalguarulhos#",
        "id": "way/684248644"
      },
      "geometry": {
        "type": "Polygon",
        "coordinates": [
          [
            [
              -46.5296852,
              -23.4739571
            ],
            [
              -46.5295377,
              -23.4741786
            ],
            [
              -46.5294841,
              -23.4741589
            ],
            [
              -46.5290898,
              -23.4739842
            ],
            [
              -46.5292293,
              -23.4736988
            ],
            [
              -46.5292373,
              -23.4736447
            ],
            [
              -46.5292588,
              -23.4736176
            ],
            [
              -46.529299,
              -23.4736226
            ],
            [
              -46.5293205,
              -23.4735857
            ],
            [
              -46.5294143,
              -23.473598
            ],
            [
              -46.5293607,
              -23.473689
            ],
            [
              -46.5293607,
              -23.4737185
            ],
            [
              -46.5294438,
              -23.4737382
            ],
            [
              -46.5294599,
              -23.4737259
            ],
            [
              -46.5294868,
              -23.473716
            ],
            [
              -46.5295163,
              -23.4737136
            ],
            [
              -46.5295431,
              -23.4737259
            ],
            [
              -46.5295726,
              -23.4737431
            ],
            [
              -46.5295806,
              -23.4737652
            ],
            [
              -46.5295645,
              -23.4738145
            ],
            [
              -46.5296343,
              -23.4738391
            ],
            [
              -46.5296128,
              -23.4739375
            ],
            [
              -46.5296852,
              -23.4739571
            ]
          ]
        ]
      }
    },
    {
      "type": "Feature",
      "id": "way/721718649",
      "properties": {
        "timestamp": "2019-09-03T18:57:53Z",
        "version": 1,
        "changeset": 74055060,
        "addr:housenumber": "Km 223,8",
        "addr:street": "Rodovia Presidente Dutra",
        "internet_access": "wlan",
        "name": "Hotel Panamby Guarulhos",
        "rooms": "144",
        "smoking": "outside",
        "stars": "4",
        "tourism": "hotel",
        "website": "https://panamby.hotelemguarulhos.com/en/#main",
        "id": "way/721718649"
      },
      "geometry": {
        "type": "Polygon",
        "coordinates": [
          [
            [
              -46.5339204,
              -23.4816958
            ],
            [
              -46.5330085,
              -23.4829566
            ],
            [
              -46.532574,
              -23.4833022
            ],
            [
              -46.5321287,
              -23.4829209
            ],
            [
              -46.5333545,
              -23.4813514
            ],
            [
              -46.5339204,
              -23.4816958
            ]
          ]
        ]
      }
    },
    {
      "type": "Feature",
      "id": "way/1083896170",
      "properties": {
        "timestamp": "2023-10-23T10:59:18Z",
        "version": 2,
        "changeset": 143012155,
        "addr:housenumber": "420",
        "addr:street": "Rua Tasso Fragoso",
        "air_conditioning": "yes",
        "building": "yes",
        "internet_access": "wlan",
        "name": "Guess Hotel e Motel",
        "operator": "Lorenz Hotelaria",
        "pets": "no",
        "stars": "3",
        "tourism": "hotel",
        "website": "https://guess-motel.allsaopaulohotels.com/br/",
        "id": "way/1083896170"
      },
      "geometry": {
        "type": "Polygon",
        "coordinates": [
          [
            [
              -46.4086546,
              -23.4419984
            ],
            [
              -46.4086297,
              -23.4421548
            ],
            [
              -46.4084322,
              -23.4421319
            ],
            [
              -46.4084177,
              -23.44217
            ],
            [
              -46.4083616,
              -23.44217
            ],
            [
              -46.4083844,
              -23.4419736
            ],
            [
              -46.4086546,
              -23.4419984
            ]
          ]
        ]
      }
    },
    {
      "type": "Feature",
      "id": "node/897997250",
      "properties": {
        "timestamp": "2019-03-06T04:29:49Z",
        "version": 3,
        "changeset": 67829762,
        "addr:city": "Guarulhos",
        "addr:housenumber": "32",
        "addr:postcode": "07020-091",
        "addr:street": "Rua Rafael Balzani",
        "addr:suburb": "Centro",
        "internet_access": "yes",
        "internet_access:fee": "no",
        "name": "Slavieiro Executive",
        "phone": "+55 11 2475 7500",
        "tourism": "hotel",
        "website": "https://www.slavierohoteis.com.br/hotel-em-guarulhos/slaviero-executive-guarulhos-aeroporto/hotel/",
        "id": "node/897997250"
      },
      "geometry": {
        "type": "Point",
        "coordinates": [
          -46.5352955,
          -23.4703826
        ]
      }
    },
    {
      "type": "Feature",
      "id": "node/898096844",
      "properties": {
        "timestamp": "2022-10-16T15:41:06Z",
        "version": 8,
        "changeset": 127624151,
        "addr:city": "Guarulhos",
        "addr:housenumber": "19",
        "addr:postcode": "07024-000",
        "addr:street": "Rua General Osório",
        "addr:suburb": "Centro",
        "brand": "Ibis",
        "brand:wikidata": "Q920166",
        "email": "h5021-re@accor.com.br",
        "fax": "+55 11 2159 5951",
        "internet_access": "yes",
        "internet_access:fee": "no",
        "name": "Hotel ibis Guarulhos",
        "operator": "Accor Hotels",
        "phone": "+55 11 2159 5950",
        "tourism": "hotel",
        "id": "node/898096844"
      },
      "geometry": {
        "type": "Point",
        "coordinates": [
          -46.5323178,
          -23.472989
        ]
      }
    },
    {
      "type": "Feature",
      "id": "node/898096851",
      "properties": {
        "timestamp": "2022-10-16T15:41:06Z",
        "version": 7,
        "changeset": 127624151,
        "addr:city": "Guarulhos",
        "addr:country": "BR",
        "addr:housenumber": "450",
        "addr:postcode": "07012-040",
        "addr:street": "Rua Barão de Mauá",
        "addr:suburb": "Centro",
        "brand": "Mercure",
        "brand:wikidata": "Q1709809",
        "email": "h3637-re@accor.com.br",
        "fax": "+55 11 2475 9985",
        "internet_access": "yes",
        "name": "Mercure Guarulhos Aeroporto Hotel",
        "operator": "Accor Hotels",
        "phone": "+55 11 2475 9988",
        "stars": "4",
        "tourism": "hotel",
        "id": "node/898096851"
      },
      "geometry": {
        "type": "Point",
        "coordinates": [
          -46.5320273,
          -23.4733285
        ]
      }
    },
    {
      "type": "Feature",
      "id": "node/1544871754",
      "properties": {
        "timestamp": "2023-10-17T22:28:32Z",
        "version": 3,
        "changeset": 142732581,
        "addr:city": "Guarulhos",
        "addr:housenumber": "88",
        "addr:postcode": "07012-020",
        "addr:street": "Rua Doutor Ramos de Azevedo",
        "addr:suburb": "Centro",
        "internet_access": "yes",
        "internet_access:fee": "customers",
        "name": "Monreale Plus Guarulhos International Airport",
        "phone": "+55 11 4966-7700",
        "rooms": "129",
        "stars": "2",
        "tourism": "hotel",
        "website": "https://www.monrealehotels.com/hotel-monreale-plus-airport-guarulhos",
        "id": "node/1544871754"
      },
      "geometry": {
        "type": "Point",
        "coordinates": [
          -46.5304244,
          -23.471112
        ]
      }
    },
    {
      "type": "Feature",
      "id": "node/2097654811",
      "properties": {
        "timestamp": "2020-09-29T09:23:32Z",
        "version": 4,
        "changeset": 91694816,
        "barrier": "lift_gate",
        "id": "node/2097654811"
      },
      "geometry": {
        "type": "Point",
        "coordinates": [
          -46.4925286,
          -23.4571579
        ]
      }
    },
    {
      "type": "Feature",
      "id": "node/2097654813",
      "properties": {
        "timestamp": "2020-09-28T08:53:45Z",
        "version": 3,
        "changeset": 91626166,
        "barrier": "lift_gate",
        "id": "node/2097654813"
      },
      "geometry": {
        "type": "Point",
        "coordinates": [
          -46.492487,
          -23.4571692
        ]
      }
    },
    {
      "type": "Feature",
      "id": "node/2830049252",
      "properties": {
        "timestamp": "2014-05-01T20:00:01Z",
        "version": 1,
        "changeset": 22071764,
        "addr:city": "Guarulhos",
        "addr:housenumber": "13",
        "addr:street": "Rua Francisco Vilano",
        "name": "La Torre",
        "tourism": "hotel",
        "id": "node/2830049252"
      },
      "geometry": {
        "type": "Point",
        "coordinates": [
          -46.5426226,
          -23.4862031
        ]
      }
    },
    {
      "type": "Feature",
      "id": "node/6507247920",
      "properties": {
        "timestamp": "2019-05-29T23:30:18Z",
        "version": 2,
        "changeset": 70751231,
        "addr:city": "Guarulhos",
        "addr:housenumber": "2655",
        "addr:postcode": "07140-040",
        "addr:street": "Avenida Natália Zarif",
        "addr:suburb": "Jardim São Geraldo",
        "air_conditioning": "yes",
        "internet_access": "yes",
        "internet_access:fee": "no",
        "name": "Sleep Inn Guarulhos",
        "phone": "+55 11 4280-4660",
        "tourism": "hotel",
        "website": "sleepinnguarulhos.com.br",
        "id": "node/6507247920"
      },
      "geometry": {
        "type": "Point",
        "coordinates": [
          -46.4962447,
          -23.4371048
        ]
      }
    },
    {
      "type": "Feature",
      "id": "node/9968128491",
      "properties": {
        "timestamp": "2023-08-09T19:02:11Z",
        "version": 2,
        "changeset": 139674411,
        "air_conditioning": "yes",
        "email": "reservas.sfgr@slavierohoteis.com.br",
        "name": "FastSleep",
        "phone": "+55 11 24452356",
        "stars": "2",
        "tourism": "hotel",
        "website": "https://www.slavierohoteis.com.br/hoteis/fast-sleep-by-slaviero-hoteis/",
        "id": "node/9968128491"
      },
      "geometry": {
        "type": "Point",
        "coordinates": [
          -46.4822692,
          -23.4262353
        ]
      }
    },
    {
      "type": "Feature",
      "id": "node/9968193125",
      "properties": {
        "timestamp": "2023-06-06T20:32:33Z",
        "version": 2,
        "changeset": 137030980,
        "brand": "TRYP",
        "brand:wikidata": "Q6153452",
        "name": "Tryp",
        "official_name": "TRYP by Wyndham",
        "operator": "Wyndham",
        "phone": "+55 11 24458100",
        "stars": "4",
        "tourism": "hotel",
        "website": "https://www.wyndhamhotels.com/pt-br/tryp/guarulhos-brazil/tryp-by-wyndham-sao-paulo-guarulhos-airport/overview?CID=LC:TY::GGL:RIO:National:48311",
        "id": "node/9968193125"
      },
      "geometry": {
        "type": "Point",
        "coordinates": [
          -46.4756928,
          -23.4244699
        ]
      }
    }
  ]
}
