{
  "type": "FeatureCollection",
  "features": [
    {
      "type": "Feature",
      "id": "node/12505164517",
      "properties": {
        "timestamp": "2025-01-15T19:08:05Z",
        "version": 1,
        "changeset": 161392608,
        "addr:city": "Guarulhos",
        "addr:country": "BR",
        "addr:district": "Guarulhos",
        "addr:municipality": "Guarulhos",
        "addr:place": "Zoológico de Guarulhos",
        "addr:state": "São Paulo",
        "addr:suburb": "Picanço",
        "historic": "memorial",
        "inscription": "希望の大地に\n[]\n\n\"Na terra da Esperança\"\nKEIZO OBUCHI\n1º MINISTRO DO JAPÃO\n\nMEMORIAL DO 90º ANIVERSÁRIO DA IMIGRAÇÃO JAPONESA NO BRASIL\n1908-1998\n\nINAUGURADO EM 27-09-1998",
        "material": "granite",
        "memorial": "stele",
        "name": "Memorial do 90º aniversário da imigração japonesa no Brasil",
        "name:en": "Memorial of the 90th anniversary of the japanese immigration in Brazil",
        "name:ja": "ブラジルへの日本人移民90周年記念の花崗岩",
        "start_date": "1998-09-27",
        "id": "node/12505164517"
      },
      "geometry": {
        "type": "Point",
        "coordinates": [
          -46.5530507,
          -23.4417455
        ]
      }
    }
  ]
}
