{
  "type": "FeatureCollection",
  "features": [
    {
      "type": "Feature",
      "id": "node/5376815821",
      "properties": {
        "timestamp": "2021-02-16T21:15:48Z",
        "version": 2,
        "changeset": 99405929,
        "addr:housenumber": "346",
        "addr:street": "Rua Padre Humberto Oening",
        "amenity": "clinic",
        "healthcare": "clinic",
        "name": "Essence Espaço Saúde",
        "phone": "+55(48)3532-0322",
        "id": "node/5376815821"
      },
      "geometry": {
        "type": "Point",
        "coordinates": [
          -49.9517841,
          -29.1953208
        ]
      }
    },
    {
      "type": "Feature",
      "id": "node/5583297222",
      "properties": {
        "timestamp": "2021-02-16T21:15:48Z",
        "version": 2,
        "changeset": 99405929,
        "addr:housenumber": "589",
        "addr:street": "Rua Doutor Nereu Ramos",
        "amenity": "clinic",
        "healthcare": "clinic",
        "name": "Dual Clínica Radiológica",
        "id": "node/5583297222"
      },
      "geometry": {
        "type": "Point",
        "coordinates": [
          -49.9472537,
          -29.1947209
        ]
      }
    },
    {
      "type": "Feature",
      "id": "node/8626388029",
      "properties": {
        "timestamp": "2021-04-13T15:58:05Z",
        "version": 1,
        "changeset": 102875428,
        "amenity": "clinic",
        "id": "node/8626388029"
      },
      "geometry": {
        "type": "Point",
        "coordinates": [
          -49.8939262,
          -29.1427504
        ]
      }
    }
  ]
}
