{
  "type": "FeatureCollection",
  "features": [
    {
      "type": "Feature",
      "id": "way/483535986",
      "properties": {
        "timestamp": "2023-11-25T18:34:49Z",
        "version": 2,
        "changeset": 144450109,
        "addr:city": "Praia Grande",
        "addr:housenumber": "790",
        "addr:street": "Avenida José Inácio Júnior",
        "addr:suburb": "Centro",
        "alt_name": "Centro de Referência de Assistência Social Caminho dos Canyons",
        "amenity": "social_facility",
        "building": "yes",
        "name": "CRAS Caminho dos Canyons",
        "operator": "Prefeitura Municipal de Praia Grande",
        "operator:type": "government",
        "short_name": "CRAS",
        "social_facility": "outreach",
        "social_facility:for": "underprivileged",
        "id": "way/483535986"
      },
      "geometry": {
        "type": "Polygon",
        "coordinates": [
          [
            [
              -49.9635729,
              -29.1954789
            ],
            [
              -49.9636104,
              -29.1956593
            ],
            [
              -49.9635001,
              -29.1956768
            ],
            [
              -49.9634626,
              -29.1954964
            ],
            [
              -49.9635729,
              -29.1954789
            ]
          ]
        ]
      }
    }
  ]
}
