{
  "type": "FeatureCollection",
  "features": [
    {
      "type": "Feature",
      "id": "way/737878767",
      "properties": {
        "timestamp": "2023-05-07T23:43:50Z",
        "version": 4,
        "changeset": 135829840,
        "addr:housenumber": "404",
        "addr:postcode": "13973-090",
        "addr:street": "Rua João de Moraes",
        "addr:suburb": "Centro",
        "admin_level": "8",
        "building": "public",
        "government": "legislative",
        "name": "Câmara Municipal de Itapira",
        "office": "government",
        "opening_hours": "Mo-Fr 08:00-17:30; Sa,Su,PH off",
        "phone": "+55 19 3913 9090",
        "id": "way/737878767"
      },
      "geometry": {
        "type": "Polygon",
        "coordinates": [
          [
            [
              -46.8226206,
              -22.4384751
            ],
            [
              -46.8227463,
              -22.4385557
            ],
            [
              -46.822674,
              -22.4386074
            ],
            [
              -46.8227411,
              -22.4386495
            ],
            [
              -46.8226687,
              -22.4387115
            ],
            [
              -46.822489,
              -22.4385776
            ],
            [
              -46.8226206,
              -22.4384751
            ]
          ]
        ]
      }
    },
    {
      "type": "Feature",
      "id": "way/786041961",
      "properties": {
        "timestamp": "2020-03-30T23:38:56Z",
        "version": 1,
        "changeset": 82846380,
        "addr:city": "Itapira",
        "addr:housenumber": "123",
        "addr:street": "Rua Farmaceutico Antônio Serra",
        "addr:suburb": "Penha",
        "building": "yes",
        "name": "Vigilância Sanitária",
        "office": "government",
        "id": "way/786041961"
      },
      "geometry": {
        "type": "Polygon",
        "coordinates": [
          [
            [
              -46.8243201,
              -22.4237652
            ],
            [
              -46.824607,
              -22.4239914
            ],
            [
              -46.8243067,
              -22.4243168
            ],
            [
              -46.8240199,
              -22.4240906
            ],
            [
              -46.8243201,
              -22.4237652
            ]
          ]
        ]
      }
    },
    {
      "type": "Feature",
      "id": "way/786041962",
      "properties": {
        "timestamp": "2020-03-30T23:38:56Z",
        "version": 1,
        "changeset": 82846380,
        "addr:city": "Itapira",
        "addr:housenumber": "123",
        "addr:street": "Rua Farmaceutico Antônio Serra",
        "addr:suburb": "Penha",
        "building": "yes",
        "name": "Vigilância Epidemiológica",
        "office": "government",
        "id": "way/786041962"
      },
      "geometry": {
        "type": "Polygon",
        "coordinates": [
          [
            [
              -46.8240303,
              -22.4241132
            ],
            [
              -46.8243048,
              -22.4243206
            ],
            [
              -46.8240566,
              -22.4246014
            ],
            [
              -46.823782,
              -22.424394
            ],
            [
              -46.8240303,
              -22.4241132
            ]
          ]
        ]
      }
    }
  ]
}
