{
  "type": "FeatureCollection",
  "features": [
    {
      "type": "Feature",
      "id": "way/1258437593",
      "properties": {
        "timestamp": "2024-03-06T22:36:19Z",
        "version": 1,
        "changeset": 148317858,
        "addr:city": "Itapira",
        "addr:housenumber": "109",
        "addr:street": "Rua Santo Breda",
        "addr:suburb": "Barão Ataliba Nogueira",
        "amenity": "pharmacy",
        "building": "commercial",
        "healthcare": "pharmacy",
        "name": "Drogaria Barão",
        "id": "way/1258437593"
      },
      "geometry": {
        "type": "Polygon",
        "coordinates": [
          [
            [
              -46.7466676,
              -22.3909756
            ],
            [
              -46.746566,
              -22.3910641
            ],
            [
              -46.7464574,
              -22.3909637
            ],
            [
              -46.7465683,
              -22.3908709
            ],
            [
              -46.7466676,
              -22.3909756
            ]
          ]
        ]
      }
    }
  ]
}
