{
  "type": "FeatureCollection",
  "features": [
    {
      "type": "Feature",
      "id": "way/514910251",
      "properties": {
        "timestamp": "2023-09-25T22:50:32Z",
        "version": 3,
        "changeset": 141750792,
        "addr:city": "Goianorte",
        "addr:housenumber": "00",
        "addr:postcode": "77695-000",
        "addr:street": "Rua Piauí",
        "addr:suburb": "Palmeiras",
        "amenity": "school",
        "name": "Colégio Estadual Morro do Mato",
        "phone": "+55 63 3424 1136",
        "id": "way/514910251"
      },
      "geometry": {
        "type": "Polygon",
        "coordinates": [
          [
            [
              -48.9370443,
              -8.7704563
            ],
            [
              -48.9364539,
              -8.7696808
            ],
            [
              -48.9368193,
              -8.7694109
            ],
            [
              -48.9374039,
              -8.7702168
            ],
            [
              -48.9370443,
              -8.7704563
            ]
          ]
        ]
      }
    },
    {
      "type": "Feature",
      "id": "way/1034333475",
      "properties": {
        "timestamp": "2022-02-23T00:45:21Z",
        "version": 1,
        "changeset": 117748403,
        "amenity": "school",
        "name": "Escola Municipal Antonio Coelho Ribeiro",
        "id": "way/1034333475"
      },
      "geometry": {
        "type": "Polygon",
        "coordinates": [
          [
            [
              -49.1495021,
              -8.8154066
            ],
            [
              -49.1497408,
              -8.8159208
            ],
            [
              -49.1492419,
              -8.8161142
            ],
            [
              -49.14903,
              -8.8156663
            ],
            [
              -49.1495021,
              -8.8154066
            ]
          ]
        ]
      }
    },
    {
      "type": "Feature",
      "id": "way/1034333985",
      "properties": {
        "timestamp": "2023-09-25T22:50:32Z",
        "version": 2,
        "changeset": 141750792,
        "addr:city": "Goianorte",
        "addr:postcode": "77695-000",
        "addr:street": "Avenida Deusdete",
        "addr:suburb": "Centro",
        "amenity": "school",
        "name": "Creche Municipal Edileuza Maria Araújo Silva",
        "phone": "+55 63 3424 1207",
        "id": "way/1034333985"
      },
      "geometry": {
        "type": "Polygon",
        "coordinates": [
          [
            [
              -48.9321534,
              -8.7728165
            ],
            [
              -48.9323446,
              -8.7731249
            ],
            [
              -48.9318196,
              -8.7734428
            ],
            [
              -48.9316284,
              -8.7731345
            ],
            [
              -48.9321534,
              -8.7728165
            ]
          ]
        ]
      }
    },
    {
      "type": "Feature",
      "id": "way/1034334087",
      "properties": {
        "timestamp": "2023-09-25T22:50:32Z",
        "version": 2,
        "changeset": 141750792,
        "addr:city": "Goianorte",
        "addr:housenumber": "1078",
        "addr:postcode": "77695-000",
        "addr:street": "Rua Goiás",
        "addr:suburb": "Centro",
        "amenity": "school",
        "name": "Colégio Estadual Antenor Barreira",
        "phone": "+55 63 3424 1119",
        "id": "way/1034334087"
      },
      "geometry": {
        "type": "Polygon",
        "coordinates": [
          [
            [
              -48.9339973,
              -8.7757022
            ],
            [
              -48.9342709,
              -8.7761316
            ],
            [
              -48.9336218,
              -8.7765293
            ],
            [
              -48.9333536,
              -8.7761184
            ],
            [
              -48.9339973,
              -8.7757022
            ]
          ]
        ]
      }
    },
    {
      "type": "Feature",
      "id": "way/1034334189",
      "properties": {
        "timestamp": "2023-09-25T22:50:32Z",
        "version": 2,
        "changeset": 141750792,
        "addr:city": "Goianorte",
        "addr:postcode": "77695-000",
        "addr:street": "Avenida Antenor Barreiras",
        "addr:suburb": "Centro",
        "amenity": "school",
        "name": "Escola Municipal Dr. José Rodrigues Ferreira",
        "phone": "+55 63 3424 1305",
        "id": "way/1034334189"
      },
      "geometry": {
        "type": "Polygon",
        "coordinates": [
          [
            [
              -48.9350011,
              -8.7761545
            ],
            [
              -48.935186,
              -8.7764365
            ],
            [
              -48.9347794,
              -8.7766967
            ],
            [
              -48.9345946,
              -8.7764147
            ],
            [
              -48.9350011,
              -8.7761545
            ]
          ]
        ]
      }
    },
    {
      "type": "Feature",
      "id": "node/9528547197",
      "properties": {
        "timestamp": "2023-09-25T22:50:32Z",
        "version": 2,
        "changeset": 141750792,
        "addr:city": "Goianorte",
        "addr:housenumber": "306",
        "addr:postcode": "77695-000",
        "addr:street": "Avenida Tiradentes",
        "addr:suburb": "Centro",
        "amenity": "school",
        "name": "Escola Especial Novo Paraíso",
        "phone": "+55 63 3424 1128",
        "id": "node/9528547197"
      },
      "geometry": {
        "type": "Point",
        "coordinates": [
          -48.9321359,
          -8.7699473
        ]
      }
    },
    {
      "type": "Feature",
      "id": "node/9561409069",
      "properties": {
        "timestamp": "2022-03-07T22:21:03Z",
        "version": 1,
        "changeset": 118214962,
        "amenity": "school",
        "name": "Esc Municipal Cidade Leer",
        "id": "node/9561409069"
      },
      "geometry": {
        "type": "Point",
        "coordinates": [
          -48.8776897,
          -8.9282565
        ]
      }
    }
  ]
}
