{
  "type": "FeatureCollection",
  "features": [
    {
      "type": "Feature",
      "id": "node/5294040731",
      "properties": {
        "timestamp": "2021-12-31T19:46:18Z",
        "version": 8,
        "changeset": 115620857,
        "addr:city": "Laranjal Paulista",
        "addr:housenumber": "31",
        "addr:postcode": "18500-000",
        "addr:street": "Praça Dom Pedro II",
        "addr:suburb": "Centro",
        "contact:facebook": "https://www.facebook.com/radicalbik07",
        "name": "Radical Bike",
        "shop": "bicycle",
        "id": "node/5294040731"
      },
      "geometry": {
        "type": "Point",
        "coordinates": [
          -47.8370714,
          -23.0474826
        ]
      }
    },
    {
      "type": "Feature",
      "id": "node/5294040732",
      "properties": {
        "timestamp": "2022-01-16T10:58:44Z",
        "version": 7,
        "changeset": 116209205,
        "addr:city": "Laranjal Paulista",
        "addr:housenumber": "396",
        "addr:postcode": "18500-000",
        "addr:street": "Avenida da Saudade",
        "addr:suburb": "Vila Manente",
        "contact:facebook": "https://www.facebook.com/nbrizotti",
        "name": "Bicicletaria Santa Terezinha",
        "phone": "+51 15 3283 2319",
        "shop": "bicycle",
        "short_name": "BST",
        "id": "node/5294040732"
      },
      "geometry": {
        "type": "Point",
        "coordinates": [
          -47.8323999,
          -23.0527659
        ]
      }
    },
    {
      "type": "Feature",
      "id": "node/6154627364",
      "properties": {
        "timestamp": "2021-02-22T02:12:45Z",
        "version": 8,
        "changeset": 99705879,
        "addr:city": "Laranjal Paulista",
        "addr:housenumber": "147",
        "addr:postcode": "18500-000",
        "addr:street": "Rua Doutor Júlio Prestes",
        "addr:suburb": "Centro",
        "contact:facebook": "https://www.facebook.com/wns.bikes",
        "name": "Wns Bikes",
        "shop": "bicycle",
        "id": "node/6154627364"
      },
      "geometry": {
        "type": "Point",
        "coordinates": [
          -47.8365929,
          -23.0529829
        ]
      }
    }
  ]
}
