{
  "type": "FeatureCollection",
  "features": [
    {
      "type": "Feature",
      "id": "node/5195622579",
      "properties": {
        "timestamp": "2022-09-27T02:02:12Z",
        "version": 14,
        "changeset": 126676464,
        "addr:city": "Laranjal Paulista",
        "addr:housenumber": "92",
        "addr:postcode": "18500-000",
        "addr:street": "Rua Doutor Pereira Barreto",
        "addr:suburb": "Centro",
        "amenity": "dentist",
        "healthcare": "dentist",
        "healthcare:speciality": "dentist;periodontics;dental_oral_maxillo_facial_surgery;endodontics;dental_surgery",
        "image": "File:Centro de Especialidades Odontológicas de Laranjal Paulista.jpg",
        "name": "Centro de Especialidades Odontológicas",
        "opening_hours": "Mo-Fr 07:00-16:00; PH off",
        "operator": "Secretaria Municipal de Saúde de Laranjal Paulista",
        "phone": "+55 15 3283 4108",
        "short_name": "CEO",
        "toilets": "yes",
        "toilets:access": "customers",
        "toilets:wheelchair": "yes",
        "id": "node/5195622579"
      },
      "geometry": {
        "type": "Point",
        "coordinates": [
          -47.8372745,
          -23.0525603
        ]
      }
    },
    {
      "type": "Feature",
      "id": "node/8155298825",
      "properties": {
        "timestamp": "2024-11-02T21:34:32Z",
        "version": 2,
        "changeset": 158677992,
        "addr:city": "Laranjal Paulista",
        "addr:housenumber": "127",
        "addr:postcode": "18500-000",
        "addr:street": "Rua Doutor Pereira Barreto",
        "addr:suburb": "Centro",
        "amenity": "dentist",
        "description": "Consultório médico.",
        "healthcare": "dentist",
        "name": "Consultório Odontológico de Luciano Falcão Rodrigues Alves",
        "operator": "Luciano Falcão Rodrigues Alves",
        "operator:type": "private",
        "source": "GeoSEADE 2020",
        "id": "node/8155298825"
      },
      "geometry": {
        "type": "Point",
        "coordinates": [
          -47.8369435,
          -23.0526476
        ]
      }
    },
    {
      "type": "Feature",
      "id": "node/8155298826",
      "properties": {
        "timestamp": "2024-11-05T00:24:57Z",
        "version": 4,
        "changeset": 158760895,
        "addr:city": "Laranjal Paulista",
        "addr:housenumber": "62",
        "addr:postcode": "18500-000",
        "addr:street": "Praça Armando de Salles Oliveira",
        "addr:suburb": "Centro",
        "addr:unit": "Sobreloja B",
        "amenity": "dentist",
        "description": "Cirurgião dentista.",
        "healthcare": "doctor",
        "level": "1",
        "name": "Suzana Dertadian Nicoleti",
        "operator": "Suzana Dertadian Nicoleti",
        "operator:type": "private",
        "source": "GeoSEADE 2020",
        "id": "node/8155298826"
      },
      "geometry": {
        "type": "Point",
        "coordinates": [
          -47.8371296,
          -23.0512191
        ]
      }
    },
    {
      "type": "Feature",
      "id": "node/8155298832",
      "properties": {
        "timestamp": "2022-02-20T17:51:02Z",
        "version": 5,
        "changeset": 117648687,
        "addr:city": "Laranjal Paulista",
        "addr:housenumber": "13",
        "addr:postcode": "18500-000",
        "addr:street": "Rua Nações Unidas",
        "addr:suburb": "Centro",
        "addr:unit": "Salas 1 e 2",
        "amenity": "dentist",
        "description": "Consultório médico.",
        "healthcare": "dentist",
        "level": "1",
        "name": "Colp Odontologia",
        "operator": "Jaqueline Fiusa de Camargo",
        "operator:type": "private",
        "source": "GeoSEADE 2020",
        "id": "node/8155298832"
      },
      "geometry": {
        "type": "Point",
        "coordinates": [
          -47.8368056,
          -23.0517237
        ]
      }
    },
    {
      "type": "Feature",
      "id": "node/8155298847",
      "properties": {
        "timestamp": "2020-11-23T16:56:49Z",
        "version": 1,
        "changeset": 94650875,
        "addr:city": "Laranjal Paulista",
        "addr:housenumber": "147",
        "addr:postcode": "18500-000",
        "addr:street": "Rua Camilo Palandri",
        "addr:suburb": "Vila Manente",
        "amenity": "dentist",
        "description": "Dentista e consultório médico.",
        "healthcare": "doctor",
        "name": "Realce Odontologia Moderna",
        "operator": "Realce Odontologia Moderna EIRELI",
        "operator:type": "private",
        "source": "GeoSEADE 2020",
        "id": "node/8155298847"
      },
      "geometry": {
        "type": "Point",
        "coordinates": [
          -47.8331067,
          -23.053623
        ]
      }
    },
    {
      "type": "Feature",
      "id": "node/9382587532",
      "properties": {
        "timestamp": "2024-11-19T01:47:16Z",
        "version": 3,
        "changeset": 159306177,
        "addr:city": "Laranjal Paulista",
        "addr:housenumber": "41",
        "addr:postcode": "18500-000",
        "addr:street": "Praça Dom Pedro II",
        "addr:suburb": "Centro",
        "amenity": "dentist",
        "healthcare": "dentist",
        "healthcare:speciality": "dentist",
        "name": "Giovanna Zanella Blumer",
        "id": "node/9382587532"
      },
      "geometry": {
        "type": "Point",
        "coordinates": [
          -47.8370553,
          -23.0474058
        ]
      }
    }
  ]
}
