{
  "type": "FeatureCollection",
  "features": [
    {
      "type": "Feature",
      "id": "node/8127336100",
      "properties": {
        "timestamp": "2023-11-18T13:08:50Z",
        "version": 4,
        "changeset": 144173732,
        "addr:city": "Laranjal Paulista",
        "addr:housenumber": "55",
        "addr:postcode": "18500-000",
        "addr:street": "Rua Vital Brasil",
        "addr:suburb": "Centro",
        "amenity": "doctors",
        "fixme": "confirmar posição estimada; rever tags",
        "healthcare": "doctor",
        "name": "CAME",
        "note": "Estava classificado como POLICLINICA pelo GeoSEADE",
        "operator": "Centro de Atendimento Médico Empresarial e Laboratório",
        "operator:type": "private",
        "source": "GeoSEADE 2020;local knowledge",
        "website": "https://www.cameocupacional.com.br/",
        "id": "node/8127336100"
      },
      "geometry": {
        "type": "Point",
        "coordinates": [
          -47.8377398,
          -23.0527528
        ]
      }
    },
    {
      "type": "Feature",
      "id": "node/8155298818",
      "properties": {
        "timestamp": "2020-11-23T16:56:49Z",
        "version": 1,
        "changeset": 94650875,
        "addr:city": "Laranjal Paulista",
        "addr:housenumber": "254",
        "addr:postcode": "18500-000",
        "addr:street": "Rua Nações Unidas",
        "addr:suburb": "Centro",
        "amenity": "doctors",
        "description": "Clínica e consultórios médicos.",
        "fixme": "confirmar posição estimada",
        "healthcare": "doctor",
        "name": "Clínica Sampaio",
        "note": "9 consultórios unificados em um POI. Para ver os colsultórios, veja no site GeoSEADE: Equipamentos, Saúde.",
        "operator": "Clinica Dr Djalma Sampaio LTDA",
        "operator:type": "private",
        "source": "GeoSEADE 2020",
        "id": "node/8155298818"
      },
      "geometry": {
        "type": "Point",
        "coordinates": [
          -47.8354081,
          -23.0534047
        ]
      }
    },
    {
      "type": "Feature",
      "id": "node/8155298819",
      "properties": {
        "timestamp": "2021-11-16T04:52:35Z",
        "version": 2,
        "changeset": 113833390,
        "addr:city": "Laranjal Paulista",
        "addr:housenumber": "87",
        "addr:postcode": "18500-000",
        "addr:street": "Rua Salatiel Pires",
        "addr:suburb": "Vila São José",
        "alt_name": "Medroma",
        "amenity": "doctors",
        "description": "Laboratório e consultório médico.",
        "healthcare": "doctor",
        "name": "Previlab Análises Clínicas",
        "note": "Classificado como UNIDADE DE APOIO DIAGNOSE E TERAPIA (SADT ISOLADO) pelo GeoSEADE.",
        "operator": "Previlab Análises Clínicas Ltda",
        "operator:type": "private",
        "id": "node/8155298819"
      },
      "geometry": {
        "type": "Point",
        "coordinates": [
          -47.8317551,
          -23.0546299
        ]
      }
    },
    {
      "type": "Feature",
      "id": "node/8155298827",
      "properties": {
        "timestamp": "2020-11-23T16:56:49Z",
        "version": 1,
        "changeset": 94650875,
        "addr:city": "Laranjal Paulista",
        "addr:housenumber": "247",
        "addr:postcode": "18500-000",
        "addr:street": "Rua Nicolau Jacob",
        "addr:suburb": "Centro",
        "amenity": "doctors",
        "description": "Consultório médico.",
        "fixme": "confirmar posição estimada",
        "healthcare": "doctor",
        "name": "Maira Zanetti",
        "operator": "Maira Zanetti",
        "operator:type": "private",
        "source": "GeoSEADE 2020",
        "id": "node/8155298827"
      },
      "geometry": {
        "type": "Point",
        "coordinates": [
          -47.8351243,
          -23.0540405
        ]
      }
    },
    {
      "type": "Feature",
      "id": "node/8155298828",
      "properties": {
        "timestamp": "2021-11-16T04:29:36Z",
        "version": 2,
        "changeset": 113832916,
        "addr:city": "Laranjal Paulista",
        "addr:housenumber": "68",
        "addr:postcode": "18500-000",
        "addr:street": "Rua São Vicente de Paulo",
        "addr:suburb": "Centro",
        "amenity": "doctors",
        "description": "Consultório médico.",
        "healthcare": "doctor",
        "name": "Clínica Alves Lima",
        "operator:type": "private",
        "source": "GeoSEADE 2020;local knowledge",
        "website": "https://clinica-alves-lima.negocio.site/",
        "id": "node/8155298828"
      },
      "geometry": {
        "type": "Point",
        "coordinates": [
          -47.8343562,
          -23.0513141
        ]
      }
    },
    {
      "type": "Feature",
      "id": "node/8155298829",
      "properties": {
        "timestamp": "2021-11-16T04:29:36Z",
        "version": 2,
        "changeset": 113832916,
        "addr:city": "Laranjal Paulista",
        "addr:housenumber": "112",
        "addr:postcode": "18500-000",
        "addr:street": "Rua São Vicente de Paulo",
        "addr:suburb": "Centro",
        "amenity": "doctors",
        "description": "Consultório médico.",
        "healthcare": "doctor",
        "name": "Nabor Jose Machado Castanheira Junior",
        "operator:type": "private",
        "source": "GeoSEADE 2020",
        "id": "node/8155298829"
      },
      "geometry": {
        "type": "Point",
        "coordinates": [
          -47.8344239,
          -23.050858
        ]
      }
    },
    {
      "type": "Feature",
      "id": "node/8155298830",
      "properties": {
        "timestamp": "2020-11-23T16:56:49Z",
        "version": 1,
        "changeset": 94650875,
        "addr:city": "Laranjal Paulista",
        "addr:housenumber": "269",
        "addr:postcode": "18500-000",
        "addr:street": "Rua Nações Unidas",
        "addr:suburb": "Centro",
        "amenity": "doctors",
        "description": "Consultório médico.",
        "healthcare": "doctor",
        "name": "Leandro Umberto de Paula",
        "operator": "Leandro Umberto de Paula",
        "operator:type": "private",
        "source": "GeoSEADE 2020",
        "id": "node/8155298830"
      },
      "geometry": {
        "type": "Point",
        "coordinates": [
          -47.8351548,
          -23.0534492
        ]
      }
    },
    {
      "type": "Feature",
      "id": "node/8155298831",
      "properties": {
        "timestamp": "2020-11-23T16:56:49Z",
        "version": 1,
        "changeset": 94650875,
        "addr:city": "Laranjal Paulista",
        "addr:housenumber": "495",
        "addr:postcode": "18500-000",
        "addr:street": "Rua Nações Unidas",
        "addr:suburb": "Centro",
        "amenity": "doctors",
        "description": "Consultório médico.",
        "healthcare": "doctor",
        "name": "José Francisco de Moura Campos",
        "operator": "José Francisco de Moura Campos",
        "operator:type": "private",
        "source": "GeoSEADE 2020",
        "id": "node/8155298831"
      },
      "geometry": {
        "type": "Point",
        "coordinates": [
          -47.8339389,
          -23.0547389
        ]
      }
    },
    {
      "type": "Feature",
      "id": "node/8155298833",
      "properties": {
        "timestamp": "2020-11-23T16:56:49Z",
        "version": 1,
        "changeset": 94650875,
        "addr:city": "Laranjal Paulista",
        "addr:housenumber": "183",
        "addr:postcode": "18500-000",
        "addr:street": "Rua Guilherme Marconi",
        "addr:suburb": "Centro",
        "amenity": "doctors",
        "description": "Consultório médico.",
        "healthcare": "doctor",
        "name": "Clínica de Fisio e Fono Camarim Gazonato",
        "operator": "Clínica de Fisioterapia e Fonoaudiologia Camarin Gazonato",
        "operator:type": "private",
        "source": "GeoSEADE 2020",
        "id": "node/8155298833"
      },
      "geometry": {
        "type": "Point",
        "coordinates": [
          -47.8369908,
          -23.0539157
        ]
      }
    },
    {
      "type": "Feature",
      "id": "node/8155298834",
      "properties": {
        "timestamp": "2020-11-23T16:56:49Z",
        "version": 1,
        "changeset": 94650875,
        "addr:city": "Laranjal Paulista",
        "addr:housenumber": "362",
        "addr:postcode": "18500-000",
        "addr:street": "Rua Nações Unidas",
        "addr:suburb": "Centro",
        "amenity": "doctors",
        "description": "Consultório médico.",
        "healthcare": "doctor",
        "name": "Fisiodonto",
        "operator": "Clínica de Fisioterapia Teixeira Pessin LTDA",
        "operator:type": "private",
        "source": "GeoSEADE 2020",
        "id": "node/8155298834"
      },
      "geometry": {
        "type": "Point",
        "coordinates": [
          -47.8346986,
          -23.0541901
        ]
      }
    },
    {
      "type": "Feature",
      "id": "node/8155298835",
      "properties": {
        "timestamp": "2020-11-23T16:56:49Z",
        "version": 1,
        "changeset": 94650875,
        "addr:city": "Laranjal Paulista",
        "addr:housenumber": "425",
        "addr:postcode": "18500-000",
        "addr:street": "Rua Nações Unidas",
        "addr:suburb": "Centro",
        "amenity": "doctors",
        "description": "Consultório médico.",
        "fixme": "confirmar posição estimada",
        "healthcare": "doctor",
        "name": "Bruna Dias Manfrin Piveta",
        "operator": "Bruna Dias Manfrin Piveta",
        "operator:type": "private",
        "source": "GeoSEADE 2020",
        "id": "node/8155298835"
      },
      "geometry": {
        "type": "Point",
        "coordinates": [
          -47.8341393,
          -23.0545065
        ]
      }
    },
    {
      "type": "Feature",
      "id": "node/8155298836",
      "properties": {
        "timestamp": "2021-08-02T03:12:08Z",
        "version": 2,
        "changeset": 108992787,
        "addr:city": "Laranjal Paulista",
        "addr:housenumber": "136",
        "addr:postcode": "18500-000",
        "addr:street": "Rua Tiradentes",
        "addr:suburb": "Bairro São Benedito",
        "amenity": "doctors",
        "description": "Consultório médico.",
        "healthcare": "doctor",
        "name": "Rosilene Angelica Bordgnon",
        "operator": "Rosilene Angelica Bordgnon",
        "operator:type": "private",
        "source": "GeoSEADE 2020",
        "id": "node/8155298836"
      },
      "geometry": {
        "type": "Point",
        "coordinates": [
          -47.8354078,
          -23.0415978
        ]
      }
    },
    {
      "type": "Feature",
      "id": "node/8155298837",
      "properties": {
        "timestamp": "2020-11-23T16:56:49Z",
        "version": 1,
        "changeset": 94650875,
        "addr:city": "Laranjal Paulista",
        "addr:housenumber": "88 A",
        "addr:postcode": "18500-000",
        "addr:street": "Rua Clemente de Campos",
        "addr:suburb": "Bairro São Benedito",
        "amenity": "doctors",
        "description": "Consultório médico.",
        "fixme": "confirmar posição estimada",
        "healthcare": "psychotherapist",
        "name": "Faraely",
        "operator": "Faraely Prestação de Serviço de Psicologia Ltda",
        "operator:type": "private",
        "source": "GeoSEADE 2020",
        "id": "node/8155298837"
      },
      "geometry": {
        "type": "Point",
        "coordinates": [
          -47.8381891,
          -23.0413639
        ]
      }
    },
    {
      "type": "Feature",
      "id": "node/8155298838",
      "properties": {
        "timestamp": "2021-06-06T10:22:54Z",
        "version": 3,
        "changeset": 105911024,
        "addr:city": "Laranjal Paulista",
        "addr:housenumber": "434",
        "addr:postcode": "18500-000",
        "addr:street": "Rua Governador Pedro de Toledo",
        "addr:suburb": "Vila Campacci",
        "amenity": "doctors",
        "description": "Consultório médico.",
        "healthcare": "doctor",
        "operator:type": "private",
        "source": "GeoSEADE 2020",
        "id": "node/8155298838"
      },
      "geometry": {
        "type": "Point",
        "coordinates": [
          -47.833906,
          -23.0539273
        ]
      }
    },
    {
      "type": "Feature",
      "id": "node/8155298839",
      "properties": {
        "timestamp": "2021-03-25T12:42:32Z",
        "version": 2,
        "changeset": 101720292,
        "addr:city": "Laranjal Paulista",
        "addr:housenumber": "33",
        "addr:postcode": "18500-000",
        "addr:street": "Rua Ordele",
        "addr:suburb": "Centro",
        "amenity": "doctors",
        "description": "Consultório médico.",
        "healthcare": "doctor",
        "name": "Milton José Schivitaro",
        "operator": "Milton José Schivitaro",
        "operator:type": "private",
        "source": "GeoSEADE 2020",
        "id": "node/8155298839"
      },
      "geometry": {
        "type": "Point",
        "coordinates": [
          -47.8369643,
          -23.046985
        ]
      }
    },
    {
      "type": "Feature",
      "id": "node/8155298840",
      "properties": {
        "timestamp": "2024-11-02T00:15:03Z",
        "version": 2,
        "changeset": 158641520,
        "addr:city": "Laranjal Paulista",
        "addr:housenumber": "117",
        "addr:postcode": "18500-000",
        "addr:street": "Rua Nações Unidas",
        "addr:suburb": "Centro",
        "amenity": "doctors",
        "description": "Consultório médico.",
        "healthcare": "doctor",
        "name": "Silvia Ghiraldi Luvisotto",
        "operator": "Silvia Ghiraldi Luvisotto",
        "operator:type": "private",
        "source": "GeoSEADE 2020",
        "id": "node/8155298840"
      },
      "geometry": {
        "type": "Point",
        "coordinates": [
          -47.8362029,
          -23.0523195
        ]
      }
    },
    {
      "type": "Feature",
      "id": "node/8155298841",
      "properties": {
        "timestamp": "2021-04-10T17:00:22Z",
        "version": 2,
        "changeset": 102707687,
        "addr:city": "Laranjal Paulista",
        "addr:housenumber": "124",
        "addr:postcode": "18500-000",
        "addr:street": "Rua Barão do Rio Branco",
        "addr:suburb": "Centro",
        "amenity": "doctors",
        "description": "Consultório médico.",
        "healthcare": "doctor",
        "name": "Marcos Aparecido Pinto",
        "operator": "Marcos Aparecido Pinto",
        "operator:type": "private",
        "source": "GeoSEADE 2020",
        "id": "node/8155298841"
      },
      "geometry": {
        "type": "Point",
        "coordinates": [
          -47.8358644,
          -23.0487129
        ]
      }
    },
    {
      "type": "Feature",
      "id": "node/8155298843",
      "properties": {
        "timestamp": "2020-11-23T16:56:49Z",
        "version": 1,
        "changeset": 94650875,
        "addr:city": "Laranjal Paulista",
        "addr:housenumber": "68",
        "addr:postcode": "18500-000",
        "addr:street": "Praça Dom Pedro II",
        "addr:suburb": "Centro",
        "amenity": "doctors",
        "description": "Consultório médico.",
        "fixme": "confirmar posição estimada",
        "healthcare": "doctor",
        "name": "Tarsila Bado de Almeida",
        "operator": "Tarsila Bado de Almeida",
        "operator:type": "private",
        "source": "GeoSEADE 2020",
        "id": "node/8155298843"
      },
      "geometry": {
        "type": "Point",
        "coordinates": [
          -47.83669,
          -23.047247
        ]
      }
    },
    {
      "type": "Feature",
      "id": "node/8155298844",
      "properties": {
        "timestamp": "2020-11-23T16:56:49Z",
        "version": 1,
        "changeset": 94650875,
        "addr:city": "Laranjal Paulista",
        "addr:housenumber": "73",
        "addr:postcode": "18500-000",
        "addr:street": "Rua Barão do Rio Branco",
        "addr:suburb": "Centro",
        "amenity": "doctors",
        "description": "Consultórios médicos.",
        "fixme": "confirmar posição estimada; adicionar nome",
        "healthcare": "doctor",
        "operator:type": "private",
        "source": "GeoSEADE 2020",
        "id": "node/8155298844"
      },
      "geometry": {
        "type": "Point",
        "coordinates": [
          -47.836166,
          -23.0491804
        ]
      }
    },
    {
      "type": "Feature",
      "id": "node/8155298845",
      "properties": {
        "timestamp": "2020-11-23T16:56:49Z",
        "version": 1,
        "changeset": 94650875,
        "addr:city": "Laranjal Paulista",
        "addr:housenumber": "257",
        "addr:postcode": "18500-000",
        "addr:street": "Rua Nações Unidas",
        "addr:suburb": "Centro",
        "amenity": "doctors",
        "description": "Consultório médico.",
        "healthcare": "doctor",
        "name": "Luis Poggi Filho",
        "operator": "Luis Poggi Filho",
        "operator:type": "private",
        "source": "GeoSEADE 2020",
        "id": "node/8155298845"
      },
      "geometry": {
        "type": "Point",
        "coordinates": [
          -47.8352183,
          -23.0533747
        ]
      }
    },
    {
      "type": "Feature",
      "id": "node/8155298846",
      "properties": {
        "timestamp": "2021-06-06T10:22:54Z",
        "version": 2,
        "changeset": 105911024,
        "addr:city": "Laranjal Paulista",
        "addr:housenumber": "454",
        "addr:postcode": "18500-000",
        "addr:street": "Rua Governador Pedro de Toledo",
        "addr:suburb": "Vila Campacci",
        "amenity": "doctors",
        "description": "Consultório médico.",
        "healthcare": "doctor",
        "name": "Eliana Aparecida Uguetto Ghiraldi",
        "operator": "Eliana Aparecida Uguetto Ghiraldi",
        "operator:type": "private",
        "source": "GeoSEADE 2020",
        "id": "node/8155298846"
      },
      "geometry": {
        "type": "Point",
        "coordinates": [
          -47.8339077,
          -23.0540031
        ]
      }
    },
    {
      "type": "Feature",
      "id": "node/8155298848",
      "properties": {
        "timestamp": "2024-11-17T22:24:29Z",
        "version": 2,
        "changeset": 159261701,
        "addr:city": "Laranjal Paulista",
        "addr:housenumber": "13",
        "addr:postcode": "18500-000",
        "addr:street": "Rua dos Expedicionários",
        "addr:suburb": "Centro",
        "addr:unit": "B",
        "amenity": "doctors",
        "description": "Consultório médico.",
        "healthcare": "doctor",
        "level": "1",
        "name": "Tatiane Luvisotto",
        "operator": "Tatiane Luvisotto",
        "operator:type": "private",
        "source": "GeoSEADE 2020",
        "id": "node/8155298848"
      },
      "geometry": {
        "type": "Point",
        "coordinates": [
          -47.8362414,
          -23.050772
        ]
      }
    },
    {
      "type": "Feature",
      "id": "node/8155298850",
      "properties": {
        "timestamp": "2021-06-19T04:12:05Z",
        "version": 4,
        "changeset": 106615771,
        "addr:city": "Laranjal Paulista",
        "addr:housenumber": "15",
        "addr:postcode": "18500-000",
        "addr:street": "Avenida da Saudade",
        "addr:suburb": "Centro",
        "amenity": "doctors",
        "description": "Consultório médico.",
        "healthcare": "doctor",
        "name": "Macro Imagem",
        "operator:type": "private",
        "source": "GeoSEADE 2020",
        "id": "node/8155298850"
      },
      "geometry": {
        "type": "Point",
        "coordinates": [
          -47.8362492,
          -23.0511598
        ]
      }
    },
    {
      "type": "Feature",
      "id": "node/8155298851",
      "properties": {
        "timestamp": "2020-11-23T16:56:49Z",
        "version": 1,
        "changeset": 94650875,
        "addr:city": "Laranjal Paulista",
        "addr:housenumber": "1330",
        "addr:postcode": "18500-000",
        "addr:street": "Rua José Rodrigues Machado",
        "addr:suburb": "Vila Darcy",
        "amenity": "doctors",
        "description": "Consultório médico.",
        "fixme": "confirmar posição estimada",
        "healthcare": "doctor",
        "name": "Tissiane Ghiraldi Bonalume",
        "operator": "Tissiane Ghiraldi Bonalume",
        "operator:type": "private",
        "source": "GeoSEADE 2020",
        "id": "node/8155298851"
      },
      "geometry": {
        "type": "Point",
        "coordinates": [
          -47.8336633,
          -23.0566411
        ]
      }
    },
    {
      "type": "Feature",
      "id": "node/8155298852",
      "properties": {
        "timestamp": "2021-06-06T10:22:54Z",
        "version": 2,
        "changeset": 105911024,
        "addr:city": "Laranjal Paulista",
        "addr:housenumber": "472",
        "addr:postcode": "18500-000",
        "addr:street": "Rua Governador Pedro de Toledo",
        "addr:suburb": "Vila Campacci",
        "amenity": "doctors",
        "description": "Consultório médico.",
        "healthcare": "doctor",
        "name": "Maria do Carmo Marcuz de Almeida",
        "operator": "Maria do Carmo Marcuz de Almeida",
        "operator:type": "private",
        "source": "GeoSEADE 2020",
        "id": "node/8155298852"
      },
      "geometry": {
        "type": "Point",
        "coordinates": [
          -47.8337793,
          -23.0541667
        ]
      }
    },
    {
      "type": "Feature",
      "id": "node/8155298853",
      "properties": {
        "timestamp": "2020-11-23T16:56:49Z",
        "version": 1,
        "changeset": 94650875,
        "addr:city": "Laranjal Paulista",
        "addr:housenumber": "336",
        "addr:postcode": "18500-000",
        "addr:street": "Rua Nações Unidas",
        "addr:suburb": "Centro",
        "amenity": "doctors",
        "description": "Consultórios médicos.",
        "fixme": "confirmar posição estimada; adicionar nome",
        "healthcare": "doctor",
        "operator:type": "private",
        "source": "GeoSEADE 2020",
        "id": "node/8155298853"
      },
      "geometry": {
        "type": "Point",
        "coordinates": [
          -47.834867,
          -23.0539941
        ]
      }
    },
    {
      "type": "Feature",
      "id": "node/8155298854",
      "properties": {
        "timestamp": "2024-11-17T23:53:03Z",
        "version": 3,
        "changeset": 159263332,
        "addr:city": "Laranjal Paulista",
        "addr:housenumber": "112",
        "addr:postcode": "18500-000",
        "addr:street": "Rua dos Expedicionários",
        "addr:suburb": "Centro",
        "amenity": "doctors",
        "description": "Consultório médico.",
        "healthcare": "doctor",
        "name": "Paulo Roberto Barbieri",
        "operator": "Paulo Roberto Barbieri",
        "operator:type": "private",
        "source": "GeoSEADE 2020",
        "id": "node/8155298854"
      },
      "geometry": {
        "type": "Point",
        "coordinates": [
          -47.8353284,
          -23.0511124
        ]
      }
    },
    {
      "type": "Feature",
      "id": "node/8155298855",
      "properties": {
        "timestamp": "2024-11-05T00:24:57Z",
        "version": 2,
        "changeset": 158760895,
        "addr:city": "Laranjal Paulista",
        "addr:housenumber": "39",
        "addr:postcode": "18500-000",
        "addr:street": "Rua 13 de Maio",
        "addr:suburb": "Centro",
        "amenity": "doctors",
        "description": "Consultório médico.",
        "healthcare": "doctor",
        "name": "Marcio Miguel Orlando",
        "operator": "Marcio Miguel Orlando",
        "operator:type": "private",
        "source": "GeoSEADE 2020",
        "id": "node/8155298855"
      },
      "geometry": {
        "type": "Point",
        "coordinates": [
          -47.8381226,
          -23.0498427
        ]
      }
    },
    {
      "type": "Feature",
      "id": "node/8155298856",
      "properties": {
        "timestamp": "2020-11-23T16:56:49Z",
        "version": 1,
        "changeset": 94650875,
        "addr:city": "Laranjal Paulista",
        "addr:housenumber": "360",
        "addr:postcode": "18500-000",
        "addr:street": "Rua Governador Pedro de Toledo",
        "addr:suburb": "Centro",
        "addr:unit": "Sala 1",
        "amenity": "doctors",
        "description": "Consultório médico.",
        "healthcare": "doctor",
        "name": "Rodrigues Alves Prestadora de Serviços Médicos",
        "operator": "Rodrigues Alves Prestadora de Serviços Médicos",
        "operator:type": "private",
        "source": "GeoSEADE 2020",
        "id": "node/8155298856"
      },
      "geometry": {
        "type": "Point",
        "coordinates": [
          -47.8343878,
          -23.053454
        ]
      }
    },
    {
      "type": "Feature",
      "id": "node/8155298857",
      "properties": {
        "timestamp": "2020-11-23T16:56:49Z",
        "version": 1,
        "changeset": 94650875,
        "addr:city": "Laranjal Paulista",
        "addr:housenumber": "174",
        "addr:postcode": "18500-000",
        "addr:street": "Rua Nações Unidas",
        "addr:suburb": "Centro",
        "amenity": "doctors",
        "description": "Consultório médico.",
        "fixme": "confirmar posição estimada",
        "healthcare": "doctor",
        "name": "Edson Roberto Rodrigues Costa",
        "operator": "Edson Roberto Rodrigues Costa",
        "operator:type": "private",
        "source": "GeoSEADE 2020",
        "id": "node/8155298857"
      },
      "geometry": {
        "type": "Point",
        "coordinates": [
          -47.8359372,
          -23.0528582
        ]
      }
    },
    {
      "type": "Feature",
      "id": "node/12349637720",
      "properties": {
        "timestamp": "2024-11-17T23:53:03Z",
        "version": 1,
        "changeset": 159263332,
        "addr:city": "Laranjal Paulista",
        "addr:housenumber": "74",
        "addr:postcode": "18500-000",
        "addr:street": "Rua Delfino de Mello",
        "addr:suburb": "Centro",
        "amenity": "doctors",
        "id": "node/12349637720"
      },
      "geometry": {
        "type": "Point",
        "coordinates": [
          -47.8354286,
          -23.0503217
        ]
      }
    }
  ]
}
