{
  "type": "FeatureCollection",
  "features": [
    {
      "type": "Feature",
      "id": "node/5471964881",
      "properties": {
        "timestamp": "2021-03-07T18:00:49Z",
        "version": 5,
        "changeset": 100585730,
        "addr:city": "Laranjal Paulista",
        "addr:housenumber": "285",
        "addr:postcode": "18500-000",
        "addr:street": "Rua Lázaro Pires",
        "addr:suburb": "Jardim Pedro Zalla",
        "name": "Chácara das Palmeiras",
        "tourism": "guest_house",
        "id": "node/5471964881"
      },
      "geometry": {
        "type": "Point",
        "coordinates": [
          -47.8442215,
          -23.046131
        ]
      }
    },
    {
      "type": "Feature",
      "id": "node/10080818014",
      "properties": {
        "timestamp": "2022-10-23T07:57:47Z",
        "version": 2,
        "changeset": 127945920,
        "addr:city": "Laranjal Paulista",
        "addr:postcode": "18500-000",
        "addr:street": "Rua Euclides da Silva",
        "addr:suburb": "Bairro Pedro Pinto",
        "guest_house": "guest_house",
        "name": "Recanto do Ipê",
        "nohousenumber": "yes",
        "tourism": "guest_house",
        "id": "node/10080818014"
      },
      "geometry": {
        "type": "Point",
        "coordinates": [
          -47.8477155,
          -23.0406069
        ]
      }
    }
  ]
}
