{
  "type": "FeatureCollection",
  "features": [
    {
      "type": "Feature",
      "id": "node/5223927427",
      "properties": {
        "timestamp": "2021-08-02T02:43:37Z",
        "version": 7,
        "changeset": 108992204,
        "addr:city": "Laranjal Paulista",
        "addr:housenumber": "258",
        "addr:postcode": "18510-000",
        "addr:street": "Avenida Afonso Mathias",
        "addr:suburb": "Maristela",
        "amenity": "pharmacy",
        "healthcare": "pharmacy",
        "name": "Drogaria Maristela",
        "phone": "+55 15 3287 1113",
        "id": "node/5223927427"
      },
      "geometry": {
        "type": "Point",
        "coordinates": [
          -47.8879926,
          -23.0379387
        ]
      }
    },
    {
      "type": "Feature",
      "id": "node/5225896969",
      "properties": {
        "timestamp": "2024-11-05T00:24:57Z",
        "version": 14,
        "changeset": 158760895,
        "addr:city": "Laranjal Paulista",
        "addr:housenumber": "32",
        "addr:postcode": "18500-000",
        "addr:street": "Praça Armando de Salles Oliveira",
        "addr:suburb": "Centro",
        "amenity": "pharmacy",
        "healthcare": "pharmacy",
        "name": "Drogaria Bifarma",
        "phone": "+55 15 3283 2112",
        "id": "node/5225896969"
      },
      "geometry": {
        "type": "Point",
        "coordinates": [
          -47.8369045,
          -23.0510537
        ]
      }
    },
    {
      "type": "Feature",
      "id": "node/5225896970",
      "properties": {
        "timestamp": "2021-11-16T04:29:36Z",
        "version": 12,
        "changeset": 113832916,
        "addr:city": "Laranjal Paulista",
        "addr:housenumber": "42",
        "addr:postcode": "18500-000",
        "addr:street": "Rua Doutor Oscar Vieira Sampaio",
        "addr:suburb": "Centro",
        "amenity": "pharmacy",
        "healthcare": "pharmacy",
        "name": "Farmácia Laranjal",
        "phone": "+51 15 3283 6680",
        "id": "node/5225896970"
      },
      "geometry": {
        "type": "Point",
        "coordinates": [
          -47.8368076,
          -23.0494766
        ]
      }
    },
    {
      "type": "Feature",
      "id": "node/5225896971",
      "properties": {
        "timestamp": "2021-12-27T02:56:45Z",
        "version": 9,
        "changeset": 115405891,
        "addr:city": "Laranjal Paulista",
        "addr:housenumber": "25",
        "addr:postcode": "18500-000",
        "addr:street": "Rua Conselheiro Antônio Prado",
        "addr:suburb": "Centro",
        "amenity": "pharmacy",
        "healthcare": "pharmacy",
        "name": "Drogaria São Judas Tadeu",
        "id": "node/5225896971"
      },
      "geometry": {
        "type": "Point",
        "coordinates": [
          -47.8359503,
          -23.0497922
        ]
      }
    },
    {
      "type": "Feature",
      "id": "node/5225896972",
      "properties": {
        "timestamp": "2021-11-16T04:29:36Z",
        "version": 8,
        "changeset": 113832916,
        "addr:city": "Laranjal Paulista",
        "addr:housenumber": "65",
        "addr:postcode": "18500-000",
        "addr:street": "Rua Governador Pedro de Toledo",
        "addr:suburb": "Centro",
        "amenity": "pharmacy",
        "healthcare": "pharmacy",
        "name": "Drogaria Santa Paula 1",
        "phone": "+51 15 3283 1359",
        "id": "node/5225896972"
      },
      "geometry": {
        "type": "Point",
        "coordinates": [
          -47.8361514,
          -23.0513193
        ]
      }
    },
    {
      "type": "Feature",
      "id": "node/5227352451",
      "properties": {
        "timestamp": "2021-11-16T04:52:35Z",
        "version": 5,
        "changeset": 113833390,
        "addr:city": "Laranjal Paulista",
        "addr:housenumber": "534",
        "addr:postcode": "18500-000",
        "addr:street": "Rua Governador Pedro de Toledo",
        "addr:suburb": "Vila Campacci",
        "amenity": "pharmacy",
        "healthcare": "pharmacy",
        "name": "Drogaria São Benedito",
        "phone": "+51 15 3283 1816",
        "wheelchair": "limited",
        "id": "node/5227352451"
      },
      "geometry": {
        "type": "Point",
        "coordinates": [
          -47.8334851,
          -23.0547702
        ]
      }
    },
    {
      "type": "Feature",
      "id": "node/5227352453",
      "properties": {
        "timestamp": "2021-02-07T05:16:54Z",
        "version": 4,
        "changeset": 98838526,
        "addr:city": "Laranjal Paulista",
        "addr:housenumber": "139",
        "addr:postcode": "18500-000",
        "addr:street": "Rua Governador Pedro de Toledo",
        "addr:suburb": "Centro",
        "amenity": "pharmacy",
        "healthcare": "pharmacy",
        "name": "Farmaclin Medicamentos",
        "id": "node/5227352453"
      },
      "geometry": {
        "type": "Point",
        "coordinates": [
          -47.8356474,
          -23.0518101
        ]
      }
    },
    {
      "type": "Feature",
      "id": "node/5227352455",
      "properties": {
        "timestamp": "2020-09-20T03:43:15Z",
        "version": 5,
        "changeset": 91164959,
        "addr:city": "Laranjal Paulista",
        "addr:housenumber": "169",
        "addr:postcode": "18500-000",
        "addr:street": "Rua Ordele",
        "addr:suburb": "Centro",
        "amenity": "pharmacy",
        "healthcare": "pharmacy",
        "name": "Med Farma",
        "id": "node/5227352455"
      },
      "geometry": {
        "type": "Point",
        "coordinates": [
          -47.8367261,
          -23.0458063
        ]
      }
    },
    {
      "type": "Feature",
      "id": "node/5238664097",
      "properties": {
        "timestamp": "2020-04-22T20:49:20Z",
        "version": 4,
        "changeset": 83961629,
        "addr:city": "Laranjal Paulista",
        "addr:housenumber": "834",
        "addr:postcode": "18500-000",
        "addr:street": "Rua Guilherme Marconi",
        "addr:suburb": "Vila Darcy",
        "amenity": "pharmacy",
        "healthcare": "pharmacy",
        "name": "Drogaria Santa Maria",
        "id": "node/5238664097"
      },
      "geometry": {
        "type": "Point",
        "coordinates": [
          -47.8335752,
          -23.0577328
        ]
      }
    },
    {
      "type": "Feature",
      "id": "node/5282977562",
      "properties": {
        "timestamp": "2022-01-09T20:08:22Z",
        "version": 6,
        "changeset": 115956269,
        "addr:city": "Laranjal Paulista",
        "addr:housenumber": "13",
        "addr:postcode": "18500-000",
        "addr:street": "Avenida Cesário Carlos de Almeida",
        "addr:suburb": "Bairro São Benedito",
        "amenity": "pharmacy",
        "healthcare": "pharmacy",
        "name": "Drogaria Santa Paula 2",
        "phone": "+51 15 3283 6680",
        "id": "node/5282977562"
      },
      "geometry": {
        "type": "Point",
        "coordinates": [
          -47.834806,
          -23.0437155
        ]
      }
    },
    {
      "type": "Feature",
      "id": "node/5918005836",
      "properties": {
        "timestamp": "2022-12-19T18:04:16Z",
        "version": 8,
        "changeset": 130258961,
        "addr:city": "Laranjal Paulista",
        "addr:housenumber": "49",
        "addr:postcode": "18500-000",
        "addr:street": "Largo São João",
        "addr:suburb": "Centro",
        "amenity": "pharmacy",
        "healthcare": "pharmacy",
        "name": "Drogal",
        "phone": "+55 15 3283 5213",
        "id": "node/5918005836"
      },
      "geometry": {
        "type": "Point",
        "coordinates": [
          -47.8369584,
          -23.0506909
        ]
      }
    },
    {
      "type": "Feature",
      "id": "node/5938719921",
      "properties": {
        "timestamp": "2021-11-16T04:29:36Z",
        "version": 8,
        "changeset": 113832916,
        "addr:city": "Laranjal Paulista",
        "addr:housenumber": "80",
        "addr:postcode": "18500-000",
        "addr:street": "Praça Armando de Salles Oliveira",
        "addr:suburb": "Centro",
        "amenity": "pharmacy",
        "healthcare": "pharmacy",
        "name": "Drogaria Santa Paula 3",
        "phone": "+55 15 3283 5151",
        "id": "node/5938719921"
      },
      "geometry": {
        "type": "Point",
        "coordinates": [
          -47.8372803,
          -23.0513085
        ]
      }
    },
    {
      "type": "Feature",
      "id": "node/8400605288",
      "properties": {
        "timestamp": "2023-03-12T05:53:42Z",
        "version": 4,
        "changeset": 133574477,
        "addr:city": "Laranjal Paulista",
        "addr:housenumber": "90B",
        "addr:postcode": "18500-000",
        "addr:street": "Rua dos Expedicionários",
        "addr:suburb": "Centro",
        "amenity": "pharmacy",
        "description": "Farmácia e manipulação de fórmulas.",
        "healthcare": "pharmacy",
        "name": "Botica Derm",
        "id": "node/8400605288"
      },
      "geometry": {
        "type": "Point",
        "coordinates": [
          -47.8355292,
          -23.0511027
        ]
      }
    },
    {
      "type": "Feature",
      "id": "node/9045384407",
      "properties": {
        "timestamp": "2021-08-29T14:48:18Z",
        "version": 1,
        "changeset": 110415835,
        "addr:city": "Laranjal Paulista",
        "addr:housenumber": "520",
        "addr:postcode": "18500-000",
        "addr:street": "Avenida Cesário Carlos de Almeida",
        "addr:suburb": "Bairro São Roque",
        "amenity": "pharmacy",
        "drive_through": "no",
        "fixme": "confirmar número de casa",
        "healthcare": "pharmacy",
        "name": "Drogaria São Roque",
        "start_date": "2021-08-28",
        "strapline": "A drograria do seu bairro.",
        "id": "node/9045384407"
      },
      "geometry": {
        "type": "Point",
        "coordinates": [
          -47.8338117,
          -23.0391352
        ]
      }
    },
    {
      "type": "Feature",
      "id": "node/9968134971",
      "properties": {
        "timestamp": "2022-08-21T16:34:51Z",
        "version": 1,
        "changeset": 125190893,
        "addr:city": "Laranjal Paulista",
        "addr:housenumber": "22",
        "addr:postcode": "18500-000",
        "addr:street": "Rua Nações Unidas",
        "addr:suburb": "Centro",
        "amenity": "pharmacy",
        "description": "Farmácia de Homeopatia e Manipulação",
        "healthcare": "pharmacy",
        "healthcare:speciality": "homeopathy",
        "name": "Bioativa",
        "id": "node/9968134971"
      },
      "geometry": {
        "type": "Point",
        "coordinates": [
          -47.8367787,
          -23.05196
        ]
      }
    }
  ]
}
