{
  "type": "FeatureCollection",
  "features": [
    {
      "type": "Feature",
      "id": "way/729126708",
      "properties": {
        "timestamp": "2023-02-07T18:42:26Z",
        "version": 2,
        "changeset": 132219977,
        "addr:city": "Alexandria",
        "addr:housenumber": "71",
        "addr:street": "Rua Augusto Fernandes",
        "addr:suburb": "Santo Amaro",
        "alt_name": "CRAS",
        "amenity": "social_facility",
        "building": "yes",
        "name": "Centro de Referência de Assistência Social",
        "social_facility": "outreach",
        "social_facility:for": "underprivileged",
        "id": "way/729126708"
      },
      "geometry": {
        "type": "Polygon",
        "coordinates": [
          [
            [
              -38.0135801,
              -6.4093603
            ],
            [
              -38.0137419,
              -6.4095914
            ],
            [
              -38.0136433,
              -6.4097185
            ],
            [
              -38.0134707,
              -6.409446
            ],
            [
              -38.0135801,
              -6.4093603
            ]
          ]
        ]
      }
    }
  ]
}
