{
  "type": "FeatureCollection",
  "features": [
    {
      "type": "Feature",
      "id": "way/531584245",
      "properties": {
        "timestamp": "2017-12-07T15:46:16Z",
        "version": 2,
        "changeset": 54435158,
        "building": "yes",
        "name": "Secretaria Municipal da Saude",
        "office": "government",
        "id": "way/531584245"
      },
      "geometry": {
        "type": "Polygon",
        "coordinates": [
          [
            [
              -52.7946308,
              -28.2842077
            ],
            [
              -52.7943852,
              -28.2840955
            ],
            [
              -52.7945878,
              -28.2837548
            ],
            [
              -52.7948347,
              -28.2838437
            ],
            [
              -52.7946308,
              -28.2842077
            ]
          ]
        ]
      }
    },
    {
      "type": "Feature",
      "id": "way/531584274",
      "properties": {
        "timestamp": "2024-04-07T20:44:53Z",
        "version": 4,
        "changeset": 149709387,
        "addr:city": "Carazinho",
        "addr:housenumber": "1673",
        "addr:postcode": "99500-000",
        "addr:street": "Avenida Flores da Cunha",
        "addr:suburb": "Centro",
        "building": "yes",
        "name": "SINE",
        "office": "government",
        "phone": "+55 54 3331-3282",
        "website": "https://fgtas.rs.gov.br/carazinho",
        "id": "way/531584274"
      },
      "geometry": {
        "type": "Polygon",
        "coordinates": [
          [
            [
              -52.7909678,
              -28.2874873
            ],
            [
              -52.7908042,
              -28.2873952
            ],
            [
              -52.7910617,
              -28.2870669
            ],
            [
              -52.7912333,
              -28.2871732
            ],
            [
              -52.7909678,
              -28.2874873
            ]
          ]
        ]
      }
    },
    {
      "type": "Feature",
      "id": "way/546827798",
      "properties": {
        "timestamp": "2017-12-14T13:52:38Z",
        "version": 1,
        "changeset": 54625009,
        "building": "yes",
        "government": "register_office",
        "name": "INSS",
        "office": "government",
        "id": "way/546827798"
      },
      "geometry": {
        "type": "Polygon",
        "coordinates": [
          [
            [
              -52.7930448,
              -28.2832822
            ],
            [
              -52.792816,
              -28.2835598
            ],
            [
              -52.7926011,
              -28.2834159
            ],
            [
              -52.7928276,
              -28.2831506
            ],
            [
              -52.7930448,
              -28.2832822
            ]
          ]
        ]
      }
    },
    {
      "type": "Feature",
      "id": "node/5650068132",
      "properties": {
        "timestamp": "2024-12-14T01:07:15Z",
        "version": 2,
        "changeset": 160266166,
        "addr:city": "Carazinho",
        "addr:door": "Sala 01",
        "addr:housenumber": "430",
        "addr:postcode": "99500-000",
        "addr:street": "Rua Bento Gon√ßalves",
        "addr:suburb": "centro",
        "government": "tax",
        "name": "Delegacia Seccional do CREMERS",
        "office": "government",
        "id": "node/5650068132"
      },
      "geometry": {
        "type": "Point",
        "coordinates": [
          -52.7976434,
          -28.286185
        ]
      }
    }
  ]
}
