{
  "type": "FeatureCollection",
  "features": [
    {
      "type": "Feature",
      "id": "way/366603045",
      "properties": {
        "timestamp": "2024-10-27T03:58:01Z",
        "version": 4,
        "changeset": 158397661,
        "IJSN:tipoAgrup": "Pronto Atendimento",
        "addr:city": "Viana",
        "addr:postcode": "29135-000",
        "addr:street": "Rua Luiz Alvarenga",
        "addr:suburb": "Centro",
        "amenity": "clinic",
        "contact:phone": "2733544720",
        "healthcare": "clinic",
        "healthcare:speciality": "emergency;dentistry",
        "name": "Unidade de Pronto Atendimento (UPA) - Unidade Cabo Jorge Lacerda Balestreiro",
        "opening_hours": "24/7",
        "operator": "Prefeitura Municipal de Viana",
        "operator:type": "government",
        "short_name": "UPA",
        "source": "Prefeitura Municipal de Viana",
        "id": "way/366603045"
      },
      "geometry": {
        "type": "Polygon",
        "coordinates": [
          [
            [
              -40.4968532,
              -20.3935582
            ],
            [
              -40.4966972,
              -20.3938409
            ],
            [
              -40.4965411,
              -20.3941025
            ],
            [
              -40.4962538,
              -20.3940083
            ],
            [
              -40.4963713,
              -20.3937819
            ],
            [
              -40.4964804,
              -20.3938244
            ],
            [
              -40.496648,
              -20.393464
            ],
            [
              -40.4968532,
              -20.3935582
            ]
          ]
        ]
      }
    },
    {
      "type": "Feature",
      "id": "way/366603047",
      "properties": {
        "timestamp": "2019-07-07T03:34:18Z",
        "version": 2,
        "changeset": 71972740,
        "IJSN:tipoAgrup": "Unidade Básica de Saúde",
        "addr:city": "Viana",
        "addr:place": "Marcílio de Noronha",
        "addr:postcode": "29135-000",
        "addr:street": "Rua Osasco",
        "amenity": "clinic",
        "contact:phone": "(27) 3344-5858",
        "healthcare": "clinic",
        "name": "Unidade Básica de Saúde Marcílio de Noronha",
        "short_name": "US",
        "source": "IJSN",
        "id": "way/366603047"
      },
      "geometry": {
        "type": "Polygon",
        "coordinates": [
          [
            [
              -40.4276573,
              -20.3459963
            ],
            [
              -40.4276538,
              -20.3462589
            ],
            [
              -40.4273951,
              -20.3462656
            ],
            [
              -40.427363,
              -20.3462305
            ],
            [
              -40.4273683,
              -20.345998
            ],
            [
              -40.4276573,
              -20.3459963
            ]
          ]
        ]
      }
    },
    {
      "type": "Feature",
      "id": "way/366603048",
      "properties": {
        "timestamp": "2023-01-01T09:58:52Z",
        "version": 3,
        "changeset": 130741607,
        "IJSN:tipoAgrup": "Unidade Básica de Saúde",
        "addr:city": "Viana",
        "addr:place": "Comunidade São Paulo de Biriricas",
        "addr:postcode": "29135-000",
        "addr:street": "Rua Projetada",
        "addr:suburb": "São Paulo de Cima",
        "amenity": "clinic",
        "building": "yes",
        "healthcare": "clinic",
        "healthcare:speciality": "general",
        "name": "Unidade Básica de Saúde São Paulo Biriricas",
        "operator": "Município de Viana",
        "operator:type": "public",
        "short_name": "US",
        "source": "IJSN",
        "id": "way/366603048"
      },
      "geometry": {
        "type": "Polygon",
        "coordinates": [
          [
            [
              -40.5461933,
              -20.3130875
            ],
            [
              -40.5462186,
              -20.3131479
            ],
            [
              -40.5461984,
              -20.3131553
            ],
            [
              -40.5462059,
              -20.3131732
            ],
            [
              -40.5461512,
              -20.3131933
            ],
            [
              -40.5461185,
              -20.313115
            ],
            [
              -40.5461933,
              -20.3130875
            ]
          ]
        ]
      }
    },
    {
      "type": "Feature",
      "id": "way/366603049",
      "properties": {
        "timestamp": "2019-07-07T03:34:18Z",
        "version": 2,
        "changeset": 71972740,
        "IJSN:tipoAgrup": "Unidade Básica de Saúde",
        "addr:city": "Viana",
        "addr:housenumber": "67",
        "addr:place": "Vila Bethânia",
        "addr:postcode": "29135-000",
        "addr:street": "Rua Luiza Cazotti",
        "amenity": "clinic",
        "contact:phone": "(27) 3336-1811",
        "healthcare": "clinic",
        "name": "Unidade Básica de Saúde de Vila Bethânia",
        "short_name": "US",
        "source": "IJSN",
        "id": "way/366603049"
      },
      "geometry": {
        "type": "Polygon",
        "coordinates": [
          [
            [
              -40.4111825,
              -20.3584376
            ],
            [
              -40.4108736,
              -20.3584391
            ],
            [
              -40.4108278,
              -20.3584146
            ],
            [
              -40.4108229,
              -20.3583747
            ],
            [
              -40.4108801,
              -20.3580008
            ],
            [
              -40.4110991,
              -20.3580069
            ],
            [
              -40.4111825,
              -20.3584376
            ]
          ]
        ]
      }
    },
    {
      "type": "Feature",
      "id": "way/366603061",
      "properties": {
        "timestamp": "2019-07-07T03:34:18Z",
        "version": 2,
        "changeset": 71972740,
        "IJSN:tipoAgrup": "Unidade Básica de Saúde",
        "addr:city": "Viana",
        "addr:place": "Industrial",
        "addr:postcode": "29135-000",
        "addr:street": "Rua Xavier",
        "amenity": "clinic",
        "contact:phone": "(27) 3344-3943",
        "healthcare": "clinic",
        "name": "Unidade de Saúde da Família Industrial",
        "short_name": "USF",
        "source": "IJSN",
        "id": "way/366603061"
      },
      "geometry": {
        "type": "Polygon",
        "coordinates": [
          [
            [
              -40.420453,
              -20.3442479
            ],
            [
              -40.4203886,
              -20.3443878
            ],
            [
              -40.4201951,
              -20.344317
            ],
            [
              -40.4202117,
              -20.3442773
            ],
            [
              -40.4204033,
              -20.3442116
            ],
            [
              -40.420453,
              -20.3442479
            ]
          ]
        ]
      }
    },
    {
      "type": "Feature",
      "id": "way/366603062",
      "properties": {
        "timestamp": "2019-07-07T03:34:18Z",
        "version": 2,
        "changeset": 71972740,
        "IJSN:tipoAgrup": "Unidade Básica de Saúde",
        "addr:city": "Viana",
        "addr:place": "Morada de Bethânia",
        "addr:postcode": "29135-000",
        "addr:street": "Rua Domingos Martins",
        "amenity": "clinic",
        "contact:phone": "(27) 3354-0033",
        "healthcare": "clinic",
        "name": "Unidade de Saúde da Família Morada de Bethânia",
        "short_name": "USF",
        "source": "IJSN",
        "id": "way/366603062"
      },
      "geometry": {
        "type": "Polygon",
        "coordinates": [
          [
            [
              -40.4060229,
              -20.3838227
            ],
            [
              -40.4059812,
              -20.3839482
            ],
            [
              -40.4057479,
              -20.38388
            ],
            [
              -40.4057896,
              -20.3837546
            ],
            [
              -40.4060229,
              -20.3838227
            ]
          ]
        ]
      }
    },
    {
      "type": "Feature",
      "id": "way/366603063",
      "properties": {
        "timestamp": "2019-07-07T03:34:18Z",
        "version": 2,
        "changeset": 71972740,
        "IJSN:tipoAgrup": "Unidade Básica de Saúde",
        "addr:city": "Viana",
        "addr:place": "Primavera",
        "addr:postcode": "29135-000",
        "addr:street": "Rua José Marcelino de Melo",
        "amenity": "clinic",
        "contact:phone": "(27) 3344-0662",
        "healthcare": "clinic",
        "name": "Unidade de Saúde da Família Primavera",
        "short_name": "USF",
        "source": "IJSN",
        "id": "way/366603063"
      },
      "geometry": {
        "type": "Polygon",
        "coordinates": [
          [
            [
              -40.4306826,
              -20.3518789
            ],
            [
              -40.4305635,
              -20.3521107
            ],
            [
              -40.4307901,
              -20.3521965
            ],
            [
              -40.4306116,
              -20.3525549
            ],
            [
              -40.4301561,
              -20.3523639
            ],
            [
              -40.4304537,
              -20.3517737
            ],
            [
              -40.4306826,
              -20.3518789
            ]
          ]
        ]
      }
    },
    {
      "type": "Feature",
      "id": "way/679283878",
      "properties": {
        "timestamp": "2019-07-07T03:34:18Z",
        "version": 2,
        "changeset": 71972740,
        "IJSN:tipoAgrup": "Unidade Básica de Saúde",
        "addr:city": "Viana",
        "addr:housenumber": "01",
        "addr:place": "Cabral",
        "addr:postcode": "29135-000",
        "addr:street": "Rodovia BR 262, km 21",
        "amenity": "clinic",
        "contact:phone": "(27) 32552-095",
        "healthcare": "clinic",
        "name": "Unidade Prisional de Segurança Média II",
        "short_name": "CS",
        "source": "IJSN",
        "id": "way/679283878"
      },
      "geometry": {
        "type": "Polygon",
        "coordinates": [
          [
            [
              -40.5003811,
              -20.3797886
            ],
            [
              -40.5009471,
              -20.3799634
            ],
            [
              -40.5008854,
              -20.3802953
            ],
            [
              -40.5008224,
              -20.3803581
            ],
            [
              -40.5004495,
              -20.3802978
            ],
            [
              -40.5002899,
              -20.3801821
            ],
            [
              -40.5003811,
              -20.3797886
            ]
          ]
        ]
      }
    },
    {
      "type": "Feature",
      "id": "way/679283879",
      "properties": {
        "timestamp": "2024-10-05T13:35:56Z",
        "version": 3,
        "changeset": 157501552,
        "IJSN:tipoAgrup": "Clínica Especializada",
        "addr:city": "Viana",
        "addr:housenumber": "km 19",
        "addr:place": "Cabral",
        "addr:postcode": "29135-000",
        "addr:street": "BR-262",
        "amenity": "clinic",
        "healthcare": "clinic",
        "name": "Unidade Referência Tuberculose e Hanceniase",
        "source": "IJSN",
        "id": "way/679283879"
      },
      "geometry": {
        "type": "Polygon",
        "coordinates": [
          [
            [
              -40.4986458,
              -20.3793926
            ],
            [
              -40.4989032,
              -20.3799081
            ],
            [
              -40.4986981,
              -20.3799948
            ],
            [
              -40.4983601,
              -20.3799445
            ],
            [
              -40.4981415,
              -20.379585
            ],
            [
              -40.4986458,
              -20.3793926
            ]
          ]
        ]
      }
    },
    {
      "type": "Feature",
      "id": "way/1328681488",
      "properties": {
        "timestamp": "2024-10-28T00:14:15Z",
        "version": 1,
        "changeset": 158435531,
        "addr:city": "Viana",
        "addr:postcode": "29135-000",
        "addr:street": "Rua Veronica Foli da Silva",
        "addr:suburb": "Bom Pastor",
        "amenity": "clinic",
        "healthcare": "clinic",
        "healthcare:speciality": "general",
        "name": "Unidade Básica de Saúde de Bom Pastor",
        "opening_hours": "Mo-Fr 07:00-16:00",
        "operator": "Prefeitura Municipal de Viana",
        "operator:type": "government",
        "id": "way/1328681488"
      },
      "geometry": {
        "type": "Polygon",
        "coordinates": [
          [
            [
              -40.470557,
              -20.390755
            ],
            [
              -40.4704683,
              -20.3908858
            ],
            [
              -40.4701383,
              -20.3906906
            ],
            [
              -40.4702202,
              -20.3905619
            ],
            [
              -40.470557,
              -20.390755
            ]
          ]
        ]
      }
    },
    {
      "type": "Feature",
      "id": "node/2819612595",
      "properties": {
        "timestamp": "2019-07-11T17:33:19Z",
        "version": 4,
        "changeset": 72146221,
        "IJSN:tipoAgrup": "Unidade Básica de Saúde",
        "addr:city": "Viana",
        "addr:place": "Araçatiba",
        "addr:postcode": "29135-000",
        "addr:street": "Rua Francisco Palassi",
        "amenity": "clinic",
        "contact:phone": "+55 27 3255-6001",
        "healthcare": "clinic",
        "name": "Unidade Básica Saúde de Araçatiba",
        "short_name": "US",
        "id": "node/2819612595"
      },
      "geometry": {
        "type": "Point",
        "coordinates": [
          -40.4882707,
          -20.4620638
        ]
      }
    },
    {
      "type": "Feature",
      "id": "node/3705966914",
      "properties": {
        "timestamp": "2019-07-07T03:34:18Z",
        "version": 3,
        "changeset": 71972740,
        "IJSN:tipoAgrup": "Pronto Atendimento",
        "addr:city": "Viana",
        "addr:place": "Arlindo Vilaschi",
        "addr:postcode": "29135-000",
        "addr:street": "Rua Pernambuco",
        "amenity": "clinic",
        "emergency": "yes",
        "healthcare": "clinic",
        "name": "Pronto Atendimento do Bairro Arlindo Vilaschi",
        "short_name": "PA",
        "source": "IJSN",
        "id": "node/3705966914"
      },
      "geometry": {
        "type": "Point",
        "coordinates": [
          -40.4131789,
          -20.3662083
        ]
      }
    },
    {
      "type": "Feature",
      "id": "node/3705966915",
      "properties": {
        "timestamp": "2019-07-07T03:34:18Z",
        "version": 2,
        "changeset": 71972740,
        "IJSN:tipoAgrup": "Unidade Básica de Saúde",
        "addr:city": "Viana",
        "addr:housenumber": "220",
        "addr:place": "Jucu",
        "addr:postcode": "29135-000",
        "addr:street": "Rua Nossa Senhora do Belém",
        "amenity": "clinic",
        "contact:phone": "(27) 3255-1361",
        "healthcare": "clinic",
        "name": "Unidade Básica Saúde Jucu",
        "short_name": "US",
        "source": "IJSN",
        "id": "node/3705966915"
      },
      "geometry": {
        "type": "Point",
        "coordinates": [
          -40.4615106,
          -20.4222976
        ]
      }
    },
    {
      "type": "Feature",
      "id": "node/3705967029",
      "properties": {
        "timestamp": "2019-07-07T03:34:18Z",
        "version": 2,
        "changeset": 71972740,
        "IJSN:tipoAgrup": "Unidade Básica de Saúde",
        "addr:city": "Viana",
        "addr:housenumber": "137",
        "addr:place": "Vila Bethânia",
        "addr:postcode": "29135-000",
        "addr:street": "Rua Santa Helena",
        "amenity": "clinic",
        "contact:phone": "(27) 3336-1411",
        "healthcare": "clinic",
        "name": "Unidade de Saúde Mental",
        "short_name": "US",
        "source": "IJSN",
        "id": "node/3705967029"
      },
      "geometry": {
        "type": "Point",
        "coordinates": [
          -40.4069969,
          -20.3572971
        ]
      }
    },
    {
      "type": "Feature",
      "id": "node/3705967041",
      "properties": {
        "timestamp": "2019-07-07T03:34:18Z",
        "version": 2,
        "changeset": 71972740,
        "IJSN:tipoAgrup": "Unidade Básica de Saúde",
        "addr:city": "Viana",
        "addr:housenumber": "310",
        "addr:place": "Areinha",
        "addr:postcode": "29135-000",
        "addr:street": "Avenida Guarapari",
        "amenity": "clinic",
        "contact:phone": "(27) 2127 6749",
        "healthcare": "clinic",
        "name": "Unidade de Saúde da Família Areinha",
        "short_name": "USF",
        "source": "IJSN",
        "id": "node/3705967041"
      },
      "geometry": {
        "type": "Point",
        "coordinates": [
          -40.431311,
          -20.3715203
        ]
      }
    },
    {
      "type": "Feature",
      "id": "node/3705967043",
      "properties": {
        "timestamp": "2019-07-07T03:34:18Z",
        "version": 2,
        "changeset": 71972740,
        "IJSN:tipoAgrup": "Unidade Básica de Saúde",
        "addr:city": "Viana",
        "addr:place": "Canaã",
        "addr:postcode": "29135-000",
        "addr:street": "Rua Resplendor",
        "amenity": "clinic",
        "contact:phone": "(27) 3344-8993",
        "healthcare": "clinic",
        "name": "Unidade de Saúde da Família Canãa",
        "short_name": "USF",
        "source": "IJSN",
        "id": "node/3705967043"
      },
      "geometry": {
        "type": "Point",
        "coordinates": [
          -40.4391039,
          -20.3585929
        ]
      }
    },
    {
      "type": "Feature",
      "id": "node/3705967044",
      "properties": {
        "timestamp": "2019-07-07T03:34:18Z",
        "version": 2,
        "changeset": 71972740,
        "IJSN:tipoAgrup": "Unidade Básica de Saúde",
        "addr:city": "Viana",
        "addr:place": "Ipanema",
        "addr:postcode": "29135-000",
        "addr:street": "Rua Paschoal Marques",
        "amenity": "clinic",
        "contact:phone": "(27) 2124-6749",
        "healthcare": "clinic",
        "name": "Unidade de Saúde da Família Ipanema",
        "short_name": "USF",
        "source": "IJSN",
        "id": "node/3705967044"
      },
      "geometry": {
        "type": "Point",
        "coordinates": [
          -40.455655,
          -20.3601595
        ]
      }
    },
    {
      "type": "Feature",
      "id": "node/3705967045",
      "properties": {
        "timestamp": "2019-07-07T03:34:18Z",
        "version": 2,
        "changeset": 71972740,
        "IJSN:tipoAgrup": "Unidade Básica de Saúde",
        "addr:city": "Viana",
        "addr:place": "Nova Bethânia",
        "addr:postcode": "29135-000",
        "addr:street": "Avenida Central",
        "amenity": "clinic",
        "contact:phone": "(27) 3354-0167",
        "healthcare": "clinic",
        "name": "Unidade de Saúde da Família Nova Bethânia Eldorado",
        "short_name": "USF",
        "source": "IJSN",
        "id": "node/3705967045"
      },
      "geometry": {
        "type": "Point",
        "coordinates": [
          -40.4146655,
          -20.3694971
        ]
      }
    },
    {
      "type": "Feature",
      "id": "node/3705967046",
      "properties": {
        "timestamp": "2019-07-07T03:34:18Z",
        "version": 2,
        "changeset": 71972740,
        "IJSN:tipoAgrup": "Unidade Básica de Saúde",
        "addr:city": "Viana",
        "addr:place": "Caxias do Sul",
        "addr:postcode": "29135-000",
        "addr:street": "Rua Paulo",
        "amenity": "clinic",
        "contact:phone": "(27) 3344-2593",
        "healthcare": "clinic",
        "name": "Unidade de Saúde da Família Soteco",
        "short_name": "USF",
        "source": "IJSN",
        "id": "node/3705967046"
      },
      "geometry": {
        "type": "Point",
        "coordinates": [
          -40.4262595,
          -20.3652133
        ]
      }
    },
    {
      "type": "Feature",
      "id": "node/3705967047",
      "properties": {
        "timestamp": "2020-01-28T17:16:12Z",
        "version": 3,
        "changeset": 80211313,
        "IJSN:tipoAgrup": "Unidade Básica de Saúde",
        "addr:city": "Viana",
        "addr:place": "Universal",
        "addr:postcode": "29135-000",
        "addr:street": "Rua I",
        "amenity": "clinic",
        "healthcare": "clinic",
        "name": "Unidade de Saúde da Família de Universal",
        "short_name": "USF",
        "source": "IJSN",
        "id": "node/3705967047"
      },
      "geometry": {
        "type": "Point",
        "coordinates": [
          -40.4476417,
          -20.3594717
        ]
      }
    }
  ]
}
