{
  "type": "FeatureCollection",
  "features": [
    {
      "type": "Feature",
      "id": "node/4098060580",
      "properties": {
        "timestamp": "2022-03-18T17:47:09Z",
        "version": 2,
        "changeset": 118642379,
        "addr:city": "Viana",
        "addr:postcode": "29139-899",
        "addr:street": "Estrada Gloria Viana",
        "addr:suburb": "Formate",
        "email": "fev@incaper.es.gov.br",
        "government": "government",
        "name": "Fazenda Experimental do Incaper",
        "office": "government",
        "operator": "Instituto Capixaba de Pesquisa, Assistência Técnica e Extensão Rural - Incaper",
        "phone": "+55 27 3255 7134",
        "website": "https://incaper.es.gov.br/fazendas",
        "id": "node/4098060580"
      },
      "geometry": {
        "type": "Point",
        "coordinates": [
          -40.5156939,
          -20.373783
        ]
      }
    },
    {
      "type": "Feature",
      "id": "node/4634765571",
      "properties": {
        "timestamp": "2017-01-26T13:57:17Z",
        "version": 1,
        "changeset": 45513509,
        "name": "Centro Integrado de Cidadania de Viana",
        "office": "government",
        "id": "node/4634765571"
      },
      "geometry": {
        "type": "Point",
        "coordinates": [
          -40.419528,
          -20.3641651
        ]
      }
    },
    {
      "type": "Feature",
      "id": "node/9588321139",
      "properties": {
        "timestamp": "2022-03-18T17:47:09Z",
        "version": 1,
        "changeset": 118642379,
        "addr:city": "Viana",
        "addr:postcode": "29130-899",
        "addr:street": "Estrada Assentamento",
        "addr:suburb": "Jucuruaba",
        "email": "ferc@incaper.es.gov.br",
        "government": "government",
        "name": "Fazenda Experimental Engenheiro Agrônomo Reginaldo Conde - Ferc",
        "office": "government",
        "operator": "Instituto Capixaba de Pesquisa, Assistência Técnica e Extensão Rural - Incaper",
        "phone": "+55 27 3255 3096",
        "website": "https://incaper.es.gov.br/fazendas",
        "id": "node/9588321139"
      },
      "geometry": {
        "type": "Point",
        "coordinates": [
          -40.4754314,
          -20.4247114
        ]
      }
    },
    {
      "type": "Feature",
      "id": "node/12269957159",
      "properties": {
        "timestamp": "2024-10-19T23:06:46Z",
        "version": 1,
        "changeset": 158109714,
        "addr:city": "Viana",
        "addr:postcode": "29130-013",
        "addr:street": "Rua Aspazia Varejão Dias",
        "addr:suburb": "Centro",
        "government": "previdência_social",
        "name": "Agência da Previdência Social - VIANA",
        "office": "government",
        "opening_hours": "Mo-Fr 08:00-11:00",
        "phone": "02732220040",
        "website": "https://meu.inss.gov.br/",
        "id": "node/12269957159"
      },
      "geometry": {
        "type": "Point",
        "coordinates": [
          -40.4895518,
          -20.3913159
        ]
      }
    },
    {
      "type": "Feature",
      "id": "node/12269979015",
      "properties": {
        "timestamp": "2024-10-19T23:24:47Z",
        "version": 1,
        "changeset": 158109965,
        "addr:city": "Viana",
        "addr:housenumber": "324",
        "addr:postcode": "29130-013",
        "addr:street": "Rua Aspazia Varejão Dias",
        "addr:suburb": "Centro",
        "government": "yes",
        "name": "Secretaria Municipal de Educação de Viana",
        "office": "government",
        "opening_hours": "Mo-Fr 07:00-18:00",
        "phone": "2732552930",
        "website": "https://viana.es.gov.br/secretaria/ler/19/secretaria-de-educacao-semed",
        "id": "node/12269979015"
      },
      "geometry": {
        "type": "Point",
        "coordinates": [
          -40.4913351,
          -20.3904745
        ]
      }
    }
  ]
}
