{
  "type": "FeatureCollection",
  "features": [
    {
      "type": "Feature",
      "id": "node/3455725651",
      "properties": {
        "timestamp": "2019-07-11T17:33:19Z",
        "version": 2,
        "changeset": 72146221,
        "IJSN:administra": "Privada",
        "IJSN:classeCnae": "Infantil",
        "addr:city": "Viana",
        "addr:housenumber": "3",
        "addr:place": "Marcílio de Noronha",
        "addr:postcode": "29135-000",
        "addr:street": "Avenida Vitória",
        "alt_name": "Centro Educacional Telles Kohler",
        "amenity": "kindergarten",
        "contact:phone": "+55 27 3396-7525",
        "name": "CETEK Telles Kohler",
        "short_name": "CETEK",
        "id": "node/3455725651"
      },
      "geometry": {
        "type": "Point",
        "coordinates": [
          -40.4249062,
          -20.347007
        ]
      }
    },
    {
      "type": "Feature",
      "id": "node/3455725652",
      "properties": {
        "timestamp": "2019-07-11T17:33:19Z",
        "version": 2,
        "changeset": 72146221,
        "IJSN:administra": "Municipal",
        "IJSN:classeCnae": "Infantil",
        "addr:city": "Viana",
        "addr:place": "Marcílio de Noronha",
        "addr:postcode": "29135-000",
        "addr:street": "Rua Osasco",
        "alt_name": "Centro Municipal de Educação Infantil",
        "amenity": "kindergarten",
        "contact:phone": "+55 27 3343-3040",
        "name": "CMEI Calypio Siqueira Rocha",
        "short_name": "CMEI",
        "id": "node/3455725652"
      },
      "geometry": {
        "type": "Point",
        "coordinates": [
          -40.4274852,
          -20.3453562
        ]
      }
    },
    {
      "type": "Feature",
      "id": "node/3455725653",
      "properties": {
        "timestamp": "2020-01-28T17:16:12Z",
        "version": 3,
        "changeset": 80211313,
        "IJSN:administra": "Municipal",
        "IJSN:classeCnae": "Infantil",
        "addr:city": "Viana",
        "addr:place": "Universal",
        "addr:postcode": "29135-000",
        "addr:street": "Rua Antônio Conde",
        "alt_name": "Centro Municipal de Educação Infantil",
        "amenity": "kindergarten",
        "contact:phone": "+55 27 3236-9773",
        "name": "CMEI Lourdes Maria Carvalho Capdeville",
        "short_name": "CMEI",
        "id": "node/3455725653"
      },
      "geometry": {
        "type": "Point",
        "coordinates": [
          -40.4477358,
          -20.3595129
        ]
      }
    },
    {
      "type": "Feature",
      "id": "node/3455725654",
      "properties": {
        "timestamp": "2019-07-11T17:33:19Z",
        "version": 2,
        "changeset": 72146221,
        "IJSN:administra": "Municipal",
        "IJSN:classeCnae": "Infantil",
        "addr:city": "Viana",
        "addr:place": "Campo Verde",
        "addr:postcode": "29135-000",
        "addr:street": "Rua C",
        "alt_name": "Centro Municipal de Educação Infantil",
        "amenity": "kindergarten",
        "contact:phone": "+55 27 3336-1431",
        "name": "CMEI Lydia Eliete de Souza",
        "short_name": "CMEI",
        "id": "node/3455725654"
      },
      "geometry": {
        "type": "Point",
        "coordinates": [
          -40.4101243,
          -20.372879
        ]
      }
    },
    {
      "type": "Feature",
      "id": "node/3455725655",
      "properties": {
        "timestamp": "2019-07-11T17:33:19Z",
        "version": 2,
        "changeset": 72146221,
        "IJSN:administra": "Municipal",
        "IJSN:classeCnae": "Infantil",
        "addr:city": "Viana",
        "addr:place": "Nova Bethania",
        "addr:postcode": "29135-000",
        "addr:street": "Avenida Central",
        "alt_name": "Centro Municipal de Educação Infantil",
        "amenity": "kindergarten",
        "contact:phone": "+55 27 3344-7279",
        "name": "CMEI Manoel Evêncio de Oliveira",
        "short_name": "CMEI",
        "id": "node/3455725655"
      },
      "geometry": {
        "type": "Point",
        "coordinates": [
          -40.4175388,
          -20.3711995
        ]
      }
    },
    {
      "type": "Feature",
      "id": "node/3455725656",
      "properties": {
        "timestamp": "2019-07-11T17:33:19Z",
        "version": 2,
        "changeset": 72146221,
        "IJSN:administra": "Municipal",
        "IJSN:classeCnae": "Infantil",
        "addr:city": "Viana",
        "addr:place": "Canaã",
        "addr:postcode": "29135-000",
        "addr:street": "Rua Boa Sorte",
        "alt_name": "Centro Municipal de Educação Infantil",
        "amenity": "kindergarten",
        "contact:phone": "+55 27 3343-6700",
        "name": "CMEI Maria Antônia de Souza Brawim",
        "short_name": "CMEI",
        "id": "node/3455725656"
      },
      "geometry": {
        "type": "Point",
        "coordinates": [
          -40.4385748,
          -20.357653
        ]
      }
    },
    {
      "type": "Feature",
      "id": "node/3455725657",
      "properties": {
        "timestamp": "2019-07-11T17:33:19Z",
        "version": 2,
        "changeset": 72146221,
        "IJSN:administra": "Municipal",
        "IJSN:classeCnae": "Infantil",
        "addr:city": "Viana",
        "addr:place": "Universal",
        "addr:postcode": "29135-000",
        "addr:street": "Rua Afonso Cláudio",
        "alt_name": "Centro Municipal de Educação Infantil",
        "amenity": "kindergarten",
        "contact:phone": "+55 27 3344-1960",
        "name": "CMEI Maria Cristina Zekel",
        "short_name": "CMEI",
        "id": "node/3455725657"
      },
      "geometry": {
        "type": "Point",
        "coordinates": [
          -40.4538732,
          -20.3614982
        ]
      }
    },
    {
      "type": "Feature",
      "id": "node/3455725658",
      "properties": {
        "timestamp": "2019-07-11T17:33:19Z",
        "version": 3,
        "changeset": 72146221,
        "IJSN:administra": "Municipal",
        "IJSN:classeCnae": "Infantil",
        "addr:city": "Viana",
        "addr:place": "Jucú",
        "addr:postcode": "29135-000",
        "addr:street": "Rua Nossa Senhora de Belém",
        "amenity": "kindergarten",
        "contact:phone": "+55 27 3255-1186",
        "name": "CMEI Maria da Penha de Castro Novaes",
        "short_name": "CMEI",
        "id": "node/3455725658"
      },
      "geometry": {
        "type": "Point",
        "coordinates": [
          -40.462186,
          -20.4217053
        ]
      }
    },
    {
      "type": "Feature",
      "id": "node/3455725659",
      "properties": {
        "timestamp": "2019-07-11T17:33:19Z",
        "version": 2,
        "changeset": 72146221,
        "IJSN:administra": "Municipal",
        "IJSN:classeCnae": "Infantil",
        "addr:city": "Viana",
        "addr:place": "Caxias do Sul",
        "addr:postcode": "29135-000",
        "addr:street": "Avenida Guarapari",
        "alt_name": "Centro Municipal de Educação Infantil",
        "amenity": "kindergarten",
        "contact:phone": "+55 27 3344-7225",
        "name": "CMEI Pequenos Brilhantes",
        "short_name": "CMEI",
        "id": "node/3455725659"
      },
      "geometry": {
        "type": "Point",
        "coordinates": [
          -40.4259744,
          -20.3689388
        ]
      }
    },
    {
      "type": "Feature",
      "id": "node/3455725660",
      "properties": {
        "timestamp": "2019-07-11T17:33:19Z",
        "version": 2,
        "changeset": 72146221,
        "IJSN:administra": "Municipal",
        "IJSN:classeCnae": "Infantil",
        "addr:city": "Viana",
        "addr:housenumber": "81",
        "addr:place": "Centro",
        "addr:postcode": "29135-000",
        "addr:street": "Rua Alvimar Silva",
        "alt_name": "Centro Municipal de Educação Infantil",
        "amenity": "kindergarten",
        "contact:phone": "+55 27 3255-1775",
        "name": "CMEI Professora Biluca",
        "short_name": "CMEI",
        "id": "node/3455725660"
      },
      "geometry": {
        "type": "Point",
        "coordinates": [
          -40.4957906,
          -20.3897641
        ]
      }
    },
    {
      "type": "Feature",
      "id": "node/3455725661",
      "properties": {
        "timestamp": "2019-07-11T17:33:19Z",
        "version": 2,
        "changeset": 72146221,
        "IJSN:administra": "Municipal",
        "IJSN:classeCnae": "Infantil",
        "addr:city": "Viana",
        "addr:place": "Morada Vila Bethânia",
        "addr:postcode": "29135-000",
        "addr:street": "Rua Domingos Martins",
        "alt_name": "Centro Municipal de Educação Infantil",
        "amenity": "kindergarten",
        "contact:phone": "+55 27 3354-1024",
        "name": "CMEI Raio de Luz",
        "short_name": "CMEI",
        "id": "node/3455725661"
      },
      "geometry": {
        "type": "Point",
        "coordinates": [
          -40.405013,
          -20.3854745
        ]
      }
    },
    {
      "type": "Feature",
      "id": "node/3455725662",
      "properties": {
        "timestamp": "2019-07-11T17:33:19Z",
        "version": 2,
        "changeset": 72146221,
        "IJSN:administra": "Municipal",
        "IJSN:classeCnae": "Infantil",
        "addr:city": "Viana",
        "addr:housenumber": "23",
        "addr:place": "Vila Bethânia",
        "addr:postcode": "29135-000",
        "addr:street": "Rua Getúlio Vargas",
        "alt_name": "Centro Municipal de Educação Infantil",
        "amenity": "kindergarten",
        "contact:phone": "+55 27 3343-3244",
        "name": "CMEI Santa Clara",
        "short_name": "CMEI",
        "id": "node/3455725662"
      },
      "geometry": {
        "type": "Point",
        "coordinates": [
          -40.4048562,
          -20.3630662
        ]
      }
    },
    {
      "type": "Feature",
      "id": "node/3455725663",
      "properties": {
        "timestamp": "2019-07-11T17:33:19Z",
        "version": 2,
        "changeset": 72146221,
        "IJSN:administra": "Municipal",
        "IJSN:classeCnae": "Infantil",
        "addr:city": "Viana",
        "addr:place": "Nova Viana",
        "addr:postcode": "29135-000",
        "addr:street": "Rua Aspázia Varejão Dias",
        "alt_name": "Centro Municipal de Educação Infantil",
        "amenity": "kindergarten",
        "contact:phone": "+55 27 3255-1803",
        "name": "CMEI Tia Ditinha",
        "short_name": "CMEI",
        "id": "node/3455725663"
      },
      "geometry": {
        "type": "Point",
        "coordinates": [
          -40.4914333,
          -20.390604
        ]
      }
    }
  ]
}
