{
  "type": "FeatureCollection",
  "features": [
    {
      "type": "Feature",
      "id": "way/378051907",
      "properties": {
        "timestamp": "2016-03-09T19:10:43Z",
        "version": 2,
        "changeset": 37716865,
        "IJSN:administra": "Estadual",
        "IJSN:classeCnae": "Médio",
        "addr:city": "Viana",
        "addr:country": "BR",
        "addr:postcode": "29135-000",
        "addr:state": "ES",
        "addr:street": "Avenida Espírito Santo",
        "addr:suburb": "Marcílio de Noronha",
        "alt_name": "Escola Estadual de Ensino Médio",
        "amenity": "school",
        "contact:phone": "(27) 3344-6097",
        "name": "EEEM Irmã Dulce Lopes Ponte",
        "id": "way/378051907"
      },
      "geometry": {
        "type": "Polygon",
        "coordinates": [
          [
            [
              -40.4247003,
              -20.3478341
            ],
            [
              -40.4241924,
              -20.3478314
            ],
            [
              -40.4241989,
              -20.3467543
            ],
            [
              -40.4247068,
              -20.346757
            ],
            [
              -40.4247003,
              -20.3478341
            ]
          ]
        ]
      }
    },
    {
      "type": "Feature",
      "id": "way/378051908",
      "properties": {
        "timestamp": "2016-03-09T19:10:52Z",
        "version": 2,
        "changeset": 37716865,
        "IJSN:administra": "Municipal",
        "IJSN:classeCnae": "Fundamental",
        "addr:city": "Viana",
        "addr:country": "BR",
        "addr:postcode": "29135-000",
        "addr:state": "ES",
        "addr:street": "Avenida Espírito Santo",
        "addr:suburb": "Marcílio de Noronha",
        "alt_name": "Escola Municipal de Ensino Fundamental",
        "amenity": "school",
        "contact:phone": "(27) 3344-1543",
        "name": "EMEF Constantino José Vieira",
        "id": "way/378051908"
      },
      "geometry": {
        "type": "Polygon",
        "coordinates": [
          [
            [
              -40.4247056,
              -20.3487557
            ],
            [
              -40.4241974,
              -20.3486667
            ],
            [
              -40.42419,
              -20.3479171
            ],
            [
              -40.4247094,
              -20.3479166
            ],
            [
              -40.4247056,
              -20.3487557
            ]
          ]
        ]
      }
    },
    {
      "type": "Feature",
      "id": "way/425223388",
      "properties": {
        "timestamp": "2019-08-13T21:47:58Z",
        "version": 3,
        "changeset": 73326194,
        "IJSN:administra": "Municipal",
        "IJSN:classeCnae": "Fundamental",
        "addr:city": "Viana",
        "addr:country": "BR",
        "addr:place": "Universal",
        "addr:postcode": "29135-000",
        "addr:state": "ES",
        "addr:street": "Rua Goiás",
        "addr:suburb": "Universal",
        "alt_name": "Escola Municipal de Ensino Fundamental",
        "amenity": "school",
        "contact:phone": "(27) 3344-1155",
        "name": "EMEF Adamastor Furtado",
        "operator": "Prefeitura de Viana",
        "operator:type": "public/government",
        "polling_station": "yes",
        "wheelchair": "limited",
        "id": "way/425223388"
      },
      "geometry": {
        "type": "Polygon",
        "coordinates": [
          [
            [
              -40.4459029,
              -20.3604536
            ],
            [
              -40.4461039,
              -20.3601172
            ],
            [
              -40.4466517,
              -20.360405
            ],
            [
              -40.4464507,
              -20.3607413
            ],
            [
              -40.4459029,
              -20.3604536
            ]
          ]
        ]
      }
    },
    {
      "type": "Feature",
      "id": "way/1117570120",
      "properties": {
        "timestamp": "2022-11-27T12:04:27Z",
        "version": 1,
        "changeset": 129432078,
        "IJSN:administra": "Municipal",
        "IJSN:classeCnae": "Fundamental",
        "addr:city": "Viana",
        "addr:country": "BR",
        "addr:place": "Campo Verde",
        "addr:postcode": "29135-000",
        "addr:state": "ES",
        "addr:street": "Rua C",
        "alt_name": "Escola Municipal de Ensino Fundamental",
        "amenity": "school",
        "contact:phone": "+55 27 3336-1431;+55 27 3343-2620",
        "name": "EMEF Professora Divaneta Lessa Moraes",
        "old_name": "CAIC",
        "id": "way/1117570120"
      },
      "geometry": {
        "type": "Polygon",
        "coordinates": [
          [
            [
              -40.4096594,
              -20.3722606
            ],
            [
              -40.409726,
              -20.3726355
            ],
            [
              -40.4096736,
              -20.3726449
            ],
            [
              -40.4097218,
              -20.3728946
            ],
            [
              -40.4095084,
              -20.3729308
            ],
            [
              -40.4094353,
              -20.3729409
            ],
            [
              -40.4093484,
              -20.3729558
            ],
            [
              -40.4093926,
              -20.3731897
            ],
            [
              -40.4084498,
              -20.3731884
            ],
            [
              -40.4082942,
              -20.3722329
            ],
            [
              -40.4096594,
              -20.3722606
            ]
          ]
        ]
      }
    },
    {
      "type": "Feature",
      "id": "node/2819615191",
      "properties": {
        "timestamp": "2019-07-11T17:33:19Z",
        "version": 4,
        "changeset": 72146221,
        "IJSN:administra": "Municipal",
        "IJSN:classeCnae": "Fundamental",
        "addr:city": "Viana",
        "addr:country": "BR",
        "addr:place": "Araçatiba",
        "addr:postcode": "29135-000",
        "addr:state": "ES",
        "addr:street": "Rua Francisco Palassi",
        "alt_name": "Escola Municipal de Ensino Fundamental",
        "amenity": "school",
        "contact:phone": "+55 27 3255-6034",
        "name": "EMEF Araçatiba",
        "id": "node/2819615191"
      },
      "geometry": {
        "type": "Point",
        "coordinates": [
          -40.4879004,
          -20.4617503
        ]
      }
    },
    {
      "type": "Feature",
      "id": "node/3331295205",
      "properties": {
        "timestamp": "2019-07-11T17:33:19Z",
        "version": 4,
        "changeset": 72146221,
        "IJSN:administra": "Municipal",
        "IJSN:classeCnae": "Fundamental",
        "addr:city": "Viana",
        "addr:country": "BR",
        "addr:place": "Comunidade Piapitangui",
        "addr:postcode": "29135-000",
        "addr:state": "ES",
        "addr:street": "Rua Projetada",
        "alt_name": "Escola Municipal Pluridocente de Ensino Fundamental",
        "amenity": "school",
        "contact:phone": "+55 27 3344-9584",
        "name": "EMPEF Luiz Lube",
        "operator": "PMV",
        "source": "IJSN",
        "id": "node/3331295205"
      },
      "geometry": {
        "type": "Point",
        "coordinates": [
          -40.4816884,
          -20.3460144
        ]
      }
    },
    {
      "type": "Feature",
      "id": "node/3455701836",
      "properties": {
        "timestamp": "2016-03-09T19:13:24Z",
        "version": 2,
        "changeset": 37716865,
        "IJSN:administra": "Municipal",
        "IJSN:classeCnae": "Fundamental",
        "addr:city": "Viana",
        "addr:country": "BR",
        "addr:place": "Comunidade Canto Grande",
        "addr:postcode": "29135-000",
        "addr:state": "ES",
        "addr:street": "Rua Projetada",
        "alt_name": "Escola Municipal Unidocente de Ensino Fundamental",
        "amenity": "school",
        "name": "EMUEF Derly Felipe Lima",
        "id": "node/3455701836"
      },
      "geometry": {
        "type": "Point",
        "coordinates": [
          -40.5376911,
          -20.4686843
        ]
      }
    },
    {
      "type": "Feature",
      "id": "node/3455701837",
      "properties": {
        "timestamp": "2016-03-09T19:13:25Z",
        "version": 2,
        "changeset": 37716865,
        "IJSN:administra": "Municipal",
        "IJSN:classeCnae": "Fundamental",
        "addr:city": "Viana",
        "addr:country": "BR",
        "addr:place": "Grande Araçatiba",
        "addr:postcode": "29135-000",
        "addr:state": "ES",
        "addr:street": "Mamoeiro",
        "alt_name": "Escola Municipal Pluridocente de Ensino Fundamental",
        "amenity": "school",
        "name": "EMUEF Hercilia Jantorno Azevedo",
        "id": "node/3455701837"
      },
      "geometry": {
        "type": "Point",
        "coordinates": [
          -40.4811215,
          -20.4504764
        ]
      }
    },
    {
      "type": "Feature",
      "id": "node/3455701838",
      "properties": {
        "timestamp": "2016-03-09T19:13:26Z",
        "version": 3,
        "changeset": 37716865,
        "IJSN:administra": "Municipal",
        "IJSN:classeCnae": "Fundamental",
        "addr:city": "Viana",
        "addr:country": "BR",
        "addr:place": "Comunidade Tanque",
        "addr:postcode": "29135-000",
        "addr:state": "ES",
        "addr:street": "Avenida Central",
        "alt_name": "Escola Municipal Unidecente de Ensino Fundamental",
        "amenity": "school",
        "name": "EMUEF Professora Agenília Correa da Penha",
        "id": "node/3455701838"
      },
      "geometry": {
        "type": "Point",
        "coordinates": [
          -40.3926789,
          -20.3970874
        ]
      }
    },
    {
      "type": "Feature",
      "id": "node/3455725664",
      "properties": {
        "timestamp": "2019-07-11T17:33:19Z",
        "version": 3,
        "changeset": 72146221,
        "IJSN:administra": "Estadual",
        "IJSN:classeCnae": "Fundamental e Médio",
        "addr:city": "Viana",
        "addr:country": "BR",
        "addr:housenumber": "125",
        "addr:place": "Vila Bethânia",
        "addr:postcode": "29135-000",
        "addr:state": "ES",
        "addr:street": "Rua Santa Helena",
        "alt_name": "Escola Estadual de Ensino Fundamental e Médio",
        "amenity": "school",
        "contact:phone": "+55 27 3344-2146;+55 27 3336-7687",
        "name": "EEEFM Maria de Novaes Pinheiro",
        "id": "node/3455725664"
      },
      "geometry": {
        "type": "Point",
        "coordinates": [
          -40.4047587,
          -20.361684
        ]
      }
    },
    {
      "type": "Feature",
      "id": "node/3455725666",
      "properties": {
        "timestamp": "2019-07-11T17:33:19Z",
        "version": 3,
        "changeset": 72146221,
        "IJSN:administra": "Estadual",
        "IJSN:classeCnae": "Médio",
        "addr:city": "Viana",
        "addr:country": "BR",
        "addr:place": "Canaã",
        "addr:postcode": "29135-000",
        "addr:state": "ES",
        "addr:street": "Rua Resplendor",
        "alt_name": "Escola Estadual de Ensino Médio",
        "amenity": "school",
        "contact:phone": "+55 27 3073-8015",
        "name": "EEEM Anília Knaak Buss",
        "id": "node/3455725666"
      },
      "geometry": {
        "type": "Point",
        "coordinates": [
          -40.4375271,
          -20.3595304
        ]
      }
    },
    {
      "type": "Feature",
      "id": "node/3455725667",
      "properties": {
        "timestamp": "2020-04-15T22:23:10Z",
        "version": 4,
        "changeset": 83615178,
        "IJSN:administra": "Estadual",
        "IJSN:classeCnae": "Médio",
        "addr:city": "Viana",
        "addr:country": "BR",
        "addr:place": "Universal",
        "addr:postcode": "29135-000",
        "addr:state": "ES",
        "addr:street": "Rua Goiás",
        "alt_name": "Escola Estadual de Ensino Médio",
        "amenity": "school",
        "contact:phone": "+55 27 3344-5036;+55 27 3344-1155",
        "description": "FUNCIONA NO PERÍODO DA TARDE/NOITE JUNTO COM A EMEF ADAMASTOR FURTADO",
        "name": "EEEM Augusto Ruschi",
        "polling_station": "yes",
        "website": "www.sedu.es.gov.br",
        "wheelchair": "limited",
        "id": "node/3455725667"
      },
      "geometry": {
        "type": "Point",
        "coordinates": [
          -40.4464269,
          -20.3604812
        ]
      }
    },
    {
      "type": "Feature",
      "id": "node/3455725668",
      "properties": {
        "timestamp": "2019-07-11T17:33:19Z",
        "version": 3,
        "changeset": 72146221,
        "IJSN:administra": "Estadual",
        "IJSN:classeCnae": "Médio",
        "addr:city": "Viana",
        "addr:country": "BR",
        "addr:place": "Arlindo Vilaschi",
        "addr:postcode": "29135-000",
        "addr:state": "ES",
        "addr:street": "Rua Nove",
        "alt_name": "Escola Estadual de Ensino Médio",
        "amenity": "school",
        "contact:phone": "+55 27 3344-0817",
        "name": "EEEM Ewerton Montenegro Guimarães",
        "id": "node/3455725668"
      },
      "geometry": {
        "type": "Point",
        "coordinates": [
          -40.4176919,
          -20.36669
        ]
      }
    },
    {
      "type": "Feature",
      "id": "node/3455725671",
      "properties": {
        "timestamp": "2019-07-11T17:33:19Z",
        "version": 3,
        "changeset": 72146221,
        "IJSN:administra": "Municipal",
        "IJSN:classeCnae": "Fundamental",
        "addr:city": "Viana",
        "addr:country": "BR",
        "addr:place": "Universal",
        "addr:postcode": "29135-000",
        "addr:state": "ES",
        "addr:street": "Rua Afonso Cláudio",
        "alt_name": "Escola Municipal de Ensino Fundamental",
        "amenity": "school",
        "contact:phone": "+55 27 3344-1295;+55 27 3344-4920",
        "name": "EMEF Alvimar Silva",
        "id": "node/3455725671"
      },
      "geometry": {
        "type": "Point",
        "coordinates": [
          -40.4540136,
          -20.3611337
        ]
      }
    },
    {
      "type": "Feature",
      "id": "node/3455725674",
      "properties": {
        "timestamp": "2019-07-11T17:33:19Z",
        "version": 3,
        "changeset": 72146221,
        "IJSN:administra": "Municipal",
        "IJSN:classeCnae": "Fundamental",
        "addr:city": "Viana",
        "addr:country": "BR",
        "addr:housenumber": "21",
        "addr:place": "Primavera",
        "addr:postcode": "29135-000",
        "addr:state": "ES",
        "addr:street": "Rua Terezinha Pereira Abranches",
        "alt_name": "Escola Municipal de Ensino Fundamental",
        "amenity": "school",
        "contact:phone": "+55 27 3343-3252",
        "name": "EMEF Doutor Arcílio Tononi",
        "id": "node/3455725674"
      },
      "geometry": {
        "type": "Point",
        "coordinates": [
          -40.4276011,
          -20.3546408
        ]
      }
    },
    {
      "type": "Feature",
      "id": "node/3455725675",
      "properties": {
        "timestamp": "2019-07-11T17:33:19Z",
        "version": 3,
        "changeset": 72146221,
        "IJSN:administra": "Municipal",
        "IJSN:classeCnae": "Fundamental",
        "addr:city": "Viana",
        "addr:country": "BR",
        "addr:place": "Industrial",
        "addr:postcode": "29135-000",
        "addr:state": "ES",
        "addr:street": "Rua Xavier",
        "alt_name": "Escola Municipal de Ensino Fundamental",
        "amenity": "school",
        "contact:phone": "+55 27 3343-5680",
        "name": "EMEF Doutor Denizart Santos",
        "id": "node/3455725675"
      },
      "geometry": {
        "type": "Point",
        "coordinates": [
          -40.4202392,
          -20.3445621
        ]
      }
    },
    {
      "type": "Feature",
      "id": "node/3455725676",
      "properties": {
        "timestamp": "2019-07-11T17:33:19Z",
        "version": 3,
        "changeset": 72146221,
        "IJSN:administra": "Municipal",
        "IJSN:classeCnae": "Fundamental",
        "addr:city": "Viana",
        "addr:country": "BR",
        "addr:place": "Nova Bethania",
        "addr:postcode": "29135-000",
        "addr:state": "ES",
        "addr:street": "Rua Caite",
        "alt_name": "Escola Municipal de Ensino Fundamental",
        "amenity": "school",
        "contact:phone": "+55 27 3336-3115",
        "name": "EMEF Doutor Tancredo de Almeida Neves",
        "id": "node/3455725676"
      },
      "geometry": {
        "type": "Point",
        "coordinates": [
          -40.4205727,
          -20.3685546
        ]
      }
    },
    {
      "type": "Feature",
      "id": "node/3455725677",
      "properties": {
        "timestamp": "2019-07-11T17:33:19Z",
        "version": 3,
        "changeset": 72146221,
        "IJSN:administra": "Municipal",
        "IJSN:classeCnae": "Fundamental",
        "addr:city": "Viana",
        "addr:country": "BR",
        "addr:place": "Areinha",
        "addr:postcode": "29135-000",
        "addr:state": "ES",
        "addr:street": "Rua Maria Onete de Barros",
        "alt_name": "Escola Municipal de Ensino Fundamental",
        "amenity": "school",
        "contact:phone": "+55 27 3336-1155",
        "name": "EMEF Euzélia Lyrio",
        "id": "node/3455725677"
      },
      "geometry": {
        "type": "Point",
        "coordinates": [
          -40.4302895,
          -20.372179
        ]
      }
    },
    {
      "type": "Feature",
      "id": "node/3455725678",
      "properties": {
        "timestamp": "2019-07-11T17:33:19Z",
        "version": 3,
        "changeset": 72146221,
        "IJSN:administra": "Municipal",
        "IJSN:classeCnae": "Fundamental",
        "addr:city": "Viana",
        "addr:country": "BR",
        "addr:housenumber": "32",
        "addr:place": "Canaã",
        "addr:postcode": "29135-000",
        "addr:state": "ES",
        "addr:street": "Rua Resplendor",
        "alt_name": "Escola Municipal de Ensino Fundamental",
        "amenity": "school",
        "contact:phone": "+55 27 3344-1122",
        "name": "EMEF Francisco Assis Pereira",
        "id": "node/3455725678"
      },
      "geometry": {
        "type": "Point",
        "coordinates": [
          -40.4376728,
          -20.3596318
        ]
      }
    },
    {
      "type": "Feature",
      "id": "node/3455725679",
      "properties": {
        "timestamp": "2021-05-13T20:49:05Z",
        "version": 4,
        "changeset": 104658672,
        "IJSN:administra": "Municipal",
        "IJSN:classeCnae": "Fundamental",
        "addr:city": "Viana",
        "addr:country": "BR",
        "addr:place": "Caxias do Sul",
        "addr:postcode": "29135-000",
        "addr:state": "ES",
        "addr:street": "Rua Maria D. Telles da Silva",
        "alt_name": "Escola Municipal de Ensino Fundamental",
        "amenity": "school",
        "contact:phone": "+55 27 3336-2183",
        "name": "EMEF Gislene Silva Queiroz",
        "id": "node/3455725679"
      },
      "geometry": {
        "type": "Point",
        "coordinates": [
          -40.4219277,
          -20.3640834
        ]
      }
    },
    {
      "type": "Feature",
      "id": "node/3455725680",
      "properties": {
        "timestamp": "2019-07-11T17:33:19Z",
        "version": 3,
        "changeset": 72146221,
        "IJSN:administra": "Municipal",
        "IJSN:classeCnae": "Fundamental",
        "addr:city": "Viana",
        "addr:country": "BR",
        "addr:place": "Areinha",
        "addr:postcode": "29135-000",
        "addr:state": "ES",
        "addr:street": "Avenida Guarapari",
        "alt_name": "Escola Municipal de Ensino Fundamental",
        "amenity": "school",
        "contact:phone": "+55 27 3344-0863;+55 27 3343-4960",
        "name": "EMEF João Paulo Sobrinho",
        "id": "node/3455725680"
      },
      "geometry": {
        "type": "Point",
        "coordinates": [
          -40.4225957,
          -20.3670427
        ]
      }
    },
    {
      "type": "Feature",
      "id": "node/3455725681",
      "properties": {
        "timestamp": "2019-07-11T17:33:19Z",
        "version": 3,
        "changeset": 72146221,
        "IJSN:administra": "Municipal",
        "IJSN:classeCnae": "Fundamental",
        "addr:city": "Viana",
        "addr:country": "BR",
        "addr:housenumber": "30",
        "addr:place": "Marcílio de Noronha",
        "addr:postcode": "29135-000",
        "addr:state": "ES",
        "addr:street": "Avenida São Paulo",
        "alt_name": "Escola Municipal de Ensino Fundamental",
        "amenity": "school",
        "contact:phone": "+55 27 3336-7691",
        "name": "EMEF Marcílio de Noronha",
        "id": "node/3455725681"
      },
      "geometry": {
        "type": "Point",
        "coordinates": [
          -40.4279866,
          -20.3454382
        ]
      }
    },
    {
      "type": "Feature",
      "id": "node/3455725682",
      "properties": {
        "timestamp": "2019-07-11T17:33:19Z",
        "version": 4,
        "changeset": 72146221,
        "IJSN:administra": "Municipal",
        "IJSN:classeCnae": "Fundamental",
        "addr:city": "Viana",
        "addr:country": "BR",
        "addr:housenumber": "200",
        "addr:place": "Jucú",
        "addr:postcode": "29135-000",
        "addr:state": "ES",
        "addr:street": "Rua Nossa Senhora de Belém",
        "amenity": "school",
        "contact:phone": "+55 27 3255-7175",
        "name": "EMEF Orestes Souto Novaes",
        "id": "node/3455725682"
      },
      "geometry": {
        "type": "Point",
        "coordinates": [
          -40.4612198,
          -20.4220934
        ]
      }
    },
    {
      "type": "Feature",
      "id": "node/3455725685",
      "properties": {
        "timestamp": "2019-07-11T17:33:19Z",
        "version": 3,
        "changeset": 72146221,
        "IJSN:administra": "Municipal",
        "IJSN:classeCnae": "Fundamental",
        "addr:city": "Viana",
        "addr:country": "BR",
        "addr:place": "Caxias do Sul",
        "addr:postcode": "29135-000",
        "addr:state": "ES",
        "addr:street": "Rua Alfredo Cavallieri",
        "alt_name": "Escola Municipal de Ensino Fundamental",
        "amenity": "school",
        "contact:phone": "+55 27 3216-3031",
        "name": "EMEF Soteco",
        "id": "node/3455725685"
      },
      "geometry": {
        "type": "Point",
        "coordinates": [
          -40.4250652,
          -20.3630487
        ]
      }
    },
    {
      "type": "Feature",
      "id": "node/3455725686",
      "properties": {
        "timestamp": "2019-07-11T17:33:19Z",
        "version": 3,
        "changeset": 72146221,
        "IJSN:administra": "Municipal",
        "IJSN:classeCnae": "Fundamental",
        "addr:city": "Viana",
        "addr:country": "BR",
        "addr:place": "Morada Vila Bethânia",
        "addr:postcode": "29135-000",
        "addr:state": "ES",
        "addr:street": "Rua Domingos Martins",
        "alt_name": "Escola Municipal de Ensino Fundamental",
        "amenity": "school",
        "contact:phone": "+55 27 3354-1024",
        "name": "EMEF Ulisses dos Santos Filho",
        "id": "node/3455725686"
      },
      "geometry": {
        "type": "Point",
        "coordinates": [
          -40.4050714,
          -20.3856569
        ]
      }
    },
    {
      "type": "Feature",
      "id": "node/3455725687",
      "properties": {
        "timestamp": "2019-07-11T17:33:19Z",
        "version": 3,
        "changeset": 72146221,
        "IJSN:administra": "Municipal",
        "IJSN:classeCnae": "Fundamental",
        "addr:city": "Viana",
        "addr:country": "BR",
        "addr:place": "Marcílio de Noronha",
        "addr:postcode": "29135-000",
        "addr:state": "ES",
        "addr:street": "Avenida Belo Horizonte",
        "alt_name": "Escola Municipal de Ensino Fundamental",
        "amenity": "school",
        "contact:phone": "+55 27 3344-1807",
        "name": "EMEF Washington Martins Filho",
        "id": "node/3455725687"
      },
      "geometry": {
        "type": "Point",
        "coordinates": [
          -40.4319519,
          -20.3415821
        ]
      }
    },
    {
      "type": "Feature",
      "id": "node/3455725690",
      "properties": {
        "timestamp": "2016-03-09T19:13:22Z",
        "version": 2,
        "changeset": 37716865,
        "IJSN:administra": "Municipal",
        "IJSN:classeCnae": "Fundamental",
        "addr:city": "Viana",
        "addr:country": "BR",
        "addr:place": "Comunidade São Paulo de Cima",
        "addr:postcode": "29135-000",
        "addr:state": "ES",
        "alt_name": "Escola Municipal Unidocente de Ensino Fundamental",
        "amenity": "school",
        "name": "EMUEF Aila Paiva Lube",
        "id": "node/3455725690"
      },
      "geometry": {
        "type": "Point",
        "coordinates": [
          -40.5461258,
          -20.3115372
        ]
      }
    },
    {
      "type": "Feature",
      "id": "node/3455725691",
      "properties": {
        "timestamp": "2016-03-09T19:13:23Z",
        "version": 2,
        "changeset": 37716865,
        "IJSN:administra": "Municipal",
        "IJSN:classeCnae": "Fundamental",
        "addr:city": "Viana",
        "addr:country": "BR",
        "addr:place": "Comunidade Alegre",
        "addr:postcode": "29135-000",
        "addr:state": "ES",
        "alt_name": "Escola Municipal Unidocente de Ensino Fundamental",
        "amenity": "school",
        "name": "EMUEF Cecilia Muller Helmer",
        "id": "node/3455725691"
      },
      "geometry": {
        "type": "Point",
        "coordinates": [
          -40.5219983,
          -20.3101693
        ]
      }
    },
    {
      "type": "Feature",
      "id": "node/3455725692",
      "properties": {
        "timestamp": "2016-03-09T19:13:23Z",
        "version": 2,
        "changeset": 37716865,
        "IJSN:administra": "Municipal",
        "IJSN:classeCnae": "Fundamental",
        "addr:city": "Viana",
        "addr:country": "BR",
        "addr:place": "Comunidade Peixe Verde",
        "addr:postcode": "29135-000",
        "addr:state": "ES",
        "addr:street": "Estrada Principal Peixe Verde",
        "alt_name": "Escola Municipal Unidocente de Ensino Fundamental",
        "amenity": "school",
        "name": "EMUEF Cândida Maria dos Santos",
        "id": "node/3455725692"
      },
      "geometry": {
        "type": "Point",
        "coordinates": [
          -40.5789875,
          -20.4133506
        ]
      }
    },
    {
      "type": "Feature",
      "id": "node/3455727393",
      "properties": {
        "timestamp": "2016-03-09T19:13:24Z",
        "version": 2,
        "changeset": 37716865,
        "IJSN:administra": "Municipal",
        "IJSN:classeCnae": "Fundamental",
        "addr:city": "Viana",
        "addr:country": "BR",
        "addr:place": "Comunidade Pedra da Mulata",
        "addr:postcode": "29135-000",
        "addr:state": "ES",
        "alt_name": "Escola Municipal Unidocente de Ensino Fundamental",
        "amenity": "school",
        "name": "EMUEF Deoclides Pereira",
        "id": "node/3455727393"
      },
      "geometry": {
        "type": "Point",
        "coordinates": [
          -40.5282722,
          -20.4325882
        ]
      }
    },
    {
      "type": "Feature",
      "id": "node/3455727394",
      "properties": {
        "timestamp": "2016-03-09T19:13:26Z",
        "version": 2,
        "changeset": 37716865,
        "IJSN:administra": "Municipal",
        "IJSN:classeCnae": "Fundamental",
        "addr:city": "Viana",
        "addr:country": "BR",
        "addr:place": "Monte Verde",
        "addr:postcode": "29135-000",
        "addr:state": "ES",
        "alt_name": "Escola Municipal Unidocente de Ensino Fundamental",
        "amenity": "school",
        "name": "EMUEF Lavínia Vellozo",
        "id": "node/3455727394"
      },
      "geometry": {
        "type": "Point",
        "coordinates": [
          -40.5397574,
          -20.3417494
        ]
      }
    },
    {
      "type": "Feature",
      "id": "node/3455727395",
      "properties": {
        "timestamp": "2016-03-09T19:13:26Z",
        "version": 2,
        "changeset": 37716865,
        "IJSN:administra": "Municipal",
        "IJSN:classeCnae": "Fundamental",
        "addr:city": "Viana",
        "addr:country": "BR",
        "addr:place": "Comunidade Ladeira Grande",
        "addr:postcode": "29135-000",
        "addr:state": "ES",
        "addr:street": "Rua Principal",
        "alt_name": "Escola Municipal Unidocente de Ensino Fundamental",
        "amenity": "school",
        "name": "EMUEF Orozimbo Rodrigues de Siqueira",
        "id": "node/3455727395"
      },
      "geometry": {
        "type": "Point",
        "coordinates": [
          -40.4478633,
          -20.3909772
        ]
      }
    },
    {
      "type": "Feature",
      "id": "node/3455727396",
      "properties": {
        "timestamp": "2016-03-09T19:13:27Z",
        "version": 2,
        "changeset": 37716865,
        "IJSN:administra": "Municipal",
        "IJSN:classeCnae": "Fundamental",
        "addr:city": "Viana",
        "addr:country": "BR",
        "addr:place": "Comunidade Carioca",
        "addr:postcode": "29135-000",
        "addr:state": "ES",
        "alt_name": "Escola Municipal Unidocente de Ensino Fundamental",
        "amenity": "school",
        "name": "EMUEF Sitalzina Solidade",
        "id": "node/3455727396"
      },
      "geometry": {
        "type": "Point",
        "coordinates": [
          -40.5714006,
          -20.447906
        ]
      }
    }
  ]
}
