{
  "type": "FeatureCollection",
  "features": [
    {
      "type": "Feature",
      "id": "node/6437387450",
      "properties": {
        "timestamp": "2025-02-10T15:19:56Z",
        "version": 2,
        "changeset": 162355532,
        "addr:city": "Betim",
        "addr:housenumber": "21",
        "addr:postcode": "32677-800",
        "addr:street": "Avenida São Caetano",
        "addr:suburb": "São Caetano",
        "amenity": "dentist",
        "healthcare": "dentist",
        "id": "node/6437387450"
      },
      "geometry": {
        "type": "Point",
        "coordinates": [
          -44.1130308,
          -19.9359452
        ]
      }
    },
    {
      "type": "Feature",
      "id": "node/12592480486",
      "properties": {
        "timestamp": "2025-02-16T06:56:49Z",
        "version": 1,
        "changeset": 162559897,
        "addr:city": "Betim",
        "addr:housenumber": "610",
        "addr:postcode": "32678-368",
        "addr:street": "Avenida Nova York",
        "addr:suburb": "Capelinha",
        "amenity": "dentist",
        "healthcare": "dentist",
        "id": "node/12592480486"
      },
      "geometry": {
        "type": "Point",
        "coordinates": [
          -44.1035518,
          -19.9391146
        ]
      }
    }
  ]
}
