{
  "type": "FeatureCollection",
  "features": [
    {
      "type": "Feature",
      "id": "way/555788620",
      "properties": {
        "timestamp": "2019-08-28T02:04:42Z",
        "version": 2,
        "changeset": 73818412,
        "building": "yes",
        "name": "Unidade Gerencial Regional de Vianópolis",
        "office": "government",
        "source": "Bing;OSM Note",
        "id": "way/555788620"
      },
      "geometry": {
        "type": "Polygon",
        "coordinates": [
          [
            [
              -44.2709472,
              -19.9434036
            ],
            [
              -44.2713152,
              -19.9434033
            ],
            [
              -44.2713154,
              -19.9435802
            ],
            [
              -44.271154,
              -19.9435804
            ],
            [
              -44.2711539,
              -19.9435443
            ],
            [
              -44.2709474,
              -19.9435445
            ],
            [
              -44.2709472,
              -19.9434036
            ]
          ]
        ]
      }
    },
    {
      "type": "Feature",
      "id": "node/12292052868",
      "properties": {
        "timestamp": "2024-10-27T16:26:51Z",
        "version": 1,
        "changeset": 158421021,
        "addr:city": "Betim",
        "addr:housenumber": "1119",
        "addr:postcode": "32604-345",
        "addr:street": "Avenida Juiz Marco Túlio Isaac",
        "addr:suburb": "Inga Alto",
        "government": "public_service",
        "name": "UAI Betim - Unidade de Atendimento Integrado",
        "office": "government",
        "opening_hours": "Mo-Fr 07:00-19:00",
        "phone": "155",
        "website": "https://www.mg.gov.br/instituicao_unidade/uai-betim-unidade-de-atendimento-integrado",
        "id": "node/12292052868"
      },
      "geometry": {
        "type": "Point",
        "coordinates": [
          -44.1908316,
          -19.9585378
        ]
      }
    }
  ]
}
