{
  "type": "FeatureCollection",
  "features": [
    {
      "type": "Feature",
      "id": "way/608410424",
      "properties": {
        "timestamp": "2018-07-16T16:54:06Z",
        "version": 1,
        "changeset": 60770909,
        "amenity": "pharmacy",
        "building": "yes",
        "dispensing": "yes",
        "healthcare": "pharmacy",
        "name": "Drogafarma",
        "id": "way/608410424"
      },
      "geometry": {
        "type": "Polygon",
        "coordinates": [
          [
            [
              -44.1694022,
              -19.946793
            ],
            [
              -44.169456,
              -19.9468956
            ],
            [
              -44.1693192,
              -19.9469591
            ],
            [
              -44.1692653,
              -19.9468564
            ],
            [
              -44.1694022,
              -19.946793
            ]
          ]
        ]
      }
    },
    {
      "type": "Feature",
      "id": "way/686747744",
      "properties": {
        "timestamp": "2025-02-10T18:01:00Z",
        "version": 3,
        "changeset": 162361683,
        "addr:city": "Betim",
        "addr:housenumber": "200",
        "addr:postcode": "32677610",
        "addr:street": "Avenida Mato Grosso",
        "addr:suburb": "São Caetano",
        "amenity": "pharmacy",
        "brand": "Banco do Brasil",
        "building": "yes",
        "healthcare": "pharmacy",
        "name": "200 Droga Clara - Mato Grosso/Betim",
        "id": "way/686747744"
      },
      "geometry": {
        "type": "Polygon",
        "coordinates": [
          [
            [
              -44.1120059,
              -19.9347179
            ],
            [
              -44.1120839,
              -19.9348145
            ],
            [
              -44.1118159,
              -19.9350058
            ],
            [
              -44.1117378,
              -19.9349092
            ],
            [
              -44.1120059,
              -19.9347179
            ]
          ]
        ]
      }
    },
    {
      "type": "Feature",
      "id": "way/695521313",
      "properties": {
        "timestamp": "2025-01-04T23:17:31Z",
        "version": 2,
        "changeset": 161004998,
        "addr:city": "Betim",
        "addr:housenumber": "1904",
        "addr:postcode": "32675-864",
        "addr:street": "Avenida Tapajós",
        "addr:suburb": "Vila Cristina",
        "amenity": "pharmacy",
        "brand": "Drogaria Araujo",
        "brand:wikidata": "Q10268807",
        "building": "yes",
        "healthcare": "pharmacy",
        "name": "Drogaria Araujo",
        "id": "way/695521313"
      },
      "geometry": {
        "type": "Polygon",
        "coordinates": [
          [
            [
              -44.1277518,
              -19.9420963
            ],
            [
              -44.1279033,
              -19.9422576
            ],
            [
              -44.1277104,
              -19.9424178
            ],
            [
              -44.1275588,
              -19.9422564
            ],
            [
              -44.1277518,
              -19.9420963
            ]
          ]
        ]
      }
    },
    {
      "type": "Feature",
      "id": "way/695521331",
      "properties": {
        "timestamp": "2019-10-01T02:10:13Z",
        "version": 2,
        "changeset": 75124765,
        "amenity": "pharmacy",
        "building": "yes",
        "dispensing": "yes",
        "healthcare": "pharmacy",
        "id": "way/695521331"
      },
      "geometry": {
        "type": "Polygon",
        "coordinates": [
          [
            [
              -44.119784,
              -19.934903
            ],
            [
              -44.1198976,
              -19.9348887
            ],
            [
              -44.1199243,
              -19.935076
            ],
            [
              -44.1198108,
              -19.9350903
            ],
            [
              -44.119784,
              -19.934903
            ]
          ]
        ]
      }
    },
    {
      "type": "Feature",
      "id": "way/699979183",
      "properties": {
        "timestamp": "2025-01-05T03:15:15Z",
        "version": 3,
        "changeset": 161008290,
        "addr:city": "Betim",
        "addr:housenumber": "1600",
        "addr:postcode": "32670-708",
        "addr:street": "Avenida Campos de Ourique",
        "addr:suburb": "Jardim das Alterosas 1ª Seção",
        "amenity": "pharmacy",
        "brand": "Drogaria Araujo",
        "brand:wikidata": "Q10268807",
        "building": "yes",
        "healthcare": "pharmacy",
        "name": "Drogaria Araujo",
        "id": "way/699979183"
      },
      "geometry": {
        "type": "Polygon",
        "coordinates": [
          [
            [
              -44.1603883,
              -19.9471655
            ],
            [
              -44.1605243,
              -19.9473378
            ],
            [
              -44.1604211,
              -19.9474097
            ],
            [
              -44.1602851,
              -19.9472375
            ],
            [
              -44.1603883,
              -19.9471655
            ]
          ]
        ]
      }
    },
    {
      "type": "Feature",
      "id": "way/1034874697",
      "properties": {
        "timestamp": "2025-01-11T19:43:39Z",
        "version": 3,
        "changeset": 161251848,
        "addr:city": "Betim",
        "addr:housenumber": "1441",
        "addr:postcode": "32604-225",
        "addr:street": "Avenida Edmeia Mattos Lazzarotti",
        "addr:suburb": "Angola",
        "amenity": "pharmacy",
        "branch": "Betim - MG",
        "brand": "Drogaria Araujo",
        "brand:wikidata": "Q10268807",
        "brand:wikipedia": "pt:Drogaria Araujo",
        "building": "yes",
        "dispensing": "yes",
        "healthcare": "pharmacy",
        "name": "Drogaria Araujo",
        "opening_hours": "24/7",
        "id": "way/1034874697"
      },
      "geometry": {
        "type": "Polygon",
        "coordinates": [
          [
            [
              -44.200438,
              -19.9628868
            ],
            [
              -44.2004594,
              -19.9630221
            ],
            [
              -44.2001247,
              -19.9630687
            ],
            [
              -44.2001079,
              -19.9629622
            ],
            [
              -44.2003074,
              -19.9629344
            ],
            [
              -44.2003029,
              -19.9629056
            ],
            [
              -44.200438,
              -19.9628868
            ]
          ]
        ]
      }
    },
    {
      "type": "Feature",
      "id": "way/1348729386",
      "properties": {
        "timestamp": "2025-01-05T16:27:06Z",
        "version": 1,
        "changeset": 161027438,
        "addr:city": "Betim",
        "addr:housenumber": "200",
        "addr:postcode": "32677-612",
        "addr:street": "Rua Gentil do Ouro",
        "addr:suburb": "São Caetano",
        "amenity": "pharmacy",
        "brand": "Droga Raia",
        "brand:wikidata": "Q10357101",
        "building": "yes",
        "healthcare": "pharmacy",
        "name": "Droga Raia",
        "id": "way/1348729386"
      },
      "geometry": {
        "type": "Polygon",
        "coordinates": [
          [
            [
              -44.111784,
              -19.934443
            ],
            [
              -44.1118419,
              -19.9345106
            ],
            [
              -44.1117432,
              -19.9345842
            ],
            [
              -44.1116907,
              -19.9344995
            ],
            [
              -44.111784,
              -19.934443
            ]
          ]
        ]
      }
    },
    {
      "type": "Feature",
      "id": "way/1350433026",
      "properties": {
        "timestamp": "2025-01-11T19:43:39Z",
        "version": 1,
        "changeset": 161251848,
        "addr:city": "Betim",
        "addr:housenumber": "838",
        "addr:postcode": "32600-212",
        "addr:street": "Avenida Governador Valadares",
        "addr:suburb": "Centro",
        "amenity": "pharmacy",
        "brand": "Drogaria Araujo",
        "brand:wikidata": "Q10268807",
        "building": "yes",
        "healthcare": "pharmacy",
        "name": "Drogaria Araujo",
        "id": "way/1350433026"
      },
      "geometry": {
        "type": "Polygon",
        "coordinates": [
          [
            [
              -44.1952163,
              -19.9707076
            ],
            [
              -44.1953943,
              -19.9708016
            ],
            [
              -44.1952902,
              -19.9709575
            ],
            [
              -44.1951195,
              -19.9707985
            ],
            [
              -44.1952163,
              -19.9707076
            ]
          ]
        ]
      }
    },
    {
      "type": "Feature",
      "id": "way/1350535552",
      "properties": {
        "timestamp": "2025-01-12T01:52:56Z",
        "version": 1,
        "changeset": 161259323,
        "addr:city": "Betim",
        "addr:housenumber": "47",
        "addr:postcode": "32603-095",
        "addr:street": "Avenida Gabriel de Rezende Passos",
        "addr:suburb": "Angola",
        "amenity": "pharmacy",
        "brand": "Droga Raia",
        "brand:wikidata": "Q10357101",
        "building": "yes",
        "healthcare": "pharmacy",
        "name": "Droga Raia",
        "id": "way/1350535552"
      },
      "geometry": {
        "type": "Polygon",
        "coordinates": [
          [
            [
              -44.2046176,
              -19.9660853
            ],
            [
              -44.2048037,
              -19.9660759
            ],
            [
              -44.2048214,
              -19.9662742
            ],
            [
              -44.2045985,
              -19.9661471
            ],
            [
              -44.2046176,
              -19.9660853
            ]
          ]
        ]
      }
    },
    {
      "type": "Feature",
      "id": "node/3299132687",
      "properties": {
        "timestamp": "2015-01-19T19:37:09Z",
        "version": 1,
        "changeset": 28261408,
        "amenity": "pharmacy",
        "name": "Nature Derme",
        "id": "node/3299132687"
      },
      "geometry": {
        "type": "Point",
        "coordinates": [
          -44.2000347,
          -19.9669031
        ]
      }
    },
    {
      "type": "Feature",
      "id": "node/4695978888",
      "properties": {
        "timestamp": "2017-02-20T19:03:16Z",
        "version": 1,
        "changeset": 46252986,
        "amenity": "pharmacy",
        "id": "node/4695978888"
      },
      "geometry": {
        "type": "Point",
        "coordinates": [
          -44.2718411,
          -19.9431247
        ]
      }
    },
    {
      "type": "Feature",
      "id": "node/6384672125",
      "properties": {
        "timestamp": "2025-02-11T04:53:28Z",
        "version": 4,
        "changeset": 162375772,
        "addr:city": "Betim",
        "addr:housenumber": "140",
        "addr:postcode": "32677-346",
        "addr:street": "Rua Jovaci Gomes",
        "addr:suburb": "Imbiruçu",
        "amenity": "pharmacy",
        "dispensing": "yes",
        "healthcare": "pharmacy",
        "name": "Farma Vida 140",
        "id": "node/6384672125"
      },
      "geometry": {
        "type": "Point",
        "coordinates": [
          -44.1105896,
          -19.9407321
        ]
      }
    },
    {
      "type": "Feature",
      "id": "node/6384672130",
      "properties": {
        "timestamp": "2025-02-10T18:01:00Z",
        "version": 3,
        "changeset": 162361683,
        "addr:city": "Betim",
        "addr:housenumber": "377",
        "addr:postcode": "32677-800",
        "addr:street": "Avenida São Caetano",
        "addr:suburb": "São Caetano",
        "amenity": "pharmacy",
        "dispensing": "yes",
        "healthcare": "pharmacy",
        "name": "377 Rede Minas Farma",
        "id": "node/6384672130"
      },
      "geometry": {
        "type": "Point",
        "coordinates": [
          -44.111032,
          -19.93893
        ]
      }
    },
    {
      "type": "Feature",
      "id": "node/6384672170",
      "properties": {
        "timestamp": "2025-02-10T15:19:56Z",
        "version": 2,
        "changeset": 162355532,
        "addr:city": "Betim",
        "addr:housenumber": "215",
        "addr:postcode": "32677-800",
        "addr:street": "Avenida São Caetano",
        "addr:suburb": "São Caetano",
        "amenity": "pharmacy",
        "dispensing": "yes",
        "healthcare": "pharmacy",
        "name": "215",
        "id": "node/6384672170"
      },
      "geometry": {
        "type": "Point",
        "coordinates": [
          -44.1119647,
          -19.9377441
        ]
      }
    },
    {
      "type": "Feature",
      "id": "node/6437312515",
      "properties": {
        "timestamp": "2025-02-10T15:19:56Z",
        "version": 2,
        "changeset": 162355532,
        "addr:city": "Betim",
        "addr:housenumber": "21",
        "addr:postcode": "32677-800",
        "addr:street": "Avenida São Caetano",
        "addr:suburb": "São Caetano",
        "amenity": "pharmacy",
        "dispensing": "yes",
        "healthcare": "pharmacy",
        "name": "21",
        "id": "node/6437312515"
      },
      "geometry": {
        "type": "Point",
        "coordinates": [
          -44.1129656,
          -19.9361098
        ]
      }
    },
    {
      "type": "Feature",
      "id": "node/10776407306",
      "properties": {
        "timestamp": "2025-01-05T03:15:15Z",
        "version": 2,
        "changeset": 161008290,
        "addr:city": "Betim",
        "addr:housenumber": "1558",
        "addr:postcode": "32670-708",
        "addr:street": "Avenida Campos de Ourique",
        "addr:suburb": "Jardim das Alterosas 1ª Seção",
        "amenity": "pharmacy",
        "healthcare": "pharmacy",
        "name": "Drogaria Alterosa",
        "id": "node/10776407306"
      },
      "geometry": {
        "type": "Point",
        "coordinates": [
          -44.1600772,
          -19.9476289
        ]
      }
    }
  ]
}
