{
  "type": "FeatureCollection",
  "features": [
    {
      "type": "Feature",
      "id": "way/683403520",
      "properties": {
        "timestamp": "2022-11-16T14:00:32Z",
        "version": 2,
        "changeset": 128994290,
        "amenity": "school",
        "building": "school",
        "building:levels": "1",
        "id": "way/683403520"
      },
      "geometry": {
        "type": "Polygon",
        "coordinates": [
          [
            [
              -42.8136543,
              -18.2598154
            ],
            [
              -42.8135271,
              -18.2599598
            ],
            [
              -42.8134588,
              -18.2599056
            ],
            [
              -42.8134991,
              -18.2598598
            ],
            [
              -42.8134438,
              -18.2598158
            ],
            [
              -42.8134971,
              -18.2597554
            ],
            [
              -42.8135498,
              -18.2597972
            ],
            [
              -42.8135833,
              -18.2597591
            ],
            [
              -42.8136543,
              -18.2598154
            ]
          ]
        ]
      }
    },
    {
      "type": "Feature",
      "id": "way/1113326881",
      "properties": {
        "timestamp": "2022-11-15T12:05:57Z",
        "version": 1,
        "changeset": 128937673,
        "addr:city": "Coluna",
        "addr:housenumber": "165",
        "addr:postcode": "39770-000",
        "addr:street": "Rua Governador Kubistscheck",
        "addr:suburb": "Centro",
        "amenity": "school",
        "name": "Escola Estadual Professora Heroina Torres",
        "operator": "Governo de Minas Gerais",
        "operator:type": "public",
        "id": "way/1113326881"
      },
      "geometry": {
        "type": "Polygon",
        "coordinates": [
          [
            [
              -42.8404985,
              -18.2312381
            ],
            [
              -42.840348,
              -18.2316634
            ],
            [
              -42.8400826,
              -18.2316045
            ],
            [
              -42.8399167,
              -18.2315136
            ],
            [
              -42.8399371,
              -18.2314499
            ],
            [
              -42.8400011,
              -18.231252
            ],
            [
              -42.8400438,
              -18.2311265
            ],
            [
              -42.8400472,
              -18.2311087
            ],
            [
              -42.8404985,
              -18.2312381
            ]
          ]
        ]
      }
    },
    {
      "type": "Feature",
      "id": "node/10185752482",
      "properties": {
        "timestamp": "2022-11-16T10:59:49Z",
        "version": 2,
        "changeset": 128984314,
        "addr:city": "Coluna",
        "addr:housenumber": "68",
        "addr:postcode": "39770-000",
        "addr:street": "Rua Senador Simão da Cunha",
        "addr:suburb": "Centro",
        "amenity": "school",
        "email": "escola.213969@educacao.mg.gov.br",
        "name": "Escola Estadual Professora Almerinda Aguiar",
        "operator": "Governo de Minas Gerais",
        "operator:type": "public",
        "phone": "+55 33 3435 1330",
        "id": "node/10185752482"
      },
      "geometry": {
        "type": "Point",
        "coordinates": [
          -42.8393874,
          -18.232248
        ]
      }
    },
    {
      "type": "Feature",
      "id": "node/10188273613",
      "properties": {
        "timestamp": "2022-11-16T10:59:49Z",
        "version": 1,
        "changeset": 128984314,
        "addr:city": "Coluna",
        "addr:housenumber": "165",
        "addr:postcode": "39770-000",
        "addr:street": "Rua Duque de Caxias",
        "addr:suburb": "Centro",
        "amenity": "school",
        "email": "apaecolunamg@hotmail.com",
        "name": "Escola de Educação Especial Silvia Garcia de Aguiar",
        "id": "node/10188273613"
      },
      "geometry": {
        "type": "Point",
        "coordinates": [
          -42.8394613,
          -18.2314744
        ]
      }
    },
    {
      "type": "Feature",
      "id": "node/10188273614",
      "properties": {
        "timestamp": "2022-11-16T10:59:49Z",
        "version": 1,
        "changeset": 128984314,
        "addr:city": "Coluna",
        "addr:housenumber": "380",
        "addr:postcode": "39770-000",
        "addr:street": "Rua Vereador Valdemar Lopes",
        "addr:suburb": "Centro",
        "amenity": "school",
        "name": "Escola Municipal Alegria do Saber",
        "operator": "Município de Coluna",
        "operator:type": "public",
        "id": "node/10188273614"
      },
      "geometry": {
        "type": "Point",
        "coordinates": [
          -42.8384813,
          -18.236879
        ]
      }
    },
    {
      "type": "Feature",
      "id": "node/10188798526",
      "properties": {
        "timestamp": "2022-11-16T14:00:32Z",
        "version": 1,
        "changeset": 128994290,
        "addr:city": "Coluna",
        "addr:place": "Córrego Vendinha",
        "addr:postcode": "39770-000",
        "addr:state": "Minas Gerais",
        "amenity": "school",
        "name": "Escola Municipal Gustavo Teodoro",
        "operator": "Município de Coluna",
        "id": "node/10188798526"
      },
      "geometry": {
        "type": "Point",
        "coordinates": [
          -42.8136268,
          -18.2599058
        ]
      }
    },
    {
      "type": "Feature",
      "id": "node/10188798741",
      "properties": {
        "timestamp": "2022-11-16T14:00:32Z",
        "version": 1,
        "changeset": 128994290,
        "amenity": "school",
        "name": "Escola Estadual do Japão",
        "id": "node/10188798741"
      },
      "geometry": {
        "type": "Point",
        "coordinates": [
          -42.8220785,
          -18.2955889
        ]
      }
    }
  ]
}
