{
  "type": "FeatureCollection",
  "features": [
    {
      "type": "Feature",
      "id": "way/904675475",
      "properties": {
        "timestamp": "2021-02-07T10:37:04Z",
        "version": 1,
        "changeset": 98844625,
        "addr:city": "São Brás do Suaçuí",
        "addr:postcode": "35495000",
        "addr:street": "Avenida Ribeiro Oliveira",
        "addr:suburb": "Centro",
        "amenity": "community_centre",
        "building": "yes",
        "name": "Multiplo Uso",
        "opening_hours": "Mo-Fr 07:00-16:00",
        "operator": "Prefeitura Municipal",
        "operator:type": "public",
        "id": "way/904675475"
      },
      "geometry": {
        "type": "Polygon",
        "coordinates": [
          [
            [
              -43.9518578,
              -20.627741
            ],
            [
              -43.9517346,
              -20.6275535
            ],
            [
              -43.9518851,
              -20.6274669
            ],
            [
              -43.9520083,
              -20.6276543
            ],
            [
              -43.9518578,
              -20.627741
            ]
          ]
        ]
      }
    }
  ]
}
