{
  "type": "FeatureCollection",
  "features": [
    {
      "type": "Feature",
      "id": "node/4998256138",
      "properties": {
        "timestamp": "2017-07-27T19:01:29Z",
        "version": 1,
        "changeset": 50628820,
        "name": "Hotel Pousada Cantinho do Céu",
        "tourism": "hotel",
        "id": "node/4998256138"
      },
      "geometry": {
        "type": "Point",
        "coordinates": [
          -43.2637448,
          -22.1301846
        ]
      }
    },
    {
      "type": "Feature",
      "id": "node/12382605780",
      "properties": {
        "timestamp": "2024-11-28T15:46:48Z",
        "version": 1,
        "changeset": 159708746,
        "addr:city": "Paraíba do Sul",
        "addr:housenumber": "199",
        "addr:postcode": "25850-000",
        "addr:street": "Rua Expedicionário Joaquim Alves de Carvalho Filho",
        "addr:suburb": "Palhas",
        "air_conditioning": "yes",
        "bar": "yes",
        "email": "pousadavaledosbaroes@hotmail.com",
        "mobile": "+55 24 99258 2998",
        "name": "Hotel Pousada Vale dos Barões",
        "tourism": "hotel",
        "id": "node/12382605780"
      },
      "geometry": {
        "type": "Point",
        "coordinates": [
          -43.2985092,
          -22.161914
        ]
      }
    },
    {
      "type": "Feature",
      "id": "node/12388231829",
      "properties": {
        "timestamp": "2024-12-01T14:39:00Z",
        "version": 1,
        "changeset": 159808683,
        "addr:housenumber": "1558",
        "addr:postcode": "25850-000",
        "addr:street": "Estrada da Palestina",
        "addr:suburb": "Palestina",
        "building": "yes",
        "name": "Hotel Fazenda Sarandy",
        "tourism": "hotel",
        "id": "node/12388231829"
      },
      "geometry": {
        "type": "Point",
        "coordinates": [
          -43.2821196,
          -22.1284357
        ]
      }
    },
    {
      "type": "Feature",
      "id": "node/12390208885",
      "properties": {
        "timestamp": "2024-12-02T13:15:46Z",
        "version": 1,
        "changeset": 159842725,
        "addr:city": "Paraíba do Sul",
        "addr:housenumber": "544",
        "addr:postcode": "25850-000",
        "addr:street": "Avenida Marechal Castelo Branco",
        "addr:suburb": "Centro",
        "name": "Hotel Beira Rio",
        "tourism": "hotel",
        "id": "node/12390208885"
      },
      "geometry": {
        "type": "Point",
        "coordinates": [
          -43.2864917,
          -22.1615138
        ]
      }
    },
    {
      "type": "Feature",
      "id": "node/12390294574",
      "properties": {
        "timestamp": "2024-12-02T14:21:27Z",
        "version": 1,
        "changeset": 159845284,
        "addr:city": "Paraíba do Sul",
        "addr:housenumber": "303",
        "addr:postcode": "25850-000",
        "addr:street": "Vila Nicolau Melick",
        "addr:suburb": "Centro",
        "name": "Vip Hotel Pousada",
        "phone": "+55 24 2263 2004",
        "tourism": "hotel",
        "id": "node/12390294574"
      },
      "geometry": {
        "type": "Point",
        "coordinates": [
          -43.2908977,
          -22.1636976
        ]
      }
    },
    {
      "type": "Feature",
      "id": "node/12390294575",
      "properties": {
        "timestamp": "2024-12-02T14:21:27Z",
        "version": 1,
        "changeset": 159845284,
        "addr:city": "Paraíba do Sul",
        "addr:housenumber": "38",
        "addr:postcode": "25850-000",
        "addr:street": "Alameda Paraíba",
        "addr:suburb": "Centro",
        "name": "Pousada Sossego",
        "phone": "+55 24 2263 3350",
        "tourism": "hotel",
        "id": "node/12390294575"
      },
      "geometry": {
        "type": "Point",
        "coordinates": [
          -43.2884103,
          -22.1599325
        ]
      }
    },
    {
      "type": "Feature",
      "id": "node/12390294576",
      "properties": {
        "timestamp": "2024-12-02T14:21:27Z",
        "version": 1,
        "changeset": 159845284,
        "addr:city": "Paraíba do Sul",
        "addr:housenumber": "176",
        "addr:postcode": "25850-000",
        "addr:street": "Avenida Juvenir Francisco De Oliveira",
        "addr:suburb": "Salutaris",
        "name": "Hotel Itaóca",
        "tourism": "hotel",
        "id": "node/12390294576"
      },
      "geometry": {
        "type": "Point",
        "coordinates": [
          -43.2888188,
          -22.1651558
        ]
      }
    }
  ]
}
