{
  "type": "FeatureCollection",
  "features": [
    {
      "type": "Feature",
      "id": "way/304786088",
      "properties": {
        "timestamp": "2014-09-24T11:55:34Z",
        "version": 1,
        "changeset": 25643305,
        "amenity": "school",
        "id": "way/304786088"
      },
      "geometry": {
        "type": "Polygon",
        "coordinates": [
          [
            [
              -48.5956238,
              -23.796043
            ],
            [
              -48.5956265,
              -23.7964921
            ],
            [
              -48.5955997,
              -23.7965314
            ],
            [
              -48.5955353,
              -23.7965633
            ],
            [
              -48.5946985,
              -23.7966001
            ],
            [
              -48.5946556,
              -23.7959154
            ],
            [
              -48.5948433,
              -23.7959375
            ],
            [
              -48.5948406,
              -23.7961755
            ],
            [
              -48.5949587,
              -23.796178
            ],
            [
              -48.5949667,
              -23.7959571
            ],
            [
              -48.5956238,
              -23.796043
            ]
          ]
        ]
      }
    },
    {
      "type": "Feature",
      "id": "way/305170589",
      "properties": {
        "timestamp": "2016-02-22T04:58:23Z",
        "version": 4,
        "changeset": 37358955,
        "addr:city": "Buri",
        "addr:postcode": "18290-000",
        "addr:street": "Rua Orozimbo Silva de Almeida",
        "addr:suburb": "São Rafael",
        "amenity": "school",
        "name": "Escola Municipal Professora Elisa Martirani Winkler",
        "note": "Local sem número",
        "phone": "+55 15 3546-2233",
        "id": "way/305170589"
      },
      "geometry": {
        "type": "Polygon",
        "coordinates": [
          [
            [
              -48.6122885,
              -23.8055066
            ],
            [
              -48.6119816,
              -23.8063341
            ],
            [
              -48.6115322,
              -23.8061946
            ],
            [
              -48.6118391,
              -23.8053671
            ],
            [
              -48.6122885,
              -23.8055066
            ]
          ]
        ]
      }
    },
    {
      "type": "Feature",
      "id": "way/305170864",
      "properties": {
        "timestamp": "2016-02-22T04:58:23Z",
        "version": 3,
        "changeset": 37358955,
        "addr:city": "Buri",
        "addr:housenumber": "115",
        "addr:postcode": "18290-000",
        "addr:street": "Rua Benedito Pedroso de Oliveira",
        "addr:suburb": "Conjunto Habitacional São Rafael",
        "amenity": "school",
        "name": "Escola Municipal Professor Jonas Pires",
        "phone": "+55 15 3546-3426",
        "id": "way/305170864"
      },
      "geometry": {
        "type": "Polygon",
        "coordinates": [
          [
            [
              -48.6080649,
              -23.8055273
            ],
            [
              -48.6083764,
              -23.8052229
            ],
            [
              -48.6086512,
              -23.8054847
            ],
            [
              -48.6083326,
              -23.8057762
            ],
            [
              -48.6080649,
              -23.8055273
            ]
          ]
        ]
      }
    },
    {
      "type": "Feature",
      "id": "way/305171180",
      "properties": {
        "timestamp": "2014-09-26T17:46:43Z",
        "version": 1,
        "changeset": 25691480,
        "addr:city": "BURI",
        "addr:housenumber": "205",
        "addr:postcode": "18290000",
        "addr:street": "Rua Periquito",
        "addr:suburb": "SÃO JOAO",
        "amenity": "school",
        "name": "EM SAO JOAO CONJUNTO HABITACIONAL",
        "phone": "+55 153546-1861",
        "id": "way/305171180"
      },
      "geometry": {
        "type": "Polygon",
        "coordinates": [
          [
            [
              -48.6093249,
              -23.8064683
            ],
            [
              -48.6090774,
              -23.8065452
            ],
            [
              -48.6088813,
              -23.8066734
            ],
            [
              -48.6087849,
              -23.8067881
            ],
            [
              -48.6084283,
              -23.8066222
            ],
            [
              -48.6089,
              -23.8060795
            ],
            [
              -48.6093249,
              -23.8064683
            ]
          ]
        ]
      }
    },
    {
      "type": "Feature",
      "id": "way/305172317",
      "properties": {
        "timestamp": "2015-11-16T20:09:05Z",
        "version": 2,
        "changeset": 35360480,
        "addr:city": "BURI",
        "addr:postcode": "18290000",
        "addr:street": "Rua Adhemar de Barros",
        "addr:suburb": "CONJ. HAB. SÃO RAFAEL",
        "amenity": "school",
        "name": "EM MARIA DE LOURDES PEREIRA NOGUEIRA",
        "note": "Local sem número",
        "phone": "+55 15 3546-2000",
        "id": "way/305172317"
      },
      "geometry": {
        "type": "Polygon",
        "coordinates": [
          [
            [
              -48.6083616,
              -23.8052111
            ],
            [
              -48.6080555,
              -23.8055155
            ],
            [
              -48.6078131,
              -23.8053001
            ],
            [
              -48.608121,
              -23.8049747
            ],
            [
              -48.6083616,
              -23.8052111
            ]
          ]
        ]
      }
    },
    {
      "type": "Feature",
      "id": "way/305172981",
      "properties": {
        "timestamp": "2014-09-26T18:00:27Z",
        "version": 1,
        "changeset": 25691785,
        "addr:city": "BURI",
        "addr:housenumber": "159",
        "addr:postcode": "18290000",
        "addr:street": "Rua Paranapanema",
        "addr:suburb": "VILA SARAIVA",
        "amenity": "school",
        "name": "EM PROF.ª HAYDEE FERREIRA ARATO",
        "phone": "+55 15 3546-1760",
        "id": "way/305172981"
      },
      "geometry": {
        "type": "Polygon",
        "coordinates": [
          [
            [
              -48.6059676,
              -23.8047529
            ],
            [
              -48.6062278,
              -23.80418
            ],
            [
              -48.6068702,
              -23.8046859
            ],
            [
              -48.6065043,
              -23.805213
            ],
            [
              -48.6059676,
              -23.8047529
            ]
          ]
        ]
      }
    },
    {
      "type": "Feature",
      "id": "way/305173485",
      "properties": {
        "timestamp": "2014-09-26T18:04:25Z",
        "version": 1,
        "changeset": 25691870,
        "addr:city": "BURI",
        "addr:housenumber": "155",
        "addr:postcode": "18290000",
        "addr:street": "Rua Olímpio Nogueira",
        "addr:suburb": "CENTRO",
        "amenity": "school",
        "name": "EE PROF.ª FRANCELINA FRANCO",
        "phone": "+55 15 3546-1242",
        "id": "way/305173485"
      },
      "geometry": {
        "type": "Polygon",
        "coordinates": [
          [
            [
              -48.6036115,
              -23.7991342
            ],
            [
              -48.6036611,
              -23.7984736
            ],
            [
              -48.6049989,
              -23.7985578
            ],
            [
              -48.6048856,
              -23.79905
            ],
            [
              -48.6047511,
              -23.7991601
            ],
            [
              -48.6036115,
              -23.7991342
            ]
          ]
        ]
      }
    },
    {
      "type": "Feature",
      "id": "way/305173618",
      "properties": {
        "timestamp": "2016-02-22T04:58:22Z",
        "version": 4,
        "changeset": 37358955,
        "addr:city": "Buri",
        "addr:postcode": "18290-000",
        "addr:street": "Rua Rui Barbosa",
        "addr:suburb": "Centro",
        "amenity": "school",
        "name": "Escola Municipal Coronel Vitalino de Barros",
        "note": "Local sem número",
        "phone": "+55 15 3546-1156",
        "id": "way/305173618"
      },
      "geometry": {
        "type": "Polygon",
        "coordinates": [
          [
            [
              -48.5983942,
              -23.7996658
            ],
            [
              -48.5978622,
              -23.7996446
            ],
            [
              -48.5978973,
              -23.7988654
            ],
            [
              -48.5984203,
              -23.7989851
            ],
            [
              -48.5983942,
              -23.7996658
            ]
          ]
        ]
      }
    },
    {
      "type": "Feature",
      "id": "way/305174670",
      "properties": {
        "timestamp": "2014-09-26T18:14:01Z",
        "version": 1,
        "changeset": 25692091,
        "addr:city": "BURI",
        "addr:housenumber": "100",
        "addr:postcode": "18290000",
        "addr:street": "Rua Carlos Howard",
        "addr:suburb": "CENTRO",
        "amenity": "school",
        "name": "EM MARIA STEPHANO MALUF",
        "phone": "+55 15 3546-2766",
        "id": "way/305174670"
      },
      "geometry": {
        "type": "Polygon",
        "coordinates": [
          [
            [
              -48.5988497,
              -23.7983595
            ],
            [
              -48.5988497,
              -23.798068
            ],
            [
              -48.5990302,
              -23.7980648
            ],
            [
              -48.5990302,
              -23.7983595
            ],
            [
              -48.5988497,
              -23.7983595
            ]
          ]
        ]
      }
    },
    {
      "type": "Feature",
      "id": "way/305174987",
      "properties": {
        "timestamp": "2014-09-26T18:17:39Z",
        "version": 2,
        "changeset": 25692159,
        "addr:city": "BURI",
        "addr:housenumber": "15",
        "addr:postcode": "18290000",
        "addr:street": "Rua Jovino Moreira Antunes",
        "addr:suburb": "CENTRO",
        "amenity": "school",
        "name": "EM AMÁLIA GUIMARÃES",
        "phone": "+55 15 3546-2565",
        "id": "way/305174987"
      },
      "geometry": {
        "type": "Polygon",
        "coordinates": [
          [
            [
              -48.5988118,
              -23.7977087
            ],
            [
              -48.5991763,
              -23.7976795
            ],
            [
              -48.5991905,
              -23.7979677
            ],
            [
              -48.5988295,
              -23.7979839
            ],
            [
              -48.5988118,
              -23.7977087
            ]
          ]
        ]
      }
    },
    {
      "type": "Feature",
      "id": "way/305177363",
      "properties": {
        "timestamp": "2015-11-16T20:09:05Z",
        "version": 2,
        "changeset": 35360480,
        "addr:city": "BURI",
        "addr:postcode": "18290000",
        "addr:street": "Rua Benjamin Constant",
        "addr:suburb": "ALEM LINHA",
        "amenity": "school",
        "name": "EM PROF.ªJULIETA SYDOW MONTEIRO",
        "note": "Local sem número",
        "phone": "+55 15 3546-1174",
        "id": "way/305177363"
      },
      "geometry": {
        "type": "Polygon",
        "coordinates": [
          [
            [
              -48.5988687,
              -23.7932367
            ],
            [
              -48.5993628,
              -23.792932
            ],
            [
              -48.5996895,
              -23.7934551
            ],
            [
              -48.599193,
              -23.7937578
            ],
            [
              -48.5988687,
              -23.7932367
            ]
          ]
        ]
      }
    },
    {
      "type": "Feature",
      "id": "way/305177474",
      "properties": {
        "timestamp": "2014-09-26T18:37:03Z",
        "version": 1,
        "changeset": 25692577,
        "addr:city": "BURI",
        "addr:housenumber": "453",
        "addr:postcode": "18290000",
        "addr:street": "Rua Benjamin Constant",
        "addr:suburb": "ALEM LINHA",
        "amenity": "school",
        "name": "EM SANTINA LOPES DE BARROS",
        "id": "way/305177474"
      },
      "geometry": {
        "type": "Polygon",
        "coordinates": [
          [
            [
              -48.598799,
              -23.793098
            ],
            [
              -48.5992637,
              -23.7928187
            ],
            [
              -48.5993345,
              -23.7929223
            ],
            [
              -48.598866,
              -23.7931851
            ],
            [
              -48.598799,
              -23.793098
            ]
          ]
        ]
      }
    },
    {
      "type": "Feature",
      "id": "way/305178474",
      "properties": {
        "timestamp": "2015-11-16T20:09:06Z",
        "version": 2,
        "changeset": 35360480,
        "addr:city": "BURI",
        "addr:postcode": "18290000",
        "addr:street": "Rua Francisco Pires",
        "addr:suburb": "ALEM LINHA",
        "amenity": "school",
        "name": "EM TEREZA LEITAO DE FREITAS",
        "note": "Local sem número",
        "phone": "+55 15 3546-2556",
        "id": "way/305178474"
      },
      "geometry": {
        "type": "Polygon",
        "coordinates": [
          [
            [
              -48.601917,
              -23.7949006
            ],
            [
              -48.6017023,
              -23.7946257
            ],
            [
              -48.6019606,
              -23.7945156
            ],
            [
              -48.6021222,
              -23.7948258
            ],
            [
              -48.601917,
              -23.7949006
            ]
          ]
        ]
      }
    },
    {
      "type": "Feature",
      "id": "way/305178758",
      "properties": {
        "timestamp": "2014-09-26T18:44:08Z",
        "version": 1,
        "changeset": 25692724,
        "addr:city": "BURI",
        "addr:housenumber": "386",
        "addr:postcode": "18290000",
        "addr:street": "Rua Teddy Vieira de Azevedo",
        "addr:suburb": "VILA SENE",
        "amenity": "school",
        "name": "EM PROF.ª SUELI APARECIDA MONTEIRO NOGUEIRA RODRIGUES",
        "phone": "+55 15 3546-1870",
        "id": "way/305178758"
      },
      "geometry": {
        "type": "Polygon",
        "coordinates": [
          [
            [
              -48.5922094,
              -23.8034623
            ],
            [
              -48.5921199,
              -23.8036817
            ],
            [
              -48.5923313,
              -23.8037561
            ],
            [
              -48.5922825,
              -23.8040091
            ],
            [
              -48.5926769,
              -23.8042508
            ],
            [
              -48.5925305,
              -23.8044257
            ],
            [
              -48.5921118,
              -23.8041765
            ],
            [
              -48.5920061,
              -23.804329
            ],
            [
              -48.5917662,
              -23.8041467
            ],
            [
              -48.5922094,
              -23.8034623
            ]
          ]
        ]
      }
    },
    {
      "type": "Feature",
      "id": "way/305178939",
      "properties": {
        "timestamp": "2014-09-26T18:46:32Z",
        "version": 1,
        "changeset": 25692769,
        "addr:city": "BURI",
        "addr:housenumber": "391",
        "addr:postcode": "18290000",
        "addr:street": "Rua Teddy Vieira de Azevedo",
        "addr:suburb": "VILA SENE",
        "amenity": "school",
        "name": "EM MAESTRO GUMERCINDO PEREIRA ANDRADE",
        "phone": "+55 15 3546-1331",
        "id": "way/305178939"
      },
      "geometry": {
        "type": "Polygon",
        "coordinates": [
          [
            [
              -48.5919288,
              -23.803678
            ],
            [
              -48.5917866,
              -23.8039421
            ],
            [
              -48.5912662,
              -23.8035962
            ],
            [
              -48.5914247,
              -23.8033507
            ],
            [
              -48.5919288,
              -23.803678
            ]
          ]
        ]
      }
    }
  ]
}
