{
  "type": "FeatureCollection",
  "features": [
    {
      "type": "Feature",
      "id": "node/2970628337",
      "properties": {
        "timestamp": "2017-12-17T17:18:46Z",
        "version": 2,
        "changeset": 54708636,
        "addr:city": "Indiara",
        "addr:postcode": "75955-000",
        "addr:street": "Avenida Pedro Ludovico Teixeira",
        "amenity": "school",
        "name": "Escola Estadual Valeriano de Barros",
        "operator": "Estado",
        "id": "node/2970628337"
      },
      "geometry": {
        "type": "Point",
        "coordinates": [
          -49.9909475,
          -17.1384457
        ]
      }
    },
    {
      "type": "Feature",
      "id": "node/5290041196",
      "properties": {
        "timestamp": "2017-12-17T16:45:02Z",
        "version": 1,
        "changeset": 54707759,
        "addr:city": "Indiara",
        "addr:postcode": "75955-000",
        "addr:street": "Avenida das Palmeiras",
        "amenity": "school",
        "name": "CMEI Criança Feliz",
        "operator": "Município",
        "id": "node/5290041196"
      },
      "geometry": {
        "type": "Point",
        "coordinates": [
          -49.9931528,
          -17.1482057
        ]
      }
    },
    {
      "type": "Feature",
      "id": "node/5290041197",
      "properties": {
        "timestamp": "2017-12-17T17:02:51Z",
        "version": 2,
        "changeset": 54708246,
        "addr:city": "Indiara",
        "addr:postcode": "75955-000",
        "addr:street": "Rua Américo Ribeiro Guimarães",
        "amenity": "school",
        "name": "CMEI Neuzila Maria da Silva",
        "operator": "Município",
        "id": "node/5290041197"
      },
      "geometry": {
        "type": "Point",
        "coordinates": [
          -49.9929618,
          -17.1499074
        ]
      }
    },
    {
      "type": "Feature",
      "id": "node/5290092561",
      "properties": {
        "timestamp": "2017-12-17T17:18:45Z",
        "version": 1,
        "changeset": 54708636,
        "addr:city": "Indiara",
        "addr:postcode": "75955-000",
        "addr:street": "Avenida Água Limpa",
        "amenity": "school",
        "name": "Escola Municipal Antônio do Couto",
        "operator": "Município",
        "id": "node/5290092561"
      },
      "geometry": {
        "type": "Point",
        "coordinates": [
          -49.9891039,
          -17.1340347
        ]
      }
    },
    {
      "type": "Feature",
      "id": "node/5290092562",
      "properties": {
        "timestamp": "2017-12-17T17:18:45Z",
        "version": 1,
        "changeset": 54708636,
        "addr:city": "Indiara",
        "addr:postcode": "75955-000",
        "addr:street": "Avenida da Prata",
        "amenity": "school",
        "name": "Colégio Estadual de Indiara",
        "operator": "Estado",
        "id": "node/5290092562"
      },
      "geometry": {
        "type": "Point",
        "coordinates": [
          -49.9924933,
          -17.1416447
        ]
      }
    },
    {
      "type": "Feature",
      "id": "node/5290092584",
      "properties": {
        "timestamp": "2017-12-17T17:18:46Z",
        "version": 1,
        "changeset": 54708636,
        "addr:city": "Indiara",
        "addr:postcode": "75955-000",
        "amenity": "school",
        "name": "Escola Municipal Olavo Bilac",
        "operator": "Município",
        "id": "node/5290092584"
      },
      "geometry": {
        "type": "Point",
        "coordinates": [
          -49.994738,
          -17.1362875
        ]
      }
    }
  ]
}
