{
  "type": "FeatureCollection",
  "features": [
    {
      "type": "Feature",
      "id": "node/10789098874",
      "properties": {
        "timestamp": "2023-04-06T03:29:38Z",
        "version": 2,
        "changeset": 134559515,
        "addr:housenumber": "102",
        "addr:street": "Rua Hilton dos Santos",
        "addr:suburb": "São Marcos",
        "amenity": "clinic",
        "healthcare": "clinic",
        "name": "Unidade Básica de Saúde Carmem Lúcia de Mari Ribas",
        "operator:type": "public",
        "id": "node/10789098874"
      },
      "geometry": {
        "type": "Point",
        "coordinates": [
          -49.1049555,
          -25.2193387
        ]
      }
    },
    {
      "type": "Feature",
      "id": "node/10789098875",
      "properties": {
        "timestamp": "2024-05-04T15:54:42Z",
        "version": 4,
        "changeset": 150886752,
        "addr:housenumber": "180",
        "addr:street": "Rua Miguel Costacurta",
        "addr:suburb": "Jardim Santa Helena",
        "amenity": "clinic",
        "healthcare": "clinic",
        "name": "Unidade Básica de Saúde Acrydes Lazarotto Santos",
        "opening_hours": "Mo-Fr 08:00-17:00",
        "operator:type": "public",
        "wheelchair": "yes",
        "id": "node/10789098875"
      },
      "geometry": {
        "type": "Point",
        "coordinates": [
          -49.1125791,
          -25.2055503
        ]
      }
    },
    {
      "type": "Feature",
      "id": "node/10789098877",
      "properties": {
        "timestamp": "2023-04-06T03:29:38Z",
        "version": 2,
        "changeset": 134559515,
        "addr:housenumber": "33",
        "addr:street": "Rua Maria da Silva Fracaro",
        "addr:suburb": "Vila Velha",
        "amenity": "clinic",
        "healthcare": "clinic",
        "name": "Unidade Básica de Saúde Élcio Berti",
        "operator:type": "public",
        "id": "node/10789098877"
      },
      "geometry": {
        "type": "Point",
        "coordinates": [
          -49.1114187,
          -25.2038419
        ]
      }
    },
    {
      "type": "Feature",
      "id": "node/10789098878",
      "properties": {
        "timestamp": "2024-05-04T15:53:38Z",
        "version": 4,
        "changeset": 150886752,
        "addr:housenumber": "502",
        "addr:street": "Rua Marechal Deodoro da Fonseca",
        "addr:suburb": "Centro",
        "amenity": "clinic",
        "healthcare": "clinic",
        "name": "Unidade Básica de Saúde Central",
        "opening_hours": "Mo-Fr 08:00-17:00",
        "operator:type": "public",
        "wheelchair": "yes",
        "id": "node/10789098878"
      },
      "geometry": {
        "type": "Point",
        "coordinates": [
          -49.112256,
          -25.2075044
        ]
      }
    }
  ]
}
