{
  "type": "FeatureCollection",
  "features": [
    {
      "type": "Feature",
      "id": "way/1046910304",
      "properties": {
        "timestamp": "2022-04-09T12:28:20Z",
        "version": 3,
        "changeset": 119502223,
        "addr:city": "Gr√£o Mogol",
        "addr:postcode": "39570-000",
        "addr:street": "Avenida Domingos de Arruda",
        "addr:suburb": "Bandeirantes",
        "amenity": "college",
        "id": "way/1046910304"
      },
      "geometry": {
        "type": "Polygon",
        "coordinates": [
          [
            [
              -42.8965223,
              -16.574904
            ],
            [
              -42.9004437,
              -16.5742408
            ],
            [
              -42.8998027,
              -16.5752537
            ],
            [
              -42.8967423,
              -16.5757215
            ],
            [
              -42.8965223,
              -16.574904
            ]
          ]
        ]
      }
    }
  ]
}
