{
  "type": "FeatureCollection",
  "features": [
    {
      "type": "Feature",
      "id": "node/9627091562",
      "properties": {
        "timestamp": "2022-04-09T12:28:20Z",
        "version": 3,
        "changeset": 119502223,
        "addr:city": "Grão Mogol",
        "addr:housenumber": "43",
        "addr:postcode": "39570-000",
        "addr:street": "Rua Geraldo Eustaquio da Silva",
        "addr:suburb": "Bandeirantes",
        "email": "paraisodasaguas38@gmail.com",
        "internet_access": "yes",
        "name": "Pousada Paraíso das Águas",
        "phone": "+55 38 3238 1538",
        "phone:mobile": "+55 38 99800-1166",
        "tourism": "hotel",
        "website": "https://www.hotelparaiso.tur.br/",
        "id": "node/9627091562"
      },
      "geometry": {
        "type": "Point",
        "coordinates": [
          -42.8956539,
          -16.5771435
        ]
      }
    },
    {
      "type": "Feature",
      "id": "node/9634533786",
      "properties": {
        "timestamp": "2022-04-03T23:57:27Z",
        "version": 1,
        "changeset": 119281364,
        "addr:city": "Grão Mogol",
        "addr:postcode": "39570-000",
        "addr:street": "Rua Virgílio Colares",
        "addr:suburb": "Centro",
        "name": "Hotel Beira Rio",
        "tourism": "hotel",
        "id": "node/9634533786"
      },
      "geometry": {
        "type": "Point",
        "coordinates": [
          -42.8918952,
          -16.5624202
        ]
      }
    },
    {
      "type": "Feature",
      "id": "node/9639059938",
      "properties": {
        "timestamp": "2022-04-09T15:19:31Z",
        "version": 2,
        "changeset": 119508374,
        "addr:city": "Grão Mogol",
        "addr:housenumber": "km 50",
        "addr:postcode": "39570-000",
        "addr:street": "AMG-0640",
        "email": "contato@graotur.com.br",
        "mobile": "+55 38 99848 6471",
        "name": "Balneário do Córrego",
        "phone": "+55 38 3238 1581",
        "tourism": "hotel",
        "website": "https://graotur.com.br/",
        "id": "node/9639059938"
      },
      "geometry": {
        "type": "Point",
        "coordinates": [
          -42.899413,
          -16.5813853
        ]
      }
    },
    {
      "type": "Feature",
      "id": "node/9652684603",
      "properties": {
        "timestamp": "2022-04-08T20:28:16Z",
        "version": 1,
        "changeset": 119484483,
        "addr:city": "Grão Mogol",
        "addr:housenumber": "47",
        "addr:postcode": "39570-000",
        "addr:street": "Rua Sete de Setembro",
        "addr:suburb": "Centro",
        "name": "Pousada do Eti",
        "tourism": "hotel",
        "id": "node/9652684603"
      },
      "geometry": {
        "type": "Point",
        "coordinates": [
          -42.8916167,
          -16.5615881
        ]
      }
    }
  ]
}
