{
  "type": "FeatureCollection",
  "features": [
    {
      "type": "Feature",
      "id": "node/3442795692",
      "properties": {
        "timestamp": "2017-05-28T23:31:01Z",
        "version": 2,
        "changeset": 49056821,
        "amenity": "school",
        "id": "node/3442795692"
      },
      "geometry": {
        "type": "Point",
        "coordinates": [
          -43.229009,
          -16.4059667
        ]
      }
    },
    {
      "type": "Feature",
      "id": "node/3767729699",
      "properties": {
        "timestamp": "2015-10-01T18:35:04Z",
        "version": 1,
        "changeset": 34375036,
        "amenity": "school",
        "id": "node/3767729699"
      },
      "geometry": {
        "type": "Point",
        "coordinates": [
          -42.709582,
          -16.3022324
        ]
      }
    },
    {
      "type": "Feature",
      "id": "node/4882389125",
      "properties": {
        "timestamp": "2017-05-28T23:31:01Z",
        "version": 1,
        "changeset": 49056821,
        "amenity": "school",
        "id": "node/4882389125"
      },
      "geometry": {
        "type": "Point",
        "coordinates": [
          -43.2297747,
          -16.4053188
        ]
      }
    },
    {
      "type": "Feature",
      "id": "node/9627091527",
      "properties": {
        "timestamp": "2022-04-03T23:57:27Z",
        "version": 2,
        "changeset": 119281364,
        "addr:city": "Grão Mogol",
        "addr:postcode": "39570-000",
        "addr:street": "Avenida Arthur Campos",
        "addr:suburb": "Centro",
        "amenity": "school",
        "name": "Escola Municipal Maria Teresinha Rodrigues Paulino",
        "id": "node/9627091527"
      },
      "geometry": {
        "type": "Point",
        "coordinates": [
          -42.8905729,
          -16.5622775
        ]
      }
    },
    {
      "type": "Feature",
      "id": "node/9627091555",
      "properties": {
        "timestamp": "2022-03-31T17:25:01Z",
        "version": 1,
        "changeset": 119170970,
        "addr:city": "Grão Mogol",
        "addr:housenumber": "150",
        "addr:postcode": "39570-000",
        "addr:street": "Rua José de Arruda",
        "addr:suburb": "Bom Gosto",
        "amenity": "school",
        "name": "Escola Estadual Professor Bicalho",
        "id": "node/9627091555"
      },
      "geometry": {
        "type": "Point",
        "coordinates": [
          -42.8950993,
          -16.56658
        ]
      }
    },
    {
      "type": "Feature",
      "id": "node/9641950030",
      "properties": {
        "timestamp": "2022-04-05T00:28:10Z",
        "version": 1,
        "changeset": 119321761,
        "addr:city": "Grão Mogol",
        "addr:housenumber": "166",
        "addr:postcode": "39570-000",
        "addr:street": "Avenida Arthur Campos",
        "addr:suburb": "Centro",
        "amenity": "school",
        "name": "Escola Estadual Professor Oswaldo Simões",
        "operator": "Secretaria de Educação do Estado de Minas Gerais",
        "operator:type": "public",
        "id": "node/9641950030"
      },
      "geometry": {
        "type": "Point",
        "coordinates": [
          -42.8897426,
          -16.5613995
        ]
      }
    }
  ]
}
