{
  "type": "FeatureCollection",
  "features": [
    {
      "type": "Feature",
      "id": "node/9634533755",
      "properties": {
        "timestamp": "2023-01-27T15:01:40Z",
        "version": 2,
        "changeset": 131776972,
        "addr:city": "Grão Mogol",
        "addr:housenumber": "69",
        "addr:postcode": "39570-000",
        "addr:street": "Rua Geraldo Avelino",
        "addr:suburb": "Centro",
        "amenity": "social_facility",
        "name": "Asilo São Vicente de Paulo",
        "operator": "Sociedade São Vicente de Paulo",
        "operator:type": "private",
        "social_facility": "group_home",
        "social_facility:for": "senior",
        "id": "node/9634533755"
      },
      "geometry": {
        "type": "Point",
        "coordinates": [
          -42.8929746,
          -16.5657282
        ]
      }
    },
    {
      "type": "Feature",
      "id": "node/9652684595",
      "properties": {
        "timestamp": "2022-04-08T22:00:12Z",
        "version": 2,
        "changeset": 119486479,
        "addr:city": "Grão Mogol",
        "addr:postcode": "39570-000",
        "addr:street": "Avenida Domingos de Arruda",
        "addr:suburb": "Bom Gosto",
        "amenity": "social_facility",
        "name": "Centro de Referência em Assistêcia Social",
        "operator": "Município de Grão Mogol",
        "operator:type": "public",
        "social_facility": "assisted_living",
        "id": "node/9652684595"
      },
      "geometry": {
        "type": "Point",
        "coordinates": [
          -42.894232,
          -16.56734
        ]
      }
    }
  ]
}
