{
  "type": "FeatureCollection",
  "features": [
    {
      "type": "Feature",
      "id": "node/8122546017",
      "properties": {
        "timestamp": "2024-03-07T23:30:23Z",
        "version": 3,
        "changeset": 148363778,
        "amenity": "bicycle_parking",
        "name": "Impacto Moto Bike",
        "shop": "bicycle",
        "id": "node/8122546017"
      },
      "geometry": {
        "type": "Point",
        "coordinates": [
          -48.4013499,
          -1.3575721
        ]
      }
    },
    {
      "type": "Feature",
      "id": "node/8484327985",
      "properties": {
        "timestamp": "2021-03-04T02:04:29Z",
        "version": 1,
        "changeset": 100381113,
        "addr:housenumber": "34",
        "addr:street": "Avenida Arterial Cinco B",
        "name": "Felipe Bike",
        "phone": "+55 91 98199-8558",
        "service:bicycle:parts": "yes",
        "service:bicycle:repair": "yes",
        "service:bicycle:retail": "yes",
        "shop": "bicycle",
        "website": "https://www.facebook.com/Felipe-bike-157354574644010/",
        "id": "node/8484327985"
      },
      "geometry": {
        "type": "Point",
        "coordinates": [
          -48.3894726,
          -1.3360935
        ]
      }
    },
    {
      "type": "Feature",
      "id": "node/8484327986",
      "properties": {
        "timestamp": "2021-03-04T02:04:29Z",
        "version": 1,
        "changeset": 100381113,
        "addr:housenumber": "537",
        "addr:street": "Avenida Arterial Cinco B",
        "name": "Marcena Bike",
        "phone": "+55 91 3273-5631",
        "service:bicycle:parts": "yes",
        "service:bicycle:repair": "yes",
        "service:bicycle:retail": "yes",
        "shop": "bicycle",
        "website": "https://www.facebook.com/marcenabike/",
        "id": "node/8484327986"
      },
      "geometry": {
        "type": "Point",
        "coordinates": [
          -48.3906811,
          -1.3397039
        ]
      }
    },
    {
      "type": "Feature",
      "id": "node/8484327987",
      "properties": {
        "timestamp": "2021-03-04T02:04:29Z",
        "version": 1,
        "changeset": 100381113,
        "addr:housenumber": "25",
        "addr:street": "Rua SN Vinte e Um",
        "name": "Junior Bike",
        "phone": "+55 91 3295-5062",
        "service:bicycle:parts": "yes",
        "service:bicycle:repair": "yes",
        "service:bicycle:retail": "yes",
        "shop": "bicycle",
        "id": "node/8484327987"
      },
      "geometry": {
        "type": "Point",
        "coordinates": [
          -48.3926772,
          -1.344015
        ]
      }
    },
    {
      "type": "Feature",
      "id": "node/8484327988",
      "properties": {
        "timestamp": "2021-03-04T02:04:29Z",
        "version": 1,
        "changeset": 100381113,
        "addr:street": "Avenida Arterial Cinco B",
        "name": "Loja Alex Bike",
        "phone": "+55 91 98827-8194;3273-6097;3273-5932",
        "service:bicycle:parts": "yes",
        "service:bicycle:repair": "yes",
        "service:bicycle:retail": "yes",
        "shop": "bicycle",
        "website": "https://www.facebook.com/alexbike.comercial/",
        "id": "node/8484327988"
      },
      "geometry": {
        "type": "Point",
        "coordinates": [
          -48.3906173,
          -1.3395488
        ]
      }
    },
    {
      "type": "Feature",
      "id": "node/8484327989",
      "properties": {
        "timestamp": "2021-03-04T02:04:29Z",
        "version": 1,
        "changeset": 100381113,
        "addr:street": "Rua SN Vinte e Um",
        "name": "Louro Bike",
        "phone": "+55 91 99983-6291",
        "service:bicycle:parts": "yes",
        "service:bicycle:retail": "yes",
        "shop": "bicycle",
        "id": "node/8484327989"
      },
      "geometry": {
        "type": "Point",
        "coordinates": [
          -48.3926092,
          -1.3488628
        ]
      }
    }
  ]
}
