{
  "type": "FeatureCollection",
  "features": [
    {
      "type": "Feature",
      "id": "node/8391209921",
      "properties": {
        "timestamp": "2024-03-05T01:45:11Z",
        "version": 2,
        "changeset": 148230454,
        "addr:housenumber": "1873",
        "addr:street": "Travessa WE 44",
        "amenity": "dentist",
        "healthcare": "dentist",
        "name": "Clínica Odontológica Dra. Vanda Ribeiro",
        "phone": "+559132632068",
        "id": "node/8391209921"
      },
      "geometry": {
        "type": "Point",
        "coordinates": [
          -48.4103653,
          -1.3554445
        ]
      }
    },
    {
      "type": "Feature",
      "id": "node/8391235617",
      "properties": {
        "timestamp": "2024-03-02T23:54:44Z",
        "version": 2,
        "changeset": 148150234,
        "addr:housenumber": "1C",
        "addr:street": "Travessa SN Três",
        "amenity": "dentist",
        "healthcare": "dentist",
        "name": "Consultório Dentário Doutor Joaquim Lucena",
        "name:pt": "Consultório Dentário",
        "opening_hours": "Mo-Fr 16:00-21:00; PH off",
        "operator": "Joaquim Lucena",
        "id": "node/8391235617"
      },
      "geometry": {
        "type": "Point",
        "coordinates": [
          -48.405961,
          -1.3680033
        ]
      }
    }
  ]
}
