{
  "type": "FeatureCollection",
  "features": [
    {
      "type": "Feature",
      "id": "way/975406299",
      "properties": {
        "timestamp": "2021-08-22T13:52:52Z",
        "version": 1,
        "changeset": 110062739,
        "addr:city": "Axixá",
        "addr:postcode": "65148-000",
        "addr:street": "Rodovia BR-402",
        "amenity": "school",
        "name": "IEMA - U. P. DE AXIXÁ",
        "opening_hours": "Mo-Fr 07:30-17:00; Sa-Su 00:00-24:00",
        "id": "way/975406299"
      },
      "geometry": {
        "type": "Polygon",
        "coordinates": [
          [
            [
              -44.0840699,
              -2.861088
            ],
            [
              -44.0842523,
              -2.8616291
            ],
            [
              -44.0843381,
              -2.8616345
            ],
            [
              -44.0844347,
              -2.862114
            ],
            [
              -44.0833886,
              -2.8622319
            ],
            [
              -44.083115,
              -2.8611978
            ],
            [
              -44.0840699,
              -2.861088
            ]
          ]
        ]
      }
    },
    {
      "type": "Feature",
      "id": "way/975409708",
      "properties": {
        "timestamp": "2021-08-22T14:13:55Z",
        "version": 1,
        "changeset": 110063476,
        "addr:city": "Axixá",
        "addr:postcode": "65148-000",
        "addr:street": "Rua São Benedito",
        "addr:suburb": "Ruy-Vaz",
        "amenity": "school",
        "name": "UI Augusto Virgilio Cantanhede",
        "id": "way/975409708"
      },
      "geometry": {
        "type": "Polygon",
        "coordinates": [
          [
            [
              -44.054111,
              -2.857573
            ],
            [
              -44.0540691,
              -2.8578054
            ],
            [
              -44.0538216,
              -2.8577609
            ],
            [
              -44.0538635,
              -2.8575285
            ],
            [
              -44.054111,
              -2.857573
            ]
          ]
        ]
      }
    },
    {
      "type": "Feature",
      "id": "way/975411242",
      "properties": {
        "timestamp": "2021-08-22T14:21:58Z",
        "version": 1,
        "changeset": 110063770,
        "addr:city": "Axixá",
        "addr:housenumber": "247",
        "addr:postcode": "65148-000",
        "addr:street": "Rua Vinte e Três de Setembro",
        "addr:suburb": "Centro",
        "amenity": "school",
        "name": "Jardim de Infância Adelino Fontoura",
        "id": "way/975411242"
      },
      "geometry": {
        "type": "Polygon",
        "coordinates": [
          [
            [
              -44.0575873,
              -2.8387902
            ],
            [
              -44.0574953,
              -2.8389875
            ],
            [
              -44.057223,
              -2.8388608
            ],
            [
              -44.0573151,
              -2.8386635
            ],
            [
              -44.0575873,
              -2.8387902
            ]
          ]
        ]
      }
    },
    {
      "type": "Feature",
      "id": "way/975438236",
      "properties": {
        "timestamp": "2021-08-22T17:00:23Z",
        "version": 1,
        "changeset": 110070937,
        "addr:city": "Axixá",
        "addr:postcode": "65148-000",
        "addr:street": "Rua Monte Alegre",
        "addr:suburb": "Monte Alegre",
        "amenity": "school",
        "name": "UE Doutor Saturnino Belo",
        "id": "way/975438236"
      },
      "geometry": {
        "type": "Polygon",
        "coordinates": [
          [
            [
              -44.0624338,
              -2.8380296
            ],
            [
              -44.0626595,
              -2.8380205
            ],
            [
              -44.0626675,
              -2.8382168
            ],
            [
              -44.0624418,
              -2.838226
            ],
            [
              -44.0624338,
              -2.8380296
            ]
          ]
        ]
      }
    },
    {
      "type": "Feature",
      "id": "way/975463446",
      "properties": {
        "timestamp": "2021-08-22T19:16:11Z",
        "version": 1,
        "changeset": 110075999,
        "amenity": "school",
        "name": "UI Delarey Cardoso Nunes",
        "id": "way/975463446"
      },
      "geometry": {
        "type": "Polygon",
        "coordinates": [
          [
            [
              -44.0823157,
              -2.8454594
            ],
            [
              -44.0826403,
              -2.8458907
            ],
            [
              -44.0817095,
              -2.8463515
            ],
            [
              -44.0814601,
              -2.8459255
            ],
            [
              -44.0823157,
              -2.8454594
            ]
          ]
        ]
      }
    },
    {
      "type": "Feature",
      "id": "node/9026298044",
      "properties": {
        "timestamp": "2021-08-22T13:03:44Z",
        "version": 1,
        "changeset": 110060837,
        "addr:city": "Axixá",
        "addr:postcode": "65148-000",
        "addr:street": "Avenida Principal",
        "addr:suburb": "Perijucara",
        "amenity": "school",
        "name": "UI Professor Manoel Santana Baldez",
        "phone": "+55 98 9 9609 5574",
        "id": "node/9026298044"
      },
      "geometry": {
        "type": "Point",
        "coordinates": [
          -44.1183537,
          -2.7719238
        ]
      }
    },
    {
      "type": "Feature",
      "id": "node/9026421033",
      "properties": {
        "timestamp": "2021-08-22T14:15:43Z",
        "version": 1,
        "changeset": 110063539,
        "amenity": "school",
        "name": "UE Professor Vicente Pires",
        "id": "node/9026421033"
      },
      "geometry": {
        "type": "Point",
        "coordinates": [
          -44.0728248,
          -2.8257483
        ]
      }
    },
    {
      "type": "Feature",
      "id": "node/9026590809",
      "properties": {
        "timestamp": "2021-08-22T15:56:56Z",
        "version": 1,
        "changeset": 110068209,
        "addr:city": "Axixá",
        "addr:postcode": "65148-000",
        "addr:street": "Rua Principal",
        "addr:suburb": "Bonfim do Limoeiro",
        "amenity": "school",
        "name": "UE Joaquim Silva",
        "id": "node/9026590809"
      },
      "geometry": {
        "type": "Point",
        "coordinates": [
          -44.0782857,
          -2.8696073
        ]
      }
    },
    {
      "type": "Feature",
      "id": "node/9026651085",
      "properties": {
        "timestamp": "2021-08-22T16:23:24Z",
        "version": 1,
        "changeset": 110069440,
        "addr:city": "Axixá",
        "addr:postcode": "65148-000",
        "addr:street": "Rua Zadock Pastor",
        "addr:suburb": "Veneza",
        "amenity": "school",
        "name": "UI Doutor Paulo Ramos",
        "id": "node/9026651085"
      },
      "geometry": {
        "type": "Point",
        "coordinates": [
          -44.0602626,
          -2.8231225
        ]
      }
    },
    {
      "type": "Feature",
      "id": "node/9026684032",
      "properties": {
        "timestamp": "2021-08-22T16:52:13Z",
        "version": 1,
        "changeset": 110070648,
        "amenity": "school",
        "name": "UI Senador Clodomir Cardoso",
        "id": "node/9026684032"
      },
      "geometry": {
        "type": "Point",
        "coordinates": [
          -44.0622742,
          -2.8484035
        ]
      }
    },
    {
      "type": "Feature",
      "id": "node/9026712035",
      "properties": {
        "timestamp": "2021-08-22T17:02:19Z",
        "version": 1,
        "changeset": 110070987,
        "addr:city": "Axixá",
        "addr:housenumber": "27",
        "addr:postcode": "65148-000",
        "addr:street": "Avenida Senador José Sarney",
        "addr:suburb": "Centro",
        "amenity": "school",
        "name": "Centro de Ensino Estado Do Acre",
        "phone": "+55 98 3361 1271",
        "id": "node/9026712035"
      },
      "geometry": {
        "type": "Point",
        "coordinates": [
          -44.0529133,
          -2.837144
        ]
      }
    },
    {
      "type": "Feature",
      "id": "node/9026865759",
      "properties": {
        "timestamp": "2021-08-22T18:39:10Z",
        "version": 1,
        "changeset": 110074629,
        "addr:street": "Rua Principal",
        "amenity": "school",
        "name": "UI Arcelino Rodrigues Tavares",
        "id": "node/9026865759"
      },
      "geometry": {
        "type": "Point",
        "coordinates": [
          -44.0706696,
          -2.8973994
        ]
      }
    },
    {
      "type": "Feature",
      "id": "node/9026865808",
      "properties": {
        "timestamp": "2021-08-22T18:59:29Z",
        "version": 1,
        "changeset": 110075358,
        "addr:city": "Axixá",
        "addr:postcode": "65148-000",
        "addr:street": "Rua Vinte e Três de Setembro",
        "addr:suburb": "Centro",
        "amenity": "school",
        "name": "UI Professora Maria Pereira Reis",
        "id": "node/9026865808"
      },
      "geometry": {
        "type": "Point",
        "coordinates": [
          -44.0567542,
          -2.8390566
        ]
      }
    },
    {
      "type": "Feature",
      "id": "node/9026883916",
      "properties": {
        "timestamp": "2021-08-22T18:58:13Z",
        "version": 1,
        "changeset": 110075305,
        "amenity": "school",
        "name": "UE José Ribamar Fontoura",
        "id": "node/9026883916"
      },
      "geometry": {
        "type": "Point",
        "coordinates": [
          -44.1117888,
          -2.8280187
        ]
      }
    },
    {
      "type": "Feature",
      "id": "node/9026895665",
      "properties": {
        "timestamp": "2021-08-22T19:08:49Z",
        "version": 1,
        "changeset": 110075746,
        "amenity": "school",
        "name": "Unidade Integrada João Clímaco de Almeida",
        "id": "node/9026895665"
      },
      "geometry": {
        "type": "Point",
        "coordinates": [
          -44.0731323,
          -2.8522292
        ]
      }
    },
    {
      "type": "Feature",
      "id": "node/9026906786",
      "properties": {
        "timestamp": "2021-08-22T19:21:17Z",
        "version": 1,
        "changeset": 110076184,
        "addr:street": "Avenida Ivar Saladanha",
        "amenity": "school",
        "name": "Unidade Integrada Felipe Barbosa de Andrade",
        "id": "node/9026906786"
      },
      "geometry": {
        "type": "Point",
        "coordinates": [
          -44.1050716,
          -2.870768
        ]
      }
    },
    {
      "type": "Feature",
      "id": "node/9026938912",
      "properties": {
        "timestamp": "2021-08-22T19:25:43Z",
        "version": 1,
        "changeset": 110076334,
        "addr:city": "Axixá",
        "addr:postcode": "65148-000",
        "addr:street": "Rua São Pedro",
        "addr:suburb": "Ruy-Vaz",
        "amenity": "school",
        "name": "UE Axixaense",
        "id": "node/9026938912"
      },
      "geometry": {
        "type": "Point",
        "coordinates": [
          -44.055904,
          -2.8565902
        ]
      }
    },
    {
      "type": "Feature",
      "id": "node/9026959473",
      "properties": {
        "timestamp": "2021-08-22T19:53:08Z",
        "version": 1,
        "changeset": 110077275,
        "amenity": "school",
        "name": "UE Doutor Genesio Rego",
        "id": "node/9026959473"
      },
      "geometry": {
        "type": "Point",
        "coordinates": [
          -44.0669614,
          -2.8121273
        ]
      }
    },
    {
      "type": "Feature",
      "id": "node/9026960979",
      "properties": {
        "timestamp": "2021-08-22T20:06:57Z",
        "version": 1,
        "changeset": 110077662,
        "amenity": "school",
        "name": "Jardim de Infância Lilian Cortes Maciel Vieira",
        "id": "node/9026960979"
      },
      "geometry": {
        "type": "Point",
        "coordinates": [
          -44.084944,
          -2.8494361
        ]
      }
    },
    {
      "type": "Feature",
      "id": "node/9026977218",
      "properties": {
        "timestamp": "2021-08-22T19:59:58Z",
        "version": 1,
        "changeset": 110077460,
        "amenity": "school",
        "name": "Unidade Integrada Major Fontoura",
        "id": "node/9026977218"
      },
      "geometry": {
        "type": "Point",
        "coordinates": [
          -44.105599,
          -2.8521656
        ]
      }
    },
    {
      "type": "Feature",
      "id": "node/9342254180",
      "properties": {
        "timestamp": "2021-12-16T01:28:42Z",
        "version": 1,
        "changeset": 114983897,
        "amenity": "school",
        "name": "Unidade Escolar Sao Francisco",
        "id": "node/9342254180"
      },
      "geometry": {
        "type": "Point",
        "coordinates": [
          -44.1342916,
          -2.8796202
        ]
      }
    }
  ]
}
