{
  "type": "FeatureCollection",
  "features": [
    {
      "type": "Feature",
      "id": "way/1346058407",
      "properties": {
        "timestamp": "2024-12-24T20:35:20Z",
        "version": 1,
        "changeset": 160587229,
        "amenity": "school",
        "id": "way/1346058407"
      },
      "geometry": {
        "type": "Polygon",
        "coordinates": [
          [
            [
              -40.5118267,
              -19.2359201
            ],
            [
              -40.5115534,
              -19.2360405
            ],
            [
              -40.5114651,
              -19.2359219
            ],
            [
              -40.5117529,
              -19.2357779
            ],
            [
              -40.5118267,
              -19.2359201
            ]
          ]
        ]
      }
    },
    {
      "type": "Feature",
      "id": "node/3827675204",
      "properties": {
        "timestamp": "2016-02-25T02:03:27Z",
        "version": 2,
        "changeset": 37426154,
        "IJSN:administra": "Estadual",
        "IJSN:classeCnae": "Fundamental",
        "addr:city": "Governador Lindenberg",
        "addr:postcode": "29720-000",
        "addr:street": "Rodovia Dário Salvador",
        "addr:suburb": "Comunidade Moacir Avidos",
        "alt_name": "Escola Estadual de Ensino Fundamental",
        "amenity": "school",
        "contact:phone": "(27) 3744-1172",
        "name": "EEEF Doutor Moacir Avidos",
        "source": "IJSN",
        "id": "node/3827675204"
      },
      "geometry": {
        "type": "Point",
        "coordinates": [
          -40.5117308,
          -19.2359108
        ]
      }
    },
    {
      "type": "Feature",
      "id": "node/4024904804",
      "properties": {
        "timestamp": "2017-07-31T19:38:48Z",
        "version": 2,
        "changeset": 50731776,
        "IJSN:administra": "Estadual",
        "IJSN:classeCnae": "Fundamental e Médio",
        "addr:city": "Governador Lindenberg",
        "addr:postcode": "29720-000",
        "addr:street": "Avenida André Morello",
        "addr:suburb": "Comunidade Morello",
        "alt_name": "Escola Estadual de Ensino Fundamental e Médio",
        "amenity": "school",
        "contact:phone": "+55-27-3744-2122",
        "name": "EEEFM Irineu Morello",
        "source": "IJSN",
        "id": "node/4024904804"
      },
      "geometry": {
        "type": "Point",
        "coordinates": [
          -40.4670261,
          -19.1415455
        ]
      }
    },
    {
      "type": "Feature",
      "id": "node/4024904837",
      "properties": {
        "timestamp": "2016-02-25T01:59:38Z",
        "version": 1,
        "changeset": 37426154,
        "IJSN:administra": "Estadual",
        "IJSN:classeCnae": "Fundamental e Médio",
        "addr:city": "Governador Lindenberg",
        "addr:housenumber": "883",
        "addr:postcode": "29720-000",
        "addr:street": "Rua Alvino Paulo Pereira",
        "addr:suburb": "Comunidade Novo Brasil",
        "alt_name": "Escola Estadual de Ensino Fundamental e Médio",
        "amenity": "school",
        "contact:phone": "(27) 3744-3108",
        "name": "EEEFM Professor Carlos Mendes",
        "source": "IJSN",
        "id": "node/4024904837"
      },
      "geometry": {
        "type": "Point",
        "coordinates": [
          -40.5931959,
          -19.2248788
        ]
      }
    },
    {
      "type": "Feature",
      "id": "node/4024904839",
      "properties": {
        "timestamp": "2016-02-25T01:59:39Z",
        "version": 1,
        "changeset": 37426154,
        "IJSN:administra": "Estadual",
        "IJSN:classeCnae": "Fundamental e Médio",
        "addr:city": "Governador Lindenberg",
        "addr:housenumber": "226",
        "addr:postcode": "29720-000",
        "addr:street": "Rua João Dalfior",
        "addr:suburb": "Centro",
        "alt_name": "Escola Estadual de Ensino Fundamental e Médio",
        "amenity": "school",
        "contact:phone": "(27) 3744-5379",
        "name": "EEEFM Professor Santos Pinto",
        "source": "IJSN",
        "id": "node/4024904839"
      },
      "geometry": {
        "type": "Point",
        "coordinates": [
          -40.4625913,
          -19.2527873
        ]
      }
    },
    {
      "type": "Feature",
      "id": "node/4024905278",
      "properties": {
        "timestamp": "2016-02-25T02:00:18Z",
        "version": 1,
        "changeset": 37426154,
        "IJSN:administra": "Municipal",
        "IJSN:classeCnae": "Fundamental",
        "addr:city": "Governador Lindenberg",
        "addr:postcode": "29720-000",
        "addr:street": "Rua Augusta Campos",
        "addr:suburb": "Nova Brasília",
        "alt_name": "Escola Municipal de Ensino Fundamental",
        "amenity": "school",
        "contact:phone": "(27) 3744-5014",
        "name": "EMEF Belizário Gusmão",
        "source": "IJSN",
        "id": "node/4024905278"
      },
      "geometry": {
        "type": "Point",
        "coordinates": [
          -40.4561358,
          -19.2544965
        ]
      }
    },
    {
      "type": "Feature",
      "id": "node/4024906879",
      "properties": {
        "timestamp": "2016-02-25T02:02:40Z",
        "version": 1,
        "changeset": 37426154,
        "IJSN:administra": "Municipal",
        "IJSN:classeCnae": "Fundamental",
        "addr:city": "São Domingos do Norte",
        "addr:postcode": "29745-000",
        "addr:suburb": "Córrego São João do Moacir",
        "alt_name": "Escola Unidocente Municipal",
        "amenity": "school",
        "name": "EUM Maria Mariane",
        "source": "IJSN",
        "id": "node/4024906879"
      },
      "geometry": {
        "type": "Point",
        "coordinates": [
          -40.4461117,
          -19.1010189
        ]
      }
    },
    {
      "type": "Feature",
      "id": "node/4024906901",
      "properties": {
        "timestamp": "2016-02-25T02:02:44Z",
        "version": 1,
        "changeset": 37426154,
        "IJSN:administra": "Municipal",
        "IJSN:classeCnae": "Fundamental",
        "addr:city": "Governador Lindenberg",
        "addr:postcode": "29720-000",
        "addr:suburb": "Comunidade Alto Moacir",
        "alt_name": "Escola Unidocente Municipal de Ensino Fundamental",
        "amenity": "school",
        "name": "EUMEF Alto Moacir",
        "source": "IJSN",
        "id": "node/4024906901"
      },
      "geometry": {
        "type": "Point",
        "coordinates": [
          -40.5088988,
          -19.2909341
        ]
      }
    },
    {
      "type": "Feature",
      "id": "node/4024906904",
      "properties": {
        "timestamp": "2016-02-25T02:02:44Z",
        "version": 1,
        "changeset": 37426154,
        "IJSN:administra": "Municipal",
        "IJSN:classeCnae": "Fundamental",
        "addr:city": "Governador Lindenberg",
        "addr:postcode": "29720-000",
        "addr:suburb": "Comunidade Córrego São João do Moacir",
        "alt_name": "Escola Unidocente Municipal de Ensino Fundamental",
        "amenity": "school",
        "name": "EUMEF Baixo Moacir",
        "source": "IJSN",
        "id": "node/4024906904"
      },
      "geometry": {
        "type": "Point",
        "coordinates": [
          -40.3955339,
          -19.1110768
        ]
      }
    },
    {
      "type": "Feature",
      "id": "node/4024906906",
      "properties": {
        "timestamp": "2016-02-25T02:02:44Z",
        "version": 1,
        "changeset": 37426154,
        "IJSN:administra": "Municipal",
        "IJSN:classeCnae": "Fundamental",
        "addr:city": "Governador Lindenberg",
        "addr:postcode": "29720-000",
        "addr:suburb": "Comunidade de Santo Antônio de Novo Brasil",
        "alt_name": "Escola Municipal Unidocente de Ensino Fundamental",
        "amenity": "school",
        "name": "EUMEF Barra de São João de Moacir",
        "source": "IJSN",
        "id": "node/4024906906"
      },
      "geometry": {
        "type": "Point",
        "coordinates": [
          -40.3804656,
          -19.0953157
        ]
      }
    },
    {
      "type": "Feature",
      "id": "node/4024906912",
      "properties": {
        "timestamp": "2016-02-25T02:02:45Z",
        "version": 1,
        "changeset": 37426154,
        "IJSN:administra": "Municipal",
        "IJSN:classeCnae": "Fundamental",
        "addr:city": "Governador Lindenberg",
        "addr:postcode": "29720-000",
        "addr:suburb": "Cabeceira do Córrego Bolívia",
        "alt_name": "Escola Unidocente Municipal de Ensino Fundamental",
        "amenity": "school",
        "name": "EUMEF Cabeceira do Córrego Bolívia",
        "source": "IJSN",
        "id": "node/4024906912"
      },
      "geometry": {
        "type": "Point",
        "coordinates": [
          -40.4478809,
          -19.2219035
        ]
      }
    },
    {
      "type": "Feature",
      "id": "node/4024906915",
      "properties": {
        "timestamp": "2016-02-25T02:02:46Z",
        "version": 1,
        "changeset": 37426154,
        "IJSN:administra": "Municipal",
        "IJSN:classeCnae": "Fundamental",
        "addr:city": "Governador Lindenberg",
        "addr:postcode": "29720-000",
        "addr:suburb": "Córrego Bolívia",
        "alt_name": "Escola Unidocente Municipal de Ensino Fundamental",
        "amenity": "school",
        "name": "EUMEF Córrego Bolívia",
        "source": "IJSN",
        "id": "node/4024906915"
      },
      "geometry": {
        "type": "Point",
        "coordinates": [
          -40.4366016,
          -19.1986539
        ]
      }
    },
    {
      "type": "Feature",
      "id": "node/4024906916",
      "properties": {
        "timestamp": "2016-02-25T02:02:46Z",
        "version": 1,
        "changeset": 37426154,
        "IJSN:administra": "Municipal",
        "IJSN:classeCnae": "Fundamental",
        "addr:city": "Governador Lindenberg",
        "addr:postcode": "29720-000",
        "addr:suburb": "Comunidade Córrego Doutor Benvindo",
        "alt_name": "Escola Unidocente Municipal de Ensino Fundamental",
        "amenity": "school",
        "name": "EUMEF Córrego Doutor Benvindo",
        "source": "IJSN",
        "id": "node/4024906916"
      },
      "geometry": {
        "type": "Point",
        "coordinates": [
          -40.5751335,
          -19.1919984
        ]
      }
    },
    {
      "type": "Feature",
      "id": "node/4024906917",
      "properties": {
        "timestamp": "2016-02-25T02:02:46Z",
        "version": 1,
        "changeset": 37426154,
        "IJSN:administra": "Municipal",
        "IJSN:classeCnae": "Fundamental",
        "addr:city": "Governador Lindenberg",
        "addr:postcode": "29720-000",
        "addr:suburb": "Comunidade CórregoOriente",
        "alt_name": "Escola Unidocente Municipal de Ensino Fundamental",
        "amenity": "school",
        "name": "EUMEF Córrego Oriente",
        "source": "IJSN",
        "id": "node/4024906917"
      },
      "geometry": {
        "type": "Point",
        "coordinates": [
          -40.4294754,
          -19.2148502
        ]
      }
    },
    {
      "type": "Feature",
      "id": "node/4024906918",
      "properties": {
        "timestamp": "2016-02-25T02:02:46Z",
        "version": 1,
        "changeset": 37426154,
        "IJSN:administra": "Municipal",
        "IJSN:classeCnae": "Fundamental",
        "addr:city": "Governador Lindenberg",
        "addr:postcode": "29720-000",
        "addr:suburb": "Córrego Paraná",
        "alt_name": "Escola Unidocente Municipal de Ensino Fundamental",
        "amenity": "school",
        "name": "EUMEF Córrego Paraná",
        "source": "IJSN",
        "id": "node/4024906918"
      },
      "geometry": {
        "type": "Point",
        "coordinates": [
          -40.521238,
          -19.2631841
        ]
      }
    },
    {
      "type": "Feature",
      "id": "node/4024906919",
      "properties": {
        "timestamp": "2016-02-25T02:02:46Z",
        "version": 1,
        "changeset": 37426154,
        "IJSN:administra": "Municipal",
        "IJSN:classeCnae": "Fundamental",
        "addr:city": "Governador Lindenberg",
        "addr:postcode": "29720-000",
        "addr:suburb": "Comunidade Córrego Sereno",
        "alt_name": "Escola Unidocente Municipal de Ensino Fundamental",
        "amenity": "school",
        "name": "EUMEF Córrego Sereno",
        "source": "IJSN",
        "id": "node/4024906919"
      },
      "geometry": {
        "type": "Point",
        "coordinates": [
          -40.4020854,
          -19.151346
        ]
      }
    },
    {
      "type": "Feature",
      "id": "node/4024906927",
      "properties": {
        "timestamp": "2016-02-25T02:02:48Z",
        "version": 1,
        "changeset": 37426154,
        "IJSN:administra": "Municipal",
        "IJSN:classeCnae": "Fundamental",
        "addr:city": "Governador Lindenberg",
        "addr:postcode": "29720-000",
        "addr:suburb": "Comunidade Córrego Sereno",
        "alt_name": "Escola Unidocente Municipal de Ensino Fundamental",
        "amenity": "school",
        "name": "EUMEF Fazenda Bonini",
        "source": "IJSN",
        "id": "node/4024906927"
      },
      "geometry": {
        "type": "Point",
        "coordinates": [
          -40.4305134,
          -19.1780923
        ]
      }
    },
    {
      "type": "Feature",
      "id": "node/4024906928",
      "properties": {
        "timestamp": "2016-02-25T02:02:48Z",
        "version": 1,
        "changeset": 37426154,
        "IJSN:administra": "Municipal",
        "IJSN:classeCnae": "Fundamental",
        "addr:city": "Governador Lindenberg",
        "addr:postcode": "29720-000",
        "addr:suburb": "Comunidade Moacir Avidos",
        "alt_name": "Escola Unidocente Municipal de Ensino Fundamental",
        "amenity": "school",
        "name": "EUMEF Fazenda Ferreguetti",
        "source": "IJSN",
        "id": "node/4024906928"
      },
      "geometry": {
        "type": "Point",
        "coordinates": [
          -40.4995803,
          -19.2038636
        ]
      }
    },
    {
      "type": "Feature",
      "id": "node/4024906929",
      "properties": {
        "timestamp": "2016-02-25T02:02:48Z",
        "version": 1,
        "changeset": 37426154,
        "IJSN:administra": "Municipal",
        "IJSN:classeCnae": "Fundamental",
        "addr:city": "Governador Lindenberg",
        "addr:postcode": "29720-000",
        "addr:suburb": "Comunidade Fazenda Bernabé",
        "alt_name": "Escola Unidocente Municipal de Ensino Fundamental",
        "amenity": "school",
        "name": "EUMEF Fazenda Irmãos Bernabé",
        "source": "IJSN",
        "id": "node/4024906929"
      },
      "geometry": {
        "type": "Point",
        "coordinates": [
          -40.5049746,
          -19.2668739
        ]
      }
    },
    {
      "type": "Feature",
      "id": "node/4024906944",
      "properties": {
        "timestamp": "2016-02-25T02:02:50Z",
        "version": 1,
        "changeset": 37426154,
        "IJSN:administra": "Municipal",
        "IJSN:classeCnae": "Fundamental",
        "addr:city": "Governador Lindenberg",
        "addr:postcode": "29720-000",
        "addr:suburb": "Comunidade Córrego do Ouro",
        "alt_name": "Escola Unidocente Municipal de Ensino Fundamental",
        "amenity": "school",
        "contact:phone": "(27) 3744-5216",
        "name": "EUMEF Ricardo Ernesto Hoffmann",
        "source": "IJSN",
        "id": "node/4024906944"
      },
      "geometry": {
        "type": "Point",
        "coordinates": [
          -40.563744,
          -19.2265123
        ]
      }
    },
    {
      "type": "Feature",
      "id": "node/4024906948",
      "properties": {
        "timestamp": "2016-02-25T02:02:51Z",
        "version": 1,
        "changeset": 37426154,
        "IJSN:administra": "Municipal",
        "IJSN:classeCnae": "Fundamental",
        "addr:city": "Governador Lindenberg",
        "addr:postcode": "29720-000",
        "addr:suburb": "Córrego São João de Novo Brasil",
        "alt_name": "Escola Unidocente Municipal de Ensino Fundamental",
        "amenity": "school",
        "name": "EUMEF São João de Novo Brasil",
        "source": "IJSN",
        "id": "node/4024906948"
      },
      "geometry": {
        "type": "Point",
        "coordinates": [
          -40.5278246,
          -19.1585048
        ]
      }
    }
  ]
}
