{
  "type": "FeatureCollection",
  "features": [
    {
      "type": "Feature",
      "id": "node/10783339006",
      "properties": {
        "timestamp": "2023-04-04T00:04:51Z",
        "version": 1,
        "changeset": 134474143,
        "addr:housenumber": "69",
        "addr:postcode": "69680000",
        "addr:street": "Rua AguSÃ£o Pinto",
        "amenity": "nursing_home",
        "id": "node/10783339006"
      },
      "geometry": {
        "type": "Point",
        "coordinates": [
          -69.0039713,
          -3.0596951
        ]
      }
    },
    {
      "type": "Feature",
      "id": "node/10783339105",
      "properties": {
        "timestamp": "2023-04-04T00:04:49Z",
        "version": 1,
        "changeset": 134474143,
        "addr:housenumber": "69",
        "addr:postcode": "69680000",
        "addr:street": "Rua Agusto Pinto",
        "amenity": "nursing_home",
        "id": "node/10783339105"
      },
      "geometry": {
        "type": "Point",
        "coordinates": [
          -69.0039313,
          -3.0596676
        ]
      }
    }
  ]
}
