{
  "type": "FeatureCollection",
  "features": [
    {
      "type": "Feature",
      "id": "way/1243594933",
      "properties": {
        "timestamp": "2024-01-28T01:20:54Z",
        "version": 1,
        "changeset": 146763920,
        "amenity": "school",
        "name": "Escola Estadual Indígena Tupinambá",
        "id": "way/1243594933"
      },
      "geometry": {
        "type": "Polygon",
        "coordinates": [
          [
            [
              -39.2567602,
              -15.0671016
            ],
            [
              -39.2565711,
              -15.0672233
            ],
            [
              -39.2564598,
              -15.0672829
            ],
            [
              -39.2563471,
              -15.0673062
            ],
            [
              -39.2561513,
              -15.0673451
            ],
            [
              -39.2558683,
              -15.0673438
            ],
            [
              -39.2558724,
              -15.0673166
            ],
            [
              -39.2560172,
              -15.0668659
            ],
            [
              -39.2563552,
              -15.0668271
            ],
            [
              -39.2566314,
              -15.0669578
            ],
            [
              -39.2567334,
              -15.0670252
            ],
            [
              -39.2567602,
              -15.0671016
            ]
          ]
        ]
      }
    },
    {
      "type": "Feature",
      "id": "way/1289345080",
      "properties": {
        "timestamp": "2024-06-04T11:59:01Z",
        "version": 1,
        "changeset": 152240836,
        "addr:city": "Buerarema",
        "addr:postcode": "45615-000",
        "addr:street": "Avenida Goes Calmon",
        "addr:suburb": "Centro",
        "amenity": "school",
        "name": "Escola Municipal José Nery Constant",
        "operator": "Município de Buerarema",
        "operator:type": "public",
        "id": "way/1289345080"
      },
      "geometry": {
        "type": "Polygon",
        "coordinates": [
          [
            [
              -39.3035299,
              -14.9589132
            ],
            [
              -39.3029022,
              -14.958737
            ],
            [
              -39.3031624,
              -14.9579026
            ],
            [
              -39.3037123,
              -14.9581073
            ],
            [
              -39.3035299,
              -14.9589132
            ]
          ]
        ]
      }
    },
    {
      "type": "Feature",
      "id": "way/1289806222",
      "properties": {
        "timestamp": "2024-06-06T06:39:02Z",
        "version": 1,
        "changeset": 152315263,
        "addr:housenumber": "44",
        "addr:street": "Rua Vital Brasil",
        "addr:suburb": "Centro",
        "amenity": "school",
        "name": "Escola Branca de Neve",
        "id": "way/1289806222"
      },
      "geometry": {
        "type": "Polygon",
        "coordinates": [
          [
            [
              -39.301656,
              -14.9553073
            ],
            [
              -39.3017793,
              -14.9552969
            ],
            [
              -39.3017546,
              -14.9554725
            ],
            [
              -39.3017007,
              -14.9557196
            ],
            [
              -39.3016514,
              -14.9557196
            ],
            [
              -39.3016468,
              -14.9555052
            ],
            [
              -39.3015682,
              -14.9554978
            ],
            [
              -39.3015959,
              -14.9553936
            ],
            [
              -39.3016545,
              -14.955404
            ],
            [
              -39.301656,
              -14.9553073
            ]
          ]
        ]
      }
    },
    {
      "type": "Feature",
      "id": "node/3836108241",
      "properties": {
        "timestamp": "2015-11-14T17:51:08Z",
        "version": 1,
        "changeset": 35312641,
        "amenity": "school",
        "id": "node/3836108241"
      },
      "geometry": {
        "type": "Point",
        "coordinates": [
          -39.3048813,
          -14.9599469
        ]
      }
    },
    {
      "type": "Feature",
      "id": "node/10251535064",
      "properties": {
        "timestamp": "2024-06-04T03:42:13Z",
        "version": 3,
        "changeset": 152223567,
        "addr:city": "Buerarema",
        "addr:postcode": "45615000",
        "addr:street": "Avenida Paulo Portela",
        "addr:suburb": "Centro",
        "amenity": "school",
        "contact:instagram": "colegioestadualenedinaoliva",
        "email": "enedina.oliva@hotmail.com",
        "name": "Colégio Estadual Enedina Oliva",
        "opening_hours": "Mo-Fr 07:00-22:00",
        "operator": "Governo do Estado da Bahia",
        "operator:type": "public",
        "phone": "+55 73 3237 2376",
        "id": "node/10251535064"
      },
      "geometry": {
        "type": "Point",
        "coordinates": [
          -39.3023088,
          -14.955003
        ]
      }
    },
    {
      "type": "Feature",
      "id": "node/10251535068",
      "properties": {
        "timestamp": "2022-12-10T20:43:07Z",
        "version": 1,
        "changeset": 129945690,
        "addr:city": "Buerarema",
        "addr:housenumber": "05",
        "addr:postcode": "45615-000",
        "addr:street": "Rua Nove",
        "addr:suburb": "Centro",
        "amenity": "school",
        "name": "Grupo Escolar Presidente Emilio Garrastazu Medici",
        "operator": "Município de Buerarema",
        "operator:type": "public",
        "id": "node/10251535068"
      },
      "geometry": {
        "type": "Point",
        "coordinates": [
          -39.3055455,
          -14.9588856
        ]
      }
    },
    {
      "type": "Feature",
      "id": "node/10251535069",
      "properties": {
        "timestamp": "2022-12-10T20:43:07Z",
        "version": 1,
        "changeset": 129945690,
        "addr:city": "Buerarema",
        "addr:postcode": "45615-000",
        "addr:street": "Avenida Goes Calmon",
        "addr:suburb": "Centro",
        "amenity": "school",
        "name": "Grupo Escolar Juarez Alves Santana",
        "operator": "Município de Buerarema",
        "operator:type": "public",
        "id": "node/10251535069"
      },
      "geometry": {
        "type": "Point",
        "coordinates": [
          -39.3050802,
          -14.9593113
        ]
      }
    }
  ]
}
