{
  "type": "FeatureCollection",
  "features": [
    {
      "type": "Feature",
      "id": "way/1133279769",
      "properties": {
        "timestamp": "2023-01-25T12:29:29Z",
        "version": 2,
        "changeset": 131693388,
        "addr:city": "Touros",
        "addr:postcode": "59584-000",
        "addr:street": "Rua do Mercado",
        "addr:suburb": "Santa Luzia",
        "amenity": "community_centre",
        "building": "yes",
        "layer": "-1",
        "name": "Conselho Comunitário de Santa Luzia - CONSAT",
        "source": "microsoft/BuildingFootprints",
        "id": "way/1133279769"
      },
      "geometry": {
        "type": "Polygon",
        "coordinates": [
          [
            [
              -35.4758144,
              -5.3123566
            ],
            [
              -35.4759029,
              -5.3124285
            ],
            [
              -35.4758406,
              -5.3125045
            ],
            [
              -35.4757521,
              -5.3124325
            ],
            [
              -35.4758144,
              -5.3123566
            ]
          ]
        ]
      }
    },
    {
      "type": "Feature",
      "id": "way/1137024659",
      "properties": {
        "timestamp": "2023-02-07T18:59:30Z",
        "version": 2,
        "changeset": 132220624,
        "addr:city": "Touros",
        "addr:postcode": "59584-000",
        "addr:street": "Rua Principal",
        "addr:suburb": "Aracati",
        "amenity": "community_centre",
        "building": "yes",
        "name": "Associação dos Trabalhadores Rurais do Aracati",
        "source": "microsoft/BuildingFootprints",
        "id": "way/1137024659"
      },
      "geometry": {
        "type": "Polygon",
        "coordinates": [
          [
            [
              -35.6634755,
              -5.3091617
            ],
            [
              -35.6634065,
              -5.3091978
            ],
            [
              -35.6633642,
              -5.3091278
            ],
            [
              -35.6634376,
              -5.3090865
            ],
            [
              -35.6634755,
              -5.3091617
            ]
          ]
        ]
      }
    }
  ]
}
