{
  "type": "FeatureCollection",
  "features": [
    {
      "type": "Feature",
      "id": "way/186417684",
      "properties": {
        "timestamp": "2019-09-27T01:38:36Z",
        "version": 3,
        "changeset": 74985707,
        "access": "permissive",
        "addr:city": "Lavínia",
        "addr:postcode": "16850000",
        "addr:street": "Rua Deputado Plínio Salvado",
        "addr:suburb": "centro",
        "leisure": "pitch",
        "lit": "yes",
        "name": "Estadio Municipal Ary de Carvalho",
        "sport": "soccer",
        "surface": "grass",
        "id": "way/186417684"
      },
      "geometry": {
        "type": "Polygon",
        "coordinates": [
          [
            [
              -51.0446314,
              -21.1691788
            ],
            [
              -51.044082,
              -21.1694513
            ],
            [
              -51.0435956,
              -21.1685986
            ],
            [
              -51.044145,
              -21.1683261
            ],
            [
              -51.0446314,
              -21.1691788
            ]
          ]
        ]
      }
    },
    {
      "type": "Feature",
      "id": "way/543855534",
      "properties": {
        "timestamp": "2021-02-10T13:53:20Z",
        "version": 3,
        "changeset": 99046632,
        "access": "yes",
        "addr:city": "lavinia",
        "addr:postcode": "16850000",
        "addr:street": "Rua Luiz Feliciani",
        "addr:suburb": "Centro",
        "leisure": "pitch",
        "lit": "yes",
        "sport": "soccer",
        "surface": "concrete",
        "id": "way/543855534"
      },
      "geometry": {
        "type": "Polygon",
        "coordinates": [
          [
            [
              -51.0477598,
              -21.1670935
            ],
            [
              -51.0478428,
              -21.1672464
            ],
            [
              -51.0475764,
              -21.1673722
            ],
            [
              -51.0474934,
              -21.1672193
            ],
            [
              -51.0477598,
              -21.1670935
            ]
          ]
        ]
      }
    },
    {
      "type": "Feature",
      "id": "way/556541906",
      "properties": {
        "timestamp": "2019-09-27T01:38:36Z",
        "version": 2,
        "changeset": 74985707,
        "addr:city": "Lavínia",
        "addr:postcode": "16850000",
        "addr:street": "Avenida Arlindo Luiz",
        "addr:suburb": "centro",
        "leisure": "pitch",
        "lit": "yes",
        "name": "Quadra coberta",
        "sport": "soccer",
        "surface": "concrete",
        "id": "way/556541906"
      },
      "geometry": {
        "type": "Polygon",
        "coordinates": [
          [
            [
              -51.041404,
              -21.1669576
            ],
            [
              -51.041597,
              -21.1672817
            ],
            [
              -51.0413047,
              -21.1674154
            ],
            [
              -51.0411172,
              -21.1670862
            ],
            [
              -51.041404,
              -21.1669576
            ]
          ]
        ]
      }
    },
    {
      "type": "Feature",
      "id": "way/556541910",
      "properties": {
        "timestamp": "2019-09-27T01:38:36Z",
        "version": 2,
        "changeset": 74985707,
        "access": "yes",
        "addr:city": "Lavínia",
        "addr:postcode": "16850000",
        "addr:street": "Avenida Sukeyoshi Kajiwara",
        "addr:suburb": "centro",
        "leisure": "pitch",
        "lit": "no",
        "name": "Mini Campo Municipal Antonio Santaterra",
        "sport": "soccer",
        "surface": "grass",
        "id": "way/556541910"
      },
      "geometry": {
        "type": "Polygon",
        "coordinates": [
          [
            [
              -51.0408173,
              -21.1624634
            ],
            [
              -51.0410466,
              -21.1628396
            ],
            [
              -51.0408805,
              -21.1632821
            ],
            [
              -51.0405484,
              -21.1625888
            ],
            [
              -51.0408173,
              -21.1624634
            ]
          ]
        ]
      }
    }
  ]
}
