{
  "type": "FeatureCollection",
  "features": [
    {
      "type": "Feature",
      "id": "way/199377833",
      "properties": {
        "timestamp": "2020-08-31T20:09:15Z",
        "version": 5,
        "changeset": 90209423,
        "addr:housenumber": "1000",
        "addr:street": "Praça da Bandeira",
        "building": "yes",
        "name": "Grande Hotel Tamoios",
        "operator": "Sociedade Grande Hotel Tamoios de Tupã",
        "phone": "+55-14-3404-1155",
        "tourism": "hotel",
        "website": "http://www.grandehoteltamoios.com.br/",
        "id": "way/199377833"
      },
      "geometry": {
        "type": "Polygon",
        "coordinates": [
          [
            [
              -50.5142449,
              -21.9341257
            ],
            [
              -50.5143779,
              -21.9340823
            ],
            [
              -50.5145193,
              -21.934507
            ],
            [
              -50.5145132,
              -21.9346642
            ],
            [
              -50.5145902,
              -21.9346699
            ],
            [
              -50.5145748,
              -21.9348514
            ],
            [
              -50.5144962,
              -21.9348471
            ],
            [
              -50.5144814,
              -21.9349668
            ],
            [
              -50.5143221,
              -21.9349514
            ],
            [
              -50.5143591,
              -21.934607
            ],
            [
              -50.5143219,
              -21.9345849
            ],
            [
              -50.5142968,
              -21.9345497
            ],
            [
              -50.5142959,
              -21.9345349
            ],
            [
              -50.5142949,
              -21.9345178
            ],
            [
              -50.5143067,
              -21.934495
            ],
            [
              -50.5143277,
              -21.9344711
            ],
            [
              -50.5143534,
              -21.9344571
            ],
            [
              -50.5142449,
              -21.9341257
            ]
          ]
        ]
      }
    },
    {
      "type": "Feature",
      "id": "way/199377834",
      "properties": {
        "timestamp": "2014-02-07T20:38:57Z",
        "version": 3,
        "changeset": 20437266,
        "addr:city": "Tupã",
        "addr:country": "BR",
        "addr:housename": "Ki-Pão",
        "addr:housenumber": "772",
        "addr:postcode": "17601-000",
        "addr:street": "Avenida Tamoios",
        "building": "hotel",
        "internet_access": "wlan",
        "internet_access:fee": "no",
        "name": "Hotel Fema",
        "phone": "+55-14-3491-4949",
        "smoking": "no",
        "stars": "3",
        "tourism": "hotel",
        "website": "http://www.hotelfema.com.br",
        "id": "way/199377834"
      },
      "geometry": {
        "type": "Polygon",
        "coordinates": [
          [
            [
              -50.5130111,
              -21.9291245
            ],
            [
              -50.5131512,
              -21.928989
            ],
            [
              -50.5132475,
              -21.9290755
            ],
            [
              -50.5131304,
              -21.9291876
            ],
            [
              -50.5131435,
              -21.9291994
            ],
            [
              -50.5131231,
              -21.9292227
            ],
            [
              -50.5130624,
              -21.9291693
            ],
            [
              -50.5130111,
              -21.9291245
            ]
          ]
        ]
      }
    },
    {
      "type": "Feature",
      "id": "way/511129284",
      "properties": {
        "timestamp": "2019-03-03T23:47:21Z",
        "version": 5,
        "changeset": 67749965,
        "addr:city": "Tupã",
        "addr:housenumber": "825",
        "addr:postcode": "17601-000",
        "addr:street": "Avenida Tamoios",
        "addr:suburb": "Centro",
        "building": "yes",
        "email": "reservas@hotelavenidatupa.com.br",
        "fax": "+55 14 3496 1877",
        "internet_access": "wlan",
        "internet_access:fee": "no",
        "name": "Hotel e Restaurante Avenida",
        "name_1": "Hotel e Restaurante Avenida",
        "operator": "MARCATTO & SUGUITANI LTDA ME",
        "rooms": "26",
        "smoking": "outside",
        "tourism": "hotel",
        "website": "https://www.hotelavenidatupa.com.br/",
        "id": "way/511129284"
      },
      "geometry": {
        "type": "Polygon",
        "coordinates": [
          [
            [
              -50.5133924,
              -21.9297631
            ],
            [
              -50.5132962,
              -21.9298655
            ],
            [
              -50.513121,
              -21.9300274
            ],
            [
              -50.5129717,
              -21.9299225
            ],
            [
              -50.5132455,
              -21.9296417
            ],
            [
              -50.5133924,
              -21.9297631
            ]
          ]
        ]
      }
    },
    {
      "type": "Feature",
      "id": "way/563401910",
      "properties": {
        "timestamp": "2018-02-25T15:40:24Z",
        "version": 3,
        "changeset": 56664010,
        "addr:housenumber": "1877",
        "addr:street": "Avenida Tamoios",
        "building": "yes",
        "building:levels": "2",
        "email": "contato@cazuzapalacehotel.com.br",
        "name": "Cazuza Palace Hotel",
        "old_name": "Colégio Salesiano Nossa Senhora Auxiliadora",
        "phone": "+55-14-3496-5300",
        "stars": "3",
        "tourism": "hotel",
        "website": "http://www.cazuzapalacehotel.com.br/",
        "id": "way/563401910"
      },
      "geometry": {
        "type": "Polygon",
        "coordinates": [
          [
            [
              -50.5211428,
              -21.936505
            ],
            [
              -50.5208176,
              -21.9368283
            ],
            [
              -50.5207095,
              -21.9367347
            ],
            [
              -50.5209298,
              -21.9365156
            ],
            [
              -50.5206074,
              -21.9362366
            ],
            [
              -50.5203622,
              -21.9364803
            ],
            [
              -50.5202938,
              -21.9364211
            ],
            [
              -50.5201952,
              -21.9363358
            ],
            [
              -50.5202321,
              -21.9362991
            ],
            [
              -50.5202851,
              -21.936345
            ],
            [
              -50.5205982,
              -21.9360338
            ],
            [
              -50.5208752,
              -21.9362734
            ],
            [
              -50.5211428,
              -21.936505
            ]
          ]
        ]
      }
    },
    {
      "type": "Feature",
      "id": "node/2093811157",
      "properties": {
        "timestamp": "2022-06-29T06:24:58Z",
        "version": 5,
        "changeset": 122984928,
        "addr:city": "Tupã",
        "addr:country": "BR",
        "addr:housenumber": "766",
        "addr:postcode": "17601-000",
        "addr:street": "Avenida Tamoios",
        "alt_name": "Kipão",
        "amenity": "restaurant",
        "name": "Ki-Pão",
        "phone": "+55-14-3496-3161",
        "shop": "confectionery;bakery",
        "smoking": "no",
        "website": "https://www.kipaotupa.com.br/",
        "id": "node/2093811157"
      },
      "geometry": {
        "type": "Point",
        "coordinates": [
          -50.5130624,
          -21.9291693
        ]
      }
    },
    {
      "type": "Feature",
      "id": "node/2093811194",
      "properties": {
        "timestamp": "2018-02-22T12:29:35Z",
        "version": 2,
        "changeset": 56578770,
        "entrance": "main",
        "id": "node/2093811194"
      },
      "geometry": {
        "type": "Point",
        "coordinates": [
          -50.5142959,
          -21.9345349
        ]
      }
    },
    {
      "type": "Feature",
      "id": "node/5000461168",
      "properties": {
        "timestamp": "2017-07-28T18:17:48Z",
        "version": 1,
        "changeset": 50655717,
        "addr:city": "Tupã",
        "addr:housenumber": "825",
        "addr:postcode": "17601-000",
        "addr:street": "Avenida Tamoios",
        "addr:suburb": "Centro",
        "internet_access": "wlan",
        "internet_access:fee": "no",
        "name": "Hotel e Restaurante Avenida",
        "rooms": "26",
        "smoking": "outside",
        "tourism": "hotel",
        "id": "node/5000461168"
      },
      "geometry": {
        "type": "Point",
        "coordinates": [
          -50.5133209,
          -21.929704
        ]
      }
    },
    {
      "type": "Feature",
      "id": "node/5429548892",
      "properties": {
        "timestamp": "2018-02-22T17:54:17Z",
        "version": 1,
        "changeset": 56586851,
        "entrance": "main",
        "id": "node/5429548892"
      },
      "geometry": {
        "type": "Point",
        "coordinates": [
          -50.5208752,
          -21.9362734
        ]
      }
    }
  ]
}
