{
  "type": "FeatureCollection",
  "features": [
    {
      "type": "Feature",
      "id": "way/1334641729",
      "properties": {
        "timestamp": "2024-11-17T04:15:34Z",
        "version": 1,
        "changeset": 159228988,
        "addr:city": "Alambari",
        "addr:street": "Rua José Wladimir Noronha de Oliveira",
        "building": "yes",
        "government": "legislative",
        "name": "Câmara Municipal",
        "office": "government",
        "id": "way/1334641729"
      },
      "geometry": {
        "type": "Polygon",
        "coordinates": [
          [
            [
              -47.8992131,
              -23.5515758
            ],
            [
              -47.8992121,
              -23.5516525
            ],
            [
              -47.8990693,
              -23.551651
            ],
            [
              -47.8990703,
              -23.5515743
            ],
            [
              -47.8992131,
              -23.5515758
            ]
          ]
        ]
      }
    },
    {
      "type": "Feature",
      "id": "node/10592159464",
      "properties": {
        "timestamp": "2023-01-29T18:01:35Z",
        "version": 1,
        "changeset": 131849685,
        "addr:city": "Alambari",
        "addr:housenumber": "205",
        "addr:street": "Rua José Machado",
        "email": "educacao@alambari.sp.gov.br",
        "government": "education",
        "name": "Diretoria Municipal de Educação",
        "office": "government",
        "phone": "+55 15 3274-1228",
        "id": "node/10592159464"
      },
      "geometry": {
        "type": "Point",
        "coordinates": [
          -47.8971497,
          -23.5513119
        ]
      }
    }
  ]
}
