{
  "type": "FeatureCollection",
  "features": [
    {
      "type": "Feature",
      "id": "node/6069520221",
      "properties": {
        "timestamp": "2018-11-23T02:01:00Z",
        "version": 2,
        "changeset": 64797979,
        "access": "yes",
        "addr:city": "Itapemirim",
        "addr:postcode": "29330000",
        "addr:street": "Avenida Beira-Mar",
        "addr:suburb": "Itaoca",
        "fee": "yes",
        "internet_access": "yes",
        "name": "Itaoca Pousada & Camping",
        "tourism": "hotel",
        "id": "node/6069520221"
      },
      "geometry": {
        "type": "Point",
        "coordinates": [
          -40.7835756,
          -20.9095541
        ]
      }
    },
    {
      "type": "Feature",
      "id": "node/6083821366",
      "properties": {
        "timestamp": "2018-11-23T00:54:20Z",
        "version": 1,
        "changeset": 64797127,
        "addr:city": "Itapemirim",
        "addr:postcode": "29330-000",
        "addr:street": "Rua Juliana Santos",
        "addr:suburb": "Itaoca",
        "internet_access": "yes",
        "name": "Pousada Castelo",
        "tourism": "hotel",
        "id": "node/6083821366"
      },
      "geometry": {
        "type": "Point",
        "coordinates": [
          -40.7802065,
          -20.903911
        ]
      }
    },
    {
      "type": "Feature",
      "id": "node/6083884528",
      "properties": {
        "timestamp": "2018-11-23T02:00:58Z",
        "version": 1,
        "changeset": 64797979,
        "addr:city": "Itapemirim",
        "addr:postcode": "29330-000",
        "addr:street": "Avenida Itapemirim",
        "addr:suburb": "Itaipava",
        "name": "Camping & Pousada Itaipava",
        "tourism": "hotel",
        "id": "node/6083884528"
      },
      "geometry": {
        "type": "Point",
        "coordinates": [
          -40.777271,
          -20.8973233
        ]
      }
    }
  ]
}
