{
  "type": "FeatureCollection",
  "features": [
    {
      "type": "Feature",
      "id": "node/5748057789",
      "properties": {
        "timestamp": "2018-07-09T01:03:44Z",
        "version": 1,
        "changeset": 60521315,
        "addr:city": "Itapemirim",
        "addr:postcode": "29330000",
        "addr:street": "Avenida Itapemirim",
        "addr:suburb": "Itaoca",
        "amenity": "pharmacy",
        "dispensing": "yes",
        "drive_through": "no",
        "healthcare": "pharmacy",
        "name": "Drogaria El-Shaday",
        "opening_hours": "Mo-Su 07:00-21:00",
        "payment:cash": "yes",
        "payment:credit_cards": "yes",
        "id": "node/5748057789"
      },
      "geometry": {
        "type": "Point",
        "coordinates": [
          -40.7827475,
          -20.9070971
        ]
      }
    },
    {
      "type": "Feature",
      "id": "node/6069429789",
      "properties": {
        "timestamp": "2018-11-17T22:46:31Z",
        "version": 1,
        "changeset": 64608554,
        "addr:city": "Itapemirim",
        "addr:postcode": "29330000",
        "addr:suburb": "Itaoca",
        "amenity": "pharmacy",
        "dispensing": "yes",
        "healthcare": "pharmacy",
        "name": "Drogaria Pague Menos",
        "id": "node/6069429789"
      },
      "geometry": {
        "type": "Point",
        "coordinates": [
          -40.782673,
          -20.9072478
        ]
      }
    }
  ]
}
