{
  "type": "FeatureCollection",
  "features": [
    {
      "type": "Feature",
      "id": "way/150153916",
      "properties": {
        "timestamp": "2016-02-25T02:03:09Z",
        "version": 2,
        "changeset": 37426154,
        "IJSN:administra": "Estadual",
        "IJSN:classeCnae": "Fundamental e Médio",
        "addr:city": "Itapemirim",
        "addr:housenumber": "123",
        "addr:postcode": "29330-000",
        "addr:street": "Avenida Cristiano Marcondes de Souza",
        "addr:suburb": "Centro",
        "alt_name": "Escola Estadual de Ensino Fundamental e Médio",
        "amenity": "school",
        "contact:phone": "(28) 3529-6685 / 3529-6519",
        "name": "EEEFM Washington Pinheiro Meirelles",
        "source": "IJSN",
        "id": "way/150153916"
      },
      "geometry": {
        "type": "Polygon",
        "coordinates": [
          [
            [
              -40.8285481,
              -21.0095912
            ],
            [
              -40.8284668,
              -21.0106855
            ],
            [
              -40.8280157,
              -21.0106563
            ],
            [
              -40.8280998,
              -21.0095375
            ],
            [
              -40.8285481,
              -21.0095912
            ]
          ]
        ]
      }
    },
    {
      "type": "Feature",
      "id": "way/990185034",
      "properties": {
        "timestamp": "2021-10-05T22:43:12Z",
        "version": 1,
        "changeset": 112143543,
        "amenity": "school",
        "id": "way/990185034"
      },
      "geometry": {
        "type": "Polygon",
        "coordinates": [
          [
            [
              -40.922617,
              -20.9314418
            ],
            [
              -40.9224963,
              -20.9312676
            ],
            [
              -40.9226223,
              -20.931205
            ],
            [
              -40.9227511,
              -20.9313704
            ],
            [
              -40.922617,
              -20.9314418
            ]
          ]
        ]
      }
    },
    {
      "type": "Feature",
      "id": "way/1013385550",
      "properties": {
        "timestamp": "2021-12-18T21:01:16Z",
        "version": 1,
        "changeset": 115109082,
        "addr:city": "Itapemirim",
        "addr:postcode": "29338-000",
        "addr:street": "Rua Ouro Preto",
        "addr:suburb": "Itaipava",
        "amenity": "school",
        "id": "way/1013385550"
      },
      "geometry": {
        "type": "Polygon",
        "coordinates": [
          [
            [
              -40.7761497,
              -20.8918289
            ],
            [
              -40.7760899,
              -20.8917631
            ],
            [
              -40.7761087,
              -20.8917483
            ],
            [
              -40.7760731,
              -20.8917092
            ],
            [
              -40.7760814,
              -20.8916968
            ],
            [
              -40.7760363,
              -20.8916477
            ],
            [
              -40.7764772,
              -20.8912948
            ],
            [
              -40.7764955,
              -20.8913148
            ],
            [
              -40.7766313,
              -20.8912066
            ],
            [
              -40.7767367,
              -20.8913221
            ],
            [
              -40.7766036,
              -20.8914281
            ],
            [
              -40.7766251,
              -20.8914517
            ],
            [
              -40.7761497,
              -20.8918289
            ]
          ]
        ]
      }
    },
    {
      "type": "Feature",
      "id": "node/1766029496",
      "properties": {
        "timestamp": "2017-01-10T11:40:05Z",
        "version": 5,
        "changeset": 45048537,
        "amenity": "school",
        "name": "Pestalozzi de Itapemirim",
        "id": "node/1766029496"
      },
      "geometry": {
        "type": "Point",
        "coordinates": [
          -40.835534,
          -21.0092988
        ]
      }
    },
    {
      "type": "Feature",
      "id": "node/2856648509",
      "properties": {
        "timestamp": "2016-02-25T02:03:27Z",
        "version": 2,
        "changeset": 37426154,
        "IJSN:administra": "Estadual",
        "IJSN:classeCnae": "Fundamental",
        "addr:city": "Itapemirim",
        "addr:postcode": "29342-000",
        "addr:street": "Rodovia Safra x Marataizes",
        "addr:suburb": "Comunidade Graúna",
        "alt_name": "Escola Estadual de Ensino Fundamental",
        "amenity": "school",
        "name": "EEEF Graúna",
        "source": "IJSN",
        "id": "node/2856648509"
      },
      "geometry": {
        "type": "Point",
        "coordinates": [
          -40.9125851,
          -21.0322888
        ]
      }
    },
    {
      "type": "Feature",
      "id": "node/4024904454",
      "properties": {
        "timestamp": "2016-02-25T01:59:23Z",
        "version": 1,
        "changeset": 37426154,
        "IJSN:administra": "Estadual",
        "IJSN:classeCnae": "Fundamental",
        "addr:city": "Itapemirim",
        "addr:postcode": "29330-000",
        "addr:street": "Avenida Itapemirim",
        "addr:suburb": "Itaoca",
        "alt_name": "Escola Estadual de Ensino Fundamental",
        "amenity": "school",
        "contact:phone": "(28) 3529-1003",
        "name": "EEEF Itaoca",
        "source": "IJSN",
        "id": "node/4024904454"
      },
      "geometry": {
        "type": "Point",
        "coordinates": [
          -40.7792415,
          -20.9030305
        ]
      }
    },
    {
      "type": "Feature",
      "id": "node/4024904480",
      "properties": {
        "timestamp": "2016-02-25T01:59:28Z",
        "version": 1,
        "changeset": 37426154,
        "IJSN:administra": "Estadual",
        "IJSN:classeCnae": "Fundamental e Médio",
        "addr:city": "Itapemirim",
        "addr:housenumber": "28",
        "addr:postcode": "29330-000",
        "addr:street": "Rua Principal",
        "addr:suburb": "Garrafão",
        "alt_name": "Escola Estadual de Ensino Fundamental e Médio",
        "amenity": "school",
        "contact:phone": "(27) 3529-9299 / 3529-9074 / 3529-9299",
        "name": "EEEFM Antônio Jacques Soares",
        "source": "IJSN",
        "id": "node/4024904480"
      },
      "geometry": {
        "type": "Point",
        "coordinates": [
          -41.0032495,
          -20.990171
        ]
      }
    },
    {
      "type": "Feature",
      "id": "node/4024904818",
      "properties": {
        "timestamp": "2018-11-19T22:54:05Z",
        "version": 3,
        "changeset": 64674948,
        "IJSN:administra": "Estadual",
        "IJSN:classeCnae": "Fundamental e Médio",
        "addr:city": "Itapemirim",
        "addr:postcode": "29338-000",
        "addr:street": "Rua Luzia Lucas",
        "addr:suburb": "Itaipava",
        "alt_name": "Escola Estadual de Ensino Fundamental e Médio",
        "amenity": "school",
        "contact:phone": "+55 28 3529-1212",
        "description": "Prédio atualmente desativa. Está operante em outro prédio e localidade.",
        "name": "Antiga escola \"EEEFM Leopoldino Rocha\"",
        "source": "IJSN",
        "id": "node/4024904818"
      },
      "geometry": {
        "type": "Point",
        "coordinates": [
          -40.7815893,
          -20.8951677
        ]
      }
    },
    {
      "type": "Feature",
      "id": "node/4024905622",
      "properties": {
        "timestamp": "2016-02-25T02:00:42Z",
        "version": 1,
        "changeset": 37426154,
        "IJSN:administra": "Municipal",
        "IJSN:classeCnae": "Fundamental",
        "addr:city": "Itapemirim",
        "addr:housenumber": "40",
        "addr:postcode": "29330-000",
        "addr:street": "Praça Domingos Martins",
        "addr:suburb": "Centro",
        "alt_name": "Escola Municipal de Ensino Fundamental",
        "amenity": "school",
        "name": "EMEF Narciso Araújo",
        "source": "IJSN",
        "id": "node/4024905622"
      },
      "geometry": {
        "type": "Point",
        "coordinates": [
          -40.8328004,
          -21.0096044
        ]
      }
    },
    {
      "type": "Feature",
      "id": "node/4024905759",
      "properties": {
        "timestamp": "2016-02-25T02:01:04Z",
        "version": 1,
        "changeset": 37426154,
        "IJSN:administra": "Municipal",
        "IJSN:classeCnae": "Infantil e Fundamental",
        "addr:city": "Itapemirim",
        "addr:postcode": "29330-000",
        "addr:suburb": "Campo Acima",
        "alt_name": "Escola Municipal de Ensino Infantil e Fundamental",
        "amenity": "school",
        "name": "EMEIEF Anacleto Jacinto Ribeiro",
        "source": "IJSN",
        "id": "node/4024905759"
      },
      "geometry": {
        "type": "Point",
        "coordinates": [
          -40.8571998,
          -21.0294714
        ]
      }
    },
    {
      "type": "Feature",
      "id": "node/4024905781",
      "properties": {
        "timestamp": "2016-02-25T02:01:08Z",
        "version": 1,
        "changeset": 37426154,
        "IJSN:administra": "Municipal",
        "IJSN:classeCnae": "Infantil e Fundamental",
        "addr:city": "Itapemirim",
        "addr:postcode": "29330-000",
        "addr:street": "Rua Bonfim",
        "addr:suburb": "Itaoca",
        "alt_name": "Escola Municipal de Ensino Infantil e Fundamental",
        "amenity": "school",
        "contact:phone": "(28) 3529-1727",
        "name": "EMEIEF Elvira Meale Lesqueves",
        "source": "IJSN",
        "id": "node/4024905781"
      },
      "geometry": {
        "type": "Point",
        "coordinates": [
          -40.7853989,
          -20.9052028
        ]
      }
    },
    {
      "type": "Feature",
      "id": "node/4024905787",
      "properties": {
        "timestamp": "2016-02-25T02:01:09Z",
        "version": 1,
        "changeset": 37426154,
        "IJSN:administra": "Municipal",
        "IJSN:classeCnae": "Infantil e Fundamental",
        "addr:city": "Itapemirim",
        "addr:postcode": "29330-000",
        "addr:street": "Rua Projetada",
        "addr:suburb": "Comunidade Rio Muqui",
        "alt_name": "Escola Municipal de Ensino Infantil e Fundamental",
        "amenity": "school",
        "contact:phone": "(28) 3529-9296",
        "name": "EMEIEF Florêncio Bento Alves",
        "source": "IJSN",
        "id": "node/4024905787"
      },
      "geometry": {
        "type": "Point",
        "coordinates": [
          -41.024243,
          -20.9789145
        ]
      }
    },
    {
      "type": "Feature",
      "id": "node/4024905899",
      "properties": {
        "timestamp": "2016-02-25T02:01:11Z",
        "version": 1,
        "changeset": 37426154,
        "IJSN:administra": "Municipal",
        "IJSN:classeCnae": "Infantil e Fundamental",
        "addr:city": "Itapemirim",
        "addr:postcode": "29342-000",
        "addr:street": "Rua Mineira",
        "addr:suburb": "Comunidade Paineiras",
        "alt_name": "Escola Municipal de Ensino Infantil e Fundamental",
        "amenity": "school",
        "contact:phone": "(27) 3529-8033",
        "name": "EMEIEF Josepha Miranda de Carvalho Brito",
        "source": "IJSN",
        "id": "node/4024905899"
      },
      "geometry": {
        "type": "Point",
        "coordinates": [
          -40.9562907,
          -20.9569025
        ]
      }
    },
    {
      "type": "Feature",
      "id": "node/4024905909",
      "properties": {
        "timestamp": "2016-02-25T02:01:13Z",
        "version": 1,
        "changeset": 37426154,
        "IJSN:administra": "Municipal",
        "IJSN:classeCnae": "Infantil e Fundamental",
        "addr:city": "Itapemirim",
        "addr:postcode": "29338-000",
        "addr:street": "Rua Bomfim",
        "addr:suburb": "Itaoca",
        "alt_name": "Escola Municipal de Ensino Infantil e Fundamental",
        "amenity": "school",
        "name": "EMEIEF Luiz João Gomes",
        "source": "IJSN",
        "id": "node/4024905909"
      },
      "geometry": {
        "type": "Point",
        "coordinates": [
          -40.7949385,
          -20.903162
        ]
      }
    },
    {
      "type": "Feature",
      "id": "node/4024905912",
      "properties": {
        "timestamp": "2021-12-18T21:01:16Z",
        "version": 3,
        "changeset": 115109082,
        "IJSN:administra": "Municipal",
        "IJSN:classeCnae": "Infantil e Fundamental",
        "addr:city": "Itapemirim",
        "addr:housenumber": "150",
        "addr:postcode": "29330-000",
        "addr:street": "Avenida Itapemirim",
        "addr:suburb": "Itaipava",
        "alt_name": "Escola Municipal de Ensino Infantil e Fundamental",
        "amenity": "school",
        "contact:phone": "(27) 3529-3097",
        "name": "EMEIEF Magdalena Pisa",
        "source": "IJSN",
        "id": "node/4024905912"
      },
      "geometry": {
        "type": "Point",
        "coordinates": [
          -40.7761076,
          -20.8916315
        ]
      }
    },
    {
      "type": "Feature",
      "id": "node/4024905917",
      "properties": {
        "timestamp": "2021-09-15T12:09:03Z",
        "version": 3,
        "changeset": 111242210,
        "IJSN:administra": "Municipal",
        "IJSN:classeCnae": "Infantil e Fundamental",
        "addr:city": "Itapemirim",
        "addr:postcode": "29330-000",
        "addr:suburb": "Itapecoá",
        "alt_name": "Escola Municipal de Ensino Infantil e Fundamental",
        "amenity": "school",
        "name": "Escola Municipal de Ensino Infantil e Fundamental Norma Vicente Ferreira",
        "source": "IJSN",
        "id": "node/4024905917"
      },
      "geometry": {
        "type": "Point",
        "coordinates": [
          -40.9911328,
          -20.8902273
        ]
      }
    },
    {
      "type": "Feature",
      "id": "node/4024905926",
      "properties": {
        "timestamp": "2016-02-25T02:01:15Z",
        "version": 1,
        "changeset": 37426154,
        "IJSN:administra": "Municipal",
        "IJSN:classeCnae": "Infantil e Fundamental",
        "addr:city": "Itapemirim",
        "addr:postcode": "29330-000",
        "addr:street": "Rua Inês Xavier",
        "addr:suburb": "Gomes",
        "alt_name": "Escola Municipal de Ensino Infantil e Fundamental",
        "amenity": "school",
        "name": "EMEIEF Pedro Siqueira",
        "source": "IJSN",
        "id": "node/4024905926"
      },
      "geometry": {
        "type": "Point",
        "coordinates": [
          -40.8171729,
          -20.9216972
        ]
      }
    },
    {
      "type": "Feature",
      "id": "node/4024905981",
      "properties": {
        "timestamp": "2016-02-25T02:01:24Z",
        "version": 1,
        "changeset": 37426154,
        "IJSN:administra": "Municipal",
        "IJSN:classeCnae": "Infantil e Fundamental",
        "addr:city": "Itapemirim",
        "addr:postcode": "29330-000",
        "addr:suburb": "Comunidade Limão",
        "alt_name": "Escola Municipal Pluridocente de Ensino Fundamental",
        "amenity": "school",
        "name": "EMPEF Afonsos",
        "source": "IJSN",
        "id": "node/4024905981"
      },
      "geometry": {
        "type": "Point",
        "coordinates": [
          -40.9195153,
          -20.955437
        ]
      }
    },
    {
      "type": "Feature",
      "id": "node/4024906093",
      "properties": {
        "timestamp": "2016-02-25T02:01:26Z",
        "version": 1,
        "changeset": 37426154,
        "IJSN:administra": "Municipal",
        "IJSN:classeCnae": "Infantil e Fundamental",
        "addr:city": "Itapemirim",
        "addr:postcode": "29330-000",
        "addr:suburb": "Comunidade Garrafão",
        "alt_name": "Escola Municipal Pluridocente de Ensino Fundamental",
        "amenity": "school",
        "name": "EMPEF Barbados",
        "source": "IJSN",
        "id": "node/4024906093"
      },
      "geometry": {
        "type": "Point",
        "coordinates": [
          -40.9920904,
          -20.9838246
        ]
      }
    },
    {
      "type": "Feature",
      "id": "node/4024906099",
      "properties": {
        "timestamp": "2016-02-25T02:01:27Z",
        "version": 1,
        "changeset": 37426154,
        "IJSN:administra": "Municipal",
        "IJSN:classeCnae": "Infantil e Fundamental",
        "addr:city": "Itapemirim",
        "addr:postcode": "29330-000",
        "addr:suburb": "Comunidade Bom Será",
        "alt_name": "Escola Municipal Pluridocente de Ensino Fundamental",
        "amenity": "school",
        "name": "EMPEF Bom Será",
        "source": "IJSN",
        "id": "node/4024906099"
      },
      "geometry": {
        "type": "Point",
        "coordinates": [
          -40.8870162,
          -20.962737
        ]
      }
    },
    {
      "type": "Feature",
      "id": "node/4024906101",
      "properties": {
        "timestamp": "2016-02-25T02:01:27Z",
        "version": 1,
        "changeset": 37426154,
        "IJSN:administra": "Municipal",
        "IJSN:classeCnae": "Fundamental",
        "addr:city": "Itapemirim",
        "addr:postcode": "29330-000",
        "addr:suburb": "Brejo Grande do Sul",
        "alt_name": "Escola Municipal Pluridocente de Ensino Fundamental",
        "amenity": "school",
        "name": "EMPEF Brejo Grande do Sul",
        "source": "IJSN",
        "id": "node/4024906101"
      },
      "geometry": {
        "type": "Point",
        "coordinates": [
          -40.9547069,
          -20.9329657
        ]
      }
    },
    {
      "type": "Feature",
      "id": "node/4024906114",
      "properties": {
        "timestamp": "2016-02-25T02:01:30Z",
        "version": 1,
        "changeset": 37426154,
        "IJSN:administra": "Municipal",
        "IJSN:classeCnae": "Infantil e Fundamental",
        "addr:city": "Itapemirim",
        "addr:postcode": "29330-000",
        "addr:suburb": "Comunidade Brejo Grande do Norte",
        "alt_name": "Escola Municipal Pluridocente de Ensino Fundamental",
        "amenity": "school",
        "name": "EMPEF Desengano",
        "source": "IJSN",
        "id": "node/4024906114"
      },
      "geometry": {
        "type": "Point",
        "coordinates": [
          -40.9592552,
          -21.0178755
        ]
      }
    },
    {
      "type": "Feature",
      "id": "node/4024906136",
      "properties": {
        "timestamp": "2016-02-25T02:01:33Z",
        "version": 1,
        "changeset": 37426154,
        "IJSN:administra": "Municipal",
        "IJSN:classeCnae": "Infantil e Fundamental",
        "addr:city": "Itapemirim",
        "addr:postcode": "29330-000",
        "addr:suburb": "Comunidade Limão",
        "alt_name": "Escola Municipal Pluridocente de Ensino Fundamental",
        "amenity": "school",
        "name": "EMPEF Limão",
        "source": "IJSN",
        "id": "node/4024906136"
      },
      "geometry": {
        "type": "Point",
        "coordinates": [
          -40.9121982,
          -20.9819253
        ]
      }
    },
    {
      "type": "Feature",
      "id": "node/4024906138",
      "properties": {
        "timestamp": "2016-02-25T02:01:34Z",
        "version": 1,
        "changeset": 37426154,
        "IJSN:administra": "Municipal",
        "IJSN:classeCnae": "Infantil e Fundamental",
        "addr:city": "Itapemirim",
        "addr:postcode": "29330-000",
        "addr:suburb": "Comunidade São José do Frade",
        "alt_name": "Escola Municipal Pluridocente de Ensino Fundamental",
        "amenity": "school",
        "name": "EMPEF Manoel Marcondes de Souza",
        "source": "IJSN",
        "id": "node/4024906138"
      },
      "geometry": {
        "type": "Point",
        "coordinates": [
          -41.00545,
          -20.8934502
        ]
      }
    },
    {
      "type": "Feature",
      "id": "node/4024906147",
      "properties": {
        "timestamp": "2021-10-05T22:43:12Z",
        "version": 2,
        "changeset": 112143543,
        "IJSN:administra": "Municipal",
        "IJSN:classeCnae": "Infantil e Fundamental",
        "addr:city": "Itapemirim",
        "addr:postcode": "29330-000",
        "addr:suburb": "Comunidade Palmital",
        "alt_name": "Escola Municipal Pluridocente de Ensino Fundamental",
        "amenity": "school",
        "name": "EMPEF Palmital",
        "source": "IJSN",
        "id": "node/4024906147"
      },
      "geometry": {
        "type": "Point",
        "coordinates": [
          -40.9226145,
          -20.9313215
        ]
      }
    },
    {
      "type": "Feature",
      "id": "node/4024906150",
      "properties": {
        "timestamp": "2016-02-25T02:01:36Z",
        "version": 1,
        "changeset": 37426154,
        "IJSN:administra": "Municipal",
        "IJSN:classeCnae": "Infantil e Fundamental",
        "addr:city": "Itapemirim",
        "addr:postcode": "29330-000",
        "addr:suburb": "Comunidade Pedra",
        "alt_name": "Escola Municipal Pluridocente de Ensino Fundamental",
        "amenity": "school",
        "name": "EMPEF Pedra",
        "source": "IJSN",
        "id": "node/4024906150"
      },
      "geometry": {
        "type": "Point",
        "coordinates": [
          -40.9517106,
          -20.9505132
        ]
      }
    },
    {
      "type": "Feature",
      "id": "node/4024906160",
      "properties": {
        "timestamp": "2020-07-14T13:51:40Z",
        "version": 2,
        "changeset": 87981875,
        "IJSN:administra": "Municipal",
        "IJSN:classeCnae": "Fundamental",
        "addr:city": "Itapemirim",
        "addr:postcode": "29330-000",
        "addr:suburb": "Comunidade Ilha do Gato",
        "alt_name": "Escola Municipal Pluridocente de Ensino Fundamental",
        "amenity": "school",
        "name": "EMPEF Santa Helena",
        "source": "IJSN",
        "id": "node/4024906160"
      },
      "geometry": {
        "type": "Point",
        "coordinates": [
          -40.9070491,
          -20.9005405
        ]
      }
    },
    {
      "type": "Feature",
      "id": "node/4024906163",
      "properties": {
        "timestamp": "2016-02-25T02:01:38Z",
        "version": 1,
        "changeset": 37426154,
        "IJSN:administra": "Municipal",
        "IJSN:classeCnae": "Infantil e Fundamental",
        "addr:city": "Itapemirim",
        "addr:postcode": "29330-000",
        "addr:suburb": "Comunidade Santo Amaro",
        "alt_name": "Escola Municipal Pluridocente de Ensino Fundamental",
        "amenity": "school",
        "name": "EMPEF Santo Amaro",
        "source": "IJSN",
        "id": "node/4024906163"
      },
      "geometry": {
        "type": "Point",
        "coordinates": [
          -40.8790718,
          -20.9224976
        ]
      }
    },
    {
      "type": "Feature",
      "id": "node/4024906248",
      "properties": {
        "timestamp": "2016-02-25T02:01:51Z",
        "version": 1,
        "changeset": 37426154,
        "IJSN:administra": "Municipal",
        "IJSN:classeCnae": "Fundamental",
        "addr:city": "Itapemirim",
        "addr:postcode": "29330-000",
        "addr:suburb": "Comunidade Caxeta",
        "alt_name": "Escola Municipal Unidocente de Ensino Fundamental",
        "amenity": "school",
        "name": "EMUEF Caxeta",
        "source": "IJSN",
        "id": "node/4024906248"
      },
      "geometry": {
        "type": "Point",
        "coordinates": [
          -41.0316336,
          -20.9648517
        ]
      }
    },
    {
      "type": "Feature",
      "id": "node/4024906252",
      "properties": {
        "timestamp": "2016-02-25T02:01:51Z",
        "version": 1,
        "changeset": 37426154,
        "IJSN:administra": "Municipal",
        "IJSN:classeCnae": "Fundamental",
        "addr:city": "Itapemirim",
        "addr:postcode": "29330-000",
        "addr:suburb": "Comunidade Santa Maria do frade",
        "alt_name": "Escola Municipal Unidocente de Ensino Fundamental",
        "amenity": "school",
        "name": "EMUEF Colheres",
        "source": "IJSN",
        "id": "node/4024906252"
      },
      "geometry": {
        "type": "Point",
        "coordinates": [
          -41.0120417,
          -20.8941616
        ]
      }
    },
    {
      "type": "Feature",
      "id": "node/4024906296",
      "properties": {
        "timestamp": "2016-02-25T02:01:58Z",
        "version": 1,
        "changeset": 37426154,
        "IJSN:administra": "Municipal",
        "IJSN:classeCnae": "Fundamental",
        "addr:city": "Itapemirim",
        "addr:postcode": "29330-000",
        "addr:suburb": "Comunidade Sapucaia",
        "alt_name": "Escola Municipal Unidocente de Ensino Fundamental",
        "amenity": "school",
        "name": "EMUEF Fazenda Adelaide",
        "source": "IJSN",
        "id": "node/4024906296"
      },
      "geometry": {
        "type": "Point",
        "coordinates": [
          -40.9473853,
          -20.893509
        ]
      }
    },
    {
      "type": "Feature",
      "id": "node/4024906309",
      "properties": {
        "timestamp": "2016-02-25T02:02:00Z",
        "version": 1,
        "changeset": 37426154,
        "IJSN:administra": "Municipal",
        "IJSN:classeCnae": "Fundamental",
        "addr:city": "Itapemirim",
        "addr:postcode": "29330-000",
        "addr:suburb": "Comunidade Fazenda Velha",
        "alt_name": "Escola Municipal Unidocente de Ensino Fundamental",
        "amenity": "school",
        "name": "EMUEF Fazenda Velha",
        "source": "IJSN",
        "id": "node/4024906309"
      },
      "geometry": {
        "type": "Point",
        "coordinates": [
          -40.862533,
          -20.9395239
        ]
      }
    },
    {
      "type": "Feature",
      "id": "node/4024906320",
      "properties": {
        "timestamp": "2016-02-25T02:02:01Z",
        "version": 1,
        "changeset": 37426154,
        "IJSN:administra": "Municipal",
        "IJSN:classeCnae": "Fundamental",
        "addr:city": "Itapemirim",
        "addr:postcode": "29330-000",
        "addr:street": "Fazenda Hilton Machado",
        "addr:suburb": "Fazenda Hilton Machado",
        "alt_name": "Escola Municipal Unidocente de Ensino Fundamental",
        "amenity": "school",
        "name": "EMUEF Hilton Machado",
        "source": "IJSN",
        "id": "node/4024906320"
      },
      "geometry": {
        "type": "Point",
        "coordinates": [
          -41.0175809,
          -20.9805412
        ]
      }
    },
    {
      "type": "Feature",
      "id": "node/4024906321",
      "properties": {
        "timestamp": "2016-02-25T02:02:01Z",
        "version": 1,
        "changeset": 37426154,
        "IJSN:administra": "Municipal",
        "IJSN:classeCnae": "Fundamental",
        "addr:city": "Itapemirim",
        "addr:postcode": "29330-000",
        "addr:suburb": "Comunidade Ilha do Leandro",
        "alt_name": "Escola Municipal Unidocente de Ensino Fundamental",
        "amenity": "school",
        "name": "EMUEF Ilha do Leandro",
        "source": "IJSN",
        "id": "node/4024906321"
      },
      "geometry": {
        "type": "Point",
        "coordinates": [
          -40.8654519,
          -20.8995935
        ]
      }
    },
    {
      "type": "Feature",
      "id": "node/4024906324",
      "properties": {
        "timestamp": "2016-02-25T02:02:02Z",
        "version": 1,
        "changeset": 37426154,
        "IJSN:administra": "Municipal",
        "IJSN:classeCnae": "Infantil e Fundamental",
        "addr:city": "Itapemirim",
        "addr:postcode": "29330-000",
        "addr:suburb": "Conceição do Palmital",
        "alt_name": "Escola Municipal Unidocente de Ensino Fundamental",
        "amenity": "school",
        "name": "EMUEF Irmãos Kennedy",
        "source": "IJSN",
        "id": "node/4024906324"
      },
      "geometry": {
        "type": "Point",
        "coordinates": [
          -40.9133936,
          -20.9407381
        ]
      }
    },
    {
      "type": "Feature",
      "id": "node/4024906344",
      "properties": {
        "timestamp": "2016-02-25T02:02:05Z",
        "version": 1,
        "changeset": 37426154,
        "IJSN:administra": "Municipal",
        "IJSN:classeCnae": "Infantil e Fundamental",
        "addr:city": "Itapemirim",
        "addr:postcode": "29330-000",
        "addr:street": "Rodovia Frade-Freira",
        "addr:suburb": "Comunidade Luanda",
        "alt_name": "Escola Municipal Unidocente de Ensino Fundamental",
        "amenity": "school",
        "name": "EMUEF O Frade e a Freira",
        "source": "IJSN",
        "id": "node/4024906344"
      },
      "geometry": {
        "type": "Point",
        "coordinates": [
          -41.0314756,
          -20.89185
        ]
      }
    },
    {
      "type": "Feature",
      "id": "node/4024906355",
      "properties": {
        "timestamp": "2016-02-25T02:02:06Z",
        "version": 1,
        "changeset": 37426154,
        "IJSN:administra": "Municipal",
        "IJSN:classeCnae": "Infantil e Fundamental",
        "addr:city": "Itapemirim",
        "addr:postcode": "29330-000",
        "addr:suburb": "Brejo Grande do Sul",
        "alt_name": "Escola Municipal Unidocente de Ensino Fundamental",
        "amenity": "school",
        "name": "EMUEF Pedra Branca",
        "source": "IJSN",
        "id": "node/4024906355"
      },
      "geometry": {
        "type": "Point",
        "coordinates": [
          -40.9504343,
          -20.931291
        ]
      }
    },
    {
      "type": "Feature",
      "id": "node/4024906360",
      "properties": {
        "timestamp": "2016-02-25T02:02:07Z",
        "version": 1,
        "changeset": 37426154,
        "IJSN:administra": "Municipal",
        "IJSN:classeCnae": "Infantil e Fundamental",
        "addr:city": "Itapemirim",
        "addr:postcode": "29330-000",
        "addr:street": "Fazenda Penha",
        "addr:suburb": "Fazenda Penha",
        "alt_name": "Escola Municipal Unidocente de Ensino Fundamental",
        "amenity": "school",
        "name": "EMUEF Penha",
        "source": "IJSN",
        "id": "node/4024906360"
      },
      "geometry": {
        "type": "Point",
        "coordinates": [
          -40.8911486,
          -20.9170617
        ]
      }
    },
    {
      "type": "Feature",
      "id": "node/4024906361",
      "properties": {
        "timestamp": "2016-02-25T02:02:07Z",
        "version": 1,
        "changeset": 37426154,
        "IJSN:administra": "Municipal",
        "IJSN:classeCnae": "Fundamental",
        "addr:city": "Itapemirim",
        "addr:postcode": "29330-000",
        "addr:suburb": "Comunidade Piabanha do Norte",
        "alt_name": "Escola Municipal Unidocente de Ensino Fundamental",
        "amenity": "school",
        "name": "EMUEF Piabanha do Norte",
        "source": "IJSN",
        "id": "node/4024906361"
      },
      "geometry": {
        "type": "Point",
        "coordinates": [
          -40.880683,
          -20.9403902
        ]
      }
    },
    {
      "type": "Feature",
      "id": "node/4024906363",
      "properties": {
        "timestamp": "2016-02-25T02:02:08Z",
        "version": 1,
        "changeset": 37426154,
        "IJSN:administra": "Municipal",
        "IJSN:classeCnae": "Infantil e Fundamental",
        "addr:city": "Itapemirim",
        "addr:postcode": "29330-000",
        "addr:street": "Rua Projetada",
        "addr:suburb": "Cohab Portal de Paineiras",
        "alt_name": "Escola Municipal Unidocente de Ensino Fundamental",
        "amenity": "school",
        "name": "EMUEF Portal de Paineiras",
        "source": "IJSN",
        "id": "node/4024906363"
      },
      "geometry": {
        "type": "Point",
        "coordinates": [
          -40.9803939,
          -20.9810135
        ]
      }
    },
    {
      "type": "Feature",
      "id": "node/4024906371",
      "properties": {
        "timestamp": "2016-02-25T02:02:09Z",
        "version": 1,
        "changeset": 37426154,
        "IJSN:administra": "Municipal",
        "IJSN:classeCnae": "Fundamental",
        "addr:city": "Itapemirim",
        "addr:postcode": "29330-000",
        "addr:suburb": "Comunidade Retiro",
        "alt_name": "Escola Municipal Unidocente de Ensino Fundamental",
        "amenity": "school",
        "name": "EMUEF Retiro",
        "source": "IJSN",
        "id": "node/4024906371"
      },
      "geometry": {
        "type": "Point",
        "coordinates": [
          -40.8973166,
          -20.9464432
        ]
      }
    },
    {
      "type": "Feature",
      "id": "node/4024906596",
      "properties": {
        "timestamp": "2016-02-25T02:02:12Z",
        "version": 1,
        "changeset": 37426154,
        "IJSN:administra": "Municipal",
        "IJSN:classeCnae": "Fundamental",
        "addr:city": "Itapemirim",
        "addr:postcode": "29330-000",
        "addr:suburb": "São João do Calafate",
        "alt_name": "Escola Municipal Unidocente de Ensino Fundamental",
        "amenity": "school",
        "name": "EMUEF São João de Calafate",
        "source": "IJSN",
        "id": "node/4024906596"
      },
      "geometry": {
        "type": "Point",
        "coordinates": [
          -40.9487288,
          -20.9973176
        ]
      }
    },
    {
      "type": "Feature",
      "id": "node/4457713695",
      "properties": {
        "timestamp": "2017-01-10T11:40:08Z",
        "version": 2,
        "changeset": 45048537,
        "amenity": "school",
        "name": "UAB - Universidade Aberta do Brasil - Pólo Itapemirim",
        "id": "node/4457713695"
      },
      "geometry": {
        "type": "Point",
        "coordinates": [
          -40.8283894,
          -21.0093754
        ]
      }
    },
    {
      "type": "Feature",
      "id": "node/6074708352",
      "properties": {
        "timestamp": "2018-11-19T22:54:04Z",
        "version": 1,
        "changeset": 64674948,
        "amenity": "school",
        "description": "Atual prédio de operação da escola \"EEEFM Leopoldino Rocha\".",
        "name": "EEEFM Leopoldino Rocha",
        "operator": "Governo Estadual",
        "id": "node/6074708352"
      },
      "geometry": {
        "type": "Point",
        "coordinates": [
          -40.7826165,
          -20.8910295
        ]
      }
    }
  ]
}
