{
  "type": "FeatureCollection",
  "features": [
    {
      "type": "Feature",
      "id": "way/905560231",
      "properties": {
        "timestamp": "2024-10-05T13:35:56Z",
        "version": 4,
        "changeset": 157501552,
        "addr:city": "União da Vitória",
        "addr:housenumber": "km 501",
        "addr:postcode": "84610-000",
        "addr:street": "BR-153",
        "addr:suburb": "São Gabriel",
        "building": "yes",
        "internet_access": "wlan",
        "internet_access:fee": "no",
        "name": "Hotel Moro",
        "phone": "+55 42 3523 2709",
        "tourism": "hotel",
        "id": "way/905560231"
      },
      "geometry": {
        "type": "Polygon",
        "coordinates": [
          [
            [
              -51.1332138,
              -26.2202143
            ],
            [
              -51.1330059,
              -26.2198885
            ],
            [
              -51.1331514,
              -26.2198138
            ],
            [
              -51.1333592,
              -26.2201396
            ],
            [
              -51.1332138,
              -26.2202143
            ]
          ]
        ]
      }
    }
  ]
}
