{
  "type": "FeatureCollection",
  "features": [
    {
      "type": "Feature",
      "id": "node/1658248830",
      "properties": {
        "timestamp": "2012-03-03T22:12:36Z",
        "version": 1,
        "changeset": 10862991,
        "name": "Aro 10",
        "service:bicycle:repair": "yes",
        "service:bicycle:retail": "yes",
        "service:bicycle:second_hand": "yes",
        "shop": "bicycle",
        "id": "node/1658248830"
      },
      "geometry": {
        "type": "Point",
        "coordinates": [
          -38.9659649,
          -12.2191144
        ]
      }
    },
    {
      "type": "Feature",
      "id": "node/1673649097",
      "properties": {
        "timestamp": "2012-03-13T18:22:27Z",
        "version": 1,
        "changeset": 10969992,
        "name": "Aro 10",
        "service:bicycle:repair": "yes",
        "service:bicycle:retail": "yes",
        "shop": "bicycle",
        "id": "node/1673649097"
      },
      "geometry": {
        "type": "Point",
        "coordinates": [
          -38.9639106,
          -12.2562754
        ]
      }
    },
    {
      "type": "Feature",
      "id": "node/1673649108",
      "properties": {
        "timestamp": "2012-03-13T18:22:28Z",
        "version": 1,
        "changeset": 10969992,
        "name": "Pedal Cicle",
        "service:bicycle:repair": "yes",
        "service:bicycle:retail": "yes",
        "service:bicycle:second_hand": "yes",
        "shop": "bicycle",
        "id": "node/1673649108"
      },
      "geometry": {
        "type": "Point",
        "coordinates": [
          -38.9639076,
          -12.2561987
        ]
      }
    },
    {
      "type": "Feature",
      "id": "node/1760199163",
      "properties": {
        "timestamp": "2012-12-01T17:58:40Z",
        "version": 2,
        "changeset": 14114871,
        "name": "São Miquel",
        "service:bicycle:repair": "yes",
        "shop": "bicycle",
        "id": "node/1760199163"
      },
      "geometry": {
        "type": "Point",
        "coordinates": [
          -38.9519767,
          -12.2572238
        ]
      }
    },
    {
      "type": "Feature",
      "id": "node/1823257073",
      "properties": {
        "timestamp": "2012-11-30T16:08:34Z",
        "version": 2,
        "changeset": 14100691,
        "name": "Luna Motos e Bikes",
        "shop": "bicycle",
        "id": "node/1823257073"
      },
      "geometry": {
        "type": "Point",
        "coordinates": [
          -38.9610762,
          -12.260067
        ]
      }
    },
    {
      "type": "Feature",
      "id": "node/1824756418",
      "properties": {
        "timestamp": "2013-01-06T00:53:18Z",
        "version": 2,
        "changeset": 14543841,
        "addr:street": "Avenida Getúlio Vargas",
        "name": "Cicle Brisa",
        "service:bicycle:pump": "no",
        "service:bicycle:repair": "yes",
        "service:bicycle:retail": "yes",
        "shop": "bicycle",
        "id": "node/1824756418"
      },
      "geometry": {
        "type": "Point",
        "coordinates": [
          -38.9500504,
          -12.2554303
        ]
      }
    },
    {
      "type": "Feature",
      "id": "node/2084037760",
      "properties": {
        "timestamp": "2013-11-18T21:22:02Z",
        "version": 3,
        "changeset": 18983486,
        "service:bicycle:repair": "no",
        "service:bicycle:retail": "yes",
        "shop": "bicycle",
        "id": "node/2084037760"
      },
      "geometry": {
        "type": "Point",
        "coordinates": [
          -38.9453743,
          -12.2407177
        ]
      }
    },
    {
      "type": "Feature",
      "id": "node/2111549854",
      "properties": {
        "timestamp": "2013-03-06T01:46:49Z",
        "version": 2,
        "changeset": 15265493,
        "name": "Lando Bike",
        "shop": "bicycle",
        "id": "node/2111549854"
      },
      "geometry": {
        "type": "Point",
        "coordinates": [
          -38.9571658,
          -12.2846883
        ]
      }
    },
    {
      "type": "Feature",
      "id": "node/2392177379",
      "properties": {
        "timestamp": "2013-07-21T21:39:02Z",
        "version": 1,
        "changeset": 17041729,
        "shop": "bicycle",
        "id": "node/2392177379"
      },
      "geometry": {
        "type": "Point",
        "coordinates": [
          -38.9535424,
          -12.2286232
        ]
      }
    },
    {
      "type": "Feature",
      "id": "node/2406353549",
      "properties": {
        "timestamp": "2013-11-18T21:22:47Z",
        "version": 2,
        "changeset": 18983502,
        "name": "Van Bike",
        "service:bicycle:repair": "yes",
        "service:bicycle:retail": "no",
        "shop": "bicycle",
        "id": "node/2406353549"
      },
      "geometry": {
        "type": "Point",
        "coordinates": [
          -38.9450739,
          -12.240702
        ]
      }
    },
    {
      "type": "Feature",
      "id": "node/3190762043",
      "properties": {
        "timestamp": "2014-11-16T21:37:18Z",
        "version": 1,
        "changeset": 26831823,
        "addr:housenumber": "1335",
        "addr:street": "Avenida João Durval Carneiro",
        "addr:suburb": "Brasília",
        "name": "Sid Bike",
        "phone": "+55 75 36244694",
        "shop": "bicycle",
        "wheelchair": "limited",
        "id": "node/3190762043"
      },
      "geometry": {
        "type": "Point",
        "coordinates": [
          -38.9528028,
          -12.2628209
        ]
      }
    },
    {
      "type": "Feature",
      "id": "node/9300417036",
      "properties": {
        "timestamp": "2021-12-01T14:36:25Z",
        "version": 1,
        "changeset": 114446429,
        "addr:city": "Feira de Santana",
        "addr:housenumber": "120B",
        "addr:postcode": "44085112",
        "addr:street": "Rua Crispim Soares",
        "addr:suburb": "SIM",
        "name": "Single Track",
        "operator": "Neydson",
        "phone": "7530306071",
        "service:bicycle:Bicycle_Sales_and_Service": "yes",
        "service:bicycle:parts": "yes",
        "service:bicycle:repair": "yes",
        "service:bicycle:retail": "yes",
        "shop": "bicycle",
        "id": "node/9300417036"
      },
      "geometry": {
        "type": "Point",
        "coordinates": [
          -38.9269742,
          -12.2569722
        ]
      }
    },
    {
      "type": "Feature",
      "id": "node/9300472202",
      "properties": {
        "timestamp": "2021-12-01T14:42:25Z",
        "version": 1,
        "changeset": 114446655,
        "name": "Sid Bike",
        "operator": "Neydson",
        "phone": "75999388173",
        "service:bicycle:Bicycle_Sales_and_Service": "yes",
        "service:bicycle:cleaning": "yes",
        "service:bicycle:clothing": "yes",
        "service:bicycle:repair": "yes",
        "shop": "bicycle",
        "id": "node/9300472202"
      },
      "geometry": {
        "type": "Point",
        "coordinates": [
          -38.9081526,
          -12.2456509
        ]
      }
    },
    {
      "type": "Feature",
      "id": "node/9307471058",
      "properties": {
        "timestamp": "2021-12-02T23:01:54Z",
        "version": 1,
        "changeset": 114501401,
        "addr:city": "Feira de Santana",
        "addr:housenumber": "711",
        "addr:postcode": "44088-031",
        "addr:street": "Av. João Durval Carneiro",
        "addr:suburb": "Brasília",
        "name": "J Bike",
        "operator": "Neydson",
        "phone": "+557530213214",
        "service:bicycle:Bicycle_Sales_and_Service": "yes",
        "service:bicycle:cleaning": "yes",
        "service:bicycle:rental": "yes",
        "service:bicycle:repair": "yes",
        "shop": "bicycle",
        "website": "https://instagram.com/jbikemtb?utm_medium=copy_link",
        "id": "node/9307471058"
      },
      "geometry": {
        "type": "Point",
        "coordinates": [
          -38.9542594,
          -12.2680679
        ]
      }
    },
    {
      "type": "Feature",
      "id": "node/9307553764",
      "properties": {
        "timestamp": "2021-12-03T00:38:02Z",
        "version": 1,
        "changeset": 114502781,
        "addr:city": "Feira de Santana",
        "addr:housenumber": "331",
        "addr:postcode": "44090-264",
        "addr:street": "R. Guilherme Azevedo",
        "addr:suburb": "Tomba",
        "name": "Jó Bike",
        "phone": "+55 75 99224-4658",
        "service:bicycle:Bicycle_Sales_and_Service": "yes",
        "service:bicycle:bicycle": "yes",
        "service:bicycle:clothing": "yes",
        "service:bicycle:repair": "yes",
        "service:bicycle:retail": "yes",
        "shop": "bicycle",
        "id": "node/9307553764"
      },
      "geometry": {
        "type": "Point",
        "coordinates": [
          -38.9566758,
          -12.2874319
        ]
      }
    },
    {
      "type": "Feature",
      "id": "node/11978447664",
      "properties": {
        "timestamp": "2024-06-13T14:07:22Z",
        "version": 1,
        "changeset": 152635956,
        "addr:city": "Feira de Santana - BA",
        "addr:housenumber": "5544, Loja 22",
        "addr:postcode": "44.085-052",
        "addr:street": "Av. Nóide Cerqueira",
        "addr:suburb": "Sim",
        "check_date": "2024-05-10",
        "check_date:currency:XBT": "2024-05-10",
        "currency:XBT": "yes",
        "description": "Aluguel de Bicicletas",
        "name": "Via Ciklos",
        "opening_hours": "Mo-Fr 15:00-20:00; Sa-Su 7:00-13:00",
        "payment:lightning": "yes",
        "payment:lightning_contactless": "yes",
        "payment:onchain": "yes",
        "phone": "+55 75 99860-9880",
        "shop": "bicycle",
        "survey:date": "2024-05-10",
        "website": "https://www.instagram.com/viaciklos",
        "id": "node/11978447664"
      },
      "geometry": {
        "type": "Point",
        "coordinates": [
          -38.9233314,
          -12.2562987
        ]
      }
    }
  ]
}
