{
  "type": "FeatureCollection",
  "features": [
    {
      "type": "Feature",
      "id": "node/1910617571",
      "properties": {
        "timestamp": "2012-09-11T20:55:00Z",
        "version": 1,
        "changeset": 13075409,
        "amenity": "dentist",
        "name": "HappyCLIN",
        "id": "node/1910617571"
      },
      "geometry": {
        "type": "Point",
        "coordinates": [
          -38.9607147,
          -12.25888
        ]
      }
    },
    {
      "type": "Feature",
      "id": "node/1910617578",
      "properties": {
        "timestamp": "2012-09-11T20:55:00Z",
        "version": 1,
        "changeset": 13075409,
        "amenity": "dentist",
        "name": "Sobreira Centro Odontológico",
        "id": "node/1910617578"
      },
      "geometry": {
        "type": "Point",
        "coordinates": [
          -38.959954,
          -12.2589078
        ]
      }
    },
    {
      "type": "Feature",
      "id": "node/2187916524",
      "properties": {
        "timestamp": "2013-03-06T01:46:48Z",
        "version": 1,
        "changeset": 15265493,
        "amenity": "dentist",
        "name": "Neocenter",
        "id": "node/2187916524"
      },
      "geometry": {
        "type": "Point",
        "coordinates": [
          -38.9570726,
          -12.2537963
        ]
      }
    },
    {
      "type": "Feature",
      "id": "node/2187916525",
      "properties": {
        "timestamp": "2013-03-06T01:46:48Z",
        "version": 1,
        "changeset": 15265493,
        "amenity": "dentist",
        "name": "Odonto Club",
        "id": "node/2187916525"
      },
      "geometry": {
        "type": "Point",
        "coordinates": [
          -38.954736,
          -12.2522699
        ]
      }
    },
    {
      "type": "Feature",
      "id": "node/2290407144",
      "properties": {
        "timestamp": "2013-05-03T13:51:48Z",
        "version": 1,
        "changeset": 15960848,
        "addr:housenumber": "508",
        "addr:street": "Rua Comandante Almiro",
        "amenity": "dentist",
        "name": "OdontoDia",
        "id": "node/2290407144"
      },
      "geometry": {
        "type": "Point",
        "coordinates": [
          -38.9589088,
          -12.2572779
        ]
      }
    },
    {
      "type": "Feature",
      "id": "node/2407005396",
      "properties": {
        "timestamp": "2013-08-04T15:20:43Z",
        "version": 1,
        "changeset": 17216322,
        "amenity": "dentist",
        "name": "Juracy Dourado - Instituto de Ortodontia",
        "phone": "7536167406",
        "id": "node/2407005396"
      },
      "geometry": {
        "type": "Point",
        "coordinates": [
          -38.9359259,
          -12.2563483
        ]
      }
    },
    {
      "type": "Feature",
      "id": "node/2736758213",
      "properties": {
        "timestamp": "2014-03-23T14:47:21Z",
        "version": 1,
        "changeset": 21265542,
        "amenity": "dentist",
        "name": "Life Odonto",
        "id": "node/2736758213"
      },
      "geometry": {
        "type": "Point",
        "coordinates": [
          -38.9671947,
          -12.2548106
        ]
      }
    },
    {
      "type": "Feature",
      "id": "node/2775803210",
      "properties": {
        "timestamp": "2014-04-07T20:39:24Z",
        "version": 2,
        "changeset": 21560316,
        "addr:housenumber": "919",
        "addr:street": "Rua Barão do Rio Branco",
        "amenity": "dentist",
        "name": "Rizzo Odontologia",
        "id": "node/2775803210"
      },
      "geometry": {
        "type": "Point",
        "coordinates": [
          -38.9600194,
          -12.2581118
        ]
      }
    },
    {
      "type": "Feature",
      "id": "node/5010031117",
      "properties": {
        "timestamp": "2017-08-02T18:35:14Z",
        "version": 1,
        "changeset": 50787923,
        "addr:city": "Feira de Santana",
        "addr:housenumber": "483",
        "addr:postcode": "44001-301",
        "addr:street": "Rua Boticário Moncorvo",
        "addr:suburb": "Kalilandia",
        "amenity": "dentist",
        "description": "Clinica Orthos, Odontologia, Ortodontia, Clínica geral. Particular e convênios",
        "email": "orthos_feira@hotmail.com",
        "name": "Clínica Orthos",
        "opening_hours": "Mo-Fr 08:00-18:00",
        "website": "http://www.clinicaorthosonline.com.br",
        "id": "node/5010031117"
      },
      "geometry": {
        "type": "Point",
        "coordinates": [
          -38.9592623,
          -12.2535299
        ]
      }
    },
    {
      "type": "Feature",
      "id": "node/10715987268",
      "properties": {
        "timestamp": "2023-03-06T10:18:04Z",
        "version": 1,
        "changeset": 133356755,
        "addr:city": "Feira de Santana",
        "addr:housenumber": "3535",
        "addr:postcode": "44077-005",
        "addr:street": "Avenida Getúlio Vargas",
        "addr:suburb": "Santa Mônica",
        "amenity": "dentist",
        "healthcare": "dentist",
        "healthcare:speciality": "reabilitação_oral;facetas;lentes;prótese;dental_oral_maxillo_facial_surgery",
        "name": "ILC - Instituto Lago Costa",
        "opening_hours": "Mo-Fr 08:00-18:00",
        "phone": "(75) 3471-7488",
        "website": "https://www.facebook.com/institutolagocosta",
        "id": "node/10715987268"
      },
      "geometry": {
        "type": "Point",
        "coordinates": [
          -38.935182,
          -12.2564827
        ]
      }
    }
  ]
}
