{
  "type": "FeatureCollection",
  "features": [
    {
      "type": "Feature",
      "id": "node/10862499164",
      "properties": {
        "timestamp": "2023-05-02T14:22:52Z",
        "version": 1,
        "changeset": 135619313,
        "addr:city": "Itapiranga",
        "addr:country": "BR",
        "addr:postcode": "89896-000",
        "addr:state": "SC",
        "addr:street": "Avenida John Kennedy",
        "addr:suburb": "Centro",
        "branch": "Barreira Itapiranga - Sede",
        "government": "customs",
        "name": "Barreira Sanitária",
        "nohousenumber": "yes",
        "office": "government",
        "operator": "Companhia Integrada de Desenvolvimento Agrícola de Santa Catarina",
        "operator:email": "itapiranga@cidasc.sc.gov.br",
        "operator:phone": "+55-49-3472-5083",
        "operator:short": "Cidasc",
        "operator:type": "public",
        "operator:website": "https://www.cidasc.sc.gov.br/",
        "operator:wikidata": "Q18465620",
        "owner": "Estado de Santa Catarina",
        "ownership": "state",
        "id": "node/10862499164"
      },
      "geometry": {
        "type": "Point",
        "coordinates": [
          -53.7192084,
          -27.1806662
        ]
      }
    }
  ]
}
