{
  "type": "FeatureCollection",
  "features": [
    {
      "type": "Feature",
      "id": "node/7236136520",
      "properties": {
        "timestamp": "2021-04-02T22:12:17Z",
        "version": 3,
        "changeset": 102218017,
        "addr:city": "Santo Ângelo",
        "addr:housenumber": "1604",
        "addr:postcode": "98801-640",
        "addr:street": "Rua Marquês do Herval",
        "addr:suburb": "Centro",
        "amenity": "cinema",
        "description": "Cinema independente com salas aconchegantes e telas em 3D mostra filmes de Hollywood e tem pipoca e promoções.",
        "name": "Cine Cisne",
        "opening_hours:covid19": "closed",
        "phone": "+55 55 3312-2790",
        "start_date": "1958-03-22",
        "website": "http://www.cinecisne.blogspot.com/",
        "wikidata": "Q18466613",
        "wikipedia": "pt:Cine Cisne",
        "id": "node/7236136520"
      },
      "geometry": {
        "type": "Point",
        "coordinates": [
          -54.261528,
          -28.3005543
        ]
      }
    }
  ]
}
