{
  "type": "FeatureCollection",
  "features": [
    {
      "type": "Feature",
      "id": "way/575118973",
      "properties": {
        "timestamp": "2018-03-31T20:09:07Z",
        "version": 1,
        "changeset": 57698132,
        "amenity": "clinic",
        "building": "yes",
        "healthcare": "clinic",
        "name": "Posto de Saúde da Comunidade Três Sinos",
        "id": "way/575118973"
      },
      "geometry": {
        "type": "Polygon",
        "coordinates": [
          [
            [
              -54.470824,
              -28.2685472
            ],
            [
              -54.4708105,
              -28.2684077
            ],
            [
              -54.4709176,
              -28.2683996
            ],
            [
              -54.4709311,
              -28.2685392
            ],
            [
              -54.470824,
              -28.2685472
            ]
          ]
        ]
      }
    },
    {
      "type": "Feature",
      "id": "way/929419575",
      "properties": {
        "timestamp": "2021-04-12T00:03:04Z",
        "version": 1,
        "changeset": 102760053,
        "amenity": "clinic",
        "building": "yes",
        "healthcare": "clinic",
        "name": "Unidade de Pronto Atendimento",
        "operator": "Prefeitura Municipal de Santo Ângelo",
        "id": "way/929419575"
      },
      "geometry": {
        "type": "Polygon",
        "coordinates": [
          [
            [
              -54.2431656,
              -28.2941426
            ],
            [
              -54.2431335,
              -28.2946409
            ],
            [
              -54.2428062,
              -28.2946338
            ],
            [
              -54.2428438,
              -28.2941284
            ],
            [
              -54.2431656,
              -28.2941426
            ]
          ]
        ]
      }
    },
    {
      "type": "Feature",
      "id": "way/1274688941",
      "properties": {
        "timestamp": "2024-04-21T18:45:09Z",
        "version": 1,
        "changeset": 150314667,
        "addr:city": "Santo Ângelo",
        "addr:street": "Rua Frida Joana Gaver",
        "addr:suburb": "Dytz",
        "amenity": "clinic",
        "building": "yes",
        "healthcare": "clinic",
        "name": "ESF Dr. Vitor Hugo Boff",
        "operator": "Secretaria Municipal de Saúde",
        "operator:type": "government",
        "id": "way/1274688941"
      },
      "geometry": {
        "type": "Polygon",
        "coordinates": [
          [
            [
              -54.2703928,
              -28.2895799
            ],
            [
              -54.2703894,
              -28.2895392
            ],
            [
              -54.2704989,
              -28.2895212
            ],
            [
              -54.270516,
              -28.28969
            ],
            [
              -54.2702131,
              -28.2897412
            ],
            [
              -54.2702011,
              -28.2895814
            ],
            [
              -54.2702969,
              -28.2895634
            ],
            [
              -54.2703055,
              -28.2895935
            ],
            [
              -54.2703928,
              -28.2895799
            ]
          ]
        ]
      }
    },
    {
      "type": "Feature",
      "id": "node/7236711874",
      "properties": {
        "timestamp": "2024-12-14T00:35:45Z",
        "version": 4,
        "changeset": 160265826,
        "addr:housenumber": "605-709",
        "addr:street": "Rua 22 de Março",
        "amenity": "clinic",
        "healthcare": "clinic",
        "name": "Pronto Atendimento Dr. Ernesto Nascimento Sobrinho",
        "id": "node/7236711874"
      },
      "geometry": {
        "type": "Point",
        "coordinates": [
          -54.2599038,
          -28.2894429
        ]
      }
    },
    {
      "type": "Feature",
      "id": "node/7545029039",
      "properties": {
        "timestamp": "2023-10-28T18:56:03Z",
        "version": 4,
        "changeset": 143278249,
        "addr:housenumber": "1056",
        "addr:street": "R. Quinze de Novembro",
        "amenity": "clinic",
        "name": "Clínica de Oncologia e Hematologia das Missões Ltda",
        "phone": "+55 55 3313-4450",
        "id": "node/7545029039"
      },
      "geometry": {
        "type": "Point",
        "coordinates": [
          -54.2640799,
          -28.3060894
        ]
      }
    },
    {
      "type": "Feature",
      "id": "node/7545029518",
      "properties": {
        "timestamp": "2024-12-14T00:35:45Z",
        "version": 3,
        "changeset": 160265826,
        "addr:housenumber": "1056",
        "addr:neighbourhood": "Sossego",
        "addr:postcode": "98801-620",
        "addr:street": "Rua 15 de Novembro",
        "amenity": "clinic",
        "name": "Clínica de Oncologia e Hematologia das Missões Ltda",
        "phone": "+55 55 3313-4450",
        "id": "node/7545029518"
      },
      "geometry": {
        "type": "Point",
        "coordinates": [
          -54.2640343,
          -28.3060894
        ]
      }
    },
    {
      "type": "Feature",
      "id": "node/7545056633",
      "properties": {
        "timestamp": "2024-12-14T00:35:45Z",
        "version": 3,
        "changeset": 160265826,
        "addr:housenumber": "526",
        "addr:neighbourhood": "Centro",
        "addr:postcode": "98801-700",
        "addr:street": "Rua Bento Gonçalves",
        "amenity": "clinic",
        "name": "Clinica do Aparelho digestivo",
        "phone": "+55 55 3313-8650",
        "id": "node/7545056633"
      },
      "geometry": {
        "type": "Point",
        "coordinates": [
          -54.2652016,
          -28.3065472
        ]
      }
    }
  ]
}
