{
  "type": "FeatureCollection",
  "features": [
    {
      "type": "Feature",
      "id": "node/2116854374",
      "properties": {
        "timestamp": "2016-09-27T01:51:51Z",
        "version": 2,
        "changeset": 42459470,
        "internet_access": "yes",
        "internet_access:fee": "no",
        "name": "Debacco",
        "phone": "+55 55 3312-7755",
        "tourism": "hotel",
        "id": "node/2116854374"
      },
      "geometry": {
        "type": "Point",
        "coordinates": [
          -54.2606277,
          -28.2921363
        ]
      }
    },
    {
      "type": "Feature",
      "id": "node/2116854375",
      "properties": {
        "timestamp": "2013-01-17T21:13:50Z",
        "version": 1,
        "changeset": 14689335,
        "name": "Missões",
        "tourism": "hotel",
        "id": "node/2116854375"
      },
      "geometry": {
        "type": "Point",
        "coordinates": [
          -54.2728708,
          -28.3005409
        ]
      }
    },
    {
      "type": "Feature",
      "id": "node/5854975410",
      "properties": {
        "timestamp": "2023-07-09T22:07:38Z",
        "version": 2,
        "changeset": 138313248,
        "name": "Hotel Central",
        "tourism": "hotel",
        "id": "node/5854975410"
      },
      "geometry": {
        "type": "Point",
        "coordinates": [
          -54.2607458,
          -28.3007439
        ]
      }
    },
    {
      "type": "Feature",
      "id": "node/7236158564",
      "properties": {
        "timestamp": "2024-12-14T00:35:45Z",
        "version": 3,
        "changeset": 160265826,
        "addr:housenumber": "1000",
        "addr:neighbourhood": "Centro",
        "addr:postcode": "98801-590",
        "addr:street": "Avenida Brasil",
        "description": "Acomodações modestas em hotel simples com Wi-Fi, estacionamento e café da manhã. Diárias a partir de R$ 216",
        "name": "Maerkli Hotel",
        "phone": "+55 55 3313-2127",
        "tourism": "hotel",
        "id": "node/7236158564"
      },
      "geometry": {
        "type": "Point",
        "coordinates": [
          -54.2608337,
          -28.299572
        ]
      }
    },
    {
      "type": "Feature",
      "id": "node/7237210311",
      "properties": {
        "timestamp": "2024-12-14T00:35:45Z",
        "version": 4,
        "changeset": 160265826,
        "addr:housenumber": "463",
        "addr:neighbourhood": "Centro",
        "addr:postcode": "98801-290",
        "addr:street": "Rua 7 Povos das Missões",
        "description": "Hotel modesto que oferece quartos com mobília simples, além de lounge descontraído.Comodidades:Wi-Fi gratuito ,Acessível,Estacionam. gratuito, Ar-condicionado",
        "name": "Hotel Nova Esperança Aberto 24h",
        "phone": "+55 55 3312-1173",
        "tourism": "hotel",
        "website": "https://www.hotelnovaesperanca.com.br/",
        "id": "node/7237210311"
      },
      "geometry": {
        "type": "Point",
        "coordinates": [
          -54.2744751,
          -28.3055611
        ]
      }
    },
    {
      "type": "Feature",
      "id": "node/10267200106",
      "properties": {
        "timestamp": "2022-12-16T11:43:42Z",
        "version": 1,
        "changeset": 130152584,
        "name": "Hotel de Trânsito 1ºBCom",
        "tourism": "hotel",
        "id": "node/10267200106"
      },
      "geometry": {
        "type": "Point",
        "coordinates": [
          -54.2583757,
          -28.2884052
        ]
      }
    }
  ]
}
