{
  "type": "FeatureCollection",
  "features": [
    {
      "type": "Feature",
      "id": "way/543803038",
      "properties": {
        "timestamp": "2017-12-01T01:46:20Z",
        "version": 1,
        "changeset": 54221333,
        "amenity": "pharmacy",
        "building": "yes",
        "healthcare": "pharmacy",
        "name": "Farmácia Licht",
        "id": "way/543803038"
      },
      "geometry": {
        "type": "Polygon",
        "coordinates": [
          [
            [
              -54.2609869,
              -28.3053808
            ],
            [
              -54.2609812,
              -28.3054861
            ],
            [
              -54.2608048,
              -28.3054788
            ],
            [
              -54.2608104,
              -28.3053735
            ],
            [
              -54.2609869,
              -28.3053808
            ]
          ]
        ]
      }
    },
    {
      "type": "Feature",
      "id": "node/7236079444",
      "properties": {
        "timestamp": "2020-03-04T17:12:07Z",
        "version": 2,
        "changeset": 81785615,
        "addr:street": "R. Marquês do Herval, 1624 - Centro, Santo Ângelo - RS, 98801-640",
        "amenity": "pharmacy",
        "name": "Farmácias São João",
        "opening_hours": "Mo-Su 12:00-00:00",
        "phone": "+55 55 3312-8080",
        "website": "http://www.saojoaofarmacias.com.br/",
        "id": "node/7236079444"
      },
      "geometry": {
        "type": "Point",
        "coordinates": [
          -54.2615738,
          -28.3003464
        ]
      }
    },
    {
      "type": "Feature",
      "id": "node/7236131328",
      "properties": {
        "timestamp": "2020-03-04T17:12:07Z",
        "version": 2,
        "changeset": 81785615,
        "addr:housenumber": "1559",
        "addr:street": "R. Marquês do Herval, 1559 - Centro, Santo Ângelo - RS, 98803-390",
        "amenity": "pharmacy",
        "name": "Farmácia São Lucas",
        "opening_hours": "Mo-Sa 08:00-22:00",
        "phone": "+55 55 3314-1265",
        "id": "node/7236131328"
      },
      "geometry": {
        "type": "Point",
        "coordinates": [
          -54.261219,
          -28.3008118
        ]
      }
    },
    {
      "type": "Feature",
      "id": "node/7236131833",
      "properties": {
        "timestamp": "2022-10-11T20:03:26Z",
        "version": 3,
        "changeset": 127378959,
        "addr:housenumber": "1583",
        "addr:street": "R. Marquês do Herval, 1583 - Centro, Santo Ângelo - RS, 98801-640",
        "amenity": "pharmacy",
        "brand": "Panvel",
        "brand:wikidata": "Q10344254",
        "healthcare": "pharmacy",
        "name": "Panvel",
        "opening_hours": "Mo-Sa 07:30-22:00; Su 09:00-21:00",
        "phone": "+55 55 3312-1957",
        "website": "https://www.panvel.com/",
        "id": "node/7236131833"
      },
      "geometry": {
        "type": "Point",
        "coordinates": [
          -54.2612419,
          -28.3007088
        ]
      }
    },
    {
      "type": "Feature",
      "id": "node/7236140223",
      "properties": {
        "timestamp": "2020-02-23T03:40:47Z",
        "version": 1,
        "changeset": 81358734,
        "addr:street": "Av. Brasil, 874-930 - Boa Esperança, Santo Ângelo - RS, 98801-590",
        "amenity": "pharmacy",
        "name": "Farmacia São Lucas 2",
        "id": "node/7236140223"
      },
      "geometry": {
        "type": "Point",
        "coordinates": [
          -54.2615356,
          -28.2997837
        ]
      }
    },
    {
      "type": "Feature",
      "id": "node/7236151884",
      "properties": {
        "timestamp": "2020-03-07T01:49:15Z",
        "version": 2,
        "changeset": 81888298,
        "addr:housenumber": "1032",
        "addr:street": "Av. Brasil, 1032 - Boa Esperança, Santo Ângelo - RS, 98801-640",
        "amenity": "pharmacy",
        "name": "Farmácia Preço Popular",
        "opening_hours": "Mo-Fr 08:00-20:00; Sa 08:00-16:00",
        "phone": "0800 643 3031",
        "website": "https://www.precopopular.com.br/",
        "id": "node/7236151884"
      },
      "geometry": {
        "type": "Point",
        "coordinates": [
          -54.2603836,
          -28.2997208
        ]
      }
    },
    {
      "type": "Feature",
      "id": "node/7236164718",
      "properties": {
        "timestamp": "2022-10-11T20:03:26Z",
        "version": 3,
        "changeset": 127378959,
        "addr:street": "Av. Brasil, 876 - Centro, Santo Ângelo - RS, 98801-590",
        "amenity": "pharmacy",
        "healthcare": "pharmacy",
        "name": "Farmácias São João",
        "opening_hours": "Mo-Sa 08:00-20:00",
        "phone": "+55 55 3313-1556",
        "website": "http://www.saojoaofarmacias.com.br/",
        "id": "node/7236164718"
      },
      "geometry": {
        "type": "Point",
        "coordinates": [
          -54.2619057,
          -28.299736
        ]
      }
    },
    {
      "type": "Feature",
      "id": "node/7236690204",
      "properties": {
        "timestamp": "2020-03-04T17:12:07Z",
        "version": 2,
        "changeset": 81785615,
        "addr:street": "Av. Salgado Filho - Dornelles, Santo Ângelo - RS, 98803-240",
        "amenity": "pharmacy",
        "name": "Farmácia bem estar",
        "phone": "+55 55 3313-6280",
        "id": "node/7236690204"
      },
      "geometry": {
        "type": "Point",
        "coordinates": [
          -54.265976,
          -28.2813416
        ]
      }
    },
    {
      "type": "Feature",
      "id": "node/7236751247",
      "properties": {
        "timestamp": "2020-03-04T17:12:07Z",
        "version": 2,
        "changeset": 81785615,
        "addr:street": "Av, R. Mal. Floriano, 2787 - Centro Norte, Santo Ângelo - RS, 98803-426",
        "amenity": "pharmacy",
        "name": "Farmàcia Farmavida",
        "opening_hours": "Mo-Sa 08:00-20:00",
        "phone": "+55 55 3313-2913",
        "id": "node/7236751247"
      },
      "geometry": {
        "type": "Point",
        "coordinates": [
          -54.2603683,
          -28.2888851
        ]
      }
    },
    {
      "type": "Feature",
      "id": "node/7237086040",
      "properties": {
        "timestamp": "2020-03-04T17:12:07Z",
        "version": 2,
        "changeset": 81785615,
        "addr:housenumber": "1118",
        "addr:street": "R. Marquês do Herval, 1118 - Centro, Santo Ângelo - RS, 98801-640",
        "amenity": "pharmacy",
        "name": "Panvel Farmácias",
        "opening_hours": "Mo-Sa 08:00-22:00; Su 09:00-21:00",
        "phone": "+55 55 3312-1837",
        "website": "https://www.panvel.com/",
        "id": "node/7237086040"
      },
      "geometry": {
        "type": "Point",
        "coordinates": [
          -54.2612419,
          -28.304987
        ]
      }
    },
    {
      "type": "Feature",
      "id": "node/7237188001",
      "properties": {
        "timestamp": "2020-03-04T17:12:07Z",
        "version": 2,
        "changeset": 81785615,
        "addr:street": "Oliveira, Santo Ângelo - RS, 98801-345",
        "amenity": "pharmacy",
        "name": "Farmácia JK",
        "opening_hours": "Mo-Su 08:00-21:00",
        "phone": "+55 55 3313-4050",
        "id": "node/7237188001"
      },
      "geometry": {
        "type": "Point",
        "coordinates": [
          -54.2729912,
          -28.3049068
        ]
      }
    },
    {
      "type": "Feature",
      "id": "node/7544984572",
      "properties": {
        "timestamp": "2021-06-13T15:05:16Z",
        "version": 2,
        "changeset": 106286788,
        "addr:housenumber": "765",
        "addr:street": "Av. Getúlio Vargas, 765 - Centro, Santo Ângelo - RS, 98801-570",
        "amenity": "pharmacy",
        "description": "Av. Getúlio Vargas, 765 - Centro, Santo Ângelo - RS, 98801-570",
        "name": "Multifarma Farmácia",
        "phone": "+55 55 3315-8540",
        "id": "node/7544984572"
      },
      "geometry": {
        "type": "Point",
        "coordinates": [
          -54.2650108,
          -28.3097057
        ]
      }
    },
    {
      "type": "Feature",
      "id": "node/7545056887",
      "properties": {
        "timestamp": "2021-06-13T16:28:01Z",
        "version": 2,
        "changeset": 106289421,
        "addr:housenumber": "562",
        "addr:street": "Av. Antônio Manoel, 562 - Centro, Santo Ângelo - RS, 98801-690",
        "amenity": "pharmacy",
        "description": "Av. Antônio Manoel, 562 - Centro, Santo Ângelo - RS, 98801-690",
        "name": "Farmácia Pires",
        "opening_hours": "Mo-Fr 08:00-18:00; Sa 08:00-12:00",
        "phone": "+55 55 3312-1258",
        "id": "node/7545056887"
      },
      "geometry": {
        "type": "Point",
        "coordinates": [
          -54.264843,
          -28.3053761
        ]
      }
    }
  ]
}
