{
  "type": "FeatureCollection",
  "features": [
    {
      "type": "Feature",
      "id": "node/7545030537",
      "properties": {
        "timestamp": "2020-06-04T19:03:57Z",
        "version": 3,
        "changeset": 86205701,
        "addr:housenumber": "1199",
        "addr:street": "Av. Getúlio Vargas",
        "amenity": "veterinary",
        "description": "CEP 98801-617",
        "name": "Clínica Veterinária Pet Health",
        "opening_hours": "Mo-Fr 08:00-18:30; Sa 08:00-13:00",
        "phone": "+555599994-9715",
        "website": "https://www.instagram.com/pethealth.vet",
        "id": "node/7545030537"
      },
      "geometry": {
        "type": "Point",
        "coordinates": [
          -54.2653046,
          -28.3056831
        ]
      }
    },
    {
      "type": "Feature",
      "id": "node/9170670581",
      "properties": {
        "timestamp": "2021-10-13T23:32:23Z",
        "version": 1,
        "changeset": 112482164,
        "amenity": "veterinary",
        "name": "Bicholândia Clínica Veterinária e Pet Shop",
        "id": "node/9170670581"
      },
      "geometry": {
        "type": "Point",
        "coordinates": [
          -54.2471775,
          -28.2979131
        ]
      }
    }
  ]
}
