{
  "type": "FeatureCollection",
  "features": [
    {
      "type": "Feature",
      "id": "way/1059083491",
      "properties": {
        "timestamp": "2022-08-26T00:34:06Z",
        "version": 3,
        "changeset": 125383487,
        "addr:city": "Boa Viagem",
        "addr:housenumber": "64",
        "addr:street": "Rua Sebastião Alves da Silva",
        "addr:suburb": "Nossa Senhora de Fátima",
        "amenity": "clinic",
        "building": "yes",
        "healthcare": "clinic",
        "wikidata": "Q113623875",
        "id": "way/1059083491"
      },
      "geometry": {
        "type": "Polygon",
        "coordinates": [
          [
            [
              -39.7269396,
              -5.1322479
            ],
            [
              -39.7269748,
              -5.1324008
            ],
            [
              -39.7268192,
              -5.1324363
            ],
            [
              -39.726784,
              -5.1322834
            ],
            [
              -39.7269396,
              -5.1322479
            ]
          ]
        ]
      }
    }
  ]
}
