{
  "type": "FeatureCollection",
  "features": [
    {
      "type": "Feature",
      "id": "way/1312688501",
      "properties": {
        "timestamp": "2024-09-01T21:54:39Z",
        "version": 1,
        "changeset": 156073319,
        "addr:city": "Poconé",
        "addr:housenumber": "406",
        "addr:postcode": "78175-000",
        "addr:street": "Avenida Dom Aquino",
        "addr:suburb": "Centro",
        "amenity": "hospital",
        "fax": "+55 65 3345 1963",
        "healthcare": "hospital",
        "name": "Hospital Geral de Poconé Dr. Nicolau Fontanilas Frageli",
        "phone": "+55 65 3345 1963",
        "ref:CNES": "2391449",
        "ref:vatin": "BR03073889000125",
        "id": "way/1312688501"
      },
      "geometry": {
        "type": "Polygon",
        "coordinates": [
          [
            [
              -56.6235411,
              -16.2697523
            ],
            [
              -56.6244737,
              -16.2703277
            ],
            [
              -56.6240414,
              -16.2709733
            ],
            [
              -56.6231089,
              -16.2703977
            ],
            [
              -56.6235411,
              -16.2697523
            ]
          ]
        ]
      }
    }
  ]
}
