{
  "type": "FeatureCollection",
  "features": [
    {
      "type": "Feature",
      "id": "way/766396826",
      "properties": {
        "timestamp": "2020-01-25T03:30:32Z",
        "version": 1,
        "changeset": 80058061,
        "amenity": "clinic",
        "building": "yes",
        "healthcare": "clinic",
        "name": "UPA",
        "id": "way/766396826"
      },
      "geometry": {
        "type": "Polygon",
        "coordinates": [
          [
            [
              -55.7244192,
              -12.5402195
            ],
            [
              -55.7246124,
              -12.5405285
            ],
            [
              -55.7241568,
              -12.5408002
            ],
            [
              -55.7239634,
              -12.5404911
            ],
            [
              -55.7244192,
              -12.5402195
            ]
          ]
        ]
      }
    },
    {
      "type": "Feature",
      "id": "way/786908014",
      "properties": {
        "timestamp": "2020-10-21T11:52:23Z",
        "version": 3,
        "changeset": 92831143,
        "amenity": "clinic",
        "building": "yes",
        "healthcare": "clinic",
        "name": "INSTITUTO IOMAR GNOATO",
        "id": "way/786908014"
      },
      "geometry": {
        "type": "Polygon",
        "coordinates": [
          [
            [
              -55.7360483,
              -12.5324817
            ],
            [
              -55.7362052,
              -12.5327369
            ],
            [
              -55.736012,
              -12.5328561
            ],
            [
              -55.7358525,
              -12.5326021
            ],
            [
              -55.7360483,
              -12.5324817
            ]
          ]
        ]
      }
    },
    {
      "type": "Feature",
      "id": "way/786908023",
      "properties": {
        "timestamp": "2020-04-01T19:03:45Z",
        "version": 1,
        "changeset": 82941092,
        "amenity": "clinic",
        "building": "yes",
        "healthcare": "clinic",
        "name": "A.M.E",
        "id": "way/786908023"
      },
      "geometry": {
        "type": "Polygon",
        "coordinates": [
          [
            [
              -55.7246899,
              -12.5395795
            ],
            [
              -55.7249943,
              -12.5400545
            ],
            [
              -55.7245625,
              -12.5403344
            ],
            [
              -55.7242652,
              -12.5398403
            ],
            [
              -55.7246899,
              -12.5395795
            ]
          ]
        ]
      }
    },
    {
      "type": "Feature",
      "id": "way/786908024",
      "properties": {
        "timestamp": "2020-04-01T19:03:45Z",
        "version": 1,
        "changeset": 82941092,
        "amenity": "clinic",
        "building": "yes",
        "healthcare": "clinic",
        "name": "PSF CENTRAL",
        "id": "way/786908024"
      },
      "geometry": {
        "type": "Polygon",
        "coordinates": [
          [
            [
              -55.7242452,
              -12.539901
            ],
            [
              -55.7244188,
              -12.5401757
            ],
            [
              -55.7239511,
              -12.5404574
            ],
            [
              -55.7237775,
              -12.5401828
            ],
            [
              -55.7242452,
              -12.539901
            ]
          ]
        ]
      }
    },
    {
      "type": "Feature",
      "id": "way/862052491",
      "properties": {
        "timestamp": "2021-06-02T20:15:22Z",
        "version": 3,
        "changeset": 105739592,
        "addr:city": "Sorriso",
        "addr:housenumber": "2213",
        "addr:postcode": "78890-000",
        "addr:street": "Avenida Brasil",
        "addr:suburb": "Vila Romana",
        "amenity": "clinic",
        "building": "yes",
        "healthcare": "clinic",
        "name": "Cardio Vida",
        "id": "way/862052491"
      },
      "geometry": {
        "type": "Polygon",
        "coordinates": [
          [
            [
              -55.7353157,
              -12.5330036
            ],
            [
              -55.7354526,
              -12.5332299
            ],
            [
              -55.7353122,
              -12.5333108
            ],
            [
              -55.7351754,
              -12.5330845
            ],
            [
              -55.7353157,
              -12.5330036
            ]
          ]
        ]
      }
    },
    {
      "type": "Feature",
      "id": "way/863793532",
      "properties": {
        "timestamp": "2020-10-26T13:27:13Z",
        "version": 1,
        "changeset": 93063799,
        "addr:city": "Sorriso",
        "addr:housenumber": "1462",
        "addr:street": "Rua Caminho do Sol",
        "addr:suburb": "Rota do Sol",
        "amenity": "clinic",
        "building": "yes",
        "healthcare": "clinic",
        "healthcare:speciality": "general",
        "name": "Posto de Saúde da Família Rota do Sol",
        "operator": "Prefeitura Municipal de Sorriso",
        "operator:type": "public",
        "id": "way/863793532"
      },
      "geometry": {
        "type": "Polygon",
        "coordinates": [
          [
            [
              -55.7470131,
              -12.5759288
            ],
            [
              -55.7471625,
              -12.5760975
            ],
            [
              -55.7469244,
              -12.5763208
            ],
            [
              -55.7467703,
              -12.5761431
            ],
            [
              -55.7470131,
              -12.5759288
            ]
          ]
        ]
      }
    },
    {
      "type": "Feature",
      "id": "way/863796739",
      "properties": {
        "timestamp": "2020-10-29T16:32:59Z",
        "version": 2,
        "changeset": 93246672,
        "addr:city": "Sorriso",
        "addr:housenumber": "1275",
        "addr:street": "Avenida Curitiba",
        "addr:suburb": "Jadim Itália",
        "amenity": "clinic",
        "building": "yes",
        "healthcare": "clinic",
        "healthcare:speciality": "general",
        "name": "Posto de Saúde da Família Jardim Itália",
        "operator": "Prefeitura Municipal de Sorriso",
        "operator:type": "public",
        "phone": "+55 66 3544 1551",
        "id": "way/863796739"
      },
      "geometry": {
        "type": "Polygon",
        "coordinates": [
          [
            [
              -55.7318354,
              -12.5560797
            ],
            [
              -55.7319228,
              -12.5562186
            ],
            [
              -55.7317053,
              -12.5563515
            ],
            [
              -55.7316167,
              -12.556214
            ],
            [
              -55.7318354,
              -12.5560797
            ]
          ]
        ]
      }
    },
    {
      "type": "Feature",
      "id": "way/863798305",
      "properties": {
        "timestamp": "2020-10-26T13:51:40Z",
        "version": 1,
        "changeset": 93064753,
        "addr:city": "Sorriso",
        "addr:housenumber": "1432",
        "addr:street": "Rua São Francisco de Assis",
        "addr:suburb": "São Domingos",
        "amenity": "clinic",
        "building": "yes",
        "healthcare": "clinic",
        "healthcare:speciality": "general",
        "name": "Posto de Saúde da Família São Domingos",
        "id": "way/863798305"
      },
      "geometry": {
        "type": "Polygon",
        "coordinates": [
          [
            [
              -55.7076519,
              -12.5592563
            ],
            [
              -55.7077698,
              -12.5594408
            ],
            [
              -55.707585,
              -12.5595534
            ],
            [
              -55.7074671,
              -12.5593689
            ],
            [
              -55.7076519,
              -12.5592563
            ]
          ]
        ]
      }
    },
    {
      "type": "Feature",
      "id": "way/863799858",
      "properties": {
        "timestamp": "2020-10-26T13:57:48Z",
        "version": 1,
        "changeset": 93064998,
        "addr:city": "Sorriso",
        "addr:housenumber": "577",
        "addr:street": "Rua Panambi",
        "addr:suburb": "São Mateus",
        "amenity": "clinic",
        "building": "yes",
        "healthcare": "clinic",
        "healthcare:speciality": "general",
        "name": "Posto de Saúde da Família São Matheus",
        "operator": "Prefeitura Municipal de Sorriso",
        "operator:type": "public",
        "id": "way/863799858"
      },
      "geometry": {
        "type": "Polygon",
        "coordinates": [
          [
            [
              -55.7067844,
              -12.5563646
            ],
            [
              -55.706967,
              -12.5566876
            ],
            [
              -55.7067882,
              -12.5567963
            ],
            [
              -55.7065821,
              -12.5564961
            ],
            [
              -55.7067844,
              -12.5563646
            ]
          ]
        ]
      }
    },
    {
      "type": "Feature",
      "id": "way/863801770",
      "properties": {
        "timestamp": "2020-10-29T12:53:22Z",
        "version": 2,
        "changeset": 93237792,
        "addr:city": "Sorriso",
        "addr:housenumber": "70",
        "addr:street": "Rua Aureliano Pereira da Silva",
        "addr:suburb": "Industrial 2",
        "amenity": "clinic",
        "building": "yes",
        "healthcare": "clinic",
        "healthcare:speciality": "general",
        "name": "Posto de Saúde da Família Industrial II",
        "operator": "Prefeitura Municipal de Sorriso",
        "operator:type": "public",
        "phone": "+55 66 3544 0197",
        "id": "way/863801770"
      },
      "geometry": {
        "type": "Polygon",
        "coordinates": [
          [
            [
              -55.7034377,
              -12.5512578
            ],
            [
              -55.703299,
              -12.551344
            ],
            [
              -55.7030623,
              -12.5509812
            ],
            [
              -55.7032009,
              -12.550895
            ],
            [
              -55.7034377,
              -12.5512578
            ]
          ]
        ]
      }
    },
    {
      "type": "Feature",
      "id": "way/863801771",
      "properties": {
        "timestamp": "2020-10-26T14:05:45Z",
        "version": 1,
        "changeset": 93065315,
        "addr:city": "Sorriso",
        "addr:housenumber": "1921",
        "addr:street": "Perimetral Noroeste - NO",
        "addr:suburb": "Bela Vista",
        "amenity": "clinic",
        "building": "yes",
        "healthcare": "clinic",
        "healthcare:speciality": "general",
        "name": "Posto de Saúde da Família",
        "operator": "Prefeitura Municipal de Sorriso",
        "operator:type": "public",
        "id": "way/863801771"
      },
      "geometry": {
        "type": "Polygon",
        "coordinates": [
          [
            [
              -55.7410395,
              -12.5419559
            ],
            [
              -55.7412826,
              -12.5423093
            ],
            [
              -55.7410894,
              -12.5424359
            ],
            [
              -55.7408463,
              -12.5420825
            ],
            [
              -55.7410395,
              -12.5419559
            ]
          ]
        ]
      }
    },
    {
      "type": "Feature",
      "id": "way/863803877",
      "properties": {
        "timestamp": "2020-10-28T12:08:52Z",
        "version": 2,
        "changeset": 93179124,
        "addr:city": "Sorriso",
        "addr:housenumber": "1909",
        "addr:street": "Rua São Nicolau",
        "addr:suburb": "São José",
        "amenity": "clinic",
        "building": "yes",
        "healthcare": "clinic",
        "healthcare:speciality": "general",
        "name": "Posto de Saúde da Família - São José",
        "operator": "Prefeitura",
        "operator:type": "public",
        "id": "way/863803877"
      },
      "geometry": {
        "type": "Polygon",
        "coordinates": [
          [
            [
              -55.750679,
              -12.5514865
            ],
            [
              -55.7507908,
              -12.5516638
            ],
            [
              -55.7505213,
              -12.5518259
            ],
            [
              -55.7504094,
              -12.5516485
            ],
            [
              -55.750679,
              -12.5514865
            ]
          ]
        ]
      }
    },
    {
      "type": "Feature",
      "id": "way/863803879",
      "properties": {
        "timestamp": "2020-10-26T14:14:52Z",
        "version": 1,
        "changeset": 93065640,
        "addr:city": "Sorriso",
        "addr:housenumber": "1600",
        "addr:street": "Rua Bené",
        "addr:suburb": "Centro Sul",
        "amenity": "clinic",
        "building": "yes",
        "healthcare": "clinic",
        "healthcare:speciality": "general",
        "name": "Posto de Saúde da Família Benjamin Raiser",
        "operator": "Prefeitura",
        "operator:type": "public",
        "id": "way/863803879"
      },
      "geometry": {
        "type": "Polygon",
        "coordinates": [
          [
            [
              -55.7123537,
              -12.5430119
            ],
            [
              -55.7124552,
              -12.5431636
            ],
            [
              -55.7122648,
              -12.543285
            ],
            [
              -55.7121633,
              -12.5431333
            ],
            [
              -55.7123537,
              -12.5430119
            ]
          ]
        ]
      }
    },
    {
      "type": "Feature",
      "id": "way/863812557",
      "properties": {
        "timestamp": "2020-10-26T14:52:23Z",
        "version": 1,
        "changeset": 93067130,
        "amenity": "clinic",
        "building": "yes",
        "healthcare": "clinic",
        "healthcare:speciality": "general",
        "name": "Posto de Saúde da Família Nova Aliança",
        "operator": "Prefeitura",
        "operator:type": "public",
        "id": "way/863812557"
      },
      "geometry": {
        "type": "Polygon",
        "coordinates": [
          [
            [
              -55.7090454,
              -12.569532
            ],
            [
              -55.7093495,
              -12.5693598
            ],
            [
              -55.7094644,
              -12.5695469
            ],
            [
              -55.7091603,
              -12.569719
            ],
            [
              -55.7090454,
              -12.569532
            ]
          ]
        ]
      }
    },
    {
      "type": "Feature",
      "id": "way/863826614",
      "properties": {
        "timestamp": "2020-10-26T15:44:56Z",
        "version": 1,
        "changeset": 93069223,
        "addr:city": "Sorriso",
        "addr:housenumber": "2174",
        "addr:street": "Avenida Brasil",
        "addr:suburb": "Centro",
        "air_conditioning": "yes",
        "amenity": "clinic",
        "building": "yes",
        "healthcare": "clinic",
        "healthcare:speciality": "dermatology;orthopaedics;general;radiology",
        "name": "Alliance Medical Center",
        "phone": "+55 66 3545 1026",
        "wheelchair": "yes",
        "id": "way/863826614"
      },
      "geometry": {
        "type": "Polygon",
        "coordinates": [
          [
            [
              -55.734307,
              -12.5329775
            ],
            [
              -55.7345073,
              -12.5332963
            ],
            [
              -55.7342701,
              -12.5334467
            ],
            [
              -55.734076,
              -12.5331219
            ],
            [
              -55.734307,
              -12.5329775
            ]
          ]
        ]
      }
    },
    {
      "type": "Feature",
      "id": "way/865016742",
      "properties": {
        "timestamp": "2020-10-29T13:31:42Z",
        "version": 1,
        "changeset": 93239305,
        "addr:city": "Sorriso",
        "addr:housenumber": "1413",
        "addr:street": "Rua Passo Fundo",
        "addr:suburb": "Novos Campos",
        "amenity": "clinic",
        "building": "yes",
        "healthcare": "clinic",
        "healthcare:speciality": "general",
        "name": "Unidade de Saúde da Família - Novos Campos",
        "operator": "Prefeitura",
        "operator:type": "public",
        "id": "way/865016742"
      },
      "geometry": {
        "type": "Polygon",
        "coordinates": [
          [
            [
              -55.7096329,
              -12.5582325
            ],
            [
              -55.7095113,
              -12.5580467
            ],
            [
              -55.7099734,
              -12.5577586
            ],
            [
              -55.7100951,
              -12.5579444
            ],
            [
              -55.7096329,
              -12.5582325
            ]
          ]
        ]
      }
    },
    {
      "type": "Feature",
      "id": "way/865047553",
      "properties": {
        "timestamp": "2020-10-29T15:19:34Z",
        "version": 1,
        "changeset": 93243637,
        "addr:city": "Sorriso",
        "addr:housenumber": "1197",
        "addr:street": "Rua Izolina U. Pacher",
        "addr:suburb": "Jardim Amazônia",
        "amenity": "clinic",
        "building": "yes",
        "healthcare": "clinic",
        "healthcare:speciality": "general",
        "name": "Unidade de Saúde da Família - Jardim Amazônia",
        "operator": "Prefeitura",
        "operator:type": "public",
        "id": "way/865047553"
      },
      "geometry": {
        "type": "Polygon",
        "coordinates": [
          [
            [
              -55.7333752,
              -12.560854
            ],
            [
              -55.7335607,
              -12.5607398
            ],
            [
              -55.7336945,
              -12.5609467
            ],
            [
              -55.733509,
              -12.561061
            ],
            [
              -55.7333752,
              -12.560854
            ]
          ]
        ]
      }
    },
    {
      "type": "Feature",
      "id": "way/865047562",
      "properties": {
        "timestamp": "2020-10-29T15:19:34Z",
        "version": 1,
        "changeset": 93243637,
        "addr:city": "Sorriso",
        "addr:housenumber": "615",
        "addr:street": "Avenida Londrina",
        "addr:suburb": "Jardim Carolina",
        "amenity": "clinic",
        "building": "yes",
        "healthcare": "clinic",
        "healthcare:speciality": "general",
        "name": "Unidade de Saúde da Família - Jardim Carolina",
        "operator": "Prefeitura",
        "operator:type": "public",
        "id": "way/865047562"
      },
      "geometry": {
        "type": "Polygon",
        "coordinates": [
          [
            [
              -55.7540585,
              -12.5464524
            ],
            [
              -55.7542941,
              -12.5463146
            ],
            [
              -55.7544042,
              -12.546494
            ],
            [
              -55.7541686,
              -12.5466318
            ],
            [
              -55.7540585,
              -12.5464524
            ]
          ]
        ]
      }
    },
    {
      "type": "Feature",
      "id": "way/865047563",
      "properties": {
        "timestamp": "2020-10-29T15:19:34Z",
        "version": 1,
        "changeset": 93243637,
        "addr:city": "Sorriso",
        "addr:housenumber": "283",
        "addr:street": "Rua Graciliano Ramos",
        "addr:suburb": "Pinheiros II",
        "amenity": "clinic",
        "building": "yes",
        "healthcare": "clinic",
        "healthcare:speciality": "general",
        "name": "Unidade de Saúde da Família - Pinheiros",
        "id": "way/865047563"
      },
      "geometry": {
        "type": "Polygon",
        "coordinates": [
          [
            [
              -55.7602004,
              -12.5404042
            ],
            [
              -55.760282,
              -12.5405245
            ],
            [
              -55.7601634,
              -12.5405967
            ],
            [
              -55.7600849,
              -12.5404794
            ],
            [
              -55.7602004,
              -12.5404042
            ]
          ]
        ]
      }
    },
    {
      "type": "Feature",
      "id": "way/865071251",
      "properties": {
        "timestamp": "2020-10-29T16:20:02Z",
        "version": 1,
        "changeset": 93246245,
        "addr:city": "Sorriso",
        "addr:housenumber": "257",
        "addr:street": "Rua das Nogueiras",
        "addr:suburb": "Jardim Aurora",
        "amenity": "clinic",
        "building": "yes",
        "healthcare": "clinic",
        "name": "Centro de Referencia de Atendimento da Mulher",
        "operator": "Prefeitura",
        "operator:type": "public",
        "id": "way/865071251"
      },
      "geometry": {
        "type": "Polygon",
        "coordinates": [
          [
            [
              -55.7391781,
              -12.5469166
            ],
            [
              -55.7392415,
              -12.5470132
            ],
            [
              -55.738827,
              -12.5472726
            ],
            [
              -55.7387635,
              -12.5471759
            ],
            [
              -55.7391781,
              -12.5469166
            ]
          ]
        ]
      }
    },
    {
      "type": "Feature",
      "id": "way/865074869",
      "properties": {
        "timestamp": "2020-10-29T16:32:59Z",
        "version": 1,
        "changeset": 93246672,
        "addr:city": "Sorriso",
        "addr:housenumber": "1673",
        "addr:street": "Perimetral Sudoeste - SO",
        "addr:suburb": "Jardim Europa",
        "amenity": "clinic",
        "building": "yes",
        "healthcare": "clinic",
        "healthcare:speciality": "general",
        "name": "Unidade de Referencia da Saúde - Jardim Europa",
        "operator": "Prefeitura",
        "operator:type": "public",
        "phone": "+55 66 3907 5581",
        "id": "way/865074869"
      },
      "geometry": {
        "type": "Polygon",
        "coordinates": [
          [
            [
              -55.7317676,
              -12.550017
            ],
            [
              -55.7319767,
              -12.5503258
            ],
            [
              -55.7317819,
              -12.5504515
            ],
            [
              -55.7315728,
              -12.5501427
            ],
            [
              -55.7317676,
              -12.550017
            ]
          ]
        ]
      }
    },
    {
      "type": "Feature",
      "id": "way/865081850",
      "properties": {
        "timestamp": "2020-10-29T16:58:32Z",
        "version": 1,
        "changeset": 93247617,
        "addr:housenumber": "1623",
        "addr:street": "Rua Bené",
        "amenity": "clinic",
        "building": "yes",
        "healthcare": "clinic",
        "name": "Centro de Atendimento Psicossocial",
        "operator": "Prefeitura",
        "operator:type": "public",
        "id": "way/865081850"
      },
      "geometry": {
        "type": "Polygon",
        "coordinates": [
          [
            [
              -55.712247,
              -12.5428586
            ],
            [
              -55.7123355,
              -12.5429845
            ],
            [
              -55.7121703,
              -12.5430951
            ],
            [
              -55.7120818,
              -12.5429692
            ],
            [
              -55.712247,
              -12.5428586
            ]
          ]
        ]
      }
    },
    {
      "type": "Feature",
      "id": "node/5115106567",
      "properties": {
        "timestamp": "2017-09-19T12:07:42Z",
        "version": 1,
        "changeset": 52175345,
        "amenity": "clinic",
        "name": "Unidade de Pronto Atendimento (UPA)",
        "id": "node/5115106567"
      },
      "geometry": {
        "type": "Point",
        "coordinates": [
          -55.7242012,
          -12.5405703
        ]
      }
    },
    {
      "type": "Feature",
      "id": "node/5115106568",
      "properties": {
        "timestamp": "2017-09-19T12:07:42Z",
        "version": 1,
        "changeset": 52175345,
        "amenity": "clinic",
        "name": "Ambulatório Multiprofissional de Especialidades (AME)",
        "id": "node/5115106568"
      },
      "geometry": {
        "type": "Point",
        "coordinates": [
          -55.7245444,
          -12.539814
        ]
      }
    },
    {
      "type": "Feature",
      "id": "node/5115106569",
      "properties": {
        "timestamp": "2017-09-19T12:07:42Z",
        "version": 1,
        "changeset": 52175345,
        "amenity": "clinic",
        "name": "Posto de Saúde Familiar (PSF) Central",
        "id": "node/5115106569"
      },
      "geometry": {
        "type": "Point",
        "coordinates": [
          -55.7241231,
          -12.5401351
        ]
      }
    }
  ]
}
