{
  "type": "FeatureCollection",
  "features": [
    {
      "type": "Feature",
      "id": "way/786908036",
      "properties": {
        "timestamp": "2023-01-16T14:31:50Z",
        "version": 3,
        "changeset": 131340726,
        "addr:city": "sorriso",
        "addr:housenumber": "4280",
        "addr:postcode": "78890248",
        "addr:street": "Avenida Blumenau",
        "addr:suburb": "Recanto dos passaros",
        "amenity": "dentist",
        "building": "yes",
        "healthcare": "dentist",
        "healthcare:speciality": "orthodontics;cirurgia_dentária;oral_e_maxilofacial",
        "name": "Clínica CEFF - Centro Estético e Funcional da Face",
        "opening_hours": "Mo-Fr 07:30-17:30",
        "id": "way/786908036"
      },
      "geometry": {
        "type": "Polygon",
        "coordinates": [
          [
            [
              -55.7179688,
              -12.5337471
            ],
            [
              -55.7177042,
              -12.5339076
            ],
            [
              -55.7176335,
              -12.5337965
            ],
            [
              -55.717898,
              -12.5336359
            ],
            [
              -55.7179688,
              -12.5337471
            ]
          ]
        ]
      }
    }
  ]
}
