{
  "type": "FeatureCollection",
  "features": [
    {
      "type": "Feature",
      "id": "way/792576801",
      "properties": {
        "timestamp": "2022-06-27T16:42:05Z",
        "version": 5,
        "changeset": 122918678,
        "addr:city": "Sorriso",
        "addr:housenumber": "2525",
        "addr:postcode": "78890-000",
        "addr:street": "Avenida Porto Alegre",
        "addr:suburb": "Centro",
        "building": "yes",
        "government": "public_service",
        "name": "PREFEITURA MUNICIPAL DE SORRISO",
        "office": "government",
        "opening_hours": "Mo-Fr 07:00-13:00",
        "phone": "+55 66 3545 4700",
        "website": "www.sorriso.mt.gov.br",
        "id": "way/792576801"
      },
      "geometry": {
        "type": "Polygon",
        "coordinates": [
          [
            [
              -55.7275798,
              -12.5450351
            ],
            [
              -55.7278059,
              -12.5453768
            ],
            [
              -55.7282639,
              -12.545088
            ],
            [
              -55.7284646,
              -12.5453913
            ],
            [
              -55.7275145,
              -12.5459906
            ],
            [
              -55.7270874,
              -12.5453456
            ],
            [
              -55.7275798,
              -12.5450351
            ]
          ]
        ]
      }
    },
    {
      "type": "Feature",
      "id": "way/792576803",
      "properties": {
        "timestamp": "2021-06-02T20:04:05Z",
        "version": 5,
        "changeset": 105739176,
        "addr:city": "Sorriso",
        "addr:housenumber": "2615",
        "addr:postcode": "78890-000",
        "addr:street": "Avenida Porto Alegre",
        "addr:suburb": "Centro",
        "building": "yes",
        "government": "public_service",
        "name": "CAMARA MUNICIPAL DE SORRISO",
        "office": "government",
        "opening_hours": "Mo-Fr 07:00-13:00",
        "phone": "+55 66 3545 7200",
        "website": "https://sorriso.mt.leg.br/",
        "id": "way/792576803"
      },
      "geometry": {
        "type": "Polygon",
        "coordinates": [
          [
            [
              -55.7271277,
              -12.5447803
            ],
            [
              -55.7273483,
              -12.5451216
            ],
            [
              -55.7270281,
              -12.545322
            ],
            [
              -55.7268076,
              -12.5449886
            ],
            [
              -55.7271277,
              -12.5447803
            ]
          ]
        ]
      }
    },
    {
      "type": "Feature",
      "id": "way/864615386",
      "properties": {
        "timestamp": "2020-10-28T11:45:05Z",
        "version": 1,
        "changeset": 93177513,
        "addr:city": "Sorriso",
        "addr:housenumber": "2727",
        "addr:street": "Avenida Blumenau",
        "addr:suburb": "Centro Norte",
        "building": "yes",
        "government": "register_office",
        "name": "Cartório 1º Ofício Da Comarca De Sorriso",
        "office": "government",
        "opening_hours": "Mo-Fr 09:00-17:00",
        "phone": "+55 66 3544 3030",
        "website": "http://www.srisorriso.com.br/home.faces",
        "id": "way/864615386"
      },
      "geometry": {
        "type": "Polygon",
        "coordinates": [
          [
            [
              -55.7263721,
              -12.5454244
            ],
            [
              -55.7265662,
              -12.5457227
            ],
            [
              -55.7262901,
              -12.5458938
            ],
            [
              -55.726096,
              -12.5455955
            ],
            [
              -55.7263721,
              -12.5454244
            ]
          ]
        ]
      }
    },
    {
      "type": "Feature",
      "id": "way/865081851",
      "properties": {
        "timestamp": "2020-10-29T16:58:32Z",
        "version": 1,
        "changeset": 93247617,
        "addr:city": "Sorriso",
        "addr:housenumber": "213",
        "addr:street": "Avenida Rio Grande do Sul",
        "addr:suburb": "Benjamin Raiser",
        "building": "yes",
        "government": "administrative",
        "name": "Secretaria de Segurança Pública, Transito e Defesa Civil",
        "office": "government",
        "id": "way/865081851"
      },
      "geometry": {
        "type": "Polygon",
        "coordinates": [
          [
            [
              -55.7099521,
              -12.5405522
            ],
            [
              -55.7102479,
              -12.5410364
            ],
            [
              -55.7099952,
              -12.5412018
            ],
            [
              -55.7096933,
              -12.5407146
            ],
            [
              -55.7099521,
              -12.5405522
            ]
          ]
        ]
      }
    },
    {
      "type": "Feature",
      "id": "way/1269080826",
      "properties": {
        "timestamp": "2024-04-04T15:20:35Z",
        "version": 1,
        "changeset": 149575498,
        "building": "yes",
        "name": "Equipamento Comunitário",
        "office": "government",
        "id": "way/1269080826"
      },
      "geometry": {
        "type": "Polygon",
        "coordinates": [
          [
            [
              -55.1459706,
              -13.5137248
            ],
            [
              -55.1472263,
              -13.5151917
            ],
            [
              -55.1463196,
              -13.5159257
            ],
            [
              -55.1450635,
              -13.5144591
            ],
            [
              -55.1459706,
              -13.5137248
            ]
          ]
        ]
      }
    },
    {
      "type": "Feature",
      "id": "way/1269080832",
      "properties": {
        "timestamp": "2024-04-04T15:20:35Z",
        "version": 1,
        "changeset": 149575498,
        "building": "yes",
        "name": "Equipamento Comunitário",
        "office": "government",
        "id": "way/1269080832"
      },
      "geometry": {
        "type": "Polygon",
        "coordinates": [
          [
            [
              -55.1455407,
              -13.5109693
            ],
            [
              -55.1459612,
              -13.5114708
            ],
            [
              -55.1450274,
              -13.5122111
            ],
            [
              -55.1446068,
              -13.5117094
            ],
            [
              -55.1455407,
              -13.5109693
            ]
          ]
        ]
      }
    },
    {
      "type": "Feature",
      "id": "node/5113341070",
      "properties": {
        "timestamp": "2023-07-07T18:35:00Z",
        "version": 3,
        "changeset": 138240236,
        "addr:city": "Sorriso",
        "addr:postcode": "78890-000",
        "addr:street": "Avenida Blumenau Sul",
        "addr:suburb": "Rota do Sol",
        "name": "Secretaria Municipal de Indústria, Comércio e Turismo",
        "office": "government",
        "id": "node/5113341070"
      },
      "geometry": {
        "type": "Point",
        "coordinates": [
          -55.7456325,
          -12.5763439
        ]
      }
    }
  ]
}
