{
  "type": "FeatureCollection",
  "features": [
    {
      "type": "Feature",
      "id": "way/307926096",
      "properties": {
        "timestamp": "2025-03-06T21:27:35Z",
        "version": 3,
        "changeset": 163302990,
        "amenity": "library",
        "building": "yes",
        "name": "Biblioteca - UEA/EST",
        "id": "way/307926096"
      },
      "geometry": {
        "type": "Polygon",
        "coordinates": [
          [
            [
              -60.018972,
              -3.0918858
            ],
            [
              -60.0188023,
              -3.091864
            ],
            [
              -60.0188448,
              -3.0915352
            ],
            [
              -60.0190144,
              -3.0915571
            ],
            [
              -60.018972,
              -3.0918858
            ]
          ]
        ]
      }
    },
    {
      "type": "Feature",
      "id": "node/1924780623",
      "properties": {
        "timestamp": "2022-10-27T16:15:43Z",
        "version": 4,
        "changeset": 128137200,
        "addr:city": "Manaus",
        "addr:housenumber": "57",
        "addr:street": "Rua Barroso",
        "addr:suburb": "Centro",
        "amenity": "library",
        "description": "A Biblioteca Pública do Amazonas foi inaugurada no dia 19 de março de 1871, às 11 horas da manhã, em solenidade presidida pelo Presidente da Província, José de Miranda da Silva Reis.",
        "name": "Biblioteca Pública do Amazonas",
        "opening_hours": "Mo-Fr 08:00-17:00",
        "phone": "+55 92 3637 6660",
        "id": "node/1924780623"
      },
      "geometry": {
        "type": "Point",
        "coordinates": [
          -60.0233252,
          -3.1342682
        ]
      }
    },
    {
      "type": "Feature",
      "id": "node/10132955279",
      "properties": {
        "timestamp": "2022-10-27T16:15:43Z",
        "version": 1,
        "changeset": 128137200,
        "addr:city": "Manaus",
        "addr:housenumber": "70",
        "addr:street": "Rua Itamaracá",
        "addr:suburb": "Centro",
        "amenity": "library",
        "description": "A Biblioteca Padre Agostinho Caballero Martin, inaugurada em 27 de novembro de 2001, está instalada no 1º andar do prédio da Casa da Cultura, edifício totalmente restaurado pelo Governo do Estado do Amazonas, através do Projeto Manaus Belle-Époque.",
        "name": "Biblioteca Padre Agostinho Caballero Martin",
        "opening_hours": "Mo-Fr 08:00-17:00",
        "phone": "+55 92 3633 7955",
        "id": "node/10132955279"
      },
      "geometry": {
        "type": "Point",
        "coordinates": [
          -60.0267398,
          -3.1335098
        ]
      }
    },
    {
      "type": "Feature",
      "id": "node/10132968577",
      "properties": {
        "timestamp": "2022-10-27T16:37:30Z",
        "version": 1,
        "changeset": 128138037,
        "addr:city": "Manaus",
        "addr:housenumber": "216",
        "addr:street": "Rua Costa Azevedo",
        "addr:suburb": "Centro",
        "amenity": "library",
        "description": "A Biblioteca Municipal João Bosco Pantoja Evangelista funciona atualmente em frente ao Largo de São Sebastião. Possui um acervo de aproximadamente 4 mil títulos dentre livros de temáticas amazônicas, didáticos, acadêmicos, lúdicos, pedagógicos.",
        "name": "Biblioteca João Bosco Pantoja Evangelista",
        "opening_hours": "Mo-Fr 08:00-17:00",
        "phone": "+55 92 3215 4615",
        "id": "node/10132968577"
      },
      "geometry": {
        "type": "Point",
        "coordinates": [
          -60.0221233,
          -3.1308023
        ]
      }
    },
    {
      "type": "Feature",
      "id": "node/10132971089",
      "properties": {
        "timestamp": "2022-10-27T16:20:57Z",
        "version": 1,
        "changeset": 128137392,
        "addr:city": "Manaus",
        "addr:street": "Avenida Sete de Setembro",
        "addr:suburb": "Centro",
        "amenity": "library",
        "description": "Possui esse nome em homenagem à Thália Phedra Borges dos Santos, bibliotecária nascida em 1939, atuante direta na luta por melhorias nos serviços bibliotecários no estado do Amazonas, e falecida em 1983 aos 43 anos de idade.A biblioteca fica situada",
        "name": "Biblioteca Thalia Phedra",
        "opening_hours": "Mo-Fr 08:00-21:00",
        "phone": "+55 92 3234 0588",
        "id": "node/10132971089"
      },
      "geometry": {
        "type": "Point",
        "coordinates": [
          -60.0283601,
          -3.1347254
        ]
      }
    },
    {
      "type": "Feature",
      "id": "node/10133057164",
      "properties": {
        "timestamp": "2024-11-29T19:26:36Z",
        "version": 2,
        "changeset": 159754005,
        "addr:city": "Manaus",
        "addr:housenumber": "2222",
        "addr:street": "Avenida General Rodrigo Otávio",
        "addr:suburb": "Distrito Industrial",
        "amenity": "library",
        "name": "Biblioteca Arthur Reis",
        "phone": "+55 92 2523 5317",
        "id": "node/10133057164"
      },
      "geometry": {
        "type": "Point",
        "coordinates": [
          -59.9872117,
          -3.1329556
        ]
      }
    },
    {
      "type": "Feature",
      "id": "node/10133057166",
      "properties": {
        "timestamp": "2022-10-27T16:51:57Z",
        "version": 1,
        "changeset": 128138599,
        "addr:city": "Manaus",
        "addr:housenumber": "2222",
        "addr:street": "Avenida Governador Danilo de Matos Areosa",
        "addr:suburb": "Distrito Industrial",
        "amenity": "library",
        "name": "Biblioteca Mário Ypiranga",
        "opening_hours": "Mo-Fr 08:00-14:00",
        "phone": "+55 92 2125 5328",
        "id": "node/10133057166"
      },
      "geometry": {
        "type": "Point",
        "coordinates": [
          -59.9869381,
          -3.133277
        ]
      }
    },
    {
      "type": "Feature",
      "id": "node/11005745595",
      "properties": {
        "timestamp": "2023-06-25T14:41:28Z",
        "version": 1,
        "changeset": 137755101,
        "amenity": "library",
        "name": "Biblioteca José Aldemir de Oliveira",
        "id": "node/11005745595"
      },
      "geometry": {
        "type": "Point",
        "coordinates": [
          -59.9395259,
          -3.0068149
        ]
      }
    },
    {
      "type": "Feature",
      "id": "node/11134901705",
      "properties": {
        "timestamp": "2023-08-21T19:59:51Z",
        "version": 1,
        "changeset": 140198897,
        "addr:city": "Manaus",
        "addr:postcode": "69030-500",
        "addr:street": "Rua São Pedro",
        "addr:suburb": "Coroado",
        "amenity": "library",
        "name": "Biblioteca da Escola Estadual Cacilda Braule Pinto",
        "opening_hours": "Mo-Su 07:00-22:00",
        "operator": "Governo do Estado",
        "operator:type": "public",
        "id": "node/11134901705"
      },
      "geometry": {
        "type": "Point",
        "coordinates": [
          -59.9828742,
          -3.0902166
        ]
      }
    }
  ]
}
