{
  "type": "FeatureCollection",
  "features": [
    {
      "type": "Feature",
      "id": "relation/9678558",
      "properties": {
        "timestamp": "2021-08-18T00:55:49Z",
        "version": 2,
        "changeset": 109839561,
        "amenity": "social_facility",
        "name": "Serviço Social da Industria",
        "type": "multipolygon",
        "id": "relation/9678558"
      },
      "geometry": {
        "type": "Polygon",
        "coordinates": [
          [
            [
              -60.0365112,
              -3.078086
            ],
            [
              -60.0364564,
              -3.0786843
            ],
            [
              -60.0363402,
              -3.0790448
            ],
            [
              -60.0355514,
              -3.0787837
            ],
            [
              -60.0352241,
              -3.0786545
            ],
            [
              -60.0350313,
              -3.078358
            ],
            [
              -60.0353053,
              -3.0773039
            ],
            [
              -60.0357037,
              -3.0774864
            ],
            [
              -60.03621,
              -3.0780439
            ],
            [
              -60.0365112,
              -3.078086
            ]
          ]
        ]
      }
    },
    {
      "type": "Feature",
      "id": "way/879079177",
      "properties": {
        "timestamp": "2020-11-30T02:07:07Z",
        "version": 1,
        "changeset": 95009268,
        "amenity": "social_facility",
        "building": "yes",
        "name": "Centro Estadual de Convivência do Idoso",
        "social_facility": "nursing_home",
        "social_facility:for": "senior",
        "id": "way/879079177"
      },
      "geometry": {
        "type": "Polygon",
        "coordinates": [
          [
            [
              -60.0325356,
              -3.1277524
            ],
            [
              -60.032731,
              -3.1283087
            ],
            [
              -60.0319265,
              -3.1285906
            ],
            [
              -60.031731,
              -3.1280341
            ],
            [
              -60.0325356,
              -3.1277524
            ]
          ]
        ]
      }
    },
    {
      "type": "Feature",
      "id": "node/2393935214",
      "properties": {
        "timestamp": "2017-07-26T19:06:54Z",
        "version": 3,
        "changeset": 50598090,
        "amenity": "social_facility",
        "building": "public",
        "name": "Casa do Albergado",
        "social_facility": "shelter",
        "social_facility:for": "homeless",
        "id": "node/2393935214"
      },
      "geometry": {
        "type": "Point",
        "coordinates": [
          -60.0063103,
          -3.1202099
        ]
      }
    },
    {
      "type": "Feature",
      "id": "node/4949929374",
      "properties": {
        "timestamp": "2023-01-23T19:41:52Z",
        "version": 4,
        "changeset": 131622536,
        "addr:street": "Rua Curió",
        "alt_name": "Centro de Referência Especializado de Assistência Social Cidade Nova",
        "amenity": "social_facility",
        "name": "CREAS Cidade Nova",
        "social_facility": "outreach",
        "social_facility:for": "underprivileged;abused;victim",
        "id": "node/4949929374"
      },
      "geometry": {
        "type": "Point",
        "coordinates": [
          -59.98303,
          -3.0289936
        ]
      }
    },
    {
      "type": "Feature",
      "id": "node/9618721638",
      "properties": {
        "timestamp": "2023-01-26T18:48:52Z",
        "version": 2,
        "changeset": 131743966,
        "addr:city": "Manaus",
        "addr:housenumber": "1101",
        "addr:postcode": "69020-070",
        "addr:street": "Avenida Leonardo Malcher",
        "addr:suburb": "Centro",
        "alt_name": "Centro de Referência Especializado de Assistência Social Centro-Sul",
        "amenity": "social_facility",
        "name": "CREAS Centro-Sul",
        "phone": "+55 92 3232 7886",
        "social_facility": "outreach",
        "social_facility:for": "underprivileged;abused;victim",
        "source": "mapa_acolhimento",
        "id": "node/9618721638"
      },
      "geometry": {
        "type": "Point",
        "coordinates": [
          -60.022515,
          -3.1257727
        ]
      }
    },
    {
      "type": "Feature",
      "id": "node/9618721640",
      "properties": {
        "timestamp": "2023-02-02T18:14:31Z",
        "version": 2,
        "changeset": 132013964,
        "addr:city": "Manaus",
        "addr:street": "Avenida Senador Raimundo Parente",
        "addr:suburb": "Alvorada",
        "alt_name": "Centro de Referência de Assistência Social Glória",
        "amenity": "social_facility",
        "name": "CRAS Glória",
        "opening_hours": "Mo-Fr 08:00-17:00",
        "phone": "+55 92 3625 6033",
        "social_facility": "outreach",
        "social_facility:for": "underprivileged",
        "source": "mapa_acolhimento",
        "id": "node/9618721640"
      },
      "geometry": {
        "type": "Point",
        "coordinates": [
          -60.0339424,
          -3.0688924
        ]
      }
    },
    {
      "type": "Feature",
      "id": "node/9629412219",
      "properties": {
        "timestamp": "2023-02-02T18:14:31Z",
        "version": 2,
        "changeset": 132013964,
        "addr:city": "Manaus",
        "addr:housenumber": "20",
        "addr:postcode": "69030-070",
        "addr:street": "Rua da Indústria",
        "addr:suburb": "Compensa 1",
        "alt_name": "Centro de Referência de Assistência Social Compensa 1",
        "amenity": "social_facility",
        "name": "CRAS Compensa 1",
        "opening_hours": "Mo-Fr 07:00-15:00",
        "phone": "+55 92 3671 4767",
        "social_facility": "outreach",
        "social_facility:for": "underprivileged",
        "source": "mapa_acolhimento",
        "id": "node/9629412219"
      },
      "geometry": {
        "type": "Point",
        "coordinates": [
          -60.0505975,
          -3.1030031
        ]
      }
    },
    {
      "type": "Feature",
      "id": "node/9629412220",
      "properties": {
        "timestamp": "2023-02-02T18:14:31Z",
        "version": 2,
        "changeset": 132013964,
        "addr:city": "Manaus",
        "addr:housenumber": "102",
        "addr:postcode": "69035-650",
        "addr:street": "Rua Eduardo Prado",
        "addr:suburb": "Compensa II",
        "alt_name": "Centro de Referência de Assistência Social Compensa II",
        "amenity": "social_facility",
        "name": "CRAS Compensa II",
        "opening_hours": "Mo-Fr 08:00-17:00",
        "phone": "+55 92 3671 1426",
        "social_facility": "outreach",
        "social_facility:for": "underprivileged",
        "source": "mapa_acolhimento",
        "id": "node/9629412220"
      },
      "geometry": {
        "type": "Point",
        "coordinates": [
          -60.0621417,
          -3.1049419
        ]
      }
    },
    {
      "type": "Feature",
      "id": "node/9629412222",
      "properties": {
        "timestamp": "2023-02-02T18:14:31Z",
        "version": 2,
        "changeset": 132013964,
        "addr:city": "Manaus",
        "addr:housenumber": "2000",
        "addr:postcode": "69042-125",
        "addr:street": "Rua Hidelbrando Antony",
        "alt_name": "Centro de Referência de Assistência Social Alvorada III",
        "amenity": "social_facility",
        "name": "CRAS Alvorada III",
        "opening_hours": "Mo-Fr 08:00-14:00",
        "phone": "+55 92 3239 2003",
        "social_facility": "outreach",
        "social_facility:for": "underprivileged",
        "source": "mapa_acolhimento",
        "id": "node/9629412222"
      },
      "geometry": {
        "type": "Point",
        "coordinates": [
          -60.0574444,
          -3.0745456
        ]
      }
    },
    {
      "type": "Feature",
      "id": "node/9629412223",
      "properties": {
        "timestamp": "2023-02-02T18:14:31Z",
        "version": 2,
        "changeset": 132013964,
        "addr:city": "Manaus",
        "addr:postcode": "69047-000",
        "addr:street": "Rua Olinda",
        "addr:suburb": "Redenção",
        "alt_name": "Centro de Referência de Assistência Social Redenção",
        "amenity": "social_facility",
        "name": "CRAS Redenção",
        "opening_hours": "Mo-Fr 07:00-14:00",
        "phone": "+55 92 3654 7775",
        "social_facility": "outreach",
        "social_facility:for": "underprivileged",
        "source": "mapa_acolhimento",
        "id": "node/9629412223"
      },
      "geometry": {
        "type": "Point",
        "coordinates": [
          -60.0464762,
          -3.0556683
        ]
      }
    },
    {
      "type": "Feature",
      "id": "node/9629412224",
      "properties": {
        "timestamp": "2023-02-02T18:14:31Z",
        "version": 2,
        "changeset": 132013964,
        "addr:city": "Manaus",
        "addr:housenumber": "18",
        "addr:postcode": "69058-808",
        "addr:street": "Rua Desembargador Gaspar Guimarães",
        "addr:suburb": "Parque Dez de Novembro",
        "alt_name": "Centro de Referência de Assistência Social União",
        "amenity": "social_facility",
        "name": "CRAS União",
        "opening_hours": "Mo-Fr 07:30-13:30",
        "phone": "+55 92 3634 5078",
        "social_facility": "outreach",
        "social_facility:for": "underprivileged",
        "source": "mapa_acolhimento",
        "id": "node/9629412224"
      },
      "geometry": {
        "type": "Point",
        "coordinates": [
          -60.0135766,
          -3.0773323
        ]
      }
    },
    {
      "type": "Feature",
      "id": "node/9634122579",
      "properties": {
        "timestamp": "2023-02-02T18:14:31Z",
        "version": 2,
        "changeset": 132013964,
        "addr:city": "Manaus",
        "addr:housenumber": "26",
        "addr:postcode": "69073-090",
        "addr:street": "Rua São Lázaro",
        "addr:suburb": "Betânia",
        "alt_name": "Centro de Referência de Assistência Social Betânia",
        "amenity": "social_facility",
        "name": "CRAS Betânia",
        "opening_hours": "Mo-Fr 08:00-17:00",
        "phone": "+55 92 3237 7678",
        "social_facility": "outreach",
        "social_facility:for": "underprivileged",
        "source": "mapa_acolhimento",
        "id": "node/9634122579"
      },
      "geometry": {
        "type": "Point",
        "coordinates": [
          -59.9949905,
          -3.1378969
        ]
      }
    }
  ]
}
