{
  "type": "FeatureCollection",
  "features": [
    {
      "type": "Feature",
      "id": "way/1124116625",
      "properties": {
        "timestamp": "2022-12-22T11:02:48Z",
        "version": 1,
        "changeset": 130369826,
        "addr:city": "Nova Venécia",
        "addr:housenumber": "420",
        "addr:postcode": "29650-000",
        "addr:street": "Avenida Joaquim Daher Rocha",
        "addr:suburb": "São Francisco",
        "amenity": "clinic",
        "building": "yes",
        "healthcare": "clinic",
        "healthcare:speciality": "general",
        "name": "Rede Cuidar Nova Venécia",
        "operator": "Secretaria de Estado da Saúde",
        "operator:type": "public",
        "phone": "+55 27 3752 4450",
        "website": "https://redecuidar.es.gov.br/nova-venecia",
        "id": "way/1124116625"
      },
      "geometry": {
        "type": "Polygon",
        "coordinates": [
          [
            [
              -40.4013041,
              -18.6953884
            ],
            [
              -40.4010366,
              -18.6955296
            ],
            [
              -40.400993,
              -18.6954554
            ],
            [
              -40.4010419,
              -18.6954296
            ],
            [
              -40.4008351,
              -18.6950779
            ],
            [
              -40.4009046,
              -18.6950413
            ],
            [
              -40.4008906,
              -18.6950174
            ],
            [
              -40.4010396,
              -18.6949387
            ],
            [
              -40.4013041,
              -18.6953884
            ]
          ]
        ]
      }
    },
    {
      "type": "Feature",
      "id": "way/1124249492",
      "properties": {
        "timestamp": "2022-12-22T18:15:11Z",
        "version": 1,
        "changeset": 130387290,
        "addr:city": "Nova Venécia",
        "addr:housenumber": "666",
        "addr:postcode": "29830-000",
        "addr:street": "Rua Eleosipio Rodrigues Cunha",
        "addr:suburb": "Rúbia",
        "amenity": "clinic",
        "building": "yes",
        "healthcare": "clinic",
        "healthcare:speciality": "general",
        "name": "Unidade de Saúde da Família João Cimadon",
        "operator": "Município de Nova Venécia",
        "operator:type": "public",
        "id": "way/1124249492"
      },
      "geometry": {
        "type": "Polygon",
        "coordinates": [
          [
            [
              -40.396405,
              -18.7003771
            ],
            [
              -40.3963529,
              -18.7004439
            ],
            [
              -40.3962957,
              -18.7004038
            ],
            [
              -40.396281,
              -18.7004226
            ],
            [
              -40.3963859,
              -18.700496
            ],
            [
              -40.3962824,
              -18.7006287
            ],
            [
              -40.3960552,
              -18.7004696
            ],
            [
              -40.3961653,
              -18.7003285
            ],
            [
              -40.3962341,
              -18.7003766
            ],
            [
              -40.3962942,
              -18.7002995
            ],
            [
              -40.396405,
              -18.7003771
            ]
          ]
        ]
      }
    },
    {
      "type": "Feature",
      "id": "way/1124265970",
      "properties": {
        "timestamp": "2022-12-22T19:32:54Z",
        "version": 1,
        "changeset": 130389786,
        "addr:city": "Nova Venécia",
        "addr:housenumber": "26",
        "addr:postcode": "29830-000",
        "addr:street": "Rua Ibiraçu",
        "addr:suburb": "Beira Rio",
        "amenity": "clinic",
        "building": "yes",
        "healthcare": "clinic",
        "healthcare:speciality": "general",
        "name": "Unidade Central de Saúde Angelo Piassarolli",
        "operator": "Município de Nova Venécia",
        "operator:type": "public",
        "phone": "+55 27 3772 6868",
        "id": "way/1124265970"
      },
      "geometry": {
        "type": "Polygon",
        "coordinates": [
          [
            [
              -40.3973684,
              -18.7074708
            ],
            [
              -40.3972892,
              -18.7075403
            ],
            [
              -40.3972737,
              -18.7075245
            ],
            [
              -40.3971993,
              -18.7074485
            ],
            [
              -40.3971059,
              -18.7075305
            ],
            [
              -40.3970665,
              -18.7074902
            ],
            [
              -40.3969061,
              -18.7076309
            ],
            [
              -40.3967687,
              -18.7074906
            ],
            [
              -40.3971017,
              -18.7071983
            ],
            [
              -40.3973684,
              -18.7074708
            ]
          ]
        ]
      }
    },
    {
      "type": "Feature",
      "id": "node/10279935734",
      "properties": {
        "timestamp": "2022-12-22T11:02:48Z",
        "version": 1,
        "changeset": 130369826,
        "addr:city": "Nova Venécia",
        "addr:postcode": "29830-000",
        "addr:street": "Rua Ernesto Geisel",
        "addr:suburb": "Altoé",
        "amenity": "clinic",
        "healthcare": "clinic",
        "healthcare:speciality": "general",
        "name": "Estratégia de Saúde da Família do Bairro Altoé",
        "operator": "Secretaria Municipal de Saúde de Nova Venécia Semsa",
        "operator:type": "public",
        "phone": "+55 27 3752 9053",
        "id": "node/10279935734"
      },
      "geometry": {
        "type": "Point",
        "coordinates": [
          -40.3912325,
          -18.6887379
        ]
      }
    }
  ]
}
