{
  "type": "FeatureCollection",
  "features": [
    {
      "type": "Feature",
      "id": "way/1019671358",
      "properties": {
        "timestamp": "2022-01-09T11:35:20Z",
        "version": 1,
        "changeset": 115938246,
        "addr:city": "Nova Venécia",
        "addr:housenumber": "106",
        "addr:postcode": "29830-000",
        "addr:street": "Rua Doutor Renato Araújo Maia",
        "addr:suburb": "Centro",
        "building": "yes",
        "building:levels": "1",
        "government": "prosecutor",
        "name": "Promotoria Geral de Justiça de Nova Venécia",
        "office": "government",
        "id": "way/1019671358"
      },
      "geometry": {
        "type": "Polygon",
        "coordinates": [
          [
            [
              -40.3994947,
              -18.7112775
            ],
            [
              -40.3994551,
              -18.7113017
            ],
            [
              -40.3993932,
              -18.7112883
            ],
            [
              -40.3993742,
              -18.7112605
            ],
            [
              -40.3993838,
              -18.7112547
            ],
            [
              -40.3993634,
              -18.7112249
            ],
            [
              -40.3993557,
              -18.7112296
            ],
            [
              -40.39935,
              -18.7112212
            ],
            [
              -40.3993585,
              -18.711216
            ],
            [
              -40.3993181,
              -18.7111567
            ],
            [
              -40.3993073,
              -18.7111633
            ],
            [
              -40.3992721,
              -18.7111116
            ],
            [
              -40.3992862,
              -18.711103
            ],
            [
              -40.3992704,
              -18.7110798
            ],
            [
              -40.3993339,
              -18.711041
            ],
            [
              -40.3994947,
              -18.7112775
            ]
          ]
        ]
      }
    },
    {
      "type": "Feature",
      "id": "way/1019671371",
      "properties": {
        "timestamp": "2022-12-22T18:15:11Z",
        "version": 2,
        "changeset": 130387290,
        "addr:city": "Nova Venécia",
        "addr:housenumber": "99",
        "addr:postcode": "29830-000",
        "addr:street": "Rua Anchieta",
        "addr:suburb": "Filomena",
        "building": "yes",
        "building:levels": "2",
        "email": "aps07001090@inss.gov.br",
        "government": "social_security",
        "name": "Agência da Previdência Social de Nova Venécia",
        "office": "government",
        "phone": "+55 27 3752 1720",
        "id": "way/1019671371"
      },
      "geometry": {
        "type": "Polygon",
        "coordinates": [
          [
            [
              -40.3999896,
              -18.7132942
            ],
            [
              -40.3999412,
              -18.7134044
            ],
            [
              -40.3997286,
              -18.7133206
            ],
            [
              -40.3997353,
              -18.7133053
            ],
            [
              -40.3996942,
              -18.7132891
            ],
            [
              -40.399725,
              -18.7132188
            ],
            [
              -40.3997629,
              -18.7132338
            ],
            [
              -40.399779,
              -18.7131972
            ],
            [
              -40.399816,
              -18.7132118
            ],
            [
              -40.3998108,
              -18.7132238
            ],
            [
              -40.3999896,
              -18.7132942
            ]
          ]
        ]
      }
    },
    {
      "type": "Feature",
      "id": "node/5300663480",
      "properties": {
        "timestamp": "2022-12-23T14:52:59Z",
        "version": 4,
        "changeset": 130424850,
        "addr:city": "Nova Venécia",
        "addr:postcode": "29830-000",
        "addr:street": "Rua Eurico Sales",
        "addr:suburb": "Centro",
        "government": "register_office",
        "name": "Cartório de Registro Civil e Tabelionato de Notas da Sede e Comarca de Nova Venécia/ES",
        "office": "government",
        "id": "node/5300663480"
      },
      "geometry": {
        "type": "Point",
        "coordinates": [
          -40.4004757,
          -18.7096477
        ]
      }
    },
    {
      "type": "Feature",
      "id": "node/5300663482",
      "properties": {
        "timestamp": "2022-12-23T14:52:59Z",
        "version": 3,
        "changeset": 130424850,
        "addr:city": "Nova Venécia",
        "addr:housenumber": "23",
        "addr:postcode": "29830-000",
        "addr:street": "Rua Tito Cid Magalhães",
        "addr:suburb": "Centro",
        "government": "register_office",
        "mobile": "+55 27 99882 3443",
        "name": "Cartório de 1° Ofício - Registro Geral de Imoveis da Comarca de Nova Venécia",
        "office": "government",
        "phone": "+55 27 3752 2175",
        "id": "node/5300663482"
      },
      "geometry": {
        "type": "Point",
        "coordinates": [
          -40.4024122,
          -18.709017
        ]
      }
    },
    {
      "type": "Feature",
      "id": "node/10282370051",
      "properties": {
        "timestamp": "2022-12-23T14:52:59Z",
        "version": 1,
        "changeset": 130424850,
        "addr:city": "Nova Venécia",
        "addr:housenumber": "624",
        "addr:postcode": "29830-000",
        "addr:street": "Avenida Vitória",
        "addr:suburb": "Centro",
        "email": "novavenecia@incaper.es.gov.br",
        "government": "agriculture",
        "name": "Escritório Local de Desenvolvimento Rural do Incaper",
        "office": "government",
        "phone": "+55 27 3752 6841",
        "id": "node/10282370051"
      },
      "geometry": {
        "type": "Point",
        "coordinates": [
          -40.4026398,
          -18.7087352
        ]
      }
    },
    {
      "type": "Feature",
      "id": "node/10282370052",
      "properties": {
        "timestamp": "2022-12-23T14:52:59Z",
        "version": 1,
        "changeset": 130424850,
        "addr:city": "Nova Venécia",
        "addr:housenumber": "591",
        "addr:postcode": "29830-000",
        "addr:street": "Avenida Vitória",
        "addr:suburb": "Centro",
        "government": "register_office",
        "name": "Cartório de Protesto de Títulos e Documentos",
        "office": "government",
        "phone": "+55 27 3752 3060",
        "id": "node/10282370052"
      },
      "geometry": {
        "type": "Point",
        "coordinates": [
          -40.4025171,
          -18.7089237
        ]
      }
    },
    {
      "type": "Feature",
      "id": "node/10282370053",
      "properties": {
        "timestamp": "2022-12-23T14:52:59Z",
        "version": 1,
        "changeset": 130424850,
        "addr:city": "Nova Venécia",
        "addr:housenumber": "624",
        "addr:postcode": "29830-000",
        "addr:street": "Avenida Vitória",
        "addr:suburb": "Centro",
        "email": "gernv@idaf.es.gov.br",
        "government": "agriculture",
        "name": "Escritório Local do Idaf",
        "office": "government",
        "phone": "+55 27 3752 9382",
        "id": "node/10282370053"
      },
      "geometry": {
        "type": "Point",
        "coordinates": [
          -40.4025621,
          -18.708745
        ]
      }
    },
    {
      "type": "Feature",
      "id": "node/10282370073",
      "properties": {
        "timestamp": "2022-12-23T14:52:59Z",
        "version": 1,
        "changeset": 130424850,
        "addr:city": "Nova Venécia",
        "addr:housenumber": "71",
        "addr:postcode": "29830-000",
        "addr:street": "Rua Vicente Alves de Oliveira",
        "addr:suburb": "Beira Rio",
        "email": "zmail30@tre-es.jus.br",
        "government": "register_office",
        "name": "Cartório Eleitoral da 30ª Zona de Nova Venécia",
        "office": "government",
        "operator": "Tribunal Regional Eleitoral do Estado do Espírito Santo",
        "phone": "+55 27 98170 5610;+55 27 3752 2716",
        "id": "node/10282370073"
      },
      "geometry": {
        "type": "Point",
        "coordinates": [
          -40.3979229,
          -18.707988
        ]
      }
    }
  ]
}
