{
  "type": "FeatureCollection",
  "features": [
    {
      "type": "Feature",
      "id": "way/681429926",
      "properties": {
        "timestamp": "2024-02-01T11:34:21Z",
        "version": 4,
        "changeset": 146942268,
        "addr:city": "Cardoso Moreira",
        "addr:postcode": "28180-000",
        "addr:street": "Rua José Peres Ximenes",
        "addr:suburb": "Palmeiras",
        "amenity": "school",
        "name": "Colégio Estadual Baltazar Carneiro",
        "operator": "Secretaria de Estado da Educação do Rio de Janeiro",
        "operator:type": "public",
        "phone": "+55 22 2785 2020",
        "id": "way/681429926"
      },
      "geometry": {
        "type": "Polygon",
        "coordinates": [
          [
            [
              -41.6181744,
              -21.488634
            ],
            [
              -41.6179116,
              -21.4876507
            ],
            [
              -41.6185928,
              -21.4876407
            ],
            [
              -41.6187752,
              -21.4885442
            ],
            [
              -41.6181744,
              -21.488634
            ]
          ]
        ]
      }
    },
    {
      "type": "Feature",
      "id": "node/9999705794",
      "properties": {
        "timestamp": "2024-02-01T11:34:21Z",
        "version": 2,
        "changeset": 146942268,
        "addr:city": "Cardoso Moreira",
        "addr:postcode": "20180-000",
        "addr:street": "Avenida Admar Ferreira de Medeiros",
        "addr:suburb": "Cachoeiro",
        "amenity": "school",
        "name": "CIEP 464",
        "id": "node/9999705794"
      },
      "geometry": {
        "type": "Point",
        "coordinates": [
          -41.6132299,
          -21.4976467
        ]
      }
    },
    {
      "type": "Feature",
      "id": "node/11576722750",
      "properties": {
        "timestamp": "2024-02-01T14:22:42Z",
        "version": 1,
        "changeset": 146948066,
        "addr:city": "Cardoso Moreira",
        "addr:district": "São Joaquim",
        "addr:housenumber": "71",
        "addr:postcode": "28195-000",
        "addr:street": "Rua Santa Rita de Cássia",
        "addr:suburb": "Centro",
        "amenity": "school",
        "name": "Escola Municipal Joaquim da Silva Pinto",
        "id": "node/11576722750"
      },
      "geometry": {
        "type": "Point",
        "coordinates": [
          -41.4752413,
          -21.480217
        ]
      }
    }
  ]
}
