{
  "type": "FeatureCollection",
  "features": [
    {
      "type": "Feature",
      "id": "node/3806643143",
      "properties": {
        "timestamp": "2016-03-02T17:56:02Z",
        "version": 5,
        "changeset": 37571689,
        "addr:city": "Rio das Ostras",
        "addr:housenumber": "366",
        "addr:street": "Alameda Casimiro de Abreu",
        "addr:suburb": "Nova Esperança",
        "name": "Via Bike",
        "shop": "bicycle",
        "id": "node/3806643143"
      },
      "geometry": {
        "type": "Point",
        "coordinates": [
          -41.9345882,
          -22.521329
        ]
      }
    },
    {
      "type": "Feature",
      "id": "node/3806643948",
      "properties": {
        "timestamp": "2016-03-02T17:55:43Z",
        "version": 4,
        "changeset": 37571680,
        "addr:city": "Rio das Ostras",
        "addr:housenumber": "366",
        "addr:street": "Alameda Casimiro de Abreu",
        "addr:suburb": "Nova Esperança",
        "name": "Praia Bike",
        "shop": "bicycle",
        "id": "node/3806643948"
      },
      "geometry": {
        "type": "Point",
        "coordinates": [
          -41.9352936,
          -22.5219237
        ]
      }
    },
    {
      "type": "Feature",
      "id": "node/3806669162",
      "properties": {
        "timestamp": "2016-03-02T17:52:13Z",
        "version": 3,
        "changeset": 37571614,
        "addr:city": "Rio das Ostras",
        "addr:housenumber": "31",
        "addr:street": "Rua Santa Monica",
        "addr:suburb": "Nova Cidade",
        "name": "Pedal & Cia",
        "shop": "bicycle",
        "id": "node/3806669162"
      },
      "geometry": {
        "type": "Point",
        "coordinates": [
          -41.9509255,
          -22.5116386
        ]
      }
    }
  ]
}
