{
  "type": "FeatureCollection",
  "features": [
    {
      "type": "Feature",
      "id": "way/409538430",
      "properties": {
        "timestamp": "2022-08-09T00:06:58Z",
        "version": 4,
        "changeset": 124661376,
        "access": "yes",
        "addr:city": "Rio das Ostras",
        "addr:postcode": "28890-251",
        "addr:street": "Alameda Campomar",
        "addr:suburb": "Cidade Beira Mar",
        "amenity": "clinic",
        "building": "house",
        "healthcare": "clinic",
        "healthcare:speciality": "general",
        "name": "Unidade de Saúde Nilson de Almeida Marins",
        "opening_hours": "Mo-Fr 08:00-17:00",
        "operator": "SEMUSA",
        "operator:type": "public",
        "id": "way/409538430"
      },
      "geometry": {
        "type": "Polygon",
        "coordinates": [
          [
            [
              -41.9750155,
              -22.5490126
            ],
            [
              -41.9755287,
              -22.5494473
            ],
            [
              -41.9752845,
              -22.5496924
            ],
            [
              -41.9749306,
              -22.5490877
            ],
            [
              -41.9750155,
              -22.5490126
            ]
          ]
        ]
      }
    },
    {
      "type": "Feature",
      "id": "way/425550320",
      "properties": {
        "timestamp": "2017-09-05T17:45:18Z",
        "version": 2,
        "changeset": 51757432,
        "addr:city": "Rio das Ostras",
        "addr:housenumber": "192",
        "addr:street": "Rua Rio de Janeiro",
        "addr:suburb": "Ext. do Bosque",
        "amenity": "clinic",
        "building": "yes",
        "name": "Clínica MaterDei - 24 horas",
        "id": "way/425550320"
      },
      "geometry": {
        "type": "Polygon",
        "coordinates": [
          [
            [
              -41.9530839,
              -22.5248115
            ],
            [
              -41.9532019,
              -22.5255424
            ],
            [
              -41.9529337,
              -22.5255796
            ],
            [
              -41.9528184,
              -22.5248512
            ],
            [
              -41.9530839,
              -22.5248115
            ]
          ]
        ]
      }
    },
    {
      "type": "Feature",
      "id": "way/1007485888",
      "properties": {
        "timestamp": "2023-08-18T16:00:35Z",
        "version": 2,
        "changeset": 140064531,
        "addr:city": "Rio das Ostras",
        "addr:housenumber": "s/n",
        "addr:postcode": "28899-422",
        "addr:street": "Rua das Acácias",
        "addr:suburb": "Res. Praia Âncora",
        "amenity": "clinic",
        "building": "yes",
        "healthcare": "clinic",
        "healthcare:speciality": "general",
        "name": "UPA 24 Horas Valmir Espanhol",
        "opening_hours": "24/7",
        "operator": "SEMUSA",
        "operator:type": "public",
        "phone": "+552227712175",
        "id": "way/1007485888"
      },
      "geometry": {
        "type": "Polygon",
        "coordinates": [
          [
            [
              -41.913753,
              -22.487984
            ],
            [
              -41.9137029,
              -22.4880189
            ],
            [
              -41.9137191,
              -22.4880388
            ],
            [
              -41.9135008,
              -22.4881908
            ],
            [
              -41.9134733,
              -22.4881571
            ],
            [
              -41.9134253,
              -22.4881904
            ],
            [
              -41.9132107,
              -22.4879273
            ],
            [
              -41.913527,
              -22.487707
            ],
            [
              -41.913753,
              -22.487984
            ]
          ]
        ]
      }
    },
    {
      "type": "Feature",
      "id": "way/1007487254",
      "properties": {
        "timestamp": "2023-08-18T16:00:36Z",
        "version": 3,
        "changeset": 140064531,
        "addr:city": "Rio das Ostras",
        "addr:housenumber": "615",
        "addr:postcode": "28899-422",
        "addr:street": "Rua das Camélias",
        "addr:suburb": "Res. Praia Âncora",
        "amenity": "clinic",
        "building": "yes",
        "healthcare": "clinic",
        "healthcare:speciality": "general",
        "name": "Estratégia Saude da Família Valdivino Alves Gonçalves",
        "opening_hours": "Mo-Fr 08:00-17:00",
        "operator": "SEMUSA",
        "operator:type": "public",
        "id": "way/1007487254"
      },
      "geometry": {
        "type": "Polygon",
        "coordinates": [
          [
            [
              -41.9183634,
              -22.4857652
            ],
            [
              -41.9181589,
              -22.4858927
            ],
            [
              -41.9179227,
              -22.4856027
            ],
            [
              -41.9181512,
              -22.4854364
            ],
            [
              -41.918214,
              -22.4855608
            ],
            [
              -41.918263,
              -22.4855543
            ],
            [
              -41.9183634,
              -22.4857652
            ]
          ]
        ]
      }
    },
    {
      "type": "Feature",
      "id": "way/1007756895",
      "properties": {
        "timestamp": "2023-08-18T16:00:38Z",
        "version": 2,
        "changeset": 140064531,
        "addr:city": "Rio das Ostras",
        "addr:housenumber": "s/n",
        "addr:postcode": "28899-425",
        "addr:street": "Rua das Bromélias",
        "addr:suburb": "Residencial Praia Âncora",
        "amenity": "clinic",
        "building": "yes",
        "healthcare": "clinic",
        "healthcare:speciality": "general",
        "name": "Estratégia Saude da Família Paulo Henrique Gussen",
        "opening_hours": "Mo-Fr 08:00-17:00",
        "operator": "SEMUSA",
        "operator:type": "public",
        "wheelchair": "yes",
        "id": "way/1007756895"
      },
      "geometry": {
        "type": "Polygon",
        "coordinates": [
          [
            [
              -41.9113523,
              -22.4855664
            ],
            [
              -41.9115022,
              -22.4857492
            ],
            [
              -41.9111887,
              -22.4859688
            ],
            [
              -41.9110388,
              -22.4857859
            ],
            [
              -41.9113523,
              -22.4855664
            ]
          ]
        ]
      }
    },
    {
      "type": "Feature",
      "id": "node/2638968455",
      "properties": {
        "timestamp": "2023-08-18T16:00:00Z",
        "version": 12,
        "changeset": 140064531,
        "addr:city": "Rio das Ostras",
        "addr:housenumber": "1075",
        "addr:postcode": "28893-818",
        "addr:street": "Rua Laércio Lúcio de Carvalho",
        "addr:suburb": "Parque Zabulão",
        "amenity": "clinic",
        "emergency": "yes",
        "healthcare": "clinic",
        "healthcare:speciality": "general",
        "name": "Pronto Socorro Municipal Maria Rosa da Conceição",
        "opening_hours": "00:00-24:00",
        "operator": "SEMUSA",
        "operator:type": "public",
        "id": "node/2638968455"
      },
      "geometry": {
        "type": "Point",
        "coordinates": [
          -41.94319,
          -22.518738
        ]
      }
    },
    {
      "type": "Feature",
      "id": "node/3777510668",
      "properties": {
        "timestamp": "2020-07-09T19:27:52Z",
        "version": 4,
        "changeset": 87781054,
        "addr:city": "Rio das Ostras",
        "addr:housenumber": "s/n",
        "addr:postcode": "28894-438",
        "addr:street": "Rua Inajara",
        "addr:suburb": "Nova Cidade",
        "amenity": "clinic",
        "healthcare": "clinic",
        "healthcare:speciality": "general",
        "name": "Centro de Saude Nova Cidade",
        "opening_hours": "Mo-Fr 08:00-17:00",
        "operator": "SEMUSA",
        "operator:type": "public",
        "id": "node/3777510668"
      },
      "geometry": {
        "type": "Point",
        "coordinates": [
          -41.9459026,
          -22.5088303
        ]
      }
    },
    {
      "type": "Feature",
      "id": "node/3778290124",
      "properties": {
        "timestamp": "2023-08-18T16:00:02Z",
        "version": 5,
        "changeset": 140064531,
        "addr:city": "Rio das Ostras",
        "addr:housenumber": "s/n",
        "addr:postcode": "28893-158",
        "addr:street": "Rua Guanabara",
        "addr:suburb": "Extensão do Bosque",
        "amenity": "clinic",
        "healthcare": "clinic",
        "healthcare:speciality": "general",
        "name": "Centro de Saúde Ornandinho Toledo",
        "opening_hours": "Mo-Fr 07:00-21:00",
        "operator": "SEMUSA",
        "operator:type": "public",
        "id": "node/3778290124"
      },
      "geometry": {
        "type": "Point",
        "coordinates": [
          -41.9552997,
          -22.5297597
        ]
      }
    },
    {
      "type": "Feature",
      "id": "node/3778345553",
      "properties": {
        "timestamp": "2022-07-28T19:59:22Z",
        "version": 6,
        "changeset": 124201647,
        "addr:city": "Rio das Ostras",
        "addr:housenumber": "21",
        "addr:postcode": "28896-049",
        "addr:street": "Rua Nova Friburgo",
        "addr:suburb": "Jardim Mariléa",
        "amenity": "clinic",
        "healthcare": "clinic",
        "healthcare:speciality": "general",
        "name": "Unidade Básica de Saude Nelson Salvador",
        "opening_hours": "Mo-Fr 08:00-17:00",
        "operator": "SEMUSA",
        "operator:type": "public",
        "id": "node/3778345553"
      },
      "geometry": {
        "type": "Point",
        "coordinates": [
          -41.9284991,
          -22.5058398
        ]
      }
    },
    {
      "type": "Feature",
      "id": "node/3778524756",
      "properties": {
        "timestamp": "2020-07-09T19:29:46Z",
        "version": 5,
        "changeset": 87781118,
        "addr:housenumber": "1001",
        "addr:postcode": "28893-812",
        "addr:street": "Rua Henrique Sarzedas",
        "addr:suburb": "Parque Zabulão",
        "amenity": "clinic",
        "healthcare": "clinic",
        "healthcare:speciality": "general",
        "name": "Centro de Reabilitação Laércio Lúcio de Carvalho",
        "opening_hours": "Mo-Fr 08:00-21:00",
        "operator": "SEMUSA",
        "operator:type": "public",
        "id": "node/3778524756"
      },
      "geometry": {
        "type": "Point",
        "coordinates": [
          -41.9428167,
          -22.5184766
        ]
      }
    },
    {
      "type": "Feature",
      "id": "node/3778526069",
      "properties": {
        "timestamp": "2020-07-09T19:10:24Z",
        "version": 5,
        "changeset": 87780533,
        "addr:city": "Rio das Ostras",
        "addr:housenumber": "32",
        "addr:postcode": "28892-310",
        "addr:street": "Rua José Chaves",
        "addr:suburb": "Rocha Leão",
        "amenity": "clinic",
        "healthcare": "clinic",
        "healthcare:speciality": "general",
        "name": "Centro de Reabilitação Cória Gomes da Silva",
        "opening_hours": "Mo-Fr 08:00-17:00",
        "operator": "SEMUSA",
        "operator:type": "public",
        "id": "node/3778526069"
      },
      "geometry": {
        "type": "Point",
        "coordinates": [
          -42.0100632,
          -22.4263477
        ]
      }
    },
    {
      "type": "Feature",
      "id": "node/3778527749",
      "properties": {
        "timestamp": "2020-10-29T18:23:56Z",
        "version": 4,
        "changeset": 93250906,
        "addr:city": "Rio das Ostras",
        "addr:housenumber": "nonumber",
        "addr:postcode": "28894-020",
        "addr:street": "Rua Cantagalo",
        "addr:suburb": "Casa Grande",
        "amenity": "clinic",
        "healthcare": "clinic",
        "healthcare:speciality": "general",
        "name": "Posto de Saude Antônio Henrique Lopes",
        "opening_hours": "Mo-Fr 08:00-17:00",
        "operator": "SEMUSA",
        "operator:type": "public",
        "id": "node/3778527749"
      },
      "geometry": {
        "type": "Point",
        "coordinates": [
          -41.9505791,
          -22.5212492
        ]
      }
    },
    {
      "type": "Feature",
      "id": "node/3778533428",
      "properties": {
        "timestamp": "2022-01-14T02:18:06Z",
        "version": 6,
        "changeset": 116130793,
        "addr:city": "Rio das Ostras",
        "addr:housenumber": "303",
        "addr:postcode": "28893-000",
        "addr:street": "Avenida Boca da Barra",
        "addr:suburb": "Boca da Barra",
        "amenity": "clinic",
        "check_date:opening_hours": "2022-01-13",
        "healthcare": "clinic",
        "healthcare:speciality": "general",
        "name": "Unidade Básica de Saude Boca da Barra",
        "opening_hours": "Mo-Fr 08:00-17:00",
        "operator": "SEMUSA",
        "operator:type": "public",
        "wheelchair": "yes",
        "id": "node/3778533428"
      },
      "geometry": {
        "type": "Point",
        "coordinates": [
          -41.9352529,
          -22.5320935
        ]
      }
    },
    {
      "type": "Feature",
      "id": "node/3986043962",
      "properties": {
        "timestamp": "2020-07-09T19:04:51Z",
        "version": 6,
        "changeset": 87780402,
        "access": "yes",
        "addr:city": "Rio das Ostras",
        "addr:housenumber": "s/n",
        "addr:postcode": "28890-084",
        "addr:street": "Rua Santa Catarina",
        "addr:suburb": "Cidade Praiana",
        "amenity": "clinic",
        "healthcare": "clinic",
        "healthcare:speciality": "general",
        "name": "Estratégia Saúde da Família Mario Ribeiro Filho",
        "opening_hours": "Mo-Fr 08:00-17:00",
        "operator": "SEMUSA",
        "operator:type": "public",
        "id": "node/3986043962"
      },
      "geometry": {
        "type": "Point",
        "coordinates": [
          -41.9830148,
          -22.5426714
        ]
      }
    },
    {
      "type": "Feature",
      "id": "node/3986046485",
      "properties": {
        "timestamp": "2020-07-09T19:34:19Z",
        "version": 3,
        "changeset": 87781280,
        "addr:city": "Rio das Ostras",
        "addr:housenumber": "s/n",
        "addr:postcode": "28890-630",
        "addr:street": "Rua Abel Santos de Siqueira",
        "addr:suburb": "Recanto",
        "amenity": "clinic",
        "healthcare": "clinic",
        "healthcare:speciality": "general",
        "name": "Unidade Básica de Saude Recanto",
        "opening_hours": "Mo-Fr 08:00-17:00",
        "operator": "SEMUSA",
        "operator:type": "public",
        "id": "node/3986046485"
      },
      "geometry": {
        "type": "Point",
        "coordinates": [
          -41.9703619,
          -22.5295265
        ]
      }
    },
    {
      "type": "Feature",
      "id": "node/3986107292",
      "properties": {
        "timestamp": "2020-07-09T19:17:07Z",
        "version": 5,
        "changeset": 87780715,
        "addr:city": "Rio das Ostras",
        "addr:housenumber": "s/n",
        "addr:postcode": "28893-476",
        "addr:street": "Avenida Linda",
        "addr:suburb": "Novo Rio das Ostras",
        "amenity": "clinic",
        "healthcare": "clinic",
        "healthcare:speciality": "general",
        "name": "Estratégia Saude da Família Dona Ediméia",
        "opening_hours": "Mo-Fr 08:00-17:00",
        "operator": "SEMUSA",
        "operator:type": "public",
        "id": "node/3986107292"
      },
      "geometry": {
        "type": "Point",
        "coordinates": [
          -41.9340219,
          -22.5263652
        ]
      }
    },
    {
      "type": "Feature",
      "id": "node/3986109666",
      "properties": {
        "timestamp": "2020-07-09T19:26:15Z",
        "version": 5,
        "changeset": 87781002,
        "addr:city": "Rio das Ostras",
        "addr:housenumber": "s/n",
        "addr:postcode": "28893-582",
        "addr:street": "Rua Aroldo Ribeiro Elias",
        "addr:suburb": "Nova Esperança",
        "amenity": "clinic",
        "healthcare": "clinic",
        "healthcare:speciality": "general",
        "name": "Unidade Básica de Saúde Sidnei Matos",
        "opening_hours": "Mo-Fr 08:00-17:00",
        "operator": "SEMUSA",
        "operator:type": "public",
        "id": "node/3986109666"
      },
      "geometry": {
        "type": "Point",
        "coordinates": [
          -41.9315164,
          -22.5197052
        ]
      }
    },
    {
      "type": "Feature",
      "id": "node/3986153132",
      "properties": {
        "timestamp": "2020-07-09T19:15:03Z",
        "version": 2,
        "changeset": 87780656,
        "addr:city": "Rio das Ostras",
        "addr:housenumber": "s/n",
        "addr:postcode": "28898-028",
        "addr:street": "Rua Albano Branco Guimarães",
        "addr:suburb": "Mar do Norte",
        "amenity": "clinic",
        "healthcare": "clinic",
        "healthcare:speciality": "general",
        "name": "Estratégia Saude da Família Mar do Norte",
        "opening_hours": "Mo-Fr 08:00-17:00",
        "operator": "SEMUSA",
        "operator:type": "public",
        "id": "node/3986153132"
      },
      "geometry": {
        "type": "Point",
        "coordinates": [
          -41.8676932,
          -22.4501044
        ]
      }
    },
    {
      "type": "Feature",
      "id": "node/3986192484",
      "properties": {
        "timestamp": "2020-07-09T19:12:56Z",
        "version": 3,
        "changeset": 87780588,
        "addr:city": "Rio das Ostras",
        "addr:housenumber": "s/n",
        "addr:postcode": "28899-856",
        "addr:street": "Estrada Claudio Ribeiro",
        "addr:suburb": "Cantagalo",
        "amenity": "clinic",
        "healthcare": "clinic",
        "healthcare:speciality": "general",
        "name": "Estratégia Saude da Família Cantagalo",
        "opening_hours": "Mo-Fr 08:00-17:00",
        "operator": "SEMUSA",
        "operator:type": "public",
        "id": "node/3986192484"
      },
      "geometry": {
        "type": "Point",
        "coordinates": [
          -41.9388763,
          -22.4227242
        ]
      }
    },
    {
      "type": "Feature",
      "id": "node/3986194620",
      "properties": {
        "timestamp": "2020-07-09T19:08:19Z",
        "version": 3,
        "changeset": 87780485,
        "addr:city": "Rio das Ostras",
        "addr:housenumber": "s/n",
        "addr:postcode": "28892-260",
        "addr:street": "Rua Henrique Sarzedas",
        "addr:suburb": "Rocha Leão",
        "amenity": "clinic",
        "healthcare": "clinic",
        "healthcare:speciality": "general",
        "name": "Estratégia Saúde da Família Ezequiel Ferreira Neto",
        "opening_hours": "Mo-Fr 08:00-17:00",
        "operator": "SEMUSA",
        "operator:type": "public",
        "id": "node/3986194620"
      },
      "geometry": {
        "type": "Point",
        "coordinates": [
          -42.0100032,
          -22.4272864
        ]
      }
    },
    {
      "type": "Feature",
      "id": "node/4363342250",
      "properties": {
        "timestamp": "2020-07-09T19:23:48Z",
        "version": 4,
        "changeset": 87780927,
        "addr:city": "Rio das Ostras",
        "addr:housenumber": "s/n",
        "addr:postcode": "28899-563",
        "addr:street": "Rua Peperônia",
        "addr:suburb": "Residencial Praia Âncora",
        "amenity": "clinic",
        "healthcare": "clinic",
        "healthcare:speciality": "general",
        "name": "Estratégia Saude da Família Katia Torres G. Dutra Reis",
        "opening_hours": "Mo-Fr 08:00-17:00",
        "operator": "SEMUSA",
        "operator:type": "public",
        "id": "node/4363342250"
      },
      "geometry": {
        "type": "Point",
        "coordinates": [
          -41.927343,
          -22.4854819
        ]
      }
    }
  ]
}
