{
  "type": "FeatureCollection",
  "features": [
    {
      "type": "Feature",
      "id": "node/3777486449",
      "properties": {
        "timestamp": "2020-07-10T17:38:24Z",
        "version": 5,
        "changeset": 87828435,
        "addr:city": "Rio das Ostras",
        "addr:housenumber": "553",
        "addr:postcode": "28890-507",
        "addr:street": "Rua Jornalista Jaime Barreiros",
        "addr:suburb": "Recanto",
        "amenity": "kindergarten",
        "name": "Creche Municipal Dona Senhorinha",
        "operator": "SEMEDE",
        "operator:type": "public",
        "id": "node/3777486449"
      },
      "geometry": {
        "type": "Point",
        "coordinates": [
          -41.967364,
          -22.5260611
        ]
      }
    },
    {
      "type": "Feature",
      "id": "node/3778281205",
      "properties": {
        "timestamp": "2020-07-10T15:24:15Z",
        "version": 4,
        "changeset": 87824021,
        "addr:city": "Rio das Ostras",
        "addr:housenumber": "s/n",
        "addr:postcode": "28893-573",
        "addr:street": "Rua Grivaldo Martins da Conceição",
        "addr:suburb": "Nova Esperança",
        "amenity": "kindergarten",
        "name": "Creche Municipal Almira Rosa de Souza \"Dona Cota\"",
        "operator": "SEMEDE",
        "operator:type": "public",
        "id": "node/3778281205"
      },
      "geometry": {
        "type": "Point",
        "coordinates": [
          -41.9313476,
          -22.521222
        ]
      }
    },
    {
      "type": "Feature",
      "id": "node/3778283304",
      "properties": {
        "timestamp": "2020-07-10T15:09:00Z",
        "version": 4,
        "changeset": 87823524,
        "addr:city": "Rio das Ostras",
        "addr:housenumber": "s/n",
        "addr:postcode": "28894-402",
        "addr:street": "Rua Manoel Pedro Freire",
        "addr:suburb": "Nova Cidade",
        "amenity": "kindergarten",
        "name": "Creche Municipal Valdira Flausino Rodrigues",
        "note": "Local sem número",
        "operator": "SEMEDE",
        "operator:type": "public",
        "id": "node/3778283304"
      },
      "geometry": {
        "type": "Point",
        "coordinates": [
          -41.946384,
          -22.5121138
        ]
      }
    },
    {
      "type": "Feature",
      "id": "node/10092234887",
      "properties": {
        "timestamp": "2022-10-11T13:55:50Z",
        "version": 1,
        "changeset": 127362339,
        "amenity": "kindergarten",
        "name": "Creche Municipal Nilce da Costa",
        "id": "node/10092234887"
      },
      "geometry": {
        "type": "Point",
        "coordinates": [
          -41.9793254,
          -22.5335998
        ]
      }
    }
  ]
}
