{
  "type": "FeatureCollection",
  "features": [
    {
      "type": "Feature",
      "id": "node/7711507651",
      "properties": {
        "timestamp": "2020-07-13T18:53:30Z",
        "version": 1,
        "changeset": 87938807,
        "addr:city": "Rio das Ostras",
        "addr:housenumber": "111",
        "addr:postcode": "28893-301",
        "addr:street": "Rua Paraná",
        "addr:suburb": "Extensão do Bosque",
        "amenity": "social_facility",
        "name": "Conselho Tutelar",
        "operator": "PMRO",
        "operator:type": "public",
        "social_facility": "childrens_centre",
        "social_facility:for": "child",
        "id": "node/7711507651"
      },
      "geometry": {
        "type": "Point",
        "coordinates": [
          -41.9532717,
          -22.5282513
        ]
      }
    },
    {
      "type": "Feature",
      "id": "node/7711609258",
      "properties": {
        "timestamp": "2020-07-13T19:31:13Z",
        "version": 1,
        "changeset": 87940041,
        "addr:city": "Rio das Ostras",
        "addr:housenumber": "97",
        "addr:postcode": "28890-120",
        "addr:street": "Rua Bahia",
        "addr:suburb": "Cidade Praiana",
        "amenity": "social_facility",
        "name": "Casa da Criança Cidade Praiana",
        "operator": "PMRO",
        "operator:type": "public",
        "id": "node/7711609258"
      },
      "geometry": {
        "type": "Point",
        "coordinates": [
          -41.9825994,
          -22.5434318
        ]
      }
    },
    {
      "type": "Feature",
      "id": "node/7711613629",
      "properties": {
        "timestamp": "2020-07-13T19:29:15Z",
        "version": 1,
        "changeset": 87939967,
        "addr:city": "Rio das Ostras",
        "addr:housenumber": "5",
        "addr:postcode": "28892-245",
        "addr:street": "Rua Izolino Almeida",
        "addr:suburb": "Rocha Leão",
        "amenity": "social_facility",
        "name": "CRAS Rocha Leão",
        "operator": "PMRO",
        "operator:type": "public",
        "id": "node/7711613629"
      },
      "geometry": {
        "type": "Point",
        "coordinates": [
          -42.0061818,
          -22.4231294
        ]
      }
    },
    {
      "type": "Feature",
      "id": "node/7711628723",
      "properties": {
        "timestamp": "2020-07-13T19:36:57Z",
        "version": 1,
        "changeset": 87940226,
        "addr:city": "Rio das Ostras",
        "addr:housenumber": "73",
        "addr:postcode": "28899-317",
        "addr:street": "Avenida das Dálias",
        "addr:suburb": "Residencial Praia Âncora",
        "amenity": "social_facility",
        "name": "Casa da Criança Âncora I",
        "operator": "PMRO",
        "operator:type": "public",
        "id": "node/7711628723"
      },
      "geometry": {
        "type": "Point",
        "coordinates": [
          -41.9116278,
          -22.4809025
        ]
      }
    },
    {
      "type": "Feature",
      "id": "node/7711634006",
      "properties": {
        "timestamp": "2020-07-13T20:07:14Z",
        "version": 1,
        "changeset": 87941269,
        "addr:city": "Rio das Ostras",
        "addr:housenumber": "390",
        "addr:postcode": "28893-464",
        "addr:street": "Rua Carlos Viana",
        "addr:suburb": "Novo Rio das Ostras",
        "amenity": "social_facility",
        "name": "Casa da Criança",
        "operator": "PMRO",
        "operator:type": "public",
        "id": "node/7711634006"
      },
      "geometry": {
        "type": "Point",
        "coordinates": [
          -41.9368572,
          -22.5251377
        ]
      }
    },
    {
      "type": "Feature",
      "id": "node/7711637114",
      "properties": {
        "timestamp": "2023-02-01T15:06:46Z",
        "version": 2,
        "changeset": 131967314,
        "addr:city": "Rio das Ostras",
        "addr:housenumber": "150",
        "addr:postcode": "28893-123",
        "addr:street": "Rua Araguaia",
        "addr:suburb": "Balneário Remanso",
        "alt_name": "Centro de Referência Especializado de Assistência Social",
        "amenity": "social_facility",
        "name": "CREAS",
        "operator": "PMRO",
        "operator:type": "public",
        "social_facility": "outreach",
        "social_facility:for": "underprivileged;abused;victim",
        "id": "node/7711637114"
      },
      "geometry": {
        "type": "Point",
        "coordinates": [
          -41.9473676,
          -22.5268322
        ]
      }
    },
    {
      "type": "Feature",
      "id": "node/7711652032",
      "properties": {
        "timestamp": "2020-07-13T19:56:33Z",
        "version": 1,
        "changeset": 87940893,
        "addr:city": "Rio das Ostras",
        "addr:housenumber": "40",
        "addr:postcode": "28893-247",
        "addr:street": "Rua Beira Canal",
        "addr:suburb": "Nova Aliança",
        "amenity": "social_facility",
        "name": "Casa do Sorriso (Dormitório)",
        "operator": "PMRO",
        "operator:type": "public",
        "id": "node/7711652032"
      },
      "geometry": {
        "type": "Point",
        "coordinates": [
          -41.9594231,
          -22.5273511
        ]
      }
    }
  ]
}
