{
  "type": "FeatureCollection",
  "features": [
    {
      "type": "Feature",
      "id": "way/494798176",
      "properties": {
        "timestamp": "2022-03-20T16:01:24Z",
        "version": 3,
        "changeset": 118701673,
        "addr:city": "Bom Jesus",
        "addr:postcode": "58930-000",
        "addr:street": "Rua Firmino de Brito",
        "addr:suburb": "Asa Branca",
        "name": "Secretaria Municipal de Saúde",
        "office": "government",
        "id": "way/494798176"
      },
      "geometry": {
        "type": "Polygon",
        "coordinates": [
          [
            [
              -38.6521441,
              -6.8136362
            ],
            [
              -38.6523467,
              -6.8139172
            ],
            [
              -38.652312,
              -6.8139282
            ],
            [
              -38.652061,
              -6.8140077
            ],
            [
              -38.6519416,
              -6.813756
            ],
            [
              -38.6521441,
              -6.8136362
            ]
          ]
        ]
      }
    },
    {
      "type": "Feature",
      "id": "way/494798178",
      "properties": {
        "timestamp": "2022-03-15T15:47:09Z",
        "version": 3,
        "changeset": 118516975,
        "addr:city": "Bom Jesus",
        "addr:postcode": "58930-000",
        "addr:street": "Rua Firmino Brito",
        "addr:suburb": "Asa Branca",
        "building": "yes",
        "name": "CASA DAS SECRETARIA MUNICIPAIS",
        "office": "government",
        "id": "way/494798178"
      },
      "geometry": {
        "type": "Polygon",
        "coordinates": [
          [
            [
              -38.6527155,
              -6.8139118
            ],
            [
              -38.6527932,
              -6.8141701
            ],
            [
              -38.6523668,
              -6.8143379
            ],
            [
              -38.6522648,
              -6.8140636
            ],
            [
              -38.6527155,
              -6.8139118
            ]
          ]
        ]
      }
    },
    {
      "type": "Feature",
      "id": "way/494798181",
      "properties": {
        "timestamp": "2023-09-30T15:56:36Z",
        "version": 5,
        "changeset": 141957615,
        "addr:city": "Bom Jesus",
        "addr:housenumber": "62",
        "addr:postcode": "58930000",
        "addr:street": "Rua 5 de Novembro",
        "addr:suburb": "Centro",
        "building": "yes",
        "government": "legislative",
        "name": "Câmara Municipal",
        "office": "government",
        "website": "https://www.bomjesus.pb.leg.br/",
        "id": "way/494798181"
      },
      "geometry": {
        "type": "Polygon",
        "coordinates": [
          [
            [
              -38.6537605,
              -6.815117
            ],
            [
              -38.6536904,
              -6.8152022
            ],
            [
              -38.6536225,
              -6.8152847
            ],
            [
              -38.6535699,
              -6.815242
            ],
            [
              -38.6536445,
              -6.8151513
            ],
            [
              -38.6537079,
              -6.8150743
            ],
            [
              -38.6537605,
              -6.815117
            ]
          ]
        ]
      }
    },
    {
      "type": "Feature",
      "id": "way/906652025",
      "properties": {
        "timestamp": "2023-05-13T16:06:31Z",
        "version": 4,
        "changeset": 136059087,
        "addr:city": "Bom Jesus",
        "addr:postcode": "58930-000",
        "addr:street": "Avenida Pedro Carlos de Morais",
        "addr:suburb": "Centro",
        "building": "yes",
        "name": "Secretaria Municipal das Mulheres e Diversidade Humana - SMMDH.",
        "office": "government",
        "id": "way/906652025"
      },
      "geometry": {
        "type": "Polygon",
        "coordinates": [
          [
            [
              -38.6563228,
              -6.8164985
            ],
            [
              -38.656388,
              -6.816427
            ],
            [
              -38.6564344,
              -6.8164686
            ],
            [
              -38.6563692,
              -6.8165402
            ],
            [
              -38.6563228,
              -6.8164985
            ]
          ]
        ]
      }
    },
    {
      "type": "Feature",
      "id": "way/906652530",
      "properties": {
        "timestamp": "2022-03-15T15:47:09Z",
        "version": 2,
        "changeset": 118516975,
        "building": "yes",
        "office": "government",
        "id": "way/906652530"
      },
      "geometry": {
        "type": "Polygon",
        "coordinates": [
          [
            [
              -38.6524688,
              -6.8142477
            ],
            [
              -38.6524377,
              -6.8141698
            ],
            [
              -38.6525162,
              -6.8141379
            ],
            [
              -38.6525031,
              -6.8140931
            ],
            [
              -38.652594,
              -6.8140584
            ],
            [
              -38.6526117,
              -6.8140979
            ],
            [
              -38.6527053,
              -6.8140665
            ],
            [
              -38.652737,
              -6.8141489
            ],
            [
              -38.6524688,
              -6.8142477
            ]
          ]
        ]
      }
    },
    {
      "type": "Feature",
      "id": "node/4865541913",
      "properties": {
        "timestamp": "2021-02-18T06:46:29Z",
        "version": 3,
        "changeset": 99497777,
        "addr:city": "Bom Jesus",
        "addr:postcode": "58930-000",
        "addr:street": "Rua 5 de Novembro",
        "addr:suburb": "Centro",
        "name": "Sindicato Rural de Bom Jesus",
        "office": "government",
        "id": "node/4865541913"
      },
      "geometry": {
        "type": "Point",
        "coordinates": [
          -38.6538503,
          -6.8152046
        ]
      }
    },
    {
      "type": "Feature",
      "id": "node/4865552879",
      "properties": {
        "timestamp": "2022-03-15T15:47:09Z",
        "version": 3,
        "changeset": 118516975,
        "addr:city": "Bom Jesus",
        "addr:postcode": "58930-000",
        "addr:street": "Rua Firmino Brito",
        "addr:suburb": "Asa Branca",
        "name": "SECRETÁRIA MUNICIPAL DE OBRAS E SERVIÇOS URBANOS",
        "office": "government",
        "id": "node/4865552879"
      },
      "geometry": {
        "type": "Point",
        "coordinates": [
          -38.6526534,
          -6.8141296
        ]
      }
    },
    {
      "type": "Feature",
      "id": "node/9580955010",
      "properties": {
        "timestamp": "2022-03-15T15:47:09Z",
        "version": 1,
        "changeset": 118516975,
        "addr:city": "Bom Jesus",
        "addr:postcode": "58930-000",
        "addr:street": "Rua Firmino Brito",
        "addr:suburb": "Asa Branca",
        "name": "SECRETARIA DE AGRICULTURA E MEIO AMBIENTE",
        "office": "government",
        "id": "node/9580955010"
      },
      "geometry": {
        "type": "Point",
        "coordinates": [
          -38.6526916,
          -6.8141158
        ]
      }
    },
    {
      "type": "Feature",
      "id": "node/9580955011",
      "properties": {
        "timestamp": "2022-03-15T15:47:09Z",
        "version": 1,
        "changeset": 118516975,
        "addr:city": "Bom Jesus",
        "addr:postcode": "58930-000",
        "addr:street": "Rua Firmino Brito",
        "addr:suburb": "Asa Branca",
        "name": "SECRETARIA MUNICIPAL DA JUVENTUDE ESPORTE E LAZER",
        "office": "government",
        "id": "node/9580955011"
      },
      "geometry": {
        "type": "Point",
        "coordinates": [
          -38.6526312,
          -6.8141337
        ]
      }
    },
    {
      "type": "Feature",
      "id": "node/9580955012",
      "properties": {
        "timestamp": "2022-03-15T15:47:09Z",
        "version": 1,
        "changeset": 118516975,
        "addr:city": "Bom Jesus",
        "addr:postcode": "58930-000",
        "addr:street": "Rua Firmino Brito",
        "addr:suburb": "Asa Branca",
        "name": "SECRETARIA MUNICIPAL DE CULTURA",
        "office": "government",
        "id": "node/9580955012"
      },
      "geometry": {
        "type": "Point",
        "coordinates": [
          -38.652614,
          -6.8141389
        ]
      }
    },
    {
      "type": "Feature",
      "id": "node/10893737002",
      "properties": {
        "timestamp": "2023-05-13T16:06:31Z",
        "version": 1,
        "changeset": 136059087,
        "addr:city": "Bom Jesus",
        "addr:postcode": "58930-000",
        "addr:street": "Avenida Pedro Carlos de Morais",
        "addr:suburb": "Centro",
        "government": "administrative",
        "name": "SECRETARIA MUNICIPAL DE DESENVOLVIMENTO HUMANO E SOCIAL",
        "office": "government",
        "id": "node/10893737002"
      },
      "geometry": {
        "type": "Point",
        "coordinates": [
          -38.6561713,
          -6.8164296
        ]
      }
    }
  ]
}
