{
  "type": "FeatureCollection",
  "features": [
    {
      "type": "Feature",
      "id": "node/6318732198",
      "properties": {
        "timestamp": "2022-03-18T13:16:53Z",
        "version": 2,
        "changeset": 118632621,
        "amenity": "pharmacy",
        "dispensing": "yes",
        "healthcare": "pharmacy",
        "id": "node/6318732198"
      },
      "geometry": {
        "type": "Point",
        "coordinates": [
          -46.8461665,
          -23.41001
        ]
      }
    },
    {
      "type": "Feature",
      "id": "node/8412283193",
      "properties": {
        "timestamp": "2021-09-07T17:19:59Z",
        "version": 2,
        "changeset": 110871632,
        "addr:city": "Cajamar",
        "addr:housenumber": "45",
        "addr:postcode": "07760-000",
        "addr:street": "Avenida Domingo Alonso Lopes",
        "amenity": "pharmacy",
        "dispensing": "yes",
        "healthcare": "pharmacy",
        "name": "Bem Farma",
        "id": "node/8412283193"
      },
      "geometry": {
        "type": "Point",
        "coordinates": [
          -46.8358184,
          -23.3349046
        ]
      }
    },
    {
      "type": "Feature",
      "id": "node/9566184881",
      "properties": {
        "timestamp": "2022-03-09T14:53:11Z",
        "version": 1,
        "changeset": 118282411,
        "addr:housenumber": "707",
        "addr:street": "Avenida Bento da Silva Bueno",
        "addr:suburb": "Paraíso",
        "amenity": "pharmacy",
        "contact:mobile": "+55 11 93465 4063",
        "dispensing": "yes",
        "drive_through": "no",
        "healthcare": "pharmacy",
        "name": "Drogaria Paraíso",
        "phone": "+55 11 4448 1784",
        "id": "node/9566184881"
      },
      "geometry": {
        "type": "Point",
        "coordinates": [
          -46.8223089,
          -23.4147831
        ]
      }
    },
    {
      "type": "Feature",
      "id": "node/9578379985",
      "properties": {
        "timestamp": "2022-03-14T17:28:05Z",
        "version": 1,
        "changeset": 118478940,
        "addr:street": "Avenida Tenente Marques",
        "amenity": "pharmacy",
        "dispensing": "yes",
        "drive_through": "no",
        "healthcare": "pharmacy",
        "name": "Bifarma",
        "id": "node/9578379985"
      },
      "geometry": {
        "type": "Point",
        "coordinates": [
          -46.838348,
          -23.4100974
        ]
      }
    }
  ]
}
