{
  "type": "FeatureCollection",
  "features": [
    {
      "type": "Feature",
      "id": "way/1123883810",
      "properties": {
        "timestamp": "2022-12-21T13:28:08Z",
        "version": 1,
        "changeset": 130333757,
        "addr:city": "Cajamar",
        "addr:housenumber": "3900",
        "addr:postcode": "06550-000",
        "addr:street": "Avenida Tenente Marques",
        "addr:suburb": "Jardim Adelaide",
        "amenity": "veterinary",
        "building": "yes",
        "email": "contato@hospitalvetcajamar.com.br",
        "name": "Hospital Vet Cajamar",
        "opening_hours": "24/7",
        "operator": "Hospital Vet Cajamar",
        "phone": "+5511975377000",
        "start_date": "10/12/2022",
        "wheelchair": "limited",
        "id": "way/1123883810"
      },
      "geometry": {
        "type": "Polygon",
        "coordinates": [
          [
            [
              -46.8536385,
              -23.4076889
            ],
            [
              -46.8535357,
              -23.4077124
            ],
            [
              -46.8534423,
              -23.4073905
            ],
            [
              -46.8535462,
              -23.4073626
            ],
            [
              -46.8536385,
              -23.4076889
            ]
          ]
        ]
      }
    }
  ]
}
