{
  "type": "FeatureCollection",
  "features": [
    {
      "type": "Feature",
      "id": "node/4324353982",
      "properties": {
        "timestamp": "2023-03-07T22:28:54Z",
        "version": 3,
        "changeset": 133421535,
        "addr:city": "Barra Mansa",
        "addr:street": "Rua Leonísio Sócrates Batista",
        "addr:suburb": "São Luis",
        "name": "Bike e Ação",
        "shop": "bicycle",
        "id": "node/4324353982"
      },
      "geometry": {
        "type": "Point",
        "coordinates": [
          -44.1552535,
          -22.5564711
        ]
      }
    },
    {
      "type": "Feature",
      "id": "node/4332361875",
      "properties": {
        "timestamp": "2021-05-24T21:27:26Z",
        "version": 3,
        "changeset": 105251151,
        "addr:city": "Barra Mansa",
        "addr:street": "Rua Abdo Felipe",
        "name": "Bike Ano Bom",
        "shop": "bicycle",
        "id": "node/4332361875"
      },
      "geometry": {
        "type": "Point",
        "coordinates": [
          -44.1693281,
          -22.5400247
        ]
      }
    }
  ]
}
