{
  "type": "FeatureCollection",
  "features": [
    {
      "type": "Feature",
      "id": "way/846927157",
      "properties": {
        "timestamp": "2021-08-29T12:21:42Z",
        "version": 2,
        "changeset": 110410581,
        "addr:city": "Andirá",
        "addr:postcode": "86380000",
        "addr:street": "Rua Paraná",
        "addr:suburb": "Centro",
        "amenity": "community_centre",
        "building": "yes",
        "name": "Centro Espírita Adolfo Bezerra",
        "id": "way/846927157"
      },
      "geometry": {
        "type": "Polygon",
        "coordinates": [
          [
            [
              -50.2318252,
              -23.0477779
            ],
            [
              -50.2319489,
              -23.0480615
            ],
            [
              -50.2318252,
              -23.0481045
            ],
            [
              -50.2316968,
              -23.0478252
            ],
            [
              -50.2318252,
              -23.0477779
            ]
          ]
        ]
      }
    },
    {
      "type": "Feature",
      "id": "way/977549494",
      "properties": {
        "timestamp": "2021-08-29T14:16:57Z",
        "version": 1,
        "changeset": 110414724,
        "addr:city": "Andirá",
        "addr:postcode": "86380000",
        "addr:street": "Rua Santa Catarina",
        "addr:suburb": "Centro",
        "amenity": "community_centre",
        "building": "yes",
        "name": "Centro Catequético E Pastoral",
        "id": "way/977549494"
      },
      "geometry": {
        "type": "Polygon",
        "coordinates": [
          [
            [
              -50.2292094,
              -23.0500936
            ],
            [
              -50.229298,
              -23.0502878
            ],
            [
              -50.2290735,
              -23.0503675
            ],
            [
              -50.228989,
              -23.0501672
            ],
            [
              -50.2292094,
              -23.0500936
            ]
          ]
        ]
      }
    },
    {
      "type": "Feature",
      "id": "way/1009359499",
      "properties": {
        "timestamp": "2021-12-05T19:20:26Z",
        "version": 1,
        "changeset": 114592285,
        "addr:city": "Andirá",
        "addr:postcode": "86380000",
        "addr:street": "Rua Amadeu Fazani",
        "addr:suburb": "Popular",
        "amenity": "community_centre",
        "building": "yes",
        "name": "Centro Pastoral Padre B. Viera Neto.",
        "id": "way/1009359499"
      },
      "geometry": {
        "type": "Polygon",
        "coordinates": [
          [
            [
              -50.2286586,
              -23.0575568
            ],
            [
              -50.2287469,
              -23.0577192
            ],
            [
              -50.2284877,
              -23.0577978
            ],
            [
              -50.228416,
              -23.0576354
            ],
            [
              -50.2286586,
              -23.0575568
            ]
          ]
        ]
      }
    }
  ]
}
