{
  "type": "FeatureCollection",
  "features": [
    {
      "type": "Feature",
      "id": "way/786048292",
      "properties": {
        "timestamp": "2020-03-30T23:52:19Z",
        "version": 1,
        "changeset": 82846552,
        "addr:housenumber": "66",
        "addr:postcode": "37170-000",
        "addr:street": "Praça Joaquim José Naves",
        "amenity": "clinic",
        "building": "yes",
        "healthcare": "clinic",
        "healthcare:speciality": "general;gynaecology;paediatrics",
        "name": "UBS Centenário",
        "opening_hours": "Mo-Fr 07:00-17:00",
        "phone": "+55 35 3851 8094",
        "id": "way/786048292"
      },
      "geometry": {
        "type": "Polygon",
        "coordinates": [
          [
            [
              -45.560757,
              -21.1003846
            ],
            [
              -45.5607412,
              -21.1005049
            ],
            [
              -45.5606909,
              -21.1005093
            ],
            [
              -45.5606846,
              -21.1005738
            ],
            [
              -45.5607365,
              -21.1005753
            ],
            [
              -45.5607177,
              -21.1007015
            ],
            [
              -45.5606013,
              -21.1006883
            ],
            [
              -45.5606107,
              -21.1006413
            ],
            [
              -45.5605667,
              -21.1006222
            ],
            [
              -45.5605746,
              -21.1005929
            ],
            [
              -45.5606233,
              -21.1005782
            ],
            [
              -45.5606233,
              -21.1005636
            ],
            [
              -45.560551,
              -21.1005328
            ],
            [
              -45.5605691,
              -21.1004829
            ],
            [
              -45.5606029,
              -21.1004565
            ],
            [
              -45.5606422,
              -21.1004418
            ],
            [
              -45.56065,
              -21.1003743
            ],
            [
              -45.560757,
              -21.1003846
            ]
          ]
        ]
      }
    },
    {
      "type": "Feature",
      "id": "node/4936789356",
      "properties": {
        "timestamp": "2017-08-15T13:54:09Z",
        "version": 2,
        "changeset": 51141966,
        "addr:street": "Rua A",
        "amenity": "clinic",
        "name": "UBS das Casas Populares",
        "operator": "Prefeitura Municipal de Boa Esperança",
        "smoking": "outside",
        "id": "node/4936789356"
      },
      "geometry": {
        "type": "Point",
        "coordinates": [
          -45.5725723,
          -21.0705405
        ]
      }
    },
    {
      "type": "Feature",
      "id": "node/4936841593",
      "properties": {
        "timestamp": "2017-08-15T13:54:09Z",
        "version": 4,
        "changeset": 51141966,
        "addr:housenumber": "210",
        "addr:postcode": "37170-000",
        "addr:street": "Rua Ceará",
        "alt_name": "Unidades Básicas de Saúde",
        "alt_name_1": "USF Doutor Lucas de Azevedo",
        "amenity": "clinic",
        "name": "UBS Maringá",
        "opening_hours": "Mo-Fr 07:00-17:00",
        "operator": "Prefeitura Municipal de Boa Esperança",
        "phone": "+55 35 3851 8118",
        "smoking": "outside",
        "id": "node/4936841593"
      },
      "geometry": {
        "type": "Point",
        "coordinates": [
          -45.5770897,
          -21.0822127
        ]
      }
    },
    {
      "type": "Feature",
      "id": "node/4952687084",
      "properties": {
        "timestamp": "2020-07-05T01:51:51Z",
        "version": 4,
        "changeset": 87544750,
        "addr:housenumber": "400",
        "addr:postcode": "37170-000",
        "addr:street": "Avenida Marechal Floriano Peixoto",
        "alt_name": "Policlinica Municipal Doutor Antonio Figueiredo",
        "amenity": "clinic",
        "healthcare": "clinic",
        "healthcare:speciality": "general",
        "name": "Policlínica Municipal de Boa Esperança",
        "opening_hours": "Mo-Fr 07:00-22:00",
        "operator": "Prefeitura Municipal de Boa Esperança",
        "phone": "+55 35 3851 8101",
        "smoking": "outside",
        "id": "node/4952687084"
      },
      "geometry": {
        "type": "Point",
        "coordinates": [
          -45.5593603,
          -21.0929845
        ]
      }
    },
    {
      "type": "Feature",
      "id": "node/4974242894",
      "properties": {
        "timestamp": "2020-03-24T14:30:37Z",
        "version": 3,
        "changeset": 82575660,
        "addr:housenumber": "368",
        "addr:postcode": "37170-000",
        "addr:street": "Rua Castro Alves",
        "alt_name": "USF Dona Santa Finochio",
        "amenity": "clinic",
        "healthcare": "clinic",
        "name": "UBS Sinara",
        "opening_hours": "Mo-Fr 07:00-17:00",
        "operator": "Prefeitura Municipal de Boa Esperança",
        "phone": "+55 35 3851 6672",
        "smoking": "outside",
        "id": "node/4974242894"
      },
      "geometry": {
        "type": "Point",
        "coordinates": [
          -45.5499916,
          -21.0978321
        ]
      }
    },
    {
      "type": "Feature",
      "id": "node/4983048170",
      "properties": {
        "timestamp": "2022-03-06T16:16:33Z",
        "version": 7,
        "changeset": 118165499,
        "addr:housenumber": "6",
        "addr:postcode": "37170-000",
        "addr:street": "Rua das Magnólias",
        "alt_name": "UBF Hilda Nunes",
        "amenity": "clinic",
        "healthcare": "clinic",
        "healthcare:speciality": "general;gynaecology;paediatrics",
        "name": "UBS Magnólias",
        "opening_hours": "Mo-Fr 07:00-17:00",
        "operator": "Prefeitura Municipal de Boa Esperança",
        "operator:type": "government",
        "phone": "+55 35 3851 7551",
        "smoking": "outside",
        "id": "node/4983048170"
      },
      "geometry": {
        "type": "Point",
        "coordinates": [
          -45.5660427,
          -21.1016494
        ]
      }
    }
  ]
}
