{
  "type": "FeatureCollection",
  "features": [
    {
      "type": "Feature",
      "id": "node/4842750547",
      "properties": {
        "timestamp": "2017-08-07T13:45:57Z",
        "version": 3,
        "changeset": 50918560,
        "addr:housenumber": "360",
        "addr:postcode": "37170-000",
        "addr:street": "Rua Capitão Neves",
        "email": "reservas@racinisuiteshotel.com.br",
        "internet_access": "wlan",
        "name": "Racini Suites Hotel",
        "phone": "+55 35 3851 1615",
        "tourism": "hotel",
        "website": "http://www.racinisuiteshotel.com.br/hotel-overview.html",
        "id": "node/4842750547"
      },
      "geometry": {
        "type": "Point",
        "coordinates": [
          -45.5678363,
          -21.0895148
        ]
      }
    },
    {
      "type": "Feature",
      "id": "node/4842754316",
      "properties": {
        "timestamp": "2017-06-17T18:25:21Z",
        "version": 2,
        "changeset": 49620329,
        "addr:housenumber": "220",
        "addr:postcode": "37170-000",
        "addr:street": "Rua Calcedônea",
        "email": "atendimento@jhspalacehotel.com.br",
        "internet_access": "yes",
        "name": "JHS Palace Hotel",
        "phone": "+55 35 3851 3379",
        "tourism": "hotel",
        "website": "https://www.jhspalacehotel.com.br",
        "id": "node/4842754316"
      },
      "geometry": {
        "type": "Point",
        "coordinates": [
          -45.5711049,
          -21.0889917
        ]
      }
    },
    {
      "type": "Feature",
      "id": "node/4972814048",
      "properties": {
        "timestamp": "2017-08-09T13:44:43Z",
        "version": 2,
        "changeset": 50974241,
        "addr:housenumber": "146",
        "addr:postcode": "37170-000",
        "addr:street": "Avenida João Júlio de Faria",
        "alt_name": "Hotel Atlanta",
        "name": "Atlanta Hotel Ltda",
        "phone": "+55 35 3851 1419",
        "tourism": "hotel",
        "id": "node/4972814048"
      },
      "geometry": {
        "type": "Point",
        "coordinates": [
          -45.5601675,
          -21.0941861
        ]
      }
    },
    {
      "type": "Feature",
      "id": "node/4979764133",
      "properties": {
        "timestamp": "2017-07-19T14:43:22Z",
        "version": 1,
        "changeset": 50408248,
        "addr:housenumber": "100",
        "addr:postcode": "37170-000",
        "addr:street": "Rua Trajano Leal",
        "name": "Hotel do Lago",
        "phone": "+55 35 3851 3002",
        "tourism": "hotel",
        "id": "node/4979764133"
      },
      "geometry": {
        "type": "Point",
        "coordinates": [
          -45.5662386,
          -21.0894051
        ]
      }
    },
    {
      "type": "Feature",
      "id": "node/4979785366",
      "properties": {
        "timestamp": "2017-07-19T14:55:52Z",
        "version": 1,
        "changeset": 50408703,
        "addr:postcode": "37170-000",
        "addr:suburb": "Zona Rural",
        "internet_access": "yes",
        "name": "Hotel Paraiso das Garças",
        "tourism": "hotel",
        "id": "node/4979785366"
      },
      "geometry": {
        "type": "Point",
        "coordinates": [
          -45.5518291,
          -21.0205943
        ]
      }
    },
    {
      "type": "Feature",
      "id": "node/4979805641",
      "properties": {
        "timestamp": "2017-07-19T15:10:43Z",
        "version": 1,
        "changeset": 50409046,
        "addr:housenumber": "660",
        "addr:postcode": "37170-000",
        "addr:street": "Avenida Juscelino Kubitscheck",
        "email": "hotelbrisadolago@bol.com.br",
        "internet_access": "yes",
        "name": "Hotel Brisa do Lago",
        "phone": "+55 35 3851 1511",
        "tourism": "hotel",
        "website": "www.guianaboa.com.br/hotel-brisa-do-lago",
        "id": "node/4979805641"
      },
      "geometry": {
        "type": "Point",
        "coordinates": [
          -45.5629038,
          -21.0885023
        ]
      }
    },
    {
      "type": "Feature",
      "id": "node/5053611017",
      "properties": {
        "timestamp": "2017-08-23T13:45:15Z",
        "version": 2,
        "changeset": 51376303,
        "addr:housenumber": "180",
        "addr:postcode": "37170-000",
        "addr:street": "Praça Santa Cruz",
        "name": "Hotel Minas",
        "phone": "+55 35 3851 2095",
        "tourism": "hotel",
        "id": "node/5053611017"
      },
      "geometry": {
        "type": "Point",
        "coordinates": [
          -45.5615005,
          -21.095685
        ]
      }
    },
    {
      "type": "Feature",
      "id": "node/5053611018",
      "properties": {
        "timestamp": "2017-08-23T13:45:15Z",
        "version": 2,
        "changeset": 51376303,
        "addr:housenumber": "122",
        "addr:postcode": "37170-000",
        "addr:street": "Praça Santa Cruz",
        "name": "Hotel Central",
        "phone": "+55 35 3851 5522;+55 35 99127 1532",
        "tourism": "hotel",
        "id": "node/5053611018"
      },
      "geometry": {
        "type": "Point",
        "coordinates": [
          -45.5620696,
          -21.0955161
        ]
      }
    },
    {
      "type": "Feature",
      "id": "node/5310199107",
      "properties": {
        "timestamp": "2017-12-29T12:47:22Z",
        "version": 1,
        "changeset": 55009028,
        "addr:postcode": "37170-000",
        "addr:street": "Avenida Juscelino Kubitscheck",
        "internet_access": "yes",
        "name": "Hotel Catavento",
        "phone": "+55 35 3851 1380",
        "tourism": "hotel",
        "id": "node/5310199107"
      },
      "geometry": {
        "type": "Point",
        "coordinates": [
          -45.549412,
          -21.0865796
        ]
      }
    }
  ]
}
