{
  "type": "FeatureCollection",
  "features": [
    {
      "type": "Feature",
      "id": "node/5020049075",
      "properties": {
        "timestamp": "2020-07-05T01:51:51Z",
        "version": 4,
        "changeset": 87544750,
        "addr:housenumber": "201",
        "addr:postcode": "37170-000",
        "addr:street": "Avenida XV de Outubro",
        "amenity": "pharmacy",
        "dispensing": "no",
        "healthcare": "pharmacy",
        "name": "Drogaria do Leandro",
        "phone": "+55 35 3851 3300",
        "id": "node/5020049075"
      },
      "geometry": {
        "type": "Point",
        "coordinates": [
          -45.561514,
          -21.0932146
        ]
      }
    },
    {
      "type": "Feature",
      "id": "node/5020049076",
      "properties": {
        "timestamp": "2020-03-30T23:52:19Z",
        "version": 3,
        "changeset": 82846552,
        "addr:housenumber": "382",
        "addr:postcode": "37170-000",
        "addr:street": "Rua Governador Benedito Valadares",
        "amenity": "pharmacy",
        "dispensing": "yes",
        "healthcare": "pharmacy",
        "name": "Drogaria Monsenhor José Ribeiro",
        "phone": "+55 35 3851 3761",
        "id": "node/5020049076"
      },
      "geometry": {
        "type": "Point",
        "coordinates": [
          -45.5630468,
          -21.0928187
        ]
      }
    },
    {
      "type": "Feature",
      "id": "node/5020057788",
      "properties": {
        "timestamp": "2020-03-24T14:30:37Z",
        "version": 2,
        "changeset": 82575660,
        "addr:housenumber": "770",
        "addr:postcode": "37170-000",
        "addr:street": "Avenida São Vicente de Paula",
        "amenity": "pharmacy",
        "healthcare": "pharmacy",
        "name": "Drogaria Maringá",
        "phone": "+55 35 3851 1170",
        "id": "node/5020057788"
      },
      "geometry": {
        "type": "Point",
        "coordinates": [
          -45.5712845,
          -21.0848478
        ]
      }
    },
    {
      "type": "Feature",
      "id": "node/5020082852",
      "properties": {
        "timestamp": "2020-03-24T14:30:37Z",
        "version": 2,
        "changeset": 82575660,
        "addr:postcode": "37170-000",
        "addr:street": "Avenida João Júlio de Faria",
        "amenity": "pharmacy",
        "dispensing": "yes",
        "healthcare": "pharmacy",
        "name": "Drogaria do Leandro",
        "id": "node/5020082852"
      },
      "geometry": {
        "type": "Point",
        "coordinates": [
          -45.5539183,
          -21.0960596
        ]
      }
    },
    {
      "type": "Feature",
      "id": "node/5020239974",
      "properties": {
        "timestamp": "2020-03-30T23:12:09Z",
        "version": 3,
        "changeset": 82846064,
        "addr:housenumber": "246",
        "addr:postcode": "37170-000",
        "addr:street": "Avenida João Júlio de Faria",
        "amenity": "pharmacy",
        "dispensing": "yes",
        "healthcare": "pharmacy",
        "name": "Drogaria São Geraldo",
        "phone": "+55 35 3851 1256",
        "id": "node/5020239974"
      },
      "geometry": {
        "type": "Point",
        "coordinates": [
          -45.5604444,
          -21.093742
        ]
      }
    },
    {
      "type": "Feature",
      "id": "node/5038978184",
      "properties": {
        "timestamp": "2020-03-24T14:30:37Z",
        "version": 3,
        "changeset": 82575660,
        "addr:housenumber": "194",
        "addr:postcode": "37170-000",
        "addr:street": "Praça Santa Cruz",
        "alt_name": "Farmais",
        "amenity": "pharmacy",
        "healthcare": "pharmacy",
        "name": "Drogaria Americana",
        "phone": "+55 35 3851 1593",
        "id": "node/5038978184"
      },
      "geometry": {
        "type": "Point",
        "coordinates": [
          -45.5613774,
          -21.0957361
        ]
      }
    },
    {
      "type": "Feature",
      "id": "node/5038978185",
      "properties": {
        "timestamp": "2020-03-24T14:30:37Z",
        "version": 4,
        "changeset": 82575660,
        "addr:housenumber": "480",
        "addr:postcode": "37170-000",
        "addr:street": "Rua Jarbas Pimenta",
        "amenity": "pharmacy",
        "healthcare": "pharmacy",
        "name": "Drogaria Americana",
        "phone": "+55 35 3851 3355",
        "id": "node/5038978185"
      },
      "geometry": {
        "type": "Point",
        "coordinates": [
          -45.5565433,
          -21.0965969
        ]
      }
    },
    {
      "type": "Feature",
      "id": "node/5053611015",
      "properties": {
        "timestamp": "2020-03-30T23:52:19Z",
        "version": 3,
        "changeset": 82846552,
        "addr:housenumber": "66",
        "addr:postcode": "37170-000",
        "addr:street": "Rua 2 de Novembro",
        "amenity": "pharmacy",
        "dispensing": "yes",
        "healthcare": "pharmacy",
        "name": "Drogaria Ipê",
        "phone": "+55 35 3851 3000",
        "id": "node/5053611015"
      },
      "geometry": {
        "type": "Point",
        "coordinates": [
          -45.5616024,
          -21.0969192
        ]
      }
    },
    {
      "type": "Feature",
      "id": "node/5053611016",
      "properties": {
        "timestamp": "2020-03-24T14:30:37Z",
        "version": 5,
        "changeset": 82575660,
        "addr:housenumber": "240",
        "addr:postcode": "37170-000",
        "addr:street": "Rua 2 de Novembro",
        "alt_name": "Natus Farma Comércio de Medicamentos",
        "amenity": "pharmacy",
        "healthcare": "pharmacy",
        "name": "Natus Farma",
        "phone": "+55 35 3851 2030",
        "id": "node/5053611016"
      },
      "geometry": {
        "type": "Point",
        "coordinates": [
          -45.5611079,
          -21.0955337
        ]
      }
    },
    {
      "type": "Feature",
      "id": "node/5053674243",
      "properties": {
        "timestamp": "2020-03-24T14:30:37Z",
        "version": 2,
        "changeset": 82575660,
        "addr:housenumber": "835",
        "addr:postcode": "37170-000",
        "addr:street": "Avenida João Júlio de Faria",
        "amenity": "pharmacy",
        "healthcare": "pharmacy",
        "name": "Drogaria Santa Luzia",
        "phone": "+55 35 3851 1605",
        "id": "node/5053674243"
      },
      "geometry": {
        "type": "Point",
        "coordinates": [
          -45.5524962,
          -21.0964735
        ]
      }
    }
  ]
}
