{
  "type": "FeatureCollection",
  "features": [
    {
      "type": "Feature",
      "id": "node/4802737012",
      "properties": {
        "timestamp": "2017-06-24T16:12:49Z",
        "version": 3,
        "changeset": 49797235,
        "addr:postcode": "37170-000",
        "addr:street": "Rua Wilson da Silveira Lemos",
        "amenity": "school",
        "name": "Escola Estadual Padre João Vieira da Fonseca",
        "phone": "+55 35 3851 1493",
        "id": "node/4802737012"
      },
      "geometry": {
        "type": "Point",
        "coordinates": [
          -45.5584676,
          -21.0922946
        ]
      }
    },
    {
      "type": "Feature",
      "id": "node/4838964367",
      "properties": {
        "timestamp": "2017-06-17T18:25:22Z",
        "version": 2,
        "changeset": 49620329,
        "addr:housenumber": "352",
        "addr:postcode": "37170-000",
        "addr:street": "Rua Pernambuco",
        "amenity": "school",
        "name": "Escola Estadual Achilles Naves",
        "id": "node/4838964367"
      },
      "geometry": {
        "type": "Point",
        "coordinates": [
          -45.5759632,
          -21.0821309
        ]
      }
    },
    {
      "type": "Feature",
      "id": "node/4841564078",
      "properties": {
        "timestamp": "2017-08-15T13:54:10Z",
        "version": 6,
        "changeset": 51141966,
        "addr:housenumber": "2079",
        "addr:postcode": "37170-000",
        "addr:street": "Avenida João Júlio de Faria",
        "amenity": "school",
        "name": "Escola Municipal Deputado José Aldo dos Santos",
        "operator": "Prefeitura Municipal de Boa Esperança",
        "phone": "+55 35 3851 4018",
        "smoking": "outside",
        "id": "node/4841564078"
      },
      "geometry": {
        "type": "Point",
        "coordinates": [
          -45.5452551,
          -21.0981569
        ]
      }
    },
    {
      "type": "Feature",
      "id": "node/4841704331",
      "properties": {
        "timestamp": "2017-08-07T13:45:56Z",
        "version": 3,
        "changeset": 50918560,
        "addr:housenumber": "245",
        "addr:postcode": "37170-000",
        "addr:street": "Avenida XV de Outubro",
        "amenity": "school",
        "name": "Escola Estadual Belmiro Braga",
        "phone": "+55 35 3851 1499",
        "id": "node/4841704331"
      },
      "geometry": {
        "type": "Point",
        "coordinates": [
          -45.5611657,
          -21.093382
        ]
      }
    },
    {
      "type": "Feature",
      "id": "node/4841750554",
      "properties": {
        "timestamp": "2017-08-07T13:46:00Z",
        "version": 4,
        "changeset": 50918560,
        "addr:housenumber": "730",
        "addr:postcode": "37170-000",
        "addr:street": "Avenida João Júlio de Faria",
        "amenity": "school",
        "email": "escola.171174@educacao.mg.gov.br",
        "name": "Escola Estadual Doutor Joaquim Vilela",
        "phone": "+55 35 3851 1447",
        "id": "node/4841750554"
      },
      "geometry": {
        "type": "Point",
        "coordinates": [
          -45.553494,
          -21.0965521
        ]
      }
    },
    {
      "type": "Feature",
      "id": "node/4848414916",
      "properties": {
        "timestamp": "2017-12-14T11:57:28Z",
        "version": 4,
        "changeset": 54622236,
        "addr:postcode": "37170-000",
        "addr:street": "Estrada dos Costas / Felícias",
        "addr:suburb": "Zona Rural",
        "amenity": "school",
        "name": "Escola Municipal Dorival Freire da Silva (Costas)",
        "id": "node/4848414916"
      },
      "geometry": {
        "type": "Point",
        "coordinates": [
          -45.6183326,
          -20.9554497
        ]
      }
    },
    {
      "type": "Feature",
      "id": "node/4848499002",
      "properties": {
        "timestamp": "2018-04-25T15:31:35Z",
        "version": 4,
        "changeset": 58412133,
        "addr:postcode": "37170-000",
        "addr:street": "BR-369",
        "addr:suburb": "Zona Rural",
        "amenity": "school",
        "name": "Escola Municipal de Barro Preto",
        "phone": "+55 35 98411 2899",
        "id": "node/4848499002"
      },
      "geometry": {
        "type": "Point",
        "coordinates": [
          -45.5748697,
          -20.9706649
        ]
      }
    },
    {
      "type": "Feature",
      "id": "node/4849493563",
      "properties": {
        "timestamp": "2017-08-15T13:54:10Z",
        "version": 4,
        "changeset": 51141966,
        "addr:housenumber": "300",
        "addr:postcode": "37170-000",
        "addr:street": "Rua Coqueiral",
        "amenity": "school",
        "email": "emvovovaldete@boaesperanca.mg.gov.br",
        "name": "Escola Municipal Vovó Valdete",
        "operator": "Prefeitura Municipal de Boa Esperança",
        "phone": "+55 35 3851 8031;+55 35 3851 4020",
        "smoking": "outside",
        "id": "node/4849493563"
      },
      "geometry": {
        "type": "Point",
        "coordinates": [
          -45.5652102,
          -21.0940511
        ]
      }
    },
    {
      "type": "Feature",
      "id": "node/4856602763",
      "properties": {
        "timestamp": "2017-06-17T20:12:02Z",
        "version": 2,
        "changeset": 49622224,
        "addr:postcode": "37170-000",
        "addr:street": "Estrada Municipal Pintos, Rio Grande e Mata",
        "amenity": "school",
        "name": "Escola Municipal Prefeito José Lourenço Leite Neves",
        "id": "node/4856602763"
      },
      "geometry": {
        "type": "Point",
        "coordinates": [
          -45.4679388,
          -21.0449089
        ]
      }
    },
    {
      "type": "Feature",
      "id": "node/4859766598",
      "properties": {
        "timestamp": "2017-06-17T20:15:09Z",
        "version": 2,
        "changeset": 49622293,
        "addr:postcode": "37170-000",
        "addr:street": "Estrada Municipal Santana da Vargem / Cajurú",
        "amenity": "school",
        "name": "Escola Municipal de Cajurú",
        "id": "node/4859766598"
      },
      "geometry": {
        "type": "Point",
        "coordinates": [
          -45.5555721,
          -21.2313349
        ]
      }
    },
    {
      "type": "Feature",
      "id": "node/4892622834",
      "properties": {
        "timestamp": "2024-10-05T13:35:25Z",
        "version": 4,
        "changeset": 157501518,
        "addr:housenumber": "km 456.3",
        "addr:postcode": "37170-000",
        "addr:street": "BR-265",
        "amenity": "school",
        "name": "Escola Municipal Fazenda Água Verde",
        "phone": "+55 35 98819 5220",
        "website": "www.dataescolabrasil.inep.gov.br",
        "id": "node/4892622834"
      },
      "geometry": {
        "type": "Point",
        "coordinates": [
          -45.7617592,
          -21.0367561
        ]
      }
    },
    {
      "type": "Feature",
      "id": "node/4936752642",
      "properties": {
        "timestamp": "2017-06-26T11:29:12Z",
        "version": 1,
        "changeset": 49833576,
        "addr:housenumber": "46",
        "addr:postcode": "37170-000",
        "addr:street": "Rua A",
        "amenity": "school",
        "name": "Escola Estadual Professor Nestor Lacerda",
        "phone": "+55 35 3851 2436",
        "id": "node/4936752642"
      },
      "geometry": {
        "type": "Point",
        "coordinates": [
          -45.5734694,
          -21.0704822
        ]
      }
    },
    {
      "type": "Feature",
      "id": "node/4942169117",
      "properties": {
        "timestamp": "2017-06-30T13:44:04Z",
        "version": 2,
        "changeset": 49944583,
        "addr:housenumber": "26",
        "addr:postcode": "37170-000",
        "addr:street": "Rua Nestor Barbosa",
        "alt_name": "Escola Estadual Dr Sá Brito",
        "amenity": "school",
        "name": "Escola Estadual Doutor Sá Brito",
        "phone": "+55 35 3851 1450",
        "id": "node/4942169117"
      },
      "geometry": {
        "type": "Point",
        "coordinates": [
          -45.5646998,
          -21.090176
        ]
      }
    },
    {
      "type": "Feature",
      "id": "node/4942181559",
      "properties": {
        "timestamp": "2017-06-29T13:14:44Z",
        "version": 1,
        "changeset": 49919168,
        "addr:postcode": "37170-000",
        "addr:street": "Rua Turmalina",
        "amenity": "school",
        "name": "Escola Estadual Casimiro Silva",
        "phone": "+55 35 3851 1548",
        "id": "node/4942181559"
      },
      "geometry": {
        "type": "Point",
        "coordinates": [
          -45.5716418,
          -21.0878645
        ]
      }
    },
    {
      "type": "Feature",
      "id": "node/4951028804",
      "properties": {
        "timestamp": "2019-03-03T23:51:38Z",
        "version": 2,
        "changeset": 67750017,
        "addr:housenumber": "28",
        "addr:postcode": "37170-000",
        "addr:street": "Rua Campos Gerais",
        "alt_name": "Escola Silvia Mesquita",
        "amenity": "school",
        "email": "escola.171255@educacao.mg.gov.br",
        "name": "Escola Estadual Professora Silvia Mesquita",
        "phone": "+55 35 3851 1473",
        "website": "https://www.escol.as/154235-ee-professora-silvia-mesquita",
        "id": "node/4951028804"
      },
      "geometry": {
        "type": "Point",
        "coordinates": [
          -45.5610689,
          -21.1012968
        ]
      }
    },
    {
      "type": "Feature",
      "id": "node/4972829597",
      "properties": {
        "timestamp": "2020-03-30T23:52:19Z",
        "version": 4,
        "changeset": 82846552,
        "addr:housenumber": "480",
        "addr:postcode": "37170-000",
        "addr:street": "Rua Tonico Rodrigues",
        "alt_name": "CAIC",
        "amenity": "school",
        "email": "escolamunicipalrabingambogi-caic@hotmail.com.br",
        "name": "Escola Municipal Rabin Gambogi",
        "operator": "Prefeitura Municipal de Boa Esperança",
        "operator:type": "government",
        "phone": "+55 35 3851 8122",
        "smoking": "outside",
        "id": "node/4972829597"
      },
      "geometry": {
        "type": "Point",
        "coordinates": [
          -45.5594419,
          -21.1051047
        ]
      }
    },
    {
      "type": "Feature",
      "id": "node/4972832911",
      "properties": {
        "timestamp": "2020-03-30T23:52:19Z",
        "version": 5,
        "changeset": 82846552,
        "addr:housenumber": "480",
        "addr:postcode": "37170-000",
        "addr:street": "Rua Tonico Rodrigues",
        "alt_name": "Escola Municipal Anita Bandeira",
        "amenity": "school",
        "email": "escolaanitabandeira@yahoo.com.br",
        "name": "Escola Municipal Professora Anita Bandeira",
        "operator": "Prefeitura Municipal de Boa Esperança",
        "operator:type": "government",
        "phone": "+55 35 3851 2331",
        "smoking": "outside",
        "id": "node/4972832911"
      },
      "geometry": {
        "type": "Point",
        "coordinates": [
          -45.5591366,
          -21.1050658
        ]
      }
    },
    {
      "type": "Feature",
      "id": "node/5053516014",
      "properties": {
        "timestamp": "2017-08-23T12:30:23Z",
        "version": 1,
        "changeset": 51373753,
        "addr:housenumber": "100",
        "addr:postcode": "37170-000",
        "addr:street": "Rua Olinto Teixeira",
        "alt_name": "Escola Jardim das Acácias",
        "amenity": "school",
        "name": "APAE de Boa Esperança",
        "opening_hours": "Mo-Fr 07:00-17:00",
        "phone": "+55 35 3851 1914",
        "wheelchair": "yes",
        "id": "node/5053516014"
      },
      "geometry": {
        "type": "Point",
        "coordinates": [
          -45.5611297,
          -21.0958653
        ]
      }
    },
    {
      "type": "Feature",
      "id": "node/5172746945",
      "properties": {
        "timestamp": "2017-10-17T10:38:05Z",
        "version": 1,
        "changeset": 53007478,
        "addr:housenumber": "506",
        "addr:postcode": "37170-000",
        "addr:street": "Rua Oswaldo Cruz",
        "amenity": "school",
        "name": "Escola Doce Tempo CEI",
        "phone": "+55 35 3851 3101",
        "id": "node/5172746945"
      },
      "geometry": {
        "type": "Point",
        "coordinates": [
          -45.563572,
          -21.0893504
        ]
      }
    }
  ]
}
