{
  "type": "FeatureCollection",
  "features": [
    {
      "type": "Feature",
      "id": "way/699532546",
      "properties": {
        "timestamp": "2019-06-25T02:52:17Z",
        "version": 2,
        "changeset": 71581966,
        "addr:city": "Lagoa da Prata",
        "addr:housenumber": "32",
        "addr:postcode": "35590000",
        "addr:street": "Rua José Bernardes Lobato",
        "amenity": "arts_centre",
        "building": "yes",
        "name": "Centro Cultural Hilde Schmidt (Teatro da Embaré)",
        "website": "https://www.facebook.com/pages/Centro-Cultural-Hilde-Schmidt/502240573309487",
        "id": "way/699532546"
      },
      "geometry": {
        "type": "Polygon",
        "coordinates": [
          [
            [
              -45.5425664,
              -20.0221588
            ],
            [
              -45.5426958,
              -20.0223952
            ],
            [
              -45.542556,
              -20.022462
            ],
            [
              -45.5424543,
              -20.0222258
            ],
            [
              -45.5425664,
              -20.0221588
            ]
          ]
        ]
      }
    }
  ]
}
