{
  "type": "FeatureCollection",
  "features": [
    {
      "type": "Feature",
      "id": "way/395020257",
      "properties": {
        "timestamp": "2016-02-04T02:42:15Z",
        "version": 2,
        "changeset": 36989471,
        "addr:city": "Aracati",
        "addr:postcode": "62800-000",
        "addr:street": "Rua Teófilo Pinto",
        "amenity": "university",
        "name": "Instituto Federal do Ceará",
        "name:pt": "Instituto Federal do Ceará",
        "note": "Local sem número",
        "opening_hours": "07:00-22:00",
        "website": "https://ifce.edu.br/aracati",
        "id": "way/395020257"
      },
      "geometry": {
        "type": "Polygon",
        "coordinates": [
          [
            [
              -37.7764496,
              -4.5689035
            ],
            [
              -37.776261,
              -4.568537
            ],
            [
              -37.7766019,
              -4.5683635
            ],
            [
              -37.7765349,
              -4.5682166
            ],
            [
              -37.7766722,
              -4.5680965
            ],
            [
              -37.7767726,
              -4.5680097
            ],
            [
              -37.7771744,
              -4.5686172
            ],
            [
              -37.7764496,
              -4.5689035
            ]
          ]
        ]
      }
    },
    {
      "type": "Feature",
      "id": "node/5382545262",
      "properties": {
        "timestamp": "2018-02-03T08:44:48Z",
        "version": 1,
        "changeset": 56023517,
        "amenity": "university",
        "name": "IFCE Campus Aracati",
        "id": "node/5382545262"
      },
      "geometry": {
        "type": "Point",
        "coordinates": [
          -37.7913365,
          -4.5671837
        ]
      }
    },
    {
      "type": "Feature",
      "id": "node/6903568106",
      "properties": {
        "timestamp": "2019-10-21T17:56:54Z",
        "version": 1,
        "changeset": 76012325,
        "addr:city": "Aracati",
        "addr:housenumber": "Sem Número",
        "addr:postcode": "62800000",
        "addr:street": "Rodovia CE-040 Km 138",
        "addr:suburb": "Aeroporto",
        "amenity": "university",
        "internet_access": "yes",
        "name": "Faculdade Vale do Jaguaribe",
        "operator": "FVJ",
        "operator:type": "private",
        "website": "https://www.fvj.br",
        "id": "node/6903568106"
      },
      "geometry": {
        "type": "Point",
        "coordinates": [
          -37.7930578,
          -4.5721187
        ]
      }
    }
  ]
}
