{
  "type": "FeatureCollection",
  "features": [
    {
      "type": "Feature",
      "id": "way/681293271",
      "properties": {
        "timestamp": "2021-06-02T20:22:05Z",
        "version": 4,
        "changeset": 105739811,
        "addr:city": "Anhumas",
        "addr:postcode": "19580-000",
        "addr:street": "Rua Vicente Lopes Ramon",
        "addr:suburb": "Centro",
        "amenity": "pharmacy",
        "building": "yes",
        "dispensing": "yes",
        "healthcare": "pharmacy",
        "name": "Farm√°cia Popular",
        "operator": "SUS",
        "id": "way/681293271"
      },
      "geometry": {
        "type": "Polygon",
        "coordinates": [
          [
            [
              -51.3864342,
              -22.2961729
            ],
            [
              -51.3864001,
              -22.2962398
            ],
            [
              -51.3863006,
              -22.2961995
            ],
            [
              -51.3863324,
              -22.2961321
            ],
            [
              -51.3864342,
              -22.2961729
            ]
          ]
        ]
      }
    }
  ]
}
