{
  "type": "FeatureCollection",
  "features": [
    {
      "type": "Feature",
      "id": "way/681289514",
      "properties": {
        "timestamp": "2019-04-03T02:41:18Z",
        "version": 2,
        "changeset": 68820076,
        "addr:city": "Anhumas",
        "addr:postcode": "19580000",
        "addr:street": "Rua Vicente José",
        "addr:suburb": "Centro",
        "amenity": "social_facility",
        "building": "yes",
        "name": "Abrigo Lar de Jesus",
        "operator": "Governo",
        "social_facility": "group_home",
        "social_facility:for": "senior",
        "wheelchair": "yes",
        "id": "way/681289514"
      },
      "geometry": {
        "type": "Polygon",
        "coordinates": [
          [
            [
              -51.3887939,
              -22.297404
            ],
            [
              -51.3894148,
              -22.2976857
            ],
            [
              -51.3889494,
              -22.2985014
            ],
            [
              -51.3883339,
              -22.2982415
            ],
            [
              -51.3887939,
              -22.297404
            ]
          ]
        ]
      }
    },
    {
      "type": "Feature",
      "id": "way/681296000",
      "properties": {
        "timestamp": "2019-04-03T03:22:46Z",
        "version": 1,
        "changeset": 68820748,
        "addr:city": "Anhumas",
        "addr:postcode": "19580000",
        "addr:street": "Rua João Lucas Mariotto",
        "addr:suburb": "Centro",
        "amenity": "social_facility",
        "building": "yes",
        "name": "Projeto Guri",
        "operator": "Governo",
        "social_facility": "workshop",
        "social_facility:for": "child",
        "id": "way/681296000"
      },
      "geometry": {
        "type": "Polygon",
        "coordinates": [
          [
            [
              -51.3832204,
              -22.296704
            ],
            [
              -51.3834858,
              -22.2968213
            ],
            [
              -51.3834294,
              -22.2969306
            ],
            [
              -51.383164,
              -22.2968133
            ],
            [
              -51.3832204,
              -22.296704
            ]
          ]
        ]
      }
    }
  ]
}
