{
  "type": "FeatureCollection",
  "features": [
    {
      "type": "Feature",
      "id": "node/3673935433",
      "properties": {
        "timestamp": "2023-06-26T22:56:34Z",
        "version": 2,
        "changeset": 137811255,
        "addr:housenumber": "7400",
        "addr:street": "Estrada da Graciosa",
        "amenity": "college",
        "name": "CEEP Newton Freire Maia",
        "id": "node/3673935433"
      },
      "geometry": {
        "type": "Point",
        "coordinates": [
          -49.1241329,
          -25.3819223
        ]
      }
    },
    {
      "type": "Feature",
      "id": "node/3673935434",
      "properties": {
        "timestamp": "2023-06-26T22:56:34Z",
        "version": 2,
        "changeset": 137811255,
        "addr:housenumber": "7400",
        "addr:street": "Estrada da Graciosa",
        "amenity": "college",
        "name": "Centro Estadual de Educação Profissional Newton Freire Maia",
        "id": "node/3673935434"
      },
      "geometry": {
        "type": "Point",
        "coordinates": [
          -49.123995,
          -25.3821256
        ]
      }
    }
  ]
}
