{
  "type": "FeatureCollection",
  "features": [
    {
      "type": "Feature",
      "id": "node/10995581005",
      "properties": {
        "timestamp": "2023-06-21T19:38:10Z",
        "version": 1,
        "changeset": 137619746,
        "addr:housenumber": "549",
        "addr:street": "Avenida Jacob Macanhan",
        "amenity": "pharmacy",
        "name": "Farmácia Preço Popular",
        "phone": "41 3669-2026",
        "id": "node/10995581005"
      },
      "geometry": {
        "type": "Point",
        "coordinates": [
          -49.183369,
          -25.4275671
        ]
      }
    },
    {
      "type": "Feature",
      "id": "node/10995581605",
      "properties": {
        "timestamp": "2023-06-21T19:38:15Z",
        "version": 1,
        "changeset": 137619746,
        "addr:street": "Avenida Jacob Macanhan",
        "amenity": "pharmacy",
        "name": "Farmácia Ponto Popular",
        "phone": "41 3033-5050",
        "id": "node/10995581605"
      },
      "geometry": {
        "type": "Point",
        "coordinates": [
          -49.1831986,
          -25.4290304
        ]
      }
    }
  ]
}
