{
  "type": "FeatureCollection",
  "features": [
    {
      "type": "Feature",
      "id": "way/1139066911",
      "properties": {
        "timestamp": "2023-02-07T23:34:44Z",
        "version": 1,
        "changeset": 132230205,
        "amenity": "social_facility",
        "building": "yes",
        "name": "Conselho Tutelar",
        "id": "way/1139066911"
      },
      "geometry": {
        "type": "Polygon",
        "coordinates": [
          [
            [
              -49.1638656,
              -25.4432306
            ],
            [
              -49.1638978,
              -25.4433116
            ],
            [
              -49.1637773,
              -25.4433507
            ],
            [
              -49.1637451,
              -25.4432696
            ],
            [
              -49.1638656,
              -25.4432306
            ]
          ]
        ]
      }
    },
    {
      "type": "Feature",
      "id": "node/10679428485",
      "properties": {
        "timestamp": "2023-02-19T23:03:32Z",
        "version": 1,
        "changeset": 132768536,
        "addr:housenumber": "321",
        "addr:street": "Rua Vinte e Um de Abril",
        "addr:suburb": "Centro",
        "amenity": "social_facility",
        "name": "Centro de Referência Maria da Penha",
        "id": "node/10679428485"
      },
      "geometry": {
        "type": "Point",
        "coordinates": [
          -49.1901833,
          -25.4397734
        ]
      }
    },
    {
      "type": "Feature",
      "id": "node/10679428486",
      "properties": {
        "timestamp": "2023-02-19T23:03:32Z",
        "version": 1,
        "changeset": 132768536,
        "addr:housenumber": "205",
        "addr:street": "Rua Sete de Setembro",
        "addr:suburb": "Centro",
        "amenity": "social_facility",
        "name": "Centro de Referência Especializado da Assistência Social",
        "id": "node/10679428486"
      },
      "geometry": {
        "type": "Point",
        "coordinates": [
          -49.1880506,
          -25.4369979
        ]
      }
    },
    {
      "type": "Feature",
      "id": "node/10679428487",
      "properties": {
        "timestamp": "2023-02-19T23:03:32Z",
        "version": 1,
        "changeset": 132768536,
        "addr:housenumber": "502",
        "addr:street": "Rua Nilo Peçanha",
        "addr:suburb": "Jardim Amélia",
        "amenity": "social_facility",
        "name": "Centro de Referência da Assistência Social Região Norte",
        "id": "node/10679428487"
      },
      "geometry": {
        "type": "Point",
        "coordinates": [
          -49.1565085,
          -25.4289588
        ]
      }
    },
    {
      "type": "Feature",
      "id": "node/10679428488",
      "properties": {
        "timestamp": "2023-02-19T23:03:32Z",
        "version": 1,
        "changeset": 132768536,
        "addr:housenumber": "828",
        "addr:street": "Rua Rio Trombetas",
        "addr:suburb": "Weissópolis",
        "amenity": "social_facility",
        "name": "Centro de Referência da Assistência Social Região Sul",
        "id": "node/10679428488"
      },
      "geometry": {
        "type": "Point",
        "coordinates": [
          -49.1820617,
          -25.4604462
        ]
      }
    },
    {
      "type": "Feature",
      "id": "node/10679428489",
      "properties": {
        "timestamp": "2023-02-19T23:03:32Z",
        "version": 1,
        "changeset": 132768536,
        "addr:housenumber": "361",
        "addr:street": "Rua Leila Diniz",
        "addr:suburb": "Maria Antonieta",
        "amenity": "social_facility",
        "name": "Centro de Referência da Assistência Social Região Leste",
        "id": "node/10679428489"
      },
      "geometry": {
        "type": "Point",
        "coordinates": [
          -49.1631465,
          -25.4452305
        ]
      }
    },
    {
      "type": "Feature",
      "id": "node/10679428490",
      "properties": {
        "timestamp": "2023-02-19T23:03:32Z",
        "version": 1,
        "changeset": 132768536,
        "addr:housenumber": "116",
        "addr:street": "Rua Antônio Ribas",
        "addr:suburb": "Jardim Atuba",
        "amenity": "social_facility",
        "name": "Centro de Referência da Assistência Social Região Oeste",
        "id": "node/10679428490"
      },
      "geometry": {
        "type": "Point",
        "coordinates": [
          -49.1830052,
          -25.3960503
        ]
      }
    }
  ]
}
