{
  "type": "FeatureCollection",
  "features": [
    {
      "type": "Feature",
      "id": "node/4362094170",
      "properties": {
        "timestamp": "2024-11-05T12:37:34Z",
        "version": 3,
        "changeset": 158777334,
        "addr:city": "Campinas",
        "addr:housenumber": "247",
        "addr:postcode": "13024-110",
        "addr:street": "Rua Olavo Bilac",
        "addr:suburb": "Cambuí",
        "name": "Eurocycle",
        "shop": "bicycle",
        "id": "node/4362094170"
      },
      "geometry": {
        "type": "Point",
        "coordinates": [
          -47.056692,
          -22.8937557
        ]
      }
    },
    {
      "type": "Feature",
      "id": "node/4550044689",
      "properties": {
        "timestamp": "2016-12-12T00:28:16Z",
        "version": 1,
        "changeset": 44334997,
        "name": "Fuji Bike",
        "shop": "bicycle",
        "id": "node/4550044689"
      },
      "geometry": {
        "type": "Point",
        "coordinates": [
          -47.0681178,
          -22.8735671
        ]
      }
    },
    {
      "type": "Feature",
      "id": "node/8684391317",
      "properties": {
        "timestamp": "2021-04-30T12:58:03Z",
        "version": 1,
        "changeset": 103914785,
        "addr:housenumber": "255",
        "addr:street": "Rua Porangaba",
        "internet_access": "wlan",
        "name": "TRÍADE oficina de bicicleta",
        "opening_hours": "Mo-Sa 10:00-18:00",
        "phone": "19933001290",
        "shop": "bicycle",
        "id": "node/8684391317"
      },
      "geometry": {
        "type": "Point",
        "coordinates": [
          -47.0384121,
          -22.8744506
        ]
      }
    },
    {
      "type": "Feature",
      "id": "node/9178028256",
      "properties": {
        "timestamp": "2021-10-17T13:06:19Z",
        "version": 1,
        "changeset": 112611198,
        "addr:city": "Campinas",
        "addr:housenumber": "270",
        "addr:postcode": "13010-070",
        "addr:street": "Rua 13 de Maio",
        "addr:suburb": "Centro",
        "name": "Lunardi Bicicletas",
        "opening_hours": "Mo-Fr 09:00-18:00; Sa 09:00-13:30",
        "phone": "+55 19 3236 8900;+55 19 3231 7564",
        "shop": "bicycle",
        "website": "http://www.lunardibicicletas.com.br/",
        "id": "node/9178028256"
      },
      "geometry": {
        "type": "Point",
        "coordinates": [
          -47.0640223,
          -22.9074191
        ]
      }
    },
    {
      "type": "Feature",
      "id": "node/11569517077",
      "properties": {
        "timestamp": "2024-01-30T15:32:37Z",
        "version": 1,
        "changeset": 146868713,
        "addr:city": "Campinas",
        "addr:housenumber": "1374",
        "addr:postcode": "13108-002",
        "addr:street": "Rua Doutor Heitor Penteado",
        "addr:suburb": "Joaquim Egídio",
        "contact:facebook": "https://www.facebook.com/people/V%C3%A9lo-Ride-Bike-Shop/100063517150584/",
        "name": "Velo Ride Bike Shop",
        "service:bicycle:repair": "yes",
        "service:bicycle:retail": "yes",
        "shop": "bicycle",
        "id": "node/11569517077"
      },
      "geometry": {
        "type": "Point",
        "coordinates": [
          -46.9418838,
          -22.888164
        ]
      }
    }
  ]
}
