{
  "type": "FeatureCollection",
  "features": [
    {
      "type": "Feature",
      "id": "way/681530665",
      "properties": {
        "timestamp": "2019-04-04T04:11:19Z",
        "version": 1,
        "changeset": 68865663,
        "addr:city": "Campinas",
        "addr:street": "Avenida Santa Genebra",
        "addr:suburb": "Jardim Santa Genebra",
        "amenity": "dentist",
        "building": "yes",
        "healthcare": "dentist",
        "healthcare:speciality": "dentistry",
        "name": "Odontoclinic",
        "opening_hours": "Mo-Fr 08:00-17:00",
        "payment:cash": "yes",
        "payment:credit_cards": "yes",
        "payment:debit_cards": "yes",
        "payment:mastercard": "yes",
        "payment:visa": "yes",
        "id": "way/681530665"
      },
      "geometry": {
        "type": "Polygon",
        "coordinates": [
          [
            [
              -47.067537,
              -22.8513829
            ],
            [
              -47.0674801,
              -22.8514953
            ],
            [
              -47.0673663,
              -22.851441
            ],
            [
              -47.0674272,
              -22.8513304
            ],
            [
              -47.067537,
              -22.8513829
            ]
          ]
        ]
      }
    },
    {
      "type": "Feature",
      "id": "way/983280824",
      "properties": {
        "timestamp": "2023-12-28T13:59:21Z",
        "version": 4,
        "changeset": 145621279,
        "addr:city": "Campinas",
        "addr:housenumber": "556",
        "addr:postcode": "13070293",
        "addr:street": "Rua Itália",
        "addr:suburb": "Bonfim",
        "amenity": "dentist",
        "building": "house",
        "description": "Consultório Odontológico - Prótese Dentaria - Clareamento - Estética - Clinico Geral Transformando Sorrisos, Facetas e Lentes de Contato Dental",
        "healthcare": "dentist",
        "healthcare:speciality": "dentistry;clareamento_dental;cirurgião_dentista;clínica_odontológica;dentista_cosmético;serviço_de_clareamento_dental;clínica_de_implante_dentário;periodontia_e_implantes_dentários",
        "name": "Consultório Dentista - Dra. Debora Julietti - Lentes de Contato Dental | Facetas de Porcelana - Bonfim - Castelo",
        "opening_hours": "Mo-Fr 09:00-17:00",
        "operator": "hopee digital",
        "payment:cash": "yes",
        "payment:credit_cards": "yes",
        "payment:debit_cards": "yes",
        "payment:mastercard": "yes",
        "payment:pix": "yes",
        "payment:visa": "yes",
        "payment:visa_electron": "yes",
        "phone": "19998754311",
        "website": "https://dradeborajulietti.com.br/",
        "id": "way/983280824"
      },
      "geometry": {
        "type": "Polygon",
        "coordinates": [
          [
            [
              -47.0756616,
              -22.8952701
            ],
            [
              -47.0756128,
              -22.8951915
            ],
            [
              -47.0756494,
              -22.8951909
            ],
            [
              -47.0757226,
              -22.8951896
            ],
            [
              -47.0757104,
              -22.8952402
            ],
            [
              -47.0756616,
              -22.8952701
            ]
          ]
        ]
      }
    },
    {
      "type": "Feature",
      "id": "way/1250977562",
      "properties": {
        "timestamp": "2024-02-16T01:48:53Z",
        "version": 1,
        "changeset": 147513041,
        "amenity": "dentist",
        "building": "service",
        "healthcare": "dentist",
        "id": "way/1250977562"
      },
      "geometry": {
        "type": "Polygon",
        "coordinates": [
          [
            [
              -47.1168282,
              -22.9083986
            ],
            [
              -47.11688,
              -22.9084107
            ],
            [
              -47.1168681,
              -22.9084553
            ],
            [
              -47.1168164,
              -22.9084443
            ],
            [
              -47.1168282,
              -22.9083986
            ]
          ]
        ]
      }
    },
    {
      "type": "Feature",
      "id": "way/1256982573",
      "properties": {
        "timestamp": "2024-03-02T21:36:49Z",
        "version": 1,
        "changeset": 148147497,
        "amenity": "dentist",
        "building": "yes",
        "healthcare": "dentist",
        "id": "way/1256982573"
      },
      "geometry": {
        "type": "Polygon",
        "coordinates": [
          [
            [
              -47.118112,
              -22.9111751
            ],
            [
              -47.1180781,
              -22.9112752
            ],
            [
              -47.1179271,
              -22.9112319
            ],
            [
              -47.117961,
              -22.9111317
            ],
            [
              -47.118112,
              -22.9111751
            ]
          ]
        ]
      }
    },
    {
      "type": "Feature",
      "id": "node/1622921656",
      "properties": {
        "timestamp": "2020-03-27T14:18:58Z",
        "version": 2,
        "changeset": 82719015,
        "amenity": "dentist",
        "healthcare": "dentist",
        "name": "Oralcamp",
        "id": "node/1622921656"
      },
      "geometry": {
        "type": "Point",
        "coordinates": [
          -47.0620713,
          -22.8946054
        ]
      }
    },
    {
      "type": "Feature",
      "id": "node/1734576355",
      "properties": {
        "timestamp": "2023-10-24T21:55:13Z",
        "version": 3,
        "changeset": 143085391,
        "addr:housenumber": "1057",
        "amenity": "dentist",
        "healthcare": "dentist",
        "name": "Odontologia RM",
        "website": "https://www.odontologiarm.com.br/",
        "id": "node/1734576355"
      },
      "geometry": {
        "type": "Point",
        "coordinates": [
          -47.0596958,
          -22.8921206
        ]
      }
    },
    {
      "type": "Feature",
      "id": "node/3686278292",
      "properties": {
        "timestamp": "2021-11-11T00:32:24Z",
        "version": 2,
        "changeset": 113630769,
        "amenity": "dentist",
        "healthcare": "dentist",
        "id": "node/3686278292"
      },
      "geometry": {
        "type": "Point",
        "coordinates": [
          -47.0751312,
          -22.9039177
        ]
      }
    },
    {
      "type": "Feature",
      "id": "node/4362094148",
      "properties": {
        "timestamp": "2019-10-28T07:06:21Z",
        "version": 2,
        "changeset": 76284696,
        "addr:city": "Campinas",
        "addr:housenumber": "141",
        "addr:street": "Rua Santa Cruz",
        "addr:suburb": "Cambuí",
        "amenity": "dentist",
        "healthcare": "dentist",
        "name": "Clean Odonto",
        "id": "node/4362094148"
      },
      "geometry": {
        "type": "Point",
        "coordinates": [
          -47.059338,
          -22.8942709
        ]
      }
    },
    {
      "type": "Feature",
      "id": "node/4549160277",
      "properties": {
        "timestamp": "2019-10-28T07:06:21Z",
        "version": 3,
        "changeset": 76284696,
        "addr:housenumber": "448",
        "addr:street": "Rua Santos Dumont",
        "amenity": "dentist",
        "healthcare": "dentist",
        "name": "Azuaga",
        "id": "node/4549160277"
      },
      "geometry": {
        "type": "Point",
        "coordinates": [
          -47.055417,
          -22.8932298
        ]
      }
    },
    {
      "type": "Feature",
      "id": "node/4549175824",
      "properties": {
        "timestamp": "2019-10-28T07:06:21Z",
        "version": 3,
        "changeset": 76284696,
        "addr:housenumber": "51",
        "addr:street": "Rua Gustavo Enge",
        "amenity": "dentist",
        "healthcare": "dentist",
        "name": "VS Odontologia",
        "id": "node/4549175824"
      },
      "geometry": {
        "type": "Point",
        "coordinates": [
          -47.0550337,
          -22.8944046
        ]
      }
    },
    {
      "type": "Feature",
      "id": "node/4559198519",
      "properties": {
        "timestamp": "2019-10-28T07:06:21Z",
        "version": 3,
        "changeset": 76284696,
        "addr:housenumber": "235",
        "addr:street": "Rua dos Bandeirantes",
        "amenity": "dentist",
        "healthcare": "dentist",
        "name": "Espaço Riso",
        "id": "node/4559198519"
      },
      "geometry": {
        "type": "Point",
        "coordinates": [
          -47.0531533,
          -22.8922911
        ]
      }
    },
    {
      "type": "Feature",
      "id": "node/4559198582",
      "properties": {
        "timestamp": "2019-10-28T07:06:21Z",
        "version": 3,
        "changeset": 76284696,
        "addr:housenumber": "225",
        "addr:street": "Rua dos Bandeirantes",
        "amenity": "dentist",
        "healthcare": "dentist",
        "name": "Uniodonto",
        "id": "node/4559198582"
      },
      "geometry": {
        "type": "Point",
        "coordinates": [
          -47.053266,
          -22.8922742
        ]
      }
    },
    {
      "type": "Feature",
      "id": "node/4767935713",
      "properties": {
        "timestamp": "2021-03-13T02:00:24Z",
        "version": 2,
        "changeset": 100939363,
        "addr:housenumber": "262",
        "amenity": "dentist",
        "healthcare": "dentist",
        "name": "Odontologia Integrada",
        "id": "node/4767935713"
      },
      "geometry": {
        "type": "Point",
        "coordinates": [
          -47.0824083,
          -22.8236083
        ]
      }
    },
    {
      "type": "Feature",
      "id": "node/4767935716",
      "properties": {
        "timestamp": "2021-03-13T02:00:24Z",
        "version": 2,
        "changeset": 100939363,
        "addr:housenumber": "300",
        "amenity": "dentist",
        "healthcare": "dentist",
        "name": "Reinaldo Filho",
        "id": "node/4767935716"
      },
      "geometry": {
        "type": "Point",
        "coordinates": [
          -47.0825917,
          -22.8230283
        ]
      }
    },
    {
      "type": "Feature",
      "id": "node/5059192322",
      "properties": {
        "timestamp": "2021-03-13T02:00:24Z",
        "version": 2,
        "changeset": 100939363,
        "amenity": "dentist",
        "healthcare": "dentist",
        "name": "Odontoclinic",
        "name:pt": "Odontoclinic",
        "id": "node/5059192322"
      },
      "geometry": {
        "type": "Point",
        "coordinates": [
          -47.1887891,
          -22.9520871
        ]
      }
    },
    {
      "type": "Feature",
      "id": "node/5060667123",
      "properties": {
        "timestamp": "2021-03-13T02:00:24Z",
        "version": 2,
        "changeset": 100939363,
        "amenity": "dentist",
        "healthcare": "dentist",
        "id": "node/5060667123"
      },
      "geometry": {
        "type": "Point",
        "coordinates": [
          -47.1013057,
          -22.9137634
        ]
      }
    },
    {
      "type": "Feature",
      "id": "node/5773407853",
      "properties": {
        "timestamp": "2020-04-21T03:15:18Z",
        "version": 2,
        "changeset": 83849463,
        "addr:housenumber": "204",
        "addr:postcode": "13050470",
        "addr:street": "Avenida Mirandópolis",
        "amenity": "dentist",
        "healthcare": "dentist",
        "name": "Radiodoc - Radiologia Odontológica",
        "phone": "+55 19 3229 3800",
        "id": "node/5773407853"
      },
      "geometry": {
        "type": "Point",
        "coordinates": [
          -47.0876677,
          -22.9301159
        ]
      }
    },
    {
      "type": "Feature",
      "id": "node/5911459785",
      "properties": {
        "timestamp": "2020-04-21T03:15:18Z",
        "version": 2,
        "changeset": 83849463,
        "amenity": "dentist",
        "healthcare": "dentist",
        "id": "node/5911459785"
      },
      "geometry": {
        "type": "Point",
        "coordinates": [
          -47.0925497,
          -22.9308147
        ]
      }
    },
    {
      "type": "Feature",
      "id": "node/5919466389",
      "properties": {
        "timestamp": "2020-04-21T03:15:18Z",
        "version": 2,
        "changeset": 83849463,
        "amenity": "dentist",
        "healthcare": "dentist",
        "id": "node/5919466389"
      },
      "geometry": {
        "type": "Point",
        "coordinates": [
          -47.0873311,
          -22.9307038
        ]
      }
    },
    {
      "type": "Feature",
      "id": "node/6153900433",
      "properties": {
        "timestamp": "2019-12-15T04:58:25Z",
        "version": 2,
        "changeset": 78422352,
        "amenity": "dentist",
        "healthcare": "dentist",
        "name": "A Odontologia Integrada",
        "id": "node/6153900433"
      },
      "geometry": {
        "type": "Point",
        "coordinates": [
          -47.0555165,
          -22.9110827
        ]
      }
    },
    {
      "type": "Feature",
      "id": "node/6838738079",
      "properties": {
        "timestamp": "2024-09-30T17:18:01Z",
        "version": 3,
        "changeset": 157307801,
        "addr:city": "Campinas",
        "addr:housenumber": "719",
        "addr:postcode": "13073-141",
        "addr:street": "Rua Dona Rosa de Gusmão",
        "addr:suburb": "Jardim Guanabara",
        "amenity": "dentist",
        "healthcare": "dentist",
        "name": "Valejo Piva",
        "opening_hours": "Mo-Fr 08:00-18:00",
        "phone": "+55 (19)3213-8668",
        "website": "https://valejopiva.com.br/",
        "id": "node/6838738079"
      },
      "geometry": {
        "type": "Point",
        "coordinates": [
          -47.0708993,
          -22.8859262
        ]
      }
    },
    {
      "type": "Feature",
      "id": "node/7077995285",
      "properties": {
        "timestamp": "2021-03-13T02:00:24Z",
        "version": 2,
        "changeset": 100939363,
        "amenity": "dentist",
        "healthcare": "dentist",
        "id": "node/7077995285"
      },
      "geometry": {
        "type": "Point",
        "coordinates": [
          -47.1862162,
          -22.9514211
        ]
      }
    },
    {
      "type": "Feature",
      "id": "node/7108029890",
      "properties": {
        "timestamp": "2021-01-24T23:07:13Z",
        "version": 2,
        "changeset": 98078230,
        "amenity": "dentist",
        "healthcare": "dentist",
        "name": "Sorrifácil",
        "id": "node/7108029890"
      },
      "geometry": {
        "type": "Point",
        "coordinates": [
          -47.0520194,
          -22.904862
        ]
      }
    },
    {
      "type": "Feature",
      "id": "node/9807609314",
      "properties": {
        "timestamp": "2022-06-10T01:42:25Z",
        "version": 1,
        "changeset": 122187643,
        "addr:city": "Campinas",
        "addr:housenumber": "1811",
        "addr:postcode": "13090000",
        "addr:street": "Avenida Andrade Neves",
        "addr:suburb": "Jardim Chapadão",
        "amenity": "dentist",
        "healthcare": "dentist",
        "name": "Yappy Centro de Odontologia",
        "id": "node/9807609314"
      },
      "geometry": {
        "type": "Point",
        "coordinates": [
          -47.0751513,
          -22.893683
        ]
      }
    },
    {
      "type": "Feature",
      "id": "node/11660441856",
      "properties": {
        "timestamp": "2024-10-07T12:15:11Z",
        "version": 2,
        "changeset": 157579471,
        "addr:city": "Campinas",
        "addr:housenumber": "110",
        "addr:postcode": "13070-070",
        "addr:street": "Avenida João Erbolato",
        "addr:suburb": "Jardim Chapadão",
        "amenity": "dentist",
        "healthcare": "dentist",
        "mobile": "+55 (19) 99304-1117",
        "name": "Clínica Caparica",
        "phone": "+55 (19) 3241-6919",
        "website": "https://clinicacaparica.com.br/",
        "id": "node/11660441856"
      },
      "geometry": {
        "type": "Point",
        "coordinates": [
          -47.078394,
          -22.8895224
        ]
      }
    },
    {
      "type": "Feature",
      "id": "node/11660850937",
      "properties": {
        "timestamp": "2024-02-24T21:56:56Z",
        "version": 1,
        "changeset": 147872324,
        "amenity": "dentist",
        "healthcare": "dentist",
        "name": "Consultório Odontológico",
        "id": "node/11660850937"
      },
      "geometry": {
        "type": "Point",
        "coordinates": [
          -47.0782566,
          -22.8893969
        ]
      }
    },
    {
      "type": "Feature",
      "id": "node/11705851343",
      "properties": {
        "timestamp": "2024-03-14T22:12:09Z",
        "version": 2,
        "changeset": 148663819,
        "addr:city": "Campinas",
        "addr:housenumber": "3168",
        "addr:postcode": "13050-035",
        "addr:street": "Avenida das Amoreiras",
        "addr:suburb": "Jardim do Lago",
        "amenity": "dentist",
        "contact:facebook": "https://www.facebook.com/profile.php?id=61554510481888&mibextid=ZbWKwL",
        "description": "Somos uma Clínica Odontológica que está trazendo um novo conceito em Odontologia para a cidade de Campinas. Buscamos que todos os nossos pacientes saiam felizes, proporcionando Bem - Estar e Aconchego. Oferecemos um cuidado integral e humanizado, com técn",
        "healthcare": "dentist",
        "healthcare:speciality": "dentist;dental_oral_maxillo_facial_surgery;dentista;dentistry;clareamento_dental;cirurgião_dentista;clínica_odontológica;dentista_cosmético;serviço_de_clareamento_dental;clínica_de_implante_dentário;periodontia_e_implantes_dentários",
        "image": "https://www.instagram.com/essencialle_odontologia",
        "mobile": "+55 019 981754620",
        "name": "Essencialle Clinica Odontologica Amoreiras Campinas",
        "opening_hours": "Mo-Fr 08:30-18:00 saturday 08:30-12:00",
        "operator": "hopee digital",
        "phone": "+55 019 981754620",
        "website": "https://www.clinicaessencialle.com.br/",
        "wheelchair": "yes",
        "id": "node/11705851343"
      },
      "geometry": {
        "type": "Point",
        "coordinates": [
          -47.0875066,
          -22.9308471
        ]
      }
    },
    {
      "type": "Feature",
      "id": "node/11747664769",
      "properties": {
        "timestamp": "2024-03-20T09:59:14Z",
        "version": 1,
        "changeset": 148902696,
        "amenity": "dentist",
        "name": "CROC - Odontologia",
        "id": "node/11747664769"
      },
      "geometry": {
        "type": "Point",
        "coordinates": [
          -47.0463253,
          -22.9092556
        ]
      }
    },
    {
      "type": "Feature",
      "id": "node/12175405821",
      "properties": {
        "timestamp": "2024-09-27T11:07:56Z",
        "version": 2,
        "changeset": 157165584,
        "addr:city": "Campinas",
        "addr:housenumber": "1247",
        "addr:postcode": "13073-221",
        "addr:street": "Rua Frei Manuel da Ressurreição",
        "addr:suburb": "Jardim Guanabara",
        "amenity": "dentist",
        "healthcare": "dentist",
        "name": "Ramo Odontologia e Saúde",
        "phone": "+55 (19) 3367-3330",
        "id": "node/12175405821"
      },
      "geometry": {
        "type": "Point",
        "coordinates": [
          -47.0705335,
          -22.8859357
        ]
      }
    },
    {
      "type": "Feature",
      "id": "node/12204832210",
      "properties": {
        "timestamp": "2024-09-27T11:07:56Z",
        "version": 1,
        "changeset": 157165584,
        "addr:city": "Campinas",
        "addr:housenumber": "599",
        "addr:postcode": "13073-221",
        "addr:street": "Rua Frei Manuel da Ressurreição",
        "addr:suburb": "Jardim Guanabara",
        "amenity": "dentist",
        "healthcare": "dentist",
        "healthcare:speciality": "orthodontics",
        "mobile": "+55 (19) 99770-0211",
        "name": "Odonthus - Dra. Maisa Quintas da Costa",
        "phone": "+55 (19) 3241-0211",
        "id": "node/12204832210"
      },
      "geometry": {
        "type": "Point",
        "coordinates": [
          -47.0722579,
          -22.8913277
        ]
      }
    },
    {
      "type": "Feature",
      "id": "node/12204832211",
      "properties": {
        "timestamp": "2024-09-27T11:07:56Z",
        "version": 1,
        "changeset": 157165584,
        "addr:city": "Campinas",
        "addr:housenumber": "705",
        "addr:postcode": "13073-221",
        "addr:street": "Rua Frei Manuel da Ressurreição",
        "addr:suburb": "Jardim Guanabara",
        "amenity": "dentist",
        "healthcare": "dentist",
        "healthcare:speciality": "orthodontics",
        "mobile": "+55 (19) 98342-3844",
        "name": "Dra. Raquel Satto Sakai",
        "opening_hours": "Mo-Fr 08:00-19:00; Sa 08:00-12:00",
        "phone": "+55 (19) 3241-2491",
        "id": "node/12204832211"
      },
      "geometry": {
        "type": "Point",
        "coordinates": [
          -47.0724111,
          -22.8903978
        ]
      }
    },
    {
      "type": "Feature",
      "id": "node/12205551633",
      "properties": {
        "timestamp": "2024-09-27T17:43:49Z",
        "version": 1,
        "changeset": 157182461,
        "addr:city": "Campinas",
        "addr:housenumber": "732",
        "addr:postcode": "13073-350",
        "addr:street": "Rua Camargo Paes",
        "addr:suburb": "Jardim Guanabara",
        "amenity": "dentist",
        "healthcare": "dentist",
        "name": "Instituo Smanio de Odontologia Avançada",
        "phone": "+55 (19) 3242-966",
        "website": "http://www.smanio.com.br/",
        "id": "node/12205551633"
      },
      "geometry": {
        "type": "Point",
        "coordinates": [
          -47.0664507,
          -22.8903981
        ]
      }
    },
    {
      "type": "Feature",
      "id": "node/12205551639",
      "properties": {
        "timestamp": "2024-10-03T15:27:27Z",
        "version": 2,
        "changeset": 157424664,
        "addr:city": "Campinas",
        "addr:housenumber": "461",
        "addr:postcode": "13073-350",
        "addr:street": "Rua Camargo Paes",
        "addr:suburb": "Jardim Guanabara",
        "amenity": "dentist",
        "healthcare": "dentist",
        "mobile": "+55 (19) 98711-2281",
        "name": "Dra. Anamaria Chiaverini",
        "opening_hours": "Mo-Fr 11:00-18:00; Sa 11:00-17:00; Su 10:00-18:00",
        "phone": "+55 (19) 4141-2150",
        "website": "https://www.odontoanamaria.com/",
        "id": "node/12205551639"
      },
      "geometry": {
        "type": "Point",
        "coordinates": [
          -47.0681617,
          -22.8921779
        ]
      }
    },
    {
      "type": "Feature",
      "id": "node/12205551645",
      "properties": {
        "timestamp": "2024-09-27T17:43:49Z",
        "version": 1,
        "changeset": 157182461,
        "addr:city": "Campinas",
        "addr:housenumber": "274",
        "addr:postcode": "13073-350",
        "addr:street": "Rua Camargo Paes",
        "addr:suburb": "Jardim Guanabara",
        "amenity": "dentist",
        "healthcare": "dentist",
        "mobile": "+55 (19) 98151-9452",
        "name": "Dra. Thaís Lopes do Lago",
        "opening_hours": "Mo-Fr 08:00-18:00",
        "website": "https://www.drathaislopes.com.br/",
        "id": "node/12205551645"
      },
      "geometry": {
        "type": "Point",
        "coordinates": [
          -47.0690842,
          -22.8937503
        ]
      }
    },
    {
      "type": "Feature",
      "id": "node/12205551649",
      "properties": {
        "timestamp": "2024-09-27T17:43:49Z",
        "version": 1,
        "changeset": 157182461,
        "addr:city": "Campinas",
        "addr:housenumber": "164",
        "addr:postcode": "13073-350",
        "addr:street": "Rua Camargo Paes",
        "addr:suburb": "Jardim Guanabara",
        "amenity": "dentist",
        "healthcare": "dentist",
        "name": "Odonthus",
        "id": "node/12205551649"
      },
      "geometry": {
        "type": "Point",
        "coordinates": [
          -47.0697315,
          -22.8945964
        ]
      }
    },
    {
      "type": "Feature",
      "id": "node/12206788810",
      "properties": {
        "timestamp": "2024-09-28T11:28:10Z",
        "version": 1,
        "changeset": 157205912,
        "amenity": "dentist",
        "healthcare": "dentist",
        "name": "Bellini",
        "id": "node/12206788810"
      },
      "geometry": {
        "type": "Point",
        "coordinates": [
          -47.0711624,
          -22.8989981
        ]
      }
    },
    {
      "type": "Feature",
      "id": "node/12207040925",
      "properties": {
        "timestamp": "2024-09-28T14:43:49Z",
        "version": 1,
        "changeset": 157214285,
        "addr:city": "Campinas",
        "addr:housenumber": "26",
        "addr:postcode": "13073-340",
        "addr:street": "Rua Camargo Pimentel",
        "addr:suburb": "Jardim Guanabara",
        "amenity": "dentist",
        "healthcare": "dentist",
        "name": "Vilela Altro",
        "phone": "+55 (19) 3237-6293",
        "id": "node/12207040925"
      },
      "geometry": {
        "type": "Point",
        "coordinates": [
          -47.0693283,
          -22.8926946
        ]
      }
    },
    {
      "type": "Feature",
      "id": "node/12209566182",
      "properties": {
        "timestamp": "2024-09-29T21:00:27Z",
        "version": 1,
        "changeset": 157270965,
        "addr:city": "Campinas",
        "addr:housenumber": "7",
        "addr:postcode": "13070-144",
        "addr:street": "Rua Carlos Gerin",
        "addr:suburb": "Jardim Chapadão",
        "amenity": "dentist",
        "healthcare": "dentist",
        "name": "Navarro Odontologia",
        "opening_hours": "Mo-Fr 08:00-12:00,14:00-18:00",
        "phone": "+55 (19) 3242-5288",
        "id": "node/12209566182"
      },
      "geometry": {
        "type": "Point",
        "coordinates": [
          -47.0734838,
          -22.8907688
        ]
      }
    },
    {
      "type": "Feature",
      "id": "node/12209566183",
      "properties": {
        "timestamp": "2024-09-29T21:00:27Z",
        "version": 1,
        "changeset": 157270965,
        "addr:city": "Campinas",
        "addr:housenumber": "295",
        "addr:postcode": "13070-118",
        "addr:street": "Rua Doutor Miguel Penteado",
        "addr:suburb": "Jardim Chapadão",
        "amenity": "dentist",
        "healthcare": "dentist",
        "name": "Arbora Saúde Integrada",
        "opening_hours": "Mo-Fr 08:00-18:00",
        "phone": "+55 (19) 3255-3462",
        "id": "node/12209566183"
      },
      "geometry": {
        "type": "Point",
        "coordinates": [
          -47.073425,
          -22.8909342
        ]
      }
    },
    {
      "type": "Feature",
      "id": "node/12212230424",
      "properties": {
        "timestamp": "2024-09-30T17:18:01Z",
        "version": 1,
        "changeset": 157307801,
        "addr:city": "Campinas",
        "addr:housenumber": "980",
        "addr:postcode": "13070-118",
        "addr:street": "Rua Doutor Miguel Penteado",
        "addr:suburb": "Jardim Chapadão",
        "amenity": "dentist",
        "healthcare": "dentist",
        "name": "Dra. Mônica Cantadori",
        "phone": "+55 (19) 3243-1088",
        "website": "https://www.monicacantadori.com.br/",
        "id": "node/12212230424"
      },
      "geometry": {
        "type": "Point",
        "coordinates": [
          -47.0710885,
          -22.8853691
        ]
      }
    },
    {
      "type": "Feature",
      "id": "node/12213937120",
      "properties": {
        "timestamp": "2024-10-01T11:31:52Z",
        "version": 1,
        "changeset": 157334724,
        "addr:city": "Campinas",
        "addr:housenumber": "336",
        "addr:postcode": "13073-210",
        "addr:street": "Rua Pereira Tangerino",
        "addr:suburb": "Jardim Guanabara",
        "amenity": "dentist",
        "healthcare": "dentist",
        "name": "Pro Clinic",
        "phone": "+55 (19) 3243-8855",
        "id": "node/12213937120"
      },
      "geometry": {
        "type": "Point",
        "coordinates": [
          -47.0714651,
          -22.8895468
        ]
      }
    }
  ]
}
