{
  "type": "FeatureCollection",
  "features": [
    {
      "type": "Feature",
      "id": "way/432450447",
      "properties": {
        "timestamp": "2023-10-15T05:00:24Z",
        "version": 8,
        "changeset": 142601594,
        "addr:city": "Campinas",
        "addr:housenumber": "856",
        "addr:postcode": "13084-008",
        "addr:street": "Avenida Albino José Barbosa de Oliveira",
        "addr:suburb": "Barao Geraldo",
        "amenity": "doctors",
        "building": "yes",
        "building:levels": "2",
        "description": "Benavitta – Prevenção e Saúde (by Loema)",
        "healthcare": "doctor",
        "name": "Benavitta",
        "phone": "+551933678600",
        "website": "https://www.benavitta.com.br/",
        "id": "way/432450447"
      },
      "geometry": {
        "type": "Polygon",
        "coordinates": [
          [
            [
              -47.0784555,
              -22.8318025
            ],
            [
              -47.0782892,
              -22.8318248
            ],
            [
              -47.0782452,
              -22.8315492
            ],
            [
              -47.078369,
              -22.831532
            ],
            [
              -47.0783831,
              -22.8316208
            ],
            [
              -47.0784252,
              -22.8316164
            ],
            [
              -47.0784555,
              -22.8318025
            ]
          ]
        ]
      }
    },
    {
      "type": "Feature",
      "id": "way/1317378228",
      "properties": {
        "timestamp": "2024-09-22T12:25:02Z",
        "version": 1,
        "changeset": 156949101,
        "addr:city": "Campinas",
        "addr:housenumber": "1139",
        "addr:postcode": "13073-330",
        "addr:street": "Rua Frei Antônio de Pádua",
        "addr:suburb": "Jardim Guanabara",
        "amenity": "doctors",
        "building": "yes",
        "healthcare": "doctor",
        "name": "Clínica Terzis",
        "opening_hours": "Su-Fr 07:30-22:00; Sa 07:30-13:30",
        "phone": "+55 (19) 3252-7521",
        "id": "way/1317378228"
      },
      "geometry": {
        "type": "Polygon",
        "coordinates": [
          [
            [
              -47.07093,
              -22.8880542
            ],
            [
              -47.0707487,
              -22.8881545
            ],
            [
              -47.0705855,
              -22.8879067
            ],
            [
              -47.0707608,
              -22.8878134
            ],
            [
              -47.07093,
              -22.8880542
            ]
          ]
        ]
      }
    },
    {
      "type": "Feature",
      "id": "node/4779853525",
      "properties": {
        "timestamp": "2017-04-06T20:05:03Z",
        "version": 1,
        "changeset": 47519763,
        "amenity": "doctors",
        "name": "Instituto Wilson Melo",
        "id": "node/4779853525"
      },
      "geometry": {
        "type": "Point",
        "coordinates": [
          -47.0862048,
          -22.8472551
        ]
      }
    },
    {
      "type": "Feature",
      "id": "node/5046459422",
      "properties": {
        "timestamp": "2021-03-13T02:00:24Z",
        "version": 3,
        "changeset": 100939363,
        "amenity": "doctors",
        "healthcare": "doctor",
        "name": "Centro de Saúde Parque Valença",
        "name:pt": "Posto de Saúde",
        "id": "node/5046459422"
      },
      "geometry": {
        "type": "Point",
        "coordinates": [
          -47.187666,
          -22.948472
        ]
      }
    },
    {
      "type": "Feature",
      "id": "node/5053562621",
      "properties": {
        "timestamp": "2023-10-24T21:56:14Z",
        "version": 6,
        "changeset": 143085429,
        "addr:housenumber": "35",
        "addr:postcode": "13060-864",
        "addr:street": "Avenida Paulo Provenza Sobrinho",
        "amenity": "doctors",
        "healthcare": "doctor",
        "name": "Centro de Saúde Dr. Pedro Agápio de Aquino Netto",
        "opening_hours": "Mo-Fr 07:00-19:00",
        "phone": "(19) 3229-9865",
        "website": "https://saude.campinas.sp.gov.br/saude/",
        "id": "node/5053562621"
      },
      "geometry": {
        "type": "Point",
        "coordinates": [
          -47.1008085,
          -22.929759
        ]
      }
    },
    {
      "type": "Feature",
      "id": "node/5482240421",
      "properties": {
        "timestamp": "2019-10-28T07:06:21Z",
        "version": 2,
        "changeset": 76284696,
        "addr:housenumber": "780",
        "addr:street": "Rua Duque de Caxias",
        "amenity": "doctors",
        "healthcare": "doctor",
        "name": "círculo médico",
        "id": "node/5482240421"
      },
      "geometry": {
        "type": "Point",
        "coordinates": [
          -47.0538325,
          -22.9082759
        ]
      }
    },
    {
      "type": "Feature",
      "id": "node/5916647787",
      "properties": {
        "timestamp": "2019-12-15T04:58:25Z",
        "version": 2,
        "changeset": 78422352,
        "amenity": "doctors",
        "healthcare": "doctor",
        "name": "Vera Cruz",
        "id": "node/5916647787"
      },
      "geometry": {
        "type": "Point",
        "coordinates": [
          -47.0686417,
          -22.9048647
        ]
      }
    },
    {
      "type": "Feature",
      "id": "node/5916647889",
      "properties": {
        "timestamp": "2019-12-15T04:58:25Z",
        "version": 2,
        "changeset": 78422352,
        "amenity": "doctors",
        "healthcare": "doctor",
        "name": "Beneficiencia Portuguesa",
        "id": "node/5916647889"
      },
      "geometry": {
        "type": "Point",
        "coordinates": [
          -47.069022,
          -22.9040963
        ]
      }
    },
    {
      "type": "Feature",
      "id": "node/9283782413",
      "properties": {
        "timestamp": "2021-11-25T18:21:31Z",
        "version": 1,
        "changeset": 114234094,
        "addr:city": "Campinas",
        "addr:housenumber": "132",
        "addr:postcode": "13073-013",
        "addr:street": "Rua Doutor Pelagio Lobo",
        "addr:suburb": "Jardim Guanabara",
        "amenity": "doctors",
        "healthcare": "doctor",
        "healthcare:speciality": "cardiology",
        "name": "Clínica de Cardiologia e Reabilitação",
        "opening_hours": "Mo-Fr 07:30-18:00",
        "phone": "+55 19 3794-1300",
        "website": "https://ccr.med.br/",
        "id": "node/9283782413"
      },
      "geometry": {
        "type": "Point",
        "coordinates": [
          -47.0645123,
          -22.8878412
        ]
      }
    },
    {
      "type": "Feature",
      "id": "node/10594107526",
      "properties": {
        "timestamp": "2023-01-30T13:09:27Z",
        "version": 1,
        "changeset": 131880639,
        "addr:city": "Campinas",
        "addr:housenumber": "234",
        "addr:postcode": "13073-212",
        "addr:street": "Rua Barbosa de Andrade",
        "addr:suburb": "Jardim Guanabara",
        "amenity": "doctors",
        "healthcare": "doctor",
        "healthcare:speciality": "medicina_do_trabalho",
        "name": "Grupo TBS",
        "phone": "+55 19 31147900",
        "id": "node/10594107526"
      },
      "geometry": {
        "type": "Point",
        "coordinates": [
          -47.0711114,
          -22.8916333
        ]
      }
    },
    {
      "type": "Feature",
      "id": "node/10925033694",
      "properties": {
        "timestamp": "2023-05-24T18:54:17Z",
        "version": 1,
        "changeset": 136513841,
        "addr:city": "Campinas",
        "addr:housenumber": "610",
        "addr:postcode": "13020-430",
        "addr:street": "Avenida Barão de Itapura",
        "addr:suburb": "Vila Itapura",
        "amenity": "doctors",
        "contact:facebook": "https://www.facebook.com/alergoccampinas",
        "description": "Clínica de Alergia, Imunologia e Especialidades Médicas no Edifício MedPlex Campinas.",
        "email": "alergocentrocampinas@gmail.com",
        "healthcare": "doctor",
        "healthcare:speciality": "alergista;imunologista;gastrocirurgião;gastropediatra;pediatra;neuropediatra;nutricionista_materno_infantil;psiquiatra;endocrinologista_pediátrica",
        "level": "10º,sala_1007",
        "name": "Alergo Centro Campinas",
        "opening_hours": "Mo-Fr 08:00-17:00",
        "operator": "Edifício MedPlex Campinas",
        "phone": "(19) 2018-7052 e (19) 98300-3333",
        "start_date": "01-06-2022",
        "website": "https://alergo-centro-campinas.negocio.site/?utm_source=gmb&utm_medium=referral",
        "wheelchair": "yes",
        "id": "node/10925033694"
      },
      "geometry": {
        "type": "Point",
        "coordinates": [
          -47.0687055,
          -22.8982531
        ]
      }
    },
    {
      "type": "Feature",
      "id": "node/10925100421",
      "properties": {
        "timestamp": "2023-05-24T19:31:17Z",
        "version": 2,
        "changeset": 136514957,
        "addr:city": "Campinas",
        "addr:housenumber": "610",
        "addr:postcode": "13020-430",
        "addr:street": "Avenida Barão de Itapura",
        "addr:suburb": "Vila Itapura",
        "amenity": "doctors",
        "contact:facebook": "https://www.facebook.com/draanaflaviabernardesalergista",
        "description": "Realização de consultas médicas presencial e por teleatendimento, além de exames relacionados a alergias respiratórias e cutâneas. Médica Assistente no Ambulatório de Alergia Alimentar e Esofagite Eosinofílica da UNICAMP.",
        "email": "anaflavia.bsousa@gmail.com",
        "healthcare": "doctor",
        "healthcare:speciality": "allergology",
        "level": "10º_sala_1007",
        "name": "Dra. Ana Flavia Bernardes - Alergista",
        "opening_hours": "Mo-Fr 08:00-17:00",
        "operator": "Edifício MedPlex Campinas",
        "phone": "(19) 2018-7052 e (19) 98300-3333",
        "start_date": "11-12-2012",
        "website": "https://dra-ana-flavia-bernardes-alergista.negocio.site/",
        "wheelchair": "yes",
        "id": "node/10925100421"
      },
      "geometry": {
        "type": "Point",
        "coordinates": [
          -47.0687018,
          -22.8983227
        ]
      }
    },
    {
      "type": "Feature",
      "id": "node/11162021080",
      "properties": {
        "timestamp": "2023-09-01T22:58:56Z",
        "version": 2,
        "changeset": 140699390,
        "addr:city": "Campinas",
        "addr:housenumber": "39",
        "addr:postcode": "13087-727",
        "addr:street": "R. Paulo Cézar Fidelis",
        "addr:suburb": "Parque Alto Taquaral",
        "amenity": "doctors",
        "contact:facebook": "https://www.facebook.com/dranayarafraccari",
        "description": "Hoje atuo como Cardiologista em Campinas realizando consultas e exames de eletrocardiograma, MAPA e teste ergométrico.",
        "healthcare": "doctor",
        "healthcare:speciality": "cardiology",
        "level": "6º",
        "mobile": "+55 19 99882-1080",
        "name": "Dra Nayara Fraccari, Cardiologista",
        "opening_hours": "Mo-Fr 09:00-17:00",
        "phone": "+55 19 99882-1080",
        "start_date": "03/01/2012",
        "website": "https://dra-nayara-fraccari-cardiologista.negocio.site/",
        "id": "node/11162021080"
      },
      "geometry": {
        "type": "Point",
        "coordinates": [
          -47.0553397,
          -22.8567529
        ]
      }
    },
    {
      "type": "Feature",
      "id": "node/11309922191",
      "properties": {
        "timestamp": "2023-11-15T08:08:09Z",
        "version": 2,
        "changeset": 144039671,
        "addr:city": "Campinas",
        "addr:housenumber": "340",
        "addr:postcode": "13073-002",
        "addr:street": "Rua Eduardo Lane",
        "addr:suburb": "Jardim Brasil",
        "amenity": "doctors",
        "contact:facebook": "https://www.facebook.com/dramayratodeschinigastropediatra",
        "description": "Pediatra, Gastropediatra e Mestre em Saúde da Criança pela Unicamp. Pós-graduada em nutrologia pediátrica pela Boston University School of Medicine.",
        "healthcare": "doctor",
        "healthcare:speciality": "gastroenterology;gastroenterologia_pediátrica;hepatology;hepatologia_pediátrica;paediatrics",
        "level": "0",
        "mobile": "(19) 99673-2184",
        "name": "Dra. Mayra Todeschini - Gastropediatra - Hepatopediatra - Nutrologia Pediátrica - Campinas",
        "opening_hours": "Mo-Fr 08:00-18:00",
        "phone": "(19) 3325-9246",
        "start_date": "03/01/2012",
        "website": "https://dramayratodeschini.com.br/",
        "wheelchair": "yes",
        "id": "node/11309922191"
      },
      "geometry": {
        "type": "Point",
        "coordinates": [
          -47.066453,
          -22.8862899
        ]
      }
    },
    {
      "type": "Feature",
      "id": "node/11553747391",
      "properties": {
        "timestamp": "2024-01-26T11:42:46Z",
        "version": 1,
        "changeset": 146706776,
        "amenity": "doctors",
        "healthcare": "doctor",
        "name": "Mateus Álvares Reabilitação Neurológica",
        "id": "node/11553747391"
      },
      "geometry": {
        "type": "Point",
        "coordinates": [
          -47.0808457,
          -22.888763
        ]
      }
    },
    {
      "type": "Feature",
      "id": "node/11660441856",
      "properties": {
        "timestamp": "2024-02-24T21:56:55Z",
        "version": 1,
        "changeset": 147872324,
        "amenity": "doctors",
        "healthcare": "doctor",
        "name": "Clínica Caparica",
        "id": "node/11660441856"
      },
      "geometry": {
        "type": "Point",
        "coordinates": [
          -47.0783562,
          -22.8895405
        ]
      }
    },
    {
      "type": "Feature",
      "id": "node/11660849373",
      "properties": {
        "timestamp": "2024-02-24T21:56:55Z",
        "version": 1,
        "changeset": 147872324,
        "amenity": "doctors",
        "healthcare": "doctor",
        "healthcare:speciality": "gastroenterology",
        "name": "Unigastro",
        "id": "node/11660849373"
      },
      "geometry": {
        "type": "Point",
        "coordinates": [
          -47.0784537,
          -22.8901931
        ]
      }
    },
    {
      "type": "Feature",
      "id": "node/12160872670",
      "properties": {
        "timestamp": "2024-09-17T17:30:43Z",
        "version": 2,
        "changeset": 156740564,
        "addr:city": "Campinas",
        "addr:housenumber": "1367",
        "addr:postcode": "13073-330",
        "addr:street": "Rua Frei Antônio de Pádua",
        "addr:suburb": "Jardim Brasil",
        "amenity": "doctors",
        "healthcare": "doctor",
        "healthcare:speciality": "general;geriatrics",
        "mobile": "+55 19 98913-7887",
        "name": "CIGGA - Centro Integrado de Geriatria e Gerontologia Aplicadas",
        "phone": "+55 19 3395-2418",
        "id": "node/12160872670"
      },
      "geometry": {
        "type": "Point",
        "coordinates": [
          -47.0695198,
          -22.8861442
        ]
      }
    },
    {
      "type": "Feature",
      "id": "node/12175405817",
      "properties": {
        "timestamp": "2024-09-13T19:07:50Z",
        "version": 1,
        "changeset": 156585939,
        "addr:city": "Campinas",
        "addr:housenumber": "526",
        "addr:postcode": "13073-221",
        "addr:street": "Rua Frei Manuel da Ressurreição",
        "addr:suburb": "Jardim Guanabara",
        "amenity": "doctors",
        "healthcare": "doctor",
        "healthcare:speciality": "gynaecology;paediatrics;dermatology;nutrição",
        "name": "Clínica Mater Baby Campinas",
        "opening_hours": "Mo-Fr 08:00-19:00",
        "phone": "+55 19 32317742",
        "id": "node/12175405817"
      },
      "geometry": {
        "type": "Point",
        "coordinates": [
          -47.0718777,
          -22.8919472
        ]
      }
    },
    {
      "type": "Feature",
      "id": "node/12175405818",
      "properties": {
        "timestamp": "2024-09-13T19:07:50Z",
        "version": 1,
        "changeset": 156585939,
        "addr:city": "Campinas",
        "addr:housenumber": "965",
        "addr:postcode": "13073-221",
        "addr:street": "Rua Frei Manuel da Ressurreição",
        "addr:suburb": "Jardim Guanabara",
        "amenity": "doctors",
        "healthcare": "doctor",
        "healthcare:speciality": "ophthalmology",
        "name": "Dr. Heitor Panetta",
        "id": "node/12175405818"
      },
      "geometry": {
        "type": "Point",
        "coordinates": [
          -47.0719351,
          -22.8881213
        ]
      }
    },
    {
      "type": "Feature",
      "id": "node/12175405827",
      "properties": {
        "timestamp": "2024-09-13T19:07:50Z",
        "version": 1,
        "changeset": 156585939,
        "addr:city": "Campinas",
        "addr:housenumber": "1545",
        "addr:postcode": "13073-221",
        "addr:suburb": "Jardim Guanabara",
        "amenity": "doctors",
        "healthcare": "doctor",
        "healthcare:speciality": "dermatology",
        "name": "Dra. Anna Antonio Gomes",
        "phone": "+55 19 32438053",
        "id": "node/12175405827"
      },
      "geometry": {
        "type": "Point",
        "coordinates": [
          -47.0688166,
          -22.8836105
        ]
      }
    },
    {
      "type": "Feature",
      "id": "node/12175405844",
      "properties": {
        "timestamp": "2024-09-13T19:07:50Z",
        "version": 1,
        "changeset": 156585939,
        "addr:city": "Campinas",
        "addr:housenumber": "135",
        "addr:postcode": "13073-141",
        "addr:street": "Rua Gonçalves César",
        "addr:suburb": "Jardim Guanabara",
        "amenity": "doctors",
        "healthcare": "doctor",
        "healthcare:speciality": "otolaryngology",
        "name": "Clínica RESPIRARE",
        "phone": "+55 19 32321933",
        "website": "http://clinicarespirare.com.br/",
        "id": "node/12175405844"
      },
      "geometry": {
        "type": "Point",
        "coordinates": [
          -47.0675143,
          -22.8882293
        ]
      }
    },
    {
      "type": "Feature",
      "id": "node/12188783104",
      "properties": {
        "timestamp": "2024-09-20T18:38:45Z",
        "version": 1,
        "changeset": 156882153,
        "addr:city": "Campinas",
        "addr:housenumber": "402",
        "addr:postcode": "13023-180",
        "addr:street": "Rua Álvaro Müller",
        "addr:suburb": "Vila Itapura",
        "amenity": "doctors",
        "healthcare": "doctor",
        "healthcare:speciality": "orthopaedics",
        "name": "CETRO - Centro de Traumologia, Reabilitação e Ortopedia",
        "id": "node/12188783104"
      },
      "geometry": {
        "type": "Point",
        "coordinates": [
          -47.0624767,
          -22.8950978
        ]
      }
    },
    {
      "type": "Feature",
      "id": "node/12188783105",
      "properties": {
        "timestamp": "2024-09-20T18:38:45Z",
        "version": 1,
        "changeset": 156882153,
        "addr:city": "Campinas",
        "addr:housenumber": "351",
        "addr:postcode": "13023-030",
        "addr:street": "Rua Barata Ribeiro",
        "addr:suburb": "Vila Itapura",
        "amenity": "doctors",
        "healthcare": "doctor",
        "healthcare:speciality": "paediatrics",
        "name": "Instituto de Medicina Infantil Campinas",
        "phone": "+55 19 32310822",
        "id": "node/12188783105"
      },
      "geometry": {
        "type": "Point",
        "coordinates": [
          -47.0635663,
          -22.8952882
        ]
      }
    },
    {
      "type": "Feature",
      "id": "node/12190959605",
      "properties": {
        "timestamp": "2024-09-21T20:11:37Z",
        "version": 1,
        "changeset": 156927197,
        "addr:city": "Campinas",
        "addr:housenumber": "951",
        "addr:postcode": "13073-330",
        "addr:street": "Rua Frei Antônio de Pádua",
        "addr:suburb": "Jardim Guanabara",
        "amenity": "doctors",
        "healthcare": "doctor",
        "healthcare:speciality": "psychiatry",
        "name": "Vivência - Psiquiatria Clínica",
        "id": "node/12190959605"
      },
      "geometry": {
        "type": "Point",
        "coordinates": [
          -47.0716832,
          -22.8893498
        ]
      }
    }
  ]
}
