{
  "type": "FeatureCollection",
  "features": [
    {
      "type": "Feature",
      "id": "node/4559198528",
      "properties": {
        "timestamp": "2024-01-09T14:38:58Z",
        "version": 3,
        "changeset": 146069609,
        "addr:housenumber": "1211",
        "addr:street": "Rua Coronel Quirino",
        "addr:suburb": "Cambuí",
        "fee": "no",
        "name": "Guimarães",
        "tourism": "gallery",
        "id": "node/4559198528"
      },
      "geometry": {
        "type": "Point",
        "coordinates": [
          -47.0531077,
          -22.897291
        ]
      }
    },
    {
      "type": "Feature",
      "id": "node/11260212577",
      "properties": {
        "timestamp": "2024-10-11T11:46:48Z",
        "version": 2,
        "changeset": 157753380,
        "addr:city": "Campinas",
        "addr:housenumber": "800",
        "addr:postcode": "13073-330",
        "addr:street": "Rua Frei Antônio de Pádua",
        "addr:suburb": "Jardim Guanabara",
        "name": "Espaço 800",
        "tourism": "gallery",
        "id": "node/11260212577"
      },
      "geometry": {
        "type": "Point",
        "coordinates": [
          -47.0712358,
          -22.8907441
        ]
      }
    }
  ]
}
