{
  "type": "FeatureCollection",
  "features": [
    {
      "type": "Feature",
      "id": "way/627167447",
      "properties": {
        "timestamp": "2018-09-21T13:35:37Z",
        "version": 1,
        "changeset": 62797964,
        "amenity": "social_facility",
        "building": "yes",
        "name": "Casa Florida",
        "social_facility": "nursing_home",
        "social_facility:for": "senior",
        "id": "way/627167447"
      },
      "geometry": {
        "type": "Polygon",
        "coordinates": [
          [
            [
              -47.0743925,
              -22.8240459
            ],
            [
              -47.0745558,
              -22.824168
            ],
            [
              -47.0744757,
              -22.8242446
            ],
            [
              -47.0743124,
              -22.824114
            ],
            [
              -47.0743925,
              -22.8240459
            ]
          ]
        ]
      }
    },
    {
      "type": "Feature",
      "id": "way/989246976",
      "properties": {
        "timestamp": "2024-10-20T12:17:40Z",
        "version": 2,
        "changeset": 158125842,
        "addr:city": "Campinas",
        "addr:housenumber": "171",
        "addr:postcode": "13070-070",
        "addr:street": "Avenida João Erbolato",
        "addr:suburb": "Jardim Chapadão",
        "amenity": "social_facility",
        "building": "house",
        "layer": "-1",
        "name": "Doce Viver",
        "social_facility": "nursing_home",
        "social_facility:for": "senior",
        "website": "https://casaderepousodoceviver.com.br",
        "id": "way/989246976"
      },
      "geometry": {
        "type": "Polygon",
        "coordinates": [
          [
            [
              -47.0791449,
              -22.889937
            ],
            [
              -47.0790297,
              -22.8899628
            ],
            [
              -47.0789815,
              -22.8897803
            ],
            [
              -47.0789406,
              -22.8897894
            ],
            [
              -47.0789101,
              -22.8896738
            ],
            [
              -47.0790662,
              -22.8896388
            ],
            [
              -47.0791449,
              -22.889937
            ]
          ]
        ]
      }
    },
    {
      "type": "Feature",
      "id": "way/1226206575",
      "properties": {
        "timestamp": "2023-11-23T14:20:08Z",
        "version": 1,
        "changeset": 144371719,
        "amenity": "social_facility",
        "name": "Casa de Repouso Bom Pastor",
        "social_facility": "nursing_home",
        "social_facility:for": "senior",
        "id": "way/1226206575"
      },
      "geometry": {
        "type": "Polygon",
        "coordinates": [
          [
            [
              -47.0836137,
              -22.8347114
            ],
            [
              -47.0836578,
              -22.8349467
            ],
            [
              -47.0834375,
              -22.8349789
            ],
            [
              -47.083445,
              -22.8350545
            ],
            [
              -47.0833569,
              -22.8350686
            ],
            [
              -47.0833128,
              -22.8347632
            ],
            [
              -47.0836137,
              -22.8347114
            ]
          ]
        ]
      }
    },
    {
      "type": "Feature",
      "id": "node/8476144458",
      "properties": {
        "timestamp": "2024-10-11T12:02:16Z",
        "version": 4,
        "changeset": 157753996,
        "addr:city": "Campinas",
        "addr:housenumber": "1325",
        "addr:postcode": "13073-221",
        "addr:street": "Rua Frei Manuel da Ressurreição",
        "addr:suburb": "Jardim Guanabara",
        "amenity": "social_facility",
        "name": "Casa Maria de Nazaré",
        "phone": "+55 (19) 3233-6644",
        "social_facility": "group_home",
        "website": "https://www.casademariadenazare.org.br/",
        "id": "node/8476144458"
      },
      "geometry": {
        "type": "Point",
        "coordinates": [
          -47.0702077,
          -22.8852599
        ]
      }
    },
    {
      "type": "Feature",
      "id": "node/11559547334",
      "properties": {
        "timestamp": "2024-01-28T12:34:28Z",
        "version": 1,
        "changeset": 146776708,
        "amenity": "social_facility",
        "name": "Residencial Lar Anna Lery",
        "social_facility": "nursing_home",
        "social_facility:for": "senior",
        "id": "node/11559547334"
      },
      "geometry": {
        "type": "Point",
        "coordinates": [
          -47.0800823,
          -22.8915789
        ]
      }
    },
    {
      "type": "Feature",
      "id": "node/12190959606",
      "properties": {
        "timestamp": "2024-10-11T11:46:48Z",
        "version": 3,
        "changeset": 157753380,
        "addr:city": "Campinas",
        "addr:housenumber": "888",
        "addr:postcode": "13073-330",
        "addr:street": "Rua Frei Antônio de Pádua",
        "addr:suburb": "Jardim Guanabara",
        "amenity": "social_facility",
        "mobile": "+55 19 988399892",
        "name": "Casa de Repouso Malu",
        "phone": "+55 19 33248978",
        "social_facility": "nursing_home",
        "social_facility:for": "senior",
        "id": "node/12190959606"
      },
      "geometry": {
        "type": "Point",
        "coordinates": [
          -47.0713142,
          -22.8900312
        ]
      }
    },
    {
      "type": "Feature",
      "id": "node/12206789556",
      "properties": {
        "timestamp": "2024-09-28T11:27:33Z",
        "version": 1,
        "changeset": 157205912,
        "amenity": "social_facility",
        "name": "Pedacinho do Céu",
        "social_facility": "group_home",
        "social_facility:for": "senior",
        "id": "node/12206789556"
      },
      "geometry": {
        "type": "Point",
        "coordinates": [
          -47.0805915,
          -22.8911594
        ]
      }
    },
    {
      "type": "Feature",
      "id": "node/12207040920",
      "properties": {
        "timestamp": "2024-09-28T14:43:49Z",
        "version": 1,
        "changeset": 157214285,
        "addr:city": "Campinas",
        "addr:housenumber": "239",
        "addr:postcode": "13073-340",
        "addr:street": "Rua Camargo Pimentel",
        "addr:suburb": "Jardim Guanabara",
        "amenity": "social_facility",
        "name": "Day Care Guanabara",
        "opening_hours": "24/7",
        "phone": "+55 (19) 3367-1007",
        "social_facility": "nursing_home",
        "social_facility:for": "senior",
        "id": "node/12207040920"
      },
      "geometry": {
        "type": "Point",
        "coordinates": [
          -47.0700034,
          -22.8902962
        ]
      }
    },
    {
      "type": "Feature",
      "id": "node/12209609784",
      "properties": {
        "timestamp": "2024-10-11T12:02:16Z",
        "version": 2,
        "changeset": 157753996,
        "addr:city": "Campinas",
        "addr:housenumber": "715",
        "addr:postcode": "13073-221",
        "addr:street": "Rua Frei Manuel da Ressurreição",
        "addr:suburb": "Jardim Guanabara",
        "amenity": "social_facility",
        "mobile": "+55 (19) 99485-3454",
        "name": "Doce Viver Casa de Repouso",
        "phone": "+55 (19) 3579-4401",
        "social_facility": "nursing_home",
        "social_facility:for": "senior",
        "website": "https://casaderepousodoceviver.com.br/",
        "id": "node/12209609784"
      },
      "geometry": {
        "type": "Point",
        "coordinates": [
          -47.0726178,
          -22.8903165
        ]
      }
    },
    {
      "type": "Feature",
      "id": "node/12229728132",
      "properties": {
        "timestamp": "2024-10-11T11:46:48Z",
        "version": 2,
        "changeset": 157753380,
        "addr:city": "Campinas",
        "addr:housenumber": "1061",
        "addr:postcode": "13073-330",
        "addr:street": "Rua Frei Antônio de Pádua",
        "addr:suburb": "Jardim Guanabara",
        "amenity": "social_facility",
        "name": "Casa Serena Idade",
        "phone": "+55 (19) 3307-0686",
        "social_facility": "nursing_home",
        "social_facility:for": "senior",
        "website": "https://casaserenaidade.com.br/",
        "id": "node/12229728132"
      },
      "geometry": {
        "type": "Point",
        "coordinates": [
          -47.0711997,
          -22.8884561
        ]
      }
    },
    {
      "type": "Feature",
      "id": "node/12231638213",
      "properties": {
        "timestamp": "2024-10-11T12:05:59Z",
        "version": 2,
        "changeset": 157754130,
        "addr:city": "Campinas",
        "addr:housenumber": "792",
        "addr:postcode": "13070-055",
        "addr:street": "Avenida Francisco José de Camargo Andrade",
        "addr:suburb": "Jardim Chapadão",
        "amenity": "social_facility",
        "mobile": "+55 (19) 99361-5989",
        "name": "Sol Clínica",
        "phone": "+55 (19) 3203-9560",
        "social_facility": "nursing_home",
        "social_facility:for": "senior",
        "website": "https://www.facebook.com/solhospedagemparaidosos/",
        "id": "node/12231638213"
      },
      "geometry": {
        "type": "Point",
        "coordinates": [
          -47.0732511,
          -22.883378
        ]
      }
    },
    {
      "type": "Feature",
      "id": "node/12269761046",
      "properties": {
        "timestamp": "2024-10-19T21:21:13Z",
        "version": 1,
        "changeset": 158107666,
        "addr:city": "Campinas",
        "addr:housenumber": "1062",
        "addr:postcode": "13070-118",
        "addr:street": "Rua Doutor Miguel Penteado",
        "addr:suburb": "Jardim Chapadão",
        "amenity": "social_facility",
        "mobile": "+55 (19) 99485-3454",
        "name": "Doce Viver",
        "phone": "+55 (19) 3307-1672",
        "social_facility": "nursing_home",
        "social_facility:for": "senior",
        "website": "https://casaderepousodoceviver.com.br",
        "id": "node/12269761046"
      },
      "geometry": {
        "type": "Point",
        "coordinates": [
          -47.0705792,
          -22.8847223
        ]
      }
    },
    {
      "type": "Feature",
      "id": "node/12270897446",
      "properties": {
        "timestamp": "2024-10-20T12:17:40Z",
        "version": 1,
        "changeset": 158125842,
        "addr:city": "Campinas",
        "addr:housenumber": "530",
        "addr:postcode": "13087-070",
        "addr:street": "Rua Afrânio Peixoto",
        "addr:suburb": "Parque Taquaral",
        "amenity": "social_facility",
        "name": "Doce Viver",
        "social_facility": "nursing_home",
        "social_facility:for": "senior",
        "website": "https://casaderepousodoceviver.com.br",
        "id": "node/12270897446"
      },
      "geometry": {
        "type": "Point",
        "coordinates": [
          -47.0580049,
          -22.8672951
        ]
      }
    },
    {
      "type": "Feature",
      "id": "node/12270897447",
      "properties": {
        "timestamp": "2024-10-20T12:17:40Z",
        "version": 1,
        "changeset": 158125842,
        "addr:city": "Campinas",
        "addr:housenumber": "44",
        "addr:postcode": "13087-045",
        "addr:street": "Rua Emerson José Moreira",
        "addr:suburb": "Parque Taquaral",
        "amenity": "social_facility",
        "name": "Doce Viver",
        "social_facility": "nursing_home",
        "social_facility:for": "senior",
        "website": "https://casaderepousodoceviver.com.br",
        "id": "node/12270897447"
      },
      "geometry": {
        "type": "Point",
        "coordinates": [
          -47.0535175,
          -22.870565
        ]
      }
    },
    {
      "type": "Feature",
      "id": "node/12270897448",
      "properties": {
        "timestamp": "2024-10-27T11:08:11Z",
        "version": 2,
        "changeset": 158407840,
        "addr:city": "Campinas",
        "addr:housenumber": "792",
        "addr:postcode": "13087-050",
        "addr:street": "Rua Fernão Lopes",
        "addr:suburb": "Parque Taquaral",
        "amenity": "social_facility",
        "name": "Doce Viver",
        "social_facility": "nursing_home",
        "social_facility:for": "senior",
        "website": "https://casaderepousodoceviver.com.br",
        "id": "node/12270897448"
      },
      "geometry": {
        "type": "Point",
        "coordinates": [
          -47.0554944,
          -22.871095
        ]
      }
    },
    {
      "type": "Feature",
      "id": "node/12270897449",
      "properties": {
        "timestamp": "2024-10-20T12:17:40Z",
        "version": 1,
        "changeset": 158125842,
        "addr:city": "Campinas",
        "addr:housenumber": "71",
        "addr:postcode": "13087-250",
        "addr:street": "Avenida Martin Afonso",
        "addr:suburb": "Parque Taquaral",
        "amenity": "social_facility",
        "name": "Doce Viver",
        "social_facility": "nursing_home",
        "social_facility:for": "senior",
        "website": "https://casaderepousodoceviver.com.br",
        "id": "node/12270897449"
      },
      "geometry": {
        "type": "Point",
        "coordinates": [
          -47.0542905,
          -22.8728514
        ]
      }
    },
    {
      "type": "Feature",
      "id": "node/12278529628",
      "properties": {
        "timestamp": "2024-10-22T11:51:50Z",
        "version": 1,
        "changeset": 158208168,
        "addr:city": "Campinas",
        "addr:housenumber": "86",
        "addr:postcode": "13070-082",
        "addr:street": "Rua Raul de Castro",
        "addr:suburb": "Jardim Chapadão",
        "amenity": "social_facility",
        "mobile": "+55 (19) 99227-4036",
        "name": "CasaMada Vila Sênior",
        "social_facility": "nursing_home",
        "social_facility:for": "senior",
        "website": "https://casamadavilasenior.com.br/",
        "id": "node/12278529628"
      },
      "geometry": {
        "type": "Point",
        "coordinates": [
          -47.0791021,
          -22.8880957
        ]
      }
    },
    {
      "type": "Feature",
      "id": "node/12278529629",
      "properties": {
        "timestamp": "2024-10-22T11:51:50Z",
        "version": 1,
        "changeset": 158208168,
        "addr:city": "Campinas",
        "addr:housenumber": "60",
        "addr:postcode": "13070-082",
        "addr:street": "Rua Raul de Castro",
        "addr:suburb": "Jardim Chapadão",
        "amenity": "social_facility",
        "name": "Clínica Pazzini",
        "social_facility": "nursing_home",
        "social_facility:for": "senior",
        "id": "node/12278529629"
      },
      "geometry": {
        "type": "Point",
        "coordinates": [
          -47.0788962,
          -22.888298
        ]
      }
    },
    {
      "type": "Feature",
      "id": "node/12296135282",
      "properties": {
        "timestamp": "2024-10-29T10:39:30Z",
        "version": 1,
        "changeset": 158491471,
        "addr:city": "Campinas",
        "addr:housenumber": "231",
        "addr:postcode": "13073-320",
        "addr:street": "Rua Doutor Barbosa da Cunha",
        "addr:suburb": "Jardim Guanabara",
        "amenity": "social_facility",
        "mobile": "+55 (19) 99650-8805",
        "name": "Cantinho Feliz dos Vovôs",
        "opening_hours": "24/7",
        "phone": "+55 (19) 3227-2225",
        "social_facility": "nursing_home",
        "social_facility:for": "senior",
        "website": "https://www.cantinhofelizdosvovos.com.br/",
        "id": "node/12296135282"
      },
      "geometry": {
        "type": "Point",
        "coordinates": [
          -47.0705547,
          -22.8924882
        ]
      }
    }
  ]
}
