{
  "type": "FeatureCollection",
  "features": [
    {
      "type": "Feature",
      "id": "way/928696377",
      "properties": {
        "timestamp": "2024-07-05T19:36:15Z",
        "version": 2,
        "changeset": 153602205,
        "addr:street": "Rua Joaquim Vilac",
        "amenity": "veterinary",
        "building": "commercial",
        "name": "Centro Veterinário Popular",
        "id": "way/928696377"
      },
      "geometry": {
        "type": "Polygon",
        "coordinates": [
          [
            [
              -47.0854672,
              -22.9077378
            ],
            [
              -47.085642,
              -22.9075757
            ],
            [
              -47.0856916,
              -22.9076219
            ],
            [
              -47.0855153,
              -22.9077836
            ],
            [
              -47.0854672,
              -22.9077378
            ]
          ]
        ]
      }
    },
    {
      "type": "Feature",
      "id": "node/1609070077",
      "properties": {
        "timestamp": "2012-01-28T18:42:59Z",
        "version": 2,
        "changeset": 10523840,
        "addr:street": "Rua José Rosolen",
        "amenity": "veterinary",
        "name": "Doce Vida de Cachorro",
        "id": "node/1609070077"
      },
      "geometry": {
        "type": "Point",
        "coordinates": [
          -47.1129478,
          -22.9199164
        ]
      }
    },
    {
      "type": "Feature",
      "id": "node/2208722717",
      "properties": {
        "timestamp": "2021-02-20T23:20:44Z",
        "version": 2,
        "changeset": 99663646,
        "amenity": "veterinary",
        "id": "node/2208722717"
      },
      "geometry": {
        "type": "Point",
        "coordinates": [
          -47.0774852,
          -22.8068349
        ]
      }
    },
    {
      "type": "Feature",
      "id": "node/2663261484",
      "properties": {
        "timestamp": "2014-02-09T15:03:02Z",
        "version": 1,
        "changeset": 20466495,
        "amenity": "veterinary",
        "name": "Animaleto",
        "id": "node/2663261484"
      },
      "geometry": {
        "type": "Point",
        "coordinates": [
          -46.9661451,
          -22.8709382
        ]
      }
    },
    {
      "type": "Feature",
      "id": "node/3407184727",
      "properties": {
        "timestamp": "2019-05-18T18:23:49Z",
        "version": 4,
        "changeset": 70393847,
        "amenity": "veterinary",
        "name": "100% Pet",
        "id": "node/3407184727"
      },
      "geometry": {
        "type": "Point",
        "coordinates": [
          -47.0791997,
          -22.8253619
        ]
      }
    },
    {
      "type": "Feature",
      "id": "node/4454952487",
      "properties": {
        "timestamp": "2016-10-19T11:58:50Z",
        "version": 2,
        "changeset": 43006912,
        "addr:city": "Campinas",
        "addr:country": "BR",
        "addr:housenumber": "44",
        "addr:place": "Pingo's Vet",
        "addr:state": "SP",
        "addr:street": "Rua Hildebrand Siqueira",
        "addr:suburb": "Cambuí",
        "amenity": "veterinary",
        "name": "Pingo's Vet",
        "id": "node/4454952487"
      },
      "geometry": {
        "type": "Point",
        "coordinates": [
          -47.0569545,
          -22.8933419
        ]
      }
    },
    {
      "type": "Feature",
      "id": "node/4550044700",
      "properties": {
        "timestamp": "2016-12-12T00:40:58Z",
        "version": 2,
        "changeset": 44335100,
        "addr:housenumber": "2",
        "addr:street": "Rua Lais Bertoni Pereira",
        "amenity": "veterinary",
        "name": "Santé Vie Vet",
        "id": "node/4550044700"
      },
      "geometry": {
        "type": "Point",
        "coordinates": [
          -47.0504698,
          -22.8899786
        ]
      }
    },
    {
      "type": "Feature",
      "id": "node/5054987021",
      "properties": {
        "timestamp": "2017-08-27T13:42:29Z",
        "version": 2,
        "changeset": 51482442,
        "amenity": "veterinary",
        "name": "Florencevet",
        "name:pt": "Florencevet",
        "id": "node/5054987021"
      },
      "geometry": {
        "type": "Point",
        "coordinates": [
          -47.1583192,
          -22.937931
        ]
      }
    },
    {
      "type": "Feature",
      "id": "node/5066986024",
      "properties": {
        "timestamp": "2017-08-29T16:28:58Z",
        "version": 1,
        "changeset": 51549839,
        "amenity": "veterinary",
        "id": "node/5066986024"
      },
      "geometry": {
        "type": "Point",
        "coordinates": [
          -47.1868551,
          -22.9463958
        ]
      }
    },
    {
      "type": "Feature",
      "id": "node/6838722655",
      "properties": {
        "timestamp": "2024-10-27T10:42:18Z",
        "version": 3,
        "changeset": 158406945,
        "addr:housenumber": "615",
        "addr:street": "Rua Frei Manuel da Ressurreição",
        "amenity": "veterinary",
        "name": "Animatec",
        "id": "node/6838722655"
      },
      "geometry": {
        "type": "Point",
        "coordinates": [
          -47.0707766,
          -22.8861546
        ]
      }
    },
    {
      "type": "Feature",
      "id": "node/6838750724",
      "properties": {
        "timestamp": "2019-09-30T19:55:41Z",
        "version": 1,
        "changeset": 75118401,
        "addr:housenumber": "298",
        "amenity": "veterinary",
        "name": "Upvet",
        "id": "node/6838750724"
      },
      "geometry": {
        "type": "Point",
        "coordinates": [
          -47.0554733,
          -22.892267
        ]
      }
    },
    {
      "type": "Feature",
      "id": "node/8446736865",
      "properties": {
        "timestamp": "2024-10-21T16:52:00Z",
        "version": 4,
        "changeset": 158179265,
        "addr:city": "Campinas",
        "addr:housenumber": "389",
        "addr:postcode": "13073-210",
        "addr:street": "Rua Pereira Tangerino",
        "addr:suburb": "Jardim Guanabara",
        "amenity": "veterinary",
        "mobile": "+55 (19) 99791-4145",
        "name": "Itacamp Clínica Veterinária",
        "opening_hours": "Mo-Fr 08:00-17:00; Sa 08:00-12:00",
        "phone": "+55 (19) 3213-4400",
        "id": "node/8446736865"
      },
      "geometry": {
        "type": "Point",
        "coordinates": [
          -47.0719977,
          -22.8896249
        ]
      }
    },
    {
      "type": "Feature",
      "id": "node/9097620159",
      "properties": {
        "timestamp": "2021-09-16T12:06:17Z",
        "version": 1,
        "changeset": 111288178,
        "addr:city": "Campinas",
        "addr:housenumber": "1470",
        "addr:postcode": "13070-173",
        "addr:street": "Avenida Marechal Rondom",
        "addr:suburb": "Chapadão",
        "amenity": "veterinary",
        "name": "Clinica Veterinária Bicho de Estimação",
        "name:pt": "Clinica Veterinária Bicho de Estimação",
        "opening_hours": "Seg-sexta 8:30 às 18:00 e Sab 8:30 às 15:00",
        "opening_hours:covid19": "o mesmo",
        "phone": "+5519981259020",
        "website": "https://estimacaopetshop.com.br",
        "wheelchair": "yes",
        "id": "node/9097620159"
      },
      "geometry": {
        "type": "Point",
        "coordinates": [
          -47.0952952,
          -22.8944649
        ]
      }
    },
    {
      "type": "Feature",
      "id": "node/11090166681",
      "properties": {
        "timestamp": "2023-08-04T18:00:21Z",
        "version": 1,
        "changeset": 139452393,
        "addr:housenumber": "515",
        "addr:street": "Rua Barão de Paranapanema",
        "amenity": "veterinary",
        "email": "hpvo.princesa@gmail.com",
        "name": "Veterinária Princesa D'Oeste",
        "phone": "+55 19 2512 3306",
        "id": "node/11090166681"
      },
      "geometry": {
        "type": "Point",
        "coordinates": [
          -47.0469008,
          -22.9063895
        ]
      }
    },
    {
      "type": "Feature",
      "id": "node/11910678626",
      "properties": {
        "timestamp": "2024-10-15T12:44:12Z",
        "version": 2,
        "changeset": 157919572,
        "addr:city": "Campinas",
        "addr:housenumber": "54",
        "addr:postcode": "13070-058",
        "addr:street": "Avenida Luis Smânio",
        "addr:suburb": "Jardim Chapadão",
        "amenity": "veterinary",
        "name": "Família Animal Vet",
        "opening_hours": "24/7",
        "phone": "+55 (19) 3307-0778",
        "website": "https://familiaanimalcampinas.com.br",
        "id": "node/11910678626"
      },
      "geometry": {
        "type": "Point",
        "coordinates": [
          -47.0778426,
          -22.8860953
        ]
      }
    },
    {
      "type": "Feature",
      "id": "node/12066885712",
      "properties": {
        "timestamp": "2024-07-21T20:21:07Z",
        "version": 1,
        "changeset": 154235751,
        "amenity": "veterinary",
        "id": "node/12066885712"
      },
      "geometry": {
        "type": "Point",
        "coordinates": [
          -47.048491,
          -22.9157272
        ]
      }
    },
    {
      "type": "Feature",
      "id": "node/12177040292",
      "properties": {
        "timestamp": "2024-11-12T11:24:02Z",
        "version": 3,
        "changeset": 159045826,
        "addr:city": "Campinas",
        "addr:housenumber": "179",
        "addr:postcode": "13073-038",
        "addr:street": "Rua Dom Francisco Aquino Correia",
        "addr:suburb": "Vila Nova",
        "amenity": "veterinary",
        "name": "IMAN - Instituto de Medicina Animal",
        "phone": "+55 (19) 2121-0022",
        "id": "node/12177040292"
      },
      "geometry": {
        "type": "Point",
        "coordinates": [
          -47.0677976,
          -22.8801024
        ]
      }
    },
    {
      "type": "Feature",
      "id": "node/12205551635",
      "properties": {
        "timestamp": "2024-10-11T12:02:16Z",
        "version": 2,
        "changeset": 157753996,
        "addr:city": "Campinas",
        "addr:housenumber": "680",
        "addr:postcode": "13073-350",
        "addr:street": "Rua Camargo Paes",
        "addr:suburb": "Jardim Guanabara",
        "amenity": "veterinary",
        "mobile": "+55 (19) 99156-7028",
        "name": "Centro Médico Veterinário Campinas",
        "opening_hours": "24/7",
        "phone": "+55 (19) 3241-7765",
        "website": "https://cmvc.com.br/",
        "id": "node/12205551635"
      },
      "geometry": {
        "type": "Point",
        "coordinates": [
          -47.0666942,
          -22.8908865
        ]
      }
    },
    {
      "type": "Feature",
      "id": "node/12206786268",
      "properties": {
        "timestamp": "2024-09-28T11:27:48Z",
        "version": 1,
        "changeset": 157205912,
        "amenity": "veterinary",
        "name": "Dom Vet",
        "id": "node/12206786268"
      },
      "geometry": {
        "type": "Point",
        "coordinates": [
          -47.0747787,
          -22.8933893
        ]
      }
    },
    {
      "type": "Feature",
      "id": "node/12207040945",
      "properties": {
        "timestamp": "2024-09-28T14:43:49Z",
        "version": 1,
        "changeset": 157214285,
        "addr:city": "Campinas",
        "addr:housenumber": "120",
        "addr:postcode": "13073-400",
        "addr:street": "Rua Padre Joaquim Gomes",
        "addr:suburb": "Jardim Guanabara",
        "amenity": "veterinary",
        "mobile": "+55 (19) 99144-9723",
        "name": "Cãociência.gato",
        "id": "node/12207040945"
      },
      "geometry": {
        "type": "Point",
        "coordinates": [
          -47.0679327,
          -22.8912373
        ]
      }
    },
    {
      "type": "Feature",
      "id": "node/12237613188",
      "properties": {
        "timestamp": "2024-10-11T12:31:53Z",
        "version": 3,
        "changeset": 157755090,
        "addr:city": "Campinas",
        "addr:housenumber": "683",
        "addr:postcode": "13073-330",
        "addr:street": "Rua Frei Antônio de Pádua",
        "addr:suburb": "Jardim Guanabara",
        "amenity": "veterinary",
        "mobile": "+55 (19) 3367-6403",
        "name": "Vettorini Especialidades Veterinárias",
        "opening_hours": "Mo-Fr 08:00-18:00; Sa 10:00-14:00",
        "phone": "+55 (19) 3367-6403",
        "website": "https://vettorini.com.br/",
        "id": "node/12237613188"
      },
      "geometry": {
        "type": "Point",
        "coordinates": [
          -47.0714588,
          -22.8918952
        ]
      }
    },
    {
      "type": "Feature",
      "id": "node/12273180597",
      "properties": {
        "timestamp": "2024-10-21T10:50:02Z",
        "version": 1,
        "changeset": 158164087,
        "addr:city": "Campinas",
        "addr:housenumber": "702",
        "addr:postcode": "13070-143",
        "addr:street": "Rua Orlando Carpino",
        "addr:suburb": "Jardim Chapadão",
        "amenity": "veterinary",
        "mobile": "+55 (19) 99433-6738",
        "name": "Eye Health",
        "website": "https://eyehealth.vet.br/",
        "id": "node/12273180597"
      },
      "geometry": {
        "type": "Point",
        "coordinates": [
          -47.0783597,
          -22.8907948
        ]
      }
    },
    {
      "type": "Feature",
      "id": "node/12276953259",
      "properties": {
        "timestamp": "2024-10-21T16:57:14Z",
        "version": 1,
        "changeset": 158179460,
        "addr:city": "Campinas",
        "addr:housenumber": "509",
        "addr:postcode": "13070-118",
        "addr:street": "Rua Doutor Miguel Penteado",
        "addr:suburb": "Jardim Chapadão",
        "amenity": "veterinary",
        "mobile": "+55 (19) 99735-6987",
        "name": "ZooVet Clínica e Oftalmologia Veterinária",
        "phone": "+55 (19) 3241-6674",
        "id": "node/12276953259"
      },
      "geometry": {
        "type": "Point",
        "coordinates": [
          -47.0736473,
          -22.8889651
        ]
      }
    },
    {
      "type": "Feature",
      "id": "node/12278529633",
      "properties": {
        "timestamp": "2024-10-22T11:51:50Z",
        "version": 1,
        "changeset": 158208168,
        "addr:city": "Campinas",
        "addr:housenumber": "997",
        "addr:postcode": "13070-183",
        "addr:street": "Rua Albano de Almeida Lima",
        "addr:suburb": "Jardim Chapadão",
        "amenity": "veterinary",
        "mobile": "+55 (19) 99739-2179",
        "name": "Scan - Centro de Diagnóstico Veterinário",
        "phone": "+55 (19) 3242-6159",
        "website": "https://scan.vet.br/",
        "id": "node/12278529633"
      },
      "geometry": {
        "type": "Point",
        "coordinates": [
          -47.0745572,
          -22.8860329
        ]
      }
    },
    {
      "type": "Feature",
      "id": "node/12374402168",
      "properties": {
        "timestamp": "2024-11-25T20:09:02Z",
        "version": 1,
        "changeset": 159588088,
        "addr:city": "Campinas",
        "addr:housenumber": "498",
        "addr:postcode": "13083-820",
        "addr:street": "Rua Maria Tereza Dias da Silva",
        "addr:suburb": "Cidade Universitária",
        "amenity": "veterinary",
        "name": "Felini & Canini",
        "phone": "+55 (19) 3289-9439",
        "id": "node/12374402168"
      },
      "geometry": {
        "type": "Point",
        "coordinates": [
          -47.0789792,
          -22.8107246
        ]
      }
    }
  ]
}
