{
  "type": "FeatureCollection",
  "features": [
    {
      "type": "Feature",
      "id": "way/910908049",
      "properties": {
        "timestamp": "2023-07-11T14:41:24Z",
        "version": 3,
        "changeset": 138383932,
        "access": "yes",
        "addr:city": "Balneário Camboriú",
        "addr:housenumber": "130",
        "addr:postcode": "88332-470",
        "addr:street": "Rua Maurício Venâncio Cunha",
        "addr:suburb": "São Judas Tadeu",
        "amenity": "clinic",
        "brand": "Sistema Único de Saúde",
        "brand:short": "SUS",
        "brand:wikidata": "Q7531056",
        "brand:wikipedia": "pt:Sistema Único de Saúde",
        "building": "yes",
        "healthcare": "clinic",
        "name": "Posto de Saúde Verônica de Jesus Santos Boeira",
        "operator": "Prefeitura Municipal de Balneário Camboriú",
        "operator:type": "government",
        "id": "way/910908049"
      },
      "geometry": {
        "type": "Polygon",
        "coordinates": [
          [
            [
              -48.6036085,
              -27.0184391
            ],
            [
              -48.6037106,
              -27.0184292
            ],
            [
              -48.603719,
              -27.0184981
            ],
            [
              -48.6036178,
              -27.0185079
            ],
            [
              -48.6036085,
              -27.0184391
            ]
          ]
        ]
      }
    },
    {
      "type": "Feature",
      "id": "way/913413388",
      "properties": {
        "timestamp": "2023-04-10T15:00:30Z",
        "version": 4,
        "changeset": 134735362,
        "addr:housenumber": "875",
        "addr:postcode": "88338-223",
        "addr:street": "Rua México",
        "amenity": "clinic",
        "brand": "Sistema Único de Saúde",
        "brand:short": "SUS",
        "brand:wikidata": "Q7531056",
        "brand:wikipedia": "pt:Sistema Único de Saúde",
        "building": "yes",
        "contact:phone": "+55 47 3367-9300",
        "healthcare": "physiotherapist",
        "name": "Centro de Fisioterapia e Reabilitação",
        "opening_hours": "Mo-Fr 07:00-19:00; Sa,Su,PH off",
        "operator": "Prefeitura Municipal de Balneário Camboriú",
        "operator:type": "government",
        "ref:CNES": "2335107",
        "short_name": "CEFIR",
        "id": "way/913413388"
      },
      "geometry": {
        "type": "Polygon",
        "coordinates": [
          [
            [
              -48.648989,
              -26.9784809
            ],
            [
              -48.6491602,
              -26.9784585
            ],
            [
              -48.6492069,
              -26.9787188
            ],
            [
              -48.6490361,
              -26.9787434
            ],
            [
              -48.648989,
              -26.9784809
            ]
          ]
        ]
      }
    },
    {
      "type": "Feature",
      "id": "way/913413389",
      "properties": {
        "timestamp": "2023-04-10T15:00:30Z",
        "version": 2,
        "changeset": 134735362,
        "addr:postcode": "88338-223",
        "addr:street": "Rua México",
        "amenity": "clinic",
        "brand": "Sistema Único de Saúde",
        "brand:short": "SUS",
        "brand:wikidata": "Q7531056",
        "brand:wikipedia": "pt:Sistema Único de Saúde",
        "building": "yes",
        "contact:phone": "+55 47 3361-5482",
        "healthcare": "clinic",
        "nohousenumber": "yes",
        "opening_hours": "Mo-Fr 07:00-19:00; Sa,Su,PH off",
        "operator": "Prefeitura Municipal de Balneário Camboriú",
        "operator:type": "government",
        "ref:CNES": "2335093",
        "id": "way/913413389"
      },
      "geometry": {
        "type": "Polygon",
        "coordinates": [
          [
            [
              -48.6493749,
              -26.9786531
            ],
            [
              -48.6494336,
              -26.9786446
            ],
            [
              -48.6494243,
              -26.9785929
            ],
            [
              -48.6494879,
              -26.9785838
            ],
            [
              -48.6494972,
              -26.9786354
            ],
            [
              -48.6495579,
              -26.9786267
            ],
            [
              -48.6496111,
              -26.9789233
            ],
            [
              -48.6494282,
              -26.9789497
            ],
            [
              -48.6493749,
              -26.9786531
            ]
          ]
        ]
      }
    },
    {
      "type": "Feature",
      "id": "way/913413390",
      "properties": {
        "timestamp": "2023-04-10T15:00:30Z",
        "version": 2,
        "changeset": 134735362,
        "access": "yes",
        "addr:postcode": "88338-223",
        "addr:street": "Rua México",
        "amenity": "clinic",
        "brand": "Sistema Único de Saúde",
        "brand:short": "SUS",
        "brand:wikidata": "Q7531056",
        "brand:wikipedia": "pt:Sistema Único de Saúde",
        "building": "yes",
        "contact:phone": "+55 47 3264-8096",
        "healthcare": "clinic",
        "loc_name": "Posto de Saúde Nações",
        "name": "Unidade Básica de Saúde Nações",
        "nohousenumber": "yes",
        "opening_hours": "Mo-Fr 07:00-19:00; Sa,Su,PH off",
        "operator": "Prefeitura Municipal de Balneário Camboriú",
        "operator:type": "government",
        "ref:CNES": "2772701",
        "short_name": "UBS Nações",
        "id": "way/913413390"
      },
      "geometry": {
        "type": "Polygon",
        "coordinates": [
          [
            [
              -48.6490588,
              -26.9787728
            ],
            [
              -48.649198,
              -26.9787527
            ],
            [
              -48.6492332,
              -26.9789487
            ],
            [
              -48.649094,
              -26.9789688
            ],
            [
              -48.6490588,
              -26.9787728
            ]
          ]
        ]
      }
    },
    {
      "type": "Feature",
      "id": "way/1047497244",
      "properties": {
        "timestamp": "2022-04-02T20:11:57Z",
        "version": 1,
        "changeset": 119246260,
        "access": "yes",
        "amenity": "clinic",
        "building": "yes",
        "healthcare": "clinic",
        "loc_name": "Posto de Saúde Estados",
        "name": "Unidade de Estratégia de Saúde da Família Estados",
        "operator": "Prefeitura Municipal de Balneário Camboriú",
        "operator:type": "public",
        "short_name": "ESF Estados",
        "id": "way/1047497244"
      },
      "geometry": {
        "type": "Polygon",
        "coordinates": [
          [
            [
              -48.649369,
              -26.9967975
            ],
            [
              -48.6494947,
              -26.9968808
            ],
            [
              -48.6492412,
              -26.9971843
            ],
            [
              -48.6491377,
              -26.9971157
            ],
            [
              -48.6492106,
              -26.9970284
            ],
            [
              -48.6491884,
              -26.9970137
            ],
            [
              -48.649369,
              -26.9967975
            ]
          ]
        ]
      }
    },
    {
      "type": "Feature",
      "id": "node/4857761522",
      "properties": {
        "timestamp": "2022-07-16T01:42:15Z",
        "version": 4,
        "changeset": 123673347,
        "addr:housenumber": "99",
        "addr:street": "Rua Rouxinol",
        "amenity": "clinic",
        "contact:phone": "+55 47 3363-2919",
        "healthcare": "clinic",
        "name": "Clinitest",
        "opening_hours": "Mo-Fr 07:00-11:00",
        "id": "node/4857761522"
      },
      "geometry": {
        "type": "Point",
        "coordinates": [
          -48.6414596,
          -26.9564232
        ]
      }
    },
    {
      "type": "Feature",
      "id": "node/4954071721",
      "properties": {
        "timestamp": "2020-04-18T04:27:26Z",
        "version": 3,
        "changeset": 83731242,
        "amenity": "clinic",
        "healthcare": "physiotherapist",
        "name": "Físio&Saúde",
        "office": "therapist",
        "id": "node/4954071721"
      },
      "geometry": {
        "type": "Point",
        "coordinates": [
          -48.6369858,
          -26.9906616
        ]
      }
    },
    {
      "type": "Feature",
      "id": "node/5370596323",
      "properties": {
        "timestamp": "2021-03-05T23:46:28Z",
        "version": 2,
        "changeset": 100518587,
        "amenity": "clinic",
        "name": "Atentosaure",
        "id": "node/5370596323"
      },
      "geometry": {
        "type": "Point",
        "coordinates": [
          -48.6462249,
          -26.9769422
        ]
      }
    },
    {
      "type": "Feature",
      "id": "node/8901980089",
      "properties": {
        "timestamp": "2021-08-16T02:05:15Z",
        "version": 2,
        "changeset": 109720193,
        "addr:city": "Balneário Camboriú",
        "addr:housenumber": "153, sala 802",
        "addr:postcode": "88331-085",
        "addr:street": "Rua Arthur Max Dôose",
        "addr:suburb": "Pioneiros",
        "amenity": "clinic",
        "healthcare": "clinic",
        "name": "Vivare Consultórios Integrados",
        "id": "node/8901980089"
      },
      "geometry": {
        "type": "Point",
        "coordinates": [
          -48.6379945,
          -26.9736793
        ]
      }
    },
    {
      "type": "Feature",
      "id": "node/11126754078",
      "properties": {
        "timestamp": "2023-08-19T05:15:33Z",
        "version": 1,
        "changeset": 140081015,
        "addr:city": "Balneário Camboriú",
        "addr:housenumber": "260",
        "addr:postcode": "88331-005",
        "addr:street": "Avenida Osmar de Souza Nunes",
        "addr:suburb": "Pioneiros",
        "amenity": "clinic",
        "healthcare": "clinic",
        "name": "Posto de Saúde Maria Geralda Caetano",
        "operator": "Prefeitura Municipal de Balneário Camboriú",
        "operator:type": "public",
        "id": "node/11126754078"
      },
      "geometry": {
        "type": "Point",
        "coordinates": [
          -48.6369879,
          -26.9723229
        ]
      }
    }
  ]
}
