{
  "type": "FeatureCollection",
  "features": [
    {
      "type": "Feature",
      "id": "node/4990085689",
      "properties": {
        "timestamp": "2018-04-08T16:25:40Z",
        "version": 2,
        "changeset": 57917263,
        "addr:housenumber": "368",
        "addr:street": "Rua 1101",
        "alt_name": "Método DeRose Balneário Camboriú",
        "amenity": "college",
        "contact:phone": "+55 47 3398-4300",
        "name": "DeRose Method Balneário Camboriú",
        "network": "DeRose Method",
        "training": "derose_method",
        "id": "node/4990085689"
      },
      "geometry": {
        "type": "Point",
        "coordinates": [
          -48.6381444,
          -26.9816108
        ]
      }
    },
    {
      "type": "Feature",
      "id": "node/4995258922",
      "properties": {
        "timestamp": "2020-04-23T04:19:00Z",
        "version": 3,
        "changeset": 83971977,
        "addr:city": "Balneário Camboriú",
        "addr:housenumber": "3925",
        "addr:postcode": "88330-065",
        "addr:street": "Avenida Brasil",
        "addr:suburb": "Centro",
        "amenity": "college",
        "contact:email": "contato@tribodaagua.com",
        "contact:phone": "+55 47 3360-0664",
        "contact:website": "http://tribodaagua.com",
        "name": "Tribo da Água Escola de Mergulho",
        "name:en": "Tribo da Água Dive Center",
        "id": "node/4995258922"
      },
      "geometry": {
        "type": "Point",
        "coordinates": [
          -48.6195016,
          -27.0045914
        ]
      }
    },
    {
      "type": "Feature",
      "id": "node/8997322796",
      "properties": {
        "timestamp": "2021-08-11T01:08:54Z",
        "version": 1,
        "changeset": 109488044,
        "addr:door": "Sala 04",
        "amenity": "college",
        "contact:facebook": "https://www.facebook.com/rticursos/",
        "contact:instagram": "https://www.instagram.com/cursosrti/",
        "contact:phone": "+55 47 3363-2342;+55 47 3361-7861",
        "contact:website": "https://aquicursos.com.br/",
        "contact:whatsapp": "+55 47 99903-3965",
        "level": "1",
        "name": "RTI Aqui Cursos",
        "opening_hours": "Mo-Fr 09:00-22:00; Sa 08:00-17:00; Su,PH off",
        "id": "node/8997322796"
      },
      "geometry": {
        "type": "Point",
        "coordinates": [
          -48.637573,
          -26.9884461
        ]
      }
    }
  ]
}
