{
  "type": "FeatureCollection",
  "features": [
    {
      "type": "Feature",
      "id": "node/4848298621",
      "properties": {
        "timestamp": "2021-08-15T21:39:26Z",
        "version": 3,
        "changeset": 109716634,
        "addr:city": "Balneário Camboriú",
        "addr:housenumber": "810",
        "addr:postcode": "88330-643",
        "addr:street": "Avenida Alvin Bauer",
        "addr:suburb": "Centro",
        "amenity": "doctors",
        "healthcare": "doctor",
        "name": "Clinicenter",
        "name:pt": "Clinicenter",
        "id": "node/4848298621"
      },
      "geometry": {
        "type": "Point",
        "coordinates": [
          -48.640035,
          -26.9898969
        ]
      }
    },
    {
      "type": "Feature",
      "id": "node/12593696790",
      "properties": {
        "timestamp": "2025-02-17T15:26:00Z",
        "version": 4,
        "changeset": 162618173,
        "addr:city": "Balneário Camboriú",
        "addr:housenumber": "1350",
        "addr:postcode": "88338-640",
        "addr:street": "Avenida do Estado",
        "addr:suburb": "Ariribá",
        "amenity": "doctors",
        "currency:XBT": "yes",
        "healthcare": "doctor",
        "healthcare:speciality": "urology",
        "name": "Dr. Gustavo Corguinha - Urologista",
        "opening_hours": "Mo-Fr 08:00-18:00",
        "payment:bitcoin": "yes",
        "payment:lightning": "yes",
        "phone": "047 99725-0852",
        "website": "https://www.drgustavocorguinha.com.br",
        "id": "node/12593696790"
      },
      "geometry": {
        "type": "Point",
        "coordinates": [
          -48.6395165,
          -26.9685793
        ]
      }
    },
    {
      "type": "Feature",
      "id": "node/12595943899",
      "properties": {
        "timestamp": "2025-02-17T15:25:14Z",
        "version": 2,
        "changeset": 162618144,
        "addr:city": "Balneário Camboriú",
        "addr:housenumber": "1350",
        "addr:postcode": "88338-640",
        "addr:street": "Avenida do Estado",
        "addr:suburb": "Ariribá",
        "amenity": "doctors",
        "currency:XBT": "yes",
        "healthcare": "doctor",
        "healthcare:speciality": "urology",
        "name": "Dr. Renato de Noronha - Urologista",
        "opening_hours": "Mo-Fr 08:00-18:00",
        "payment:bitcoin": "yes",
        "payment:lightning": "yes",
        "phone": "047 32640005",
        "website": "https://www.renatodenoronha.com/",
        "id": "node/12595943899"
      },
      "geometry": {
        "type": "Point",
        "coordinates": [
          -48.6396542,
          -26.968611
        ]
      }
    },
    {
      "type": "Feature",
      "id": "node/12595959040",
      "properties": {
        "timestamp": "2025-02-17T15:26:00Z",
        "version": 3,
        "changeset": 162618173,
        "addr:city": "Balneário Camboriú",
        "addr:housenumber": "1350",
        "addr:postcode": "88338-640",
        "addr:street": "Avenida do Estado",
        "addr:suburb": "Ariribá",
        "amenity": "doctors",
        "currency:XBT": "yes",
        "healthcare": "doctor",
        "healthcare:speciality": "urology",
        "instagram": "https://www.instagram.com/drdiegourologista",
        "mobile": "047 99119-5752",
        "name": "Dr. Diego Oliveira - Urologista",
        "opening_hours": "Mo-Fr 08:00-18:00",
        "payment:bitcoin": "yes",
        "payment:lightning": "yes",
        "phone": "047 32640005",
        "website": "https://www.uroclinica-sc.com.br",
        "id": "node/12595959040"
      },
      "geometry": {
        "type": "Point",
        "coordinates": [
          -48.6398457,
          -26.9685795
        ]
      }
    },
    {
      "type": "Feature",
      "id": "node/12595995214",
      "properties": {
        "timestamp": "2025-02-17T15:26:00Z",
        "version": 3,
        "changeset": 162618173,
        "addr:city": "Balneário Camboriú",
        "addr:housenumber": "1350",
        "addr:postcode": "88338-640",
        "addr:street": "Avenida do Estado",
        "addr:suburb": "Ariribá",
        "amenity": "doctors",
        "currency:XBT": "yes",
        "healthcare": "doctor",
        "healthcare:speciality": "urology",
        "instagram": "https://www.instagram.com/drleonardoortigara",
        "mobile": "047 99119-5752",
        "name": "Dr. Leonardo Ortigara - Urologista",
        "opening_hours": "Mo-Fr 08:00-18:00",
        "payment:bitcoin": "yes",
        "payment:lightning": "yes",
        "phone": "047 32640005",
        "website": "https://drleonardoortigara.com.br",
        "id": "node/12595995214"
      },
      "geometry": {
        "type": "Point",
        "coordinates": [
          -48.6397268,
          -26.9685119
        ]
      }
    }
  ]
}
