{
  "type": "FeatureCollection",
  "features": [
    {
      "type": "Feature",
      "id": "way/702899106",
      "properties": {
        "timestamp": "2019-07-09T19:46:08Z",
        "version": 1,
        "changeset": 72068852,
        "addr:city": "Acreúna",
        "addr:housenumber": "92",
        "addr:postcode": "75960000",
        "addr:street": "Rua Jordelina do Carmo Arantes",
        "addr:suburb": "Serra Dourada",
        "building": "yes",
        "government": "government",
        "name": "Secretária Municipal de Saúde",
        "office": "government",
        "opening_hours": "Mo-Fr 08:00-17:00",
        "id": "way/702899106"
      },
      "geometry": {
        "type": "Polygon",
        "coordinates": [
          [
            [
              -50.3764025,
              -17.4013752
            ],
            [
              -50.37659,
              -17.4015575
            ],
            [
              -50.3764149,
              -17.4017213
            ],
            [
              -50.376229,
              -17.4015254
            ],
            [
              -50.3764025,
              -17.4013752
            ]
          ]
        ]
      }
    }
  ]
}
