{
  "type": "FeatureCollection",
  "features": [
    {
      "type": "Feature",
      "id": "way/669967628",
      "properties": {
        "timestamp": "2019-02-12T13:44:55Z",
        "version": 1,
        "changeset": 67132198,
        "amenity": "school",
        "id": "way/669967628"
      },
      "geometry": {
        "type": "Polygon",
        "coordinates": [
          [
            [
              -40.7808836,
              -20.4417872
            ],
            [
              -40.7811002,
              -20.4418985
            ],
            [
              -40.7810173,
              -20.4420402
            ],
            [
              -40.781283,
              -20.4421768
            ],
            [
              -40.7812193,
              -20.4422856
            ],
            [
              -40.780737,
              -20.4420377
            ],
            [
              -40.7808836,
              -20.4417872
            ]
          ]
        ]
      }
    },
    {
      "type": "Feature",
      "id": "node/2822040485",
      "properties": {
        "timestamp": "2019-07-11T17:33:19Z",
        "version": 3,
        "changeset": 72146221,
        "IJSN:administra": "Estadual",
        "IJSN:classeCnae": "Fundamental e Médio",
        "addr:city": "Marechal Floriano",
        "addr:postcode": "29255-000",
        "addr:street": "Rua Colina da Fé e da Ciência",
        "addr:suburb": "Centro",
        "alt_name": "Escola Estadual de Ensino Fundamental e Médio",
        "amenity": "school",
        "contact:phone": "+55 27 3288-2713;+55 27 3288-1547",
        "name": "EEEFM Emílio Oscar Hulle",
        "source": "IJSN",
        "id": "node/2822040485"
      },
      "geometry": {
        "type": "Point",
        "coordinates": [
          -40.6743534,
          -20.4133722
        ]
      }
    },
    {
      "type": "Feature",
      "id": "node/2843165881",
      "properties": {
        "timestamp": "2014-05-07T23:14:08Z",
        "version": 1,
        "changeset": 22199808,
        "amenity": "school",
        "id": "node/2843165881"
      },
      "geometry": {
        "type": "Point",
        "coordinates": [
          -40.7710648,
          -20.4943018
        ]
      }
    },
    {
      "type": "Feature",
      "id": "node/4024904423",
      "properties": {
        "timestamp": "2016-02-25T01:59:18Z",
        "version": 1,
        "changeset": 37426154,
        "IJSN:administra": "Privada",
        "IJSN:classeCnae": "Infantil e Fundamental",
        "addr:city": "Marechal Floriano",
        "addr:housenumber": "610",
        "addr:postcode": "29255-000",
        "addr:street": "Rua Gustavo Hertel",
        "addr:suburb": "Santa Rita",
        "alt_name": "Centro Educacional",
        "amenity": "school",
        "contact:phone": "(27) 3288-2158",
        "name": "Centro Educacional Integração",
        "source": "IJSN",
        "id": "node/4024904423"
      },
      "geometry": {
        "type": "Point",
        "coordinates": [
          -40.679832,
          -20.4199582
        ]
      }
    },
    {
      "type": "Feature",
      "id": "node/4024904851",
      "properties": {
        "timestamp": "2016-02-25T01:59:41Z",
        "version": 1,
        "changeset": 37426154,
        "IJSN:administra": "Estadual",
        "IJSN:classeCnae": "Fundamental e Médio",
        "addr:city": "Marechal Floriano",
        "addr:housenumber": "2",
        "addr:postcode": "29258-000",
        "addr:street": "Rua Projetada",
        "addr:suburb": "Araguaia",
        "alt_name": "Escola Estadual de Ensino Fundamental e Médio",
        "amenity": "school",
        "contact:phone": "(27) 3288-3308",
        "name": "EEEFM Victório Bravim",
        "source": "IJSN",
        "id": "node/4024904851"
      },
      "geometry": {
        "type": "Point",
        "coordinates": [
          -40.7715085,
          -20.4848061
        ]
      }
    },
    {
      "type": "Feature",
      "id": "node/4024905262",
      "properties": {
        "timestamp": "2016-02-25T02:00:15Z",
        "version": 1,
        "changeset": 37426154,
        "IJSN:administra": "Municipal",
        "IJSN:classeCnae": "Infantil e Fundamental",
        "addr:city": "Marechal Floriano",
        "addr:postcode": "29258-000",
        "addr:street": "Rua Imigrante",
        "addr:suburb": "Araguaia",
        "alt_name": "Escola Municipal de Ensino Fundamental",
        "amenity": "school",
        "contact:phone": "(27) 3288-3090",
        "name": "EMEF Araguaya",
        "source": "IJSN",
        "id": "node/4024905262"
      },
      "geometry": {
        "type": "Point",
        "coordinates": [
          -40.7713649,
          -20.4941646
        ]
      }
    },
    {
      "type": "Feature",
      "id": "node/4024905437",
      "properties": {
        "timestamp": "2016-02-25T02:00:27Z",
        "version": 1,
        "changeset": 37426154,
        "IJSN:administra": "Municipal",
        "IJSN:classeCnae": "Fundamental",
        "addr:city": "Marechal Floriano",
        "addr:housenumber": "362",
        "addr:postcode": "29255-000",
        "addr:street": "Rua Thieres Veloso",
        "addr:suburb": "Jarbinhas",
        "alt_name": "Escola Municipal de Ensino Fundamental",
        "amenity": "school",
        "contact:phone": "(27) 3288-1590",
        "name": "EMEF Elisário Ferreira Filho",
        "source": "IJSN",
        "id": "node/4024905437"
      },
      "geometry": {
        "type": "Point",
        "coordinates": [
          -40.6791139,
          -20.412443
        ]
      }
    },
    {
      "type": "Feature",
      "id": "node/4024905476",
      "properties": {
        "timestamp": "2022-11-24T16:33:14Z",
        "version": 2,
        "changeset": 129335452,
        "IJSN:administra": "Municipal",
        "IJSN:classeCnae": "Infantil e Fundamental",
        "addr:city": "Marechal Floriano",
        "addr:postcode": "29255-000",
        "addr:street": "Rodovia BR 262 - Km 56",
        "addr:suburb": "Comunidade Alto Rio Fundo",
        "alt_name": "EMEF",
        "amenity": "school",
        "contact:phone": "(27) 9992-7060",
        "name": "Escola Municipal de Ensino Fundamental José Aloísio Simon",
        "operator": "Município de Marechal Floriano",
        "operator:type": "public",
        "source": "IJSN",
        "id": "node/4024905476"
      },
      "geometry": {
        "type": "Point",
        "coordinates": [
          -40.7606315,
          -20.4174947
        ]
      }
    },
    {
      "type": "Feature",
      "id": "node/4024905614",
      "properties": {
        "timestamp": "2016-02-25T02:00:40Z",
        "version": 1,
        "changeset": 37426154,
        "IJSN:administra": "Municipal",
        "IJSN:classeCnae": "Fundamental",
        "addr:city": "Marechal Floriano",
        "addr:housenumber": "100",
        "addr:postcode": "29255-000",
        "addr:street": "Avenida Arthur Haese",
        "addr:suburb": "Centro",
        "alt_name": "Escola Municipal de Ensino Fundamental",
        "amenity": "school",
        "contact:phone": "(27) 3288-1391",
        "name": "EMEF Mauro José Cristo",
        "source": "IJSN",
        "id": "node/4024905614"
      },
      "geometry": {
        "type": "Point",
        "coordinates": [
          -40.6738157,
          -20.4089332
        ]
      }
    },
    {
      "type": "Feature",
      "id": "node/4024905704",
      "properties": {
        "timestamp": "2016-02-25T02:00:55Z",
        "version": 1,
        "changeset": 37426154,
        "IJSN:administra": "Municipal",
        "IJSN:classeCnae": "Infantil e Fundamental",
        "addr:city": "Marechal Floriano",
        "addr:postcode": "29255-000",
        "addr:suburb": "Campo do Apollo XIII",
        "alt_name": "Escola Municipal de Ensino Fundamental",
        "amenity": "school",
        "contact:phone": "(27) 3288-0018 / 3288-2507",
        "name": "EMEF Sitio Rupf",
        "source": "IJSN",
        "id": "node/4024905704"
      },
      "geometry": {
        "type": "Point",
        "coordinates": [
          -40.6834539,
          -20.4363654
        ]
      }
    },
    {
      "type": "Feature",
      "id": "node/4024905735",
      "properties": {
        "timestamp": "2016-02-25T02:01:00Z",
        "version": 1,
        "changeset": 37426154,
        "IJSN:administra": "Municipal",
        "IJSN:classeCnae": "Infantil e Fundamental",
        "addr:city": "Marechal Floriano",
        "addr:postcode": "29255-000",
        "addr:street": "Rodovia BR 262 KM 72",
        "addr:suburb": "Comunidade Vitor Hugo",
        "alt_name": "Escola Municipal de Ensino Fundamental",
        "amenity": "school",
        "contact:phone": "(27) 3288-4183 / 3288-4383",
        "name": "EMEF Victor Hugo",
        "source": "IJSN",
        "id": "node/4024905735"
      },
      "geometry": {
        "type": "Point",
        "coordinates": [
          -40.8769895,
          -20.4215651
        ]
      }
    },
    {
      "type": "Feature",
      "id": "node/4024906097",
      "properties": {
        "timestamp": "2016-02-25T02:01:27Z",
        "version": 1,
        "changeset": 37426154,
        "IJSN:administra": "Municipal",
        "IJSN:classeCnae": "Infantil e Fundamental",
        "addr:city": "Marechal Floriano",
        "addr:postcode": "29255-000",
        "addr:street": "Estrada de Rio Fundo / Br 262 Km 49",
        "addr:suburb": "Comunidade Rio Fundo",
        "alt_name": "Escola Municipal Pluridocente de Ensino Fundamental",
        "amenity": "school",
        "contact:phone": "(27) 3288-2780",
        "name": "EMPEF Bernador Leonor Effgen",
        "source": "IJSN",
        "id": "node/4024906097"
      },
      "geometry": {
        "type": "Point",
        "coordinates": [
          -40.7037337,
          -20.4133037
        ]
      }
    },
    {
      "type": "Feature",
      "id": "node/4024906100",
      "properties": {
        "timestamp": "2022-11-24T17:21:19Z",
        "version": 2,
        "changeset": 129337606,
        "IJSN:administra": "Municipal",
        "IJSN:classeCnae": "Fundamental",
        "addr:city": "Marechal Floriano",
        "addr:postcode": "29255-000",
        "addr:suburb": "Suido de Baixo",
        "alt_name": "EMPEF",
        "amenity": "school",
        "contact:phone": "(27) 3288-2780",
        "name": "Escola Municipal Pluridocente de Ensino Fundamental Braço do Sul",
        "operator": "Município de Marechal Floriano",
        "operator:type": "public",
        "source": "IJSN",
        "id": "node/4024906100"
      },
      "geometry": {
        "type": "Point",
        "coordinates": [
          -40.7288269,
          -20.4007457
        ]
      }
    },
    {
      "type": "Feature",
      "id": "node/4024906127",
      "properties": {
        "timestamp": "2022-11-24T17:08:30Z",
        "version": 2,
        "changeset": 129337177,
        "IJSN:administra": "Municipal",
        "IJSN:classeCnae": "Infantil e Fundamental",
        "addr:city": "Marechal Floriano",
        "addr:postcode": "29255-000",
        "addr:street": "Rodovia BR 262 - Km 56",
        "addr:suburb": "Boa Esperança",
        "alt_name": "EMPEF",
        "amenity": "school",
        "contact:phone": "(27) 3288-2780",
        "name": "Escola Municipal Pluridocente de Ensino Fundamental Flores Passionato Kuster",
        "operator": "Município de Marechal Floriano",
        "operator:type": "public",
        "source": "IJSN",
        "id": "node/4024906127"
      },
      "geometry": {
        "type": "Point",
        "coordinates": [
          -40.7589759,
          -20.4156831
        ]
      }
    },
    {
      "type": "Feature",
      "id": "node/4024906141",
      "properties": {
        "timestamp": "2022-03-09T14:12:07Z",
        "version": 2,
        "changeset": 118280803,
        "IJSN:administra": "Municipal",
        "IJSN:classeCnae": "Fundamental",
        "addr:city": "Marechal Floriano",
        "addr:postcode": "29255-000",
        "addr:suburb": "Comunidade Bom Jesus",
        "alt_name": "Escola Municipal Pluridocente de Ensino Fundamental",
        "amenity": "school",
        "contact:phone": "(27) 3288-2780",
        "name": "EMPEF Morro Baixo",
        "source": "IJSN",
        "id": "node/4024906141"
      },
      "geometry": {
        "type": "Point",
        "coordinates": [
          -40.6322505,
          -20.4582287
        ]
      }
    },
    {
      "type": "Feature",
      "id": "node/4024906157",
      "properties": {
        "timestamp": "2016-02-25T02:01:37Z",
        "version": 1,
        "changeset": 37426154,
        "IJSN:administra": "Municipal",
        "IJSN:classeCnae": "Fundamental",
        "addr:city": "Marechal Floriano",
        "addr:postcode": "29255-000",
        "addr:suburb": "Comunidade Rio Fundo",
        "alt_name": "Escola Municipal Pluridocente de Ensino Fundamental",
        "amenity": "school",
        "contact:phone": "(27) 3288-2780",
        "name": "EMPEF Rio Fundo",
        "source": "IJSN",
        "id": "node/4024906157"
      },
      "geometry": {
        "type": "Point",
        "coordinates": [
          -40.7436441,
          -20.4458124
        ]
      }
    },
    {
      "type": "Feature",
      "id": "node/6274314602",
      "properties": {
        "timestamp": "2019-02-12T13:44:54Z",
        "version": 1,
        "changeset": 67132198,
        "amenity": "school",
        "name": "CEMEI",
        "id": "node/6274314602"
      },
      "geometry": {
        "type": "Point",
        "coordinates": [
          -40.7859873,
          -20.454186
        ]
      }
    }
  ]
}
