{
  "type": "FeatureCollection",
  "features": [
    {
      "type": "Feature",
      "id": "way/494086951",
      "properties": {
        "timestamp": "2022-10-26T17:42:14Z",
        "version": 2,
        "changeset": 128095612,
        "addr:city": "São Pedro do Suaçuí",
        "addr:hamlet": "Cinco Ilhas",
        "addr:postcode": "39784-000",
        "addr:state": "Minas Gerais",
        "addr:street": "Rua do Grupo",
        "amenity": "school",
        "building": "school",
        "building:levels": "1",
        "name": "Escola Municipal Maria Amaral Horta",
        "operator": "Município de São Pedro do Suaçuí",
        "id": "way/494086951"
      },
      "geometry": {
        "type": "Polygon",
        "coordinates": [
          [
            [
              -42.5516908,
              -18.3461451
            ],
            [
              -42.5515504,
              -18.3462212
            ],
            [
              -42.5514649,
              -18.3460791
            ],
            [
              -42.5515304,
              -18.3460436
            ],
            [
              -42.5514676,
              -18.3459393
            ],
            [
              -42.5515426,
              -18.3458987
            ],
            [
              -42.5516908,
              -18.3461451
            ]
          ]
        ]
      }
    },
    {
      "type": "Feature",
      "id": "way/494086955",
      "properties": {
        "timestamp": "2022-04-16T23:09:19Z",
        "version": 2,
        "changeset": 119800895,
        "amenity": "school",
        "id": "way/494086955"
      },
      "geometry": {
        "type": "Polygon",
        "coordinates": [
          [
            [
              -42.5506994,
              -18.3471294
            ],
            [
              -42.5507025,
              -18.3472191
            ],
            [
              -42.5505195,
              -18.3472248
            ],
            [
              -42.5505164,
              -18.3471352
            ],
            [
              -42.5506994,
              -18.3471294
            ]
          ]
        ]
      }
    },
    {
      "type": "Feature",
      "id": "node/5931170834",
      "properties": {
        "timestamp": "2022-10-26T13:54:06Z",
        "version": 2,
        "changeset": 128086263,
        "addr:city": "São Pedro do Suaçuí",
        "addr:housenumber": "65",
        "addr:postcode": "39784-000",
        "addr:street": "Rua Cândido Ferreira",
        "addr:suburb": "Centro",
        "amenity": "school",
        "name": "Escola Estadual João Pinheiro",
        "operator": "Governo de Minas Gerais",
        "id": "node/5931170834"
      },
      "geometry": {
        "type": "Point",
        "coordinates": [
          -42.6016323,
          -18.3651488
        ]
      }
    },
    {
      "type": "Feature",
      "id": "node/5931484513",
      "properties": {
        "timestamp": "2022-10-26T13:54:06Z",
        "version": 2,
        "changeset": 128086263,
        "addr:city": "São Pedro do Suaçuí",
        "addr:housenumber": "150",
        "addr:postcode": "39784-000",
        "addr:state": "Minas Gerais",
        "addr:street": "Avenida Dona Julieta Ferreira",
        "addr:suburb": "Barcelona",
        "amenity": "school",
        "name": "Escola Municipal Américo Caldeira Brant",
        "operator": "Município de São Pedro do Suaçuí",
        "id": "node/5931484513"
      },
      "geometry": {
        "type": "Point",
        "coordinates": [
          -42.5956082,
          -18.3599735
        ]
      }
    },
    {
      "type": "Feature",
      "id": "node/8489134052",
      "properties": {
        "timestamp": "2021-03-05T13:45:41Z",
        "version": 1,
        "changeset": 100495897,
        "amenity": "school",
        "id": "node/8489134052"
      },
      "geometry": {
        "type": "Point",
        "coordinates": [
          -42.5319018,
          -18.2391272
        ]
      }
    },
    {
      "type": "Feature",
      "id": "node/10130356162",
      "properties": {
        "timestamp": "2022-10-26T13:54:06Z",
        "version": 1,
        "changeset": 128086263,
        "addr:city": "São Pedro do Suaçuí",
        "addr:postcode": "39784-000",
        "addr:street": "Rua Dezoito",
        "addr:suburb": "Humaitá",
        "amenity": "school",
        "name": "Centro Municipal de Educação Infantil Dona Mariquita Leão",
        "operator": "Município de São Pedro do Suaçuí",
        "id": "node/10130356162"
      },
      "geometry": {
        "type": "Point",
        "coordinates": [
          -42.5946466,
          -18.3639605
        ]
      }
    },
    {
      "type": "Feature",
      "id": "node/10130387028",
      "properties": {
        "timestamp": "2022-10-26T13:54:06Z",
        "version": 1,
        "changeset": 128086263,
        "addr:city": "São Pedro do Suaçuí",
        "addr:housenumber": "488",
        "addr:postcode": "39784-000",
        "addr:street": "Avenida Dona Julieta Ferreira",
        "addr:suburb": "Barcelona",
        "amenity": "school",
        "name": "Escola Despertai",
        "operator": "Apae",
        "id": "node/10130387028"
      },
      "geometry": {
        "type": "Point",
        "coordinates": [
          -42.5937782,
          -18.3582945
        ]
      }
    }
  ]
}
