{
  "type": "FeatureCollection",
  "features": [
    {
      "type": "Feature",
      "id": "way/666140632",
      "properties": {
        "timestamp": "2025-04-12T23:15:22Z",
        "version": 4,
        "changeset": 164875263,
        "addr:city": "Uauá",
        "addr:postcode": "48950-000",
        "addr:state": "BA",
        "addr:street": "Praça Adhemar Rodrigues Guimarães",
        "addr:suburb": "Centro",
        "amenity": "school",
        "name": "Colégio Estadual Nossa Senhora Auxiliadora",
        "id": "way/666140632"
      },
      "geometry": {
        "type": "Polygon",
        "coordinates": [
          [
            [
              -39.4809463,
              -9.8436945
            ],
            [
              -39.4809228,
              -9.8440689
            ],
            [
              -39.4809114,
              -9.8444011
            ],
            [
              -39.4802927,
              -9.8443505
            ],
            [
              -39.4803279,
              -9.8436653
            ],
            [
              -39.4809463,
              -9.8436945
            ]
          ]
        ]
      }
    },
    {
      "type": "Feature",
      "id": "way/666145293",
      "properties": {
        "timestamp": "2025-04-12T23:15:22Z",
        "version": 4,
        "changeset": 164875263,
        "addr:city": "Uauá",
        "addr:postcode": "48950-000",
        "addr:street": "Avenida João borges de Sá",
        "addr:suburb": "Centro",
        "amenity": "school",
        "name": "Escola João Borges de Sá",
        "id": "way/666145293"
      },
      "geometry": {
        "type": "Polygon",
        "coordinates": [
          [
            [
              -39.4836776,
              -9.8398953
            ],
            [
              -39.483826,
              -9.8402793
            ],
            [
              -39.4833645,
              -9.8404565
            ],
            [
              -39.4833155,
              -9.8404753
            ],
            [
              -39.483153,
              -9.8401062
            ],
            [
              -39.4836776,
              -9.8398953
            ]
          ]
        ]
      }
    },
    {
      "type": "Feature",
      "id": "way/666145295",
      "properties": {
        "timestamp": "2025-04-12T23:15:22Z",
        "version": 3,
        "changeset": 164875263,
        "amenity": "school",
        "name": "Colégio Municipal Senhor do Bonfim",
        "id": "way/666145295"
      },
      "geometry": {
        "type": "Polygon",
        "coordinates": [
          [
            [
              -39.4836776,
              -9.8398953
            ],
            [
              -39.4843284,
              -9.839622
            ],
            [
              -39.4845108,
              -9.8399845
            ],
            [
              -39.483826,
              -9.8402793
            ],
            [
              -39.4836776,
              -9.8398953
            ]
          ]
        ]
      }
    },
    {
      "type": "Feature",
      "id": "way/666796167",
      "properties": {
        "timestamp": "2019-01-29T00:57:28Z",
        "version": 1,
        "changeset": 66722491,
        "amenity": "school",
        "name": "Escola Recanto da Criança",
        "id": "way/666796167"
      },
      "geometry": {
        "type": "Polygon",
        "coordinates": [
          [
            [
              -39.4835541,
              -9.8395366
            ],
            [
              -39.4834595,
              -9.8393148
            ],
            [
              -39.4837598,
              -9.8391882
            ],
            [
              -39.4838684,
              -9.8394007
            ],
            [
              -39.4836163,
              -9.8395097
            ],
            [
              -39.4835541,
              -9.8395366
            ]
          ]
        ]
      }
    },
    {
      "type": "Feature",
      "id": "way/666817210",
      "properties": {
        "timestamp": "2019-01-29T04:12:26Z",
        "version": 1,
        "changeset": 66725402,
        "amenity": "school",
        "name": "Escola Cora Coralina",
        "id": "way/666817210"
      },
      "geometry": {
        "type": "Polygon",
        "coordinates": [
          [
            [
              -39.4866703,
              -9.8405221
            ],
            [
              -39.4862139,
              -9.8407614
            ],
            [
              -39.4860588,
              -9.8405855
            ],
            [
              -39.4865591,
              -9.8403376
            ],
            [
              -39.4866703,
              -9.8405221
            ]
          ]
        ]
      }
    },
    {
      "type": "Feature",
      "id": "node/6337681012",
      "properties": {
        "timestamp": "2019-03-14T12:46:16Z",
        "version": 2,
        "changeset": 68135692,
        "amenity": "school",
        "name": "escola São geraldo",
        "id": "node/6337681012"
      },
      "geometry": {
        "type": "Point",
        "coordinates": [
          -39.497274,
          -10.0138707
        ]
      }
    },
    {
      "type": "Feature",
      "id": "node/6350935920",
      "properties": {
        "timestamp": "2025-04-09T18:36:22Z",
        "version": 3,
        "changeset": 164738067,
        "addr:city": "Uauá",
        "addr:housenumber": "165",
        "addr:postcode": "48950-000",
        "addr:street": "Rua Manoel Joaquim Ferreira",
        "addr:suburb": "Lagoa do Pires",
        "amenity": "school",
        "name": "Escola Estadual Coronel Jerônmo Rodrigues Ribeiro",
        "operator": "Secretaria de Educação do Estado da Bahia",
        "operator:type": "government",
        "operator:wikidata": "Q98140020",
        "id": "node/6350935920"
      },
      "geometry": {
        "type": "Point",
        "coordinates": [
          -39.4961046,
          -10.0121922
        ]
      }
    },
    {
      "type": "Feature",
      "id": "node/12741516946",
      "properties": {
        "timestamp": "2025-04-09T13:10:04Z",
        "version": 1,
        "changeset": 164724158,
        "addr:city": "Uauá",
        "addr:postcode": "48950-000",
        "addr:suburb": "Bedengó de Pedra",
        "amenity": "school",
        "name": "Escola Municipal Castro Alves",
        "operator": "Município de Uauá",
        "operator:type": "public",
        "id": "node/12741516946"
      },
      "geometry": {
        "type": "Point",
        "coordinates": [
          -39.2687467,
          -10.1043522
        ]
      }
    },
    {
      "type": "Feature",
      "id": "node/12741517038",
      "properties": {
        "timestamp": "2025-04-09T13:10:04Z",
        "version": 1,
        "changeset": 164724158,
        "addr:city": "Uauá",
        "addr:postcode": "48950-000",
        "addr:suburb": "Fazenda Salgado",
        "amenity": "school",
        "name": "Escola Municipal Antônio Conselheiro",
        "operator": "Município de Uauá",
        "operator:type": "public",
        "id": "node/12741517038"
      },
      "geometry": {
        "type": "Point",
        "coordinates": [
          -39.3203764,
          -10.1288246
        ]
      }
    },
    {
      "type": "Feature",
      "id": "node/12741659283",
      "properties": {
        "timestamp": "2025-04-09T14:35:06Z",
        "version": 1,
        "changeset": 164727952,
        "amenity": "school",
        "name": "Escola Municipal Santo Antônio",
        "id": "node/12741659283"
      },
      "geometry": {
        "type": "Point",
        "coordinates": [
          -39.3263837,
          -9.9312659
        ]
      }
    },
    {
      "type": "Feature",
      "id": "node/12741665702",
      "properties": {
        "timestamp": "2025-04-09T14:35:06Z",
        "version": 1,
        "changeset": 164727952,
        "addr:city": "Uauá",
        "addr:postcode": "48950-000",
        "addr:street": "Rua do Colégio",
        "addr:suburb": "Sítio do Tomás",
        "amenity": "school",
        "name": "Escola Municipal Santo Antônio",
        "id": "node/12741665702"
      },
      "geometry": {
        "type": "Point",
        "coordinates": [
          -39.4073218,
          -10.0880035
        ]
      }
    },
    {
      "type": "Feature",
      "id": "node/12742151251",
      "properties": {
        "timestamp": "2025-04-09T18:36:22Z",
        "version": 1,
        "changeset": 164738067,
        "addr:city": "Uauá",
        "addr:postcode": "48950-000",
        "addr:street": "Travessa do Colégio",
        "addr:suburb": "São Paulo",
        "amenity": "school",
        "name": "Escola Municipal Isaura Edvirgens Cardoso",
        "operator": "Município de Uauá",
        "operator:type": "public",
        "id": "node/12742151251"
      },
      "geometry": {
        "type": "Point",
        "coordinates": [
          -39.4965937,
          -10.1078411
        ]
      }
    },
    {
      "type": "Feature",
      "id": "node/12742151252",
      "properties": {
        "timestamp": "2025-04-09T18:36:22Z",
        "version": 1,
        "changeset": 164738067,
        "addr:city": "Uauá",
        "addr:postcode": "48950-000",
        "addr:street": "Travessa do Colégio",
        "addr:suburb": "São Paulo",
        "amenity": "school",
        "name": "Escola Estadual Olímpio Joaquim Cardoso",
        "operator": "Secretaria de Educação do Estado da Bahia",
        "operator:type": "government",
        "operator:wikidata": "Q98140020",
        "id": "node/12742151252"
      },
      "geometry": {
        "type": "Point",
        "coordinates": [
          -39.495502,
          -10.1086887
        ]
      }
    },
    {
      "type": "Feature",
      "id": "node/12744669305",
      "properties": {
        "timestamp": "2025-04-10T13:08:34Z",
        "version": 1,
        "changeset": 164768483,
        "addr:city": "Uauá",
        "addr:postcode": "48950-000",
        "addr:street": "Avenida Uauá",
        "addr:suburb": "Caldeirão da Serra",
        "amenity": "school",
        "name": "Escola Municipal Nossa Senhora do Perpetuo Socorro",
        "operator": "Município de Uauá",
        "operator:type": "public",
        "id": "node/12744669305"
      },
      "geometry": {
        "type": "Point",
        "coordinates": [
          -39.6343357,
          -9.7560986
        ]
      }
    },
    {
      "type": "Feature",
      "id": "node/12744669308",
      "properties": {
        "timestamp": "2025-04-10T13:08:34Z",
        "version": 1,
        "changeset": 164768483,
        "amenity": "school",
        "id": "node/12744669308"
      },
      "geometry": {
        "type": "Point",
        "coordinates": [
          -39.6308228,
          -9.7427576
        ]
      }
    },
    {
      "type": "Feature",
      "id": "node/12744669325",
      "properties": {
        "timestamp": "2025-04-10T13:08:34Z",
        "version": 1,
        "changeset": 164768483,
        "addr:city": "Uauá",
        "addr:housenumber": "63",
        "addr:postcode": "48950-000",
        "addr:street": "Avenida Antônio Gonçalves Vital",
        "addr:suburb": "Serra da Canabrava",
        "amenity": "school",
        "name": "Colegio Estadual Professor Edivaldo Machado Boaventura",
        "operator": "Secretaria de Educação do Estado da Bahia",
        "operator:type": "government",
        "operator:wikidata": "Q98140020",
        "id": "node/12744669325"
      },
      "geometry": {
        "type": "Point",
        "coordinates": [
          -39.6301793,
          -9.7391212
        ]
      }
    }
  ]
}
