{
  "type": "FeatureCollection",
  "features": [
    {
      "type": "Feature",
      "id": "node/4675637031",
      "properties": {
        "timestamp": "2019-07-07T03:34:18Z",
        "version": 2,
        "changeset": 71972740,
        "addr:city": "Conceição do Castelo",
        "addr:postcode": "29370-000",
        "addr:suburb": "Nicolau de Vargas",
        "amenity": "clinic",
        "healthcare": "clinic",
        "name": "Unidade de Saúde Ádila de Almeida",
        "source": "IJSN",
        "id": "node/4675637031"
      },
      "geometry": {
        "type": "Point",
        "coordinates": [
          -41.2446923,
          -20.3635708
        ]
      }
    },
    {
      "type": "Feature",
      "id": "node/4675637032",
      "properties": {
        "timestamp": "2019-07-07T03:34:18Z",
        "version": 2,
        "changeset": 71972740,
        "addr:city": "Conceição do Castelo",
        "addr:postcode": "29370-000",
        "addr:street": "Monforte Frio",
        "amenity": "clinic",
        "healthcare": "clinic",
        "name": "Unidade Sanitária de Monforte Frio",
        "source": "IJSN",
        "id": "node/4675637032"
      },
      "geometry": {
        "type": "Point",
        "coordinates": [
          -41.3356405,
          -20.3639249
        ]
      }
    },
    {
      "type": "Feature",
      "id": "node/4675637033",
      "properties": {
        "timestamp": "2019-07-07T03:34:18Z",
        "version": 2,
        "changeset": 71972740,
        "addr:city": "Conceição do Castelo",
        "addr:postcode": "29370-000",
        "addr:street": "Mata Fria",
        "amenity": "clinic",
        "healthcare": "clinic",
        "name": "Unidade Sanitária de Mata Fria",
        "source": "IJSN",
        "id": "node/4675637033"
      },
      "geometry": {
        "type": "Point",
        "coordinates": [
          -41.1807009,
          -20.2850072
        ]
      }
    },
    {
      "type": "Feature",
      "id": "node/4675637034",
      "properties": {
        "timestamp": "2019-07-07T03:34:18Z",
        "version": 2,
        "changeset": 71972740,
        "addr:city": "Conceição do Castelo",
        "addr:postcode": "29370-000",
        "addr:street": "São José da Bela Vista",
        "amenity": "clinic",
        "healthcare": "clinic",
        "name": "Unidade Sanitária Doutor Deco Bonicenha",
        "source": "IJSN",
        "id": "node/4675637034"
      },
      "geometry": {
        "type": "Point",
        "coordinates": [
          -41.2464778,
          -20.4634456
        ]
      }
    },
    {
      "type": "Feature",
      "id": "node/4675637035",
      "properties": {
        "timestamp": "2019-07-07T03:34:18Z",
        "version": 3,
        "changeset": 71972740,
        "addr:city": "Conceição do Castelo",
        "addr:postcode": "29370-000",
        "addr:street": "Santo Antônio do Areião",
        "amenity": "clinic",
        "healthcare": "clinic",
        "name": "Unidade Sanitária de Santo Antônio do Areião",
        "source": "IJSN",
        "id": "node/4675637035"
      },
      "geometry": {
        "type": "Point",
        "coordinates": [
          -41.277928,
          -20.4650983
        ]
      }
    },
    {
      "type": "Feature",
      "id": "node/4675637036",
      "properties": {
        "timestamp": "2019-07-07T03:34:18Z",
        "version": 2,
        "changeset": 71972740,
        "addr:city": "Conceição do Castelo",
        "addr:housenumber": "300",
        "addr:postcode": "29370-000",
        "addr:street": "Rua José Oliveira de Souza",
        "addr:suburb": "Pedro Rigo",
        "amenity": "clinic",
        "healthcare": "clinic",
        "name": "Unidade Sanitária Doutor Nilzio José da Silva",
        "source": "IJSN",
        "id": "node/4675637036"
      },
      "geometry": {
        "type": "Point",
        "coordinates": [
          -41.2518912,
          -20.3607022
        ]
      }
    }
  ]
}
