{
  "type": "FeatureCollection",
  "features": [
    {
      "type": "Feature",
      "id": "node/5373733086",
      "properties": {
        "timestamp": "2018-01-30T23:58:03Z",
        "version": 1,
        "changeset": 55912845,
        "addr:city": "Conceição do Castelo",
        "addr:postcode": "29370-000",
        "addr:street": "Avenida Harvey Vargas Grillo",
        "addr:suburb": "Nicolau de Vargas",
        "amenity": "pharmacy",
        "healthcare": "pharmacy",
        "name": "São José",
        "id": "node/5373733086"
      },
      "geometry": {
        "type": "Point",
        "coordinates": [
          -41.2461272,
          -20.3637428
        ]
      }
    },
    {
      "type": "Feature",
      "id": "node/5892999087",
      "properties": {
        "timestamp": "2022-08-10T14:33:54Z",
        "version": 2,
        "changeset": 124735014,
        "addr:city": "Conceição do Castelo",
        "addr:housenumber": "685",
        "addr:postcode": "29370-000",
        "addr:street": "Avenida José Grillo",
        "addr:suburb": "Centro",
        "amenity": "pharmacy",
        "healthcare": "pharmacy",
        "name": "Farmácia Ponto a Ponto",
        "id": "node/5892999087"
      },
      "geometry": {
        "type": "Point",
        "coordinates": [
          -41.2466311,
          -20.3590798
        ]
      }
    }
  ]
}
