{
  "type": "FeatureCollection",
  "features": [
    {
      "type": "Feature",
      "id": "way/338850955",
      "properties": {
        "timestamp": "2016-11-07T10:02:39Z",
        "version": 3,
        "changeset": 43460655,
        "IJSN:administra": "Estadual",
        "IJSN:classeCnae": "Fundamental e Médio",
        "addr:city": "Conceição do Castelo",
        "addr:housenumber": "9",
        "addr:postcode": "29370-000",
        "addr:street": "Praça da Matriz",
        "addr:suburb": "Centro",
        "alt_name": "Escola Estadual de Ensino Fundamental e Médio",
        "amenity": "school",
        "building": "school",
        "contact:phone": "(28) 3547-1283",
        "name": "EEEFM Professor Aldy Soares Merçon Vargas",
        "source": "IJSN",
        "id": "way/338850955"
      },
      "geometry": {
        "type": "Polygon",
        "coordinates": [
          [
            [
              -41.2422996,
              -20.3561037
            ],
            [
              -41.2420261,
              -20.3563812
            ],
            [
              -41.2418367,
              -20.3562172
            ],
            [
              -41.2421102,
              -20.3559396
            ],
            [
              -41.2422996,
              -20.3561037
            ]
          ]
        ]
      }
    },
    {
      "type": "Feature",
      "id": "way/338850958",
      "properties": {
        "timestamp": "2016-02-25T02:03:23Z",
        "version": 3,
        "changeset": 37426154,
        "IJSN:administra": "Municipal",
        "IJSN:classeCnae": "Fundamental",
        "addr:city": "Conceição do Castelo",
        "addr:housenumber": "348",
        "addr:postcode": "29370-000",
        "addr:street": "Avenida José Grilo",
        "addr:suburb": "Centro",
        "alt_name": "Unidade Municipal de Ensino Fundamental",
        "amenity": "school",
        "contact:phone": "(28) 3547-1382",
        "name": "UMEF Elisa Paiva",
        "source": "IJSN",
        "id": "way/338850958"
      },
      "geometry": {
        "type": "Polygon",
        "coordinates": [
          [
            [
              -41.2443949,
              -20.3567187
            ],
            [
              -41.2446635,
              -20.3569161
            ],
            [
              -41.2443842,
              -20.357183
            ],
            [
              -41.2441778,
              -20.3569783
            ],
            [
              -41.2443949,
              -20.3567187
            ]
          ]
        ]
      }
    },
    {
      "type": "Feature",
      "id": "way/339468041",
      "properties": {
        "timestamp": "2016-02-25T02:03:24Z",
        "version": 2,
        "changeset": 37426154,
        "IJSN:administra": "Municipal",
        "IJSN:classeCnae": "Fundamental",
        "addr:city": "Conceição do Castelo",
        "addr:postcode": "29370-000",
        "addr:street": "Avenida Harvey Vargas Grilo",
        "addr:suburb": "Itamar",
        "alt_name": "Unidade Municipal de Ensino Fundamental",
        "amenity": "school",
        "contact:phone": "(28) 3547-1005",
        "name": "UMEF Professor Edson Altoé",
        "source": "IJSN",
        "id": "way/339468041"
      },
      "geometry": {
        "type": "Polygon",
        "coordinates": [
          [
            [
              -41.2486869,
              -20.3636909
            ],
            [
              -41.2480339,
              -20.3632668
            ],
            [
              -41.2483173,
              -20.3628833
            ],
            [
              -41.2489703,
              -20.3633073
            ],
            [
              -41.2486869,
              -20.3636909
            ]
          ]
        ]
      }
    },
    {
      "type": "Feature",
      "id": "node/4024906968",
      "properties": {
        "timestamp": "2016-02-25T02:02:54Z",
        "version": 1,
        "changeset": 37426154,
        "IJSN:administra": "Municipal",
        "IJSN:classeCnae": "Infantil e Fundamental",
        "addr:city": "Conceição do Castelo",
        "addr:postcode": "29370-000",
        "addr:suburb": "Comunidade Barrinha",
        "alt_name": "Unidade Municipal de Ensino Fundamental",
        "amenity": "school",
        "name": "UMEF Alto Monforte",
        "source": "IJSN",
        "id": "node/4024906968"
      },
      "geometry": {
        "type": "Point",
        "coordinates": [
          -41.335659,
          -20.363429
        ]
      }
    },
    {
      "type": "Feature",
      "id": "node/4024906969",
      "properties": {
        "timestamp": "2020-04-11T02:37:43Z",
        "version": 2,
        "changeset": 83386830,
        "IJSN:administra": "Municipal",
        "IJSN:classeCnae": "Infantil e Fundamental",
        "addr:city": "Conceição do Castelo",
        "addr:postcode": "29370-000",
        "addr:street": "Rodovia BR-262 Km 115",
        "addr:suburb": "Comunidade Indaiá",
        "alt_name": "Unidade Municipal de Ensino Fundamental",
        "amenity": "school",
        "name": "UMEF Antônio Padovani",
        "source": "IJSN",
        "id": "node/4024906969"
      },
      "geometry": {
        "type": "Point",
        "coordinates": [
          -41.2236174,
          -20.3184502
        ]
      }
    },
    {
      "type": "Feature",
      "id": "node/4024906970",
      "properties": {
        "timestamp": "2016-02-25T02:02:54Z",
        "version": 1,
        "changeset": 37426154,
        "IJSN:administra": "Municipal",
        "IJSN:classeCnae": "Infantil e Fundamental",
        "addr:city": "Conceição do Castelo",
        "addr:postcode": "29370-000",
        "addr:suburb": "Comunidade Angá",
        "alt_name": "Unidade Municipal de Ensino Fundamental",
        "amenity": "school",
        "name": "UMEF José Feriani",
        "source": "IJSN",
        "id": "node/4024906970"
      },
      "geometry": {
        "type": "Point",
        "coordinates": [
          -41.2651247,
          -20.4287581
        ]
      }
    },
    {
      "type": "Feature",
      "id": "node/4024906971",
      "properties": {
        "timestamp": "2016-02-25T02:02:54Z",
        "version": 1,
        "changeset": 37426154,
        "IJSN:administra": "Municipal",
        "IJSN:classeCnae": "Infantil e Fundamental",
        "addr:city": "Conceição do Castelo",
        "addr:postcode": "29370-000",
        "addr:suburb": "Comunidade Mata Fria",
        "alt_name": "Unidade Municipal de Ensino Fundamental",
        "amenity": "school",
        "name": "UMEF Mata Fria",
        "source": "IJSN",
        "id": "node/4024906971"
      },
      "geometry": {
        "type": "Point",
        "coordinates": [
          -41.1810102,
          -20.2849467
        ]
      }
    },
    {
      "type": "Feature",
      "id": "node/4024906972",
      "properties": {
        "timestamp": "2016-02-25T02:02:54Z",
        "version": 1,
        "changeset": 37426154,
        "IJSN:administra": "Municipal",
        "IJSN:classeCnae": "Infantil e Fundamental",
        "addr:city": "Conceição do Castelo",
        "addr:postcode": "29370-000",
        "addr:suburb": "Comunidade Cedro",
        "alt_name": "Unidade Municipal de Ensino Fundamental",
        "amenity": "school",
        "contact:phone": "(28) 9958-8030",
        "name": "UMEF Professor Antônio Azeredo Coutinho",
        "source": "IJSN",
        "id": "node/4024906972"
      },
      "geometry": {
        "type": "Point",
        "coordinates": [
          -41.225686,
          -20.461377
        ]
      }
    },
    {
      "type": "Feature",
      "id": "node/4024906973",
      "properties": {
        "timestamp": "2016-02-25T02:02:55Z",
        "version": 1,
        "changeset": 37426154,
        "IJSN:administra": "Municipal",
        "IJSN:classeCnae": "Infantil e Fundamental",
        "addr:city": "Conceição do Castelo",
        "addr:postcode": "29370-000",
        "addr:suburb": "Comunidade Santa Luzia",
        "alt_name": "Unidade Municipal de Ensino Fundamental",
        "amenity": "school",
        "contact:phone": "(28) 3547-1361",
        "name": "UMEF Santa Luzia",
        "source": "IJSN",
        "id": "node/4024906973"
      },
      "geometry": {
        "type": "Point",
        "coordinates": [
          -41.2007151,
          -20.3961161
        ]
      }
    },
    {
      "type": "Feature",
      "id": "node/4024906974",
      "properties": {
        "timestamp": "2018-06-29T01:03:50Z",
        "version": 2,
        "changeset": 60263108,
        "IJSN:administra": "Municipal",
        "IJSN:classeCnae": "Fundamental",
        "addr:city": "Conceição do Castelo",
        "addr:postcode": "29370-000",
        "addr:suburb": "Comunidade Santo Antônio",
        "alt_name": "Unidade Municipal de Ensino Fundamental",
        "amenity": "school",
        "contact:phone": "(28) 3547-1361",
        "name": "UMEF Santo Antônio do Areião",
        "source": "IJSN",
        "id": "node/4024906974"
      },
      "geometry": {
        "type": "Point",
        "coordinates": [
          -41.2778501,
          -20.4652614
        ]
      }
    }
  ]
}
