{
  "type": "FeatureCollection",
  "features": [
    {
      "type": "Feature",
      "id": "way/845152093",
      "properties": {
        "timestamp": "2021-04-07T02:13:23Z",
        "version": 2,
        "changeset": 102438603,
        "addr:postcode": "65785-000",
        "addr:suburb": "Povoado Conduru",
        "amenity": "school",
        "name": "UE - Deputado Nunes Freire",
        "id": "way/845152093"
      },
      "geometry": {
        "type": "Polygon",
        "coordinates": [
          [
            [
              -44.3396247,
              -5.4665446
            ],
            [
              -44.3396126,
              -5.4666103
            ],
            [
              -44.3395513,
              -5.466599
            ],
            [
              -44.3395925,
              -5.4663767
            ],
            [
              -44.3397212,
              -5.4664003
            ],
            [
              -44.3396922,
              -5.466557
            ],
            [
              -44.3396247,
              -5.4665446
            ]
          ]
        ]
      }
    },
    {
      "type": "Feature",
      "id": "node/4231138476",
      "properties": {
        "timestamp": "2021-03-09T23:21:07Z",
        "version": 3,
        "changeset": 100737335,
        "addr:city": "Graça Aranha",
        "addr:street": "Rua Nova",
        "amenity": "school",
        "name": "UE Branca de Neve",
        "id": "node/4231138476"
      },
      "geometry": {
        "type": "Point",
        "coordinates": [
          -44.3363719,
          -5.4047609
        ]
      }
    },
    {
      "type": "Feature",
      "id": "node/4231138897",
      "properties": {
        "timestamp": "2020-09-15T15:50:50Z",
        "version": 2,
        "changeset": 90935663,
        "addr:city": "Graça Aranha",
        "addr:housenumber": "324",
        "addr:postcode": "65785-000",
        "addr:street": "Rua Humberto de Campos",
        "amenity": "school",
        "name": "Centro de Ensino Humberto de Campos",
        "id": "node/4231138897"
      },
      "geometry": {
        "type": "Point",
        "coordinates": [
          -44.3303986,
          -5.4059425
        ]
      }
    },
    {
      "type": "Feature",
      "id": "node/4231138917",
      "properties": {
        "timestamp": "2020-09-15T15:57:22Z",
        "version": 2,
        "changeset": 90935911,
        "addr:city": "Graça Aranha",
        "addr:postcode": "65785-000",
        "addr:street": "Rua Nossa Senhora de Fátima",
        "amenity": "school",
        "name": "Chreche Infantil Vovó Ana",
        "id": "node/4231138917"
      },
      "geometry": {
        "type": "Point",
        "coordinates": [
          -44.3278693,
          -5.4075741
        ]
      }
    },
    {
      "type": "Feature",
      "id": "node/7909068319",
      "properties": {
        "timestamp": "2020-09-15T15:23:54Z",
        "version": 1,
        "changeset": 90934624,
        "addr:city": "Graça Aranha",
        "amenity": "school",
        "name": "JI Pequeno Príncipe",
        "id": "node/7909068319"
      },
      "geometry": {
        "type": "Point",
        "coordinates": [
          -44.3926329,
          -5.4104817
        ]
      }
    },
    {
      "type": "Feature",
      "id": "node/7909069798",
      "properties": {
        "timestamp": "2020-09-15T15:15:30Z",
        "version": 1,
        "changeset": 90934322,
        "addr:city": "Graça Aranha",
        "addr:postcode": "65785-000",
        "addr:street": "Rua Tiradentes",
        "addr:suburb": "Centro",
        "amenity": "school",
        "name": "UI Silveira Rolins",
        "phone": "+55 99 3575 1274",
        "id": "node/7909069798"
      },
      "geometry": {
        "type": "Point",
        "coordinates": [
          -44.3319019,
          -5.4084331
        ]
      }
    },
    {
      "type": "Feature",
      "id": "node/7909083037",
      "properties": {
        "timestamp": "2020-09-15T15:21:40Z",
        "version": 1,
        "changeset": 90934542,
        "addr:city": "Graça Aranha",
        "addr:postcode": "65785-000",
        "addr:street": "Povoado Traquedo Neves",
        "amenity": "school",
        "name": "UE Trancredo Neves",
        "id": "node/7909083037"
      },
      "geometry": {
        "type": "Point",
        "coordinates": [
          -44.2683091,
          -5.4296872
        ]
      }
    },
    {
      "type": "Feature",
      "id": "node/7909101722",
      "properties": {
        "timestamp": "2021-03-09T23:27:35Z",
        "version": 3,
        "changeset": 100737463,
        "addr:city": "Graça Aranha",
        "addr:postcode": "65785-000",
        "addr:street": "Rua São Francisco",
        "amenity": "school",
        "name": "UI Valentim Rolins",
        "id": "node/7909101722"
      },
      "geometry": {
        "type": "Point",
        "coordinates": [
          -44.3311128,
          -5.4078074
        ]
      }
    },
    {
      "type": "Feature",
      "id": "node/7909114587",
      "properties": {
        "timestamp": "2020-09-15T15:44:45Z",
        "version": 1,
        "changeset": 90935456,
        "addr:city": "Graça Aranha",
        "addr:postcode": "65785-000",
        "amenity": "school",
        "name": "UE - Nacor Rolins",
        "phone": "+55 99 3575 1125",
        "id": "node/7909114587"
      },
      "geometry": {
        "type": "Point",
        "coordinates": [
          -44.3390019,
          -5.3609875
        ]
      }
    },
    {
      "type": "Feature",
      "id": "node/7909122776",
      "properties": {
        "timestamp": "2020-09-15T15:48:46Z",
        "version": 1,
        "changeset": 90935586,
        "addr:city": "graça Aranha",
        "addr:postcode": "65785-000",
        "amenity": "school",
        "name": "UI - Rosário Rolins",
        "phone": "+55 99 3575 8018",
        "id": "node/7909122776"
      },
      "geometry": {
        "type": "Point",
        "coordinates": [
          -44.3874822,
          -5.4110062
        ]
      }
    },
    {
      "type": "Feature",
      "id": "node/7909142603",
      "properties": {
        "timestamp": "2021-03-09T23:21:07Z",
        "version": 2,
        "changeset": 100737335,
        "addr:city": "Graça Aranha",
        "addr:postcode": "65785-000",
        "addr:street": "Rua Nossa Senhora das Graças",
        "amenity": "school",
        "name": "JI Saci Pererê",
        "id": "node/7909142603"
      },
      "geometry": {
        "type": "Point",
        "coordinates": [
          -44.3312903,
          -5.4094644
        ]
      }
    }
  ]
}
