{
  "type": "FeatureCollection",
  "features": [
    {
      "type": "Feature",
      "id": "way/778120507",
      "properties": {
        "timestamp": "2022-09-05T14:20:57Z",
        "version": 3,
        "changeset": 125817861,
        "addr:city": "Varre Sai",
        "addr:postcode": "28375-000",
        "addr:suburb": "Santa Rita do Prata",
        "amenity": "school",
        "name": "Escola Municipal Elidio Valentim De Moraes",
        "id": "way/778120507"
      },
      "geometry": {
        "type": "Polygon",
        "coordinates": [
          [
            [
              -41.7431949,
              -20.8573849
            ],
            [
              -41.7431098,
              -20.8577896
            ],
            [
              -41.7430389,
              -20.8577766
            ],
            [
              -41.7430409,
              -20.8577669
            ],
            [
              -41.7428197,
              -20.8577263
            ],
            [
              -41.7428554,
              -20.8575564
            ],
            [
              -41.7429239,
              -20.8575689
            ],
            [
              -41.7429074,
              -20.8576472
            ],
            [
              -41.7429893,
              -20.8576623
            ],
            [
              -41.7429971,
              -20.8576254
            ],
            [
              -41.7430565,
              -20.8576364
            ],
            [
              -41.7431126,
              -20.8573698
            ],
            [
              -41.7431949,
              -20.8573849
            ]
          ]
        ]
      }
    },
    {
      "type": "Feature",
      "id": "node/9994617470",
      "properties": {
        "timestamp": "2025-04-05T17:22:55Z",
        "version": 3,
        "changeset": 164561327,
        "addr:city": "Varre-Sai",
        "addr:postcode": "28375-000",
        "addr:street": "Avenida José Ramos Vieira",
        "addr:suburb": "Nossa Senhora de Fátima",
        "amenity": "school",
        "name": "CIEP MARLENE ABIB FABRI",
        "id": "node/9994617470"
      },
      "geometry": {
        "type": "Point",
        "coordinates": [
          -41.8676937,
          -20.9367572
        ]
      }
    },
    {
      "type": "Feature",
      "id": "node/9994617472",
      "properties": {
        "timestamp": "2022-09-02T10:20:39Z",
        "version": 1,
        "changeset": 125691694,
        "addr:city": "Varre-Sai",
        "addr:postcode": "28375-000",
        "addr:street": "Rua Octavio Monerat",
        "addr:suburb": "Centro",
        "amenity": "school",
        "name": "Escola Municipal Carlos Magno Fabri Martins",
        "id": "node/9994617472"
      },
      "geometry": {
        "type": "Point",
        "coordinates": [
          -41.8670112,
          -20.92816
        ]
      }
    },
    {
      "type": "Feature",
      "id": "node/9994617494",
      "properties": {
        "timestamp": "2022-09-02T10:20:39Z",
        "version": 1,
        "changeset": 125691694,
        "addr:city": "Varre-Sai",
        "addr:postcode": "28375-000",
        "addr:street": "Rua José Vargas de Figueiredo",
        "addr:suburb": "Centro",
        "amenity": "school",
        "name": "Escola Municipal Primo José Sobreira",
        "id": "node/9994617494"
      },
      "geometry": {
        "type": "Point",
        "coordinates": [
          -41.8709726,
          -20.9270313
        ]
      }
    },
    {
      "type": "Feature",
      "id": "node/9994854698",
      "properties": {
        "timestamp": "2022-09-02T11:55:25Z",
        "version": 1,
        "changeset": 125695653,
        "addr:city": "Varre-sai",
        "addr:postcode": "28375-000",
        "addr:suburb": "Cruz da Ana",
        "amenity": "school",
        "name": "Escola Municipal de Cruz da Ana",
        "operator": "Município de Varre-sai",
        "operator:type": "public",
        "id": "node/9994854698"
      },
      "geometry": {
        "type": "Point",
        "coordinates": [
          -41.8172266,
          -20.9160407
        ]
      }
    },
    {
      "type": "Feature",
      "id": "node/9995100187",
      "properties": {
        "timestamp": "2022-09-02T13:50:06Z",
        "version": 1,
        "changeset": 125700166,
        "addr:city": "Varre-Sai",
        "addr:postcode": "28375-000",
        "addr:street": "Rua Luiz Amitti",
        "addr:suburb": "Santo Antônio",
        "amenity": "school",
        "denomination": "roman_catholic",
        "email": "ecoracaojesusvs@yahoo.com.br",
        "name": "Colégio Coração de Jesus",
        "phone": "+55 22 3843 3822",
        "religion": "christian",
        "id": "node/9995100187"
      },
      "geometry": {
        "type": "Point",
        "coordinates": [
          -41.8679411,
          -20.924532
        ]
      }
    }
  ]
}
