{
  "type": "FeatureCollection",
  "features": [
    {
      "type": "Feature",
      "id": "node/5111038789",
      "properties": {
        "timestamp": "2022-06-06T21:56:41Z",
        "version": 4,
        "changeset": 122044766,
        "access": "yes",
        "addr:postcode": "89320-000",
        "addr:street": "Estrada Geral Baú Central",
        "addr:suburb": "Baú Central",
        "alt_name": "Posto de Saúde Augustinho Zimmermann",
        "amenity": "clinic",
        "brand": "Sistema Único de Saúde",
        "brand:short": "SUS",
        "loc_name": "Posto de Saúde Baú Central",
        "name": "Unidade de Saúde Augustinho Zimmermann",
        "operator": "Prefeitura Municipal de Ilhota",
        "operator:type": "public",
        "id": "node/5111038789"
      },
      "geometry": {
        "type": "Point",
        "coordinates": [
          -48.8676203,
          -26.8496652
        ]
      }
    },
    {
      "type": "Feature",
      "id": "node/5111038790",
      "properties": {
        "timestamp": "2021-06-28T22:36:43Z",
        "version": 4,
        "changeset": 107112944,
        "access": "yes",
        "addr:postcode": "89320-000",
        "addr:street": "Estrada Geral Braço do Baú",
        "addr:suburb": "Braço do Baú",
        "amenity": "clinic",
        "healthcare": "clinic",
        "name": "Posto de Saúde Braço do Baú",
        "id": "node/5111038790"
      },
      "geometry": {
        "type": "Point",
        "coordinates": [
          -48.8923775,
          -26.8049284
        ]
      }
    },
    {
      "type": "Feature",
      "id": "node/5111427276",
      "properties": {
        "timestamp": "2017-09-17T17:55:12Z",
        "version": 1,
        "changeset": 52123404,
        "addr:city": "Ilhota",
        "addr:postcode": "98320-000",
        "addr:street": "Estrada Geral Alto Baú",
        "addr:suburb": "Alto Baú",
        "addr:unit": "Alto Baú",
        "amenity": "clinic",
        "id": "node/5111427276"
      },
      "geometry": {
        "type": "Point",
        "coordinates": [
          -48.9668998,
          -26.823464
        ]
      }
    }
  ]
}
