{
  "type": "FeatureCollection",
  "features": [
    {
      "type": "Feature",
      "id": "way/543800323",
      "properties": {
        "timestamp": "2017-12-01T00:59:30Z",
        "version": 1,
        "changeset": 54220827,
        "addr:city": "São Gotardo",
        "addr:postcode": "38800000",
        "addr:street": "Rua São Pio X",
        "addr:suburb": "Nossa Senhora de Fátima",
        "amenity": "school",
        "description": "Escola tradicional na cidade.",
        "name": "Escola Estadual São Pio X",
        "id": "way/543800323"
      },
      "geometry": {
        "type": "Polygon",
        "coordinates": [
          [
            [
              -46.050607,
              -19.3156325
            ],
            [
              -46.0514075,
              -19.3161528
            ],
            [
              -46.0508544,
              -19.3169107
            ],
            [
              -46.0500539,
              -19.3163904
            ],
            [
              -46.050607,
              -19.3156325
            ]
          ]
        ]
      }
    },
    {
      "type": "Feature",
      "id": "way/543870283",
      "properties": {
        "timestamp": "2017-12-01T11:24:37Z",
        "version": 1,
        "changeset": 54232215,
        "addr:city": "São Gotardo",
        "addr:postcode": "38800-000",
        "addr:street": "Rua Dom Silvério",
        "addr:suburb": "Alto Bela Vista",
        "amenity": "school",
        "description": "Escola tradicional",
        "name": "Escola Estadual Coronel Oscar Prados",
        "id": "way/543870283"
      },
      "geometry": {
        "type": "Polygon",
        "coordinates": [
          [
            [
              -46.0509209,
              -19.3056652
            ],
            [
              -46.051218,
              -19.3060765
            ],
            [
              -46.0504284,
              -19.3064795
            ],
            [
              -46.0502528,
              -19.3060792
            ],
            [
              -46.0509209,
              -19.3056652
            ]
          ]
        ]
      }
    },
    {
      "type": "Feature",
      "id": "way/543870286",
      "properties": {
        "timestamp": "2017-12-01T11:24:38Z",
        "version": 1,
        "changeset": 54232215,
        "addr:city": "São Gotardo",
        "addr:postcode": "38800-000",
        "addr:street": "Praça São Sebastião",
        "addr:suburb": "Centro",
        "amenity": "school",
        "name": "Escola Municipal Conselheiro Afonso Pena",
        "id": "way/543870286"
      },
      "geometry": {
        "type": "Polygon",
        "coordinates": [
          [
            [
              -46.0462527,
              -19.3101535
            ],
            [
              -46.0459522,
              -19.3107285
            ],
            [
              -46.045658,
              -19.3105966
            ],
            [
              -46.0459668,
              -19.3100254
            ],
            [
              -46.0462527,
              -19.3101535
            ]
          ]
        ]
      }
    },
    {
      "type": "Feature",
      "id": "way/543870288",
      "properties": {
        "timestamp": "2017-12-01T11:24:38Z",
        "version": 1,
        "changeset": 54232215,
        "addr:city": "São Gotardo",
        "addr:housenumber": "630",
        "addr:postcode": "38800-000",
        "addr:street": "Avenida Prefeito Erotides Batista",
        "addr:suburb": "Sol Nascente",
        "amenity": "school",
        "name": "Escola Estadual Jose Caetano Ribeiro",
        "id": "way/543870288"
      },
      "geometry": {
        "type": "Polygon",
        "coordinates": [
          [
            [
              -46.0443302,
              -19.3197746
            ],
            [
              -46.0442393,
              -19.3205931
            ],
            [
              -46.0437684,
              -19.3205359
            ],
            [
              -46.0438648,
              -19.3197252
            ],
            [
              -46.0443302,
              -19.3197746
            ]
          ]
        ]
      }
    },
    {
      "type": "Feature",
      "id": "way/1296071398",
      "properties": {
        "timestamp": "2024-06-25T14:57:57Z",
        "version": 1,
        "changeset": 153161559,
        "addr:city": "São Gotardo",
        "addr:housenumber": "1000",
        "addr:postcode": "38800-000",
        "addr:street": "Avenida Rio Branco",
        "addr:suburb": "Centro",
        "amenity": "school",
        "building": "school",
        "name": "Colégio Dimensão",
        "website": "https://colegiodimensaosg.com/",
        "id": "way/1296071398"
      },
      "geometry": {
        "type": "Polygon",
        "coordinates": [
          [
            [
              -46.0589935,
              -19.3159111
            ],
            [
              -46.0587092,
              -19.3165389
            ],
            [
              -46.0577382,
              -19.3161592
            ],
            [
              -46.0579796,
              -19.3156023
            ],
            [
              -46.0589935,
              -19.3159111
            ]
          ]
        ]
      }
    }
  ]
}
