{
  "type": "FeatureCollection",
  "features": [
    {
      "type": "Feature",
      "id": "node/6275427354",
      "properties": {
        "timestamp": "2023-05-29T19:04:42Z",
        "version": 2,
        "changeset": 136714074,
        "addr:city": "Vargem Alta",
        "addr:postcode": "29295-000",
        "addr:street": "Rua Eupidio Quintino",
        "addr:suburb": "Centro",
        "amenity": "clinic",
        "healthcare": "clinic",
        "healthcare:speciality": "general",
        "name": "Unidade Básica de Saúde de Vargem Alta",
        "operator": "Prefeitura Municipal de Vargem Alta",
        "operator:type": "public",
        "id": "node/6275427354"
      },
      "geometry": {
        "type": "Point",
        "coordinates": [
          -41.006523,
          -20.6724381
        ]
      }
    },
    {
      "type": "Feature",
      "id": "node/10940668333",
      "properties": {
        "timestamp": "2023-05-30T21:10:57Z",
        "version": 1,
        "changeset": 136763570,
        "addr:city": "Vargem Alta",
        "addr:postcode": "29295-000",
        "addr:street": "Rua Santa Rita de Cássia",
        "addr:suburb": "Vila Esperança",
        "amenity": "clinic",
        "healthcare": "clinic",
        "healthcare:speciality": "general",
        "name": "Unidade de Apoio de Vila Esperança",
        "operator": "Município de Vargem Alta",
        "operator:type": "public",
        "id": "node/10940668333"
      },
      "geometry": {
        "type": "Point",
        "coordinates": [
          -41.020984,
          -20.6552991
        ]
      }
    },
    {
      "type": "Feature",
      "id": "node/10946835832",
      "properties": {
        "timestamp": "2023-06-02T18:07:32Z",
        "version": 1,
        "changeset": 136878906,
        "addr:city": "Vargem Alta",
        "addr:postcode": "29295-000",
        "addr:street": "Rua do Campo",
        "addr:suburb": "Castelinho",
        "amenity": "clinic",
        "healthcare": "clinic",
        "healthcare:speciality": "general",
        "name": "Unidade Básica de Saúde de Castelinho",
        "operator": "Município de Vargem Alta",
        "operator:type": "public",
        "id": "node/10946835832"
      },
      "geometry": {
        "type": "Point",
        "coordinates": [
          -40.9860167,
          -20.5182049
        ]
      }
    },
    {
      "type": "Feature",
      "id": "node/10960101840",
      "properties": {
        "timestamp": "2023-06-06T17:31:58Z",
        "version": 1,
        "changeset": 137024829,
        "addr:city": "Vargem Alta",
        "addr:district": "Prosperidade",
        "addr:postcode": "29297-000",
        "addr:street": "Avenida Beira Rio",
        "addr:suburb": "Centro",
        "amenity": "clinic",
        "healthcare": "clinic",
        "healthcare:speciality": "general",
        "name": "Unidade Básica de Saúde de Prosperidade",
        "operator": "Município de Vargem Alta",
        "operator:type": "public",
        "phone": "+55 28 3528 1010",
        "id": "node/10960101840"
      },
      "geometry": {
        "type": "Point",
        "coordinates": [
          -41.0565057,
          -20.6627775
        ]
      }
    },
    {
      "type": "Feature",
      "id": "node/10972234271",
      "properties": {
        "timestamp": "2023-06-12T23:54:25Z",
        "version": 1,
        "changeset": 137263423,
        "addr:city": "Vargem Alta",
        "addr:suburb": "Pedra Branca",
        "amenity": "clinic",
        "healthcare": "clinic",
        "healthcare:speciality": "general",
        "name": "Unidade Básica de Saúde de Pedra Branca",
        "id": "node/10972234271"
      },
      "geometry": {
        "type": "Point",
        "coordinates": [
          -41.0685908,
          -20.6920402
        ]
      }
    }
  ]
}
