{
  "type": "FeatureCollection",
  "features": [
    {
      "type": "Feature",
      "id": "node/6275427355",
      "properties": {
        "timestamp": "2023-05-29T14:37:02Z",
        "version": 2,
        "changeset": 136703931,
        "addr:city": "Vargem Alta",
        "addr:postcode": "29295-000",
        "addr:street": "Avenida Tuffy David",
        "addr:suburb": "Centro",
        "government": "prosecutor",
        "name": "Promotoria de Justiça de Vargem Alta",
        "office": "government",
        "operator": "Ministério Público do Estado do Espírito Santo",
        "operator:wikidata": "Q20060323",
        "id": "node/6275427355"
      },
      "geometry": {
        "type": "Point",
        "coordinates": [
          -41.0058388,
          -20.6727693
        ]
      }
    },
    {
      "type": "Feature",
      "id": "node/10937847257",
      "properties": {
        "timestamp": "2023-05-29T19:04:42Z",
        "version": 1,
        "changeset": 136714074,
        "addr:city": "Vargem Alta",
        "addr:postcode": "29295-000",
        "addr:street": "Rua Zildio Moschen",
        "addr:suburb": "Centro",
        "email": "vargemalta@incaper.es.gov.br",
        "government": "agriculture",
        "name": "Escritório Local de Desenvolvimento Rural de Vargem Alta",
        "office": "government",
        "operator": "Instituto Capixaba de Pesquisa, Assistência Técnica e Extensão Rural - Incaper",
        "phone": "+55 28 3528 1042",
        "id": "node/10937847257"
      },
      "geometry": {
        "type": "Point",
        "coordinates": [
          -41.0089601,
          -20.6727136
        ]
      }
    }
  ]
}
