{
  "type": "FeatureCollection",
  "features": [
    {
      "type": "Feature",
      "id": "way/670099921",
      "properties": {
        "timestamp": "2023-05-29T14:37:02Z",
        "version": 3,
        "changeset": 136703931,
        "addr:city": "Vargem Alta",
        "addr:housenumber": "70",
        "addr:postcode": "29295000",
        "addr:street": "Praça Fued David",
        "addr:suburb": "Centro",
        "alt_name": "EEEFM Presidente Lüebke",
        "amenity": "school",
        "email": "escolaluebke@sedu.es.gov.br",
        "inep": "32058918",
        "name": "Escola Estadual de Ensino Fundamental e Médio Presidente Lüebke",
        "operator": "Secretaria de Estado da Educação - Sedu",
        "operator:type": "public",
        "phone": "+55 28 3528 1318",
        "ref": "Ijsn",
        "id": "way/670099921"
      },
      "geometry": {
        "type": "Polygon",
        "coordinates": [
          [
            [
              -41.0108981,
              -20.6727674
            ],
            [
              -41.0108459,
              -20.6727549
            ],
            [
              -41.0107975,
              -20.6726341
            ],
            [
              -41.01072,
              -20.6725587
            ],
            [
              -41.0107168,
              -20.6725134
            ],
            [
              -41.0104005,
              -20.6722387
            ],
            [
              -41.0107975,
              -20.671659
            ],
            [
              -41.0111871,
              -20.6717646
            ],
            [
              -41.0111352,
              -20.6719326
            ],
            [
              -41.0108981,
              -20.6727674
            ]
          ]
        ]
      }
    },
    {
      "type": "Feature",
      "id": "way/1180050623",
      "properties": {
        "timestamp": "2023-06-06T17:31:58Z",
        "version": 1,
        "changeset": 137024829,
        "IJSN:administra": "Municipal",
        "IJSN:classeCnae": "Infantil e Fundamental",
        "addr:city": "Vargem Alta",
        "addr:postcode": "29297-000",
        "addr:suburb": "Prosperidade",
        "alt_name": "EMEB Prosperidade",
        "amenity": "school",
        "name": "Escola Municipal de Ensino Básico Prosperidade",
        "operator": "Município de Vargem Alta",
        "operator:type": "public",
        "phone": "+55 28 99907 3649",
        "source": "IJSN",
        "id": "way/1180050623"
      },
      "geometry": {
        "type": "Polygon",
        "coordinates": [
          [
            [
              -41.0559277,
              -20.6640549
            ],
            [
              -41.0559116,
              -20.6643699
            ],
            [
              -41.0553202,
              -20.6640875
            ],
            [
              -41.0554117,
              -20.6639371
            ],
            [
              -41.0554596,
              -20.6638522
            ],
            [
              -41.0559277,
              -20.6640549
            ]
          ]
        ]
      }
    },
    {
      "type": "Feature",
      "id": "node/3477820406",
      "properties": {
        "timestamp": "2016-03-09T19:12:47Z",
        "version": 2,
        "changeset": 37716865,
        "IJSN:administra": "Municipal",
        "IJSN:classeCnae": "Fundamental",
        "addr:city": "Cachoeiro de Itapemirim",
        "addr:country": "BR",
        "addr:place": "Comunidade Sossego",
        "addr:postcode": "29300-000",
        "addr:state": "ES",
        "alt_name": "Escola Municipal de Ensino Básico",
        "amenity": "school",
        "name": "EMEB Unidocente Baixo Gruta",
        "id": "node/3477820406"
      },
      "geometry": {
        "type": "Point",
        "coordinates": [
          -41.0229904,
          -20.8574392
        ]
      }
    },
    {
      "type": "Feature",
      "id": "node/4024903383",
      "properties": {
        "timestamp": "2023-06-04T01:22:17Z",
        "version": 3,
        "changeset": 136919146,
        "IJSN:administra": "Privada",
        "IJSN:classeCnae": "Infantil e Fundamental",
        "addr:city": "Vargem Alta",
        "addr:postcode": "29295-000",
        "addr:street": "Rua dos Ipês",
        "addr:suburb": "Vila Esperança",
        "alt_name": "CE Catarina Fiorot",
        "amenity": "school",
        "contact:phone": "+55 28 3528 1819",
        "name": "Centro Educacional Catarina Fiorot",
        "operator": "Município de Vargem Alta",
        "operator:type": "public",
        "source": "IJSN",
        "id": "node/4024903383"
      },
      "geometry": {
        "type": "Point",
        "coordinates": [
          -41.0223514,
          -20.6525731
        ]
      }
    },
    {
      "type": "Feature",
      "id": "node/4024904416",
      "properties": {
        "timestamp": "2023-06-01T22:37:48Z",
        "version": 3,
        "changeset": 136848699,
        "IJSN:administra": "Municipal",
        "IJSN:classeCnae": "Infantil e Fundamental",
        "addr:city": "Vargem Alta",
        "addr:postcode": "29297-000",
        "addr:street": "Rua André Altoe",
        "addr:suburb": "Boa Esperança",
        "alt_name": "CMEI Boa Esperança",
        "amenity": "school",
        "name": "Centro Municipal de Educação Infantil Boa Esperança",
        "operator": "Município de Vargem Alta",
        "operator:type": "public",
        "source": "IJSN",
        "id": "node/4024904416"
      },
      "geometry": {
        "type": "Point",
        "coordinates": [
          -41.0121322,
          -20.718507
        ]
      }
    },
    {
      "type": "Feature",
      "id": "node/4024904470",
      "properties": {
        "timestamp": "2023-06-01T19:18:31Z",
        "version": 2,
        "changeset": 136843945,
        "IJSN:administra": "Estadual",
        "IJSN:classeCnae": "EEEFM Agostinho Agrizzi",
        "addr:city": "Vargem Alta",
        "addr:postcode": "29297-000",
        "addr:street": "Praça Padre Olivio",
        "addr:suburb": "Centro",
        "alt_name": "Escola Estadual de Ensino Fundamental e Médio",
        "amenity": "school",
        "contact:phone": "+55 28 3525 1220",
        "name": "Escola Estadual de Ensino Fundamental e Médio Agostinho Agrizzi",
        "source": "IJSN",
        "id": "node/4024904470"
      },
      "geometry": {
        "type": "Point",
        "coordinates": [
          -41.0157724,
          -20.703106
        ]
      }
    },
    {
      "type": "Feature",
      "id": "node/4024904865",
      "properties": {
        "timestamp": "2016-02-25T01:59:43Z",
        "version": 1,
        "changeset": 37426154,
        "IJSN:administra": "Estadual",
        "IJSN:classeCnae": "Médio",
        "addr:city": "Vargem Alta",
        "addr:housenumber": "5",
        "addr:postcode": "29295-000",
        "addr:street": "Rua Caetano Vanini",
        "addr:suburb": "Comunidade São José de Fruteira",
        "alt_name": "Escola Estadual de Ensino Médio",
        "amenity": "school",
        "contact:phone": "(28) 99021626",
        "name": "EEEM Guilherme Milaneze",
        "source": "IJSN",
        "id": "node/4024904865"
      },
      "geometry": {
        "type": "Point",
        "coordinates": [
          -41.0302265,
          -20.6050351
        ]
      }
    },
    {
      "type": "Feature",
      "id": "node/4024905218",
      "properties": {
        "timestamp": "2016-02-25T02:00:08Z",
        "version": 1,
        "changeset": 37426154,
        "IJSN:administra": "Municipal",
        "IJSN:classeCnae": "Fundamental",
        "addr:city": "Vargem Alta",
        "addr:postcode": "29297-000",
        "addr:suburb": "Comunidade Prosperidade",
        "alt_name": "Escola Municipal de Ensino Básico",
        "amenity": "school",
        "name": "EMEB Alto Prosperidade",
        "source": "IJSN",
        "id": "node/4024905218"
      },
      "geometry": {
        "type": "Point",
        "coordinates": [
          -41.0630724,
          -20.6425206
        ]
      }
    },
    {
      "type": "Feature",
      "id": "node/4024905219",
      "properties": {
        "timestamp": "2023-05-29T18:01:12Z",
        "version": 2,
        "changeset": 136711787,
        "IJSN:administra": "Municipal",
        "IJSN:classeCnae": "Infantil e Fundamental",
        "addr:city": "Vargem Alta",
        "addr:housenumber": "500",
        "addr:postcode": "29295-000",
        "addr:street": "Rua Pedro Isabel David",
        "addr:suburb": "Centro",
        "alt_name": "Escola Municipal de Ensino Básico",
        "amenity": "school",
        "contact:phone": "(28) 3528-1421",
        "name": "EMEB Alzira Gomes",
        "source": "IJSN",
        "id": "node/4024905219"
      },
      "geometry": {
        "type": "Point",
        "coordinates": [
          -41.0044457,
          -20.6687048
        ]
      }
    },
    {
      "type": "Feature",
      "id": "node/4024905224",
      "properties": {
        "timestamp": "2016-02-25T02:00:09Z",
        "version": 1,
        "changeset": 37426154,
        "IJSN:administra": "Municipal",
        "IJSN:classeCnae": "Infantil e Fundamental",
        "addr:city": "Vargem Alta",
        "addr:postcode": "29297-000",
        "addr:suburb": "Comunidade Capivara",
        "alt_name": "Escola Municipal de Ensino Básico",
        "amenity": "school",
        "name": "EMEB Capivara",
        "source": "IJSN",
        "id": "node/4024905224"
      },
      "geometry": {
        "type": "Point",
        "coordinates": [
          -41.0480823,
          -20.5899661
        ]
      }
    },
    {
      "type": "Feature",
      "id": "node/4024905225",
      "properties": {
        "timestamp": "2016-02-25T02:00:09Z",
        "version": 1,
        "changeset": 37426154,
        "IJSN:administra": "Municipal",
        "IJSN:classeCnae": "Infantil e Fundamental",
        "addr:city": "Vargem Alta",
        "addr:postcode": "29297-000",
        "addr:suburb": "Comunidade Cachoeira Alta",
        "alt_name": "Escola Municipal de Ensino Básico",
        "amenity": "school",
        "name": "EMEB Casemiro Costa",
        "source": "IJSN",
        "id": "node/4024905225"
      },
      "geometry": {
        "type": "Point",
        "coordinates": [
          -41.0916405,
          -20.7125492
        ]
      }
    },
    {
      "type": "Feature",
      "id": "node/4024905226",
      "properties": {
        "timestamp": "2023-06-02T18:07:32Z",
        "version": 2,
        "changeset": 136878906,
        "IJSN:administra": "Municipal",
        "IJSN:classeCnae": "Fundamental",
        "addr:city": "Vargem Alta",
        "addr:postcode": "29297-000",
        "addr:suburb": "Castelinho",
        "alt_name": "EMEB João Domingos Fassarella",
        "amenity": "school",
        "email": "emebcastelinho@hotmail.com",
        "name": "Escola Municipal de Ensino Básico João Domingos Fassarella",
        "phone": "+55 28 99902 5615",
        "source": "IJSN",
        "id": "node/4024905226"
      },
      "geometry": {
        "type": "Point",
        "coordinates": [
          -40.9845198,
          -20.5203917
        ]
      }
    },
    {
      "type": "Feature",
      "id": "node/4024905227",
      "properties": {
        "timestamp": "2016-02-25T02:00:09Z",
        "version": 1,
        "changeset": 37426154,
        "IJSN:administra": "Municipal",
        "IJSN:classeCnae": "Fundamental",
        "addr:city": "Vargem Alta",
        "addr:postcode": "29297-000",
        "addr:suburb": "Comunidade Fazenda São Jorge",
        "alt_name": "Escola Municipal de Ensino Básico",
        "amenity": "school",
        "name": "EMEB Fazenda São Jorge",
        "source": "IJSN",
        "id": "node/4024905227"
      },
      "geometry": {
        "type": "Point",
        "coordinates": [
          -41.0053011,
          -20.6343491
        ]
      }
    },
    {
      "type": "Feature",
      "id": "node/4024905229",
      "properties": {
        "timestamp": "2016-02-25T02:00:09Z",
        "version": 1,
        "changeset": 37426154,
        "IJSN:administra": "Municipal",
        "IJSN:classeCnae": "Fundamental",
        "addr:city": "Vargem Alta",
        "addr:postcode": "29297-000",
        "addr:suburb": "Comunidade Espírito Santo do Frade",
        "alt_name": "Escola Municipal de Ensino Básico",
        "amenity": "school",
        "name": "EMEB Frade",
        "source": "IJSN",
        "id": "node/4024905229"
      },
      "geometry": {
        "type": "Point",
        "coordinates": [
          -40.9893363,
          -20.8597509
        ]
      }
    },
    {
      "type": "Feature",
      "id": "node/4024905230",
      "properties": {
        "timestamp": "2016-02-25T02:00:10Z",
        "version": 1,
        "changeset": 37426154,
        "IJSN:administra": "Municipal",
        "IJSN:classeCnae": "Infantil e Fundamental",
        "addr:city": "Vargem Alta",
        "addr:postcode": "29297-000",
        "addr:street": "Rua Projetada",
        "addr:suburb": "Comunidade São José de Fruteira",
        "alt_name": "Escola Municipal de Ensino Básico",
        "amenity": "school",
        "name": "EMEB Fruteiras Novas",
        "source": "IJSN",
        "id": "node/4024905230"
      },
      "geometry": {
        "type": "Point",
        "coordinates": [
          -41.0228213,
          -20.5945216
        ]
      }
    },
    {
      "type": "Feature",
      "id": "node/4024905231",
      "properties": {
        "timestamp": "2016-02-25T02:00:10Z",
        "version": 1,
        "changeset": 37426154,
        "IJSN:administra": "Municipal",
        "IJSN:classeCnae": "Fundamental",
        "addr:city": "Vargem Alta",
        "addr:postcode": "29297-000",
        "addr:suburb": "Comunidade Guiomar",
        "alt_name": "Escola Municipal de Ensino Básico",
        "amenity": "school",
        "name": "EMEB Guiomar",
        "source": "IJSN",
        "id": "node/4024905231"
      },
      "geometry": {
        "type": "Point",
        "coordinates": [
          -40.9452286,
          -20.6402636
        ]
      }
    },
    {
      "type": "Feature",
      "id": "node/4024905233",
      "properties": {
        "timestamp": "2016-02-25T02:00:10Z",
        "version": 1,
        "changeset": 37426154,
        "IJSN:administra": "Municipal",
        "IJSN:classeCnae": "Fundamental",
        "addr:city": "Vargem Alta",
        "addr:postcode": "29297-000",
        "addr:suburb": "Comunidade Concórdia",
        "alt_name": "Escola Municipal de Ensino Básico",
        "amenity": "school",
        "name": "EMEB Itabira",
        "source": "IJSN",
        "id": "node/4024905233"
      },
      "geometry": {
        "type": "Point",
        "coordinates": [
          -40.9917912,
          -20.7763781
        ]
      }
    },
    {
      "type": "Feature",
      "id": "node/4024905235",
      "properties": {
        "timestamp": "2023-06-01T19:18:31Z",
        "version": 2,
        "changeset": 136843945,
        "IJSN:administra": "Municipal",
        "IJSN:classeCnae": "Fundamental",
        "addr:city": "Vargem Alta",
        "addr:postcode": "29297-000",
        "addr:street": "Rua Projetada",
        "addr:suburb": "Boa Esperança",
        "alt_name": "EMEB José Helvécio Altoé",
        "amenity": "school",
        "contact:phone": "+55 28 3525 1085;+55 28 3525 2310",
        "name": "Escola Municipal de Ensino Básico José Helvécio Altoé",
        "operator": "Município de Vargem Alta",
        "operator:type": "public",
        "source": "IJSN",
        "id": "node/4024905235"
      },
      "geometry": {
        "type": "Point",
        "coordinates": [
          -41.0112412,
          -20.7220522
        ]
      }
    },
    {
      "type": "Feature",
      "id": "node/4024905236",
      "properties": {
        "timestamp": "2016-02-25T02:00:10Z",
        "version": 1,
        "changeset": 37426154,
        "IJSN:administra": "Municipal",
        "IJSN:classeCnae": "Fundamental",
        "addr:city": "Vargem Alta",
        "addr:postcode": "29297-000",
        "addr:suburb": "Comunidade Paraíso",
        "alt_name": "Escola Municipal de Ensino Básico",
        "amenity": "school",
        "name": "EMEB Paraíso",
        "source": "IJSN",
        "id": "node/4024905236"
      },
      "geometry": {
        "type": "Point",
        "coordinates": [
          -40.9770805,
          -20.7469649
        ]
      }
    },
    {
      "type": "Feature",
      "id": "node/4024905237",
      "properties": {
        "timestamp": "2016-02-25T02:00:11Z",
        "version": 1,
        "changeset": 37426154,
        "IJSN:administra": "Municipal",
        "IJSN:classeCnae": "Infantil e Fundamental",
        "addr:city": "Vargem Alta",
        "addr:postcode": "29297-000",
        "addr:suburb": "Comunidade Pedra Branca",
        "alt_name": "Escola Municipal de Ensino Básico",
        "amenity": "school",
        "contact:phone": "(28) 3560-3327",
        "name": "EMEB Pedra Branca",
        "source": "IJSN",
        "id": "node/4024905237"
      },
      "geometry": {
        "type": "Point",
        "coordinates": [
          -41.0691816,
          -20.6930133
        ]
      }
    },
    {
      "type": "Feature",
      "id": "node/4024905238",
      "properties": {
        "timestamp": "2016-02-25T02:00:11Z",
        "version": 1,
        "changeset": 37426154,
        "IJSN:administra": "Municipal",
        "IJSN:classeCnae": "Fundamental",
        "addr:city": "Vargem Alta",
        "addr:postcode": "29295-000",
        "addr:street": "Rua Caetano Vanini",
        "addr:suburb": "Comunidade São José de Fruteira",
        "alt_name": "Escola Municipal de Ensino Básico",
        "amenity": "school",
        "contact:phone": "(28) 3528-2159",
        "name": "EMEB Pedro Milaneze Altoé",
        "source": "IJSN",
        "id": "node/4024905238"
      },
      "geometry": {
        "type": "Point",
        "coordinates": [
          -41.0300505,
          -20.6049286
        ]
      }
    },
    {
      "type": "Feature",
      "id": "node/4024905240",
      "properties": {
        "timestamp": "2016-02-25T02:00:11Z",
        "version": 1,
        "changeset": 37426154,
        "IJSN:administra": "Municipal",
        "IJSN:classeCnae": "Infantil e Fundamental",
        "addr:city": "Vargem Alta",
        "addr:postcode": "29297-000",
        "addr:suburb": "Comunidade Richmond",
        "alt_name": "Escola Municipal de Ensino Básico",
        "amenity": "school",
        "name": "EMEB Richimond",
        "source": "IJSN",
        "id": "node/4024905240"
      },
      "geometry": {
        "type": "Point",
        "coordinates": [
          -40.9555892,
          -20.6758163
        ]
      }
    },
    {
      "type": "Feature",
      "id": "node/4024905242",
      "properties": {
        "timestamp": "2016-02-25T02:00:11Z",
        "version": 1,
        "changeset": 37426154,
        "IJSN:administra": "Municipal",
        "IJSN:classeCnae": "Infantil e Fundamental",
        "addr:city": "Vargem Alta",
        "addr:postcode": "29297-000",
        "addr:suburb": "Comunidade Pombal de Cima",
        "alt_name": "Escola Municipal de Ensino Básico",
        "amenity": "school",
        "name": "EMEB Santa Luzia do Pombal",
        "source": "IJSN",
        "id": "node/4024905242"
      },
      "geometry": {
        "type": "Point",
        "coordinates": [
          -40.9950837,
          -20.5955193
        ]
      }
    },
    {
      "type": "Feature",
      "id": "node/4024905243",
      "properties": {
        "timestamp": "2016-02-25T02:00:12Z",
        "version": 1,
        "changeset": 37426154,
        "IJSN:administra": "Municipal",
        "IJSN:classeCnae": "Infantil e Fundamental",
        "addr:city": "Vargem Alta",
        "addr:postcode": "29297-000",
        "addr:suburb": "Comunidade Vila Maria",
        "alt_name": "Escola Municipal de Ensino Básico",
        "amenity": "school",
        "contact:phone": "(28) 3528-4387",
        "name": "EMEB Santa Maria",
        "source": "IJSN",
        "id": "node/4024905243"
      },
      "geometry": {
        "type": "Point",
        "coordinates": [
          -40.9918998,
          -20.5441875
        ]
      }
    },
    {
      "type": "Feature",
      "id": "node/4024905244",
      "properties": {
        "timestamp": "2016-02-25T02:00:12Z",
        "version": 1,
        "changeset": 37426154,
        "IJSN:administra": "Municipal",
        "IJSN:classeCnae": "Fundamental",
        "addr:city": "Vargem Alta",
        "addr:postcode": "29297-000",
        "addr:suburb": "Comunidade Santana",
        "alt_name": "Escola Municipal de Ensino Básico",
        "amenity": "school",
        "name": "EMEB Santana",
        "source": "IJSN",
        "id": "node/4024905244"
      },
      "geometry": {
        "type": "Point",
        "coordinates": [
          -41.0677337,
          -20.7067825
        ]
      }
    },
    {
      "type": "Feature",
      "id": "node/4024905245",
      "properties": {
        "timestamp": "2016-02-25T02:00:12Z",
        "version": 1,
        "changeset": 37426154,
        "IJSN:administra": "Municipal",
        "IJSN:classeCnae": "Fundamental",
        "addr:city": "Vargem Alta",
        "addr:postcode": "29297-000",
        "addr:suburb": "Comunidade Santo Antônio",
        "alt_name": "Escola Municipal de Ensino Básico",
        "amenity": "school",
        "name": "EMEB Santo Antônio",
        "source": "IJSN",
        "id": "node/4024905245"
      },
      "geometry": {
        "type": "Point",
        "coordinates": [
          -41.0488726,
          -20.6909393
        ]
      }
    },
    {
      "type": "Feature",
      "id": "node/4024905246",
      "properties": {
        "timestamp": "2016-02-25T02:00:12Z",
        "version": 1,
        "changeset": 37426154,
        "IJSN:administra": "Municipal",
        "IJSN:classeCnae": "Fundamental",
        "addr:city": "Vargem Alta",
        "addr:postcode": "29297-000",
        "addr:suburb": "Comunidade Sossego",
        "alt_name": "Escola Municipal de Ensino Básico",
        "amenity": "school",
        "name": "EMEB Sossego",
        "source": "IJSN",
        "id": "node/4024905246"
      },
      "geometry": {
        "type": "Point",
        "coordinates": [
          -41.0082074,
          -20.8342483
        ]
      }
    },
    {
      "type": "Feature",
      "id": "node/4024905247",
      "properties": {
        "timestamp": "2016-02-25T02:00:12Z",
        "version": 1,
        "changeset": 37426154,
        "IJSN:administra": "Municipal",
        "IJSN:classeCnae": "Fundamental",
        "addr:city": "Vargem Alta",
        "addr:postcode": "29297-000",
        "addr:suburb": "Comunidade Sumidouro",
        "alt_name": "Escola Municipal de Ensino Básico",
        "amenity": "school",
        "name": "EMEB Sumidouro",
        "source": "IJSN",
        "id": "node/4024905247"
      },
      "geometry": {
        "type": "Point",
        "coordinates": [
          -41.0624184,
          -20.6209995
        ]
      }
    },
    {
      "type": "Feature",
      "id": "node/4024905248",
      "properties": {
        "timestamp": "2016-02-25T02:00:12Z",
        "version": 1,
        "changeset": 37426154,
        "IJSN:administra": "Municipal",
        "IJSN:classeCnae": "Fundamental",
        "addr:city": "Vargem Alta",
        "addr:postcode": "29297-000",
        "addr:suburb": "Comunidade Concórdia",
        "alt_name": "Escola Municipal de Ensino Básico",
        "amenity": "school",
        "name": "EMEB São Valentim",
        "source": "IJSN",
        "id": "node/4024905248"
      },
      "geometry": {
        "type": "Point",
        "coordinates": [
          -40.9879269,
          -20.7609167
        ]
      }
    },
    {
      "type": "Feature",
      "id": "node/4024905249",
      "properties": {
        "timestamp": "2016-02-25T02:00:12Z",
        "version": 1,
        "changeset": 37426154,
        "IJSN:administra": "Municipal",
        "IJSN:classeCnae": "Infantil e Fundamental",
        "addr:city": "Vargem Alta",
        "addr:postcode": "29297-000",
        "addr:suburb": "Comunidade Taquaraçu",
        "alt_name": "Escola Municipal de Ensino Básico",
        "amenity": "school",
        "name": "EMEB Taquarassu",
        "source": "IJSN",
        "id": "node/4024905249"
      },
      "geometry": {
        "type": "Point",
        "coordinates": [
          -40.988446,
          -20.5649733
        ]
      }
    },
    {
      "type": "Feature",
      "id": "node/4024906323",
      "properties": {
        "timestamp": "2016-02-25T02:02:02Z",
        "version": 1,
        "changeset": 37426154,
        "IJSN:administra": "Municipal",
        "IJSN:classeCnae": "Fundamental",
        "addr:city": "Alfredo Chaves",
        "addr:postcode": "29240-000",
        "addr:suburb": "Comunidade Ipêaçú",
        "alt_name": "Escola Municipal Unidocente de Ensino Fundamental",
        "amenity": "school",
        "name": "EMUEF Ipê Açú",
        "source": "IJSN",
        "id": "node/4024906323"
      },
      "geometry": {
        "type": "Point",
        "coordinates": [
          -40.9106676,
          -20.6251618
        ]
      }
    },
    {
      "type": "Feature",
      "id": "node/10950806113",
      "properties": {
        "timestamp": "2023-06-04T01:22:17Z",
        "version": 1,
        "changeset": 136919146,
        "IJSN:administra": "Privada",
        "IJSN:classeCnae": "Infantil e Fundamental",
        "addr:city": "Vargem Alta",
        "addr:housenumber": "57",
        "addr:postcode": "29295-000",
        "addr:street": "Rua Projetada",
        "addr:suburb": "Vila Esperança",
        "amenity": "school",
        "contact:phone": "+55 28 99886 1530",
        "email": "elienecalvi@gmail.com",
        "name": "Colégio Expoente de Vargem Alta",
        "operator": "Colégio Expoente Vargem Alta Limitada",
        "source": "IJSN",
        "id": "node/10950806113"
      },
      "geometry": {
        "type": "Point",
        "coordinates": [
          -41.0254395,
          -20.6541671
        ]
      }
    }
  ]
}
