{
  "type": "FeatureCollection",
  "features": [
    {
      "type": "Feature",
      "id": "way/864313336",
      "properties": {
        "timestamp": "2020-10-28T12:30:57Z",
        "version": 2,
        "changeset": 93180399,
        "building": "yes",
        "government": "education",
        "name": "secretaria de educação",
        "office": "government",
        "id": "way/864313336"
      },
      "geometry": {
        "type": "Polygon",
        "coordinates": [
          [
            [
              -42.858054,
              -6.2491167
            ],
            [
              -42.85802,
              -6.2493053
            ],
            [
              -42.8579232,
              -6.2492881
            ],
            [
              -42.8579572,
              -6.2490995
            ],
            [
              -42.858054,
              -6.2491167
            ]
          ]
        ]
      }
    },
    {
      "type": "Feature",
      "id": "way/873278782",
      "properties": {
        "timestamp": "2020-11-23T00:27:39Z",
        "version": 3,
        "changeset": 94602746,
        "addr:city": "São Francisco do Maranhão",
        "addr:housenumber": "42",
        "addr:postcode": "65650-000",
        "addr:street": "Rua Soares Quadros",
        "addr:suburb": "Centro",
        "building": "yes",
        "government": "legislative",
        "name": "Câmara Municipal de São Francisco do Maranhão",
        "office": "government",
        "opening_hours": "Mo-Fr 08:00-13:00",
        "website": "https://cmsaofranciscodomaranhao.ma.gov.br/",
        "id": "way/873278782"
      },
      "geometry": {
        "type": "Polygon",
        "coordinates": [
          [
            [
              -42.8575677,
              -6.2496432
            ],
            [
              -42.857487,
              -6.2497678
            ],
            [
              -42.8573652,
              -6.2496898
            ],
            [
              -42.8574219,
              -6.2496479
            ],
            [
              -42.8573696,
              -6.2496145
            ],
            [
              -42.8574145,
              -6.2495452
            ],
            [
              -42.8575677,
              -6.2496432
            ]
          ]
        ]
      }
    },
    {
      "type": "Feature",
      "id": "node/8152537077",
      "properties": {
        "timestamp": "2020-11-23T00:27:39Z",
        "version": 1,
        "changeset": 94602746,
        "addr:city": "São Francisco do Maranhão",
        "addr:postcode": "65650-000",
        "addr:street": "Praça da Matriz",
        "addr:suburb": "Centro",
        "government": "administrative",
        "name": "Prefeitura Municipal de São Francisco do Maranhão",
        "office": "government",
        "opening_hours": "Mo-Fr 08:00-13:00",
        "website": "https://www.saofranciscodomaranhao.ma.gov.br/",
        "id": "node/8152537077"
      },
      "geometry": {
        "type": "Point",
        "coordinates": [
          -42.8574979,
          -6.2510389
        ]
      }
    }
  ]
}
