{
  "type": "FeatureCollection",
  "features": [
    {
      "type": "Feature",
      "id": "way/506399462",
      "properties": {
        "timestamp": "2020-11-22T18:45:38Z",
        "version": 2,
        "changeset": 94594865,
        "addr:city": "São Francisco do Maranhão",
        "addr:postcode": "65650-000",
        "addr:suburb": "Povoado Tapera",
        "amenity": "school",
        "name": "EM - Manoel Alves de Jesus",
        "id": "way/506399462"
      },
      "geometry": {
        "type": "Polygon",
        "coordinates": [
          [
            [
              -42.8574513,
              -6.3047717
            ],
            [
              -42.8574225,
              -6.3049919
            ],
            [
              -42.8571787,
              -6.3049604
            ],
            [
              -42.8572074,
              -6.3047403
            ],
            [
              -42.8574513,
              -6.3047717
            ]
          ]
        ]
      }
    },
    {
      "type": "Feature",
      "id": "way/506617483",
      "properties": {
        "timestamp": "2020-11-22T20:38:34Z",
        "version": 2,
        "changeset": 94597971,
        "addr:city": "São Francisco do Maranhão",
        "addr:postcode": "65650-000",
        "addr:street": "Rua Manoel Soares",
        "amenity": "school",
        "name": "UI Sebastião Pereira de Carvalho",
        "id": "way/506617483"
      },
      "geometry": {
        "type": "Polygon",
        "coordinates": [
          [
            [
              -43.1538308,
              -6.2193487
            ],
            [
              -43.1538677,
              -6.2198638
            ],
            [
              -43.1533819,
              -6.2199094
            ],
            [
              -43.1533682,
              -6.2193849
            ],
            [
              -43.1538308,
              -6.2193487
            ]
          ]
        ]
      }
    },
    {
      "type": "Feature",
      "id": "node/8151753015",
      "properties": {
        "timestamp": "2020-11-22T17:44:47Z",
        "version": 1,
        "changeset": 94592615,
        "addr:city": "São Francisco do Maranhão",
        "addr:postcode": "65650-000",
        "addr:suburb": "Povoado Sitio",
        "amenity": "school",
        "name": "EM - Euzebio José da Fonseca",
        "operator": "Municipio",
        "operator:type": "public",
        "phone": "+55 86 9 9452 6298",
        "id": "node/8151753015"
      },
      "geometry": {
        "type": "Point",
        "coordinates": [
          -43.0729293,
          -6.2999281
        ]
      }
    },
    {
      "type": "Feature",
      "id": "node/8151753016",
      "properties": {
        "timestamp": "2020-11-22T17:44:47Z",
        "version": 1,
        "changeset": 94592615,
        "addr:city": "São Francisco do Maranhão",
        "addr:postcode": "65650-000",
        "addr:suburb": "Povoado Pombo",
        "amenity": "school",
        "name": "EM - Martins José Barbosa",
        "operator": "municipio",
        "operator:type": "public",
        "phone": "+55 86 9 9476 8429",
        "id": "node/8151753016"
      },
      "geometry": {
        "type": "Point",
        "coordinates": [
          -43.3082898,
          -6.0084341
        ]
      }
    },
    {
      "type": "Feature",
      "id": "node/8151828734",
      "properties": {
        "timestamp": "2020-11-22T17:59:50Z",
        "version": 1,
        "changeset": 94593408,
        "addr:city": "São Francisco do Maranhão",
        "addr:postcode": "65650-000",
        "addr:suburb": "Povoado Vereda Grande",
        "amenity": "school",
        "name": "EM - Ministra Ester Figueiredo Ferraz",
        "operator": "Municipal",
        "operator:type": "public",
        "phone": "+55 86 9944 3858",
        "id": "node/8151828734"
      },
      "geometry": {
        "type": "Point",
        "coordinates": [
          -43.0255428,
          -6.1466243
        ]
      }
    },
    {
      "type": "Feature",
      "id": "node/8151828735",
      "properties": {
        "timestamp": "2020-11-22T17:59:50Z",
        "version": 1,
        "changeset": 94593408,
        "addr:city": "São Francisco do Maranhão",
        "addr:postcode": "65650-000",
        "addr:suburb": "Pé de Ladeira",
        "amenity": "school",
        "name": "EM - Antônio José Barbosa",
        "operator": "Municipal",
        "operator:type": "public",
        "phone": "+55 86 9947 68429",
        "id": "node/8151828735"
      },
      "geometry": {
        "type": "Point",
        "coordinates": [
          -43.2433724,
          -5.954889
        ]
      }
    },
    {
      "type": "Feature",
      "id": "node/8151910421",
      "properties": {
        "timestamp": "2020-11-22T18:45:38Z",
        "version": 1,
        "changeset": 94594865,
        "addr:city": "São Francisco do Maranhão",
        "addr:postcode": "65650-000",
        "addr:suburb": "Várzea Comprida",
        "amenity": "school",
        "name": "EM - Dona Rita Soares de Carvalho",
        "phone": "+55 86 9 9803 9451",
        "id": "node/8151910421"
      },
      "geometry": {
        "type": "Point",
        "coordinates": [
          -43.1640192,
          -6.1863806
        ]
      }
    },
    {
      "type": "Feature",
      "id": "node/8151910422",
      "properties": {
        "timestamp": "2020-11-22T18:45:38Z",
        "version": 1,
        "changeset": 94594865,
        "addr:city": "São Francisco do Maranhão",
        "addr:postcode": "65650-000",
        "addr:suburb": "Povoado São Bento",
        "amenity": "school",
        "name": "EM - Doutor Soares Quadros",
        "phone": "+55 86 9 9476 8429",
        "id": "node/8151910422"
      },
      "geometry": {
        "type": "Point",
        "coordinates": [
          -43.1468782,
          -6.0128828
        ]
      }
    },
    {
      "type": "Feature",
      "id": "node/8151910423",
      "properties": {
        "timestamp": "2020-11-22T18:45:38Z",
        "version": 1,
        "changeset": 94594865,
        "addr:city": "São Francisco do Maranhão",
        "addr:postcode": "65650-000",
        "addr:suburb": "Povoado Brilhante",
        "amenity": "school",
        "name": "EM - Gal Artur de Carvalho",
        "phone": "+55 86 9 9452 6298",
        "id": "node/8151910423"
      },
      "geometry": {
        "type": "Point",
        "coordinates": [
          -43.1060143,
          -6.3285113
        ]
      }
    },
    {
      "type": "Feature",
      "id": "node/8151910424",
      "properties": {
        "timestamp": "2020-11-22T18:45:38Z",
        "version": 1,
        "changeset": 94594865,
        "addr:city": "São Francisco do Maranhão",
        "addr:postcode": "65650-000",
        "addr:suburb": "Povoado Vaquejador",
        "amenity": "school",
        "name": "EM - Joaquim José Pacheco",
        "phone": "+55 86 9 9452 6298",
        "id": "node/8151910424"
      },
      "geometry": {
        "type": "Point",
        "coordinates": [
          -43.1132391,
          -6.3046728
        ]
      }
    },
    {
      "type": "Feature",
      "id": "node/8151910425",
      "properties": {
        "timestamp": "2020-11-22T18:45:38Z",
        "version": 1,
        "changeset": 94594865,
        "addr:city": "São Francisco do Maranhão",
        "addr:postcode": "65650-000",
        "addr:suburb": "Povoado Pedrinhas",
        "amenity": "school",
        "name": "EM - Jośe Bonifacio Soares Ferraz",
        "phone": "+55 86 9 9452 6298",
        "id": "node/8151910425"
      },
      "geometry": {
        "type": "Point",
        "coordinates": [
          -43.2047597,
          -6.2653441
        ]
      }
    },
    {
      "type": "Feature",
      "id": "node/8151910426",
      "properties": {
        "timestamp": "2020-11-22T18:45:38Z",
        "version": 1,
        "changeset": 94594865,
        "addr:city": "São Francisco do Maranhão",
        "addr:postcode": "65650-000",
        "addr:suburb": "Povoado Candeia Torta",
        "amenity": "school",
        "name": "EM - Deputado José de Ribamar Elouf",
        "phone": "+55 86 9 9461 6650",
        "id": "node/8151910426"
      },
      "geometry": {
        "type": "Point",
        "coordinates": [
          -42.9324752,
          -6.3870839
        ]
      }
    },
    {
      "type": "Feature",
      "id": "node/8151910427",
      "properties": {
        "timestamp": "2020-11-22T18:45:38Z",
        "version": 1,
        "changeset": 94594865,
        "addr:city": "São Francisco do Maranhão",
        "addr:postcode": "65650-000",
        "addr:suburb": "Povoado Piquizeiro",
        "amenity": "school",
        "name": "EM - João Eduardo Ramalho",
        "phone": "+55 86 9 9476 8429",
        "id": "node/8151910427"
      },
      "geometry": {
        "type": "Point",
        "coordinates": [
          -43.1544423,
          -6.0675121
        ]
      }
    },
    {
      "type": "Feature",
      "id": "node/8151910428",
      "properties": {
        "timestamp": "2020-11-22T18:45:38Z",
        "version": 1,
        "changeset": 94594865,
        "addr:city": "São Francisco do Maranhão",
        "addr:postcode": "65650-000",
        "addr:suburb": "Povoado Lagoa do Luisão",
        "amenity": "school",
        "name": "EM - Luis Emanoel Ribeiro",
        "phone": "+55 86 9 9452 6298",
        "id": "node/8151910428"
      },
      "geometry": {
        "type": "Point",
        "coordinates": [
          -43.1862272,
          -6.296833
        ]
      }
    },
    {
      "type": "Feature",
      "id": "node/8151910429",
      "properties": {
        "timestamp": "2020-11-22T18:45:38Z",
        "version": 1,
        "changeset": 94594865,
        "addr:city": "São Francisco do Maranhão",
        "addr:postcode": "65650-000",
        "addr:suburb": "Povoado Ribeirão Azul",
        "amenity": "school",
        "name": "EM - Osvaldo Cruz",
        "phone": "+55 86 9 9482 9010",
        "id": "node/8151910429"
      },
      "geometry": {
        "type": "Point",
        "coordinates": [
          -43.0881524,
          -5.9500114
        ]
      }
    },
    {
      "type": "Feature",
      "id": "node/8152083029",
      "properties": {
        "timestamp": "2020-11-22T20:38:34Z",
        "version": 1,
        "changeset": 94597971,
        "addr:city": "São Francisco do Maranhão",
        "addr:postcode": "65650-000",
        "addr:suburb": "Povado Boa Vista",
        "amenity": "school",
        "name": "EM Pedro Moreira Pacheco",
        "phone": "+55 86 9 9803 9451",
        "id": "node/8152083029"
      },
      "geometry": {
        "type": "Point",
        "coordinates": [
          -43.215921,
          -6.1338145
        ]
      }
    },
    {
      "type": "Feature",
      "id": "node/8152083030",
      "properties": {
        "timestamp": "2020-11-22T20:38:34Z",
        "version": 1,
        "changeset": 94597971,
        "addr:city": "São Francisco do Maranhão",
        "addr:postcode": "65650-000",
        "addr:suburb": "Povoado Bezerro",
        "amenity": "school",
        "name": "EM Ronaldo Costa Couto",
        "phone": "+55 86 9 9985 0947",
        "id": "node/8152083030"
      },
      "geometry": {
        "type": "Point",
        "coordinates": [
          -43.0137149,
          -6.4076486
        ]
      }
    },
    {
      "type": "Feature",
      "id": "node/8152083031",
      "properties": {
        "timestamp": "2020-11-22T20:38:34Z",
        "version": 1,
        "changeset": 94597971,
        "addr:city": "São Francisco do Maranhão",
        "addr:postcode": "65650-000",
        "addr:suburb": "Povoado Cabeceira Do Brejal",
        "amenity": "school",
        "name": "EM Sebastião Ayres",
        "id": "node/8152083031"
      },
      "geometry": {
        "type": "Point",
        "coordinates": [
          -43.1394918,
          -6.3450229
        ]
      }
    },
    {
      "type": "Feature",
      "id": "node/8152083032",
      "properties": {
        "timestamp": "2020-11-22T20:38:34Z",
        "version": 1,
        "changeset": 94597971,
        "addr:city": "São Francisco do Maranhão",
        "addr:housenumber": "000",
        "addr:postcode": "65650-000",
        "addr:street": "Rua Francisco Alves Nepomuceno",
        "addr:suburb": "Centro",
        "amenity": "school",
        "name": "EM Senador Bernadino Viana",
        "id": "node/8152083032"
      },
      "geometry": {
        "type": "Point",
        "coordinates": [
          -42.8585439,
          -6.254617
        ]
      }
    },
    {
      "type": "Feature",
      "id": "node/8152083033",
      "properties": {
        "timestamp": "2020-11-22T20:38:34Z",
        "version": 1,
        "changeset": 94597971,
        "amenity": "school",
        "name": "EM Princesa Isabel",
        "id": "node/8152083033"
      },
      "geometry": {
        "type": "Point",
        "coordinates": [
          -42.8612182,
          -6.2472869
        ]
      }
    },
    {
      "type": "Feature",
      "id": "node/8152083034",
      "properties": {
        "timestamp": "2020-11-22T20:38:34Z",
        "version": 1,
        "changeset": 94597971,
        "addr:city": "São Francisco do Maranhão",
        "addr:postcode": "65650-000",
        "amenity": "school",
        "name": "EM Santa Teresinha",
        "phone": "+55 86 9 9985 0947",
        "id": "node/8152083034"
      },
      "geometry": {
        "type": "Point",
        "coordinates": [
          -42.988903,
          -6.3953258
        ]
      }
    },
    {
      "type": "Feature",
      "id": "node/8152083035",
      "properties": {
        "timestamp": "2020-11-22T20:38:34Z",
        "version": 1,
        "changeset": 94597971,
        "addr:city": "São Francisco do Maranhão",
        "addr:postcode": "65650-000",
        "amenity": "school",
        "name": "EM Valdir Arco Verde",
        "phone": "+55 86 9 9985 0947",
        "id": "node/8152083035"
      },
      "geometry": {
        "type": "Point",
        "coordinates": [
          -43.0579915,
          -6.3912333
        ]
      }
    },
    {
      "type": "Feature",
      "id": "node/8152083036",
      "properties": {
        "timestamp": "2020-11-22T20:38:34Z",
        "version": 1,
        "changeset": 94597971,
        "addr:city": "São Francisco do Maranhão",
        "addr:postcode": "65650-000",
        "addr:street": "Travessa 7 de Setembro",
        "addr:suburb": "Povoado Mimoso",
        "amenity": "school",
        "name": "JI Francisco G de Morais",
        "phone": "+55 86 9 9452 6298",
        "id": "node/8152083036"
      },
      "geometry": {
        "type": "Point",
        "coordinates": [
          -43.15245,
          -6.21896
        ]
      }
    },
    {
      "type": "Feature",
      "id": "node/8152083043",
      "properties": {
        "timestamp": "2020-11-22T20:38:34Z",
        "version": 1,
        "changeset": 94597971,
        "addr:city": "São Francisco do Maranhão",
        "addr:postcode": "65650-000",
        "addr:suburb": "Povoado Caibira Norte",
        "amenity": "school",
        "name": "JI Cesar Augusto",
        "phone": "+55 86 9 9461 6650",
        "id": "node/8152083043"
      },
      "geometry": {
        "type": "Point",
        "coordinates": [
          -42.8793083,
          -6.4196065
        ]
      }
    },
    {
      "type": "Feature",
      "id": "node/8152083044",
      "properties": {
        "timestamp": "2020-11-22T20:38:34Z",
        "version": 1,
        "changeset": 94597971,
        "addr:city": "São Francisco do Maranhão",
        "addr:postcode": "65650-000",
        "addr:street": "Rua Manoel Soares",
        "amenity": "school",
        "name": "EM Pedro Alvares de Alcântara",
        "id": "node/8152083044"
      },
      "geometry": {
        "type": "Point",
        "coordinates": [
          -43.1534356,
          -6.2195351
        ]
      }
    },
    {
      "type": "Feature",
      "id": "node/8152083045",
      "properties": {
        "timestamp": "2020-11-22T20:38:34Z",
        "version": 1,
        "changeset": 94597971,
        "addr:city": "São Francisco do Maranhão",
        "addr:postcode": "65650-000",
        "addr:street": "Rua Hermes Viana",
        "addr:suburb": "Centro",
        "amenity": "school",
        "name": "Centro De Ensino Estado De São Paulo",
        "phone": "+55 86 9950 4529",
        "id": "node/8152083045"
      },
      "geometry": {
        "type": "Point",
        "coordinates": [
          -42.8588011,
          -6.2486817
        ]
      }
    },
    {
      "type": "Feature",
      "id": "node/8152083046",
      "properties": {
        "timestamp": "2020-11-22T20:38:34Z",
        "version": 1,
        "changeset": 94597971,
        "addr:city": "São Francisco do Maranhão",
        "addr:postcode": "65650-000",
        "addr:street": "Rua José Lopes",
        "addr:suburb": "Povoado Caibira Norte",
        "amenity": "school",
        "name": "Em Vereador A Teixeira",
        "id": "node/8152083046"
      },
      "geometry": {
        "type": "Point",
        "coordinates": [
          -42.8796938,
          -6.4203967
        ]
      }
    },
    {
      "type": "Feature",
      "id": "node/8152083047",
      "properties": {
        "timestamp": "2020-11-22T20:38:34Z",
        "version": 1,
        "changeset": 94597971,
        "addr:city": "São Francisco do Maranhão",
        "addr:postcode": "65650-000",
        "addr:suburb": "Povoado Escalvado",
        "amenity": "school",
        "name": "EM Abdias Dias",
        "phone": "+55 86 9 9461 6650",
        "id": "node/8152083047"
      },
      "geometry": {
        "type": "Point",
        "coordinates": [
          -42.8702832,
          -6.4758148
        ]
      }
    },
    {
      "type": "Feature",
      "id": "node/8152083048",
      "properties": {
        "timestamp": "2020-11-22T20:38:34Z",
        "version": 1,
        "changeset": 94597971,
        "addr:city": "São Francisco do Maranhão",
        "addr:postcode": "65650-000",
        "addr:suburb": "Povoado Mimoso",
        "amenity": "school",
        "name": "Centro de Ensino Estado de São Paulo - Anexo I - Mimoso",
        "phone": "+55 86 9950 4529",
        "id": "node/8152083048"
      },
      "geometry": {
        "type": "Point",
        "coordinates": [
          -43.1522918,
          -6.2193146
        ]
      }
    },
    {
      "type": "Feature",
      "id": "node/8152083049",
      "properties": {
        "timestamp": "2020-11-22T20:38:34Z",
        "version": 1,
        "changeset": 94597971,
        "addr:city": "São Francisco do Maranhão",
        "addr:postcode": "65650-000",
        "addr:street": "Rua Edson Lobão",
        "addr:suburb": "Centro",
        "amenity": "school",
        "name": "CE Infantil Dona Conceição Ferreira",
        "phone": "+55 86 9950 2208",
        "id": "node/8152083049"
      },
      "geometry": {
        "type": "Point",
        "coordinates": [
          -42.8603608,
          -6.2510907
        ]
      }
    }
  ]
}
