{
  "type": "FeatureCollection",
  "features": [
    {
      "type": "Feature",
      "id": "node/8796736897",
      "properties": {
        "timestamp": "2021-07-30T14:06:29Z",
        "version": 2,
        "changeset": 108895574,
        "addr:city": "Amarante",
        "addr:postcode": "64400-000",
        "addr:street": "Rua Coronel João Ribeiro Gonçalves Filho",
        "addr:suburb": "Vila Nova",
        "amenity": "pharmacy",
        "dispensing": "yes",
        "healthcare": "pharmacy",
        "name": "Drogaria Ideal",
        "id": "node/8796736897"
      },
      "geometry": {
        "type": "Point",
        "coordinates": [
          -42.8574555,
          -6.2390612
        ]
      }
    },
    {
      "type": "Feature",
      "id": "node/8796745360",
      "properties": {
        "timestamp": "2021-06-04T00:44:30Z",
        "version": 1,
        "changeset": 105805319,
        "addr:city": "Amarante",
        "addr:postcode": "64400-000",
        "addr:street": "Rua Manoel Sobral",
        "addr:suburb": "Centro",
        "amenity": "pharmacy",
        "dispensing": "yes",
        "healthcare": "pharmacy",
        "name": "Amarante Farma",
        "id": "node/8796745360"
      },
      "geometry": {
        "type": "Point",
        "coordinates": [
          -42.8515383,
          -6.2435415
        ]
      }
    },
    {
      "type": "Feature",
      "id": "node/8796745362",
      "properties": {
        "timestamp": "2021-06-04T00:44:30Z",
        "version": 1,
        "changeset": 105805319,
        "addr:city": "Amarante",
        "addr:postcode": "64400-000",
        "addr:street": "Rua Santa Cruz",
        "addr:suburb": "Centro",
        "amenity": "pharmacy",
        "dispensing": "yes",
        "healthcare": "pharmacy",
        "name": "Integral Farma",
        "id": "node/8796745362"
      },
      "geometry": {
        "type": "Point",
        "coordinates": [
          -42.8529982,
          -6.2434659
        ]
      }
    },
    {
      "type": "Feature",
      "id": "node/8796760584",
      "properties": {
        "timestamp": "2021-06-04T00:53:10Z",
        "version": 1,
        "changeset": 105805453,
        "amenity": "pharmacy",
        "dispensing": "yes",
        "healthcare": "pharmacy",
        "name": "Farmacia Carmelita",
        "id": "node/8796760584"
      },
      "geometry": {
        "type": "Point",
        "coordinates": [
          -42.8547263,
          -6.2447731
        ]
      }
    },
    {
      "type": "Feature",
      "id": "node/8796760587",
      "properties": {
        "timestamp": "2021-07-30T14:06:29Z",
        "version": 2,
        "changeset": 108895574,
        "addr:city": "Amarante",
        "addr:postcode": "64400-000",
        "addr:street": "Rua Luís Puca",
        "addr:suburb": "Centro",
        "amenity": "pharmacy",
        "dispensing": "yes",
        "drive_through": "no",
        "healthcare": "pharmacy",
        "name": "Droga Center",
        "id": "node/8796760587"
      },
      "geometry": {
        "type": "Point",
        "coordinates": [
          -42.8542734,
          -6.2452907
        ]
      }
    },
    {
      "type": "Feature",
      "id": "node/8828185006",
      "properties": {
        "timestamp": "2021-06-12T20:06:59Z",
        "version": 1,
        "changeset": 106264909,
        "amenity": "pharmacy",
        "dispensing": "yes",
        "healthcare": "pharmacy",
        "name": "Drogaria Santo Inacio",
        "id": "node/8828185006"
      },
      "geometry": {
        "type": "Point",
        "coordinates": [
          -42.8556857,
          -6.2435053
        ]
      }
    }
  ]
}
