{
  "type": "FeatureCollection",
  "features": [
    {
      "type": "Feature",
      "id": "way/950218942",
      "properties": {
        "timestamp": "2021-06-04T01:06:36Z",
        "version": 1,
        "changeset": 105805631,
        "addr:city": "Amarante",
        "addr:postcode": "64400-000",
        "addr:street": "Avenida Dirceu Arcoverde",
        "addr:suburb": "Centro",
        "amenity": "school",
        "name": "Ceti Polivalente",
        "id": "way/950218942"
      },
      "geometry": {
        "type": "Polygon",
        "coordinates": [
          [
            [
              -42.852235,
              -6.2420157
            ],
            [
              -42.8524877,
              -6.2424139
            ],
            [
              -42.8524676,
              -6.242541
            ],
            [
              -42.8522181,
              -6.2427278
            ],
            [
              -42.8518792,
              -6.242221
            ],
            [
              -42.852235,
              -6.2420157
            ]
          ]
        ]
      }
    },
    {
      "type": "Feature",
      "id": "way/950218944",
      "properties": {
        "timestamp": "2021-06-04T01:06:36Z",
        "version": 1,
        "changeset": 105805631,
        "addr:city": "Amarante",
        "addr:postcode": "64400-000",
        "addr:street": "Avenida Dirceu Arcoverde",
        "addr:suburb": "Centro",
        "amenity": "school",
        "name": "Ceja Otacilia Ramos",
        "id": "way/950218944"
      },
      "geometry": {
        "type": "Polygon",
        "coordinates": [
          [
            [
              -42.8520718,
              -6.2417764
            ],
            [
              -42.852021,
              -6.2416774
            ],
            [
              -42.8522832,
              -6.2415299
            ],
            [
              -42.8523361,
              -6.2416148
            ],
            [
              -42.8520718,
              -6.2417764
            ]
          ]
        ]
      }
    },
    {
      "type": "Feature",
      "id": "way/1215132004",
      "properties": {
        "timestamp": "2023-10-12T18:36:00Z",
        "version": 1,
        "changeset": 142492736,
        "addr:city": "Amarante",
        "addr:postcode": "64400-000",
        "addr:street": "Avenida Petrônio Portela",
        "addr:suburb": "Balão",
        "amenity": "school",
        "name": "U.E M. ANTONIO GRAMOSA",
        "id": "way/1215132004"
      },
      "geometry": {
        "type": "Polygon",
        "coordinates": [
          [
            [
              -42.8453077,
              -6.2467382
            ],
            [
              -42.8451687,
              -6.2476516
            ],
            [
              -42.8442831,
              -6.2475008
            ],
            [
              -42.8444253,
              -6.2466289
            ],
            [
              -42.8453077,
              -6.2467382
            ]
          ]
        ]
      }
    },
    {
      "type": "Feature",
      "id": "way/1215132008",
      "properties": {
        "timestamp": "2023-10-12T18:36:00Z",
        "version": 1,
        "changeset": 142492736,
        "addr:city": "Amarante",
        "addr:postcode": "64400-000",
        "addr:street": "Avenida Afrânio Filho",
        "addr:suburb": "Balão",
        "amenity": "school",
        "name": "U.E Prof. Antônio Castro",
        "id": "way/1215132008"
      },
      "geometry": {
        "type": "Polygon",
        "coordinates": [
          [
            [
              -42.8434751,
              -6.2441157
            ],
            [
              -42.8437007,
              -6.2443097
            ],
            [
              -42.8436397,
              -6.2443824
            ],
            [
              -42.8434853,
              -6.244241
            ],
            [
              -42.8434487,
              -6.2442794
            ],
            [
              -42.8436123,
              -6.2444238
            ],
            [
              -42.8435539,
              -6.2444941
            ],
            [
              -42.8433925,
              -6.2443453
            ],
            [
              -42.8433464,
              -6.24438
            ],
            [
              -42.8432921,
              -6.2443258
            ],
            [
              -42.8434751,
              -6.2441157
            ]
          ]
        ]
      }
    },
    {
      "type": "Feature",
      "id": "node/9484096781",
      "properties": {
        "timestamp": "2022-02-06T18:23:31Z",
        "version": 1,
        "changeset": 117090173,
        "amenity": "school",
        "name": "Unid Esc Profa Otacilia Ramos",
        "phone": "+55 86 3292 1146",
        "id": "node/9484096781"
      },
      "geometry": {
        "type": "Point",
        "coordinates": [
          -42.6926418,
          -6.4439483
        ]
      }
    },
    {
      "type": "Feature",
      "id": "node/9484109457",
      "properties": {
        "timestamp": "2022-02-06T18:26:46Z",
        "version": 1,
        "changeset": 117090274,
        "amenity": "school",
        "name": "Unid Esc Mul Dep Sousa Santos",
        "id": "node/9484109457"
      },
      "geometry": {
        "type": "Point",
        "coordinates": [
          -42.8804849,
          -6.5713105
        ]
      }
    },
    {
      "type": "Feature",
      "id": "node/9484112824",
      "properties": {
        "timestamp": "2022-02-06T18:23:50Z",
        "version": 1,
        "changeset": 117090184,
        "amenity": "school",
        "name": "Unid Esc Mul Sete De Setembro",
        "id": "node/9484112824"
      },
      "geometry": {
        "type": "Point",
        "coordinates": [
          -42.726738,
          -6.4730921
        ]
      }
    },
    {
      "type": "Feature",
      "id": "node/9484536732",
      "properties": {
        "timestamp": "2022-02-06T21:04:39Z",
        "version": 1,
        "changeset": 117094713,
        "amenity": "school",
        "name": "Unid Esc Mul Perpetua Moura",
        "id": "node/9484536732"
      },
      "geometry": {
        "type": "Point",
        "coordinates": [
          -42.6978265,
          -6.3526042
        ]
      }
    },
    {
      "type": "Feature",
      "id": "node/9486320784",
      "properties": {
        "timestamp": "2023-10-12T18:36:00Z",
        "version": 3,
        "changeset": 142492736,
        "addr:city": "Amarante",
        "addr:housenumber": "680",
        "addr:postcode": "64400-000",
        "addr:street": "Avenida Petrônio Portela",
        "addr:suburb": "Escalvado",
        "amenity": "school",
        "name": "U E Da Costa E Silva",
        "id": "node/9486320784"
      },
      "geometry": {
        "type": "Point",
        "coordinates": [
          -42.8464559,
          -6.2468763
        ]
      }
    },
    {
      "type": "Feature",
      "id": "node/9486324015",
      "properties": {
        "timestamp": "2022-02-07T13:25:20Z",
        "version": 1,
        "changeset": 117119624,
        "amenity": "school",
        "name": "Unid Esc Mul Prof Lourenco Brandao",
        "id": "node/9486324015"
      },
      "geometry": {
        "type": "Point",
        "coordinates": [
          -42.6980706,
          -6.3761928
        ]
      }
    },
    {
      "type": "Feature",
      "id": "node/9486336892",
      "properties": {
        "timestamp": "2022-02-07T13:29:32Z",
        "version": 1,
        "changeset": 117119811,
        "addr:city": "Amarante",
        "addr:housenumber": "123",
        "addr:postcode": "64400-000",
        "addr:street": "Rua Álvaro Mendes",
        "addr:suburb": "Centro",
        "amenity": "school",
        "name": "U E Eduardo Ferreira",
        "id": "node/9486336892"
      },
      "geometry": {
        "type": "Point",
        "coordinates": [
          -42.8541429,
          -6.24362
        ]
      }
    },
    {
      "type": "Feature",
      "id": "node/9486361238",
      "properties": {
        "timestamp": "2022-02-07T13:28:57Z",
        "version": 1,
        "changeset": 117119785,
        "addr:city": "Amarante",
        "addr:postcode": "64400-000",
        "addr:street": "Avenida Afranio Filho",
        "addr:suburb": "Escalvado",
        "amenity": "school",
        "name": "U E Prof Antonio Castro",
        "phone": "+55 86 3292 1805",
        "id": "node/9486361238"
      },
      "geometry": {
        "type": "Point",
        "coordinates": [
          -42.84972,
          -6.2423295
        ]
      }
    },
    {
      "type": "Feature",
      "id": "node/9486407847",
      "properties": {
        "timestamp": "2022-02-07T13:26:28Z",
        "version": 1,
        "changeset": 117119679,
        "amenity": "school",
        "name": "Unid Esc Mul Pedro Rabelo Da Paixao",
        "id": "node/9486407847"
      },
      "geometry": {
        "type": "Point",
        "coordinates": [
          -42.7722014,
          -6.361617
        ]
      }
    },
    {
      "type": "Feature",
      "id": "node/9486447170",
      "properties": {
        "timestamp": "2022-02-07T13:32:33Z",
        "version": 1,
        "changeset": 117119940,
        "addr:city": "Amarante",
        "addr:housenumber": "53",
        "addr:postcode": "64400-000",
        "addr:street": "Rua Abdon Moura",
        "addr:suburb": "Centro",
        "amenity": "school",
        "name": "Escola Pitagoras",
        "id": "node/9486447170"
      },
      "geometry": {
        "type": "Point",
        "coordinates": [
          -42.8545775,
          -6.2468675
        ]
      }
    },
    {
      "type": "Feature",
      "id": "node/9486534716",
      "properties": {
        "timestamp": "2022-02-07T13:34:22Z",
        "version": 1,
        "changeset": 117120020,
        "addr:city": "Amarante",
        "addr:housenumber": "1550",
        "addr:postcode": "64400-000",
        "addr:street": "Rua Tomaz Brandão",
        "addr:suburb": "Areias",
        "amenity": "school",
        "name": "Unid Esc Luiz Mendes Ribeiro Goncalves",
        "id": "node/9486534716"
      },
      "geometry": {
        "type": "Point",
        "coordinates": [
          -42.858177,
          -6.2349091
        ]
      }
    }
  ]
}
