{
  "type": "FeatureCollection",
  "features": [
    {
      "type": "Feature",
      "id": "node/7830061269",
      "properties": {
        "timestamp": "2020-08-20T16:01:54Z",
        "version": 1,
        "changeset": 89701137,
        "amenity": "dentist",
        "healthcare": "dentist",
        "name": "Centro odontologico do Povo",
        "id": "node/7830061269"
      },
      "geometry": {
        "type": "Point",
        "coordinates": [
          -46.4774718,
          -24.0258207
        ]
      }
    },
    {
      "type": "Feature",
      "id": "node/9137859072",
      "properties": {
        "timestamp": "2021-10-01T14:11:20Z",
        "version": 1,
        "changeset": 111965984,
        "addr:city": "Praia Grande",
        "addr:housenumber": "24, sala 21",
        "addr:postcode": "11704180",
        "addr:street": "Rua Paula Ney",
        "addr:suburb": "Ocian",
        "amenity": "dentist",
        "healthcare": "dentist",
        "healthcare:speciality": "general",
        "name": "Dra. Luana Dagostini Odontologia Especializada e Harmonização Orofacial",
        "opening_hours": "Mo-Su 08:00-19:00",
        "id": "node/9137859072"
      },
      "geometry": {
        "type": "Point",
        "coordinates": [
          -46.4709039,
          -24.0282141
        ]
      }
    }
  ]
}
