{
  "type": "FeatureCollection",
  "features": [
    {
      "type": "Feature",
      "id": "way/1174358425",
      "properties": {
        "timestamp": "2023-05-19T18:38:27Z",
        "version": 1,
        "changeset": 136312105,
        "addr:city": "Praia Grande",
        "addr:housenumber": "1090",
        "addr:postcode": "11706-410",
        "addr:street": "Rua Deputado Laércio Corte",
        "addr:suburb": "Vila Caiçara",
        "brand": "USPESP",
        "building": "yes",
        "internet_access": "yes",
        "internet_access:fee": "customers",
        "name": "Colônia de Férias USPESP",
        "tourism": "hotel",
        "id": "way/1174358425"
      },
      "geometry": {
        "type": "Polygon",
        "coordinates": [
          [
            [
              -46.5316287,
              -24.050983
            ],
            [
              -46.5314215,
              -24.0513634
            ],
            [
              -46.5312474,
              -24.051282
            ],
            [
              -46.5314401,
              -24.0508922
            ],
            [
              -46.5315582,
              -24.050947
            ],
            [
              -46.5316287,
              -24.050983
            ]
          ]
        ]
      }
    },
    {
      "type": "Feature",
      "id": "node/4892531722",
      "properties": {
        "timestamp": "2017-06-02T17:45:45Z",
        "version": 1,
        "changeset": 49203045,
        "addr:housenumber": "409",
        "addr:street": "Avenida Doutor Vicente de Carvalho",
        "tourism": "hotel",
        "id": "node/4892531722"
      },
      "geometry": {
        "type": "Point",
        "coordinates": [
          -46.4772477,
          -24.0261929
        ]
      }
    },
    {
      "type": "Feature",
      "id": "node/5731946510",
      "properties": {
        "timestamp": "2018-07-01T11:45:37Z",
        "version": 1,
        "changeset": 60319957,
        "name": "Pousada PGOne",
        "tourism": "hotel",
        "website": "http://hotelpousadapgone.com.br/",
        "id": "node/5731946510"
      },
      "geometry": {
        "type": "Point",
        "coordinates": [
          -46.4494124,
          -24.019921
        ]
      }
    }
  ]
}
