{
  "type": "FeatureCollection",
  "features": [
    {
      "type": "Feature",
      "id": "way/334266220",
      "properties": {
        "timestamp": "2018-01-24T01:47:51Z",
        "version": 3,
        "changeset": 55700209,
        "addr:city": "Praia Grande",
        "addr:country": "BR",
        "addr:housenumber": "144",
        "addr:postcode": "11700-100",
        "addr:street": "Praça 19 de Janeiro",
        "addr:suburb": "Boqueirão",
        "amenity": "university",
        "contact:phone": "+55 13 3591 6968",
        "loc_name": "FATEC Praia Grande",
        "name": "Faculdade de Tecnologia de Praia Grande",
        "operator": "Centro Paula Souza",
        "phone": "+55 13 3591 1303",
        "id": "way/334266220"
      },
      "geometry": {
        "type": "Polygon",
        "coordinates": [
          [
            [
              -46.4123115,
              -24.0049392
            ],
            [
              -46.412328,
              -24.005362
            ],
            [
              -46.4114068,
              -24.005392
            ],
            [
              -46.4113902,
              -24.0049693
            ],
            [
              -46.4123115,
              -24.0049392
            ]
          ]
        ]
      }
    }
  ]
}
