{
  "type": "FeatureCollection",
  "features": [
    {
      "type": "Feature",
      "id": "node/8517952823",
      "properties": {
        "timestamp": "2021-03-14T15:31:48Z",
        "version": 1,
        "changeset": 100994490,
        "addr:city": "Queimada Nova",
        "addr:postcode": "64758-000",
        "addr:street": "Rua José Cirilo Justiniano",
        "addr:suburb": "Centro",
        "amenity": "pharmacy",
        "dispensing": "yes",
        "healthcare": "pharmacy",
        "name": "Fármacia Rodrigo Júlio",
        "id": "node/8517952823"
      },
      "geometry": {
        "type": "Point",
        "coordinates": [
          -41.418307,
          -8.5806229
        ]
      }
    },
    {
      "type": "Feature",
      "id": "node/8517952824",
      "properties": {
        "timestamp": "2021-03-14T15:31:48Z",
        "version": 1,
        "changeset": 100994490,
        "addr:city": "Queimada Nova",
        "addr:postcode": "64758-000",
        "addr:street": "Rua José Cirilo Justiniano",
        "addr:suburb": "Centro",
        "amenity": "pharmacy",
        "dispensing": "yes",
        "healthcare": "pharmacy",
        "name": "Farmácia Amorim",
        "id": "node/8517952824"
      },
      "geometry": {
        "type": "Point",
        "coordinates": [
          -41.4183834,
          -8.5810844
        ]
      }
    }
  ]
}
