{
  "type": "FeatureCollection",
  "features": [
    {
      "type": "Feature",
      "id": "way/996031915",
      "properties": {
        "timestamp": "2022-08-19T16:18:23Z",
        "version": 4,
        "changeset": 125115960,
        "addr:city": "Nova Veneza",
        "addr:housenumber": "335",
        "addr:postcode": "88865-000",
        "addr:street": "Rua Antônio Remor",
        "addr:suburb": "Centro",
        "amenity": "community_centre",
        "building": "yes",
        "community_centre": "parish_hall",
        "id": "way/996031915"
      },
      "geometry": {
        "type": "Polygon",
        "coordinates": [
          [
            [
              -49.4976448,
              -28.6376434
            ],
            [
              -49.4976448,
              -28.6378565
            ],
            [
              -49.4975857,
              -28.6378565
            ],
            [
              -49.4975857,
              -28.6379024
            ],
            [
              -49.4974932,
              -28.6379024
            ],
            [
              -49.4974932,
              -28.6381131
            ],
            [
              -49.4973055,
              -28.6381131
            ],
            [
              -49.4973055,
              -28.6379024
            ],
            [
              -49.4972196,
              -28.6379024
            ],
            [
              -49.4972196,
              -28.6376434
            ],
            [
              -49.4976448,
              -28.6376434
            ]
          ]
        ]
      }
    },
    {
      "type": "Feature",
      "id": "way/1046022738",
      "properties": {
        "timestamp": "2022-03-29T01:31:24Z",
        "version": 1,
        "changeset": 119045606,
        "addr:city": "Nova Veneza",
        "addr:postcode": "88865-000",
        "addr:street": "Rua Albino Mondardo",
        "addr:suburb": "São Bento Alto",
        "amenity": "community_centre",
        "building": "yes",
        "name": "Centro Comunitário São Bento Alto",
        "id": "way/1046022738"
      },
      "geometry": {
        "type": "Polygon",
        "coordinates": [
          [
            [
              -49.5513912,
              -28.6608702
            ],
            [
              -49.551064,
              -28.6608702
            ],
            [
              -49.5510639,
              -28.6605331
            ],
            [
              -49.5513912,
              -28.6605331
            ],
            [
              -49.5513912,
              -28.6608702
            ]
          ]
        ]
      }
    },
    {
      "type": "Feature",
      "id": "node/4387506386",
      "properties": {
        "timestamp": "2021-08-03T13:21:53Z",
        "version": 3,
        "changeset": 109096157,
        "amenity": "community_centre",
        "contact:facebook": "https://www.facebook.com/ctg.fronteiradaserra#",
        "name": "CTG Fronteira da Serra",
        "id": "node/4387506386"
      },
      "geometry": {
        "type": "Point",
        "coordinates": [
          -49.4997758,
          -28.6625922
        ]
      }
    },
    {
      "type": "Feature",
      "id": "node/8783840879",
      "properties": {
        "timestamp": "2021-05-30T22:39:23Z",
        "version": 1,
        "changeset": 105586755,
        "addr:city": "Nova Veneza",
        "addr:postcode": "88868-000",
        "amenity": "community_centre",
        "name": "Salão Benfeitores",
        "id": "node/8783840879"
      },
      "geometry": {
        "type": "Point",
        "coordinates": [
          -49.4676796,
          -28.6634288
        ]
      }
    },
    {
      "type": "Feature",
      "id": "node/8835995357",
      "properties": {
        "timestamp": "2021-06-15T13:21:22Z",
        "version": 1,
        "changeset": 106404138,
        "addr:city": "Nova Veneza",
        "addr:postcode": "88868-000",
        "amenity": "community_centre",
        "name": "Salão Anchieta",
        "id": "node/8835995357"
      },
      "geometry": {
        "type": "Point",
        "coordinates": [
          -49.4681784,
          -28.6629929
        ]
      }
    },
    {
      "type": "Feature",
      "id": "node/8901059127",
      "properties": {
        "timestamp": "2021-07-07T12:56:48Z",
        "version": 1,
        "changeset": 107565798,
        "addr:city": "Nova Veneza",
        "addr:postcode": "88868-000",
        "addr:street": "Rua São José",
        "amenity": "community_centre",
        "name": "Centro Comunitário Vila São José",
        "id": "node/8901059127"
      },
      "geometry": {
        "type": "Point",
        "coordinates": [
          -49.4676586,
          -28.6545011
        ]
      }
    }
  ]
}
