{
  "type": "FeatureCollection",
  "features": [
    {
      "type": "Feature",
      "id": "node/8777764740",
      "properties": {
        "timestamp": "2022-08-19T16:18:23Z",
        "version": 4,
        "changeset": 125115960,
        "addr:city": "Nova Veneza",
        "addr:postcode": "88868-000",
        "addr:street": "Rua Dília Gava Spillere",
        "addr:suburb": "Nossa Senhora do Caravaggio",
        "government": "administrative",
        "name": "Intendência Distrital Caravaggio",
        "office": "government",
        "id": "node/8777764740"
      },
      "geometry": {
        "type": "Point",
        "coordinates": [
          -49.4677249,
          -28.6641762
        ]
      }
    },
    {
      "type": "Feature",
      "id": "node/8866957829",
      "properties": {
        "timestamp": "2022-08-19T16:18:23Z",
        "version": 3,
        "changeset": 125115960,
        "addr:city": "Nova Veneza",
        "addr:housenumber": "400",
        "addr:postcode": "88865-000",
        "addr:street": "Rua Natal Coral",
        "government": "legislative",
        "name": "Câmara Municipal de Nova Veneza",
        "office": "government",
        "opening_hours": "Mo-Fr 08:00-12:00,13:00-17:00; Sa,Su,PH off",
        "phone": "+55 48 3436-1741",
        "service_times": "Tu 19:00+",
        "website": "https://www.cvnv.sc.gov.br/",
        "id": "node/8866957829"
      },
      "geometry": {
        "type": "Point",
        "coordinates": [
          -49.5100393,
          -28.6321667
        ]
      }
    },
    {
      "type": "Feature",
      "id": "node/9964285357",
      "properties": {
        "timestamp": "2022-08-19T16:18:23Z",
        "version": 1,
        "changeset": 125115960,
        "government": "social_services",
        "name": "Secretaria Municipal de Assistência Social",
        "office": "government",
        "id": "node/9964285357"
      },
      "geometry": {
        "type": "Point",
        "coordinates": [
          -49.4975522,
          -28.63788
        ]
      }
    }
  ]
}
