{
  "type": "FeatureCollection",
  "features": [
    {
      "type": "Feature",
      "id": "way/818983275",
      "properties": {
        "timestamp": "2022-07-29T00:14:37Z",
        "version": 2,
        "changeset": 124207347,
        "addr:city": "Sete Lagoas",
        "addr:housenumber": "135",
        "addr:street": "Rua Teófilo Otoni",
        "addr:suburb": "Chácara do Paiva",
        "fixme": "precisa do ddd 3771-6820",
        "name": "Ministério do Trabalho e Emprego",
        "office": "government",
        "phone_1": "3771-1545",
        "phone_2": "3774-9901",
        "id": "way/818983275"
      },
      "geometry": {
        "type": "Polygon",
        "coordinates": [
          [
            [
              -44.2399491,
              -19.4660169
            ],
            [
              -44.2398942,
              -19.4662142
            ],
            [
              -44.239634,
              -19.4660991
            ],
            [
              -44.2397399,
              -19.4659031
            ],
            [
              -44.2399491,
              -19.4660169
            ]
          ]
        ]
      }
    },
    {
      "type": "Feature",
      "id": "way/1156298231",
      "properties": {
        "timestamp": "2024-01-19T01:35:27Z",
        "version": 5,
        "changeset": 146425638,
        "addr:city": "Sete Lagoas",
        "addr:housenumber": "301",
        "addr:postcode": "35701-019",
        "addr:street": "Avenida José Sérvulo Soalheiro",
        "addr:suburb": "São Pedro",
        "brand": "EMATER-MG",
        "brand:wikidata": "Q123439918",
        "building": "public",
        "building:levels": "3",
        "full_name": "Empresa de Assistência Técnica e Extensão Rural",
        "government": "agriculture",
        "name": "EMATER",
        "office": "government",
        "opening_hours": "Mo-Fr 07:30-12:00,13:00-17:30; PH off",
        "phone": "+55 31 2212-7091",
        "ref:vatin": "19.198.118/0310-83",
        "smoking": "no",
        "website": "https://www.emater.mg.gov.br/",
        "id": "way/1156298231"
      },
      "geometry": {
        "type": "Polygon",
        "coordinates": [
          [
            [
              -44.2352864,
              -19.448261
            ],
            [
              -44.2355777,
              -19.4484087
            ],
            [
              -44.2355231,
              -19.4485083
            ],
            [
              -44.2352846,
              -19.4483898
            ],
            [
              -44.2352864,
              -19.448261
            ]
          ]
        ]
      }
    },
    {
      "type": "Feature",
      "id": "node/2830455759",
      "properties": {
        "timestamp": "2020-03-24T12:37:45Z",
        "version": 2,
        "changeset": 82570843,
        "name": "Casa do Contribuinte",
        "office": "government",
        "id": "node/2830455759"
      },
      "geometry": {
        "type": "Point",
        "coordinates": [
          -44.2453241,
          -19.4645967
        ]
      }
    }
  ]
}
