{
  "type": "FeatureCollection",
  "features": [
    {
      "type": "Feature",
      "id": "way/563674576",
      "properties": {
        "timestamp": "2018-02-23T16:48:24Z",
        "version": 1,
        "changeset": 56614866,
        "amenity": "pharmacy",
        "building": "yes",
        "healthcare": "pharmacy",
        "name": "Drogaria Panorama",
        "id": "way/563674576"
      },
      "geometry": {
        "type": "Polygon",
        "coordinates": [
          [
            [
              -44.2534673,
              -19.4513327
            ],
            [
              -44.2534387,
              -19.4512781
            ],
            [
              -44.2534516,
              -19.4512725
            ],
            [
              -44.2534808,
              -19.4513278
            ],
            [
              -44.2534673,
              -19.4513327
            ]
          ]
        ]
      }
    },
    {
      "type": "Feature",
      "id": "node/2789586706",
      "properties": {
        "timestamp": "2014-06-08T16:49:36Z",
        "version": 2,
        "changeset": 22813467,
        "addr:city": "Sete Lagoas",
        "addr:housenumber": "733",
        "addr:street": "Rua Olavo Bilac",
        "amenity": "pharmacy",
        "name": "Drogaria Santo Antônio",
        "id": "node/2789586706"
      },
      "geometry": {
        "type": "Point",
        "coordinates": [
          -44.2556442,
          -19.4705912
        ]
      }
    },
    {
      "type": "Feature",
      "id": "node/2789621971",
      "properties": {
        "timestamp": "2022-10-12T21:01:39Z",
        "version": 5,
        "changeset": 127436162,
        "addr:housenumber": "5",
        "addr:street": "Praça Francisco Sales",
        "amenity": "pharmacy",
        "healthcare": "pharmacy",
        "name": "Drogaria FarMelhor",
        "id": "node/2789621971"
      },
      "geometry": {
        "type": "Point",
        "coordinates": [
          -44.2440387,
          -19.4619317
        ]
      }
    },
    {
      "type": "Feature",
      "id": "node/2789639769",
      "properties": {
        "timestamp": "2014-04-14T02:37:30Z",
        "version": 1,
        "changeset": 21677677,
        "amenity": "pharmacy",
        "name": "Drogaria Araújo",
        "id": "node/2789639769"
      },
      "geometry": {
        "type": "Point",
        "coordinates": [
          -44.2480566,
          -19.4651759
        ]
      }
    },
    {
      "type": "Feature",
      "id": "node/2797543507",
      "properties": {
        "timestamp": "2014-04-17T19:55:24Z",
        "version": 1,
        "changeset": 21756580,
        "amenity": "pharmacy",
        "name": "Drogaria Lobato",
        "id": "node/2797543507"
      },
      "geometry": {
        "type": "Point",
        "coordinates": [
          -44.2418604,
          -19.4690392
        ]
      }
    },
    {
      "type": "Feature",
      "id": "node/2865071232",
      "properties": {
        "timestamp": "2022-10-12T21:15:41Z",
        "version": 3,
        "changeset": 127436954,
        "addr:city": "Sete Lagoas",
        "addr:housenumber": "2801",
        "addr:street": "Rua Otávio Campelo Ribeiro",
        "amenity": "pharmacy",
        "brand": "Drogaria Araujo",
        "brand:wikidata": "Q10268807",
        "healthcare": "pharmacy",
        "name": "Drogaria Araujo",
        "id": "node/2865071232"
      },
      "geometry": {
        "type": "Point",
        "coordinates": [
          -44.2724262,
          -19.4736135
        ]
      }
    },
    {
      "type": "Feature",
      "id": "node/2894388102",
      "properties": {
        "timestamp": "2014-06-01T20:32:20Z",
        "version": 1,
        "changeset": 22681761,
        "amenity": "pharmacy",
        "name": "Drogaria Fonseca",
        "id": "node/2894388102"
      },
      "geometry": {
        "type": "Point",
        "coordinates": [
          -44.2477409,
          -19.4643271
        ]
      }
    },
    {
      "type": "Feature",
      "id": "node/2894388103",
      "properties": {
        "timestamp": "2014-06-01T20:32:20Z",
        "version": 1,
        "changeset": 22681761,
        "amenity": "pharmacy",
        "name": "Farmácia Pague Menos",
        "id": "node/2894388103"
      },
      "geometry": {
        "type": "Point",
        "coordinates": [
          -44.2475424,
          -19.4644144
        ]
      }
    },
    {
      "type": "Feature",
      "id": "node/2894388104",
      "properties": {
        "timestamp": "2014-06-01T20:32:20Z",
        "version": 1,
        "changeset": 22681761,
        "amenity": "pharmacy",
        "name": "Farmácia do Trabalhador do Brasil",
        "id": "node/2894388104"
      },
      "geometry": {
        "type": "Point",
        "coordinates": [
          -44.2470503,
          -19.464147
        ]
      }
    },
    {
      "type": "Feature",
      "id": "node/2894388105",
      "properties": {
        "timestamp": "2014-06-01T20:32:21Z",
        "version": 1,
        "changeset": 22681761,
        "amenity": "pharmacy",
        "name": "Drogaria Sul Americana",
        "id": "node/2894388105"
      },
      "geometry": {
        "type": "Point",
        "coordinates": [
          -44.2435949,
          -19.4600304
        ]
      }
    },
    {
      "type": "Feature",
      "id": "node/2894388106",
      "properties": {
        "timestamp": "2014-06-01T20:32:21Z",
        "version": 1,
        "changeset": 22681761,
        "addr:housenumber": "243",
        "addr:street": "Rua Lassance Cunha",
        "amenity": "pharmacy",
        "name": "Drogaria dos Descontos",
        "id": "node/2894388106"
      },
      "geometry": {
        "type": "Point",
        "coordinates": [
          -44.2426327,
          -19.4593211
        ]
      }
    },
    {
      "type": "Feature",
      "id": "node/2894388107",
      "properties": {
        "timestamp": "2014-06-01T20:32:21Z",
        "version": 1,
        "changeset": 22681761,
        "addr:housenumber": "1104",
        "addr:street": "Avenida Antônio Olinto",
        "amenity": "pharmacy",
        "name": "Drogaria dos Descontos",
        "id": "node/2894388107"
      },
      "geometry": {
        "type": "Point",
        "coordinates": [
          -44.2445558,
          -19.4546689
        ]
      }
    },
    {
      "type": "Feature",
      "id": "node/2894416759",
      "properties": {
        "timestamp": "2014-06-01T21:02:48Z",
        "version": 1,
        "changeset": 22682201,
        "addr:housenumber": "330",
        "addr:street": "Rua Teófilo Otoni",
        "amenity": "pharmacy",
        "name": "Drogaria Santa Mônica",
        "id": "node/2894416759"
      },
      "geometry": {
        "type": "Point",
        "coordinates": [
          -44.2403327,
          -19.464481
        ]
      }
    },
    {
      "type": "Feature",
      "id": "node/2894416760",
      "properties": {
        "timestamp": "2014-06-01T21:02:49Z",
        "version": 1,
        "changeset": 22682201,
        "amenity": "pharmacy",
        "name": "Drogaria Araújo",
        "id": "node/2894416760"
      },
      "geometry": {
        "type": "Point",
        "coordinates": [
          -44.2406183,
          -19.4644329
        ]
      }
    },
    {
      "type": "Feature",
      "id": "node/2894416761",
      "properties": {
        "timestamp": "2014-06-01T21:02:49Z",
        "version": 1,
        "changeset": 22682201,
        "addr:housenumber": "331",
        "addr:street": "Rua Teófilo Otoni",
        "amenity": "pharmacy",
        "name": "Drogaria Lagocenter",
        "id": "node/2894416761"
      },
      "geometry": {
        "type": "Point",
        "coordinates": [
          -44.2404587,
          -19.46462
        ]
      }
    },
    {
      "type": "Feature",
      "id": "node/2894416762",
      "properties": {
        "timestamp": "2014-06-01T21:02:49Z",
        "version": 1,
        "changeset": 22682201,
        "addr:housenumber": "112",
        "addr:street": "Praça Vó Fina",
        "amenity": "pharmacy",
        "name": "Set Fórmulas Farmácia de Manipulação",
        "id": "node/2894416762"
      },
      "geometry": {
        "type": "Point",
        "coordinates": [
          -44.2410998,
          -19.4638336
        ]
      }
    },
    {
      "type": "Feature",
      "id": "node/2900132269",
      "properties": {
        "timestamp": "2014-06-05T01:12:42Z",
        "version": 1,
        "changeset": 22745909,
        "addr:housenumber": "1227",
        "addr:street": "Avenida Professor Abeylard",
        "amenity": "pharmacy",
        "name": "Droga Rede",
        "id": "node/2900132269"
      },
      "geometry": {
        "type": "Point",
        "coordinates": [
          -44.2449826,
          -19.4458215
        ]
      }
    },
    {
      "type": "Feature",
      "id": "node/2900132270",
      "properties": {
        "timestamp": "2014-06-05T01:12:42Z",
        "version": 1,
        "changeset": 22745909,
        "amenity": "pharmacy",
        "name": "Droga Mais",
        "id": "node/2900132270"
      },
      "geometry": {
        "type": "Point",
        "coordinates": [
          -44.2450939,
          -19.4474807
        ]
      }
    },
    {
      "type": "Feature",
      "id": "node/2900132271",
      "properties": {
        "timestamp": "2022-10-12T21:01:39Z",
        "version": 2,
        "changeset": 127436162,
        "addr:housenumber": "279",
        "addr:street": "Rua Professor Fernandino Júnior",
        "amenity": "pharmacy",
        "healthcare": "pharmacy",
        "name": "Drogaria do Ponto",
        "id": "node/2900132271"
      },
      "geometry": {
        "type": "Point",
        "coordinates": [
          -44.2431104,
          -19.4629648
        ]
      }
    },
    {
      "type": "Feature",
      "id": "node/2900132491",
      "properties": {
        "timestamp": "2014-06-05T01:14:10Z",
        "version": 1,
        "changeset": 22745921,
        "addr:street": "Rua Monsenhor Messias",
        "amenity": "pharmacy",
        "name": "Drogaria Ultra Popular",
        "id": "node/2900132491"
      },
      "geometry": {
        "type": "Point",
        "coordinates": [
          -44.2466617,
          -19.4634415
        ]
      }
    },
    {
      "type": "Feature",
      "id": "node/2905757969",
      "properties": {
        "timestamp": "2014-06-08T14:50:51Z",
        "version": 2,
        "changeset": 22811240,
        "addr:housenumber": "70",
        "addr:street": "Rua Coronel Américo Teixeira Guimarães",
        "amenity": "pharmacy",
        "name": "DrogaReis",
        "id": "node/2905757969"
      },
      "geometry": {
        "type": "Point",
        "coordinates": [
          -44.2433398,
          -19.4664422
        ]
      }
    },
    {
      "type": "Feature",
      "id": "node/2910147122",
      "properties": {
        "timestamp": "2022-10-12T21:01:39Z",
        "version": 2,
        "changeset": 127436162,
        "addr:city": "Sete Lagoas",
        "addr:housenumber": "26",
        "addr:street": "Rua Doutor Avelar",
        "amenity": "pharmacy",
        "healthcare": "pharmacy",
        "name": "Drogaria Pacheco",
        "id": "node/2910147122"
      },
      "geometry": {
        "type": "Point",
        "coordinates": [
          -44.2438359,
          -19.4618348
        ]
      }
    },
    {
      "type": "Feature",
      "id": "node/2923797822",
      "properties": {
        "timestamp": "2014-06-19T19:01:03Z",
        "version": 1,
        "changeset": 23031036,
        "amenity": "pharmacy",
        "name": "Farmácia Bem Viver",
        "id": "node/2923797822"
      },
      "geometry": {
        "type": "Point",
        "coordinates": [
          -44.2414207,
          -19.4625234
        ]
      }
    },
    {
      "type": "Feature",
      "id": "node/2923797823",
      "properties": {
        "timestamp": "2014-06-19T19:01:03Z",
        "version": 1,
        "changeset": 23031036,
        "addr:city": "Sete Lagoas",
        "addr:housenumber": "422",
        "addr:street": "Rua Teófilo Otoni",
        "amenity": "pharmacy",
        "name": "Drogaria Aqui Tem Genéricos",
        "id": "node/2923797823"
      },
      "geometry": {
        "type": "Point",
        "coordinates": [
          -44.2407059,
          -19.4638384
        ]
      }
    },
    {
      "type": "Feature",
      "id": "node/2925016593",
      "properties": {
        "timestamp": "2014-06-20T18:03:29Z",
        "version": 1,
        "changeset": 23049263,
        "addr:city": "Sete Lagoas",
        "addr:housenumber": "493",
        "addr:street": "Rua São José",
        "amenity": "pharmacy",
        "name": "Drogaria Sete Lagoas",
        "id": "node/2925016593"
      },
      "geometry": {
        "type": "Point",
        "coordinates": [
          -44.2456464,
          -19.4713214
        ]
      }
    },
    {
      "type": "Feature",
      "id": "node/2925016594",
      "properties": {
        "timestamp": "2014-06-20T18:03:30Z",
        "version": 1,
        "changeset": 23049263,
        "addr:city": "Sete Lagoas",
        "addr:housenumber": "112",
        "addr:street": "Rua Major Campos",
        "amenity": "pharmacy",
        "name": "Farmagel",
        "id": "node/2925016594"
      },
      "geometry": {
        "type": "Point",
        "coordinates": [
          -44.2430178,
          -19.4626461
        ]
      }
    },
    {
      "type": "Feature",
      "id": "node/2925016595",
      "properties": {
        "timestamp": "2014-06-20T18:03:30Z",
        "version": 1,
        "changeset": 23049263,
        "addr:city": "Sete Lagoas",
        "addr:housenumber": "907",
        "addr:street": "Rua Teófilo Otoni",
        "amenity": "pharmacy",
        "name": "Drogaria Lacerda",
        "id": "node/2925016595"
      },
      "geometry": {
        "type": "Point",
        "coordinates": [
          -44.2431426,
          -19.4593989
        ]
      }
    },
    {
      "type": "Feature",
      "id": "node/3368546897",
      "properties": {
        "timestamp": "2015-02-23T17:37:18Z",
        "version": 1,
        "changeset": 29049646,
        "addr:city": "Sete Lagoas",
        "addr:street": "Rua Doutor Avelar",
        "addr:suburb": "Centro",
        "amenity": "pharmacy",
        "name": "Drogaria Santa Clara",
        "id": "node/3368546897"
      },
      "geometry": {
        "type": "Point",
        "coordinates": [
          -44.2427533,
          -19.4612926
        ]
      }
    }
  ]
}
