{
  "type": "FeatureCollection",
  "features": [
    {
      "type": "Feature",
      "id": "node/3064288982",
      "properties": {
        "timestamp": "2022-03-06T21:39:29Z",
        "version": 3,
        "changeset": 118175440,
        "addr:city": "Colinas do Tocantins",
        "addr:postcode": "77760-000",
        "addr:street": "Avenida Pedro Ludovico Teixeira",
        "amenity": "pharmacy",
        "healthcare": "pharmacy",
        "name": "Farmacia Econômica",
        "id": "node/3064288982"
      },
      "geometry": {
        "type": "Point",
        "coordinates": [
          -48.4835688,
          -8.0547959
        ]
      }
    },
    {
      "type": "Feature",
      "id": "node/3064288995",
      "properties": {
        "timestamp": "2022-03-06T21:39:29Z",
        "version": 3,
        "changeset": 118175440,
        "addr:city": "Colinas do Tocantins",
        "addr:postcode": "77760-000",
        "addr:street": "Avenida Pedro Ludovico Teixeira",
        "amenity": "pharmacy",
        "healthcare": "pharmacy",
        "name": "Farmácia dos Trabalhadores",
        "id": "node/3064288995"
      },
      "geometry": {
        "type": "Point",
        "coordinates": [
          -48.4800752,
          -8.0568687
        ]
      }
    },
    {
      "type": "Feature",
      "id": "node/3064314097",
      "properties": {
        "timestamp": "2022-03-06T21:39:29Z",
        "version": 3,
        "changeset": 118175440,
        "addr:city": "Colinas do Tocantins",
        "addr:postcode": "77760-000",
        "addr:street": "Avenida Pedro Ludovico Teixeira",
        "amenity": "pharmacy",
        "healthcare": "pharmacy",
        "name": "Droga Santos",
        "id": "node/3064314097"
      },
      "geometry": {
        "type": "Point",
        "coordinates": [
          -48.4743277,
          -8.0602965
        ]
      }
    }
  ]
}
