{
  "type": "FeatureCollection",
  "features": [
    {
      "type": "Feature",
      "id": "way/696135460",
      "properties": {
        "timestamp": "2022-03-06T22:04:03Z",
        "version": 3,
        "changeset": 118176093,
        "addr:city": "Colinas do Tocantins",
        "addr:postcode": "77760-000",
        "addr:street": "Rua 14",
        "addr:suburb": "Setor Oeste",
        "amenity": "school",
        "name": "Escola Especial Gotas de Esperança - APAE",
        "phone": "+55 63 3476 1471",
        "id": "way/696135460"
      },
      "geometry": {
        "type": "Polygon",
        "coordinates": [
          [
            [
              -48.4903913,
              -8.0584217
            ],
            [
              -48.488518,
              -8.0597701
            ],
            [
              -48.4889463,
              -8.0577567
            ],
            [
              -48.4901171,
              -8.0573906
            ],
            [
              -48.4903913,
              -8.0584217
            ]
          ]
        ]
      }
    },
    {
      "type": "Feature",
      "id": "way/1034341384",
      "properties": {
        "timestamp": "2022-02-23T02:05:55Z",
        "version": 1,
        "changeset": 117749326,
        "amenity": "school",
        "name": "Escola Familia Agricola Ze De Deus",
        "id": "way/1034341384"
      },
      "geometry": {
        "type": "Polygon",
        "coordinates": [
          [
            [
              -48.5105543,
              -8.0955317
            ],
            [
              -48.5101385,
              -8.0959194
            ],
            [
              -48.5096611,
              -8.0953989
            ],
            [
              -48.5099481,
              -8.0950218
            ],
            [
              -48.5105543,
              -8.0955317
            ]
          ]
        ]
      }
    },
    {
      "type": "Feature",
      "id": "way/1034342278",
      "properties": {
        "timestamp": "2022-02-23T02:16:25Z",
        "version": 2,
        "changeset": 117749408,
        "addr:city": "Colinas do Tocantins",
        "addr:postcode": "77760-000",
        "addr:street": "Rua Zelda Gudes",
        "addr:suburb": "Santa Maria",
        "amenity": "school",
        "name": "Escola Municipal Professora Odete Carvalho Dos Santos",
        "phone": "+55 63 3476 7029",
        "id": "way/1034342278"
      },
      "geometry": {
        "type": "Polygon",
        "coordinates": [
          [
            [
              -48.4811933,
              -8.0775009
            ],
            [
              -48.4810413,
              -8.0779966
            ],
            [
              -48.4809468,
              -8.0779681
            ],
            [
              -48.4809264,
              -8.0780346
            ],
            [
              -48.4807625,
              -8.0779853
            ],
            [
              -48.4807392,
              -8.0780613
            ],
            [
              -48.4806536,
              -8.0780355
            ],
            [
              -48.4805994,
              -8.078212
            ],
            [
              -48.4802222,
              -8.0780985
            ],
            [
              -48.480472,
              -8.077284
            ],
            [
              -48.4811933,
              -8.0775009
            ]
          ]
        ]
      }
    },
    {
      "type": "Feature",
      "id": "way/1037823609",
      "properties": {
        "timestamp": "2022-03-06T21:13:02Z",
        "version": 1,
        "changeset": 118174685,
        "addr:city": "Colinas do Tocantins",
        "addr:housenumber": "700",
        "addr:postcode": "77760-000",
        "addr:street": "Rua Araguaiana",
        "addr:suburb": "Santo Antônio",
        "amenity": "school",
        "name": "Esc Mul Teodomiro Rodrigues Da Rocha",
        "phone": "+55 63 3476 7028",
        "id": "way/1037823609"
      },
      "geometry": {
        "type": "Polygon",
        "coordinates": [
          [
            [
              -48.4602955,
              -8.04438
            ],
            [
              -48.4603522,
              -8.0448338
            ],
            [
              -48.4600199,
              -8.0448475
            ],
            [
              -48.4599701,
              -8.044391
            ],
            [
              -48.4602955,
              -8.04438
            ]
          ]
        ]
      }
    },
    {
      "type": "Feature",
      "id": "way/1037823610",
      "properties": {
        "timestamp": "2022-03-06T21:13:02Z",
        "version": 1,
        "changeset": 118174685,
        "amenity": "school",
        "id": "way/1037823610"
      },
      "geometry": {
        "type": "Polygon",
        "coordinates": [
          [
            [
              -48.4584963,
              -8.0444688
            ],
            [
              -48.4585231,
              -8.0451209
            ],
            [
              -48.4581506,
              -8.0451431
            ],
            [
              -48.4581327,
              -8.0444998
            ],
            [
              -48.4584963,
              -8.0444688
            ]
          ]
        ]
      }
    },
    {
      "type": "Feature",
      "id": "way/1037824226",
      "properties": {
        "timestamp": "2022-03-06T21:17:11Z",
        "version": 1,
        "changeset": 118174781,
        "addr:city": "Colinas do Tocantins",
        "addr:housenumber": "120",
        "addr:postcode": "77760-000",
        "addr:street": "Rua Dom Orione",
        "addr:suburb": "Santo Antônio",
        "amenity": "school",
        "name": "Escola Estadual Lacerdino Oliveira Campos",
        "phone": "+55 63 3476 2474",
        "id": "way/1037824226"
      },
      "geometry": {
        "type": "Polygon",
        "coordinates": [
          [
            [
              -48.4648766,
              -8.0419451
            ],
            [
              -48.4648921,
              -8.0424742
            ],
            [
              -48.4643447,
              -8.0424991
            ],
            [
              -48.4643219,
              -8.0419605
            ],
            [
              -48.4648766,
              -8.0419451
            ]
          ]
        ]
      }
    },
    {
      "type": "Feature",
      "id": "way/1037827198",
      "properties": {
        "timestamp": "2022-03-06T21:31:58Z",
        "version": 1,
        "changeset": 118175194,
        "addr:city": "Colinas do Tocantins",
        "addr:postcode": "77760-000",
        "addr:street": "Rua Goiás",
        "addr:suburb": "Sol Nascente",
        "amenity": "school",
        "name": "Creche Josefa De Almeida Costa",
        "phone": "+55 63 3476 7034",
        "id": "way/1037827198"
      },
      "geometry": {
        "type": "Polygon",
        "coordinates": [
          [
            [
              -48.4744115,
              -8.0518095
            ],
            [
              -48.4741648,
              -8.0519582
            ],
            [
              -48.4738134,
              -8.0513819
            ],
            [
              -48.4740441,
              -8.0512411
            ],
            [
              -48.4744115,
              -8.0518095
            ]
          ]
        ]
      }
    },
    {
      "type": "Feature",
      "id": "way/1037827276",
      "properties": {
        "timestamp": "2022-03-06T21:33:27Z",
        "version": 1,
        "changeset": 118175239,
        "addr:city": "Colinas do Tocantins",
        "addr:housenumber": "885",
        "addr:postcode": "77760-000",
        "addr:street": "Rua Osvaldo Pacheco de Lima",
        "addr:suburb": "Centro",
        "amenity": "school",
        "name": "Escola Presbiteriana De Colinas Do Tocantins",
        "phone": "+55 63 3476 1970",
        "id": "way/1037827276"
      },
      "geometry": {
        "type": "Polygon",
        "coordinates": [
          [
            [
              -48.4748004,
              -8.0574742
            ],
            [
              -48.475066,
              -8.0579177
            ],
            [
              -48.4746931,
              -8.0581567
            ],
            [
              -48.474441,
              -8.0577052
            ],
            [
              -48.4748004,
              -8.0574742
            ]
          ]
        ]
      }
    },
    {
      "type": "Feature",
      "id": "way/1037828453",
      "properties": {
        "timestamp": "2022-03-06T21:39:29Z",
        "version": 1,
        "changeset": 118175440,
        "addr:city": "Colinas do Tocantins",
        "addr:postcode": "77760-000",
        "addr:street": "Rua Elias Lopes da Silva",
        "addr:suburb": "Centro",
        "amenity": "school",
        "name": "Colégio João XXIII",
        "phone": "+55 63 3452 1551",
        "id": "way/1037828453"
      },
      "geometry": {
        "type": "Polygon",
        "coordinates": [
          [
            [
              -48.4742957,
              -8.0592732
            ],
            [
              -48.4746653,
              -8.0598779
            ],
            [
              -48.4742407,
              -8.0601323
            ],
            [
              -48.4738713,
              -8.0595275
            ],
            [
              -48.4742957,
              -8.0592732
            ]
          ]
        ]
      }
    },
    {
      "type": "Feature",
      "id": "way/1037828720",
      "properties": {
        "timestamp": "2022-03-06T21:40:49Z",
        "version": 1,
        "changeset": 118175487,
        "addr:city": "Colinas do Tocantins",
        "addr:housenumber": "871",
        "addr:postcode": "77760-000",
        "addr:street": "Avenida Tocantins",
        "addr:suburb": "Centro",
        "amenity": "school",
        "name": "Centro De Ensino Medio Presidente Castelo Branco",
        "phone": "+55 63 3476 1599",
        "id": "way/1037828720"
      },
      "geometry": {
        "type": "Polygon",
        "coordinates": [
          [
            [
              -48.474182,
              -8.0621546
            ],
            [
              -48.4748116,
              -8.0617619
            ],
            [
              -48.4750846,
              -8.062191
            ],
            [
              -48.474455,
              -8.0625838
            ],
            [
              -48.474182,
              -8.0621546
            ]
          ]
        ]
      }
    },
    {
      "type": "Feature",
      "id": "way/1037828910",
      "properties": {
        "timestamp": "2022-03-06T21:43:09Z",
        "version": 1,
        "changeset": 118175543,
        "addr:city": "Colinas do Tocantins",
        "addr:housenumber": "48",
        "addr:postcode": "77760-000",
        "addr:street": "Rua Dois de Julho",
        "addr:suburb": "Rodoviária",
        "amenity": "school",
        "phone": "+55 63 3476 7032",
        "id": "way/1037828910"
      },
      "geometry": {
        "type": "Polygon",
        "coordinates": [
          [
            [
              -48.4770559,
              -8.0628552
            ],
            [
              -48.4772616,
              -8.0627333
            ],
            [
              -48.4774295,
              -8.0630109
            ],
            [
              -48.4772239,
              -8.0631328
            ],
            [
              -48.4770559,
              -8.0628552
            ]
          ]
        ]
      }
    },
    {
      "type": "Feature",
      "id": "way/1037829016",
      "properties": {
        "timestamp": "2022-03-06T21:44:37Z",
        "version": 1,
        "changeset": 118175575,
        "addr:city": "Colinas do Tocantins",
        "addr:housenumber": "10",
        "addr:postcode": "77760-000",
        "addr:street": "Avenida Barão do Rio Branco",
        "addr:suburb": "Rodoviário",
        "amenity": "school",
        "name": "Escola Municipal Primavera",
        "phone": "+55 63 3476 7027",
        "id": "way/1037829016"
      },
      "geometry": {
        "type": "Polygon",
        "coordinates": [
          [
            [
              -48.4693278,
              -8.0670156
            ],
            [
              -48.4690622,
              -8.0671769
            ],
            [
              -48.4688816,
              -8.0668853
            ],
            [
              -48.4691471,
              -8.066724
            ],
            [
              -48.4693278,
              -8.0670156
            ]
          ]
        ]
      }
    },
    {
      "type": "Feature",
      "id": "way/1037829186",
      "properties": {
        "timestamp": "2022-03-06T21:46:15Z",
        "version": 1,
        "changeset": 118175630,
        "addr:city": "Colinas do Tocantins",
        "addr:housenumber": "993",
        "addr:postcode": "77760-000",
        "addr:street": "Avenida Maranhão",
        "addr:suburb": "Santa Rosa",
        "amenity": "school",
        "name": "Instituto Educacional Gunnar Vingren",
        "phone": "+55 63 3476 1512",
        "id": "way/1037829186"
      },
      "geometry": {
        "type": "Polygon",
        "coordinates": [
          [
            [
              -48.4762046,
              -8.0709293
            ],
            [
              -48.4762176,
              -8.0713854
            ],
            [
              -48.4758776,
              -8.0713799
            ],
            [
              -48.4758665,
              -8.070944
            ],
            [
              -48.4762046,
              -8.0709293
            ]
          ]
        ]
      }
    },
    {
      "type": "Feature",
      "id": "way/1037829491",
      "properties": {
        "timestamp": "2022-03-06T21:47:36Z",
        "version": 1,
        "changeset": 118175676,
        "addr:city": "Colinas do Tocantins",
        "addr:postcode": "77760-000",
        "addr:street": "Avenida Alto Parnaíba",
        "addr:suburb": "Santa Rosa",
        "amenity": "school",
        "name": "Cmei Paraiso Centro Municipal De Educacao Infantil Paraiso",
        "phone": "+55 63 347 63161",
        "id": "way/1037829491"
      },
      "geometry": {
        "type": "Polygon",
        "coordinates": [
          [
            [
              -48.4757691,
              -8.0727249
            ],
            [
              -48.4757766,
              -8.0732086
            ],
            [
              -48.4750168,
              -8.0732546
            ],
            [
              -48.4750242,
              -8.0728666
            ],
            [
              -48.4752174,
              -8.0727507
            ],
            [
              -48.4757691,
              -8.0727249
            ]
          ]
        ]
      }
    },
    {
      "type": "Feature",
      "id": "way/1037829875",
      "properties": {
        "timestamp": "2022-03-06T21:50:10Z",
        "version": 1,
        "changeset": 118175757,
        "addr:city": "Colinas do Tocantins",
        "addr:housenumber": "1074",
        "addr:postcode": "77760-000",
        "addr:street": "Avenida Raul Espírito santo",
        "addr:suburb": "Centro",
        "amenity": "school",
        "name": "Col Albert Einstein",
        "phone": "+55 63 3476 1652",
        "id": "way/1037829875"
      },
      "geometry": {
        "type": "Polygon",
        "coordinates": [
          [
            [
              -48.4811747,
              -8.0582716
            ],
            [
              -48.4814423,
              -8.058717
            ],
            [
              -48.4811283,
              -8.0589019
            ],
            [
              -48.4808608,
              -8.0584565
            ],
            [
              -48.4811747,
              -8.0582716
            ]
          ]
        ]
      }
    },
    {
      "type": "Feature",
      "id": "way/1037830407",
      "properties": {
        "timestamp": "2022-03-06T21:51:11Z",
        "version": 1,
        "changeset": 118175783,
        "addr:city": "Colinas do Tocantins",
        "addr:housenumber": "1222",
        "addr:postcode": "77760-000",
        "addr:street": "Avenida Raul Espírito Santo",
        "addr:suburb": "Centro",
        "amenity": "school",
        "name": "Escola Municipal Nossa Senhora Aparecida",
        "phone": "+55 63 3476 1308",
        "id": "way/1037830407"
      },
      "geometry": {
        "type": "Polygon",
        "coordinates": [
          [
            [
              -48.4798511,
              -8.0574011
            ],
            [
              -48.4804182,
              -8.0570473
            ],
            [
              -48.4807601,
              -8.0575845
            ],
            [
              -48.480193,
              -8.0579383
            ],
            [
              -48.4798511,
              -8.0574011
            ]
          ]
        ]
      }
    },
    {
      "type": "Feature",
      "id": "way/1037830478",
      "properties": {
        "timestamp": "2022-03-06T21:51:54Z",
        "version": 1,
        "changeset": 118175801,
        "addr:city": "Colinas do Tocantins",
        "addr:housenumber": "39",
        "addr:postcode": "77760-000",
        "addr:street": "Avenida Presidente Dutra",
        "addr:suburb": "Centro",
        "amenity": "school",
        "name": "Colegio Estadual Girassol De Tempo Integral Ernesto Barros",
        "phone": "+55 63 3476 1611",
        "id": "way/1037830478"
      },
      "geometry": {
        "type": "Polygon",
        "coordinates": [
          [
            [
              -48.4821014,
              -8.0565053
            ],
            [
              -48.4823663,
              -8.0569303
            ],
            [
              -48.4817227,
              -8.0573235
            ],
            [
              -48.4814579,
              -8.0568985
            ],
            [
              -48.4821014,
              -8.0565053
            ]
          ]
        ]
      }
    },
    {
      "type": "Feature",
      "id": "way/1037830922",
      "properties": {
        "timestamp": "2022-03-06T21:57:06Z",
        "version": 1,
        "changeset": 118175920,
        "addr:city": "Colinas do Tocantins",
        "addr:housenumber": "344",
        "addr:postcode": "77760-000",
        "addr:street": "Rua Airton Senna da Silva",
        "addr:suburb": "Centro",
        "amenity": "school",
        "name": "Esc Mul Cantinho Da Alegria",
        "phone": "+55 63 3476 7024",
        "id": "way/1037830922"
      },
      "geometry": {
        "type": "Polygon",
        "coordinates": [
          [
            [
              -48.4840767,
              -8.0531523
            ],
            [
              -48.4834713,
              -8.0535375
            ],
            [
              -48.4831743,
              -8.0530798
            ],
            [
              -48.4837796,
              -8.0526947
            ],
            [
              -48.4840767,
              -8.0531523
            ]
          ]
        ]
      }
    },
    {
      "type": "Feature",
      "id": "way/1037830985",
      "properties": {
        "timestamp": "2022-03-06T21:58:28Z",
        "version": 1,
        "changeset": 118175962,
        "addr:city": "Colinas do Tocantins",
        "addr:postcode": "77760-000",
        "addr:street": "Avenida Perimental",
        "addr:suburb": "Setor Dourado",
        "amenity": "school",
        "name": "Escola Municipal Professor Odimar Lopes da Silva",
        "id": "way/1037830985"
      },
      "geometry": {
        "type": "Polygon",
        "coordinates": [
          [
            [
              -48.4796713,
              -8.0477966
            ],
            [
              -48.4798537,
              -8.0481233
            ],
            [
              -48.4794755,
              -8.048341
            ],
            [
              -48.4793226,
              -8.0483331
            ],
            [
              -48.4791832,
              -8.0480781
            ],
            [
              -48.4796713,
              -8.0477966
            ]
          ]
        ]
      }
    },
    {
      "type": "Feature",
      "id": "way/1037831080",
      "properties": {
        "timestamp": "2022-03-06T22:00:03Z",
        "version": 1,
        "changeset": 118176005,
        "addr:city": "Colinas do Tocantins",
        "addr:postcode": "77760-000",
        "addr:street": "Rua Ernesto Bala Barros",
        "addr:suburb": "Novo Horizonte",
        "amenity": "school",
        "name": "Esc Mul Dr Pedro Ludovico Teixeira",
        "phone": "+55 63 3476 7023",
        "id": "way/1037831080"
      },
      "geometry": {
        "type": "Polygon",
        "coordinates": [
          [
            [
              -48.4897036,
              -8.0473972
            ],
            [
              -48.4899639,
              -8.0478431
            ],
            [
              -48.4895033,
              -8.0481067
            ],
            [
              -48.4892431,
              -8.0476608
            ],
            [
              -48.4897036,
              -8.0473972
            ]
          ]
        ]
      }
    },
    {
      "type": "Feature",
      "id": "way/1037831860",
      "properties": {
        "timestamp": "2022-03-06T22:02:42Z",
        "version": 1,
        "changeset": 118176064,
        "addr:city": "Colinas do Tocantins",
        "addr:housenumber": "1199",
        "addr:postcode": "77760-000",
        "addr:street": "Rua Duque de Caxias",
        "addr:suburb": "Novo Planalto",
        "amenity": "school",
        "name": "Escola Estadual Francisco Pereira Felicio",
        "phone": "+55 63 3476 2632",
        "id": "way/1037831860"
      },
      "geometry": {
        "type": "Polygon",
        "coordinates": [
          [
            [
              -48.4909178,
              -8.0507498
            ],
            [
              -48.4910975,
              -8.0510765
            ],
            [
              -48.4906335,
              -8.0513049
            ],
            [
              -48.4904619,
              -8.0510127
            ],
            [
              -48.4909178,
              -8.0507498
            ]
          ]
        ]
      }
    },
    {
      "type": "Feature",
      "id": "way/1037832054",
      "properties": {
        "timestamp": "2022-03-06T22:05:12Z",
        "version": 1,
        "changeset": 118176119,
        "addr:city": "Colinas do Tocantins",
        "addr:postcode": "77760-000",
        "addr:street": "Rua Dois",
        "addr:suburb": "Setor Aeorporto",
        "amenity": "school",
        "name": "Creche Municipal Maria Valdirene Lustosa S De Souza",
        "id": "way/1037832054"
      },
      "geometry": {
        "type": "Polygon",
        "coordinates": [
          [
            [
              -48.4996404,
              -8.0604141
            ],
            [
              -48.4996162,
              -8.0607646
            ],
            [
              -48.498994,
              -8.060677
            ],
            [
              -48.4990235,
              -8.0603822
            ],
            [
              -48.4996404,
              -8.0604141
            ]
          ]
        ]
      }
    },
    {
      "type": "Feature",
      "id": "way/1037832248",
      "properties": {
        "timestamp": "2022-03-06T22:06:32Z",
        "version": 1,
        "changeset": 118176153,
        "addr:city": "Colinas do Tocantins",
        "addr:housenumber": "144",
        "addr:postcode": "77760-000",
        "addr:street": "Avenida Tiradentes",
        "addr:suburb": "Centro",
        "amenity": "school",
        "name": "Centro Municipal De Atendimento Educacional Especializado - Cmaee",
        "id": "way/1037832248"
      },
      "geometry": {
        "type": "Polygon",
        "coordinates": [
          [
            [
              -48.4700866,
              -8.0576864
            ],
            [
              -48.4703705,
              -8.0581216
            ],
            [
              -48.4697407,
              -8.0585242
            ],
            [
              -48.469457,
              -8.0580892
            ],
            [
              -48.4700866,
              -8.0576864
            ]
          ]
        ]
      }
    },
    {
      "type": "Feature",
      "id": "node/9503665803",
      "properties": {
        "timestamp": "2022-02-13T23:37:36Z",
        "version": 2,
        "changeset": 117372716,
        "amenity": "school",
        "name": "Escola Municipal José Teodoro Rodrigues",
        "id": "node/9503665803"
      },
      "geometry": {
        "type": "Point",
        "coordinates": [
          -48.5006771,
          -8.0547764
        ]
      }
    },
    {
      "type": "Feature",
      "id": "node/9559218392",
      "properties": {
        "timestamp": "2022-03-06T22:00:44Z",
        "version": 1,
        "changeset": 118176019,
        "addr:city": "Colinas do Tocantins",
        "addr:housenumber": "1201",
        "addr:postcode": "77760-000",
        "addr:street": "Rua Mineiros",
        "addr:suburb": "Novo Horizonte",
        "amenity": "school",
        "name": "Creche Municipal Dona Elidia Fim Ferrari",
        "phone": "+55 63 3476 1041",
        "id": "node/9559218392"
      },
      "geometry": {
        "type": "Point",
        "coordinates": [
          -48.4911083,
          -8.0479931
        ]
      }
    },
    {
      "type": "Feature",
      "id": "node/9559218867",
      "properties": {
        "timestamp": "2022-03-06T22:07:25Z",
        "version": 1,
        "changeset": 118176173,
        "addr:city": "Colinas do Tocantins",
        "addr:housenumber": "399",
        "addr:postcode": "77760-000",
        "addr:street": "Avenida Tiradentes",
        "amenity": "school",
        "name": "Esc Mul Maria P Guimaraes",
        "phone": "+55 63 3476 7025",
        "id": "node/9559218867"
      },
      "geometry": {
        "type": "Point",
        "coordinates": [
          -48.4697358,
          -8.0577092
        ]
      }
    },
    {
      "type": "Feature",
      "id": "node/9559220048",
      "properties": {
        "timestamp": "2022-03-06T21:56:17Z",
        "version": 1,
        "changeset": 118175897,
        "addr:city": "Colinas do Tocantins",
        "addr:housenumber": "204",
        "addr:postcode": "77760-000",
        "addr:street": "Rua Beira Lago",
        "addr:suburb": "Jardim Campo Clube",
        "amenity": "school",
        "name": "Rede De Ensino Proposito - Rep",
        "id": "node/9559220048"
      },
      "geometry": {
        "type": "Point",
        "coordinates": [
          -48.4855561,
          -8.0564756
        ]
      }
    }
  ]
}
