{
  "type": "FeatureCollection",
  "features": [
    {
      "type": "Feature",
      "id": "way/360344800",
      "properties": {
        "timestamp": "2020-11-29T22:15:38Z",
        "version": 3,
        "changeset": 95002757,
        "addr:city": "Mariluz",
        "addr:housenumber": "2038",
        "addr:postcode": "87470-000",
        "addr:street": "Avenida Marília",
        "addr:suburb": "Centro",
        "amenity": "pharmacy",
        "building": "yes",
        "dispensing": "yes",
        "healthcare": "pharmacy",
        "name": "Happy Farma",
        "phone": "+55 44 3534 1307",
        "id": "way/360344800"
      },
      "geometry": {
        "type": "Polygon",
        "coordinates": [
          [
            [
              -53.1483359,
              -24.0094177
            ],
            [
              -53.1483327,
              -24.0093584
            ],
            [
              -53.1483489,
              -24.0093224
            ],
            [
              -53.1484458,
              -24.009318
            ],
            [
              -53.1484508,
              -24.0094125
            ],
            [
              -53.1483359,
              -24.0094177
            ]
          ]
        ]
      }
    },
    {
      "type": "Feature",
      "id": "way/839979989",
      "properties": {
        "timestamp": "2020-12-11T11:37:49Z",
        "version": 4,
        "changeset": 95678754,
        "addr:city": "Mariluz",
        "addr:housenumber": "1408",
        "addr:postcode": "87470-000",
        "addr:street": "Avenida Marília",
        "addr:suburb": "Centro",
        "amenity": "pharmacy",
        "building": "yes",
        "building:levels": "2",
        "dispensing": "yes",
        "healthcare": "pharmacy",
        "name": "Farmácia Iris",
        "id": "way/839979989"
      },
      "geometry": {
        "type": "Polygon",
        "coordinates": [
          [
            [
              -53.1479241,
              -24.0037688
            ],
            [
              -53.1477598,
              -24.0037791
            ],
            [
              -53.1477528,
              -24.0036872
            ],
            [
              -53.1479172,
              -24.0036769
            ],
            [
              -53.1479241,
              -24.0037688
            ]
          ]
        ]
      }
    },
    {
      "type": "Feature",
      "id": "way/840380189",
      "properties": {
        "timestamp": "2020-08-25T03:34:51Z",
        "version": 1,
        "changeset": 89884924,
        "addr:city": "Mariluz",
        "addr:housenumber": "1454",
        "addr:postcode": "87470-000",
        "addr:street": "Avenida Marília",
        "addr:suburb": "Centro",
        "amenity": "pharmacy",
        "building": "yes",
        "dispensing": "yes",
        "healthcare": "pharmacy",
        "name": "Farmácia Ranger",
        "id": "way/840380189"
      },
      "geometry": {
        "type": "Polygon",
        "coordinates": [
          [
            [
              -53.1478179,
              -24.0041895
            ],
            [
              -53.147812,
              -24.0040946
            ],
            [
              -53.1479196,
              -24.0040891
            ],
            [
              -53.1479254,
              -24.004184
            ],
            [
              -53.1478179,
              -24.0041895
            ]
          ]
        ]
      }
    },
    {
      "type": "Feature",
      "id": "way/840380190",
      "properties": {
        "timestamp": "2020-12-11T11:37:49Z",
        "version": 6,
        "changeset": 95678754,
        "addr:city": "Mariluz",
        "addr:housenumber": "1476",
        "addr:postcode": "87470-000",
        "addr:street": "Avenida Marília",
        "addr:suburb": "Centro",
        "amenity": "pharmacy",
        "building": "yes",
        "dispensing": "yes",
        "healthcare": "pharmacy",
        "name": "Farmácia São Vicente",
        "id": "way/840380190"
      },
      "geometry": {
        "type": "Polygon",
        "coordinates": [
          [
            [
              -53.1478162,
              -24.0043834
            ],
            [
              -53.1478123,
              -24.004285
            ],
            [
              -53.1479884,
              -24.0042791
            ],
            [
              -53.1479924,
              -24.0043774
            ],
            [
              -53.1478162,
              -24.0043834
            ]
          ]
        ]
      }
    },
    {
      "type": "Feature",
      "id": "node/8149979982",
      "properties": {
        "timestamp": "2020-11-28T12:41:49Z",
        "version": 3,
        "changeset": 94941972,
        "amenity": "pharmacy",
        "dispensing": "yes",
        "healthcare": "pharmacy",
        "name": "Farmácia do SUS",
        "id": "node/8149979982"
      },
      "geometry": {
        "type": "Point",
        "coordinates": [
          -53.1471237,
          -24.0034247
        ]
      }
    },
    {
      "type": "Feature",
      "id": "node/8151466850",
      "properties": {
        "timestamp": "2020-11-22T17:40:18Z",
        "version": 2,
        "changeset": 94592338,
        "addr:city": "Mariluz",
        "addr:housenumber": "1408",
        "addr:postcode": "87470-000",
        "addr:street": "Avenida Marília",
        "addr:suburb": "Centro Cívico",
        "amenity": "pharmacy",
        "dispensing": "yes",
        "healthcare": "pharmacy",
        "name": "Farmácia Santa Maria",
        "id": "node/8151466850"
      },
      "geometry": {
        "type": "Point",
        "coordinates": [
          -53.1481745,
          -24.0073021
        ]
      }
    }
  ]
}
