{
  "type": "FeatureCollection",
  "features": [
    {
      "type": "Feature",
      "id": "node/2714295803",
      "properties": {
        "timestamp": "2015-05-08T14:20:48Z",
        "version": 3,
        "changeset": 30908465,
        "addr:city": "Livramento de Nossa Senhora",
        "addr:housenumber": "747",
        "addr:postcode": "46140-000",
        "addr:street": "Avenida Doutor Nelson Leal",
        "addr:suburb": "Bairro José Maria Tanajura",
        "amenity": "clinic",
        "name": "Clinca Ortopedica de Livramento",
        "id": "node/2714295803"
      },
      "geometry": {
        "type": "Point",
        "coordinates": [
          -41.8420609,
          -13.6445735
        ]
      }
    },
    {
      "type": "Feature",
      "id": "node/2767719285",
      "properties": {
        "timestamp": "2014-09-28T13:57:42Z",
        "version": 2,
        "changeset": 25725919,
        "addr:city": "Livramento de Nossa Senhora",
        "addr:housenumber": "Clínica IM+E",
        "addr:postcode": "46140-000",
        "addr:street": "Rua Coronel Ursino De Souza Meira Junio",
        "addr:suburb": "Centro",
        "amenity": "clinic",
        "name": "Clínica IM+E",
        "id": "node/2767719285"
      },
      "geometry": {
        "type": "Point",
        "coordinates": [
          -41.8431044,
          -13.6504703
        ]
      }
    },
    {
      "type": "Feature",
      "id": "node/2940764925",
      "properties": {
        "timestamp": "2014-09-28T14:20:00Z",
        "version": 2,
        "changeset": 25726505,
        "addr:city": "Livramento de Nossa Senhora",
        "addr:housenumber": "26",
        "addr:postcode": "46140-000",
        "addr:street": "Rua Manoel Matias",
        "addr:suburb": "Bairro José Maria Tanajura",
        "amenity": "clinic",
        "name": "Citolab Laboratório de Analise Clínica e Citologica",
        "id": "node/2940764925"
      },
      "geometry": {
        "type": "Point",
        "coordinates": [
          -41.8397822,
          -13.6433399
        ]
      }
    },
    {
      "type": "Feature",
      "id": "node/2940766000",
      "properties": {
        "timestamp": "2014-09-28T14:19:58Z",
        "version": 2,
        "changeset": 25726505,
        "addr:city": "Livramenento de Nossa Senhora",
        "addr:postcode": "46140-000",
        "addr:street": "Avenida Presidente Vargas",
        "addr:suburb": "Bairro José Maria Tanajura",
        "amenity": "clinic",
        "name": "Ceo Centro de Especialidades Odontologicas",
        "id": "node/2940766000"
      },
      "geometry": {
        "type": "Point",
        "coordinates": [
          -41.8413539,
          -13.645996
        ]
      }
    },
    {
      "type": "Feature",
      "id": "node/2940769503",
      "properties": {
        "timestamp": "2014-09-28T14:20:02Z",
        "version": 2,
        "changeset": 25726505,
        "addr:city": "Livramento de Nossa Senhora",
        "addr:housenumber": "428",
        "addr:postcode": "46140-000",
        "addr:street": "Avenida Presidente Vargas",
        "addr:suburb": "Bairro José Maria Tanajura",
        "amenity": "clinic",
        "name": "Clínica Climel",
        "id": "node/2940769503"
      },
      "geometry": {
        "type": "Point",
        "coordinates": [
          -41.8390687,
          -13.6395031
        ]
      }
    },
    {
      "type": "Feature",
      "id": "node/2940782453",
      "properties": {
        "timestamp": "2014-09-28T14:19:58Z",
        "version": 2,
        "changeset": 25726505,
        "addr:city": "Livramento de Nossa Senhora",
        "addr:housenumber": "75",
        "addr:postcode": "46140-000",
        "addr:street": "Avenida Presidente Vargas",
        "addr:suburb": "Bairro José Maria Tanajura",
        "amenity": "clinic",
        "name": "Laboratório de Análises Clínicas Isabel Cristina",
        "id": "node/2940782453"
      },
      "geometry": {
        "type": "Point",
        "coordinates": [
          -41.8413995,
          -13.64634
        ]
      }
    },
    {
      "type": "Feature",
      "id": "node/2940790929",
      "properties": {
        "timestamp": "2014-09-28T13:57:43Z",
        "version": 2,
        "changeset": 25725919,
        "addr:city": "Livramento de Nossa Senhora",
        "addr:housenumber": "95 - Sl 4",
        "addr:postcode": "46140-000",
        "addr:street": "Rua Coronel Ursino De Souza Meira Junio",
        "addr:suburb": "Centro",
        "amenity": "clinic",
        "name": "Orto Sorriso",
        "id": "node/2940790929"
      },
      "geometry": {
        "type": "Point",
        "coordinates": [
          -41.8427541,
          -13.6497675
        ]
      }
    },
    {
      "type": "Feature",
      "id": "node/2940801262",
      "properties": {
        "timestamp": "2014-09-28T13:57:41Z",
        "version": 2,
        "changeset": 25725919,
        "addr:city": "Livramento de Nossa Senhora",
        "addr:postcode": "46140-000",
        "addr:street": "Praça Gentil Vilas Boas",
        "addr:suburb": "Centro",
        "amenity": "clinic",
        "name": "POLICLINICA DR EDILSON PONTES",
        "id": "node/2940801262"
      },
      "geometry": {
        "type": "Point",
        "coordinates": [
          -41.8428077,
          -13.6509997
        ]
      }
    },
    {
      "type": "Feature",
      "id": "node/2940810293",
      "properties": {
        "timestamp": "2016-04-22T18:43:28Z",
        "version": 2,
        "changeset": 38796106,
        "addr:city": "Livramento de Nossa Senhora",
        "addr:housenumber": "253",
        "addr:postcode": "46140-000",
        "addr:street": "Avenida José Maria Tanajura",
        "addr:suburb": "Bairro Polivalente",
        "amenity": "clinic",
        "name": "Livramed",
        "id": "node/2940810293"
      },
      "geometry": {
        "type": "Point",
        "coordinates": [
          -41.8432637,
          -13.6447129
        ]
      }
    },
    {
      "type": "Feature",
      "id": "node/2962944058",
      "properties": {
        "timestamp": "2014-07-14T17:39:08Z",
        "version": 1,
        "changeset": 24145171,
        "addr:city": "Livramento de Nossa Senhora",
        "addr:postcode": "46140-000",
        "addr:street": "Avenida Doutor Edilson R. Pontes",
        "addr:suburb": "Centro",
        "amenity": "clinic",
        "name": "DERM",
        "id": "node/2962944058"
      },
      "geometry": {
        "type": "Point",
        "coordinates": [
          -41.84245,
          -13.6502646
        ]
      }
    },
    {
      "type": "Feature",
      "id": "node/3502980745",
      "properties": {
        "timestamp": "2015-05-08T14:20:47Z",
        "version": 2,
        "changeset": 30908465,
        "addr:city": "Livramento de Nossa Senhora",
        "addr:postcode": "46140-000",
        "addr:street": "Rua Manoel Matias",
        "addr:suburb": "Bairro José Maria Tanajura",
        "amenity": "clinic",
        "name": "Climedi",
        "id": "node/3502980745"
      },
      "geometry": {
        "type": "Point",
        "coordinates": [
          -41.8399354,
          -13.6434162
        ]
      }
    },
    {
      "type": "Feature",
      "id": "node/4141384509",
      "properties": {
        "timestamp": "2016-04-22T18:43:28Z",
        "version": 1,
        "changeset": 38796106,
        "addr:city": "Livramento de Nossa Senhora",
        "addr:postcode": "46140-000",
        "addr:street": "Avenida Doutor Nelson Leal",
        "addr:suburb": "Bairro José Maria Tanajura",
        "amenity": "clinic",
        "name": "Ame",
        "id": "node/4141384509"
      },
      "geometry": {
        "type": "Point",
        "coordinates": [
          -41.8420436,
          -13.644484
        ]
      }
    },
    {
      "type": "Feature",
      "id": "node/4147506331",
      "properties": {
        "timestamp": "2016-04-25T19:36:18Z",
        "version": 1,
        "changeset": 38865920,
        "addr:city": "Livramento de Nossa Senhora",
        "addr:postcode": "46140-000",
        "addr:street": "Rua Coronel Ursino de Souza Meira Junio",
        "addr:suburb": "Centro",
        "amenity": "clinic",
        "name": "Santa Helena",
        "id": "node/4147506331"
      },
      "geometry": {
        "type": "Point",
        "coordinates": [
          -41.8431109,
          -13.6503478
        ]
      }
    },
    {
      "type": "Feature",
      "id": "node/12460670790",
      "properties": {
        "timestamp": "2024-12-29T11:42:14Z",
        "version": 1,
        "changeset": 160746176,
        "addr:city": "Livramento de Nossa Senhora",
        "addr:housenumber": "S/N",
        "addr:postcode": "46140-000",
        "addr:street": "Rua Lafaiete Coutinho",
        "addr:suburb": "Centro",
        "amenity": "clinic",
        "emergency": "no",
        "healthcare": "clinic",
        "healthcare:speciality": "ambulatório;community;general",
        "name": "Unidade Básica De Saúde | UBS Edival Borges Da Silva | Sede I | Livramento De Nossa Senhora, BA | SUS",
        "opening_hours": "Mo-Fr 09:00-17:00",
        "website": "https://www.livramentodenossasenhora.ba.gov.br/",
        "id": "node/12460670790"
      },
      "geometry": {
        "type": "Point",
        "coordinates": [
          -41.8399448,
          -13.6400288
        ]
      }
    }
  ]
}
