{
  "type": "FeatureCollection",
  "features": [
    {
      "type": "Feature",
      "id": "relation/18501942",
      "properties": {
        "timestamp": "2025-01-11T14:32:36Z",
        "version": 2,
        "changeset": 161241396,
        "addr:city": "Livramento De Nossa Senhora",
        "addr:housenumber": "s/n",
        "addr:postcode": "46140-000",
        "addr:street": "Avenida Antigo Campo De Pouso",
        "addr:suburb": "Jurema",
        "building": "yes",
        "government": "administrative",
        "name": "Secretaria De Educação | SEDUC | Poder Executivo | Município De Livramento De Nossa Senhora, BA",
        "office": "government",
        "opening_hours": "Mo-Th 08:00-17:00. Fr 08:00-12:00",
        "phone": "+55 (77) 3444-1799",
        "smoking": "no",
        "type": "multipolygon",
        "website": "https://www.livramento.ba.gov.br/",
        "wheelchair": "yes",
        "id": "relation/18501942"
      },
      "geometry": {
        "type": "Polygon",
        "coordinates": [
          [
            [
              -41.8585711,
              -13.6626726
            ],
            [
              -41.8585946,
              -13.6626503
            ],
            [
              -41.8586383,
              -13.66269
            ],
            [
              -41.8586115,
              -13.6627127
            ],
            [
              -41.8587248,
              -13.662825
            ],
            [
              -41.8586454,
              -13.6628995
            ],
            [
              -41.8585332,
              -13.6627871
            ],
            [
              -41.8584765,
              -13.6627308
            ],
            [
              -41.8583825,
              -13.662635
            ],
            [
              -41.8584609,
              -13.6625615
            ],
            [
              -41.8585548,
              -13.6626564
            ],
            [
              -41.8585711,
              -13.6626726
            ]
          ]
        ]
      }
    },
    {
      "type": "Feature",
      "id": "way/1347409629",
      "properties": {
        "timestamp": "2025-01-07T00:46:04Z",
        "version": 6,
        "changeset": 161079224,
        "addr:city": "Livramento de Nossa Senhora",
        "addr:housenumber": "94",
        "addr:postcode": "46140-000",
        "addr:street": "Praça Dom Hélio Paschoal",
        "addr:suburb": "Centro",
        "building": "yes",
        "building:levels": "2",
        "government": "administrative",
        "name": "Prefeitura Municipal | Sede Oficial | Poder Executivo | Livramento De Nossa Senhora, BA",
        "office": "government",
        "opening_hours": "Mon-Fr 08:00-17:00",
        "phone": "+55 (77) 3444-2900",
        "website": "https://livramento.ba.gov.br/",
        "wheelchair": "limited",
        "id": "way/1347409629"
      },
      "geometry": {
        "type": "Polygon",
        "coordinates": [
          [
            [
              -41.8415125,
              -13.6508936
            ],
            [
              -41.84167,
              -13.6509142
            ],
            [
              -41.8417003,
              -13.6509186
            ],
            [
              -41.8417295,
              -13.6509228
            ],
            [
              -41.8417596,
              -13.6509271
            ],
            [
              -41.8417877,
              -13.6509311
            ],
            [
              -41.8418176,
              -13.6509354
            ],
            [
              -41.8418092,
              -13.6509909
            ],
            [
              -41.8418034,
              -13.6510287
            ],
            [
              -41.8417912,
              -13.6511124
            ],
            [
              -41.8417854,
              -13.6511523
            ],
            [
              -41.841634,
              -13.651131
            ],
            [
              -41.8415311,
              -13.6511176
            ],
            [
              -41.8414809,
              -13.6511111
            ],
            [
              -41.841485,
              -13.651083
            ],
            [
              -41.8415125,
              -13.6508936
            ]
          ]
        ]
      }
    },
    {
      "type": "Feature",
      "id": "way/1348514404",
      "properties": {
        "timestamp": "2025-01-30T15:08:36Z",
        "version": 2,
        "changeset": 161941315,
        "addr:city": "Livramento De Nossa Senhora",
        "addr:housenumber": "s/n",
        "addr:postcode": "46140-000",
        "addr:street": "Avenida Antigo Campo de Pouso",
        "addr:suburb": "Jurema",
        "building": "yes",
        "government": "administrative",
        "name": "Secretaria De Educação | SEDUC | Poder Executivo | Município De Livramento De Nossa Senhora, BA",
        "office": "government",
        "opening_hours": "Mo-Th 08:00-17:00. Fr 08:00-12:00",
        "phone": "+55 (77) 3444-1799",
        "website": "https://www.livramento.ba.gov.br/",
        "wheelchair": "yes",
        "id": "way/1348514404"
      },
      "geometry": {
        "type": "Polygon",
        "coordinates": [
          [
            [
              -41.8586115,
              -13.6627127
            ],
            [
              -41.8585332,
              -13.6627871
            ],
            [
              -41.8584765,
              -13.6627308
            ],
            [
              -41.8585548,
              -13.6626564
            ],
            [
              -41.8585711,
              -13.6626726
            ],
            [
              -41.8586115,
              -13.6627127
            ]
          ]
        ]
      }
    },
    {
      "type": "Feature",
      "id": "way/1348546646",
      "properties": {
        "timestamp": "2025-01-28T20:41:04Z",
        "version": 3,
        "changeset": 161872970,
        "addr:city": "Livramento de Nossa Senhora",
        "addr:housenumber": "495",
        "addr:postcode": "46140-000",
        "addr:street": "Avenida Lindemberg Cardoso",
        "addr:suburb": "Taquari",
        "building": "government_office",
        "government": "administrative",
        "layer": "1",
        "name": "Centro Administrativo Municipal Ver. Josias De Souza Lessa | Poder Executivo | Livramento De Nossa Senhora, BA",
        "office": "government",
        "opening_hours": "Mo-Th 08:00-17:00, Fr 08:00-12:00",
        "smoking": "no",
        "website": "https://www.livramento.ba.gov.br/",
        "wheelchair": "limited",
        "id": "way/1348546646"
      },
      "geometry": {
        "type": "Polygon",
        "coordinates": [
          [
            [
              -41.8467201,
              -13.6621224
            ],
            [
              -41.8466466,
              -13.6625773
            ],
            [
              -41.846548,
              -13.6625457
            ],
            [
              -41.8462804,
              -13.662488
            ],
            [
              -41.8463093,
              -13.6623556
            ],
            [
              -41.8463205,
              -13.6623338
            ],
            [
              -41.8463391,
              -13.6623329
            ],
            [
              -41.8463532,
              -13.6622779
            ],
            [
              -41.8463347,
              -13.6622676
            ],
            [
              -41.8463506,
              -13.6621739
            ],
            [
              -41.8467201,
              -13.6621224
            ]
          ]
        ]
      }
    },
    {
      "type": "Feature",
      "id": "way/1348546649",
      "properties": {
        "timestamp": "2025-01-04T19:15:21Z",
        "version": 1,
        "changeset": 160998469,
        "building": "yes",
        "office": "government",
        "id": "way/1348546649"
      },
      "geometry": {
        "type": "Polygon",
        "coordinates": [
          [
            [
              -41.8465752,
              -13.66227
            ],
            [
              -41.8465573,
              -13.6623575
            ],
            [
              -41.8465004,
              -13.6623459
            ],
            [
              -41.8463587,
              -13.6623168
            ],
            [
              -41.8463682,
              -13.6622729
            ],
            [
              -41.8463774,
              -13.6622303
            ],
            [
              -41.8465191,
              -13.6622593
            ],
            [
              -41.846526,
              -13.6622607
            ],
            [
              -41.8465348,
              -13.6622625
            ],
            [
              -41.8465752,
              -13.66227
            ]
          ]
        ]
      }
    },
    {
      "type": "Feature",
      "id": "way/1348546650",
      "properties": {
        "timestamp": "2025-01-04T19:15:21Z",
        "version": 1,
        "changeset": 160998469,
        "building": "yes",
        "office": "government",
        "id": "way/1348546650"
      },
      "geometry": {
        "type": "Polygon",
        "coordinates": [
          [
            [
              -41.8465191,
              -13.6622593
            ],
            [
              -41.846526,
              -13.6622607
            ],
            [
              -41.8465348,
              -13.6622625
            ],
            [
              -41.8465752,
              -13.66227
            ],
            [
              -41.8465573,
              -13.6623575
            ],
            [
              -41.8465004,
              -13.6623459
            ],
            [
              -41.8465104,
              -13.6623026
            ],
            [
              -41.8465191,
              -13.6622593
            ]
          ]
        ]
      }
    },
    {
      "type": "Feature",
      "id": "way/1348546651",
      "properties": {
        "timestamp": "2025-01-04T19:15:21Z",
        "version": 1,
        "changeset": 160998469,
        "building": "yes",
        "office": "government",
        "id": "way/1348546651"
      },
      "geometry": {
        "type": "Polygon",
        "coordinates": [
          [
            [
              -41.8465461,
              -13.6622154
            ],
            [
              -41.8465845,
              -13.6622225
            ],
            [
              -41.8465752,
              -13.66227
            ],
            [
              -41.8465348,
              -13.6622625
            ],
            [
              -41.8465363,
              -13.6622548
            ],
            [
              -41.8465375,
              -13.6622483
            ],
            [
              -41.8465565,
              -13.6622518
            ],
            [
              -41.8465596,
              -13.6622357
            ],
            [
              -41.8465427,
              -13.6622326
            ],
            [
              -41.8465461,
              -13.6622154
            ]
          ]
        ]
      }
    },
    {
      "type": "Feature",
      "id": "node/2717362630",
      "properties": {
        "timestamp": "2025-01-28T21:03:34Z",
        "version": 6,
        "changeset": 161873712,
        "addr:city": "Livramento de Nossa Senhora",
        "addr:housenumber": "50",
        "addr:postcode": "46140-000",
        "addr:street": "Rua Rodrigo Souza Meira",
        "addr:suburb": "Centro",
        "air_conditioning": "yes",
        "email": "cartoriodelivramento@hotmail.com",
        "government": "register_office",
        "internet_access": "wlan",
        "internet_access:fee": "customers",
        "mobile": "+55 (77) 99910-8111",
        "name": "1° Ofício De Notas e Protesto De Títulos | Livramento N. Sr.ª, BA | Comarca De Livramento De Nossa Senhora | 2ª Região | TJBA",
        "office": "government",
        "opening_hours": "Mo-Fr 08:00-15:00",
        "phone": "+55 (77) 99910-8111",
        "smoking": "no",
        "start_date": "1955-05-15",
        "website": "https://www.cnj.jus.br/corregedoria/justica_aberta/",
        "wheelchair": "limited",
        "id": "node/2717362630"
      },
      "geometry": {
        "type": "Point",
        "coordinates": [
          -41.8420211,
          -13.6498914
        ]
      }
    },
    {
      "type": "Feature",
      "id": "node/12463765152",
      "properties": {
        "timestamp": "2025-01-11T14:07:08Z",
        "version": 3,
        "changeset": 161240507,
        "addr:city": "Livramento de Nossa Senhora",
        "addr:housenumber": "94",
        "addr:postcode": "46140-000",
        "addr:street": "Praça Dom Hélio Paschoal",
        "addr:suburb": "Centro",
        "government": "government",
        "internet_access": "yes",
        "internet_access:fee": "no",
        "name": "Ouvidoria-Geral Do Município | OGM | CGM | Poder Executivo | Livramento De Nossa Senhora, BA",
        "office": "government",
        "opening_hours": "Mo-Th 08:00-17:00",
        "phone": "+55 (77) 3444-1954",
        "website": "https://www.livramento.ba.gov.br/",
        "wheelchair": "limited",
        "id": "node/12463765152"
      },
      "geometry": {
        "type": "Point",
        "coordinates": [
          -41.8417714,
          -13.6509528
        ]
      }
    },
    {
      "type": "Feature",
      "id": "node/12473853942",
      "properties": {
        "timestamp": "2025-01-04T16:45:10Z",
        "version": 1,
        "changeset": 160993559,
        "addr:city": "Livramento De Nossa Senhora",
        "addr:housenumber": "s/n",
        "addr:postcode": "46140-000",
        "addr:street": "Avenida Antigo Campo De Pouso",
        "addr:suburb": "Jurema",
        "email": "educacao@livramentodenossasenhora.ba.gov.br",
        "government": "education",
        "name": "Secretaria De Educação | SEDUC | Poder Executivo | Município De Livramento De Nossa Senhora, BA",
        "office": "government",
        "opening_hours": "Mo-Th 08:00-17:00. Fr 08:00-12:00",
        "phone": "+55 (77) 3444-1799",
        "smoking": "no",
        "website": "https://www.livramento.ba.gov.br/",
        "wheelchair": "yes",
        "id": "node/12473853942"
      },
      "geometry": {
        "type": "Point",
        "coordinates": [
          -41.8585451,
          -13.6627232
        ]
      }
    },
    {
      "type": "Feature",
      "id": "node/12474069784",
      "properties": {
        "timestamp": "2025-01-11T14:07:08Z",
        "version": 2,
        "changeset": 161240507,
        "addr:city": "Livramento de Nossa Senhora",
        "addr:housenumber": "495",
        "addr:postcode": "46140-000",
        "addr:street": "Avenida Lindemberg Cardoso",
        "addr:suburb": "Taquari",
        "government": "social_services",
        "mobile": "+55 (77) 98814-9428",
        "name": "Secretaria De Desenvolvimento Social | SEDES | Poder Executivo | Livramento De Nossa Senhora, BA",
        "office": "government",
        "opening_hours": "Mo-Th 08:00-17:00, Fr 08:00-12:00",
        "phone": "+55 (77) 98814-9428",
        "website": "https://www.livramento.ba.gov.br/",
        "wheelchair": "limited",
        "id": "node/12474069784"
      },
      "geometry": {
        "type": "Point",
        "coordinates": [
          -41.8464466,
          -13.6622262
        ]
      }
    },
    {
      "type": "Feature",
      "id": "node/12474137456",
      "properties": {
        "timestamp": "2025-01-11T14:07:08Z",
        "version": 2,
        "changeset": 161240507,
        "addr:city": "Livramento de Nossa Senhora",
        "addr:housenumber": "495",
        "addr:postcode": "46140-000",
        "addr:street": "Avenida Lindemberg Cardoso",
        "addr:suburb": "Taquari",
        "government": "administrative",
        "name": "Secretaria De Agricultura, Recursos Hídricos e Meio Ambiente | SEAGRI | Poder Executivo | Livramento De Nossa Senhora, BA",
        "office": "government",
        "opening_hours": "Mo-Th 08:00-17:00, Fr 08:00-12:00",
        "phone": "+55 (77) 3444-1814",
        "smoking": "no",
        "website": "https://www.livramento.ba.gov.br/",
        "wheelchair": "limited",
        "id": "node/12474137456"
      },
      "geometry": {
        "type": "Point",
        "coordinates": [
          -41.8465091,
          -13.6622382
        ]
      }
    },
    {
      "type": "Feature",
      "id": "node/12479642950",
      "properties": {
        "timestamp": "2025-01-23T17:55:53Z",
        "version": 4,
        "changeset": 161684099,
        "addr:city": "Livramento de Nossa Senhora",
        "addr:housenumber": "94",
        "addr:postcode": "46140-000",
        "addr:street": "Praça Dom Hélio Paschoal",
        "addr:suburb": "Centro",
        "government": "administrative",
        "name": "Secretaria De Administração, Planejamento e Desenvolvimento | SEAD | Poder Executivo | Livramento De Nossa Senhora, BA",
        "office": "government",
        "opening_hours": "Mo-Th 08:00-17:00, Fr 08:00-12-00",
        "phone": "+55 (77) 3444-2900",
        "smoking": "no",
        "website": "https://www.livramento.ba.gov.br/",
        "id": "node/12479642950"
      },
      "geometry": {
        "type": "Point",
        "coordinates": [
          -41.8416025,
          -13.6509758
        ]
      }
    },
    {
      "type": "Feature",
      "id": "node/12492423112",
      "properties": {
        "timestamp": "2025-01-11T14:40:25Z",
        "version": 1,
        "changeset": 161241715,
        "addr:city": "Livramento de Nossa Senhora",
        "addr:housenumber": "27",
        "addr:postcode": "46140-000",
        "addr:street": "Praça Senador Tanajura",
        "addr:suburb": "Centro",
        "government": "healthcare",
        "internet_access": "wlan",
        "internet_access:fee": "customers",
        "name": "Secretaria De Saúde | SESAU | Poder Executivo | Livramento De Nossa Senhora, BA",
        "office": "government",
        "official_name": "Secretaria De Saúde | SESAU | Poder Executivo | Livramento De Nossa Senhora, BA",
        "opening_hours": "Mo-Fr 08:00-12:00, Mo-Th 13:30-17:00",
        "phone": "+55 (77) 3444-1925",
        "smoking": "no",
        "website": "https://www.livramento.ba.gov.br/",
        "wheelchair": "yes",
        "id": "node/12492423112"
      },
      "geometry": {
        "type": "Point",
        "coordinates": [
          -41.8406666,
          -13.6489562
        ]
      }
    },
    {
      "type": "Feature",
      "id": "node/12494253017",
      "properties": {
        "timestamp": "2025-01-23T17:55:53Z",
        "version": 3,
        "changeset": 161684099,
        "addr:city": "Livramento de Nossa Senhora",
        "addr:housenumber": "94",
        "addr:postcode": "46140-000",
        "addr:street": "Praça Dom Hélio Paschoal",
        "addr:suburb": "Centro",
        "government": "government",
        "name": "Secretaria De Governo | SEGOV | Poder Executivo | Livramento De Nossa Senhora, BA",
        "office": "government",
        "opening_hours": "Mo-Th 08:00-17:00, Fr 08:00-12:00",
        "phone": "+55 (77) 3444-2900",
        "smoking": "no",
        "website": "https://www.livramento.ba.gov.br/",
        "wheelchair": "limited",
        "id": "node/12494253017"
      },
      "geometry": {
        "type": "Point",
        "coordinates": [
          -41.8415489,
          -13.6509696
        ]
      }
    },
    {
      "type": "Feature",
      "id": "node/12526849804",
      "properties": {
        "timestamp": "2025-01-23T17:55:53Z",
        "version": 2,
        "changeset": 161684099,
        "addr:city": "Livramento de Nossa Senhora",
        "addr:housenumber": "94",
        "addr:postcode": "46140-000",
        "addr:street": "Praça Dom Hélio Paschoal",
        "addr:suburb": "Centro",
        "name": "Secretaria Da Fazenda | SEFAZ | Poder Executivo | Livramento De Nossa Senhora, BA",
        "office": "government",
        "opening_hours": "Mo-Th 08:00-17:00, Fr 08:00-12-00",
        "phone": "+55 (77) 3444-2900",
        "website": "https://www.livramento.ba.gov.br/",
        "wheelchair": "limited",
        "id": "node/12526849804"
      },
      "geometry": {
        "type": "Point",
        "coordinates": [
          -41.8416092,
          -13.6509434
        ]
      }
    },
    {
      "type": "Feature",
      "id": "node/12526849805",
      "properties": {
        "timestamp": "2025-01-23T17:55:53Z",
        "version": 2,
        "changeset": 161684099,
        "addr:city": "Livramento de Nossa Senhora",
        "addr:housenumber": "94",
        "addr:postcode": "46140-000",
        "addr:street": "Praça Dom Hélio Paschoal",
        "addr:suburb": "Centro",
        "government": "administrative",
        "name": "Secretaria De Infraestrutura, Serviços Públicos e Desenvolvimento Urbano | SEINFRA | Poder Executivo | Livramento De Nossa Senhora, BA",
        "office": "government",
        "opening_hours": "Mo-Th 09:00-17:00, Fr 09:00-12:00",
        "phone": "+55 (77) 3444-2900",
        "website": "https://www.livramento.ba.gov.br/",
        "id": "node/12526849805"
      },
      "geometry": {
        "type": "Point",
        "coordinates": [
          -41.8415906,
          -13.6510434
        ]
      }
    },
    {
      "type": "Feature",
      "id": "node/12526864664",
      "properties": {
        "timestamp": "2025-01-23T17:55:53Z",
        "version": 1,
        "changeset": 161684099,
        "addr:city": "Livramento de Nossa Senhora",
        "addr:housenumber": "94",
        "addr:postcode": "46140-000",
        "addr:street": "Praça Dom Hélio Paschoal",
        "addr:suburb": "Centro",
        "government": "police",
        "name": "Controladoria-Geral Do Município | CGM | Poder Executivo | Livramento De Nossa Senhora, BA",
        "office": "government",
        "opening_hours": "Mo-Th 08:00-12:00, Mo-Th 13:00-17:00, Fr 08:00-12:00",
        "phone": "+55 (77) 3444-2900",
        "website": "https://www.livramento.ba.gov.br/",
        "id": "node/12526864664"
      },
      "geometry": {
        "type": "Point",
        "coordinates": [
          -41.8415359,
          -13.6510361
        ]
      }
    }
  ]
}
