{
  "type": "FeatureCollection",
  "features": [
    {
      "type": "Feature",
      "id": "way/226415883",
      "properties": {
        "timestamp": "2015-05-08T14:20:56Z",
        "version": 10,
        "changeset": 30908465,
        "addr:city": "Livramento de Nossa Senhora",
        "addr:housenumber": "829",
        "addr:postcode": "46140-000",
        "addr:street": "Avenida Presidente Vargas",
        "addr:suburb": "Bairro José Maria Tanajura",
        "amenity": "hospital",
        "emergency": "yes",
        "operator": "Municipal",
        "id": "way/226415883"
      },
      "geometry": {
        "type": "Polygon",
        "coordinates": [
          [
            [
              -41.8403159,
              -13.6392831
            ],
            [
              -41.8405036,
              -13.6399628
            ],
            [
              -41.8402064,
              -13.6400109
            ],
            [
              -41.8397628,
              -13.6400861
            ],
            [
              -41.8393929,
              -13.6401426
            ],
            [
              -41.8391699,
              -13.6394465
            ],
            [
              -41.8393625,
              -13.639417
            ],
            [
              -41.8396848,
              -13.6393677
            ],
            [
              -41.8397493,
              -13.6393578
            ],
            [
              -41.8403159,
              -13.6392831
            ]
          ]
        ]
      }
    },
    {
      "type": "Feature",
      "id": "way/228563630",
      "properties": {
        "timestamp": "2015-05-08T14:54:10Z",
        "version": 4,
        "changeset": 30909773,
        "addr:city": "Livramento de Nossa Senhora",
        "addr:housenumber": "212",
        "addr:postcode": "46140-000",
        "addr:street": "Avenida Doutor Edilson R. Pontes",
        "addr:suburb": "Centro",
        "amenity": "hospital",
        "building": "yes",
        "emergency": "yes",
        "id": "way/228563630"
      },
      "geometry": {
        "type": "Polygon",
        "coordinates": [
          [
            [
              -41.8428493,
              -13.650083
            ],
            [
              -41.8428855,
              -13.650199
            ],
            [
              -41.8426065,
              -13.6502759
            ],
            [
              -41.842569,
              -13.6501638
            ],
            [
              -41.8428493,
              -13.650083
            ]
          ]
        ]
      }
    },
    {
      "type": "Feature",
      "id": "way/228563632",
      "properties": {
        "timestamp": "2015-05-08T14:21:01Z",
        "version": 2,
        "changeset": 30908465,
        "addr:city": "Livramento de Nossa Senhora",
        "addr:housenumber": "854",
        "addr:postcode": "46140-000",
        "addr:street": "Avenida Doutor Nelson Leal",
        "addr:suburb": "Bairro José Maria Tanajura",
        "amenity": "hospital",
        "building": "yes",
        "emergency": "yes",
        "name": "Centro Médico São Lucas",
        "id": "way/228563632"
      },
      "geometry": {
        "type": "Polygon",
        "coordinates": [
          [
            [
              -41.841632,
              -13.6445134
            ],
            [
              -41.8418631,
              -13.6444661
            ],
            [
              -41.8418967,
              -13.6446108
            ],
            [
              -41.8416526,
              -13.6446551
            ],
            [
              -41.841632,
              -13.6445134
            ]
          ]
        ]
      }
    },
    {
      "type": "Feature",
      "id": "way/340288146",
      "properties": {
        "timestamp": "2015-05-08T14:54:10Z",
        "version": 3,
        "changeset": 30909773,
        "addr:city": "Livramento de Nossa Senhora",
        "addr:postcode": "46140-000",
        "addr:street": "Rua Coronel Ursino de Souza Meira Junio",
        "addr:suburb": "Centro",
        "amenity": "hospital",
        "id": "way/340288146"
      },
      "geometry": {
        "type": "Polygon",
        "coordinates": [
          [
            [
              -41.8433133,
              -13.6503652
            ],
            [
              -41.8433428,
              -13.6504251
            ],
            [
              -41.8431014,
              -13.6504981
            ],
            [
              -41.8430665,
              -13.6504303
            ],
            [
              -41.8433133,
              -13.6503652
            ]
          ]
        ]
      }
    },
    {
      "type": "Feature",
      "id": "way/464354170",
      "properties": {
        "timestamp": "2023-08-04T18:27:39Z",
        "version": 2,
        "changeset": 139453212,
        "amenity": "hospital",
        "healthcare": "hospital",
        "name": "UPA 24 Horas (Marilton Tanajura Matias)",
        "id": "way/464354170"
      },
      "geometry": {
        "type": "Polygon",
        "coordinates": [
          [
            [
              -41.859901,
              -13.6634128
            ],
            [
              -41.859386,
              -13.6639029
            ],
            [
              -41.8589568,
              -13.6634911
            ],
            [
              -41.859504,
              -13.6630219
            ],
            [
              -41.859901,
              -13.6634128
            ]
          ]
        ]
      }
    },
    {
      "type": "Feature",
      "id": "node/2767135183",
      "properties": {
        "timestamp": "2014-09-28T14:20:01Z",
        "version": 6,
        "changeset": 25726505,
        "addr:city": "Livramento de Nossa Senhora",
        "addr:housenumber": "829",
        "addr:postcode": "46140-000",
        "addr:street": "Avenida Presidente Vargas",
        "addr:suburb": "Bairro José Maria Tanajura",
        "amenity": "hospital",
        "emergency": "yes",
        "name": "Hospital Municipal de Livramento de Nossa Senhora",
        "operator": "Municipal",
        "wheelchair": "yes",
        "id": "node/2767135183"
      },
      "geometry": {
        "type": "Point",
        "coordinates": [
          -41.8396033,
          -13.639826
        ]
      }
    },
    {
      "type": "Feature",
      "id": "node/3475024631",
      "properties": {
        "timestamp": "2015-05-08T14:53:59Z",
        "version": 2,
        "changeset": 30909773,
        "addr:city": "Livramento de Nossa Senhora",
        "addr:housenumber": "212",
        "addr:postcode": "46140-000",
        "addr:street": "Avenida Doutor Edilson R. Pontes",
        "addr:suburb": "Centro",
        "amenity": "hospital",
        "name": "Clinica Santa Rita",
        "id": "node/3475024631"
      },
      "geometry": {
        "type": "Point",
        "coordinates": [
          -41.842632,
          -13.6502088
        ]
      }
    },
    {
      "type": "Feature",
      "id": "node/4594730751",
      "properties": {
        "timestamp": "2023-08-04T18:27:39Z",
        "version": 4,
        "changeset": 139453212,
        "addr:postcode": "46.140000",
        "addr:suburb": "Bairro Jurema",
        "amenity": "hospital",
        "emergency": "yes",
        "name": "UPA 24 Horas (Marilton Tanajura Matias)",
        "wheelchair": "yes",
        "id": "node/4594730751"
      },
      "geometry": {
        "type": "Point",
        "coordinates": [
          -41.8594021,
          -13.6634598
        ]
      }
    }
  ]
}
