{
  "type": "FeatureCollection",
  "features": [
    {
      "type": "Feature",
      "id": "way/227025391",
      "properties": {
        "timestamp": "2015-05-08T14:20:57Z",
        "version": 4,
        "changeset": 30908465,
        "addr:city": "Livramento de Nossa Senhora",
        "addr:housenumber": "653",
        "addr:postcode": "46140-000",
        "addr:street": "Avenida Presidente Vargas",
        "addr:suburb": "Bairro José Maria Tanajura",
        "building": "yes",
        "tourism": "hotel",
        "id": "way/227025391"
      },
      "geometry": {
        "type": "Polygon",
        "coordinates": [
          [
            [
              -41.8401182,
              -13.6411835
            ],
            [
              -41.8401383,
              -13.6412278
            ],
            [
              -41.8398084,
              -13.6413503
            ],
            [
              -41.8397856,
              -13.6412943
            ],
            [
              -41.8401182,
              -13.6411835
            ]
          ]
        ]
      }
    },
    {
      "type": "Feature",
      "id": "way/227025392",
      "properties": {
        "timestamp": "2015-05-08T14:20:55Z",
        "version": 3,
        "changeset": 30908465,
        "addr:city": "Livramento de Nossa Senhora",
        "addr:housenumber": "724",
        "addr:postcode": "46140-000",
        "addr:street": "Avenida Presidente Vargas",
        "addr:suburb": "Bairro José Maria Tanajura",
        "building": "yes",
        "tourism": "hotel",
        "id": "way/227025392"
      },
      "geometry": {
        "type": "Polygon",
        "coordinates": [
          [
            [
              -41.8391157,
              -13.6405247
            ],
            [
              -41.8393686,
              -13.6404615
            ],
            [
              -41.8394061,
              -13.6406022
            ],
            [
              -41.8391586,
              -13.6406655
            ],
            [
              -41.8391157,
              -13.6405247
            ]
          ]
        ]
      }
    },
    {
      "type": "Feature",
      "id": "way/227025393",
      "properties": {
        "timestamp": "2015-05-08T14:20:58Z",
        "version": 5,
        "changeset": 30908465,
        "addr:city": "Livramento de Nossa Senhora",
        "addr:housenumber": "486",
        "addr:postcode": "46140-000",
        "addr:street": "Avenida Presidente Vargas",
        "addr:suburb": "Bairro José Maria Tanajura",
        "building": "yes",
        "tourism": "hotel",
        "id": "way/227025393"
      },
      "geometry": {
        "type": "Polygon",
        "coordinates": [
          [
            [
              -41.8403152,
              -13.6433739
            ],
            [
              -41.8403649,
              -13.6435016
            ],
            [
              -41.8401919,
              -13.643559
            ],
            [
              -41.8401489,
              -13.64343
            ],
            [
              -41.8402294,
              -13.6434039
            ],
            [
              -41.8403152,
              -13.6433739
            ]
          ]
        ]
      }
    },
    {
      "type": "Feature",
      "id": "node/2713039411",
      "properties": {
        "timestamp": "2014-09-28T13:57:43Z",
        "version": 4,
        "changeset": 25725919,
        "addr:city": "Livramento de Nossa Senhora",
        "addr:housenumber": "104",
        "addr:postcode": "46140-000",
        "addr:street": "Avenida Doutor Edilson R. Pontes",
        "addr:suburb": "Centro",
        "name": "Pousada Aliança",
        "tourism": "hotel",
        "id": "node/2713039411"
      },
      "geometry": {
        "type": "Point",
        "coordinates": [
          -41.842386,
          -13.6494006
        ]
      }
    },
    {
      "type": "Feature",
      "id": "node/2714384986",
      "properties": {
        "timestamp": "2015-05-08T14:20:46Z",
        "version": 3,
        "changeset": 30908465,
        "addr:city": "Livramento de Nossa Senhora",
        "addr:postcode": "46140-000",
        "addr:street": "Estrada Desembargador Antonio Carlos Souto",
        "addr:suburb": "Bairro Santa Rita",
        "name": "Hotel Vista da Chapada",
        "tourism": "hotel",
        "id": "node/2714384986"
      },
      "geometry": {
        "type": "Point",
        "coordinates": [
          -41.8343714,
          -13.6338707
        ]
      }
    },
    {
      "type": "Feature",
      "id": "node/3475024529",
      "properties": {
        "timestamp": "2015-05-08T14:20:47Z",
        "version": 2,
        "changeset": 30908465,
        "addr:city": "Livramento de Nossa Senhora",
        "addr:housenumber": "724",
        "addr:postcode": "46140-000",
        "addr:street": "Avenida Presidente Vargas",
        "addr:suburb": "Bairro José Maria Tanajura",
        "name": "Pousada Azevedo",
        "tourism": "hotel",
        "id": "node/3475024529"
      },
      "geometry": {
        "type": "Point",
        "coordinates": [
          -41.8393256,
          -13.6405605
        ]
      }
    },
    {
      "type": "Feature",
      "id": "node/3475024530",
      "properties": {
        "timestamp": "2015-05-08T14:20:47Z",
        "version": 2,
        "changeset": 30908465,
        "addr:city": "Livramento de Nossa Senhora",
        "addr:housenumber": "653",
        "addr:postcode": "46140-000",
        "addr:street": "Avenida Presidente Vargas",
        "addr:suburb": "Bairro José Maria Tanajura",
        "name": "Pousada Itália",
        "tourism": "hotel",
        "id": "node/3475024530"
      },
      "geometry": {
        "type": "Point",
        "coordinates": [
          -41.8398473,
          -13.6413047
        ]
      }
    },
    {
      "type": "Feature",
      "id": "node/3475024533",
      "properties": {
        "timestamp": "2015-04-24T14:02:17Z",
        "version": 1,
        "changeset": 30454596,
        "addr:city": "Livramento de Nossa Senhora",
        "addr:housenumber": "486",
        "addr:postcode": "46140-000",
        "addr:street": "Avenida Presidente Vargas",
        "name": "Pousada Pôr do Sol",
        "tourism": "hotel",
        "id": "node/3475024533"
      },
      "geometry": {
        "type": "Point",
        "coordinates": [
          -41.8403248,
          -13.6434473
        ]
      }
    }
  ]
}
