{
  "type": "FeatureCollection",
  "features": [
    {
      "type": "Feature",
      "id": "way/1347430198",
      "properties": {
        "timestamp": "2025-01-14T00:09:06Z",
        "version": 3,
        "changeset": 161328832,
        "addr:city": "Livramento de Nossa Senhora",
        "addr:housenumber": "221",
        "addr:postcode": "46140-000",
        "addr:street": "Rua Josias de Sousa Lessa",
        "addr:suburb": "Estocada",
        "amenity": "pharmacy",
        "building": "yes",
        "dispensing": "no",
        "drive_through": "no",
        "healthcare": "pharmacy",
        "mobile": "+55 (77) 9 8884-1331",
        "name": "Farmácia Especializada | CAPS Tipo II Maria Da Conceição Silva Marques Souza | Livramento De Nossa Senhora, BA | SUS",
        "opening_hours": "Mo-Th 08:00-15:00, Fr 08:00-12:00",
        "website": "https://www.instagram.com/capslivramentobahia",
        "wheelchair": "yes",
        "id": "way/1347430198"
      },
      "geometry": {
        "type": "Polygon",
        "coordinates": [
          [
            [
              -41.8489503,
              -13.6384996
            ],
            [
              -41.8488672,
              -13.6385845
            ],
            [
              -41.8488091,
              -13.6385356
            ],
            [
              -41.8488908,
              -13.638451
            ],
            [
              -41.8489503,
              -13.6384996
            ]
          ]
        ]
      }
    },
    {
      "type": "Feature",
      "id": "node/2375185659",
      "properties": {
        "timestamp": "2015-02-01T15:10:34Z",
        "version": 4,
        "changeset": 28547015,
        "addr:city": "Livramento de Nossa Senhora",
        "addr:housenumber": "276",
        "addr:postcode": "46140-000",
        "addr:street": "Avenida Doutor Edilson R. Pontes",
        "addr:suburb": "Centro",
        "amenity": "pharmacy",
        "name": "Atlântica Manipulação Nova Pharma Ltda",
        "id": "node/2375185659"
      },
      "geometry": {
        "type": "Point",
        "coordinates": [
          -41.8427966,
          -13.6507512
        ]
      }
    },
    {
      "type": "Feature",
      "id": "node/2379439329",
      "properties": {
        "timestamp": "2015-04-24T20:08:34Z",
        "version": 6,
        "changeset": 30461924,
        "addr:city": "Livramento de Nossa Senhora",
        "addr:housenumber": "19",
        "addr:postcode": "46140-000",
        "addr:street": "Rua Conego Higino",
        "addr:suburb": "Centro",
        "amenity": "pharmacy",
        "drive_through": "yes / no",
        "name": "Farmacia Vitoria",
        "id": "node/2379439329"
      },
      "geometry": {
        "type": "Point",
        "coordinates": [
          -41.8418647,
          -13.6478622
        ]
      }
    },
    {
      "type": "Feature",
      "id": "node/2712965253",
      "properties": {
        "timestamp": "2014-09-28T13:57:50Z",
        "version": 3,
        "changeset": 25725919,
        "addr:city": "Livramento de Nossa Senhora",
        "addr:housenumber": "99",
        "addr:postcode": "46140-000",
        "addr:street": "Rua Deoclides Alcantara",
        "addr:suburb": "Centro",
        "amenity": "pharmacy",
        "name": "Farmácia Bahia",
        "id": "node/2712965253"
      },
      "geometry": {
        "type": "Point",
        "coordinates": [
          -41.8413767,
          -13.6473243
        ]
      }
    },
    {
      "type": "Feature",
      "id": "node/2712969112",
      "properties": {
        "timestamp": "2014-09-28T13:57:51Z",
        "version": 3,
        "changeset": 25725919,
        "addr:city": "Livramento de Nossa Senhora",
        "addr:housenumber": "36",
        "addr:postcode": "46140-000",
        "addr:street": "Praça Feira",
        "addr:suburb": "Centro",
        "amenity": "pharmacy",
        "name": "Farmácia Ideal",
        "id": "node/2712969112"
      },
      "geometry": {
        "type": "Point",
        "coordinates": [
          -41.8426871,
          -13.6479719
        ]
      }
    },
    {
      "type": "Feature",
      "id": "node/2712976634",
      "properties": {
        "timestamp": "2014-09-28T13:57:45Z",
        "version": 2,
        "changeset": 25725919,
        "addr:city": "Livramento de Nossa Senhora",
        "addr:postcode": "46140-000",
        "addr:street": "Praça João Marques",
        "addr:suburb": "Centro",
        "amenity": "pharmacy",
        "name": "Farmácia do Trabalhador",
        "id": "node/2712976634"
      },
      "geometry": {
        "type": "Point",
        "coordinates": [
          -41.8418208,
          -13.6484489
        ]
      }
    },
    {
      "type": "Feature",
      "id": "node/2712977738",
      "properties": {
        "timestamp": "2014-09-28T13:57:45Z",
        "version": 2,
        "changeset": 25725919,
        "addr:city": "Livramento de Nossa Senhora",
        "addr:postcode": "46140-000",
        "addr:street": "Avenida Doutor Edilson R. Pontes",
        "addr:suburb": "Centro",
        "amenity": "pharmacy",
        "name": "Farmácia Caires",
        "id": "node/2712977738"
      },
      "geometry": {
        "type": "Point",
        "coordinates": [
          -41.8420085,
          -13.6487617
        ]
      }
    },
    {
      "type": "Feature",
      "id": "node/2712980388",
      "properties": {
        "timestamp": "2014-09-28T13:57:45Z",
        "version": 2,
        "changeset": 25725919,
        "addr:city": "Livramento de Nossa Senhora",
        "addr:postcode": "46140-000",
        "addr:street": "Avenida Doutor Edilson R. Pontes",
        "addr:suburb": "Centro",
        "amenity": "pharmacy",
        "name": "Farmácia Uniao",
        "id": "node/2712980388"
      },
      "geometry": {
        "type": "Point",
        "coordinates": [
          -41.8420219,
          -13.6487904
        ]
      }
    },
    {
      "type": "Feature",
      "id": "node/2714358143",
      "properties": {
        "timestamp": "2014-09-28T13:57:41Z",
        "version": 4,
        "changeset": 25725919,
        "addr:city": "Livramento de Nossa Senhora",
        "addr:postcode": "46140-000",
        "addr:street": "Rua Francisco Otaviano Tanajura",
        "addr:suburb": "Centro",
        "amenity": "pharmacy",
        "name": "Farmacia Popular",
        "operator": "Municipal",
        "id": "node/2714358143"
      },
      "geometry": {
        "type": "Point",
        "coordinates": [
          -41.842769,
          -13.6513425
        ]
      }
    },
    {
      "type": "Feature",
      "id": "node/2714372292",
      "properties": {
        "timestamp": "2014-09-28T14:20:01Z",
        "version": 3,
        "changeset": 25726505,
        "addr:city": "Livramento de Nossa Senhora",
        "addr:postcode": "46140-000",
        "addr:street": "Avenida Presidente Vargas",
        "addr:suburb": "Bairro José Maria Tanajura",
        "amenity": "pharmacy",
        "name": "Farmacia Vitoria",
        "id": "node/2714372292"
      },
      "geometry": {
        "type": "Point",
        "coordinates": [
          -41.839502,
          -13.6402857
        ]
      }
    },
    {
      "type": "Feature",
      "id": "node/2877790767",
      "properties": {
        "timestamp": "2014-09-28T14:20:01Z",
        "version": 3,
        "changeset": 25726505,
        "addr:city": "Livramento de Nossa Senhora",
        "addr:postcode": "46140-000",
        "addr:street": "Praça Pedro Mandu",
        "addr:suburb": "Bairro José Maria Tanajura",
        "amenity": "pharmacy",
        "name": "Farma Vida",
        "id": "node/2877790767"
      },
      "geometry": {
        "type": "Point",
        "coordinates": [
          -41.8390988,
          -13.639612
        ]
      }
    },
    {
      "type": "Feature",
      "id": "node/2962944065",
      "properties": {
        "timestamp": "2016-10-12T14:07:15Z",
        "version": 4,
        "changeset": 42831127,
        "addr:city": "Livramento de Nossa Senhora",
        "addr:postcode": "46140-000",
        "addr:street": "Avenida Doutor Edilson Pontes",
        "addr:suburb": "Centro",
        "amenity": "pharmacy",
        "name": "Farmacia",
        "id": "node/2962944065"
      },
      "geometry": {
        "type": "Point",
        "coordinates": [
          -41.8423159,
          -13.6518649
        ]
      }
    },
    {
      "type": "Feature",
      "id": "node/2967905130",
      "properties": {
        "timestamp": "2021-01-12T22:40:59Z",
        "version": 3,
        "changeset": 97399748,
        "addr:city": "Livramento de Nossa Senhora",
        "addr:postcode": "46140-000",
        "addr:street": "Rua Cônego Higino",
        "addr:suburb": "Centro",
        "amenity": "pharmacy",
        "name": "Farmácia Econômica",
        "phone": "+55 77 3444-5422",
        "id": "node/2967905130"
      },
      "geometry": {
        "type": "Point",
        "coordinates": [
          -41.8417549,
          -13.6478612
        ]
      }
    },
    {
      "type": "Feature",
      "id": "node/2967905254",
      "properties": {
        "timestamp": "2014-09-28T13:57:51Z",
        "version": 2,
        "changeset": 25725919,
        "addr:city": "Livramento de Nossa Senhora",
        "addr:postcode": "46140-000",
        "addr:street": "Avenida Doutor Nelson Leal",
        "addr:suburb": "Centro",
        "amenity": "pharmacy",
        "name": "Farmácia Nunes",
        "id": "node/2967905254"
      },
      "geometry": {
        "type": "Point",
        "coordinates": [
          -41.8430987,
          -13.6481923
        ]
      }
    },
    {
      "type": "Feature",
      "id": "node/12463765138",
      "properties": {
        "timestamp": "2025-01-11T14:07:08Z",
        "version": 3,
        "changeset": 161240507,
        "addr:city": "Livramento de Nossa Senhora",
        "addr:housenumber": "46",
        "addr:postcode": "46140-000",
        "addr:street": "Praça Dom Hélio Paschoal",
        "addr:suburb": "Centro",
        "amenity": "pharmacy",
        "dispensing": "no",
        "drive_through": "no",
        "healthcare": "pharmacy",
        "name": "Farmácia Básica Municipal | FBM | SESAU | Livramento De Nossa Senhora, BA | SUS",
        "opening_hours": "Mo-Th 07:00-12:00, Mo-Th 14:00-16:00, Fr 07:00-12:00",
        "phone": "+55 (77) 3444-1925",
        "website": "https://www.livramento.ba.gov.br/",
        "wheelchair": "yes",
        "id": "node/12463765138"
      },
      "geometry": {
        "type": "Point",
        "coordinates": [
          -41.8414735,
          -13.6505669
        ]
      }
    },
    {
      "type": "Feature",
      "id": "node/12463898291",
      "properties": {
        "timestamp": "2025-01-14T00:11:42Z",
        "version": 2,
        "changeset": 161328869,
        "addr:city": "Livramento de Nossa Senhora",
        "addr:housenumber": "87",
        "addr:postcode": "46140-000",
        "addr:street": "Rua Josias de Sousa Lessa",
        "addr:suburb": "Estocada",
        "amenity": "pharmacy",
        "dispensing": "no",
        "drive_through": "no",
        "healthcare": "pharmacy",
        "mobile": "+55 (77) 9 8884-1331",
        "name": "Farmácia Especializada | CAPS Tipo II Maria Da Conceição Silva Marques Souza | Livramento De Nossa Senhora, BA | SUS",
        "opening_hours": "Mo-Th 08:00-15:00, Fr 08:00-12:00",
        "website": "https://www.instagram.com/capslivramentobahia",
        "wheelchair": "yes",
        "id": "node/12463898291"
      },
      "geometry": {
        "type": "Point",
        "coordinates": [
          -41.8488754,
          -13.6385213
        ]
      }
    }
  ]
}
