{
  "type": "FeatureCollection",
  "features": [
    {
      "type": "Feature",
      "id": "way/964077605",
      "properties": {
        "timestamp": "2023-01-21T15:42:25Z",
        "version": 3,
        "changeset": 131545356,
        "addr:city": "Balne√°rio Gaivota",
        "addr:housenumber": "199",
        "addr:postcode": "88955-000",
        "addr:street": "Rua Adolfo Konder",
        "addr:suburb": "Centro",
        "amenity": "college",
        "building": "retail",
        "name": "Flow Treinamento Personalizado",
        "id": "way/964077605"
      },
      "geometry": {
        "type": "Polygon",
        "coordinates": [
          [
            [
              -49.5770674,
              -29.1567955
            ],
            [
              -49.5769129,
              -29.1566151
            ],
            [
              -49.5771195,
              -29.1564816
            ],
            [
              -49.5772756,
              -29.1566577
            ],
            [
              -49.5770674,
              -29.1567955
            ]
          ]
        ]
      }
    }
  ]
}
