{
  "type": "FeatureCollection",
  "features": [
    {
      "type": "Feature",
      "id": "node/3163967350",
      "properties": {
        "timestamp": "2023-04-23T20:13:43Z",
        "version": 5,
        "changeset": 135276299,
        "addr:housenumber": "630",
        "addr:street": "Rua Machado de Assis",
        "addr:suburb": "Centro",
        "alt_name": "Hospital Caibi",
        "amenity": "hospital",
        "description": "Hospital filantrópico de utilidade pública conveniado ao Sistema Único de Saúde (SUS), a planos de saúde suplementar ou com atendimento particular.",
        "healthcare": "hospital",
        "name": "Hospital Beneficente São José",
        "network": "Sistema Único de Saúde",
        "network:short": "SUS",
        "network:website": "https://conectesus.saude.gov.br/",
        "network:wikidata": "Q7531056",
        "network:wikipedia": "pt:Sistema Único de Saúde",
        "opening_hours": "24/7",
        "operator": "Instituto Santé",
        "operator:type": "ngo",
        "operator:website": "https://institutosante.com.br/",
        "ownership": "private_nonprofit",
        "phone": "+55-49-3648-0111",
        "id": "node/3163967350"
      },
      "geometry": {
        "type": "Point",
        "coordinates": [
          -53.2462969,
          -27.0759777
        ]
      }
    }
  ]
}
