{
  "type": "FeatureCollection",
  "features": [
    {
      "type": "Feature",
      "id": "way/429289148",
      "properties": {
        "timestamp": "2022-02-08T05:59:23Z",
        "version": 3,
        "changeset": 117144388,
        "addr:city": "Mariana",
        "addr:housenumber": "84",
        "addr:postcode": "35420-000",
        "addr:street": "Rua Frei Durão",
        "addr:suburb": "Centro",
        "building": "yes",
        "building:levels": "2",
        "description": "Casa de Cultura de Mariana – Academia Marianense de Letras: erguido em 1730. \n(http://www.primeirascidadesdeminas.com.br/casa-de-cultura-mariana)",
        "name": "Casa de Cultura",
        "opening_hours": "Mo-Sa 09:00-18:00",
        "tourism": "gallery",
        "id": "way/429289148"
      },
      "geometry": {
        "type": "Polygon",
        "coordinates": [
          [
            [
              -43.4161475,
              -20.3784177
            ],
            [
              -43.4161713,
              -20.3785462
            ],
            [
              -43.4159914,
              -20.3785754
            ],
            [
              -43.4159676,
              -20.3784469
            ],
            [
              -43.4161475,
              -20.3784177
            ]
          ]
        ]
      }
    }
  ]
}
