{
  "type": "FeatureCollection",
  "features": [
    {
      "type": "Feature",
      "id": "way/712536682",
      "properties": {
        "timestamp": "2024-11-05T18:20:23Z",
        "version": 2,
        "changeset": 158790091,
        "addr:city": "Rio Pardo de Minas",
        "addr:postcode": "39530000",
        "addr:street": "Rua Arlindo Dias Silveira",
        "addr:suburb": "Jardim Florestal",
        "amenity": "clinic",
        "building": "yes",
        "healthcare": "clinic",
        "name": "Unidade Mista de Saúde",
        "id": "way/712536682"
      },
      "geometry": {
        "type": "Polygon",
        "coordinates": [
          [
            [
              -42.5452191,
              -15.6255724
            ],
            [
              -42.5452685,
              -15.6256828
            ],
            [
              -42.5453703,
              -15.6256405
            ],
            [
              -42.5454111,
              -15.6257319
            ],
            [
              -42.5453085,
              -15.6257745
            ],
            [
              -42.5453702,
              -15.6259125
            ],
            [
              -42.5452809,
              -15.6259495
            ],
            [
              -42.5452211,
              -15.6258157
            ],
            [
              -42.5451549,
              -15.6258432
            ],
            [
              -42.5451105,
              -15.625744
            ],
            [
              -42.5451737,
              -15.6257177
            ],
            [
              -42.5451259,
              -15.6256111
            ],
            [
              -42.5452191,
              -15.6255724
            ]
          ]
        ]
      }
    },
    {
      "type": "Feature",
      "id": "way/712536683",
      "properties": {
        "timestamp": "2024-10-29T14:24:02Z",
        "version": 2,
        "changeset": 158500936,
        "addr:city": "Rio Pardo de Minas",
        "addr:housenumber": "310",
        "addr:postcode": "39530000",
        "addr:street": "Rua J",
        "addr:suburb": "Jardim Florestal",
        "amenity": "clinic",
        "building": "yes",
        "healthcare": "clinic",
        "healthcare:speciality": "general",
        "name": "Unidade Básica de Saúde Morais",
        "operator": "Município de Rio Pardo de Minas",
        "operator:type": "public",
        "id": "way/712536683"
      },
      "geometry": {
        "type": "Polygon",
        "coordinates": [
          [
            [
              -42.5438685,
              -15.6243335
            ],
            [
              -42.5439408,
              -15.6244542
            ],
            [
              -42.5439643,
              -15.6244411
            ],
            [
              -42.5440043,
              -15.6245078
            ],
            [
              -42.5438684,
              -15.6245833
            ],
            [
              -42.5437562,
              -15.6243959
            ],
            [
              -42.5438685,
              -15.6243335
            ]
          ]
        ]
      }
    },
    {
      "type": "Feature",
      "id": "way/712536686",
      "properties": {
        "timestamp": "2024-10-29T14:24:02Z",
        "version": 2,
        "changeset": 158500936,
        "addr:city": "Rio Pardo de Minas",
        "addr:postcode": "39530-000",
        "addr:street": "Rua Deputado Edmundo Blum",
        "addr:suburb": "Cidade Alta",
        "amenity": "clinic",
        "building": "yes",
        "healthcare": "clinic",
        "healthcare:speciality": "general",
        "name": "Unidade Básica de Saúde Cidade Alta",
        "operator": "Município de Rio Pardo de Minas",
        "operator:type": "public",
        "id": "way/712536686"
      },
      "geometry": {
        "type": "Polygon",
        "coordinates": [
          [
            [
              -42.5426133,
              -15.6136367
            ],
            [
              -42.5425543,
              -15.6138692
            ],
            [
              -42.5423236,
              -15.613802
            ],
            [
              -42.5423934,
              -15.6135799
            ],
            [
              -42.5426133,
              -15.6136367
            ]
          ]
        ]
      }
    },
    {
      "type": "Feature",
      "id": "way/1242149193",
      "properties": {
        "timestamp": "2024-11-08T14:36:41Z",
        "version": 2,
        "changeset": 158898493,
        "addr:city": "Rio Pardo de Minas",
        "addr:housenumber": "102",
        "addr:postcode": "39530-000",
        "addr:street": "Avenida Espinosa",
        "addr:suburb": "Esplanada",
        "amenity": "clinic",
        "building": "yes",
        "healthcare": "clinic",
        "healthcare:speciality": "general",
        "name": "Unidade Básica de Saúde Esplanada",
        "operator": "Município de Rio Pardo de Minas",
        "operator:type": "public",
        "id": "way/1242149193"
      },
      "geometry": {
        "type": "Polygon",
        "coordinates": [
          [
            [
              -42.5451626,
              -15.6180963
            ],
            [
              -42.5451901,
              -15.6181681
            ],
            [
              -42.545138,
              -15.6181866
            ],
            [
              -42.545187,
              -15.6183148
            ],
            [
              -42.5452501,
              -15.6182924
            ],
            [
              -42.5452809,
              -15.618373
            ],
            [
              -42.5451234,
              -15.6184289
            ],
            [
              -42.5450161,
              -15.6181483
            ],
            [
              -42.5451626,
              -15.6180963
            ]
          ]
        ]
      }
    },
    {
      "type": "Feature",
      "id": "way/1329103222",
      "properties": {
        "timestamp": "2024-11-06T23:33:40Z",
        "version": 2,
        "changeset": 158836880,
        "addr:city": "Rio Pardo de Minas",
        "addr:housenumber": "43",
        "addr:postcode": "39530-000",
        "addr:street": "Rua Valdemir Patrício de Sousa",
        "addr:suburb": "Jaqueira",
        "amenity": "clinic",
        "building": "yes",
        "healthcare": "clinic",
        "healthcare:speciality": "general",
        "name": "Unidade Básica de Saúde Centro",
        "operator": "Município de Rio Pardo de Minas",
        "operator:type": "public",
        "id": "way/1329103222"
      },
      "geometry": {
        "type": "Polygon",
        "coordinates": [
          [
            [
              -42.5384962,
              -15.6131195
            ],
            [
              -42.5385144,
              -15.6133689
            ],
            [
              -42.5384144,
              -15.6133757
            ],
            [
              -42.5383961,
              -15.6131263
            ],
            [
              -42.5384962,
              -15.6131195
            ]
          ]
        ]
      }
    }
  ]
}
