{
  "type": "FeatureCollection",
  "features": [
    {
      "type": "Feature",
      "id": "way/439199288",
      "properties": {
        "timestamp": "2024-10-29T14:24:02Z",
        "version": 3,
        "changeset": 158500936,
        "addr:city": "Rio Pardo de Minas",
        "addr:housenumber": "468",
        "addr:postcode": "39530000",
        "addr:street": "Rua Odilio Torres Costa",
        "addr:suburb": "Jardim Florestal",
        "building": "yes",
        "government": "healthcare",
        "name": "Secretaria Municipal de Saúde",
        "office": "government",
        "operator": "Prefeitura Municipal de Rio Pardo de Minas",
        "operator:type": "public",
        "id": "way/439199288"
      },
      "geometry": {
        "type": "Polygon",
        "coordinates": [
          [
            [
              -42.5418372,
              -15.6187357
            ],
            [
              -42.5416676,
              -15.6192718
            ],
            [
              -42.5414358,
              -15.6192037
            ],
            [
              -42.5413952,
              -15.6193322
            ],
            [
              -42.5413041,
              -15.6193055
            ],
            [
              -42.5414856,
              -15.6187314
            ],
            [
              -42.5416042,
              -15.6187661
            ],
            [
              -42.5415447,
              -15.6189543
            ],
            [
              -42.5416201,
              -15.6189764
            ],
            [
              -42.5417082,
              -15.6186979
            ],
            [
              -42.5418372,
              -15.6187357
            ]
          ]
        ]
      }
    },
    {
      "type": "Feature",
      "id": "node/12319675017",
      "properties": {
        "timestamp": "2024-11-07T19:30:21Z",
        "version": 2,
        "changeset": 158869246,
        "addr:city": "Rio Pardo de Minas",
        "addr:housenumber": "29",
        "addr:postcode": "39530-000",
        "addr:street": "Praça Benedito Valadares",
        "addr:suburb": "Centro",
        "government": "administrative",
        "name": "Instituto de Terras de Minas Gerais Iter",
        "office": "government",
        "id": "node/12319675017"
      },
      "geometry": {
        "type": "Point",
        "coordinates": [
          -42.5383356,
          -15.612522
        ]
      }
    },
    {
      "type": "Feature",
      "id": "node/12319675018",
      "properties": {
        "timestamp": "2024-11-06T23:33:40Z",
        "version": 1,
        "changeset": 158836880,
        "addr:city": "Rio Pardo de Minas",
        "addr:housenumber": "254",
        "addr:postcode": "39530-000",
        "addr:state": "Minas Gerais",
        "addr:street": "Praça Marechal Deodoro da Fonseca",
        "addr:suburb": "Centro",
        "government": "public_service",
        "name": "Escritório Local da Emater",
        "office": "government",
        "id": "node/12319675018"
      },
      "geometry": {
        "type": "Point",
        "coordinates": [
          -42.5386977,
          -15.6144762
        ]
      }
    }
  ]
}
