{
  "type": "FeatureCollection",
  "features": [
    {
      "type": "Feature",
      "id": "way/1331096822",
      "properties": {
        "timestamp": "2024-11-05T18:20:23Z",
        "version": 1,
        "changeset": 158790091,
        "addr:city": "Rio Pardo de Minas",
        "addr:housenumber": "747",
        "addr:postcode": "39530-000",
        "addr:street": "Avenida MÃ¡rio Nascimento",
        "addr:suburb": "Centro",
        "name": "Pinheiro Gran Hotel",
        "operator": "Pinheiro Palace Hotel Limitada",
        "tourism": "hotel",
        "id": "way/1331096822"
      },
      "geometry": {
        "type": "Polygon",
        "coordinates": [
          [
            [
              -42.5388282,
              -15.6149078
            ],
            [
              -42.5388166,
              -15.6150163
            ],
            [
              -42.5385659,
              -15.6149914
            ],
            [
              -42.5385775,
              -15.6148828
            ],
            [
              -42.5388282,
              -15.6149078
            ]
          ]
        ]
      }
    },
    {
      "type": "Feature",
      "id": "way/1331096823",
      "properties": {
        "timestamp": "2024-11-05T18:20:23Z",
        "version": 1,
        "changeset": 158790091,
        "addr:city": "Rio Pardo de Minas",
        "addr:housenumber": "12",
        "addr:postcode": "39530-000",
        "addr:street": "Rua Jovelino Pinheiro da Cruz",
        "addr:suburb": "Centro",
        "name": "Pinheiro Palace Hotel",
        "operator": "Pinheiro Palace Hotel LTDA",
        "tourism": "hotel",
        "id": "way/1331096823"
      },
      "geometry": {
        "type": "Polygon",
        "coordinates": [
          [
            [
              -42.5387715,
              -15.615268
            ],
            [
              -42.5387634,
              -15.6154023
            ],
            [
              -42.5385354,
              -15.6153248
            ],
            [
              -42.5385502,
              -15.615246
            ],
            [
              -42.5387715,
              -15.615268
            ]
          ]
        ]
      }
    }
  ]
}
