{
  "type": "FeatureCollection",
  "features": [
    {
      "type": "Feature",
      "id": "node/12323748477",
      "properties": {
        "timestamp": "2024-11-08T14:18:01Z",
        "version": 2,
        "changeset": 158897791,
        "IBGE:COD_UNICO_ENDERECO": "36078262",
        "addr:city": "Rio Pardo de Minas",
        "addr:housenumber": "82",
        "addr:postcode": "39530-000",
        "addr:street": "Praça Getúlio Vargas",
        "addr:suburb": "Centro",
        "amenity": "pharmacy",
        "healthcare": "pharmacy",
        "name": "Drogaria Brasil",
        "shop": "pharmacy",
        "id": "node/12323748477"
      },
      "geometry": {
        "type": "Point",
        "coordinates": [
          -42.5384194,
          -15.610735
        ]
      }
    },
    {
      "type": "Feature",
      "id": "node/12323748478",
      "properties": {
        "timestamp": "2024-11-08T14:09:41Z",
        "version": 1,
        "changeset": 158897480,
        "IBGE:COD_UNICO_ENDERECO": "36078475",
        "addr:housenumber": "264",
        "addr:postcode": "39530-000",
        "addr:street": "Praça Getúlio Vargas",
        "addr:suburb": "Centro",
        "amenity": "pharmacy",
        "healthcare": "pharmacy",
        "name": "Drogaria Bem Estar",
        "id": "node/12323748478"
      },
      "geometry": {
        "type": "Point",
        "coordinates": [
          -42.5393857,
          -15.6103211
        ]
      }
    },
    {
      "type": "Feature",
      "id": "node/12323748479",
      "properties": {
        "timestamp": "2024-11-08T14:09:41Z",
        "version": 1,
        "changeset": 158897480,
        "IBGE:COD_UNICO_ENDERECO": "36078519",
        "addr:housenumber": "328",
        "addr:postcode": "39530-000",
        "addr:street": "Praça Doutor José Cantidio de Freitas",
        "addr:suburb": "Centro",
        "amenity": "pharmacy",
        "healthcare": "pharmacy",
        "name": "Farmácia Bom Jesus",
        "id": "node/12323748479"
      },
      "geometry": {
        "type": "Point",
        "coordinates": [
          -42.5398256,
          -15.6107021
        ]
      }
    },
    {
      "type": "Feature",
      "id": "node/12323748480",
      "properties": {
        "timestamp": "2024-11-08T14:18:01Z",
        "version": 2,
        "changeset": 158897791,
        "IBGE:COD_UNICO_ENDERECO": "107120664",
        "addr:city": "Rio Pardo de Minas",
        "addr:housenumber": "302 Térreo",
        "addr:postcode": "39530-000",
        "addr:street": "Avenida Doutor Rafael Bastos Pereira",
        "addr:suburb": "Centro",
        "amenity": "pharmacy",
        "healthcare": "pharmacy",
        "name": "Drogaria Bom Preço",
        "shop": "pharmacy",
        "id": "node/12323748480"
      },
      "geometry": {
        "type": "Point",
        "coordinates": [
          -42.5399278,
          -15.6111971
        ]
      }
    },
    {
      "type": "Feature",
      "id": "node/12323804385",
      "properties": {
        "timestamp": "2024-11-08T14:36:41Z",
        "version": 1,
        "changeset": 158898493,
        "addr:city": "Rio Pardo de Minas",
        "addr:housenumber": "102",
        "addr:postcode": "39530-000",
        "addr:street": "Avenida Espinosa",
        "addr:suburb": "Cidade Alta",
        "amenity": "pharmacy",
        "healthcare": "pharmacy",
        "name": "Farmácia Minas",
        "operator": "Secretaria de Saúde do Estado de Minas Gerais",
        "id": "node/12323804385"
      },
      "geometry": {
        "type": "Point",
        "coordinates": [
          -42.5453412,
          -15.6183669
        ]
      }
    }
  ]
}
