{
  "type": "FeatureCollection",
  "features": [
    {
      "type": "Feature",
      "id": "way/353934957",
      "properties": {
        "timestamp": "2024-11-08T14:09:41Z",
        "version": 5,
        "changeset": 158897480,
        "addr:city": "Rio Pardo de Minas",
        "addr:housenumber": "96",
        "addr:postcode": "39530000",
        "addr:street": "Rua Osório Batista",
        "addr:suburb": "Cidade Alta",
        "amenity": "school",
        "name": "Escola Estadual Professor José Cristiano",
        "operator": "Secretaria de Educação do Estado de Minas Gerais",
        "operator:type": "public",
        "id": "way/353934957"
      },
      "geometry": {
        "type": "Polygon",
        "coordinates": [
          [
            [
              -42.5430565,
              -15.6158586
            ],
            [
              -42.5427203,
              -15.6169231
            ],
            [
              -42.541884,
              -15.6166315
            ],
            [
              -42.5421777,
              -15.6155537
            ],
            [
              -42.5430565,
              -15.6158586
            ]
          ]
        ]
      }
    },
    {
      "type": "Feature",
      "id": "way/487082001",
      "properties": {
        "timestamp": "2017-04-16T00:38:11Z",
        "version": 1,
        "changeset": 47827752,
        "amenity": "school",
        "name": "EM Gerino Ferreira Costa",
        "id": "way/487082001"
      },
      "geometry": {
        "type": "Polygon",
        "coordinates": [
          [
            [
              -42.6713387,
              -15.9029388
            ],
            [
              -42.6714282,
              -15.9032371
            ],
            [
              -42.670916,
              -15.9033794
            ],
            [
              -42.6708264,
              -15.903081
            ],
            [
              -42.6713387,
              -15.9029388
            ]
          ]
        ]
      }
    },
    {
      "type": "Feature",
      "id": "way/712428109",
      "properties": {
        "timestamp": "2024-11-08T13:06:37Z",
        "version": 4,
        "changeset": 158895018,
        "addr:city": "Rio Pardo de Minas",
        "addr:housenumber": "286",
        "addr:postcode": "39530000",
        "addr:street": "Rua Arlindo Dias Silveira",
        "addr:suburb": "Jardim Florestal",
        "amenity": "school",
        "name": "Escola Estadual Professora Marlene Carmo",
        "id": "way/712428109"
      },
      "geometry": {
        "type": "Polygon",
        "coordinates": [
          [
            [
              -42.5436427,
              -15.6208176
            ],
            [
              -42.5437283,
              -15.6210167
            ],
            [
              -42.5437673,
              -15.6211075
            ],
            [
              -42.5438799,
              -15.6213694
            ],
            [
              -42.5436884,
              -15.6214455
            ],
            [
              -42.5434426,
              -15.6215431
            ],
            [
              -42.5433649,
              -15.6215741
            ],
            [
              -42.5431279,
              -15.6210227
            ],
            [
              -42.5435921,
              -15.6208378
            ],
            [
              -42.5436427,
              -15.6208176
            ]
          ]
        ]
      }
    },
    {
      "type": "Feature",
      "id": "way/712429325",
      "properties": {
        "timestamp": "2024-11-08T13:06:37Z",
        "version": 2,
        "changeset": 158895018,
        "addr:city": "Rio Pardo de Minas",
        "addr:housenumber": "33",
        "addr:postcode": "39530000",
        "addr:street": "Avenida Espinosa",
        "addr:suburb": "Jardim Florestal",
        "amenity": "school",
        "name": "Centro Municipal de Educação Infantil Monteiro Lobato",
        "operator": "Município Rio Pardo de Minas",
        "operator:type": "public",
        "id": "way/712429325"
      },
      "geometry": {
        "type": "Polygon",
        "coordinates": [
          [
            [
              -42.5422622,
              -15.6197088
            ],
            [
              -42.5425062,
              -15.6202849
            ],
            [
              -42.5421656,
              -15.6204295
            ],
            [
              -42.5419537,
              -15.6199258
            ],
            [
              -42.542002,
              -15.6198096
            ],
            [
              -42.5422622,
              -15.6197088
            ]
          ]
        ]
      }
    },
    {
      "type": "Feature",
      "id": "way/712536689",
      "properties": {
        "timestamp": "2019-08-10T18:36:12Z",
        "version": 1,
        "changeset": 73226883,
        "addr:city": "Rio Pardo de Minas",
        "addr:postcode": "39530000",
        "addr:street": "Avenida Doutor Alberto Deodato Maia Barreto",
        "addr:suburb": "Esplanada",
        "amenity": "school",
        "name": "Escola Municipal Brithes Mesquita",
        "id": "way/712536689"
      },
      "geometry": {
        "type": "Polygon",
        "coordinates": [
          [
            [
              -42.5478061,
              -15.6202135
            ],
            [
              -42.5480528,
              -15.6208386
            ],
            [
              -42.5475378,
              -15.6210401
            ],
            [
              -42.5472911,
              -15.6204098
            ],
            [
              -42.5478061,
              -15.6202135
            ]
          ]
        ]
      }
    },
    {
      "type": "Feature",
      "id": "way/746241561",
      "properties": {
        "timestamp": "2024-11-08T13:06:37Z",
        "version": 2,
        "changeset": 158895018,
        "addr:city": "Rio Pardo de Minas",
        "addr:postcode": "39530-000",
        "addr:street": "Rua Dario Silveira",
        "addr:suburb": "Centro",
        "amenity": "school",
        "email": "serranovarosaherculana@gmail.com",
        "name": "Escola Municipal Professora Rosa Herculana",
        "id": "way/746241561"
      },
      "geometry": {
        "type": "Polygon",
        "coordinates": [
          [
            [
              -42.7302986,
              -15.6393731
            ],
            [
              -42.7306178,
              -15.6397037
            ],
            [
              -42.7296266,
              -15.6404484
            ],
            [
              -42.729311,
              -15.6401173
            ],
            [
              -42.7302986,
              -15.6393731
            ]
          ]
        ]
      }
    },
    {
      "type": "Feature",
      "id": "way/831075857",
      "properties": {
        "timestamp": "2024-11-08T13:06:37Z",
        "version": 2,
        "changeset": 158895018,
        "addr:city": "Rio Pardo de Minas",
        "addr:housenumber": "555",
        "addr:postcode": "39530-000",
        "addr:street": "Avenida Doutor Alberto Deodato Maia Barreto",
        "addr:suburb": "Esplanada",
        "amenity": "school",
        "name": "Escola Municipal Professora Brithes Mesquita",
        "operator": "Município de Rio Pardo de Minas",
        "operator:type": "public",
        "id": "way/831075857"
      },
      "geometry": {
        "type": "Polygon",
        "coordinates": [
          [
            [
              -42.5438799,
              -15.6213694
            ],
            [
              -42.5439373,
              -15.6215034
            ],
            [
              -42.5434223,
              -15.6217081
            ],
            [
              -42.5433649,
              -15.6215741
            ],
            [
              -42.5434426,
              -15.6215431
            ],
            [
              -42.5436884,
              -15.6214455
            ],
            [
              -42.5438799,
              -15.6213694
            ]
          ]
        ]
      }
    },
    {
      "type": "Feature",
      "id": "way/1331491526",
      "properties": {
        "timestamp": "2024-11-06T23:05:33Z",
        "version": 1,
        "changeset": 158836394,
        "addr:city": "Rio Pardo de Minas",
        "addr:hamlet": "Traçadal",
        "addr:postcode": "39530-000",
        "addr:state": "Minas Gerais",
        "amenity": "school",
        "name": "Escola Municipal de Traçadal",
        "operator": "Município de Rio Pardo de Minas",
        "id": "way/1331491526"
      },
      "geometry": {
        "type": "Polygon",
        "coordinates": [
          [
            [
              -42.5779706,
              -15.4877974
            ],
            [
              -42.5779706,
              -15.4882161
            ],
            [
              -42.5773323,
              -15.4882006
            ],
            [
              -42.5773537,
              -15.4875983
            ],
            [
              -42.5779706,
              -15.4877974
            ]
          ]
        ]
      }
    },
    {
      "type": "Feature",
      "id": "way/1331695162",
      "properties": {
        "timestamp": "2024-11-08T13:06:37Z",
        "version": 2,
        "changeset": 158895018,
        "addr:city": "Rio Pardo de Minas",
        "addr:housenumber": "30",
        "addr:postcode": "39530-000",
        "addr:street": "Praça Getúlio Vargas",
        "addr:suburb": "Centro",
        "amenity": "school",
        "name": "Escola Municipal Professor Gumercindo Costa",
        "operator": "Município de Rio Pardo de Minas",
        "operator:type": "public",
        "id": "way/1331695162"
      },
      "geometry": {
        "type": "Polygon",
        "coordinates": [
          [
            [
              -42.5383737,
              -15.6110704
            ],
            [
              -42.5383154,
              -15.6112978
            ],
            [
              -42.5376946,
              -15.6111631
            ],
            [
              -42.5376917,
              -15.6109244
            ],
            [
              -42.5383737,
              -15.6110704
            ]
          ]
        ]
      }
    },
    {
      "type": "Feature",
      "id": "way/1331945863",
      "properties": {
        "timestamp": "2024-11-08T13:06:37Z",
        "version": 1,
        "changeset": 158895018,
        "addr:city": "Rio Pardo de Minas",
        "addr:housenumber": "208",
        "addr:postcode": "39530-000",
        "addr:street": "Rua Tácito de Freitas Costa",
        "addr:suburb": "Cidade Alta",
        "amenity": "school",
        "name": "Centro Municipal de Educação Infantil Casulo Menino Jesus",
        "operator": "Município",
        "operator:type": "public",
        "id": "way/1331945863"
      },
      "geometry": {
        "type": "Polygon",
        "coordinates": [
          [
            [
              -42.5412614,
              -15.6137192
            ],
            [
              -42.5410454,
              -15.6144035
            ],
            [
              -42.5401331,
              -15.614103
            ],
            [
              -42.5404836,
              -15.6134464
            ],
            [
              -42.5412614,
              -15.6137192
            ]
          ]
        ]
      }
    },
    {
      "type": "Feature",
      "id": "node/12323633956",
      "properties": {
        "timestamp": "2024-11-08T13:06:37Z",
        "version": 1,
        "changeset": 158895018,
        "addr:city": "Rio Pardo de Minas",
        "addr:housenumber": "189",
        "addr:postcode": "39530-000",
        "addr:street": "Avenida Doutor Rafael Bastos Pereira",
        "addr:suburb": "Centro",
        "amenity": "school",
        "email": "adacpai@gmail.com",
        "name": "Pré Escola Municipal Pedacinho do Céu",
        "operator": "Município de Rio Pardo de Minas",
        "operator:type": "public",
        "phone": "+55 38 3824 1520",
        "id": "node/12323633956"
      },
      "geometry": {
        "type": "Point",
        "coordinates": [
          -42.5398909,
          -15.6115647
        ]
      }
    }
  ]
}
