{
  "type": "FeatureCollection",
  "features": [
    {
      "type": "Feature",
      "id": "way/504162289",
      "properties": {
        "timestamp": "2017-06-30T09:02:18Z",
        "version": 1,
        "changeset": 49938607,
        "amenity": "school",
        "id": "way/504162289"
      },
      "geometry": {
        "type": "Polygon",
        "coordinates": [
          [
            [
              -39.2513414,
              -12.6812758
            ],
            [
              -39.2512804,
              -12.6816367
            ],
            [
              -39.2509348,
              -12.6815693
            ],
            [
              -39.2510243,
              -12.681252
            ],
            [
              -39.2513414,
              -12.6812758
            ]
          ]
        ]
      }
    },
    {
      "type": "Feature",
      "id": "node/1962631235",
      "properties": {
        "timestamp": "2023-03-09T01:27:51Z",
        "version": 2,
        "changeset": 133460625,
        "addr:city": "Castro Alves",
        "addr:postcode": "45500-000",
        "addr:street": "Rua de Anapio",
        "amenity": "school",
        "name": "Colégio Estadual Polivalente de Castro Alves",
        "phone": "+55 75 3522 1128",
        "id": "node/1962631235"
      },
      "geometry": {
        "type": "Point",
        "coordinates": [
          -39.4342292,
          -12.7641059
        ]
      }
    },
    {
      "type": "Feature",
      "id": "node/10722540268",
      "properties": {
        "timestamp": "2023-03-09T01:27:51Z",
        "version": 1,
        "changeset": 133460625,
        "addr:city": "Castro Alves",
        "addr:postcode": "45500-000",
        "addr:street": "Rua Joaquim Evangelista",
        "amenity": "school",
        "name": "Escola Municipal Luiz Eduardo Magalhães",
        "id": "node/10722540268"
      },
      "geometry": {
        "type": "Point",
        "coordinates": [
          -39.4255395,
          -12.7597307
        ]
      }
    },
    {
      "type": "Feature",
      "id": "node/10724586331",
      "properties": {
        "timestamp": "2023-03-09T23:00:10Z",
        "version": 1,
        "changeset": 133497815,
        "addr:city": "Castro Alves",
        "addr:postcode": "45500-000",
        "addr:street": "Rua João Durval",
        "addr:suburb": "Centro",
        "amenity": "school",
        "email": "jsneri23@yahoo.com.br",
        "name": "Colégio Municipal Vicente José de Lima",
        "operator": "Município de Castro Alves",
        "operator:type": "public",
        "phone": "+55 75 3522 3808",
        "id": "node/10724586331"
      },
      "geometry": {
        "type": "Point",
        "coordinates": [
          -39.4294336,
          -12.7609289
        ]
      }
    },
    {
      "type": "Feature",
      "id": "node/10724586332",
      "properties": {
        "timestamp": "2023-03-09T23:00:10Z",
        "version": 1,
        "changeset": 133497815,
        "addr:city": "Castro Alves",
        "addr:housenumber": "126",
        "addr:postcode": "45500-000",
        "addr:street": "Praça Dionísio Cerqueira",
        "addr:suburb": "Centro",
        "amenity": "school",
        "name": "Colégio Imaculada Conceição",
        "id": "node/10724586332"
      },
      "geometry": {
        "type": "Point",
        "coordinates": [
          -39.426148,
          -12.7622539
        ]
      }
    },
    {
      "type": "Feature",
      "id": "node/10724586354",
      "properties": {
        "timestamp": "2023-03-09T23:00:10Z",
        "version": 1,
        "changeset": 133497815,
        "addr:city": "Castro Alves",
        "addr:housenumber": "157",
        "addr:postcode": "45500-000",
        "addr:street": "Rua Floriano Peixoto",
        "addr:suburb": "Centro",
        "amenity": "school",
        "name": "Escola Municipal Reunidas Cecília Nunes",
        "operator": "Município de Castro Alves",
        "operator:type": "public",
        "phone": "+55 75 3522 3812",
        "id": "node/10724586354"
      },
      "geometry": {
        "type": "Point",
        "coordinates": [
          -39.4292794,
          -12.7658168
        ]
      }
    },
    {
      "type": "Feature",
      "id": "node/10724586355",
      "properties": {
        "timestamp": "2023-03-09T23:00:10Z",
        "version": 1,
        "changeset": 133497815,
        "addr:city": "Castro Alves",
        "addr:postcode": "45500-000",
        "addr:street": "Rua Tranquilino Nogueira",
        "addr:suburb": "Centro",
        "amenity": "school",
        "name": "Escolas Master",
        "id": "node/10724586355"
      },
      "geometry": {
        "type": "Point",
        "coordinates": [
          -39.4250634,
          -12.7667607
        ]
      }
    },
    {
      "type": "Feature",
      "id": "node/10727337092",
      "properties": {
        "timestamp": "2023-03-11T10:03:58Z",
        "version": 1,
        "changeset": 133546798,
        "addr:city": "Castro Alves",
        "addr:housenumber": "05",
        "addr:postcode": "45500-000",
        "addr:street": "Rua Benjamin Constant",
        "addr:suburb": "Centro",
        "amenity": "school",
        "name": "Escola Municipal Professor Eugênio Araújo",
        "id": "node/10727337092"
      },
      "geometry": {
        "type": "Point",
        "coordinates": [
          -39.4251179,
          -12.7649901
        ]
      }
    }
  ]
}
