{
  "type": "FeatureCollection",
  "features": [
    {
      "type": "Feature",
      "id": "way/819082848",
      "properties": {
        "timestamp": "2020-10-29T20:39:37Z",
        "version": 2,
        "changeset": 93256023,
        "addr:city": "Feira Nova",
        "addr:postcode": "49670-000",
        "addr:street": "Travessa Josefina Francisco de Souza",
        "building": "yes",
        "government": "public_service",
        "name": "Junta do Serviço Militar",
        "office": "government",
        "id": "way/819082848"
      },
      "geometry": {
        "type": "Polygon",
        "coordinates": [
          [
            [
              -37.3108544,
              -10.2640841
            ],
            [
              -37.310743,
              -10.2641113
            ],
            [
              -37.310735,
              -10.2640532
            ],
            [
              -37.3108389,
              -10.2640305
            ],
            [
              -37.3108544,
              -10.2640841
            ]
          ]
        ]
      }
    },
    {
      "type": "Feature",
      "id": "node/7644191753",
      "properties": {
        "timestamp": "2020-10-29T20:39:36Z",
        "version": 2,
        "changeset": 93256023,
        "addr:city": "Feira Nova",
        "addr:postcode": "49670-000",
        "government": "public_service",
        "name": "Secretaria de Saude do Municipio de Feira nova",
        "office": "government",
        "id": "node/7644191753"
      },
      "geometry": {
        "type": "Point",
        "coordinates": [
          -37.3140299,
          -10.2642887
        ]
      }
    },
    {
      "type": "Feature",
      "id": "node/7644191754",
      "properties": {
        "timestamp": "2021-03-14T21:48:38Z",
        "version": 3,
        "changeset": 101009047,
        "addr:city": "Feira Nova",
        "addr:postcode": "49670-000",
        "government": "public_service",
        "name": "Unidade de Atendimento ao Cliente (DESO)",
        "office": "government",
        "operator": "Companhia de Saneamento de Sergipe (DESO)",
        "id": "node/7644191754"
      },
      "geometry": {
        "type": "Point",
        "coordinates": [
          -37.3132964,
          -10.2645843
        ]
      }
    },
    {
      "type": "Feature",
      "id": "node/7644191761",
      "properties": {
        "timestamp": "2020-10-29T20:39:36Z",
        "version": 2,
        "changeset": 93256023,
        "addr:city": "Feira Nova",
        "addr:postcode": "49670-000",
        "addr:street": "Avenida Conego Miguel Barbosa",
        "government": "legislative",
        "name": "Camara dos Vereadores",
        "office": "government",
        "id": "node/7644191761"
      },
      "geometry": {
        "type": "Point",
        "coordinates": [
          -37.3098511,
          -10.264645
        ]
      }
    },
    {
      "type": "Feature",
      "id": "node/7649312851",
      "properties": {
        "timestamp": "2020-10-29T20:39:36Z",
        "version": 2,
        "changeset": 93256023,
        "addr:city": "Feira Nova",
        "addr:postcode": "49670-000",
        "addr:street": "Rua José Lino de Souza",
        "government": "public_service",
        "name": "Conselho Tutelar de Feira nova",
        "office": "government",
        "id": "node/7649312851"
      },
      "geometry": {
        "type": "Point",
        "coordinates": [
          -37.3101261,
          -10.2632522
        ]
      }
    }
  ]
}
