{
  "type": "FeatureCollection",
  "features": [
    {
      "type": "Feature",
      "id": "node/7643827859",
      "properties": {
        "timestamp": "2020-10-29T20:39:36Z",
        "version": 2,
        "changeset": 93256023,
        "addr:city": "Feira Nova",
        "addr:postcode": "49670-000",
        "amenity": "pharmacy",
        "dispensing": "yes",
        "drive_through": "no",
        "healthcare": "pharmacy",
        "id": "node/7643827859"
      },
      "geometry": {
        "type": "Point",
        "coordinates": [
          -37.3111044,
          -10.2640565
        ]
      }
    },
    {
      "type": "Feature",
      "id": "node/7643831908",
      "properties": {
        "timestamp": "2020-10-29T20:39:36Z",
        "version": 2,
        "changeset": 93256023,
        "addr:city": "Feira Nova",
        "addr:postcode": "49670-000",
        "amenity": "pharmacy",
        "dispensing": "yes",
        "drive_through": "no",
        "healthcare": "pharmacy",
        "id": "node/7643831908"
      },
      "geometry": {
        "type": "Point",
        "coordinates": [
          -37.3109486,
          -10.264757
        ]
      }
    },
    {
      "type": "Feature",
      "id": "node/7643831909",
      "properties": {
        "timestamp": "2020-10-29T20:39:36Z",
        "version": 2,
        "changeset": 93256023,
        "addr:city": "Feira Nova",
        "addr:postcode": "49670-000",
        "amenity": "pharmacy",
        "dispensing": "yes",
        "drive_through": "no",
        "healthcare": "pharmacy",
        "id": "node/7643831909"
      },
      "geometry": {
        "type": "Point",
        "coordinates": [
          -37.3108654,
          -10.2647729
        ]
      }
    }
  ]
}
