{
  "type": "FeatureCollection",
  "features": [
    {
      "type": "Feature",
      "id": "node/4616239089",
      "properties": {
        "timestamp": "2017-01-18T13:46:19Z",
        "version": 1,
        "changeset": 45270627,
        "addr:housenumber": "158",
        "addr:street": "Rua Joaquim Tomaz de Aquino Filho",
        "amenity": "pharmacy",
        "name": "Única Farma",
        "name:pt": "Única Farma",
        "id": "node/4616239089"
      },
      "geometry": {
        "type": "Point",
        "coordinates": [
          -41.0480888,
          -21.6342131
        ]
      }
    },
    {
      "type": "Feature",
      "id": "node/4616239090",
      "properties": {
        "timestamp": "2017-01-18T13:46:21Z",
        "version": 1,
        "changeset": 45270627,
        "amenity": "pharmacy",
        "name": "Drogaria Isalvo Lima",
        "name:pt": "Drogaria Isalvo Lima",
        "id": "node/4616239090"
      },
      "geometry": {
        "type": "Point",
        "coordinates": [
          -41.0492975,
          -21.6340928
        ]
      }
    }
  ]
}
