{
  "type": "FeatureCollection",
  "features": [
    {
      "type": "Feature",
      "id": "node/10759440656",
      "properties": {
        "timestamp": "2023-03-28T14:22:05Z",
        "version": 2,
        "changeset": 134223125,
        "addr:housenumber": "665",
        "addr:street": "Rua Luis Rivabem",
        "addr:suburb": "Vila Rivabem",
        "amenity": "social_facility",
        "name": "Centro de Referência da Assistência Social Rivabem",
        "id": "node/10759440656"
      },
      "geometry": {
        "type": "Point",
        "coordinates": [
          -49.5552287,
          -25.4489978
        ]
      }
    },
    {
      "type": "Feature",
      "id": "node/10768858742",
      "properties": {
        "timestamp": "2023-03-28T14:22:05Z",
        "version": 1,
        "changeset": 134223125,
        "addr:housenumber": "31",
        "addr:street": "Rua Maurício José Lopes",
        "addr:suburb": "Popular Nova",
        "amenity": "social_facility",
        "name": "Centro de Referência da Assistência Social Popular Nova",
        "id": "node/10768858742"
      },
      "geometry": {
        "type": "Point",
        "coordinates": [
          -49.519808,
          -25.4732168
        ]
      }
    },
    {
      "type": "Feature",
      "id": "node/10768858743",
      "properties": {
        "timestamp": "2023-03-28T14:22:05Z",
        "version": 1,
        "changeset": 134223125,
        "addr:housenumber": "7245",
        "addr:street": "Rua Mato Grosso",
        "addr:suburb": "Ferraria",
        "amenity": "social_facility",
        "name": "Centro de Referência da Assistência Social Ferraria",
        "id": "node/10768858743"
      },
      "geometry": {
        "type": "Point",
        "coordinates": [
          -49.4095182,
          -25.4609761
        ]
      }
    },
    {
      "type": "Feature",
      "id": "node/10768858744",
      "properties": {
        "timestamp": "2023-03-28T14:22:05Z",
        "version": 1,
        "changeset": 134223125,
        "addr:housenumber": "200",
        "addr:street": "Rua Um",
        "addr:suburb": "Jardim Meliane",
        "amenity": "social_facility",
        "name": "Centro de Referência da Assistência Social Meliane",
        "id": "node/10768858744"
      },
      "geometry": {
        "type": "Point",
        "coordinates": [
          -49.5688358,
          -25.4793933
        ]
      }
    },
    {
      "type": "Feature",
      "id": "node/10769050139",
      "properties": {
        "timestamp": "2023-03-28T16:14:59Z",
        "version": 1,
        "changeset": 134227276,
        "addr:housenumber": "1360",
        "addr:street": "Rua Francisco Xavier de Almeida Garret",
        "addr:suburb": "Centro",
        "amenity": "social_facility",
        "name": "Centro de Atenção Psicossocial II",
        "id": "node/10769050139"
      },
      "geometry": {
        "type": "Point",
        "coordinates": [
          -49.5249584,
          -25.4680019
        ]
      }
    }
  ]
}
