{
  "type": "FeatureCollection",
  "features": [
    {
      "type": "Feature",
      "id": "way/776604274",
      "properties": {
        "timestamp": "2020-02-26T20:17:42Z",
        "version": 1,
        "changeset": 81520053,
        "addr:postcode": "25880000",
        "addr:street": "Maurício de Abreu",
        "amenity": "school",
        "name": "C. E. Maurício de Abreu",
        "opening_hours": "Mo-Fr 07:00-22:00",
        "id": "way/776604274"
      },
      "geometry": {
        "type": "Polygon",
        "coordinates": [
          [
            [
              -42.9132225,
              -21.9943688
            ],
            [
              -42.912999,
              -21.994764
            ],
            [
              -42.9123027,
              -21.9944254
            ],
            [
              -42.9125262,
              -21.9940302
            ],
            [
              -42.9132225,
              -21.9943688
            ]
          ]
        ]
      }
    },
    {
      "type": "Feature",
      "id": "node/7272895673",
      "properties": {
        "timestamp": "2020-03-06T21:05:39Z",
        "version": 1,
        "changeset": 81884549,
        "addr:city": "Sapucaia",
        "addr:postcode": "25880-000",
        "addr:suburb": "Metrama",
        "amenity": "school",
        "name": "Escola Municipal Doutora Maria de Lourdes Salomão",
        "id": "node/7272895673"
      },
      "geometry": {
        "type": "Point",
        "coordinates": [
          -42.9267811,
          -21.9991317
        ]
      }
    }
  ]
}
