{
  "type": "FeatureCollection",
  "features": [
    {
      "type": "Feature",
      "id": "node/5775210461",
      "properties": {
        "timestamp": "2024-12-13T17:54:46Z",
        "version": 4,
        "changeset": 160256497,
        "addr:housenumber": "128",
        "addr:street": "Rua Francisco Camargo",
        "government": "social_security",
        "name": "INSS - Instituto Nacional do Seguro Social",
        "office": "government",
        "opening_hours": "Mo-Fr 07:00-17:00",
        "operator": "INSS",
        "phone": "+55 55 3251-2871",
        "source": "IBGE",
        "id": "node/5775210461"
      },
      "geometry": {
        "type": "Point",
        "coordinates": [
          -54.8714358,
          -29.1926473
        ]
      }
    },
    {
      "type": "Feature",
      "id": "node/5775210465",
      "properties": {
        "timestamp": "2018-07-21T15:30:20Z",
        "version": 1,
        "changeset": 60933368,
        "government": "prosecutor",
        "name": "Promotoria Pública",
        "office": "government",
        "source": "IBGE",
        "id": "node/5775210465"
      },
      "geometry": {
        "type": "Point",
        "coordinates": [
          -54.8688984,
          -29.1918535
        ]
      }
    },
    {
      "type": "Feature",
      "id": "node/5785386192",
      "properties": {
        "timestamp": "2021-08-28T16:23:50Z",
        "version": 2,
        "changeset": 110386655,
        "fixme": "position_estimated",
        "name": "Secretaria de Obras",
        "office": "government",
        "source": "IBGE",
        "id": "node/5785386192"
      },
      "geometry": {
        "type": "Point",
        "coordinates": [
          -54.8511498,
          -29.1789954
        ]
      }
    },
    {
      "type": "Feature",
      "id": "node/5785386204",
      "properties": {
        "timestamp": "2018-07-26T01:16:25Z",
        "version": 1,
        "changeset": 61071745,
        "government": "transportation",
        "office": "government",
        "operator": "DAER",
        "source": "IBGE",
        "id": "node/5785386204"
      },
      "geometry": {
        "type": "Point",
        "coordinates": [
          -54.86031,
          -29.1860158
        ]
      }
    },
    {
      "type": "Feature",
      "id": "node/5785386205",
      "properties": {
        "timestamp": "2018-07-26T01:16:25Z",
        "version": 1,
        "changeset": 61071745,
        "government": "education",
        "name": "Secretaria da Educação",
        "office": "government",
        "source": "IBGE",
        "id": "node/5785386205"
      },
      "geometry": {
        "type": "Point",
        "coordinates": [
          -54.8655671,
          -29.1857723
        ]
      }
    },
    {
      "type": "Feature",
      "id": "node/5785386206",
      "properties": {
        "timestamp": "2018-07-26T01:16:25Z",
        "version": 1,
        "changeset": 61071745,
        "name": "Inspetoria Veterinária",
        "office": "government",
        "source": "IBGE",
        "id": "node/5785386206"
      },
      "geometry": {
        "type": "Point",
        "coordinates": [
          -54.8641643,
          -29.1914414
        ]
      }
    },
    {
      "type": "Feature",
      "id": "node/5785386207",
      "properties": {
        "timestamp": "2018-07-26T01:16:25Z",
        "version": 1,
        "changeset": 61071745,
        "admin_level": "8",
        "government": "legislative",
        "office": "government",
        "source": "IBGE",
        "id": "node/5785386207"
      },
      "geometry": {
        "type": "Point",
        "coordinates": [
          -54.8640034,
          -29.1913219
        ]
      }
    },
    {
      "type": "Feature",
      "id": "node/6250768930",
      "properties": {
        "timestamp": "2019-07-15T18:43:13Z",
        "version": 2,
        "changeset": 72277651,
        "addr:housenumber": "1342",
        "addr:street": "Rua Bento Gonçalves",
        "name": "Receita Federal",
        "office": "government",
        "opening_hours": "Mo-Fr 13:00-17:00",
        "phone": "+55 55 3251-1100",
        "id": "node/6250768930"
      },
      "geometry": {
        "type": "Point",
        "coordinates": [
          -54.862002,
          -29.1893456
        ]
      }
    },
    {
      "type": "Feature",
      "id": "node/6262954509",
      "properties": {
        "timestamp": "2024-12-13T17:21:47Z",
        "version": 2,
        "changeset": 160255348,
        "addr:housenumber": "1125",
        "addr:street": "Rua Marechal Deodoro",
        "name": "AES Sul",
        "office": "government",
        "opening_hours": "Mo-Fr 08:00-17:00",
        "phone": "0800 707 7272",
        "id": "node/6262954509"
      },
      "geometry": {
        "type": "Point",
        "coordinates": [
          -54.8679085,
          -29.1894798
        ]
      }
    },
    {
      "type": "Feature",
      "id": "node/6266460837",
      "properties": {
        "timestamp": "2024-12-13T17:02:52Z",
        "version": 3,
        "changeset": 160254581,
        "addr:housenumber": "1691",
        "addr:street": "Rua Bento Gonçalves",
        "name": "1º Tabelionato de Notas e Protesto de Títulos de Santiago - J Souza",
        "office": "government",
        "opening_hours": "Mo-Fr 09:00-17:30",
        "phone": "+55 55 3251-1733",
        "id": "node/6266460837"
      },
      "geometry": {
        "type": "Point",
        "coordinates": [
          -54.8647156,
          -29.1915569
        ]
      }
    },
    {
      "type": "Feature",
      "id": "node/6266467379",
      "properties": {
        "timestamp": "2024-12-13T17:02:52Z",
        "version": 3,
        "changeset": 160254581,
        "addr:housenumber": "1975-2101",
        "addr:street": "Rua Pinheiro Machado",
        "name": "2° Tabelionato - Madalena Leal Martins",
        "office": "government",
        "opening_hours": "Mo-Fr 09:00-17:30",
        "phone": "+55 55 3251-2965",
        "id": "node/6266467379"
      },
      "geometry": {
        "type": "Point",
        "coordinates": [
          -54.8663885,
          -29.1921944
        ]
      }
    },
    {
      "type": "Feature",
      "id": "node/6266489774",
      "properties": {
        "timestamp": "2024-12-13T17:02:52Z",
        "version": 2,
        "changeset": 160254581,
        "addr:housenumber": "1738",
        "addr:postcode": "97700-000",
        "addr:street": "Rua José Piva",
        "name": "FGTAS - Fundação Gaúcha do Trabalho e Ação Social",
        "office": "government",
        "opening_hours": "Mo-Fr 08:00-16:00",
        "website": "https://fgtas.rs.gov.br",
        "id": "node/6266489774"
      },
      "geometry": {
        "type": "Point",
        "coordinates": [
          -54.8609073,
          -29.1859489
        ]
      }
    },
    {
      "type": "Feature",
      "id": "node/6267746348",
      "properties": {
        "timestamp": "2019-02-09T12:02:51Z",
        "version": 1,
        "changeset": 67047533,
        "name": "Instituto de Previdência do Estado do Rio Grande do Sul-IPERGS",
        "office": "government",
        "id": "node/6267746348"
      },
      "geometry": {
        "type": "Point",
        "coordinates": [
          -54.8643009,
          -29.191478
        ]
      }
    },
    {
      "type": "Feature",
      "id": "node/7155550628",
      "properties": {
        "timestamp": "2024-12-13T17:02:52Z",
        "version": 3,
        "changeset": 160254581,
        "addr:housenumber": "1344",
        "addr:street": "Rua Bento Gonçalves",
        "name": "Receita Federal",
        "office": "government",
        "opening_hours": "Mo-Fr 13:00-17:00",
        "phone": "+55 55 3251-1100",
        "id": "node/7155550628"
      },
      "geometry": {
        "type": "Point",
        "coordinates": [
          -54.8620911,
          -29.1894798
        ]
      }
    },
    {
      "type": "Feature",
      "id": "node/7228358907",
      "properties": {
        "timestamp": "2024-12-13T17:21:47Z",
        "version": 4,
        "changeset": 160255348,
        "addr:housenumber": "1020",
        "addr:street": "Rua Marechal Deodoro",
        "name": "Defensoria Pùblica Estadual de Santiago",
        "office": "government",
        "opening_hours": "Mo-Fr 09:00-12:00, 13:30-18:00",
        "phone": "+55 55 3251-9621",
        "website": "https://www.defensoria.rs.def.br/",
        "id": "node/7228358907"
      },
      "geometry": {
        "type": "Point",
        "coordinates": [
          -54.8674545,
          -29.1895809
        ]
      }
    },
    {
      "type": "Feature",
      "id": "node/7307970396",
      "properties": {
        "timestamp": "2024-12-13T17:54:46Z",
        "version": 4,
        "changeset": 160256497,
        "addr:housenumber": "1488",
        "addr:street": "Rua General Neto",
        "name": "Sindicato Rural de Santiago, Unistalda e Capão do Cipó",
        "office": "government",
        "opening_hours": "Mo-Fr 08:00-18:00",
        "phone": "+55 55 3251-2122",
        "website": "http://www.sinsantiago.com.br/",
        "id": "node/7307970396"
      },
      "geometry": {
        "type": "Point",
        "coordinates": [
          -54.8709412,
          -29.188715
        ]
      }
    },
    {
      "type": "Feature",
      "id": "node/7309128684",
      "properties": {
        "timestamp": "2024-12-13T17:16:37Z",
        "version": 4,
        "changeset": 160255135,
        "addr:door": "Sala 502",
        "addr:housenumber": "165",
        "addr:street": "Rua Benjamin Constant",
        "name": "Jet Towers - Escritório",
        "office": "government",
        "opening_hours": "Mo-Fr 08:00-18:00",
        "phone": "+55 55 99985-8647",
        "id": "node/7309128684"
      },
      "geometry": {
        "type": "Point",
        "coordinates": [
          -54.869297,
          -29.1920643
        ]
      }
    },
    {
      "type": "Feature",
      "id": "node/7309145247",
      "properties": {
        "timestamp": "2024-12-13T17:54:46Z",
        "version": 3,
        "changeset": 160256497,
        "addr:door": "Sala 1",
        "addr:housenumber": "1823",
        "addr:street": "Rua Benjamin Constant",
        "name": "PM Santiago-Procon",
        "office": "government",
        "opening_hours": "Mo-Fr 08:00-14:00",
        "phone": "+55 55 3251-6093",
        "id": "node/7309145247"
      },
      "geometry": {
        "type": "Point",
        "coordinates": [
          -54.8692741,
          -29.1919079
        ]
      }
    }
  ]
}
