{
  "type": "FeatureCollection",
  "features": [
    {
      "type": "Feature",
      "id": "node/6262944525",
      "properties": {
        "timestamp": "2022-10-11T13:44:14Z",
        "version": 3,
        "changeset": 127361795,
        "amenity": "pharmacy",
        "healthcare": "pharmacy",
        "name": "Farmacia Sao Jorge",
        "opening_hours": "Mo-Sa 08:00-21:00",
        "phone": "+55 55 99175-0943",
        "id": "node/6262944525"
      },
      "geometry": {
        "type": "Point",
        "coordinates": [
          -54.8594055,
          -29.1885834
        ]
      }
    },
    {
      "type": "Feature",
      "id": "node/6264332467",
      "properties": {
        "timestamp": "2024-12-13T17:09:44Z",
        "version": 5,
        "changeset": 160254901,
        "addr:housenumber": "1120",
        "addr:street": "Rua Venâncio Aires",
        "amenity": "pharmacy",
        "healthcare": "pharmacy",
        "name": "Nova Derme",
        "opening_hours": "Mo-Fr 11:00-18:00; Sa 11:00-12:00",
        "phone": "+55 55 3251-3865",
        "id": "node/6264332467"
      },
      "geometry": {
        "type": "Point",
        "coordinates": [
          -54.8681221,
          -29.1923771
        ]
      }
    },
    {
      "type": "Feature",
      "id": "node/7223714301",
      "properties": {
        "timestamp": "2024-12-13T17:41:11Z",
        "version": 4,
        "changeset": 160255956,
        "addr:housenumber": "1851",
        "addr:street": "Avenida Getúlio Vargas",
        "amenity": "pharmacy",
        "branch": "Farmàcias",
        "brand": "Panvel",
        "brand:wikidata": "Q10344254",
        "healthcare": "pharmacy",
        "name": "Panvel",
        "opening_hours": "Mo-Fr 07:45-22:00; Sa 09:00-17:00",
        "phone": "+55 55 3251-1019",
        "website": "https://www.panvel.com/",
        "id": "node/7223714301"
      },
      "geometry": {
        "type": "Point",
        "coordinates": [
          -54.868248,
          -29.1911106
        ]
      }
    },
    {
      "type": "Feature",
      "id": "node/7223728628",
      "properties": {
        "timestamp": "2024-12-13T17:41:11Z",
        "version": 4,
        "changeset": 160255956,
        "addr:housenumber": "1818",
        "addr:street": "Avenida Getúlio Vargas",
        "amenity": "pharmacy",
        "healthcare": "pharmacy",
        "name": "Fharmac Farmácia e Manipulação",
        "phone": "+55 55 3251-5100",
        "id": "node/7223728628"
      },
      "geometry": {
        "type": "Point",
        "coordinates": [
          -54.8685608,
          -29.1907101
        ]
      }
    },
    {
      "type": "Feature",
      "id": "node/7223733997",
      "properties": {
        "timestamp": "2024-12-13T17:41:11Z",
        "version": 4,
        "changeset": 160255956,
        "addr:housenumber": "1841",
        "addr:street": "Avenida Getúlio Vargas",
        "amenity": "pharmacy",
        "healthcare": "pharmacy",
        "name": "Farmàcias São João",
        "opening_hours": "Mo-Sa 08:00-20:00",
        "phone": "+55 55 3251-4206",
        "website": "http://www.saojoaofarmacias.com.br/",
        "id": "node/7223733997"
      },
      "geometry": {
        "type": "Point",
        "coordinates": [
          -54.8684578,
          -29.1909943
        ]
      }
    },
    {
      "type": "Feature",
      "id": "node/7223771383",
      "properties": {
        "timestamp": "2024-12-13T17:54:46Z",
        "version": 4,
        "changeset": 160256497,
        "addr:housenumber": "518",
        "addr:street": "Rua Barão do Rio Branco",
        "amenity": "pharmacy",
        "healthcare": "pharmacy",
        "name": "Farmácia Fronteira",
        "opening_hours": "Mo-Fr 08:00-21:00; Sa 09:00-17:00",
        "phone": "+55 55 3251-4515",
        "id": "node/7223771383"
      },
      "geometry": {
        "type": "Point",
        "coordinates": [
          -54.8693047,
          -29.1893978
        ]
      }
    },
    {
      "type": "Feature",
      "id": "node/7228285230",
      "properties": {
        "timestamp": "2022-10-11T13:44:14Z",
        "version": 3,
        "changeset": 127361795,
        "addr:city": "Santiago",
        "addr:housenumber": "1031",
        "addr:postcode": "97700-000",
        "addr:street": "Rua dos Poetas",
        "addr:suburb": "Centro",
        "amenity": "pharmacy",
        "healthcare": "pharmacy",
        "name": "Farmàcia Fronteira",
        "opening_hours": "Mo-Sa 08:00-21:00; Su 09:00-12:00",
        "phone": "+55 55 3251-1411",
        "id": "node/7228285230"
      },
      "geometry": {
        "type": "Point",
        "coordinates": [
          -54.8676071,
          -29.1915588
        ]
      }
    },
    {
      "type": "Feature",
      "id": "node/7228320191",
      "properties": {
        "timestamp": "2024-12-13T17:41:11Z",
        "version": 4,
        "changeset": 160255956,
        "addr:housenumber": "1971",
        "addr:street": "Avenida Getúlio Vargas",
        "amenity": "pharmacy",
        "healthcare": "pharmacy",
        "name": "Farmácias São João",
        "opening_hours": "Mo-Su 08:00-20:00",
        "phone": "+55 55 3251-9797",
        "id": "node/7228320191"
      },
      "geometry": {
        "type": "Point",
        "coordinates": [
          -54.8673859,
          -29.1917286
        ]
      }
    },
    {
      "type": "Feature",
      "id": "node/7309140212",
      "properties": {
        "timestamp": "2024-12-13T17:09:44Z",
        "version": 5,
        "changeset": 160254901,
        "addr:housenumber": "1056",
        "addr:street": "Rua Venâncio Aires",
        "amenity": "pharmacy",
        "healthcare": "pharmacy",
        "name": "Farmácia São Leandro - Farmácias Associadas",
        "opening_hours": "Mo-Sa 08:00-21:00; Su 08:00-12:00, 16:00-21:00",
        "phone": "+55 55 3251-4400",
        "website": "https://farmaciasassociadas.com.br/",
        "id": "node/7309140212"
      },
      "geometry": {
        "type": "Point",
        "coordinates": [
          -54.8681717,
          -29.1924763
        ]
      }
    },
    {
      "type": "Feature",
      "id": "node/7309142320",
      "properties": {
        "timestamp": "2024-12-13T17:21:47Z",
        "version": 4,
        "changeset": 160255348,
        "addr:housenumber": "1446",
        "addr:postcode": "97300-003",
        "addr:street": "Rua Marechal Deodoro",
        "amenity": "pharmacy",
        "healthcare": "pharmacy",
        "name": "Drogaria Cidade",
        "opening_hours": "Mo-Sa 08:00-21:00",
        "phone": "+55 55 3251-6325",
        "id": "node/7309142320"
      },
      "geometry": {
        "type": "Point",
        "coordinates": [
          -54.8696518,
          -29.1919823
        ]
      }
    }
  ]
}
