{
  "type": "FeatureCollection",
  "features": [
    {
      "type": "Feature",
      "id": "way/507864748",
      "properties": {
        "timestamp": "2017-07-16T00:34:55Z",
        "version": 1,
        "changeset": 50315997,
        "addr:city": "Bom Jesus do Itabapoana",
        "addr:country": "BR",
        "addr:housenumber": "29",
        "addr:place": "Vigilância Ambiental",
        "addr:postcode": "28360-000",
        "addr:state": "RJ",
        "addr:street": "Rua Antônio Dutra Leal",
        "addr:suburb": "Jardim Valéria",
        "government": "public_service",
        "name": "Vigilância Ambiental",
        "office": "government",
        "opening_hours": "Mo-Fr 07:00-17:00",
        "phone": "+55 22 3831-4263",
        "wheelchair": "no",
        "id": "way/507864748"
      },
      "geometry": {
        "type": "Polygon",
        "coordinates": [
          [
            [
              -41.6808911,
              -21.1434805
            ],
            [
              -41.6811083,
              -21.1438445
            ],
            [
              -41.6809608,
              -21.1439071
            ],
            [
              -41.6807073,
              -21.1437382
            ],
            [
              -41.6808495,
              -21.1436857
            ],
            [
              -41.6807717,
              -21.1435356
            ],
            [
              -41.6808911,
              -21.1434805
            ]
          ]
        ]
      }
    },
    {
      "type": "Feature",
      "id": "node/10004424650",
      "properties": {
        "timestamp": "2022-09-06T14:35:27Z",
        "version": 1,
        "changeset": 125862229,
        "addr:city": "Bom Jesus do Itabapoana",
        "addr:housenumber": "102",
        "addr:postcode": "28360-000",
        "addr:street": "Avenida Governador Roberto Silveira",
        "addr:suburb": "Centro",
        "email": "aps17021010@inss.gov.br",
        "government": "social_security",
        "name": "Agência da Previdência Social de Bom Jesus do Itabapoana",
        "office": "government",
        "id": "node/10004424650"
      },
      "geometry": {
        "type": "Point",
        "coordinates": [
          -41.6762584,
          -21.136679
        ]
      }
    },
    {
      "type": "Feature",
      "id": "node/10027917675",
      "properties": {
        "timestamp": "2022-09-15T17:21:03Z",
        "version": 1,
        "changeset": 126233470,
        "addr:city": "Bom Jesus do Itabapoana",
        "addr:housenumber": "91",
        "addr:street": "Rua Emigdio Fraga",
        "addr:suburb": "Centro",
        "government": "prosecutor",
        "name": "Promotoria de Justiça da Comarca de Bom Jesus do Itabapoana",
        "office": "government",
        "operator": "Ministério Público do Estado do Rio de Janeiro",
        "phone": "+55 22 3831 3158",
        "website": "https://www.mprj.mp.br/home",
        "id": "node/10027917675"
      },
      "geometry": {
        "type": "Point",
        "coordinates": [
          -41.6791694,
          -21.139493
        ]
      }
    }
  ]
}
