{
  "type": "FeatureCollection",
  "features": [
    {
      "type": "Feature",
      "id": "node/10004424656",
      "properties": {
        "timestamp": "2022-09-06T14:35:27Z",
        "version": 1,
        "changeset": 125862229,
        "addr:city": "Bom Jesus do Itabapoana",
        "addr:housenumber": "473",
        "addr:postcode": "28360-000",
        "addr:street": "Rua Tenente José Teixeira",
        "addr:suburb": "Centro",
        "amenity": "hospital",
        "emergency": "yes",
        "healthcare": "hospital",
        "healthcare:speciality": "general;gynaecology;paediatrics",
        "name": "Hospital São Vicente",
        "operator": "Centro Popular Pró Melhoramentos de Bom Jesus",
        "operator:type": "private",
        "phone": "+55 22 3831 2546",
        "id": "node/10004424656"
      },
      "geometry": {
        "type": "Point",
        "coordinates": [
          -41.6792796,
          -21.1377523
        ]
      }
    },
    {
      "type": "Feature",
      "id": "node/11791963625",
      "properties": {
        "timestamp": "2024-04-05T10:59:42Z",
        "version": 2,
        "changeset": 149609300,
        "addr:housenumber": "76",
        "amenity": "hospital",
        "emergency": "no",
        "healthcare": "hospital",
        "name": "Acamado",
        "id": "node/11791963625"
      },
      "geometry": {
        "type": "Point",
        "coordinates": [
          -41.6668911,
          -21.1296963
        ]
      }
    }
  ]
}
