{
  "type": "FeatureCollection",
  "features": [
    {
      "type": "Feature",
      "id": "way/675830912",
      "properties": {
        "timestamp": "2022-09-06T17:21:02Z",
        "version": 2,
        "changeset": 125868286,
        "addr:city": "Bom Jesus do Itabapoana",
        "addr:housenumber": "247",
        "addr:postcode": "28360-000",
        "addr:street": "Rua Presidente Arthur de Costa e Silva",
        "addr:suburb": "Belvedere",
        "alt_name": "Brisolão",
        "amenity": "school",
        "name": "Instituto Estadual Eber Teixeira de Figueiredo",
        "id": "way/675830912"
      },
      "geometry": {
        "type": "Polygon",
        "coordinates": [
          [
            [
              -41.6733802,
              -21.1329111
            ],
            [
              -41.6737795,
              -21.133576
            ],
            [
              -41.6727333,
              -21.1339458
            ],
            [
              -41.6723843,
              -21.1331593
            ],
            [
              -41.6729623,
              -21.1329741
            ],
            [
              -41.672988,
              -21.1330399
            ],
            [
              -41.6733802,
              -21.1329111
            ]
          ]
        ]
      }
    },
    {
      "type": "Feature",
      "id": "way/1092422679",
      "properties": {
        "timestamp": "2022-09-06T17:21:02Z",
        "version": 1,
        "changeset": 125868286,
        "addr:city": "Bom Jesus do Itabapoana",
        "addr:housenumber": "578",
        "addr:postcode": "28360000",
        "addr:street": "Avenida Governador Roberto Silveira",
        "addr:suburb": "Lia Márcia",
        "amenity": "school",
        "name": "Colégio Estadual Padre Mello",
        "phone": "+55 22 3831-4190",
        "id": "way/1092422679"
      },
      "geometry": {
        "type": "Polygon",
        "coordinates": [
          [
            [
              -41.6724708,
              -21.1358916
            ],
            [
              -41.6710656,
              -21.1365034
            ],
            [
              -41.6705983,
              -21.1355695
            ],
            [
              -41.6720036,
              -21.1349579
            ],
            [
              -41.6724708,
              -21.1358916
            ]
          ]
        ]
      }
    },
    {
      "type": "Feature",
      "id": "way/1092422680",
      "properties": {
        "timestamp": "2022-09-06T17:21:02Z",
        "version": 1,
        "changeset": 125868286,
        "addr:city": "Bom Jesus do Itabapoana",
        "addr:housenumber": "702",
        "addr:postcode": "28360-000",
        "addr:street": "Avenida Governador Roberto Silveira",
        "addr:suburb": "Lia Márcia",
        "amenity": "school",
        "name": "Escola Municipal Anacleto José Borges",
        "id": "way/1092422680"
      },
      "geometry": {
        "type": "Polygon",
        "coordinates": [
          [
            [
              -41.6720036,
              -21.1349579
            ],
            [
              -41.6705983,
              -21.1355695
            ],
            [
              -41.6703271,
              -21.1349578
            ],
            [
              -41.6711033,
              -21.1346343
            ],
            [
              -41.671636,
              -21.1344124
            ],
            [
              -41.6720036,
              -21.1349579
            ]
          ]
        ]
      }
    },
    {
      "type": "Feature",
      "id": "way/1092422681",
      "properties": {
        "timestamp": "2022-09-06T17:21:02Z",
        "version": 1,
        "changeset": 125868286,
        "addr:city": "Bom Jesus do Itabapoana",
        "addr:postcode": "28360-000",
        "addr:street": "Avenida Governador Roberto Silveira",
        "addr:suburb": "Lia Márcia",
        "amenity": "school",
        "name": "Escola Municipal Mariquinha Batista",
        "operator": "Secretaria Municipal de Educação",
        "operator:type": "public",
        "id": "way/1092422681"
      },
      "geometry": {
        "type": "Polygon",
        "coordinates": [
          [
            [
              -41.6704111,
              -21.1331403
            ],
            [
              -41.6701875,
              -21.133603
            ],
            [
              -41.6705066,
              -21.1339468
            ],
            [
              -41.6711033,
              -21.1346343
            ],
            [
              -41.6703271,
              -21.1349578
            ],
            [
              -41.6699777,
              -21.1340238
            ],
            [
              -41.6700361,
              -21.1336274
            ],
            [
              -41.670321,
              -21.1330699
            ],
            [
              -41.6704111,
              -21.1331403
            ]
          ]
        ]
      }
    },
    {
      "type": "Feature",
      "id": "way/1243435166",
      "properties": {
        "timestamp": "2024-01-27T12:49:16Z",
        "version": 1,
        "changeset": 146742796,
        "addr:city": "Bom Jesus do Itabapoana",
        "addr:district": "Usina Santa Maria",
        "addr:housenumber": "110",
        "addr:postcode": "28360-000",
        "addr:state": "Rio de Janeiro",
        "addr:street": "Rua do Colégio",
        "addr:suburb": "Centro",
        "amenity": "school",
        "name": "Centro Educacional Maria da Conceição Pereira Pinto",
        "id": "way/1243435166"
      },
      "geometry": {
        "type": "Polygon",
        "coordinates": [
          [
            [
              -41.4953989,
              -21.2392274
            ],
            [
              -41.4948705,
              -21.2393899
            ],
            [
              -41.49468,
              -21.2386524
            ],
            [
              -41.4952272,
              -21.2385174
            ],
            [
              -41.4953989,
              -21.2392274
            ]
          ]
        ]
      }
    },
    {
      "type": "Feature",
      "id": "way/1245506896",
      "properties": {
        "timestamp": "2024-02-02T11:45:43Z",
        "version": 1,
        "changeset": 146981843,
        "addr:city": "Bom Jesus do Itabapoana",
        "addr:housenumber": "115",
        "addr:postcode": "28360-000",
        "addr:street": "Rua José Alberoni",
        "addr:suburb": "Centro",
        "amenity": "school",
        "name": "Colégio Estadual Euclides Feliciano Tardin",
        "operator": "Secretaria de Educação do Estado do Rio de Janeiro",
        "operator:type": "public",
        "id": "way/1245506896"
      },
      "geometry": {
        "type": "Polygon",
        "coordinates": [
          [
            [
              -41.6769941,
              -21.1369522
            ],
            [
              -41.6770025,
              -21.1370436
            ],
            [
              -41.6770249,
              -21.1371612
            ],
            [
              -41.6771789,
              -21.1375844
            ],
            [
              -41.6764311,
              -21.1378927
            ],
            [
              -41.6761342,
              -21.1372709
            ],
            [
              -41.6769941,
              -21.1369522
            ]
          ]
        ]
      }
    },
    {
      "type": "Feature",
      "id": "node/10002975478",
      "properties": {
        "timestamp": "2022-09-05T20:25:16Z",
        "version": 1,
        "changeset": 125830155,
        "addr:city": "Bom Jesus do Itabapoana",
        "addr:postcode": "28360-000",
        "addr:street": "Rua Frederico Lengruber",
        "addr:suburb": "Pirapetinga de Bom Jesus",
        "amenity": "school",
        "name": "Escola Municipal Professora Iracema Seródio Boechat",
        "operator": "Secretaria Municipal de Educação",
        "operator:type": "public",
        "id": "node/10002975478"
      },
      "geometry": {
        "type": "Point",
        "coordinates": [
          -41.8040701,
          -21.0783388
        ]
      }
    },
    {
      "type": "Feature",
      "id": "node/10002975479",
      "properties": {
        "timestamp": "2022-09-05T20:25:16Z",
        "version": 1,
        "changeset": 125830155,
        "addr:city": "Bom Jesus do Itabapoana",
        "addr:postcode": "28360-000",
        "addr:suburb": "Pirapetinga de Bom Jesus",
        "amenity": "school",
        "name": "Escola Municipal João Catarina",
        "id": "node/10002975479"
      },
      "geometry": {
        "type": "Point",
        "coordinates": [
          -41.8054926,
          -21.0787416
        ]
      }
    },
    {
      "type": "Feature",
      "id": "node/10003031471",
      "properties": {
        "timestamp": "2022-09-05T20:49:40Z",
        "version": 1,
        "changeset": 125830861,
        "addr:city": "Bom Jesus do Itabapoana",
        "addr:housenumber": "80",
        "addr:postcode": "28360-000",
        "addr:street": "Rua Paulino José da Silva",
        "addr:suburb": "Calheiros",
        "amenity": "school",
        "name": "Escola Municipal Coronel Luiz Vieira",
        "operator": "Secretaria Municipal de Educação",
        "operator:type": "public",
        "id": "node/10003031471"
      },
      "geometry": {
        "type": "Point",
        "coordinates": [
          -41.7177343,
          -21.0150362
        ]
      }
    },
    {
      "type": "Feature",
      "id": "node/10004765480",
      "properties": {
        "timestamp": "2022-09-06T17:21:02Z",
        "version": 1,
        "changeset": 125868286,
        "addr:city": "Bom Jesus do Itabapoana",
        "addr:housenumber": "285",
        "addr:postcode": "28360-000",
        "addr:street": "Rua Quinze de Novembro",
        "addr:suburb": "Centro",
        "amenity": "school",
        "denomination": "baptist",
        "email": "colegiobatistabji@gmail.com",
        "name": "Centro Educacional Batista",
        "phone": "+55 22 3831 4797",
        "religion": "christian",
        "id": "node/10004765480"
      },
      "geometry": {
        "type": "Point",
        "coordinates": [
          -41.6773081,
          -21.1346553
        ]
      }
    },
    {
      "type": "Feature",
      "id": "node/10004765481",
      "properties": {
        "timestamp": "2022-09-06T17:21:02Z",
        "version": 1,
        "changeset": 125868286,
        "addr:city": "Bom Jesus do Itabapoana",
        "addr:housenumber": "90",
        "addr:postcode": "28360-000",
        "addr:street": "Rua Pedro Rodrigues do Carmo",
        "addr:suburb": "Novo",
        "amenity": "school",
        "denomination": "roman_catholic",
        "email": "colegio.mcbo@gmail.com",
        "name": "Colégio Maria da Conceição Baptista Oliveira",
        "phone": "+55 22 3833 0102",
        "religion": "christian",
        "id": "node/10004765481"
      },
      "geometry": {
        "type": "Point",
        "coordinates": [
          -41.6740431,
          -21.1387457
        ]
      }
    },
    {
      "type": "Feature",
      "id": "node/10004765513",
      "properties": {
        "timestamp": "2022-09-06T17:21:02Z",
        "version": 1,
        "changeset": 125868286,
        "addr:city": "Bom Jesus do Itabapoana",
        "addr:postcode": "28360-000",
        "addr:street": "Praça Amaral Peixoto",
        "addr:suburb": "Centro",
        "amenity": "school",
        "name": "Colégio Rio Branco",
        "id": "node/10004765513"
      },
      "geometry": {
        "type": "Point",
        "coordinates": [
          -41.6776131,
          -21.1348324
        ]
      }
    }
  ]
}
