{
  "type": "FeatureCollection",
  "features": [
    {
      "type": "Feature",
      "id": "way/1092377215",
      "properties": {
        "timestamp": "2022-09-06T14:35:27Z",
        "version": 1,
        "changeset": 125862229,
        "addr:city": "Bom Jesus do Itabapoana",
        "addr:housenumber": "910",
        "addr:postcode": "28360-000",
        "addr:street": "Avenida Governador Roberto Silveira",
        "addr:suburb": "Lia Márcia",
        "amenity": "university",
        "name": "Faculdade Metropolitana São Carlos - Famesc",
        "operator": "Sociedade Metropolitana de Educacao, Cultura e Tecnologia Sao Carlos S/S LTDA",
        "operator:type": "private",
        "id": "way/1092377215"
      },
      "geometry": {
        "type": "Polygon",
        "coordinates": [
          [
            [
              -41.6710006,
              -21.1336143
            ],
            [
              -41.6705066,
              -21.1339468
            ],
            [
              -41.6701875,
              -21.133603
            ],
            [
              -41.6702444,
              -21.133474
            ],
            [
              -41.6704111,
              -21.1331403
            ],
            [
              -41.6710006,
              -21.1336143
            ]
          ]
        ]
      }
    }
  ]
}
