{
  "type": "FeatureCollection",
  "features": [
    {
      "type": "Feature",
      "id": "node/4114790691",
      "properties": {
        "timestamp": "2016-10-24T16:18:19Z",
        "version": 3,
        "changeset": 43128829,
        "addr:street": "Rua Padre Schneider",
        "amenity": "school",
        "name": "Escola Estadual Padre Schneider",
        "opening_hours": "Mo-Fr 07:00-15:00",
        "website": "http://www.seduc.com.br",
        "id": "node/4114790691"
      },
      "geometry": {
        "type": "Point",
        "coordinates": [
          -65.0190617,
          -0.4159021
        ]
      }
    },
    {
      "type": "Feature",
      "id": "node/4131959189",
      "properties": {
        "timestamp": "2017-09-04T00:37:40Z",
        "version": 4,
        "changeset": 51704994,
        "addr:street": "Avenida Danilo Correa",
        "amenity": "school",
        "name": "Escola Estadual Santa Isabel",
        "opening_hours": "Mo-Fr 07:00-18:00",
        "id": "node/4131959189"
      },
      "geometry": {
        "type": "Point",
        "coordinates": [
          -65.0168448,
          -0.417356
        ]
      }
    }
  ]
}
