{
  "type": "FeatureCollection",
  "features": [
    {
      "type": "Feature",
      "id": "way/1235186561",
      "properties": {
        "timestamp": "2024-10-05T13:35:56Z",
        "version": 2,
        "changeset": 157501552,
        "addr:city": "Cristino Castro",
        "addr:housenumber": "km 319",
        "addr:postcode": "64920-000",
        "addr:street": "BR-135",
        "building": "yes",
        "name": "Pousada Dhelta",
        "phone": "89 98102-2949",
        "tourism": "hotel",
        "id": "way/1235186561"
      },
      "geometry": {
        "type": "Polygon",
        "coordinates": [
          [
            [
              -44.2279675,
              -8.8304532
            ],
            [
              -44.2285057,
              -8.8301551
            ],
            [
              -44.2286871,
              -8.8304814
            ],
            [
              -44.2280488,
              -8.8308449
            ],
            [
              -44.2279675,
              -8.8304532
            ]
          ]
        ]
      }
    },
    {
      "type": "Feature",
      "id": "node/4547815508",
      "properties": {
        "timestamp": "2016-12-10T12:23:30Z",
        "version": 1,
        "changeset": 44302044,
        "tourism": "hotel",
        "id": "node/4547815508"
      },
      "geometry": {
        "type": "Point",
        "coordinates": [
          -44.220226,
          -8.8125952
        ]
      }
    },
    {
      "type": "Feature",
      "id": "node/11417197327",
      "properties": {
        "timestamp": "2023-12-14T12:46:01Z",
        "version": 1,
        "changeset": 145111019,
        "addr:city": "Cristino Castro",
        "addr:postcode": "64920-000",
        "addr:street": "BR-135, km 315",
        "name": "Pousada Vitória",
        "tourism": "hotel",
        "id": "node/11417197327"
      },
      "geometry": {
        "type": "Point",
        "coordinates": [
          -44.2123023,
          -8.8003806
        ]
      }
    },
    {
      "type": "Feature",
      "id": "node/11417197329",
      "properties": {
        "timestamp": "2023-12-14T12:46:01Z",
        "version": 1,
        "changeset": 145111019,
        "addr:city": "Cristino Castro",
        "addr:postcode": "64920-000",
        "addr:street": "Avenida David Campos",
        "name": "Hotel Recanto das Águas",
        "tourism": "hotel",
        "id": "node/11417197329"
      },
      "geometry": {
        "type": "Point",
        "coordinates": [
          -44.2132575,
          -8.8018725
        ]
      }
    }
  ]
}
