{
  "type": "FeatureCollection",
  "features": [
    {
      "type": "Feature",
      "id": "way/948826547",
      "properties": {
        "timestamp": "2024-11-21T13:25:32Z",
        "version": 2,
        "changeset": 159409992,
        "IBGE:COD_UNICO_ENDERECO": "30413408",
        "addr:city": "Águas Vermelhas",
        "addr:housenumber": "44",
        "addr:postcode": "39990-000",
        "addr:street": "Praça Leonízia de Sousa Luz",
        "addr:suburb": "Centro",
        "amenity": "townhall",
        "building": "yes",
        "government": "legislative",
        "name": "Câmara Municipal de Águas Vermelhas",
        "office": "government",
        "operator": "Município de Águas Vermelhas",
        "townhall:type": "city",
        "id": "way/948826547"
      },
      "geometry": {
        "type": "Polygon",
        "coordinates": [
          [
            [
              -41.4599988,
              -15.7457281
            ],
            [
              -41.459848,
              -15.7458456
            ],
            [
              -41.4597814,
              -15.7457665
            ],
            [
              -41.4599322,
              -15.7456489
            ],
            [
              -41.4599988,
              -15.7457281
            ]
          ]
        ]
      }
    },
    {
      "type": "Feature",
      "id": "way/1336475658",
      "properties": {
        "timestamp": "2024-11-21T13:25:32Z",
        "version": 1,
        "changeset": 159409992,
        "IBGE:COD_UNICO_ENDERECO": "30413223",
        "addr:city": "Águas Vermelhas",
        "addr:housenumber": "164",
        "addr:postcode": "39990-000",
        "addr:street": "Praça São Vicente",
        "addr:suburb": "Centro",
        "amenity": "townhall",
        "building": "public",
        "name": "Prefeitura Municipal de Águas Vermelhas",
        "office": "government",
        "operator": "Município de Águas Vermelhas",
        "townhall:type": "municipality",
        "id": "way/1336475658"
      },
      "geometry": {
        "type": "Polygon",
        "coordinates": [
          [
            [
              -41.4582076,
              -15.7449316
            ],
            [
              -41.4581298,
              -15.7450374
            ],
            [
              -41.458115,
              -15.7450271
            ],
            [
              -41.4580668,
              -15.7450878
            ],
            [
              -41.4580815,
              -15.7451033
            ],
            [
              -41.4580373,
              -15.7451549
            ],
            [
              -41.4578643,
              -15.7449832
            ],
            [
              -41.4579407,
              -15.7448916
            ],
            [
              -41.4580118,
              -15.7449432
            ],
            [
              -41.4580815,
              -15.7448399
            ],
            [
              -41.4582076,
              -15.7449316
            ]
          ]
        ]
      }
    },
    {
      "type": "Feature",
      "id": "node/12361603647",
      "properties": {
        "timestamp": "2024-11-21T13:25:32Z",
        "version": 2,
        "changeset": 159409992,
        "IBGE:COD_UNICO_ENDERECO": "30413158",
        "addr:city": "Águas Vermelhas",
        "addr:housenumber": "42",
        "addr:postcode": "39990-000",
        "addr:street": "Rua São Vicente",
        "addr:suburb": "Centro",
        "building": "yes",
        "government": "social_facility;social_welfare",
        "name": "Centro de Referência da Assistência Social - CRAS",
        "office": "government",
        "official_name": "Centro de Referência da Assistência Social",
        "short_name": "CRAS",
        "id": "node/12361603647"
      },
      "geometry": {
        "type": "Point",
        "coordinates": [
          -41.4590482,
          -15.7455088
        ]
      }
    },
    {
      "type": "Feature",
      "id": "node/12361603650",
      "properties": {
        "timestamp": "2024-11-21T13:25:32Z",
        "version": 2,
        "changeset": 159409992,
        "IBGE:COD_UNICO_ENDERECO": "30413167",
        "addr:city": "Águas Vermelhas",
        "addr:housenumber": "128",
        "addr:postcode": "39990-000",
        "addr:street": "Rua São Vicente",
        "addr:suburb": "Centro",
        "building": "yes",
        "government": "healthcare",
        "healthcare": "yes",
        "name": "Secretaria de Saúde de Águas Vermelhas",
        "office": "government",
        "id": "node/12361603650"
      },
      "geometry": {
        "type": "Point",
        "coordinates": [
          -41.4585708,
          -15.7451822
        ]
      }
    },
    {
      "type": "Feature",
      "id": "node/12361603656",
      "properties": {
        "timestamp": "2024-11-21T13:25:32Z",
        "version": 2,
        "changeset": 159409992,
        "IBGE:COD_UNICO_ENDERECO": "30413209",
        "addr:city": "Águas Vermelhas",
        "addr:housenumber": "265",
        "addr:postcode": "39990-000",
        "addr:street": "Rua São Vicente",
        "addr:suburb": "Centro",
        "building": "yes",
        "government": "register_office",
        "name": "Cartório",
        "office": "government",
        "id": "node/12361603656"
      },
      "geometry": {
        "type": "Point",
        "coordinates": [
          -41.4574892,
          -15.7442993
        ]
      }
    }
  ]
}
