{
  "type": "FeatureCollection",
  "features": [
    {
      "type": "Feature",
      "id": "way/1117899266",
      "properties": {
        "timestamp": "2022-11-28T19:58:08Z",
        "version": 1,
        "changeset": 129490210,
        "addr:city": "São Sebastião do Paraíso",
        "addr:country": "BR",
        "addr:housenumber": "1200",
        "addr:postcode": "37950-000",
        "addr:street": "Rua Padre Benatti",
        "addr:suburb": "Centro",
        "amenity": "cinema",
        "cinema:3D": "yes",
        "email": "sac@cinea.com.br",
        "image": "https://s3.sa-east-1.amazonaws.com/cinea/pracas/151252202001295e31cb2408491.jpg",
        "name": "Cine A",
        "operator": "Rede Cine A",
        "payment:cash": "yes",
        "payment:credit_cards": "yes",
        "payment:debit_cards": "yes",
        "phone": "(35) 3531-8255",
        "screen": "1",
        "website": "https://cinea.com.br/",
        "wheelchair": "yes",
        "id": "way/1117899266"
      },
      "geometry": {
        "type": "Polygon",
        "coordinates": [
          [
            [
              -46.9911061,
              -20.918229
            ],
            [
              -46.9910227,
              -20.918262
            ],
            [
              -46.9909508,
              -20.9181037
            ],
            [
              -46.9910342,
              -20.9180706
            ],
            [
              -46.9911061,
              -20.918229
            ]
          ]
        ]
      }
    }
  ]
}
