{
  "type": "FeatureCollection",
  "features": [
    {
      "type": "Feature",
      "id": "node/10050162280",
      "properties": {
        "timestamp": "2022-09-25T04:20:33Z",
        "version": 1,
        "changeset": 126602103,
        "addr:city": "São Sebastião do Paraíso",
        "addr:country": "BR",
        "addr:housenumber": "1025",
        "addr:postcode": "37950-000",
        "addr:street": "Avenida Doutor Delfim Moreira",
        "addr:suburb": "Centro",
        "amenity": "dentist",
        "email": "isaacadvincula@hotmail.com",
        "name": "Consultórios Odontológicos",
        "payment:coins": "yes",
        "payment:contactless": "yes",
        "payment:cryptocurrencies": "no",
        "payment:electronic_purses": "no",
        "payment:mastercard": "yes",
        "payment:notes": "yes",
        "payment:visa": "yes",
        "payment:visa_debit": "yes",
        "phone": "+55 (35) 3531-4580",
        "wheelchair": "yes",
        "id": "node/10050162280"
      },
      "geometry": {
        "type": "Point",
        "coordinates": [
          -46.9941165,
          -20.9181583
        ]
      }
    }
  ]
}
