{
  "type": "FeatureCollection",
  "features": [
    {
      "type": "Feature",
      "id": "way/145385155",
      "properties": {
        "timestamp": "2024-08-01T21:02:26Z",
        "version": 3,
        "changeset": 154711137,
        "amenity": "arts_centre",
        "building": "yes",
        "name": "Fundação Casa da Cultura de Marabá",
        "id": "way/145385155"
      },
      "geometry": {
        "type": "Polygon",
        "coordinates": [
          [
            [
              -49.0881007,
              -5.3551795
            ],
            [
              -49.0878486,
              -5.3538496
            ],
            [
              -49.0879129,
              -5.3537641
            ],
            [
              -49.0880792,
              -5.3535932
            ],
            [
              -49.0881919,
              -5.3537534
            ],
            [
              -49.0883743,
              -5.3536786
            ],
            [
              -49.0887122,
              -5.3542181
            ],
            [
              -49.0885508,
              -5.3543358
            ],
            [
              -49.0884118,
              -5.3544371
            ],
            [
              -49.0885119,
              -5.3546291
            ],
            [
              -49.0887015,
              -5.3549658
            ],
            [
              -49.0881007,
              -5.3551795
            ]
          ]
        ]
      }
    },
    {
      "type": "Feature",
      "id": "node/7633536717",
      "properties": {
        "timestamp": "2020-06-23T10:56:01Z",
        "version": 2,
        "changeset": 87030103,
        "addr:city": "Marabá",
        "addr:housenumber": "30",
        "addr:postcode": "68514300",
        "addr:street": "Rua Araçá",
        "addr:suburb": "São Felix",
        "amenity": "arts_centre",
        "name": "Cooperativa tecnologica RTocantins",
        "website": "https://www.facebook.com/pages/Cooperativa-Tecnol%C3%B3gica-RTocantins/721122354653345?ref=hl",
        "id": "node/7633536717"
      },
      "geometry": {
        "type": "Point",
        "coordinates": [
          -49.0772988,
          -5.2970897
        ]
      }
    },
    {
      "type": "Feature",
      "id": "node/7633564263",
      "properties": {
        "timestamp": "2020-06-23T10:56:01Z",
        "version": 3,
        "changeset": 87030103,
        "addr:city": "Marabá",
        "addr:housenumber": "381",
        "addr:postcode": "68500-440",
        "addr:street": "Travessa Carlos leitão",
        "addr:suburb": "Velha Marabá",
        "amenity": "arts_centre",
        "name": "Galpão das Artes de Marabá",
        "website": "https://gamemrede.wordpress.com/",
        "id": "node/7633564263"
      },
      "geometry": {
        "type": "Point",
        "coordinates": [
          -49.1366386,
          -5.351083
        ]
      }
    }
  ]
}
