{
  "type": "FeatureCollection",
  "features": [
    {
      "type": "Feature",
      "id": "way/542722346",
      "properties": {
        "timestamp": "2025-02-24T17:27:18Z",
        "version": 2,
        "changeset": 162902217,
        "addr:city": "Novo Triunfo",
        "addr:postcode": "48455-000",
        "addr:suburb": "Lagoa do Barro",
        "amenity": "school",
        "name": "Escola Municipal São João",
        "operator": "Município de Novo Triunfo",
        "operator:type": "public",
        "id": "way/542722346"
      },
      "geometry": {
        "type": "Polygon",
        "coordinates": [
          [
            [
              -38.3877554,
              -10.3684526
            ],
            [
              -38.3878701,
              -10.3686499
            ],
            [
              -38.3877447,
              -10.3687204
            ],
            [
              -38.38763,
              -10.3685232
            ],
            [
              -38.3877554,
              -10.3684526
            ]
          ]
        ]
      }
    },
    {
      "type": "Feature",
      "id": "node/4245996556",
      "properties": {
        "timestamp": "2025-02-24T17:07:14Z",
        "version": 5,
        "changeset": 162901580,
        "addr:city": "Novo Triunfo",
        "addr:housenumber": "68",
        "addr:postcode": "48455-000",
        "addr:street": "Rua Sete de Setembro",
        "addr:suburb": "Centro",
        "amenity": "school",
        "name": "Escola Estadual Rui Bacelar",
        "operator": "Secretaria de Educação do Estado da Bahia",
        "operator:type": "public",
        "id": "node/4245996556"
      },
      "geometry": {
        "type": "Point",
        "coordinates": [
          -38.4214443,
          -10.3329791
        ]
      }
    },
    {
      "type": "Feature",
      "id": "node/4245996889",
      "properties": {
        "timestamp": "2025-02-24T14:31:43Z",
        "version": 4,
        "changeset": 162895381,
        "addr:city": "Novo Triunfo",
        "addr:housenumber": "12",
        "addr:postcode": "48455-000",
        "addr:street": "Praça São Pedro",
        "addr:suburb": "Centro",
        "amenity": "school",
        "name": "Escola Municipal Pedro Macário de Carvalho",
        "id": "node/4245996889"
      },
      "geometry": {
        "type": "Point",
        "coordinates": [
          -38.4195661,
          -10.3371001
        ]
      }
    },
    {
      "type": "Feature",
      "id": "node/4245996893",
      "properties": {
        "timestamp": "2020-01-12T15:07:45Z",
        "version": 2,
        "changeset": 79478356,
        "amenity": "school",
        "id": "node/4245996893"
      },
      "geometry": {
        "type": "Point",
        "coordinates": [
          -38.4195652,
          -10.3376918
        ]
      }
    },
    {
      "type": "Feature",
      "id": "node/4245996903",
      "properties": {
        "timestamp": "2025-02-24T17:07:14Z",
        "version": 3,
        "changeset": 162901580,
        "addr:city": "Novo Triunfo",
        "addr:postcode": "48445-000",
        "addr:street": "Rua Luis Eduardo Magalhães",
        "addr:suburb": "Centro",
        "amenity": "school",
        "name": "Colégio Municipal Novo Triunfo",
        "operator": "Município de Novo Triunfo",
        "operator:type": "public",
        "id": "node/4245996903"
      },
      "geometry": {
        "type": "Point",
        "coordinates": [
          -38.420884,
          -10.3305499
        ]
      }
    },
    {
      "type": "Feature",
      "id": "node/12615921608",
      "properties": {
        "timestamp": "2025-02-24T14:31:43Z",
        "version": 1,
        "changeset": 162895381,
        "addr:city": "Novo Triunfo",
        "addr:housenumber": "39",
        "addr:postcode": "48455-000",
        "addr:street": "Travessa Nova Esperança",
        "addr:suburb": "Centro",
        "amenity": "school",
        "name": "Colégio Estadual Professora Maria Teresa de Oliveira",
        "operator": "Secretaria de Educação do Estado da Bahia",
        "operator:type": "public",
        "id": "node/12615921608"
      },
      "geometry": {
        "type": "Point",
        "coordinates": [
          -38.4187561,
          -10.3402515
        ]
      }
    },
    {
      "type": "Feature",
      "id": "node/12616241253",
      "properties": {
        "timestamp": "2025-02-24T17:07:14Z",
        "version": 1,
        "changeset": 162901580,
        "addr:city": "Novo Triunfo",
        "addr:housenumber": "1",
        "addr:postcode": "48455-000",
        "addr:street": "Rua do Colégio",
        "addr:suburb": "Lagoa do Badico",
        "amenity": "school",
        "name": "Escola Municipal Santo Antônio",
        "operator": "Município de Novo Triunfo",
        "operator:type": "public",
        "id": "node/12616241253"
      },
      "geometry": {
        "type": "Point",
        "coordinates": [
          -38.3649189,
          -10.3336331
        ]
      }
    },
    {
      "type": "Feature",
      "id": "node/12616241300",
      "properties": {
        "timestamp": "2025-02-24T17:07:14Z",
        "version": 1,
        "changeset": 162901580,
        "addr:city": "Novo Triunfo",
        "addr:housenumber": "1",
        "addr:postcode": "48455-000",
        "addr:street": "Rua do Colégio",
        "addr:suburb": "Lagoa do Badico",
        "amenity": "school",
        "name": "Escola Municipal Angelo Badico",
        "operator": "Município de Novo Triunfo",
        "operator:type": "public",
        "id": "node/12616241300"
      },
      "geometry": {
        "type": "Point",
        "coordinates": [
          -38.3632197,
          -10.3332042
        ]
      }
    }
  ]
}
