{
  "type": "FeatureCollection",
  "features": [
    {
      "type": "Feature",
      "id": "node/10286706811",
      "properties": {
        "timestamp": "2022-12-25T23:39:42Z",
        "version": 1,
        "changeset": 130496614,
        "addr:housenumber": "396",
        "addr:street": "Rua Santa Cruz",
        "addr:suburb": "Centro",
        "amenity": "library",
        "name": "Biblioteca Municipal Afonso Schmidt",
        "id": "node/10286706811"
      },
      "geometry": {
        "type": "Point",
        "coordinates": [
          -45.4105322,
          -23.6196909
        ]
      }
    },
    {
      "type": "Feature",
      "id": "node/10286706814",
      "properties": {
        "timestamp": "2022-12-25T23:39:42Z",
        "version": 1,
        "changeset": 130496614,
        "addr:housenumber": "396",
        "addr:street": "Rua Santa Cruz",
        "addr:suburb": "Centro",
        "amenity": "library",
        "name": "Biblioteca de Artes Leopoldo Ferreira Louzada",
        "id": "node/10286706814"
      },
      "geometry": {
        "type": "Point",
        "coordinates": [
          -45.4106592,
          -23.6198878
        ]
      }
    },
    {
      "type": "Feature",
      "id": "node/10286710285",
      "properties": {
        "timestamp": "2022-12-25T23:57:26Z",
        "version": 1,
        "changeset": 130496838,
        "amenity": "library",
        "name": "Videoteca Lucio Braun",
        "id": "node/10286710285"
      },
      "geometry": {
        "type": "Point",
        "coordinates": [
          -45.4107972,
          -23.6223396
        ]
      }
    }
  ]
}
