{
  "type": "FeatureCollection",
  "features": [
    {
      "type": "Feature",
      "id": "way/844793119",
      "properties": {
        "timestamp": "2020-09-06T16:16:55Z",
        "version": 1,
        "changeset": 90485945,
        "addr:street": "Avenida Marechal Floriano Peixoto",
        "amenity": "pharmacy",
        "building": "yes",
        "dispensing": "yes",
        "healthcare": "pharmacy",
        "name": "SOS FarmaPonte",
        "id": "way/844793119"
      },
      "geometry": {
        "type": "Polygon",
        "coordinates": [
          [
            [
              -45.432694,
              -23.639517
            ],
            [
              -45.4327286,
              -23.6396437
            ],
            [
              -45.4326335,
              -23.6396569
            ],
            [
              -45.4325989,
              -23.6395381
            ],
            [
              -45.432694,
              -23.639517
            ]
          ]
        ]
      }
    },
    {
      "type": "Feature",
      "id": "way/1230660944",
      "properties": {
        "timestamp": "2023-12-12T17:20:23Z",
        "version": 1,
        "changeset": 145046699,
        "addr:street": "Avenida Rio Branco",
        "amenity": "pharmacy",
        "brand": "Droga Raia",
        "brand:wikidata": "Q10357101",
        "building": "yes",
        "healthcare": "pharmacy",
        "mobile": "+55 12 99670 0395",
        "name": "Droga Raia",
        "id": "way/1230660944"
      },
      "geometry": {
        "type": "Polygon",
        "coordinates": [
          [
            [
              -45.4246675,
              -23.6281439
            ],
            [
              -45.4245522,
              -23.6282201
            ],
            [
              -45.4244207,
              -23.6280309
            ],
            [
              -45.4245066,
              -23.6279965
            ],
            [
              -45.4246675,
              -23.6281439
            ]
          ]
        ]
      }
    },
    {
      "type": "Feature",
      "id": "node/4268913089",
      "properties": {
        "timestamp": "2024-02-08T00:12:24Z",
        "version": 3,
        "changeset": 147196875,
        "addr:housenumber": "2071",
        "addr:postcode": "11668-000",
        "addr:street": "Avenida José da Costa Pinheiro Júnior",
        "amenity": "pharmacy",
        "dispensing": "yes",
        "drive_through": "no",
        "healthcare": "pharmacy",
        "name": "Drogaria Total",
        "opening_hours": "Mo-Sa 08:00-19:45; PH off",
        "phone": "+55 12 3882 1774",
        "id": "node/4268913089"
      },
      "geometry": {
        "type": "Point",
        "coordinates": [
          -45.4405473,
          -23.7166009
        ]
      }
    },
    {
      "type": "Feature",
      "id": "node/9330801061",
      "properties": {
        "timestamp": "2021-12-11T23:23:41Z",
        "version": 1,
        "changeset": 114833254,
        "addr:street": "Rua Pedro Xavier do Nascimento",
        "addr:suburb": "Massaguaçú",
        "amenity": "pharmacy",
        "contact:mobile": "+55 12 99205 9065",
        "contact:phone": "+55 12 3884 5706",
        "delivery": "yes",
        "dispensing": "yes",
        "drive_through": "no",
        "healthcare": "pharmacy",
        "name": "Drogaria Nova Trevo Massaguaçú",
        "phone": "+55 12 3884 2902",
        "id": "node/9330801061"
      },
      "geometry": {
        "type": "Point",
        "coordinates": [
          -45.3277908,
          -23.5821027
        ]
      }
    },
    {
      "type": "Feature",
      "id": "node/9710411097",
      "properties": {
        "timestamp": "2022-05-03T02:08:11Z",
        "version": 1,
        "changeset": 120483749,
        "amenity": "pharmacy",
        "dispensing": "yes",
        "healthcare": "pharmacy",
        "id": "node/9710411097"
      },
      "geometry": {
        "type": "Point",
        "coordinates": [
          -45.3453891,
          -23.600977
        ]
      }
    },
    {
      "type": "Feature",
      "id": "node/10199939470",
      "properties": {
        "timestamp": "2024-02-08T00:12:24Z",
        "version": 3,
        "changeset": 147196875,
        "addr:street": "Avenida José da Costa Pinheiro Júnior",
        "amenity": "pharmacy",
        "dispensing": "yes",
        "drive_through": "no",
        "healthcare": "pharmacy",
        "name": "S.O.S Farma",
        "id": "node/10199939470"
      },
      "geometry": {
        "type": "Point",
        "coordinates": [
          -45.4403357,
          -23.7171967
        ]
      }
    },
    {
      "type": "Feature",
      "id": "node/10257902578",
      "properties": {
        "timestamp": "2022-12-12T20:43:13Z",
        "version": 1,
        "changeset": 130012250,
        "addr:postcode": "11668-300",
        "addr:street": "Avenida Orlando Alves de Souza",
        "addr:suburb": "Pereque Mirim",
        "amenity": "pharmacy",
        "branch": "011",
        "brand": "Farma Conde",
        "brand:wikidata": "Q100492677",
        "dispensing": "yes",
        "drive_through": "yes",
        "email": "loja11@farmaconde.com.br",
        "healthcare": "pharmacy",
        "name": "Farma Conde",
        "phone": "+55 12 3888 1301",
        "website": "https://www.farmaconde.com.br/",
        "id": "node/10257902578"
      },
      "geometry": {
        "type": "Point",
        "coordinates": [
          -45.440033,
          -23.7170285
        ]
      }
    },
    {
      "type": "Feature",
      "id": "node/10286649278",
      "properties": {
        "timestamp": "2022-12-25T23:49:34Z",
        "version": 1,
        "changeset": 130496736,
        "addr:housenumber": "437",
        "addr:postcode": "11660-020",
        "addr:street": "Avenida Doutor Altino Arantes",
        "addr:suburb": "Centro",
        "amenity": "pharmacy",
        "branch": "012",
        "brand": "Farma Conde",
        "brand:wikidata": "Q100492677",
        "dispensing": "yes",
        "drive_through": "no",
        "email": "loja12@farmaconde.com.br",
        "healthcare": "pharmacy",
        "name": "Farma Conde",
        "phone": "+55 12 3883-9227",
        "website": "https://www.farmaconde.com.br/",
        "id": "node/10286649278"
      },
      "geometry": {
        "type": "Point",
        "coordinates": [
          -45.4099348,
          -23.6213892
        ]
      }
    },
    {
      "type": "Feature",
      "id": "node/10286677273",
      "properties": {
        "timestamp": "2022-12-25T23:13:16Z",
        "version": 1,
        "changeset": 130496259,
        "addr:housenumber": "384",
        "addr:postcode": "11660-020",
        "addr:street": "Avenida Doutor Altino Arantes",
        "addr:suburb": "Centro",
        "amenity": "pharmacy",
        "branch": "006",
        "brand": "Farma Conde",
        "brand:wikidata": "Q100492677",
        "dispensing": "yes",
        "drive_through": "no",
        "email": "loja06@farmaconde.com.br",
        "healthcare": "pharmacy",
        "name": "Farma Conde",
        "phone": "+55 12 3882 5951",
        "website": "https://www.farmaconde.com.br/",
        "id": "node/10286677273"
      },
      "geometry": {
        "type": "Point",
        "coordinates": [
          -45.410328,
          -23.6218561
        ]
      }
    },
    {
      "type": "Feature",
      "id": "node/10294170324",
      "properties": {
        "timestamp": "2022-12-29T22:26:28Z",
        "version": 1,
        "changeset": 130665234,
        "addr:housenumber": "588",
        "addr:postcode": "11661-300",
        "addr:street": "Avenida Presidente Castelo Branco",
        "amenity": "pharmacy",
        "brand": "Farma Conde",
        "brand:wikidata": "Q100492677",
        "dispensing": "yes",
        "drive_through": "no",
        "email": "loja78@farmaconde.com.br",
        "healthcare": "pharmacy",
        "name": "Farma Conde",
        "phone": "+55 12 3883 4259",
        "website": "https://www.farmaconde.com.br/",
        "id": "node/10294170324"
      },
      "geometry": {
        "type": "Point",
        "coordinates": [
          -45.4012928,
          -23.619176
        ]
      }
    },
    {
      "type": "Feature",
      "id": "node/11408613197",
      "properties": {
        "timestamp": "2023-12-10T23:11:27Z",
        "version": 2,
        "changeset": 144980197,
        "addr:street": "Avenida Marechal Deodoro da Fonseca",
        "amenity": "pharmacy",
        "dispensing": "yes",
        "drive_through": "no",
        "healthcare": "pharmacy",
        "mobile": "+55 12 99620 7824",
        "name": "Drogaria Total",
        "phone": "+55 12 3883 5901",
        "id": "node/11408613197"
      },
      "geometry": {
        "type": "Point",
        "coordinates": [
          -45.4355065,
          -23.6296405
        ]
      }
    },
    {
      "type": "Feature",
      "id": "node/11957198573",
      "properties": {
        "timestamp": "2024-06-05T01:28:12Z",
        "version": 1,
        "changeset": 152266931,
        "amenity": "pharmacy",
        "check_date": "2024-06-03",
        "healthcare": "pharmacy",
        "name": "Droga Raia",
        "id": "node/11957198573"
      },
      "geometry": {
        "type": "Point",
        "coordinates": [
          -45.4067309,
          -23.6201798
        ]
      }
    },
    {
      "type": "Feature",
      "id": "node/11957198574",
      "properties": {
        "timestamp": "2024-06-05T01:28:12Z",
        "version": 1,
        "changeset": 152266931,
        "amenity": "pharmacy",
        "check_date": "2024-06-03",
        "healthcare": "pharmacy",
        "name": "Ultrafarma",
        "id": "node/11957198574"
      },
      "geometry": {
        "type": "Point",
        "coordinates": [
          -45.4069647,
          -23.6206226
        ]
      }
    }
  ]
}
