{
  "type": "FeatureCollection",
  "features": [
    {
      "type": "Feature",
      "id": "node/6444185676",
      "properties": {
        "timestamp": "2019-05-03T10:49:53Z",
        "version": 2,
        "changeset": 69837252,
        "addr:city": "Cacimba de Dentro",
        "addr:postcode": "58230-000",
        "addr:street": "Rua Getúlio Vargas",
        "government": "register_office",
        "name": "Cartório Gomes de Souza",
        "office": "government",
        "id": "node/6444185676"
      },
      "geometry": {
        "type": "Point",
        "coordinates": [
          -35.7929105,
          -6.6421374
        ]
      }
    },
    {
      "type": "Feature",
      "id": "node/6448767065",
      "properties": {
        "timestamp": "2019-05-05T00:14:07Z",
        "version": 1,
        "changeset": 69892144,
        "addr:city": "Cacimba de Dentro",
        "addr:postcode": "58230-000",
        "addr:street": "Rua Getúlio Vargas",
        "addr:suburb": "Centro",
        "name": "Câmara Municipal de Cacimba de Dentro",
        "office": "government",
        "id": "node/6448767065"
      },
      "geometry": {
        "type": "Point",
        "coordinates": [
          -35.7924057,
          -6.6409903
        ]
      }
    },
    {
      "type": "Feature",
      "id": "node/6458013539",
      "properties": {
        "timestamp": "2019-05-08T12:03:01Z",
        "version": 1,
        "changeset": 70023645,
        "addr:city": "Cacimba de Dentro",
        "addr:postcode": "58230-000",
        "addr:street": "Rua Tancredo Neves",
        "government": "education",
        "name": "Secretaria Municipal de Educação e Cultura",
        "office": "government",
        "id": "node/6458013539"
      },
      "geometry": {
        "type": "Point",
        "coordinates": [
          -35.7892173,
          -6.6442055
        ]
      }
    }
  ]
}
