{
  "type": "FeatureCollection",
  "features": [
    {
      "type": "Feature",
      "id": "node/5405486375",
      "properties": {
        "timestamp": "2018-02-11T15:44:18Z",
        "version": 1,
        "changeset": 56266609,
        "addr:city": "Senador Sá",
        "addr:postcode": "62470000",
        "addr:street": "Av Alfredo Ribeiro Campos",
        "addr:suburb": "centro",
        "amenity": "clinic",
        "healthcare": "clinic",
        "name": "Posto de Saúde",
        "id": "node/5405486375"
      },
      "geometry": {
        "type": "Point",
        "coordinates": [
          -40.4657417,
          -3.3529806
        ]
      }
    },
    {
      "type": "Feature",
      "id": "node/5405517841",
      "properties": {
        "timestamp": "2018-02-11T15:58:20Z",
        "version": 1,
        "changeset": 56266945,
        "addr:city": "Senador Sá",
        "addr:postcode": "62470-000",
        "addr:suburb": "Nossa Senhora do Amparo",
        "amenity": "clinic",
        "healthcare": "clinic",
        "name": "Posto de Saúde",
        "id": "node/5405517841"
      },
      "geometry": {
        "type": "Point",
        "coordinates": [
          -40.460529,
          -3.3440514
        ]
      }
    },
    {
      "type": "Feature",
      "id": "node/5410178689",
      "properties": {
        "timestamp": "2018-02-13T16:15:54Z",
        "version": 1,
        "changeset": 56327621,
        "amenity": "clinic",
        "healthcare": "clinic",
        "id": "node/5410178689"
      },
      "geometry": {
        "type": "Point",
        "coordinates": [
          -40.4522305,
          -3.1828315
        ]
      }
    }
  ]
}
