{
  "type": "FeatureCollection",
  "features": [
    {
      "type": "Feature",
      "id": "node/5405344196",
      "properties": {
        "timestamp": "2021-05-11T20:33:59Z",
        "version": 2,
        "changeset": 104534429,
        "addr:city": "Senador Sá",
        "addr:postcode": "62470000",
        "addr:street": "Av 23 de agosto",
        "addr:suburb": "Centro",
        "amenity": "pharmacy",
        "healthcare": "pharmacy",
        "name": "Farmácia Santra Cara",
        "id": "node/5405344196"
      },
      "geometry": {
        "type": "Point",
        "coordinates": [
          -40.4654521,
          -3.3511866
        ]
      }
    },
    {
      "type": "Feature",
      "id": "node/5409963772",
      "properties": {
        "timestamp": "2018-02-13T14:19:16Z",
        "version": 1,
        "changeset": 56324916,
        "addr:city": "Senador Sá",
        "addr:postcode": "62470000",
        "addr:street": "Rua Zacarias Lira",
        "addr:suburb": "centro",
        "amenity": "pharmacy",
        "healthcare": "pharmacy",
        "name": "Farmacia",
        "id": "node/5409963772"
      },
      "geometry": {
        "type": "Point",
        "coordinates": [
          -40.4648641,
          -3.3507848
        ]
      }
    },
    {
      "type": "Feature",
      "id": "node/5410183426",
      "properties": {
        "timestamp": "2018-02-13T16:18:27Z",
        "version": 1,
        "changeset": 56327704,
        "amenity": "pharmacy",
        "healthcare": "pharmacy",
        "id": "node/5410183426"
      },
      "geometry": {
        "type": "Point",
        "coordinates": [
          -40.4533224,
          -3.1844093
        ]
      }
    }
  ]
}
