{
  "type": "FeatureCollection",
  "features": [
    {
      "type": "Feature",
      "id": "way/1273500896",
      "properties": {
        "timestamp": "2024-04-17T19:10:16Z",
        "version": 1,
        "changeset": 150145284,
        "addr:city": "Senador Sá",
        "addr:postcode": "62470000",
        "addr:street": "Rua Padre Tarcísio Melo",
        "addr:suburb": "centro",
        "amenity": "school",
        "name": "Escola Nossa Senhora do Amparo",
        "id": "way/1273500896"
      },
      "geometry": {
        "type": "Polygon",
        "coordinates": [
          [
            [
              -40.4657919,
              -3.3528457
            ],
            [
              -40.4651754,
              -3.353319
            ],
            [
              -40.4649172,
              -3.3529457
            ],
            [
              -40.4655447,
              -3.3524614
            ],
            [
              -40.4657919,
              -3.3528457
            ]
          ]
        ]
      }
    },
    {
      "type": "Feature",
      "id": "way/1273500923",
      "properties": {
        "timestamp": "2024-04-17T19:10:46Z",
        "version": 1,
        "changeset": 150145298,
        "amenity": "school",
        "name": "Escola Estadual",
        "id": "way/1273500923"
      },
      "geometry": {
        "type": "Polygon",
        "coordinates": [
          [
            [
              -40.4636794,
              -3.3508397
            ],
            [
              -40.4634696,
              -3.3509837
            ],
            [
              -40.4632441,
              -3.3506564
            ],
            [
              -40.4634539,
              -3.3505124
            ],
            [
              -40.4636794,
              -3.3508397
            ]
          ]
        ]
      }
    },
    {
      "type": "Feature",
      "id": "node/5405364506",
      "properties": {
        "timestamp": "2021-05-11T20:33:59Z",
        "version": 2,
        "changeset": 104534429,
        "addr:city": "Senador Sá",
        "addr:postcode": "62470000",
        "addr:street": "Av Alfredo Ribeiro Campos",
        "addr:suburb": "Nossa Senhora do Carmo",
        "amenity": "school",
        "name": "Pingo de Gente",
        "id": "node/5405364506"
      },
      "geometry": {
        "type": "Point",
        "coordinates": [
          -40.467913,
          -3.3560893
        ]
      }
    },
    {
      "type": "Feature",
      "id": "node/5405510547",
      "properties": {
        "timestamp": "2022-04-17T00:01:37Z",
        "version": 2,
        "changeset": 119801408,
        "addr:city": "Senador Sá",
        "addr:postcode": "62470000",
        "addr:street": "Rua Alexade F. Marques",
        "addr:suburb": "Nossa Senhora do Amparo",
        "amenity": "school",
        "id": "node/5405510547"
      },
      "geometry": {
        "type": "Point",
        "coordinates": [
          -40.4643414,
          -3.3486573
        ]
      }
    },
    {
      "type": "Feature",
      "id": "node/5405513440",
      "properties": {
        "timestamp": "2022-04-17T00:01:37Z",
        "version": 2,
        "changeset": 119801408,
        "addr:city": "Senador Sá",
        "addr:postcode": "62470-000",
        "addr:street": "Rua Nossa Senhora do Amparo",
        "addr:suburb": "Nossa Senhora do Amparo",
        "amenity": "school",
        "id": "node/5405513440"
      },
      "geometry": {
        "type": "Point",
        "coordinates": [
          -40.4625097,
          -3.3432169
        ]
      }
    },
    {
      "type": "Feature",
      "id": "node/5409949146",
      "properties": {
        "timestamp": "2022-04-17T00:01:37Z",
        "version": 2,
        "changeset": 119801408,
        "amenity": "school",
        "id": "node/5409949146"
      },
      "geometry": {
        "type": "Point",
        "coordinates": [
          -40.5449605,
          -3.426619
        ]
      }
    },
    {
      "type": "Feature",
      "id": "node/5410022208",
      "properties": {
        "timestamp": "2018-02-13T14:51:08Z",
        "version": 1,
        "changeset": 56325653,
        "addr:city": "Senador Sá",
        "addr:postcode": "62470-970",
        "addr:street": "Av. 23 de agosto",
        "addr:suburb": "Frei Galvão",
        "amenity": "school",
        "id": "node/5410022208"
      },
      "geometry": {
        "type": "Point",
        "coordinates": [
          -40.4677426,
          -3.3497592
        ]
      }
    },
    {
      "type": "Feature",
      "id": "node/5410068586",
      "properties": {
        "timestamp": "2024-04-17T19:10:16Z",
        "version": 2,
        "changeset": 150145284,
        "addr:city": "Senador Sá",
        "addr:postcode": "62470000",
        "addr:street": "Rua Zacarias Lira",
        "addr:suburb": "centro",
        "amenity": "school",
        "name": "ESCOLA PATICULAR",
        "id": "node/5410068586"
      },
      "geometry": {
        "type": "Point",
        "coordinates": [
          -40.4633286,
          -3.3516546
        ]
      }
    },
    {
      "type": "Feature",
      "id": "node/5410179828",
      "properties": {
        "timestamp": "2018-02-13T16:16:30Z",
        "version": 1,
        "changeset": 56327644,
        "addr:city": "Senador Sá",
        "addr:postcode": "62477-000",
        "addr:street": "CE-354",
        "addr:suburb": "SERRORA",
        "amenity": "school",
        "id": "node/5410179828"
      },
      "geometry": {
        "type": "Point",
        "coordinates": [
          -40.4528747,
          -3.1835948
        ]
      }
    },
    {
      "type": "Feature",
      "id": "node/5410183450",
      "properties": {
        "timestamp": "2018-02-13T16:19:04Z",
        "version": 1,
        "changeset": 56327723,
        "addr:city": "Senador Sá",
        "addr:postcode": "62477-000",
        "addr:street": "CE-354",
        "addr:suburb": "SERRORA",
        "amenity": "school",
        "id": "node/5410183450"
      },
      "geometry": {
        "type": "Point",
        "coordinates": [
          -40.453471,
          -3.183411
        ]
      }
    },
    {
      "type": "Feature",
      "id": "node/5410199092",
      "properties": {
        "timestamp": "2018-02-13T16:30:37Z",
        "version": 1,
        "changeset": 56328022,
        "amenity": "school",
        "id": "node/5410199092"
      },
      "geometry": {
        "type": "Point",
        "coordinates": [
          -40.4635652,
          -3.1406354
        ]
      }
    },
    {
      "type": "Feature",
      "id": "node/5454672381",
      "properties": {
        "timestamp": "2018-03-04T17:31:31Z",
        "version": 1,
        "changeset": 56876545,
        "amenity": "school",
        "id": "node/5454672381"
      },
      "geometry": {
        "type": "Point",
        "coordinates": [
          -40.5033302,
          -3.3704219
        ]
      }
    },
    {
      "type": "Feature",
      "id": "node/5454672756",
      "properties": {
        "timestamp": "2018-03-04T17:33:22Z",
        "version": 1,
        "changeset": 56876595,
        "amenity": "school",
        "id": "node/5454672756"
      },
      "geometry": {
        "type": "Point",
        "coordinates": [
          -40.491424,
          -3.3721278
        ]
      }
    }
  ]
}
