{
  "type": "FeatureCollection",
  "features": [
    {
      "type": "Feature",
      "id": "way/1031991619",
      "properties": {
        "timestamp": "2022-02-16T12:19:24Z",
        "version": 1,
        "changeset": 117474333,
        "addr:city": "Talism達",
        "addr:postcode": "77483-000",
        "addr:street": "Rua 17",
        "addr:suburb": "Centro",
        "amenity": "school",
        "name": "Centro Educacional Municipal De Educacao Infantil Senador Joao Batista De Jesus Ribeiro",
        "id": "way/1031991619"
      },
      "geometry": {
        "type": "Polygon",
        "coordinates": [
          [
            [
              -49.0942665,
              -12.8071694
            ],
            [
              -49.0944369,
              -12.8077503
            ],
            [
              -49.0939697,
              -12.8078807
            ],
            [
              -49.0937992,
              -12.8072999
            ],
            [
              -49.0942665,
              -12.8071694
            ]
          ]
        ]
      }
    },
    {
      "type": "Feature",
      "id": "way/1032963220",
      "properties": {
        "timestamp": "2022-02-18T17:49:35Z",
        "version": 1,
        "changeset": 117575733,
        "amenity": "school",
        "name": "Escola Municipal Vila Uniao",
        "phone": "+55 63 3385 1120",
        "id": "way/1032963220"
      },
      "geometry": {
        "type": "Polygon",
        "coordinates": [
          [
            [
              -48.8175787,
              -12.3949897
            ],
            [
              -48.817509,
              -12.3953433
            ],
            [
              -48.8169537,
              -12.3952359
            ],
            [
              -48.8170449,
              -12.3948587
            ],
            [
              -48.8175787,
              -12.3949897
            ]
          ]
        ]
      }
    },
    {
      "type": "Feature",
      "id": "way/1033232683",
      "properties": {
        "timestamp": "2022-02-19T14:40:34Z",
        "version": 1,
        "changeset": 117606811,
        "addr:city": "Talism達",
        "addr:housenumber": "41",
        "addr:postcode": "77483-000",
        "addr:street": "Rua 11",
        "addr:suburb": "Centro",
        "amenity": "school",
        "name": "Colegio Estadual De Talisma",
        "phone": "+55 63 3385 1216",
        "id": "way/1033232683"
      },
      "geometry": {
        "type": "Polygon",
        "coordinates": [
          [
            [
              -49.0914734,
              -12.7998603
            ],
            [
              -49.0917508,
              -12.8007938
            ],
            [
              -49.0910506,
              -12.8009916
            ],
            [
              -49.0907734,
              -12.800058
            ],
            [
              -49.0914734,
              -12.7998603
            ]
          ]
        ]
      }
    },
    {
      "type": "Feature",
      "id": "way/1033232870",
      "properties": {
        "timestamp": "2022-02-19T14:41:43Z",
        "version": 1,
        "changeset": 117606853,
        "addr:city": "Talism達",
        "addr:housenumber": "0",
        "addr:postcode": "77483-000",
        "addr:street": "Avenida Rio Formoso",
        "addr:suburb": "Centro",
        "amenity": "school",
        "name": "Escola Municipal Professora Antonia Dos Reis Rodrigues Batista",
        "phone": "+55 63 3385 1312",
        "id": "way/1033232870"
      },
      "geometry": {
        "type": "Polygon",
        "coordinates": [
          [
            [
              -49.0916069,
              -12.7949893
            ],
            [
              -49.0915681,
              -12.7953541
            ],
            [
              -49.0911226,
              -12.7953512
            ],
            [
              -49.0911613,
              -12.794953
            ],
            [
              -49.0916069,
              -12.7949893
            ]
          ]
        ]
      }
    },
    {
      "type": "Feature",
      "id": "way/1033232953",
      "properties": {
        "timestamp": "2022-02-19T14:43:01Z",
        "version": 1,
        "changeset": 117606904,
        "addr:city": "Talism達",
        "addr:postcode": "77483-000",
        "addr:street": "Avenida Ilson Furtado Carlota",
        "addr:suburb": "Centro",
        "amenity": "school",
        "name": "Escola Municipal Talisma",
        "phone": "+55 63 3385 1120",
        "id": "way/1033232953"
      },
      "geometry": {
        "type": "Polygon",
        "coordinates": [
          [
            [
              -49.0911111,
              -12.7936802
            ],
            [
              -49.0910694,
              -12.7940289
            ],
            [
              -49.0898442,
              -12.7938772
            ],
            [
              -49.0898314,
              -12.7935035
            ],
            [
              -49.0911111,
              -12.7936802
            ]
          ]
        ]
      }
    },
    {
      "type": "Feature",
      "id": "node/9519329754",
      "properties": {
        "timestamp": "2022-02-19T14:43:34Z",
        "version": 1,
        "changeset": 117606917,
        "amenity": "school",
        "name": "Escola Municipal Morro Alegre",
        "phone": "+55 63 3385 1120",
        "id": "node/9519329754"
      },
      "geometry": {
        "type": "Point",
        "coordinates": [
          -49.2502914,
          -12.6993336
        ]
      }
    }
  ]
}
