{
  "type": "FeatureCollection",
  "features": [
    {
      "type": "Feature",
      "id": "way/556397355",
      "properties": {
        "timestamp": "2018-06-07T05:16:15Z",
        "version": 2,
        "changeset": 59621116,
        "amenity": "clinic",
        "building": "yes",
        "healthcare": "clinic",
        "name": "Posto de Saúde 2",
        "id": "way/556397355"
      },
      "geometry": {
        "type": "Polygon",
        "coordinates": [
          [
            [
              -47.1329752,
              -23.5304472
            ],
            [
              -47.1330448,
              -23.5306157
            ],
            [
              -47.1330506,
              -23.5308483
            ],
            [
              -47.1329859,
              -23.5311751
            ],
            [
              -47.1326291,
              -23.5311308
            ],
            [
              -47.1325889,
              -23.530462
            ],
            [
              -47.1329752,
              -23.5304472
            ]
          ]
        ]
      }
    },
    {
      "type": "Feature",
      "id": "way/556397356",
      "properties": {
        "timestamp": "2023-09-06T10:06:23Z",
        "version": 4,
        "changeset": 140887654,
        "addr:city": "São Roque",
        "addr:housenumber": "70",
        "addr:postcode": "18130-360",
        "addr:street": "Rua Professor Fernando de Lima",
        "addr:suburb": "Centro",
        "amenity": "clinic",
        "building": "yes",
        "healthcare": "clinic",
        "name": "Unidade Central de Saúde Andrea Regina Giancoli",
        "operator:ref:vatin": "BR70946009000175",
        "ref:CNES": "2793385",
        "source:name": "P.E.T. de São Roque, Lei nº 3.897, de 5 de novembro de 2012.",
        "id": "way/556397356"
      },
      "geometry": {
        "type": "Polygon",
        "coordinates": [
          [
            [
              -47.1372989,
              -23.5321465
            ],
            [
              -47.1375054,
              -23.5322596
            ],
            [
              -47.137602,
              -23.5323776
            ],
            [
              -47.137433,
              -23.532444
            ],
            [
              -47.1371701,
              -23.5325203
            ],
            [
              -47.1370763,
              -23.5323727
            ],
            [
              -47.1371058,
              -23.5323088
            ],
            [
              -47.137213,
              -23.5321809
            ],
            [
              -47.1372989,
              -23.5321465
            ]
          ]
        ]
      }
    },
    {
      "type": "Feature",
      "id": "way/1006788946",
      "properties": {
        "timestamp": "2023-09-06T10:06:23Z",
        "version": 4,
        "changeset": 140887654,
        "addr:city": "São Roque",
        "addr:housenumber": "142",
        "addr:postcode": "18130-555",
        "addr:street": "Rua Santana",
        "addr:suburb": "Vila Marques",
        "amenity": "clinic",
        "building": "yes",
        "healthcare": "clinic",
        "name": "Centro Médico Santana Precision",
        "ref:CNES": "2064367",
        "ref:vatin": "BR50371889000191",
        "id": "way/1006788946"
      },
      "geometry": {
        "type": "Polygon",
        "coordinates": [
          [
            [
              -47.1391491,
              -23.536494
            ],
            [
              -47.1392793,
              -23.5364648
            ],
            [
              -47.1393662,
              -23.5366208
            ],
            [
              -47.1391587,
              -23.5367248
            ],
            [
              -47.1389739,
              -23.5368132
            ],
            [
              -47.1388558,
              -23.5368697
            ],
            [
              -47.1387601,
              -23.5367171
            ],
            [
              -47.1388671,
              -23.5366514
            ],
            [
              -47.1389813,
              -23.5365877
            ],
            [
              -47.1391491,
              -23.536494
            ]
          ]
        ]
      }
    },
    {
      "type": "Feature",
      "id": "way/1006789685",
      "properties": {
        "timestamp": "2021-11-27T17:42:24Z",
        "version": 1,
        "changeset": 114302275,
        "addr:city": "São Roque",
        "addr:housenumber": "19",
        "addr:postcode": "18130-535",
        "addr:street": "Rua Dom Pedro II",
        "addr:suburb": "Vila Marques",
        "amenity": "clinic",
        "building": "yes",
        "healthcare": "clinic",
        "name": "RADMED",
        "id": "way/1006789685"
      },
      "geometry": {
        "type": "Polygon",
        "coordinates": [
          [
            [
              -47.1392958,
              -23.5370124
            ],
            [
              -47.1394127,
              -23.5372191
            ],
            [
              -47.1391706,
              -23.5373564
            ],
            [
              -47.1390389,
              -23.5371616
            ],
            [
              -47.1392958,
              -23.5370124
            ]
          ]
        ]
      }
    },
    {
      "type": "Feature",
      "id": "way/1006799045",
      "properties": {
        "timestamp": "2023-09-06T10:06:23Z",
        "version": 3,
        "changeset": 140887654,
        "addr:city": "São Roque",
        "addr:housenumber": "151",
        "addr:postcode": "18130-780",
        "addr:street": "Rua Capitão José Vicente de Moraes",
        "addr:suburb": "Esplanada Mendes Moraes",
        "amenity": "clinic",
        "building": "yes",
        "healthcare": "clinic",
        "name": "Diagnosom São Roque",
        "ref:CNES": "6107222",
        "id": "way/1006799045"
      },
      "geometry": {
        "type": "Polygon",
        "coordinates": [
          [
            [
              -47.1310138,
              -23.5289343
            ],
            [
              -47.1310699,
              -23.5291538
            ],
            [
              -47.1308327,
              -23.5292017
            ],
            [
              -47.1307562,
              -23.5289673
            ],
            [
              -47.1310138,
              -23.5289343
            ]
          ]
        ]
      }
    },
    {
      "type": "Feature",
      "id": "way/1006821691",
      "properties": {
        "timestamp": "2023-09-06T10:06:23Z",
        "version": 2,
        "changeset": 140887654,
        "addr:city": "São Roque",
        "addr:housenumber": "349",
        "addr:postcode": "18130-555",
        "addr:street": "Rua Santana",
        "addr:suburb": "Vila Marques",
        "amenity": "clinic",
        "building": "yes",
        "healthcare": "clinic",
        "name": "Clínica Integrada SR",
        "phone": "+55 11 4712 2753",
        "ref:CNES": "5811619",
        "id": "way/1006821691"
      },
      "geometry": {
        "type": "Polygon",
        "coordinates": [
          [
            [
              -47.1396035,
              -23.5381086
            ],
            [
              -47.1396737,
              -23.5382111
            ],
            [
              -47.1396153,
              -23.5382619
            ],
            [
              -47.1395433,
              -23.5381502
            ],
            [
              -47.1396035,
              -23.5381086
            ]
          ]
        ]
      }
    },
    {
      "type": "Feature",
      "id": "way/1006841317",
      "properties": {
        "timestamp": "2023-09-06T10:06:23Z",
        "version": 2,
        "changeset": 140887654,
        "addr:city": "São Roque",
        "addr:housenumber": "42",
        "addr:postcode": "18134-250",
        "addr:street": "Rua Raposo Tavares",
        "addr:suburb": "Jardim Bandeirantes",
        "amenity": "clinic",
        "building": "yes",
        "healthcare": "clinic",
        "name": "Clínica Santa Helena",
        "ref:CNES": "3821951",
        "ref:vatin": "BR07227797000103",
        "id": "way/1006841317"
      },
      "geometry": {
        "type": "Polygon",
        "coordinates": [
          [
            [
              -47.1332031,
              -23.523006
            ],
            [
              -47.1331785,
              -23.5230734
            ],
            [
              -47.1330007,
              -23.5230636
            ],
            [
              -47.13299,
              -23.5229736
            ],
            [
              -47.1332031,
              -23.523006
            ]
          ]
        ]
      }
    },
    {
      "type": "Feature",
      "id": "way/1050851179",
      "properties": {
        "timestamp": "2022-04-10T20:19:43Z",
        "version": 1,
        "changeset": 119550023,
        "addr:city": "São Roque",
        "addr:housenumber": "527",
        "addr:street": "Avenida Tiradentes",
        "addr:suburb": "Centro",
        "amenity": "clinic",
        "building": "yes",
        "healthcare": "clinic",
        "name": "Arkimedes",
        "id": "way/1050851179"
      },
      "geometry": {
        "type": "Polygon",
        "coordinates": [
          [
            [
              -47.1326602,
              -23.5263063
            ],
            [
              -47.1324815,
              -23.5264177
            ],
            [
              -47.1323529,
              -23.5263063
            ],
            [
              -47.1325423,
              -23.5261638
            ],
            [
              -47.1326602,
              -23.5263063
            ]
          ]
        ]
      }
    },
    {
      "type": "Feature",
      "id": "way/1050884091",
      "properties": {
        "timestamp": "2022-04-10T22:56:52Z",
        "version": 1,
        "changeset": 119553390,
        "addr:city": "São Roque",
        "addr:housenumber": "124",
        "addr:street": "Rua Quarto Centenário",
        "addr:suburb": "Parque IX de Julho",
        "amenity": "clinic",
        "building": "yes",
        "healthcare": "clinic",
        "id": "way/1050884091"
      },
      "geometry": {
        "type": "Polygon",
        "coordinates": [
          [
            [
              -47.1285998,
              -23.5254224
            ],
            [
              -47.1286021,
              -23.5256457
            ],
            [
              -47.1284915,
              -23.5256397
            ],
            [
              -47.1284874,
              -23.5254211
            ],
            [
              -47.1285998,
              -23.5254224
            ]
          ]
        ]
      }
    },
    {
      "type": "Feature",
      "id": "way/1050884299",
      "properties": {
        "timestamp": "2022-04-12T04:44:38Z",
        "version": 2,
        "changeset": 119602984,
        "addr:city": "São Roque",
        "addr:housenumber": "225",
        "addr:street": "Avenida Três de Maio",
        "addr:suburb": "Centro",
        "amenity": "clinic",
        "building": "yes",
        "healthcare": "clinic",
        "id": "way/1050884299"
      },
      "geometry": {
        "type": "Polygon",
        "coordinates": [
          [
            [
              -47.1312565,
              -23.5260705
            ],
            [
              -47.1310326,
              -23.5261846
            ],
            [
              -47.1309931,
              -23.5261082
            ],
            [
              -47.131223,
              -23.5260134
            ],
            [
              -47.1312565,
              -23.5260705
            ]
          ]
        ]
      }
    },
    {
      "type": "Feature",
      "id": "way/1050907681",
      "properties": {
        "timestamp": "2022-04-11T02:14:44Z",
        "version": 1,
        "changeset": 119555736,
        "addr:city": "São Roque",
        "addr:housenumber": "75",
        "addr:street": "Rua José Bonifácio de Andrade e Silva",
        "addr:suburb": "Jardim Meny",
        "amenity": "clinic",
        "building": "yes",
        "healthcare": "clinic",
        "id": "way/1050907681"
      },
      "geometry": {
        "type": "Polygon",
        "coordinates": [
          [
            [
              -47.1358018,
              -23.5340164
            ],
            [
              -47.135998,
              -23.5341133
            ],
            [
              -47.1359523,
              -23.534244
            ],
            [
              -47.135616,
              -23.5341642
            ],
            [
              -47.1356667,
              -23.5339616
            ],
            [
              -47.1358018,
              -23.5340164
            ]
          ]
        ]
      }
    },
    {
      "type": "Feature",
      "id": "way/1122508759",
      "properties": {
        "timestamp": "2022-12-15T23:04:56Z",
        "version": 1,
        "changeset": 130133773,
        "addr:city": "São Roque",
        "addr:housenumber": "840",
        "addr:street": "Avenida Antonino Dias Bastos",
        "addr:suburb": "Centro",
        "amenity": "clinic",
        "building": "yes",
        "healthcare": "clinic",
        "name": "DBA",
        "id": "way/1122508759"
      },
      "geometry": {
        "type": "Polygon",
        "coordinates": [
          [
            [
              -47.1353942,
              -23.5278943
            ],
            [
              -47.1355042,
              -23.5280545
            ],
            [
              -47.1353084,
              -23.5281802
            ],
            [
              -47.135208,
              -23.5280288
            ],
            [
              -47.1353942,
              -23.5278943
            ]
          ]
        ]
      }
    },
    {
      "type": "Feature",
      "id": "way/1122690903",
      "properties": {
        "timestamp": "2022-12-16T15:57:55Z",
        "version": 1,
        "changeset": 130162038,
        "addr:city": "São Roque",
        "addr:housenumber": "42",
        "addr:street": "Rua José Alembick",
        "addr:suburb": "Centro",
        "amenity": "clinic",
        "building": "yes",
        "healthcare": "clinic",
        "id": "way/1122690903"
      },
      "geometry": {
        "type": "Polygon",
        "coordinates": [
          [
            [
              -47.1376137,
              -23.5324527
            ],
            [
              -47.1376759,
              -23.5326253
            ],
            [
              -47.1372646,
              -23.5327577
            ],
            [
              -47.1372262,
              -23.5326588
            ],
            [
              -47.1374291,
              -23.5325985
            ],
            [
              -47.1374181,
              -23.5325247
            ],
            [
              -47.1376137,
              -23.5324527
            ]
          ]
        ]
      }
    },
    {
      "type": "Feature",
      "id": "way/1122692883",
      "properties": {
        "timestamp": "2022-12-16T16:07:49Z",
        "version": 1,
        "changeset": 130162339,
        "addr:city": "São Roque",
        "addr:housenumber": "419",
        "addr:street": "Rua José Bonifacio de Andrada e Silva",
        "addr:suburb": "Jardim Meny",
        "amenity": "clinic",
        "building": "yes",
        "healthcare": "clinic",
        "id": "way/1122692883"
      },
      "geometry": {
        "type": "Polygon",
        "coordinates": [
          [
            [
              -47.1358684,
              -23.5374072
            ],
            [
              -47.1359234,
              -23.5374762
            ],
            [
              -47.1357162,
              -23.5376124
            ],
            [
              -47.135669,
              -23.5375137
            ],
            [
              -47.1358684,
              -23.5374072
            ]
          ]
        ]
      }
    },
    {
      "type": "Feature",
      "id": "way/1122781450",
      "properties": {
        "timestamp": "2022-12-16T22:29:21Z",
        "version": 1,
        "changeset": 130172241,
        "addr:city": "São Roque",
        "addr:housenumber": "31",
        "addr:street": "Rua Paulino Hermílio de Campos",
        "addr:suburb": "Centro",
        "amenity": "clinic",
        "building": "yes",
        "healthcare": "clinic",
        "id": "way/1122781450"
      },
      "geometry": {
        "type": "Polygon",
        "coordinates": [
          [
            [
              -47.1376114,
              -23.5299767
            ],
            [
              -47.1377154,
              -23.5300025
            ],
            [
              -47.1376145,
              -23.5302764
            ],
            [
              -47.1375485,
              -23.5302461
            ],
            [
              -47.1376114,
              -23.5299767
            ]
          ]
        ]
      }
    },
    {
      "type": "Feature",
      "id": "way/1122782079",
      "properties": {
        "timestamp": "2022-12-16T22:36:20Z",
        "version": 1,
        "changeset": 130172346,
        "addr:city": "São Roque",
        "addr:housenumber": "109",
        "addr:street": "Rua XV de Novembro",
        "addr:suburb": "Centro",
        "amenity": "clinic",
        "building": "yes",
        "healthcare": "clinic",
        "name": "Ativa Saúde SR",
        "id": "way/1122782079"
      },
      "geometry": {
        "type": "Polygon",
        "coordinates": [
          [
            [
              -47.1339389,
              -23.5327244
            ],
            [
              -47.1339137,
              -23.5327937
            ],
            [
              -47.1337432,
              -23.5327276
            ],
            [
              -47.1337741,
              -23.5326615
            ],
            [
              -47.1339389,
              -23.5327244
            ]
          ]
        ]
      }
    }
  ]
}
