{
  "type": "FeatureCollection",
  "features": [
    {
      "type": "Feature",
      "id": "way/1050876948",
      "properties": {
        "timestamp": "2022-04-10T21:57:51Z",
        "version": 1,
        "changeset": 119552305,
        "addr:city": "São Roque",
        "addr:housenumber": "210",
        "addr:street": "Avenida Três de Maio",
        "addr:suburb": "Centro",
        "amenity": "dentist",
        "building": "yes",
        "healthcare": "dentist",
        "id": "way/1050876948"
      },
      "geometry": {
        "type": "Polygon",
        "coordinates": [
          [
            [
              -47.1309607,
              -23.526292
            ],
            [
              -47.1310289,
              -23.5263664
            ],
            [
              -47.1307943,
              -23.5264661
            ],
            [
              -47.1307254,
              -23.5263775
            ],
            [
              -47.1309607,
              -23.526292
            ]
          ]
        ]
      }
    },
    {
      "type": "Feature",
      "id": "way/1050884687",
      "properties": {
        "timestamp": "2022-04-18T05:38:59Z",
        "version": 2,
        "changeset": 119839035,
        "addr:city": "São Roque",
        "addr:housenumber": "91",
        "addr:street": "Rua Capitão Fernando Paes de Barros",
        "addr:suburb": "Jardim Bela Vista",
        "amenity": "dentist",
        "building": "yes",
        "healthcare": "dentist",
        "id": "way/1050884687"
      },
      "geometry": {
        "type": "Polygon",
        "coordinates": [
          [
            [
              -47.1303681,
              -23.5229985
            ],
            [
              -47.1303938,
              -23.52314
            ],
            [
              -47.1301655,
              -23.5232718
            ],
            [
              -47.1300987,
              -23.5231083
            ],
            [
              -47.1303681,
              -23.5229985
            ]
          ]
        ]
      }
    },
    {
      "type": "Feature",
      "id": "way/1051019300",
      "properties": {
        "timestamp": "2022-04-12T04:44:38Z",
        "version": 2,
        "changeset": 119602984,
        "addr:city": "São Roque",
        "addr:housenumber": "1",
        "addr:street": "Rua Doutor Fleury",
        "addr:suburb": "Parque IX de Julho",
        "amenity": "dentist",
        "building": "yes",
        "healthcare": "dentist",
        "layer": "-1",
        "id": "way/1051019300"
      },
      "geometry": {
        "type": "Polygon",
        "coordinates": [
          [
            [
              -47.1296974,
              -23.5244303
            ],
            [
              -47.1298185,
              -23.5243836
            ],
            [
              -47.1298756,
              -23.5246543
            ],
            [
              -47.1297902,
              -23.5246678
            ],
            [
              -47.1296974,
              -23.5244303
            ]
          ]
        ]
      }
    },
    {
      "type": "Feature",
      "id": "way/1122495931",
      "properties": {
        "timestamp": "2022-12-15T21:49:22Z",
        "version": 1,
        "changeset": 130132333,
        "addr:city": "São Roque",
        "addr:housenumber": "55",
        "addr:street": "Avenida Bandeirantes",
        "addr:suburb": "Jardim Bandeirantes",
        "amenity": "dentist",
        "building": "yes",
        "healthcare": "dentist",
        "id": "way/1122495931"
      },
      "geometry": {
        "type": "Polygon",
        "coordinates": [
          [
            [
              -47.1321505,
              -23.5252739
            ],
            [
              -47.1319819,
              -23.5254102
            ],
            [
              -47.1319743,
              -23.5252571
            ],
            [
              -47.1321505,
              -23.5252739
            ]
          ]
        ]
      }
    },
    {
      "type": "Feature",
      "id": "way/1211828486",
      "properties": {
        "timestamp": "2023-09-29T13:41:37Z",
        "version": 1,
        "changeset": 141913500,
        "addr:city": "São Roque",
        "addr:housenumber": "75",
        "addr:street": "Rua Pedro Vaz",
        "addr:suburb": "Centro",
        "amenity": "dentist",
        "building": "yes",
        "healthcare": "dentist",
        "id": "way/1211828486"
      },
      "geometry": {
        "type": "Polygon",
        "coordinates": [
          [
            [
              -47.1337223,
              -23.5287004
            ],
            [
              -47.133903,
              -23.5288477
            ],
            [
              -47.1338449,
              -23.5288953
            ],
            [
              -47.1336546,
              -23.5287843
            ],
            [
              -47.1337223,
              -23.5287004
            ]
          ]
        ]
      }
    }
  ]
}
