{
  "type": "FeatureCollection",
  "features": [
    {
      "type": "Feature",
      "id": "way/1006794986",
      "properties": {
        "timestamp": "2025-01-10T01:52:12Z",
        "version": 2,
        "changeset": 161189420,
        "addr:city": "São Roque",
        "addr:housenumber": "115",
        "addr:postcode": "18130-740",
        "addr:street": "Rua Antônio dos Santos Santinho",
        "addr:suburb": "Esplanada Mendes Moraes",
        "amenity": "kindergarten",
        "building": "yes",
        "name": "Escola Aquarela",
        "id": "way/1006794986"
      },
      "geometry": {
        "type": "Polygon",
        "coordinates": [
          [
            [
              -47.128361,
              -23.5283105
            ],
            [
              -47.1276665,
              -23.528139
            ],
            [
              -47.1278079,
              -23.5279865
            ],
            [
              -47.1279627,
              -23.5280321
            ],
            [
              -47.1283966,
              -23.5282108
            ],
            [
              -47.128361,
              -23.5283105
            ]
          ]
        ]
      }
    },
    {
      "type": "Feature",
      "id": "way/1051011043",
      "properties": {
        "timestamp": "2025-01-10T01:51:27Z",
        "version": 3,
        "changeset": 161189410,
        "addr:city": "São Roque",
        "addr:housenumber": "183",
        "addr:street": "Rua Euclides da Cunha",
        "addr:suburb": "Parque IX de Julho",
        "amenity": "kindergarten",
        "name": "CMEI alan kardec",
        "id": "way/1051011043"
      },
      "geometry": {
        "type": "Polygon",
        "coordinates": [
          [
            [
              -47.1280953,
              -23.5261649
            ],
            [
              -47.1279633,
              -23.5262554
            ],
            [
              -47.1278077,
              -23.526218
            ],
            [
              -47.1276547,
              -23.5261734
            ],
            [
              -47.1278176,
              -23.5260139
            ],
            [
              -47.1278729,
              -23.5261194
            ],
            [
              -47.1279898,
              -23.5260036
            ],
            [
              -47.1280953,
              -23.5261649
            ]
          ]
        ]
      }
    },
    {
      "type": "Feature",
      "id": "way/1199327073",
      "properties": {
        "timestamp": "2025-01-10T02:20:45Z",
        "version": 2,
        "changeset": 161189759,
        "amenity": "kindergarten",
        "education": "kindergarten",
        "landuse": "education",
        "id": "way/1199327073"
      },
      "geometry": {
        "type": "Polygon",
        "coordinates": [
          [
            [
              -47.1324589,
              -23.5511543
            ],
            [
              -47.1321387,
              -23.5512238
            ],
            [
              -47.1320331,
              -23.5508872
            ],
            [
              -47.1320464,
              -23.5508236
            ],
            [
              -47.1320701,
              -23.5507551
            ],
            [
              -47.132112,
              -23.5506925
            ],
            [
              -47.1321526,
              -23.5506641
            ],
            [
              -47.1321996,
              -23.5506612
            ],
            [
              -47.1322448,
              -23.550694
            ],
            [
              -47.1322689,
              -23.5507267
            ],
            [
              -47.1324589,
              -23.5511543
            ]
          ]
        ]
      }
    },
    {
      "type": "Feature",
      "id": "node/3918760897",
      "properties": {
        "timestamp": "2025-01-10T01:51:06Z",
        "version": 2,
        "changeset": 161189403,
        "addr:city": "São Roque",
        "addr:housenumber": "183",
        "addr:postcode": "18134-080",
        "addr:street": "Rua Euclides da Cunha",
        "addr:suburb": "Parque IX de Julho",
        "amenity": "kindergarten",
        "name": "CMEI Alan Kardec",
        "phone": "+55 11 4712 4548",
        "id": "node/3918760897"
      },
      "geometry": {
        "type": "Point",
        "coordinates": [
          -47.1280465,
          -23.5260856
        ]
      }
    },
    {
      "type": "Feature",
      "id": "node/3918770457",
      "properties": {
        "timestamp": "2025-01-10T01:13:57Z",
        "version": 2,
        "changeset": 161188972,
        "addr:city": "São Roque",
        "addr:housenumber": "300",
        "addr:postcode": "18134-190",
        "addr:street": "Rua José Henrique da Costa",
        "addr:suburb": "Jardim Bela Vista",
        "amenity": "kindergarten",
        "name": "CMEI Bairro do Cambará",
        "phone": "+55 11 4784 6186",
        "id": "node/3918770457"
      },
      "geometry": {
        "type": "Point",
        "coordinates": [
          -47.1299409,
          -23.5213744
        ]
      }
    },
    {
      "type": "Feature",
      "id": "node/3918797334",
      "properties": {
        "timestamp": "2025-01-10T02:23:57Z",
        "version": 2,
        "changeset": 161189799,
        "addr:city": "São Roque",
        "addr:housenumber": "5",
        "addr:postcode": "18136-652",
        "addr:street": "Rua Gérbera",
        "addr:suburb": "Paisagem Colonial",
        "amenity": "kindergarten",
        "name": "CMEI Paisagem Colonial",
        "phone": "+55 11 4712 8340",
        "id": "node/3918797334"
      },
      "geometry": {
        "type": "Point",
        "coordinates": [
          -47.1500159,
          -23.557306
        ]
      }
    },
    {
      "type": "Feature",
      "id": "node/3918826354",
      "properties": {
        "timestamp": "2025-01-10T01:05:13Z",
        "version": 3,
        "changeset": 161188861,
        "addr:city": "São Roque",
        "addr:housenumber": "140",
        "addr:postcode": "18132-450",
        "addr:street": "Rua das Acácias",
        "addr:suburb": "Jardim Guaçu",
        "amenity": "kindergarten",
        "name": "CMEI Professora Rosalina Villaça Salvetti",
        "phone": "+55 11 4784 5497",
        "id": "node/3918826354"
      },
      "geometry": {
        "type": "Point",
        "coordinates": [
          -47.1421386,
          -23.5125669
        ]
      }
    }
  ]
}
