{
  "type": "FeatureCollection",
  "features": [
    {
      "type": "Feature",
      "id": "relation/5455308",
      "properties": {
        "timestamp": "2019-07-21T21:07:21Z",
        "version": 2,
        "changeset": 72492477,
        "amenity": "pharmacy",
        "healthcare": "pharmacy",
        "name": "Farmais",
        "type": "multipolygon",
        "id": "relation/5455308"
      },
      "geometry": {
        "type": "Polygon",
        "coordinates": [
          [
            [
              -47.1632012,
              -23.4198002
            ],
            [
              -47.1631211,
              -23.4199155
            ],
            [
              -47.1630672,
              -23.419884
            ],
            [
              -47.1631473,
              -23.4197687
            ],
            [
              -47.1632012,
              -23.4198002
            ]
          ]
        ]
      }
    },
    {
      "type": "Feature",
      "id": "way/554946925",
      "properties": {
        "timestamp": "2023-09-03T23:07:50Z",
        "version": 5,
        "changeset": 140779821,
        "addr:city": "São Roque",
        "addr:housenumber": "107",
        "addr:postcode": "18130-485",
        "addr:street": "Avenida Brasil",
        "addr:suburb": "Centro",
        "amenity": "pharmacy",
        "brand": "Drogasil",
        "brand:wikidata": "Q5308185",
        "building": "retail",
        "building:levels": "1",
        "healthcare": "pharmacy",
        "name": "Drogasil",
        "wheelchair": "yes",
        "id": "way/554946925"
      },
      "geometry": {
        "type": "Polygon",
        "coordinates": [
          [
            [
              -47.1321046,
              -23.5259332
            ],
            [
              -47.132045,
              -23.5259808
            ],
            [
              -47.1319816,
              -23.5259068
            ],
            [
              -47.1319796,
              -23.5258856
            ],
            [
              -47.1319892,
              -23.5258715
            ],
            [
              -47.1320354,
              -23.5258486
            ],
            [
              -47.1321046,
              -23.5259332
            ]
          ]
        ]
      }
    },
    {
      "type": "Feature",
      "id": "way/1006784941",
      "properties": {
        "timestamp": "2023-09-03T23:07:50Z",
        "version": 2,
        "changeset": 140779821,
        "addr:city": "São Roque",
        "addr:housenumber": "22",
        "addr:postcode": "18130-675",
        "addr:street": "Avenida Santa Rita",
        "addr:suburb": "Vila Aguiar",
        "amenity": "pharmacy",
        "brand": "Droga Raia",
        "brand:wikidata": "Q10357101",
        "dispensing": "yes",
        "healthcare": "pharmacy",
        "name": "Droga Raia",
        "id": "way/1006784941"
      },
      "geometry": {
        "type": "Polygon",
        "coordinates": [
          [
            [
              -47.1322966,
              -23.5313453
            ],
            [
              -47.1322923,
              -23.5314494
            ],
            [
              -47.132248,
              -23.5315791
            ],
            [
              -47.1321251,
              -23.5313932
            ],
            [
              -47.1322966,
              -23.5313453
            ]
          ]
        ]
      }
    },
    {
      "type": "Feature",
      "id": "way/1006838119",
      "properties": {
        "timestamp": "2021-11-27T22:05:25Z",
        "version": 1,
        "changeset": 114308212,
        "addr:city": "São Roque",
        "addr:housenumber": "2",
        "addr:postcode": "18130-420",
        "addr:street": "Rua Sete de Setembro",
        "addr:suburb": "Centro",
        "amenity": "pharmacy",
        "building": "yes",
        "dispensing": "yes",
        "healthcare": "pharmacy",
        "name": "Farmácia Popular",
        "id": "way/1006838119"
      },
      "geometry": {
        "type": "Polygon",
        "coordinates": [
          [
            [
              -47.1355748,
              -23.5300041
            ],
            [
              -47.1356746,
              -23.5301057
            ],
            [
              -47.1355908,
              -23.530162
            ],
            [
              -47.1354721,
              -23.5300346
            ],
            [
              -47.1355748,
              -23.5300041
            ]
          ]
        ]
      }
    },
    {
      "type": "Feature",
      "id": "way/1006862458",
      "properties": {
        "timestamp": "2021-11-28T01:07:56Z",
        "version": 1,
        "changeset": 114310866,
        "addr:city": "São Roque",
        "addr:housenumber": "289",
        "addr:postcode": "18130-505",
        "addr:street": "Rua Epaminondas de Oliveira",
        "addr:suburb": "Centro",
        "amenity": "pharmacy",
        "building": "yes",
        "dispensing": "yes",
        "healthcare": "pharmacy",
        "name": "Farmácia São Paulo",
        "id": "way/1006862458"
      },
      "geometry": {
        "type": "Polygon",
        "coordinates": [
          [
            [
              -47.1341344,
              -23.5243653
            ],
            [
              -47.1341668,
              -23.5245228
            ],
            [
              -47.1339546,
              -23.5246149
            ],
            [
              -47.1338946,
              -23.5244604
            ],
            [
              -47.1341344,
              -23.5243653
            ]
          ]
        ]
      }
    },
    {
      "type": "Feature",
      "id": "way/1050879313",
      "properties": {
        "timestamp": "2022-04-17T05:38:10Z",
        "version": 2,
        "changeset": 119804345,
        "addr:city": "São Roque",
        "addr:housenumber": "270",
        "addr:street": "Avenida Tiradentes",
        "addr:suburb": "centro",
        "amenity": "pharmacy",
        "building": "yes",
        "dispensing": "yes",
        "healthcare": "pharmacy",
        "name": "Pharmalins",
        "id": "way/1050879313"
      },
      "geometry": {
        "type": "Polygon",
        "coordinates": [
          [
            [
              -47.1337778,
              -23.5281461
            ],
            [
              -47.1339269,
              -23.5283061
            ],
            [
              -47.1338935,
              -23.5283496
            ],
            [
              -47.1338348,
              -23.5284187
            ],
            [
              -47.1336548,
              -23.5283112
            ],
            [
              -47.1337778,
              -23.5281461
            ]
          ]
        ]
      }
    },
    {
      "type": "Feature",
      "id": "way/1051018830",
      "properties": {
        "timestamp": "2022-04-11T12:26:19Z",
        "version": 1,
        "changeset": 119577165,
        "addr:city": "São Roque",
        "addr:housenumber": "665",
        "addr:street": "Avenida Três de Maio",
        "addr:suburb": "Jardim Bela Vista",
        "amenity": "pharmacy",
        "building": "yes",
        "dispensing": "yes",
        "healthcare": "pharmacy",
        "id": "way/1051018830"
      },
      "geometry": {
        "type": "Polygon",
        "coordinates": [
          [
            [
              -47.1292962,
              -23.5223804
            ],
            [
              -47.1293698,
              -23.5224493
            ],
            [
              -47.129137,
              -23.5226682
            ],
            [
              -47.1290727,
              -23.5225414
            ],
            [
              -47.1292962,
              -23.5223804
            ]
          ]
        ]
      }
    },
    {
      "type": "Feature",
      "id": "way/1122507691",
      "properties": {
        "timestamp": "2022-12-15T22:58:48Z",
        "version": 1,
        "changeset": 130133678,
        "addr:city": "São Roque",
        "addr:housenumber": "841",
        "addr:street": "Avenida Antonino Dias Bastos",
        "addr:suburb": "Centro",
        "amenity": "pharmacy",
        "building": "yes",
        "healthcare": "pharmacy",
        "name": "Invita",
        "id": "way/1122507691"
      },
      "geometry": {
        "type": "Polygon",
        "coordinates": [
          [
            [
              -47.1356739,
              -23.5274564
            ],
            [
              -47.1356634,
              -23.5276486
            ],
            [
              -47.1354708,
              -23.527639
            ],
            [
              -47.1354894,
              -23.5274371
            ],
            [
              -47.1356739,
              -23.5274564
            ]
          ]
        ]
      }
    },
    {
      "type": "Feature",
      "id": "way/1122689619",
      "properties": {
        "timestamp": "2022-12-16T15:51:18Z",
        "version": 1,
        "changeset": 130161838,
        "addr:city": "São Roque",
        "addr:housenumber": "344",
        "addr:street": "Rua Sotero de Souza",
        "addr:suburb": "Centro",
        "amenity": "pharmacy",
        "building": "yes",
        "dispensing": "yes",
        "drive_through": "yes",
        "healthcare": "pharmacy",
        "name": "Pharmalins",
        "id": "way/1122689619"
      },
      "geometry": {
        "type": "Polygon",
        "coordinates": [
          [
            [
              -47.1363828,
              -23.5336379
            ],
            [
              -47.136424,
              -23.5337418
            ],
            [
              -47.1361973,
              -23.5338013
            ],
            [
              -47.136221,
              -23.5336445
            ],
            [
              -47.1363828,
              -23.5336379
            ]
          ]
        ]
      }
    },
    {
      "type": "Feature",
      "id": "way/1122782569",
      "properties": {
        "timestamp": "2022-12-16T22:39:52Z",
        "version": 1,
        "changeset": 130172405,
        "addr:city": "São Roque",
        "addr:housenumber": "40",
        "addr:street": "Rua Alfredo Salvetti",
        "addr:suburb": "Centro",
        "amenity": "pharmacy",
        "building": "yes",
        "healthcare": "pharmacy",
        "id": "way/1122782569"
      },
      "geometry": {
        "type": "Polygon",
        "coordinates": [
          [
            [
              -47.1343832,
              -23.5315493
            ],
            [
              -47.1343646,
              -23.5316111
            ],
            [
              -47.1342369,
              -23.5315655
            ],
            [
              -47.1342463,
              -23.5315036
            ],
            [
              -47.1343832,
              -23.5315493
            ]
          ]
        ]
      }
    },
    {
      "type": "Feature",
      "id": "way/1160683110",
      "properties": {
        "timestamp": "2023-07-24T08:43:39Z",
        "version": 2,
        "changeset": 138927756,
        "addr:city": "São Roque",
        "addr:housenumber": "79",
        "addr:street": "Rua Padre Marçal",
        "addr:suburb": "Centro",
        "amenity": "pharmacy",
        "building": "yes",
        "healthcare": "pharmacy",
        "id": "way/1160683110"
      },
      "geometry": {
        "type": "Polygon",
        "coordinates": [
          [
            [
              -47.1354182,
              -23.5314126
            ],
            [
              -47.1355509,
              -23.5314994
            ],
            [
              -47.1354857,
              -23.5315963
            ],
            [
              -47.1353614,
              -23.5314674
            ],
            [
              -47.1354182,
              -23.5314126
            ]
          ]
        ]
      }
    },
    {
      "type": "Feature",
      "id": "way/1211827651",
      "properties": {
        "timestamp": "2023-09-29T13:36:43Z",
        "version": 1,
        "changeset": 141913272,
        "addr:city": "São Roque",
        "addr:housenumber": "208",
        "addr:street": "Rua Doutor Stevaux",
        "addr:suburb": "Centro",
        "amenity": "pharmacy",
        "building": "yes",
        "healthcare": "pharmacy",
        "name": "Pharmalins",
        "id": "way/1211827651"
      },
      "geometry": {
        "type": "Polygon",
        "coordinates": [
          [
            [
              -47.1334118,
              -23.529399
            ],
            [
              -47.1334834,
              -23.5294476
            ],
            [
              -47.1334014,
              -23.5296027
            ],
            [
              -47.1333153,
              -23.5295418
            ],
            [
              -47.1334118,
              -23.529399
            ]
          ]
        ]
      }
    }
  ]
}
