{
  "type": "FeatureCollection",
  "features": [
    {
      "type": "Feature",
      "id": "way/1006822836",
      "properties": {
        "timestamp": "2021-11-29T05:13:06Z",
        "version": 2,
        "changeset": 114344886,
        "addr:city": "São Roque",
        "addr:housenumber": "30",
        "addr:postcode": "18130-750",
        "addr:street": "Rua Paul Harris",
        "addr:suburb": "Esplanada Mendes Moraes",
        "amenity": "veterinary",
        "building": "yes",
        "id": "way/1006822836"
      },
      "geometry": {
        "type": "Polygon",
        "coordinates": [
          [
            [
              -47.1302515,
              -23.5291874
            ],
            [
              -47.1302109,
              -23.5292806
            ],
            [
              -47.1300943,
              -23.5292379
            ],
            [
              -47.1301349,
              -23.5291447
            ],
            [
              -47.1302515,
              -23.5291874
            ]
          ]
        ]
      }
    },
    {
      "type": "Feature",
      "id": "way/1006832151",
      "properties": {
        "timestamp": "2021-11-27T21:23:20Z",
        "version": 1,
        "changeset": 114307331,
        "addr:city": "São Roque",
        "addr:housenumber": "177",
        "addr:postcode": "18134-210",
        "addr:street": "Rua Monsenhor António Pepe",
        "addr:suburb": "Jardim Bela Vista",
        "amenity": "veterinary",
        "building": "yes",
        "id": "way/1006832151"
      },
      "geometry": {
        "type": "Polygon",
        "coordinates": [
          [
            [
              -47.1304274,
              -23.5235979
            ],
            [
              -47.1303839,
              -23.5237213
            ],
            [
              -47.130286,
              -23.5236923
            ],
            [
              -47.1303295,
              -23.5235689
            ],
            [
              -47.1304274,
              -23.5235979
            ]
          ]
        ]
      }
    },
    {
      "type": "Feature",
      "id": "way/1122690111",
      "properties": {
        "timestamp": "2022-12-16T15:54:04Z",
        "version": 1,
        "changeset": 130161928,
        "addr:city": "São Roque",
        "addr:housenumber": "424",
        "addr:street": "Rua da Inconfidência",
        "addr:suburb": "Centro",
        "amenity": "veterinary",
        "building": "yes",
        "id": "way/1122690111"
      },
      "geometry": {
        "type": "Polygon",
        "coordinates": [
          [
            [
              -47.1367199,
              -23.5346402
            ],
            [
              -47.1367958,
              -23.534779
            ],
            [
              -47.1364857,
              -23.5348779
            ],
            [
              -47.1364525,
              -23.5347485
            ],
            [
              -47.1367199,
              -23.5346402
            ]
          ]
        ]
      }
    }
  ]
}
