{
  "type": "FeatureCollection",
  "features": [
    {
      "type": "Feature",
      "id": "node/12256450601",
      "properties": {
        "timestamp": "2024-10-16T23:46:59Z",
        "version": 2,
        "changeset": 157986817,
        "addr:city": "Embu das Artes",
        "addr:housenumber": "61",
        "addr:postcode": "06803-415",
        "addr:street": "Praça Alberto da Veiga Guignard",
        "addr:suburb": "Centro",
        "email": "contato@pousadaduvalle.com.br",
        "guest_house": "hotel",
        "internet_access": "wlan",
        "internet_access:fee": "customers",
        "mobile": "(11) 96147-3750",
        "name": "POUSADA DU VALLE",
        "note": "26 quartos, equipados com Ar condicionado, Tv led 32” com canais a Cabo, Frigobar, armário, bancada para trabalho, luz de leitura, tomadas ao lado das camas, banheiros com armário e box, e internet Wi-fi em todos os quartos e áreas comuns da Pousada.",
        "phone": "(11) 4241-7751",
        "rooms": "26",
        "tourism": "guest_house",
        "website": "https://www.pousadaduvalle.com.br/contato",
        "id": "node/12256450601"
      },
      "geometry": {
        "type": "Point",
        "coordinates": [
          -46.8515844,
          -23.6474586
        ]
      }
    }
  ]
}
