{
  "type": "FeatureCollection",
  "features": [
    {
      "type": "Feature",
      "id": "node/10785757806",
      "properties": {
        "timestamp": "2023-04-05T00:48:57Z",
        "version": 1,
        "changeset": 134517622,
        "addr:housenumber": "730",
        "addr:street": "Avenida das Orquídeas",
        "addr:suburb": "Guarituba",
        "amenity": "social_facility",
        "name": "Centro de Referência de Assistência Social Guarituba",
        "id": "node/10785757806"
      },
      "geometry": {
        "type": "Point",
        "coordinates": [
          -49.1278796,
          -25.4571431
        ]
      }
    },
    {
      "type": "Feature",
      "id": "node/10785757807",
      "properties": {
        "timestamp": "2023-04-05T00:48:57Z",
        "version": 1,
        "changeset": 134517622,
        "addr:housenumber": "450",
        "addr:street": "Avenida Getúlio Vargas",
        "addr:suburb": "Centro",
        "amenity": "social_facility",
        "name": "Centro de Referência de Assistência Social Piraquara Solidária",
        "id": "node/10785757807"
      },
      "geometry": {
        "type": "Point",
        "coordinates": [
          -49.0623117,
          -25.4434782
        ]
      }
    },
    {
      "type": "Feature",
      "id": "node/10785757808",
      "properties": {
        "timestamp": "2023-04-05T00:48:57Z",
        "version": 1,
        "changeset": 134517622,
        "addr:housenumber": "1350",
        "addr:street": "Rua Nova Tirol",
        "addr:suburb": "Santiago",
        "amenity": "social_facility",
        "name": "Centro de Referência Especializado de Assistência Social",
        "id": "node/10785757808"
      },
      "geometry": {
        "type": "Point",
        "coordinates": [
          -49.0612151,
          -25.4583387
        ]
      }
    }
  ]
}
