{
  "type": "FeatureCollection",
  "features": [
    {
      "type": "Feature",
      "id": "way/708412633",
      "properties": {
        "timestamp": "2019-10-24T03:15:59Z",
        "version": 2,
        "changeset": 76130344,
        "addr:city": "Não-Me-Toque",
        "addr:housenumber": "445",
        "addr:postcode": "99470-000",
        "addr:street": "Rua Coronel Alberto Schmitt",
        "addr:suburb": "Centro",
        "amenity": "pharmacy",
        "building": "yes",
        "dispensing": "yes",
        "healthcare": "pharmacy",
        "name": "Farmácia Santa Júlia Billiart",
        "phone": "+55 54 3332-3110",
        "id": "way/708412633"
      },
      "geometry": {
        "type": "Polygon",
        "coordinates": [
          [
            [
              -52.8227775,
              -28.4597354
            ],
            [
              -52.822626,
              -28.4598556
            ],
            [
              -52.8224731,
              -28.4597047
            ],
            [
              -52.8225951,
              -28.459601
            ],
            [
              -52.8225831,
              -28.4595892
            ],
            [
              -52.8226528,
              -28.4595385
            ],
            [
              -52.8227172,
              -28.4596045
            ],
            [
              -52.8226769,
              -28.4596363
            ],
            [
              -52.8227775,
              -28.4597354
            ]
          ]
        ]
      }
    }
  ]
}
