{
  "type": "FeatureCollection",
  "features": [
    {
      "type": "Feature",
      "id": "way/563640641",
      "properties": {
        "timestamp": "2022-04-16T22:55:02Z",
        "version": 2,
        "changeset": 119800700,
        "addr:city": "PrudÃªncio de Moraes",
        "addr:postcode": "15307000",
        "addr:street": "Rua Benedito da Cunha Lacerda",
        "addr:suburb": "Vila Nova",
        "amenity": "clinic",
        "building": "yes",
        "healthcare": "clinic",
        "healthcare:speciality": "geral",
        "operator": "Prefeitura Municipal de General Salgado",
        "id": "way/563640641"
      },
      "geometry": {
        "type": "Polygon",
        "coordinates": [
          [
            [
              -50.4939046,
              -20.5329596
            ],
            [
              -50.4938538,
              -20.5329168
            ],
            [
              -50.4939158,
              -20.5328492
            ],
            [
              -50.4939663,
              -20.5328918
            ],
            [
              -50.4939046,
              -20.5329596
            ]
          ]
        ]
      }
    }
  ]
}
