{
  "type": "FeatureCollection",
  "features": [
    {
      "type": "Feature",
      "id": "way/570056586",
      "properties": {
        "timestamp": "2023-01-29T21:00:51Z",
        "version": 3,
        "changeset": 131854811,
        "addr:city": "Araranguá",
        "addr:housenumber": "81",
        "addr:postcode": "88900-000",
        "addr:street": "Avenida Padre Antônio Luiz Dias",
        "addr:suburb": "Centro",
        "amenity": "clinic",
        "building": "yes",
        "contact:email": "ararangua@cepaas.com.br",
        "contact:phone": "+55 48 3522-0003;+55 48 3522-0480;+55 48 99999-1370",
        "contact:website": "http://www.cepaas.com.br/clinicas/",
        "healthcare": "clinic",
        "name": "Cepaas",
        "id": "way/570056586"
      },
      "geometry": {
        "type": "Polygon",
        "coordinates": [
          [
            [
              -49.4854511,
              -28.9330588
            ],
            [
              -49.4855166,
              -28.9330103
            ],
            [
              -49.4855243,
              -28.9330184
            ],
            [
              -49.4856291,
              -28.9329415
            ],
            [
              -49.4856968,
              -28.9330082
            ],
            [
              -49.4855883,
              -28.9330875
            ],
            [
              -49.4855954,
              -28.9330948
            ],
            [
              -49.4855297,
              -28.9331424
            ],
            [
              -49.4854511,
              -28.9330588
            ]
          ]
        ]
      }
    },
    {
      "type": "Feature",
      "id": "way/583609737",
      "properties": {
        "timestamp": "2018-04-26T02:39:06Z",
        "version": 1,
        "changeset": 58427833,
        "amenity": "clinic",
        "building": "yes",
        "healthcare": "clinic",
        "id": "way/583609737"
      },
      "geometry": {
        "type": "Polygon",
        "coordinates": [
          [
            [
              -49.4673575,
              -28.9389125
            ],
            [
              -49.467302,
              -28.9389934
            ],
            [
              -49.4672127,
              -28.9390662
            ],
            [
              -49.467111,
              -28.9390703
            ],
            [
              -49.4670217,
              -28.939139
            ],
            [
              -49.4669508,
              -28.9390608
            ],
            [
              -49.4672373,
              -28.9388424
            ],
            [
              -49.4672805,
              -28.9388883
            ],
            [
              -49.4673144,
              -28.9388613
            ],
            [
              -49.4673575,
              -28.9389125
            ]
          ]
        ]
      }
    },
    {
      "type": "Feature",
      "id": "way/631420955",
      "properties": {
        "timestamp": "2018-10-07T00:26:50Z",
        "version": 1,
        "changeset": 63268517,
        "addr:city": "Araranguá",
        "addr:housenumber": "68",
        "addr:street": "Rua Coronel João Fernandes",
        "addr:suburb": "Centro",
        "amenity": "clinic",
        "building": "yes",
        "healthcare": "clinic",
        "name": "Policlínica Sul+",
        "id": "way/631420955"
      },
      "geometry": {
        "type": "Polygon",
        "coordinates": [
          [
            [
              -49.4856931,
              -28.935997
            ],
            [
              -49.4857964,
              -28.9359215
            ],
            [
              -49.4859547,
              -28.9360874
            ],
            [
              -49.4858513,
              -28.9361629
            ],
            [
              -49.4856931,
              -28.935997
            ]
          ]
        ]
      }
    },
    {
      "type": "Feature",
      "id": "way/1162646784",
      "properties": {
        "timestamp": "2023-04-14T21:59:37Z",
        "version": 1,
        "changeset": 134922348,
        "access": "yes",
        "addr:housenumber": "353",
        "addr:postcode": "88901-258",
        "addr:street": "Rua Joaquim Christiano de Medeiros",
        "amenity": "clinic",
        "brand": "Sistema Único de Saúde",
        "brand:short": "SUS",
        "brand:wikidata": "Q7531056",
        "brand:wikipedia": "pt:Sistema Único de Saúde",
        "building": "yes",
        "contact:phone": "+55 48 3903-1913",
        "healthcare": "clinic",
        "loc_name": "Posto de Saúde Jardim Cibele",
        "name": "Posto de Saúde da Família Jardim Cibele",
        "opening_hours": "Mo-Fr 07:30-16:30; Sa,Su,PH off",
        "operator": "Prefeitura Municipal de Araranguá",
        "operator:type": "government",
        "ref:CNES": "2624362",
        "short_name": "PSF Jardim Cibele",
        "id": "way/1162646784"
      },
      "geometry": {
        "type": "Polygon",
        "coordinates": [
          [
            [
              -49.5119999,
              -28.9436714
            ],
            [
              -49.5120935,
              -28.9435886
            ],
            [
              -49.5122829,
              -28.9437524
            ],
            [
              -49.5121894,
              -28.9438352
            ],
            [
              -49.5119999,
              -28.9436714
            ]
          ]
        ]
      }
    },
    {
      "type": "Feature",
      "id": "node/5515416303",
      "properties": {
        "timestamp": "2018-04-22T22:29:11Z",
        "version": 2,
        "changeset": 58321827,
        "addr:city": "Araranguá",
        "addr:postcode": "88900-000",
        "addr:street": "Rua Rui Barbosa",
        "addr:suburb": "Centro",
        "amenity": "clinic",
        "contact:phone": "+55 48 3524-0042",
        "healthcare": "clinic",
        "name": "Clínica Ceretta",
        "id": "node/5515416303"
      },
      "geometry": {
        "type": "Point",
        "coordinates": [
          -49.4871108,
          -28.9343913
        ]
      }
    },
    {
      "type": "Feature",
      "id": "node/5519405629",
      "properties": {
        "timestamp": "2018-04-22T22:29:12Z",
        "version": 2,
        "changeset": 58321827,
        "addr:city": "Araranguá",
        "addr:postcode": "88900-000",
        "addr:street": "Rua Rui Barbosa",
        "addr:suburb": "Centro",
        "amenity": "clinic",
        "healthcare": "physiotherapist",
        "name": "Clínica municipal de fisioterapia clínica escola",
        "office": "therapist",
        "id": "node/5519405629"
      },
      "geometry": {
        "type": "Point",
        "coordinates": [
          -49.4869186,
          -28.9339413
        ]
      }
    },
    {
      "type": "Feature",
      "id": "node/11308787769",
      "properties": {
        "timestamp": "2023-11-03T02:21:05Z",
        "version": 2,
        "changeset": 143554987,
        "addr:housenumber": "52",
        "addr:postcode": "88906518",
        "addr:street": "Rua Francisco Manoel Pereira",
        "amenity": "clinic",
        "contact:instagram": "reintegrarclinicasc",
        "email": "neuropsicopedagogia24@gmail.com",
        "internet_access": "wlan",
        "name": "Clínica Reintegrar",
        "phone": "+5548996135141",
        "id": "node/11308787769"
      },
      "geometry": {
        "type": "Point",
        "coordinates": [
          -49.4628517,
          -28.9418036
        ]
      }
    }
  ]
}
