{
  "type": "FeatureCollection",
  "features": [
    {
      "type": "Feature",
      "id": "way/583383081",
      "properties": {
        "timestamp": "2024-04-17T13:36:37Z",
        "version": 5,
        "changeset": 150130486,
        "addr:city": "Araranguá",
        "addr:housenumber": "1030",
        "addr:postcode": "88900-015",
        "addr:street": "Avenida Sete de Setembro",
        "addr:suburb": "Centro",
        "amenity": "college",
        "building": "retail",
        "name": "SESC de Araranguá",
        "phone": "+55 0800 645 5454",
        "id": "way/583383081"
      },
      "geometry": {
        "type": "Polygon",
        "coordinates": [
          [
            [
              -49.4888384,
              -28.9386068
            ],
            [
              -49.4885066,
              -28.938917
            ],
            [
              -49.4883616,
              -28.9387981
            ],
            [
              -49.4886441,
              -28.9385398
            ],
            [
              -49.4886933,
              -28.938488
            ],
            [
              -49.4888384,
              -28.9386068
            ]
          ]
        ]
      }
    },
    {
      "type": "Feature",
      "id": "way/586461388",
      "properties": {
        "timestamp": "2018-05-13T20:20:27Z",
        "version": 2,
        "changeset": 58933340,
        "addr:city": "Araranguá",
        "addr:housenumber": "1350",
        "addr:postcode": "88900-015",
        "addr:street": "Avenida Sete de Setembro",
        "addr:suburb": "Centro",
        "amenity": "college",
        "contact:phone": "+55 48 3522-1192",
        "name": "Senac Araranguá",
        "id": "way/586461388"
      },
      "geometry": {
        "type": "Polygon",
        "coordinates": [
          [
            [
              -49.4879943,
              -28.937706
            ],
            [
              -49.4881744,
              -28.9379005
            ],
            [
              -49.4879465,
              -28.9380621
            ],
            [
              -49.4877664,
              -28.9378676
            ],
            [
              -49.4879943,
              -28.937706
            ]
          ]
        ]
      }
    },
    {
      "type": "Feature",
      "id": "node/5489313174",
      "properties": {
        "timestamp": "2022-03-06T17:53:43Z",
        "version": 3,
        "changeset": 118169085,
        "addr:city": "Araranguá",
        "addr:street": "Avenida Padre Antônio Luiz Dias",
        "addr:suburb": "Centro",
        "amenity": "college",
        "contact:phone": "+55 48 3522-3002",
        "internet_access": "yes",
        "name": "Master Premium",
        "id": "node/5489313174"
      },
      "geometry": {
        "type": "Point",
        "coordinates": [
          -49.4856217,
          -28.9336428
        ]
      }
    },
    {
      "type": "Feature",
      "id": "node/5567407308",
      "properties": {
        "timestamp": "2018-05-20T05:15:50Z",
        "version": 3,
        "changeset": 59115591,
        "addr:city": "Araranguá",
        "addr:postcode": "88900-000",
        "addr:street": "Avenida Getúlio Vargas",
        "addr:suburb": "Centro",
        "amenity": "college",
        "contact:phone": "+55 48 3524-4148",
        "contact:website": "www.institutomix.com.br",
        "name": "Istituto mix I'm",
        "id": "node/5567407308"
      },
      "geometry": {
        "type": "Point",
        "coordinates": [
          -49.4848385,
          -28.9345716
        ]
      }
    }
  ]
}
