{
  "type": "FeatureCollection",
  "features": [
    {
      "type": "Feature",
      "id": "way/570145726",
      "properties": {
        "timestamp": "2018-04-22T22:29:18Z",
        "version": 2,
        "changeset": 58321827,
        "addr:city": "Araranguá",
        "addr:housenumber": "114",
        "addr:postcode": "88900-000",
        "addr:street": "Rua Caetano Lummertz",
        "addr:suburb": "Centro",
        "amenity": "dentist",
        "building": "yes",
        "healthcare": "dentist",
        "healthcare:speciality": "orthodontics",
        "name": "Clini Orto",
        "id": "way/570145726"
      },
      "geometry": {
        "type": "Polygon",
        "coordinates": [
          [
            [
              -49.4858303,
              -28.9324968
            ],
            [
              -49.4859076,
              -28.9324421
            ],
            [
              -49.486058,
              -28.9326067
            ],
            [
              -49.485966,
              -28.9326729
            ],
            [
              -49.485932,
              -28.9326356
            ],
            [
              -49.4859457,
              -28.9326253
            ],
            [
              -49.4858303,
              -28.9324968
            ]
          ]
        ]
      }
    },
    {
      "type": "Feature",
      "id": "way/578270518",
      "properties": {
        "timestamp": "2022-03-02T04:21:32Z",
        "version": 3,
        "changeset": 118002469,
        "addr:city": "Araranguá",
        "addr:housenumber": "3785",
        "addr:postcode": "88900-000",
        "addr:street": "Rua Amaro José Pereira",
        "addr:suburb": "Arapongas",
        "amenity": "dentist",
        "contact:phone": "+55 48 3524-0474",
        "healthcare": "dentist",
        "name": "Unimed Vale do Araranguá Cooperativa de Trabalho Médico",
        "id": "way/578270518"
      },
      "geometry": {
        "type": "Polygon",
        "coordinates": [
          [
            [
              -49.457149,
              -28.9458545
            ],
            [
              -49.4574781,
              -28.9463314
            ],
            [
              -49.4570038,
              -28.9465823
            ],
            [
              -49.4565331,
              -28.9461766
            ],
            [
              -49.457149,
              -28.9458545
            ]
          ]
        ]
      }
    },
    {
      "type": "Feature",
      "id": "way/597050919",
      "properties": {
        "timestamp": "2018-06-12T18:49:13Z",
        "version": 1,
        "changeset": 59787942,
        "addr:city": "Araranguá",
        "addr:housenumber": "104",
        "addr:postcode": "88900-000",
        "addr:street": "Praça Hercílio Luz",
        "addr:suburb": "Centro",
        "amenity": "dentist",
        "building": "yes",
        "healthcare": "dentist",
        "name": "Cirurgiões-dentistas",
        "id": "way/597050919"
      },
      "geometry": {
        "type": "Polygon",
        "coordinates": [
          [
            [
              -49.486638,
              -28.9353132
            ],
            [
              -49.4867527,
              -28.9352296
            ],
            [
              -49.4868452,
              -28.9353308
            ],
            [
              -49.486782,
              -28.9353766
            ],
            [
              -49.4867597,
              -28.935353
            ],
            [
              -49.486708,
              -28.9353901
            ],
            [
              -49.486638,
              -28.9353132
            ]
          ]
        ]
      }
    },
    {
      "type": "Feature",
      "id": "way/631420957",
      "properties": {
        "timestamp": "2021-02-20T23:20:44Z",
        "version": 2,
        "changeset": 99663646,
        "addr:city": "Araranguá",
        "addr:postcode": "88900-000",
        "addr:street": "Avenida Quinze de Novembro",
        "addr:suburb": "Centro",
        "amenity": "dentist",
        "building": "yes",
        "healthcare": "dentist",
        "phone": "+55 (48) 3522-0982",
        "id": "way/631420957"
      },
      "geometry": {
        "type": "Polygon",
        "coordinates": [
          [
            [
              -49.4843932,
              -28.9371087
            ],
            [
              -49.4844679,
              -28.9371822
            ],
            [
              -49.4844077,
              -28.9372296
            ],
            [
              -49.4843535,
              -28.9371761
            ],
            [
              -49.4843316,
              -28.9371536
            ],
            [
              -49.4843932,
              -28.9371087
            ]
          ]
        ]
      }
    },
    {
      "type": "Feature",
      "id": "node/5489313147",
      "properties": {
        "timestamp": "2018-04-22T22:29:10Z",
        "version": 2,
        "changeset": 58321827,
        "addr:city": "Araranguá",
        "amenity": "dentist",
        "healthcare": "dentist",
        "healthcare:speciality": "implantology;proctology",
        "name": "Consultório odontológico",
        "id": "node/5489313147"
      },
      "geometry": {
        "type": "Point",
        "coordinates": [
          -49.4846015,
          -28.9333263
        ]
      }
    },
    {
      "type": "Feature",
      "id": "node/5640363595",
      "properties": {
        "timestamp": "2018-05-24T19:09:36Z",
        "version": 1,
        "changeset": 59250770,
        "addr:city": "Araranguá",
        "addr:postcode": "88900-000",
        "addr:street": "Avenida Getúlio Vargas",
        "addr:suburb": "Centro",
        "amenity": "dentist",
        "healthcare": "dentist",
        "healthcare:speciality": "clinic;orthodontics",
        "name": "União clínica dentária",
        "phone": "+55 (48) 3522-0044",
        "website": "http://clinicasuniao.com.br",
        "id": "node/5640363595"
      },
      "geometry": {
        "type": "Point",
        "coordinates": [
          -49.4849652,
          -28.9347671
        ]
      }
    }
  ]
}
