{
  "type": "FeatureCollection",
  "features": [
    {
      "type": "Feature",
      "id": "way/569414335",
      "properties": {
        "timestamp": "2018-04-22T22:29:17Z",
        "version": 2,
        "changeset": 58321827,
        "addr:city": "Araranguá",
        "addr:housenumber": "498",
        "addr:postcode": "88900-000",
        "addr:street": "Avenida Getúlio Vargas",
        "addr:suburb": "Centro",
        "building": "hotel",
        "name": "Grande Hotel Pousada",
        "tourism": "hotel",
        "id": "way/569414335"
      },
      "geometry": {
        "type": "Polygon",
        "coordinates": [
          [
            [
              -49.4860391,
              -28.9335153
            ],
            [
              -49.4861061,
              -28.9334648
            ],
            [
              -49.4862094,
              -28.9335691
            ],
            [
              -49.4861376,
              -28.9336214
            ],
            [
              -49.4860391,
              -28.9335153
            ]
          ]
        ]
      }
    },
    {
      "type": "Feature",
      "id": "way/569414336",
      "properties": {
        "timestamp": "2018-04-22T22:29:17Z",
        "version": 2,
        "changeset": 58321827,
        "addr:city": "Araranguá",
        "addr:postcode": "88900-065",
        "addr:street": "Avenida Padre Antônio Luiz Dias",
        "addr:suburb": "Centro",
        "building": "hotel",
        "contact:phone": "+55 48 3522-0592",
        "contact:website": "http://www.novohoteltourist.com.br",
        "internet_access": "wlan",
        "name": "Novo hotel tourist",
        "smoking": "no",
        "tourism": "hotel",
        "id": "way/569414336"
      },
      "geometry": {
        "type": "Polygon",
        "coordinates": [
          [
            [
              -49.4856737,
              -28.9333923
            ],
            [
              -49.4858247,
              -28.933285
            ],
            [
              -49.4859869,
              -28.9334601
            ],
            [
              -49.4859989,
              -28.9334509
            ],
            [
              -49.4860107,
              -28.9334621
            ],
            [
              -49.4860227,
              -28.9334545
            ],
            [
              -49.4860348,
              -28.9334671
            ],
            [
              -49.4860412,
              -28.9334732
            ],
            [
              -49.4860462,
              -28.9334791
            ],
            [
              -49.4860485,
              -28.9334859
            ],
            [
              -49.4860495,
              -28.9334944
            ],
            [
              -49.4860489,
              -28.9335005
            ],
            [
              -49.4860287,
              -28.9335154
            ],
            [
              -49.4860278,
              -28.9335179
            ],
            [
              -49.4860295,
              -28.9335199
            ],
            [
              -49.4860321,
              -28.93352
            ],
            [
              -49.4860383,
              -28.9335157
            ],
            [
              -49.4861367,
              -28.933622
            ],
            [
              -49.4859835,
              -28.9337341
            ],
            [
              -49.4856737,
              -28.9333923
            ]
          ]
        ]
      }
    },
    {
      "type": "Feature",
      "id": "way/583611411",
      "properties": {
        "timestamp": "2018-05-13T19:57:37Z",
        "version": 2,
        "changeset": 58932908,
        "addr:city": "Araranguá",
        "addr:housenumber": "2154",
        "addr:postcode": "88900-000",
        "addr:street": "Avenida Sete de Setembro",
        "addr:suburb": "Centro",
        "building": "hotel",
        "contact:phone": "+55 48 3524-2010",
        "contact:website": "http://novohotelpremier.com.br",
        "name": "Hotel Premier Palace",
        "tourism": "hotel",
        "id": "way/583611411"
      },
      "geometry": {
        "type": "Polygon",
        "coordinates": [
          [
            [
              -49.4831117,
              -28.9324551
            ],
            [
              -49.4832145,
              -28.9325655
            ],
            [
              -49.4827801,
              -28.9328842
            ],
            [
              -49.4827148,
              -28.9328134
            ],
            [
              -49.4830674,
              -28.9325593
            ],
            [
              -49.4830277,
              -28.9325144
            ],
            [
              -49.4831117,
              -28.9324551
            ]
          ]
        ]
      }
    },
    {
      "type": "Feature",
      "id": "node/1885144224",
      "properties": {
        "timestamp": "2024-04-17T14:02:41Z",
        "version": 6,
        "changeset": 150131641,
        "addr:city": "Araranguá",
        "addr:housenumber": "35",
        "addr:postcode": "88900-000",
        "addr:street": "Avenida Presidente João Goulart",
        "addr:suburb": "Cidade Alta",
        "name": "Becker",
        "tourism": "hotel",
        "id": "node/1885144224"
      },
      "geometry": {
        "type": "Point",
        "coordinates": [
          -49.496783,
          -28.9394353
        ]
      }
    },
    {
      "type": "Feature",
      "id": "node/9212960833",
      "properties": {
        "timestamp": "2023-01-21T15:42:25Z",
        "version": 2,
        "changeset": 131545356,
        "addr:city": "Araranguá",
        "addr:housenumber": "480",
        "addr:postcode": "88900-000",
        "addr:street": "Rua Atlântica",
        "addr:suburb": "Morro dos Conventos",
        "air_conditioning": "yes",
        "bar": "yes",
        "internet_access": "yes",
        "internet_access:fee": "customers",
        "name": "Hotel Morro dos Conventos",
        "phone": "+55 48 3526-7089",
        "tourism": "hotel",
        "website": "https://www.hotelmorrodosconventos.com.br/",
        "wheelchair": "yes",
        "id": "node/9212960833"
      },
      "geometry": {
        "type": "Point",
        "coordinates": [
          -49.3678891,
          -28.9409708
        ]
      }
    }
  ]
}
