{
  "type": "FeatureCollection",
  "features": [
    {
      "type": "Feature",
      "id": "way/561835252",
      "properties": {
        "timestamp": "2022-03-08T02:13:19Z",
        "version": 3,
        "changeset": 118218292,
        "addr:city": "Araranguá",
        "addr:housenumber": "1219",
        "addr:postcode": "88900-000",
        "addr:street": "Avenida Getúlio Vargas",
        "addr:suburb": "Urussanguinha",
        "amenity": "pharmacy",
        "building": "yes",
        "healthcare": "pharmacy",
        "name": "Farmácia Regional - Filial III",
        "id": "way/561835252"
      },
      "geometry": {
        "type": "Polygon",
        "coordinates": [
          [
            [
              -49.4764407,
              -28.9404712
            ],
            [
              -49.4764997,
              -28.9404306
            ],
            [
              -49.4766158,
              -28.9405599
            ],
            [
              -49.4765781,
              -28.9405858
            ],
            [
              -49.4765411,
              -28.9405831
            ],
            [
              -49.4764407,
              -28.9404712
            ]
          ]
        ]
      }
    },
    {
      "type": "Feature",
      "id": "way/571063961",
      "properties": {
        "timestamp": "2021-02-20T23:20:44Z",
        "version": 2,
        "changeset": 99663646,
        "addr:city": "Araranguá",
        "addr:postcode": "88900-000",
        "addr:street": "Avenida Sete de Setembro",
        "addr:suburb": "Centro",
        "amenity": "pharmacy",
        "brand": "Pague Menos",
        "brand:wikidata": "Q7124466",
        "brand:wikipedia": "pt:Pague Menos",
        "building": "yes",
        "dispensing": "yes",
        "healthcare": "pharmacy",
        "name": "Pague Menos",
        "id": "way/571063961"
      },
      "geometry": {
        "type": "Polygon",
        "coordinates": [
          [
            [
              -49.4846268,
              -28.9336596
            ],
            [
              -49.4844792,
              -28.9334947
            ],
            [
              -49.4844849,
              -28.9334446
            ],
            [
              -49.4845552,
              -28.933392
            ],
            [
              -49.4847315,
              -28.933586
            ],
            [
              -49.4846268,
              -28.9336596
            ]
          ]
        ]
      }
    },
    {
      "type": "Feature",
      "id": "way/591418878",
      "properties": {
        "timestamp": "2018-05-27T20:59:00Z",
        "version": 1,
        "changeset": 59322288,
        "addr:city": "Araranguá",
        "addr:housenumber": "035",
        "addr:postcode": "88900-000",
        "addr:street": "Avenida Getúlio Vargas",
        "addr:suburb": "Centro",
        "amenity": "pharmacy",
        "building": "yes",
        "healthcare": "pharmacy",
        "name": "Droga forte",
        "phone": "+55 (48) 3524-7376",
        "id": "way/591418878"
      },
      "geometry": {
        "type": "Polygon",
        "coordinates": [
          [
            [
              -49.484014,
              -28.9354578
            ],
            [
              -49.484094,
              -28.9354007
            ],
            [
              -49.484239,
              -28.9355592
            ],
            [
              -49.4842602,
              -28.9355834
            ],
            [
              -49.4842464,
              -28.9355926
            ],
            [
              -49.48418,
              -28.9356381
            ],
            [
              -49.484014,
              -28.9354578
            ]
          ]
        ]
      }
    },
    {
      "type": "Feature",
      "id": "node/4654780192",
      "properties": {
        "timestamp": "2021-02-20T23:20:44Z",
        "version": 3,
        "changeset": 99663646,
        "amenity": "pharmacy",
        "healthcare": "pharmacy",
        "id": "node/4654780192"
      },
      "geometry": {
        "type": "Point",
        "coordinates": [
          -49.4965138,
          -28.9400143
        ]
      }
    },
    {
      "type": "Feature",
      "id": "node/5476179840",
      "properties": {
        "timestamp": "2018-04-22T22:29:08Z",
        "version": 2,
        "changeset": 58321827,
        "addr:city": "Araranguá",
        "addr:postcode": "88900-000",
        "addr:street": "Avenida Padre Antônio Luiz Dias",
        "addr:suburb": "Centro",
        "amenity": "pharmacy",
        "contact:facebook": "https://www.facebook.com/farmaciaeconomica1980/",
        "contact:phone": "+55 48 3522-1980",
        "healthcare": "pharmacy",
        "name": "Farmácia Econômica",
        "id": "node/5476179840"
      },
      "geometry": {
        "type": "Point",
        "coordinates": [
          -49.4859892,
          -28.9337098
        ]
      }
    },
    {
      "type": "Feature",
      "id": "node/5489310710",
      "properties": {
        "timestamp": "2018-04-22T22:29:09Z",
        "version": 2,
        "changeset": 58321827,
        "addr:city": "Araranguá",
        "addr:postcode": "88900-000",
        "addr:street": "Avenida Sete de Setembro",
        "addr:suburb": "Centro",
        "amenity": "pharmacy",
        "contact:phone": "+55 48 3524-1489;+55 48 99926-9871",
        "dispensing": "yes",
        "healthcare": "pharmacy",
        "name": "Manipulla",
        "id": "node/5489310710"
      },
      "geometry": {
        "type": "Point",
        "coordinates": [
          -49.4850617,
          -28.9341998
        ]
      }
    },
    {
      "type": "Feature",
      "id": "node/5567407309",
      "properties": {
        "timestamp": "2018-05-20T05:15:50Z",
        "version": 3,
        "changeset": 59115591,
        "addr:city": "Araranguá",
        "addr:postcode": "88900-000",
        "addr:street": "Avenida Sete de Setembro",
        "addr:suburb": "Centro",
        "amenity": "pharmacy",
        "contact:phone": "+55 48 3524-3838",
        "dispensing": "yes",
        "healthcare": "pharmacy",
        "name": "Farmácia Regional",
        "id": "node/5567407309"
      },
      "geometry": {
        "type": "Point",
        "coordinates": [
          -49.4848869,
          -28.9343635
        ]
      }
    },
    {
      "type": "Feature",
      "id": "node/5567407310",
      "properties": {
        "timestamp": "2021-02-20T23:20:44Z",
        "version": 3,
        "changeset": 99663646,
        "addr:city": "Araranguá",
        "addr:postcode": "88900-000",
        "addr:street": "Avenida Getúlio Vargas",
        "addr:suburb": "Centro",
        "amenity": "pharmacy",
        "brand": "Droga Raia",
        "brand:wikidata": "Q10357101",
        "brand:wikipedia": "pt:RaiaDrogasil",
        "dispensing": "yes",
        "healthcare": "pharmacy",
        "name": "Droga Raia",
        "phone": "+55 (48) 3524-4357",
        "id": "node/5567407310"
      },
      "geometry": {
        "type": "Point",
        "coordinates": [
          -49.4849705,
          -28.9344673
        ]
      }
    },
    {
      "type": "Feature",
      "id": "node/5567407545",
      "properties": {
        "timestamp": "2022-03-06T17:53:43Z",
        "version": 4,
        "changeset": 118169085,
        "addr:city": "Araranguá",
        "addr:postcode": "88900-000",
        "addr:street": "Avenida Sete de Setembro",
        "addr:suburb": "Centro",
        "amenity": "pharmacy",
        "contact:phone": "+55 48 3524-2990",
        "dispensing": "yes",
        "healthcare": "pharmacy",
        "name": "Famácia de Manipulação Tournier",
        "id": "node/5567407545"
      },
      "geometry": {
        "type": "Point",
        "coordinates": [
          -49.4846113,
          -28.9340592
        ]
      }
    },
    {
      "type": "Feature",
      "id": "node/5623244453",
      "properties": {
        "timestamp": "2019-03-18T17:09:15Z",
        "version": 2,
        "changeset": 68265638,
        "addr:city": "Araranguá",
        "addr:postcode": "88900-000",
        "addr:street": "Avenida Getúlio Vargas",
        "addr:suburb": "Centro",
        "amenity": "pharmacy",
        "dispensing": "yes",
        "drive_through": "no",
        "healthcare": "pharmacy",
        "name": "Fármacia preço popular",
        "phone": "+55 0800 643 3031",
        "website": "https://www.precopopular.com.br/escolha.php",
        "id": "node/5623244453"
      },
      "geometry": {
        "type": "Point",
        "coordinates": [
          -49.4830612,
          -28.9358653
        ]
      }
    },
    {
      "type": "Feature",
      "id": "node/5623244465",
      "properties": {
        "timestamp": "2018-05-18T20:17:46Z",
        "version": 2,
        "changeset": 59090072,
        "addr:city": "Araranguá",
        "addr:housenumber": "251",
        "addr:postcode": "88900-000",
        "addr:street": "Avenida Getúlio Vargas",
        "addr:suburb": "Centro",
        "amenity": "pharmacy",
        "dispensing": "yes",
        "healthcare": "pharmacy",
        "name": "Farmácia do Trabalhador",
        "id": "node/5623244465"
      },
      "geometry": {
        "type": "Point",
        "coordinates": [
          -49.4832879,
          -28.9356888
        ]
      }
    },
    {
      "type": "Feature",
      "id": "node/5627447205",
      "properties": {
        "timestamp": "2018-05-18T20:17:42Z",
        "version": 1,
        "changeset": 59090072,
        "addr:city": "Araranguá",
        "addr:housenumber": "227",
        "addr:postcode": "88900-000",
        "addr:street": "Avenida Getúlio Vargas",
        "addr:suburb": "Centro",
        "amenity": "pharmacy",
        "dispensing": "yes",
        "healthcare": "pharmacy",
        "name": "Farmácia Sesi",
        "phone": "+55 (48) 3524-0003",
        "website": "http://www.sesifarmacias.com.br",
        "id": "node/5627447205"
      },
      "geometry": {
        "type": "Point",
        "coordinates": [
          -49.4834886,
          -28.9355456
        ]
      }
    },
    {
      "type": "Feature",
      "id": "node/5640363602",
      "properties": {
        "timestamp": "2018-05-24T19:09:36Z",
        "version": 1,
        "changeset": 59250770,
        "addr:city": "Araranguá",
        "addr:housenumber": "90",
        "addr:postcode": "88900-000",
        "addr:street": "Avenida Getúlio Vargas",
        "addr:suburb": "Centro",
        "amenity": "pharmacy",
        "dispensing": "yes",
        "healthcare": "pharmacy",
        "name": "Minerva",
        "phone": "+55 (48) 3524-0002",
        "id": "node/5640363602"
      },
      "geometry": {
        "type": "Point",
        "coordinates": [
          -49.4847823,
          -28.9348997
        ]
      }
    },
    {
      "type": "Feature",
      "id": "node/5685860617",
      "properties": {
        "timestamp": "2019-02-02T20:32:23Z",
        "version": 2,
        "changeset": 66864219,
        "addr:city": "Araranguá",
        "addr:postcode": "88900-000",
        "addr:street": "Avenida Sete de Setembro",
        "addr:suburb": "Centro",
        "amenity": "pharmacy",
        "contact:phone": "+55 48 3524-0202",
        "dispensing": "yes",
        "healthcare": "pharmacy",
        "name": "Melhor Preço",
        "id": "node/5685860617"
      },
      "geometry": {
        "type": "Point",
        "coordinates": [
          -49.4863329,
          -28.9359108
        ]
      }
    },
    {
      "type": "Feature",
      "id": "node/5688428022",
      "properties": {
        "timestamp": "2018-06-13T17:15:34Z",
        "version": 1,
        "changeset": 59817449,
        "addr:city": "Araranguá",
        "addr:postcode": "88900-000",
        "addr:street": "Rua Expedicionário Iracy Luchina",
        "addr:suburb": "Urussanguinha",
        "amenity": "pharmacy",
        "dispensing": "yes",
        "healthcare": "pharmacy",
        "name": "Farmácia Zanatta",
        "phone": "+55 (48) 3524-7324",
        "id": "node/5688428022"
      },
      "geometry": {
        "type": "Point",
        "coordinates": [
          -49.4808367,
          -28.9403441
        ]
      }
    },
    {
      "type": "Feature",
      "id": "node/5963111222",
      "properties": {
        "timestamp": "2018-10-07T00:26:47Z",
        "version": 1,
        "changeset": 63268517,
        "addr:city": "Araranguá",
        "addr:housenumber": "98",
        "addr:postcode": "88900-000",
        "addr:street": "Rua Coronel João Fernandes",
        "addr:suburb": "Centro",
        "amenity": "pharmacy",
        "dispensing": "yes",
        "healthcare": "pharmacy",
        "name": "Farmácia Bellvivere",
        "id": "node/5963111222"
      },
      "geometry": {
        "type": "Point",
        "coordinates": [
          -49.4855171,
          -28.9361344
        ]
      }
    },
    {
      "type": "Feature",
      "id": "node/11821540016",
      "properties": {
        "timestamp": "2024-04-16T09:58:12Z",
        "version": 1,
        "changeset": 150075921,
        "addr:city": "Araranguá",
        "addr:housenumber": "50",
        "addr:postcode": "88901026",
        "addr:street": "Avenida Presidente João Goulart",
        "addr:suburb": "Cidade Alta",
        "amenity": "pharmacy",
        "dispensing": "yes",
        "healthcare": "pharmacy",
        "name": "Farmácia FAR 24H",
        "opening_hours": "24/7",
        "operator": "Farmácia FAR 24H",
        "id": "node/11821540016"
      },
      "geometry": {
        "type": "Point",
        "coordinates": [
          -49.4971548,
          -28.9397989
        ]
      }
    }
  ]
}
