{
  "type": "FeatureCollection",
  "features": [
    {
      "type": "Feature",
      "id": "way/851515361",
      "properties": {
        "timestamp": "2020-09-25T12:23:44Z",
        "version": 1,
        "changeset": 91509536,
        "addr:city": "Iconha",
        "addr:postcode": "29280000",
        "addr:street": "Rua principal",
        "addr:suburb": "Comunidade Nova Esperança",
        "amenity": "school",
        "name": "Antiga Escola de Ensino Fundamental de Nova Esperança",
        "operator": "Comunidade Nova Esperança",
        "operator:type": "public",
        "religion": "none",
        "id": "way/851515361"
      },
      "geometry": {
        "type": "Polygon",
        "coordinates": [
          [
            [
              -40.8933358,
              -20.7589573
            ],
            [
              -40.8933013,
              -20.7590685
            ],
            [
              -40.893224,
              -20.7590514
            ],
            [
              -40.8932606,
              -20.7589383
            ],
            [
              -40.8933358,
              -20.7589573
            ]
          ]
        ]
      }
    },
    {
      "type": "Feature",
      "id": "node/4024904488",
      "properties": {
        "timestamp": "2017-07-31T19:38:47Z",
        "version": 2,
        "changeset": 50731776,
        "IJSN:administra": "Estadual",
        "IJSN:classeCnae": "Fundamental e Médio",
        "addr:city": "Iconha",
        "addr:housenumber": "229",
        "addr:postcode": "29280-000",
        "addr:street": "Avenida Danilo Monteiro de Castro",
        "addr:suburb": "Jardim Jandyra",
        "alt_name": "Escola Estadual de Ensino Fundamental e Médio",
        "amenity": "school",
        "contact:phone": "+55-28-3537-1180",
        "name": "EEEFM Coronel Antônio Duarte",
        "source": "IJSN",
        "id": "node/4024904488"
      },
      "geometry": {
        "type": "Point",
        "coordinates": [
          -40.8159489,
          -20.789634
        ]
      }
    },
    {
      "type": "Feature",
      "id": "node/4024905066",
      "properties": {
        "timestamp": "2016-02-25T01:59:59Z",
        "version": 1,
        "changeset": 37426154,
        "IJSN:administra": "Privada",
        "IJSN:classeCnae": "Fundamental",
        "addr:city": "Iconha",
        "addr:postcode": "29280-000",
        "addr:street": "Estrada do Campo",
        "addr:suburb": "Campinho",
        "alt_name": "Escola Família Agrícola",
        "amenity": "school",
        "contact:phone": "(27) 9945-1985",
        "name": "EFA de Campinho",
        "source": "IJSN",
        "id": "node/4024905066"
      },
      "geometry": {
        "type": "Point",
        "coordinates": [
          -40.8582527,
          -20.7196156
        ]
      }
    },
    {
      "type": "Feature",
      "id": "node/4024905638",
      "properties": {
        "timestamp": "2016-02-25T02:00:45Z",
        "version": 1,
        "changeset": 37426154,
        "IJSN:administra": "Municipal",
        "IJSN:classeCnae": "Fundamental",
        "addr:city": "Iconha",
        "addr:housenumber": "267",
        "addr:postcode": "29280-000",
        "addr:street": "Rua José de Paula Beiriz",
        "addr:suburb": "Centro",
        "alt_name": "Escola Municipal de Ensino Fundamental",
        "amenity": "school",
        "contact:phone": "(28) 3537-1695",
        "name": "EMEF Padre Assis",
        "source": "IJSN",
        "id": "node/4024905638"
      },
      "geometry": {
        "type": "Point",
        "coordinates": [
          -40.8102135,
          -20.7915491
        ]
      }
    },
    {
      "type": "Feature",
      "id": "node/4024905689",
      "properties": {
        "timestamp": "2016-02-25T02:00:53Z",
        "version": 1,
        "changeset": 37426154,
        "IJSN:administra": "Municipal",
        "IJSN:classeCnae": "Fundamental",
        "addr:city": "Iconha",
        "addr:postcode": "29280-000",
        "addr:street": "Avenida Santo Inácio de Loyola",
        "addr:suburb": "Bom Destino",
        "alt_name": "Escola Municipal de Ensino Fundamental",
        "amenity": "school",
        "contact:phone": "(28) 3537-2260",
        "name": "EMEF Rosita Salvador Cardoso",
        "source": "IJSN",
        "id": "node/4024905689"
      },
      "geometry": {
        "type": "Point",
        "coordinates": [
          -40.8327056,
          -20.7644098
        ]
      }
    },
    {
      "type": "Feature",
      "id": "node/4024906132",
      "properties": {
        "timestamp": "2016-02-25T02:01:33Z",
        "version": 1,
        "changeset": 37426154,
        "IJSN:administra": "Municipal",
        "IJSN:classeCnae": "Infantil e Fundamental",
        "addr:city": "Iconha",
        "addr:postcode": "29280-000",
        "addr:street": "Rua Gercy Tosi",
        "addr:suburb": "Duas Barras",
        "alt_name": "Escola Municipal Pluridocente de Ensino Fundamental",
        "amenity": "school",
        "contact:phone": "(28) 3537-5048",
        "name": "EMPEF Isabelo Fontana",
        "source": "IJSN",
        "id": "node/4024906132"
      },
      "geometry": {
        "type": "Point",
        "coordinates": [
          -40.8821955,
          -20.7289122
        ]
      }
    },
    {
      "type": "Feature",
      "id": "node/4024906139",
      "properties": {
        "timestamp": "2016-02-25T02:01:34Z",
        "version": 1,
        "changeset": 37426154,
        "IJSN:administra": "Municipal",
        "IJSN:classeCnae": "Infantil e Fundamental",
        "addr:city": "Iconha",
        "addr:housenumber": "36",
        "addr:postcode": "29280-000",
        "addr:street": "Rua Adelson José Biancardi",
        "addr:suburb": "Ilha do Coco",
        "alt_name": "Escola Municipal Pluridocente de Ensino Fundamental",
        "amenity": "school",
        "contact:phone": "(28) 3537-3647",
        "name": "EMPEF Marcelino Biancardi",
        "source": "IJSN",
        "id": "node/4024906139"
      },
      "geometry": {
        "type": "Point",
        "coordinates": [
          -40.7982887,
          -20.788804
        ]
      }
    },
    {
      "type": "Feature",
      "id": "node/4024906246",
      "properties": {
        "timestamp": "2016-02-25T02:01:50Z",
        "version": 1,
        "changeset": 37426154,
        "IJSN:administra": "Municipal",
        "IJSN:classeCnae": "Infantil e Fundamental",
        "addr:city": "Iconha",
        "addr:postcode": "29280-000",
        "addr:suburb": "Campinho",
        "alt_name": "Escola Municipal Unidocente de Ensino Fundamental",
        "amenity": "school",
        "name": "EMUEF Campinho",
        "source": "IJSN",
        "id": "node/4024906246"
      },
      "geometry": {
        "type": "Point",
        "coordinates": [
          -40.8568558,
          -20.7198342
        ]
      }
    },
    {
      "type": "Feature",
      "id": "node/4024906288",
      "properties": {
        "timestamp": "2016-02-25T02:01:56Z",
        "version": 1,
        "changeset": 37426154,
        "IJSN:administra": "Municipal",
        "IJSN:classeCnae": "Fundamental",
        "addr:city": "Iconha",
        "addr:postcode": "29280-000",
        "addr:suburb": "Córrego do Lopes",
        "alt_name": "Escola Municipal Unidocente de Ensino Fundamental",
        "amenity": "school",
        "name": "EMUEF Córrego do Lopes",
        "source": "IJSN",
        "id": "node/4024906288"
      },
      "geometry": {
        "type": "Point",
        "coordinates": [
          -40.8601948,
          -20.7625302
        ]
      }
    },
    {
      "type": "Feature",
      "id": "node/4024906334",
      "properties": {
        "timestamp": "2016-02-25T02:02:03Z",
        "version": 1,
        "changeset": 37426154,
        "IJSN:administra": "Municipal",
        "IJSN:classeCnae": "Fundamental",
        "addr:city": "Iconha",
        "addr:postcode": "29280-000",
        "addr:suburb": "Comunidade Monte Belo",
        "alt_name": "Escola Municipal Unidocente de Ensino Fundamental",
        "amenity": "school",
        "name": "EMUEF Monte Belo",
        "source": "IJSN",
        "id": "node/4024906334"
      },
      "geometry": {
        "type": "Point",
        "coordinates": [
          -40.84814,
          -20.749138
        ]
      }
    },
    {
      "type": "Feature",
      "id": "node/4024906347",
      "properties": {
        "timestamp": "2016-02-25T02:02:05Z",
        "version": 1,
        "changeset": 37426154,
        "IJSN:administra": "Municipal",
        "IJSN:classeCnae": "Infantil e Fundamental",
        "addr:city": "Iconha",
        "addr:postcode": "29280-000",
        "addr:suburb": "Comunidade Palmital",
        "alt_name": "Escola Municipal Unidocente de Ensino Fundamental",
        "amenity": "school",
        "name": "EMUEF Palmital",
        "source": "IJSN",
        "id": "node/4024906347"
      },
      "geometry": {
        "type": "Point",
        "coordinates": [
          -40.8728369,
          -20.7869031
        ]
      }
    },
    {
      "type": "Feature",
      "id": "node/4024906356",
      "properties": {
        "timestamp": "2016-02-25T02:02:07Z",
        "version": 1,
        "changeset": 37426154,
        "IJSN:administra": "Municipal",
        "IJSN:classeCnae": "Fundamental",
        "addr:city": "Iconha",
        "addr:postcode": "29280-000",
        "addr:suburb": "Comunidade Pedra Lisa Alta",
        "alt_name": "Escola Municipal Unidocente de Ensino Fundamental",
        "amenity": "school",
        "name": "EMUEF Pedra Lisa Alta",
        "source": "IJSN",
        "id": "node/4024906356"
      },
      "geometry": {
        "type": "Point",
        "coordinates": [
          -40.8315206,
          -20.7132412
        ]
      }
    },
    {
      "type": "Feature",
      "id": "node/4024906357",
      "properties": {
        "timestamp": "2016-02-25T02:02:07Z",
        "version": 1,
        "changeset": 37426154,
        "IJSN:administra": "Municipal",
        "IJSN:classeCnae": "Fundamental",
        "addr:city": "Iconha",
        "addr:postcode": "29280-000",
        "addr:suburb": "Comunidade Pedra Lisa Baixa",
        "alt_name": "Escola Municipal Unidocente de Ensino Fundamental",
        "amenity": "school",
        "name": "EMUEF Pedra Lisa Baixa",
        "source": "IJSN",
        "id": "node/4024906357"
      },
      "geometry": {
        "type": "Point",
        "coordinates": [
          -40.8289794,
          -20.7361139
        ]
      }
    },
    {
      "type": "Feature",
      "id": "node/4024906607",
      "properties": {
        "timestamp": "2016-02-25T02:02:14Z",
        "version": 1,
        "changeset": 37426154,
        "IJSN:administra": "Municipal",
        "IJSN:classeCnae": "Fundamental",
        "addr:city": "Iconha",
        "addr:postcode": "29280-000",
        "addr:street": "Morro da Palha",
        "addr:suburb": "Comunidade Tocaia",
        "alt_name": "Escola Municipal Unidocente de Ensino Fundamental",
        "amenity": "school",
        "name": "EMUEF Tocaia Baixa",
        "source": "IJSN",
        "id": "node/4024906607"
      },
      "geometry": {
        "type": "Point",
        "coordinates": [
          -40.8343423,
          -20.7993438
        ]
      }
    },
    {
      "type": "Feature",
      "id": "node/4024906610",
      "properties": {
        "timestamp": "2016-02-25T02:02:14Z",
        "version": 1,
        "changeset": 37426154,
        "IJSN:administra": "Municipal",
        "IJSN:classeCnae": "Fundamental",
        "addr:city": "Iconha",
        "addr:postcode": "29280-000",
        "addr:suburb": "Comunidade Venezuela",
        "alt_name": "Escola Municipal Unidocente de Ensino Fundamental",
        "amenity": "school",
        "name": "EMUEF Venezuela",
        "source": "IJSN",
        "id": "node/4024906610"
      },
      "geometry": {
        "type": "Point",
        "coordinates": [
          -40.8853728,
          -20.7999483
        ]
      }
    }
  ]
}
