{
  "type": "FeatureCollection",
  "features": [
    {
      "type": "Feature",
      "id": "way/1111876338",
      "properties": {
        "timestamp": "2022-11-09T21:23:07Z",
        "version": 1,
        "changeset": 128704609,
        "addr:city": "Paranatama",
        "addr:postcode": "55355000",
        "addr:street": "Rua Roldão Guimarães",
        "addr:suburb": "Centro",
        "amenity": "school",
        "name": "Dom Vital",
        "operator": "Prefeitura Municipal de Paranatama",
        "operator:type": "government",
        "id": "way/1111876338"
      },
      "geometry": {
        "type": "Polygon",
        "coordinates": [
          [
            [
              -36.6562301,
              -8.9195897
            ],
            [
              -36.6562174,
              -8.9199052
            ],
            [
              -36.6560478,
              -8.9198892
            ],
            [
              -36.656037,
              -8.9199248
            ],
            [
              -36.6557176,
              -8.9198892
            ],
            [
              -36.6557862,
              -8.9194275
            ],
            [
              -36.6559666,
              -8.9194578
            ],
            [
              -36.655954,
              -8.9195184
            ],
            [
              -36.6561543,
              -8.9195434
            ],
            [
              -36.6561489,
              -8.919579
            ],
            [
              -36.6562301,
              -8.9195897
            ]
          ]
        ]
      }
    },
    {
      "type": "Feature",
      "id": "node/5325684873",
      "properties": {
        "timestamp": "2018-10-30T03:20:19Z",
        "version": 2,
        "changeset": 63997522,
        "addr:city": "paranatama",
        "addr:postcode": "55355-000",
        "amenity": "school",
        "name": "colégio Ministro marco marciel",
        "operator": "renata portela",
        "id": "node/5325684873"
      },
      "geometry": {
        "type": "Point",
        "coordinates": [
          -36.7210778,
          -8.937418
        ]
      }
    },
    {
      "type": "Feature",
      "id": "node/10172282188",
      "properties": {
        "timestamp": "2022-11-09T21:23:07Z",
        "version": 1,
        "changeset": 128704609,
        "addr:city": "Paranatama",
        "addr:postcode": "55355000",
        "addr:street": "Avenida Rui Barbosa",
        "addr:suburb": "Centro",
        "amenity": "school",
        "name": "João Bezerra Sobrinho",
        "operator": "Prefeitura Municipal de Paranatama",
        "operator:type": "government",
        "id": "node/10172282188"
      },
      "geometry": {
        "type": "Point",
        "coordinates": [
          -36.6558974,
          -8.920686
        ]
      }
    }
  ]
}
