{
  "type": "FeatureCollection",
  "features": [
    {
      "type": "Feature",
      "id": "node/10201750899",
      "properties": {
        "timestamp": "2022-11-19T11:57:28Z",
        "version": 1,
        "changeset": 129120866,
        "addr:city": "Ladário",
        "addr:housenumber": "260",
        "addr:postcode": "79300-000",
        "addr:street": "Rua Guantabú",
        "addr:suburb": "Alta Floresta 1",
        "amenity": "kindergarten",
        "isced:level": "0",
        "name": "Creche Nelson Mangabeira",
        "phone": "+55 32329424",
        "id": "node/10201750899"
      },
      "geometry": {
        "type": "Point",
        "coordinates": [
          -57.6038786,
          -19.0261824
        ]
      }
    },
    {
      "type": "Feature",
      "id": "node/10201815715",
      "properties": {
        "timestamp": "2022-11-19T12:17:36Z",
        "version": 1,
        "changeset": 129121541,
        "addr:city": "Ladário",
        "addr:housenumber": "452",
        "addr:postcode": "79370-000",
        "addr:street": "Rua Almirante Tamandaré",
        "addr:suburb": "Centro",
        "amenity": "kindergarten",
        "name": "Creche Professora Neusa Assad Malta",
        "official_name": "Centro Municipal de Educação Infantil Professora Neusa Assad Malta",
        "short_name": "CEMEI Professora Neusa Assad Malta",
        "id": "node/10201815715"
      },
      "geometry": {
        "type": "Point",
        "coordinates": [
          -57.6023189,
          -19.002376
        ]
      }
    }
  ]
}
