{
  "type": "FeatureCollection",
  "features": [
    {
      "type": "Feature",
      "id": "node/10201744572",
      "properties": {
        "timestamp": "2022-11-19T12:02:56Z",
        "version": 1,
        "changeset": 129121060,
        "addr:city": "Ladário",
        "addr:housenumber": "2245",
        "addr:postcode": "79370-000",
        "addr:street": "Rua Saldanha da Gama",
        "addr:suburb": "Almirante Tamandaré",
        "amenity": "school",
        "name": "Escola Professor João Batista",
        "phone": "+55 67 3226 1436",
        "id": "node/10201744572"
      },
      "geometry": {
        "type": "Point",
        "coordinates": [
          -57.6091248,
          -19.0172138
        ]
      }
    },
    {
      "type": "Feature",
      "id": "node/10201747110",
      "properties": {
        "timestamp": "2022-11-19T12:19:43Z",
        "version": 1,
        "changeset": 129121615,
        "addr:city": "Ladário",
        "addr:housenumber": "744",
        "addr:postcode": "79370-000",
        "addr:street": "Rua Almirante Barroso",
        "addr:suburb": "Centro",
        "amenity": "school",
        "name": "Escola Professor Eduardo Malhado",
        "phone": "+55 67 3226 1435",
        "id": "node/10201747110"
      },
      "geometry": {
        "type": "Point",
        "coordinates": [
          -57.6075538,
          -19.0061353
        ]
      }
    },
    {
      "type": "Feature",
      "id": "node/10201752132",
      "properties": {
        "timestamp": "2022-11-19T12:00:53Z",
        "version": 1,
        "changeset": 129120986,
        "addr:city": "Ladário",
        "addr:postcode": "79370-000",
        "addr:suburb": "Nova Aliança",
        "amenity": "school",
        "name": "Escola Marquês de Tamandaré",
        "phone": "+55 67 99863 4947",
        "id": "node/10201752132"
      },
      "geometry": {
        "type": "Point",
        "coordinates": [
          -57.6124128,
          -19.0246977
        ]
      }
    },
    {
      "type": "Feature",
      "id": "node/10201771748",
      "properties": {
        "timestamp": "2022-11-19T12:05:06Z",
        "version": 1,
        "changeset": 129121152,
        "addr:city": "Ladário",
        "addr:postcode": "79370-000",
        "addr:street": "Rua Riachuelo",
        "addr:suburb": "Santo Antônio",
        "amenity": "school",
        "name": "Escola Francisco Mendes Sampaio",
        "nohousenumber": "yes",
        "phone": "+55 67 3222 64237",
        "id": "node/10201771748"
      },
      "geometry": {
        "type": "Point",
        "coordinates": [
          -57.6029101,
          -19.0134972
        ]
      }
    },
    {
      "type": "Feature",
      "id": "node/10201796415",
      "properties": {
        "timestamp": "2022-11-19T12:06:49Z",
        "version": 1,
        "changeset": 129121196,
        "addr:city": "Ladário",
        "addr:housenumber": "403",
        "addr:postcode": "79370-000",
        "addr:street": "Rua Comandante Souza Lôbo",
        "addr:suburb": "Centro",
        "amenity": "school",
        "name": "Escola São Miguel",
        "phone": "+55 67 3226 1717",
        "id": "node/10201796415"
      },
      "geometry": {
        "type": "Point",
        "coordinates": [
          -57.6030051,
          -19.0056249
        ]
      }
    },
    {
      "type": "Feature",
      "id": "node/10201815712",
      "properties": {
        "timestamp": "2022-11-19T12:17:36Z",
        "version": 1,
        "changeset": 129121541,
        "addr:city": "Ladário",
        "addr:housenumber": "598",
        "addr:postcode": "79370-000",
        "addr:street": "Avenida 14 de Março",
        "addr:suburb": "Centro",
        "amenity": "school",
        "name": "Escola 2 de Setembro",
        "phone": "+55 67 3226 1380",
        "id": "node/10201815712"
      },
      "geometry": {
        "type": "Point",
        "coordinates": [
          -57.6036286,
          -19.0030208
        ]
      }
    },
    {
      "type": "Feature",
      "id": "node/10201815714",
      "properties": {
        "timestamp": "2022-11-19T12:17:36Z",
        "version": 1,
        "changeset": 129121541,
        "addr:city": "Ladário",
        "addr:housenumber": "481",
        "addr:postcode": "79370-000",
        "addr:street": "Rua Almirante Tamandaré",
        "addr:suburb": "Centro",
        "amenity": "school",
        "name": "Escola 17 de Março",
        "id": "node/10201815714"
      },
      "geometry": {
        "type": "Point",
        "coordinates": [
          -57.6025462,
          -19.0026846
        ]
      }
    },
    {
      "type": "Feature",
      "id": "node/10201816802",
      "properties": {
        "timestamp": "2022-11-19T12:18:45Z",
        "version": 1,
        "changeset": 129121575,
        "addr:city": "Ladário",
        "addr:housenumber": "162",
        "addr:postcode": "79370-000",
        "addr:street": "Avenida 14 de Março",
        "addr:suburb": "Centro",
        "amenity": "school",
        "name": "Escola Farol do Norte",
        "phone": "+55 67 99245 4103",
        "id": "node/10201816802"
      },
      "geometry": {
        "type": "Point",
        "coordinates": [
          -57.6000989,
          -19.0037744
        ]
      }
    }
  ]
}
