{
  "type": "FeatureCollection",
  "features": [
    {
      "type": "Feature",
      "id": "way/253833900",
      "properties": {
        "timestamp": "2022-03-10T16:15:04Z",
        "version": 5,
        "changeset": 118330179,
        "addr:city": "Paraíso do Tocantins",
        "addr:postcode": "77600-000",
        "addr:street": "Rua José Lopes",
        "addr:suburb": "Pouso Alegre",
        "amenity": "school",
        "name": "Escola Municipal Professora Luzia Tavares",
        "operator": "Prefeitura Municipal de Paraíso do Tocantins",
        "phone": "+55 63 3904 1527",
        "id": "way/253833900"
      },
      "geometry": {
        "type": "Polygon",
        "coordinates": [
          [
            [
              -48.8897674,
              -10.193614
            ],
            [
              -48.8894411,
              -10.1942251
            ],
            [
              -48.8889548,
              -10.1939735
            ],
            [
              -48.8892812,
              -10.1933625
            ],
            [
              -48.8897674,
              -10.193614
            ]
          ]
        ]
      }
    },
    {
      "type": "Feature",
      "id": "way/253833901",
      "properties": {
        "timestamp": "2022-03-10T16:15:04Z",
        "version": 4,
        "changeset": 118330179,
        "addr:city": "Paraíso do Tocantins",
        "addr:housenumber": "1179",
        "addr:postcode": "77600-000",
        "addr:street": "Rua 56",
        "addr:suburb": "Pouso Alegre",
        "amenity": "school",
        "name": "Escola Estadual José Nézio Ramos",
        "id": "way/253833901"
      },
      "geometry": {
        "type": "Polygon",
        "coordinates": [
          [
            [
              -48.8900024,
              -10.1931741
            ],
            [
              -48.8897674,
              -10.193614
            ],
            [
              -48.8892812,
              -10.1933625
            ],
            [
              -48.8895161,
              -10.1929225
            ],
            [
              -48.8900024,
              -10.1931741
            ]
          ]
        ]
      }
    },
    {
      "type": "Feature",
      "id": "way/253834018",
      "properties": {
        "timestamp": "2022-03-10T16:15:04Z",
        "version": 3,
        "changeset": 118330179,
        "addr:city": "Paraíso do Tocantins",
        "addr:housenumber": "754",
        "addr:postcode": "77600-000",
        "addr:street": "Avenida Paraíso",
        "addr:suburb": "Pouso Alegre",
        "amenity": "school",
        "name": "Escola Municipal Pouso Alegre",
        "operator": "Prefeitura Municipal de Paraíso do Tocantins",
        "phone": "+55 63 3602 2469",
        "id": "way/253834018"
      },
      "geometry": {
        "type": "Polygon",
        "coordinates": [
          [
            [
              -48.8911079,
              -10.1929736
            ],
            [
              -48.8908511,
              -10.1934444
            ],
            [
              -48.8903638,
              -10.1931869
            ],
            [
              -48.8906206,
              -10.1927161
            ],
            [
              -48.8911079,
              -10.1929736
            ]
          ]
        ]
      }
    },
    {
      "type": "Feature",
      "id": "way/253834867",
      "properties": {
        "timestamp": "2022-03-09T19:43:05Z",
        "version": 3,
        "changeset": 118292350,
        "addr:city": "Paraíso do Tocantins",
        "addr:housenumber": "811",
        "addr:postcode": "77600-000",
        "addr:street": "Avenida Paraná",
        "addr:suburb": "Setor Oeste",
        "amenity": "school",
        "name": "Escola Estadual Idalina de Paula",
        "phone": "+55 63 3602 1225",
        "id": "way/253834867"
      },
      "geometry": {
        "type": "Polygon",
        "coordinates": [
          [
            [
              -48.8971209,
              -10.1809098
            ],
            [
              -48.8969506,
              -10.1812191
            ],
            [
              -48.8969019,
              -10.1813076
            ],
            [
              -48.896987,
              -10.181353
            ],
            [
              -48.8967904,
              -10.1817099
            ],
            [
              -48.8963529,
              -10.1814766
            ],
            [
              -48.8967685,
              -10.1807218
            ],
            [
              -48.8971209,
              -10.1809098
            ]
          ]
        ]
      }
    },
    {
      "type": "Feature",
      "id": "way/253835820",
      "properties": {
        "timestamp": "2022-03-09T19:36:37Z",
        "version": 3,
        "changeset": 118292177,
        "addr:city": "Paraíso do Tocantins",
        "addr:housenumber": "787",
        "addr:postcode": "77600-000",
        "addr:street": "Avenida Paraná",
        "addr:suburb": "Setor Oeste",
        "amenity": "school",
        "name": "Instituto Presbiteriano Vale do Tocantins (Anexo)",
        "id": "way/253835820"
      },
      "geometry": {
        "type": "Polygon",
        "coordinates": [
          [
            [
              -48.8964855,
              -10.181981
            ],
            [
              -48.8963148,
              -10.1822947
            ],
            [
              -48.8960396,
              -10.1821497
            ],
            [
              -48.8962103,
              -10.181836
            ],
            [
              -48.8964855,
              -10.181981
            ]
          ]
        ]
      }
    },
    {
      "type": "Feature",
      "id": "way/253891087",
      "properties": {
        "timestamp": "2022-03-09T19:31:49Z",
        "version": 4,
        "changeset": 118292032,
        "addr:city": "Paraíso do Tocantins",
        "addr:housenumber": "739",
        "addr:postcode": "77600-000",
        "addr:street": "Rua Valdir Lins",
        "addr:suburb": "Centro",
        "amenity": "school",
        "name": "Colégio São Geraldo",
        "phone": "+55 63 3602 4011",
        "id": "way/253891087"
      },
      "geometry": {
        "type": "Polygon",
        "coordinates": [
          [
            [
              -48.8881486,
              -10.1772742
            ],
            [
              -48.8879639,
              -10.1776013
            ],
            [
              -48.8877092,
              -10.1780523
            ],
            [
              -48.8874079,
              -10.1778875
            ],
            [
              -48.8870487,
              -10.177691
            ],
            [
              -48.8874881,
              -10.1769129
            ],
            [
              -48.8881486,
              -10.1772742
            ]
          ]
        ]
      }
    },
    {
      "type": "Feature",
      "id": "way/253893037",
      "properties": {
        "timestamp": "2022-03-09T19:31:49Z",
        "version": 3,
        "changeset": 118292032,
        "addr:city": "Paraíso do Tocantins",
        "addr:housenumber": "1061",
        "addr:postcode": "77600-000",
        "addr:street": "Rua Bernardino Maciel",
        "addr:suburb": "Centro",
        "amenity": "school",
        "name": "Centro de Ensino Médio José Alves de Assis",
        "phone": "+55 63 3602 2499",
        "id": "way/253893037"
      },
      "geometry": {
        "type": "Polygon",
        "coordinates": [
          [
            [
              -48.8896476,
              -10.1745692
            ],
            [
              -48.8892299,
              -10.1753329
            ],
            [
              -48.8886947,
              -10.1750492
            ],
            [
              -48.8891124,
              -10.1742856
            ],
            [
              -48.8896476,
              -10.1745692
            ]
          ]
        ]
      }
    },
    {
      "type": "Feature",
      "id": "way/253893059",
      "properties": {
        "timestamp": "2022-03-10T16:06:20Z",
        "version": 4,
        "changeset": 118329864,
        "addr:city": "Paraíso do Tocantins",
        "addr:postcode": "77600-000",
        "addr:suburb": "Centro",
        "amenity": "school",
        "name": "Escola Estadual Trajano Coelho Neto",
        "id": "way/253893059"
      },
      "geometry": {
        "type": "Polygon",
        "coordinates": [
          [
            [
              -48.8881589,
              -10.1725685
            ],
            [
              -48.8877221,
              -10.173367
            ],
            [
              -48.8871765,
              -10.1730778
            ],
            [
              -48.8876133,
              -10.1722794
            ],
            [
              -48.8881589,
              -10.1725685
            ]
          ]
        ]
      }
    },
    {
      "type": "Feature",
      "id": "way/253895066",
      "properties": {
        "timestamp": "2022-03-10T16:08:40Z",
        "version": 5,
        "changeset": 118329950,
        "addr:city": "Paraíso do Tocantins",
        "addr:housenumber": "151",
        "addr:postcode": "77600-000",
        "addr:street": "Rua Tapajós",
        "addr:suburb": "Centro",
        "amenity": "school",
        "name": "Instituto Presbiteriano Vale do Tocantins",
        "phone": "+55 63 3602 1701",
        "id": "way/253895066"
      },
      "geometry": {
        "type": "Polygon",
        "coordinates": [
          [
            [
              -48.8816488,
              -10.1749168
            ],
            [
              -48.8820007,
              -10.1750983
            ],
            [
              -48.881828,
              -10.1754206
            ],
            [
              -48.8820575,
              -10.1755397
            ],
            [
              -48.8819203,
              -10.1757937
            ],
            [
              -48.8813422,
              -10.1754938
            ],
            [
              -48.8814041,
              -10.1753782
            ],
            [
              -48.8815766,
              -10.1750517
            ],
            [
              -48.8816488,
              -10.1749168
            ]
          ]
        ]
      }
    },
    {
      "type": "Feature",
      "id": "way/378345883",
      "properties": {
        "timestamp": "2022-03-09T19:24:46Z",
        "version": 2,
        "changeset": 118291825,
        "addr:city": "Paraíso do Tocantins",
        "addr:postcode": "77600-000",
        "addr:street": "Avenida Araraquara",
        "addr:suburb": "Jardim Paulista",
        "amenity": "school",
        "name": "Escola Municipal Jardim Paulista",
        "phone": "+55 63 3361 2234",
        "id": "way/378345883"
      },
      "geometry": {
        "type": "Polygon",
        "coordinates": [
          [
            [
              -48.8954275,
              -10.1737058
            ],
            [
              -48.8951056,
              -10.1739302
            ],
            [
              -48.8949849,
              -10.1736055
            ],
            [
              -48.8949956,
              -10.1731171
            ],
            [
              -48.8954275,
              -10.1737058
            ]
          ]
        ]
      }
    },
    {
      "type": "Feature",
      "id": "way/378365334",
      "properties": {
        "timestamp": "2022-03-09T19:13:13Z",
        "version": 2,
        "changeset": 118291512,
        "addr:city": "Paraíso do Tocantins",
        "addr:housenumber": "1130",
        "addr:postcode": "77600-000",
        "addr:street": "Rua 26",
        "addr:suburb": "Vila Milena",
        "amenity": "school",
        "name": "Escola Municipal Vereador José Odete",
        "operator": "Prefeitura Municipal de Paraíso do Tocantins",
        "phone": "+55 63 3361 1857",
        "id": "way/378365334"
      },
      "geometry": {
        "type": "Polygon",
        "coordinates": [
          [
            [
              -48.8875318,
              -10.157136
            ],
            [
              -48.8869846,
              -10.1573102
            ],
            [
              -48.886829,
              -10.1569881
            ],
            [
              -48.8874406,
              -10.1568086
            ],
            [
              -48.8875318,
              -10.157136
            ]
          ]
        ]
      }
    },
    {
      "type": "Feature",
      "id": "way/428198943",
      "properties": {
        "timestamp": "2022-03-09T20:01:36Z",
        "version": 2,
        "changeset": 118292840,
        "addr:city": "Paraíso do Tocantins",
        "addr:postcode": "77600-000",
        "addr:street": "Rua Inglaterra",
        "addr:suburb": "Setor Jardim America",
        "amenity": "school",
        "name": "Centro de Ensino Médio Diaconízio Bezerra da Silva",
        "operator": "Governo do Estado do Tocantins",
        "phone": "+55 63 3361 3495",
        "id": "way/428198943"
      },
      "geometry": {
        "type": "Polygon",
        "coordinates": [
          [
            [
              -48.9003439,
              -10.1952012
            ],
            [
              -48.9000059,
              -10.1962096
            ],
            [
              -48.8999255,
              -10.1962466
            ],
            [
              -48.8993005,
              -10.1958981
            ],
            [
              -48.8998262,
              -10.194924
            ],
            [
              -48.9003439,
              -10.1952012
            ]
          ]
        ]
      }
    },
    {
      "type": "Feature",
      "id": "way/431406135",
      "properties": {
        "timestamp": "2022-03-09T19:35:45Z",
        "version": 2,
        "changeset": 118292147,
        "addr:city": "Paraíso do Tocantins",
        "addr:postcode": "77600-000",
        "addr:street": "Rua Getúlio Vargas",
        "addr:suburb": "Setor Oeste",
        "amenity": "school",
        "name": "Escola Municipal 23 de Outubro",
        "operator": "Prefeitura Municipal de Paraíso do Tocantins",
        "phone": "+55 63 3361 2125",
        "id": "way/431406135"
      },
      "geometry": {
        "type": "Polygon",
        "coordinates": [
          [
            [
              -48.8915944,
              -10.1805175
            ],
            [
              -48.8910649,
              -10.1802307
            ],
            [
              -48.8912037,
              -10.1799824
            ],
            [
              -48.8917332,
              -10.1802693
            ],
            [
              -48.8915944,
              -10.1805175
            ]
          ]
        ]
      }
    },
    {
      "type": "Feature",
      "id": "way/1033933242",
      "properties": {
        "timestamp": "2022-02-21T18:20:46Z",
        "version": 1,
        "changeset": 117694625,
        "amenity": "school",
        "name": "Esc Municipal Sta Rosa",
        "id": "way/1033933242"
      },
      "geometry": {
        "type": "Polygon",
        "coordinates": [
          [
            [
              -48.76713,
              -10.0346358
            ],
            [
              -48.7670815,
              -10.0349802
            ],
            [
              -48.7667341,
              -10.0349328
            ],
            [
              -48.7667826,
              -10.0345884
            ],
            [
              -48.76713,
              -10.0346358
            ]
          ]
        ]
      }
    },
    {
      "type": "Feature",
      "id": "way/1038846096",
      "properties": {
        "timestamp": "2022-03-09T19:15:21Z",
        "version": 1,
        "changeset": 118291575,
        "addr:street": "Avenida São Paulo",
        "amenity": "school",
        "name": "Escola Estadual São José Operario",
        "id": "way/1038846096"
      },
      "geometry": {
        "type": "Polygon",
        "coordinates": [
          [
            [
              -48.8990669,
              -10.1662453
            ],
            [
              -48.8989623,
              -10.1670135
            ],
            [
              -48.8981224,
              -10.1677126
            ],
            [
              -48.897781,
              -10.1673152
            ],
            [
              -48.8990669,
              -10.1662453
            ]
          ]
        ]
      }
    },
    {
      "type": "Feature",
      "id": "way/1038848297",
      "properties": {
        "timestamp": "2022-03-09T19:24:46Z",
        "version": 1,
        "changeset": 118291825,
        "addr:city": "Paraíso do Tocantins",
        "addr:housenumber": "7904",
        "addr:postcode": "77600-000",
        "addr:street": "Rua Jorge Amado",
        "addr:suburb": "Jardim Paulista",
        "amenity": "school",
        "name": "Creche Arco Iris",
        "phone": "+55 63 3361 3721",
        "id": "way/1038848297"
      },
      "geometry": {
        "type": "Polygon",
        "coordinates": [
          [
            [
              -48.8951048,
              -10.1719087
            ],
            [
              -48.894613,
              -10.1722766
            ],
            [
              -48.8942771,
              -10.1720208
            ],
            [
              -48.8948549,
              -10.1715958
            ],
            [
              -48.8951048,
              -10.1719087
            ]
          ]
        ]
      }
    },
    {
      "type": "Feature",
      "id": "way/1038851194",
      "properties": {
        "timestamp": "2022-03-09T19:34:16Z",
        "version": 1,
        "changeset": 118292104,
        "addr:city": "Paraíso do Tocantins",
        "addr:housenumber": "699",
        "addr:postcode": "77600-000",
        "addr:street": "Rua Trajano Coelho Neto",
        "addr:suburb": "Centro",
        "amenity": "school",
        "name": "Escola Estadual Amâncio de Moraes",
        "phone": "+55 63 3602 4516",
        "id": "way/1038851194"
      },
      "geometry": {
        "type": "Polygon",
        "coordinates": [
          [
            [
              -48.8876858,
              -10.1781396
            ],
            [
              -48.8872306,
              -10.1789552
            ],
            [
              -48.8866189,
              -10.1786243
            ],
            [
              -48.887074,
              -10.1778089
            ],
            [
              -48.8876858,
              -10.1781396
            ]
          ]
        ]
      }
    },
    {
      "type": "Feature",
      "id": "way/1038853486",
      "properties": {
        "timestamp": "2022-03-09T19:45:40Z",
        "version": 2,
        "changeset": 118292404,
        "addr:city": "Paraíso do Tocantins",
        "addr:postcode": "77600-000",
        "addr:street": "Rua 15",
        "addr:suburb": "Setor Aeoporto",
        "amenity": "school",
        "name": "Escola Municipal Irmã Julita",
        "id": "way/1038853486"
      },
      "geometry": {
        "type": "Polygon",
        "coordinates": [
          [
            [
              -48.9033855,
              -10.1797183
            ],
            [
              -48.9031984,
              -10.1800385
            ],
            [
              -48.9026405,
              -10.1797484
            ],
            [
              -48.9028118,
              -10.1794119
            ],
            [
              -48.9033855,
              -10.1797183
            ]
          ]
        ]
      }
    },
    {
      "type": "Feature",
      "id": "way/1038883586",
      "properties": {
        "timestamp": "2022-03-09T22:10:38Z",
        "version": 1,
        "changeset": 118296265,
        "addr:city": "Paraíso do Tocantins",
        "addr:postcode": "77600-000",
        "addr:street": "Avenida 23 de Outubro",
        "addr:suburb": "Vila Regina",
        "amenity": "school",
        "name": "Escola Municipal Professora Adélia Aguiar Barbosa",
        "operator": "Prefeitura Municipal de Paraíso do Tocantins",
        "phone": "+55 63 3361 1400",
        "id": "way/1038883586"
      },
      "geometry": {
        "type": "Polygon",
        "coordinates": [
          [
            [
              -48.9033905,
              -10.201713
            ],
            [
              -48.9031814,
              -10.2020087
            ],
            [
              -48.9026746,
              -10.2017566
            ],
            [
              -48.9028796,
              -10.2014459
            ],
            [
              -48.9033905,
              -10.201713
            ]
          ]
        ]
      }
    },
    {
      "type": "Feature",
      "id": "way/1038905837",
      "properties": {
        "timestamp": "2022-03-10T16:23:17Z",
        "version": 2,
        "changeset": 118330479,
        "addr:city": "77600-000",
        "addr:housenumber": "09",
        "addr:postcode": "Paraíso do Tocantins",
        "addr:street": "Rua 13",
        "addr:suburb": "Paraíso dos Ipês",
        "amenity": "school",
        "name": "Creche Municipal Professora Maria Do Carmo Ferreira",
        "phone": "+55 63 3361 2289",
        "id": "way/1038905837"
      },
      "geometry": {
        "type": "Polygon",
        "coordinates": [
          [
            [
              -48.9080289,
              -10.1980716
            ],
            [
              -48.9079904,
              -10.1984023
            ],
            [
              -48.9075682,
              -10.1983547
            ],
            [
              -48.9076067,
              -10.1980239
            ],
            [
              -48.9080289,
              -10.1980716
            ]
          ]
        ]
      }
    },
    {
      "type": "Feature",
      "id": "way/1039105960",
      "properties": {
        "timestamp": "2022-03-10T16:06:20Z",
        "version": 1,
        "changeset": 118329864,
        "addr:city": "Paraíso do Tocantins",
        "addr:housenumber": "234",
        "addr:postcode": "77600-000",
        "addr:street": "Rua Tupinambás",
        "addr:suburb": "Centro",
        "amenity": "school",
        "name": "Escola Pequeno Anjo",
        "phone": "+55 63 3602 5449",
        "id": "way/1039105960"
      },
      "geometry": {
        "type": "Polygon",
        "coordinates": [
          [
            [
              -48.8839112,
              -10.1699328
            ],
            [
              -48.883766,
              -10.170179
            ],
            [
              -48.8834238,
              -10.1699834
            ],
            [
              -48.8835689,
              -10.1697373
            ],
            [
              -48.8839112,
              -10.1699328
            ]
          ]
        ]
      }
    },
    {
      "type": "Feature",
      "id": "way/1039105961",
      "properties": {
        "timestamp": "2022-03-10T16:06:20Z",
        "version": 1,
        "changeset": 118329864,
        "addr:city": "Paraíso do Tocantins",
        "addr:housenumber": "1066",
        "addr:postcode": "77600-000",
        "addr:street": "Rua José Bonifácio",
        "addr:suburb": "Centro",
        "amenity": "school",
        "name": "Escola Raio de Sol",
        "id": "way/1039105961"
      },
      "geometry": {
        "type": "Polygon",
        "coordinates": [
          [
            [
              -48.8845587,
              -10.1709218
            ],
            [
              -48.8843856,
              -10.1712332
            ],
            [
              -48.8840698,
              -10.1710632
            ],
            [
              -48.8842429,
              -10.1707517
            ],
            [
              -48.8845587,
              -10.1709218
            ]
          ]
        ]
      }
    },
    {
      "type": "Feature",
      "id": "way/1039106798",
      "properties": {
        "timestamp": "2022-03-10T16:10:14Z",
        "version": 1,
        "changeset": 118330022,
        "addr:city": "Paraíso do Tocantins",
        "addr:housenumber": "578",
        "addr:postcode": "77600-000",
        "addr:street": "Rua L-23",
        "addr:suburb": "Setor Interlagos",
        "amenity": "school",
        "name": "Escola Estadual Juscelino Kubitschek De Oliveira",
        "phone": "+55 63 3602 6211",
        "id": "way/1039106798"
      },
      "geometry": {
        "type": "Polygon",
        "coordinates": [
          [
            [
              -48.8748513,
              -10.1671187
            ],
            [
              -48.8748382,
              -10.1674974
            ],
            [
              -48.8742979,
              -10.1674793
            ],
            [
              -48.874311,
              -10.1671005
            ],
            [
              -48.8748513,
              -10.1671187
            ]
          ]
        ]
      }
    },
    {
      "type": "Feature",
      "id": "way/1039106965",
      "properties": {
        "timestamp": "2022-03-10T16:11:15Z",
        "version": 1,
        "changeset": 118330047,
        "addr:city": "Paraíso do Tocantins",
        "addr:postcode": "77600-000",
        "addr:street": "Avenida JK",
        "addr:suburb": "Pouso Alegre",
        "amenity": "school",
        "name": "Escola Municipal Jose Ribeiro Torres",
        "phone": "+55 63 3361 3534",
        "id": "way/1039106965"
      },
      "geometry": {
        "type": "Polygon",
        "coordinates": [
          [
            [
              -48.884278,
              -10.1932752
            ],
            [
              -48.8845022,
              -10.1930801
            ],
            [
              -48.8850801,
              -10.1937233
            ],
            [
              -48.8848558,
              -10.1939185
            ],
            [
              -48.884278,
              -10.1932752
            ]
          ]
        ]
      }
    },
    {
      "type": "Feature",
      "id": "way/1039107914",
      "properties": {
        "timestamp": "2022-03-10T16:16:14Z",
        "version": 1,
        "changeset": 118330215,
        "addr:city": "Paraíso do Tocantins",
        "addr:housenumber": "01",
        "addr:postcode": "77600-000",
        "addr:street": "Rua Residencial 06",
        "addr:suburb": "Nova Fronteira",
        "amenity": "school",
        "name": "Cfp Paraiso Antonio Conceicao Cunha Filho",
        "phone": "+55 63 3361 3030",
        "id": "way/1039107914"
      },
      "geometry": {
        "type": "Polygon",
        "coordinates": [
          [
            [
              -48.89485,
              -10.2021486
            ],
            [
              -48.8942759,
              -10.2032046
            ],
            [
              -48.8934392,
              -10.202764
            ],
            [
              -48.8940134,
              -10.2017081
            ],
            [
              -48.89485,
              -10.2021486
            ]
          ]
        ]
      }
    },
    {
      "type": "Feature",
      "id": "way/1039110016",
      "properties": {
        "timestamp": "2022-03-10T16:26:30Z",
        "version": 2,
        "changeset": 118330647,
        "addr:city": "Paraíso do Tocantins",
        "addr:postcode": "77600-000",
        "addr:suburb": "Santana",
        "amenity": "school",
        "name": "Escola Municipal Bernardo Sayao",
        "id": "way/1039110016"
      },
      "geometry": {
        "type": "Polygon",
        "coordinates": [
          [
            [
              -48.8891599,
              -10.2673698
            ],
            [
              -48.8895066,
              -10.2671291
            ],
            [
              -48.8896687,
              -10.2674013
            ],
            [
              -48.8892972,
              -10.2676643
            ],
            [
              -48.8891599,
              -10.2673698
            ]
          ]
        ]
      }
    },
    {
      "type": "Feature",
      "id": "way/1203472280",
      "properties": {
        "timestamp": "2023-08-30T11:11:35Z",
        "version": 1,
        "changeset": 140582776,
        "addr:city": "Paraíso do Tocantins",
        "addr:housenumber": "578",
        "addr:postcode": "77600-000",
        "addr:street": "Rua L-03",
        "addr:suburb": "Setor Interlagos",
        "amenity": "school",
        "building": "school",
        "name": "Escola Municipal Pedro Ludovico Teixeira",
        "operator": "Prefeitura Municipal de Paraíso do Tocantins",
        "operator:type": "public/government",
        "id": "way/1203472280"
      },
      "geometry": {
        "type": "Polygon",
        "coordinates": [
          [
            [
              -48.886847,
              -10.1674107
            ],
            [
              -48.886656,
              -10.1677508
            ],
            [
              -48.8863257,
              -10.1675767
            ],
            [
              -48.8865086,
              -10.1672386
            ],
            [
              -48.886847,
              -10.1674107
            ]
          ]
        ]
      }
    },
    {
      "type": "Feature",
      "id": "node/3052167219",
      "properties": {
        "timestamp": "2022-03-10T15:58:06Z",
        "version": 2,
        "changeset": 118329565,
        "addr:city": "Paraíso do Tocantins",
        "addr:postcode": "77600-000",
        "addr:street": "Rua Duque de Caxias",
        "addr:suburb": "Jardim Paulista",
        "amenity": "school",
        "name": "SESC Ler",
        "operator": "SESC",
        "phone": "+55 63 3602 4793",
        "id": "node/3052167219"
      },
      "geometry": {
        "type": "Point",
        "coordinates": [
          -48.8898244,
          -10.1540322
        ]
      }
    },
    {
      "type": "Feature",
      "id": "node/9566786827",
      "properties": {
        "timestamp": "2022-03-09T19:27:26Z",
        "version": 1,
        "changeset": 118291907,
        "addr:city": "Paraíso do Tocantins",
        "addr:housenumber": "1321",
        "addr:postcode": "77600-000",
        "addr:street": "Rua Gonçalves Dias",
        "addr:suburb": "Centro",
        "amenity": "school",
        "name": "Escola Branca De Neve Ltda",
        "phone": "+55 63 3361 1963",
        "id": "node/9566786827"
      },
      "geometry": {
        "type": "Point",
        "coordinates": [
          -48.8896497,
          -10.172893
        ]
      }
    },
    {
      "type": "Feature",
      "id": "node/9566832546",
      "properties": {
        "timestamp": "2022-03-09T19:45:40Z",
        "version": 2,
        "changeset": 118292404,
        "addr:city": "Paraíso do Tocantins",
        "addr:housenumber": "355",
        "addr:postcode": "77600-000",
        "addr:street": "Rua 07",
        "addr:suburb": "Setor Aeoporto",
        "amenity": "school",
        "name": "Escola Especial Luz Da Vida - Apae",
        "phone": "+55 63 3602 2351",
        "id": "node/9566832546"
      },
      "geometry": {
        "type": "Point",
        "coordinates": [
          -48.9026471,
          -10.1799733
        ]
      }
    },
    {
      "type": "Feature",
      "id": "node/9569059288",
      "properties": {
        "timestamp": "2022-03-10T16:07:02Z",
        "version": 1,
        "changeset": 118329894,
        "addr:city": "Paraíso do Tocantins",
        "addr:housenumber": "1075",
        "addr:postcode": "77600-000",
        "addr:street": "Rua Voluntários da Pátria",
        "addr:suburb": "Centro",
        "amenity": "school",
        "name": "Colegio Dinamico",
        "phone": "+55 63 3602 1956",
        "id": "node/9569059288"
      },
      "geometry": {
        "type": "Point",
        "coordinates": [
          -48.8844381,
          -10.1730857
        ]
      }
    },
    {
      "type": "Feature",
      "id": "node/9569072475",
      "properties": {
        "timestamp": "2022-03-10T16:08:04Z",
        "version": 1,
        "changeset": 118329934,
        "addr:city": "Paraíso do Tocantins",
        "addr:housenumber": "950",
        "addr:postcode": "77600-000",
        "addr:street": "Rua Voluntários da Pátria",
        "addr:suburb": "Centro",
        "amenity": "school",
        "name": "Escola Estadual Deusa Moraes",
        "phone": "+55 63 3602 1766",
        "id": "node/9569072475"
      },
      "geometry": {
        "type": "Point",
        "coordinates": [
          -48.8836952,
          -10.1739912
        ]
      }
    },
    {
      "type": "Feature",
      "id": "node/9569092826",
      "properties": {
        "timestamp": "2022-03-10T16:13:03Z",
        "version": 1,
        "changeset": 118330101,
        "addr:city": "Paraíso do Tocantins",
        "addr:postcode": "77600-000",
        "addr:street": "Rua 60",
        "addr:suburb": "Setor Alto Paraíso",
        "amenity": "school",
        "name": "Creche Aureny Siqueira Campos",
        "phone": "+55 63 3361 1544",
        "id": "node/9569092826"
      },
      "geometry": {
        "type": "Point",
        "coordinates": [
          -48.8862433,
          -10.1934054
        ]
      }
    }
  ]
}
