{
  "type": "FeatureCollection",
  "features": [
    {
      "type": "Feature",
      "id": "way/431406409",
      "properties": {
        "timestamp": "2024-12-07T17:53:47Z",
        "version": 3,
        "changeset": 160035196,
        "addr:city": "Paraíso do Tocantins",
        "addr:postcode": "77600-000",
        "addr:street": "Rua Pará",
        "addr:suburb": "Setor Oeste",
        "amenity": "university",
        "name": "UnirG - Universidade de Gurupi - Campus Universitário de Paraíso do Tocantins",
        "nohousenumber": "yes",
        "operator": "UnirG",
        "operator:type": "government",
        "phone": "+55 (63) 3602-2926",
        "website": "http://www.unirg.edu.br/medicina-paraiso",
        "wheelchair": "yes",
        "id": "way/431406409"
      },
      "geometry": {
        "type": "Polygon",
        "coordinates": [
          [
            [
              -48.8914908,
              -10.1806536
            ],
            [
              -48.8909858,
              -10.180388
            ],
            [
              -48.8910591,
              -10.1802531
            ],
            [
              -48.891564,
              -10.1805187
            ],
            [
              -48.8914908,
              -10.1806536
            ]
          ]
        ]
      }
    },
    {
      "type": "Feature",
      "id": "way/1039110017",
      "properties": {
        "timestamp": "2022-03-10T16:26:30Z",
        "version": 2,
        "changeset": 118330647,
        "addr:city": "Paraíso do Tocantins",
        "addr:postcode": "77600-000",
        "addr:suburb": "Santana",
        "amenity": "university",
        "name": "IFTO - Instituto Federal de Educação, Ciência e Tecnologia do Tocantins",
        "phone": "+55 63 3361 0300",
        "id": "way/1039110017"
      },
      "geometry": {
        "type": "Polygon",
        "coordinates": [
          [
            [
              -48.8883628,
              -10.2683739
            ],
            [
              -48.888527,
              -10.2693145
            ],
            [
              -48.8869724,
              -10.2700081
            ],
            [
              -48.8867648,
              -10.2683121
            ],
            [
              -48.8871703,
              -10.2680128
            ],
            [
              -48.8883628,
              -10.2683739
            ]
          ]
        ]
      }
    }
  ]
}
