{
  "type": "FeatureCollection",
  "features": [
    {
      "type": "Feature",
      "id": "way/1025561673",
      "properties": {
        "timestamp": "2022-01-28T16:07:59Z",
        "version": 1,
        "changeset": 116713687,
        "addr:city": "Ribeira do Piauí",
        "addr:postcode": "64725-000",
        "addr:street": "Rua Avelino Borges",
        "addr:suburb": "Centro",
        "amenity": "school",
        "name": "Unid Esc Dep Costa Neto",
        "id": "way/1025561673"
      },
      "geometry": {
        "type": "Polygon",
        "coordinates": [
          [
            [
              -42.7148496,
              -7.6898697
            ],
            [
              -42.7156036,
              -7.6896334
            ],
            [
              -42.7157764,
              -7.6901384
            ],
            [
              -42.715003,
              -7.6903865
            ],
            [
              -42.7148496,
              -7.6898697
            ]
          ]
        ]
      }
    },
    {
      "type": "Feature",
      "id": "way/1025562332",
      "properties": {
        "timestamp": "2022-01-28T16:09:05Z",
        "version": 1,
        "changeset": 116713730,
        "addr:city": "Ribeira do Piauí",
        "addr:postcode": "64725-000",
        "addr:street": "Rua João Pitombeira",
        "addr:suburb": "Centro",
        "amenity": "school",
        "name": "Pre Esc Mae Vicenca",
        "id": "way/1025562332"
      },
      "geometry": {
        "type": "Polygon",
        "coordinates": [
          [
            [
              -42.713551,
              -7.6920968
            ],
            [
              -42.7135522,
              -7.6922698
            ],
            [
              -42.713178,
              -7.6922496
            ],
            [
              -42.7131804,
              -7.6920826
            ],
            [
              -42.713551,
              -7.6920968
            ]
          ]
        ]
      }
    },
    {
      "type": "Feature",
      "id": "node/9453520064",
      "properties": {
        "timestamp": "2022-01-27T18:20:55Z",
        "version": 1,
        "changeset": 116677742,
        "amenity": "school",
        "name": "Creche Vovo Dulce",
        "phone": "+55 89 3534 9061",
        "id": "node/9453520064"
      },
      "geometry": {
        "type": "Point",
        "coordinates": [
          -42.5696945,
          -8.1029221
        ]
      }
    },
    {
      "type": "Feature",
      "id": "node/9455834820",
      "properties": {
        "timestamp": "2022-01-28T16:06:36Z",
        "version": 1,
        "changeset": 116713633,
        "amenity": "school",
        "name": "Grupo Escolar Norberto F Dos Santos",
        "id": "node/9455834820"
      },
      "geometry": {
        "type": "Point",
        "coordinates": [
          -42.717825,
          -7.6911695
        ]
      }
    },
    {
      "type": "Feature",
      "id": "node/9455840925",
      "properties": {
        "timestamp": "2022-01-28T16:09:40Z",
        "version": 1,
        "changeset": 116713773,
        "addr:city": "Ribeira do Piauí",
        "addr:postcode": "64725-000",
        "addr:street": "Avenida Presidente Médici",
        "addr:suburb": "Centro",
        "amenity": "school",
        "name": "Gin Mul Divino Esp Santo",
        "id": "node/9455840925"
      },
      "geometry": {
        "type": "Point",
        "coordinates": [
          -42.7121548,
          -7.6915815
        ]
      }
    }
  ]
}
