{
  "type": "FeatureCollection",
  "features": [
    {
      "type": "Feature",
      "id": "way/993706962",
      "properties": {
        "timestamp": "2024-06-04T01:40:57Z",
        "version": 2,
        "changeset": 152221997,
        "addr:city": "Ouro Preto do Oeste",
        "addr:country": "BR",
        "addr:postcode": "76920-000",
        "addr:state": "RO",
        "addr:street": "Rua do Bosque",
        "addr:suburb": "Bela Floresta",
        "amenity": "library",
        "building": "yes",
        "name": "Biblioteca Municipal",
        "id": "way/993706962"
      },
      "geometry": {
        "type": "Polygon",
        "coordinates": [
          [
            [
              -62.2539336,
              -10.7237393
            ],
            [
              -62.2538827,
              -10.7236699
            ],
            [
              -62.2539673,
              -10.72361
            ],
            [
              -62.2540182,
              -10.7236794
            ],
            [
              -62.2539336,
              -10.7237393
            ]
          ]
        ]
      }
    }
  ]
}
