{
  "type": "FeatureCollection",
  "features": [
    {
      "type": "Feature",
      "id": "node/8301519408",
      "properties": {
        "timestamp": "2021-01-08T02:23:46Z",
        "version": 1,
        "changeset": 97136796,
        "addr:postcode": "06730-000",
        "addr:street": "Rua Jos√© Manoel de Almeida",
        "addr:suburb": "Jardim Europa",
        "amenity": "pharmacy",
        "dispensing": "yes",
        "healthcare": "pharmacy",
        "name": "Drogaria Economize Popular",
        "id": "node/8301519408"
      },
      "geometry": {
        "type": "Point",
        "coordinates": [
          -47.004974,
          -23.6163136
        ]
      }
    },
    {
      "type": "Feature",
      "id": "node/12408318694",
      "properties": {
        "timestamp": "2024-12-09T23:13:34Z",
        "version": 1,
        "changeset": 160110346,
        "addr:street": "Avenida Presidente Tancredo Neves",
        "addr:suburb": "Centro",
        "amenity": "pharmacy",
        "healthcare": "pharmacy",
        "name": "Drogaria Santavenida",
        "id": "node/12408318694"
      },
      "geometry": {
        "type": "Point",
        "coordinates": [
          -47.0221233,
          -23.6059061
        ]
      }
    },
    {
      "type": "Feature",
      "id": "node/12410477167",
      "properties": {
        "timestamp": "2024-12-11T00:08:30Z",
        "version": 1,
        "changeset": 160148124,
        "addr:street": "Avenida Elias Alves da Costa",
        "amenity": "pharmacy",
        "brand": "Farma Conde",
        "brand:wikidata": "Q100492677",
        "healthcare": "pharmacy",
        "name": "Farma Conde",
        "id": "node/12410477167"
      },
      "geometry": {
        "type": "Point",
        "coordinates": [
          -47.0185711,
          -23.6047475
        ]
      }
    }
  ]
}
