{
  "type": "FeatureCollection",
  "features": [
    {
      "type": "Feature",
      "id": "way/474076850",
      "properties": {
        "timestamp": "2018-07-02T15:43:43Z",
        "version": 3,
        "changeset": 60351877,
        "addr:city": "Vargem Grande Paulista",
        "addr:housenumber": "90",
        "addr:postcode": "06730-000",
        "addr:street": "Alameda Angélica",
        "addr:suburb": "Parque Ruth Maria",
        "amenity": "school",
        "email": "embeneditorocha@outlook.com",
        "name": "Escola Municipal Benedito Rocha",
        "phone": "+55 11 4158 5240",
        "id": "way/474076850"
      },
      "geometry": {
        "type": "Polygon",
        "coordinates": [
          [
            [
              -47.0288858,
              -23.5976521
            ],
            [
              -47.0285022,
              -23.5979138
            ],
            [
              -47.0284513,
              -23.5978512
            ],
            [
              -47.0284352,
              -23.5978499
            ],
            [
              -47.0283788,
              -23.5977787
            ],
            [
              -47.0287597,
              -23.5975021
            ],
            [
              -47.0288858,
              -23.5976521
            ]
          ]
        ]
      }
    },
    {
      "type": "Feature",
      "id": "way/474081143",
      "properties": {
        "timestamp": "2021-01-05T17:01:40Z",
        "version": 3,
        "changeset": 96995181,
        "addr:city": "Vargem Grande Paulista",
        "addr:housenumber": "154",
        "addr:postcode": "06730-000",
        "addr:street": "Avenida Fernando de Noronha",
        "addr:suburb": "Jardim Margarida",
        "amenity": "school",
        "contact:phone": "+55 11 4158 2986",
        "name": "Escola Municipal Dilma Cazoto Nascimento",
        "phone": "+55 11) 415 91525",
        "ref": "INEP-35289826",
        "id": "way/474081143"
      },
      "geometry": {
        "type": "Polygon",
        "coordinates": [
          [
            [
              -47.0427867,
              -23.613447
            ],
            [
              -47.0425634,
              -23.6134325
            ],
            [
              -47.042604,
              -23.6131905
            ],
            [
              -47.0428281,
              -23.6131801
            ],
            [
              -47.0428272,
              -23.6132837
            ],
            [
              -47.0428138,
              -23.613388
            ],
            [
              -47.0427867,
              -23.613447
            ]
          ]
        ]
      }
    },
    {
      "type": "Feature",
      "id": "way/474081145",
      "properties": {
        "timestamp": "2021-01-05T16:32:06Z",
        "version": 2,
        "changeset": 96993739,
        "addr:city": "Vargem Grande Paulista",
        "addr:housenumber": "340",
        "addr:postcode": "06730-000",
        "addr:street": "Avenida Fernando de Noronha",
        "addr:suburb": "Jardim Margarida",
        "amenity": "school",
        "contact:phone": "+55 11 4158 3545",
        "email": "e903012A@educacao.sp.gov.br",
        "name": "Escola Estadual Professora Lúcia Helena César",
        "operator": "Secretaria da Educação do Estado de São Paulo",
        "operator:type": "government",
        "phone": "+55 11 4158 2400",
        "ref": "INEP-35903012",
        "id": "way/474081145"
      },
      "geometry": {
        "type": "Polygon",
        "coordinates": [
          [
            [
              -47.0436344,
              -23.6130908
            ],
            [
              -47.04357,
              -23.6135553
            ],
            [
              -47.0430953,
              -23.613489
            ],
            [
              -47.0431382,
              -23.6130343
            ],
            [
              -47.0436344,
              -23.6130908
            ]
          ]
        ]
      }
    },
    {
      "type": "Feature",
      "id": "way/474081793",
      "properties": {
        "timestamp": "2021-01-06T16:34:19Z",
        "version": 5,
        "changeset": 97061616,
        "addr:city": "Vargem Grande paulista",
        "addr:country": "BR",
        "addr:housenumber": "1088",
        "addr:postcode": "06730-000",
        "addr:street": "Rua Doutor Renê Correa",
        "addr:suburb": "Jardim São Lucas",
        "amenity": "school",
        "contact:phone": "+55 11 4158 4876",
        "email": "e906414a@educacao.sp.gov.br",
        "name": "Escola Estadual Jardim São Lucas",
        "operator": "Secretaria da Educação do Estado de São Paulo",
        "operator:type": "government",
        "phone": "+55 11 4158 3989",
        "ref": "INEP-35906414",
        "id": "way/474081793"
      },
      "geometry": {
        "type": "Polygon",
        "coordinates": [
          [
            [
              -47.0154887,
              -23.5945084
            ],
            [
              -47.0155537,
              -23.5944991
            ],
            [
              -47.0156455,
              -23.5946767
            ],
            [
              -47.0158554,
              -23.5949219
            ],
            [
              -47.0160975,
              -23.5950835
            ],
            [
              -47.015317,
              -23.5955235
            ],
            [
              -47.0150407,
              -23.5947836
            ],
            [
              -47.0154887,
              -23.5945084
            ]
          ]
        ]
      }
    },
    {
      "type": "Feature",
      "id": "way/474082010",
      "properties": {
        "timestamp": "2021-01-08T12:39:01Z",
        "version": 4,
        "changeset": 97170614,
        "addr:city": "Vargem Grande paulista",
        "addr:country": "BR",
        "addr:housenumber": "1046",
        "addr:postcode": "06730-000",
        "addr:street": "Rua Doutor Renê Correa",
        "addr:suburb": "Jardim São Lucas",
        "amenity": "school",
        "email": "emjoaquimnovaes@gmail.com",
        "name": "Escola Municipal Joaquim Novaes",
        "phone": "+55 11 4158 1448",
        "ref": "INEP-35241854",
        "id": "way/474082010"
      },
      "geometry": {
        "type": "Polygon",
        "coordinates": [
          [
            [
              -47.0166247,
              -23.5955045
            ],
            [
              -47.0163167,
              -23.595753
            ],
            [
              -47.0159264,
              -23.595312
            ],
            [
              -47.0161613,
              -23.5951563
            ],
            [
              -47.0166247,
              -23.5955045
            ]
          ]
        ]
      }
    },
    {
      "type": "Feature",
      "id": "way/594372601",
      "properties": {
        "timestamp": "2021-01-07T21:44:53Z",
        "version": 6,
        "changeset": 97131676,
        "addr:city": "Vargem Grande Paulista",
        "addr:housenumber": "509",
        "addr:postcode": "06730-000",
        "addr:street": "Rua Professor Valdeoir Campestre",
        "addr:suburb": "Jardim Olímpia",
        "amenity": "school",
        "contact:phone": "+55 11 4158 3677",
        "email": "e010406a@educacao.sp.gov.br",
        "name": "Escola Estadual Valencio Soares Rodrigues",
        "operator": "Secretaria da Educação do Estado de São Paulo",
        "operator:type": "government",
        "phone": "+55 11 4158 1112",
        "ref": "INEP-35010406",
        "id": "way/594372601"
      },
      "geometry": {
        "type": "Polygon",
        "coordinates": [
          [
            [
              -47.0241169,
              -23.6020554
            ],
            [
              -47.0243831,
              -23.6026416
            ],
            [
              -47.0235752,
              -23.6029241
            ],
            [
              -47.0233137,
              -23.6023378
            ],
            [
              -47.0241169,
              -23.6020554
            ]
          ]
        ]
      }
    },
    {
      "type": "Feature",
      "id": "way/604315782",
      "properties": {
        "timestamp": "2021-01-08T01:32:48Z",
        "version": 3,
        "changeset": 97135876,
        "addr:city": "Vargem Grande Paulista",
        "addr:housenumber": "176",
        "addr:postcode": "06730-000",
        "addr:street": "Rua São Paulo das Missões",
        "addr:suburb": "Tijuco Preto",
        "amenity": "school",
        "contact:phone": "+55 11 4158  3945",
        "email": "e010637a@educacao.sp.gov.br",
        "name": "Escola Estadual Paulo Soares da Silva",
        "operator": "Secretaria da Educação do Estado de São Paulo",
        "operator:type": "government",
        "phone": "+55 11 4158 3616",
        "ref": "INEP-35010637",
        "id": "way/604315782"
      },
      "geometry": {
        "type": "Polygon",
        "coordinates": [
          [
            [
              -46.9927953,
              -23.6387038
            ],
            [
              -46.9928597,
              -23.639151
            ],
            [
              -46.9924064,
              -23.6392296
            ],
            [
              -46.9923903,
              -23.6391215
            ],
            [
              -46.9922508,
              -23.6391461
            ],
            [
              -46.9921865,
              -23.6388144
            ],
            [
              -46.9927953,
              -23.6387038
            ]
          ]
        ]
      }
    },
    {
      "type": "Feature",
      "id": "way/621314928",
      "properties": {
        "timestamp": "2021-01-10T01:38:46Z",
        "version": 4,
        "changeset": 97233915,
        "addr:city": "Vargem Grande Paulista",
        "addr:housenumber": "561",
        "addr:postcode": "06730-000",
        "addr:street": "Rua La Paz",
        "addr:suburb": "Jardim Hermínia",
        "amenity": "school",
        "email": "emannita@gmail.com",
        "name": "Escola Municipal Annita Carmelina de Moraes",
        "phone": "+55 11 4159 4248",
        "ref": "INEP-35203300",
        "id": "way/621314928"
      },
      "geometry": {
        "type": "Polygon",
        "coordinates": [
          [
            [
              -47.0236302,
              -23.6006689
            ],
            [
              -47.0233866,
              -23.6006689
            ],
            [
              -47.0234058,
              -23.6008963
            ],
            [
              -47.0233433,
              -23.6009091
            ],
            [
              -47.0231224,
              -23.6003611
            ],
            [
              -47.0234648,
              -23.6002141
            ],
            [
              -47.0235039,
              -23.6002059
            ],
            [
              -47.023537,
              -23.6002141
            ],
            [
              -47.023555,
              -23.6002389
            ],
            [
              -47.023573,
              -23.6002637
            ],
            [
              -47.0236201,
              -23.6004578
            ],
            [
              -47.0236302,
              -23.6006689
            ]
          ]
        ]
      }
    },
    {
      "type": "Feature",
      "id": "way/640432771",
      "properties": {
        "timestamp": "2021-01-08T01:05:45Z",
        "version": 3,
        "changeset": 97135455,
        "addr:city": "Vargem Grande Paulista",
        "addr:housenumber": "91",
        "addr:postcode": "06730-000",
        "addr:street": "Rua Peruíbe",
        "addr:suburb": "Parque do Agreste",
        "amenity": "school",
        "email": "emameliasurin@gmail.com",
        "name": "Escola Municipal Vereadora Amélia Surin",
        "phone": "+55 11 4158 3520",
        "ref": "INEP-35234965",
        "id": "way/640432771"
      },
      "geometry": {
        "type": "Polygon",
        "coordinates": [
          [
            [
              -47.003478,
              -23.6497844
            ],
            [
              -47.003655,
              -23.6504134
            ],
            [
              -47.0036604,
              -23.6505289
            ],
            [
              -47.0036363,
              -23.6505584
            ],
            [
              -47.0035478,
              -23.6505805
            ],
            [
              -47.0034297,
              -23.6506272
            ],
            [
              -47.0032983,
              -23.6506223
            ],
            [
              -47.0031789,
              -23.6502114
            ],
            [
              -47.0030294,
              -23.6498652
            ],
            [
              -47.0030261,
              -23.6497906
            ],
            [
              -47.0031857,
              -23.6498532
            ],
            [
              -47.003478,
              -23.6497844
            ]
          ]
        ]
      }
    },
    {
      "type": "Feature",
      "id": "way/892416789",
      "properties": {
        "timestamp": "2021-01-09T02:04:40Z",
        "version": 2,
        "changeset": 97196730,
        "addr:housenumber": "80",
        "addr:postcode": "06730-970",
        "addr:street": "Rua Cândida Maria Rodrigues dos Santos",
        "addr:suburb": "Cidade Jardim",
        "amenity": "school",
        "email": "escolaaurora@uol.com.br",
        "name": "Escola Aurora",
        "phone": "+55 11 4158 3028",
        "ref": "INEP-35119684",
        "id": "way/892416789"
      },
      "geometry": {
        "type": "Polygon",
        "coordinates": [
          [
            [
              -47.0331888,
              -23.6183347
            ],
            [
              -47.0331668,
              -23.6185609
            ],
            [
              -47.0330081,
              -23.6185407
            ],
            [
              -47.0329948,
              -23.6185852
            ],
            [
              -47.0328008,
              -23.6185609
            ],
            [
              -47.0328052,
              -23.6185084
            ],
            [
              -47.0326289,
              -23.6184922
            ],
            [
              -47.0326289,
              -23.6183832
            ],
            [
              -47.0326377,
              -23.6182862
            ],
            [
              -47.0331888,
              -23.6183347
            ]
          ]
        ]
      }
    },
    {
      "type": "Feature",
      "id": "way/892481940",
      "properties": {
        "timestamp": "2021-01-05T23:28:47Z",
        "version": 2,
        "changeset": 97009691,
        "addr:housenumber": "411",
        "addr:postcode": "06730-000",
        "addr:street": "Rua do Trabalho",
        "addr:suburb": "Portão Vermelho",
        "amenity": "school",
        "email": "emabelferraz@gmail.com",
        "name": "Escola Municipal Abel Ferraz de Souza",
        "phone": "+55 11 4159 4029",
        "ref": "INEP-35210924",
        "id": "way/892481940"
      },
      "geometry": {
        "type": "Polygon",
        "coordinates": [
          [
            [
              -47.0029842,
              -23.6032837
            ],
            [
              -47.0032551,
              -23.6035098
            ],
            [
              -47.002944,
              -23.6036769
            ],
            [
              -47.0027761,
              -23.6034414
            ],
            [
              -47.0029842,
              -23.6032837
            ]
          ]
        ]
      }
    },
    {
      "type": "Feature",
      "id": "way/892485207",
      "properties": {
        "timestamp": "2021-01-05T23:19:49Z",
        "version": 1,
        "changeset": 97009466,
        "addr:housenumber": "150",
        "addr:postcode": "06730-000",
        "addr:street": "Rua Joaquim Soares Rodrigues",
        "addr:suburb": "Portão Vermelho",
        "amenity": "school",
        "email": "emanamaria2006@gmail.com",
        "name": "Escola Municipal Ana Maria Campos de Oliveira",
        "phone": "+55 11 4159 3456",
        "ref": "INEP-35288385",
        "id": "way/892485207"
      },
      "geometry": {
        "type": "Polygon",
        "coordinates": [
          [
            [
              -47.0070478,
              -23.6058997
            ],
            [
              -47.0070869,
              -23.6061763
            ],
            [
              -47.0062238,
              -23.605659
            ],
            [
              -47.0063935,
              -23.6054602
            ],
            [
              -47.0070478,
              -23.6058997
            ]
          ]
        ]
      }
    },
    {
      "type": "Feature",
      "id": "way/892714343",
      "properties": {
        "timestamp": "2021-01-06T15:40:43Z",
        "version": 1,
        "changeset": 97059296,
        "addr:housenumber": "200",
        "addr:postcode": "06730-000",
        "addr:street": "Rua Joaquim Soares Rodrigues",
        "addr:suburb": "Portão Vermelho",
        "amenity": "school",
        "contact:phone": "INEP-41585097",
        "email": "e048148A@educacao.sp.gov.br",
        "name": "Escola Estadual Bacharel Elias Alves da Costa",
        "operator": "Secretaria da Educação do Estado de São Paulo",
        "operator:type": "government",
        "phone": "+55 11 4158 3288",
        "ref": "INEP-35048148",
        "id": "way/892714343"
      },
      "geometry": {
        "type": "Polygon",
        "coordinates": [
          [
            [
              -47.0062185,
              -23.6049348
            ],
            [
              -47.0069964,
              -23.6053231
            ],
            [
              -47.0070527,
              -23.6058663
            ],
            [
              -47.0061354,
              -23.6053182
            ],
            [
              -47.0062185,
              -23.6049348
            ]
          ]
        ]
      }
    },
    {
      "type": "Feature",
      "id": "way/892746385",
      "properties": {
        "timestamp": "2021-01-06T16:50:30Z",
        "version": 1,
        "changeset": 97062254,
        "addr:housenumber": "1000",
        "addr:postcode": "06730-000",
        "addr:street": "Rua Doutor Renê Correa",
        "addr:suburb": "Jardim São Matheus",
        "amenity": "school",
        "email": "vereadorgeraldoveiga@hotmail.com",
        "name": "Escola Municipal Geraldo Veiga",
        "phone": "+55 11 4158 2103",
        "ref": "INEP-35430675",
        "id": "way/892746385"
      },
      "geometry": {
        "type": "Polygon",
        "coordinates": [
          [
            [
              -47.0171405,
              -23.5960036
            ],
            [
              -47.0166228,
              -23.5962568
            ],
            [
              -47.0162312,
              -23.59607
            ],
            [
              -47.0167435,
              -23.5956447
            ],
            [
              -47.0171405,
              -23.5960036
            ]
          ]
        ]
      }
    },
    {
      "type": "Feature",
      "id": "way/893073352",
      "properties": {
        "timestamp": "2021-01-07T15:16:36Z",
        "version": 1,
        "changeset": 97117472,
        "addr:housenumber": "104",
        "addr:postcode": "06730-000",
        "addr:suburb": "São Judas Tadeu",
        "amenity": "school",
        "contact:phone": "+55 11 4158 1994",
        "email": "e010534A@educacao.sp.gov.br",
        "name": "Escola Estadual Professor Orlando Ellero",
        "operator": "Secretaria da Edcação do Estado de São Paulo",
        "operator:type": "government",
        "phone": "+55 11 4158 1460",
        "ref": "INEP-35010534",
        "id": "way/893073352"
      },
      "geometry": {
        "type": "Polygon",
        "coordinates": [
          [
            [
              -47.007418,
              -23.6126163
            ],
            [
              -47.0071587,
              -23.6131932
            ],
            [
              -47.0066976,
              -23.612813
            ],
            [
              -47.006802,
              -23.6127219
            ],
            [
              -47.0070275,
              -23.61278
            ],
            [
              -47.0070737,
              -23.6126097
            ],
            [
              -47.0070895,
              -23.6125463
            ],
            [
              -47.007418,
              -23.6126163
            ]
          ]
        ]
      }
    },
    {
      "type": "Feature",
      "id": "way/893073353",
      "properties": {
        "timestamp": "2021-01-07T15:32:10Z",
        "version": 3,
        "changeset": 97118184,
        "addr:housenumber": "239",
        "addr:postcode": "06730-000",
        "addr:street": "Rua João XXIII",
        "addr:suburb": "São Judas Tadeu",
        "amenity": "school",
        "contact:phone": "+55 11 4158 2883",
        "email": "emleontina@ig.com.br",
        "name": "Escola Municipal Professora Leontina Correa Guerin",
        "phone": "+55 11 4159 2700",
        "ref": "INEP-35444248",
        "id": "way/893073353"
      },
      "geometry": {
        "type": "Polygon",
        "coordinates": [
          [
            [
              -47.0070626,
              -23.6125203
            ],
            [
              -47.0069978,
              -23.6127487
            ],
            [
              -47.0067773,
              -23.6126933
            ],
            [
              -47.006675,
              -23.6127844
            ],
            [
              -47.0064675,
              -23.6125956
            ],
            [
              -47.0066289,
              -23.6124384
            ],
            [
              -47.0070626,
              -23.6125203
            ]
          ]
        ]
      }
    },
    {
      "type": "Feature",
      "id": "way/893168620",
      "properties": {
        "timestamp": "2021-01-07T22:09:28Z",
        "version": 1,
        "changeset": 97132369,
        "addr:housenumber": "5001",
        "addr:postcode": "06730-000",
        "addr:street": "Estrada Prefeito Ivo Mário Isaac Pires",
        "addr:suburb": "Parque Agreste",
        "amenity": "school",
        "contact:phone": "+55 11 4158 5907",
        "email": "e924313A@educacao.sp.gov.br",
        "name": "Escola Estadual Laércio Surim",
        "operator": "Secretaria da Educação do Estado de São Paulo",
        "operator:type": "government",
        "phone": "+55 11  4158 5533",
        "ref": "INEP-35924313",
        "id": "way/893168620"
      },
      "geometry": {
        "type": "Polygon",
        "coordinates": [
          [
            [
              -46.9956088,
              -23.6494676
            ],
            [
              -46.9957322,
              -23.6499639
            ],
            [
              -46.9952708,
              -23.6504357
            ],
            [
              -46.994906,
              -23.6501531
            ],
            [
              -46.9956088,
              -23.6494676
            ]
          ]
        ]
      }
    },
    {
      "type": "Feature",
      "id": "way/893170920",
      "properties": {
        "timestamp": "2021-01-07T22:25:23Z",
        "version": 1,
        "changeset": 97132772,
        "addr:housenumber": "234",
        "addr:postcode": "06730-000",
        "addr:street": "Avenida Embuia",
        "addr:suburb": "Jardim Floresta",
        "amenity": "school",
        "contact:phone": "+55 11 4158 5079",
        "email": "e036663A@educacao.sp.gov.br",
        "name": "Escola Estadual Leonardo Soares Rodrigues",
        "operator": "Secretaria da Educação do Estado de São Paulo",
        "operator:type": "government",
        "phone": "+55 11 4158 3481",
        "ref": "INEP-35036663",
        "id": "way/893170920"
      },
      "geometry": {
        "type": "Polygon",
        "coordinates": [
          [
            [
              -47.0288823,
              -23.6070413
            ],
            [
              -47.0289118,
              -23.6072993
            ],
            [
              -47.0286167,
              -23.6075598
            ],
            [
              -47.0286328,
              -23.6078818
            ],
            [
              -47.0278577,
              -23.6080809
            ],
            [
              -47.0278952,
              -23.6070118
            ],
            [
              -47.0279221,
              -23.6069675
            ],
            [
              -47.0279596,
              -23.6070191
            ],
            [
              -47.0280213,
              -23.6069896
            ],
            [
              -47.0279891,
              -23.6069405
            ],
            [
              -47.0288823,
              -23.6070413
            ]
          ]
        ]
      }
    },
    {
      "type": "Feature",
      "id": "way/893195470",
      "properties": {
        "timestamp": "2022-02-16T19:22:40Z",
        "version": 4,
        "changeset": 117490585,
        "addr:housenumber": "700",
        "addr:postcode": "06730-000",
        "addr:street": "Rua José Manoel de Almeida",
        "addr:suburb": "Jardim Europa",
        "amenity": "school",
        "contact:mobile": "+55 11 99999 1950",
        "email": "recepcao@olmnatacao.com.br",
        "fee": "yes",
        "name": "OLM Natação",
        "opening_hours": "Mo-Fr 06:00-21:00; Sa 09:00-13:00; PH Su off",
        "phone": "+55 11 4559 0494",
        "website": "https://olmnatacao.com.br/",
        "id": "way/893195470"
      },
      "geometry": {
        "type": "Polygon",
        "coordinates": [
          [
            [
              -47.0065862,
              -23.6167635
            ],
            [
              -47.0067414,
              -23.6169151
            ],
            [
              -47.0064793,
              -23.6171646
            ],
            [
              -47.006507,
              -23.6172402
            ],
            [
              -47.0064128,
              -23.6173102
            ],
            [
              -47.006336,
              -23.6172919
            ],
            [
              -47.0062731,
              -23.6170294
            ],
            [
              -47.006324,
              -23.6170149
            ],
            [
              -47.0065862,
              -23.6167635
            ]
          ]
        ]
      }
    },
    {
      "type": "Feature",
      "id": "way/893338033",
      "properties": {
        "timestamp": "2021-01-08T13:13:50Z",
        "version": 2,
        "changeset": 97172377,
        "addr:housenumber": "1300",
        "addr:postcode": "06730-000",
        "addr:street": "Rua José Manoel de Oliveira",
        "addr:suburb": "Tanque Velho",
        "amenity": "school",
        "email": "contato@escolacooperativavgp.com.br",
        "name": "Escola Cooperativa Vargem Grande Paulista",
        "operator": "Cooperativa Educacional de Vargem Grande Paulista",
        "operator:type": "private",
        "phone": "+55 11 4158 6078",
        "ref": "INEP-35159554",
        "start_date": "1998-02-16",
        "website": "http://www.escolacooperativavgp.com.br/",
        "id": "way/893338033"
      },
      "geometry": {
        "type": "Polygon",
        "coordinates": [
          [
            [
              -47.0171845,
              -23.6146611
            ],
            [
              -47.0168071,
              -23.6149968
            ],
            [
              -47.016282,
              -23.6142752
            ],
            [
              -47.0166963,
              -23.6139056
            ],
            [
              -47.0171845,
              -23.6146611
            ]
          ]
        ]
      }
    },
    {
      "type": "Feature",
      "id": "way/893366694",
      "properties": {
        "timestamp": "2021-01-13T13:45:08Z",
        "version": 2,
        "changeset": 97446118,
        "addr:housenumber": "2910",
        "addr:postcode": "06730-000",
        "addr:street": "Rua José Manoel de Almeida",
        "addr:suburb": "das Lages",
        "amenity": "school",
        "contact:mobile": "+55 12 97627 7669",
        "email": "jamile@colegioespaçopaysage.com.br",
        "name": "Colégio Espaço Paysage",
        "old_name": "Colégio Urbano",
        "phone": "+55 11 4159 8061",
        "ref": "INEP-35482870",
        "id": "way/893366694"
      },
      "geometry": {
        "type": "Polygon",
        "coordinates": [
          [
            [
              -47.010327,
              -23.6356065
            ],
            [
              -47.0100695,
              -23.6362085
            ],
            [
              -47.0096745,
              -23.6358771
            ],
            [
              -47.0096827,
              -23.6356621
            ],
            [
              -47.0095698,
              -23.6353995
            ],
            [
              -47.0097878,
              -23.6353412
            ],
            [
              -47.0098562,
              -23.6351778
            ],
            [
              -47.0099944,
              -23.6350881
            ],
            [
              -47.0100798,
              -23.6352135
            ],
            [
              -47.0101363,
              -23.6353785
            ],
            [
              -47.010327,
              -23.6356065
            ]
          ]
        ]
      }
    },
    {
      "type": "Feature",
      "id": "way/893576435",
      "properties": {
        "timestamp": "2021-01-09T02:17:05Z",
        "version": 1,
        "changeset": 97196842,
        "addr:housenumber": "90",
        "addr:postcode": "06730-000",
        "addr:street": "Travessa José Manoel de Oliveira",
        "addr:suburb": "Centro",
        "amenity": "school",
        "contact:mobile": "+55 11 98778 9578",
        "denomination": "baptist",
        "email": "ibeescolabatista@gmail.com",
        "name": "Instituto Batista de Educação",
        "phone": "+55 11 94502 4893",
        "ref": "INEP-35004110",
        "religion": "christian",
        "website": "https://ibeescolabatista.webnode.com/",
        "id": "way/893576435"
      },
      "geometry": {
        "type": "Polygon",
        "coordinates": [
          [
            [
              -47.0218923,
              -23.6080649
            ],
            [
              -47.0217229,
              -23.6082988
            ],
            [
              -47.0215304,
              -23.6081761
            ],
            [
              -47.0218128,
              -23.6079365
            ],
            [
              -47.0219258,
              -23.6080074
            ],
            [
              -47.0218923,
              -23.6080649
            ]
          ]
        ]
      }
    },
    {
      "type": "Feature",
      "id": "way/893822459",
      "properties": {
        "timestamp": "2021-01-09T23:38:26Z",
        "version": 1,
        "changeset": 97232402,
        "addr:housenumber": "1915",
        "addr:postcode": "06730-000",
        "addr:street": "Estrada do Matão",
        "addr:suburb": "Narita Garden",
        "amenity": "school",
        "email": "e.m.jessicayukari@gmail.com",
        "name": "Escola Municipal Jéssica Yukari Assami",
        "phone": "+55 11 4159 2256",
        "ref": "INEP-35203294",
        "id": "way/893822459"
      },
      "geometry": {
        "type": "Polygon",
        "coordinates": [
          [
            [
              -47.0217859,
              -23.6219173
            ],
            [
              -47.0218771,
              -23.6220721
            ],
            [
              -47.0217832,
              -23.6221237
            ],
            [
              -47.0216571,
              -23.6219787
            ],
            [
              -47.0217859,
              -23.6219173
            ]
          ]
        ]
      }
    },
    {
      "type": "Feature",
      "id": "way/893835853",
      "properties": {
        "timestamp": "2023-09-13T16:32:57Z",
        "version": 2,
        "changeset": 141219917,
        "addr:housenumber": "720",
        "addr:postcode": "06730-000",
        "addr:street": "Alameda dos Industriais",
        "addr:suburb": "Jardim Europa",
        "amenity": "school",
        "email": "escolajoaocamargoribeiro@gmail.com",
        "name": "Escola Municipal João Camargo Ribeiro",
        "phone": "+55 11 4158 2195",
        "ref": "INEP-35227778",
        "id": "way/893835853"
      },
      "geometry": {
        "type": "Polygon",
        "coordinates": [
          [
            [
              -47.0030135,
              -23.6201315
            ],
            [
              -47.0029965,
              -23.6201771
            ],
            [
              -47.0027063,
              -23.6200857
            ],
            [
              -47.0029026,
              -23.6196239
            ],
            [
              -47.0030873,
              -23.6196983
            ],
            [
              -47.0031531,
              -23.619794
            ],
            [
              -47.0030135,
              -23.6201315
            ]
          ]
        ]
      }
    },
    {
      "type": "Feature",
      "id": "way/893845107",
      "properties": {
        "timestamp": "2021-01-10T02:11:36Z",
        "version": 1,
        "changeset": 97234200,
        "addr:housenumber": "500",
        "addr:postcode": "06730-000",
        "addr:street": "Rua Amaralina",
        "addr:suburb": "Parque do Agreste",
        "amenity": "school",
        "email": "parqueagreste@gmail.com",
        "name": "Escola Municipal Parque do Agreste",
        "phone": "+55 11  4159 2121",
        "ref": "INEP-35287787",
        "id": "way/893845107"
      },
      "geometry": {
        "type": "Polygon",
        "coordinates": [
          [
            [
              -46.9998551,
              -23.6491655
            ],
            [
              -46.9997524,
              -23.6495153
            ],
            [
              -46.999385,
              -23.6493924
            ],
            [
              -46.9994037,
              -23.6493556
            ],
            [
              -46.9998551,
              -23.6491655
            ]
          ]
        ]
      }
    },
    {
      "type": "Feature",
      "id": "way/893969070",
      "properties": {
        "timestamp": "2021-01-10T16:32:38Z",
        "version": 1,
        "changeset": 97255495,
        "addr:housenumber": "42",
        "addr:postcode": "06730-000",
        "addr:street": "Rua Irará",
        "addr:suburb": "Jardim Bela Vista",
        "amenity": "school",
        "name": "Escola Municipal Paulo Ramos de Almeida",
        "phone": "+55 11 4159 3257",
        "ref": "INEP-35210912",
        "id": "way/893969070"
      },
      "geometry": {
        "type": "Polygon",
        "coordinates": [
          [
            [
              -47.0184848,
              -23.6084066
            ],
            [
              -47.0184727,
              -23.6087651
            ],
            [
              -47.0183133,
              -23.608816
            ],
            [
              -47.018236,
              -23.6087098
            ],
            [
              -47.0182746,
              -23.6085903
            ],
            [
              -47.0182891,
              -23.6083845
            ],
            [
              -47.0184848,
              -23.6084066
            ]
          ]
        ]
      }
    },
    {
      "type": "Feature",
      "id": "way/893970442",
      "properties": {
        "timestamp": "2021-01-10T16:41:23Z",
        "version": 1,
        "changeset": 97255831,
        "addr:housenumber": "100",
        "addr:postcode": "06730-000",
        "addr:street": "Estrada Luiz Mourão",
        "addr:suburb": "Matão",
        "amenity": "school",
        "email": "angelinoangelorodrigues@hotmail.com",
        "name": "Escola Municipal Angelino Ângelo Rodrigues",
        "phone": "+55 11 4158 5167",
        "id": "way/893970442"
      },
      "geometry": {
        "type": "Polygon",
        "coordinates": [
          [
            [
              -47.0267581,
              -23.6118563
            ],
            [
              -47.0265382,
              -23.6122299
            ],
            [
              -47.0261788,
              -23.612134
            ],
            [
              -47.0259521,
              -23.6120505
            ],
            [
              -47.0257684,
              -23.6120357
            ],
            [
              -47.0257899,
              -23.6115294
            ],
            [
              -47.0264202,
              -23.6117261
            ],
            [
              -47.0267581,
              -23.6118563
            ]
          ]
        ]
      }
    },
    {
      "type": "Feature",
      "id": "way/893979350",
      "properties": {
        "timestamp": "2021-01-10T17:17:58Z",
        "version": 1,
        "changeset": 97257108,
        "addr:housenumber": "60",
        "addr:postcode": "06730-000",
        "addr:street": "Praça Vereadora Ângela Surin",
        "addr:suburb": "Tijuco Preto",
        "amenity": "school",
        "email": "emantoniaxavier@gmail.com",
        "name": "Escola Municipal Antônia Xavier de Lima",
        "phone": "+55 11 4159 2103",
        "ref": "INEP-35268823",
        "id": "way/893979350"
      },
      "geometry": {
        "type": "Polygon",
        "coordinates": [
          [
            [
              -46.9950851,
              -23.6398375
            ],
            [
              -46.9949858,
              -23.6405095
            ],
            [
              -46.9949778,
              -23.640598
            ],
            [
              -46.9946881,
              -23.6406619
            ],
            [
              -46.9944977,
              -23.6397478
            ],
            [
              -46.9950851,
              -23.6398375
            ]
          ]
        ]
      }
    },
    {
      "type": "Feature",
      "id": "way/893987422",
      "properties": {
        "timestamp": "2021-01-10T17:48:11Z",
        "version": 1,
        "changeset": 97258160,
        "addr:housenumber": "27",
        "addr:postcode": "06730-000",
        "addr:street": "Rua Camarão",
        "addr:suburb": "Capela São Pedro",
        "amenity": "school",
        "email": "escolagenediodaluznovaesS@gmail.com",
        "name": "Escola Municipal Genèsio da Luz Novaes",
        "phone": "+55 11  4159 2386",
        "ref": "INEP-35216094",
        "id": "way/893987422"
      },
      "geometry": {
        "type": "Polygon",
        "coordinates": [
          [
            [
              -47.0064625,
              -23.5840149
            ],
            [
              -47.0068119,
              -23.5842565
            ],
            [
              -47.0068203,
              -23.5842738
            ],
            [
              -47.0066069,
              -23.5844482
            ],
            [
              -47.006291,
              -23.5841741
            ],
            [
              -47.0064625,
              -23.5840149
            ]
          ]
        ]
      }
    },
    {
      "type": "Feature",
      "id": "way/895006038",
      "properties": {
        "timestamp": "2021-01-13T17:10:15Z",
        "version": 1,
        "changeset": 97455997,
        "addr:housenumber": "387",
        "addr:postcode": "06730-000",
        "addr:street": "Rua dos Encanadores",
        "amenity": "school",
        "denomination": "presbyterian",
        "name": "Logos Instituto Presbeteriano Educacional",
        "phone": "+55 11  4159 1756",
        "ref": "INEP-35482894",
        "religion": "christian",
        "id": "way/895006038"
      },
      "geometry": {
        "type": "Polygon",
        "coordinates": [
          [
            [
              -47.0053413,
              -23.6188894
            ],
            [
              -47.0053882,
              -23.6188835
            ],
            [
              -47.0054074,
              -23.6189207
            ],
            [
              -47.0054607,
              -23.6190555
            ],
            [
              -47.0053221,
              -23.6190653
            ],
            [
              -47.0053157,
              -23.6190907
            ],
            [
              -47.0051685,
              -23.6191024
            ],
            [
              -47.0051707,
              -23.6188972
            ],
            [
              -47.0053413,
              -23.6188894
            ]
          ]
        ]
      }
    },
    {
      "type": "Feature",
      "id": "way/1245167801",
      "properties": {
        "timestamp": "2024-02-01T06:10:27Z",
        "version": 1,
        "changeset": 146931786,
        "addr:city": "Vargem Grande Paulista",
        "addr:street": "Rua Maria de Oliveira",
        "amenity": "school",
        "id": "way/1245167801"
      },
      "geometry": {
        "type": "Polygon",
        "coordinates": [
          [
            [
              -47.0292663,
              -23.6075344
            ],
            [
              -47.0293864,
              -23.6076506
            ],
            [
              -47.029298,
              -23.6077273
            ],
            [
              -47.0291779,
              -23.6076111
            ],
            [
              -47.0292663,
              -23.6075344
            ]
          ]
        ]
      }
    },
    {
      "type": "Feature",
      "id": "way/1245167802",
      "properties": {
        "timestamp": "2024-02-01T06:10:27Z",
        "version": 1,
        "changeset": 146931786,
        "addr:city": "Vargem Grande Paulista",
        "addr:street": "Rua Maria de Oliveira",
        "amenity": "school",
        "id": "way/1245167802"
      },
      "geometry": {
        "type": "Polygon",
        "coordinates": [
          [
            [
              -47.029317,
              -23.6075071
            ],
            [
              -47.0294759,
              -23.6073705
            ],
            [
              -47.0295011,
              -23.6073951
            ],
            [
              -47.0293422,
              -23.6075317
            ],
            [
              -47.029317,
              -23.6075071
            ]
          ]
        ]
      }
    },
    {
      "type": "Feature",
      "id": "way/1245167803",
      "properties": {
        "timestamp": "2024-02-01T06:10:27Z",
        "version": 1,
        "changeset": 146931786,
        "addr:city": "Vargem Grande Paulista",
        "addr:street": "Rua Maria de Oliveira",
        "amenity": "school",
        "id": "way/1245167803"
      },
      "geometry": {
        "type": "Polygon",
        "coordinates": [
          [
            [
              -47.0293642,
              -23.6073633
            ],
            [
              -47.0293535,
              -23.6074588
            ],
            [
              -47.029235,
              -23.6074475
            ],
            [
              -47.0292457,
              -23.6073521
            ],
            [
              -47.0293642,
              -23.6073633
            ]
          ]
        ]
      }
    }
  ]
}
