{
  "type": "FeatureCollection",
  "features": [
    {
      "type": "Feature",
      "id": "way/474080016",
      "properties": {
        "timestamp": "2017-02-12T01:42:06Z",
        "version": 1,
        "changeset": 46010416,
        "addr:city": "Vargem Grande Paulista",
        "addr:street": "Rua Madagascar",
        "addr:suburb": "Jardim Margarida",
        "amenity": "veterinary",
        "building": "yes",
        "name": "Clinica Veterinaria Lavet",
        "id": "way/474080016"
      },
      "geometry": {
        "type": "Polygon",
        "coordinates": [
          [
            [
              -47.0409066,
              -23.6150678
            ],
            [
              -47.0408824,
              -23.6150285
            ],
            [
              -47.0409924,
              -23.614972
            ],
            [
              -47.0410165,
              -23.6150113
            ],
            [
              -47.0409066,
              -23.6150678
            ]
          ]
        ]
      }
    },
    {
      "type": "Feature",
      "id": "way/893441237",
      "properties": {
        "timestamp": "2021-01-08T20:45:54Z",
        "version": 1,
        "changeset": 97189920,
        "addr:postcode": "06730-000",
        "addr:street": "Rua José Manoel de Almeida",
        "addr:suburb": "das Lages",
        "amenity": "veterinary",
        "building": "yes",
        "contact:mobile": "+55 11 96098 6373",
        "contact:phone": "+55 11  4559 0631",
        "email": "contato@clinicapetvip.com.br",
        "name": "Clinica Veterinária Pet Vip",
        "opening_hours": "Mo-Sa 09:00-18:00; Su,Ph off",
        "phone": "+55 11  4559 0629",
        "website": "https://www.clinicapetvip.com.br/home",
        "id": "way/893441237"
      },
      "geometry": {
        "type": "Polygon",
        "coordinates": [
          [
            [
              -47.0092397,
              -23.6208424
            ],
            [
              -47.0091712,
              -23.6210308
            ],
            [
              -47.0091125,
              -23.6210039
            ],
            [
              -47.0091745,
              -23.6208335
            ],
            [
              -47.0092397,
              -23.6208424
            ]
          ]
        ]
      }
    },
    {
      "type": "Feature",
      "id": "way/1341940299",
      "properties": {
        "timestamp": "2024-12-11T21:07:32Z",
        "version": 1,
        "changeset": 160185458,
        "addr:street": "Avenida Geraldo dos Santos",
        "amenity": "veterinary",
        "building": "yes",
        "mobile": "+55 11 93468 3458",
        "name": "Clinica Veterinária Popular",
        "operator": "Organização dos Protetores de Animais",
        "id": "way/1341940299"
      },
      "geometry": {
        "type": "Polygon",
        "coordinates": [
          [
            [
              -47.0082634,
              -23.6070796
            ],
            [
              -47.0082878,
              -23.6071829
            ],
            [
              -47.00814,
              -23.6072178
            ],
            [
              -47.0081171,
              -23.6071159
            ],
            [
              -47.0082634,
              -23.6070796
            ]
          ]
        ]
      }
    }
  ]
}
