{
  "type": "FeatureCollection",
  "features": [
    {
      "type": "Feature",
      "id": "way/495708207",
      "properties": {
        "timestamp": "2022-10-19T14:26:48Z",
        "version": 3,
        "changeset": 127786230,
        "addr:city": "Gonzaga",
        "addr:housenumber": "16",
        "addr:postcode": "39720-000",
        "addr:street": "Rua Padre Thiago",
        "addr:suburb": "Conceição da Brejaúba",
        "amenity": "school",
        "name": "Escola Estadual Oswaldo Rabelo Leite",
        "id": "way/495708207"
      },
      "geometry": {
        "type": "Polygon",
        "coordinates": [
          [
            [
              -42.4742539,
              -18.8719657
            ],
            [
              -42.4743109,
              -18.8724317
            ],
            [
              -42.4739597,
              -18.8724701
            ],
            [
              -42.4739027,
              -18.8720042
            ],
            [
              -42.4742539,
              -18.8719657
            ]
          ]
        ]
      }
    },
    {
      "type": "Feature",
      "id": "node/3765360109",
      "properties": {
        "timestamp": "2022-10-19T11:55:55Z",
        "version": 3,
        "changeset": 127778200,
        "addr:city": "Gonzaga",
        "addr:housenumber": "589",
        "addr:postcode": "39720-000",
        "addr:street": "Rua Antônio Perpétuo",
        "addr:suburb": "Centro",
        "amenity": "school",
        "name": "Escola Estadual São Sebastião",
        "operator": "Estado de Minas Gerais",
        "operator:type": "public",
        "id": "node/3765360109"
      },
      "geometry": {
        "type": "Point",
        "coordinates": [
          -42.4816083,
          -18.817597
        ]
      }
    },
    {
      "type": "Feature",
      "id": "node/10113795477",
      "properties": {
        "timestamp": "2022-10-19T11:01:41Z",
        "version": 1,
        "changeset": 127775007,
        "addr:city": "Gonzaga",
        "addr:housenumber": "430",
        "addr:postcode": "39720-000",
        "addr:street": "Rua Antônio Perpétuo",
        "addr:suburb": "Centro",
        "amenity": "school",
        "name": "Centro de Educação Infamtil Turminha da Mônica",
        "operator": "Município de Gonzaga",
        "operator:type": "public",
        "id": "node/10113795477"
      },
      "geometry": {
        "type": "Point",
        "coordinates": [
          -42.4813442,
          -18.8187063
        ]
      }
    },
    {
      "type": "Feature",
      "id": "node/10113795504",
      "properties": {
        "timestamp": "2022-10-19T11:01:41Z",
        "version": 1,
        "changeset": 127775007,
        "addr:city": "Gonzaga",
        "addr:housenumber": "05",
        "addr:postcode": "39720-000",
        "addr:street": "Rua José Cirilo de Medeiros",
        "addr:suburb": "Centro",
        "amenity": "school",
        "email": "sme.gonzaga@yahoo.com.br",
        "name": "Escola Municipal Professora Esmeralda",
        "operator": "Município de Gonzaga",
        "operator:type": "public",
        "id": "node/10113795504"
      },
      "geometry": {
        "type": "Point",
        "coordinates": [
          -42.4836211,
          -18.8195757
        ]
      }
    },
    {
      "type": "Feature",
      "id": "node/10114165972",
      "properties": {
        "timestamp": "2022-10-19T13:21:14Z",
        "version": 1,
        "changeset": 127783239,
        "addr:city": "Gonzaga",
        "addr:hamlet": "Palmital",
        "addr:postcode": "39720-000",
        "addr:state": "Minas Gerais",
        "amenity": "school",
        "name": "Escola Municipal Francisco Dias",
        "operator": "Município de Gonzaga",
        "id": "node/10114165972"
      },
      "geometry": {
        "type": "Point",
        "coordinates": [
          -42.5501937,
          -18.9007343
        ]
      }
    },
    {
      "type": "Feature",
      "id": "node/10114319251",
      "properties": {
        "timestamp": "2022-10-19T14:26:48Z",
        "version": 1,
        "changeset": 127786230,
        "addr:city": "Gonzaga",
        "addr:postcode": "39720-000",
        "addr:suburb": "Cabeceira da Brejaúba",
        "amenity": "school",
        "name": "Escola Municipal Raul Soares",
        "operator": "Município de Gonzaga",
        "operator:type": "public",
        "id": "node/10114319251"
      },
      "geometry": {
        "type": "Point",
        "coordinates": [
          -42.5556604,
          -18.8042319
        ]
      }
    },
    {
      "type": "Feature",
      "id": "node/10115245080",
      "properties": {
        "timestamp": "2022-10-19T22:13:11Z",
        "version": 1,
        "changeset": 127809853,
        "addr:city": "Gonzaga",
        "addr:postcode": "39720-000",
        "addr:suburb": "Córrego do Raquel",
        "amenity": "school",
        "name": "Escola Municipal Nossa Senhora Aparecida",
        "id": "node/10115245080"
      },
      "geometry": {
        "type": "Point",
        "coordinates": [
          -42.4799594,
          -18.9047265
        ]
      }
    }
  ]
}
