{
  "type": "FeatureCollection",
  "features": [
    {
      "type": "Feature",
      "id": "way/1234585556",
      "properties": {
        "timestamp": "2024-01-17T03:39:17Z",
        "version": 2,
        "changeset": 146345529,
        "addr:city": "Palmópolis",
        "addr:postcode": "39945-000",
        "addr:street": "Praça Joaquim Almirante de Oliveira",
        "addr:suburb": "Planalto",
        "amenity": "clinic",
        "building": "yes",
        "building:levels": "1",
        "healthcare": "clinic",
        "healthcare:speciality": "general",
        "name": "Unidade Básica de Saúde Professora Eutalia Dias Neves",
        "operator": "Município de Palmópolis",
        "operator:type": "public",
        "phone": "+55 33 3744 9110",
        "wikidata": "Q124303354",
        "id": "way/1234585556"
      },
      "geometry": {
        "type": "Polygon",
        "coordinates": [
          [
            [
              -40.4227842,
              -16.7429406
            ],
            [
              -40.4227358,
              -16.7430154
            ],
            [
              -40.4226456,
              -16.7429618
            ],
            [
              -40.4226178,
              -16.7430048
            ],
            [
              -40.4224169,
              -16.7428855
            ],
            [
              -40.422447,
              -16.7428391
            ],
            [
              -40.4224019,
              -16.7428123
            ],
            [
              -40.422437,
              -16.7427582
            ],
            [
              -40.4225087,
              -16.7428008
            ],
            [
              -40.4225023,
              -16.7428107
            ],
            [
              -40.4225848,
              -16.7428597
            ],
            [
              -40.4226024,
              -16.7428326
            ],
            [
              -40.4227842,
              -16.7429406
            ]
          ]
        ]
      }
    },
    {
      "type": "Feature",
      "id": "node/11396058827",
      "properties": {
        "timestamp": "2023-12-05T13:20:20Z",
        "version": 1,
        "changeset": 144791808,
        "addr:city": "Dois de Abril",
        "addr:district": "Dois de Abril",
        "addr:postcode": "39945-000",
        "addr:street": "Rua Fortunato Pereira",
        "addr:suburb": "Centro",
        "amenity": "clinic",
        "healthcare": "clinic",
        "healthcare:speciality": "general",
        "name": "Unidade Básica de Saúde Modesta Ferreira da Cruz",
        "operator": "Município de Palmópolis",
        "operator:type": "public",
        "id": "node/11396058827"
      },
      "geometry": {
        "type": "Point",
        "coordinates": [
          -40.317283,
          -16.8426725
        ]
      }
    }
  ]
}
