{
  "type": "FeatureCollection",
  "features": [
    {
      "type": "Feature",
      "id": "way/492878429",
      "properties": {
        "timestamp": "2024-09-08T22:52:43Z",
        "version": 4,
        "changeset": 156371522,
        "addr:city": "Suzano",
        "addr:housenumber": "550",
        "addr:postcode": "08673-270",
        "addr:street": "Avenida Senador Roberto Simonsen",
        "addr:suburb": "Jardim Imperador",
        "amenity": "college",
        "email": "susuzano@sesisp.org.br",
        "name": "Centro de Atividades Max Feffer",
        "operator": "Serviço Social da Indústria",
        "operator:type": "private_non_profit",
        "phone": "+55 11 4741 9650",
        "short_name": "SESI Suzano",
        "website": "https://suzano.sesisp.org.br/",
        "id": "way/492878429"
      },
      "geometry": {
        "type": "Polygon",
        "coordinates": [
          [
            [
              -46.3217169,
              -23.5335887
            ],
            [
              -46.3223046,
              -23.5350151
            ],
            [
              -46.3230449,
              -23.5347587
            ],
            [
              -46.3235025,
              -23.5359198
            ],
            [
              -46.3234659,
              -23.5359737
            ],
            [
              -46.3220928,
              -23.5364666
            ],
            [
              -46.3218038,
              -23.5357489
            ],
            [
              -46.3212608,
              -23.5359235
            ],
            [
              -46.3204997,
              -23.5340102
            ],
            [
              -46.3217169,
              -23.5335887
            ]
          ]
        ]
      }
    }
  ]
}
