{
  "type": "FeatureCollection",
  "features": [
    {
      "type": "Feature",
      "id": "way/882128777",
      "properties": {
        "timestamp": "2022-04-09T03:37:20Z",
        "version": 3,
        "changeset": 119490469,
        "addr:housenumber": "125  23",
        "addr:street": "Estrada Variante da SP-031",
        "addr:suburb": "Recanto Bela Vista",
        "amenity": "pharmacy",
        "building": "yes",
        "contact:phone": "+55 11 4742 6631",
        "dispensing": "yes",
        "drive_through": "no",
        "healthcare": "pharmacy",
        "name": "Drogaria Palmeiras",
        "phone": "+55 11 4742 6100",
        "id": "way/882128777"
      },
      "geometry": {
        "type": "Polygon",
        "coordinates": [
          [
            [
              -46.3228126,
              -23.6448855
            ],
            [
              -46.3226232,
              -23.6449863
            ],
            [
              -46.3225887,
              -23.6449244
            ],
            [
              -46.3227673,
              -23.6448167
            ],
            [
              -46.3228126,
              -23.6448855
            ]
          ]
        ]
      }
    },
    {
      "type": "Feature",
      "id": "way/903809145",
      "properties": {
        "timestamp": "2022-04-05T13:30:22Z",
        "version": 3,
        "changeset": 119344886,
        "addr:city": "Suzano",
        "addr:housenumber": "1674",
        "addr:postcode": "08676-420",
        "addr:street": "Avenida Antônio Marques Figueira",
        "addr:suburb": "Vila Figueira",
        "amenity": "pharmacy",
        "building": "yes",
        "building:levels": "2",
        "dispensing": "yes",
        "drive_through": "no",
        "healthcare": "pharmacy",
        "name": "Fazafarma",
        "opening_hours": "Mo-Sa 08:00-20:00; Su,PH off",
        "phone": "+55 11 2891 3419",
        "id": "way/903809145"
      },
      "geometry": {
        "type": "Polygon",
        "coordinates": [
          [
            [
              -46.3074816,
              -23.5504015
            ],
            [
              -46.3074827,
              -23.5504229
            ],
            [
              -46.3075222,
              -23.550424
            ],
            [
              -46.3075214,
              -23.5504537
            ],
            [
              -46.3075669,
              -23.5504489
            ],
            [
              -46.3075718,
              -23.5504728
            ],
            [
              -46.3073832,
              -23.5504827
            ],
            [
              -46.3073773,
              -23.5503997
            ],
            [
              -46.3074816,
              -23.5504015
            ]
          ]
        ]
      }
    },
    {
      "type": "Feature",
      "id": "way/1049352577",
      "properties": {
        "timestamp": "2022-04-05T15:00:22Z",
        "version": 1,
        "changeset": 119348471,
        "amenity": "pharmacy",
        "brand": "Drogasil",
        "brand:wikidata": "Q5308185",
        "brand:wikipedia": "pt:Drogasil",
        "building": "yes",
        "dispensing": "yes",
        "healthcare": "pharmacy",
        "name": "Drogasil",
        "wheelchair": "yes",
        "id": "way/1049352577"
      },
      "geometry": {
        "type": "Polygon",
        "coordinates": [
          [
            [
              -46.3122389,
              -23.5424159
            ],
            [
              -46.3123042,
              -23.5424411
            ],
            [
              -46.3123345,
              -23.5425083
            ],
            [
              -46.3122934,
              -23.542525
            ],
            [
              -46.3123053,
              -23.5425418
            ],
            [
              -46.3122274,
              -23.5425712
            ],
            [
              -46.3121679,
              -23.5424453
            ],
            [
              -46.3122389,
              -23.5424159
            ]
          ]
        ]
      }
    },
    {
      "type": "Feature",
      "id": "way/1049374916",
      "properties": {
        "timestamp": "2022-04-05T16:24:22Z",
        "version": 1,
        "changeset": 119351624,
        "addr:housenumber": "460",
        "addr:postcode": "08675-000",
        "addr:street": "Rua Baruel",
        "addr:suburb": "Vila Costa",
        "amenity": "pharmacy",
        "building": "yes",
        "contact:mobile": "+55 11 99418 6216",
        "dispensing": "yes",
        "drive_through": "no",
        "email": "bifarma166@gmail.com",
        "healthcare": "pharmacy",
        "name": "Bifarma",
        "opening_hours": "Mo-Su,PH 07:00 - 22:00",
        "phone": "+55 11 4380 0929",
        "id": "way/1049374916"
      },
      "geometry": {
        "type": "Polygon",
        "coordinates": [
          [
            [
              -46.3103129,
              -23.5460532
            ],
            [
              -46.3103414,
              -23.5461387
            ],
            [
              -46.3102205,
              -23.5461726
            ],
            [
              -46.310192,
              -23.5460871
            ],
            [
              -46.3103129,
              -23.5460532
            ]
          ]
        ]
      }
    },
    {
      "type": "Feature",
      "id": "node/3631840183",
      "properties": {
        "timestamp": "2019-09-28T19:18:08Z",
        "version": 3,
        "changeset": 75047084,
        "addr:city": "Suzano",
        "addr:housenumber": "437",
        "addr:postcode": "08665-000",
        "addr:street": "Rua General Francisco Glicério",
        "addr:suburb": "Centro",
        "amenity": "pharmacy",
        "brand": "Drogaria São Paulo",
        "brand:wikidata": "Q5308184",
        "brand:wikipedia": "en:Grupo DPSP",
        "drive_through": "no",
        "healthcare": "pharmacy",
        "name": "Drogaria São Paulo",
        "opening_hours": "24/7",
        "id": "node/3631840183"
      },
      "geometry": {
        "type": "Point",
        "coordinates": [
          -46.3094979,
          -23.5384389
        ]
      }
    },
    {
      "type": "Feature",
      "id": "node/3631840190",
      "properties": {
        "timestamp": "2019-09-28T19:18:08Z",
        "version": 2,
        "changeset": 75047084,
        "addr:city": "Suzano",
        "addr:housenumber": "1000",
        "addr:postcode": "08674-002",
        "addr:street": "Rua General Francisco Glicério",
        "addr:suburb": "Centro",
        "amenity": "pharmacy",
        "brand": "Droga Raia",
        "brand:wikidata": "Q10357101",
        "brand:wikipedia": "pt:RaiaDrogasil",
        "healthcare": "pharmacy",
        "name": "Droga Raia",
        "opening_hours": "07:00 - 23:00",
        "id": "node/3631840190"
      },
      "geometry": {
        "type": "Point",
        "coordinates": [
          -46.3116966,
          -23.5431711
        ]
      }
    },
    {
      "type": "Feature",
      "id": "node/8203433506",
      "properties": {
        "timestamp": "2020-12-07T21:08:55Z",
        "version": 1,
        "changeset": 95446108,
        "addr:street": "Estrada do Koyama",
        "amenity": "pharmacy",
        "dispensing": "yes",
        "drive_through": "no",
        "healthcare": "pharmacy",
        "name": "Drogaria Holanda's",
        "phone": "+55 11 4748 0172",
        "id": "node/8203433506"
      },
      "geometry": {
        "type": "Point",
        "coordinates": [
          -46.3215464,
          -23.6450758
        ]
      }
    },
    {
      "type": "Feature",
      "id": "node/9643296628",
      "properties": {
        "timestamp": "2022-04-05T13:30:22Z",
        "version": 1,
        "changeset": 119344886,
        "addr:street": "Avenida Antônio Marques Figueira",
        "amenity": "pharmacy",
        "dispensing": "yes",
        "drive_through": "no",
        "healthcare": "pharmacy",
        "name": "Drogaria Toni",
        "phone": "+55 11 4746 2955",
        "id": "node/9643296628"
      },
      "geometry": {
        "type": "Point",
        "coordinates": [
          -46.3070889,
          -23.5498063
        ]
      }
    },
    {
      "type": "Feature",
      "id": "node/9652119726",
      "properties": {
        "timestamp": "2022-04-22T23:41:29Z",
        "version": 2,
        "changeset": 120072555,
        "addr:housenumber": "1815",
        "addr:street": "Estrada do Koyama",
        "amenity": "pharmacy",
        "contact:mobile": "+55 11 95412 8599",
        "dispensing": "yes",
        "drive_through": "yes",
        "healthcare": "pharmacy",
        "name": "Seanefarma",
        "phone": "+55 11 4741 5793",
        "id": "node/9652119726"
      },
      "geometry": {
        "type": "Point",
        "coordinates": [
          -46.3138507,
          -23.6541415
        ]
      }
    },
    {
      "type": "Feature",
      "id": "node/9652906280",
      "properties": {
        "timestamp": "2022-04-08T23:14:15Z",
        "version": 1,
        "changeset": 119487745,
        "addr:street": "Avenida Reno Cardoso",
        "amenity": "pharmacy",
        "dispensing": "yes",
        "drive_through": "no",
        "healthcare": "pharmacy",
        "name": "Droga Reis",
        "phone": "+55 11 4751 6116",
        "id": "node/9652906280"
      },
      "geometry": {
        "type": "Point",
        "coordinates": [
          -46.3169248,
          -23.6429431
        ]
      }
    },
    {
      "type": "Feature",
      "id": "node/9652962805",
      "properties": {
        "timestamp": "2022-04-09T03:37:20Z",
        "version": 2,
        "changeset": 119490469,
        "addr:street": "Estrada do Koyama",
        "addr:suburb": "Recanto Bela Vista",
        "amenity": "pharmacy",
        "dispensing": "yes",
        "healthcare": "pharmacy",
        "name": "SeaneFarma",
        "id": "node/9652962805"
      },
      "geometry": {
        "type": "Point",
        "coordinates": [
          -46.322163,
          -23.6445378
        ]
      }
    },
    {
      "type": "Feature",
      "id": "node/9653111519",
      "properties": {
        "timestamp": "2022-04-09T03:37:20Z",
        "version": 1,
        "changeset": 119490469,
        "addr:housenumber": "10",
        "addr:street": "Rua Sebastião Moreira",
        "amenity": "pharmacy",
        "dispensing": "yes",
        "healthcare": "pharmacy",
        "name": "Drogaria Novo Tempo",
        "phone": "+55 11 4743 9635",
        "id": "node/9653111519"
      },
      "geometry": {
        "type": "Point",
        "coordinates": [
          -46.3231093,
          -23.6442336
        ]
      }
    },
    {
      "type": "Feature",
      "id": "node/9659569051",
      "properties": {
        "timestamp": "2022-04-11T22:06:34Z",
        "version": 1,
        "changeset": 119597209,
        "addr:street": "Avenida Washington Luiz",
        "amenity": "pharmacy",
        "contact:mobile": "+55 11 95385 9027",
        "dispensing": "yes",
        "drive_through": "no",
        "healthcare": "pharmacy",
        "name": "Farmativa",
        "phone": "+55 11 4749 7232",
        "id": "node/9659569051"
      },
      "geometry": {
        "type": "Point",
        "coordinates": [
          -46.291028,
          -23.5050047
        ]
      }
    },
    {
      "type": "Feature",
      "id": "node/9663691543",
      "properties": {
        "timestamp": "2022-04-13T16:08:58Z",
        "version": 1,
        "changeset": 119675862,
        "addr:street": "Rua Waldomiro Dias",
        "amenity": "pharmacy",
        "dispensing": "yes",
        "drive_through": "no",
        "healthcare": "pharmacy",
        "name": "Droga Brasil",
        "id": "node/9663691543"
      },
      "geometry": {
        "type": "Point",
        "coordinates": [
          -46.2872479,
          -23.5127295
        ]
      }
    },
    {
      "type": "Feature",
      "id": "node/9668541027",
      "properties": {
        "timestamp": "2022-04-15T16:49:56Z",
        "version": 1,
        "changeset": 119758507,
        "addr:housenumber": "430",
        "addr:street": "Estrada Santa Monica",
        "addr:suburb": "Parque Santa Rosa",
        "amenity": "pharmacy",
        "delivery": "yes",
        "dispensing": "yes",
        "drive_through": "no",
        "healthcare": "pharmacy",
        "name": "IcFarma",
        "phone": "+55 11 4755 4219",
        "id": "node/9668541027"
      },
      "geometry": {
        "type": "Point",
        "coordinates": [
          -46.3298871,
          -23.5508056
        ]
      }
    },
    {
      "type": "Feature",
      "id": "node/9669040514",
      "properties": {
        "timestamp": "2022-04-15T21:13:50Z",
        "version": 1,
        "changeset": 119765917,
        "addr:housenumber": "1968",
        "addr:street": "Rua Jeca Tatú",
        "amenity": "pharmacy",
        "dispensing": "yes",
        "drive_through": "no",
        "healthcare": "pharmacy",
        "name": "Drogaria Nossa Farma",
        "phone": "+55 11 4742 9794",
        "id": "node/9669040514"
      },
      "geometry": {
        "type": "Point",
        "coordinates": [
          -46.2927898,
          -23.560815
        ]
      }
    },
    {
      "type": "Feature",
      "id": "node/11631003112",
      "properties": {
        "timestamp": "2024-02-16T17:34:25Z",
        "version": 1,
        "changeset": 147542082,
        "addr:street": "Rodovia Índio Tibiriçá",
        "amenity": "pharmacy",
        "dispensing": "yes",
        "drive_through": "no",
        "healthcare": "pharmacy",
        "mobile": "+55 11 99720 7196",
        "name": "Drogaria FarMárcio",
        "phone": "+55 11 4751 1819",
        "id": "node/11631003112"
      },
      "geometry": {
        "type": "Point",
        "coordinates": [
          -46.3363821,
          -23.6598218
        ]
      }
    },
    {
      "type": "Feature",
      "id": "node/12162544354",
      "properties": {
        "timestamp": "2024-09-07T21:38:20Z",
        "version": 1,
        "changeset": 156329892,
        "addr:street": "Rua Jeca Tatú",
        "amenity": "pharmacy",
        "dispensing": "yes",
        "drive_through": "no",
        "healthcare": "pharmacy",
        "mobile": "+55 11 93742 4850",
        "name": "Droga Lê",
        "id": "node/12162544354"
      },
      "geometry": {
        "type": "Point",
        "coordinates": [
          -46.2923846,
          -23.5590449
        ]
      }
    }
  ]
}
