{
  "type": "FeatureCollection",
  "features": [
    {
      "type": "Feature",
      "id": "way/364822178",
      "properties": {
        "timestamp": "2018-10-12T03:42:13Z",
        "version": 3,
        "changeset": 63439397,
        "addr:city": "Suzano",
        "addr:housenumber": "884",
        "addr:street": "Rua Campos Sales",
        "addr:suburb": "Centro",
        "amenity": "school",
        "name": "Complexo Educacional Mirambava",
        "opening_hours": "Mo-Fr 08:00-17:00",
        "phone": "+55 11 4747 9978",
        "start_date": "2008",
        "id": "way/364822178"
      },
      "geometry": {
        "type": "Polygon",
        "coordinates": [
          [
            [
              -46.303651,
              -23.5381416
            ],
            [
              -46.3035625,
              -23.537667
            ],
            [
              -46.3035866,
              -23.5375244
            ],
            [
              -46.3036698,
              -23.5373301
            ],
            [
              -46.3045227,
              -23.5370375
            ],
            [
              -46.3048124,
              -23.5377433
            ],
            [
              -46.303651,
              -23.5381416
            ]
          ]
        ]
      }
    },
    {
      "type": "Feature",
      "id": "way/459050128",
      "properties": {
        "timestamp": "2022-04-07T23:34:56Z",
        "version": 5,
        "changeset": 119446829,
        "addr:city": "Suzano",
        "addr:country": "BR",
        "addr:housenumber": "95",
        "addr:postcode": "08625-560",
        "addr:street": "Rua Benedito José Rangel",
        "addr:suburb": "Vila Rica",
        "amenity": "school",
        "contact:phone": "+55 11 4746 6348",
        "email": "e007055a@educacao.sp.gov.br",
        "name": "Escola Estadual Doutor Anis Fadul",
        "operator": "Secretaria da Educação do Estado de São Paulo",
        "operator:type": "government",
        "phone": "+55 11 4742 6605",
        "ref": "INEP-35007055",
        "religion": "none",
        "source": "CADMEC 2017",
        "id": "way/459050128"
      },
      "geometry": {
        "type": "Polygon",
        "coordinates": [
          [
            [
              -46.3141915,
              -23.6425689
            ],
            [
              -46.3153258,
              -23.641952
            ],
            [
              -46.3155058,
              -23.6422175
            ],
            [
              -46.3149292,
              -23.6429718
            ],
            [
              -46.3146408,
              -23.6432999
            ],
            [
              -46.3141915,
              -23.6425689
            ]
          ]
        ]
      }
    },
    {
      "type": "Feature",
      "id": "way/459095018",
      "properties": {
        "timestamp": "2025-03-24T18:18:24Z",
        "version": 7,
        "changeset": 164046075,
        "addr:city": "Suzano",
        "addr:housenumber": "530",
        "addr:postcode": "08693-640",
        "addr:street": "Avenida Itapeti",
        "addr:suburb": "Jardim Fernandes",
        "amenity": "school",
        "contact:phone": "+55 114749 5936",
        "email": "e918684a@educacao.sp.gov.br",
        "name": "Escola Estadual Professor Masaiti Sekine",
        "operator": "Secretaria da Educação do Estado de São Paulo",
        "operator:type": "government",
        "operator:wikidata": "Q10369245",
        "phone": "+55 11 4749 5430",
        "ref": "INEP-35918684",
        "religion": "none",
        "source": "CADMEC 2017",
        "id": "way/459095018"
      },
      "geometry": {
        "type": "Polygon",
        "coordinates": [
          [
            [
              -46.304788,
              -23.5035121
            ],
            [
              -46.3047359,
              -23.5035258
            ],
            [
              -46.3046916,
              -23.5034913
            ],
            [
              -46.3046498,
              -23.5033229
            ],
            [
              -46.3045996,
              -23.5032295
            ],
            [
              -46.3043303,
              -23.5029296
            ],
            [
              -46.3046935,
              -23.502515
            ],
            [
              -46.3052107,
              -23.5029085
            ],
            [
              -46.304966,
              -23.503092
            ],
            [
              -46.3049136,
              -23.5031257
            ],
            [
              -46.3047103,
              -23.5031689
            ],
            [
              -46.3047169,
              -23.5032144
            ],
            [
              -46.304788,
              -23.5035121
            ]
          ]
        ]
      }
    },
    {
      "type": "Feature",
      "id": "way/491809589",
      "properties": {
        "timestamp": "2022-04-13T16:08:58Z",
        "version": 5,
        "changeset": 119675862,
        "addr:city": "Suzano",
        "addr:housenumber": "555",
        "addr:postcode": "08695-175",
        "addr:street": "Rua Turquia",
        "addr:suburb": "Jardim São José",
        "amenity": "school",
        "email": "emeftherezinha@yahoo.com.br",
        "name": "Escola Municipal Professora Therezinha Pereira Lima Muzel",
        "operator": "Secretaria Municipal da Educação",
        "operator:type": "government",
        "phone": "+55 11 4749 5758",
        "ref": "INEP-35276820",
        "religion": "none",
        "id": "way/491809589"
      },
      "geometry": {
        "type": "Polygon",
        "coordinates": [
          [
            [
              -46.2794084,
              -23.4982628
            ],
            [
              -46.2791426,
              -23.498439
            ],
            [
              -46.2783541,
              -23.4985571
            ],
            [
              -46.2785633,
              -23.4978364
            ],
            [
              -46.2785794,
              -23.4977995
            ],
            [
              -46.2785955,
              -23.4977626
            ],
            [
              -46.279038,
              -23.4975781
            ],
            [
              -46.2790913,
              -23.4976349
            ],
            [
              -46.2792177,
              -23.4977921
            ],
            [
              -46.2794084,
              -23.4982628
            ]
          ]
        ]
      }
    },
    {
      "type": "Feature",
      "id": "way/491969207",
      "properties": {
        "timestamp": "2025-01-13T22:08:50Z",
        "version": 6,
        "changeset": 161326663,
        "addr:city": "Suzano",
        "addr:housenumber": "112",
        "addr:postcode": "08620-080",
        "addr:street": "Rua José Dantas",
        "addr:suburb": "Vila Maluf",
        "amenity": "school",
        "contact:phone": "+55 11 4742 9834",
        "email": "e006944a@educacao.sp.gov.br",
        "name": "Escola Estadual Manoel dos Santos Paiva",
        "operator": "Secretaria da Educação do Estado de São Paulo",
        "operator:type": "government",
        "operator:wikidata": "Q10369245",
        "phone": "+55 11 4747 1897",
        "ref": "INEP-35006944",
        "religion": "none",
        "source": "CADMEC 2017",
        "id": "way/491969207"
      },
      "geometry": {
        "type": "Polygon",
        "coordinates": [
          [
            [
              -46.3055456,
              -23.5246182
            ],
            [
              -46.3057066,
              -23.5250436
            ],
            [
              -46.3050803,
              -23.5252527
            ],
            [
              -46.3049113,
              -23.5248235
            ],
            [
              -46.3055456,
              -23.5246182
            ]
          ]
        ]
      }
    },
    {
      "type": "Feature",
      "id": "way/491970419",
      "properties": {
        "timestamp": "2025-01-13T22:08:50Z",
        "version": 7,
        "changeset": 161326663,
        "addr:city": "Suzano",
        "addr:country": "BR",
        "addr:housenumber": "19",
        "addr:postcode": "08675-160",
        "addr:street": "Rua Basílio Valente de Aguiar",
        "addr:suburb": "Vila São Jorge",
        "amenity": "school",
        "email": "e007161a@educacao.sp.gov.br",
        "name": "Escola Estadual Professor Geraldo Justiniano de Rezende Silva",
        "operator": "Secretaria da Educação do Estado de São Paulo",
        "operator:type": "government",
        "operator:wikidata": "Q10369245",
        "phone": "+55 11 4742 9376",
        "ref": "INEP-35007161",
        "religion": "none",
        "source": "CADMEC 2017",
        "id": "way/491970419"
      },
      "geometry": {
        "type": "Polygon",
        "coordinates": [
          [
            [
              -46.3117459,
              -23.5455627
            ],
            [
              -46.3110129,
              -23.5458092
            ],
            [
              -46.3108717,
              -23.5454653
            ],
            [
              -46.3111984,
              -23.5453564
            ],
            [
              -46.3109405,
              -23.5447488
            ],
            [
              -46.3113218,
              -23.5446302
            ],
            [
              -46.3117459,
              -23.5455627
            ]
          ]
        ]
      }
    },
    {
      "type": "Feature",
      "id": "way/491972684",
      "properties": {
        "timestamp": "2025-01-13T22:08:50Z",
        "version": 5,
        "changeset": 161326663,
        "addr:city": "Suzano",
        "addr:housenumber": "200",
        "addr:postcode": "08640-200",
        "addr:street": "Rua Planalto",
        "addr:suburb": "Jardim Revista",
        "amenity": "school",
        "email": "e046450a@educacao.sp.gov.br",
        "name": "Escola Estadual Oswaldo de Oliveira Lima",
        "operator": "Secretaria da Educação do Estado de São Paulo",
        "operator:type": "government",
        "operator:wikidata": "Q10369245",
        "phone": "+55 11 4749 1261",
        "ref": "INEP-35046450",
        "religion": "none",
        "source": "CADMEC 2017;INEP",
        "id": "way/491972684"
      },
      "geometry": {
        "type": "Polygon",
        "coordinates": [
          [
            [
              -46.2971957,
              -23.5151887
            ],
            [
              -46.297142,
              -23.5154792
            ],
            [
              -46.2970773,
              -23.5156131
            ],
            [
              -46.2969754,
              -23.5157754
            ],
            [
              -46.2968949,
              -23.5158565
            ],
            [
              -46.2968064,
              -23.5159205
            ],
            [
              -46.2967179,
              -23.5159549
            ],
            [
              -46.2965408,
              -23.5159574
            ],
            [
              -46.296388,
              -23.5159623
            ],
            [
              -46.2963267,
              -23.5157069
            ],
            [
              -46.2963653,
              -23.5152825
            ],
            [
              -46.2965194,
              -23.5152392
            ],
            [
              -46.2966508,
              -23.5151827
            ],
            [
              -46.2967581,
              -23.5150646
            ],
            [
              -46.2967731,
              -23.5150324
            ],
            [
              -46.2971957,
              -23.5151887
            ]
          ]
        ]
      }
    },
    {
      "type": "Feature",
      "id": "way/491973886",
      "properties": {
        "timestamp": "2025-01-13T22:08:50Z",
        "version": 6,
        "changeset": 161326663,
        "addr:city": "Suzano",
        "addr:country": "BR",
        "addr:housenumber": "152",
        "addr:postcode": "08663-192",
        "addr:street": "Rua Santa Rosa",
        "addr:suburb": "Jardim Belém",
        "amenity": "school",
        "contact:phone": "+55 11 4742 9850",
        "email": "e908484a@educacao.sp.gov.br",
        "name": "Escola Estadual Professora Jussara Feitosa Domschke",
        "operator": "Secretaria da Educação do Estado de São Paulo",
        "operator:type": "government",
        "operator:wikidata": "Q10369245",
        "phone": "+55 11 4747 4141",
        "ref": "INEP-35908484",
        "religion": "none",
        "id": "way/491973886"
      },
      "geometry": {
        "type": "Polygon",
        "coordinates": [
          [
            [
              -46.2938698,
              -23.5389647
            ],
            [
              -46.2934219,
              -23.5389278
            ],
            [
              -46.2934567,
              -23.5386106
            ],
            [
              -46.2929552,
              -23.5385909
            ],
            [
              -46.2929793,
              -23.5381556
            ],
            [
              -46.2934527,
              -23.5381673
            ],
            [
              -46.2934406,
              -23.5382552
            ],
            [
              -46.2939288,
              -23.538286
            ],
            [
              -46.2938698,
              -23.5389647
            ]
          ]
        ]
      }
    },
    {
      "type": "Feature",
      "id": "way/491974406",
      "properties": {
        "timestamp": "2020-12-05T18:15:23Z",
        "version": 5,
        "changeset": 95343671,
        "addr:city": "Suzano",
        "addr:country": "BR",
        "addr:housenumber": "881",
        "addr:postcode": "08260-557",
        "addr:street": "Rua Getulio Moreira de Souza",
        "addr:suburb": "Parque Residencial Casa Branca",
        "amenity": "school",
        "contact:phone": "+55 11 2734 4280",
        "email": "e923849a@educacao.sp.gov.br",
        "name": "Escola Estadual Professor Olavo Leonel Ferreira",
        "operator": "Secretaria da Educação do Estado de São Paulo",
        "operator:type": "government",
        "phone": "+55 11 2731 4327",
        "ref": "INEP-35923849",
        "id": "way/491974406"
      },
      "geometry": {
        "type": "Polygon",
        "coordinates": [
          [
            [
              -46.3314709,
              -23.5704176
            ],
            [
              -46.331458,
              -23.5704825
            ],
            [
              -46.3309331,
              -23.5705466
            ],
            [
              -46.330795,
              -23.5698693
            ],
            [
              -46.3312791,
              -23.5697912
            ],
            [
              -46.3317679,
              -23.5703945
            ],
            [
              -46.3315899,
              -23.5704626
            ],
            [
              -46.3314709,
              -23.5704176
            ]
          ]
        ]
      }
    },
    {
      "type": "Feature",
      "id": "way/491975019",
      "properties": {
        "timestamp": "2022-04-21T21:58:58Z",
        "version": 3,
        "changeset": 120021547,
        "addr:city": "Suzano",
        "addr:country": "BR",
        "addr:housenumber": "132",
        "addr:postcode": "08613-035",
        "addr:street": "Rua Violetas",
        "addr:suburb": "Jardim Ikeda",
        "amenity": "school",
        "email": "e902937a@educacao.sp.gov.br",
        "name": "Escola Estadual Anderson da Silva Soares",
        "operator": "Secretaria da Educação do Estado de São Paulo",
        "operator:type": "government",
        "phone": "+55 11 4743 9746",
        "ref": "INEP-35902937",
        "religion": "none",
        "source": "CADMEC 2017;INEP",
        "id": "way/491975019"
      },
      "geometry": {
        "type": "Polygon",
        "coordinates": [
          [
            [
              -46.3156667,
              -23.6238707
            ],
            [
              -46.3158598,
              -23.6237626
            ],
            [
              -46.3159241,
              -23.623738
            ],
            [
              -46.3160395,
              -23.623738
            ],
            [
              -46.3161602,
              -23.6237577
            ],
            [
              -46.3162112,
              -23.6237946
            ],
            [
              -46.3162588,
              -23.6238959
            ],
            [
              -46.3161914,
              -23.6239466
            ],
            [
              -46.316206,
              -23.6240186
            ],
            [
              -46.3161865,
              -23.6240645
            ],
            [
              -46.3161508,
              -23.6241103
            ],
            [
              -46.3163962,
              -23.6244162
            ],
            [
              -46.3157713,
              -23.6247947
            ],
            [
              -46.3156895,
              -23.6247185
            ],
            [
              -46.3156667,
              -23.6238707
            ]
          ]
        ]
      }
    },
    {
      "type": "Feature",
      "id": "way/491986380",
      "properties": {
        "timestamp": "2022-04-12T13:10:21Z",
        "version": 7,
        "changeset": 119621745,
        "addr:city": "Suzano",
        "addr:housenumber": "295",
        "addr:postcode": "08635-165",
        "addr:street": "Rua Nhonho de Lima",
        "addr:suburb": "Vila São Pedro",
        "amenity": "school",
        "email": "emsonia.regina@suzano.sp.gov.br",
        "name": "Escola Municipal Professora Sonia Regina Alonso Ostermayer",
        "opening_hours": "Mo-Fr  08:00-17:00; Sa,Su,PH off",
        "operator": "Secretaria da Educação",
        "operator:type": "government",
        "phone": "+55 11  4743 9247",
        "preschool": "yes",
        "ref": "INEP-35191590",
        "religion": "none",
        "school:BR": "Infantil/Fundamental",
        "source": "CADMEC 2017",
        "id": "way/491986380"
      },
      "geometry": {
        "type": "Polygon",
        "coordinates": [
          [
            [
              -46.3325653,
              -23.660065
            ],
            [
              -46.3330749,
              -23.6604679
            ],
            [
              -46.3325706,
              -23.6609642
            ],
            [
              -46.3324419,
              -23.6608536
            ],
            [
              -46.3322809,
              -23.6607848
            ],
            [
              -46.3320825,
              -23.6606227
            ],
            [
              -46.3325653,
              -23.660065
            ]
          ]
        ]
      }
    },
    {
      "type": "Feature",
      "id": "way/492577962",
      "properties": {
        "timestamp": "2024-10-05T13:35:49Z",
        "version": 8,
        "changeset": 157501552,
        "addr:city": "Suzano",
        "addr:housenumber": "km 05",
        "addr:postcode": "08675-005",
        "addr:street": "Estrada dos Fernandes",
        "addr:suburb": "Parque Santa Rosa",
        "amenity": "school",
        "contact:phone": "+55 11 4742 9574",
        "email": "e007146a@educacao.sp.gov.br",
        "name": "Escola Estadual Tokuzo Terazaki",
        "operator": "Secretaria de Educação do Estado de São Paulo",
        "operator:type": "government",
        "phone": "+55 11 4747 1399",
        "ref": "INEP-35007146",
        "id": "way/492577962"
      },
      "geometry": {
        "type": "Polygon",
        "coordinates": [
          [
            [
              -46.3351751,
              -23.5634949
            ],
            [
              -46.3360012,
              -23.5641169
            ],
            [
              -46.3360843,
              -23.5642515
            ],
            [
              -46.3361125,
              -23.564395
            ],
            [
              -46.3360924,
              -23.5644894
            ],
            [
              -46.3353441,
              -23.5648919
            ],
            [
              -46.3351697,
              -23.5644832
            ],
            [
              -46.3348773,
              -23.5638735
            ],
            [
              -46.3351751,
              -23.5634949
            ]
          ]
        ]
      }
    },
    {
      "type": "Feature",
      "id": "way/492609758",
      "properties": {
        "timestamp": "2025-01-13T22:08:50Z",
        "version": 7,
        "changeset": 161326663,
        "addr:city": "Suzano",
        "addr:country": "BR",
        "addr:housenumber": "2678",
        "addr:postcode": "08665-000",
        "addr:street": "Rua General Francisco Glicério",
        "addr:suburb": "Jardim Anzai",
        "amenity": "school",
        "barrier": "wall",
        "email": "e007183a@educacao.sp.gov.br",
        "name": "Escola Estadual Luiz Bianconi",
        "operator": "Secretaria da Educação do Estado de São Paulo",
        "operator:type": "government",
        "operator:wikidata": "Q10369245",
        "phone": "+55 11 4747 1861",
        "ref": "INEP-35007183",
        "religion": "none",
        "source": "CADMEC 2017",
        "id": "way/492609758"
      },
      "geometry": {
        "type": "Polygon",
        "coordinates": [
          [
            [
              -46.3178683,
              -23.5581247
            ],
            [
              -46.3177284,
              -23.55787
            ],
            [
              -46.3176752,
              -23.5577731
            ],
            [
              -46.3177941,
              -23.5577388
            ],
            [
              -46.3176808,
              -23.5574417
            ],
            [
              -46.3182733,
              -23.5572789
            ],
            [
              -46.3183109,
              -23.5572986
            ],
            [
              -46.3184989,
              -23.5580698
            ],
            [
              -46.318486,
              -23.5581107
            ],
            [
              -46.3184573,
              -23.5581337
            ],
            [
              -46.3178683,
              -23.5581247
            ]
          ]
        ]
      }
    },
    {
      "type": "Feature",
      "id": "way/492611702",
      "properties": {
        "timestamp": "2025-01-13T22:08:50Z",
        "version": 6,
        "changeset": 161326663,
        "addr:city": "Suzano",
        "addr:housenumber": "300",
        "addr:postcode": "07152-425",
        "addr:street": "Rua Esther Boros",
        "addr:suburb": "Jardim Vitória",
        "amenity": "school",
        "email": "e906293a@educacao.sp.gov.br",
        "name": "Escola Estadual Professora Benedita de Campos Marcolongo",
        "operator": "Secretaria da Educação do Estado de São Paulo",
        "operator:type": "government",
        "operator:wikidata": "Q10369245",
        "phone": "+55 11 4747 5083",
        "ref": "INEP-35906293",
        "id": "way/492611702"
      },
      "geometry": {
        "type": "Polygon",
        "coordinates": [
          [
            [
              -46.3261709,
              -23.5553765
            ],
            [
              -46.3260301,
              -23.5555535
            ],
            [
              -46.3259723,
              -23.5555732
            ],
            [
              -46.3257122,
              -23.5559518
            ],
            [
              -46.3252429,
              -23.5552634
            ],
            [
              -46.3254681,
              -23.5549622
            ],
            [
              -46.3255325,
              -23.5549585
            ],
            [
              -46.3261709,
              -23.5553765
            ]
          ]
        ]
      }
    },
    {
      "type": "Feature",
      "id": "way/492878429",
      "properties": {
        "timestamp": "2025-03-24T18:18:24Z",
        "version": 5,
        "changeset": 164046075,
        "addr:city": "Suzano",
        "addr:housenumber": "550",
        "addr:postcode": "08673-270",
        "addr:street": "Avenida Senador Roberto Simonsen",
        "addr:suburb": "Jardim Imperador",
        "amenity": "school",
        "email": "susuzano@sesisp.org.br",
        "name": "Centro de Atividades Max Feffer",
        "operator": "Serviço Social da Indústria",
        "operator:type": "ngo",
        "operator:wikidata": "Q6027748",
        "phone": "+55 11 4741 9650",
        "short_name": "SESI Suzano",
        "website": "https://suzano.sesisp.org.br/",
        "id": "way/492878429"
      },
      "geometry": {
        "type": "Polygon",
        "coordinates": [
          [
            [
              -46.3217169,
              -23.5335887
            ],
            [
              -46.3223046,
              -23.5350151
            ],
            [
              -46.3230449,
              -23.5347587
            ],
            [
              -46.3235025,
              -23.5359198
            ],
            [
              -46.3234659,
              -23.5359737
            ],
            [
              -46.3220928,
              -23.5364666
            ],
            [
              -46.3218038,
              -23.5357489
            ],
            [
              -46.3212608,
              -23.5359235
            ],
            [
              -46.3204997,
              -23.5340102
            ],
            [
              -46.3217169,
              -23.5335887
            ]
          ]
        ]
      }
    },
    {
      "type": "Feature",
      "id": "way/509106273",
      "properties": {
        "timestamp": "2025-01-01T20:37:53Z",
        "version": 4,
        "changeset": 160884561,
        "addr:city": "Suzano",
        "addr:housenumber": "105",
        "addr:postcode": "08683-280",
        "addr:street": "Rua Tereza Clementina Thomazini de Freitas",
        "addr:suburb": "Parque Maria Helena",
        "amenity": "school",
        "email": "E007067a@educacao.sp.gov.br",
        "name": "Escola Estadual Professor Carlos Molteni",
        "operator": "Secretaria da Educação do Estado de São Paulo",
        "operator:type": "government",
        "operator:wikidata": "Q10369245",
        "phone": "+55 11 4746 2200",
        "ref": "INEP-35007067",
        "religion": "none",
        "source": "CADMEC 2017",
        "id": "way/509106273"
      },
      "geometry": {
        "type": "Polygon",
        "coordinates": [
          [
            [
              -46.3128589,
              -23.5303273
            ],
            [
              -46.3129246,
              -23.5303519
            ],
            [
              -46.3131352,
              -23.5308192
            ],
            [
              -46.3131285,
              -23.5308905
            ],
            [
              -46.3130788,
              -23.5309421
            ],
            [
              -46.3118155,
              -23.5313872
            ],
            [
              -46.3115688,
              -23.5307897
            ],
            [
              -46.3128589,
              -23.5303273
            ]
          ]
        ]
      }
    },
    {
      "type": "Feature",
      "id": "way/532542750",
      "properties": {
        "timestamp": "2022-04-07T23:26:03Z",
        "version": 3,
        "changeset": 119446707,
        "addr:city": "Suzano",
        "addr:country": "BR",
        "addr:housenumber": "13114",
        "addr:postcode": "08630-000",
        "addr:street": "Rodovia Índio Tibiriçá",
        "addr:suburb": "Palmeiras de São Paulo",
        "amenity": "school",
        "contact:phone": "+55 11 4743 9955",
        "email": "e046197a@educacao.sp.gov.br",
        "name": "Escola Estadual Chojiro Segawa",
        "operator": "Secretaria da Educação do Estado de São Paulo",
        "operator:type": "government",
        "phone": "+55 11 4742 6707",
        "ref": "INEP-35046197",
        "religion": "none",
        "source": "CADMEC 2017;INEP",
        "id": "way/532542750"
      },
      "geometry": {
        "type": "Polygon",
        "coordinates": [
          [
            [
              -46.3262133,
              -23.6494892
            ],
            [
              -46.3256722,
              -23.6499778
            ],
            [
              -46.3254259,
              -23.6496029
            ],
            [
              -46.3259131,
              -23.6491094
            ],
            [
              -46.3262133,
              -23.6494892
            ]
          ]
        ]
      }
    },
    {
      "type": "Feature",
      "id": "way/575370084",
      "properties": {
        "timestamp": "2025-01-13T22:08:50Z",
        "version": 4,
        "changeset": 161326663,
        "addr:city": "Suzano",
        "addr:country": "BR",
        "addr:housenumber": "44",
        "addr:postcode": "08675-421",
        "addr:street": "Rua Concórdia",
        "addr:suburb": "Vila São Francisco",
        "amenity": "school",
        "contact:phone": "+55 11 4747 1166",
        "email": "e035518a@educacao.sp.gov.br",
        "name": "Escola Estadual Batista Renzi",
        "operator": "Secretaria da Educação do Estado de São Paulo",
        "operator:type": "government",
        "operator:wikidata": "Q10369245",
        "phone": "+55 11 4742 9548",
        "ref": "INEP-35035518",
        "religion": "none",
        "id": "way/575370084"
      },
      "geometry": {
        "type": "Polygon",
        "coordinates": [
          [
            [
              -46.3123356,
              -23.5499885
            ],
            [
              -46.3114982,
              -23.5502192
            ],
            [
              -46.3112788,
              -23.5497648
            ],
            [
              -46.3121398,
              -23.5495214
            ],
            [
              -46.3123356,
              -23.5499885
            ]
          ]
        ]
      }
    },
    {
      "type": "Feature",
      "id": "way/603922110",
      "properties": {
        "timestamp": "2022-04-17T17:15:05Z",
        "version": 4,
        "changeset": 119825102,
        "addr:city": "Suzano",
        "addr:housenumber": "99",
        "addr:postcode": "08620-050",
        "addr:street": "Estrada Keida Harada",
        "addr:suburb": "Ipelândia",
        "amenity": "school",
        "email": "e006993a@educacao.sp.gov.br",
        "name": "Escola Estadual Roberto Bianchi",
        "operator": "Secretaria da Educação do Estado de São Paulo",
        "operator:type": "government",
        "phone": "+55 11 4742 6500",
        "ref": "INEP-35006993",
        "religion": "none",
        "source": "CADMEC 2017",
        "id": "way/603922110"
      },
      "geometry": {
        "type": "Polygon",
        "coordinates": [
          [
            [
              -46.296014,
              -23.622328
            ],
            [
              -46.2954356,
              -23.6227849
            ],
            [
              -46.2952747,
              -23.6226571
            ],
            [
              -46.295339,
              -23.6225932
            ],
            [
              -46.2950386,
              -23.6222983
            ],
            [
              -46.2955375,
              -23.6218801
            ],
            [
              -46.296014,
              -23.622328
            ]
          ]
        ]
      }
    },
    {
      "type": "Feature",
      "id": "way/613440924",
      "properties": {
        "timestamp": "2025-03-24T18:18:24Z",
        "version": 7,
        "changeset": 164046075,
        "addr:city": "Suzano",
        "addr:housenumber": "52",
        "addr:postcode": "08673-060",
        "addr:street": "Rua Otavio Miguel da Silva",
        "addr:suburb": "Parque Suzano",
        "amenity": "school",
        "contact:phone": "+55 11 4748 1393",
        "email": "e006981a@educacao.sp.gov.br",
        "name": "Escola Estadual Professor Raul Brasil",
        "operator": "Secretaria da Educação do Estado de São Paulo",
        "operator:type": "government",
        "operator:wikidata": "Q10369245",
        "phone": "+55 11 4742 9845",
        "ref": "INEP-35006981",
        "religion": "none",
        "source": "CADMEC 2017;INEP",
        "id": "way/613440924"
      },
      "geometry": {
        "type": "Polygon",
        "coordinates": [
          [
            [
              -46.3157664,
              -23.5337825
            ],
            [
              -46.3161132,
              -23.5346036
            ],
            [
              -46.3158526,
              -23.5346884
            ],
            [
              -46.3155566,
              -23.5347961
            ],
            [
              -46.3152243,
              -23.5349164
            ],
            [
              -46.3149034,
              -23.534133
            ],
            [
              -46.3149287,
              -23.5340872
            ],
            [
              -46.315013,
              -23.5340561
            ],
            [
              -46.315141,
              -23.534018
            ],
            [
              -46.3154801,
              -23.5338936
            ],
            [
              -46.3157664,
              -23.5337825
            ]
          ]
        ]
      }
    },
    {
      "type": "Feature",
      "id": "way/632681975",
      "properties": {
        "timestamp": "2025-03-24T18:18:24Z",
        "version": 5,
        "changeset": 164046075,
        "addr:city": "Suzano",
        "addr:housenumber": "1544",
        "addr:postcode": "08690-185",
        "addr:street": "Avenida Edmilson Rodrigues Marcelino",
        "addr:suburb": "Cidade Miguel Badra",
        "amenity": "school",
        "email": "e923850a@educacao.sp.gov.br",
        "name": "Escola Estadual Professor Antônio Brasílio Menezes da Fonseca",
        "operator": "Secretaria da Educação do Estado de São Paulo",
        "operator:type": "government",
        "operator:wikidata": "Q10369245",
        "phone": "+55 11 4749 8039",
        "ref": "INEP--46.3168351",
        "religion": "none",
        "source": "CADMEC 2017;INEP",
        "id": "way/632681975"
      },
      "geometry": {
        "type": "Polygon",
        "coordinates": [
          [
            [
              -46.3175221,
              -23.5047635
            ],
            [
              -46.3173477,
              -23.5051472
            ],
            [
              -46.3165323,
              -23.5048176
            ],
            [
              -46.3165001,
              -23.5047635
            ],
            [
              -46.3165243,
              -23.504675
            ],
            [
              -46.3166343,
              -23.5044266
            ],
            [
              -46.3166986,
              -23.5043946
            ],
            [
              -46.316763,
              -23.5044339
            ],
            [
              -46.3168301,
              -23.5044733
            ],
            [
              -46.3168462,
              -23.5045249
            ],
            [
              -46.3169454,
              -23.5045692
            ],
            [
              -46.3169829,
              -23.5045422
            ],
            [
              -46.3170232,
              -23.5045422
            ],
            [
              -46.3175221,
              -23.5047635
            ]
          ]
        ]
      }
    },
    {
      "type": "Feature",
      "id": "way/633145206",
      "properties": {
        "timestamp": "2022-03-29T00:07:53Z",
        "version": 3,
        "changeset": 119044464,
        "addr:city": "Suzano",
        "addr:housenumber": "326",
        "addr:postcode": "08663-360",
        "addr:street": "Rua Isabel Castanheda Mayer",
        "addr:suburb": "Parque Residencial Casa Branca",
        "amenity": "school",
        "contact:phone": "+55 11 4747 9835",
        "email": "e908460a@educacao.sp.gov.br",
        "name": "Escola Estadual Alfredo Roberto",
        "operator": "Secretaria da Educação do Estado de São Paulo",
        "operator:type": "government",
        "phone": "+55 11 4747 5498",
        "ref": "INEP-35908460",
        "religion": "none",
        "source": "CADMEC 2017;INEP",
        "id": "way/633145206"
      },
      "geometry": {
        "type": "Polygon",
        "coordinates": [
          [
            [
              -46.3379322,
              -23.5696816
            ],
            [
              -46.3373153,
              -23.5702986
            ],
            [
              -46.3371275,
              -23.5696594
            ],
            [
              -46.3375647,
              -23.5693153
            ],
            [
              -46.3379322,
              -23.5696816
            ]
          ]
        ]
      }
    },
    {
      "type": "Feature",
      "id": "way/633453586",
      "properties": {
        "timestamp": "2025-01-13T22:08:50Z",
        "version": 4,
        "changeset": 161326663,
        "addr:city": "Suzano",
        "addr:housenumber": "5",
        "addr:postcode": "08696-410",
        "addr:street": "Rua Augusto Souza de Aquino",
        "addr:suburb": "Jardim Gardênia Azul",
        "amenity": "school",
        "contact:phone": "+55 11 4749 9844",
        "email": "e901891a@educacao.sp.gov.br",
        "name": "Escola Estadual Professora Jandyra Coutinho",
        "operator": "Secretaria da Educação do Estado de São Paulo",
        "operator:type": "government",
        "operator:wikidata": "Q10369245",
        "phone": "+55 11 4749 4947",
        "ref": "INEP-35901891",
        "religion": "none",
        "id": "way/633453586"
      },
      "geometry": {
        "type": "Polygon",
        "coordinates": [
          [
            [
              -46.2886119,
              -23.509826
            ],
            [
              -46.2878903,
              -23.5100843
            ],
            [
              -46.2878206,
              -23.5100917
            ],
            [
              -46.2874719,
              -23.5097572
            ],
            [
              -46.2874961,
              -23.5096858
            ],
            [
              -46.2880191,
              -23.5092333
            ],
            [
              -46.2886119,
              -23.509826
            ]
          ]
        ]
      }
    },
    {
      "type": "Feature",
      "id": "way/633460349",
      "properties": {
        "timestamp": "2022-04-11T22:34:34Z",
        "version": 6,
        "changeset": 119597762,
        "Etapas de ensino": "Fundamental",
        "addr:city": "Suzano",
        "addr:housenumber": "101",
        "addr:postcode": "08696-065",
        "addr:street": "Rua Roberto Ferreira Ribas",
        "addr:suburb": "Jardim Europa",
        "amenity": "school",
        "email": "emsergio.simao@suzano.sp.gov.br",
        "name": "Escola Municipal Sérgio Simão",
        "operator": "Secretaria de Educação",
        "operator:type": "government",
        "phone": "+55 11 4752 3858",
        "preschool": "yes",
        "ref": "INEP-35289632",
        "religion": "none",
        "source": "CADMEC 2017;INEP",
        "id": "way/633460349"
      },
      "geometry": {
        "type": "Polygon",
        "coordinates": [
          [
            [
              -46.2925859,
              -23.5059617
            ],
            [
              -46.2915211,
              -23.5063626
            ],
            [
              -46.2913897,
              -23.5059642
            ],
            [
              -46.2922292,
              -23.5056543
            ],
            [
              -46.292307,
              -23.5057182
            ],
            [
              -46.2922828,
              -23.5057453
            ],
            [
              -46.2924894,
              -23.5059174
            ],
            [
              -46.2925242,
              -23.5058904
            ],
            [
              -46.2925859,
              -23.5059617
            ]
          ]
        ]
      }
    },
    {
      "type": "Feature",
      "id": "way/633462572",
      "properties": {
        "timestamp": "2025-01-13T22:08:50Z",
        "version": 7,
        "changeset": 161326663,
        "addr:city": "Suzano",
        "addr:housenumber": "347",
        "addr:postcode": "08696-300",
        "addr:street": "Rua Ezequiel Correa Machado",
        "addr:suburb": "Jardim Alterópolis",
        "amenity": "school",
        "email": "e916900a@educacao.sp.gov.br",
        "name": "Escola Estadual Professora Yolanda Bassi",
        "operator": "Secretaria da Educação do Estado de São Paulo",
        "operator:type": "government",
        "operator:wikidata": "Q10369245",
        "phone": "+55 11 4749 0980",
        "ref": "INEP-35916900",
        "religion": "none",
        "id": "way/633462572"
      },
      "geometry": {
        "type": "Polygon",
        "coordinates": [
          [
            [
              -46.2923827,
              -23.5125083
            ],
            [
              -46.292653,
              -23.5128378
            ],
            [
              -46.2921905,
              -23.5131576
            ],
            [
              -46.2917821,
              -23.5126324
            ],
            [
              -46.2915934,
              -23.5127573
            ],
            [
              -46.2915076,
              -23.5126503
            ],
            [
              -46.2914862,
              -23.5125777
            ],
            [
              -46.2914983,
              -23.5124867
            ],
            [
              -46.2915747,
              -23.5123662
            ],
            [
              -46.2920832,
              -23.5120963
            ],
            [
              -46.2923827,
              -23.5125083
            ]
          ]
        ]
      }
    },
    {
      "type": "Feature",
      "id": "way/635446799",
      "properties": {
        "timestamp": "2025-01-13T22:08:50Z",
        "version": 3,
        "changeset": 161326663,
        "addr:city": "Suzano",
        "addr:housenumber": "401",
        "addr:postcode": "08616-210",
        "addr:street": "Rua Bernardo José Pereira Sobrinho",
        "addr:suburb": "Jardim Cacique",
        "amenity": "school",
        "contact:phone": "+55 11 4748 1702",
        "email": "e916559a@educacao.sp.gov.br",
        "name": "Escola Estadual Professor Joviano Satler de Lima",
        "operator": "Secretaria da Educação do Estado de São Paulo",
        "operator:type": "government",
        "operator:wikidata": "Q10369245",
        "phone": "+55 11 4742 9104",
        "ref": "INEP-35916559",
        "religion": "none",
        "source": "CADMEC 2017;INEP-",
        "id": "way/635446799"
      },
      "geometry": {
        "type": "Polygon",
        "coordinates": [
          [
            [
              -46.2939576,
              -23.5541507
            ],
            [
              -46.2939576,
              -23.5542146
            ],
            [
              -46.293904,
              -23.5542171
            ],
            [
              -46.2938101,
              -23.5542121
            ],
            [
              -46.2936063,
              -23.5542171
            ],
            [
              -46.2929599,
              -23.554163
            ],
            [
              -46.2930001,
              -23.5536097
            ],
            [
              -46.293083,
              -23.5536043
            ],
            [
              -46.2939576,
              -23.5541507
            ]
          ]
        ]
      }
    },
    {
      "type": "Feature",
      "id": "way/635451482",
      "properties": {
        "timestamp": "2025-01-13T22:08:50Z",
        "version": 3,
        "changeset": 161326663,
        "addr:city": "Suzano",
        "addr:housenumber": "550",
        "addr:postcode": "08610-100",
        "addr:street": "Rua Amélia Guerra",
        "addr:suburb": "Vila Amorim",
        "amenity": "school",
        "email": "e006932a@educacao.sp.gov.br",
        "name": "Escola Estadual Doutor Morato de Oliveira",
        "operator": "Secretaria da Educação do Estado de São Paulo",
        "operator:type": "government",
        "operator:wikidata": "Q10369245",
        "phone": "+55 11 4746 2044",
        "ref": "35006932",
        "id": "way/635451482"
      },
      "geometry": {
        "type": "Polygon",
        "coordinates": [
          [
            [
              -46.301772,
              -23.539928
            ],
            [
              -46.3018176,
              -23.5399575
            ],
            [
              -46.3019356,
              -23.5403214
            ],
            [
              -46.3019249,
              -23.5403534
            ],
            [
              -46.3008493,
              -23.5407296
            ],
            [
              -46.3007098,
              -23.5403411
            ],
            [
              -46.300734,
              -23.5403116
            ],
            [
              -46.301772,
              -23.539928
            ]
          ]
        ]
      }
    },
    {
      "type": "Feature",
      "id": "way/670545092",
      "properties": {
        "timestamp": "2025-03-24T18:18:24Z",
        "version": 6,
        "changeset": 164046075,
        "addr:city": "Suzano",
        "addr:housenumber": "1020",
        "addr:postcode": "08610-101",
        "addr:street": "Avenida Brasilia",
        "addr:suburb": "Vila Urupês",
        "amenity": "school",
        "barrier": "wall",
        "email": "e040514a@educacao.sp.gov.br",
        "name": "Escola Estadual Sebastião Pereira Vidal",
        "operator": "Secretaria da Educação do Estado de São Paulo",
        "operator:type": "government",
        "operator:wikidata": "Q10369245",
        "phone": "+55 11 4747 1374",
        "ref": "INEP-35040514",
        "religion": "none",
        "source": "CADMEC 2017",
        "id": "way/670545092"
      },
      "geometry": {
        "type": "Polygon",
        "coordinates": [
          [
            [
              -46.3013475,
              -23.5472249
            ],
            [
              -46.3013992,
              -23.5472447
            ],
            [
              -46.3014253,
              -23.5472765
            ],
            [
              -46.3014294,
              -23.5473087
            ],
            [
              -46.3014047,
              -23.5476556
            ],
            [
              -46.3000786,
              -23.5475825
            ],
            [
              -46.3000286,
              -23.5475631
            ],
            [
              -46.3000098,
              -23.5475118
            ],
            [
              -46.3000324,
              -23.5472279
            ],
            [
              -46.3000558,
              -23.5471959
            ],
            [
              -46.3000906,
              -23.5471765
            ],
            [
              -46.3005575,
              -23.5471945
            ],
            [
              -46.3013475,
              -23.5472249
            ]
          ]
        ]
      }
    },
    {
      "type": "Feature",
      "id": "way/678218310",
      "properties": {
        "timestamp": "2025-03-24T18:18:24Z",
        "version": 5,
        "changeset": 164046075,
        "addr:city": "Suzano",
        "addr:housenumber": "61",
        "addr:postcode": "08694-465",
        "addr:street": "Rua Presbitero Benedito de Oliveira",
        "addr:suburb": "Jardim Dona Benta",
        "amenity": "school",
        "email": "e908915a@educacao.sp.gov.br",
        "name": "Escola Estadual Professora Maria Elisa de Azevedo Cintra",
        "operator": "Secretaria da Educação do Estado de São Paulo",
        "operator:type": "government",
        "operator:wikidata": "Q10369245",
        "phone": "+55 11 4749 0724",
        "ref": "INEP-35908915",
        "religion": "none",
        "id": "way/678218310"
      },
      "geometry": {
        "type": "Polygon",
        "coordinates": [
          [
            [
              -46.2963624,
              -23.5016595
            ],
            [
              -46.2963311,
              -23.5029331
            ],
            [
              -46.2958931,
              -23.5029181
            ],
            [
              -46.2958735,
              -23.5027605
            ],
            [
              -46.2958769,
              -23.5016721
            ],
            [
              -46.2963624,
              -23.5016595
            ]
          ]
        ]
      }
    },
    {
      "type": "Feature",
      "id": "way/707446779",
      "properties": {
        "timestamp": "2022-03-28T23:33:38Z",
        "version": 4,
        "changeset": 119044011,
        "addr:city": "Suzano",
        "addr:housenumber": "684",
        "addr:postcode": "08676-190",
        "addr:street": "Rua Antônio Augusto Claro",
        "addr:suburb": "Vila Figueira",
        "amenity": "school",
        "contact:email": "alice.setuko2017@gmail.com;",
        "contact:phone": "+55 11 4746 9477",
        "email": "emalice.setuko@suzano.sp.gov.br",
        "name": "Escola Municipal Professora Alice Setuko Honda Miyake",
        "phone": "+55 11 4743 1797",
        "ref": "INEP-35089394",
        "religion": "none",
        "id": "way/707446779"
      },
      "geometry": {
        "type": "Polygon",
        "coordinates": [
          [
            [
              -46.3033574,
              -23.5540632
            ],
            [
              -46.3034309,
              -23.5548329
            ],
            [
              -46.3034071,
              -23.5548731
            ],
            [
              -46.3033932,
              -23.5548966
            ],
            [
              -46.3032076,
              -23.5549084
            ],
            [
              -46.3031783,
              -23.5548888
            ],
            [
              -46.3031728,
              -23.5548402
            ],
            [
              -46.3030835,
              -23.554065
            ],
            [
              -46.3031033,
              -23.5540468
            ],
            [
              -46.3031252,
              -23.5540304
            ],
            [
              -46.303153,
              -23.5540249
            ],
            [
              -46.3033038,
              -23.5540122
            ],
            [
              -46.3033217,
              -23.5540195
            ],
            [
              -46.3033396,
              -23.5540413
            ],
            [
              -46.3033574,
              -23.5540632
            ]
          ]
        ]
      }
    },
    {
      "type": "Feature",
      "id": "way/734200533",
      "properties": {
        "timestamp": "2019-10-13T15:58:21Z",
        "version": 1,
        "changeset": 75627855,
        "addr:postcode": "08620-545",
        "addr:street": "Rua Ortêncio Ribeiro da Cruz",
        "addr:suburb": "Jardim Dora",
        "amenity": "school",
        "description": "Horário de atendimento Mo-Fr 08:00- 17:00\nHorário de funcionamento Mo-Fr  07:00-18:00",
        "email": "emangela.martins@suzano.sp.gov.br",
        "name": "Escola Municipal Angela Martins de Oliveira",
        "phone": "+55 11 4743 9672",
        "ref": "35077948",
        "id": "way/734200533"
      },
      "geometry": {
        "type": "Polygon",
        "coordinates": [
          [
            [
              -46.3048546,
              -23.6294469
            ],
            [
              -46.3046159,
              -23.6297835
            ],
            [
              -46.3043718,
              -23.6296263
            ],
            [
              -46.3046642,
              -23.629211
            ],
            [
              -46.3048546,
              -23.6294469
            ]
          ]
        ]
      }
    },
    {
      "type": "Feature",
      "id": "way/868938806",
      "properties": {
        "timestamp": "2024-03-22T06:58:08Z",
        "version": 3,
        "changeset": 148997187,
        "addr:city": "Suzano",
        "addr:housenumber": "61",
        "addr:postcode": "08695-080",
        "addr:street": "Rua Paulo Ernani Braga do Nascimento",
        "addr:suburb": "Jardim São José",
        "amenity": "school",
        "barrier": "wall",
        "email": "e908472a@educacao.sp.gov.br",
        "grades": "6-12",
        "name": "Escola Estadual Professor José Benedito Leite Bartholomei",
        "operator": "Secretaria da Educação do Estado de São Paulo",
        "operator:type": "government",
        "ref": "INEP-35908472",
        "religion": "none",
        "source": "CADMEC 2017",
        "id": "way/868938806"
      },
      "geometry": {
        "type": "Polygon",
        "coordinates": [
          [
            [
              -46.2844339,
              -23.4915952
            ],
            [
              -46.2852331,
              -23.4917572
            ],
            [
              -46.2842603,
              -23.4926002
            ],
            [
              -46.2839785,
              -23.4920083
            ],
            [
              -46.2844339,
              -23.4915952
            ]
          ]
        ]
      }
    },
    {
      "type": "Feature",
      "id": "way/868938807",
      "properties": {
        "timestamp": "2020-12-07T00:51:29Z",
        "version": 2,
        "changeset": 95385650,
        "addr:city": "Suzano",
        "addr:housenumber": "25",
        "addr:postcode": "08695-680",
        "addr:street": "Rua Antônio Célso Borges",
        "addr:suburb": "Jardim São Bernardino",
        "amenity": "school",
        "name": "Escola Municipal Professor Ruy Ferreira Guimarães",
        "operator": "Secretaria Municipal da Educação",
        "operator:type": "government",
        "phone": "+55 11 4749 3518",
        "ref": "INEP-35244594",
        "id": "way/868938807"
      },
      "geometry": {
        "type": "Polygon",
        "coordinates": [
          [
            [
              -46.2737214,
              -23.4942416
            ],
            [
              -46.2737633,
              -23.4942544
            ],
            [
              -46.2737773,
              -23.4942886
            ],
            [
              -46.27375,
              -23.4952188
            ],
            [
              -46.2737446,
              -23.4952396
            ],
            [
              -46.2737366,
              -23.4952605
            ],
            [
              -46.2733523,
              -23.4956607
            ],
            [
              -46.2733205,
              -23.4956769
            ],
            [
              -46.273287,
              -23.4956704
            ],
            [
              -46.2732605,
              -23.4956542
            ],
            [
              -46.2732499,
              -23.49563
            ],
            [
              -46.2732883,
              -23.4944103
            ],
            [
              -46.2733059,
              -23.4943836
            ],
            [
              -46.2733289,
              -23.4943504
            ],
            [
              -46.2733584,
              -23.4943308
            ],
            [
              -46.2735301,
              -23.4942841
            ],
            [
              -46.2737214,
              -23.4942416
            ]
          ]
        ]
      }
    },
    {
      "type": "Feature",
      "id": "way/880666109",
      "properties": {
        "timestamp": "2022-04-12T18:55:21Z",
        "version": 2,
        "changeset": 119635132,
        "addr:housenumber": "6000",
        "addr:postcode": "08650-245",
        "addr:street": "Estrada Fazenda Viaduto",
        "addr:suburb": "Fazenda Aya",
        "amenity": "school",
        "contact:phone": "+55 11 4744 5763",
        "email": "emnizilda.alves@suzano.sp.gov.br",
        "name": "Escola Municipal Professoa Nizilda Alves de Godoy",
        "operator": "Secretaria Municipal de Educação",
        "operator:type": "government",
        "phone": "+55 11 4743 2591",
        "ref": "INEP-35241192",
        "id": "way/880666109"
      },
      "geometry": {
        "type": "Polygon",
        "coordinates": [
          [
            [
              -46.3357293,
              -23.5952009
            ],
            [
              -46.3358141,
              -23.5954775
            ],
            [
              -46.3353132,
              -23.5954775
            ],
            [
              -46.3352892,
              -23.5953664
            ],
            [
              -46.3353018,
              -23.5953445
            ],
            [
              -46.3352899,
              -23.5953092
            ],
            [
              -46.3352667,
              -23.5953102
            ],
            [
              -46.3352507,
              -23.5952636
            ],
            [
              -46.3353102,
              -23.5952723
            ],
            [
              -46.3353066,
              -23.5951774
            ],
            [
              -46.3357293,
              -23.5952009
            ]
          ]
        ]
      }
    },
    {
      "type": "Feature",
      "id": "way/880666110",
      "properties": {
        "timestamp": "2020-12-03T15:21:55Z",
        "version": 1,
        "changeset": 95235102,
        "addr:housenumber": "6086",
        "addr:postcode": "08650-245",
        "addr:street": "Estrada Fazenda Viaduto",
        "addr:suburb": "Fazenda Aya",
        "amenity": "school",
        "email": "emwalter.passagli@suzano.sp.gov.br",
        "name": "Escola Municipal Walter Passagli",
        "operator": "Secretaria Municipal de Educação",
        "operator:type": "government",
        "phone": "+55 11 4747 4938",
        "ref": "INEP-35407800",
        "id": "way/880666110"
      },
      "geometry": {
        "type": "Polygon",
        "coordinates": [
          [
            [
              -46.336129,
              -23.5957183
            ],
            [
              -46.3360018,
              -23.5960009
            ],
            [
              -46.3354552,
              -23.5958364
            ],
            [
              -46.3353149,
              -23.595491
            ],
            [
              -46.3359006,
              -23.595476
            ],
            [
              -46.336129,
              -23.5957183
            ]
          ]
        ]
      }
    },
    {
      "type": "Feature",
      "id": "way/881322545",
      "properties": {
        "timestamp": "2020-12-05T17:38:06Z",
        "version": 1,
        "changeset": 95342547,
        "addr:housenumber": "191",
        "addr:postcode": "08663-080",
        "addr:street": "Rua Tereza Haguihara Cardoso",
        "addr:suburb": "Casa Branca",
        "amenity": "school",
        "email": "emcasa.branca@suzano.sp.gov.br",
        "name": "Escola Municipal Bairro Casa Branca",
        "opening_hours": "Mo-Fr 08:00-17:00; Sa,Su,PH off",
        "phone": "+55 11 4749 8006",
        "ref": "INEP-35499213",
        "id": "way/881322545"
      },
      "geometry": {
        "type": "Polygon",
        "coordinates": [
          [
            [
              -46.3326104,
              -23.5627428
            ],
            [
              -46.332518,
              -23.5628123
            ],
            [
              -46.3324137,
              -23.5626853
            ],
            [
              -46.3323202,
              -23.5627466
            ],
            [
              -46.3322787,
              -23.562695
            ],
            [
              -46.3324469,
              -23.5625561
            ],
            [
              -46.3326104,
              -23.5627428
            ]
          ]
        ]
      }
    },
    {
      "type": "Feature",
      "id": "way/881766952",
      "properties": {
        "timestamp": "2022-04-16T14:13:37Z",
        "version": 2,
        "changeset": 119786006,
        "addr:housenumber": "453",
        "addr:postcode": "08695-025",
        "addr:street": "Rua Vicente Scálice",
        "addr:suburb": "Jardim Santa Inês",
        "amenity": "school",
        "name": "Escola Municipal Professor Antônio Maschietto",
        "operator": "Secretaria Municipal de Educação",
        "operator:type": "government",
        "phone": "+55 11 4749 7324",
        "ref": "INEP-35244557",
        "id": "way/881766952"
      },
      "geometry": {
        "type": "Polygon",
        "coordinates": [
          [
            [
              -46.2898669,
              -23.4959068
            ],
            [
              -46.2898231,
              -23.4959671
            ],
            [
              -46.2898152,
              -23.4960212
            ],
            [
              -46.2898174,
              -23.4961191
            ],
            [
              -46.2888914,
              -23.4964056
            ],
            [
              -46.2888262,
              -23.4961026
            ],
            [
              -46.2898669,
              -23.4959068
            ]
          ]
        ]
      }
    },
    {
      "type": "Feature",
      "id": "way/881772078",
      "properties": {
        "timestamp": "2020-12-07T01:06:14Z",
        "version": 1,
        "changeset": 95385800,
        "addr:street": "Rua Geferson Barbosa",
        "addr:suburb": "São Bernardino",
        "amenity": "school",
        "contact:phone": "+55 11 4749 0196",
        "email": "emjose.cardoso@suzano.sp.gov.br",
        "name": "Escola Municipal Professor José Cardoso dos Santos",
        "operator": "Secretaria Municipal da Educação",
        "operator:type": "government",
        "phone": "+55 11 4752 1534",
        "ref": "INEP-35223372",
        "id": "way/881772078"
      },
      "geometry": {
        "type": "Polygon",
        "coordinates": [
          [
            [
              -46.2778198,
              -23.4947184
            ],
            [
              -46.2773652,
              -23.4952282
            ],
            [
              -46.2771032,
              -23.4955704
            ],
            [
              -46.2768769,
              -23.4953811
            ],
            [
              -46.2776312,
              -23.4946092
            ],
            [
              -46.2776848,
              -23.4945892
            ],
            [
              -46.2777523,
              -23.4946001
            ],
            [
              -46.2778079,
              -23.4946329
            ],
            [
              -46.2778238,
              -23.4946729
            ],
            [
              -46.2778198,
              -23.4947184
            ]
          ]
        ]
      }
    },
    {
      "type": "Feature",
      "id": "way/882138169",
      "properties": {
        "timestamp": "2022-04-30T02:27:31Z",
        "version": 3,
        "changeset": 120369951,
        "addr:housenumber": "95",
        "addr:postcode": "08625-410",
        "addr:street": "Rua Sebastião de Lima Franco",
        "addr:suburb": "Vila Real Santista",
        "amenity": "school",
        "email": "E912612a@educacao.sp.gov.br",
        "name": "Escola Estadual Professor Antônio José Campos de Menezes",
        "operator": "Secretaria da Educação do Estado de São Paulo",
        "operator:type": "government",
        "phone": "+55 11 4742 6278",
        "ref": "INEP-35912612",
        "religion": "none",
        "id": "way/882138169"
      },
      "geometry": {
        "type": "Polygon",
        "coordinates": [
          [
            [
              -46.3193832,
              -23.6453758
            ],
            [
              -46.3195978,
              -23.6456535
            ],
            [
              -46.3191391,
              -23.6459631
            ],
            [
              -46.3189165,
              -23.6457419
            ],
            [
              -46.3193832,
              -23.6453758
            ]
          ]
        ]
      }
    },
    {
      "type": "Feature",
      "id": "way/1000013905",
      "properties": {
        "timestamp": "2022-03-27T22:16:03Z",
        "version": 2,
        "changeset": 118997743,
        "addr:housenumber": "955",
        "addr:postcode": "08693-280",
        "addr:street": "Avenida Katsutoshi Naito",
        "addr:suburb": "Cidade Boa Vista",
        "amenity": "school",
        "name": "Escola Municipal Vereador Waldemar Calil",
        "id": "way/1000013905"
      },
      "geometry": {
        "type": "Polygon",
        "coordinates": [
          [
            [
              -46.305492,
              -23.5074678
            ],
            [
              -46.3054809,
              -23.5076576
            ],
            [
              -46.3056188,
              -23.5076548
            ],
            [
              -46.3056305,
              -23.5080208
            ],
            [
              -46.3052323,
              -23.5080267
            ],
            [
              -46.3052126,
              -23.5074797
            ],
            [
              -46.305492,
              -23.5074678
            ]
          ]
        ]
      }
    },
    {
      "type": "Feature",
      "id": "way/1000014703",
      "properties": {
        "timestamp": "2022-03-27T22:52:18Z",
        "version": 2,
        "changeset": 118998312,
        "amenity": "school",
        "id": "way/1000014703"
      },
      "geometry": {
        "type": "Polygon",
        "coordinates": [
          [
            [
              -46.3106291,
              -23.5094534
            ],
            [
              -46.3106377,
              -23.5097186
            ],
            [
              -46.3105296,
              -23.510209
            ],
            [
              -46.3099929,
              -23.5100592
            ],
            [
              -46.3100629,
              -23.5094101
            ],
            [
              -46.3106291,
              -23.5094534
            ]
          ]
        ]
      }
    },
    {
      "type": "Feature",
      "id": "way/1000015115",
      "properties": {
        "timestamp": "2025-03-24T18:18:24Z",
        "version": 3,
        "changeset": 164046075,
        "addr:housenumber": "500",
        "addr:postcode": "08693-640",
        "addr:street": "Avenida Boa Vista",
        "addr:suburb": "Jardim Fernandes",
        "amenity": "school",
        "contact:phone": "+55 11 4749 2977",
        "email": "e006973a@educacao.sp.gov.br",
        "name": "Escola Estadual Professor David Jorge Curi",
        "operator": "Secretaria da Educação do Estado de São Paulo",
        "operator:type": "government",
        "operator:wikidata": "Q10369245",
        "phone": "+55 11 4749 1002",
        "ref": "INEP-35006973",
        "religion": "none",
        "source": "CADMEC 2017;INEP",
        "id": "way/1000015115"
      },
      "geometry": {
        "type": "Polygon",
        "coordinates": [
          [
            [
              -46.3052373,
              -23.5030754
            ],
            [
              -46.3053289,
              -23.5033983
            ],
            [
              -46.3048004,
              -23.5035156
            ],
            [
              -46.3047258,
              -23.5031944
            ],
            [
              -46.3052373,
              -23.5030754
            ]
          ]
        ]
      }
    },
    {
      "type": "Feature",
      "id": "way/1029437135",
      "properties": {
        "timestamp": "2022-02-08T23:04:26Z",
        "version": 2,
        "changeset": 117179926,
        "addr:housenumber": "385",
        "addr:postcode": "08690-265",
        "addr:street": "Rua Mário Bochetti",
        "addr:suburb": "Cidade Miguel Badra",
        "amenity": "school",
        "email": "emvictor.salviano@suzano.sp.gov.br",
        "name": "Escola Municipal Victor Salviano",
        "phone": "+55 114752 8039",
        "ref": "INEP-35289590",
        "religion": "none",
        "source": "CADMEC 2017",
        "id": "way/1029437135"
      },
      "geometry": {
        "type": "Polygon",
        "coordinates": [
          [
            [
              -46.3205158,
              -23.5008212
            ],
            [
              -46.3200896,
              -23.50066
            ],
            [
              -46.3205466,
              -23.4997333
            ],
            [
              -46.3209376,
              -23.4998985
            ],
            [
              -46.3205158,
              -23.5008212
            ]
          ]
        ]
      }
    },
    {
      "type": "Feature",
      "id": "way/1046032084",
      "properties": {
        "timestamp": "2025-01-13T22:08:50Z",
        "version": 3,
        "changeset": 161326663,
        "addr:housenumber": "428",
        "addr:postcode": "08616-330",
        "addr:street": "Rua Professora Luiza Hidaka",
        "addr:suburb": "Jardim Luella",
        "amenity": "school",
        "email": "e902949a@educacao.sp.gov.br",
        "name": "Escola Estadual Professora Alice Romanos",
        "operator": "Secretaria da Educação do Estado de São Paulo",
        "operator:type": "government",
        "operator:wikidata": "Q10369245",
        "phone": "+55 11 4742 8717",
        "ref": "INEP-35902949",
        "religion": "none",
        "source": "CADMEC 2017;INEP",
        "id": "way/1046032084"
      },
      "geometry": {
        "type": "Polygon",
        "coordinates": [
          [
            [
              -46.2923082,
              -23.5602276
            ],
            [
              -46.2924906,
              -23.5606775
            ],
            [
              -46.2924879,
              -23.5607414
            ],
            [
              -46.292445,
              -23.5607857
            ],
            [
              -46.2923404,
              -23.5608029
            ],
            [
              -46.2913229,
              -23.5607105
            ],
            [
              -46.2913629,
              -23.5601612
            ],
            [
              -46.2923082,
              -23.5602276
            ]
          ]
        ]
      }
    },
    {
      "type": "Feature",
      "id": "way/1050105940",
      "properties": {
        "timestamp": "2022-04-07T23:11:59Z",
        "version": 3,
        "changeset": 119446561,
        "addr:housenumber": "90",
        "addr:postcode": "08633-020",
        "addr:street": "Rua José Dias de Souza",
        "addr:suburb": "Jardim Brasil",
        "amenity": "school",
        "email": "e921518a@educacao.sp.gov.br",
        "name": "Escola Estadual José Camilo de Andrade",
        "operator": "Secretaria da Educação do Estado de São Paulo",
        "operator:type": "government",
        "phone": "+55 11 4742 6914",
        "ref": "INEP-35921518",
        "religion": "none",
        "source": "CADMEC 2017;INEP",
        "id": "way/1050105940"
      },
      "geometry": {
        "type": "Polygon",
        "coordinates": [
          [
            [
              -46.30746,
              -23.6634051
            ],
            [
              -46.3074965,
              -23.6634218
            ],
            [
              -46.3075033,
              -23.6634532
            ],
            [
              -46.307517,
              -23.6635033
            ],
            [
              -46.307444,
              -23.6636014
            ],
            [
              -46.3071591,
              -23.6640586
            ],
            [
              -46.3070565,
              -23.6642402
            ],
            [
              -46.3069084,
              -23.6645283
            ],
            [
              -46.3068742,
              -23.6645659
            ],
            [
              -46.3068446,
              -23.664568
            ],
            [
              -46.3068218,
              -23.6644887
            ],
            [
              -46.3066941,
              -23.6640461
            ],
            [
              -46.3065961,
              -23.6638582
            ],
            [
              -46.3064753,
              -23.6637183
            ],
            [
              -46.3063386,
              -23.663568
            ],
            [
              -46.3062155,
              -23.6634114
            ],
            [
              -46.3062155,
              -23.6633655
            ],
            [
              -46.3062291,
              -23.66333
            ],
            [
              -46.3062816,
              -23.6633049
            ],
            [
              -46.30746,
              -23.6634051
            ]
          ]
        ]
      }
    },
    {
      "type": "Feature",
      "id": "way/1050124612",
      "properties": {
        "timestamp": "2024-12-14T23:02:03Z",
        "version": 3,
        "changeset": 160294341,
        "addr:housenumber": "km 66",
        "addr:postcode": "08655-000",
        "addr:street": "Rodovia Índio Tibiriçá",
        "addr:suburb": "Jardim Sol Nascente",
        "amenity": "school",
        "email": "e007171a@educacao.sp.gov.br",
        "name": "Escola Estadual Professor Doutor Giovanni Battista Raffo",
        "operator": "Secretaria da Educação do Estado de São Paulo",
        "operator:type": "government",
        "operator:wikidata": "Q10369245",
        "phone": "+55 11 4747 1110",
        "ref:INEP": "35007171",
        "religion": "none",
        "source": "CADMEC 2017;INEP",
        "id": "way/1050124612"
      },
      "geometry": {
        "type": "Polygon",
        "coordinates": [
          [
            [
              -46.3094444,
              -23.5847061
            ],
            [
              -46.3096631,
              -23.5851636
            ],
            [
              -46.3091639,
              -23.5853426
            ],
            [
              -46.3089569,
              -23.5848744
            ],
            [
              -46.3094444,
              -23.5847061
            ]
          ]
        ]
      }
    },
    {
      "type": "Feature",
      "id": "way/1050126468",
      "properties": {
        "timestamp": "2025-03-24T18:18:24Z",
        "version": 2,
        "changeset": 164046075,
        "addr:housenumber": "168",
        "addr:postcode": "08690-015",
        "addr:street": "Rua Renato Alpino Della Latta",
        "addr:suburb": "Cidade Miguel Badra",
        "amenity": "school",
        "email": "e048884a@educacao.sp.gov.br",
        "name": "Escola Estadual Vereador Antônio Garcia",
        "operator": "Secretaria da Educação do Estado de São Paulo",
        "operator:type": "government",
        "operator:wikidata": "Q10369245",
        "phone": "+55 11 4749 8378",
        "ref": "INEP-35048884",
        "religion": "none",
        "source": "CADMEC 2017;INEP",
        "id": "way/1050126468"
      },
      "geometry": {
        "type": "Polygon",
        "coordinates": [
          [
            [
              -46.3145542,
              -23.4987327
            ],
            [
              -46.3146051,
              -23.4987843
            ],
            [
              -46.3146212,
              -23.499141
            ],
            [
              -46.3145971,
              -23.4992369
            ],
            [
              -46.3145247,
              -23.4992246
            ],
            [
              -46.3138783,
              -23.4992
            ],
            [
              -46.3139078,
              -23.4986933
            ],
            [
              -46.3145542,
              -23.4987327
            ]
          ]
        ]
      }
    },
    {
      "type": "Feature",
      "id": "way/1050848536",
      "properties": {
        "timestamp": "2025-01-13T22:08:50Z",
        "version": 4,
        "changeset": 161326663,
        "addr:housenumber": "171",
        "addr:postcode": "08685-140",
        "addr:street": "Rua Maurício Mariano",
        "addr:suburb": "Vila Maluf",
        "amenity": "school",
        "email": "e284361a@educacao.sp.gov.br",
        "name": "Escola Estadual Professor Paulo Kobayashi",
        "operator": "Secretaria da Educação do Estado de São Paulo",
        "operator:type": "government",
        "operator:wikidata": "Q10369245",
        "phone": "+55 11 4741 1995",
        "ref": "INEP-35284361",
        "religion": "none",
        "source": "CADMEC 2017;INEP",
        "id": "way/1050848536"
      },
      "geometry": {
        "type": "Polygon",
        "coordinates": [
          [
            [
              -46.3057305,
              -23.5206621
            ],
            [
              -46.3056182,
              -23.5216703
            ],
            [
              -46.3052133,
              -23.5216404
            ],
            [
              -46.3053227,
              -23.5207841
            ],
            [
              -46.3053611,
              -23.5207462
            ],
            [
              -46.3056771,
              -23.5206364
            ],
            [
              -46.30572,
              -23.5206417
            ],
            [
              -46.3057305,
              -23.5206621
            ]
          ]
        ]
      }
    },
    {
      "type": "Feature",
      "id": "way/1052351587",
      "properties": {
        "timestamp": "2024-12-14T23:15:44Z",
        "version": 2,
        "changeset": 160294610,
        "addr:housenumber": "305",
        "addr:postcode": "08640-230",
        "addr:street": "Rua Santa Clotilde",
        "addr:suburb": "Vila Fátima",
        "amenity": "school",
        "contact:phone": "+55 11 4742 6305",
        "email": "e906300a@educacao.sp.gov.br",
        "name": "Escola Estadual Euclides Igesca",
        "operator": "Secretaria da Educação do Estado de São Paulo",
        "operator:type": "government",
        "operator:wikidata": "Q10369245",
        "phone": "+55 11 4743 9747",
        "ref:INEP": "35906300",
        "religion": "none",
        "source": "CADMEC 2017;INEP",
        "id": "way/1052351587"
      },
      "geometry": {
        "type": "Polygon",
        "coordinates": [
          [
            [
              -46.3309437,
              -23.6338622
            ],
            [
              -46.3304719,
              -23.6341224
            ],
            [
              -46.3301765,
              -23.6336608
            ],
            [
              -46.3301616,
              -23.633622
            ],
            [
              -46.3301605,
              -23.6335706
            ],
            [
              -46.3302131,
              -23.6335266
            ],
            [
              -46.3306047,
              -23.633323
            ],
            [
              -46.3309437,
              -23.6338622
            ]
          ]
        ]
      }
    },
    {
      "type": "Feature",
      "id": "way/1052533701",
      "properties": {
        "timestamp": "2022-09-11T15:06:52Z",
        "version": 2,
        "changeset": 126053049,
        "addr:housenumber": "536",
        "addr:postcode": "08666-180",
        "addr:street": "Rua Dib Tannus",
        "addr:suburb": "Chácaras Reunidas Guaió",
        "amenity": "school",
        "contact:mobile": "++55 11 97158 2212",
        "contact:phone": "+55 11 4742 8584",
        "email": "secretaria@cenibras.com.br",
        "name": "Centro Educacional Nipo-Brasileiro de Suzano",
        "phone": "+55  11 4743 2657",
        "website": "https://www.cenibras.com.br/",
        "id": "way/1052533701"
      },
      "geometry": {
        "type": "Polygon",
        "coordinates": [
          [
            [
              -46.3151387,
              -23.5729229
            ],
            [
              -46.3151529,
              -23.5736462
            ],
            [
              -46.3149582,
              -23.5741653
            ],
            [
              -46.3147494,
              -23.5743696
            ],
            [
              -46.3137797,
              -23.574561
            ],
            [
              -46.3127533,
              -23.5748383
            ],
            [
              -46.3118048,
              -23.5751871
            ],
            [
              -46.3117375,
              -23.5743047
            ],
            [
              -46.311865,
              -23.5738084
            ],
            [
              -46.3126259,
              -23.5736641
            ],
            [
              -46.3138752,
              -23.5731532
            ],
            [
              -46.3143672,
              -23.572978
            ],
            [
              -46.3146254,
              -23.5729215
            ],
            [
              -46.3148052,
              -23.5729253
            ],
            [
              -46.3151387,
              -23.5729229
            ]
          ]
        ]
      }
    },
    {
      "type": "Feature",
      "id": "way/1052553398",
      "properties": {
        "timestamp": "2022-04-18T01:00:46Z",
        "version": 1,
        "changeset": 119834846,
        "addr:housenumber": "90",
        "addr:postcode": "08660-203",
        "addr:street": "Rua Lhubinko Rajkov",
        "addr:suburb": "Jardim Saúde",
        "amenity": "school",
        "name": "Colégio Cristão Kairos",
        "phone": "+55 11 4751 0675",
        "ref": "INEP-35586663",
        "religion": "christian",
        "source": "CADMEC 2017;INEP",
        "website": "https://www.colegiocristaokairos.com.br/home/",
        "id": "way/1052553398"
      },
      "geometry": {
        "type": "Polygon",
        "coordinates": [
          [
            [
              -46.334916,
              -23.5613385
            ],
            [
              -46.3350607,
              -23.5616028
            ],
            [
              -46.3349136,
              -23.5616732
            ],
            [
              -46.3347619,
              -23.5614075
            ],
            [
              -46.3348926,
              -23.5613449
            ],
            [
              -46.334916,
              -23.5613385
            ]
          ]
        ]
      }
    },
    {
      "type": "Feature",
      "id": "way/1053654388",
      "properties": {
        "timestamp": "2022-04-21T15:30:27Z",
        "version": 1,
        "changeset": 120006620,
        "addr:housenumber": "50",
        "addr:postcode": "08696-130",
        "addr:street": "Avenida Paulo Sampaio",
        "addr:suburb": "Jardim Varan",
        "amenity": "school",
        "email": "emjose.celestino@suzano.sp.gov.br",
        "name": "Escola Municipal José Celestino Sanches",
        "operator": "Secretaria Municipal de Educação de Suzano",
        "operator:type": "government",
        "phone": "+55 11 4749 6309",
        "ref": "INEP-35203452",
        "religion": "none",
        "source": "CADMEC 2017;https://www.suzano.sp.gov.br/web/educacao/escolas-municipais/ensino-fundamental-i/",
        "id": "way/1053654388"
      },
      "geometry": {
        "type": "Polygon",
        "coordinates": [
          [
            [
              -46.291496,
              -23.5111628
            ],
            [
              -46.2917226,
              -23.5114556
            ],
            [
              -46.2912094,
              -23.5117118
            ],
            [
              -46.2911011,
              -23.5116164
            ],
            [
              -46.291496,
              -23.5111628
            ]
          ]
        ]
      }
    },
    {
      "type": "Feature",
      "id": "way/1053657717",
      "properties": {
        "timestamp": "2022-04-21T16:04:56Z",
        "version": 2,
        "changeset": 120008109,
        "addr:street": "Rua Manoel Honorato dos Santos",
        "amenity": "school",
        "id": "way/1053657717"
      },
      "geometry": {
        "type": "Polygon",
        "coordinates": [
          [
            [
              -46.2915074,
              -23.5110661
            ],
            [
              -46.291563,
              -23.5111157
            ],
            [
              -46.291476,
              -23.5111628
            ],
            [
              -46.2910968,
              -23.5115994
            ],
            [
              -46.2907704,
              -23.5114138
            ],
            [
              -46.2907647,
              -23.5113772
            ],
            [
              -46.2907932,
              -23.5113406
            ],
            [
              -46.2912693,
              -23.511168
            ],
            [
              -46.291322,
              -23.5111693
            ],
            [
              -46.2913648,
              -23.511168
            ],
            [
              -46.2914133,
              -23.5111654
            ],
            [
              -46.2914503,
              -23.511138
            ],
            [
              -46.2914603,
              -23.5111144
            ],
            [
              -46.2914589,
              -23.5110883
            ],
            [
              -46.2915074,
              -23.5110661
            ]
          ]
        ]
      }
    },
    {
      "type": "Feature",
      "id": "way/1054118196",
      "properties": {
        "timestamp": "2022-04-23T02:55:42Z",
        "version": 1,
        "changeset": 120074736,
        "addr:housenumber": "9700",
        "addr:postcode": "08634-050",
        "addr:street": "Rua Santa Luzia",
        "addr:suburb": "Quinta Divisão",
        "amenity": "school",
        "email": "e007158a@educacao.sp.gov.br",
        "name": "Escola Estadual Helena Zerrenner",
        "operator": "Secretaria da Educação do Estado de São Paulo",
        "operator:type": "government",
        "phone": "+55 11 4742 6600",
        "ref": "INEP-",
        "religion": "none",
        "source": "CADMEC 2017;INEP",
        "id": "way/1054118196"
      },
      "geometry": {
        "type": "Polygon",
        "coordinates": [
          [
            [
              -46.3032379,
              -23.6848785
            ],
            [
              -46.3036612,
              -23.6857074
            ],
            [
              -46.3036256,
              -23.6857662
            ],
            [
              -46.3026463,
              -23.6851696
            ],
            [
              -46.3032379,
              -23.6848785
            ]
          ]
        ]
      }
    },
    {
      "type": "Feature",
      "id": "way/1055112234",
      "properties": {
        "timestamp": "2025-03-24T18:18:24Z",
        "version": 2,
        "changeset": 164046075,
        "addr:housenumber": "189",
        "addr:postcode": "08693-200",
        "addr:street": "Estrado do Marengo",
        "addr:suburb": "Cidade Boa Vista",
        "amenity": "school",
        "email": "e352603a@educacao.sp.gov.br",
        "name": "Escola Estadual Professor Gilberto de Carvalho",
        "operator": "Secretaria da Educação do Estado de São Paulo",
        "operator:type": "government",
        "operator:wikidata": "Q10369245",
        "phone": "+55 11 4749 4490",
        "ref": "INEP-35352603",
        "religion": "none",
        "source": "CADMEC 2017",
        "id": "way/1055112234"
      },
      "geometry": {
        "type": "Polygon",
        "coordinates": [
          [
            [
              -46.3012915,
              -23.4989388
            ],
            [
              -46.3002598,
              -23.4995652
            ],
            [
              -46.300128,
              -23.4992271
            ],
            [
              -46.3011235,
              -23.4986389
            ],
            [
              -46.3012915,
              -23.4989388
            ]
          ]
        ]
      }
    },
    {
      "type": "Feature",
      "id": "way/1055136250",
      "properties": {
        "timestamp": "2022-04-26T17:10:49Z",
        "version": 1,
        "changeset": 120221773,
        "addr:housenumber": "33",
        "addr:postcode": "08670-080",
        "addr:street": "Rua Cachoeira",
        "addr:suburb": "Jardim Monte Cristo",
        "amenity": "school",
        "email": "emcaic@suzano.sp.gov.br",
        "name": "Escola Municipal Caic de Suzano",
        "phone": "+55 11 4743 1807",
        "religion": "none",
        "id": "way/1055136250"
      },
      "geometry": {
        "type": "Polygon",
        "coordinates": [
          [
            [
              -46.3247266,
              -23.5287462
            ],
            [
              -46.3249542,
              -23.5293086
            ],
            [
              -46.3251124,
              -23.5297856
            ],
            [
              -46.3246487,
              -23.5299484
            ],
            [
              -46.3246237,
              -23.5299149
            ],
            [
              -46.3242775,
              -23.5300264
            ],
            [
              -46.3241874,
              -23.5299526
            ],
            [
              -46.3237979,
              -23.5290173
            ],
            [
              -46.3246432,
              -23.528732
            ],
            [
              -46.3246849,
              -23.5287223
            ],
            [
              -46.3247266,
              -23.5287462
            ]
          ]
        ]
      }
    },
    {
      "type": "Feature",
      "id": "way/1107148317",
      "properties": {
        "timestamp": "2022-10-26T17:09:12Z",
        "version": 1,
        "changeset": 128094312,
        "addr:city": "Suzano",
        "addr:housenumber": "321",
        "addr:postcode": "08665-120",
        "addr:street": "Rua Ignácio Garcia",
        "addr:suburb": "Cidade Edson",
        "amenity": "school",
        "name": "SENAI",
        "phone": "+55 11 4741-3500",
        "website": "https://suzano.sp.senai.br/",
        "wheelchair": "no",
        "id": "way/1107148317"
      },
      "geometry": {
        "type": "Polygon",
        "coordinates": [
          [
            [
              -46.3138576,
              -23.5556568
            ],
            [
              -46.3139107,
              -23.5556211
            ],
            [
              -46.3143602,
              -23.5575352
            ],
            [
              -46.3131816,
              -23.5574379
            ],
            [
              -46.312856,
              -23.5564679
            ],
            [
              -46.3127534,
              -23.5562213
            ],
            [
              -46.31258,
              -23.5558612
            ],
            [
              -46.3133409,
              -23.5556244
            ],
            [
              -46.3138576,
              -23.5556568
            ]
          ]
        ]
      }
    },
    {
      "type": "Feature",
      "id": "way/1314236249",
      "properties": {
        "timestamp": "2024-09-08T19:46:42Z",
        "version": 1,
        "changeset": 156367160,
        "addr:street": "Rua Tupinambá",
        "amenity": "school",
        "official_name": "Escola Estadual Vereador Antônio Valdemar Galo",
        "religion": "none",
        "id": "way/1314236249"
      },
      "geometry": {
        "type": "Polygon",
        "coordinates": [
          [
            [
              -46.294364,
              -23.5400334
            ],
            [
              -46.2943011,
              -23.5406665
            ],
            [
              -46.2945973,
              -23.5406851
            ],
            [
              -46.2945759,
              -23.5410293
            ],
            [
              -46.2942406,
              -23.5410146
            ],
            [
              -46.2942352,
              -23.5410613
            ],
            [
              -46.293798,
              -23.5410539
            ],
            [
              -46.2938973,
              -23.5400113
            ],
            [
              -46.294364,
              -23.5400334
            ]
          ]
        ]
      }
    },
    {
      "type": "Feature",
      "id": "way/1314701183",
      "properties": {
        "timestamp": "2024-09-10T19:09:21Z",
        "version": 1,
        "changeset": 156454542,
        "addr:street": "Rua Dona Augusta Aparecida de Carvalho Moraes",
        "amenity": "school",
        "name": "Pequeno Principe Pequena Princesa",
        "phone": "+55 11 4743 2214",
        "id": "way/1314701183"
      },
      "geometry": {
        "type": "Polygon",
        "coordinates": [
          [
            [
              -46.3156249,
              -23.5437024
            ],
            [
              -46.3156898,
              -23.5438544
            ],
            [
              -46.3155009,
              -23.5439223
            ],
            [
              -46.3154312,
              -23.5437592
            ],
            [
              -46.3155293,
              -23.543724
            ],
            [
              -46.3155675,
              -23.5438133
            ],
            [
              -46.3156078,
              -23.5437989
            ],
            [
              -46.3155743,
              -23.5437205
            ],
            [
              -46.3156249,
              -23.5437024
            ]
          ]
        ]
      }
    },
    {
      "type": "Feature",
      "id": "way/1314702147",
      "properties": {
        "timestamp": "2024-09-10T19:15:17Z",
        "version": 1,
        "changeset": 156454749,
        "amenity": "school",
        "id": "way/1314702147"
      },
      "geometry": {
        "type": "Polygon",
        "coordinates": [
          [
            [
              -46.3151532,
              -23.5438235
            ],
            [
              -46.3152393,
              -23.5440021
            ],
            [
              -46.3151623,
              -23.5440374
            ],
            [
              -46.3151804,
              -23.5440768
            ],
            [
              -46.315117,
              -23.5441059
            ],
            [
              -46.3150083,
              -23.5438796
            ],
            [
              -46.3151532,
              -23.5438235
            ]
          ]
        ]
      }
    },
    {
      "type": "Feature",
      "id": "way/1314894532",
      "properties": {
        "timestamp": "2025-01-03T05:52:52Z",
        "version": 2,
        "changeset": 160935154,
        "addr:housenumber": "384",
        "addr:street": "Avenida Armando de Salles Oliveira",
        "addr:suburb": "Centro",
        "amenity": "school",
        "mobile": "+55 11 95306 7296",
        "name": "Colégio Cetés",
        "phone": "+55 11 4747 1500",
        "school": "sport",
        "sport": "taekwondo",
        "website": "https://www.cetes.com.br/",
        "id": "way/1314894532"
      },
      "geometry": {
        "type": "Polygon",
        "coordinates": [
          [
            [
              -46.3140506,
              -23.5366459
            ],
            [
              -46.3135983,
              -23.5368118
            ],
            [
              -46.3134447,
              -23.5364315
            ],
            [
              -46.3138919,
              -23.5362829
            ],
            [
              -46.3140506,
              -23.5366459
            ]
          ]
        ]
      }
    },
    {
      "type": "Feature",
      "id": "node/6504736085",
      "properties": {
        "timestamp": "2021-11-19T17:50:31Z",
        "version": 5,
        "changeset": 114001528,
        "Horário de funcionamento": "das 07h às 17h",
        "addr:city": "Suzano",
        "addr:housenumber": "375",
        "addr:postcode": "08655-148",
        "addr:street": "Rua João Américo Galete",
        "addr:suburb": "Jardim Leblon",
        "amenity": "school",
        "description": "Escola Municipal Professora Celina Rosa de Souza Modalidade de ensino: Infantil / Creche",
        "email": "emcelina.rosa@suzano.sp.gov.br",
        "name": "Escola Municipal Professora Celina Rosa de Souza",
        "opening_hours": "08:00-17:00",
        "phone": "+55 11 4752 7978",
        "ref": "35497356",
        "school:BR": "Infantil/Creche",
        "id": "node/6504736085"
      },
      "geometry": {
        "type": "Point",
        "coordinates": [
          -46.3013923,
          -23.5842042
        ]
      }
    },
    {
      "type": "Feature",
      "id": "node/6769843676",
      "properties": {
        "timestamp": "2022-04-10T22:35:28Z",
        "version": 4,
        "changeset": 119552951,
        "addr:city": "Suzano",
        "addr:housenumber": "96",
        "addr:postcode": "08685-130",
        "addr:street": "Rua Abel de Mattos",
        "addr:suburb": "Vila Maluf",
        "amenity": "school",
        "description": "Horário de atendimento: das 8h às 17h Horário de funcionamento: das 7h às 17h; Escola Municipal de Suzano - Região Centro",
        "email": "em.ana.maria2510@gmail.com;emana.maria@suzano.sp.gov.br",
        "name": "Escola Municipal Ana Maria Barbosa Garcia, Profa.",
        "phone": "+55 11 4743-1793",
        "id": "node/6769843676"
      },
      "geometry": {
        "type": "Point",
        "coordinates": [
          -46.3048105,
          -23.5223835
        ]
      }
    },
    {
      "type": "Feature",
      "id": "node/6775038577",
      "properties": {
        "timestamp": "2020-12-08T13:22:40Z",
        "version": 4,
        "changeset": 95490236,
        "addr:city": "Suzano",
        "addr:postcode": "08663-060",
        "addr:street": "Rua Alcides Pizzolito",
        "addr:suburb": "Casa Branca",
        "amenity": "school",
        "contact:email": ";emangelo.garcia@suzano.sp.gov.br",
        "description": "Horário de atendimento: das 8h às 17h\nHorário de funcionamento: das 7h às 17h",
        "email": "emangelogarcia2017@outlook.com",
        "name": "Escola Municipal Ângelo Garcia",
        "operator": "Secretaria Municipal da Educação",
        "operator:type": "government",
        "phone": "+55 11 4751 1347",
        "ref": "INEP-35570588",
        "id": "node/6775038577"
      },
      "geometry": {
        "type": "Point",
        "coordinates": [
          -46.3310901,
          -23.5602235
        ]
      }
    },
    {
      "type": "Feature",
      "id": "node/6783674325",
      "properties": {
        "timestamp": "2019-09-09T19:31:56Z",
        "version": 1,
        "changeset": 74279039,
        "addr:city": "Suzano",
        "addr:housenumber": "20",
        "addr:postcode": "08670-150",
        "addr:street": "Rua do Ouro",
        "addr:suburb": "Jardim Monte Cristo",
        "amenity": "school",
        "description": "Horário de atendimento: das 08h às 17h\nHorário de funcionamento: das 07h às 17h",
        "email": "emantonio.teixeira@suzano.sp.sp.gov.br",
        "name": "Escola Municipal Antonio Teixeira, Vereador",
        "phone": "+55 11 4743-1798",
        "id": "node/6783674325"
      },
      "geometry": {
        "type": "Point",
        "coordinates": [
          -46.3264967,
          -23.5283967
        ]
      }
    },
    {
      "type": "Feature",
      "id": "node/6791194007",
      "properties": {
        "timestamp": "2019-10-29T16:13:42Z",
        "version": 3,
        "changeset": 76354900,
        "Horário de funcionamento": "das 07h às 17h",
        "addr:city": "Suzano",
        "addr:housenumber": "70",
        "addr:postcode": "08610-200",
        "addr:street": "Rua Antônio Marin",
        "addr:suburb": "Vila Mazza",
        "amenity": "school",
        "email": "emdarcy.correa@suzano.sp.gov.br",
        "name": "Escola Municipal Darcy Corrêa Gonçalves",
        "opening_hours": "Mo-Fr  08:00-17:00",
        "phone": "+55 11 4759 2205",
        "ref": "35079777",
        "school:BR": "Infantil/Creche",
        "id": "node/6791194007"
      },
      "geometry": {
        "type": "Point",
        "coordinates": [
          -46.3040191,
          -23.5442244
        ]
      }
    },
    {
      "type": "Feature",
      "id": "node/6799997469",
      "properties": {
        "timestamp": "2024-09-08T22:52:43Z",
        "version": 4,
        "changeset": 156371522,
        "Horário de funcionamento": "das 07h às 17h",
        "addr:city": "Suzano",
        "addr:housenumber": "704",
        "addr:postcode": "08673-270",
        "addr:street": "Avenida Senador Roberto Simonsen",
        "addr:suburb": "Jardim Imperador",
        "amenity": "school",
        "email": "emeliana.pereira@suzano.sp.gov.br",
        "name": "Escola Municipal Professora Eliana Pereira Figueira",
        "opening_hours": "08:00-17:00",
        "phone": "+55 11 4743-1808",
        "religion": "none",
        "school:BR": "Infantil",
        "id": "node/6799997469"
      },
      "geometry": {
        "type": "Point",
        "coordinates": [
          -46.3216327,
          -23.536452
        ]
      }
    },
    {
      "type": "Feature",
      "id": "node/6800132568",
      "properties": {
        "timestamp": "2022-02-08T23:19:21Z",
        "version": 4,
        "changeset": 117180145,
        "Horário de funcionamento": "das 07h às 17h",
        "addr:city": "Suzano",
        "addr:housenumber": "513",
        "addr:postcode": "08693-060",
        "addr:street": "Rua M.Matos Faria",
        "addr:suburb": "Cidade Boa Vista",
        "amenity": "school",
        "email": "emguiske.tadano@suzano.sp.gov.br",
        "name": "Escola Municipal Guiske Tadano",
        "opening_hours": "08:00-17:00",
        "phone": "+55 11 4749 7077",
        "ref": "INEP-35275773",
        "religion": "none",
        "school:BR": "Infantil",
        "source": "CADMEC 2017",
        "id": "node/6800132568"
      },
      "geometry": {
        "type": "Point",
        "coordinates": [
          -46.3084514,
          -23.4963663
        ]
      }
    },
    {
      "type": "Feature",
      "id": "node/6804126687",
      "properties": {
        "timestamp": "2019-10-10T12:54:49Z",
        "version": 2,
        "changeset": 75512777,
        "Etapas de ensino": "Infantil/Creche",
        "Horário de atendimento": "Mo-Fr 08:00-17:00",
        "Horário de funcionamento": "Mo-Fr 07:00-18:00",
        "addr:city": "Suzano",
        "addr:housenumber": "33",
        "addr:postcode": "08655-265",
        "addr:street": "Rua Mirtes Inoue",
        "addr:suburb": "Chácaras Ceres",
        "amenity": "school",
        "email": "emjardim.tabamarajoara@suzano.sp.gov.br",
        "name": "Escola Municipal Jardim Taba Marajoara",
        "phone": "+55 11 4759 6499",
        "ref": "35317159",
        "id": "node/6804126687"
      },
      "geometry": {
        "type": "Point",
        "coordinates": [
          -46.2976854,
          -23.5848788
        ]
      }
    },
    {
      "type": "Feature",
      "id": "node/6806481339",
      "properties": {
        "timestamp": "2019-09-18T19:57:34Z",
        "version": 1,
        "changeset": 74643891,
        "Etapas de ensino": "Infantil",
        "Horário de atendimento": "das 08h às 17h",
        "Horário de funcionamento": "das 07h às 17h",
        "addr:city": "Suzano",
        "addr:housenumber": "390",
        "addr:postcode": "08664-230",
        "addr:street": "Rua José Rensi",
        "addr:suburb": "Jardim Realce",
        "amenity": "school",
        "email": "emjose.adelino@suzano.sp.gov.br",
        "name": "Escola Municipal José Adelino Moreira de Azevedo",
        "phone": "+55 11 4743-1799",
        "id": "node/6806481339"
      },
      "geometry": {
        "type": "Point",
        "coordinates": [
          -46.3206091,
          -23.5577467
        ]
      }
    },
    {
      "type": "Feature",
      "id": "node/6813043164",
      "properties": {
        "timestamp": "2019-10-09T17:10:43Z",
        "version": 2,
        "changeset": 75475536,
        "Etapas de ensino": "Infantil/Fundamental",
        "Horário de atendimento:": "das 08h às 17h",
        "Horário de funcionamento:": "das 07h às 18h",
        "addr:city": "Suzano",
        "addr:housenumber": "100",
        "addr:postcode": "08640-485",
        "addr:street": "Rua Oito",
        "addr:suburb": "Jardim das Lavras",
        "amenity": "school",
        "email": "emliuba.pizzolitto@suzano.sp.gov.br",
        "name": "Escola Municipal Liuba Pizzolitto",
        "phone": "+55 11 4748 9526",
        "id": "node/6813043164"
      },
      "geometry": {
        "type": "Point",
        "coordinates": [
          -46.3360271,
          -23.6422507
        ]
      }
    },
    {
      "type": "Feature",
      "id": "node/6818153601",
      "properties": {
        "timestamp": "2021-12-12T11:17:16Z",
        "version": 3,
        "changeset": 114842722,
        "Horário de atendimento:": "Mo-Fr 08:00-17:00;Sa,Su,PH off",
        "addr:city": "Suzano",
        "addr:housenumber": "225",
        "addr:postcode": "08696-330",
        "addr:street": "Rua Manoel Honorato Santos",
        "addr:suburb": "Jardim Alteropolis",
        "amenity": "school",
        "email": "emjardim.alteropolis@suzano.sp.gov.br",
        "name": "Escola Municipal Luiza Rodrigues de Oliveira",
        "opening_hours": "Mo-Fr 07:00-18:00;Sa,Su,PH off",
        "phone": "+55 11 4748 0384",
        "ref": "35479627",
        "school": "Infantil/Creche",
        "id": "node/6818153601"
      },
      "geometry": {
        "type": "Point",
        "coordinates": [
          -46.2887937,
          -23.5118713
        ]
      }
    },
    {
      "type": "Feature",
      "id": "node/6818270307",
      "properties": {
        "timestamp": "2019-10-01T00:48:04Z",
        "version": 2,
        "changeset": 75123681,
        "Etapas de ensino": "Infantil/Creche",
        "Horário de atendimento:": "Mo-Fr 08:00-17:00;Sa,Su,PH off",
        "Horário de funcionamento:": "Mo-Fr 07:00-18:00;Sa,Su,PH off",
        "addr:city": "Suzano",
        "addr:housenumber": "1600",
        "addr:postcode": "08696-040",
        "addr:street": "Rua Takashi Kobata",
        "addr:suburb": "Jardim Europa",
        "amenity": "school",
        "email": "emmarisa.barboza@suzano.sp.gov.br",
        "name": "Escola Municipal Professora Marisa Barboza Faria",
        "phone": "+55 11 4752 6441",
        "ref": "35004359",
        "id": "node/6818270307"
      },
      "geometry": {
        "type": "Point",
        "coordinates": [
          -46.2954256,
          -23.5010925
        ]
      }
    },
    {
      "type": "Feature",
      "id": "node/6820651954",
      "properties": {
        "timestamp": "2022-02-08T05:17:37Z",
        "version": 3,
        "changeset": 117143468,
        "Horário de atendimento:": "das 08h às 17h",
        "addr:city": "Suzano",
        "addr:housenumber": "609",
        "addr:postcode": "08690-070",
        "addr:street": "Rua Benedita Salomé da Anunciação",
        "addr:suburb": "Cidade Miguel Badra",
        "amenity": "school",
        "email": "emorlando.digenova@suzano.sp.gov.br",
        "name": "Escola Municipal Orlando Digênova",
        "opening_hours": "07:00-19:00",
        "phone": "+55 11 4749-1300",
        "school": "Infantil",
        "id": "node/6820651954"
      },
      "geometry": {
        "type": "Point",
        "coordinates": [
          -46.3126547,
          -23.4980784
        ]
      }
    },
    {
      "type": "Feature",
      "id": "node/6821074850",
      "properties": {
        "timestamp": "2019-09-24T19:26:04Z",
        "version": 1,
        "changeset": 74874852,
        "Etapas de ensino": "Fundamental",
        "Horário de atendimento:": "das 08h às 17h",
        "Horário de funcionamento:": "das 07h às 18h",
        "addr:city": "Suzano",
        "addr:housenumber": "25",
        "addr:postcode": "08695-680",
        "addr:street": "Rua Antônio Célso Borges",
        "addr:suburb": "Jardim São Bernardino",
        "amenity": "school",
        "email": "emruy.ferreira@suzano.sp.gov.br",
        "name": "Escola Municipal Ruy Ferreira Guimarães, Prof.",
        "phone": "+55 11 4749-3518",
        "id": "node/6821074850"
      },
      "geometry": {
        "type": "Point",
        "coordinates": [
          -46.2736259,
          -23.4946271
        ]
      }
    },
    {
      "type": "Feature",
      "id": "node/6827859159",
      "properties": {
        "timestamp": "2020-12-08T13:22:40Z",
        "version": 2,
        "changeset": 95490236,
        "Etapas de ensino": "Infantil",
        "Horário de atendimento:": "das 08h às 17h",
        "Horário de funcionamento:": "das 07h às 19h",
        "addr:city": "Suzano",
        "addr:housenumber": "127",
        "addr:postcode": "08693-280",
        "addr:street": "Rua Vitória Morena da Silva",
        "addr:suburb": "Casa Branca",
        "amenity": "school",
        "email": "emvirginia.ferreira@suzano.sp.gov.br",
        "name": "Escola Municipal Professora Virginia Ferreira Rafful",
        "operator": "Secretaria Municipal da Educação",
        "operator:type": "government",
        "phone": "+55 11 4743-1795",
        "ref": "INEP-35089308",
        "id": "node/6827859159"
      },
      "geometry": {
        "type": "Point",
        "coordinates": [
          -46.3311453,
          -23.561076
        ]
      }
    },
    {
      "type": "Feature",
      "id": "node/6827965791",
      "properties": {
        "timestamp": "2022-03-27T22:16:03Z",
        "version": 4,
        "changeset": 118997743,
        "Etapas de ensino": "Infantil/Fundamental",
        "Horário de atendimento:": "das 08h às 17h",
        "Horário de funcionamento:": "das 07h às 17h",
        "addr:city": "Suzano",
        "addr:postcode": "08693-280",
        "addr:street": "Avenida Katsutoshi Naito",
        "addr:suburb": "Cidade Boa Vista",
        "amenity": "school",
        "email": "emwaldemar.calil@suzano.sp.gov.br",
        "name": "Escola Municipal Vereador Waldemar Calil",
        "phone": "+55 11 4749 8183",
        "ref": "35089357",
        "id": "node/6827965791"
      },
      "geometry": {
        "type": "Point",
        "coordinates": [
          -46.3055986,
          -23.507485
        ]
      }
    },
    {
      "type": "Feature",
      "id": "node/10844804092",
      "properties": {
        "timestamp": "2023-04-26T21:56:39Z",
        "version": 1,
        "changeset": 135403625,
        "access": "permit",
        "entrance": "yes",
        "id": "node/10844804092"
      },
      "geometry": {
        "type": "Point",
        "coordinates": [
          -46.3005575,
          -23.5471945
        ]
      }
    },
    {
      "type": "Feature",
      "id": "node/10844961680",
      "properties": {
        "timestamp": "2023-04-27T01:09:03Z",
        "version": 1,
        "changeset": 135406282,
        "addr:city": "Suzano",
        "addr:housenumber": "2678",
        "addr:postcode": "08665-000",
        "addr:street": "Rua General Francisco Glicério",
        "entrance": "yes",
        "id": "node/10844961680"
      },
      "geometry": {
        "type": "Point",
        "coordinates": [
          -46.3177284,
          -23.55787
        ]
      }
    }
  ]
}
