{
  "type": "FeatureCollection",
  "features": [
    {
      "type": "Feature",
      "id": "way/550343581",
      "properties": {
        "timestamp": "2023-10-03T22:12:23Z",
        "version": 4,
        "changeset": 142119752,
        "addr:city": "Jaguari",
        "addr:housenumber": "1090",
        "addr:postcode": "97760-000",
        "addr:street": "Avenida 7 de Setembro",
        "addr:suburb": "Centro",
        "amenity": "clinic",
        "building": "yes",
        "healthcare": "clinic",
        "name": "Centro Municipal de Saúde",
        "operator": "Prefeitura Municipal de Jaguari",
        "id": "way/550343581"
      },
      "geometry": {
        "type": "Polygon",
        "coordinates": [
          [
            [
              -54.6907191,
              -29.4916924
            ],
            [
              -54.6907208,
              -29.4915718
            ],
            [
              -54.6910584,
              -29.4915755
            ],
            [
              -54.6910573,
              -29.4916533
            ],
            [
              -54.6911059,
              -29.4916538
            ],
            [
              -54.6911049,
              -29.4917234
            ],
            [
              -54.6909973,
              -29.4917223
            ],
            [
              -54.6909977,
              -29.4916954
            ],
            [
              -54.6907191,
              -29.4916924
            ]
          ]
        ]
      }
    },
    {
      "type": "Feature",
      "id": "way/550343597",
      "properties": {
        "timestamp": "2022-06-12T19:05:06Z",
        "version": 4,
        "changeset": 122294795,
        "addr:city": "Jaguari",
        "addr:housenumber": "121",
        "addr:postcode": "97760-000",
        "addr:street": "Rua Prefeito Enio Decimo",
        "addr:suburb": "Centro",
        "amenity": "clinic",
        "building": "yes",
        "healthcare": "clinic",
        "name": "ESF Central",
        "opening_hours": "Mo-Fr 08:00-17:00",
        "operator": "Prefeitura Municipal de Jaguari",
        "operator:type": "public",
        "phone": "+55 55 3255-1081",
        "id": "way/550343597"
      },
      "geometry": {
        "type": "Polygon",
        "coordinates": [
          [
            [
              -54.6904554,
              -29.4926785
            ],
            [
              -54.6903302,
              -29.4926777
            ],
            [
              -54.6903319,
              -29.4924665
            ],
            [
              -54.6905531,
              -29.4924678
            ],
            [
              -54.6905523,
              -29.4925719
            ],
            [
              -54.6904563,
              -29.4925713
            ],
            [
              -54.6904554,
              -29.4926785
            ]
          ]
        ]
      }
    },
    {
      "type": "Feature",
      "id": "node/9776135677",
      "properties": {
        "timestamp": "2022-05-28T00:33:13Z",
        "version": 1,
        "changeset": 121597323,
        "amenity": "clinic",
        "healthcare": "clinic",
        "name": "Cauzo Jaguari",
        "operator": "Cauzo",
        "operator:type": "private",
        "id": "node/9776135677"
      },
      "geometry": {
        "type": "Point",
        "coordinates": [
          -54.6911345,
          -29.4935503
        ]
      }
    },
    {
      "type": "Feature",
      "id": "node/9776135678",
      "properties": {
        "timestamp": "2022-06-01T02:03:15Z",
        "version": 2,
        "changeset": 121789600,
        "addr:city": "Jaguari",
        "addr:housenumber": "945",
        "addr:postcode": "97760-000",
        "addr:street": "Avenida 7 de Setembro",
        "addr:suburb": "Centro",
        "amenity": "clinic",
        "healthcare": "clinic",
        "healthcare:speciality": "general",
        "name": "Clínica Dr. Alceu Berticelli",
        "id": "node/9776135678"
      },
      "geometry": {
        "type": "Point",
        "coordinates": [
          -54.6913515,
          -29.493276
        ]
      }
    },
    {
      "type": "Feature",
      "id": "node/9778130413",
      "properties": {
        "timestamp": "2022-05-28T23:12:45Z",
        "version": 1,
        "changeset": 121635221,
        "addr:city": "Jaguari",
        "addr:street": "Rua David Cortiana",
        "addr:suburb": "Rivera",
        "amenity": "clinic",
        "healthcare": "clinic",
        "name": "ESF Rivera",
        "phone": "55 55 3255-1121",
        "id": "node/9778130413"
      },
      "geometry": {
        "type": "Point",
        "coordinates": [
          -54.6846101,
          -29.4999946
        ]
      }
    },
    {
      "type": "Feature",
      "id": "node/9787126311",
      "properties": {
        "timestamp": "2023-10-03T22:12:23Z",
        "version": 3,
        "changeset": 142119752,
        "addr:city": "Jaguari",
        "addr:housenumber": "1090",
        "addr:postcode": "97760-000",
        "addr:street": "Avenida 7 de Setembro",
        "addr:suburb": "Centro",
        "amenity": "clinic",
        "building": "yes",
        "healthcare": "clinic",
        "healthcare:speciality": "general",
        "name": "Centro Municipal de Saúde Dr. Alvino Sesti",
        "operator": "Prefeitura Municipal de Jaguari",
        "operator:type": "public",
        "id": "node/9787126311"
      },
      "geometry": {
        "type": "Point",
        "coordinates": [
          -54.6909387,
          -29.4915989
        ]
      }
    }
  ]
}
