{
  "type": "FeatureCollection",
  "features": [
    {
      "type": "Feature",
      "id": "node/9756175358",
      "properties": {
        "timestamp": "2022-05-21T20:26:13Z",
        "version": 2,
        "changeset": 121297190,
        "government": "legislative",
        "name": "Câmara de Vereadores de Jaguari",
        "office": "government",
        "id": "node/9756175358"
      },
      "geometry": {
        "type": "Point",
        "coordinates": [
          -54.690379,
          -29.5016163
        ]
      }
    },
    {
      "type": "Feature",
      "id": "node/9778130358",
      "properties": {
        "timestamp": "2022-05-28T23:12:45Z",
        "version": 1,
        "changeset": 121635221,
        "government": "register_office",
        "name": "Cartório da 26ª Zona Eleitoral",
        "office": "government",
        "id": "node/9778130358"
      },
      "geometry": {
        "type": "Point",
        "coordinates": [
          -54.6926722,
          -29.499771
        ]
      }
    },
    {
      "type": "Feature",
      "id": "node/9778130386",
      "properties": {
        "timestamp": "2022-05-28T23:12:45Z",
        "version": 1,
        "changeset": 121635221,
        "addr:city": "Jaguari",
        "addr:housenumber": "244",
        "addr:postcode": "97760-970",
        "addr:street": "Rua Marechal Floriano",
        "addr:suburb": "Centro",
        "government": "ministry",
        "name": "Secretaria Municipal de Turismo, Cultura, Desportos e Lazer",
        "office": "government",
        "phone": "55 55 3255-1807",
        "website": "https://jaguari.rs.gov.br/estrutura-administrativa/secretarias/secretaria-municipal-de-turismo-cultura-e-desportos/",
        "id": "node/9778130386"
      },
      "geometry": {
        "type": "Point",
        "coordinates": [
          -54.6898749,
          -29.4972064
        ]
      }
    },
    {
      "type": "Feature",
      "id": "node/9778130393",
      "properties": {
        "timestamp": "2022-06-03T03:11:04Z",
        "version": 2,
        "changeset": 121873435,
        "addr:city": "Jaguari",
        "addr:housenumber": "244",
        "addr:postcode": "97760-970",
        "addr:street": "Rua Marechal Floriano",
        "addr:suburb": "Centro",
        "government": "ministry",
        "name": "Secretaria Municipal de Educação",
        "office": "government",
        "phone": "55 55 3255-2765",
        "website": "https://jaguari.rs.gov.br/estrutura-administrativa/secretarias/secretaria-municipal-de-educacao/",
        "id": "node/9778130393"
      },
      "geometry": {
        "type": "Point",
        "coordinates": [
          -54.6898232,
          -29.4973205
        ]
      }
    },
    {
      "type": "Feature",
      "id": "node/9778130398",
      "properties": {
        "timestamp": "2022-05-28T23:12:45Z",
        "version": 1,
        "changeset": 121635221,
        "addr:city": "Jaguari",
        "addr:housenumber": "290",
        "addr:postcode": "97760-970",
        "addr:street": "Rua Carlos Callegaro",
        "addr:suburb": "Centro",
        "government": "ministry",
        "name": "Secretaria Municipal de Desenvolvimento Social e Cidadania",
        "office": "government",
        "phone": "55 55 3255-1506",
        "website": "https://jaguari.rs.gov.br/estrutura-administrativa/secretarias/secretaria-municipal-de-assistencia-social/",
        "id": "node/9778130398"
      },
      "geometry": {
        "type": "Point",
        "coordinates": [
          -54.6930034,
          -29.4973979
        ]
      }
    },
    {
      "type": "Feature",
      "id": "node/9789379493",
      "properties": {
        "timestamp": "2022-06-02T01:53:03Z",
        "version": 1,
        "changeset": 121831863,
        "addr:city": "Jaguari",
        "addr:housenumber": "2255",
        "addr:postcode": "97760-000",
        "addr:street": "Rua Julio de Castilhos",
        "addr:suburb": "Centro",
        "name": "Instituto de Previdência do Estado do Rio Grande do Sul-IPERGS",
        "office": "government",
        "phone": "55 55 3255-1403",
        "id": "node/9789379493"
      },
      "geometry": {
        "type": "Point",
        "coordinates": [
          -54.6905779,
          -29.4993927
        ]
      }
    }
  ]
}
