{
  "type": "FeatureCollection",
  "features": [
    {
      "type": "Feature",
      "id": "node/12621336738",
      "properties": {
        "timestamp": "2025-02-26T21:13:17Z",
        "version": 1,
        "changeset": 162988852,
        "addr:city": "Santo Antonio do pinhal",
        "addr:housenumber": "590",
        "addr:postcode": "12450000",
        "addr:street": "Avenida Ministro Nelson Hungria",
        "addr:suburb": "Centro",
        "amenity": "dentist",
        "check_date:currency:XBT": "2025-02-25",
        "currency:EUR": "yes",
        "currency:USD": "yes",
        "currency:XBT": "yes",
        "description": "Dentista estético e funcional. Reabilitação oral e Harmonização Facial",
        "email": "Victor_bicudo2008@hotmail.com",
        "healthcare": "dentist",
        "name": "Dentista Prime",
        "opening_hours": "Mo-Fr 10:00-17:00",
        "operator": "Victor Bicudo",
        "payment:bitcoin": "yes",
        "payment:cash": "yes",
        "payment:coinos": "yes",
        "payment:credit_cards": "yes",
        "payment:debit_cards": "yes",
        "payment:lightning": "yes",
        "phone": "+55 12 996204036",
        "id": "node/12621336738"
      },
      "geometry": {
        "type": "Point",
        "coordinates": [
          -45.6668203,
          -22.824878
        ]
      }
    }
  ]
}
