{
  "type": "FeatureCollection",
  "features": [
    {
      "type": "Feature",
      "id": "node/1735273907",
      "properties": {
        "timestamp": "2024-10-05T13:35:10Z",
        "version": 5,
        "changeset": 157501518,
        "addr:city": "Santo Antônio do Pinhal",
        "addr:housenumber": "km 4.5",
        "addr:postcode": "12450-000",
        "addr:street": "Estrada Municipal Arlindo Inácio Fernandes",
        "name": "Pousada Villa Campestre",
        "tourism": "hotel",
        "id": "node/1735273907"
      },
      "geometry": {
        "type": "Point",
        "coordinates": [
          -45.6998407,
          -22.8003737
        ]
      }
    },
    {
      "type": "Feature",
      "id": "node/2550660390",
      "properties": {
        "timestamp": "2024-10-05T13:35:13Z",
        "version": 3,
        "changeset": 157501518,
        "addr:housename": "Estrada Municipal - 046 - Fazenda Velha - km 04",
        "addr:housenumber": "km 4",
        "addr:street": "Estrada Municipal Arlindo Inácio Fernandes",
        "addr:suburb": "Machadinho",
        "name": "Pousada Highland",
        "note": "Pousada com lindos chalés",
        "phone": "+551236661228",
        "tourism": "hotel",
        "website": "contatophsap@bol.com.br",
        "id": "node/2550660390"
      },
      "geometry": {
        "type": "Point",
        "coordinates": [
          -45.6952505,
          -22.8006062
        ]
      }
    },
    {
      "type": "Feature",
      "id": "node/10288218654",
      "properties": {
        "timestamp": "2022-12-26T21:18:22Z",
        "version": 1,
        "changeset": 130531249,
        "name": "Valle del Sol",
        "tourism": "hotel",
        "id": "node/10288218654"
      },
      "geometry": {
        "type": "Point",
        "coordinates": [
          -45.6740293,
          -22.8445725
        ]
      }
    },
    {
      "type": "Feature",
      "id": "node/11196661537",
      "properties": {
        "timestamp": "2023-09-16T22:00:56Z",
        "version": 1,
        "changeset": 141360130,
        "name": "Pousada La Colline",
        "tourism": "hotel",
        "id": "node/11196661537"
      },
      "geometry": {
        "type": "Point",
        "coordinates": [
          -45.6646018,
          -22.8254232
        ]
      }
    },
    {
      "type": "Feature",
      "id": "node/12304643066",
      "properties": {
        "timestamp": "2024-11-12T21:09:58Z",
        "version": 4,
        "changeset": 159068457,
        "addr:city": "Santo antonio do Pinhal",
        "addr:street": "Francisca dos santos silva",
        "check_date:currency:XBT": "2024-11-12",
        "currency:XBT": "yes",
        "email": "contato@fontedashortensias.com.br",
        "image": "https://fontedashortensias.com.br/wp-content/uploads/slide1.jpg",
        "internet_access": "yes",
        "name": "Hotel fazenda Fonte das Hortênsias",
        "operator": "Jader Faria",
        "payment:bitcoin": "yes",
        "payment:cash": "yes",
        "payment:coinos": "yes",
        "payment:credit_cards": "yes",
        "payment:debit_cards": "yes",
        "payment:lightning": "yes",
        "phone": "+55 12 997245932",
        "tourism": "hotel",
        "website": "https://www.fontedashortensias.com.br/",
        "id": "node/12304643066"
      },
      "geometry": {
        "type": "Point",
        "coordinates": [
          -45.6810909,
          -22.8113349
        ]
      }
    },
    {
      "type": "Feature",
      "id": "node/12529886874",
      "properties": {
        "timestamp": "2025-02-03T16:40:36Z",
        "version": 3,
        "changeset": 162094088,
        "addr:city": "Santo Antônio do Pinhal",
        "addr:housenumber": "1060",
        "addr:postcode": "12450-000,",
        "addr:street": "Dr Lourenço de Sa",
        "addr:suburb": "Sertãozinho",
        "brand": "Marcio Franco",
        "check_date:currency:XBT": "2025-01-24",
        "currency:EUR": "yes",
        "currency:USD": "yes",
        "currency:XBT": "yes",
        "email": "adm@hoteisreserva.com.br",
        "name": "Reserva Santo Antonio do Pinhal",
        "payment:coins": "yes",
        "payment:credit_cards": "yes",
        "payment:debit_cards": "yes",
        "payment:lightning": "yes",
        "phone": "+55 11 934156466",
        "tourism": "hotel",
        "website": "https://reservasantoantonio.com.br/",
        "id": "node/12529886874"
      },
      "geometry": {
        "type": "Point",
        "coordinates": [
          -45.6693907,
          -22.8334952
        ]
      }
    },
    {
      "type": "Feature",
      "id": "node/12619104885",
      "properties": {
        "timestamp": "2025-03-11T02:14:19Z",
        "version": 3,
        "changeset": 163466225,
        "addr:city": "Santo antonio do pinhal",
        "addr:postcode": "1245000",
        "addr:street": "Estrada Barreirinha",
        "addr:suburb": "Rio Preto",
        "check_date:currency:XBT": "2025-02-25",
        "currency:XBT": "yes",
        "email": "estreladaserrah@gmail.com",
        "name": "Estrela da Serra Hotel Fazenda",
        "payment:bitcoin": "yes",
        "payment:cash": "yes",
        "payment:coinos": "yes",
        "payment:credit_cards": "yes",
        "payment:debit_cards": "yes",
        "payment:lightning": "yes",
        "phone": "+55 12 997380333",
        "tourism": "hotel",
        "website": "https://www.estreladaserra.com.br/",
        "id": "node/12619104885"
      },
      "geometry": {
        "type": "Point",
        "coordinates": [
          -45.7401441,
          -22.846877
        ]
      }
    },
    {
      "type": "Feature",
      "id": "node/12703375077",
      "properties": {
        "timestamp": "2025-03-26T20:33:49Z",
        "version": 3,
        "changeset": 164138147,
        "addr:city": "Santo Antônio do Pinhal",
        "addr:housenumber": "s/n",
        "addr:postcode": "12450000",
        "addr:street": "Rua Antonio Jose Ramos",
        "addr:suburb": "Zona Rural,",
        "check_date": "2025-03-26",
        "contact:email": "philchaves@gmail.com",
        "currency:XBT": "yes",
        "name": "Sitio Quitandinha",
        "opening_hours": "\"By appointment\"",
        "payment:onchain": "yes",
        "phone": "+55 11 95776 5994",
        "tourism": "hotel",
        "wheelchair": "yes",
        "id": "node/12703375077"
      },
      "geometry": {
        "type": "Point",
        "coordinates": [
          -45.6690484,
          -22.8144435
        ]
      }
    }
  ]
}
