{
  "type": "FeatureCollection",
  "features": [
    {
      "type": "Feature",
      "id": "node/12335557058",
      "properties": {
        "timestamp": "2024-11-12T21:15:22Z",
        "version": 2,
        "changeset": 159068689,
        "addr:city": "Santo Antonio do pinhal",
        "addr:housenumber": "615",
        "addr:postcode": "12450000",
        "addr:street": "Avenida Ministro Nelson Hungria",
        "addr:suburb": "Centro",
        "amenity": "pharmacy",
        "check_date:currency:XBT": "2024-11-12",
        "currency:EUR": "yes",
        "currency:USD": "yes",
        "currency:XBT": "yes",
        "description": "Farmácia de manipulação, drogaria e perfumaria",
        "email": "drog.sanotas@manipharm.com.br",
        "healthcare": "pharmacy",
        "image": "https://image.nostr.build/930a7144a3920247e5af27d7ecf08cf2bd54c9ddb4c061cadd5f3a933c30793f.png",
        "name": "Farmácia Manipharm Santo Antônio",
        "opening_hours": "Everyday - 08:00 21:00",
        "operator": "Renan Barbosa Mendonça",
        "payment:bitcoin": "yes",
        "payment:coinos": "yes",
        "payment:lightning": "yes",
        "phone": "+55 12 997693398",
        "id": "node/12335557058"
      },
      "geometry": {
        "type": "Point",
        "coordinates": [
          -45.6680367,
          -22.824658
        ]
      }
    },
    {
      "type": "Feature",
      "id": "node/12619104886",
      "properties": {
        "timestamp": "2025-02-25T22:16:31Z",
        "version": 1,
        "changeset": 162951323,
        "addr:city": "Santo Antônio do Pinhal",
        "addr:housenumber": "49",
        "addr:postcode": "12450000",
        "addr:street": "Rua Expedito Costa Manso",
        "addr:suburb": "Centro",
        "amenity": "pharmacy",
        "check_date:currency:XBT": "2025-02-25",
        "currency:XBT": "yes",
        "email": "prontoleu@hotmail.com",
        "healthcare": "pharmacy",
        "name": "Drogaria Mantiqueira",
        "opening_hours": "Mo-Mo 08:00-21:00",
        "operator": "Centileu Toledo",
        "payment:bitcoin": "yes",
        "payment:cash": "yes",
        "payment:coinos": "yes",
        "payment:credit_cards": "yes",
        "payment:debit_cards": "yes",
        "payment:lightning": "yes",
        "phone": "+55 12 997853012",
        "id": "node/12619104886"
      },
      "geometry": {
        "type": "Point",
        "coordinates": [
          -45.6659866,
          -22.8257272
        ]
      }
    }
  ]
}
