{
  "type": "FeatureCollection",
  "features": [
    {
      "type": "Feature",
      "id": "way/1026857528",
      "properties": {
        "timestamp": "2022-02-01T23:09:13Z",
        "version": 1,
        "changeset": 116889039,
        "amenity": "school",
        "name": "Unid Esc Pedro Caze",
        "id": "way/1026857528"
      },
      "geometry": {
        "type": "Polygon",
        "coordinates": [
          [
            [
              -40.8025988,
              -7.2392364
            ],
            [
              -40.8024771,
              -7.2396776
            ],
            [
              -40.8019808,
              -7.2395429
            ],
            [
              -40.8021024,
              -7.2391017
            ],
            [
              -40.8025988,
              -7.2392364
            ]
          ]
        ]
      }
    },
    {
      "type": "Feature",
      "id": "way/1026857559",
      "properties": {
        "timestamp": "2022-02-01T23:09:47Z",
        "version": 1,
        "changeset": 116889053,
        "amenity": "school",
        "name": "Unid Esc Joaquim Pereira Filho",
        "phone": "+55 89 3436 1120",
        "id": "way/1026857559"
      },
      "geometry": {
        "type": "Polygon",
        "coordinates": [
          [
            [
              -40.7806993,
              -7.2041456
            ],
            [
              -40.7807958,
              -7.2041025
            ],
            [
              -40.780867,
              -7.2042593
            ],
            [
              -40.7807706,
              -7.2043024
            ],
            [
              -40.7806993,
              -7.2041456
            ]
          ]
        ]
      }
    },
    {
      "type": "Feature",
      "id": "way/1026857596",
      "properties": {
        "timestamp": "2022-02-01T23:10:18Z",
        "version": 1,
        "changeset": 116889059,
        "amenity": "school",
        "name": "Unid Esc Antonio Goncalo Da Silva",
        "phone": "+55 89 3436 1335",
        "id": "way/1026857596"
      },
      "geometry": {
        "type": "Polygon",
        "coordinates": [
          [
            [
              -40.8212824,
              -7.1573532
            ],
            [
              -40.8212795,
              -7.1576276
            ],
            [
              -40.8210183,
              -7.157625
            ],
            [
              -40.8210211,
              -7.1573505
            ],
            [
              -40.8212824,
              -7.1573532
            ]
          ]
        ]
      }
    },
    {
      "type": "Feature",
      "id": "way/1027689906",
      "properties": {
        "timestamp": "2022-02-04T11:57:43Z",
        "version": 1,
        "changeset": 117003743,
        "addr:city": "Alegrete do Piauí",
        "addr:housenumber": "90",
        "addr:postcode": "64675-000",
        "addr:street": "Rua Queiroz Galvão",
        "amenity": "school",
        "name": "Unid Esc Maria Juceneuda Maia",
        "phone": "+55 89 3436 1120",
        "id": "way/1027689906"
      },
      "geometry": {
        "type": "Polygon",
        "coordinates": [
          [
            [
              -40.8572713,
              -7.2444957
            ],
            [
              -40.8577109,
              -7.2443873
            ],
            [
              -40.8578351,
              -7.2448159
            ],
            [
              -40.8573831,
              -7.244949
            ],
            [
              -40.8572713,
              -7.2444957
            ]
          ]
        ]
      }
    },
    {
      "type": "Feature",
      "id": "way/1027690408",
      "properties": {
        "timestamp": "2022-02-04T11:58:26Z",
        "version": 1,
        "changeset": 117003766,
        "addr:city": "Alegrete do Piauí",
        "addr:postcode": "64675-000",
        "addr:street": "Rua Manoel Sanches Leal",
        "amenity": "school",
        "name": "U E Antonia De Sousa Alencar",
        "id": "way/1027690408"
      },
      "geometry": {
        "type": "Polygon",
        "coordinates": [
          [
            [
              -40.857083,
              -7.2427485
            ],
            [
              -40.857149,
              -7.2430833
            ],
            [
              -40.8566692,
              -7.243115
            ],
            [
              -40.8566351,
              -7.24277
            ],
            [
              -40.857083,
              -7.2427485
            ]
          ]
        ]
      }
    },
    {
      "type": "Feature",
      "id": "node/9474114316",
      "properties": {
        "timestamp": "2022-02-04T12:00:34Z",
        "version": 1,
        "changeset": 117003840,
        "addr:city": "Alegrete do Piauí",
        "addr:housenumber": "39",
        "addr:postcode": "64675-000",
        "addr:suburb": "Centro",
        "amenity": "school",
        "name": "Creche Tia Osay Maia",
        "phone": "+55 89 3436 1120",
        "id": "node/9474114316"
      },
      "geometry": {
        "type": "Point",
        "coordinates": [
          -40.8597676,
          -7.2425137
        ]
      }
    },
    {
      "type": "Feature",
      "id": "node/9474149412",
      "properties": {
        "timestamp": "2022-02-04T12:05:19Z",
        "version": 1,
        "changeset": 117003992,
        "addr:city": "Alegrete do Piauí",
        "addr:postcode": "64675-000",
        "addr:street": "Rua Dom Expedito",
        "addr:suburb": "Bela Vista",
        "amenity": "school",
        "name": "Unidade Escolar Francisco Elpidio Ramos",
        "id": "node/9474149412"
      },
      "geometry": {
        "type": "Point",
        "coordinates": [
          -40.8639814,
          -7.2427824
        ]
      }
    },
    {
      "type": "Feature",
      "id": "node/9474178172",
      "properties": {
        "timestamp": "2022-02-04T12:05:54Z",
        "version": 1,
        "changeset": 117004012,
        "addr:city": "Alegrete do Piauí",
        "addr:postcode": "64675-000",
        "amenity": "school",
        "name": "Unid Esc Mae Maria",
        "id": "node/9474178172"
      },
      "geometry": {
        "type": "Point",
        "coordinates": [
          -40.855511,
          -7.2400844
        ]
      }
    },
    {
      "type": "Feature",
      "id": "node/9474190453",
      "properties": {
        "timestamp": "2022-02-04T12:04:15Z",
        "version": 1,
        "changeset": 117003961,
        "addr:city": "Alegrete do Piauí",
        "addr:housenumber": "225",
        "addr:postcode": "64675-000",
        "addr:street": "Rua Francisco Elpio Ramos",
        "addr:suburb": "Centro",
        "amenity": "school",
        "name": "Unid Esc Tertuliano Sanches Leal",
        "phone": "+55 89 3436 1208",
        "id": "node/9474190453"
      },
      "geometry": {
        "type": "Point",
        "coordinates": [
          -40.8608459,
          -7.2419523
        ]
      }
    }
  ]
}
