{
  "type": "FeatureCollection",
  "features": [
    {
      "type": "Feature",
      "id": "node/8096705789",
      "properties": {
        "timestamp": "2021-08-13T21:32:55Z",
        "version": 3,
        "changeset": 109649882,
        "addr:housenumber": "2338",
        "addr:street": "Rua Francisco Augusto de Oliveira",
        "amenity": "clinic",
        "healthcare": "clinic",
        "name": "Spa Sarah Suzy",
        "opening_hours": "Mo-Sa 06:00-17:00",
        "phone": "+55 88 9 9769 6714",
        "id": "node/8096705789"
      },
      "geometry": {
        "type": "Point",
        "coordinates": [
          -38.1039391,
          -5.1610627
        ]
      }
    },
    {
      "type": "Feature",
      "id": "node/8118397204",
      "properties": {
        "timestamp": "2021-08-12T01:08:29Z",
        "version": 3,
        "changeset": 109541748,
        "addr:housenumber": "1311",
        "addr:street": "Rua Coronel Antônio Joaquim",
        "amenity": "clinic",
        "healthcare": "clinic",
        "name": "Unimed Vale do Jaguaribe",
        "opening_hours": "Mo-Fr 08:00-18:00",
        "phone": "+55 88 3447 6600",
        "id": "node/8118397204"
      },
      "geometry": {
        "type": "Point",
        "coordinates": [
          -38.1023011,
          -5.1544939
        ]
      }
    },
    {
      "type": "Feature",
      "id": "node/8142442151",
      "properties": {
        "timestamp": "2021-08-12T10:11:34Z",
        "version": 3,
        "changeset": 109563855,
        "addr:housenumber": "627",
        "addr:street": "Rua João Maria de Freitas",
        "amenity": "clinic",
        "healthcare": "clinic",
        "name": "Clinica Imagil",
        "phone": "+55 88 3423 1716",
        "id": "node/8142442151"
      },
      "geometry": {
        "type": "Point",
        "coordinates": [
          -38.0994377,
          -5.1529374
        ]
      }
    },
    {
      "type": "Feature",
      "id": "node/8185082125",
      "properties": {
        "timestamp": "2021-08-14T17:40:29Z",
        "version": 3,
        "changeset": 109678321,
        "addr:housenumber": "1581",
        "addr:street": "Rua João Maria de Freitas",
        "amenity": "clinic",
        "healthcare": "clinic",
        "name": "Clínica Femina",
        "phone": "+55 88 3423 5005",
        "id": "node/8185082125"
      },
      "geometry": {
        "type": "Point",
        "coordinates": [
          -38.0996214,
          -5.1533863
        ]
      }
    },
    {
      "type": "Feature",
      "id": "node/8237723977",
      "properties": {
        "timestamp": "2021-08-14T14:25:46Z",
        "version": 3,
        "changeset": 109672431,
        "addr:housenumber": "1243",
        "addr:street": "Avenida Coronel Clóvis Alexandrino",
        "amenity": "clinic",
        "healthcare": "clinic",
        "name": "CLIMESP - Clinica Médica Especializada",
        "phone": "+55 88 3423 2512",
        "id": "node/8237723977"
      },
      "geometry": {
        "type": "Point",
        "coordinates": [
          -38.1033134,
          -5.1545625
        ]
      }
    },
    {
      "type": "Feature",
      "id": "node/8402800461",
      "properties": {
        "timestamp": "2021-08-12T12:00:46Z",
        "version": 3,
        "changeset": 109570812,
        "addr:housenumber": "550",
        "addr:street": "Rua Manfredo de Oliveira",
        "amenity": "clinic",
        "healthcare": "clinic",
        "name": "EndoGastrus Centro Integrado do Aparelho Digestivo",
        "opening_hours": "Mo-Sa 07:00-17:00",
        "phone": "+55 88 9 8104 1001",
        "id": "node/8402800461"
      },
      "geometry": {
        "type": "Point",
        "coordinates": [
          -38.0934372,
          -5.1401873
        ]
      }
    },
    {
      "type": "Feature",
      "id": "node/8412852839",
      "properties": {
        "timestamp": "2021-05-04T15:07:41Z",
        "version": 2,
        "changeset": 104132481,
        "addr:housenumber": "2025",
        "addr:street": "Rua Sindulfo Chaves",
        "amenity": "clinic",
        "healthcare": "clinic",
        "name": "Clinica Dr Reuber",
        "id": "node/8412852839"
      },
      "geometry": {
        "type": "Point",
        "coordinates": [
          -38.0991633,
          -5.1491944
        ]
      }
    },
    {
      "type": "Feature",
      "id": "node/8432862975",
      "properties": {
        "timestamp": "2021-08-13T20:38:59Z",
        "version": 3,
        "changeset": 109648443,
        "addr:housenumber": "2843",
        "addr:street": "Rua Conego Mizael Alves de Souza",
        "amenity": "clinic",
        "healthcare": "clinic",
        "name": "Clinica Dr Bruno Rocha Pessoa",
        "opening_hours": "Mo-Fr 09:00-18:00",
        "phone": "+55 88 3423 4404",
        "id": "node/8432862975"
      },
      "geometry": {
        "type": "Point",
        "coordinates": [
          -38.095314,
          -5.1425624
        ]
      }
    },
    {
      "type": "Feature",
      "id": "node/8476880792",
      "properties": {
        "timestamp": "2021-08-12T01:03:40Z",
        "version": 3,
        "changeset": 109541684,
        "addr:housenumber": "1070",
        "addr:street": "Rua Coronel José Nunes",
        "amenity": "clinic",
        "healthcare": "clinic",
        "name": "Clinica DuVale",
        "phone": "+55 88 3423 3838",
        "id": "node/8476880792"
      },
      "geometry": {
        "type": "Point",
        "coordinates": [
          -38.0949364,
          -5.1526875
        ]
      }
    },
    {
      "type": "Feature",
      "id": "node/8514826184",
      "properties": {
        "timestamp": "2021-08-10T23:07:49Z",
        "version": 3,
        "changeset": 109486733,
        "addr:housenumber": "1977",
        "addr:street": "Avenida Coronel Clóvis Alexandrino",
        "amenity": "clinic",
        "healthcare": "clinic",
        "name": "Clínica UltraVale Dra. Lígia Adami",
        "phone": "+55 88 9 9980 2166",
        "id": "node/8514826184"
      },
      "geometry": {
        "type": "Point",
        "coordinates": [
          -38.0979385,
          -5.1573124
        ]
      }
    },
    {
      "type": "Feature",
      "id": "node/8514847259",
      "properties": {
        "timestamp": "2021-08-14T14:33:01Z",
        "version": 3,
        "changeset": 109672681,
        "addr:street": "Rua Napoleão Nunes Maia",
        "amenity": "clinic",
        "healthcare": "clinic",
        "name": "Policlínica Judite Chaves Saraiva",
        "phone": "+55 88 3423 3412",
        "id": "node/8514847259"
      },
      "geometry": {
        "type": "Point",
        "coordinates": [
          -38.1000633,
          -5.1631875
        ]
      }
    },
    {
      "type": "Feature",
      "id": "node/9998106013",
      "properties": {
        "timestamp": "2023-05-05T11:53:29Z",
        "version": 3,
        "changeset": 135738571,
        "addr:housenumber": "191",
        "addr:street": "Rua Raimundo Felipe Neto",
        "amenity": "clinic",
        "healthcare": "clinic",
        "name": "Clínica Naturalys",
        "phone": "+55 88 9 9650 1491",
        "id": "node/9998106013"
      },
      "geometry": {
        "type": "Point",
        "coordinates": [
          -38.0966712,
          -5.140944
        ]
      }
    }
  ]
}
