{
  "type": "FeatureCollection",
  "features": [
    {
      "type": "Feature",
      "id": "node/4229153389",
      "properties": {
        "timestamp": "2021-05-04T15:07:41Z",
        "version": 2,
        "changeset": 104132481,
        "amenity": "pharmacy",
        "healthcare": "pharmacy",
        "name": "Marcelo",
        "id": "node/4229153389"
      },
      "geometry": {
        "type": "Point",
        "coordinates": [
          -38.0951938,
          -5.1487482
        ]
      }
    },
    {
      "type": "Feature",
      "id": "node/8349714281",
      "properties": {
        "timestamp": "2021-08-12T22:04:17Z",
        "version": 3,
        "changeset": 109595684,
        "amenity": "pharmacy",
        "healthcare": "pharmacy",
        "name": "BomFarma",
        "opening_hours": "Mo-Su 07:00-20:00",
        "phone": "+55 88 9 9964 2027",
        "id": "node/8349714281"
      },
      "geometry": {
        "type": "Point",
        "coordinates": [
          -38.0848122,
          -5.1419377
        ]
      }
    },
    {
      "type": "Feature",
      "id": "node/8393576177",
      "properties": {
        "timestamp": "2021-08-12T01:03:17Z",
        "version": 3,
        "changeset": 109541681,
        "addr:housenumber": "570",
        "addr:street": "Rua Manfredo de Oliveira",
        "amenity": "pharmacy",
        "healthcare": "pharmacy",
        "name": "Farm√°cia Fami Farma",
        "phone": "+55 88 9 9999 0518",
        "id": "node/8393576177"
      },
      "geometry": {
        "type": "Point",
        "coordinates": [
          -38.0933334,
          -5.1404725
        ]
      }
    },
    {
      "type": "Feature",
      "id": "node/10276832579",
      "properties": {
        "timestamp": "2022-12-20T22:33:29Z",
        "version": 1,
        "changeset": 130308106,
        "addr:housenumber": "2755",
        "addr:street": "Avenida Dom Aureliano Matos",
        "amenity": "pharmacy",
        "name": "Drogaria Nossa Farma",
        "phone": "(88) 2142-0668",
        "id": "node/10276832579"
      },
      "geometry": {
        "type": "Point",
        "coordinates": [
          -38.0978803,
          -5.1415251
        ]
      }
    }
  ]
}
