{
  "type": "FeatureCollection",
  "features": [
    {
      "type": "Feature",
      "id": "node/6796103172",
      "properties": {
        "timestamp": "2019-09-15T00:45:58Z",
        "version": 1,
        "changeset": 74486460,
        "amenity": "clinic",
        "name": "Clínica Armando Cajubá",
        "id": "node/6796103172"
      },
      "geometry": {
        "type": "Point",
        "coordinates": [
          -41.7746617,
          -2.9039615
        ]
      }
    },
    {
      "type": "Feature",
      "id": "node/12361780463",
      "properties": {
        "timestamp": "2024-11-21T14:23:09Z",
        "version": 1,
        "changeset": 159412247,
        "addr:city": "Parnaíba",
        "addr:housenumber": "597",
        "addr:postcode": "64218-660",
        "addr:street": "Avenida Senador Furtado",
        "addr:suburb": "Nova Parnaíba",
        "amenity": "clinic",
        "healthcare": "clinic",
        "healthcare:speciality": "psychiatry;psicologia;geriatrics;nutrição;endocrinology;neuropsicologi;neuropsicopedagogia",
        "name": "Clínica Mentalize: Cuidados em Saúde Mental",
        "operator": "Clínica Mentalize: Cuidados em Saúde Mental",
        "operator:type": "business",
        "id": "node/12361780463"
      },
      "geometry": {
        "type": "Point",
        "coordinates": [
          -41.7751978,
          -2.9120079
        ]
      }
    }
  ]
}
