{
  "type": "FeatureCollection",
  "features": [
    {
      "type": "Feature",
      "id": "node/4640669893",
      "properties": {
        "timestamp": "2022-03-22T12:51:04Z",
        "version": 2,
        "changeset": 118777607,
        "addr:city": "Alfredo Chaves",
        "addr:postcode": "29240-000",
        "addr:street": "Avenida José Maria Camiletti",
        "addr:suburb": "Matilde",
        "guest_house": "agritourism",
        "mobile": "+55 27 99798 6269",
        "name": "Pousada Brasil de Papel",
        "name:en": "Brasil de Papel Hotel",
        "phone": "+55 27 3269 4019",
        "tourism": "guest_house",
        "id": "node/4640669893"
      },
      "geometry": {
        "type": "Point",
        "coordinates": [
          -40.8165748,
          -20.5562532
        ]
      }
    },
    {
      "type": "Feature",
      "id": "node/9592585021",
      "properties": {
        "timestamp": "2022-03-20T18:29:30Z",
        "version": 1,
        "changeset": 118706498,
        "addr:city": "Alfredo Chaves",
        "addr:postcode": "29240000",
        "addr:suburb": "São Joaquim",
        "email": "pousadaquintino@hotmail.com",
        "guest_house": "agritourism",
        "name": "Pousada do Quintino",
        "phone": "+55 28 99941 7079",
        "tourism": "guest_house",
        "website": "http://www.pousadaquintino.com.br/",
        "id": "node/9592585021"
      },
      "geometry": {
        "type": "Point",
        "coordinates": [
          -40.9022944,
          -20.6655062
        ]
      }
    },
    {
      "type": "Feature",
      "id": "node/9594249542",
      "properties": {
        "timestamp": "2022-03-22T12:51:04Z",
        "version": 2,
        "changeset": 118777607,
        "addr:city": "Alfredo Chaves",
        "addr:postcode": "29240-000",
        "addr:suburb": "São Roque de Maravilha",
        "email": "edu.martinsxavier@gmail.com",
        "guest_house": "agritourism",
        "name": "Pousada Vovó Uzília",
        "operator": "Leiliani Ramos da Costa Xavier",
        "phone": "+55 28 99955 3052",
        "tourism": "guest_house",
        "id": "node/9594249542"
      },
      "geometry": {
        "type": "Point",
        "coordinates": [
          -40.8775069,
          -20.5530165
        ]
      }
    },
    {
      "type": "Feature",
      "id": "node/9594249547",
      "properties": {
        "timestamp": "2022-03-22T12:51:04Z",
        "version": 2,
        "changeset": 118777607,
        "addr:city": "Alfredo Chaves",
        "addr:postcode": "29240-000",
        "addr:suburb": "São Roque de Maravilha",
        "email": "christiane.nsramos@gmail.com",
        "guest_house": "agritourism",
        "name": "Pousada Maravilha",
        "operator": "Eder da Costa Ramos",
        "phone": "+55 28 99913 6096",
        "tourism": "guest_house",
        "id": "node/9594249547"
      },
      "geometry": {
        "type": "Point",
        "coordinates": [
          -40.8790746,
          -20.5528714
        ]
      }
    },
    {
      "type": "Feature",
      "id": "node/9595827877",
      "properties": {
        "timestamp": "2022-03-21T21:21:05Z",
        "version": 1,
        "changeset": 118753553,
        "addr:city": "Alfredo Chaves",
        "addr:housenumber": "656",
        "addr:postcode": "29240-000",
        "addr:street": "Avenida Getúlio Vargas",
        "addr:suburb": "Centro",
        "guest_house": "guest_house",
        "mobile": "+55 27 99981 6751",
        "name": "Casa Hostel",
        "phone": "+55 27 3269 1345",
        "tourism": "guest_house",
        "id": "node/9595827877"
      },
      "geometry": {
        "type": "Point",
        "coordinates": [
          -40.7481134,
          -20.6358658
        ]
      }
    },
    {
      "type": "Feature",
      "id": "node/9597285050",
      "properties": {
        "timestamp": "2022-03-22T12:51:04Z",
        "version": 1,
        "changeset": 118777607,
        "addr:city": "Alfredo Chaves",
        "addr:postcode": "29240-000",
        "addr:street": "Avenida Luiz Gaigher",
        "addr:suburb": "Cachoeira Alta",
        "guest_house": "agritourism",
        "name": "Pousada Cachoeira Alta",
        "phone": "+55 27 99944 7568",
        "tourism": "guest_house",
        "id": "node/9597285050"
      },
      "geometry": {
        "type": "Point",
        "coordinates": [
          -40.7725561,
          -20.6798149
        ]
      }
    },
    {
      "type": "Feature",
      "id": "node/9597285051",
      "properties": {
        "timestamp": "2022-03-22T12:51:04Z",
        "version": 1,
        "changeset": 118777607,
        "addr:city": "Alfredo Chaves",
        "addr:postcode": "29240-000",
        "addr:street": "Avenida Luiz Gaigher",
        "addr:suburb": "Cachoeira Alta",
        "guest_house": "agritourism",
        "name": "Pousada do Zezé",
        "phone": "+55 27 99983 0601",
        "tourism": "guest_house",
        "id": "node/9597285051"
      },
      "geometry": {
        "type": "Point",
        "coordinates": [
          -40.7718319,
          -20.6783444
        ]
      }
    },
    {
      "type": "Feature",
      "id": "node/9597285090",
      "properties": {
        "timestamp": "2022-03-22T12:51:04Z",
        "version": 1,
        "changeset": 118777607,
        "addr:city": "Alfredo Chaves",
        "addr:postcode": "29240-000",
        "addr:suburb": "Matilde",
        "email": "robertataufner@hotmail.com",
        "guest_house": "agritourism",
        "mobile": "+55 27 99988 0677",
        "name": "Pousada Vila Mathilde",
        "operator": "Pousada Vila Mathilde Limitada",
        "phone": "+55 27 3269 4082",
        "tourism": "guest_house",
        "id": "node/9597285090"
      },
      "geometry": {
        "type": "Point",
        "coordinates": [
          -40.8168049,
          -20.5557884
        ]
      }
    },
    {
      "type": "Feature",
      "id": "node/9597285099",
      "properties": {
        "timestamp": "2022-03-22T12:51:04Z",
        "version": 1,
        "changeset": 118777607,
        "addr:city": "Alfredo Chaves",
        "addr:postcode": "29240-000",
        "addr:street": "Avenida José Maria Camiletti",
        "addr:suburb": "Matilde",
        "guest_house": "agritourism",
        "mobile": "+55 27 99741 2559",
        "name": "Pousada e Camping Prainha",
        "phone": "+55 27 3269 4020",
        "tourism": "guest_house",
        "id": "node/9597285099"
      },
      "geometry": {
        "type": "Point",
        "coordinates": [
          -40.8171351,
          -20.5563529
        ]
      }
    },
    {
      "type": "Feature",
      "id": "node/9597285105",
      "properties": {
        "timestamp": "2022-03-22T12:51:04Z",
        "version": 1,
        "changeset": 118777607,
        "addr:city": "Alfredo Chaves",
        "addr:postcode": "29240-000",
        "addr:suburb": "São Roque de Maravilha",
        "contact:mobile": "+55 27 99813 8313",
        "guest_house": "agritourism",
        "mobile": "+55 28 99913 6096",
        "name": "Pousada Estagem Zucolotto",
        "tourism": "guest_house",
        "id": "node/9597285105"
      },
      "geometry": {
        "type": "Point",
        "coordinates": [
          -40.8797987,
          -20.5537706
        ]
      }
    },
    {
      "type": "Feature",
      "id": "node/9597285106",
      "properties": {
        "timestamp": "2022-03-22T12:51:04Z",
        "version": 1,
        "changeset": 118777607,
        "addr:city": "Alfredo Chaves",
        "addr:postcode": "29240-000",
        "addr:street": "Estrada de São Roque de Maravilha",
        "addr:suburb": "São Roque de Maravilha",
        "guest_house": "agritourism",
        "mobile": "+55 27 99875 6507",
        "name": "Pousada Encontro das Águas",
        "tourism": "guest_house",
        "id": "node/9597285106"
      },
      "geometry": {
        "type": "Point",
        "coordinates": [
          -40.8696439,
          -20.5538711
        ]
      }
    },
    {
      "type": "Feature",
      "id": "node/9597285107",
      "properties": {
        "timestamp": "2022-03-22T12:51:04Z",
        "version": 1,
        "changeset": 118777607,
        "addr:city": "Alfredo Chaves",
        "addr:postcode": "29240-000",
        "addr:street": "Estrada de São Roque de Maravilha",
        "addr:suburb": "São Roque de Maravilha",
        "guest_house": "agritourism",
        "name": "Pousada Darós",
        "tourism": "guest_house",
        "id": "node/9597285107"
      },
      "geometry": {
        "type": "Point",
        "coordinates": [
          -40.8535626,
          -20.551786
        ]
      }
    }
  ]
}
