{
  "type": "FeatureCollection",
  "features": [
    {
      "type": "Feature",
      "id": "node/4640669892",
      "properties": {
        "timestamp": "2022-03-22T21:51:35Z",
        "version": 4,
        "changeset": 118795864,
        "addr:city": "Alfredo Chaves",
        "addr:postcode": "29240-000",
        "addr:suburb": "Carolina",
        "email": "aguasdepinon@hotmail.com",
        "internet_access": "yes",
        "name": "Pousada Águas de Pinon",
        "name:en": "Aguas de Pinon Hotel",
        "phone": "+55 27 3269 1328",
        "tourism": "hotel",
        "id": "node/4640669892"
      },
      "geometry": {
        "type": "Point",
        "coordinates": [
          -40.8555854,
          -20.5483975
        ]
      }
    },
    {
      "type": "Feature",
      "id": "node/9595210242",
      "properties": {
        "timestamp": "2022-03-21T16:47:32Z",
        "version": 1,
        "changeset": 118743970,
        "addr:city": "Alfredo Chaves",
        "addr:postcode": "29240-000",
        "addr:suburb": "Carolina",
        "email": "valedascachoeiras@hotmail.com",
        "internet_access": "yes",
        "name": "Pousada Vale das Cachoeiras",
        "phone": "+55 27 3269 1845",
        "tourism": "hotel",
        "website": "https://pousadavaledascachoeiras.com.br/",
        "id": "node/9595210242"
      },
      "geometry": {
        "type": "Point",
        "coordinates": [
          -40.8558949,
          -20.547586
        ]
      }
    },
    {
      "type": "Feature",
      "id": "node/9595827846",
      "properties": {
        "timestamp": "2022-03-21T21:21:05Z",
        "version": 1,
        "changeset": 118753553,
        "addr:city": "Alfredo Chaves",
        "addr:housenumber": "231",
        "addr:postcode": "29240-000",
        "addr:street": "Avenida Getúlio Vargas",
        "addr:suburb": "Ouro Branco",
        "name": "Hotel Volponi",
        "phone": "+55 27 3269 1246",
        "tourism": "hotel",
        "id": "node/9595827846"
      },
      "geometry": {
        "type": "Point",
        "coordinates": [
          -40.7449656,
          -20.6382171
        ]
      }
    },
    {
      "type": "Feature",
      "id": "node/9595827876",
      "properties": {
        "timestamp": "2022-03-21T21:21:05Z",
        "version": 1,
        "changeset": 118753553,
        "addr:city": "Alfredo Chaves",
        "addr:housenumber": "111",
        "addr:postcode": "29240-000",
        "addr:street": "Rua Moacir Saudino",
        "addr:suburb": "Centro",
        "mobile": "+55 27 99777 9804",
        "name": "Hotel Santa Terezinha",
        "phone": "+55 27 3269 1584",
        "tourism": "hotel",
        "id": "node/9595827876"
      },
      "geometry": {
        "type": "Point",
        "coordinates": [
          -40.7472881,
          -20.6371166
        ]
      }
    },
    {
      "type": "Feature",
      "id": "node/9595827878",
      "properties": {
        "timestamp": "2022-03-21T21:21:05Z",
        "version": 1,
        "changeset": 118753553,
        "addr:city": "Alfredo Chaves",
        "addr:postcode": "29240-000",
        "addr:street": "Avenida Luiz Gaigher",
        "addr:suburb": "Cachoeira Alta",
        "mobile": "+55 27 99981 6751",
        "name": "Pousada Fora do Ar",
        "phone": "+55 27 3269 1345",
        "tourism": "hotel",
        "id": "node/9595827878"
      },
      "geometry": {
        "type": "Point",
        "coordinates": [
          -40.7721726,
          -20.6789838
        ]
      }
    },
    {
      "type": "Feature",
      "id": "node/9597285100",
      "properties": {
        "timestamp": "2022-03-22T12:51:04Z",
        "version": 1,
        "changeset": 118777607,
        "addr:city": "Alfredo Chaves",
        "addr:postcode": "29240-000",
        "addr:street": "Rua Edson Modolo",
        "addr:suburb": "Matilde Velha",
        "email": "oliozi@oliozicontabilidade.com.br",
        "name": "Hotel Pousada Beneventes",
        "phone": "+55 27 3269 1583",
        "tourism": "hotel",
        "id": "node/9597285100"
      },
      "geometry": {
        "type": "Point",
        "coordinates": [
          -40.8222825,
          -20.5537074
        ]
      }
    },
    {
      "type": "Feature",
      "id": "node/11342019105",
      "properties": {
        "timestamp": "2023-11-11T21:18:36Z",
        "version": 1,
        "changeset": 143915374,
        "tourism": "hotel",
        "id": "node/11342019105"
      },
      "geometry": {
        "type": "Point",
        "coordinates": [
          -40.8618145,
          -20.530004
        ]
      }
    }
  ]
}
