{
  "type": "FeatureCollection",
  "features": [
    {
      "type": "Feature",
      "id": "node/2844268524",
      "properties": {
        "timestamp": "2014-05-08T16:39:57Z",
        "version": 1,
        "changeset": 22212516,
        "amenity": "school",
        "id": "node/2844268524"
      },
      "geometry": {
        "type": "Point",
        "coordinates": [
          -40.7351337,
          -20.4974029
        ]
      }
    },
    {
      "type": "Feature",
      "id": "node/4024904487",
      "properties": {
        "timestamp": "2016-02-25T01:59:29Z",
        "version": 1,
        "changeset": 37426154,
        "IJSN:administra": "Estadual",
        "IJSN:classeCnae": "Fundamental e Médio",
        "addr:city": "Alfredo Chaves",
        "addr:housenumber": "197",
        "addr:postcode": "29240-000",
        "addr:street": "Rua Nelson da Costa Mello",
        "addr:suburb": "Ouro Branco",
        "alt_name": "Escola Estadual de Ensino Fundamental e Médio",
        "amenity": "school",
        "contact:phone": "(27) 3269-1838 / 3269-1550",
        "name": "EEEFM Camila Motta",
        "source": "IJSN",
        "id": "node/4024904487"
      },
      "geometry": {
        "type": "Point",
        "coordinates": [
          -40.7462141,
          -20.6381124
        ]
      }
    },
    {
      "type": "Feature",
      "id": "node/4024905063",
      "properties": {
        "timestamp": "2016-02-25T01:59:59Z",
        "version": 1,
        "changeset": 37426154,
        "IJSN:administra": "Privada",
        "IJSN:classeCnae": "Fundamental e Médio",
        "addr:city": "Alfredo Chaves",
        "addr:postcode": "29240-000",
        "addr:street": "Rua Projetada",
        "addr:suburb": "Comunidade Imigrante",
        "alt_name": "Escola Família Agrícola",
        "amenity": "school",
        "contact:phone": "(27) 3269-1192",
        "name": "EFA de Alfredo Chaves",
        "source": "IJSN",
        "id": "node/4024905063"
      },
      "geometry": {
        "type": "Point",
        "coordinates": [
          -40.7514039,
          -20.6328218
        ]
      }
    },
    {
      "type": "Feature",
      "id": "node/4024905254",
      "properties": {
        "timestamp": "2016-02-25T02:00:13Z",
        "version": 1,
        "changeset": 37426154,
        "IJSN:administra": "Municipal",
        "IJSN:classeCnae": "Fundamental",
        "addr:city": "Alfredo Chaves",
        "addr:postcode": "29240-000",
        "addr:street": "Rua Expedicionário Osvaldo Saudino",
        "addr:suburb": "Centro",
        "alt_name": "Escola Municipal de Ensino Fundamental",
        "amenity": "school",
        "contact:phone": "(27) 3269-1668",
        "name": "EMEF Ana Araujo",
        "source": "IJSN",
        "id": "node/4024905254"
      },
      "geometry": {
        "type": "Point",
        "coordinates": [
          -40.7532062,
          -20.6349884
        ]
      }
    },
    {
      "type": "Feature",
      "id": "node/4024905392",
      "properties": {
        "timestamp": "2022-08-13T17:12:08Z",
        "version": 2,
        "changeset": 124861458,
        "IJSN:administra": "Municipal",
        "IJSN:classeCnae": "Fundamental",
        "addr:city": "Alfredo Chaves",
        "addr:postcode": "29240-000",
        "addr:suburb": "Comunidade Nova Mântua",
        "alt_name": "Escola Municipal de Ensino Fundamental",
        "amenity": "school",
        "contact:phone": "(27) 9875-8081 / 3269-2017",
        "name": "EMEF Celita Bastos Garcia",
        "source": "IJSN",
        "id": "node/4024905392"
      },
      "geometry": {
        "type": "Point",
        "coordinates": [
          -40.8282808,
          -20.6451365
        ]
      }
    },
    {
      "type": "Feature",
      "id": "node/4024905399",
      "properties": {
        "timestamp": "2016-02-25T02:00:21Z",
        "version": 1,
        "changeset": 37426154,
        "IJSN:administra": "Municipal",
        "IJSN:classeCnae": "Fundamental",
        "addr:city": "Alfredo Chaves",
        "addr:postcode": "29240-000",
        "addr:suburb": "Comunidade Crubixá",
        "alt_name": "Escola Municipal de Ensino Fundamental",
        "amenity": "school",
        "contact:phone": "(27) 9922-6961",
        "name": "EMEF Crubixá",
        "source": "IJSN",
        "id": "node/4024905399"
      },
      "geometry": {
        "type": "Point",
        "coordinates": [
          -40.8672919,
          -20.6417726
        ]
      }
    },
    {
      "type": "Feature",
      "id": "node/4024905440",
      "properties": {
        "timestamp": "2016-02-25T02:00:28Z",
        "version": 1,
        "changeset": 37426154,
        "IJSN:administra": "Municipal",
        "IJSN:classeCnae": "Fundamental",
        "addr:city": "Alfredo Chaves",
        "addr:postcode": "29240-000",
        "addr:suburb": "Comunidade Ibitiruí",
        "alt_name": "Escola Municipal de Ensino Fundamental",
        "amenity": "school",
        "contact:phone": "(27) 3269-3001",
        "name": "EMEF Engano",
        "source": "IJSN",
        "id": "node/4024905440"
      },
      "geometry": {
        "type": "Point",
        "coordinates": [
          -40.8597749,
          -20.6016287
        ]
      }
    },
    {
      "type": "Feature",
      "id": "node/4024905449",
      "properties": {
        "timestamp": "2016-02-25T02:00:30Z",
        "version": 1,
        "changeset": 37426154,
        "IJSN:administra": "Municipal",
        "IJSN:classeCnae": "Fundamental",
        "addr:city": "Alfredo Chaves",
        "addr:postcode": "29240-000",
        "addr:street": "Fazenda Aparecida",
        "addr:suburb": "Comunidade Aparecida",
        "alt_name": "Escola Municipal de Ensino Fundamental",
        "amenity": "school",
        "name": "EMEF Fazenda Aparecida",
        "source": "IJSN",
        "id": "node/4024905449"
      },
      "geometry": {
        "type": "Point",
        "coordinates": [
          -40.689818,
          -20.451082
        ]
      }
    },
    {
      "type": "Feature",
      "id": "node/4024905458",
      "properties": {
        "timestamp": "2022-12-31T11:26:01Z",
        "version": 2,
        "changeset": 130716668,
        "IJSN:administra": "Municipal",
        "IJSN:classeCnae": "Fundamental",
        "addr:city": "Alfredo Chaves",
        "addr:postcode": "29240-000",
        "addr:street": "Avenida José Maria Camiletti",
        "addr:suburb": "Matilde",
        "alt_name": "EMEF Felipe Modolo",
        "amenity": "school",
        "contact:phone": "+55 27 3269 4031",
        "name": "Escola Municipal de Ensino Fundamental Felipe Modolo",
        "operator": "Município de Alfredo Chaves",
        "operator:type": "public",
        "source": "IJSN",
        "id": "node/4024905458"
      },
      "geometry": {
        "type": "Point",
        "coordinates": [
          -40.8148502,
          -20.5539884
        ]
      }
    },
    {
      "type": "Feature",
      "id": "node/4024905690",
      "properties": {
        "timestamp": "2016-02-25T02:00:53Z",
        "version": 1,
        "changeset": 37426154,
        "IJSN:administra": "Municipal",
        "IJSN:classeCnae": "Fundamental",
        "addr:city": "Alfredo Chaves",
        "addr:postcode": "29240-000",
        "addr:suburb": "Comunidade Sagrada Família",
        "alt_name": "Escola Municipal de Ensino Fundamental",
        "amenity": "school",
        "contact:phone": "(27) 3269-5001",
        "name": "EMEF Sagrada Família",
        "source": "IJSN",
        "id": "node/4024905690"
      },
      "geometry": {
        "type": "Point",
        "coordinates": [
          -40.6977976,
          -20.5791886
        ]
      }
    },
    {
      "type": "Feature",
      "id": "node/4024905707",
      "properties": {
        "timestamp": "2016-02-25T02:00:56Z",
        "version": 1,
        "changeset": 37426154,
        "IJSN:administra": "Municipal",
        "IJSN:classeCnae": "Fundamental",
        "addr:city": "Alfredo Chaves",
        "addr:postcode": "29240-000",
        "addr:suburb": "Comunidade São Bento de Urânia",
        "alt_name": "Escola Municipal de Ensino Fundamental",
        "amenity": "school",
        "contact:phone": "(27) 9719-2159 / 3269-2152",
        "name": "EMEF São Bento de Urânia",
        "source": "IJSN",
        "id": "node/4024905707"
      },
      "geometry": {
        "type": "Point",
        "coordinates": [
          -40.9192266,
          -20.4723477
        ]
      }
    },
    {
      "type": "Feature",
      "id": "node/4024906156",
      "properties": {
        "timestamp": "2016-02-25T02:01:37Z",
        "version": 1,
        "changeset": 37426154,
        "IJSN:administra": "Municipal",
        "IJSN:classeCnae": "Fundamental",
        "addr:city": "Alfredo Chaves",
        "addr:postcode": "29240-000",
        "addr:suburb": "Ribeirão do Cristo",
        "alt_name": "Escola Municipal Pluridocente de Ensino Fundamental",
        "amenity": "school",
        "name": "EMPEF Ribeirão do Cristo",
        "source": "IJSN",
        "id": "node/4024906156"
      },
      "geometry": {
        "type": "Point",
        "coordinates": [
          -40.7378819,
          -20.496961
        ]
      }
    },
    {
      "type": "Feature",
      "id": "node/4024906209",
      "properties": {
        "timestamp": "2016-02-25T02:01:45Z",
        "version": 1,
        "changeset": 37426154,
        "IJSN:administra": "Municipal",
        "IJSN:classeCnae": "Fundamental",
        "addr:city": "Alfredo Chaves",
        "addr:postcode": "29240-000",
        "addr:suburb": "Comunidade São Marcos",
        "alt_name": "Escola Municipal Unidocente de Ensino Fundamental",
        "amenity": "school",
        "name": "EMUEF Almerinda Brunoro",
        "source": "IJSN",
        "id": "node/4024906209"
      },
      "geometry": {
        "type": "Point",
        "coordinates": [
          -40.7883896,
          -20.587529
        ]
      }
    },
    {
      "type": "Feature",
      "id": "node/4024906224",
      "properties": {
        "timestamp": "2016-02-25T02:01:47Z",
        "version": 1,
        "changeset": 37426154,
        "IJSN:administra": "Municipal",
        "IJSN:classeCnae": "Fundamental",
        "addr:city": "Alfredo Chaves",
        "addr:postcode": "29240-000",
        "addr:suburb": "Comunidade Ibitiruí",
        "alt_name": "Escola Municipal Unidocente de Ensino Fundamental",
        "amenity": "school",
        "name": "EMUEF Assunta",
        "source": "IJSN",
        "id": "node/4024906224"
      },
      "geometry": {
        "type": "Point",
        "coordinates": [
          -40.8394312,
          -20.6159834
        ]
      }
    },
    {
      "type": "Feature",
      "id": "node/4024906231",
      "properties": {
        "timestamp": "2016-02-25T02:01:48Z",
        "version": 1,
        "changeset": 37426154,
        "IJSN:administra": "Municipal",
        "IJSN:classeCnae": "Fundamental",
        "addr:city": "Alfredo Chaves",
        "addr:postcode": "29240-000",
        "addr:suburb": "Comunidade Córrego Gavião",
        "alt_name": "Escola Municipal Unidocente de Ensino Fundamental",
        "amenity": "school",
        "name": "EMUEF Boa Vista",
        "source": "IJSN",
        "id": "node/4024906231"
      },
      "geometry": {
        "type": "Point",
        "coordinates": [
          -40.7880181,
          -20.6668706
        ]
      }
    },
    {
      "type": "Feature",
      "id": "node/4024906244",
      "properties": {
        "timestamp": "2016-02-25T02:01:50Z",
        "version": 1,
        "changeset": 37426154,
        "IJSN:administra": "Municipal",
        "IJSN:classeCnae": "Fundamental",
        "addr:city": "Alfredo Chaves",
        "addr:postcode": "29240-000",
        "addr:suburb": "Comunidade Caco do Pote",
        "alt_name": "Escola Municipal Unidocente de Ensino Fundamental",
        "amenity": "school",
        "name": "EMUEF Caco do Pote",
        "source": "IJSN",
        "id": "node/4024906244"
      },
      "geometry": {
        "type": "Point",
        "coordinates": [
          -40.7217182,
          -20.6053355
        ]
      }
    },
    {
      "type": "Feature",
      "id": "node/4024906247",
      "properties": {
        "timestamp": "2016-02-25T02:01:51Z",
        "version": 1,
        "changeset": 37426154,
        "IJSN:administra": "Municipal",
        "IJSN:classeCnae": "Fundamental",
        "addr:city": "Alfredo Chaves",
        "addr:postcode": "29240-000",
        "addr:suburb": "Comunidade Carolina",
        "alt_name": "Escola Municipal Unidocente de Ensino Fundamental",
        "amenity": "school",
        "name": "EMUEF Carolina",
        "source": "IJSN",
        "id": "node/4024906247"
      },
      "geometry": {
        "type": "Point",
        "coordinates": [
          -40.8384594,
          -20.5318127
        ]
      }
    },
    {
      "type": "Feature",
      "id": "node/4024906268",
      "properties": {
        "timestamp": "2016-02-25T02:01:53Z",
        "version": 1,
        "changeset": 37426154,
        "IJSN:administra": "Municipal",
        "IJSN:classeCnae": "Fundamental",
        "addr:city": "Alfredo Chaves",
        "addr:postcode": "29240-000",
        "addr:suburb": "Comunidade Córrego São Brás",
        "alt_name": "Escola Municipal Unidocente de Ensino Fundamental",
        "amenity": "school",
        "name": "EMUEF Córrego São Brás",
        "source": "IJSN",
        "id": "node/4024906268"
      },
      "geometry": {
        "type": "Point",
        "coordinates": [
          -40.9551701,
          -20.5711423
        ]
      }
    },
    {
      "type": "Feature",
      "id": "node/4024906367",
      "properties": {
        "timestamp": "2016-02-25T02:02:08Z",
        "version": 1,
        "changeset": 37426154,
        "IJSN:administra": "Municipal",
        "IJSN:classeCnae": "Fundamental",
        "addr:city": "Alfredo Chaves",
        "addr:postcode": "29240-000",
        "addr:suburb": "Comunidade Quarto Territorio",
        "alt_name": "Escola Municipal Unidocente de Ensino Fundamental",
        "amenity": "school",
        "name": "EMUEF Quarto Territorio",
        "source": "IJSN",
        "id": "node/4024906367"
      },
      "geometry": {
        "type": "Point",
        "coordinates": [
          -40.808648,
          -20.6537882
        ]
      }
    },
    {
      "type": "Feature",
      "id": "node/4024906368",
      "properties": {
        "timestamp": "2016-02-25T02:02:08Z",
        "version": 1,
        "changeset": 37426154,
        "IJSN:administra": "Municipal",
        "IJSN:classeCnae": "Fundamental",
        "addr:city": "Alfredo Chaves",
        "addr:postcode": "29240-000",
        "addr:suburb": "Comunidade Quinto Território",
        "alt_name": "Escola Municipal Unidocente de Ensino Fundamental",
        "amenity": "school",
        "name": "EMUEF Quinto Território",
        "source": "IJSN",
        "id": "node/4024906368"
      },
      "geometry": {
        "type": "Point",
        "coordinates": [
          -40.6845134,
          -20.5466167
        ]
      }
    },
    {
      "type": "Feature",
      "id": "node/4024906372",
      "properties": {
        "timestamp": "2016-02-25T02:02:09Z",
        "version": 1,
        "changeset": 37426154,
        "IJSN:administra": "Municipal",
        "IJSN:classeCnae": "Fundamental",
        "addr:city": "Alfredo Chaves",
        "addr:postcode": "29240-000",
        "addr:suburb": "Comunidade Batatal",
        "alt_name": "Escola Municipal Unidocente de Ensino Fundamental",
        "amenity": "school",
        "name": "EMUEF Ribeirão de Santo Antonio",
        "source": "IJSN",
        "id": "node/4024906372"
      },
      "geometry": {
        "type": "Point",
        "coordinates": [
          -40.7449566,
          -20.527887
        ]
      }
    },
    {
      "type": "Feature",
      "id": "node/4024906380",
      "properties": {
        "timestamp": "2016-02-25T02:02:10Z",
        "version": 1,
        "changeset": 37426154,
        "IJSN:administra": "Municipal",
        "IJSN:classeCnae": "Fundamental",
        "addr:city": "Alfredo Chaves",
        "addr:postcode": "29240-000",
        "addr:suburb": "Comunidade Santa Luzia de Urânia",
        "alt_name": "Escola Municipal Unidocente de Ensino Fundamental",
        "amenity": "school",
        "name": "EMUEF Santa Luzia de Urânia",
        "source": "IJSN",
        "id": "node/4024906380"
      },
      "geometry": {
        "type": "Point",
        "coordinates": [
          -40.9375375,
          -20.4823699
        ]
      }
    },
    {
      "type": "Feature",
      "id": "node/4024906383",
      "properties": {
        "timestamp": "2016-02-25T02:02:11Z",
        "version": 1,
        "changeset": 37426154,
        "IJSN:administra": "Municipal",
        "IJSN:classeCnae": "Fundamental",
        "addr:city": "Alfredo Chaves",
        "addr:postcode": "29240-000",
        "addr:suburb": "Comunidade Santa Maria do Engano",
        "alt_name": "Escola Municipal Unidocente de Ensino Fundamental",
        "amenity": "school",
        "name": "EMUEF Santa Maria do Engano",
        "source": "IJSN",
        "id": "node/4024906383"
      },
      "geometry": {
        "type": "Point",
        "coordinates": [
          -40.8813349,
          -20.6038545
        ]
      }
    },
    {
      "type": "Feature",
      "id": "node/4024906385",
      "properties": {
        "timestamp": "2020-07-04T11:26:23Z",
        "version": 2,
        "changeset": 87528804,
        "IJSN:administra": "Municipal",
        "IJSN:classeCnae": "Fundamental",
        "addr:city": "Alfredo Chaves",
        "addr:postcode": "29240-000",
        "addr:suburb": "Comunidade Santo Antonio de Joebinha",
        "alt_name": "Escola Municipal Unidocente de Ensino Fundamental",
        "amenity": "school",
        "name": "EMUEF Santo Antonio de Joebinha",
        "source": "IJSN",
        "id": "node/4024906385"
      },
      "geometry": {
        "type": "Point",
        "coordinates": [
          -40.7926326,
          -20.6734962
        ]
      }
    },
    {
      "type": "Feature",
      "id": "node/4024906593",
      "properties": {
        "timestamp": "2016-06-30T17:06:13Z",
        "version": 2,
        "changeset": 40397767,
        "IJSN:administra": "Municipal",
        "IJSN:classeCnae": "Fundamental",
        "addr:city": "Alfredo Chaves",
        "addr:postcode": "29240-000",
        "addr:suburb": "Comunidade São Francisco de Urânia",
        "alt_name": "Escola Municipal Unidocente de Ensino Fundamental",
        "amenity": "school",
        "name": "EMUEF São Francisco de Urânia",
        "source": "IJSN",
        "id": "node/4024906593"
      },
      "geometry": {
        "type": "Point",
        "coordinates": [
          -40.9557052,
          -20.4836078
        ]
      }
    },
    {
      "type": "Feature",
      "id": "node/4024906600",
      "properties": {
        "timestamp": "2016-02-25T02:02:13Z",
        "version": 1,
        "changeset": 37426154,
        "IJSN:administra": "Municipal",
        "IJSN:classeCnae": "Fundamental",
        "addr:city": "Alfredo Chaves",
        "addr:postcode": "29240-000",
        "addr:suburb": "Comunidade Iritimirim",
        "alt_name": "Escola Municipal Unidocente de Ensino Fundamental",
        "amenity": "school",
        "name": "EMUEF São Martinho",
        "source": "IJSN",
        "id": "node/4024906600"
      },
      "geometry": {
        "type": "Point",
        "coordinates": [
          -40.777145,
          -20.5205786
        ]
      }
    },
    {
      "type": "Feature",
      "id": "node/4024906601",
      "properties": {
        "timestamp": "2016-02-25T02:02:13Z",
        "version": 1,
        "changeset": 37426154,
        "IJSN:administra": "Municipal",
        "IJSN:classeCnae": "Fundamental",
        "addr:city": "Alfredo Chaves",
        "addr:postcode": "29240-000",
        "addr:suburb": "Comunidade Vila Nova de Maravilha",
        "alt_name": "Escola Municipal Unidocente de Ensino Fundamental",
        "amenity": "school",
        "name": "EMUEF São Roque de Maravilha",
        "source": "IJSN",
        "id": "node/4024906601"
      },
      "geometry": {
        "type": "Point",
        "coordinates": [
          -40.8794695,
          -20.5540876
        ]
      }
    },
    {
      "type": "Feature",
      "id": "node/4024906604",
      "properties": {
        "timestamp": "2016-02-25T02:02:14Z",
        "version": 1,
        "changeset": 37426154,
        "IJSN:administra": "Municipal",
        "IJSN:classeCnae": "Fundamental",
        "addr:city": "Alfredo Chaves",
        "addr:postcode": "29240-000",
        "addr:suburb": "Comunidade Urânia",
        "alt_name": "Escola Municipal Unidocente de Ensino Fundamental",
        "amenity": "school",
        "name": "EMUEF Sítio São José",
        "source": "IJSN",
        "id": "node/4024906604"
      },
      "geometry": {
        "type": "Point",
        "coordinates": [
          -40.8774743,
          -20.4786095
        ]
      }
    },
    {
      "type": "Feature",
      "id": "node/4024906611",
      "properties": {
        "timestamp": "2016-02-25T02:02:15Z",
        "version": 1,
        "changeset": 37426154,
        "IJSN:administra": "Municipal",
        "IJSN:classeCnae": "Fundamental",
        "addr:city": "Alfredo Chaves",
        "addr:postcode": "29240-000",
        "addr:suburb": "Comunidade Vila Nova de Maravilha",
        "alt_name": "Escola Municipal Unidocente de Ensino Fundamental",
        "amenity": "school",
        "name": "EMUEF Vila Nova de Maravilha",
        "source": "IJSN",
        "id": "node/4024906611"
      },
      "geometry": {
        "type": "Point",
        "coordinates": [
          -40.9493311,
          -20.5876687
        ]
      }
    },
    {
      "type": "Feature",
      "id": "node/4024906612",
      "properties": {
        "timestamp": "2016-02-25T02:02:15Z",
        "version": 1,
        "changeset": 37426154,
        "IJSN:administra": "Municipal",
        "IJSN:classeCnae": "Fundamental",
        "addr:city": "Alfredo Chaves",
        "addr:postcode": "29240-000",
        "addr:street": "Vila Nova do Ribeirão",
        "addr:suburb": "Comunidade Batatal",
        "alt_name": "Escola Municipal Unidocente de Ensino Fundamental",
        "amenity": "school",
        "name": "EMUEF Vila Nova do Ribeirão",
        "source": "IJSN",
        "id": "node/4024906612"
      },
      "geometry": {
        "type": "Point",
        "coordinates": [
          -40.7656611,
          -20.566606
        ]
      }
    }
  ]
}
