{
  "type": "FeatureCollection",
  "features": [
    {
      "type": "Feature",
      "id": "way/417582384",
      "properties": {
        "timestamp": "2023-02-18T14:54:11Z",
        "version": 9,
        "changeset": 132717760,
        "addr:city": "São João da Boa Vista",
        "addr:housenumber": "681",
        "addr:postcode": "13872-551",
        "addr:street": "Estrada Vicinal Doutor João Batista Merlin",
        "addr:suburb": "Parque Itália",
        "amenity": "college",
        "name": "SESI 156 Centro Educacional",
        "operator": "Serviço Social da Indústria",
        "operator:type": "private",
        "phone": "+55 19 3622 2705",
        "website": "https://www.sesisp.org.br/educacao/sao-joao-da-boa-vista",
        "id": "way/417582384"
      },
      "geometry": {
        "type": "Polygon",
        "coordinates": [
          [
            [
              -46.8152783,
              -21.9666981
            ],
            [
              -46.8147524,
              -21.9675893
            ],
            [
              -46.8145571,
              -21.967588
            ],
            [
              -46.8130757,
              -21.9675783
            ],
            [
              -46.8132056,
              -21.9669105
            ],
            [
              -46.8132141,
              -21.9668668
            ],
            [
              -46.8144378,
              -21.9668332
            ],
            [
              -46.8147603,
              -21.9668375
            ],
            [
              -46.8152783,
              -21.9666981
            ]
          ]
        ]
      }
    }
  ]
}
