{
  "type": "FeatureCollection",
  "features": [
    {
      "type": "Feature",
      "id": "way/422874484",
      "properties": {
        "timestamp": "2016-09-14T22:33:08Z",
        "version": 4,
        "changeset": 42160500,
        "addr:city": "São Bento do Sul",
        "addr:street": "Rua Reinaldo Mallon",
        "addr:suburb": "Serra Alta",
        "amenity": "college",
        "name": "Senai",
        "id": "way/422874484"
      },
      "geometry": {
        "type": "Polygon",
        "coordinates": [
          [
            [
              -49.3946929,
              -26.2736378
            ],
            [
              -49.3933371,
              -26.2735376
            ],
            [
              -49.3933635,
              -26.2728395
            ],
            [
              -49.3934814,
              -26.2728467
            ],
            [
              -49.3942905,
              -26.2729051
            ],
            [
              -49.3942864,
              -26.2732477
            ],
            [
              -49.3947011,
              -26.2732623
            ],
            [
              -49.3946929,
              -26.2736378
            ]
          ]
        ]
      }
    },
    {
      "type": "Feature",
      "id": "node/3728133024",
      "properties": {
        "timestamp": "2022-05-26T14:48:42Z",
        "version": 6,
        "changeset": 121530560,
        "addr:city": "São Bento do Sul",
        "addr:housenumber": "879",
        "addr:postcode": "89283-105",
        "addr:street": "Rua Doutor Hans Dieter Schmidt",
        "addr:suburb": "Centenário",
        "amenity": "college",
        "name": "Senai",
        "operator": "Senai",
        "phone": "+55 47 3631 1600",
        "website": "https://sc.senai.br/",
        "id": "node/3728133024"
      },
      "geometry": {
        "type": "Point",
        "coordinates": [
          -49.348405,
          -26.2475021
        ]
      }
    }
  ]
}
