{
  "type": "FeatureCollection",
  "features": [
    {
      "type": "Feature",
      "id": "way/439225383",
      "properties": {
        "timestamp": "2022-05-26T14:45:01Z",
        "version": 4,
        "changeset": 121530307,
        "addr:city": "São Bento do Sul",
        "addr:country": "BR",
        "addr:housenumber": "211",
        "addr:postcode": "89280-970",
        "addr:state": "SC",
        "addr:street": "Rua Lídia Izolde Rosenstock",
        "addr:suburb": "Boehmerwald",
        "alt_name": "Centro de Recuperação Nova Esperança",
        "amenity": "social_facility",
        "description": "Centro de atendimento para reabilitação de dependentes químicos.",
        "email": "palhoca@cerene.org.br",
        "name": "Cerene",
        "phone": "+55 47 3635-3131",
        "social_facility": "group_home",
        "social_facility:for": "drug_addicted",
        "website": "https://cerene.org.br/",
        "id": "way/439225383"
      },
      "geometry": {
        "type": "Polygon",
        "coordinates": [
          [
            [
              -49.3850646,
              -26.2319099
            ],
            [
              -49.3840653,
              -26.2319514
            ],
            [
              -49.383046,
              -26.2315015
            ],
            [
              -49.3831104,
              -26.2309168
            ],
            [
              -49.3844327,
              -26.2304813
            ],
            [
              -49.3849906,
              -26.2306257
            ],
            [
              -49.3850646,
              -26.2319099
            ]
          ]
        ]
      }
    }
  ]
}
