{
  "type": "FeatureCollection",
  "features": [
    {
      "type": "Feature",
      "id": "way/918858217",
      "properties": {
        "timestamp": "2021-09-29T15:21:27Z",
        "version": 2,
        "changeset": 111872904,
        "addr:city": "São Bento do Sul",
        "addr:housenumber": "230",
        "addr:postcode": "89288-385",
        "addr:street": "Rua Norberto Eduardo Weihermann",
        "addr:suburb": "Colonial",
        "amenity": "university",
        "contact:phone": "+55 47 3631-9100",
        "contact:website": "https://www.univille.edu.br/",
        "name": "Univille - Campus SBS",
        "operator": "Univille",
        "id": "way/918858217"
      },
      "geometry": {
        "type": "Polygon",
        "coordinates": [
          [
            [
              -49.4177064,
              -26.2267111
            ],
            [
              -49.4176903,
              -26.2278949
            ],
            [
              -49.4171411,
              -26.2278415
            ],
            [
              -49.4166496,
              -26.2277938
            ],
            [
              -49.4167408,
              -26.22738
            ],
            [
              -49.4170358,
              -26.2272597
            ],
            [
              -49.4171538,
              -26.2263165
            ],
            [
              -49.4177064,
              -26.2267111
            ]
          ]
        ]
      }
    },
    {
      "type": "Feature",
      "id": "node/3728115246",
      "properties": {
        "timestamp": "2023-11-28T01:55:53Z",
        "version": 9,
        "changeset": 144529086,
        "addr:city": "São Bento do Sul",
        "addr:housenumber": "180",
        "addr:postcode": "89283-081",
        "addr:street": "Rua Luiz Fernando Hastreiter",
        "addr:suburb": "Centenário",
        "amenity": "university",
        "name": "Ceplan Udesc",
        "operator": "Udesc",
        "phone": "+55 47 3634 0988",
        "website": "https://www.sbs.udesc.br/",
        "id": "node/3728115246"
      },
      "geometry": {
        "type": "Point",
        "coordinates": [
          -49.3472721,
          -26.2471364
        ]
      }
    },
    {
      "type": "Feature",
      "id": "node/3728144435",
      "properties": {
        "timestamp": "2017-03-27T22:06:30Z",
        "version": 5,
        "changeset": 47213882,
        "addr:city": "São Bento do Sul",
        "addr:housenumber": "950",
        "addr:street": "Rua Doutor Hans Dieter Schmidt",
        "addr:suburb": "Centenário",
        "amenity": "university",
        "name": "Faculdade de Tecnologia Tupy de São Bento do Sul",
        "operator": "SOCIESC",
        "phone": "+55 47 3626 2222",
        "website": "sociesc.org.br",
        "id": "node/3728144435"
      },
      "geometry": {
        "type": "Point",
        "coordinates": [
          -49.3489904,
          -26.2478303
        ]
      }
    },
    {
      "type": "Feature",
      "id": "node/5661382973",
      "properties": {
        "timestamp": "2018-06-03T15:16:01Z",
        "version": 1,
        "changeset": 59511389,
        "amenity": "university",
        "name": "CEDUP / UDESC",
        "phone": "+5504736470565",
        "id": "node/5661382973"
      },
      "geometry": {
        "type": "Point",
        "coordinates": [
          -49.3467463,
          -26.2206506
        ]
      }
    }
  ]
}
