{
  "type": "FeatureCollection",
  "features": [
    {
      "type": "Feature",
      "id": "node/9605903401",
      "properties": {
        "timestamp": "2022-03-25T13:59:36Z",
        "version": 1,
        "changeset": 118911781,
        "addr:city": "Escada",
        "addr:street": "Rua Engenheiro Alves de Souza",
        "addr:suburb": "Maracujá",
        "amenity": "hospital",
        "healthcare": "hospital",
        "name": "UPAE - Escada",
        "id": "node/9605903401"
      },
      "geometry": {
        "type": "Point",
        "coordinates": [
          -35.2379155,
          -8.3683672
        ]
      }
    },
    {
      "type": "Feature",
      "id": "node/9605903402",
      "properties": {
        "timestamp": "2022-03-25T13:59:36Z",
        "version": 1,
        "changeset": 118911781,
        "addr:city": "Escada",
        "addr:postcode": "55500000",
        "addr:street": "Avenida Doutor Antonio de Castro",
        "addr:suburb": "Maracujá",
        "amenity": "hospital",
        "healthcare": "hospital",
        "name": "Hospital Regional Dr Benévolo Walderley do Amaral",
        "id": "node/9605903402"
      },
      "geometry": {
        "type": "Point",
        "coordinates": [
          -35.2380045,
          -8.3675615
        ]
      }
    }
  ]
}
