{
  "type": "FeatureCollection",
  "features": [
    {
      "type": "Feature",
      "id": "way/580267999",
      "properties": {
        "timestamp": "2018-04-15T23:19:40Z",
        "version": 1,
        "changeset": 58122024,
        "addr:city": "São Gonçalo do Sapucaí",
        "addr:housenumber": "225",
        "addr:postcode": "37490000",
        "addr:street": "Rua Doutor Dyonisio Azevedo Reis",
        "addr:suburb": "Centro",
        "amenity": "social_facility",
        "building": "yes",
        "name": "Associação Sãogonçalense de Proteção à Infância - ASPI",
        "id": "way/580267999"
      },
      "geometry": {
        "type": "Polygon",
        "coordinates": [
          [
            [
              -45.5930474,
              -21.889671
            ],
            [
              -45.5930104,
              -21.8895896
            ],
            [
              -45.5930874,
              -21.889561
            ],
            [
              -45.5931244,
              -21.8896424
            ],
            [
              -45.5930474,
              -21.889671
            ]
          ]
        ]
      }
    }
  ]
}
