{
  "type": "FeatureCollection",
  "features": [
    {
      "type": "Feature",
      "id": "way/952799446",
      "properties": {
        "timestamp": "2021-06-09T21:28:50Z",
        "version": 1,
        "changeset": 106117953,
        "amenity": "clinic",
        "building": "yes",
        "disused": "yes",
        "healthcare": "clinic",
        "ruined": "yes",
        "id": "way/952799446"
      },
      "geometry": {
        "type": "Polygon",
        "coordinates": [
          [
            [
              -36.1588949,
              -6.4860822
            ],
            [
              -36.1588498,
              -6.486203
            ],
            [
              -36.1587113,
              -6.4861519
            ],
            [
              -36.1587565,
              -6.4860311
            ],
            [
              -36.1588949,
              -6.4860822
            ]
          ]
        ]
      }
    },
    {
      "type": "Feature",
      "id": "way/952799447",
      "properties": {
        "timestamp": "2024-06-16T13:00:52Z",
        "version": 7,
        "changeset": 152759758,
        "addr:city": "Cuité",
        "addr:housenumber": "2114",
        "addr:postcode": "58175-000",
        "addr:street": "Rua Sebastião Marcelino",
        "addr:suburb": "Novo Retiro",
        "amenity": "clinic",
        "building": "yes",
        "check_date:opening_hours": "2022-07-26",
        "healthcare": "clinic",
        "name": "Unidade Básica de Saúde da Família Francisca Freire Dias Lins (Liene)",
        "opening_hours": "Mo-Fr 07:00-17:00",
        "operator": "Sistema Único de Saúde",
        "operator:short": "SUS",
        "operator:wikidata": "Q7531056",
        "phone": "+55 83 996052189",
        "ref:CNES": "2342561",
        "short_name": "UBSF Ezequias Venâncio dos Santos",
        "id": "way/952799447"
      },
      "geometry": {
        "type": "Polygon",
        "coordinates": [
          [
            [
              -36.1624947,
              -6.4823889
            ],
            [
              -36.162512,
              -6.4824254
            ],
            [
              -36.1625331,
              -6.4824155
            ],
            [
              -36.1625413,
              -6.4824328
            ],
            [
              -36.1625491,
              -6.4824492
            ],
            [
              -36.1625265,
              -6.4824598
            ],
            [
              -36.1625591,
              -6.4825284
            ],
            [
              -36.1624985,
              -6.4825568
            ],
            [
              -36.16247,
              -6.4824968
            ],
            [
              -36.1624257,
              -6.4825176
            ],
            [
              -36.1624071,
              -6.4824786
            ],
            [
              -36.1624265,
              -6.4824694
            ],
            [
              -36.1624077,
              -6.4824298
            ],
            [
              -36.1624947,
              -6.4823889
            ]
          ]
        ]
      }
    },
    {
      "type": "Feature",
      "id": "way/952799449",
      "properties": {
        "timestamp": "2024-12-17T23:25:50Z",
        "version": 4,
        "changeset": 160326812,
        "addr:city": "Cuité",
        "addr:postcode": "58175-000",
        "addr:street": "Rua Francisco Patrício de Araújo",
        "addr:suburb": "Centro",
        "amenity": "clinic",
        "building": "yes",
        "healthcare": "clinic",
        "name": "Unidade Básica de Saúde da Família Abílio Chacon Filho",
        "opening_hours": "Mo-Fr 07:00-17:00",
        "operator": "Sistema Único de Saúde",
        "operator:short": "SUS",
        "operator:type": "public",
        "operator:wikidata": "Q7531056",
        "phone": "+55 83 998186103",
        "ref:CNES": "2342529",
        "short_name": "UBSF Abílio Chacon Filho",
        "id": "way/952799449"
      },
      "geometry": {
        "type": "Polygon",
        "coordinates": [
          [
            [
              -36.1536304,
              -6.486521
            ],
            [
              -36.1536385,
              -6.4866142
            ],
            [
              -36.1535575,
              -6.486594
            ],
            [
              -36.1535164,
              -6.4865837
            ],
            [
              -36.1535097,
              -6.4865223
            ],
            [
              -36.1536304,
              -6.486521
            ]
          ]
        ]
      }
    },
    {
      "type": "Feature",
      "id": "way/952799450",
      "properties": {
        "timestamp": "2024-07-08T11:28:27Z",
        "version": 6,
        "changeset": 153699351,
        "addr:city": "Cuité",
        "addr:postcode": "58175-000",
        "addr:street": "Rua Francisco Teodoro da Fonseca",
        "addr:suburb": "São Vicente",
        "amenity": "clinic",
        "building": "yes",
        "healthcare": "clinic",
        "name": "Unidade Básica de Saúde da Famíla Diomedes Lucas Carvalho",
        "opening_hours": "Mo-Fr 07:00-17:00",
        "operator": "Sistema Único de Saúde",
        "operator:short": "SUS",
        "operator:wikidata": "Q7531056",
        "phone": "+55 83 998807273",
        "ref:CNES": "2342618",
        "short_name": "UBSF Diomedes Lucas Carvalho",
        "id": "way/952799450"
      },
      "geometry": {
        "type": "Polygon",
        "coordinates": [
          [
            [
              -36.1475738,
              -6.4872997
            ],
            [
              -36.1476879,
              -6.4874519
            ],
            [
              -36.1475991,
              -6.4875177
            ],
            [
              -36.147485,
              -6.4873655
            ],
            [
              -36.1475289,
              -6.487333
            ],
            [
              -36.147557,
              -6.4873122
            ],
            [
              -36.1475738,
              -6.4872997
            ]
          ]
        ]
      }
    },
    {
      "type": "Feature",
      "id": "way/952799452",
      "properties": {
        "timestamp": "2025-01-04T00:44:29Z",
        "version": 5,
        "changeset": 160971640,
        "addr:city": "Cuité",
        "addr:postcode": "58175-000",
        "addr:street": "Rua Francisco Teodoro da Fonseca",
        "addr:suburb": "Centro",
        "alt_name": "Unidade de Pronto Antendimento",
        "amenity": "clinic",
        "building": "yes",
        "healthcare": "clinic",
        "healthcare:speciality": "emergency",
        "name": "Centro de Assistência à Saúde",
        "opening_hours": "24/7",
        "operator": "Sistema Único de Saúde",
        "operator:short": "SUS",
        "operator:type": "public",
        "operator:wikidata": "Q7531056",
        "ref:CNES": "7927797",
        "short_name": "UPA",
        "id": "way/952799452"
      },
      "geometry": {
        "type": "Polygon",
        "coordinates": [
          [
            [
              -36.1476716,
              -6.4876959
            ],
            [
              -36.1472219,
              -6.4880377
            ],
            [
              -36.1471426,
              -6.487668
            ],
            [
              -36.1474628,
              -6.4874246
            ],
            [
              -36.1476066,
              -6.4876115
            ],
            [
              -36.1476716,
              -6.4876959
            ]
          ]
        ]
      }
    },
    {
      "type": "Feature",
      "id": "way/959884610",
      "properties": {
        "timestamp": "2022-09-17T21:58:03Z",
        "version": 5,
        "changeset": 126313846,
        "addr:city": "Cuité",
        "addr:postcode": "58175-000",
        "addr:street": "Avenida Petrónio Figueiredo",
        "addr:suburb": "Centro",
        "amenity": "clinic",
        "building": "yes",
        "government": "social_services",
        "healthcare": "clinic",
        "name": "CAPSi - Centro de Atenção Psicossocial Infantojuvenil Enfermeira Leneide Farias Pereira",
        "opening_hours": "Mo-Fr 08:00-17:00",
        "operator": "Sistema Único de Saúde",
        "operator:short": "SUS",
        "operator:wikidata": "Q7531056",
        "operator:wikipedia": "pt:Sistema Único de Saúde",
        "phone": "+55 83 996553934",
        "ref:CNES": "9679057",
        "id": "way/959884610"
      },
      "geometry": {
        "type": "Polygon",
        "coordinates": [
          [
            [
              -36.1492163,
              -6.4842729
            ],
            [
              -36.1490438,
              -6.4844214
            ],
            [
              -36.149059,
              -6.4844388
            ],
            [
              -36.1490183,
              -6.4844738
            ],
            [
              -36.1489543,
              -6.4844004
            ],
            [
              -36.1490574,
              -6.4843117
            ],
            [
              -36.1490201,
              -6.4842689
            ],
            [
              -36.1490667,
              -6.4842288
            ],
            [
              -36.1490991,
              -6.484266
            ],
            [
              -36.1491626,
              -6.4842113
            ],
            [
              -36.1492163,
              -6.4842729
            ]
          ]
        ]
      }
    },
    {
      "type": "Feature",
      "id": "way/963070627",
      "properties": {
        "timestamp": "2024-06-16T13:00:52Z",
        "version": 4,
        "changeset": 152759758,
        "addr:city": "Cuité",
        "addr:postcode": "58175-000",
        "addr:street": "Rua Nelson Mamede da Fonseca",
        "addr:suburb": "Centro",
        "amenity": "clinic",
        "building": "yes",
        "healthcare": "clinic",
        "name": "Unidade Básica de Saúde da Família Raimunda Domingos de Moura",
        "opening_hours": "Mo-Fr 07:00-17:00",
        "operator": "Sistema Único de Saúde",
        "operator:short": "SUS",
        "operator:wikidata": "Q7531056",
        "phone": "+55 83 996550473",
        "ref:CNES": "3060284",
        "short_name": "UBSF Raimunda Domingos de Moura",
        "id": "way/963070627"
      },
      "geometry": {
        "type": "Polygon",
        "coordinates": [
          [
            [
              -36.1516178,
              -6.4805344
            ],
            [
              -36.1516915,
              -6.4806264
            ],
            [
              -36.1515192,
              -6.4807628
            ],
            [
              -36.1514455,
              -6.4806709
            ],
            [
              -36.1516178,
              -6.4805344
            ]
          ]
        ]
      }
    },
    {
      "type": "Feature",
      "id": "way/963070634",
      "properties": {
        "timestamp": "2022-09-17T21:58:03Z",
        "version": 4,
        "changeset": 126313846,
        "addr:city": "Cuité",
        "addr:postcode": "58175-000",
        "addr:street": "Rua Benjamin Constant",
        "addr:suburb": "Centro",
        "amenity": "clinic",
        "building": "hospital",
        "description": "Diagnóstico e tratamento de câncer de colo de útero e mama.",
        "healthcare": "clinic",
        "name": "Centro da Mulher",
        "opening_hours": "Mo-Fr 08:00-17:00",
        "operator": "Sistema Único de Saúde",
        "operator:short": "SUS",
        "operator:wikidata": "Q7531056",
        "phone": "+55 83 3372 2481",
        "ref:CNES": "5033853",
        "id": "way/963070634"
      },
      "geometry": {
        "type": "Polygon",
        "coordinates": [
          [
            [
              -36.1517271,
              -6.4855047
            ],
            [
              -36.151683,
              -6.485538
            ],
            [
              -36.1516459,
              -6.4854896
            ],
            [
              -36.15169,
              -6.4854563
            ],
            [
              -36.1517271,
              -6.4855047
            ]
          ]
        ]
      }
    },
    {
      "type": "Feature",
      "id": "way/963453893",
      "properties": {
        "timestamp": "2024-06-16T13:00:52Z",
        "version": 4,
        "changeset": 152759758,
        "addr:city": "Cuité",
        "addr:postcode": "58175-000",
        "addr:street": "Rua Francisca Maria de Jesus",
        "addr:suburb": "Antônio Mariz",
        "amenity": "clinic",
        "building": "yes",
        "healthcare": "clinic",
        "name": "Unidade Básica de Saúde da Família Luíza Dantas de Medeiros",
        "opening_hours": "Mo-Fr 07:00-17:00",
        "operator": "Sistema Único de Saúde",
        "operator:short": "SUS",
        "operator:wikidata": "Q7531056",
        "phone": "+55 83 999877296",
        "ref:CNES": "2605740",
        "short_name": "UBSF Luíza Dantas de Medeiros",
        "id": "way/963453893"
      },
      "geometry": {
        "type": "Polygon",
        "coordinates": [
          [
            [
              -36.1624002,
              -6.4887827
            ],
            [
              -36.1623412,
              -6.4886527
            ],
            [
              -36.1624257,
              -6.4886148
            ],
            [
              -36.1624847,
              -6.4887449
            ],
            [
              -36.1624002,
              -6.4887827
            ]
          ]
        ]
      }
    },
    {
      "type": "Feature",
      "id": "way/965642314",
      "properties": {
        "timestamp": "2024-06-16T13:00:52Z",
        "version": 4,
        "changeset": 152759758,
        "addr:city": "Cuité",
        "addr:postcode": "58175-000",
        "addr:street": "Sítio Batentes",
        "alt_name": "UBSF Cleonice de Pontes Soares",
        "amenity": "clinic",
        "healthcare": "clinic",
        "name": "Unidade Básica de Saúde da Família Assentamento Retiro e Batentes",
        "opening_hours": "Mo-Fr 07:00-17:00",
        "operator": "Sistema Único de Saúde",
        "operator:short": "SUS",
        "operator:wikidata": "Q7531056",
        "phone": "+55 83 999909304",
        "ref:CNES": "6538096",
        "short_name": "UBSF Assentamento Retiro e Batentes",
        "id": "way/965642314"
      },
      "geometry": {
        "type": "Polygon",
        "coordinates": [
          [
            [
              -35.9743667,
              -6.5479255
            ],
            [
              -35.9743218,
              -6.5479894
            ],
            [
              -35.9742333,
              -6.5479282
            ],
            [
              -35.9742782,
              -6.5478642
            ],
            [
              -35.9743667,
              -6.5479255
            ]
          ]
        ]
      }
    },
    {
      "type": "Feature",
      "id": "way/966317446",
      "properties": {
        "timestamp": "2021-08-08T14:05:23Z",
        "version": 2,
        "changeset": 109347858,
        "amenity": "clinic",
        "building": "yes",
        "healthcare": "clinic",
        "name": "Endofclin",
        "id": "way/966317446"
      },
      "geometry": {
        "type": "Polygon",
        "coordinates": [
          [
            [
              -36.1547358,
              -6.4869146
            ],
            [
              -36.1547292,
              -6.4869557
            ],
            [
              -36.1546286,
              -6.4869397
            ],
            [
              -36.1546353,
              -6.4868986
            ],
            [
              -36.1547358,
              -6.4869146
            ]
          ]
        ]
      }
    },
    {
      "type": "Feature",
      "id": "way/984951954",
      "properties": {
        "timestamp": "2022-09-17T21:58:03Z",
        "version": 3,
        "changeset": 126313846,
        "addr:city": "Cuité",
        "addr:postcode": "58175-000",
        "addr:street": "Rua Francisco Teodoro da Fonseca",
        "addr:suburb": "Centro",
        "amenity": "clinic",
        "building": "yes",
        "healthcare": "clinic",
        "name": "Consórcio Público Intermunicipal de Saúde do Curimataú e Seridó Paraibano",
        "opening_hours": "Mo-Fr 08:00-17:00",
        "operator": "Sistema Único de Saúde",
        "operator:short": "SUS",
        "operator:wikidata": "Q7531056",
        "phone": "+55 83 33722481",
        "ref:CNES": "7844166",
        "short_name": "CIEMSC",
        "id": "way/984951954"
      },
      "geometry": {
        "type": "Polygon",
        "coordinates": [
          [
            [
              -36.1505623,
              -6.4850597
            ],
            [
              -36.1505037,
              -6.4851135
            ],
            [
              -36.1503732,
              -6.4849731
            ],
            [
              -36.1504319,
              -6.4849193
            ],
            [
              -36.1505623,
              -6.4850597
            ]
          ]
        ]
      }
    },
    {
      "type": "Feature",
      "id": "way/1011336213",
      "properties": {
        "timestamp": "2022-10-20T15:28:31Z",
        "version": 2,
        "changeset": 127844991,
        "amenity": "clinic",
        "building": "yes",
        "name": "Bioclin",
        "id": "way/1011336213"
      },
      "geometry": {
        "type": "Polygon",
        "coordinates": [
          [
            [
              -36.1529958,
              -6.4866427
            ],
            [
              -36.1530626,
              -6.4866622
            ],
            [
              -36.153025,
              -6.4867894
            ],
            [
              -36.1529582,
              -6.48677
            ],
            [
              -36.1529958,
              -6.4866427
            ]
          ]
        ]
      }
    },
    {
      "type": "Feature",
      "id": "way/1013179559",
      "properties": {
        "timestamp": "2022-09-17T21:58:03Z",
        "version": 3,
        "changeset": 126313846,
        "addr:city": "Cuité",
        "addr:housenumber": "95",
        "addr:postcode": "58175-000",
        "addr:street": "Rua Getúlio Vargas",
        "addr:suburb": "Centro",
        "amenity": "clinic",
        "building": "yes",
        "healthcare": "clinic",
        "name": "Hubmedical Curimataú",
        "opening_hours": "Mo-Fr 07:00-17:00",
        "phone": "+55 83 88105593",
        "ref:CNES": "0962937",
        "id": "way/1013179559"
      },
      "geometry": {
        "type": "Polygon",
        "coordinates": [
          [
            [
              -36.1531533,
              -6.486103
            ],
            [
              -36.1530045,
              -6.4861057
            ],
            [
              -36.1530033,
              -6.4860432
            ],
            [
              -36.1531522,
              -6.4860406
            ],
            [
              -36.1531533,
              -6.486103
            ]
          ]
        ]
      }
    },
    {
      "type": "Feature",
      "id": "way/1035747660",
      "properties": {
        "timestamp": "2022-02-27T14:24:01Z",
        "version": 1,
        "changeset": 117910117,
        "amenity": "clinic",
        "building": "yes",
        "name": "Espaço Saúde Josy Calvacanti",
        "id": "way/1035747660"
      },
      "geometry": {
        "type": "Polygon",
        "coordinates": [
          [
            [
              -36.154283,
              -6.4846513
            ],
            [
              -36.154322,
              -6.4847239
            ],
            [
              -36.1542907,
              -6.4847405
            ],
            [
              -36.1542517,
              -6.4846679
            ],
            [
              -36.154283,
              -6.4846513
            ]
          ]
        ]
      }
    },
    {
      "type": "Feature",
      "id": "way/1076934242",
      "properties": {
        "timestamp": "2024-06-16T13:00:52Z",
        "version": 5,
        "changeset": 152759758,
        "addr:street": "Loteamento São Francisco",
        "addr:suburb": "Novo Retiro",
        "amenity": "clinic",
        "building": "yes",
        "healthcare": "clinic",
        "name": "Unidade Básica de Saúde da Famíla Francisca Freire Dias Lins (Liene)",
        "opening_hours": "Mo-Fr 07:00-17:00; PH off",
        "phone": "+55 83 98125 1689",
        "ref:CNES": "0678260",
        "short_name": "UBSF Francisca Freire Dias Lins (Liene)",
        "id": "way/1076934242"
      },
      "geometry": {
        "type": "Polygon",
        "coordinates": [
          [
            [
              -36.1627821,
              -6.4781797
            ],
            [
              -36.1628467,
              -6.4783156
            ],
            [
              -36.1627779,
              -6.4783479
            ],
            [
              -36.1627133,
              -6.478212
            ],
            [
              -36.1627821,
              -6.4781797
            ]
          ]
        ]
      }
    },
    {
      "type": "Feature",
      "id": "way/1092655330",
      "properties": {
        "timestamp": "2022-09-07T15:06:24Z",
        "version": 1,
        "changeset": 125906382,
        "amenity": "clinic",
        "building": "yes",
        "name": "Espaço Neuro Desenvolve",
        "id": "way/1092655330"
      },
      "geometry": {
        "type": "Polygon",
        "coordinates": [
          [
            [
              -36.1548639,
              -6.4827797
            ],
            [
              -36.1547085,
              -6.4828982
            ],
            [
              -36.1546793,
              -6.4828604
            ],
            [
              -36.1547971,
              -6.4827705
            ],
            [
              -36.1548347,
              -6.4827419
            ],
            [
              -36.1548639,
              -6.4827797
            ]
          ]
        ]
      }
    },
    {
      "type": "Feature",
      "id": "way/1106130768",
      "properties": {
        "timestamp": "2022-10-22T17:40:10Z",
        "version": 1,
        "changeset": 127932410,
        "amenity": "clinic",
        "building": "yes",
        "healthcare": "clinic",
        "name": "Clinimagem",
        "id": "way/1106130768"
      },
      "geometry": {
        "type": "Polygon",
        "coordinates": [
          [
            [
              -36.1518615,
              -6.4850188
            ],
            [
              -36.1519285,
              -6.4851028
            ],
            [
              -36.1518712,
              -6.485148
            ],
            [
              -36.1518041,
              -6.4850639
            ],
            [
              -36.1518615,
              -6.4850188
            ]
          ]
        ]
      }
    },
    {
      "type": "Feature",
      "id": "way/1247377968",
      "properties": {
        "timestamp": "2024-06-16T13:00:52Z",
        "version": 2,
        "changeset": 152759758,
        "addr:city": "Cuité",
        "addr:postcode": "58175-000",
        "addr:street": "Sítio Catolé",
        "amenity": "clinic",
        "building": "yes",
        "healthcare": "clinic",
        "name": "Unidade Básica de Saúde da Família Catolé",
        "opening_hours": "Mo-Fr 07:00-17:00",
        "operator": "Sistema Único de Saúde",
        "operator:short": "SUS",
        "operator:wikidata": "Q7531056",
        "phone": "+55 83 99818-6103",
        "ref:CNES": "2342545",
        "short_name": "UBSF Catolé",
        "id": "way/1247377968"
      },
      "geometry": {
        "type": "Polygon",
        "coordinates": [
          [
            [
              -36.2250409,
              -6.6279337
            ],
            [
              -36.2249308,
              -6.628005
            ],
            [
              -36.2248865,
              -6.6279377
            ],
            [
              -36.2249966,
              -6.6278663
            ],
            [
              -36.2250409,
              -6.6279337
            ]
          ]
        ]
      }
    },
    {
      "type": "Feature",
      "id": "way/1247377973",
      "properties": {
        "timestamp": "2024-06-16T13:00:52Z",
        "version": 2,
        "changeset": 152759758,
        "addr:city": "Cuité",
        "addr:postcode": "58175-000",
        "addr:street": "Serra do Bombocadinho",
        "amenity": "clinic",
        "building": "yes",
        "healthcare": "clinic",
        "name": "Unidade Básica de Saúde da Família Serra do Bombocadinho",
        "opening_hours": "Mo-Fr 07:00-17:00",
        "operator": "Sistema Único de Saúde",
        "operator:short": "SUS",
        "operator:wikidata": "Q7531056",
        "phone": "+55 83 999727435",
        "ref:CNES": "2342553",
        "short_name": "UBSF Serra do Bombocadinho",
        "id": "way/1247377973"
      },
      "geometry": {
        "type": "Polygon",
        "coordinates": [
          [
            [
              -36.0631695,
              -6.6287041
            ],
            [
              -36.0632035,
              -6.6288649
            ],
            [
              -36.0631299,
              -6.6288803
            ],
            [
              -36.0630959,
              -6.6287194
            ],
            [
              -36.0631695,
              -6.6287041
            ]
          ]
        ]
      }
    },
    {
      "type": "Feature",
      "id": "node/10013443505",
      "properties": {
        "timestamp": "2022-09-10T15:13:17Z",
        "version": 1,
        "changeset": 126019465,
        "entrance": "yes",
        "id": "node/10013443505"
      },
      "geometry": {
        "type": "Point",
        "coordinates": [
          -36.1625413,
          -6.4824328
        ]
      }
    },
    {
      "type": "Feature",
      "id": "node/10032543696",
      "properties": {
        "timestamp": "2025-03-10T23:40:11Z",
        "version": 4,
        "changeset": 163464071,
        "addr:city": "Cuité",
        "addr:postcode": "58175-000",
        "addr:street": "Distrito do Melo",
        "amenity": "clinic",
        "healthcare": "clinic",
        "name": "Unidade Básica de Saúde da Família Melo",
        "opening_hours": "Mo-Fr 07:00-17:00",
        "operator": "Sistema Único de Saúde",
        "operator:short": "SUS",
        "operator:type": "public",
        "operator:wikidata": "Q7531056",
        "phone": "+55 83 999100852",
        "ref:CNES": "2342537",
        "short_name": "UBSF Melo",
        "id": "node/10032543696"
      },
      "geometry": {
        "type": "Point",
        "coordinates": [
          -36.1102229,
          -6.5842016
        ]
      }
    },
    {
      "type": "Feature",
      "id": "node/11595038086",
      "properties": {
        "timestamp": "2024-06-16T13:00:52Z",
        "version": 2,
        "changeset": 152759758,
        "addr:city": "Cuité",
        "addr:place": "Sítio Bujari",
        "addr:postcode": "58175-000",
        "alt_name": "Unidade Básica de Saúde da Família Pedro Ferreira de Medeiros (Âncora)",
        "amenity": "clinic",
        "healthcare": "clinic",
        "name": "Unidade Básica de Saúde da Famíla Bujari",
        "operator": "Sistema Único de Saúde",
        "operator:short": "SUS",
        "operator:wikidata": "Q7531056",
        "short_name": "UBSF Bujari",
        "id": "node/11595038086"
      },
      "geometry": {
        "type": "Point",
        "coordinates": [
          -36.1717243,
          -6.4437569
        ]
      }
    },
    {
      "type": "Feature",
      "id": "node/12041481337",
      "properties": {
        "timestamp": "2024-07-08T11:28:27Z",
        "version": 1,
        "changeset": 153699351,
        "entrance": "yes",
        "id": "node/12041481337"
      },
      "geometry": {
        "type": "Point",
        "coordinates": [
          -36.1475289,
          -6.487333
        ]
      }
    },
    {
      "type": "Feature",
      "id": "node/12427861199",
      "properties": {
        "timestamp": "2024-12-17T23:25:50Z",
        "version": 1,
        "changeset": 160326812,
        "entrance": "main",
        "id": "node/12427861199"
      },
      "geometry": {
        "type": "Point",
        "coordinates": [
          -36.1535575,
          -6.486594
        ]
      }
    }
  ]
}
