{
  "type": "FeatureCollection",
  "features": [
    {
      "type": "Feature",
      "id": "way/518944454",
      "properties": {
        "timestamp": "2017-08-26T23:41:18Z",
        "version": 1,
        "changeset": 51470710,
        "amenity": "school",
        "name": "Escola Ananias Custódio Arrais",
        "id": "way/518944454"
      },
      "geometry": {
        "type": "Polygon",
        "coordinates": [
          [
            [
              -40.3255062,
              -6.958287
            ],
            [
              -40.3255283,
              -6.9585416
            ],
            [
              -40.3252915,
              -6.9585618
            ],
            [
              -40.3252694,
              -6.9583072
            ],
            [
              -40.3255062,
              -6.958287
            ]
          ]
        ]
      }
    },
    {
      "type": "Feature",
      "id": "way/518950422",
      "properties": {
        "timestamp": "2017-08-27T01:25:56Z",
        "version": 1,
        "changeset": 51471446,
        "amenity": "school",
        "id": "way/518950422"
      },
      "geometry": {
        "type": "Polygon",
        "coordinates": [
          [
            [
              -40.2904733,
              -6.8265833
            ],
            [
              -40.2904392,
              -6.8268053
            ],
            [
              -40.2900702,
              -6.8267494
            ],
            [
              -40.2901044,
              -6.8265274
            ],
            [
              -40.2904733,
              -6.8265833
            ]
          ]
        ]
      }
    },
    {
      "type": "Feature",
      "id": "way/680073868",
      "properties": {
        "timestamp": "2019-03-28T13:49:38Z",
        "version": 1,
        "changeset": 68626619,
        "amenity": "school",
        "name": "Escola de Ensino Infantil e Fundamental - EEIF José Augusto Sobrinho",
        "operator": "Prefeitura Municipal de Campos Sales",
        "id": "way/680073868"
      },
      "geometry": {
        "type": "Polygon",
        "coordinates": [
          [
            [
              -40.371733,
              -7.0664157
            ],
            [
              -40.3719088,
              -7.0665022
            ],
            [
              -40.3718306,
              -7.0666588
            ],
            [
              -40.3716548,
              -7.0665722
            ],
            [
              -40.371733,
              -7.0664157
            ]
          ]
        ]
      }
    },
    {
      "type": "Feature",
      "id": "node/6361530864",
      "properties": {
        "timestamp": "2020-06-24T01:19:29Z",
        "version": 2,
        "changeset": 87055207,
        "addr:city": "Campos Sales",
        "addr:housenumber": "297",
        "addr:postcode": "63150000",
        "addr:street": "Rua Vicente Alexandrino",
        "addr:suburb": "Centro",
        "amenity": "school",
        "name": "Escola de Ensino Médio - EEM de Campos Sales",
        "operator": "Governo do Estado do Ceará",
        "id": "node/6361530864"
      },
      "geometry": {
        "type": "Point",
        "coordinates": [
          -40.3741012,
          -7.0748845
        ]
      }
    },
    {
      "type": "Feature",
      "id": "node/6361530865",
      "properties": {
        "timestamp": "2019-03-26T01:24:44Z",
        "version": 1,
        "changeset": 68528718,
        "addr:city": "Campos Sales",
        "addr:postcode": "63150000",
        "addr:street": "Rua Júlio Norões",
        "addr:suburb": "Centro",
        "amenity": "school",
        "name": "Centro Educacional Professora Maria Dulce de Alencar",
        "operator": "Privado",
        "id": "node/6361530865"
      },
      "geometry": {
        "type": "Point",
        "coordinates": [
          -40.3730913,
          -7.074496
        ]
      }
    },
    {
      "type": "Feature",
      "id": "node/6362232985",
      "properties": {
        "timestamp": "2019-03-26T11:26:49Z",
        "version": 1,
        "changeset": 68542668,
        "addr:city": "Campos Sales",
        "addr:postcode": "63150000",
        "addr:street": "Rua João Vinte e Três",
        "addr:suburb": "Novo Centro",
        "amenity": "school",
        "name": "Escola de Ensino Infantil e Fundamental - EEIF João XXIII",
        "operator": "Prefeitura Municipal de Campos Sales",
        "id": "node/6362232985"
      },
      "geometry": {
        "type": "Point",
        "coordinates": [
          -40.3690437,
          -7.0759595
        ]
      }
    },
    {
      "type": "Feature",
      "id": "node/6362232986",
      "properties": {
        "timestamp": "2019-03-26T11:26:49Z",
        "version": 1,
        "changeset": 68542668,
        "addr:city": "Campos Sales",
        "addr:postcode": "63150000",
        "addr:street": "Rua João Severo Cortez",
        "addr:suburb": "Centro",
        "amenity": "school",
        "name": "Centro Educacional Professor Adnilson Batista",
        "operator": "Privado",
        "id": "node/6362232986"
      },
      "geometry": {
        "type": "Point",
        "coordinates": [
          -40.3712361,
          -7.07675
        ]
      }
    },
    {
      "type": "Feature",
      "id": "node/6362232990",
      "properties": {
        "timestamp": "2019-03-26T11:26:50Z",
        "version": 1,
        "changeset": 68542668,
        "amenity": "school",
        "name": "Escola de Ensino Infantil e Fundamental - EEIF Manoel Duarte de Sá Barreto",
        "operator": "Prefeitura Municipal de Campos Sales",
        "id": "node/6362232990"
      },
      "geometry": {
        "type": "Point",
        "coordinates": [
          -40.367974,
          -7.0809886
        ]
      }
    },
    {
      "type": "Feature",
      "id": "node/6367662845",
      "properties": {
        "timestamp": "2019-03-28T13:49:37Z",
        "version": 1,
        "changeset": 68626619,
        "amenity": "school",
        "name": "Centro Educacional Sagrado Coração - CESC",
        "operator": "Privado",
        "id": "node/6367662845"
      },
      "geometry": {
        "type": "Point",
        "coordinates": [
          -40.3774975,
          -7.0763562
        ]
      }
    },
    {
      "type": "Feature",
      "id": "node/6367662847",
      "properties": {
        "timestamp": "2019-03-28T13:49:37Z",
        "version": 1,
        "changeset": 68626619,
        "addr:city": "Campos Sales",
        "addr:postcode": "63150000",
        "addr:suburb": "Guarani",
        "amenity": "school",
        "name": "Escola de Ensino Infantil e Fundamental - EEIF Luciano Torres de Melo",
        "operator": "Prefeitura Municipal de Campos Sales",
        "id": "node/6367662847"
      },
      "geometry": {
        "type": "Point",
        "coordinates": [
          -40.3844963,
          -7.0753733
        ]
      }
    },
    {
      "type": "Feature",
      "id": "node/6367662883",
      "properties": {
        "timestamp": "2019-03-28T13:49:37Z",
        "version": 1,
        "changeset": 68626619,
        "amenity": "school",
        "name": "Escola de Ensino Infantil e Fundamental - EEIF José Augusto Sobrinho",
        "id": "node/6367662883"
      },
      "geometry": {
        "type": "Point",
        "coordinates": [
          -40.3717343,
          -7.0665129
        ]
      }
    }
  ]
}
