{
  "type": "FeatureCollection",
  "features": [
    {
      "type": "Feature",
      "id": "way/1127923673",
      "properties": {
        "timestamp": "2023-01-08T01:22:53Z",
        "version": 2,
        "changeset": 131000764,
        "amenity": "clinic",
        "building": "yes",
        "healthcare": "clinic",
        "name": "Unidade Básica de Saúde Doutor Roberto Contente",
        "id": "way/1127923673"
      },
      "geometry": {
        "type": "Polygon",
        "coordinates": [
          [
            [
              -48.8888147,
              -1.7223803
            ],
            [
              -48.888863,
              -1.7227187
            ],
            [
              -48.888753,
              -1.7227355
            ],
            [
              -48.8887014,
              -1.722401
            ],
            [
              -48.8888147,
              -1.7223803
            ]
          ]
        ]
      }
    },
    {
      "type": "Feature",
      "id": "way/1183788961",
      "properties": {
        "timestamp": "2023-06-20T22:36:31Z",
        "version": 1,
        "changeset": 137581195,
        "addr:postcode": "68440-000",
        "addr:street": "Rua Doutor João Novaes",
        "addr:suburb": "Mutirão",
        "amenity": "clinic",
        "building": "yes",
        "healthcare": "clinic",
        "healthcare:speciality": "general",
        "name": "Unidade Básica de Saúde do Mutirão Osvaldo Ribeiro",
        "opening_hours": "off",
        "ref:CNES": "9307990",
        "source": "CNES",
        "id": "way/1183788961"
      },
      "geometry": {
        "type": "Polygon",
        "coordinates": [
          [
            [
              -48.8619525,
              -1.7274524
            ],
            [
              -48.8620255,
              -1.7275159
            ],
            [
              -48.862046,
              -1.727501
            ],
            [
              -48.862104,
              -1.727544
            ],
            [
              -48.862086,
              -1.7275691
            ],
            [
              -48.8621477,
              -1.7276272
            ],
            [
              -48.8621265,
              -1.7276561
            ],
            [
              -48.8621022,
              -1.7276524
            ],
            [
              -48.8620965,
              -1.7276767
            ],
            [
              -48.8620816,
              -1.7276973
            ],
            [
              -48.8620142,
              -1.7276393
            ],
            [
              -48.8619712,
              -1.7276842
            ],
            [
              -48.861917,
              -1.7276374
            ],
            [
              -48.8619619,
              -1.7275832
            ],
            [
              -48.861887,
              -1.7275141
            ],
            [
              -48.8619525,
              -1.7274524
            ]
          ]
        ]
      }
    },
    {
      "type": "Feature",
      "id": "node/2934484021",
      "properties": {
        "timestamp": "2016-08-24T19:06:55Z",
        "version": 3,
        "changeset": 41670950,
        "addr:city": "Abaetetuba",
        "addr:housenumber": "530",
        "addr:street": "Rua Berlindo Pinheiro",
        "addr:suburb": "Algodoal",
        "amenity": "clinic",
        "name": "Unidade de Saúde da Família do Algodoal",
        "id": "node/2934484021"
      },
      "geometry": {
        "type": "Point",
        "coordinates": [
          -48.8869468,
          -1.7316531
        ]
      }
    },
    {
      "type": "Feature",
      "id": "node/4365306088",
      "properties": {
        "timestamp": "2024-03-13T19:03:08Z",
        "version": 2,
        "changeset": 148609005,
        "addr:city": "Abaetetuba",
        "addr:housenumber": "1641",
        "addr:street": "Rua Barão do Rio Branco",
        "addr:suburb": "Centro",
        "amenity": "clinic",
        "healthcare": "clinic",
        "name": "Centro de Saúde de Abaetetuba Dr. Roberto Contente",
        "id": "node/4365306088"
      },
      "geometry": {
        "type": "Point",
        "coordinates": [
          -48.8886096,
          -1.7223533
        ]
      }
    },
    {
      "type": "Feature",
      "id": "node/4365306491",
      "properties": {
        "timestamp": "2024-03-13T19:03:08Z",
        "version": 2,
        "changeset": 148609005,
        "addr:city": "Abaetetuba",
        "addr:street": "Avenida Quinze de Agosto",
        "addr:suburb": "Centro",
        "amenity": "clinic",
        "healthcare": "clinic",
        "name": "Centro de Testagem e Aconcelhamento",
        "id": "node/4365306491"
      },
      "geometry": {
        "type": "Point",
        "coordinates": [
          -48.8886466,
          -1.7223097
        ]
      }
    },
    {
      "type": "Feature",
      "id": "node/4365306492",
      "properties": {
        "timestamp": "2024-03-13T19:03:08Z",
        "version": 2,
        "changeset": 148609005,
        "addr:city": "Abaetetuba",
        "addr:housenumber": "1664",
        "addr:street": "Rua Siqueira Mendes",
        "addr:suburb": "Centro",
        "amenity": "clinic",
        "healthcare": "clinic",
        "name": "Centro Médico Nossa Senhora da Conceição",
        "id": "node/4365306492"
      },
      "geometry": {
        "type": "Point",
        "coordinates": [
          -48.8894515,
          -1.7221628
        ]
      }
    },
    {
      "type": "Feature",
      "id": "node/4365306505",
      "properties": {
        "timestamp": "2024-03-13T19:03:08Z",
        "version": 2,
        "changeset": 148609005,
        "addr:city": "Abaetetuba",
        "addr:street": "Travessa Tancredo Neves",
        "addr:suburb": "São João",
        "amenity": "clinic",
        "healthcare": "clinic",
        "name": "Unidade de Saúde da Família do São João",
        "id": "node/4365306505"
      },
      "geometry": {
        "type": "Point",
        "coordinates": [
          -48.8866071,
          -1.7152602
        ]
      }
    },
    {
      "type": "Feature",
      "id": "node/4365364205",
      "properties": {
        "timestamp": "2024-03-13T19:03:08Z",
        "version": 2,
        "changeset": 148609005,
        "addr:city": "Abaetetuba",
        "addr:housenumber": "478",
        "addr:street": "Avenida Dom Pedro II",
        "addr:suburb": "Centro",
        "amenity": "clinic",
        "healthcare": "clinic",
        "name": "CLIFA",
        "id": "node/4365364205"
      },
      "geometry": {
        "type": "Point",
        "coordinates": [
          -48.885394,
          -1.7238847
        ]
      }
    }
  ]
}
