{
  "type": "FeatureCollection",
  "features": [
    {
      "type": "Feature",
      "id": "way/1133585459",
      "properties": {
        "timestamp": "2023-01-19T22:34:45Z",
        "version": 1,
        "changeset": 131485035,
        "addr:city": "Abaetetuba",
        "addr:housenumber": "77",
        "addr:street": "Rua Pedro Pinheiro Paes",
        "addr:suburb": "Centro",
        "amenity": "doctors",
        "building": "yes",
        "healthcare": "doctor",
        "name": "Centro Médico de Abaetetuba",
        "phone": "+55 91 98513-7794",
        "id": "way/1133585459"
      },
      "geometry": {
        "type": "Polygon",
        "coordinates": [
          [
            [
              -48.8917467,
              -1.7251365
            ],
            [
              -48.8917045,
              -1.7252806
            ],
            [
              -48.8915905,
              -1.7252504
            ],
            [
              -48.8916307,
              -1.725103
            ],
            [
              -48.8917467,
              -1.7251365
            ]
          ]
        ]
      }
    },
    {
      "type": "Feature",
      "id": "node/4365364204",
      "properties": {
        "timestamp": "2024-12-19T20:33:28Z",
        "version": 2,
        "changeset": 160409811,
        "addr:city": "Abaetetuba",
        "addr:street": "Travessa José Gonçalves Chaves",
        "addr:suburb": "São Lourenço",
        "amenity": "doctors",
        "name": "Centro Pediátrico Dra. Lianne Negrão",
        "id": "node/4365364204"
      },
      "geometry": {
        "type": "Point",
        "coordinates": [
          -48.8850694,
          -1.7176603
        ]
      }
    },
    {
      "type": "Feature",
      "id": "node/4365364208",
      "properties": {
        "timestamp": "2016-08-24T19:56:13Z",
        "version": 1,
        "changeset": 41672134,
        "addr:street": "Avenida Dom Pedro II",
        "amenity": "doctors",
        "name": "Odonto Para Todos",
        "id": "node/4365364208"
      },
      "geometry": {
        "type": "Point",
        "coordinates": [
          -48.8883812,
          -1.7235162
        ]
      }
    },
    {
      "type": "Feature",
      "id": "node/4365364209",
      "properties": {
        "timestamp": "2016-08-24T19:56:13Z",
        "version": 1,
        "changeset": 41672134,
        "addr:street": "Avenida Dom Pedro II",
        "amenity": "doctors",
        "name": "Laboratório de Analises Clinicas São Francisco Xavier",
        "id": "node/4365364209"
      },
      "geometry": {
        "type": "Point",
        "coordinates": [
          -48.8882672,
          -1.7235039
        ]
      }
    },
    {
      "type": "Feature",
      "id": "node/4365364211",
      "properties": {
        "timestamp": "2024-12-19T20:05:57Z",
        "version": 3,
        "changeset": 160408923,
        "addr:street": "Rua Padre Luís Varela",
        "amenity": "doctors",
        "healthcare": "doctor",
        "name": "Consultório Médico Dr. Galileu",
        "id": "node/4365364211"
      },
      "geometry": {
        "type": "Point",
        "coordinates": [
          -48.8873583,
          -1.7235101
        ]
      }
    },
    {
      "type": "Feature",
      "id": "node/4365364212",
      "properties": {
        "timestamp": "2016-08-24T19:56:13Z",
        "version": 1,
        "changeset": 41672134,
        "addr:street": "Avenida Pedro Rodrigues",
        "amenity": "doctors",
        "name": "Laboratório Beneficente Portuguesa",
        "id": "node/4365364212"
      },
      "geometry": {
        "type": "Point",
        "coordinates": [
          -48.8874939,
          -1.7247573
        ]
      }
    },
    {
      "type": "Feature",
      "id": "node/4365364214",
      "properties": {
        "timestamp": "2016-08-24T19:56:13Z",
        "version": 1,
        "changeset": 41672134,
        "addr:housenumber": "345",
        "addr:street": "Avenida Pedro Rodrigues",
        "amenity": "doctors",
        "name": "Imagi",
        "id": "node/4365364214"
      },
      "geometry": {
        "type": "Point",
        "coordinates": [
          -48.8886186,
          -1.7245534
        ]
      }
    },
    {
      "type": "Feature",
      "id": "node/4365364215",
      "properties": {
        "timestamp": "2016-08-24T19:56:13Z",
        "version": 1,
        "changeset": 41672134,
        "addr:housenumber": "424",
        "addr:street": "Avenida Pedro Rodrigues",
        "amenity": "doctors",
        "name": "Consultorio Médico Dr. Alberto da Silva Araujo",
        "id": "node/4365364215"
      },
      "geometry": {
        "type": "Point",
        "coordinates": [
          -48.8879543,
          -1.7249076
        ]
      }
    },
    {
      "type": "Feature",
      "id": "node/4365364216",
      "properties": {
        "timestamp": "2016-08-24T19:56:13Z",
        "version": 1,
        "changeset": 41672134,
        "addr:city": "Abaetetuba",
        "addr:housenumber": "536",
        "addr:street": "Avenida Pedro Rodrigues",
        "addr:suburb": "Centro",
        "amenity": "doctors",
        "name": "Consultorio Médico Dr. Lazaro",
        "id": "node/4365364216"
      },
      "geometry": {
        "type": "Point",
        "coordinates": [
          -48.8868117,
          -1.7251274
        ]
      }
    },
    {
      "type": "Feature",
      "id": "node/4365364217",
      "properties": {
        "timestamp": "2016-08-24T19:56:13Z",
        "version": 1,
        "changeset": 41672134,
        "addr:city": "Abaetetuba",
        "addr:housenumber": "1258",
        "addr:street": "Rua Siqueira Mendes",
        "addr:suburb": "Centro",
        "amenity": "doctors",
        "name": "Clinica São José",
        "id": "node/4365364217"
      },
      "geometry": {
        "type": "Point",
        "coordinates": [
          -48.8900751,
          -1.7260011
        ]
      }
    },
    {
      "type": "Feature",
      "id": "node/4365364218",
      "properties": {
        "timestamp": "2016-08-24T19:56:13Z",
        "version": 1,
        "changeset": 41672134,
        "addr:street": "Travessa Major Frederico da Gama Costa",
        "amenity": "doctors",
        "name": "Laboratório Amaral Costa",
        "id": "node/4365364218"
      },
      "geometry": {
        "type": "Point",
        "coordinates": [
          -48.8899581,
          -1.7261767
        ]
      }
    },
    {
      "type": "Feature",
      "id": "node/4365364222",
      "properties": {
        "timestamp": "2024-03-13T19:03:08Z",
        "version": 2,
        "changeset": 148609005,
        "addr:city": "Abaetetuba",
        "addr:housenumber": "1675",
        "addr:street": "Rua Siqueira Mendes",
        "addr:suburb": "Centro",
        "amenity": "doctors",
        "healthcare": "doctor",
        "name": "Consultório Médico José Brandão",
        "id": "node/4365364222"
      },
      "geometry": {
        "type": "Point",
        "coordinates": [
          -48.8895375,
          -1.7221947
        ]
      }
    },
    {
      "type": "Feature",
      "id": "node/4365364223",
      "properties": {
        "timestamp": "2016-08-24T19:56:13Z",
        "version": 1,
        "changeset": 41672134,
        "addr:city": "Abaetetuba",
        "addr:housenumber": "77",
        "addr:street": "Rua Pedro Pinheiro Paes",
        "addr:suburb": "Centro",
        "amenity": "doctors",
        "name": "CEMA",
        "id": "node/4365364223"
      },
      "geometry": {
        "type": "Point",
        "coordinates": [
          -48.8916376,
          -1.7251712
        ]
      }
    },
    {
      "type": "Feature",
      "id": "node/4365364224",
      "properties": {
        "timestamp": "2016-08-24T19:56:13Z",
        "version": 1,
        "changeset": 41672134,
        "addr:housenumber": "142",
        "addr:street": "Rua Pedro Pinheiro Paes",
        "amenity": "doctors",
        "name": "Laboratorio de Analises Clinicas Nossa Senhora da Conceição",
        "id": "node/4365364224"
      },
      "geometry": {
        "type": "Point",
        "coordinates": [
          -48.8916722,
          -1.7253399
        ]
      }
    },
    {
      "type": "Feature",
      "id": "node/4365364225",
      "properties": {
        "timestamp": "2016-08-24T19:56:13Z",
        "version": 1,
        "changeset": 41672134,
        "addr:housenumber": "234",
        "addr:street": "Rua Pedro Pinheiro Paes",
        "amenity": "doctors",
        "name": "Consultorio Médico Dr. João Nery",
        "id": "node/4365364225"
      },
      "geometry": {
        "type": "Point",
        "coordinates": [
          -48.8902523,
          -1.7252211
        ]
      }
    },
    {
      "type": "Feature",
      "id": "node/4365364227",
      "properties": {
        "timestamp": "2016-08-24T19:56:14Z",
        "version": 1,
        "changeset": 41672134,
        "addr:housenumber": "1403",
        "addr:street": "Avenida Rio Branco",
        "amenity": "doctors",
        "name": "CliniCardio",
        "id": "node/4365364227"
      },
      "geometry": {
        "type": "Point",
        "coordinates": [
          -48.8766576,
          -1.7136273
        ]
      }
    },
    {
      "type": "Feature",
      "id": "node/4365364228",
      "properties": {
        "timestamp": "2016-08-24T19:56:14Z",
        "version": 1,
        "changeset": 41672134,
        "addr:street": "Avenida Dom Pedro II",
        "amenity": "doctors",
        "name": "Laboratório Amaral Costa",
        "id": "node/4365364228"
      },
      "geometry": {
        "type": "Point",
        "coordinates": [
          -48.8811105,
          -1.7247814
        ]
      }
    },
    {
      "type": "Feature",
      "id": "node/10568844407",
      "properties": {
        "timestamp": "2023-01-19T22:34:45Z",
        "version": 1,
        "changeset": 131485035,
        "amenity": "doctors",
        "healthcare": "doctor",
        "healthcare:speciality": "ophthalmology",
        "name": "Clínica Dr. Galileu Neto",
        "id": "node/10568844407"
      },
      "geometry": {
        "type": "Point",
        "coordinates": [
          -48.8868879,
          -1.7234287
        ]
      }
    }
  ]
}
