{
  "type": "FeatureCollection",
  "features": [
    {
      "type": "Feature",
      "id": "way/438882071",
      "properties": {
        "timestamp": "2023-05-07T02:47:04Z",
        "version": 5,
        "changeset": 135796111,
        "addr:city": "Abaetetuba",
        "addr:housenumber": "1360",
        "addr:street": "Rua Joaquim Mendes Contente",
        "addr:suburb": "Santa Rosa",
        "amenity": "hospital",
        "healthcare": "hospital",
        "name": "Hospital Regional do Baixo Tocantins",
        "operator:ref:vatin": "BR05054929000117",
        "ref:CNES": "73482",
        "id": "way/438882071"
      },
      "geometry": {
        "type": "Polygon",
        "coordinates": [
          [
            [
              -48.8815186,
              -1.7263252
            ],
            [
              -48.882167,
              -1.7272922
            ],
            [
              -48.8813009,
              -1.727889
            ],
            [
              -48.8807919,
              -1.7282397
            ],
            [
              -48.8801643,
              -1.7270814
            ],
            [
              -48.8815186,
              -1.7263252
            ]
          ]
        ]
      }
    },
    {
      "type": "Feature",
      "id": "node/4365306084",
      "properties": {
        "timestamp": "2016-08-24T19:06:53Z",
        "version": 1,
        "changeset": 41670950,
        "amenity": "hospital",
        "name": "Eraldo Pantoja",
        "id": "node/4365306084"
      },
      "geometry": {
        "type": "Point",
        "coordinates": [
          -48.8679844,
          -1.7276284
        ]
      }
    },
    {
      "type": "Feature",
      "id": "node/4365306085",
      "properties": {
        "timestamp": "2016-08-24T19:06:53Z",
        "version": 1,
        "changeset": 41670950,
        "amenity": "hospital",
        "name": "Centro de Atenção Psicosocial",
        "id": "node/4365306085"
      },
      "geometry": {
        "type": "Point",
        "coordinates": [
          -48.8813088,
          -1.7249455
        ]
      }
    },
    {
      "type": "Feature",
      "id": "node/4365306086",
      "properties": {
        "timestamp": "2017-04-27T19:26:05Z",
        "version": 2,
        "changeset": 48205906,
        "amenity": "hospital",
        "name": "Centro de Atenção Psicosocial D. Ângelo Frosi",
        "id": "node/4365306086"
      },
      "geometry": {
        "type": "Point",
        "coordinates": [
          -48.8618714,
          -1.7332547
        ]
      }
    },
    {
      "type": "Feature",
      "id": "node/4365306490",
      "properties": {
        "timestamp": "2016-08-24T19:06:53Z",
        "version": 1,
        "changeset": 41670950,
        "addr:city": "Abaetetuba",
        "addr:street": "Travessa Acre",
        "addr:suburb": "Francilândia",
        "amenity": "hospital",
        "name": "Centro de Saúde da Francilândia",
        "id": "node/4365306490"
      },
      "geometry": {
        "type": "Point",
        "coordinates": [
          -48.8787203,
          -1.7154886
        ]
      }
    },
    {
      "type": "Feature",
      "id": "node/4365306493",
      "properties": {
        "timestamp": "2016-08-24T19:06:54Z",
        "version": 1,
        "changeset": 41670950,
        "addr:city": "Abaetetuba",
        "addr:street": "Travessa Santos Dumont",
        "addr:suburb": "São Lourenço",
        "amenity": "hospital",
        "name": "HEMOPA Abaetetuba",
        "id": "node/4365306493"
      },
      "geometry": {
        "type": "Point",
        "coordinates": [
          -48.8798535,
          -1.7228201
        ]
      }
    },
    {
      "type": "Feature",
      "id": "node/4365306501",
      "properties": {
        "timestamp": "2016-08-24T19:06:54Z",
        "version": 1,
        "changeset": 41670950,
        "addr:city": "Abaetetuba",
        "addr:housenumber": "1360",
        "addr:street": "Rua Joaquim Mendes Contente",
        "addr:suburb": "Santa Rosa",
        "amenity": "hospital",
        "name": "Laboratório Central de Abaetetuba",
        "id": "node/4365306501"
      },
      "geometry": {
        "type": "Point",
        "coordinates": [
          -48.8815136,
          -1.7268199
        ]
      }
    },
    {
      "type": "Feature",
      "id": "node/4365306503",
      "properties": {
        "timestamp": "2016-08-24T19:06:54Z",
        "version": 1,
        "changeset": 41670950,
        "addr:city": "Abaetetuba",
        "addr:housenumber": "1181",
        "addr:street": "Rua Barão do Rio Branco",
        "addr:suburb": "Centro",
        "amenity": "hospital",
        "name": "Unidade de Vigilância Sanitaria",
        "id": "node/4365306503"
      },
      "geometry": {
        "type": "Point",
        "coordinates": [
          -48.8895397,
          -1.7267492
        ]
      }
    },
    {
      "type": "Feature",
      "id": "node/4365306506",
      "properties": {
        "timestamp": "2016-08-24T19:06:54Z",
        "version": 1,
        "changeset": 41670950,
        "addr:city": "Abaetetuba",
        "addr:street": "Travessa Benedito Sena dos Passos",
        "addr:suburb": "São Sebastião",
        "amenity": "hospital",
        "name": "Unidade de Saúde da Família de São Sebastião",
        "id": "node/4365306506"
      },
      "geometry": {
        "type": "Point",
        "coordinates": [
          -48.8741948,
          -1.735675
        ]
      }
    },
    {
      "type": "Feature",
      "id": "node/4365306508",
      "properties": {
        "timestamp": "2016-08-24T19:06:54Z",
        "version": 1,
        "changeset": 41670950,
        "addr:city": "Abaetetuba",
        "addr:street": "Rua Nova IV",
        "addr:suburb": "Aviação",
        "amenity": "hospital",
        "name": "Unidade de Saúde da Família Aviação",
        "id": "node/4365306508"
      },
      "geometry": {
        "type": "Point",
        "coordinates": [
          -48.8728793,
          -1.7212631
        ]
      }
    },
    {
      "type": "Feature",
      "id": "node/4365306511",
      "properties": {
        "timestamp": "2016-08-24T19:56:14Z",
        "version": 2,
        "changeset": 41672134,
        "amenity": "hospital",
        "name": "Unidade de Saúde da Família Colonia Dr. João Miranda",
        "id": "node/4365306511"
      },
      "geometry": {
        "type": "Point",
        "coordinates": [
          -48.7893109,
          -1.7776306
        ]
      }
    },
    {
      "type": "Feature",
      "id": "node/4365364213",
      "properties": {
        "timestamp": "2016-08-24T19:56:13Z",
        "version": 1,
        "changeset": 41672134,
        "addr:city": "Abaetetuba",
        "addr:housenumber": "349",
        "addr:street": "Avenida Pedro Rodrigues",
        "addr:suburb": "Centro",
        "amenity": "hospital",
        "name": "Clinica Cirúrgica e Maternidade Dr. Edilson Sousa",
        "id": "node/4365364213"
      },
      "geometry": {
        "type": "Point",
        "coordinates": [
          -48.8885257,
          -1.7245794
        ]
      }
    },
    {
      "type": "Feature",
      "id": "node/4365364226",
      "properties": {
        "timestamp": "2023-05-07T02:47:04Z",
        "version": 2,
        "changeset": 135796111,
        "addr:city": "Abaetetuba",
        "addr:housenumber": "1306",
        "addr:postcode": "68440-000",
        "addr:street": "Rua Coronel Pedro Borges do Rego",
        "addr:suburb": "Santa Rosa",
        "amenity": "hospital",
        "fax": "+55 91 3751 2727",
        "healthcare": "hospital",
        "name": "Hospital Júlia Sefer",
        "phone": "+55 91 3751 2727",
        "ref:CNES": "2318660",
        "ref:vatin": "BR02202173000118",
        "id": "node/4365364226"
      },
      "geometry": {
        "type": "Point",
        "coordinates": [
          -48.880225,
          -1.7275768
        ]
      }
    }
  ]
}
