{
  "type": "FeatureCollection",
  "features": [
    {
      "type": "Feature",
      "id": "node/4419072091",
      "properties": {
        "timestamp": "2023-01-26T18:48:52Z",
        "version": 3,
        "changeset": 131743966,
        "addr:city": "Abaetetuba",
        "addr:housenumber": "653",
        "addr:street": "Travessa Santos Dumont",
        "addr:suburb": "São Lourenço",
        "alt_name": "Centro de Referência Especializado de Assistência Social",
        "amenity": "social_facility",
        "name": "CREAS",
        "social_facility": "outreach",
        "social_facility:for": "underprivileged;abused;victim",
        "id": "node/4419072091"
      },
      "geometry": {
        "type": "Point",
        "coordinates": [
          -48.8844278,
          -1.7217472
        ]
      }
    },
    {
      "type": "Feature",
      "id": "node/4419072092",
      "properties": {
        "timestamp": "2023-02-02T18:14:31Z",
        "version": 3,
        "changeset": 132013964,
        "addr:city": "Abaetetuba",
        "addr:housenumber": "1888",
        "addr:street": "Rua Lauro Sodré",
        "addr:suburb": "São Lourenço",
        "alt_name": "Centro de Referência de Assistência Social São Lourenço",
        "amenity": "social_facility",
        "name": "CRAS São Lourenço",
        "social_facility": "outreach",
        "social_facility:for": "underprivileged",
        "id": "node/4419072092"
      },
      "geometry": {
        "type": "Point",
        "coordinates": [
          -48.8852813,
          -1.7208129
        ]
      }
    },
    {
      "type": "Feature",
      "id": "node/4419072096",
      "properties": {
        "timestamp": "2023-02-02T18:14:31Z",
        "version": 2,
        "changeset": 132013964,
        "addr:city": "Abaetetuba",
        "addr:housenumber": "659",
        "addr:street": "Rua Jairlândia",
        "addr:suburb": "Algodoal",
        "alt_name": "Centro de Referência de Assistência Social Algodoal",
        "amenity": "social_facility",
        "name": "CRAS Algodoal",
        "social_facility": "outreach",
        "social_facility:for": "underprivileged",
        "id": "node/4419072096"
      },
      "geometry": {
        "type": "Point",
        "coordinates": [
          -48.8895615,
          -1.7338599
        ]
      }
    }
  ]
}
