{
  "type": "FeatureCollection",
  "features": [
    {
      "type": "Feature",
      "id": "way/416709863",
      "properties": {
        "timestamp": "2023-04-16T22:30:03Z",
        "version": 9,
        "changeset": 134993834,
        "addr:city": "Itapema",
        "addr:milestone": "151.2 S",
        "addr:postcode": "88220-000",
        "addr:street": "BR-101",
        "addr:suburb": "Morretes",
        "building": "yes",
        "government": "transportation",
        "name": "Fiscalização Rodoviária",
        "office": "government",
        "operator": "ANTT",
        "id": "way/416709863"
      },
      "geometry": {
        "type": "Polygon",
        "coordinates": [
          [
            [
              -48.6101098,
              -27.1278667
            ],
            [
              -48.6101259,
              -27.1281914
            ],
            [
              -48.6100148,
              -27.1281958
            ],
            [
              -48.6099987,
              -27.1278711
            ],
            [
              -48.6101098,
              -27.1278667
            ]
          ]
        ]
      }
    },
    {
      "type": "Feature",
      "id": "way/527155544",
      "properties": {
        "timestamp": "2023-04-16T22:30:03Z",
        "version": 7,
        "changeset": 134993834,
        "addr:city": "Itapema",
        "addr:milestone": "151 S",
        "addr:postcode": "88220-000",
        "addr:street": "BR-101",
        "addr:suburb": "Morretes",
        "building": "yes",
        "government": "tax",
        "name": "Posto de Pesagem",
        "office": "government",
        "operator": "ANTT",
        "id": "way/527155544"
      },
      "geometry": {
        "type": "Polygon",
        "coordinates": [
          [
            [
              -48.6102647,
              -27.1260225
            ],
            [
              -48.6102644,
              -27.1260855
            ],
            [
              -48.6102469,
              -27.1260854
            ],
            [
              -48.6102467,
              -27.1261073
            ],
            [
              -48.6101743,
              -27.1261071
            ],
            [
              -48.6101745,
              -27.1260751
            ],
            [
              -48.6101333,
              -27.1260749
            ],
            [
              -48.6101336,
              -27.1260185
            ],
            [
              -48.6101699,
              -27.1260186
            ],
            [
              -48.6101701,
              -27.1259844
            ],
            [
              -48.6102264,
              -27.1259847
            ],
            [
              -48.6102262,
              -27.1260223
            ],
            [
              -48.6102647,
              -27.1260225
            ]
          ]
        ]
      }
    },
    {
      "type": "Feature",
      "id": "way/553831336",
      "properties": {
        "timestamp": "2023-01-13T17:48:36Z",
        "version": 4,
        "changeset": 131239675,
        "addr:city": "Itapema",
        "addr:housenumber": "423",
        "addr:postcode": "88220-000",
        "addr:street": "Rua 120",
        "addr:suburb": "Centro",
        "building": "civic",
        "email": "administracao@itapema.sc.leg.br",
        "government": "legislative",
        "name": "Câmara Municipal de Itapema",
        "office": "government",
        "phone": "+55 47 3368-2578",
        "website": "http://itapema.sc.leg.br",
        "id": "way/553831336"
      },
      "geometry": {
        "type": "Polygon",
        "coordinates": [
          [
            [
              -48.6174002,
              -27.1007027
            ],
            [
              -48.6174027,
              -27.1007578
            ],
            [
              -48.6173915,
              -27.1007863
            ],
            [
              -48.6173699,
              -27.1008095
            ],
            [
              -48.6173406,
              -27.1008247
            ],
            [
              -48.6171183,
              -27.1008517
            ],
            [
              -48.6171148,
              -27.1007867
            ],
            [
              -48.6171242,
              -27.1006843
            ],
            [
              -48.6173921,
              -27.1006498
            ],
            [
              -48.6174025,
              -27.100661
            ],
            [
              -48.6174076,
              -27.1006749
            ],
            [
              -48.6174068,
              -27.1006894
            ],
            [
              -48.6174002,
              -27.1007027
            ]
          ]
        ]
      }
    },
    {
      "type": "Feature",
      "id": "node/7479951693",
      "properties": {
        "timestamp": "2023-01-18T00:06:25Z",
        "version": 4,
        "changeset": 131400058,
        "addr:city": "Itapema",
        "addr:housenumber": "155",
        "addr:postcode": "88220-000",
        "addr:street": "Rua 902",
        "addr:suburb": "Alto São Bento",
        "government": "administrative",
        "name": "Secretaria Municipal de Obras e Transporte",
        "office": "government",
        "opening_hours": "07:00-18:00",
        "id": "node/7479951693"
      },
      "geometry": {
        "type": "Point",
        "coordinates": [
          -48.6105425,
          -27.0854414
        ]
      }
    }
  ]
}
