{
  "type": "FeatureCollection",
  "features": [
    {
      "type": "Feature",
      "id": "way/1038371060",
      "properties": {
        "timestamp": "2022-03-08T21:45:31Z",
        "version": 1,
        "changeset": 118253848,
        "addr:city": "Lajeado",
        "addr:postcode": "77645-000",
        "addr:street": "Avenida Enedino Gomes",
        "addr:suburb": "Centro",
        "amenity": "school",
        "name": "Centro Educacional Infantil Dona Antonia Sales Monteiro",
        "phone": "+55 63 3519 1114",
        "id": "way/1038371060"
      },
      "geometry": {
        "type": "Polygon",
        "coordinates": [
          [
            [
              -48.3591213,
              -9.7522935
            ],
            [
              -48.3588378,
              -9.7525771
            ],
            [
              -48.3583907,
              -9.7521429
            ],
            [
              -48.3586742,
              -9.7518594
            ],
            [
              -48.3591213,
              -9.7522935
            ]
          ]
        ]
      }
    },
    {
      "type": "Feature",
      "id": "way/1038374373",
      "properties": {
        "timestamp": "2022-03-08T22:05:34Z",
        "version": 1,
        "changeset": 118254332,
        "addr:city": "Lajeado",
        "addr:housenumber": "2001",
        "addr:postcode": "77645-000",
        "addr:street": "Avenida Sergio Nogueira",
        "addr:suburb": "Centro",
        "amenity": "school",
        "name": "Escola Municipal Sebastiao De Sales Monteiro",
        "phone": "+55 63 3519 1201",
        "id": "way/1038374373"
      },
      "geometry": {
        "type": "Polygon",
        "coordinates": [
          [
            [
              -48.3565744,
              -9.7523564
            ],
            [
              -48.3566601,
              -9.7527651
            ],
            [
              -48.3564924,
              -9.7527993
            ],
            [
              -48.3565742,
              -9.7531886
            ],
            [
              -48.3563285,
              -9.7532387
            ],
            [
              -48.356161,
              -9.7524406
            ],
            [
              -48.3565744,
              -9.7523564
            ]
          ]
        ]
      }
    },
    {
      "type": "Feature",
      "id": "way/1038374845",
      "properties": {
        "timestamp": "2022-03-08T22:10:29Z",
        "version": 1,
        "changeset": 118254434,
        "amenity": "school",
        "name": "Esc Mul Juscelino Kubitschek",
        "id": "way/1038374845"
      },
      "geometry": {
        "type": "Polygon",
        "coordinates": [
          [
            [
              -48.2664062,
              -9.9263665
            ],
            [
              -48.2668729,
              -9.9269688
            ],
            [
              -48.2663177,
              -9.9274365
            ],
            [
              -48.2664813,
              -9.9276373
            ],
            [
              -48.2662882,
              -9.9278936
            ],
            [
              -48.2658885,
              -9.9276214
            ],
            [
              -48.2661407,
              -9.9264087
            ],
            [
              -48.2664062,
              -9.9263665
            ]
          ]
        ]
      }
    },
    {
      "type": "Feature",
      "id": "node/9563620233",
      "properties": {
        "timestamp": "2022-03-08T22:06:34Z",
        "version": 1,
        "changeset": 118254353,
        "addr:city": "Lajeado",
        "addr:housenumber": "2104",
        "addr:postcode": "77645-000",
        "addr:street": "Avenida Clemente Nunes",
        "addr:suburb": "Centro",
        "amenity": "school",
        "name": "Colegio Estadual Nossa Senhora Da Providencia",
        "phone": "+55 63 3519 1013",
        "id": "node/9563620233"
      },
      "geometry": {
        "type": "Point",
        "coordinates": [
          -48.3555602,
          -9.7539641
        ]
      }
    }
  ]
}
