{
  "type": "FeatureCollection",
  "features": [
    {
      "type": "Feature",
      "id": "node/4556801691",
      "properties": {
        "timestamp": "2019-07-08T12:00:49Z",
        "version": 3,
        "changeset": 72010821,
        "addr:city": "Breu Branco",
        "addr:postcode": "68488000",
        "addr:street": "Minas Gerais",
        "addr:suburb": "Centro",
        "amenity": "hospital",
        "emergency": "yes",
        "healthcare": "hospital",
        "name": "Hospital Municipal Inácio Gabriel",
        "id": "node/4556801691"
      },
      "geometry": {
        "type": "Point",
        "coordinates": [
          -49.5687901,
          -3.7776042
        ]
      }
    },
    {
      "type": "Feature",
      "id": "node/5789933821",
      "properties": {
        "timestamp": "2018-07-27T13:53:27Z",
        "version": 1,
        "changeset": 61121539,
        "amenity": "hospital",
        "healthcare": "hospital",
        "name": "Posto de Saúde",
        "id": "node/5789933821"
      },
      "geometry": {
        "type": "Point",
        "coordinates": [
          -49.5877453,
          -3.4219065
        ]
      }
    }
  ]
}
