{
  "type": "FeatureCollection",
  "features": [
    {
      "type": "Feature",
      "id": "node/6919483332",
      "properties": {
        "timestamp": "2023-07-07T19:13:53Z",
        "version": 2,
        "changeset": 138241347,
        "addr:city": "Minaçu",
        "addr:postcode": "76450000",
        "addr:street": "Avenida Piauí",
        "addr:suburb": "Centro",
        "amenity": "school",
        "name": "Colégio Estadual Joaquim Thomé de Almeida",
        "operator": "Estado de Goiás",
        "operator:type": "public",
        "id": "node/6919483332"
      },
      "geometry": {
        "type": "Point",
        "coordinates": [
          -48.218973,
          -13.5331523
        ]
      }
    },
    {
      "type": "Feature",
      "id": "node/6919494120",
      "properties": {
        "timestamp": "2019-10-27T05:25:41Z",
        "version": 1,
        "changeset": 76257354,
        "addr:street": "Avenida Rancharia",
        "addr:suburb": "Centro",
        "amenity": "school",
        "name": "Escola Estadual Santo Antônio de Cana Brava",
        "operator": "Estado de Goiás",
        "operator:type": "public",
        "id": "node/6919494120"
      },
      "geometry": {
        "type": "Point",
        "coordinates": [
          -48.3640866,
          -13.5068293
        ]
      }
    },
    {
      "type": "Feature",
      "id": "node/7243415785",
      "properties": {
        "timestamp": "2020-02-25T20:16:50Z",
        "version": 1,
        "changeset": 81471678,
        "addr:street": "Avenida Tiradentes",
        "amenity": "school",
        "name": "APAE",
        "id": "node/7243415785"
      },
      "geometry": {
        "type": "Point",
        "coordinates": [
          -48.2228721,
          -13.5265303
        ]
      }
    }
  ]
}
