{
  "type": "FeatureCollection",
  "features": [
    {
      "type": "Feature",
      "id": "way/1267436620",
      "properties": {
        "timestamp": "2024-09-01T17:43:24Z",
        "version": 3,
        "changeset": 156065617,
        "addr:city": "Pindorama",
        "addr:postcode": "15830-000",
        "addr:street": "Praça dos Fundadores",
        "addr:suburb": "Centro",
        "amenity": "school",
        "grades": "7-12",
        "official_name": "Escola Estadual Doutor Carlos Algusto Froelich",
        "operator": "Secretaria da Educação do Estado de São Paulo",
        "operator:type": "government",
        "religion": "none",
        "short_name": "E.E Doutor Carlos Algusto Froelich",
        "id": "way/1267436620"
      },
      "geometry": {
        "type": "Polygon",
        "coordinates": [
          [
            [
              -48.906595,
              -21.1863867
            ],
            [
              -48.9062299,
              -21.1866038
            ],
            [
              -48.9057583,
              -21.1859144
            ],
            [
              -48.9061234,
              -21.1856973
            ],
            [
              -48.906595,
              -21.1863867
            ]
          ]
        ]
      }
    },
    {
      "type": "Feature",
      "id": "way/1267443746",
      "properties": {
        "timestamp": "2024-03-29T13:42:47Z",
        "version": 1,
        "changeset": 149313323,
        "addr:street": "Rua Primeiro de Maio",
        "amenity": "school",
        "name": "EMEF Prof. Ermelinda Carneiro Pinto Attab",
        "id": "way/1267443746"
      },
      "geometry": {
        "type": "Polygon",
        "coordinates": [
          [
            [
              -48.9089853,
              -21.188998
            ],
            [
              -48.9086426,
              -21.1892099
            ],
            [
              -48.9084073,
              -21.1888571
            ],
            [
              -48.9087647,
              -21.1886367
            ],
            [
              -48.9089853,
              -21.188998
            ]
          ]
        ]
      }
    },
    {
      "type": "Feature",
      "id": "way/1267701399",
      "properties": {
        "timestamp": "2024-03-30T14:53:48Z",
        "version": 1,
        "changeset": 149355013,
        "addr:city": "Pindorama",
        "addr:housenumber": "5",
        "addr:postcode": "15830000",
        "addr:street": "Rua Belo Horizonte",
        "addr:suburb": "Cohah",
        "amenity": "school",
        "grades": "1-6",
        "name": "EMEF Irma Scatena Macedo",
        "operator": "Prefeitura de Pindorama",
        "operator:type": "public",
        "id": "way/1267701399"
      },
      "geometry": {
        "type": "Polygon",
        "coordinates": [
          [
            [
              -48.8968087,
              -21.1868993
            ],
            [
              -48.897152,
              -21.1873945
            ],
            [
              -48.8966102,
              -21.1877146
            ],
            [
              -48.8958807,
              -21.1873895
            ],
            [
              -48.8968087,
              -21.1868993
            ]
          ]
        ]
      }
    },
    {
      "type": "Feature",
      "id": "way/1267701400",
      "properties": {
        "timestamp": "2024-03-30T14:53:48Z",
        "version": 1,
        "changeset": 149355013,
        "addr:city": "Pindorama",
        "addr:housenumber": "60",
        "addr:postcode": "15830000",
        "addr:street": "Rua Moisés Elias Escobar",
        "addr:suburb": "Cohab",
        "amenity": "school",
        "grades": "0-1",
        "name": "EMEI Jose Carlos Ferraz Marques",
        "operator": "Prefeitura de pindorama",
        "operator:type": "public",
        "id": "way/1267701400"
      },
      "geometry": {
        "type": "Polygon",
        "coordinates": [
          [
            [
              -48.896165,
              -21.1870293
            ],
            [
              -48.8957305,
              -21.1872994
            ],
            [
              -48.8952638,
              -21.1870993
            ],
            [
              -48.8959021,
              -21.1866942
            ],
            [
              -48.896165,
              -21.1870293
            ]
          ]
        ]
      }
    },
    {
      "type": "Feature",
      "id": "way/1267701401",
      "properties": {
        "timestamp": "2024-03-30T14:53:48Z",
        "version": 1,
        "changeset": 149355013,
        "addr:city": "Pindorama",
        "addr:housenumber": "18",
        "addr:postcode": "15830000",
        "addr:street": "Rua João Rodrigues Costa",
        "addr:suburb": "Centro",
        "amenity": "school",
        "grades": "7-9",
        "name": "EMEF Prof. Wagner Hage",
        "operator": "Prefeitura de Pindorama",
        "operator:type": "public",
        "id": "way/1267701401"
      },
      "geometry": {
        "type": "Polygon",
        "coordinates": [
          [
            [
              -48.9007856,
              -21.1844474
            ],
            [
              -48.9004559,
              -21.1846255
            ],
            [
              -48.900268,
              -21.1843325
            ],
            [
              -48.900043,
              -21.1838671
            ],
            [
              -48.9002187,
              -21.1837752
            ],
            [
              -48.9007856,
              -21.1844474
            ]
          ]
        ]
      }
    },
    {
      "type": "Feature",
      "id": "way/1267704866",
      "properties": {
        "timestamp": "2024-03-30T15:14:53Z",
        "version": 1,
        "changeset": 149355978,
        "addr:city": "Pindorama",
        "addr:postcode": "15830000",
        "addr:street": "Rua Major Carlos de Freitas",
        "addr:suburb": "Residencial Giovana",
        "amenity": "school",
        "grades": "0-1",
        "name": "EMEI Prof. Sueli Simões Pimentel",
        "operator": "Prefeitura de Pindorama",
        "operator:type": "public",
        "id": "way/1267704866"
      },
      "geometry": {
        "type": "Polygon",
        "coordinates": [
          [
            [
              -48.9234683,
              -21.1860094
            ],
            [
              -48.9231303,
              -21.1864646
            ],
            [
              -48.9226743,
              -21.1863545
            ],
            [
              -48.9230981,
              -21.1857893
            ],
            [
              -48.9234683,
              -21.1860094
            ]
          ]
        ]
      }
    },
    {
      "type": "Feature",
      "id": "way/1267704867",
      "properties": {
        "timestamp": "2024-03-30T15:14:53Z",
        "version": 1,
        "changeset": 149355978,
        "addr:city": "Pindorama",
        "addr:housenumber": "1288",
        "addr:postcode": "15830000",
        "addr:street": "Rua Onório Ramos da Silva",
        "addr:suburb": "Jardim das Palmeiras",
        "amenity": "school",
        "grades": "1-6",
        "name": "EMEF Dr. Ulisses Contreiras Ferreira",
        "operator": "Prefeitura de Pindorama",
        "operator:type": "public",
        "id": "way/1267704867"
      },
      "geometry": {
        "type": "Polygon",
        "coordinates": [
          [
            [
              -48.9277367,
              -21.1761098
            ],
            [
              -48.9274968,
              -21.1764282
            ],
            [
              -48.9269073,
              -21.1760188
            ],
            [
              -48.9271431,
              -21.1757004
            ],
            [
              -48.9277367,
              -21.1761098
            ]
          ]
        ]
      }
    },
    {
      "type": "Feature",
      "id": "way/1267704868",
      "properties": {
        "timestamp": "2024-03-30T15:14:53Z",
        "version": 1,
        "changeset": 149355978,
        "addr:city": "Pindorama",
        "addr:housenumber": "525",
        "addr:postcode": "15830000",
        "addr:street": "Rua Manoel Moraes",
        "addr:suburb": "Jardim das Palmeiras",
        "amenity": "school",
        "grades": "0-1",
        "name": "EMEI Jesus Menino",
        "operator": "Prefeitura de Pindorama",
        "operator:type": "public",
        "id": "way/1267704868"
      },
      "geometry": {
        "type": "Polygon",
        "coordinates": [
          [
            [
              -48.9280416,
              -21.1763069
            ],
            [
              -48.9277854,
              -21.1766253
            ],
            [
              -48.9275293,
              -21.1764434
            ],
            [
              -48.927761,
              -21.1761174
            ],
            [
              -48.9280416,
              -21.1763069
            ]
          ]
        ]
      }
    },
    {
      "type": "Feature",
      "id": "way/1267709117",
      "properties": {
        "timestamp": "2024-03-30T15:40:22Z",
        "version": 1,
        "changeset": 149357128,
        "addr:city": "Pindorama",
        "addr:postcode": "15830000",
        "addr:street": "Rua Professora Maria do Carmo Villar Nissar",
        "addr:suburb": "Cohabinha",
        "amenity": "school",
        "grades": "0-1",
        "name": "EMEI Padre Simón Aspeitaz Peres",
        "operator": "Prefeitura de Pindorama",
        "operator:type": "public",
        "id": "way/1267709117"
      },
      "geometry": {
        "type": "Polygon",
        "coordinates": [
          [
            [
              -48.897377,
              -21.1777978
            ],
            [
              -48.8968638,
              -21.1782301
            ],
            [
              -48.8965417,
              -21.1778737
            ],
            [
              -48.8970691,
              -21.1774513
            ],
            [
              -48.897377,
              -21.1777978
            ]
          ]
        ]
      }
    },
    {
      "type": "Feature",
      "id": "node/2689900413",
      "properties": {
        "timestamp": "2014-02-25T17:45:14Z",
        "version": 1,
        "changeset": 20775273,
        "amenity": "school",
        "id": "node/2689900413"
      },
      "geometry": {
        "type": "Point",
        "coordinates": [
          -48.9757115,
          -21.2588892
        ]
      }
    }
  ]
}
