{
  "type": "FeatureCollection",
  "features": [
    {
      "type": "Feature",
      "id": "way/401503248",
      "properties": {
        "timestamp": "2023-04-06T13:55:34Z",
        "version": 3,
        "changeset": 134579573,
        "addr:city": "Taiobeiras",
        "addr:housenumber": "635",
        "addr:postcode": "39550-000",
        "addr:street": "Rua Turmalina",
        "addr:suburb": "Planalto",
        "amenity": "school",
        "name": "Escola Estadual Professora Dona Preta",
        "operator": "Estado de Minas Gerais",
        "operator:type": "public",
        "id": "way/401503248"
      },
      "geometry": {
        "type": "Polygon",
        "coordinates": [
          [
            [
              -42.2364348,
              -15.8016544
            ],
            [
              -42.2367249,
              -15.8023494
            ],
            [
              -42.2359487,
              -15.8026569
            ],
            [
              -42.2356564,
              -15.8019689
            ],
            [
              -42.2364348,
              -15.8016544
            ]
          ]
        ]
      }
    },
    {
      "type": "Feature",
      "id": "way/598097768",
      "properties": {
        "timestamp": "2024-08-15T02:40:39Z",
        "version": 2,
        "changeset": 155264546,
        "amenity": "school",
        "barrier": "wall",
        "name": "Escola Municipal João Santana",
        "id": "way/598097768"
      },
      "geometry": {
        "type": "Polygon",
        "coordinates": [
          [
            [
              -42.0119575,
              -15.8532223
            ],
            [
              -42.0111474,
              -15.8536249
            ],
            [
              -42.0107666,
              -15.8530624
            ],
            [
              -42.0109007,
              -15.8529721
            ],
            [
              -42.010839,
              -15.8528792
            ],
            [
              -42.011535,
              -15.8523373
            ],
            [
              -42.0116866,
              -15.8525115
            ],
            [
              -42.0115484,
              -15.852616
            ],
            [
              -42.0119575,
              -15.8532223
            ]
          ]
        ]
      }
    },
    {
      "type": "Feature",
      "id": "way/1160010047",
      "properties": {
        "timestamp": "2023-04-05T17:15:42Z",
        "version": 1,
        "changeset": 134547495,
        "addr:city": "Taiobeiras",
        "addr:housenumber": "301",
        "addr:postcode": "39550-000",
        "addr:street": "Avenida Caiçara",
        "addr:suburb": "Vila Formosa",
        "amenity": "school",
        "email": "escola.82864@educacao.mg.gov.br",
        "name": "Escola Estadual Doutor José Americano Mendes",
        "operator": "Estado de Minas Gerais",
        "operator:type": "public",
        "phone": "+55 38 3845 2020",
        "id": "way/1160010047"
      },
      "geometry": {
        "type": "Polygon",
        "coordinates": [
          [
            [
              -42.23218,
              -15.8065326
            ],
            [
              -42.2316463,
              -15.8067455
            ],
            [
              -42.2311885,
              -15.8057602
            ],
            [
              -42.2317483,
              -15.8055264
            ],
            [
              -42.23218,
              -15.8065326
            ]
          ]
        ]
      }
    },
    {
      "type": "Feature",
      "id": "way/1160010049",
      "properties": {
        "timestamp": "2023-04-05T17:15:42Z",
        "version": 1,
        "changeset": 134547495,
        "addr:city": "Taiobeiras",
        "addr:housenumber": "164",
        "addr:postcode": "39550-000",
        "addr:street": "Avenida Amazonas",
        "addr:suburb": "Centro",
        "amenity": "school",
        "email": "escola.82856@educacao.mg.gov.br",
        "name": "Escola Estadual Oswaldo Lucas Mendes",
        "operator": "Secretaria de Estado de Educação de Minas Gerais",
        "operator:type": "public",
        "phone": "+55 38 3845 1327",
        "id": "way/1160010049"
      },
      "geometry": {
        "type": "Polygon",
        "coordinates": [
          [
            [
              -42.2272147,
              -15.814214
            ],
            [
              -42.2263057,
              -15.8145918
            ],
            [
              -42.2259477,
              -15.8137506
            ],
            [
              -42.2268719,
              -15.8133748
            ],
            [
              -42.2272147,
              -15.814214
            ]
          ]
        ]
      }
    },
    {
      "type": "Feature",
      "id": "way/1160010050",
      "properties": {
        "timestamp": "2023-04-05T17:15:42Z",
        "version": 1,
        "changeset": 134547495,
        "addr:city": "Taiobeiras",
        "addr:housenumber": "142",
        "addr:postcode": "39550-000",
        "addr:street": "Rua Oswaldo Argolo",
        "addr:suburb": "Centro",
        "amenity": "school",
        "email": "escola.82848@educacao.mg.gov.br",
        "name": "Escola Estadual Deputado Chaves Ribeiro",
        "operator": "Estado de Minas Gerais",
        "operator:type": "public",
        "phone": "+55 38 3845 1508",
        "id": "way/1160010050"
      },
      "geometry": {
        "type": "Polygon",
        "coordinates": [
          [
            [
              -42.2304462,
              -15.8160631
            ],
            [
              -42.2299258,
              -15.8162928
            ],
            [
              -42.2297032,
              -15.8158618
            ],
            [
              -42.2302128,
              -15.8156321
            ],
            [
              -42.2304462,
              -15.8160631
            ]
          ]
        ]
      }
    },
    {
      "type": "Feature",
      "id": "way/1160027540",
      "properties": {
        "timestamp": "2023-04-05T18:59:23Z",
        "version": 1,
        "changeset": 134550632,
        "addr:city": "Taiobeiras",
        "addr:housenumber": "117",
        "addr:postcode": "39550-000",
        "addr:street": "Praça José de Freitas Alves",
        "addr:suburb": "Bom Jardim",
        "amenity": "school",
        "email": "escola.82830@educacao.mg.gov.br",
        "name": "Escola Estadual Dona Beti",
        "operator": "Estado de Minas Gerais",
        "operator:type": "public",
        "phone": "+55 38 3845 1601",
        "id": "way/1160027540"
      },
      "geometry": {
        "type": "Polygon",
        "coordinates": [
          [
            [
              -42.2236989,
              -15.8013696
            ],
            [
              -42.2230093,
              -15.8016015
            ],
            [
              -42.2227835,
              -15.8011288
            ],
            [
              -42.2235707,
              -15.8008323
            ],
            [
              -42.2236989,
              -15.8013696
            ]
          ]
        ]
      }
    },
    {
      "type": "Feature",
      "id": "way/1160032049",
      "properties": {
        "timestamp": "2023-04-05T19:31:17Z",
        "version": 1,
        "changeset": 134551535,
        "addr:city": "Taiobeiras",
        "addr:housenumber": "100",
        "addr:postcode": "39550-000",
        "addr:street": "Rua Santos Dumont",
        "addr:suburb": "Centro",
        "amenity": "school",
        "email": "beliza.correa@yahoo.com",
        "name": "Centro Educacional Beliza Correa",
        "phone": "+55 38 3845 1410",
        "id": "way/1160032049"
      },
      "geometry": {
        "type": "Polygon",
        "coordinates": [
          [
            [
              -42.2279903,
              -15.8133009
            ],
            [
              -42.2273997,
              -15.8135392
            ],
            [
              -42.2272665,
              -15.813223
            ],
            [
              -42.2278628,
              -15.8129849
            ],
            [
              -42.2279903,
              -15.8133009
            ]
          ]
        ]
      }
    },
    {
      "type": "Feature",
      "id": "way/1160032050",
      "properties": {
        "timestamp": "2023-04-05T19:31:17Z",
        "version": 1,
        "changeset": 134551535,
        "addr:city": "Taiobeiras",
        "addr:housenumber": "471",
        "addr:postcode": "39550-000",
        "addr:street": "Rua Santos Dumont",
        "addr:suburb": "Centro",
        "amenity": "school",
        "name": "Centro Municipal de Educação Infantil Pingo de Gente",
        "operator": "Município de Taiobeiras",
        "operator:type": "public",
        "phone": "+55 38 3845 1648",
        "id": "way/1160032050"
      },
      "geometry": {
        "type": "Polygon",
        "coordinates": [
          [
            [
              -42.2274345,
              -15.8098607
            ],
            [
              -42.2274345,
              -15.8098822
            ],
            [
              -42.2268865,
              -15.8100984
            ],
            [
              -42.2266804,
              -15.8096087
            ],
            [
              -42.2272451,
              -15.809396
            ],
            [
              -42.2274345,
              -15.8098607
            ]
          ]
        ]
      }
    },
    {
      "type": "Feature",
      "id": "way/1160032051",
      "properties": {
        "timestamp": "2023-04-05T19:31:17Z",
        "version": 1,
        "changeset": 134551535,
        "addr:city": "Taiobeiras",
        "addr:housenumber": "5525",
        "addr:postcode": "39550-000",
        "addr:street": "Avenida do Contorno",
        "addr:suburb": "Vila Formosa",
        "amenity": "school",
        "name": "Centro Municipal de Educação Infantil Vereador Sizino Araujo dos Santos",
        "operator": "Município de Taiobeiras",
        "operator:type": "public",
        "id": "way/1160032051"
      },
      "geometry": {
        "type": "Polygon",
        "coordinates": [
          [
            [
              -42.2321668,
              -15.8015429
            ],
            [
              -42.2318285,
              -15.8016812
            ],
            [
              -42.2315791,
              -15.8010946
            ],
            [
              -42.2319203,
              -15.8009776
            ],
            [
              -42.2321668,
              -15.8015429
            ]
          ]
        ]
      }
    },
    {
      "type": "Feature",
      "id": "way/1186350723",
      "properties": {
        "timestamp": "2023-07-02T00:11:40Z",
        "version": 1,
        "changeset": 138008400,
        "addr:city": "Taiobeiras",
        "addr:street": "Avenida do Contorno",
        "amenity": "school",
        "name": "Centro Solidário de Educação Infantil",
        "id": "way/1186350723"
      },
      "geometry": {
        "type": "Polygon",
        "coordinates": [
          [
            [
              -42.2249783,
              -15.821283
            ],
            [
              -42.2245651,
              -15.8215166
            ],
            [
              -42.2243976,
              -15.8212423
            ],
            [
              -42.2248108,
              -15.8210087
            ],
            [
              -42.2249783,
              -15.821283
            ]
          ]
        ]
      }
    },
    {
      "type": "Feature",
      "id": "way/1186350724",
      "properties": {
        "timestamp": "2023-07-02T00:11:40Z",
        "version": 1,
        "changeset": 138008400,
        "addr:city": "Taiobeiras",
        "amenity": "school",
        "name": "Escola Municipal João da Cruz Santos",
        "id": "way/1186350724"
      },
      "geometry": {
        "type": "Polygon",
        "coordinates": [
          [
            [
              -42.226583,
              -15.8214694
            ],
            [
              -42.2256375,
              -15.8220079
            ],
            [
              -42.2253512,
              -15.8215464
            ],
            [
              -42.2263102,
              -15.8209997
            ],
            [
              -42.226583,
              -15.8214694
            ]
          ]
        ]
      }
    }
  ]
}
