{
  "type": "FeatureCollection",
  "features": [
    {
      "type": "Feature",
      "id": "way/1026773528",
      "properties": {
        "timestamp": "2022-02-01T17:02:25Z",
        "version": 1,
        "changeset": 116877045,
        "addr:city": "Ipiranga do Piauí",
        "addr:housenumber": "82",
        "addr:postcode": "64540-000",
        "addr:street": "Avenida Joel Borges",
        "addr:suburb": "Centro",
        "amenity": "school",
        "name": "Escola Apaeana Tia Nely",
        "id": "way/1026773528"
      },
      "geometry": {
        "type": "Polygon",
        "coordinates": [
          [
            [
              -41.7382598,
              -6.8218964
            ],
            [
              -41.7381721,
              -6.8221997
            ],
            [
              -41.7379895,
              -6.8221116
            ],
            [
              -41.7379998,
              -6.8217355
            ],
            [
              -41.7382598,
              -6.8218964
            ]
          ]
        ]
      }
    },
    {
      "type": "Feature",
      "id": "way/1028685981",
      "properties": {
        "timestamp": "2022-02-06T16:32:45Z",
        "version": 1,
        "changeset": 117085992,
        "addr:city": "Ipiranga do Piauí",
        "addr:housenumber": "276",
        "addr:postcode": "64540-000",
        "addr:street": "Rua Vicente Cortez",
        "addr:suburb": "Centro",
        "amenity": "school",
        "name": "U E Dom Joaquim R Do Rego",
        "id": "way/1028685981"
      },
      "geometry": {
        "type": "Polygon",
        "coordinates": [
          [
            [
              -41.7396075,
              -6.8271657
            ],
            [
              -41.7393254,
              -6.8275455
            ],
            [
              -41.7389178,
              -6.8271586
            ],
            [
              -41.7393027,
              -6.8268073
            ],
            [
              -41.7396075,
              -6.8271657
            ]
          ]
        ]
      }
    },
    {
      "type": "Feature",
      "id": "way/1028687580",
      "properties": {
        "timestamp": "2022-02-06T16:33:46Z",
        "version": 1,
        "changeset": 117086043,
        "addr:city": "Ipiranga do Piauí",
        "addr:housenumber": "421",
        "addr:postcode": "64540-000",
        "addr:street": "Rua Sargento Rufino",
        "addr:suburb": "Centro",
        "amenity": "school",
        "name": "E M Dr Antonio Santos",
        "phone": "+55 89 3440 1021",
        "id": "way/1028687580"
      },
      "geometry": {
        "type": "Polygon",
        "coordinates": [
          [
            [
              -41.7418774,
              -6.8251467
            ],
            [
              -41.7416444,
              -6.8254603
            ],
            [
              -41.7413216,
              -6.8252598
            ],
            [
              -41.7415512,
              -6.8249307
            ],
            [
              -41.7418774,
              -6.8251467
            ]
          ]
        ]
      }
    },
    {
      "type": "Feature",
      "id": "way/1028687614",
      "properties": {
        "timestamp": "2022-02-06T16:34:33Z",
        "version": 1,
        "changeset": 117086078,
        "addr:city": "Ipiranga do Piauí",
        "addr:postcode": "64540-000",
        "addr:street": "Rua Treze de Maio",
        "addr:suburb": "Centro",
        "amenity": "school",
        "name": "U E Manoel Ribeiro",
        "id": "way/1028687614"
      },
      "geometry": {
        "type": "Polygon",
        "coordinates": [
          [
            [
              -41.7400123,
              -6.8229416
            ],
            [
              -41.7395939,
              -6.8235435
            ],
            [
              -41.7393015,
              -6.8233491
            ],
            [
              -41.7397065,
              -6.8227499
            ],
            [
              -41.7400123,
              -6.8229416
            ]
          ]
        ]
      }
    },
    {
      "type": "Feature",
      "id": "way/1028687896",
      "properties": {
        "timestamp": "2022-02-06T16:35:57Z",
        "version": 1,
        "changeset": 117086138,
        "addr:city": "Ipiranga do Piauí",
        "addr:housenumber": "215",
        "addr:postcode": "64540-000",
        "addr:street": "Rua Pedro Aurélio Neto",
        "addr:suburb": "Cidade Nova",
        "amenity": "school",
        "name": "Creche Mae Cele",
        "id": "way/1028687896"
      },
      "geometry": {
        "type": "Polygon",
        "coordinates": [
          [
            [
              -41.7398726,
              -6.8200468
            ],
            [
              -41.7396827,
              -6.8203721
            ],
            [
              -41.7392251,
              -6.8200997
            ],
            [
              -41.739455,
              -6.8197513
            ],
            [
              -41.7398726,
              -6.8200468
            ]
          ]
        ]
      }
    },
    {
      "type": "Feature",
      "id": "way/1028688478",
      "properties": {
        "timestamp": "2022-02-06T16:37:30Z",
        "version": 1,
        "changeset": 117086219,
        "addr:city": "Ipiranga do Piauí",
        "addr:postcode": "64540-000",
        "addr:street": "Rua Santo Antônio",
        "addr:suburb": "Santa Catarina",
        "amenity": "school",
        "name": "E M Santa Catarina",
        "id": "way/1028688478"
      },
      "geometry": {
        "type": "Polygon",
        "coordinates": [
          [
            [
              -41.7353748,
              -6.8240788
            ],
            [
              -41.7351656,
              -6.824441
            ],
            [
              -41.7346077,
              -6.8241241
            ],
            [
              -41.7347981,
              -6.8237219
            ],
            [
              -41.7353748,
              -6.8240788
            ]
          ]
        ]
      }
    },
    {
      "type": "Feature",
      "id": "node/9456839018",
      "properties": {
        "timestamp": "2022-01-28T23:25:06Z",
        "version": 1,
        "changeset": 116726953,
        "amenity": "school",
        "name": "Esc Mul Antonio Tapety",
        "phone": "+55 89 3440 1021",
        "id": "node/9456839018"
      },
      "geometry": {
        "type": "Point",
        "coordinates": [
          -41.7934714,
          -6.8637723
        ]
      }
    },
    {
      "type": "Feature",
      "id": "node/9483758942",
      "properties": {
        "timestamp": "2022-02-06T16:31:30Z",
        "version": 1,
        "changeset": 117085947,
        "addr:city": "Ipiranga do Piauí",
        "addr:housenumber": "323",
        "addr:postcode": "64540-000",
        "addr:street": "Rua Antônio Fontes",
        "addr:suburb": "Centro",
        "amenity": "school",
        "name": "Escolinha Caminho Do Saber",
        "id": "node/9483758942"
      },
      "geometry": {
        "type": "Point",
        "coordinates": [
          -41.7380677,
          -6.8273172
        ]
      }
    },
    {
      "type": "Feature",
      "id": "node/9483806368",
      "properties": {
        "timestamp": "2022-02-06T16:36:47Z",
        "version": 1,
        "changeset": 117086178,
        "addr:city": "Ipiranga do Piauí",
        "addr:postcode": "64540-000",
        "addr:street": "Rua Firmino da Silva Vieira",
        "amenity": "school",
        "name": "Esc Mul Sinobilina",
        "id": "node/9483806368"
      },
      "geometry": {
        "type": "Point",
        "coordinates": [
          -41.7425872,
          -6.821839
        ]
      }
    },
    {
      "type": "Feature",
      "id": "node/9483808918",
      "properties": {
        "timestamp": "2022-02-06T16:38:59Z",
        "version": 1,
        "changeset": 117086293,
        "amenity": "school",
        "name": "Escola Municipal Treze De Maio",
        "phone": "+55 89 3440 9016",
        "id": "node/9483808918"
      },
      "geometry": {
        "type": "Point",
        "coordinates": [
          -41.8366255,
          -6.8064507
        ]
      }
    },
    {
      "type": "Feature",
      "id": "node/9483815342",
      "properties": {
        "timestamp": "2022-02-06T16:32:00Z",
        "version": 1,
        "changeset": 117085967,
        "addr:city": "Ipiranga do Piauí",
        "addr:housenumber": "150",
        "addr:postcode": "64540-000",
        "addr:street": "Rua Raimundo Moura",
        "addr:suburb": "Centro",
        "amenity": "school",
        "name": "Unid Esc Monsenhor Lopes",
        "id": "node/9483815342"
      },
      "geometry": {
        "type": "Point",
        "coordinates": [
          -41.738631,
          -6.8271282
        ]
      }
    },
    {
      "type": "Feature",
      "id": "node/9483851081",
      "properties": {
        "timestamp": "2022-02-06T16:39:32Z",
        "version": 1,
        "changeset": 117086321,
        "amenity": "school",
        "name": "Esc Mul Liberato Vieira",
        "phone": "+55 89 3440 1216",
        "id": "node/9483851081"
      },
      "geometry": {
        "type": "Point",
        "coordinates": [
          -41.8232064,
          -6.7543536
        ]
      }
    },
    {
      "type": "Feature",
      "id": "node/9483857510",
      "properties": {
        "timestamp": "2022-02-06T16:38:18Z",
        "version": 1,
        "changeset": 117086258,
        "addr:city": "Ipiranga do Piauí",
        "addr:postcode": "64540-000",
        "addr:street": "Rua Joaquim Valdivino",
        "amenity": "school",
        "name": "Pre Esc Paraiso Da Infancia",
        "id": "node/9483857510"
      },
      "geometry": {
        "type": "Point",
        "coordinates": [
          -41.7475815,
          -6.8312161
        ]
      }
    }
  ]
}
