{
  "type": "FeatureCollection",
  "features": [
    {
      "type": "Feature",
      "id": "node/11335916717",
      "properties": {
        "timestamp": "2023-11-10T03:05:06Z",
        "version": 3,
        "changeset": 143845224,
        "addr:city": "Itamaraju",
        "addr:postcode": "45836-000",
        "addr:street": "Praça da Independência",
        "addr:suburb": "Cidade Baixa",
        "government": "social_security",
        "name": "Agência da Previdência Social em Itamaraju",
        "office": "government",
        "operator": "Instituto Nacional do Seguro Social",
        "operator:short": "INSS",
        "operator:wikidata": "Q10302614",
        "id": "node/11335916717"
      },
      "geometry": {
        "type": "Point",
        "coordinates": [
          -39.5381496,
          -17.0441675
        ]
      }
    },
    {
      "type": "Feature",
      "id": "node/11341364198",
      "properties": {
        "timestamp": "2023-11-11T14:25:19Z",
        "version": 1,
        "changeset": 143901736,
        "addr:city": "Itamaraju",
        "addr:postcode": "45836-000",
        "addr:street": "Avenida Antônio Carlos Magalhães",
        "addr:suburb": "Centro",
        "government": "transportation",
        "name": "Décima Segunda Ciretran em Itamaraju",
        "office": "government",
        "operator": "Departamento Estadual de Trânsito da Bahia - Detran/BA",
        "phone": "+55 73 3294 4272",
        "website": "https://www.detran.ba.gov.br/unidades.php",
        "id": "node/11341364198"
      },
      "geometry": {
        "type": "Point",
        "coordinates": [
          -39.5338533,
          -17.0304813
        ]
      }
    },
    {
      "type": "Feature",
      "id": "node/11727232177",
      "properties": {
        "timestamp": "2024-03-13T12:22:13Z",
        "version": 1,
        "changeset": 148591083,
        "addr:city": "Itamaraju",
        "addr:housenumber": "22",
        "addr:postcode": "45836-000",
        "addr:street": "Rua Dom Pedro Segundo",
        "addr:suburb": "Fátima",
        "alt_name": "Rua Dom Pedro II",
        "government": "agriculture",
        "name": "Secretaria Municipal Agricultura",
        "office": "government",
        "id": "node/11727232177"
      },
      "geometry": {
        "type": "Point",
        "coordinates": [
          -39.5292136,
          -17.035033
        ]
      }
    },
    {
      "type": "Feature",
      "id": "node/11727232179",
      "properties": {
        "timestamp": "2024-03-13T12:22:13Z",
        "version": 1,
        "changeset": 148591083,
        "addr:city": "Itamaraju",
        "addr:housenumber": "22",
        "addr:street": "Rua Dom Pedro Segundo",
        "addr:suburb": "Fátima",
        "alt_name": "Rua Dom Pedro II",
        "government": "environment",
        "name": "Secretaria Municipal de Meio Ambiente e Turismo",
        "office": "government",
        "id": "node/11727232179"
      },
      "geometry": {
        "type": "Point",
        "coordinates": [
          -39.5292288,
          -17.035118
        ]
      }
    },
    {
      "type": "Feature",
      "id": "node/11842422478",
      "properties": {
        "timestamp": "2024-04-23T21:47:36Z",
        "version": 1,
        "changeset": 150416935,
        "government": "estatistic",
        "name": "Agência Itamaraju",
        "office": "government",
        "opera": "Instituto Brasileiro de Geografia e Estatística",
        "id": "node/11842422478"
      },
      "geometry": {
        "type": "Point",
        "coordinates": [
          -39.5290241,
          -17.036221
        ]
      }
    }
  ]
}
