{
  "type": "FeatureCollection",
  "features": [
    {
      "type": "Feature",
      "id": "way/1101066856",
      "properties": {
        "timestamp": "2023-11-10T03:05:06Z",
        "version": 2,
        "changeset": 143845224,
        "addr:city": "Itamaraju",
        "addr:housenumber": "189",
        "addr:postcode": "45836-000",
        "addr:street": "Rua Cinco de Outubro",
        "addr:suburb": "Cidade Baixa",
        "building": "yes",
        "name": "Hotel Minas",
        "tourism": "hotel",
        "id": "way/1101066856"
      },
      "geometry": {
        "type": "Polygon",
        "coordinates": [
          [
            [
              -39.5361042,
              -17.044858
            ],
            [
              -39.5360902,
              -17.0445503
            ],
            [
              -39.5361932,
              -17.044546
            ],
            [
              -39.5362072,
              -17.0448537
            ],
            [
              -39.5361042,
              -17.044858
            ]
          ]
        ]
      }
    },
    {
      "type": "Feature",
      "id": "node/4680781590",
      "properties": {
        "timestamp": "2023-09-16T03:15:30Z",
        "version": 2,
        "changeset": 141325421,
        "addr:city": "Itamaraju",
        "addr:postcode": "45836-000",
        "addr:street": "Rodovia Governador Mário Covas",
        "addr:suburb": "Santo Antônio do Monte",
        "name": "Flecha Hotel Itamaraju",
        "tourism": "hotel",
        "id": "node/4680781590"
      },
      "geometry": {
        "type": "Point",
        "coordinates": [
          -39.542602,
          -17.01805
        ]
      }
    },
    {
      "type": "Feature",
      "id": "node/6176987554",
      "properties": {
        "timestamp": "2019-01-01T17:58:44Z",
        "version": 1,
        "changeset": 65938667,
        "name": "Pousada Vista da Pedra",
        "tourism": "hotel",
        "id": "node/6176987554"
      },
      "geometry": {
        "type": "Point",
        "coordinates": [
          -39.5432198,
          -17.0117938
        ]
      }
    },
    {
      "type": "Feature",
      "id": "node/11343509170",
      "properties": {
        "timestamp": "2023-11-12T14:40:06Z",
        "version": 1,
        "changeset": 143936041,
        "addr:city": "Itamaraju",
        "addr:postcode": "45836-000",
        "addr:street": "Rua Buerarema",
        "name": "Hotel Monte Pascoal",
        "tourism": "hotel",
        "id": "node/11343509170"
      },
      "geometry": {
        "type": "Point",
        "coordinates": [
          -39.5411901,
          -17.0231438
        ]
      }
    },
    {
      "type": "Feature",
      "id": "node/11346203571",
      "properties": {
        "timestamp": "2023-11-13T12:04:41Z",
        "version": 1,
        "changeset": 143967629,
        "addr:city": "Itamaraju",
        "addr:housenumber": "98",
        "addr:postcode": "45836-000",
        "addr:street": "Praça Marechal Castelo Branco",
        "addr:suburb": "Centro",
        "name": "Hotel Vista Bela",
        "phone": "+55 73 3294 9994",
        "tourism": "hotel",
        "id": "node/11346203571"
      },
      "geometry": {
        "type": "Point",
        "coordinates": [
          -39.5311156,
          -17.0338011
        ]
      }
    }
  ]
}
