{
  "type": "FeatureCollection",
  "features": [
    {
      "type": "Feature",
      "id": "way/484014438",
      "properties": {
        "timestamp": "2017-03-31T15:40:39Z",
        "version": 1,
        "changeset": 47329975,
        "amenity": "school",
        "id": "way/484014438"
      },
      "geometry": {
        "type": "Polygon",
        "coordinates": [
          [
            [
              -39.8794468,
              -17.1375703
            ],
            [
              -39.879467,
              -17.1378812
            ],
            [
              -39.8789734,
              -17.1379168
            ],
            [
              -39.8789605,
              -17.1375905
            ],
            [
              -39.8794468,
              -17.1375703
            ]
          ]
        ]
      }
    },
    {
      "type": "Feature",
      "id": "way/1077397848",
      "properties": {
        "timestamp": "2022-07-10T10:35:15Z",
        "version": 1,
        "changeset": 123426944,
        "amenity": "school",
        "id": "way/1077397848"
      },
      "geometry": {
        "type": "Polygon",
        "coordinates": [
          [
            [
              -39.551779,
              -17.0609463
            ],
            [
              -39.552058,
              -17.0614104
            ],
            [
              -39.5514142,
              -17.0617438
            ],
            [
              -39.5511272,
              -17.0613386
            ],
            [
              -39.551779,
              -17.0609463
            ]
          ]
        ]
      }
    },
    {
      "type": "Feature",
      "id": "way/1222962829",
      "properties": {
        "timestamp": "2023-11-12T14:59:14Z",
        "version": 1,
        "changeset": 143936799,
        "addr:city": "Itamaraju",
        "addr:housenumber": "52",
        "addr:postcode": "45836-000",
        "addr:street": "Rua Maranhão",
        "addr:suburb": "Fátima",
        "amenity": "school",
        "name": "Complexo Integrado de Educação de Itamaraju",
        "operator": "Governo do Estado da Bahia",
        "operator:type": "public",
        "phone": "+55 73 3294 3899",
        "id": "way/1222962829"
      },
      "geometry": {
        "type": "Polygon",
        "coordinates": [
          [
            [
              -39.5286164,
              -17.0367674
            ],
            [
              -39.5273727,
              -17.0370727
            ],
            [
              -39.5270618,
              -17.0359238
            ],
            [
              -39.5283251,
              -17.035648
            ],
            [
              -39.5286164,
              -17.0367674
            ]
          ]
        ]
      }
    },
    {
      "type": "Feature",
      "id": "way/1222962830",
      "properties": {
        "timestamp": "2023-11-12T14:59:14Z",
        "version": 1,
        "changeset": 143936799,
        "addr:city": "Itamaraju",
        "addr:housenumber": "47",
        "addr:postcode": "45836-000",
        "addr:street": "Rua Chile",
        "addr:suburb": "Centro",
        "amenity": "school",
        "name": "Colégio Estadual Polivalente de Itamaraju",
        "operator": "Estado da Bahia",
        "operator:type": "public",
        "id": "way/1222962830"
      },
      "geometry": {
        "type": "Polygon",
        "coordinates": [
          [
            [
              -39.5319114,
              -17.036998
            ],
            [
              -39.5322256,
              -17.0382239
            ],
            [
              -39.5310071,
              -17.0385324
            ],
            [
              -39.530676,
              -17.0373025
            ],
            [
              -39.5319114,
              -17.036998
            ]
          ]
        ]
      }
    },
    {
      "type": "Feature",
      "id": "way/1222962831",
      "properties": {
        "timestamp": "2023-11-12T14:59:14Z",
        "version": 1,
        "changeset": 143936799,
        "addr:city": "Itamaraju",
        "addr:housenumber": "15",
        "addr:postcode": "45836-000",
        "addr:street": "Rua Paulo Sexto",
        "addr:suburb": "Centro",
        "amenity": "school",
        "email": "csje_educar@hotmail.com",
        "name": "Colégio São João Evangelista",
        "phone": "+55 73 3294 1009",
        "id": "way/1222962831"
      },
      "geometry": {
        "type": "Polygon",
        "coordinates": [
          [
            [
              -39.5299938,
              -17.0359874
            ],
            [
              -39.5295345,
              -17.0366382
            ],
            [
              -39.529232,
              -17.0366435
            ],
            [
              -39.5291199,
              -17.0362204
            ],
            [
              -39.5293804,
              -17.0361454
            ],
            [
              -39.5290527,
              -17.035492
            ],
            [
              -39.5298286,
              -17.0353099
            ],
            [
              -39.5299938,
              -17.0359874
            ]
          ]
        ]
      }
    },
    {
      "type": "Feature",
      "id": "way/1222962832",
      "properties": {
        "timestamp": "2023-11-12T14:59:14Z",
        "version": 1,
        "changeset": 143936799,
        "addr:city": "Itamaraju",
        "addr:postcode": "45836-000",
        "addr:street": "Rua Piauí",
        "addr:suburb": "Centro",
        "amenity": "school",
        "email": "duquecaxiasitm@hotmail.com",
        "name": "Escola Municipal Duque de Caxias",
        "operator": "Município de Itamaraju",
        "operator:type": "public",
        "phone": "+55 73 3294 3771",
        "id": "way/1222962832"
      },
      "geometry": {
        "type": "Polygon",
        "coordinates": [
          [
            [
              -39.5341829,
              -17.0289538
            ],
            [
              -39.5337684,
              -17.0294733
            ],
            [
              -39.5333062,
              -17.0291573
            ],
            [
              -39.5337936,
              -17.0286056
            ],
            [
              -39.5341829,
              -17.0289538
            ]
          ]
        ]
      }
    },
    {
      "type": "Feature",
      "id": "way/1222962833",
      "properties": {
        "timestamp": "2023-11-12T14:59:14Z",
        "version": 1,
        "changeset": 143936799,
        "addr:city": "Itamaraju",
        "addr:housenumber": "1635",
        "addr:postcode": "45836-000",
        "addr:street": "Avenida Perimetral",
        "addr:suburb": "Jaqueira",
        "amenity": "school",
        "email": "modeloitamaraju@yahoo.com.br",
        "name": "Colégio Estadual Professora Aurivaldina Joazeiro",
        "operator": "Governo do Estado da Bahia",
        "operator:type": "public",
        "phone": "+55 73 3294 5840",
        "id": "way/1222962833"
      },
      "geometry": {
        "type": "Polygon",
        "coordinates": [
          [
            [
              -39.5271659,
              -17.0485208
            ],
            [
              -39.5273729,
              -17.0485561
            ],
            [
              -39.5273914,
              -17.0484783
            ],
            [
              -39.5278866,
              -17.0484889
            ],
            [
              -39.5278645,
              -17.0487398
            ],
            [
              -39.5278386,
              -17.0489872
            ],
            [
              -39.5277905,
              -17.0491108
            ],
            [
              -39.5276871,
              -17.0492416
            ],
            [
              -39.5274949,
              -17.0493794
            ],
            [
              -39.5273729,
              -17.0494359
            ],
            [
              -39.5272325,
              -17.0494501
            ],
            [
              -39.5270883,
              -17.0494501
            ],
            [
              -39.5269516,
              -17.0494324
            ],
            [
              -39.5268481,
              -17.0494076
            ],
            [
              -39.5271659,
              -17.0485208
            ]
          ]
        ]
      }
    },
    {
      "type": "Feature",
      "id": "way/1222962834",
      "properties": {
        "timestamp": "2023-11-12T14:59:14Z",
        "version": 1,
        "changeset": 143936799,
        "addr:city": "Itamaraju",
        "addr:housenumber": "1110",
        "addr:postcode": "45836-000",
        "addr:street": "Rua Cinco de Outubro",
        "addr:suburb": "Jaqueira",
        "amenity": "school",
        "name": "Colégio Presbiteriano Doze de Agosto",
        "operator": "Colégio Presbiteriano Doze de Agosto Limitada",
        "operator:type": "private",
        "id": "way/1222962834"
      },
      "geometry": {
        "type": "Polygon",
        "coordinates": [
          [
            [
              -39.5280308,
              -17.0453971
            ],
            [
              -39.528064,
              -17.0458424
            ],
            [
              -39.5272251,
              -17.0458954
            ],
            [
              -39.5270735,
              -17.0454537
            ],
            [
              -39.5280308,
              -17.0453971
            ]
          ]
        ]
      }
    },
    {
      "type": "Feature",
      "id": "way/1222962835",
      "properties": {
        "timestamp": "2023-11-12T14:59:14Z",
        "version": 1,
        "changeset": 143936799,
        "addr:city": "Itamaraju",
        "addr:housenumber": "383",
        "addr:postcode": "45836-000",
        "addr:street": "Avenida Brasil",
        "addr:suburb": "Centro",
        "amenity": "school",
        "name": "Escola Municipal Otávio Mangabeira",
        "operator": "Município de Itamaraju",
        "operator:type": "public",
        "id": "way/1222962835"
      },
      "geometry": {
        "type": "Polygon",
        "coordinates": [
          [
            [
              -39.5348455,
              -17.0418131
            ],
            [
              -39.5344629,
              -17.0416506
            ],
            [
              -39.5346311,
              -17.0409138
            ],
            [
              -39.5351596,
              -17.0412319
            ],
            [
              -39.5348455,
              -17.0418131
            ]
          ]
        ]
      }
    },
    {
      "type": "Feature",
      "id": "way/1222962836",
      "properties": {
        "timestamp": "2023-11-12T14:59:14Z",
        "version": 1,
        "changeset": 143936799,
        "addr:city": "Itamaraju",
        "addr:postcode": "45836-000",
        "addr:street": "Rua América",
        "addr:suburb": "Novo Prado",
        "amenity": "school",
        "name": "Escola Municipal Novo Prado",
        "operator": "Município de Itamaraju",
        "operator:type": "public",
        "id": "way/1222962836"
      },
      "geometry": {
        "type": "Polygon",
        "coordinates": [
          [
            [
              -39.5403222,
              -17.0372206
            ],
            [
              -39.5399995,
              -17.0373464
            ],
            [
              -39.5398106,
              -17.036906
            ],
            [
              -39.5401651,
              -17.0367883
            ],
            [
              -39.5403222,
              -17.0372206
            ]
          ]
        ]
      }
    },
    {
      "type": "Feature",
      "id": "way/1222962837",
      "properties": {
        "timestamp": "2023-11-12T14:59:14Z",
        "version": 1,
        "changeset": 143936799,
        "addr:city": "Itamarajú",
        "addr:postcode": "45836-000",
        "addr:street": "Rua Itajuipe",
        "addr:suburb": "Cristo Redentor",
        "amenity": "school",
        "name": "Colégio Estadual Luiz Eduardo Magalhães",
        "operator": "Governo do Estado da Bahia",
        "operator:type": "public",
        "id": "way/1222962837"
      },
      "geometry": {
        "type": "Polygon",
        "coordinates": [
          [
            [
              -39.5423958,
              -17.0327015
            ],
            [
              -39.5419325,
              -17.032888
            ],
            [
              -39.5417862,
              -17.0325337
            ],
            [
              -39.5422593,
              -17.0323541
            ],
            [
              -39.5423958,
              -17.0327015
            ]
          ]
        ]
      }
    },
    {
      "type": "Feature",
      "id": "node/3978152479",
      "properties": {
        "timestamp": "2016-01-30T16:28:18Z",
        "version": 1,
        "changeset": 36900954,
        "amenity": "school",
        "name": "Escola Municipal Liberdade",
        "source": "survey",
        "id": "node/3978152479"
      },
      "geometry": {
        "type": "Point",
        "coordinates": [
          -39.5158314,
          -17.0548191
        ]
      }
    },
    {
      "type": "Feature",
      "id": "node/6857968981",
      "properties": {
        "timestamp": "2019-10-07T14:40:39Z",
        "version": 1,
        "changeset": 75380659,
        "amenity": "school",
        "id": "node/6857968981"
      },
      "geometry": {
        "type": "Point",
        "coordinates": [
          -39.5517526,
          -17.0613048
        ]
      }
    },
    {
      "type": "Feature",
      "id": "node/11340548268",
      "properties": {
        "timestamp": "2023-11-11T03:02:36Z",
        "version": 1,
        "changeset": 143885468,
        "amenity": "school",
        "id": "node/11340548268"
      },
      "geometry": {
        "type": "Point",
        "coordinates": [
          -39.5329802,
          -17.0347246
        ]
      }
    },
    {
      "type": "Feature",
      "id": "node/11340554369",
      "properties": {
        "timestamp": "2023-11-11T03:02:36Z",
        "version": 1,
        "changeset": 143885468,
        "addr:city": "Itamaraju",
        "addr:housenumber": "50",
        "addr:postcode": "45836-000",
        "addr:street": "Rua Men de Sá",
        "addr:suburb": "Bnh",
        "amenity": "school",
        "name": "Escola Municipal Reitor Edgard Santos",
        "operator": "Município de Itamaraju",
        "operator:type": "public",
        "phone": "+55 73 99871 3600",
        "id": "node/11340554369"
      },
      "geometry": {
        "type": "Point",
        "coordinates": [
          -39.5279902,
          -17.0423249
        ]
      }
    }
  ]
}
