{
  "type": "FeatureCollection",
  "features": [
    {
      "type": "Feature",
      "id": "way/426034576",
      "properties": {
        "timestamp": "2018-04-06T17:44:04Z",
        "version": 4,
        "changeset": 57872597,
        "addr:city": "Jaguaribe",
        "addr:country": "BR",
        "addr:housenumber": "240",
        "addr:place": "Nova Brasília",
        "addr:postcode": "63475-000",
        "addr:street": "Avenida 12 de agosto",
        "amenity": "arts_centre",
        "building": "yes",
        "building:colour": "white",
        "building:levels": "1",
        "building:material": "plaster",
        "name": "Fundação TuboArte",
        "id": "way/426034576"
      },
      "geometry": {
        "type": "Polygon",
        "coordinates": [
          [
            [
              -38.627088,
              -5.904291
            ],
            [
              -38.6270138,
              -5.9043421
            ],
            [
              -38.6268713,
              -5.9044401
            ],
            [
              -38.6267958,
              -5.904492
            ],
            [
              -38.6265761,
              -5.9041727
            ],
            [
              -38.6266139,
              -5.9041467
            ],
            [
              -38.6266507,
              -5.9041214
            ],
            [
              -38.6267931,
              -5.9040234
            ],
            [
              -38.6268275,
              -5.9039997
            ],
            [
              -38.6268683,
              -5.9039717
            ],
            [
              -38.627088,
              -5.904291
            ]
          ]
        ]
      }
    },
    {
      "type": "Feature",
      "id": "node/7598653805",
      "properties": {
        "timestamp": "2020-06-06T18:55:37Z",
        "version": 1,
        "changeset": 86287935,
        "addr:city": "Jaguaribe",
        "addr:postcode": "63475000",
        "addr:street": "Avenida Aloísio Diógenes",
        "addr:suburb": "Expedito Diógenes",
        "amenity": "arts_centre",
        "internet_access": "yes",
        "name": "Polo Cultural Maria Isaura Nogueira",
        "opening_hours": "Mo-Fr 09:00-17:00",
        "wheelchair": "yes",
        "id": "node/7598653805"
      },
      "geometry": {
        "type": "Point",
        "coordinates": [
          -38.610878,
          -5.8833797
        ]
      }
    }
  ]
}
