{
  "type": "FeatureCollection",
  "features": [
    {
      "type": "Feature",
      "id": "way/314763832",
      "properties": {
        "timestamp": "2020-01-30T20:57:03Z",
        "version": 2,
        "changeset": 80337364,
        "amenity": "school",
        "name": "Educandário Frei Roque Biscione",
        "id": "way/314763832"
      },
      "geometry": {
        "type": "Polygon",
        "coordinates": [
          [
            [
              -48.9099605,
              -20.7253595
            ],
            [
              -48.9097621,
              -20.7257107
            ],
            [
              -48.9091666,
              -20.7256756
            ],
            [
              -48.9092739,
              -20.7251387
            ],
            [
              -48.9094134,
              -20.7251738
            ],
            [
              -48.9094509,
              -20.7250886
            ],
            [
              -48.9099605,
              -20.7253595
            ]
          ]
        ]
      }
    },
    {
      "type": "Feature",
      "id": "way/492829521",
      "properties": {
        "timestamp": "2017-05-11T17:03:47Z",
        "version": 1,
        "changeset": 48599204,
        "addr:city": "Olímpia",
        "addr:housenumber": "9",
        "addr:street": "Rua do Salgueiro",
        "addr:suburb": "Jardim Luiz Zucca",
        "amenity": "school",
        "name": "Emeb Professora Therezinha Lopes de Mello Vicente",
        "operator": "Prefeitura Municipal",
        "phone": "+55 17 3280 6575",
        "id": "way/492829521"
      },
      "geometry": {
        "type": "Polygon",
        "coordinates": [
          [
            [
              -48.8902397,
              -20.7418608
            ],
            [
              -48.8900808,
              -20.7424051
            ],
            [
              -48.8899541,
              -20.7424001
            ],
            [
              -48.8900848,
              -20.7418489
            ],
            [
              -48.8902397,
              -20.7418608
            ]
          ]
        ]
      }
    },
    {
      "type": "Feature",
      "id": "way/492829522",
      "properties": {
        "timestamp": "2022-11-13T20:44:31Z",
        "version": 3,
        "changeset": 128862325,
        "addr:city": "Olímpia",
        "addr:housenumber": "10",
        "addr:street": "Rua da Araponga",
        "addr:suburb": "Jardim Luiz Zucca",
        "amenity": "school",
        "name": "Escola Estadual Professora Dalva Vieira Itavo",
        "operator": "Governo do Estado de São Paulo",
        "operator:type": "government",
        "operator:wikidata": "Q10290787",
        "phone": "+55 17 3281 3145",
        "id": "way/492829522"
      },
      "geometry": {
        "type": "Polygon",
        "coordinates": [
          [
            [
              -48.889946,
              -20.7423988
            ],
            [
              -48.8886076,
              -20.742316
            ],
            [
              -48.8888437,
              -20.7418495
            ],
            [
              -48.8889697,
              -20.7417843
            ],
            [
              -48.8900748,
              -20.741847
            ],
            [
              -48.889946,
              -20.7423988
            ]
          ]
        ]
      }
    },
    {
      "type": "Feature",
      "id": "way/492829523",
      "properties": {
        "timestamp": "2017-05-11T17:03:47Z",
        "version": 1,
        "changeset": 48599204,
        "addr:city": "Olímpia",
        "addr:housenumber": "115",
        "addr:street": "Rua do Ipê",
        "amenity": "school",
        "name": "Emeb Sítio do Pica Pau Amarelo",
        "operator": "Prefeitura Municipal",
        "phone": "+55 17 3281 6266",
        "id": "way/492829523"
      },
      "geometry": {
        "type": "Polygon",
        "coordinates": [
          [
            [
              -48.891499,
              -20.743041
            ],
            [
              -48.8914588,
              -20.7434523
            ],
            [
              -48.8905951,
              -20.7433996
            ],
            [
              -48.8906086,
              -20.7431338
            ],
            [
              -48.891145,
              -20.7430083
            ],
            [
              -48.891499,
              -20.743041
            ]
          ]
        ]
      }
    },
    {
      "type": "Feature",
      "id": "way/554709677",
      "properties": {
        "timestamp": "2022-12-23T20:52:21Z",
        "version": 6,
        "changeset": 130436702,
        "addr:city": "Omímpia",
        "addr:housenumber": "93",
        "addr:postcode": "15404-012",
        "addr:street": "Avenida Professora Maria Ubaldina Barros Furquim",
        "addr:suburb": "Jardim Glória",
        "amenity": "school",
        "contact:phone": "+55 17 3281 3069",
        "email": "e028022a@educacao.sp.gov.br",
        "name": "Escola Estadual Capitão Narciso Bertolino",
        "operator": "Secretaria da Educação do Estado de São Paulo",
        "operator:type": "government",
        "phone": "+55 17 3281 1723",
        "ref": "INEP-35028022",
        "religion": "none",
        "source": "CADMEC;INEP",
        "id": "way/554709677"
      },
      "geometry": {
        "type": "Polygon",
        "coordinates": [
          [
            [
              -48.9162612,
              -20.7339128
            ],
            [
              -48.9159822,
              -20.7350968
            ],
            [
              -48.915419,
              -20.7349915
            ],
            [
              -48.9156872,
              -20.73381
            ],
            [
              -48.9162612,
              -20.7339128
            ]
          ]
        ]
      }
    },
    {
      "type": "Feature",
      "id": "way/556350805",
      "properties": {
        "timestamp": "2023-01-16T22:19:14Z",
        "version": 4,
        "changeset": 131355309,
        "addr:city": "Olimpia",
        "addr:housenumber": "280",
        "addr:postcode": "15406-024",
        "addr:street": "Avenida Olavo Bilac",
        "addr:suburb": "Jardim Cisoto",
        "amenity": "school",
        "email": "e028046a@educacao.sp.gov.br",
        "name": "Escola Estadual Wilquem Manoel Neves",
        "operator": "Secretaria da Educação do Estado de São Paulo",
        "operator:type": "government",
        "phone": "+55 17 3281 1919",
        "ref": "INEP-35028046",
        "religion": "none",
        "source": "INEP;CADMEC 2017",
        "id": "way/556350805"
      },
      "geometry": {
        "type": "Polygon",
        "coordinates": [
          [
            [
              -48.9033839,
              -20.7325758
            ],
            [
              -48.9025632,
              -20.7324027
            ],
            [
              -48.9026544,
              -20.7321042
            ],
            [
              -48.9028072,
              -20.7317154
            ],
            [
              -48.9034853,
              -20.7321044
            ],
            [
              -48.9033839,
              -20.7325758
            ]
          ]
        ]
      }
    },
    {
      "type": "Feature",
      "id": "way/556350808",
      "properties": {
        "timestamp": "2022-12-23T20:08:10Z",
        "version": 4,
        "changeset": 130435496,
        "addr:city": "Olimpia",
        "addr:housenumber": "366",
        "addr:postcode": "15400-000",
        "addr:street": "Rua Bernardino de Campos",
        "addr:suburb": "Centro",
        "amenity": "school",
        "email": "e028061a@educacao.sp.gov.br",
        "name": "Escola Estadual Professora Maria Ubaldina de Barros Furquim",
        "operator": "Secretaria da Educação do Estado de São Paulo",
        "operator:type": "government",
        "phone": "+55 17 3281 1735",
        "ref": "INEP-35028061",
        "religion": "none",
        "source": "CADMEC 2017",
        "id": "way/556350808"
      },
      "geometry": {
        "type": "Polygon",
        "coordinates": [
          [
            [
              -48.9085257,
              -20.7356211
            ],
            [
              -48.9083433,
              -20.7364213
            ],
            [
              -48.9075226,
              -20.7362507
            ],
            [
              -48.9076996,
              -20.7354555
            ],
            [
              -48.9085257,
              -20.7356211
            ]
          ]
        ]
      }
    },
    {
      "type": "Feature",
      "id": "way/604395413",
      "properties": {
        "timestamp": "2019-01-16T19:59:01Z",
        "version": 2,
        "changeset": 66374360,
        "addr:city": "Olímpia",
        "addr:housenumber": "186",
        "addr:street": "Rua Agostinho Custódio",
        "addr:suburb": "Jardim Leonor",
        "amenity": "school",
        "name": "Emeb Professor Maurício César Alves Pereira",
        "operator": "Prefeitura Municipal",
        "phone": "+55 17 3281 4555",
        "id": "way/604395413"
      },
      "geometry": {
        "type": "Polygon",
        "coordinates": [
          [
            [
              -48.897247,
              -20.7399155
            ],
            [
              -48.897306,
              -20.7400836
            ],
            [
              -48.8975421,
              -20.7400485
            ],
            [
              -48.8976064,
              -20.7403746
            ],
            [
              -48.8973704,
              -20.7403445
            ],
            [
              -48.896268,
              -20.7405326
            ],
            [
              -48.8962948,
              -20.7407057
            ],
            [
              -48.8959757,
              -20.7407634
            ],
            [
              -48.895871,
              -20.7401839
            ],
            [
              -48.897247,
              -20.7399155
            ]
          ]
        ]
      }
    },
    {
      "type": "Feature",
      "id": "way/638071793",
      "properties": {
        "timestamp": "2022-04-15T18:26:08Z",
        "version": 2,
        "changeset": 119761520,
        "addr:city": "Olímpia",
        "addr:housenumber": "269",
        "addr:postcode": "15405-000",
        "addr:street": "Rua Ana Bernardes",
        "addr:suburb": "Baguaçu",
        "amenity": "school",
        "email": "e028125a@educacao.sp.gov.br",
        "name": "Escola Estadual Doutor Elói Lopes Ferraz",
        "operator": "Secretaria da Educação do Estado de São Paulo",
        "phone": "+55 17 3257-1001;+55 17 3257-8157",
        "id": "way/638071793"
      },
      "geometry": {
        "type": "Polygon",
        "coordinates": [
          [
            [
              -49.0702116,
              -20.6878942
            ],
            [
              -49.0706301,
              -20.6886821
            ],
            [
              -49.0698978,
              -20.6890761
            ],
            [
              -49.0693775,
              -20.6882355
            ],
            [
              -49.0702116,
              -20.6878942
            ]
          ]
        ]
      }
    },
    {
      "type": "Feature",
      "id": "way/655724665",
      "properties": {
        "timestamp": "2018-12-17T20:10:53Z",
        "version": 1,
        "changeset": 65561618,
        "addr:city": "Olímpia",
        "addr:housenumber": "2651",
        "addr:street": "Rua Benjamin Constant",
        "addr:suburb": "Jardim Tropical 2",
        "amenity": "school",
        "name": "Emeb Emília",
        "official_name": "Emília Escola Municipal de Educação Básica",
        "operator": "Prefeitura Municipal",
        "wheelchair": "yes",
        "id": "way/655724665"
      },
      "geometry": {
        "type": "Polygon",
        "coordinates": [
          [
            [
              -48.9306137,
              -20.735152
            ],
            [
              -48.93067,
              -20.7354907
            ],
            [
              -48.9302516,
              -20.7355459
            ],
            [
              -48.9302127,
              -20.7352486
            ],
            [
              -48.9306137,
              -20.735152
            ]
          ]
        ]
      }
    },
    {
      "type": "Feature",
      "id": "way/1124488009",
      "properties": {
        "timestamp": "2022-12-23T19:56:21Z",
        "version": 1,
        "changeset": 130435127,
        "addr:housenumber": "100",
        "addr:postcode": "15400-722",
        "addr:street": "Rua João Zampieri",
        "addr:suburb": "Jardim Hélio Cazarini",
        "amenity": "school",
        "email": "e919664a@educacao.sp.gov.br",
        "name": "Escola Estadual Professora Alzira Tonelli Zaccarelli",
        "operator": "Secretaria da Educação do Estado de São Paulo",
        "operator:type": "government",
        "phone": "+55 17 3281 4440",
        "ref": "INEP-35919664",
        "religion": "none",
        "source": "INEP;CADMEC 2017",
        "id": "way/1124488009"
      },
      "geometry": {
        "type": "Polygon",
        "coordinates": [
          [
            [
              -48.9072564,
              -20.7541355
            ],
            [
              -48.9078572,
              -20.7545343
            ],
            [
              -48.9078706,
              -20.7546196
            ],
            [
              -48.9078384,
              -20.7546497
            ],
            [
              -48.9068004,
              -20.7549958
            ],
            [
              -48.9065939,
              -20.7550159
            ],
            [
              -48.9065348,
              -20.7550059
            ],
            [
              -48.9065187,
              -20.7549783
            ],
            [
              -48.9065134,
              -20.7549306
            ],
            [
              -48.906669,
              -20.754266
            ],
            [
              -48.9072564,
              -20.7541355
            ]
          ]
        ]
      }
    },
    {
      "type": "Feature",
      "id": "way/1164090858",
      "properties": {
        "timestamp": "2023-05-14T20:23:04Z",
        "version": 2,
        "changeset": 136100027,
        "amenity": "school",
        "name": "Escola Municipal Washington Junqueira Franco",
        "id": "way/1164090858"
      },
      "geometry": {
        "type": "Polygon",
        "coordinates": [
          [
            [
              -49.0707143,
              -20.6871034
            ],
            [
              -49.070886,
              -20.6874846
            ],
            [
              -49.0702968,
              -20.6877491
            ],
            [
              -49.0700813,
              -20.6873428
            ],
            [
              -49.0707143,
              -20.6871034
            ]
          ]
        ]
      }
    },
    {
      "type": "Feature",
      "id": "way/1286865774",
      "properties": {
        "timestamp": "2024-05-26T17:24:43Z",
        "version": 2,
        "changeset": 151862279,
        "amenity": "school",
        "grades": "7-12",
        "name": "EMEB Pedrinho",
        "operator": "Prefeitura Muncipal",
        "operator:type": "government",
        "id": "way/1286865774"
      },
      "geometry": {
        "type": "Polygon",
        "coordinates": [
          [
            [
              -48.906746,
              -20.7526013
            ],
            [
              -48.9067134,
              -20.7529724
            ],
            [
              -48.9061343,
              -20.7529397
            ],
            [
              -48.9061763,
              -20.7525467
            ],
            [
              -48.906746,
              -20.7526013
            ]
          ]
        ]
      }
    },
    {
      "type": "Feature",
      "id": "node/4234394563",
      "properties": {
        "timestamp": "2016-06-09T19:11:02Z",
        "version": 1,
        "changeset": 39915445,
        "addr:city": "Olímpia",
        "addr:district": "Ribeiro dos Santos",
        "addr:housenumber": "144",
        "addr:postcode": "15408-000",
        "addr:street": "Rua Lucírio José da Silva",
        "amenity": "school",
        "name": "EMEB Professor José Santanna",
        "operator": "Prefeitura",
        "phone": "+55 17 3284 1200",
        "wheelchair": "yes",
        "id": "node/4234394563"
      },
      "geometry": {
        "type": "Point",
        "coordinates": [
          -48.9500302,
          -20.6067052
        ]
      }
    }
  ]
}
