{
  "type": "FeatureCollection",
  "features": [
    {
      "type": "Feature",
      "id": "way/1115570085",
      "properties": {
        "timestamp": "2024-11-13T02:23:26Z",
        "version": 3,
        "changeset": 159073957,
        "addr:city": "Cosmorama",
        "addr:postcode": "15530-000",
        "addr:street": "Avenida Marginal Diogo Archilia Flores",
        "addr:suburb": "Paço",
        "amenity": "community_centre",
        "building": "yes",
        "name": "Centro de Convivência do Idoso",
        "operator": "Prefeitura de Cosmorama",
        "operator:type": "government",
        "id": "way/1115570085"
      },
      "geometry": {
        "type": "Polygon",
        "coordinates": [
          [
            [
              -49.7830988,
              -20.4826778
            ],
            [
              -49.7827433,
              -20.4829688
            ],
            [
              -49.7824181,
              -20.4827789
            ],
            [
              -49.782443,
              -20.4827519
            ],
            [
              -49.7828896,
              -20.482434
            ],
            [
              -49.7830988,
              -20.4826778
            ]
          ]
        ]
      }
    }
  ]
}
