{
  "type": "FeatureCollection",
  "features": [
    {
      "type": "Feature",
      "id": "way/668774085",
      "properties": {
        "timestamp": "2024-05-06T16:56:29Z",
        "version": 5,
        "changeset": 150974752,
        "addr:city": "Cosmorama",
        "addr:postcode": "15530000",
        "addr:street": "Rua Joaquim da Costa Maciel",
        "addr:suburb": "Luiz Rosa",
        "amenity": "pharmacy",
        "building": "yes",
        "dispensing": "yes",
        "healthcare": "pharmacy",
        "id": "way/668774085"
      },
      "geometry": {
        "type": "Polygon",
        "coordinates": [
          [
            [
              -49.7790737,
              -20.4798571
            ],
            [
              -49.7792233,
              -20.4797769
            ],
            [
              -49.7792505,
              -20.4798215
            ],
            [
              -49.7791003,
              -20.479902
            ],
            [
              -49.7790737,
              -20.4798571
            ]
          ]
        ]
      }
    },
    {
      "type": "Feature",
      "id": "way/1280251876",
      "properties": {
        "timestamp": "2024-05-06T16:56:29Z",
        "version": 1,
        "changeset": 150974752,
        "addr:city": "Cosmorama",
        "addr:postcode": "15530000",
        "addr:street": "Rua Vitório Stachissini",
        "addr:suburb": "Luiz Rosa",
        "amenity": "pharmacy",
        "building": "yes",
        "dispensing": "yes",
        "healthcare": "pharmacy",
        "name": "Farmácia Central",
        "operator": "Rede Inova Drogarias",
        "id": "way/1280251876"
      },
      "geometry": {
        "type": "Polygon",
        "coordinates": [
          [
            [
              -49.7777184,
              -20.4794524
            ],
            [
              -49.7779208,
              -20.4793455
            ],
            [
              -49.7779788,
              -20.4794418
            ],
            [
              -49.7778367,
              -20.4795143
            ],
            [
              -49.7777757,
              -20.4795454
            ],
            [
              -49.7777184,
              -20.4794524
            ]
          ]
        ]
      }
    }
  ]
}
