{
  "type": "FeatureCollection",
  "features": [
    {
      "type": "Feature",
      "id": "way/729064235",
      "properties": {
        "timestamp": "2022-03-10T15:40:15Z",
        "version": 2,
        "changeset": 118328862,
        "addr:city": "Novo Acordo",
        "addr:housenumber": "315",
        "addr:postcode": "77610-000",
        "addr:street": "Avenida do Cais",
        "addr:suburb": "Centro",
        "amenity": "school",
        "name": "Colegio Estadual Professora Eliacena Moura Leitao",
        "phone": "+55 63 3369 1234",
        "id": "way/729064235"
      },
      "geometry": {
        "type": "Polygon",
        "coordinates": [
          [
            [
              -47.6752461,
              -9.9629225
            ],
            [
              -47.675612,
              -9.9628718
            ],
            [
              -47.6757116,
              -9.9635698
            ],
            [
              -47.6753458,
              -9.9636205
            ],
            [
              -47.6752461,
              -9.9629225
            ]
          ]
        ]
      }
    },
    {
      "type": "Feature",
      "id": "way/1038376967",
      "properties": {
        "timestamp": "2022-03-08T22:25:57Z",
        "version": 1,
        "changeset": 118254817,
        "addr:city": "Novo Acordo",
        "addr:postcode": "77610-000",
        "addr:street": "Avenida Predro √Ålvareis Cabral",
        "addr:suburb": "Centro",
        "amenity": "school",
        "name": "Escola Municipal Ruidelmar Limeira Borges",
        "phone": "+55 63 3369 1409",
        "id": "way/1038376967"
      },
      "geometry": {
        "type": "Polygon",
        "coordinates": [
          [
            [
              -47.6816249,
              -9.9648295
            ],
            [
              -47.6816585,
              -9.9651404
            ],
            [
              -47.681166,
              -9.9651922
            ],
            [
              -47.6811323,
              -9.9648812
            ],
            [
              -47.6816249,
              -9.9648295
            ]
          ]
        ]
      }
    },
    {
      "type": "Feature",
      "id": "way/1038376968",
      "properties": {
        "timestamp": "2022-03-10T15:40:15Z",
        "version": 3,
        "changeset": 118328862,
        "addr:city": "Novo Acordo",
        "addr:postcode": "77610-000",
        "amenity": "school",
        "name": "Creche Municipal Mae Duvigem",
        "id": "way/1038376968"
      },
      "geometry": {
        "type": "Polygon",
        "coordinates": [
          [
            [
              -47.6811002,
              -9.9673351
            ],
            [
              -47.6812353,
              -9.9676677
            ],
            [
              -47.680653,
              -9.9678596
            ],
            [
              -47.6805141,
              -9.9675409
            ],
            [
              -47.6811002,
              -9.9673351
            ]
          ]
        ]
      }
    },
    {
      "type": "Feature",
      "id": "way/1039101402",
      "properties": {
        "timestamp": "2022-03-10T15:41:27Z",
        "version": 1,
        "changeset": 118328903,
        "addr:city": "Novo Acordo",
        "addr:housenumber": "340",
        "addr:postcode": "77610-000",
        "addr:street": "Rua Ponte Alta",
        "addr:suburb": "ponte Nova",
        "amenity": "school",
        "name": "Escola Estadual Pedro Macedo",
        "phone": "+55 63 3369 1406",
        "id": "way/1039101402"
      },
      "geometry": {
        "type": "Polygon",
        "coordinates": [
          [
            [
              -47.6692619,
              -9.9666763
            ],
            [
              -47.6691953,
              -9.9672102
            ],
            [
              -47.6685946,
              -9.9671375
            ],
            [
              -47.6686273,
              -9.9668751
            ],
            [
              -47.6688629,
              -9.9669037
            ],
            [
              -47.6688968,
              -9.9666321
            ],
            [
              -47.6692619,
              -9.9666763
            ]
          ]
        ]
      }
    }
  ]
}
