{
  "type": "FeatureCollection",
  "features": [
    {
      "type": "Feature",
      "id": "node/11199693537",
      "properties": {
        "timestamp": "2023-10-18T19:28:50Z",
        "version": 4,
        "changeset": 142778363,
        "addr:city": "Ibirapuã",
        "addr:postcode": "45940-000",
        "addr:street": "Praça Humberto Guedes",
        "addr:suburb": "Centro",
        "email": "educacao_ibibahia@yahoo.com.br",
        "government": "education",
        "name": "Secretaria Municipal de Educação - Semec",
        "office": "government",
        "opening_hours": "Mo-Fr 08:00-13:00",
        "phone": "+55 73 3011 0863",
        "id": "node/11199693537"
      },
      "geometry": {
        "type": "Point",
        "coordinates": [
          -40.1046531,
          -17.685197
        ]
      }
    },
    {
      "type": "Feature",
      "id": "node/11272924735",
      "properties": {
        "timestamp": "2023-10-18T19:28:50Z",
        "version": 1,
        "changeset": 142778363,
        "addr:city": "Ibirapuã",
        "addr:postcode": "45940-000",
        "addr:street": "Praça Geraldo do Rosário Chácara",
        "addr:suburb": "Centro",
        "government": "administrative",
        "name": "Secretaria Municipal de Administração de Ibirapuã",
        "office": "government",
        "opening_hours": "Mo-Fr 07:00-13:00",
        "phone": "+55 73 3011 0852",
        "source": "secretadm521@gmail.com",
        "id": "node/11272924735"
      },
      "geometry": {
        "type": "Point",
        "coordinates": [
          -40.1069009,
          -17.6876307
        ]
      }
    },
    {
      "type": "Feature",
      "id": "node/11272924736",
      "properties": {
        "timestamp": "2023-10-18T19:28:50Z",
        "version": 1,
        "changeset": 142778363,
        "addr:city": "Ibirapuã",
        "addr:postcode": "45940-000",
        "addr:street": "Praça Geraldo do Rosário Chácara",
        "addr:suburb": "Centro",
        "government": "administrative",
        "name": "Adab - Agência Estadual de Defesa Agropecuária da Bahia",
        "office": "government",
        "phone": "+55 73 3299 2448",
        "id": "node/11272924736"
      },
      "geometry": {
        "type": "Point",
        "coordinates": [
          -40.1067504,
          -17.6877673
        ]
      }
    },
    {
      "type": "Feature",
      "id": "node/11272924737",
      "properties": {
        "timestamp": "2023-10-18T19:28:50Z",
        "version": 1,
        "changeset": 142778363,
        "addr:city": "Ibirapuã",
        "addr:postcode": "45940-000",
        "addr:street": "Praça Lourival Pereira Barros",
        "addr:suburb": "Centro",
        "email": "sec.financas@ibirapua.ba.gov.br",
        "government": "administrative",
        "name": "Secretaria Municipal de Finanças",
        "office": "government",
        "opening_hours": "Mo-Fr 08:00-13:00",
        "phone": "+55 73 3011 0850",
        "id": "node/11272924737"
      },
      "geometry": {
        "type": "Point",
        "coordinates": [
          -40.1099011,
          -17.6886287
        ]
      }
    }
  ]
}
