{
  "type": "FeatureCollection",
  "features": [
    {
      "type": "Feature",
      "id": "way/1146104678",
      "properties": {
        "timestamp": "2023-02-15T21:50:31Z",
        "version": 1,
        "changeset": 132602714,
        "addr:city": "Ibirapuã",
        "addr:postcode": "45940-000",
        "addr:street": "Rua São Salvador",
        "addr:suburb": "Centro",
        "amenity": "school",
        "name": "Colégio Municipal Souza Mendes",
        "operator": "Município de Ibirapuã",
        "operator:type": "public",
        "phone": "+55 73 98154 3381",
        "id": "way/1146104678"
      },
      "geometry": {
        "type": "Polygon",
        "coordinates": [
          [
            [
              -40.1087335,
              -17.6883812
            ],
            [
              -40.1083268,
              -17.6887802
            ],
            [
              -40.1079876,
              -17.6884752
            ],
            [
              -40.1084116,
              -17.6880761
            ],
            [
              -40.1087335,
              -17.6883812
            ]
          ]
        ]
      }
    },
    {
      "type": "Feature",
      "id": "node/10647752225",
      "properties": {
        "timestamp": "2023-02-11T01:29:19Z",
        "version": 1,
        "changeset": 132387823,
        "addr:city": "Ibirapuã",
        "addr:housenumber": "388",
        "addr:postcode": "45940-000",
        "addr:street": "Rua Batista",
        "addr:suburb": "Centro",
        "amenity": "school",
        "name": "Grupo Escolar Castro Alves",
        "operator": "Município de Ibirapuã",
        "operator:type": "public",
        "phone": "+55 73 98142 4051",
        "id": "node/10647752225"
      },
      "geometry": {
        "type": "Point",
        "coordinates": [
          -40.1113658,
          -17.6874582
        ]
      }
    },
    {
      "type": "Feature",
      "id": "node/10654413164",
      "properties": {
        "timestamp": "2023-02-13T11:44:31Z",
        "version": 1,
        "changeset": 132486129,
        "addr:city": "Ibirapuã",
        "addr:postcode": "45940-000",
        "addr:suburb": "Vila Juazeiro",
        "amenity": "school",
        "name": "Escola Municipal Maurina Oliveira Nascimento",
        "operator": "Município de Ibirapuã",
        "operator:type": "public",
        "phone": "+55 73 99800 8610",
        "id": "node/10654413164"
      },
      "geometry": {
        "type": "Point",
        "coordinates": [
          -39.8468046,
          -17.7671271
        ]
      }
    },
    {
      "type": "Feature",
      "id": "node/10654568621",
      "properties": {
        "timestamp": "2023-02-13T12:45:35Z",
        "version": 1,
        "changeset": 132488826,
        "addr:city": "Ibirapuã",
        "addr:housenumber": "67",
        "addr:postcode": "45940-000",
        "addr:street": "Rua Geraldo do Rosário Chácara",
        "addr:suburb": "Portela",
        "amenity": "school",
        "name": "Grupo Escolar Djalma Bessa",
        "operator": "Município de Ibirapuã",
        "operator:type": "public",
        "phone": "+55 73 3201 5055",
        "id": "node/10654568621"
      },
      "geometry": {
        "type": "Point",
        "coordinates": [
          -39.9774646,
          -17.7772348
        ]
      }
    },
    {
      "type": "Feature",
      "id": "node/10665751333",
      "properties": {
        "timestamp": "2023-02-15T21:50:31Z",
        "version": 1,
        "changeset": 132602714,
        "addr:city": "Ibirapuã",
        "addr:postcode": "45940-000",
        "addr:street": "Rodovia Governador Mário Covas",
        "addr:suburb": "Vista Alegre",
        "amenity": "school",
        "name": "Escola Municipal Antônio Carlos Magalhães",
        "operator": "Município de Ibirapuã",
        "operator:type": "public",
        "id": "node/10665751333"
      },
      "geometry": {
        "type": "Point",
        "coordinates": [
          -39.7793629,
          -17.7883242
        ]
      }
    }
  ]
}
