{
  "type": "FeatureCollection",
  "features": [
    {
      "type": "Feature",
      "id": "node/2441430768",
      "properties": {
        "timestamp": "2020-01-13T03:19:34Z",
        "version": 5,
        "changeset": 79493934,
        "addr:housenumber": "182",
        "addr:postcode": "11320-070",
        "addr:street": "Rua Benedito Calixto",
        "amenity": "dentist",
        "emergency": "yes",
        "healthcare": "dentist",
        "name": "Maximplante Clinica de Implantes Dentários",
        "website": "http://maximplante.com.br",
        "id": "node/2441430768"
      },
      "geometry": {
        "type": "Point",
        "coordinates": [
          -46.3761485,
          -23.9674743
        ]
      }
    },
    {
      "type": "Feature",
      "id": "node/11159666221",
      "properties": {
        "timestamp": "2023-08-31T19:32:55Z",
        "version": 1,
        "changeset": 140650383,
        "addr:city": "São Vicente",
        "addr:housenumber": "576",
        "addr:postcode": "11310400",
        "addr:street": "Rua Quinze de Novembro",
        "addr:suburb": "Centro",
        "amenity": "dentist",
        "description": "A Dentari Odonto Clínicas foi criada para elevar o seu conceito de qualidade e tecnologia em todas as áreas da odontologia.",
        "healthcare": "dentist",
        "healthcare:speciality": "dentist",
        "name": "Dentari Odonto Clínicas São Vicente",
        "opening_hours": "Mo-Fr 08:00-19:30; Sa 08:00-13:00",
        "operator": "Dentari Odonto Clínicas",
        "id": "node/11159666221"
      },
      "geometry": {
        "type": "Point",
        "coordinates": [
          -46.3853854,
          -23.9637853
        ]
      }
    }
  ]
}
