{
  "type": "FeatureCollection",
  "features": [
    {
      "type": "Feature",
      "id": "node/4345208895",
      "properties": {
        "timestamp": "2017-03-19T04:08:55Z",
        "version": 2,
        "changeset": 46971583,
        "addr:city": "São Vicente",
        "addr:housenumber": "447",
        "addr:street": "Avenida Presidente Wilson",
        "name": "Pousada Vitória",
        "tourism": "hotel",
        "id": "node/4345208895"
      },
      "geometry": {
        "type": "Point",
        "coordinates": [
          -46.3734493,
          -23.9699424
        ]
      }
    },
    {
      "type": "Feature",
      "id": "node/8665643571",
      "properties": {
        "timestamp": "2021-04-25T19:03:21Z",
        "version": 1,
        "changeset": 103588166,
        "addr:city": "São Vicente",
        "addr:housenumber": "264",
        "addr:street": "Alameda Paulo Gonçalves",
        "addr:suburb": "Ilha Porchat",
        "name": "Ilha Porchat Hotel",
        "phone": "+55 13 3468-3437",
        "tourism": "hotel",
        "id": "node/8665643571"
      },
      "geometry": {
        "type": "Point",
        "coordinates": [
          -46.3720396,
          -23.9787256
        ]
      }
    }
  ]
}
