{
  "type": "FeatureCollection",
  "features": [
    {
      "type": "Feature",
      "id": "way/953415161",
      "properties": {
        "timestamp": "2021-06-11T13:44:17Z",
        "version": 1,
        "changeset": 106218067,
        "amenity": "hospital",
        "healthcare": "hospital",
        "id": "way/953415161"
      },
      "geometry": {
        "type": "Polygon",
        "coordinates": [
          [
            [
              -51.5327493,
              -29.2468812
            ],
            [
              -51.5324538,
              -29.2467475
            ],
            [
              -51.5325423,
              -29.2465985
            ],
            [
              -51.5328378,
              -29.2467323
            ],
            [
              -51.5327493,
              -29.2468812
            ]
          ]
        ]
      }
    },
    {
      "type": "Feature",
      "id": "node/3449305123",
      "properties": {
        "timestamp": "2023-11-22T04:15:37Z",
        "version": 6,
        "changeset": 144309694,
        "addr:city": "Garibaldi",
        "addr:housenumber": "7",
        "addr:postcode": "95720-000",
        "addr:street": "Travessa 31 de Outubro",
        "addr:suburb": "Centro",
        "amenity": "hospital",
        "email": "hbsp@hbsp.com.br",
        "fax": "+55 54 3464 9700",
        "healthcare": "hospital",
        "name": "Hospital SÃ£o Pedro",
        "phone": "+55 54 3464 9700",
        "ref:CNES": "2257645",
        "ref:vatin": "BR90052804000127",
        "website": "https://hbsp.com.br/",
        "id": "node/3449305123"
      },
      "geometry": {
        "type": "Point",
        "coordinates": [
          -51.5338548,
          -29.2539683
        ]
      }
    },
    {
      "type": "Feature",
      "id": "node/8804794608",
      "properties": {
        "timestamp": "2021-06-04T16:49:48Z",
        "version": 1,
        "changeset": 105850962,
        "addr:city": "Garibaldi",
        "addr:housenumber": "203, Sala 304",
        "addr:postcode": "95720-000",
        "addr:street": "Avenida Rio Branco",
        "addr:suburb": "Centro",
        "amenity": "hospital",
        "healthcare": "hospital",
        "healthcare:speciality": "ophthalmology",
        "name": "Oftalmologista - Dra. Camila Eccker",
        "id": "node/8804794608"
      },
      "geometry": {
        "type": "Point",
        "coordinates": [
          -51.5275274,
          -29.2557648
        ]
      }
    },
    {
      "type": "Feature",
      "id": "node/8824692964",
      "properties": {
        "timestamp": "2021-06-11T13:44:17Z",
        "version": 1,
        "changeset": 106218067,
        "amenity": "hospital",
        "healthcare": "hospital",
        "id": "node/8824692964"
      },
      "geometry": {
        "type": "Point",
        "coordinates": [
          -51.5326713,
          -29.2467087
        ]
      }
    },
    {
      "type": "Feature",
      "id": "node/8824692969",
      "properties": {
        "timestamp": "2021-06-11T13:44:17Z",
        "version": 1,
        "changeset": 106218067,
        "amenity": "hospital",
        "healthcare": "hospital",
        "name": "SUS Garibaldi",
        "id": "node/8824692969"
      },
      "geometry": {
        "type": "Point",
        "coordinates": [
          -51.5326332,
          -29.2467273
        ]
      }
    }
  ]
}
