{
  "type": "FeatureCollection",
  "features": [
    {
      "type": "Feature",
      "id": "way/956583559",
      "properties": {
        "timestamp": "2021-06-21T13:05:44Z",
        "version": 1,
        "changeset": 106717449,
        "addr:city": "Pirenópolis",
        "addr:postcode": "72980-000",
        "addr:street": "Rua dos Pireneus",
        "addr:suburb": "Centro",
        "amenity": "clinic",
        "building": "yes",
        "contact:facebook": "https://www.facebook.com/clinicasantaanapiri",
        "contact:instagram": "https://instagram.com/wix",
        "contact:mobile": "+55 62 98174-2546",
        "healthcare": "clinic",
        "healthcare:speciality": "radiology",
        "name": "Clínica Santa Ana",
        "phone": "+55 62 3331-4338",
        "website": "https://www.clinicasantaanapiri.com",
        "id": "way/956583559"
      },
      "geometry": {
        "type": "Polygon",
        "coordinates": [
          [
            [
              -48.952621,
              -15.8494223
            ],
            [
              -48.9526186,
              -15.8494984
            ],
            [
              -48.9524959,
              -15.8494949
            ],
            [
              -48.9524982,
              -15.8494188
            ],
            [
              -48.952621,
              -15.8494223
            ]
          ]
        ]
      }
    },
    {
      "type": "Feature",
      "id": "node/6658363582",
      "properties": {
        "timestamp": "2023-06-15T01:06:59Z",
        "version": 3,
        "changeset": 137349289,
        "amenity": "clinic",
        "healthcare": "clinic",
        "name": "Unidade Básica de Saúde - Atacir Ferreira da Silva",
        "id": "node/6658363582"
      },
      "geometry": {
        "type": "Point",
        "coordinates": [
          -48.9597958,
          -15.8445911
        ]
      }
    },
    {
      "type": "Feature",
      "id": "node/8852936619",
      "properties": {
        "timestamp": "2021-06-21T12:53:05Z",
        "version": 1,
        "changeset": 106716800,
        "addr:city": "Pirenópolis",
        "addr:housenumber": "3",
        "addr:postcode": "72980-000",
        "addr:street": "Avenida Sizenando Jaime",
        "addr:suburb": "Centro",
        "amenity": "clinic",
        "building": "yes",
        "facebook": "https://www.facebook.com/Labsantaclarapiri",
        "healthcare": "clinic",
        "healthcare:speciality": "radiology",
        "name": "Laboratório Santa Clara",
        "opening_hours": "Mo-Fr 07:00-18:00",
        "phone": "+55 62 3331-1133",
        "phone:mobile": "+55 62 99518-3508",
        "id": "node/8852936619"
      },
      "geometry": {
        "type": "Point",
        "coordinates": [
          -48.9600917,
          -15.854547
        ]
      }
    }
  ]
}
