{
  "type": "FeatureCollection",
  "features": [
    {
      "type": "Feature",
      "id": "relation/11498224",
      "properties": {
        "timestamp": "2020-08-12T22:33:06Z",
        "version": 1,
        "changeset": 89324344,
        "addr:city": "Araçoiaba da Serra",
        "addr:housenumber": "52",
        "addr:postcode": "18190000",
        "addr:street": "Rua Pedro Munhoz",
        "amenity": "school",
        "name": "EMEF Prof.Maria Mizue Nagaishi Florenzano",
        "phone": "+55 15 32812324/32810261",
        "type": "multipolygon",
        "id": "relation/11498224"
      },
      "geometry": {
        "type": "Polygon",
        "coordinates": [
          [
            [
              -47.6137134,
              -23.5031506
            ],
            [
              -47.6136952,
              -23.5032391
            ],
            [
              -47.6135704,
              -23.5032175
            ],
            [
              -47.6135639,
              -23.5032491
            ],
            [
              -47.6136846,
              -23.50327
            ],
            [
              -47.6136664,
              -23.5033581
            ],
            [
              -47.6131941,
              -23.5032762
            ],
            [
              -47.6132142,
              -23.5031789
            ],
            [
              -47.6133038,
              -23.5031944
            ],
            [
              -47.6133089,
              -23.5031697
            ],
            [
              -47.6132202,
              -23.5031543
            ],
            [
              -47.6132379,
              -23.5030683
            ],
            [
              -47.6137134,
              -23.5031506
            ]
          ],
          [
            [
              -47.6135313,
              -23.5032036
            ],
            [
              -47.6133498,
              -23.5031737
            ],
            [
              -47.6133422,
              -23.5032126
            ],
            [
              -47.6135237,
              -23.5032425
            ],
            [
              -47.6135313,
              -23.5032036
            ]
          ]
        ]
      }
    },
    {
      "type": "Feature",
      "id": "way/836616710",
      "properties": {
        "timestamp": "2020-08-12T22:33:06Z",
        "version": 1,
        "changeset": 89324344,
        "building": "school",
        "id": "way/836616710"
      },
      "geometry": {
        "type": "Polygon",
        "coordinates": [
          [
            [
              -47.6137134,
              -23.5031506
            ],
            [
              -47.6136952,
              -23.5032391
            ],
            [
              -47.6135704,
              -23.5032175
            ],
            [
              -47.6135639,
              -23.5032491
            ],
            [
              -47.6136846,
              -23.50327
            ],
            [
              -47.6136664,
              -23.5033581
            ],
            [
              -47.6131941,
              -23.5032762
            ],
            [
              -47.6132142,
              -23.5031789
            ],
            [
              -47.6133038,
              -23.5031944
            ],
            [
              -47.6133089,
              -23.5031697
            ],
            [
              -47.6132202,
              -23.5031543
            ],
            [
              -47.6132379,
              -23.5030683
            ],
            [
              -47.6137134,
              -23.5031506
            ]
          ]
        ]
      }
    },
    {
      "type": "Feature",
      "id": "way/836616711",
      "properties": {
        "timestamp": "2020-08-12T22:33:06Z",
        "version": 1,
        "changeset": 89324344,
        "area": "yes",
        "id": "way/836616711"
      },
      "geometry": {
        "type": "Polygon",
        "coordinates": [
          [
            [
              -47.6135313,
              -23.5032036
            ],
            [
              -47.6135237,
              -23.5032425
            ],
            [
              -47.6133422,
              -23.5032126
            ],
            [
              -47.6133498,
              -23.5031737
            ],
            [
              -47.6135313,
              -23.5032036
            ]
          ]
        ]
      }
    },
    {
      "type": "Feature",
      "id": "node/3945140460",
      "properties": {
        "timestamp": "2021-01-08T22:11:25Z",
        "version": 3,
        "changeset": 97191293,
        "addr:housenumber": "20",
        "addr:street": "Rua Elias Charure",
        "amenity": "school",
        "name": "EMEF Dr. Celso Charuri",
        "phone": "+55 15 32915777 / 32917110",
        "id": "node/3945140460"
      },
      "geometry": {
        "type": "Point",
        "coordinates": [
          -47.6017866,
          -23.5704373
        ]
      }
    },
    {
      "type": "Feature",
      "id": "node/3999822994",
      "properties": {
        "timestamp": "2016-02-10T21:26:13Z",
        "version": 1,
        "changeset": 37134271,
        "amenity": "school",
        "name": "EMEF Alcebíades Leonel Machado",
        "id": "node/3999822994"
      },
      "geometry": {
        "type": "Point",
        "coordinates": [
          -47.7009396,
          -23.5723841
        ]
      }
    },
    {
      "type": "Feature",
      "id": "node/4115236563",
      "properties": {
        "timestamp": "2020-08-14T21:12:17Z",
        "version": 2,
        "changeset": 89430368,
        "addr:city": "Araçoiaba da Serra",
        "addr:housenumber": "35",
        "addr:postcode": "18190000",
        "addr:street": "Rua Professora Adonidas Telles Mendes Martins",
        "addr:suburb": "Bairro Alcides Vieira",
        "amenity": "school",
        "name": "E.M.E.F. \"Profª Helena Rodrigues\"",
        "phone": "+55 15 3281-2788",
        "id": "node/4115236563"
      },
      "geometry": {
        "type": "Point",
        "coordinates": [
          -47.6219344,
          -23.5109742
        ]
      }
    },
    {
      "type": "Feature",
      "id": "node/4115236564",
      "properties": {
        "timestamp": "2021-01-28T17:25:46Z",
        "version": 3,
        "changeset": 98311283,
        "addr:city": "Araçoiaba da Serra",
        "addr:housenumber": "138",
        "addr:postcode": "18190000",
        "addr:street": "Estrada João Paulo de Andrade Figueira - SP 270-112",
        "addr:suburb": "Araçoiabinha",
        "amenity": "school",
        "name": "EMEF \"Pedro Ferreira Duarte Neto\"",
        "phone": "+55 15 3281.2277",
        "id": "node/4115236564"
      },
      "geometry": {
        "type": "Point",
        "coordinates": [
          -47.5808796,
          -23.4787866
        ]
      }
    },
    {
      "type": "Feature",
      "id": "node/4115239789",
      "properties": {
        "timestamp": "2018-12-21T01:51:16Z",
        "version": 2,
        "changeset": 65656783,
        "addr:city": "Araçoiaba da Serra",
        "addr:housenumber": "21",
        "addr:postcode": "18190-000",
        "addr:street": "Rua Vereador Jair Ferreira Duarte",
        "addr:suburb": "Jardim Nogueira",
        "amenity": "school",
        "name": "EMEI \"Professora Creusa Maria Cardoso Roldan\"",
        "phone": "+55 15 3281.1146",
        "id": "node/4115239789"
      },
      "geometry": {
        "type": "Point",
        "coordinates": [
          -47.6213256,
          -23.5045298
        ]
      }
    },
    {
      "type": "Feature",
      "id": "node/4115242635",
      "properties": {
        "timestamp": "2021-01-28T18:59:35Z",
        "version": 3,
        "changeset": 98315420,
        "addr:city": "Araçoiaba da Serra",
        "addr:postcode": "18190000",
        "addr:street": "Rua Angela Teixeira de Oliveira",
        "addr:suburb": "Jardim Maria da Glória",
        "amenity": "school",
        "name": "EMEI \"Profª. Maria CoutinhoFlorenzano\"",
        "phone": "+5515 32811567",
        "id": "node/4115242635"
      },
      "geometry": {
        "type": "Point",
        "coordinates": [
          -47.616941,
          -23.5094993
        ]
      }
    },
    {
      "type": "Feature",
      "id": "node/4115242636",
      "properties": {
        "timestamp": "2020-08-14T21:08:38Z",
        "version": 2,
        "changeset": 89430284,
        "addr:city": "Araçoiaba da Serra",
        "addr:housenumber": "53",
        "addr:postcode": "18190000",
        "addr:street": "Rua Joaquim Ferreira",
        "amenity": "school",
        "name": "Creche Municipal “Lígia de Paula Álvares”",
        "phone": "+55 15 32813104",
        "id": "node/4115242636"
      },
      "geometry": {
        "type": "Point",
        "coordinates": [
          -47.6213579,
          -23.515
        ]
      }
    }
  ]
}
