{
  "type": "FeatureCollection",
  "features": [
    {
      "type": "Feature",
      "id": "node/3825604857",
      "properties": {
        "timestamp": "2015-11-09T01:13:22Z",
        "version": 1,
        "changeset": 35181994,
        "internet_access": "wlan",
        "name": "Oca na Praia",
        "tourism": "guest_house",
        "id": "node/3825604857"
      },
      "geometry": {
        "type": "Point",
        "coordinates": [
          -41.456098,
          -2.904872
        ]
      }
    },
    {
      "type": "Feature",
      "id": "node/3825605557",
      "properties": {
        "timestamp": "2020-03-27T19:41:20Z",
        "version": 2,
        "changeset": 82730984,
        "addr:city": "Luís Correia",
        "addr:housenumber": "S/N",
        "addr:postcode": "64222000",
        "addr:street": "Rua Paraiso",
        "addr:suburb": "Praia do Macapá",
        "air_conditioning": "yes",
        "email": "contato@pousadabrisamares.com.br",
        "guest_house": "bed_and_breakfast",
        "internet_access": "yes",
        "internet_access:fee": "no",
        "name": "Pousada Brisamares",
        "operator": "Raffa Araujo",
        "phone": "+55 86994532673",
        "rooms": "15",
        "tourism": "guest_house",
        "id": "node/3825605557"
      },
      "geometry": {
        "type": "Point",
        "coordinates": [
          -41.455801,
          -2.906177
        ]
      }
    }
  ]
}
