{
  "type": "FeatureCollection",
  "features": [
    {
      "type": "Feature",
      "id": "way/1073962038",
      "properties": {
        "timestamp": "2024-12-21T01:07:23Z",
        "version": 2,
        "changeset": 160455001,
        "addr:postcode": "78360-000",
        "addr:street": "Avenida Brasil",
        "amenity": "school",
        "email": "ilep@ilep.com.br",
        "name": "ILEP - Instituto de Educação do Parecis",
        "name:pt": "ILEP - Instituto de Educação do Parecis",
        "opening_hours": "Mo-Fr 07:00-18:00",
        "phone": "+55 65 3382 1785",
        "id": "way/1073962038"
      },
      "geometry": {
        "type": "Polygon",
        "coordinates": [
          [
            [
              -57.8871891,
              -13.669277
            ],
            [
              -57.8872599,
              -13.6702656
            ],
            [
              -57.8863865,
              -13.6703246
            ],
            [
              -57.8863157,
              -13.669336
            ],
            [
              -57.8871891,
              -13.669277
            ]
          ]
        ]
      }
    },
    {
      "type": "Feature",
      "id": "way/1091097944",
      "properties": {
        "timestamp": "2025-01-16T11:43:25Z",
        "version": 2,
        "changeset": 161415029,
        "addr:city": "Campo Novo do Parecis",
        "addr:housenumber": "614",
        "addr:postcode": "78360000",
        "addr:street": "Avenida Amapá",
        "addr:suburb": "Jardim Olenka",
        "amenity": "school",
        "grades": "1-12;7-12",
        "level": "2",
        "name": "Escola Estadual Parecis",
        "operator": "SEDUC-MT;SEDUC MT",
        "operator:type": "public",
        "website": "https://www.instagram.com/eeparecis/",
        "id": "way/1091097944"
      },
      "geometry": {
        "type": "Polygon",
        "coordinates": [
          [
            [
              -57.9056455,
              -13.6482015
            ],
            [
              -57.9057296,
              -13.6482378
            ],
            [
              -57.9052859,
              -13.6500077
            ],
            [
              -57.9045387,
              -13.649808
            ],
            [
              -57.9049871,
              -13.6480608
            ],
            [
              -57.9056455,
              -13.6482015
            ]
          ]
        ]
      }
    },
    {
      "type": "Feature",
      "id": "node/4540553989",
      "properties": {
        "timestamp": "2022-06-27T17:44:20Z",
        "version": 2,
        "changeset": 122921387,
        "addr:housenumber": "758 NE",
        "addr:postcode": "78360-000",
        "addr:street": "Avenida Mato Grosso",
        "amenity": "school",
        "name": "Escola 4 de Julho",
        "name:en": "School 4 de july",
        "name:es": "Escuela 4 de Julio",
        "opening_hours": "Mo-Fr 07:00-18:00",
        "phone": "+55 65 3904 2129",
        "website": "http://escolamunicipal04dejulho.vitrinevirtual.net/",
        "id": "node/4540553989"
      },
      "geometry": {
        "type": "Point",
        "coordinates": [
          -57.8860198,
          -13.6602541
        ]
      }
    }
  ]
}
