{
  "type": "FeatureCollection",
  "features": [
    {
      "type": "Feature",
      "id": "way/507452304",
      "properties": {
        "timestamp": "2023-03-03T13:41:04Z",
        "version": 2,
        "changeset": 133254671,
        "addr:city": "Aurora",
        "addr:housenumber": "285",
        "addr:postcode": "63360-000",
        "addr:street": "Rua Padre Vicente Luiz dos Santos",
        "addr:suburb": "Araçá",
        "amenity": "college",
        "name": "E. E. E. P. Leopoldina Gonçalves Quezado",
        "id": "way/507452304"
      },
      "geometry": {
        "type": "Polygon",
        "coordinates": [
          [
            [
              -38.9764148,
              -6.9386756
            ],
            [
              -38.9756297,
              -6.9397854
            ],
            [
              -38.9749108,
              -6.9392795
            ],
            [
              -38.9756672,
              -6.9381665
            ],
            [
              -38.9764148,
              -6.9386756
            ]
          ]
        ]
      }
    }
  ]
}
