{
  "type": "FeatureCollection",
  "features": [
    {
      "type": "Feature",
      "id": "way/1161709080",
      "properties": {
        "timestamp": "2023-04-12T14:33:41Z",
        "version": 1,
        "changeset": 134820690,
        "addr:city": "Aurora",
        "addr:housenumber": "285",
        "addr:postcode": "63360-000",
        "addr:street": "Rua Coronel José Leite",
        "addr:suburb": "Araçá",
        "building": "yes",
        "government": "social_security",
        "name": "Instituto Nacional do Seguro Social",
        "office": "government",
        "operator": "Instituto Nacional do Seguro Social",
        "operator:short": "INSS",
        "operator:wikidata": "Q10302614",
        "id": "way/1161709080"
      },
      "geometry": {
        "type": "Polygon",
        "coordinates": [
          [
            [
              -38.9743365,
              -6.9422379
            ],
            [
              -38.9743456,
              -6.942526
            ],
            [
              -38.9740712,
              -6.9425217
            ],
            [
              -38.974077,
              -6.9422379
            ],
            [
              -38.9743365,
              -6.9422379
            ]
          ]
        ]
      }
    }
  ]
}
