{
  "type": "FeatureCollection",
  "features": [
    {
      "type": "Feature",
      "id": "way/1355730578",
      "properties": {
        "timestamp": "2025-02-03T22:14:39Z",
        "version": 3,
        "changeset": 162104174,
        "access": "private",
        "addr:city": "Aurora",
        "addr:place": "Choupana Seu Antônio",
        "addr:postcode": "63360-000",
        "addr:street": "Rua Antônio Fernandes de Oliveira",
        "addr:suburb": "José Leite Figueiredo (Zezé da Cruz)",
        "amenity": "toilets",
        "building": "bathroom",
        "building:levels": "1",
        "building:use": "commercial",
        "changing_table": "yes",
        "roof:material": "eternit",
        "toilets:disposal": "flush",
        "id": "way/1355730578"
      },
      "geometry": {
        "type": "Polygon",
        "coordinates": [
          [
            [
              -38.9652432,
              -6.9401343
            ],
            [
              -38.9652592,
              -6.9401309
            ],
            [
              -38.9652432,
              -6.9401343
            ]
          ]
        ]
      }
    }
  ]
}
