{
  "type": "FeatureCollection",
  "features": [
    {
      "type": "Feature",
      "id": "node/3189357210",
      "properties": {
        "timestamp": "2019-07-11T17:33:19Z",
        "version": 3,
        "changeset": 72146221,
        "IJSN:administra": "Estadual",
        "IJSN:classeCnae": "Fundamental",
        "addr:city": "Mantenópolis",
        "addr:postcode": "29770-000",
        "addr:street": "Rua Alvim Sampaio",
        "addr:suburb": "Ipiranga",
        "alt_name": "Escola Estadual de Ensino Fundamental e Médio",
        "amenity": "school",
        "contact:phone": "+55 27 3758-1092",
        "name": "EEEFM Cristiano Dias Lopes",
        "source": "IJSN",
        "id": "node/3189357210"
      },
      "geometry": {
        "type": "Point",
        "coordinates": [
          -41.1251282,
          -18.8650114
        ]
      }
    },
    {
      "type": "Feature",
      "id": "node/4024904809",
      "properties": {
        "timestamp": "2016-02-25T01:59:33Z",
        "version": 1,
        "changeset": 37426154,
        "IJSN:administra": "Estadual",
        "IJSN:classeCnae": "Fundamental e Médio",
        "addr:city": "Mantenópolis",
        "addr:postcode": "29770-000",
        "addr:street": "Rua Joaquim Batista de Souza",
        "addr:suburb": "Centro",
        "alt_name": "Escola Estadual de Ensino Fundamental e Médio",
        "amenity": "school",
        "contact:phone": "(27) 3758-1422",
        "name": "EEEFM Job Pimentel",
        "source": "IJSN",
        "id": "node/4024904809"
      },
      "geometry": {
        "type": "Point",
        "coordinates": [
          -41.1195378,
          -18.8599357
        ]
      }
    },
    {
      "type": "Feature",
      "id": "node/4024904830",
      "properties": {
        "timestamp": "2016-02-25T01:59:37Z",
        "version": 1,
        "changeset": 37426154,
        "IJSN:administra": "Estadual",
        "IJSN:classeCnae": "Fundamental e Médio",
        "addr:city": "Mantenópolis",
        "addr:postcode": "29770-000",
        "addr:street": "Rua José Moreira Filho",
        "addr:suburb": "Santa Luzia de Matenópolis",
        "alt_name": "Escola Estadual de Ensino Fundamental e Médio",
        "amenity": "school",
        "contact:phone": "(27) 3758-4090",
        "name": "EEEFM Palmerindo Vieira Campos",
        "source": "IJSN",
        "id": "node/4024904830"
      },
      "geometry": {
        "type": "Point",
        "coordinates": [
          -41.0158719,
          -18.8889645
        ]
      }
    },
    {
      "type": "Feature",
      "id": "node/4024905087",
      "properties": {
        "timestamp": "2016-02-25T02:00:02Z",
        "version": 1,
        "changeset": 37426154,
        "IJSN:administra": "Municipal",
        "IJSN:classeCnae": "Infantil e Fundamental",
        "addr:city": "Mantenópolis",
        "addr:postcode": "29770-000",
        "addr:street": "Rua Valdevino Pereira de Souza",
        "addr:suburb": "Cidade Nova",
        "alt_name": "Escola Municipal",
        "amenity": "school",
        "contact:phone": "(27) 3758-1910",
        "name": "EM Eliezer Eduardo Ribeiro",
        "source": "IJSN",
        "id": "node/4024905087"
      },
      "geometry": {
        "type": "Point",
        "coordinates": [
          -41.1183195,
          -18.8587855
        ]
      }
    },
    {
      "type": "Feature",
      "id": "node/4024905198",
      "properties": {
        "timestamp": "2016-02-25T02:00:04Z",
        "version": 1,
        "changeset": 37426154,
        "IJSN:administra": "Municipal",
        "IJSN:classeCnae": "Infantil e Fundamental",
        "addr:city": "Mantenópolis",
        "addr:postcode": "29770-000",
        "addr:street": "Rua Francisco de Melo",
        "addr:suburb": "Distrito São José de Mantenópolis",
        "alt_name": "Escola Municipal",
        "amenity": "school",
        "contact:phone": "(27) 3758-5026",
        "name": "EM Luiz Simão",
        "source": "IJSN",
        "id": "node/4024905198"
      },
      "geometry": {
        "type": "Point",
        "coordinates": [
          -41.0778706,
          -18.8935487
        ]
      }
    },
    {
      "type": "Feature",
      "id": "node/4024905202",
      "properties": {
        "timestamp": "2017-02-01T20:21:52Z",
        "version": 2,
        "changeset": 45726486,
        "IJSN:administra": "Municipal",
        "IJSN:classeCnae": "Fundamental",
        "addr:city": "Mantenópolis",
        "addr:postcode": "29770-000",
        "addr:street": "Praça Epaminindas de Freitas",
        "addr:suburb": "Centro",
        "alt_name": "Escola Municipal",
        "amenity": "school",
        "contact:phone": "(27) 3758-1110",
        "name": "EM Professora Adelina Lírio",
        "source": "IJSN",
        "id": "node/4024905202"
      },
      "geometry": {
        "type": "Point",
        "coordinates": [
          -41.1228305,
          -18.8595037
        ]
      }
    },
    {
      "type": "Feature",
      "id": "node/4024905210",
      "properties": {
        "timestamp": "2016-02-25T02:00:06Z",
        "version": 1,
        "changeset": 37426154,
        "IJSN:administra": "Municipal",
        "IJSN:classeCnae": "Fundamental",
        "addr:city": "Mantenópolis",
        "addr:postcode": "29770-000",
        "addr:street": "Rua Messias Gonçalves",
        "addr:suburb": "São Geraldo",
        "alt_name": "Escola Municipal",
        "amenity": "school",
        "contact:phone": "(27) 3758-6025",
        "name": "EM Vicente Amaro da Silva",
        "source": "IJSN",
        "id": "node/4024905210"
      },
      "geometry": {
        "type": "Point",
        "coordinates": [
          -41.2140503,
          -18.8357977
        ]
      }
    },
    {
      "type": "Feature",
      "id": "node/4024905975",
      "properties": {
        "timestamp": "2016-02-25T02:01:23Z",
        "version": 1,
        "changeset": 37426154,
        "IJSN:administra": "Municipal",
        "IJSN:classeCnae": "Fundamental",
        "addr:city": "Mantenópolis",
        "addr:postcode": "29770-000",
        "addr:suburb": "Distrito São José de Mantenópolis",
        "alt_name": "Escola Municipal Família Agrícola",
        "amenity": "school",
        "name": "EMFA Padre Pedro Pase",
        "source": "IJSN",
        "id": "node/4024905975"
      },
      "geometry": {
        "type": "Point",
        "coordinates": [
          -41.0563824,
          -18.9403536
        ]
      }
    },
    {
      "type": "Feature",
      "id": "node/4024906656",
      "properties": {
        "timestamp": "2016-02-25T02:02:21Z",
        "version": 1,
        "changeset": 37426154,
        "IJSN:administra": "Municipal",
        "IJSN:classeCnae": "Fundamental",
        "addr:city": "Mantenópolis",
        "addr:postcode": "29770-000",
        "addr:suburb": "Distrito Santa Luzia de Matenópolis",
        "alt_name": "Escola Pluridocente",
        "amenity": "school",
        "name": "EP Antônio da Silva",
        "source": "IJSN",
        "id": "node/4024906656"
      },
      "geometry": {
        "type": "Point",
        "coordinates": [
          -41.0140809,
          -18.8525495
        ]
      }
    },
    {
      "type": "Feature",
      "id": "node/4024906658",
      "properties": {
        "timestamp": "2016-02-25T02:02:22Z",
        "version": 1,
        "changeset": 37426154,
        "IJSN:administra": "Municipal",
        "IJSN:classeCnae": "Fundamental",
        "addr:city": "Mantenópolis",
        "addr:postcode": "29770-000",
        "addr:suburb": "São José",
        "alt_name": "Escola Pluridocente",
        "amenity": "school",
        "name": "EP Cabeceira do Córrego Frio",
        "source": "IJSN",
        "id": "node/4024906658"
      },
      "geometry": {
        "type": "Point",
        "coordinates": [
          -41.058418,
          -18.8452347
        ]
      }
    },
    {
      "type": "Feature",
      "id": "node/4024906659",
      "properties": {
        "timestamp": "2016-02-25T02:02:22Z",
        "version": 1,
        "changeset": 37426154,
        "IJSN:administra": "Municipal",
        "IJSN:classeCnae": "Fundamental",
        "addr:city": "Mantenópolis",
        "addr:postcode": "29770-000",
        "addr:suburb": "Córrego Manteninha",
        "alt_name": "Escola Pluridocente",
        "amenity": "school",
        "name": "EP Córrego do Manteninha",
        "source": "IJSN",
        "id": "node/4024906659"
      },
      "geometry": {
        "type": "Point",
        "coordinates": [
          -41.0967122,
          -18.8587401
        ]
      }
    },
    {
      "type": "Feature",
      "id": "node/4024906660",
      "properties": {
        "timestamp": "2016-02-25T02:02:22Z",
        "version": 1,
        "changeset": 37426154,
        "IJSN:administra": "Municipal",
        "IJSN:classeCnae": "Fundamental",
        "addr:city": "Mantenópolis",
        "addr:postcode": "29770-000",
        "addr:suburb": "Distrito São José de Mantenópolis",
        "alt_name": "Escola Pluridocente",
        "amenity": "school",
        "name": "EP Córrego do Ouro",
        "source": "IJSN",
        "id": "node/4024906660"
      },
      "geometry": {
        "type": "Point",
        "coordinates": [
          -41.0490468,
          -18.8916054
        ]
      }
    },
    {
      "type": "Feature",
      "id": "node/4024906662",
      "properties": {
        "timestamp": "2016-02-25T02:02:22Z",
        "version": 1,
        "changeset": 37426154,
        "IJSN:administra": "Municipal",
        "IJSN:classeCnae": "Fundamental",
        "addr:city": "Mantenópolis",
        "addr:postcode": "29770-000",
        "addr:suburb": "Distrito Santa Luzia de Matenópolis",
        "alt_name": "Escola Pluridocente",
        "amenity": "school",
        "name": "EP Fazenda Valente",
        "source": "IJSN",
        "id": "node/4024906662"
      },
      "geometry": {
        "type": "Point",
        "coordinates": [
          -41.0147223,
          -18.8601557
        ]
      }
    },
    {
      "type": "Feature",
      "id": "node/4024906824",
      "properties": {
        "timestamp": "2016-02-25T02:02:32Z",
        "version": 1,
        "changeset": 37426154,
        "IJSN:administra": "Municipal",
        "IJSN:classeCnae": "Fundamental",
        "addr:city": "Mantenópolis",
        "addr:postcode": "29770-000",
        "addr:suburb": "Distrito São José de Mantenópolis",
        "alt_name": "Escola Unidocente",
        "amenity": "school",
        "name": "EU Barra do Capim",
        "source": "IJSN",
        "id": "node/4024906824"
      },
      "geometry": {
        "type": "Point",
        "coordinates": [
          -41.121867,
          -18.8993983
        ]
      }
    },
    {
      "type": "Feature",
      "id": "node/4024906832",
      "properties": {
        "timestamp": "2016-02-25T02:02:33Z",
        "version": 1,
        "changeset": 37426154,
        "IJSN:administra": "Municipal",
        "IJSN:classeCnae": "Fundamental",
        "addr:city": "Mantenópolis",
        "addr:postcode": "29770-000",
        "addr:suburb": "Distrito Santa Luzia de Matenópolis",
        "alt_name": "Escola Unidocente",
        "amenity": "school",
        "name": "EU Nossa Senhora da Penha",
        "source": "IJSN",
        "id": "node/4024906832"
      },
      "geometry": {
        "type": "Point",
        "coordinates": [
          -40.9677205,
          -18.9061956
        ]
      }
    }
  ]
}
