{
  "type": "FeatureCollection",
  "features": [
    {
      "type": "Feature",
      "id": "node/6237275659",
      "properties": {
        "timestamp": "2019-07-15T18:32:26Z",
        "version": 2,
        "changeset": 72277349,
        "addr:housenumber": "538",
        "addr:street": "Rua cel joão luiz Nascimento",
        "amenity": "dentist",
        "name": "Dra.Alba Marilene Menezes",
        "opening_hours": "Tu, Th, Fr 16:00-19:00",
        "phone": "+55 55 3356-1422",
        "id": "node/6237275659"
      },
      "geometry": {
        "type": "Point",
        "coordinates": [
          -54.9099908,
          -28.7287024
        ]
      }
    },
    {
      "type": "Feature",
      "id": "node/6237862944",
      "properties": {
        "timestamp": "2019-07-15T18:32:26Z",
        "version": 2,
        "changeset": 72277349,
        "amenity": "dentist",
        "name": "Df. Elvio A. Gomes",
        "phone": "+55 55 3356-1466",
        "id": "node/6237862944"
      },
      "geometry": {
        "type": "Point",
        "coordinates": [
          -54.909187,
          -28.7297055
        ]
      }
    },
    {
      "type": "Feature",
      "id": "node/9275207545",
      "properties": {
        "timestamp": "2021-11-22T14:57:06Z",
        "version": 1,
        "changeset": 114102030,
        "addr:city": "Bossoroca",
        "addr:housenumber": "147",
        "addr:postcode": "97850-000",
        "addr:street": "Rua Coronel João Luiz Nascimento",
        "addr:suburb": "Centro",
        "amenity": "dentist",
        "healthcare": "dentist",
        "name": "Trivillá Odontologia Especializada",
        "opening_hours": "Mo-Fr 08:00-19:00",
        "id": "node/9275207545"
      },
      "geometry": {
        "type": "Point",
        "coordinates": [
          -54.9074798,
          -28.7311429
        ]
      }
    }
  ]
}
