{
  "type": "FeatureCollection",
  "features": [
    {
      "type": "Feature",
      "id": "node/6237738930",
      "properties": {
        "timestamp": "2020-03-04T17:12:07Z",
        "version": 3,
        "changeset": 81785615,
        "addr:housenumber": "152",
        "addr:street": "R. João Gonçalves, 152, Bossoroca - RS, 97850-000",
        "name": "ACIB- Associação Comercios Industrias De Bossoroca",
        "office": "government",
        "phone": "+55 55 3356-1414",
        "id": "node/6237738930"
      },
      "geometry": {
        "type": "Point",
        "coordinates": [
          -54.9102222,
          -28.7304858
        ]
      }
    },
    {
      "type": "Feature",
      "id": "node/6237870416",
      "properties": {
        "timestamp": "2020-01-24T02:12:01Z",
        "version": 3,
        "changeset": 80002587,
        "addr:housenumber": "252",
        "name": "Oficio dos Registros Pùblicos",
        "office": "government",
        "opening_hours": "Mo-Fr 08:30-17:30",
        "phone": "+55 55 3356-1413",
        "id": "node/6237870416"
      },
      "geometry": {
        "type": "Point",
        "coordinates": [
          -54.9111497,
          -28.7289726
        ]
      }
    },
    {
      "type": "Feature",
      "id": "node/7142098290",
      "properties": {
        "timestamp": "2020-03-04T17:12:07Z",
        "version": 3,
        "changeset": 81785615,
        "addr:housenumber": "594",
        "addr:street": "Rua Dr. Alves Valemça 594",
        "name": "Tabelionato de Notas",
        "office": "government",
        "opening_hours": "Mo-Fr 08:00-17:00",
        "phone": "+55 55 3356-1271",
        "id": "node/7142098290"
      },
      "geometry": {
        "type": "Point",
        "coordinates": [
          -54.9089966,
          -28.7317104
        ]
      }
    },
    {
      "type": "Feature",
      "id": "node/7155237261",
      "properties": {
        "timestamp": "2020-03-04T17:12:07Z",
        "version": 2,
        "changeset": 81785615,
        "addr:housenumber": "252",
        "addr:street": "R. João Fagundes, 252, Bossoroca - RS, 97850-000",
        "name": "Ofício dos Registros Públicos",
        "office": "government",
        "opening_hours": "Mo-Fr 09:00-17:00",
        "phone": "+55 55 3356-1413",
        "id": "node/7155237261"
      },
      "geometry": {
        "type": "Point",
        "coordinates": [
          -54.9111214,
          -28.7289925
        ]
      }
    },
    {
      "type": "Feature",
      "id": "node/7155366972",
      "properties": {
        "timestamp": "2022-02-06T15:59:57Z",
        "version": 3,
        "changeset": 117084583,
        "addr:housenumber": "275",
        "addr:street": "R. Manoel Ferreira Antunes, 275, Bossoroca - RS, 97850-000",
        "name": "Emater/RS-Ascar Escritório Municipal",
        "office": "government",
        "opening_hours": "Mo-Fr 08:00-12:00,13:30-17:30",
        "phone": "+55 55 99968-8752",
        "website": "http://www.emater.tche.br/",
        "id": "node/7155366972"
      },
      "geometry": {
        "type": "Point",
        "coordinates": [
          -54.909729,
          -28.7293606
        ]
      }
    },
    {
      "type": "Feature",
      "id": "node/7155444533",
      "properties": {
        "timestamp": "2020-03-04T17:12:07Z",
        "version": 2,
        "changeset": 81785615,
        "addr:housenumber": "296",
        "addr:street": "R. João Gonçalves, 296, Bossoroca - RS, 97850-970",
        "name": "IPERGS",
        "office": "government",
        "opening_hours": "Mo-Fr 08:00-16:30",
        "phone": "+55 55 3356-1200",
        "website": "http://www.ipe.rs.gov.br/",
        "id": "node/7155444533"
      },
      "geometry": {
        "type": "Point",
        "coordinates": [
          -54.9101257,
          -28.730444
        ]
      }
    },
    {
      "type": "Feature",
      "id": "node/7243606473",
      "properties": {
        "timestamp": "2020-03-04T17:12:07Z",
        "version": 2,
        "changeset": 81785615,
        "name": "Conselho de Assistência Social de Bossoroca",
        "office": "government",
        "phone": "+55 55 3356-4024",
        "id": "node/7243606473"
      },
      "geometry": {
        "type": "Point",
        "coordinates": [
          -54.909751,
          -28.7317451
        ]
      }
    },
    {
      "type": "Feature",
      "id": "node/7243939301",
      "properties": {
        "timestamp": "2020-03-04T17:12:07Z",
        "version": 2,
        "changeset": 81785615,
        "addr:housenumber": "29 Sala 2",
        "addr:street": "R.João Gonçalves",
        "name": "Conselho Tutelar de Bossoroca",
        "office": "government",
        "phone": "+55 55 3356-1917",
        "id": "node/7243939301"
      },
      "geometry": {
        "type": "Point",
        "coordinates": [
          -54.9084811,
          -28.7320758
        ]
      }
    },
    {
      "type": "Feature",
      "id": "node/7245784644",
      "properties": {
        "timestamp": "2022-10-11T14:22:15Z",
        "version": 3,
        "changeset": 127363384,
        "addr:city": "Bossoroca",
        "addr:housenumber": "296",
        "addr:postcode": "97850-000",
        "addr:street": "Rua João Goncalves",
        "addr:suburb": "Centro",
        "name": "Camara de Vereadores",
        "office": "government",
        "phone": "+55 55 3356-1384",
        "id": "node/7245784644"
      },
      "geometry": {
        "type": "Point",
        "coordinates": [
          -54.9100863,
          -28.7301155
        ]
      }
    },
    {
      "type": "Feature",
      "id": "node/7606282368",
      "properties": {
        "timestamp": "2020-06-09T16:19:33Z",
        "version": 1,
        "changeset": 86417673,
        "addr:housenumber": "339",
        "addr:street": "Rua João Fabricio da Silva,",
        "name": "Secreraria de Saúde",
        "office": "government",
        "opening_hours": "Mo-Fr 08:00-12:00, 13:30-16:00",
        "phone": "+555533561175",
        "id": "node/7606282368"
      },
      "geometry": {
        "type": "Point",
        "coordinates": [
          -54.9054747,
          -28.7290759
        ]
      }
    }
  ]
}
