{
  "type": "FeatureCollection",
  "features": [
    {
      "type": "Feature",
      "id": "way/874810953",
      "properties": {
        "timestamp": "2020-11-19T17:14:19Z",
        "version": 1,
        "changeset": 94451238,
        "building": "yes",
        "name": "Ímpar Suítes Barão de Cocais",
        "tourism": "hotel",
        "id": "way/874810953"
      },
      "geometry": {
        "type": "Polygon",
        "coordinates": [
          [
            [
              -43.4731405,
              -19.9383084
            ],
            [
              -43.4731378,
              -19.9386273
            ],
            [
              -43.4730288,
              -19.9386311
            ],
            [
              -43.4730261,
              -19.9385742
            ],
            [
              -43.4728659,
              -19.9385793
            ],
            [
              -43.4728659,
              -19.9383097
            ],
            [
              -43.4731405,
              -19.9383084
            ]
          ]
        ]
      }
    },
    {
      "type": "Feature",
      "id": "node/10045243488",
      "properties": {
        "timestamp": "2022-09-22T16:45:38Z",
        "version": 2,
        "changeset": 126513361,
        "addr:city": "Barão de Cocais",
        "addr:housenumber": "270",
        "addr:postcode": "35970-000",
        "addr:street": "Rua Aristides Augusta da Fonseca",
        "addr:suburb": "Cocais",
        "name": "Pousada, Bar e Restaurante Vila Cocais",
        "tourism": "hotel",
        "id": "node/10045243488"
      },
      "geometry": {
        "type": "Point",
        "coordinates": [
          -43.4544724,
          -19.863188
        ]
      }
    },
    {
      "type": "Feature",
      "id": "node/10048126210",
      "properties": {
        "timestamp": "2022-09-23T20:37:01Z",
        "version": 1,
        "changeset": 126563050,
        "addr:city": "Barão de Cocais",
        "addr:postcode": "35970-000",
        "addr:street": "Rua Conceição Caldeira",
        "name": "Hotel Real",
        "tourism": "hotel",
        "id": "node/10048126210"
      },
      "geometry": {
        "type": "Point",
        "coordinates": [
          -43.476374,
          -19.9353912
        ]
      }
    }
  ]
}
