{
  "type": "FeatureCollection",
  "features": [
    {
      "type": "Feature",
      "id": "node/5662193002",
      "properties": {
        "timestamp": "2018-06-04T00:45:29Z",
        "version": 1,
        "changeset": 59520137,
        "amenity": "dentist",
        "healthcare": "dentist",
        "name": "Dr. Carlos Alberto Monfardini",
        "phone": "+5532998320002",
        "id": "node/5662193002"
      },
      "geometry": {
        "type": "Point",
        "coordinates": [
          -43.0118035,
          -21.5369377
        ]
      }
    },
    {
      "type": "Feature",
      "id": "node/8002163860",
      "properties": {
        "timestamp": "2022-07-28T21:13:29Z",
        "version": 2,
        "changeset": 124203844,
        "addr:city": "São João Nepomuceno",
        "addr:housenumber": "83, segundo andar",
        "addr:postcode": "36680-000",
        "addr:street": "Praça Carlos Alves",
        "addr:suburb": "centro",
        "amenity": "dentist",
        "healthcare": "dentist",
        "healthcare:speciality": "Ortodontia;Botox;Preenchimento;Cirurgiã-Dentista",
        "name": "Consultorio Odontológico dra. Patrícia Henriques",
        "opening_hours": "seg-sex 09h as 19h",
        "operator": "Patrícia Henriques",
        "phone": "+55 32 3261 5297",
        "id": "node/8002163860"
      },
      "geometry": {
        "type": "Point",
        "coordinates": [
          -43.0133171,
          -21.5367357
        ]
      }
    }
  ]
}
