{
  "type": "FeatureCollection",
  "features": [
    {
      "type": "Feature",
      "id": "node/3227114441",
      "properties": {
        "timestamp": "2020-10-13T06:13:22Z",
        "version": 2,
        "changeset": 92390091,
        "addr:city": "São João Nepomuceno",
        "addr:postcode": "36680000",
        "addr:street": "Praça Carlos Alves",
        "addr:suburb": "Centro",
        "amenity": "pharmacy",
        "healthcare": "pharmacy",
        "name": "Oswaldo Cruz",
        "operator": "Oswaldo Cruz",
        "id": "node/3227114441"
      },
      "geometry": {
        "type": "Point",
        "coordinates": [
          -43.0133762,
          -21.5366119
        ]
      }
    },
    {
      "type": "Feature",
      "id": "node/5657090952",
      "properties": {
        "timestamp": "2018-06-01T19:28:14Z",
        "version": 1,
        "changeset": 59470367,
        "addr:city": "São João Nepomuceno",
        "addr:postcode": "36680000",
        "addr:suburb": "Centro",
        "amenity": "pharmacy",
        "drive_through": "no",
        "healthcare": "pharmacy",
        "name": "Drogão Xaumar",
        "payment:cash": "yes",
        "payment:credit_cards": "yes",
        "phone": "+553232614144",
        "id": "node/5657090952"
      },
      "geometry": {
        "type": "Point",
        "coordinates": [
          -43.0128425,
          -21.5369151
        ]
      }
    },
    {
      "type": "Feature",
      "id": "node/5657676421",
      "properties": {
        "timestamp": "2018-06-02T03:34:51Z",
        "version": 1,
        "changeset": 59476391,
        "addr:city": "São João Nepomuceno",
        "addr:postcode": "36680000",
        "addr:suburb": "Centro",
        "amenity": "pharmacy",
        "dispensing": "yes",
        "drive_through": "no",
        "healthcare": "pharmacy",
        "name": "Drogaria Polyfarma",
        "phone": "+553232611352",
        "id": "node/5657676421"
      },
      "geometry": {
        "type": "Point",
        "coordinates": [
          -43.0126602,
          -21.5369145
        ]
      }
    },
    {
      "type": "Feature",
      "id": "node/5657676430",
      "properties": {
        "timestamp": "2020-10-13T06:13:22Z",
        "version": 2,
        "changeset": 92390091,
        "addr:city": "São João Nepomuceno",
        "addr:housenumber": "Lj 06",
        "addr:postcode": "36680000",
        "addr:street": "Praça Carlos Alves, Edíficio nº 1",
        "addr:suburb": "Centro",
        "amenity": "pharmacy",
        "dispensing": "no",
        "drive_through": "no",
        "healthcare": "pharmacy",
        "name": "Drogaria Magistral",
        "operator": "Rede Magostral",
        "payment:cash": "yes",
        "payment:credit_cards": "yes",
        "phone": "+553232611330",
        "id": "node/5657676430"
      },
      "geometry": {
        "type": "Point",
        "coordinates": [
          -43.0130437,
          -21.5368978
        ]
      }
    },
    {
      "type": "Feature",
      "id": "node/5662192981",
      "properties": {
        "timestamp": "2018-06-04T00:45:27Z",
        "version": 1,
        "changeset": 59520137,
        "amenity": "pharmacy",
        "dispensing": "no",
        "healthcare": "pharmacy",
        "name": "Drogaria KA",
        "phone": "+553232614414",
        "id": "node/5662192981"
      },
      "geometry": {
        "type": "Point",
        "coordinates": [
          -43.0126107,
          -21.5368103
        ]
      }
    },
    {
      "type": "Feature",
      "id": "node/5662192984",
      "properties": {
        "timestamp": "2018-06-04T00:45:27Z",
        "version": 1,
        "changeset": 59520137,
        "amenity": "pharmacy",
        "dispensing": "no",
        "healthcare": "pharmacy",
        "name": "Drogaria Garbosa",
        "operator": "Rede Inova",
        "phone": "+553232613130",
        "id": "node/5662192984"
      },
      "geometry": {
        "type": "Point",
        "coordinates": [
          -43.0118062,
          -21.536672
        ]
      }
    },
    {
      "type": "Feature",
      "id": "node/5662192988",
      "properties": {
        "timestamp": "2018-06-04T00:45:28Z",
        "version": 1,
        "changeset": 59520137,
        "amenity": "pharmacy",
        "dispensing": "no",
        "healthcare": "pharmacy",
        "name": "Drogaria Americana",
        "phone": "+553232617377",
        "id": "node/5662192988"
      },
      "geometry": {
        "type": "Point",
        "coordinates": [
          -43.0115862,
          -21.5368492
        ]
      }
    },
    {
      "type": "Feature",
      "id": "node/5662192999",
      "properties": {
        "timestamp": "2018-06-04T00:45:28Z",
        "version": 1,
        "changeset": 59520137,
        "amenity": "pharmacy",
        "dispensing": "no",
        "healthcare": "pharmacy",
        "name": "Drogaria São Judas Tadeu",
        "phone": "+553232612574",
        "id": "node/5662192999"
      },
      "geometry": {
        "type": "Point",
        "coordinates": [
          -43.0112858,
          -21.5368354
        ]
      }
    },
    {
      "type": "Feature",
      "id": "node/5720106759",
      "properties": {
        "timestamp": "2018-06-26T11:16:15Z",
        "version": 1,
        "changeset": 60178893,
        "amenity": "pharmacy",
        "dispensing": "yes",
        "healthcare": "pharmacy",
        "name": "Drogaria Avenida",
        "operator": "Farma Popular",
        "phone": "+553232613171",
        "id": "node/5720106759"
      },
      "geometry": {
        "type": "Point",
        "coordinates": [
          -43.0144195,
          -21.5283548
        ]
      }
    }
  ]
}
