{
  "type": "FeatureCollection",
  "features": [
    {
      "type": "Feature",
      "id": "way/588178684",
      "properties": {
        "timestamp": "2022-09-13T00:13:50Z",
        "version": 4,
        "changeset": 126109385,
        "addr:city": "Guaramirim",
        "addr:housenumber": "222",
        "addr:postcode": "89270-000",
        "addr:street": "Rua Irineu Vilela Veiga",
        "addr:suburb": "Centro",
        "building": "yes",
        "building:levels": "2",
        "government": "public_service",
        "name": "Secretaria de Desenvolvimento Social e Habitação",
        "office": "government",
        "id": "way/588178684"
      },
      "geometry": {
        "type": "Polygon",
        "coordinates": [
          [
            [
              -48.9957204,
              -26.474479
            ],
            [
              -48.9957265,
              -26.4746847
            ],
            [
              -48.9953366,
              -26.474694
            ],
            [
              -48.9953305,
              -26.4744882
            ],
            [
              -48.9957204,
              -26.474479
            ]
          ]
        ]
      }
    },
    {
      "type": "Feature",
      "id": "way/588179327",
      "properties": {
        "timestamp": "2022-06-08T13:41:27Z",
        "version": 7,
        "changeset": 122119440,
        "addr:city": "Guaramirim",
        "addr:housenumber": "2042",
        "addr:postcode": "89270-000",
        "addr:street": "Rua 28 de Agosto",
        "addr:suburb": "Centro",
        "building": "yes",
        "government": "legislative",
        "name": "Câmara de Vereadores de Guaramirim",
        "office": "government",
        "phone": "+55 47 3373-0002",
        "website": "https://www.cmg.sc.gov.br",
        "id": "way/588179327"
      },
      "geometry": {
        "type": "Polygon",
        "coordinates": [
          [
            [
              -48.9946282,
              -26.472647
            ],
            [
              -48.9945675,
              -26.4727656
            ],
            [
              -48.9945221,
              -26.4728559
            ],
            [
              -48.9943829,
              -26.4727998
            ],
            [
              -48.9945224,
              -26.4725228
            ],
            [
              -48.9946623,
              -26.4725793
            ],
            [
              -48.9946282,
              -26.472647
            ]
          ]
        ]
      }
    },
    {
      "type": "Feature",
      "id": "way/588179888",
      "properties": {
        "timestamp": "2020-03-21T21:18:08Z",
        "version": 2,
        "changeset": 82470409,
        "addr:city": "Guaramirim",
        "addr:housenumber": "90",
        "addr:postcode": "89270-000",
        "addr:street": "Rua Nelson Luiz Rosa de Bem",
        "addr:suburb": "Centro",
        "building": "yes",
        "government": "yes",
        "name": "Instituto Nacional do Seguro Social",
        "office": "government",
        "id": "way/588179888"
      },
      "geometry": {
        "type": "Polygon",
        "coordinates": [
          [
            [
              -49.0004988,
              -26.476317
            ],
            [
              -49.0004129,
              -26.4765115
            ],
            [
              -49.0000294,
              -26.4763627
            ],
            [
              -49.0001152,
              -26.4761802
            ],
            [
              -49.0004988,
              -26.476317
            ]
          ]
        ]
      }
    },
    {
      "type": "Feature",
      "id": "way/588184606",
      "properties": {
        "timestamp": "2018-05-14T17:30:42Z",
        "version": 1,
        "changeset": 58959645,
        "addr:city": "Guaramirim",
        "addr:postcode": "89270-000",
        "addr:street": "Rua Ernesto Pisetta",
        "addr:suburb": "Centro",
        "building": "yes",
        "government": "yes",
        "name": "Conselho Tutelar de Guaramirim",
        "office": "government",
        "id": "way/588184606"
      },
      "geometry": {
        "type": "Polygon",
        "coordinates": [
          [
            [
              -49.0051162,
              -26.4708474
            ],
            [
              -49.0051244,
              -26.4709584
            ],
            [
              -49.0048865,
              -26.4709565
            ],
            [
              -49.0048825,
              -26.470851
            ],
            [
              -49.0051162,
              -26.4708474
            ]
          ]
        ]
      }
    },
    {
      "type": "Feature",
      "id": "way/703234507",
      "properties": {
        "timestamp": "2019-07-10T23:38:56Z",
        "version": 1,
        "changeset": 72114146,
        "addr:city": "Guaramirim",
        "addr:housenumber": "44",
        "addr:postcode": "89270-000",
        "addr:street": "Rua Vereador Romeu Butschardt",
        "addr:suburb": "Centro",
        "building": "yes",
        "government": "register_office",
        "name": "Cartório de Registro Civil de Guaramirim",
        "office": "government",
        "id": "way/703234507"
      },
      "geometry": {
        "type": "Polygon",
        "coordinates": [
          [
            [
              -49.0016313,
              -26.474621
            ],
            [
              -49.0015863,
              -26.4747323
            ],
            [
              -49.0014141,
              -26.4746764
            ],
            [
              -49.0014591,
              -26.4745652
            ],
            [
              -49.0016313,
              -26.474621
            ]
          ]
        ]
      }
    },
    {
      "type": "Feature",
      "id": "node/4059035485",
      "properties": {
        "timestamp": "2022-09-22T14:46:08Z",
        "version": 6,
        "changeset": 126508635,
        "alt_name": "5º/3º/4ª/7ºBBM;SAT;Seção de Atividades Técnicas",
        "contact:phone": "+55 47 3163-1318",
        "contact:website": "https://www.cbm.sc.gov.br/",
        "government": "fire_service",
        "name": "Serviço de Segurança Contra Incêndio",
        "office": "government",
        "operator": "Corpo de Bombeiros Militar de Santa Catarina",
        "operator:short": "CBMSC",
        "operator:type": "public",
        "operator:wikidata": "Q768967",
        "owner": "Governo do Estado de Santa Catarina",
        "ownership": "state",
        "short_name": "SSCI",
        "id": "node/4059035485"
      },
      "geometry": {
        "type": "Point",
        "coordinates": [
          -48.9953877,
          -26.474635
        ]
      }
    },
    {
      "type": "Feature",
      "id": "node/5266077521",
      "properties": {
        "timestamp": "2022-07-09T22:07:18Z",
        "version": 5,
        "changeset": 123415188,
        "addr:city": "Guaramirim",
        "addr:housenumber": "415",
        "addr:postcode": "89270-000",
        "addr:street": "Rua Henrique Friedmann",
        "addr:suburb": "Centro",
        "government": "healthcare",
        "name": "Secretaria Municipal de Saúde de Guaramirim",
        "office": "government",
        "id": "node/5266077521"
      },
      "geometry": {
        "type": "Point",
        "coordinates": [
          -49.0057629,
          -26.4784211
        ]
      }
    },
    {
      "type": "Feature",
      "id": "node/5617953425",
      "properties": {
        "timestamp": "2022-09-10T17:50:29Z",
        "version": 2,
        "changeset": 126024934,
        "addr:city": "Guaramirim",
        "addr:postcode": "89270-000",
        "addr:street": "Rua Athanásio Rosa",
        "addr:suburb": "Centro",
        "government": "recruitment",
        "name": "Junta do Serviço Militar de Guaramirim",
        "office": "government",
        "id": "node/5617953425"
      },
      "geometry": {
        "type": "Point",
        "coordinates": [
          -48.9957793,
          -26.4754938
        ]
      }
    },
    {
      "type": "Feature",
      "id": "node/6604053832",
      "properties": {
        "timestamp": "2021-11-08T15:49:51Z",
        "version": 2,
        "changeset": 113528025,
        "addr:city": "Guaramirim",
        "addr:housenumber": "1918",
        "addr:postcode": "89270-000",
        "addr:street": "Rua 28 de Agosto",
        "addr:suburb": "Centro",
        "government": "register_office",
        "name": "Cartório de Registro de Imóveis",
        "office": "government",
        "id": "node/6604053832"
      },
      "geometry": {
        "type": "Point",
        "coordinates": [
          -48.9955885,
          -26.4730035
        ]
      }
    }
  ]
}
