{
  "type": "FeatureCollection",
  "features": [
    {
      "type": "Feature",
      "id": "way/486128468",
      "properties": {
        "timestamp": "2022-09-19T00:29:03Z",
        "version": 3,
        "changeset": 126348920,
        "addr:city": "Guaramirim",
        "addr:housenumber": "149",
        "addr:postcode": "89270-000",
        "addr:street": "Rua Herwino Hanemann",
        "addr:suburb": "Avaí",
        "alt_name": "Centro de Referência de Assistência Social Avaí",
        "amenity": "social_facility",
        "building": "public",
        "name": "CRAS Avaí",
        "social_facility": "day_care",
        "social_facility:for": "underprivileged",
        "id": "way/486128468"
      },
      "geometry": {
        "type": "Polygon",
        "coordinates": [
          [
            [
              -48.97563,
              -26.4687238
            ],
            [
              -48.975514,
              -26.4685691
            ],
            [
              -48.9756328,
              -26.4684978
            ],
            [
              -48.9756588,
              -26.4685326
            ],
            [
              -48.975637,
              -26.4685457
            ],
            [
              -48.9757268,
              -26.4686656
            ],
            [
              -48.97563,
              -26.4687238
            ]
          ]
        ]
      }
    },
    {
      "type": "Feature",
      "id": "way/517114241",
      "properties": {
        "timestamp": "2017-08-21T00:25:32Z",
        "version": 2,
        "changeset": 51288459,
        "addr:city": "Guaramirim",
        "addr:street": "Rodovia Guilherme Jensen",
        "amenity": "social_facility",
        "building": "residential",
        "name": "Casa de Catequese Irmãs Catequistas Franciscanas",
        "source": "survey",
        "survey_date": "2017-08-20",
        "id": "way/517114241"
      },
      "geometry": {
        "type": "Polygon",
        "coordinates": [
          [
            [
              -48.9828745,
              -26.5210623
            ],
            [
              -48.9828741,
              -26.5211679
            ],
            [
              -48.9826099,
              -26.5211671
            ],
            [
              -48.9826103,
              -26.5210615
            ],
            [
              -48.9828745,
              -26.5210623
            ]
          ]
        ]
      }
    },
    {
      "type": "Feature",
      "id": "node/5617944693",
      "properties": {
        "timestamp": "2022-07-20T19:02:17Z",
        "version": 3,
        "changeset": 123863719,
        "addr:city": "Guaramirim",
        "addr:housenumber": "2271",
        "addr:postcode": "89270-000",
        "addr:street": "Rua 28 de Agosto",
        "addr:suburb": "Centro",
        "amenity": "social_facility",
        "name": "Rede Feminina de Combate ao Câncer de Guaramirim",
        "short_name": "RFCC Guaramirim",
        "social_facility": "assisted_living",
        "social_facility:for": "diseased",
        "id": "node/5617944693"
      },
      "geometry": {
        "type": "Point",
        "coordinates": [
          -48.9925094,
          -26.472185
        ]
      }
    }
  ]
}
