{
  "type": "FeatureCollection",
  "features": [
    {
      "type": "Feature",
      "id": "way/1104759476",
      "properties": {
        "timestamp": "2023-01-08T02:53:08Z",
        "version": 3,
        "changeset": 131001710,
        "access": "yes",
        "addr:city": "Papanduva",
        "addr:postcode": "89370-000",
        "addr:street": "Rua Vereador Otávio João Wunche",
        "addr:suburb": "Rondinha",
        "alt_name": "Unidade Central de Saúde PSF",
        "amenity": "clinic",
        "brand": "Sistema Único de Saúde",
        "brand:short": "SUS",
        "brand:wikidata": "Q7531056",
        "brand:wikipedia": "pt:Sistema Único de Saúde",
        "building": "yes",
        "healthcare": "clinic",
        "loc_name": "Posto de Saúde Rondinha",
        "name": "Estratégia de Saúde da Família Dona Izabel",
        "opening_hours": "Mo-Fr 08:00-16:30; Sa,Su,PH off",
        "operator": "Prefeitura Municipal de Papanduva",
        "operator:type": "government",
        "phone": "+55 47 3653-1758",
        "ref:CNES": "2815796",
        "short_name": "ESF Dona Izabel",
        "id": "way/1104759476"
      },
      "geometry": {
        "type": "Polygon",
        "coordinates": [
          [
            [
              -50.1285171,
              -26.4126087
            ],
            [
              -50.1283568,
              -26.4126766
            ],
            [
              -50.1283085,
              -26.4125851
            ],
            [
              -50.1284688,
              -26.4125172
            ],
            [
              -50.1285171,
              -26.4126087
            ]
          ]
        ]
      }
    },
    {
      "type": "Feature",
      "id": "node/8626409973",
      "properties": {
        "timestamp": "2021-04-13T16:12:27Z",
        "version": 1,
        "changeset": 102875428,
        "amenity": "clinic",
        "id": "node/8626409973"
      },
      "geometry": {
        "type": "Point",
        "coordinates": [
          -50.1339421,
          -26.3993973
        ]
      }
    },
    {
      "type": "Feature",
      "id": "node/8626409974",
      "properties": {
        "timestamp": "2023-01-08T02:53:08Z",
        "version": 3,
        "changeset": 131001710,
        "access": "yes",
        "addr:housenumber": "1",
        "addr:street": "Rua Alberto Frederico Filho",
        "amenity": "clinic",
        "brand": "Sistema Único de Saúde",
        "brand:short": "SUS",
        "brand:wikidata": "Q7531056",
        "brand:wikipedia": "pt:Sistema Único de Saúde",
        "contact:phone": "+55 47 3653-1018",
        "healthcare": "clinic",
        "loc_name": "Posto de Saúde São Cristóvão",
        "name": "Estratégia de Saúde da Família Ignácio Pazda",
        "opening_hours": "Mo-Fr 08:00-16:30; Sa,Su,PH off",
        "operator": "Prefeitura Municipal de Papanduva",
        "operator:type": "government",
        "ref:CNES": "4061888",
        "short_name": "ESF Ignácio Pazda",
        "id": "node/8626409974"
      },
      "geometry": {
        "type": "Point",
        "coordinates": [
          -50.1620951,
          -26.3980175
        ]
      }
    },
    {
      "type": "Feature",
      "id": "node/8626409979",
      "properties": {
        "timestamp": "2021-04-13T16:12:27Z",
        "version": 1,
        "changeset": 102875428,
        "amenity": "clinic",
        "id": "node/8626409979"
      },
      "geometry": {
        "type": "Point",
        "coordinates": [
          -50.0983377,
          -26.4502028
        ]
      }
    },
    {
      "type": "Feature",
      "id": "node/8626409980",
      "properties": {
        "timestamp": "2021-04-13T16:12:27Z",
        "version": 1,
        "changeset": 102875428,
        "amenity": "clinic",
        "id": "node/8626409980"
      },
      "geometry": {
        "type": "Point",
        "coordinates": [
          -50.1433022,
          -26.6897257
        ]
      }
    },
    {
      "type": "Feature",
      "id": "node/8626409985",
      "properties": {
        "timestamp": "2023-01-08T02:53:08Z",
        "version": 3,
        "changeset": 131001710,
        "access": "yes",
        "alt_name": "ESF Central",
        "amenity": "clinic",
        "brand": "Sistema Único de Saúde",
        "brand:short": "SUS",
        "brand:wikidata": "Q7531056",
        "brand:wikipedia": "pt:Sistema Único de Saúde",
        "healthcare": "clinic",
        "loc_name": "Posto de Saúde Central",
        "name": "Unidade Central de Saúde",
        "opening_hours": "Mo-Fr 07:30-16:30; Sa,Su,PH off",
        "operator": "Prefeitura Municipal de Papanduva",
        "operator:short": "SUS",
        "operator:type": "government",
        "operator:wikidata": "Q7531056",
        "ref:CNES": "2379155",
        "id": "node/8626409985"
      },
      "geometry": {
        "type": "Point",
        "coordinates": [
          -50.1391947,
          -26.4122552
        ]
      }
    },
    {
      "type": "Feature",
      "id": "node/10259685712",
      "properties": {
        "timestamp": "2023-01-08T02:53:08Z",
        "version": 2,
        "changeset": 131001710,
        "access": "yes",
        "alt_name": "ESF COHAB I;PSF COHAB I",
        "amenity": "clinic",
        "brand": "Sistema Único de Saúde",
        "brand:short": "SUS",
        "brand:wikidata": "Q7531056",
        "brand:wikipedia": "pt:Sistema Único de Saúde",
        "healthcare": "clinic",
        "loc_name": "Posto de Saúde COHAB I",
        "name": "Unidade Básica de Saúde COHAB I",
        "opening_hours": "Mo-Fr 08:00-16:30; Sa,Su,PH off",
        "operator": "Prefeitura Municipal de Papanduva",
        "operator:type": "government",
        "phone": "+55 47 3653-1467",
        "ref:CNES": "5691982",
        "short_name": "UBS COHAB I",
        "id": "node/10259685712"
      },
      "geometry": {
        "type": "Point",
        "coordinates": [
          -50.1179935,
          -26.4183151
        ]
      }
    },
    {
      "type": "Feature",
      "id": "node/10265104516",
      "properties": {
        "timestamp": "2023-01-08T02:53:08Z",
        "version": 2,
        "changeset": 131001710,
        "access": "yes",
        "addr:housenumber": "711",
        "addr:street": "Rua Leoberto Leal",
        "amenity": "clinic",
        "brand": "Sistema Único de Saúde",
        "brand:short": "SUS",
        "brand:wikidata": "Q7531056",
        "brand:wikipedia": "pt:Sistema Único de Saúde",
        "healthcare": "clinic",
        "name": "Policlinica Municipal",
        "opening_hours": "Mo-Fr 08:00-16:30; Sa,Su,PH off",
        "operator": "Prefeitura Municipal de Papanduva",
        "operator:type": "government",
        "phone": "+55 47 3653-2983",
        "ref:CNES": "6395511",
        "id": "node/10265104516"
      },
      "geometry": {
        "type": "Point",
        "coordinates": [
          -50.1403288,
          -26.4092289
        ]
      }
    }
  ]
}
