{
  "type": "FeatureCollection",
  "features": [
    {
      "type": "Feature",
      "id": "node/10095452480",
      "properties": {
        "timestamp": "2023-01-08T02:53:08Z",
        "version": 3,
        "changeset": 131001710,
        "addr:city": "Papanduva",
        "addr:postcode": "89370-000",
        "addr:street": "Rua Ot√°vio Pechebela",
        "addr:suburb": "Tolachinski",
        "amenity": "kindergarten",
        "name": "Grupo Escolar Rubens Alberto Jazar",
        "operator": "Prefeitura Municipal de Papanduva",
        "operator:type": "government",
        "phone": "+55 47 3653-2969",
        "id": "node/10095452480"
      },
      "geometry": {
        "type": "Point",
        "coordinates": [
          -50.1335457,
          -26.4185566
        ]
      }
    },
    {
      "type": "Feature",
      "id": "node/10259640088",
      "properties": {
        "timestamp": "2022-12-13T15:04:07Z",
        "version": 1,
        "changeset": 130039875,
        "amenity": "kindergarten",
        "name": "Cantinho da Alegria",
        "id": "node/10259640088"
      },
      "geometry": {
        "type": "Point",
        "coordinates": [
          -50.143325,
          -26.411228
        ]
      }
    }
  ]
}
