{
  "type": "FeatureCollection",
  "features": [
    {
      "type": "Feature",
      "id": "node/3954361322",
      "properties": {
        "timestamp": "2016-01-18T22:57:15Z",
        "version": 1,
        "changeset": 36669983,
        "IJSN:administra": "Municipal",
        "IJSN:classeCnae": "Infantil",
        "addr:city": "Itarana",
        "addr:postcode": "29620-000",
        "addr:street": "ES - 484",
        "addr:suburb": "Comunidade Baixo Sossego",
        "alt_name": "Creche Municipal",
        "amenity": "kindergarten",
        "name": "Creche Alexandre Onório Pereira",
        "short_name": "CM",
        "source": "IJSN",
        "id": "node/3954361322"
      },
      "geometry": {
        "type": "Point",
        "coordinates": [
          -40.8963868,
          -19.9035106
        ]
      }
    },
    {
      "type": "Feature",
      "id": "node/3954361332",
      "properties": {
        "timestamp": "2016-01-18T22:57:17Z",
        "version": 1,
        "changeset": 36669983,
        "IJSN:administra": "Municipal",
        "IJSN:classeCnae": "Infantil",
        "addr:city": "Itarana",
        "addr:postcode": "29620-000",
        "addr:suburb": "Comunidade Baixo Sossego",
        "alt_name": "Escola Municipal de Educação Infantil",
        "amenity": "kindergarten",
        "name": "EMEI José Luiz Meneghel",
        "short_name": "EMEI",
        "source": "IJSN",
        "id": "node/3954361332"
      },
      "geometry": {
        "type": "Point",
        "coordinates": [
          -40.9213328,
          -19.9186042
        ]
      }
    },
    {
      "type": "Feature",
      "id": "node/3954361333",
      "properties": {
        "timestamp": "2016-01-18T22:57:17Z",
        "version": 1,
        "changeset": 36669983,
        "IJSN:administra": "Municipal",
        "IJSN:classeCnae": "Infantil",
        "addr:city": "Itarana",
        "addr:postcode": "29620-000",
        "addr:suburb": "Comunidade Barra do Limeiro",
        "alt_name": "Escola Municipal de Educação Infantil",
        "amenity": "kindergarten",
        "name": "EMEI Limoeiro de Santo Antônio",
        "short_name": "EMEI",
        "source": "IJSN",
        "id": "node/3954361333"
      },
      "geometry": {
        "type": "Point",
        "coordinates": [
          -40.8229899,
          -19.9570294
        ]
      }
    },
    {
      "type": "Feature",
      "id": "node/3954361334",
      "properties": {
        "timestamp": "2016-01-18T22:57:17Z",
        "version": 1,
        "changeset": 36669983,
        "IJSN:administra": "Municipal",
        "IJSN:classeCnae": "Infantil",
        "addr:city": "Itarana",
        "addr:postcode": "29620-000",
        "addr:street": "ES - 484",
        "addr:suburb": "Comunidade Baixo Sossego",
        "alt_name": "Escola Municipal de Educação Infantil",
        "amenity": "kindergarten",
        "name": "EMEI Padre Bernardo Henrique Niewind (Anexo Rizzi)",
        "short_name": "EMEI",
        "source": "IJSN",
        "id": "node/3954361334"
      },
      "geometry": {
        "type": "Point",
        "coordinates": [
          -40.8971628,
          -19.9037746
        ]
      }
    },
    {
      "type": "Feature",
      "id": "node/3954361335",
      "properties": {
        "timestamp": "2016-01-18T22:57:17Z",
        "version": 1,
        "changeset": 36669983,
        "IJSN:administra": "Municipal",
        "IJSN:classeCnae": "Infantil",
        "addr:city": "Itarana",
        "addr:housenumber": "63",
        "addr:postcode": "29620-000",
        "addr:street": "Rua Martinho Máximo Scardua",
        "addr:suburb": "Centro",
        "alt_name": "Escola Municipal de Educação Infantil",
        "amenity": "kindergarten",
        "contact:phone": "(27) 3720-1801",
        "name": "EMEI Padre Bernardo Henrique Niewind",
        "short_name": "EMEI",
        "source": "IJSN",
        "id": "node/3954361335"
      },
      "geometry": {
        "type": "Point",
        "coordinates": [
          -40.8752442,
          -19.871122
        ]
      }
    }
  ]
}
