{
  "type": "FeatureCollection",
  "features": [
    {
      "type": "Feature",
      "id": "way/979327923",
      "properties": {
        "timestamp": "2021-09-14T18:03:04Z",
        "version": 2,
        "changeset": 111208557,
        "IJSN:administra": "Estadual",
        "IJSN:classeCnae": "Fundamental e Médio",
        "addr:city": "Itarana",
        "addr:country": "BR",
        "addr:postcode": "29620-000",
        "addr:state": "ES",
        "addr:suburb": "Comunidade Barra do Jatibocas",
        "alt_name": "Escola Estadual de Ensino Fundamental e Médio",
        "amenity": "school",
        "contact:phone": "(27) 9709-7901",
        "name": "Escola Estadual de Ensino Fundamental e Médio de  Alto Jatibocas",
        "source": "IJSN",
        "id": "way/979327923"
      },
      "geometry": {
        "type": "Polygon",
        "coordinates": [
          [
            [
              -40.8910876,
              -20.0000283
            ],
            [
              -40.8909849,
              -20.0001903
            ],
            [
              -40.890818,
              -20.0000969
            ],
            [
              -40.8908436,
              -20.0000565
            ],
            [
              -40.8907632,
              -20.0000115
            ],
            [
              -40.8908404,
              -19.9998898
            ],
            [
              -40.8910876,
              -20.0000283
            ]
          ]
        ]
      }
    },
    {
      "type": "Feature",
      "id": "node/2849636043",
      "properties": {
        "timestamp": "2023-05-07T23:40:47Z",
        "version": 6,
        "changeset": 135829787,
        "IJSN:administra": "Municipal",
        "IJSN:classeCnae": "Fundamental",
        "addr:city": "Itarana",
        "addr:country": "BR",
        "addr:postcode": "29620-000",
        "addr:state": "ES",
        "addr:street": "Rua Elias Estevão Colnago",
        "addr:suburb": "Centro",
        "alt_name": "Escola Municipal de Ensino Fundamental",
        "amenity": "school",
        "contact:phone": "+55 27 3720-1027",
        "name": "EMEF Luíza Grimaldi",
        "source": "IJSN",
        "id": "node/2849636043"
      },
      "geometry": {
        "type": "Point",
        "coordinates": [
          -40.8753368,
          -19.8718761
        ]
      }
    },
    {
      "type": "Feature",
      "id": "node/2849637545",
      "properties": {
        "timestamp": "2019-07-11T17:33:19Z",
        "version": 5,
        "changeset": 72146221,
        "IJSN:administra": "Estadual",
        "IJSN:classeCnae": "Fundamental e Médio",
        "addr:city": "Itarana",
        "addr:country": "BR",
        "addr:housenumber": "303",
        "addr:postcode": "29620-000",
        "addr:state": "ES",
        "addr:street": "Rua Valentim de Martin",
        "addr:suburb": "Centro",
        "alt_name": "Escola Estadual de Ensino Fundamental e Médio",
        "amenity": "school",
        "contact:phone": "+55 27 3720-1503;+55 27 3720-1030",
        "name": "EEEFM Professora Aleyde Cosme",
        "source": "IJSN",
        "id": "node/2849637545"
      },
      "geometry": {
        "type": "Point",
        "coordinates": [
          -40.8750915,
          -19.8694705
        ]
      }
    },
    {
      "type": "Feature",
      "id": "node/3445268423",
      "properties": {
        "timestamp": "2016-03-09T19:12:03Z",
        "version": 3,
        "changeset": 37716865,
        "IJSN:administra": "Estadual",
        "IJSN:classeCnae": "Fundamental",
        "addr:city": "Itarana",
        "addr:country": "BR",
        "addr:postcode": "29620-000",
        "addr:state": "ES",
        "addr:suburb": "Comunidade Barra do Limeiro",
        "alt_name": "Escola Estadual de Ensino Fundamental",
        "amenity": "school",
        "name": "EEEF Josué Baldotto",
        "source": "IJSN",
        "id": "node/3445268423"
      },
      "geometry": {
        "type": "Point",
        "coordinates": [
          -40.8231232,
          -19.9570006
        ]
      }
    },
    {
      "type": "Feature",
      "id": "node/3954361321",
      "properties": {
        "timestamp": "2016-03-09T19:11:41Z",
        "version": 2,
        "changeset": 37716865,
        "IJSN:administra": "Privada",
        "IJSN:classeCnae": "Ensino Especial",
        "addr:city": "Itarana",
        "addr:country": "BR",
        "addr:postcode": "29620-000",
        "addr:state": "ES",
        "addr:street": "Praça Carlos Pereira de Aguiar",
        "addr:suburb": "Centro",
        "alt_name": "Centro de Atendimento Educacional Especializado",
        "amenity": "school",
        "contact:phone": "(27) 3720-1390",
        "name": "CAEE Amor Perfeito",
        "source": "IJSN",
        "id": "node/3954361321"
      },
      "geometry": {
        "type": "Point",
        "coordinates": [
          -40.8776912,
          -19.87252
        ]
      }
    },
    {
      "type": "Feature",
      "id": "node/3954361324",
      "properties": {
        "timestamp": "2016-03-09T19:12:25Z",
        "version": 2,
        "changeset": 37716865,
        "IJSN:administra": "Estadual",
        "IJSN:classeCnae": "Fundamental",
        "addr:city": "Itarana",
        "addr:country": "BR",
        "addr:postcode": "29620-000",
        "addr:state": "ES",
        "addr:street": "ES - 484",
        "addr:suburb": "Comunidade Baixo Sossego",
        "alt_name": "Escola Estadual Pluridocente de Ensino Fundamental",
        "amenity": "school",
        "name": "EEPEF Baixo Sossego",
        "source": "IJSN",
        "id": "node/3954361324"
      },
      "geometry": {
        "type": "Point",
        "coordinates": [
          -40.8972877,
          -19.9038925
        ]
      }
    },
    {
      "type": "Feature",
      "id": "node/3954361325",
      "properties": {
        "timestamp": "2016-03-09T19:12:25Z",
        "version": 2,
        "changeset": 37716865,
        "IJSN:administra": "Estadual",
        "IJSN:classeCnae": "Fundamental",
        "addr:city": "Itarana",
        "addr:country": "BR",
        "addr:postcode": "29620-000",
        "addr:state": "ES",
        "addr:suburb": "Comunidade Alto Barra Encoberta",
        "alt_name": "Escola Estadual Pluridocente de Ensino Fundamental",
        "amenity": "school",
        "name": "EEPEF Barra Encoberta",
        "source": "IJSN",
        "id": "node/3954361325"
      },
      "geometry": {
        "type": "Point",
        "coordinates": [
          -40.9448239,
          -20.0472416
        ]
      }
    },
    {
      "type": "Feature",
      "id": "node/3954361326",
      "properties": {
        "timestamp": "2016-03-09T19:12:25Z",
        "version": 2,
        "changeset": 37716865,
        "IJSN:administra": "Estadual",
        "IJSN:classeCnae": "Fundamental",
        "addr:city": "Itarana",
        "addr:country": "BR",
        "addr:postcode": "29620-000",
        "addr:state": "ES",
        "addr:suburb": "Comunidade Baixo Sossego",
        "alt_name": "Escola Estadual Pluridocente de Ensino Fundamental",
        "amenity": "school",
        "name": "EEPEF Bela Veneza",
        "source": "IJSN",
        "id": "node/3954361326"
      },
      "geometry": {
        "type": "Point",
        "coordinates": [
          -40.882361,
          -19.937699
        ]
      }
    },
    {
      "type": "Feature",
      "id": "node/3954361327",
      "properties": {
        "timestamp": "2016-03-09T19:12:28Z",
        "version": 2,
        "changeset": 37716865,
        "IJSN:administra": "Estadual",
        "IJSN:classeCnae": "Fundamental",
        "addr:city": "Itarana",
        "addr:country": "BR",
        "addr:postcode": "29620-000",
        "addr:state": "ES",
        "addr:suburb": "Comunidade Alto Santo Antônio",
        "alt_name": "Escola Estadual Unidocente de Ensino Fundamental",
        "amenity": "school",
        "name": "EEUEF Alto Limoeiro Jatibocas",
        "source": "IJSN",
        "id": "node/3954361327"
      },
      "geometry": {
        "type": "Point",
        "coordinates": [
          -40.8526133,
          -19.9661109
        ]
      }
    },
    {
      "type": "Feature",
      "id": "node/3954361328",
      "properties": {
        "timestamp": "2016-03-09T19:12:29Z",
        "version": 2,
        "changeset": 37716865,
        "IJSN:administra": "Estadual",
        "IJSN:classeCnae": "Fundamental",
        "addr:city": "Itarana",
        "addr:country": "BR",
        "addr:postcode": "29620-000",
        "addr:state": "ES",
        "addr:suburb": "Comunidade Barra do Limeiro",
        "alt_name": "Escola Estadual Unidocente de Ensino Fundamental",
        "amenity": "school",
        "name": "EEUEF Barra do Sossego",
        "source": "IJSN",
        "id": "node/3954361328"
      },
      "geometry": {
        "type": "Point",
        "coordinates": [
          -40.8904144,
          -19.8518326
        ]
      }
    },
    {
      "type": "Feature",
      "id": "node/3954361329",
      "properties": {
        "timestamp": "2016-03-09T19:12:30Z",
        "version": 2,
        "changeset": 37716865,
        "IJSN:administra": "Estadual",
        "IJSN:classeCnae": "Fundamental",
        "addr:city": "Itarana",
        "addr:country": "BR",
        "addr:postcode": "29620-000",
        "addr:state": "ES",
        "addr:suburb": "Comunidade Barra do Jatibocas",
        "alt_name": "Escola Estadual Unidocente de Ensino Fundamental",
        "amenity": "school",
        "name": "EEUEF Fazenda Franz Sthur",
        "source": "IJSN",
        "id": "node/3954361329"
      },
      "geometry": {
        "type": "Point",
        "coordinates": [
          -40.8863475,
          -19.9605976
        ]
      }
    },
    {
      "type": "Feature",
      "id": "node/3954361330",
      "properties": {
        "timestamp": "2016-03-09T19:12:31Z",
        "version": 2,
        "changeset": 37716865,
        "IJSN:administra": "Estadual",
        "IJSN:classeCnae": "Fundamental",
        "addr:city": "Itarana",
        "addr:country": "BR",
        "addr:postcode": "29620-000",
        "addr:state": "ES",
        "addr:suburb": "Comunidade Matutina",
        "alt_name": "Escola Estadual Unidocente de Ensino Fundamental",
        "amenity": "school",
        "name": "EEUEF Matutina",
        "source": "IJSN",
        "id": "node/3954361330"
      },
      "geometry": {
        "type": "Point",
        "coordinates": [
          -40.921554,
          -19.8854376
        ]
      }
    },
    {
      "type": "Feature",
      "id": "node/3954361331",
      "properties": {
        "timestamp": "2016-03-09T19:12:33Z",
        "version": 2,
        "changeset": 37716865,
        "IJSN:administra": "Estadual",
        "IJSN:classeCnae": "Fundamental",
        "addr:city": "Itarana",
        "addr:country": "BR",
        "addr:postcode": "29620-000",
        "addr:state": "ES",
        "addr:suburb": "Comunidade Baixo Sossego",
        "alt_name": "Escola Estadual Unidocente de Ensino Fundamental",
        "amenity": "school",
        "name": "EEUEF Santo Antônio do Sossego",
        "source": "IJSN",
        "id": "node/3954361331"
      },
      "geometry": {
        "type": "Point",
        "coordinates": [
          -40.9210247,
          -19.9189189
        ]
      }
    },
    {
      "type": "Feature",
      "id": "node/3954361336",
      "properties": {
        "timestamp": "2016-03-09T19:13:18Z",
        "version": 2,
        "changeset": 37716865,
        "IJSN:administra": "Municipal",
        "IJSN:classeCnae": "Infantil e Fundamental",
        "addr:city": "Itarana",
        "addr:country": "BR",
        "addr:postcode": "29620-000",
        "addr:state": "ES",
        "addr:street": "Praça Oito",
        "addr:suburb": "Comunidade Barra do Limeiro",
        "alt_name": "Escola Municipal de Ensino Infantil e Fundamental",
        "amenity": "school",
        "name": "EMEIEF Fazenda Camilo Bridi",
        "source": "IJSN",
        "id": "node/3954361336"
      },
      "geometry": {
        "type": "Point",
        "coordinates": [
          -40.8364793,
          -19.9073411
        ]
      }
    },
    {
      "type": "Feature",
      "id": "node/3954361337",
      "properties": {
        "timestamp": "2016-03-09T19:13:18Z",
        "version": 2,
        "changeset": 37716865,
        "IJSN:administra": "Municipal",
        "IJSN:classeCnae": "Infantil e Fundamental",
        "addr:city": "Itarana",
        "addr:country": "BR",
        "addr:postcode": "29620-000",
        "addr:state": "ES",
        "addr:street": "Rua São João Maso",
        "addr:suburb": "Santa Terezinha",
        "alt_name": "Escola Municipal de Ensino Infantil e Fundamental",
        "amenity": "school",
        "contact:phone": "(27) 3720-1590",
        "name": "EMEIEF Ana Abreu Toniato",
        "old_name": "EMEIEF Santa Terezinha",
        "source": "IJSN",
        "id": "node/3954361337"
      },
      "geometry": {
        "type": "Point",
        "coordinates": [
          -40.8799435,
          -19.8869439
        ]
      }
    },
    {
      "type": "Feature",
      "id": "node/3954361338",
      "properties": {
        "timestamp": "2016-03-09T19:13:19Z",
        "version": 2,
        "changeset": 37716865,
        "IJSN:administra": "Municipal",
        "IJSN:classeCnae": "Fundamental",
        "addr:city": "Itarana",
        "addr:country": "BR",
        "addr:postcode": "29620-000",
        "addr:state": "ES",
        "addr:suburb": "Comunidade Alto Santa",
        "alt_name": "Escola Municipal Pluridocente de Ensino Fundamental",
        "amenity": "school",
        "name": "EMPEF Alto Santa Joana",
        "source": "IJSN",
        "id": "node/3954361338"
      },
      "geometry": {
        "type": "Point",
        "coordinates": [
          -40.9482042,
          -19.990606
        ]
      }
    },
    {
      "type": "Feature",
      "id": "node/3954361339",
      "properties": {
        "timestamp": "2016-03-09T19:13:20Z",
        "version": 2,
        "changeset": 37716865,
        "IJSN:administra": "Municipal",
        "IJSN:classeCnae": "Fundamental",
        "addr:city": "Itarana",
        "addr:country": "BR",
        "addr:postcode": "29620-000",
        "addr:state": "ES",
        "addr:suburb": "Comunidade Santa Rosa",
        "alt_name": "Escola Municipal Pluridocente de Ensino Fundamental",
        "amenity": "school",
        "name": "EMPEF Santa Rosa",
        "source": "IJSN",
        "id": "node/3954361339"
      },
      "geometry": {
        "type": "Point",
        "coordinates": [
          -40.9479815,
          -20.0150635
        ]
      }
    },
    {
      "type": "Feature",
      "id": "node/3954361340",
      "properties": {
        "timestamp": "2016-03-09T19:13:24Z",
        "version": 2,
        "changeset": 37716865,
        "IJSN:administra": "Municipal",
        "IJSN:classeCnae": "Fundamental",
        "addr:city": "Itarana",
        "addr:country": "BR",
        "addr:postcode": "29620-000",
        "addr:state": "ES",
        "addr:suburb": "Comunidade Barra do Jatibocas",
        "alt_name": "Escola Municipal Unidocente de Ensino Fundamental",
        "amenity": "school",
        "name": "EMUEF Fazenda Bruno Jastrow",
        "source": "IJSN",
        "id": "node/3954361340"
      },
      "geometry": {
        "type": "Point",
        "coordinates": [
          -40.8732088,
          -20.0206353
        ]
      }
    },
    {
      "type": "Feature",
      "id": "node/3954361341",
      "properties": {
        "timestamp": "2016-03-09T19:13:24Z",
        "version": 2,
        "changeset": 37716865,
        "IJSN:administra": "Municipal",
        "IJSN:classeCnae": "Fundamental",
        "addr:city": "Itarana",
        "addr:country": "BR",
        "addr:postcode": "29620-000",
        "addr:state": "ES",
        "addr:suburb": "Comunidade Barra do Jatibocas",
        "alt_name": "Escola Municipal Unidocente de Ensino Fundamental",
        "amenity": "school",
        "name": "EMUEF Fazenda Ernesto Grunewaldi",
        "source": "IJSN",
        "id": "node/3954361341"
      },
      "geometry": {
        "type": "Point",
        "coordinates": [
          -40.8933528,
          -20.0214537
        ]
      }
    }
  ]
}
