{
  "type": "FeatureCollection",
  "features": [
    {
      "type": "Feature",
      "id": "way/914284453",
      "properties": {
        "timestamp": "2022-05-30T05:50:38Z",
        "version": 2,
        "changeset": 121692072,
        "addr:city": "Pedreiras",
        "addr:housenumber": "1736",
        "addr:postcode": "65725-000",
        "addr:street": "Rua Abílio Monteiro",
        "amenity": "university",
        "name": "Faculdade de Educação São Francisco",
        "phone": "+55 99 3626 5400",
        "short_name": "FAESF",
        "website": "https://faesf.com.br/",
        "id": "way/914284453"
      },
      "geometry": {
        "type": "Polygon",
        "coordinates": [
          [
            [
              -44.5934993,
              -4.5783414
            ],
            [
              -44.5939729,
              -4.5789382
            ],
            [
              -44.5931883,
              -4.5795268
            ],
            [
              -44.5927726,
              -4.5788845
            ],
            [
              -44.5934993,
              -4.5783414
            ]
          ]
        ]
      }
    }
  ]
}
