{
  "type": "FeatureCollection",
  "features": [
    {
      "type": "Feature",
      "id": "way/544897130",
      "properties": {
        "timestamp": "2019-04-10T14:43:48Z",
        "version": 2,
        "changeset": 69085821,
        "addr:city": "Jacarezinho",
        "addr:housenumber": "841",
        "addr:postcode": "86400-000",
        "addr:street": "Alameda Padre Magno",
        "addr:suburb": "Nova Jacarezinho",
        "amenity": "university",
        "name": "UENP - Centro de Ciências da Saúde - CCS",
        "website": "https://uenp.edu.br/cj-centros/cj-ccs",
        "id": "way/544897130"
      },
      "geometry": {
        "type": "Polygon",
        "coordinates": [
          [
            [
              -49.9785273,
              -23.1496997
            ],
            [
              -49.9788721,
              -23.149826
            ],
            [
              -49.9791872,
              -23.1499414
            ],
            [
              -49.9792623,
              -23.1498328
            ],
            [
              -49.9793856,
              -23.1498723
            ],
            [
              -49.9791872,
              -23.1502472
            ],
            [
              -49.9789297,
              -23.1501387
            ],
            [
              -49.9789619,
              -23.1500548
            ],
            [
              -49.9784415,
              -23.1498723
            ],
            [
              -49.9785273,
              -23.1496997
            ]
          ]
        ]
      }
    },
    {
      "type": "Feature",
      "id": "way/625815707",
      "properties": {
        "timestamp": "2019-04-10T14:43:48Z",
        "version": 3,
        "changeset": 69085821,
        "addr:city": "Jacarezinho",
        "addr:housenumber": "850",
        "addr:postcode": "86400-000",
        "addr:street": "Avenida Getúlio Vargas",
        "addr:suburb": "Centro",
        "amenity": "university",
        "name": "Reitoria - Universidade Estadual do Norte do Paraná",
        "id": "way/625815707"
      },
      "geometry": {
        "type": "Polygon",
        "coordinates": [
          [
            [
              -49.9741815,
              -23.1606279
            ],
            [
              -49.9741039,
              -23.1605991
            ],
            [
              -49.9741559,
              -23.1604805
            ],
            [
              -49.9740709,
              -23.1604489
            ],
            [
              -49.9740149,
              -23.1605766
            ],
            [
              -49.9739342,
              -23.1605467
            ],
            [
              -49.9740236,
              -23.1603431
            ],
            [
              -49.9741154,
              -23.1603771
            ],
            [
              -49.9741294,
              -23.1603453
            ],
            [
              -49.9742,
              -23.1603715
            ],
            [
              -49.9741888,
              -23.1603971
            ],
            [
              -49.9742696,
              -23.160427
            ],
            [
              -49.9741815,
              -23.1606279
            ]
          ]
        ]
      }
    },
    {
      "type": "Feature",
      "id": "way/964966703",
      "properties": {
        "timestamp": "2021-07-16T13:54:17Z",
        "version": 1,
        "changeset": 108122419,
        "addr:city": "Jacarezinho",
        "addr:postcode": "86400-000",
        "addr:street": "Avenida Manoel Ribas",
        "addr:suburb": "Centro",
        "amenity": "university",
        "name": "UENP - Centro de Ciências Sociais Aplicadas - CCSA",
        "id": "way/964966703"
      },
      "geometry": {
        "type": "Polygon",
        "coordinates": [
          [
            [
              -49.9787582,
              -23.1650443
            ],
            [
              -49.9785306,
              -23.1655998
            ],
            [
              -49.9781453,
              -23.165471
            ],
            [
              -49.9783876,
              -23.1649128
            ],
            [
              -49.9787582,
              -23.1650443
            ]
          ]
        ]
      }
    },
    {
      "type": "Feature",
      "id": "way/964966704",
      "properties": {
        "timestamp": "2021-07-16T13:54:17Z",
        "version": 1,
        "changeset": 108122419,
        "addr:city": "Jacarezinho",
        "addr:postcode": "86400-000",
        "addr:street": "Rua Padre Mello",
        "addr:suburb": "Jardim Marimar",
        "amenity": "university",
        "name": "UENP - Centro de Letras, Comunicação e Artes – CLCA",
        "id": "way/964966704"
      },
      "geometry": {
        "type": "Polygon",
        "coordinates": [
          [
            [
              -49.9783377,
              -23.1700254
            ],
            [
              -49.9786181,
              -23.1701274
            ],
            [
              -49.978303,
              -23.1708924
            ],
            [
              -49.9781813,
              -23.1708397
            ],
            [
              -49.9782466,
              -23.1706777
            ],
            [
              -49.978053,
              -23.1705964
            ],
            [
              -49.9780929,
              -23.1705037
            ],
            [
              -49.9781327,
              -23.1705177
            ],
            [
              -49.9783377,
              -23.1700254
            ]
          ]
        ]
      }
    },
    {
      "type": "Feature",
      "id": "node/6396517337",
      "properties": {
        "timestamp": "2022-09-10T21:18:13Z",
        "version": 2,
        "changeset": 126030369,
        "addr:city": "Jacarezinho",
        "addr:housenumber": "215",
        "addr:postcode": "86400-000",
        "addr:street": "Avenida Manoel Ribas",
        "addr:suburb": "Centro",
        "amenity": "university",
        "name": "UENP - Sede Administrativa do Campus de Jacarezinho",
        "website": "https://uenp.edu.br/cj",
        "id": "node/6396517337"
      },
      "geometry": {
        "type": "Point",
        "coordinates": [
          -49.9802854,
          -23.1610597
        ]
      }
    },
    {
      "type": "Feature",
      "id": "node/6396517338",
      "properties": {
        "timestamp": "2019-05-04T07:41:45Z",
        "version": 2,
        "changeset": 69867865,
        "addr:city": "Jacarezinho",
        "addr:housenumber": "850",
        "addr:postcode": "86400-000",
        "addr:street": "Avenida Getúlio Vargas",
        "addr:suburb": "Centro",
        "amenity": "university",
        "name": "Reitoria da Universidade Estadual do Norte do Paraná - UENP",
        "website": "https://uenp.edu.br",
        "wikidata": "Q10387818",
        "id": "node/6396517338"
      },
      "geometry": {
        "type": "Point",
        "coordinates": [
          -49.9742127,
          -23.1602829
        ]
      }
    },
    {
      "type": "Feature",
      "id": "node/6396553131",
      "properties": {
        "timestamp": "2019-04-10T14:43:48Z",
        "version": 1,
        "changeset": 69085821,
        "addr:city": "Jacarezinho",
        "addr:housenumber": "1200",
        "addr:postcode": "86400-000",
        "addr:street": "Rua Padre Mello",
        "addr:suburb": "Jardim Marimar",
        "amenity": "university",
        "name": "UENP - Centro de Ciências Humanas e da Educação CCHE",
        "website": "https://uenp.edu.br/cj-centros/cj-cche",
        "id": "node/6396553131"
      },
      "geometry": {
        "type": "Point",
        "coordinates": [
          -49.9783984,
          -23.1700432
        ]
      }
    },
    {
      "type": "Feature",
      "id": "node/6396553132",
      "properties": {
        "timestamp": "2019-04-10T14:43:48Z",
        "version": 1,
        "changeset": 69085821,
        "addr:city": "Jacarezinho",
        "addr:housenumber": "1200",
        "addr:postcode": "86400-000",
        "addr:street": "Rua Padre Mello",
        "addr:suburb": "Jardim Marimar",
        "amenity": "university",
        "name": "UENP - Centro de Letras, Comunicação e Artes – CLCA",
        "website": "https://uenp.edu.br/cj-centros/cj-clca",
        "id": "node/6396553132"
      },
      "geometry": {
        "type": "Point",
        "coordinates": [
          -49.9783089,
          -23.1702116
        ]
      }
    },
    {
      "type": "Feature",
      "id": "node/6396553133",
      "properties": {
        "timestamp": "2019-04-10T14:43:48Z",
        "version": 1,
        "changeset": 69085821,
        "addr:city": "Jacarezinho",
        "addr:housenumber": "711",
        "addr:postcode": "86400-000",
        "addr:street": "Avenida Manoel Ribas",
        "addr:suburb": "Centro",
        "amenity": "university",
        "name": "UENP - Centro de Ciências Sociais Aplicadas – CCSA",
        "website": "https://uenp.edu.br/cj-centros/cj-ccsa",
        "id": "node/6396553133"
      },
      "geometry": {
        "type": "Point",
        "coordinates": [
          -49.9786148,
          -23.1653059
        ]
      }
    }
  ]
}
