{
  "type": "FeatureCollection",
  "features": [
    {
      "type": "Feature",
      "id": "node/2260813834",
      "properties": {
        "timestamp": "2023-01-27T14:39:08Z",
        "version": 7,
        "changeset": 131776037,
        "addr:city": "Campo Alegre",
        "addr:street": "Rodovia Deputado Genésio Tureck",
        "name": "Egon Hotel",
        "phone": "+55 47 3632 2060",
        "source": "survey",
        "tourism": "hotel",
        "id": "node/2260813834"
      },
      "geometry": {
        "type": "Point",
        "coordinates": [
          -49.2685916,
          -26.1903957
        ]
      }
    },
    {
      "type": "Feature",
      "id": "node/2260813841",
      "properties": {
        "timestamp": "2023-01-27T14:39:08Z",
        "version": 4,
        "changeset": 131776037,
        "addr:city": "Campo Alegre",
        "addr:street": "Rodovia Deputado Genésio Tureck",
        "name": "Hotel Campo Alegre",
        "phone": "+55 47 3632-2149",
        "tourism": "hotel",
        "website": "https://www.hotelcampoalegre.com.br/",
        "id": "node/2260813841"
      },
      "geometry": {
        "type": "Point",
        "coordinates": [
          -49.2700661,
          -26.1912967
        ]
      }
    },
    {
      "type": "Feature",
      "id": "node/4582014561",
      "properties": {
        "timestamp": "2019-03-17T01:22:40Z",
        "version": 4,
        "changeset": 68217568,
        "email": "casantiga@hotmail.com",
        "name": "Pousada Casa Antiga",
        "phone": "+55 47 3632 8181",
        "source": "knowledge",
        "tourism": "hotel",
        "website": "https://www.campoalegre.sc.gov.br/turismo/item/detalhe/10810",
        "id": "node/4582014561"
      },
      "geometry": {
        "type": "Point",
        "coordinates": [
          -49.1937829,
          -26.1147741
        ]
      }
    },
    {
      "type": "Feature",
      "id": "node/4582024148",
      "properties": {
        "timestamp": "2022-05-26T14:47:16Z",
        "version": 5,
        "changeset": 121530450,
        "email": "hotel@refugiomonteolimpo.com.br",
        "name": "Hotel Refúgio Monte Olimpo",
        "phone": "+55 47 99964 7160",
        "source": "survey",
        "tourism": "hotel",
        "website": "https://www.refugiomonteolimpo.com.br/hotel",
        "id": "node/4582024148"
      },
      "geometry": {
        "type": "Point",
        "coordinates": [
          -49.3076652,
          -26.1495157
        ]
      }
    },
    {
      "type": "Feature",
      "id": "node/11176981982",
      "properties": {
        "timestamp": "2023-09-08T16:09:22Z",
        "version": 1,
        "changeset": 140993764,
        "addr:city": "Campo Alegre",
        "email": "contato@shantigaia.com.br",
        "name": "Shanti Gaia",
        "phone": "+55 47 99676-4041",
        "tourism": "hotel",
        "website": "https://shantigaia.com.br/",
        "id": "node/11176981982"
      },
      "geometry": {
        "type": "Point",
        "coordinates": [
          -49.1894504,
          -26.1948769
        ]
      }
    }
  ]
}
