{
  "type": "FeatureCollection",
  "features": [
    {
      "type": "Feature",
      "id": "way/322567535",
      "properties": {
        "timestamp": "2016-02-25T02:03:14Z",
        "version": 2,
        "changeset": 37426154,
        "IJSN:administra": "Municipal",
        "IJSN:classeCnae": "Fundamental",
        "addr:city": "Vila Valério",
        "addr:postcode": "29785-000",
        "addr:suburb": "São Jorge da Barra Seca",
        "alt_name": "Escola Municipal de Ensino Fundamental",
        "amenity": "school",
        "contact:phone": "(27) 9971-8713",
        "name": "EMEF Maria Luiza Jorge dos Reis",
        "source": "IJSN",
        "id": "way/322567535"
      },
      "geometry": {
        "type": "Polygon",
        "coordinates": [
          [
            [
              -40.3401912,
              -18.8492885
            ],
            [
              -40.3402164,
              -18.8496151
            ],
            [
              -40.3397492,
              -18.8496311
            ],
            [
              -40.339724,
              -18.8493124
            ],
            [
              -40.3401912,
              -18.8492885
            ]
          ]
        ]
      }
    },
    {
      "type": "Feature",
      "id": "way/1126911200",
      "properties": {
        "timestamp": "2023-01-04T10:06:33Z",
        "version": 1,
        "changeset": 130859406,
        "IJSN:administra": "Municipal",
        "IJSN:classeCnae": "Infantil e Fundamental",
        "addr:city": "Vila Valério",
        "addr:postcode": "29785-000",
        "addr:street": "Rua Principal",
        "addr:suburb": "Jurama",
        "alt_name": "EMEF Jurama",
        "amenity": "school",
        "building": "school",
        "building:levels": "2",
        "contact:phone": "+55 27 9971 8732",
        "name": "Escola Municipal de Ensino Fundamental Jurama",
        "source": "IJSN",
        "id": "way/1126911200"
      },
      "geometry": {
        "type": "Polygon",
        "coordinates": [
          [
            [
              -40.2734247,
              -18.993465
            ],
            [
              -40.2732235,
              -18.9935348
            ],
            [
              -40.2731491,
              -18.9933427
            ],
            [
              -40.2733502,
              -18.993273
            ],
            [
              -40.2734247,
              -18.993465
            ]
          ]
        ]
      }
    },
    {
      "type": "Feature",
      "id": "node/4024904467",
      "properties": {
        "timestamp": "2016-02-25T01:59:26Z",
        "version": 1,
        "changeset": 37426154,
        "IJSN:administra": "Estadual",
        "IJSN:classeCnae": "Fundamental",
        "addr:city": "Vila Valério",
        "addr:housenumber": "167",
        "addr:postcode": "29785-000",
        "addr:street": "Rua Antônio Barcelos",
        "addr:suburb": "Vila Nova",
        "alt_name": "Escola Estadual de Ensino Fundamental",
        "amenity": "school",
        "contact:phone": "(27) 3728-1565",
        "name": "EEEF Valério",
        "source": "IJSN",
        "id": "node/4024904467"
      },
      "geometry": {
        "type": "Point",
        "coordinates": [
          -40.3874185,
          -19.0017803
        ]
      }
    },
    {
      "type": "Feature",
      "id": "node/4024904484",
      "properties": {
        "timestamp": "2016-02-25T01:59:29Z",
        "version": 1,
        "changeset": 37426154,
        "IJSN:administra": "Estadual",
        "IJSN:classeCnae": "Fundamental e Médio",
        "addr:city": "Vila Valério",
        "addr:postcode": "29785-000",
        "addr:street": "Rua Natalino Cossi",
        "addr:suburb": "São Rafael",
        "alt_name": "Escola Estadual de Ensino Fundamental e Médio",
        "amenity": "school",
        "contact:phone": "(27) 3728-1589/3728-1115",
        "name": "EEEFM Atílio Vivacqua",
        "source": "IJSN",
        "id": "node/4024904484"
      },
      "geometry": {
        "type": "Point",
        "coordinates": [
          -40.3916058,
          -18.9988758
        ]
      }
    },
    {
      "type": "Feature",
      "id": "node/4024905012",
      "properties": {
        "timestamp": "2016-02-25T01:59:51Z",
        "version": 1,
        "changeset": 37426154,
        "IJSN:administra": "Estadual",
        "IJSN:classeCnae": "Fundamental",
        "addr:city": "Vila Valério",
        "addr:housenumber": "18",
        "addr:postcode": "29785-000",
        "addr:suburb": "Comunidade Tiradentes",
        "alt_name": "Escola Estadual Unidocente de Ensino Fundamental",
        "amenity": "school",
        "name": "EEUEF Alto Valério",
        "source": "IJSN",
        "id": "node/4024905012"
      },
      "geometry": {
        "type": "Point",
        "coordinates": [
          -40.3760878,
          -18.9591864
        ]
      }
    },
    {
      "type": "Feature",
      "id": "node/4024905025",
      "properties": {
        "timestamp": "2016-02-25T01:59:53Z",
        "version": 1,
        "changeset": 37426154,
        "IJSN:administra": "Estadual",
        "IJSN:classeCnae": "Fundamental",
        "addr:city": "Vila Valério",
        "addr:housenumber": "9",
        "addr:postcode": "29785-000",
        "addr:suburb": "Comunidade São Jorge da Barra Seca",
        "alt_name": "Escola Estadual Unidocente de Ensino Fundamental",
        "amenity": "school",
        "name": "EEUEF Córrego do Pavão",
        "source": "IJSN",
        "id": "node/4024905025"
      },
      "geometry": {
        "type": "Point",
        "coordinates": [
          -40.3265361,
          -18.8735848
        ]
      }
    },
    {
      "type": "Feature",
      "id": "node/4024905029",
      "properties": {
        "timestamp": "2023-01-04T13:02:20Z",
        "version": 2,
        "changeset": 130866398,
        "IJSN:administra": "Estadual",
        "IJSN:classeCnae": "Fundamental",
        "addr:city": "Vila Valério",
        "addr:housenumber": "3",
        "addr:postcode": "29785-000",
        "addr:suburb": "Flor de Maio",
        "alt_name": "Escola Estadual Unidocente de Ensino Fundamental",
        "amenity": "school",
        "name": "EEUEF Fazenda Amorim",
        "source": "IJSN",
        "id": "node/4024905029"
      },
      "geometry": {
        "type": "Point",
        "coordinates": [
          -40.3029599,
          -18.9404013
        ]
      }
    },
    {
      "type": "Feature",
      "id": "node/4024905039",
      "properties": {
        "timestamp": "2016-02-25T01:59:55Z",
        "version": 1,
        "changeset": 37426154,
        "IJSN:administra": "Estadual",
        "IJSN:classeCnae": "Fundamental",
        "addr:city": "Vila Valério",
        "addr:housenumber": "6",
        "addr:postcode": "29785-000",
        "addr:suburb": "Comunidade São Luís",
        "alt_name": "Escola Estadual Unidocente de Ensino Fundamental",
        "amenity": "school",
        "name": "EEUEF Fazenda São Geraldo",
        "source": "IJSN",
        "id": "node/4024905039"
      },
      "geometry": {
        "type": "Point",
        "coordinates": [
          -40.4091412,
          -18.9714846
        ]
      }
    },
    {
      "type": "Feature",
      "id": "node/4024905046",
      "properties": {
        "timestamp": "2016-02-25T01:59:56Z",
        "version": 1,
        "changeset": 37426154,
        "IJSN:administra": "Estadual",
        "IJSN:classeCnae": "Fundamental",
        "addr:city": "Vila Valério",
        "addr:housenumber": "21",
        "addr:postcode": "29785-000",
        "addr:suburb": "Comunidade Paraíso Novo",
        "alt_name": "Escola Estadual Unidocente de Ensino Fundamental",
        "amenity": "school",
        "name": "EEUEF Nova Jerusalem",
        "source": "IJSN",
        "id": "node/4024905046"
      },
      "geometry": {
        "type": "Point",
        "coordinates": [
          -40.3147313,
          -18.9652927
        ]
      }
    },
    {
      "type": "Feature",
      "id": "node/4024905263",
      "properties": {
        "timestamp": "2023-01-03T12:07:06Z",
        "version": 2,
        "changeset": 130823695,
        "IJSN:administra": "Municipal",
        "IJSN:classeCnae": "Fundamental",
        "addr:city": "Vila Valério",
        "addr:postcode": "29785-000",
        "addr:suburb": "Araribóia",
        "alt_name": "EMEF Araribóia",
        "amenity": "school",
        "contact:phone": "+55 27 3728 1048",
        "name": "Escola Municipal de Ensino Fundamental Araribóia",
        "source": "IJSN",
        "id": "node/4024905263"
      },
      "geometry": {
        "type": "Point",
        "coordinates": [
          -40.295352,
          -19.049623
        ]
      }
    },
    {
      "type": "Feature",
      "id": "node/4024905740",
      "properties": {
        "timestamp": "2016-02-25T02:01:01Z",
        "version": 1,
        "changeset": 37426154,
        "IJSN:administra": "Municipal",
        "IJSN:classeCnae": "Fundamental",
        "addr:city": "Vila Valério",
        "addr:housenumber": "50",
        "addr:postcode": "29785-000",
        "addr:street": "Rua Daniel Pelissari",
        "addr:suburb": "São Rafael",
        "alt_name": "Escola Municipal de Ensino Fundamental",
        "amenity": "school",
        "contact:phone": "(27) 3728-1483",
        "name": "EMEF Viva Kaio Fredy Grigoleto",
        "source": "IJSN",
        "id": "node/4024905740"
      },
      "geometry": {
        "type": "Point",
        "coordinates": [
          -40.3931715,
          -19.0007835
        ]
      }
    },
    {
      "type": "Feature",
      "id": "node/4024905767",
      "properties": {
        "timestamp": "2016-02-25T02:01:06Z",
        "version": 1,
        "changeset": 37426154,
        "IJSN:administra": "Municipal",
        "IJSN:classeCnae": "Infantil e Fundamental",
        "addr:city": "Vila Valério",
        "addr:postcode": "29785-000",
        "addr:suburb": "Comunidade Córrego Dourado",
        "alt_name": "Escola Municipal de Ensino Infantil e Fundamental",
        "amenity": "school",
        "name": "EMEIEF Bernardo Mantovanelli",
        "source": "IJSN",
        "id": "node/4024905767"
      },
      "geometry": {
        "type": "Point",
        "coordinates": [
          -40.4338928,
          -19.0174763
        ]
      }
    },
    {
      "type": "Feature",
      "id": "node/4024905963",
      "properties": {
        "timestamp": "2023-01-04T00:18:15Z",
        "version": 2,
        "changeset": 130846847,
        "IJSN:administra": "Municipal",
        "IJSN:classeCnae": "Infantil e Fundamental",
        "addr:city": "Vila Valério",
        "addr:postcode": "29785-000",
        "addr:suburb": "Córrego do Tesouro",
        "alt_name": "EMEIEF Welton Altoé Caliman",
        "amenity": "school",
        "name": "Escola Municipal de Ensino Infantil e Fundamental Welton Altoé Caliman",
        "source": "IJSN",
        "id": "node/4024905963"
      },
      "geometry": {
        "type": "Point",
        "coordinates": [
          -40.2299087,
          -18.904109
        ]
      }
    },
    {
      "type": "Feature",
      "id": "node/4024906149",
      "properties": {
        "timestamp": "2016-02-25T02:01:35Z",
        "version": 1,
        "changeset": 37426154,
        "IJSN:administra": "Municipal",
        "IJSN:classeCnae": "Infantil e Fundamental",
        "addr:city": "Vila Valério",
        "addr:postcode": "29785-000",
        "addr:suburb": "Comunidade Córrego São Vicente",
        "alt_name": "Escola Municipal Pluridocente de Ensino Fundamental",
        "amenity": "school",
        "name": "EMPEF Paraíso Novo",
        "source": "IJSN",
        "id": "node/4024906149"
      },
      "geometry": {
        "type": "Point",
        "coordinates": [
          -40.351875,
          -18.9608335
        ]
      }
    },
    {
      "type": "Feature",
      "id": "node/4024906251",
      "properties": {
        "timestamp": "2016-02-25T02:01:51Z",
        "version": 1,
        "changeset": 37426154,
        "IJSN:administra": "Municipal",
        "IJSN:classeCnae": "Fundamental",
        "addr:city": "Vila Valério",
        "addr:postcode": "29785-000",
        "addr:suburb": "Comunidade Pavãozinho",
        "alt_name": "Escola Municipal Unidocente de Ensino Fundamental",
        "amenity": "school",
        "contact:phone": "(27) 3728-1611",
        "name": "EMUEF Cisne Branco",
        "source": "IJSN",
        "id": "node/4024906251"
      },
      "geometry": {
        "type": "Point",
        "coordinates": [
          -40.3089523,
          -18.8999833
        ]
      }
    },
    {
      "type": "Feature",
      "id": "node/4024906256",
      "properties": {
        "timestamp": "2016-02-25T02:01:52Z",
        "version": 1,
        "changeset": 37426154,
        "IJSN:administra": "Municipal",
        "IJSN:classeCnae": "Fundamental",
        "addr:city": "Vila Valério",
        "addr:postcode": "29785-000",
        "addr:suburb": "Córrego Boa Vista",
        "alt_name": "Escola Municipal Unidocente de Ensino Fundamental",
        "amenity": "school",
        "name": "EMUEF Córrego Boa Vista",
        "source": "IJSN",
        "id": "node/4024906256"
      },
      "geometry": {
        "type": "Point",
        "coordinates": [
          -40.4297131,
          -19.047433
        ]
      }
    },
    {
      "type": "Feature",
      "id": "node/4024906275",
      "properties": {
        "timestamp": "2016-02-25T02:01:55Z",
        "version": 1,
        "changeset": 37426154,
        "IJSN:administra": "Municipal",
        "IJSN:classeCnae": "Fundamental",
        "addr:city": "Vila Valério",
        "addr:postcode": "29785-000",
        "addr:suburb": "Comunidade Vargem Alegre",
        "alt_name": "Escola Municipal Unidocente de Ensino Fundamental",
        "amenity": "school",
        "contact:phone": "(27) 3728-1611",
        "name": "EMUEF Córrego Vargem Alegre",
        "source": "IJSN",
        "id": "node/4024906275"
      },
      "geometry": {
        "type": "Point",
        "coordinates": [
          -40.3319422,
          -19.0114087
        ]
      }
    },
    {
      "type": "Feature",
      "id": "node/4024906276",
      "properties": {
        "timestamp": "2016-02-25T02:01:55Z",
        "version": 1,
        "changeset": 37426154,
        "IJSN:administra": "Municipal",
        "IJSN:classeCnae": "Fundamental",
        "addr:city": "Vila Valério",
        "addr:postcode": "29785-000",
        "addr:suburb": "Comunidade São Vicente I",
        "alt_name": "Escola Municipal Unidocente de Ensino Fundamental",
        "amenity": "school",
        "contact:phone": "(27) 3728-1611",
        "name": "EMUEF Córrego Vinte e Um de Agosto",
        "source": "IJSN",
        "id": "node/4024906276"
      },
      "geometry": {
        "type": "Point",
        "coordinates": [
          -40.3467182,
          -18.9660245
        ]
      }
    },
    {
      "type": "Feature",
      "id": "node/4024906282",
      "properties": {
        "timestamp": "2016-02-25T02:01:56Z",
        "version": 1,
        "changeset": 37426154,
        "IJSN:administra": "Municipal",
        "IJSN:classeCnae": "Fundamental",
        "addr:city": "Vila Valério",
        "addr:postcode": "29785-000",
        "addr:suburb": "Comunidade Pedra Rocha",
        "alt_name": "Escola Municipal Unidocente de Ensino Fundamental",
        "amenity": "school",
        "contact:phone": "(27) 3728-1611",
        "name": "EMUEF Córrego da Pedra Roxa",
        "source": "IJSN",
        "id": "node/4024906282"
      },
      "geometry": {
        "type": "Point",
        "coordinates": [
          -40.2805221,
          -18.9320299
        ]
      }
    },
    {
      "type": "Feature",
      "id": "node/4024906284",
      "properties": {
        "timestamp": "2016-02-25T02:01:56Z",
        "version": 1,
        "changeset": 37426154,
        "IJSN:administra": "Municipal",
        "IJSN:classeCnae": "Fundamental",
        "addr:city": "Vila Valério",
        "addr:postcode": "29785-000",
        "addr:suburb": "Comunidade Saúde",
        "alt_name": "Escola Municipal Unidocente de Ensino Fundamental",
        "amenity": "school",
        "contact:phone": "(27) 3728-1611",
        "name": "EMUEF Córrego da Saúde",
        "source": "IJSN",
        "id": "node/4024906284"
      },
      "geometry": {
        "type": "Point",
        "coordinates": [
          -40.3326226,
          -18.931562
        ]
      }
    }
  ]
}
