{
  "type": "FeatureCollection",
  "features": [
    {
      "type": "Feature",
      "id": "way/548625643",
      "properties": {
        "timestamp": "2019-03-06T04:22:32Z",
        "version": 7,
        "changeset": 67829659,
        "addr:city": "Carapicuíba",
        "addr:housenumber": "250",
        "addr:postcode": "06386-040",
        "addr:street": "Avenida São Paulo Apóstolo",
        "addr:suburb": "Conjunto Habitacional Castelo Branco",
        "amenity": "arts_centre",
        "building": "yes",
        "building:levels": "2",
        "email": "institutocasadagente_eventos@yahoo.com.br",
        "name": "Instituto Casa da Gente",
        "phone": "+55 11 4193 1134",
        "smoking": "outside",
        "website": "https://instituto-casa-da-gente.webnode.com/",
        "id": "way/548625643"
      },
      "geometry": {
        "type": "Polygon",
        "coordinates": [
          [
            [
              -46.8266996,
              -23.5298847
            ],
            [
              -46.8265981,
              -23.529961
            ],
            [
              -46.826555,
              -23.5299417
            ],
            [
              -46.8265181,
              -23.5299685
            ],
            [
              -46.8265667,
              -23.530003
            ],
            [
              -46.8263606,
              -23.5302048
            ],
            [
              -46.8260577,
              -23.529948
            ],
            [
              -46.8263976,
              -23.5296246
            ],
            [
              -46.8266996,
              -23.5298847
            ]
          ]
        ]
      }
    }
  ]
}
