{
  "type": "FeatureCollection",
  "features": [
    {
      "type": "Feature",
      "id": "way/991781596",
      "properties": {
        "timestamp": "2025-01-04T01:22:02Z",
        "version": 3,
        "changeset": 160972013,
        "addr:city": "Carapicuíba",
        "addr:housenumber": "20",
        "addr:street": "Rua Nelson Neves Fonseca",
        "addr:suburb": "Centro",
        "amenity": "love_hotel",
        "email": "hotelcoqueiros@uol.com.br",
        "name": "Hotel Coqueiros",
        "phone": "+55 11 4184 7038",
        "rooms": "59",
        "tourism": "hotel",
        "website": "https://www.hotelcoqueiros.com.br/",
        "id": "way/991781596"
      },
      "geometry": {
        "type": "Polygon",
        "coordinates": [
          [
            [
              -46.8389244,
              -23.5179837
            ],
            [
              -46.8389217,
              -23.5180036
            ],
            [
              -46.8389129,
              -23.5180693
            ],
            [
              -46.8388676,
              -23.5184075
            ],
            [
              -46.8383651,
              -23.5183382
            ],
            [
              -46.8384164,
              -23.5179996
            ],
            [
              -46.8384267,
              -23.5179317
            ],
            [
              -46.8384329,
              -23.5178905
            ],
            [
              -46.8384833,
              -23.5178948
            ],
            [
              -46.8384754,
              -23.5179223
            ],
            [
              -46.8389244,
              -23.5179837
            ]
          ]
        ]
      }
    },
    {
      "type": "Feature",
      "id": "node/5126290701",
      "properties": {
        "timestamp": "2018-04-09T22:13:03Z",
        "version": 3,
        "changeset": 57954110,
        "addr:city": "Carapicuíba",
        "addr:housenumber": "1591",
        "addr:postcode": "06310-160",
        "addr:street": "Avenida Deputado Emílio Carlos",
        "addr:suburb": "Vila Caldas",
        "contact:phone": "+55 11 4202 3477",
        "email": "contato@hotellife.com.br",
        "internet_access:fee": "no",
        "name": "Hotel Life",
        "phone": "+55 11 4202 3477",
        "tourism": "hotel",
        "website": "http://lifemotel.com.br/index",
        "id": "node/5126290701"
      },
      "geometry": {
        "type": "Point",
        "coordinates": [
          -46.8554575,
          -23.5192606
        ]
      }
    },
    {
      "type": "Feature",
      "id": "node/6149623761",
      "properties": {
        "timestamp": "2018-12-20T12:10:44Z",
        "version": 2,
        "changeset": 65638555,
        "addr:housenumber": "280",
        "addr:postcode": "06310-030",
        "addr:street": "Rua Joaquim das Neves",
        "email": "hotelestrela@gmail.com",
        "internet_access": "wlan",
        "name": "Hotel Estrela",
        "opening_hours": "24/7",
        "phone": "11-4184-5576",
        "tourism": "hotel",
        "website": "http://www.hestrela.com.br",
        "id": "node/6149623761"
      },
      "geometry": {
        "type": "Point",
        "coordinates": [
          -46.8400843,
          -23.5175537
        ]
      }
    },
    {
      "type": "Feature",
      "id": "node/9163425065",
      "properties": {
        "timestamp": "2021-10-10T21:06:30Z",
        "version": 1,
        "changeset": 112349174,
        "tourism": "hotel",
        "id": "node/9163425065"
      },
      "geometry": {
        "type": "Point",
        "coordinates": [
          -46.8359215,
          -23.5213732
        ]
      }
    }
  ]
}
