{
  "type": "FeatureCollection",
  "features": [
    {
      "type": "Feature",
      "id": "way/991316193",
      "properties": {
        "timestamp": "2021-10-08T18:39:08Z",
        "version": 2,
        "changeset": 112277970,
        "addr:housenumber": "1725",
        "addr:street": "Avenida Inocêncio Seráfico",
        "amenity": "pharmacy",
        "brand": "Drogaria São Paulo",
        "brand:wikidata": "Q5308184",
        "brand:wikipedia": "en:Grupo DPSP",
        "building": "yes",
        "dispensing": "yes",
        "drive_through": "no",
        "healthcare": "pharmacy",
        "name": "Drogaria São Paulo",
        "website": "https://www.drogariasaopaulo.com.br/",
        "id": "way/991316193"
      },
      "geometry": {
        "type": "Polygon",
        "coordinates": [
          [
            [
              -46.8356481,
              -23.5365341
            ],
            [
              -46.8356182,
              -23.5366576
            ],
            [
              -46.8354055,
              -23.5366265
            ],
            [
              -46.8354315,
              -23.5364908
            ],
            [
              -46.8356481,
              -23.5365341
            ]
          ]
        ]
      }
    },
    {
      "type": "Feature",
      "id": "node/1411550862",
      "properties": {
        "timestamp": "2011-08-24T19:26:05Z",
        "version": 1,
        "changeset": 9115628,
        "amenity": "pharmacy",
        "id": "node/1411550862"
      },
      "geometry": {
        "type": "Point",
        "coordinates": [
          -46.8352109,
          -23.5382325
        ]
      }
    },
    {
      "type": "Feature",
      "id": "node/9159176980",
      "properties": {
        "timestamp": "2021-10-08T18:32:20Z",
        "version": 1,
        "changeset": 112277737,
        "addr:street": "Avenida Inocêncio Seráfico",
        "amenity": "pharmacy",
        "dispensing": "yes",
        "drive_through": "no",
        "healthcare": "pharmacy",
        "name": "Drogaria Brasmar",
        "phone": "+55 11 4187 7411",
        "id": "node/9159176980"
      },
      "geometry": {
        "type": "Point",
        "coordinates": [
          -46.8358907,
          -23.5364431
        ]
      }
    },
    {
      "type": "Feature",
      "id": "node/9163425052",
      "properties": {
        "timestamp": "2021-10-10T21:06:30Z",
        "version": 1,
        "changeset": 112349174,
        "addr:street": "Avenida Miriam",
        "amenity": "pharmacy",
        "dispensing": "yes",
        "drive_through": "no",
        "healthcare": "pharmacy",
        "name": "Hyper Farmácia Popular",
        "id": "node/9163425052"
      },
      "geometry": {
        "type": "Point",
        "coordinates": [
          -46.8361982,
          -23.5212333
        ]
      }
    },
    {
      "type": "Feature",
      "id": "node/9165127612",
      "properties": {
        "timestamp": "2021-10-11T15:03:31Z",
        "version": 1,
        "changeset": 112379295,
        "addr:housenumber": "3755",
        "addr:street": "Estrada do Jacarandá",
        "addr:suburb": "Jardim Tonato",
        "amenity": "pharmacy",
        "contact:mobile": "+55 11 95607 8629",
        "dispensing": "yes",
        "drive_through": "no",
        "healthcare": "pharmacy",
        "name": "Rede Bol Farma Drogaria e Perfumaria",
        "operator": "Rede Bol Farma",
        "phone": "+55 11 4169 8279",
        "id": "node/9165127612"
      },
      "geometry": {
        "type": "Point",
        "coordinates": [
          -46.8473506,
          -23.5626695
        ]
      }
    },
    {
      "type": "Feature",
      "id": "node/9165682038",
      "properties": {
        "timestamp": "2021-10-11T18:59:32Z",
        "version": 1,
        "changeset": 112388103,
        "addr:housenumber": "3504",
        "addr:postcode": "06343-410",
        "addr:street": "Avenida Inocêncio Seráfico",
        "addr:suburb": "Vila Dirce",
        "amenity": "pharmacy",
        "contact:phone": "+55 11 93233 4353",
        "delivery": "yes",
        "dispensing": "yes",
        "drive_through": "no",
        "healthcare": "pharmacy",
        "name": "Farmácia Super Popular",
        "phone": "+55 11 99353 5564",
        "id": "node/9165682038"
      },
      "geometry": {
        "type": "Point",
        "coordinates": [
          -46.8355085,
          -23.5530592
        ]
      }
    },
    {
      "type": "Feature",
      "id": "node/9165700960",
      "properties": {
        "timestamp": "2021-10-11T19:09:39Z",
        "version": 1,
        "changeset": 112388532,
        "addr:postcode": "06343-410",
        "addr:street": "Avenida Inocêncio Seráfico",
        "addr:suburb": "Vila Dirce",
        "amenity": "pharmacy",
        "brand": "Drogasil",
        "brand:wikidata": "Q5308185",
        "brand:wikipedia": "pt:Drogasil",
        "delivery": "yes",
        "dispensing": "yes",
        "drive_through": "no",
        "healthcare": "pharmacy",
        "name": "Drogasil",
        "phone": "+55 11 97597 7113",
        "wheelchair": "yes",
        "id": "node/9165700960"
      },
      "geometry": {
        "type": "Point",
        "coordinates": [
          -46.8355061,
          -23.552915
        ]
      }
    },
    {
      "type": "Feature",
      "id": "node/9703922439",
      "properties": {
        "timestamp": "2022-04-29T19:50:44Z",
        "version": 1,
        "changeset": 120362677,
        "addr:street": "Avenida Antônio Faustino dos Santos",
        "amenity": "pharmacy",
        "dispensing": "yes",
        "healthcare": "pharmacy",
        "name": "BiFarma",
        "id": "node/9703922439"
      },
      "geometry": {
        "type": "Point",
        "coordinates": [
          -46.8204474,
          -23.5271458
        ]
      }
    },
    {
      "type": "Feature",
      "id": "node/10815169753",
      "properties": {
        "timestamp": "2023-04-15T20:01:24Z",
        "version": 1,
        "changeset": 134954081,
        "addr:street": "Rua Comendador Dante Carraro",
        "amenity": "pharmacy",
        "healthcare": "pharmacy",
        "name": "FabelFarma Drogaria",
        "id": "node/10815169753"
      },
      "geometry": {
        "type": "Point",
        "coordinates": [
          -46.8527158,
          -23.5260635
        ]
      }
    },
    {
      "type": "Feature",
      "id": "node/11150473860",
      "properties": {
        "timestamp": "2023-08-28T13:43:56Z",
        "version": 1,
        "changeset": 140496170,
        "addr:street": "Estrada Jacaranda",
        "amenity": "pharmacy",
        "dispensing": "no",
        "drive_through": "no",
        "healthcare": "pharmacy",
        "name": "Bifarma",
        "id": "node/11150473860"
      },
      "geometry": {
        "type": "Point",
        "coordinates": [
          -46.8444002,
          -23.5502462
        ]
      }
    },
    {
      "type": "Feature",
      "id": "node/11988025852",
      "properties": {
        "timestamp": "2024-06-17T18:36:57Z",
        "version": 1,
        "changeset": 152815189,
        "addr:housenumber": "762",
        "addr:street": "Avenida General Teixeira Lott",
        "addr:suburb": "Centro",
        "amenity": "pharmacy",
        "dispensing": "yes",
        "healthcare": "pharmacy",
        "mobile": "+55 11 97150 3182",
        "name": "Platinum Drogaria",
        "phone": "+55 11 4184 2101",
        "id": "node/11988025852"
      },
      "geometry": {
        "type": "Point",
        "coordinates": [
          -46.8413242,
          -23.5273796
        ]
      }
    }
  ]
}
