{
  "type": "FeatureCollection",
  "features": [
    {
      "type": "Feature",
      "id": "relation/17000746",
      "properties": {
        "timestamp": "2024-06-05T17:45:41Z",
        "version": 2,
        "changeset": 152299112,
        "addr:city": "Carapicuíba",
        "addr:housenumber": "1628",
        "addr:postcode": "06311-001",
        "addr:street": "Avenida Ruy Barbosa",
        "addr:suburb": "Vila Caldas",
        "alt_name": "Escola Estadual Amos Meucci",
        "amenity": "school",
        "name": "E.E Amos Meucci",
        "official_name": "Escola Estadual Amos Meucci",
        "operator": "Secretaria da Educação do Estado de São Paulo",
        "operator:type": "government",
        "phone": "+55 11 4184 2920",
        "religion": "none",
        "type": "multipolygon",
        "id": "relation/17000746"
      },
      "geometry": {
        "type": "Polygon",
        "coordinates": [
          [
            [
              -46.8434858,
              -23.5221259
            ],
            [
              -46.8434791,
              -23.5218936
            ],
            [
              -46.8434732,
              -23.5216857
            ],
            [
              -46.8441813,
              -23.5216687
            ],
            [
              -46.8441939,
              -23.522109
            ],
            [
              -46.8434858,
              -23.5221259
            ]
          ]
        ]
      }
    },
    {
      "type": "Feature",
      "id": "relation/17330990",
      "properties": {
        "timestamp": "2024-03-10T22:56:39Z",
        "version": 1,
        "changeset": 148482941,
        "addr:city": "Carapicuíba",
        "addr:housenumber": "199",
        "addr:postcode": "06342-180",
        "addr:street": "Avenida Vereador José Fernandes Filho",
        "amenity": "school",
        "name": "E.E Professor João Garcia de Haro",
        "phone": "+55 11 4186-2156",
        "type": "multipolygon",
        "website": "http://www.educacao.sp.gov.br/central-de-atendimento/Det_contato.asp?op=041336&detmodx=0&cod_mun=255&Ensino=0&Diretoria=10701&Modalidade=0&rede=1&nome=&distrito=0&Paginar=2&firsttime=Nao&CD_ADM=1",
        "id": "relation/17330990"
      },
      "geometry": {
        "type": "Polygon",
        "coordinates": [
          [
            [
              -46.8242745,
              -23.5822449
            ],
            [
              -46.8242068,
              -23.5817754
            ],
            [
              -46.8244855,
              -23.5817385
            ],
            [
              -46.8244979,
              -23.5817458
            ],
            [
              -46.824508,
              -23.581758
            ],
            [
              -46.8245702,
              -23.5821981
            ],
            [
              -46.8245665,
              -23.5822103
            ],
            [
              -46.8245587,
              -23.5822166
            ],
            [
              -46.8242745,
              -23.5822449
            ]
          ]
        ]
      }
    },
    {
      "type": "Feature",
      "id": "way/378026888",
      "properties": {
        "timestamp": "2024-11-19T20:32:20Z",
        "version": 3,
        "changeset": 159341313,
        "addr:city": "Carapicuíba",
        "addr:country": "BR",
        "addr:housenumber": "149",
        "addr:postcode": "06329-000",
        "addr:street": "Rua Baependi",
        "addr:suburb": "Cohab V",
        "amenity": "school",
        "contact:phone": "+55 11 4187 9256",
        "email": "e906694a@educacao.sp.gov.br",
        "loc_name": "Castelão",
        "name": "Escola Estadual Ana Rodrigues de Liso",
        "operator": "Secretaria da Educação do Estado de São Paulo",
        "operator:type": "government",
        "phone": "+55 11 4187 3439",
        "religion": "none",
        "id": "way/378026888"
      },
      "geometry": {
        "type": "Polygon",
        "coordinates": [
          [
            [
              -46.8251211,
              -23.5363861
            ],
            [
              -46.8251643,
              -23.536596
            ],
            [
              -46.8251132,
              -23.5373964
            ],
            [
              -46.8250739,
              -23.5374469
            ],
            [
              -46.8250044,
              -23.5374847
            ],
            [
              -46.8244446,
              -23.537351
            ],
            [
              -46.8243941,
              -23.5372904
            ],
            [
              -46.8244368,
              -23.537108
            ],
            [
              -46.8244801,
              -23.5367546
            ],
            [
              -46.8244738,
              -23.5364707
            ],
            [
              -46.8251211,
              -23.5363861
            ]
          ]
        ]
      }
    },
    {
      "type": "Feature",
      "id": "way/470655966",
      "properties": {
        "timestamp": "2020-09-27T18:15:23Z",
        "version": 4,
        "changeset": 91593179,
        "addr:city": "Carapicuíba",
        "addr:country": "BR",
        "addr:postcode": "06333-160",
        "addr:street": "Rua Wilson Vieira da Silva",
        "addr:suburb": "Parque Jandaía",
        "amenity": "school",
        "contact:phone": "+55 11 4186 6997",
        "email": "e919068a@educacao.sp.gov.br",
        "name": "Escola Estadual Padre Antônio de Oliveira Godinho",
        "operator": "Secretaria da Educação do Estado de São Paulo",
        "operator:type": "government",
        "phone": "+55 11 4186 5854",
        "ref": "INEP-35919068",
        "id": "way/470655966"
      },
      "geometry": {
        "type": "Polygon",
        "coordinates": [
          [
            [
              -46.8275955,
              -23.5612425
            ],
            [
              -46.8266165,
              -23.5613703
            ],
            [
              -46.8263402,
              -23.560409
            ],
            [
              -46.82641,
              -23.5603893
            ],
            [
              -46.8275821,
              -23.5611798
            ],
            [
              -46.8275955,
              -23.5612425
            ]
          ]
        ]
      }
    },
    {
      "type": "Feature",
      "id": "way/520704759",
      "properties": {
        "timestamp": "2021-09-29T14:02:42Z",
        "version": 2,
        "changeset": 111869114,
        "addr:city": "Carapicuíba",
        "addr:country": "BR",
        "addr:housenumber": "22",
        "addr:postcode": "06327-030",
        "addr:street": "Rua Bandeirantes",
        "addr:suburb": "Vila Dirce",
        "amenity": "school",
        "contact:phone": "+55 11 4188 9665",
        "email": "e923801a@educacao.sp.gov.br",
        "name": "Escola Estadual Vila Dirce II",
        "operator": "Secretaria da Educação do Estado de São Paulo",
        "operator:type": "government",
        "phone": "+55 11 4188 8778",
        "ref": "INEP-35923801",
        "id": "way/520704759"
      },
      "geometry": {
        "type": "Polygon",
        "coordinates": [
          [
            [
              -46.8343674,
              -23.5557738
            ],
            [
              -46.8342654,
              -23.5560074
            ],
            [
              -46.8336056,
              -23.5557787
            ],
            [
              -46.8334179,
              -23.5557271
            ],
            [
              -46.8335547,
              -23.5554836
            ],
            [
              -46.8338873,
              -23.5555845
            ],
            [
              -46.8338792,
              -23.5556189
            ],
            [
              -46.8343674,
              -23.5557738
            ]
          ]
        ]
      }
    },
    {
      "type": "Feature",
      "id": "way/520705029",
      "properties": {
        "timestamp": "2018-12-06T13:11:25Z",
        "version": 2,
        "changeset": 65238263,
        "addr:city": "Carapicuíba",
        "addr:country": "BR",
        "addr:housenumber": "80",
        "addr:postcode": "06311-030",
        "addr:street": "Rua Bandeirantes",
        "addr:suburb": "Vila Dirce",
        "amenity": "school",
        "contact:phone": "+55 11 4187 3761",
        "email": "e009738a@educacao.sp.gov.br",
        "name": "Escola Estadual Professora Hadla Feres",
        "operator": "Secretaria da Educação do Estado de São Paulo",
        "phone": "+55 11 4187 7997",
        "id": "way/520705029"
      },
      "geometry": {
        "type": "Polygon",
        "coordinates": [
          [
            [
              -46.8343593,
              -23.5561352
            ],
            [
              -46.8342601,
              -23.5563491
            ],
            [
              -46.8333294,
              -23.5561106
            ],
            [
              -46.8333857,
              -23.5559065
            ],
            [
              -46.8333589,
              -23.5557861
            ],
            [
              -46.8333964,
              -23.5557738
            ],
            [
              -46.8343593,
              -23.5561352
            ]
          ]
        ]
      }
    },
    {
      "type": "Feature",
      "id": "way/532716184",
      "properties": {
        "timestamp": "2024-11-19T20:21:09Z",
        "version": 4,
        "changeset": 159340896,
        "addr:city": "Carapicuiba",
        "addr:country": "BR",
        "addr:housenumber": "55",
        "addr:postcode": "06381-010",
        "addr:street": "Rua Europa",
        "addr:suburb": "Jardim Santo Estevão",
        "amenity": "school",
        "email": "e041348a@educacao.sp.gov.br",
        "name": "Escola Estadual Basílio Bosniac",
        "operator": "Secretaria da Educação do Estado de São Paulo",
        "operator:type": "government",
        "phone": "+55 11 4187 3560",
        "ref": "INEP-35041348",
        "religion": "none",
        "source": "CADMEC 2017",
        "id": "way/532716184"
      },
      "geometry": {
        "type": "Polygon",
        "coordinates": [
          [
            [
              -46.8352377,
              -23.5441304
            ],
            [
              -46.8351733,
              -23.5443812
            ],
            [
              -46.8351546,
              -23.5444476
            ],
            [
              -46.8348407,
              -23.5444082
            ],
            [
              -46.8348394,
              -23.544273
            ],
            [
              -46.8346342,
              -23.544246
            ],
            [
              -46.8345618,
              -23.5445853
            ],
            [
              -46.834256,
              -23.5445287
            ],
            [
              -46.8343713,
              -23.5440124
            ],
            [
              -46.8352377,
              -23.5441304
            ]
          ]
        ]
      }
    },
    {
      "type": "Feature",
      "id": "way/538822438",
      "properties": {
        "timestamp": "2024-03-10T01:12:13Z",
        "version": 5,
        "changeset": 148445446,
        "addr:city": "Carapicuíba",
        "addr:country": "BR",
        "addr:housenumber": "3010",
        "addr:postcode": "06361-400",
        "addr:street": "Estrada Jacarandá",
        "addr:suburb": "Alto de Santa Lúcia",
        "amenity": "school",
        "contact:phone": "+55 11 4169 9492",
        "name": "CEEJA de Carapicuiba",
        "operator": "Secretaria da Educação do Estado de São Paulo",
        "phone": "4187-4501",
        "id": "way/538822438"
      },
      "geometry": {
        "type": "Polygon",
        "coordinates": [
          [
            [
              -46.8479188,
              -23.5475279
            ],
            [
              -46.8474478,
              -23.548076
            ],
            [
              -46.8468041,
              -23.5477907
            ],
            [
              -46.8473727,
              -23.5473126
            ],
            [
              -46.8476724,
              -23.5473966
            ],
            [
              -46.8479188,
              -23.5475279
            ]
          ]
        ]
      }
    },
    {
      "type": "Feature",
      "id": "way/546323534",
      "properties": {
        "timestamp": "2023-10-23T04:10:30Z",
        "version": 4,
        "changeset": 142997100,
        "addr:city": "Carapicuíba",
        "addr:country": "BR",
        "addr:housenumber": "85",
        "addr:postcode": "06327-130",
        "addr:street": "Rua Araguari",
        "addr:suburb": "Conjunto Habitacional Presidente Castelo Branco",
        "amenity": "school",
        "barrier": "wall",
        "contact:phone": "+55 11 4187 3463",
        "email": "e902093a@educacao.sp.gov.br",
        "name": "Escola Estadual Professora Aparecida de Fátima Silva",
        "operator": "Secretaria da Educação do Estado de São Paulo",
        "operator:type": "government",
        "phone": "+55 11 4187 3358",
        "ref": "INEP-35902093",
        "id": "way/546323534"
      },
      "geometry": {
        "type": "Polygon",
        "coordinates": [
          [
            [
              -46.8219942,
              -23.5325111
            ],
            [
              -46.8222635,
              -23.5327802
            ],
            [
              -46.8220543,
              -23.5329537
            ],
            [
              -46.8217985,
              -23.5331658
            ],
            [
              -46.8211146,
              -23.5324649
            ],
            [
              -46.821128,
              -23.5324084
            ],
            [
              -46.82171,
              -23.5319313
            ],
            [
              -46.8218575,
              -23.531892
            ],
            [
              -46.8219541,
              -23.5319215
            ],
            [
              -46.8222877,
              -23.5322555
            ],
            [
              -46.8219942,
              -23.5325111
            ]
          ]
        ]
      }
    },
    {
      "type": "Feature",
      "id": "way/548731028",
      "properties": {
        "timestamp": "2021-05-28T16:53:32Z",
        "version": 5,
        "changeset": 105504392,
        "addr:city": "Carapicuíba",
        "addr:country": "BR",
        "addr:housenumber": "100",
        "addr:postcode": "06386-040",
        "addr:street": "Avenida São Paulo Apóstolo",
        "addr:suburb": "Conjunto Habitacional Castelo Branco",
        "amenity": "school",
        "contact:phone": "+55 11 4184 5707",
        "email": "e035439a@educacao.sp.gov.br",
        "name": "Escola Estadual Professor Manoel Conceição dos Santos",
        "operator": "Secretaria da Educação do Estado de São Paulo",
        "operator:type": "government",
        "phone": "+55 11 4164 3059",
        "ref": "INEP-35035439",
        "id": "way/548731028"
      },
      "geometry": {
        "type": "Polygon",
        "coordinates": [
          [
            [
              -46.8279128,
              -23.5309981
            ],
            [
              -46.8278382,
              -23.5310957
            ],
            [
              -46.8277074,
              -23.5312116
            ],
            [
              -46.8276558,
              -23.5312418
            ],
            [
              -46.8274603,
              -23.5310243
            ],
            [
              -46.8273338,
              -23.5311348
            ],
            [
              -46.8269493,
              -23.5307177
            ],
            [
              -46.8269084,
              -23.5307527
            ],
            [
              -46.8267276,
              -23.5305377
            ],
            [
              -46.8268796,
              -23.5304228
            ],
            [
              -46.8270698,
              -23.5306194
            ],
            [
              -46.827165,
              -23.5307195
            ],
            [
              -46.8272174,
              -23.5306817
            ],
            [
              -46.8273601,
              -23.530574
            ],
            [
              -46.8274749,
              -23.5306694
            ],
            [
              -46.8275714,
              -23.5306027
            ],
            [
              -46.8277441,
              -23.530799
            ],
            [
              -46.8279128,
              -23.5309981
            ]
          ]
        ]
      }
    },
    {
      "type": "Feature",
      "id": "way/548858697",
      "properties": {
        "timestamp": "2017-12-24T13:56:06Z",
        "version": 1,
        "changeset": 54888154,
        "addr:city": "Carapicuíba",
        "addr:housenumber": "127",
        "addr:postcode": "06321-040",
        "addr:street": "Rua Adão Gonçalves da Costa",
        "addr:suburb": "Jardim Jussara",
        "amenity": "school",
        "name": "Colégio Perini",
        "id": "way/548858697"
      },
      "geometry": {
        "type": "Polygon",
        "coordinates": [
          [
            [
              -46.8285259,
              -23.5370157
            ],
            [
              -46.8283406,
              -23.5371527
            ],
            [
              -46.8283007,
              -23.5370998
            ],
            [
              -46.8284781,
              -23.5369609
            ],
            [
              -46.8285259,
              -23.5370157
            ]
          ]
        ]
      }
    },
    {
      "type": "Feature",
      "id": "way/548887988",
      "properties": {
        "timestamp": "2017-12-31T22:41:39Z",
        "version": 2,
        "changeset": 55067110,
        "addr:city": "Carapicuíba",
        "addr:country": "BR",
        "addr:housenumber": "129",
        "addr:postcode": "06381-090",
        "addr:street": "Estrada do Pequiá",
        "addr:suburb": "Vila Silvania",
        "amenity": "school",
        "contact:phone": "+55 11 4187 6275",
        "email": "e035476a@educacao.sp.gov.br",
        "name": "Escola Estadual Professor Celso Pacheco Bentin",
        "operator": "Secretaria da Educação do Estado de São Paulo",
        "phone": "+55 11 4187 3612",
        "id": "way/548887988"
      },
      "geometry": {
        "type": "Polygon",
        "coordinates": [
          [
            [
              -46.8413093,
              -23.5486725
            ],
            [
              -46.8413777,
              -23.5489405
            ],
            [
              -46.8415427,
              -23.5491741
            ],
            [
              -46.8403491,
              -23.549538
            ],
            [
              -46.840274,
              -23.5488421
            ],
            [
              -46.8413093,
              -23.5486725
            ]
          ]
        ]
      }
    },
    {
      "type": "Feature",
      "id": "way/578279225",
      "properties": {
        "timestamp": "2024-10-19T14:12:50Z",
        "version": 4,
        "changeset": 158092799,
        "addr:city": "Carapicuíba",
        "addr:country": "BR",
        "addr:housenumber": "670",
        "addr:postcode": "06311-000",
        "addr:street": "Avenida Ruy Barbosa",
        "addr:suburb": "Centro",
        "amenity": "school",
        "barrier": "wall",
        "email": "e009726a@educacao.sp.gov.br",
        "name": "Escola Estadual Engenheiro Mario Sales Souto",
        "operator": "Secretaria da Educação do Estado de São Paulo",
        "operator:type": "government",
        "phone": "+55 11 4164 3063",
        "ref": "INEP-35009726",
        "id": "way/578279225"
      },
      "geometry": {
        "type": "Polygon",
        "coordinates": [
          [
            [
              -46.8375959,
              -23.5196731
            ],
            [
              -46.8374283,
              -23.5196461
            ],
            [
              -46.8373095,
              -23.5196313
            ],
            [
              -46.8370126,
              -23.5196117
            ],
            [
              -46.836889,
              -23.5193755
            ],
            [
              -46.8368853,
              -23.5193326
            ],
            [
              -46.8369066,
              -23.5192957
            ],
            [
              -46.8374753,
              -23.5187724
            ],
            [
              -46.8378891,
              -23.5188586
            ],
            [
              -46.8378423,
              -23.5191052
            ],
            [
              -46.8377044,
              -23.5190854
            ],
            [
              -46.8375959,
              -23.5196731
            ]
          ]
        ]
      }
    },
    {
      "type": "Feature",
      "id": "way/578280887",
      "properties": {
        "timestamp": "2024-10-19T14:12:50Z",
        "version": 4,
        "changeset": 158092799,
        "addr:city": "Carapicuíba",
        "addr:country": "BR",
        "addr:housenumber": "820",
        "addr:postcode": "06311-000",
        "addr:street": "Avenida Ruy Barbosa",
        "addr:suburb": "Centro",
        "amenity": "school",
        "contact:phone": "+55 11 4184 4904",
        "email": "e009751a@educacao.sp.gov.br",
        "name": "Escola Estadual Toufic Joulian",
        "operator": "Secretaria da Educação do Estado de São Paulo",
        "operator:type": "government",
        "phone": "+55 11 4164 3064",
        "ref": "INEP-35009751",
        "id": "way/578280887"
      },
      "geometry": {
        "type": "Polygon",
        "coordinates": [
          [
            [
              -46.8379991,
              -23.5197436
            ],
            [
              -46.837734,
              -23.5196973
            ],
            [
              -46.8378423,
              -23.5191052
            ],
            [
              -46.8378891,
              -23.5188586
            ],
            [
              -46.8374753,
              -23.5187724
            ],
            [
              -46.8376034,
              -23.518663
            ],
            [
              -46.8376096,
              -23.518656
            ],
            [
              -46.8378763,
              -23.5186894
            ],
            [
              -46.8381761,
              -23.5187412
            ],
            [
              -46.8379991,
              -23.5197436
            ]
          ]
        ]
      }
    },
    {
      "type": "Feature",
      "id": "way/599508053",
      "properties": {
        "timestamp": "2019-08-29T23:04:12Z",
        "version": 3,
        "changeset": 73900890,
        "addr:housenumber": "400",
        "addr:postcode": "06386-040",
        "addr:street": "Avenida São Paulo Apostólo",
        "addr:suburb": "Conjunto Habitacional Castelo Branco",
        "amenity": "school",
        "name": "Escola Municipal de Educação Infantil Abelhinha",
        "ref": "Abelhinha",
        "id": "way/599508053"
      },
      "geometry": {
        "type": "Polygon",
        "coordinates": [
          [
            [
              -46.8271622,
              -23.5296912
            ],
            [
              -46.827524,
              -23.5297952
            ],
            [
              -46.8274746,
              -23.5299398
            ],
            [
              -46.8271128,
              -23.5298357
            ],
            [
              -46.8271622,
              -23.5296912
            ]
          ]
        ]
      }
    },
    {
      "type": "Feature",
      "id": "way/615972908",
      "properties": {
        "timestamp": "2021-05-28T18:25:14Z",
        "version": 2,
        "changeset": 105507643,
        "addr:city": "Carapicuíba",
        "addr:housenumber": "3500",
        "addr:postcode": "06329-350",
        "addr:street": "Avenida Presidente Tancredo de Almeida Neves",
        "addr:suburb": "Conjunto Habitacional Presidente Castelo Branco",
        "alt_name": "EMEI Castelo Encantado",
        "amenity": "school",
        "email": "emeicastelo.encantado@yahoo.com.br",
        "name": "Escola Municipal de Educação Infantil Castelo Encantado",
        "phone": "+55 11 4187 3707",
        "ref": "INEP-35236202",
        "source": "CADMEC 2017",
        "id": "way/615972908"
      },
      "geometry": {
        "type": "Polygon",
        "coordinates": [
          [
            [
              -46.8215381,
              -23.5339001
            ],
            [
              -46.8211711,
              -23.5335369
            ],
            [
              -46.8217792,
              -23.5333518
            ],
            [
              -46.8219536,
              -23.533524
            ],
            [
              -46.8215381,
              -23.5339001
            ]
          ]
        ]
      }
    },
    {
      "type": "Feature",
      "id": "way/652483194",
      "properties": {
        "timestamp": "2021-10-11T20:55:01Z",
        "version": 2,
        "changeset": 112392142,
        "addr:housenumber": "33",
        "addr:postcode": "06330-000",
        "addr:street": "Estrada do Guapiúva",
        "addr:suburb": "Jardim Goipuva",
        "amenity": "school",
        "email": "e009647a@educacao.sp.gov.br",
        "name": "Escola Estadual Professora Flora Stella",
        "operator": "Secretaria da Educação do Estado de São Paulo",
        "operator:type": "government",
        "phone": "+55 11 4187 0131",
        "ref": "INEP-35009647",
        "source": "CADMEC 2017",
        "id": "way/652483194"
      },
      "geometry": {
        "type": "Polygon",
        "coordinates": [
          [
            [
              -46.823778,
              -23.5475955
            ],
            [
              -46.8228848,
              -23.5483578
            ],
            [
              -46.822791,
              -23.5484291
            ],
            [
              -46.8228071,
              -23.5483209
            ],
            [
              -46.8226864,
              -23.5483062
            ],
            [
              -46.8226354,
              -23.5480898
            ],
            [
              -46.8227051,
              -23.5474333
            ],
            [
              -46.823778,
              -23.5475955
            ]
          ]
        ]
      }
    },
    {
      "type": "Feature",
      "id": "way/653481954",
      "properties": {
        "timestamp": "2018-12-07T23:42:52Z",
        "version": 1,
        "changeset": 65282585,
        "addr:housenumber": "370",
        "addr:postcode": "06361-400",
        "addr:street": "Estrada do Jacarandá",
        "addr:suburb": "Alto de Santa Lúcia",
        "amenity": "school",
        "contact:phone": "+55 11 4187 4718",
        "email": "eE909221a@educacao.sp.gov.br",
        "name": "Escola Estadual Maria de Lourdes Teixeira",
        "operator": "Secretaria da Educação do Estado de São Paulo",
        "phone": "+55 11 4187 1393",
        "id": "way/653481954"
      },
      "geometry": {
        "type": "Polygon",
        "coordinates": [
          [
            [
              -46.8461676,
              -23.5562553
            ],
            [
              -46.8461596,
              -23.5563069
            ],
            [
              -46.8461033,
              -23.556334
            ],
            [
              -46.8459638,
              -23.5563782
            ],
            [
              -46.8458458,
              -23.5563315
            ],
            [
              -46.8456956,
              -23.5561791
            ],
            [
              -46.8456151,
              -23.5559553
            ],
            [
              -46.8454166,
              -23.5558275
            ],
            [
              -46.8454595,
              -23.5558078
            ],
            [
              -46.8453898,
              -23.5556849
            ],
            [
              -46.8453496,
              -23.5556947
            ],
            [
              -46.8452181,
              -23.5554341
            ],
            [
              -46.8452235,
              -23.55538
            ],
            [
              -46.8454354,
              -23.5552571
            ],
            [
              -46.8461676,
              -23.5562553
            ]
          ]
        ]
      }
    },
    {
      "type": "Feature",
      "id": "way/653481956",
      "properties": {
        "timestamp": "2021-10-11T15:03:31Z",
        "version": 2,
        "changeset": 112379295,
        "addr:housenumber": "7",
        "addr:postcode": "06361-400",
        "addr:street": "Estrada do Jacarandá",
        "addr:suburb": "Alto de Santa Lúcia",
        "amenity": "school",
        "contact:phone": "+55 11 4169 9492",
        "email": "eE040587a@educacao.sp.gov.br",
        "name": "Escola Estadual Professor Luiz Pereira Sobrinho",
        "operator": "Secretaria da Educação do Estado de São Paulo",
        "operator:type": "government",
        "phone": "+55 11 4169 8305",
        "ref": "INEP-35040587",
        "source": "CADMEC 2017",
        "id": "way/653481956"
      },
      "geometry": {
        "type": "Polygon",
        "coordinates": [
          [
            [
              -46.8472209,
              -23.5612916
            ],
            [
              -46.8472227,
              -23.5614728
            ],
            [
              -46.8473005,
              -23.5614777
            ],
            [
              -46.8473407,
              -23.5620137
            ],
            [
              -46.8467506,
              -23.56204
            ],
            [
              -46.8467346,
              -23.5612784
            ],
            [
              -46.8472209,
              -23.5612916
            ]
          ]
        ]
      }
    },
    {
      "type": "Feature",
      "id": "way/685067810",
      "properties": {
        "timestamp": "2019-04-21T12:15:43Z",
        "version": 1,
        "changeset": 69423272,
        "amenity": "school",
        "id": "way/685067810"
      },
      "geometry": {
        "type": "Polygon",
        "coordinates": [
          [
            [
              -46.8482121,
              -23.5463735
            ],
            [
              -46.8479071,
              -23.5460345
            ],
            [
              -46.8482706,
              -23.5457577
            ],
            [
              -46.8485264,
              -23.5457267
            ],
            [
              -46.848742,
              -23.5457069
            ],
            [
              -46.8486866,
              -23.5459018
            ],
            [
              -46.8486743,
              -23.546043
            ],
            [
              -46.8484493,
              -23.5461871
            ],
            [
              -46.8482953,
              -23.5462944
            ],
            [
              -46.8482121,
              -23.5463735
            ]
          ]
        ]
      }
    },
    {
      "type": "Feature",
      "id": "way/775443739",
      "properties": {
        "timestamp": "2020-08-18T19:32:28Z",
        "version": 2,
        "changeset": 89593095,
        "addr:housenumber": "249",
        "addr:postcode": "06395-060",
        "addr:street": "Rua Gália",
        "addr:suburb": "Cidade Ariston",
        "amenity": "school",
        "contact:phone": "+55 11 4181 8256",
        "email": "e035452a@educacao.sp.gov.br",
        "name": "Escola Estadual Professora Cecília de Palma Valentim Sardinha",
        "operator": "Secretaria da Educação do Estado de São Paulo",
        "operator:type": "government",
        "phone": "+55 11 4181 5271",
        "ref": "INEP-35035452",
        "id": "way/775443739"
      },
      "geometry": {
        "type": "Polygon",
        "coordinates": [
          [
            [
              -46.8525408,
              -23.529033
            ],
            [
              -46.8525063,
              -23.5291404
            ],
            [
              -46.852455,
              -23.5292632
            ],
            [
              -46.852306,
              -23.5294574
            ],
            [
              -46.8520942,
              -23.5296055
            ],
            [
              -46.8516622,
              -23.5298635
            ],
            [
              -46.851591,
              -23.5293667
            ],
            [
              -46.8520408,
              -23.5291021
            ],
            [
              -46.8520816,
              -23.5289304
            ],
            [
              -46.8520764,
              -23.5287932
            ],
            [
              -46.8525617,
              -23.5288911
            ],
            [
              -46.8525408,
              -23.529033
            ]
          ]
        ]
      }
    },
    {
      "type": "Feature",
      "id": "way/775443741",
      "properties": {
        "timestamp": "2020-02-22T03:33:26Z",
        "version": 1,
        "changeset": 81337969,
        "addr:housenumber": "669",
        "addr:postcode": "06395-060",
        "addr:street": "Rua Gália",
        "addr:suburb": "Cidade Ariston",
        "amenity": "school",
        "contact:phone": "+55 11 4184 7716",
        "name": "Escola Municipal de Educação Infantil Cidade Ariston",
        "phone": "+55 11 4181 8854",
        "id": "way/775443741"
      },
      "geometry": {
        "type": "Polygon",
        "coordinates": [
          [
            [
              -46.8518137,
              -23.5314102
            ],
            [
              -46.8520813,
              -23.5318231
            ],
            [
              -46.8519475,
              -23.5319219
            ],
            [
              -46.8518235,
              -23.5319607
            ],
            [
              -46.8516717,
              -23.5319607
            ],
            [
              -46.8517125,
              -23.5312965
            ],
            [
              -46.8518137,
              -23.5314102
            ]
          ]
        ]
      }
    },
    {
      "type": "Feature",
      "id": "way/824279604",
      "properties": {
        "timestamp": "2020-08-18T19:32:28Z",
        "version": 2,
        "changeset": 89593095,
        "addr:city": "Carapicuíba",
        "addr:housenumber": "521",
        "addr:postcode": "06395-230",
        "addr:street": "Rua Jaú",
        "addr:suburb": "Cidade Ariston Estela Azevedo",
        "amenity": "school",
        "contact:phone": "+55 11 4181 5586",
        "email": "e038544a@educacao.sp.gov.br",
        "name": "Escola Estadual Deputado Salomão Jorge",
        "operator": "Secretaria da Educação do Estado de São Paulo",
        "operator:type": "government",
        "phone": "+55 11 4181 8354",
        "ref": "INEP-35038544",
        "id": "way/824279604"
      },
      "geometry": {
        "type": "Polygon",
        "coordinates": [
          [
            [
              -46.8521822,
              -23.5354056
            ],
            [
              -46.8522104,
              -23.5354258
            ],
            [
              -46.8520821,
              -23.5355771
            ],
            [
              -46.8519917,
              -23.5357173
            ],
            [
              -46.8519215,
              -23.5358008
            ],
            [
              -46.8518422,
              -23.5358871
            ],
            [
              -46.8516919,
              -23.5359278
            ],
            [
              -46.851534,
              -23.5358544
            ],
            [
              -46.8514247,
              -23.5356879
            ],
            [
              -46.8513608,
              -23.5355504
            ],
            [
              -46.8514595,
              -23.5354732
            ],
            [
              -46.8513905,
              -23.5353468
            ],
            [
              -46.851424,
              -23.5352759
            ],
            [
              -46.8515563,
              -23.5352053
            ],
            [
              -46.8516811,
              -23.5351878
            ],
            [
              -46.8519586,
              -23.5351451
            ],
            [
              -46.852003,
              -23.5352055
            ],
            [
              -46.852024,
              -23.5352403
            ],
            [
              -46.8520559,
              -23.5352763
            ],
            [
              -46.8520994,
              -23.5353295
            ],
            [
              -46.8521558,
              -23.5353789
            ],
            [
              -46.8521822,
              -23.5354056
            ]
          ]
        ]
      }
    },
    {
      "type": "Feature",
      "id": "way/824279605",
      "properties": {
        "timestamp": "2020-08-18T19:32:28Z",
        "version": 3,
        "changeset": 89593095,
        "addr:city": "Carapicuíba",
        "addr:housenumber": "85",
        "addr:postcode": "06395-350",
        "addr:street": "Rua Mirassol",
        "addr:suburb": "Cidade Ariston Estela Azevedo",
        "amenity": "school",
        "contact:phone": "+55 11 4181 1019",
        "name": "EMEF Vereador Edegar Simões",
        "operator": "Prefeitura de Carapicuíba",
        "operator:type": "government",
        "phone": "+55 11 4181 4351",
        "ref": "INEP-35090578",
        "id": "way/824279605"
      },
      "geometry": {
        "type": "Polygon",
        "coordinates": [
          [
            [
              -46.8513201,
              -23.5362376
            ],
            [
              -46.8512235,
              -23.5363162
            ],
            [
              -46.8508855,
              -23.5364933
            ],
            [
              -46.8506763,
              -23.5365277
            ],
            [
              -46.8507514,
              -23.5358933
            ],
            [
              -46.8509799,
              -23.5358067
            ],
            [
              -46.8512003,
              -23.5356866
            ],
            [
              -46.8512567,
              -23.5355684
            ],
            [
              -46.8514414,
              -23.5357417
            ],
            [
              -46.8514619,
              -23.5358819
            ],
            [
              -46.8515677,
              -23.536018
            ],
            [
              -46.8513201,
              -23.5362376
            ]
          ]
        ]
      }
    },
    {
      "type": "Feature",
      "id": "way/838338225",
      "properties": {
        "timestamp": "2022-07-23T19:27:58Z",
        "version": 2,
        "changeset": 123987905,
        "addr:housenumber": "675",
        "addr:postcode": "06317-270",
        "addr:street": "Rua José Fernandes Teixeira Zuza",
        "addr:suburb": "Vila Rosa",
        "amenity": "school",
        "contact:phone": "+55 11 4184 4957",
        "email": "e049037a@educacao.sp.gov.br",
        "name": "Escola Estadual Fabiana de Queiroz",
        "operator": "Secretaria da Educação do Estado de São Paulo",
        "operator:type": "government",
        "phone": "+55 11 4164 3066",
        "ref": "INEP-35049037",
        "religion": "none",
        "id": "way/838338225"
      },
      "geometry": {
        "type": "Polygon",
        "coordinates": [
          [
            [
              -46.847609,
              -23.5290011
            ],
            [
              -46.8465324,
              -23.5293123
            ],
            [
              -46.846402,
              -23.5289599
            ],
            [
              -46.8466807,
              -23.5288631
            ],
            [
              -46.8470269,
              -23.5287456
            ],
            [
              -46.8472179,
              -23.5285951
            ],
            [
              -46.8473146,
              -23.5284282
            ],
            [
              -46.8474989,
              -23.5286013
            ],
            [
              -46.847609,
              -23.5290011
            ]
          ]
        ]
      }
    },
    {
      "type": "Feature",
      "id": "way/852074436",
      "properties": {
        "timestamp": "2020-09-27T16:56:30Z",
        "version": 3,
        "changeset": 91590892,
        "addr:housenumber": "500",
        "addr:postcode": "06341-000",
        "addr:street": "Rua Ministro Nelson Hungria",
        "addr:suburb": "Chácara Quiririm",
        "amenity": "school",
        "contact:phone": "+55 11 4186 6899",
        "email": "e914800A@educacao.sp.gov.br",
        "grades": "7-12",
        "name": "Escola Estadual Professor Adalberto Mecca Sampaio",
        "operator": "Secretaria da Educação do Estado de São Paulo",
        "operator:type": "government",
        "phone": "+55 11 4186 4726",
        "ref": "INEP-35914800",
        "id": "way/852074436"
      },
      "geometry": {
        "type": "Polygon",
        "coordinates": [
          [
            [
              -46.8265182,
              -23.5695286
            ],
            [
              -46.8266387,
              -23.5697775
            ],
            [
              -46.8267657,
              -23.5700144
            ],
            [
              -46.8269518,
              -23.5702291
            ],
            [
              -46.8265648,
              -23.5705781
            ],
            [
              -46.8265083,
              -23.5705206
            ],
            [
              -46.8263096,
              -23.5703595
            ],
            [
              -46.8259017,
              -23.5700873
            ],
            [
              -46.8258515,
              -23.5700432
            ],
            [
              -46.8258431,
              -23.5700067
            ],
            [
              -46.8258577,
              -23.569976
            ],
            [
              -46.8258996,
              -23.569953
            ],
            [
              -46.8259707,
              -23.5699358
            ],
            [
              -46.8261276,
              -23.5698648
            ],
            [
              -46.8262448,
              -23.5697613
            ],
            [
              -46.8265182,
              -23.5695286
            ]
          ]
        ]
      }
    },
    {
      "type": "Feature",
      "id": "way/947845606",
      "properties": {
        "timestamp": "2021-05-27T17:28:17Z",
        "version": 1,
        "changeset": 105441074,
        "amenity": "school",
        "id": "way/947845606"
      },
      "geometry": {
        "type": "Polygon",
        "coordinates": [
          [
            [
              -46.8247075,
              -23.5397553
            ],
            [
              -46.8248523,
              -23.5401512
            ],
            [
              -46.8244473,
              -23.5402594
            ],
            [
              -46.8243132,
              -23.539893
            ],
            [
              -46.8247075,
              -23.5397553
            ]
          ]
        ]
      }
    },
    {
      "type": "Feature",
      "id": "way/947848944",
      "properties": {
        "timestamp": "2021-05-27T17:36:54Z",
        "version": 1,
        "changeset": 105441620,
        "addr:housenumber": "31",
        "addr:postcode": "06329-190",
        "addr:street": "Rua Maria Cecília",
        "addr:suburb": "Jardim Cecília Cristina",
        "amenity": "school",
        "contact:phone": "+55 11 4187 0151",
        "email": "e040605A@educacao.sp.gov.br",
        "name": "Escola Estadual Jorge Julian",
        "operator": "Secretaria da Educação do Estado de São Paulo",
        "operator:type": "government",
        "phone": "+55 11 4187 9692",
        "ref": "INEP-35040605",
        "source": "CADMEC 2017;INEP",
        "id": "way/947848944"
      },
      "geometry": {
        "type": "Polygon",
        "coordinates": [
          [
            [
              -46.8233799,
              -23.5405605
            ],
            [
              -46.8229537,
              -23.5405263
            ],
            [
              -46.822934,
              -23.5405484
            ],
            [
              -46.8227231,
              -23.5405525
            ],
            [
              -46.8225934,
              -23.5401436
            ],
            [
              -46.8227011,
              -23.5398778
            ],
            [
              -46.822734,
              -23.5396965
            ],
            [
              -46.8231383,
              -23.5396985
            ],
            [
              -46.8231954,
              -23.5397408
            ],
            [
              -46.8231844,
              -23.5402
            ],
            [
              -46.8233799,
              -23.5405605
            ]
          ]
        ]
      }
    },
    {
      "type": "Feature",
      "id": "way/948257233",
      "properties": {
        "timestamp": "2021-05-28T19:18:20Z",
        "version": 1,
        "changeset": 105509307,
        "addr:housenumber": "325",
        "addr:postcode": "06317-270",
        "addr:street": "Rua José Fernandes Teixeira - Zuza",
        "addr:suburb": "Vila Crett",
        "amenity": "school",
        "name": "Escola de Educacional Infantil Peter Pan",
        "phone": "+55 11 4374 3691",
        "ref": "INEP-35004976",
        "source": "INEP;CADMEC 2017",
        "id": "way/948257233"
      },
      "geometry": {
        "type": "Polygon",
        "coordinates": [
          [
            [
              -46.8441954,
              -23.529762
            ],
            [
              -46.8442695,
              -23.5298371
            ],
            [
              -46.8443411,
              -23.5299098
            ],
            [
              -46.8441438,
              -23.5300044
            ],
            [
              -46.8440509,
              -23.5298235
            ],
            [
              -46.8441954,
              -23.529762
            ]
          ]
        ]
      }
    },
    {
      "type": "Feature",
      "id": "way/948740439",
      "properties": {
        "timestamp": "2021-05-30T17:56:12Z",
        "version": 2,
        "changeset": 105578083,
        "addr:housenumber": "410",
        "addr:postcode": "06343-000",
        "addr:street": "Rua João Fasoli",
        "addr:suburb": "Jardim Marilú",
        "amenity": "school",
        "contact:phone": "+55 11 4186 7334",
        "email": "e009660A@educacao.sp.gov.br",
        "name": "EScola Estadual Professora Esmeralda Becker Freire de Carvalho",
        "operator": "Secretaria da Educação do Estado de São Paulo",
        "operator:type": "government",
        "phone": "+55 11 41866161",
        "ref": "INEP-35009660",
        "source": "INEP;CADMEC 2017",
        "id": "way/948740439"
      },
      "geometry": {
        "type": "Polygon",
        "coordinates": [
          [
            [
              -46.8342177,
              -23.5721561
            ],
            [
              -46.8339924,
              -23.572456
            ],
            [
              -46.8336544,
              -23.5720061
            ],
            [
              -46.8340111,
              -23.5718144
            ],
            [
              -46.8342177,
              -23.5721561
            ]
          ]
        ]
      }
    },
    {
      "type": "Feature",
      "id": "way/991757784",
      "properties": {
        "timestamp": "2021-10-10T18:43:19Z",
        "version": 1,
        "changeset": 112345057,
        "amenity": "school",
        "id": "way/991757784"
      },
      "geometry": {
        "type": "Polygon",
        "coordinates": [
          [
            [
              -46.8449831,
              -23.5379399
            ],
            [
              -46.8449321,
              -23.5380432
            ],
            [
              -46.8449025,
              -23.5380323
            ],
            [
              -46.8448677,
              -23.5381046
            ],
            [
              -46.8448941,
              -23.5381229
            ],
            [
              -46.8448463,
              -23.53823
            ],
            [
              -46.8447229,
              -23.5381882
            ],
            [
              -46.8448007,
              -23.5380554
            ],
            [
              -46.8447443,
              -23.5380382
            ],
            [
              -46.84468,
              -23.5381587
            ],
            [
              -46.8445807,
              -23.5381194
            ],
            [
              -46.8447122,
              -23.5378194
            ],
            [
              -46.8448302,
              -23.5378661
            ],
            [
              -46.8447899,
              -23.5379423
            ],
            [
              -46.8448409,
              -23.537962
            ],
            [
              -46.8448838,
              -23.5378882
            ],
            [
              -46.8449831,
              -23.5379399
            ]
          ]
        ]
      }
    },
    {
      "type": "Feature",
      "id": "way/992238818",
      "properties": {
        "timestamp": "2021-10-12T15:06:34Z",
        "version": 1,
        "changeset": 112422272,
        "addr:housenumber": "527",
        "addr:postcode": "06331-005",
        "addr:street": "Estrada da Gabiroba",
        "addr:suburb": "Jardim Maria Rita",
        "amenity": "school",
        "contact:phone": "+55 11 4187 1902",
        "name": "Escola Estadual Deputado Derville Allegretti",
        "operator": "Secretaria da Educação do Estado de São Paulo",
        "operator:type": "government",
        "phone": "+55 11 4187 0160",
        "ref": "INEP-35040617",
        "source": "CADMEC 2017",
        "website": "e040617a@educacao.sp.gov.br",
        "id": "way/992238818"
      },
      "geometry": {
        "type": "Polygon",
        "coordinates": [
          [
            [
              -46.8293922,
              -23.5445769
            ],
            [
              -46.8295358,
              -23.5445736
            ],
            [
              -46.8296843,
              -23.5449465
            ],
            [
              -46.828948,
              -23.5454311
            ],
            [
              -46.8284773,
              -23.5446455
            ],
            [
              -46.8285618,
              -23.5445946
            ],
            [
              -46.8293922,
              -23.5445769
            ]
          ]
        ]
      }
    },
    {
      "type": "Feature",
      "id": "way/1217670018",
      "properties": {
        "timestamp": "2023-10-23T03:48:44Z",
        "version": 1,
        "changeset": 142996583,
        "addr:housenumber": "310",
        "addr:street": "Avenida Pilar do Sul",
        "amenity": "school",
        "barrier": "wall",
        "name": "E.E Professor Celestino Correia Pina",
        "id": "way/1217670018"
      },
      "geometry": {
        "type": "Polygon",
        "coordinates": [
          [
            [
              -46.8276665,
              -23.5259015
            ],
            [
              -46.8271395,
              -23.5260099
            ],
            [
              -46.8269007,
              -23.5252551
            ],
            [
              -46.8271074,
              -23.5251814
            ],
            [
              -46.8273026,
              -23.5251172
            ],
            [
              -46.8278193,
              -23.5249856
            ],
            [
              -46.8278893,
              -23.5249845
            ],
            [
              -46.8279283,
              -23.5249961
            ],
            [
              -46.8279352,
              -23.5250287
            ],
            [
              -46.8279077,
              -23.5250719
            ],
            [
              -46.8278353,
              -23.5251719
            ],
            [
              -46.8276815,
              -23.5254804
            ],
            [
              -46.8276597,
              -23.5256025
            ],
            [
              -46.8276608,
              -23.5257331
            ],
            [
              -46.8276872,
              -23.5258794
            ],
            [
              -46.8276665,
              -23.5259015
            ]
          ]
        ]
      }
    },
    {
      "type": "Feature",
      "id": "way/1217670573",
      "properties": {
        "timestamp": "2023-10-23T03:56:28Z",
        "version": 1,
        "changeset": 142996730,
        "addr:city": "Carapicuiba",
        "addr:housenumber": "224",
        "addr:street": "Avenida Amazonas",
        "amenity": "school",
        "barrier": "wall",
        "name": "E.E Andrei Sakharov",
        "id": "way/1217670573"
      },
      "geometry": {
        "type": "Polygon",
        "coordinates": [
          [
            [
              -46.8289042,
              -23.5274887
            ],
            [
              -46.8287786,
              -23.527857
            ],
            [
              -46.8285075,
              -23.5277857
            ],
            [
              -46.8285015,
              -23.5276971
            ],
            [
              -46.8284955,
              -23.5276084
            ],
            [
              -46.8285065,
              -23.527496
            ],
            [
              -46.8285264,
              -23.527422
            ],
            [
              -46.8285553,
              -23.5273936
            ],
            [
              -46.8289042,
              -23.5274887
            ]
          ]
        ]
      }
    },
    {
      "type": "Feature",
      "id": "way/1217671620",
      "properties": {
        "timestamp": "2023-10-23T04:05:14Z",
        "version": 1,
        "changeset": 142996969,
        "addr:city": "Carapicuíba",
        "addr:housenumber": "1660",
        "addr:street": "Avenida Amazonas",
        "amenity": "school",
        "barrier": "wall",
        "name": "E.E Professor Willian Rodrigues Rebuá",
        "id": "way/1217671620"
      },
      "geometry": {
        "type": "Polygon",
        "coordinates": [
          [
            [
              -46.8233178,
              -23.5309165
            ],
            [
              -46.8229046,
              -23.532334
            ],
            [
              -46.8221758,
              -23.5316466
            ],
            [
              -46.8221052,
              -23.5315626
            ],
            [
              -46.8221202,
              -23.5314992
            ],
            [
              -46.8221969,
              -23.5314028
            ],
            [
              -46.8224452,
              -23.5312746
            ],
            [
              -46.8224959,
              -23.5312485
            ],
            [
              -46.8226859,
              -23.531141
            ],
            [
              -46.822888,
              -23.5310556
            ],
            [
              -46.823169,
              -23.5309592
            ],
            [
              -46.8233178,
              -23.5309165
            ]
          ]
        ]
      }
    },
    {
      "type": "Feature",
      "id": "way/1225899860",
      "properties": {
        "timestamp": "2024-10-27T14:26:05Z",
        "version": 2,
        "changeset": 158415590,
        "addr:city": "Carapicuíba",
        "addr:street": "Avenida Francisco Pignatari",
        "addr:suburb": "Vila Gustavo Correia",
        "alt_name": "Escola SESI-SP de Carapicuíba",
        "amenity": "school",
        "name": "SESI Carapicuiba",
        "phone": "+55 11 4184 2321",
        "ref": "CE 077",
        "religion": "none",
        "website": "https://www.sesisp.org.br/educacao/carapicuiba",
        "id": "way/1225899860"
      },
      "geometry": {
        "type": "Polygon",
        "coordinates": [
          [
            [
              -46.8310895,
              -23.518763
            ],
            [
              -46.8319881,
              -23.5196982
            ],
            [
              -46.831637,
              -23.5200048
            ],
            [
              -46.8311104,
              -23.5202424
            ],
            [
              -46.8302744,
              -23.5203727
            ],
            [
              -46.8299735,
              -23.5202922
            ],
            [
              -46.8298397,
              -23.5201542
            ],
            [
              -46.8297979,
              -23.519932
            ],
            [
              -46.8297937,
              -23.5197403
            ],
            [
              -46.8298899,
              -23.5196215
            ],
            [
              -46.8299275,
              -23.5195142
            ],
            [
              -46.8299191,
              -23.5194031
            ],
            [
              -46.8299484,
              -23.5193149
            ],
            [
              -46.8310895,
              -23.518763
            ]
          ]
        ]
      }
    },
    {
      "type": "Feature",
      "id": "way/1254708674",
      "properties": {
        "timestamp": "2024-02-25T21:25:52Z",
        "version": 1,
        "changeset": 147909319,
        "addr:city": "Carapicuiba",
        "addr:housenumber": "61",
        "addr:street": "Rua Chapecó",
        "amenity": "school",
        "barrier": "wall",
        "name": "E.E Governador Andre Franco Montoro",
        "id": "way/1254708674"
      },
      "geometry": {
        "type": "Polygon",
        "coordinates": [
          [
            [
              -46.824235,
              -23.5443444
            ],
            [
              -46.8246648,
              -23.545155
            ],
            [
              -46.8244145,
              -23.5452369
            ],
            [
              -46.8241642,
              -23.5453188
            ],
            [
              -46.823722,
              -23.544535
            ],
            [
              -46.824235,
              -23.5443444
            ]
          ]
        ]
      }
    },
    {
      "type": "Feature",
      "id": "way/1259497074",
      "properties": {
        "timestamp": "2024-03-09T20:01:05Z",
        "version": 1,
        "changeset": 148438323,
        "addr:city": "Carapicuíba",
        "addr:housenumber": "210",
        "addr:postcode": "06397-260",
        "addr:street": "Rua Doutor Botelho",
        "addr:suburb": "Vila Lourdes",
        "amenity": "school",
        "name": "Escola Estadual Alberto Kenworthy",
        "id": "way/1259497074"
      },
      "geometry": {
        "type": "Polygon",
        "coordinates": [
          [
            [
              -46.8584904,
              -23.5319855
            ],
            [
              -46.8585132,
              -23.5324415
            ],
            [
              -46.8586003,
              -23.532551
            ],
            [
              -46.8586836,
              -23.5325929
            ],
            [
              -46.8587909,
              -23.5326394
            ],
            [
              -46.8589202,
              -23.5326846
            ],
            [
              -46.8590186,
              -23.5327363
            ],
            [
              -46.8586517,
              -23.5328039
            ],
            [
              -46.8585951,
              -23.5328143
            ],
            [
              -46.8584008,
              -23.5328501
            ],
            [
              -46.8583675,
              -23.5328171
            ],
            [
              -46.8579233,
              -23.5323777
            ],
            [
              -46.8578955,
              -23.5320329
            ],
            [
              -46.8584904,
              -23.5319855
            ]
          ]
        ]
      }
    },
    {
      "type": "Feature",
      "id": "way/1259523792",
      "properties": {
        "timestamp": "2024-03-09T21:49:37Z",
        "version": 1,
        "changeset": 148441315,
        "addr:city": "Carapicuíba",
        "addr:housenumber": "S/N",
        "addr:postcode": "06390-370",
        "addr:street": "Rua Queluz",
        "addr:suburb": "Cidade Ariston Estela Azevedo",
        "amenity": "school",
        "name": "Escola Estadual Cidade Ariston Estela Azevedo IV",
        "id": "way/1259523792"
      },
      "geometry": {
        "type": "Polygon",
        "coordinates": [
          [
            [
              -46.8553625,
              -23.5402407
            ],
            [
              -46.8557168,
              -23.5405302
            ],
            [
              -46.8557309,
              -23.5405561
            ],
            [
              -46.8557309,
              -23.5405914
            ],
            [
              -46.8557066,
              -23.5406211
            ],
            [
              -46.8556034,
              -23.5406805
            ],
            [
              -46.8555382,
              -23.540722
            ],
            [
              -46.8555016,
              -23.540703
            ],
            [
              -46.8554455,
              -23.5407046
            ],
            [
              -46.8554597,
              -23.540764
            ],
            [
              -46.8553058,
              -23.5408735
            ],
            [
              -46.8551985,
              -23.5404244
            ],
            [
              -46.8553625,
              -23.5402407
            ]
          ]
        ]
      }
    },
    {
      "type": "Feature",
      "id": "way/1259523795",
      "properties": {
        "timestamp": "2024-03-09T21:49:37Z",
        "version": 1,
        "changeset": 148441315,
        "addr:city": "Carapicuíba",
        "addr:housenumber": "404",
        "addr:postcode": "06390-240",
        "addr:street": "Rua Rafard",
        "addr:suburb": "Cidade Ariston Estela Azevedo",
        "amenity": "school",
        "grades": "1-9",
        "name": "Escola Estadual Maria Marques de Noronha",
        "id": "way/1259523795"
      },
      "geometry": {
        "type": "Polygon",
        "coordinates": [
          [
            [
              -46.8553625,
              -23.5402407
            ],
            [
              -46.8551985,
              -23.5404244
            ],
            [
              -46.8553058,
              -23.5408735
            ],
            [
              -46.8552687,
              -23.5409212
            ],
            [
              -46.8552501,
              -23.5409396
            ],
            [
              -46.8552229,
              -23.5409593
            ],
            [
              -46.8551957,
              -23.5409645
            ],
            [
              -46.8551713,
              -23.5409606
            ],
            [
              -46.8551356,
              -23.5409448
            ],
            [
              -46.8551026,
              -23.5409323
            ],
            [
              -46.855094,
              -23.5409291
            ],
            [
              -46.8550468,
              -23.5409107
            ],
            [
              -46.8549867,
              -23.5408937
            ],
            [
              -46.8548922,
              -23.5408753
            ],
            [
              -46.8548909,
              -23.5408604
            ],
            [
              -46.8548869,
              -23.5408313
            ],
            [
              -46.8548521,
              -23.5405459
            ],
            [
              -46.8547761,
              -23.5405484
            ],
            [
              -46.8547476,
              -23.5405236
            ],
            [
              -46.8545129,
              -23.5403044
            ],
            [
              -46.854573,
              -23.5402664
            ],
            [
              -46.8545794,
              -23.540263
            ],
            [
              -46.8546231,
              -23.5402401
            ],
            [
              -46.8546689,
              -23.5402178
            ],
            [
              -46.8547162,
              -23.5402034
            ],
            [
              -46.8548323,
              -23.5401886
            ],
            [
              -46.8549738,
              -23.5401706
            ],
            [
              -46.8549853,
              -23.5402113
            ],
            [
              -46.8550269,
              -23.5402026
            ],
            [
              -46.8551394,
              -23.5401792
            ],
            [
              -46.8551742,
              -23.5401719
            ],
            [
              -46.8551656,
              -23.5401417
            ],
            [
              -46.8552672,
              -23.540164
            ],
            [
              -46.8553625,
              -23.5402407
            ]
          ]
        ]
      }
    },
    {
      "type": "Feature",
      "id": "way/1259552592",
      "properties": {
        "timestamp": "2024-03-10T01:12:13Z",
        "version": 1,
        "changeset": 148445446,
        "addr:city": "Carapicuíba",
        "addr:housenumber": "17",
        "addr:postcode": "06390-070",
        "addr:street": "Estrada do Aderno",
        "addr:suburb": "Vila America",
        "amenity": "school",
        "email": "E049049A@EDUCACAO.SP.GOV.BR",
        "name": "EE Professora Elisabeth Silva de Araújo",
        "id": "way/1259552592"
      },
      "geometry": {
        "type": "Polygon",
        "coordinates": [
          [
            [
              -46.8477578,
              -23.5390193
            ],
            [
              -46.847011,
              -23.5395731
            ],
            [
              -46.8467968,
              -23.5394015
            ],
            [
              -46.8468296,
              -23.5393289
            ],
            [
              -46.8466154,
              -23.5391449
            ],
            [
              -46.8473719,
              -23.5385699
            ],
            [
              -46.8477578,
              -23.5390193
            ]
          ]
        ]
      }
    },
    {
      "type": "Feature",
      "id": "way/1259828074",
      "properties": {
        "timestamp": "2024-03-10T23:14:43Z",
        "version": 1,
        "changeset": 148483333,
        "addr:city": "Carapicuiba",
        "addr:housenumber": "S/N",
        "addr:postcode": "06360-150",
        "addr:street": "Rua Santa Helena",
        "amenity": "school",
        "barrier": "wall",
        "name": "E.E Professor José Maria Perez Ferreira",
        "phone": "+55 11 4187-4724",
        "website": "http://www.educacao.sp.gov.br/central-de-atendimento/Det_contato.asp?op=918829&detmodx=0&cod_mun=255&Ensino=0&Diretoria=10701&Modalidade=0&rede=1&nome=&distrito=0&Paginar=2&firsttime=Nao&CD_ADM=1",
        "id": "way/1259828074"
      },
      "geometry": {
        "type": "Polygon",
        "coordinates": [
          [
            [
              -46.8400009,
              -23.5603276
            ],
            [
              -46.840041,
              -23.5603682
            ],
            [
              -46.8400159,
              -23.5612376
            ],
            [
              -46.8394921,
              -23.5613041
            ],
            [
              -46.8393833,
              -23.5607161
            ],
            [
              -46.8394912,
              -23.5603406
            ],
            [
              -46.8400009,
              -23.5603276
            ]
          ]
        ]
      }
    },
    {
      "type": "Feature",
      "id": "way/1238052396",
      "properties": {
        "timestamp": "2024-01-08T13:16:03Z",
        "version": 1,
        "changeset": 146028696,
        "barrier": "wall",
        "id": "way/1238052396"
      },
      "geometry": {
        "type": "LineString",
        "coordinates": [
          [
            -46.8441939,
            -23.522109
          ],
          [
            -46.8441813,
            -23.5216687
          ],
          [
            -46.8434732,
            -23.5216857
          ]
        ]
      }
    },
    {
      "type": "Feature",
      "id": "way/1238052397",
      "properties": {
        "timestamp": "2024-01-08T13:16:03Z",
        "version": 1,
        "changeset": 146028696,
        "barrier": "wall",
        "id": "way/1238052397"
      },
      "geometry": {
        "type": "LineString",
        "coordinates": [
          [
            -46.8434858,
            -23.5221259
          ],
          [
            -46.8441939,
            -23.522109
          ]
        ]
      }
    },
    {
      "type": "Feature",
      "id": "way/1238052398",
      "properties": {
        "timestamp": "2024-01-08T13:16:03Z",
        "version": 1,
        "changeset": 146028696,
        "barrier": "fence",
        "id": "way/1238052398"
      },
      "geometry": {
        "type": "LineString",
        "coordinates": [
          [
            -46.8434732,
            -23.5216857
          ],
          [
            -46.8434791,
            -23.5218936
          ],
          [
            -46.8434858,
            -23.5221259
          ]
        ]
      }
    },
    {
      "type": "Feature",
      "id": "way/1259823273",
      "properties": {
        "timestamp": "2024-03-10T22:56:39Z",
        "version": 1,
        "changeset": 148482941,
        "barrier": "wall",
        "id": "way/1259823273"
      },
      "geometry": {
        "type": "LineString",
        "coordinates": [
          [
            -46.8244855,
            -23.5817385
          ],
          [
            -46.8242068,
            -23.5817754
          ],
          [
            -46.8242745,
            -23.5822449
          ]
        ]
      }
    },
    {
      "type": "Feature",
      "id": "way/1259823274",
      "properties": {
        "timestamp": "2024-03-10T22:56:39Z",
        "version": 1,
        "changeset": 148482941,
        "barrier": "wall",
        "id": "way/1259823274"
      },
      "geometry": {
        "type": "LineString",
        "coordinates": [
          [
            -46.8242745,
            -23.5822449
          ],
          [
            -46.8245587,
            -23.5822166
          ],
          [
            -46.8245665,
            -23.5822103
          ],
          [
            -46.8245702,
            -23.5821981
          ],
          [
            -46.824508,
            -23.581758
          ]
        ]
      }
    },
    {
      "type": "Feature",
      "id": "way/1259823275",
      "properties": {
        "timestamp": "2024-03-10T22:56:39Z",
        "version": 1,
        "changeset": 148482941,
        "barrier": "gate",
        "id": "way/1259823275"
      },
      "geometry": {
        "type": "LineString",
        "coordinates": [
          [
            -46.824508,
            -23.581758
          ],
          [
            -46.8244979,
            -23.5817458
          ],
          [
            -46.8244855,
            -23.5817385
          ]
        ]
      }
    },
    {
      "type": "Feature",
      "id": "node/11282572020",
      "properties": {
        "timestamp": "2023-10-23T04:05:14Z",
        "version": 1,
        "changeset": 142996969,
        "addr:housenumber": "1660",
        "addr:street": "Avenida Amazonas",
        "entrance": "yes",
        "id": "node/11282572020"
      },
      "geometry": {
        "type": "Point",
        "coordinates": [
          -46.8224452,
          -23.5312746
        ]
      }
    },
    {
      "type": "Feature",
      "id": "node/11282617086",
      "properties": {
        "timestamp": "2023-10-23T03:56:28Z",
        "version": 1,
        "changeset": 142996730,
        "addr:housenumber": "224",
        "addr:street": "Avenida Amazonas",
        "entrance": "yes",
        "id": "node/11282617086"
      },
      "geometry": {
        "type": "Point",
        "coordinates": [
          -46.8285015,
          -23.5276971
        ]
      }
    },
    {
      "type": "Feature",
      "id": "node/11282636071",
      "properties": {
        "timestamp": "2023-10-23T04:10:30Z",
        "version": 1,
        "changeset": 142997100,
        "addr:housenumber": "85",
        "addr:street": "Rua Araguari",
        "entrance": "yes",
        "id": "node/11282636071"
      },
      "geometry": {
        "type": "Point",
        "coordinates": [
          -46.8220543,
          -23.5329537
        ]
      }
    },
    {
      "type": "Feature",
      "id": "node/11500090276",
      "properties": {
        "timestamp": "2024-01-08T13:16:03Z",
        "version": 1,
        "changeset": 146028696,
        "addr:city": "Carapicuíba",
        "addr:housenumber": "1628",
        "addr:postcode": "06311-001",
        "addr:street": "Avenida Ruy Barbosa",
        "entrance": "main",
        "id": "node/11500090276"
      },
      "geometry": {
        "type": "Point",
        "coordinates": [
          -46.8434791,
          -23.5218936
        ]
      }
    },
    {
      "type": "Feature",
      "id": "node/11587688462",
      "properties": {
        "timestamp": "2024-02-05T17:44:16Z",
        "version": 1,
        "changeset": 147103240,
        "addr:city": "Carapicuíba",
        "addr:housenumber": "2",
        "addr:postcode": "06329-250",
        "addr:street": "Rua Bom Jesus do Amparo",
        "addr:suburb": "Cohab V",
        "amenity": "school",
        "name": "Diretoria de Ensino – Região de Carapicuíba",
        "operator": "Estado de São Paulo",
        "operator:type": "government",
        "website": "https://decarapicuiba.educacao.sp.gov.br/",
        "id": "node/11587688462"
      },
      "geometry": {
        "type": "Point",
        "coordinates": [
          -46.8194524,
          -23.5345808
        ]
      }
    },
    {
      "type": "Feature",
      "id": "node/11663778877",
      "properties": {
        "timestamp": "2024-02-25T21:25:52Z",
        "version": 1,
        "changeset": 147909319,
        "addr:city": "Carapicuiba",
        "addr:housenumber": "61",
        "addr:street": "Rua Chapecó",
        "id": "node/11663778877"
      },
      "geometry": {
        "type": "Point",
        "coordinates": [
          -46.8244145,
          -23.5452369
        ]
      }
    },
    {
      "type": "Feature",
      "id": "node/11709578335",
      "properties": {
        "timestamp": "2024-03-10T01:51:59Z",
        "version": 1,
        "changeset": 148445909,
        "addr:city": "Carapicuíba",
        "addr:housenumber": "28",
        "addr:postcode": "06386-710",
        "addr:street": "Rua Eduardo",
        "addr:suburb": "Jardim Ana Maria",
        "amenity": "school",
        "name": "Escola Estadual Dr Benedito de Lima Tucunduva",
        "id": "node/11709578335"
      },
      "geometry": {
        "type": "Point",
        "coordinates": [
          -46.8402381,
          -23.5305807
        ]
      }
    },
    {
      "type": "Feature",
      "id": "node/11709593960",
      "properties": {
        "timestamp": "2024-03-10T01:30:09Z",
        "version": 1,
        "changeset": 148445666,
        "addr:city": "Carapicuíba",
        "addr:housenumber": "252",
        "addr:postcode": "06386-030",
        "addr:street": "Rua Angelina",
        "addr:suburb": "Jardim Angela Maria",
        "amenity": "school",
        "email": "E919093A@EDUCACAO.SP.GOV.BR",
        "name": "EE PROF.ALICE MARIA DA SILVA FERREIRA",
        "phone": "+55 11 - 4187-7274 / +55 11 - 4188-7472",
        "id": "node/11709593960"
      },
      "geometry": {
        "type": "Point",
        "coordinates": [
          -46.8417848,
          -23.5353642
        ]
      }
    },
    {
      "type": "Feature",
      "id": "node/11709777598",
      "properties": {
        "timestamp": "2024-03-10T02:06:04Z",
        "version": 1,
        "changeset": 148446067,
        "addr:city": "Carapicuíba",
        "addr:housenumber": "43",
        "addr:postcode": "06321-250",
        "addr:street": "Rua Sertanópolis",
        "addr:suburb": "Vila Jussara",
        "amenity": "school",
        "email": "E009842A@EDUCACAO.SP.GOV.BR",
        "name": "Escola Estadual Professora Diva da Cunha Barra",
        "phone": "011 - 00041642753 / 011 - 00041843753",
        "id": "node/11709777598"
      },
      "geometry": {
        "type": "Point",
        "coordinates": [
          -46.8300642,
          -23.5358622
        ]
      }
    },
    {
      "type": "Feature",
      "id": "node/11712349152",
      "properties": {
        "timestamp": "2024-03-10T22:56:39Z",
        "version": 1,
        "changeset": 148482941,
        "addr:city": "Carapicuíba",
        "addr:housenumber": "199",
        "addr:street": "Avenida Vereador José Fernandes Filho",
        "entrance": "main",
        "id": "node/11712349152"
      },
      "geometry": {
        "type": "Point",
        "coordinates": [
          -46.8244979,
          -23.5817458
        ]
      }
    },
    {
      "type": "Feature",
      "id": "node/11712520067",
      "properties": {
        "timestamp": "2024-03-10T23:14:43Z",
        "version": 1,
        "changeset": 148483333,
        "entrance": "main",
        "id": "node/11712520067"
      },
      "geometry": {
        "type": "Point",
        "coordinates": [
          -46.8400009,
          -23.5603276
        ]
      }
    }
  ]
}
