{
  "type": "FeatureCollection",
  "features": [
    {
      "type": "Feature",
      "id": "way/1299337370",
      "properties": {
        "timestamp": "2024-07-05T17:25:45Z",
        "version": 1,
        "changeset": 153598064,
        "addr:city": "Muriaé",
        "addr:district": "Pirapanema",
        "addr:postcode": "36892-400",
        "addr:street": "Rua Crisântel Monoel da Silva",
        "addr:suburb": "Centro",
        "amenity": "arts_centre",
        "building": "yes",
        "name": "Centro Cultural e Turístico Carmelinda Guarçoni Baesso",
        "id": "way/1299337370"
      },
      "geometry": {
        "type": "Polygon",
        "coordinates": [
          [
            [
              -42.5031596,
              -21.0733898
            ],
            [
              -42.5030389,
              -21.0734221
            ],
            [
              -42.5029805,
              -21.0732322
            ],
            [
              -42.5031012,
              -21.0731999
            ],
            [
              -42.5031596,
              -21.0733898
            ]
          ]
        ]
      }
    },
    {
      "type": "Feature",
      "id": "node/12010163740",
      "properties": {
        "timestamp": "2024-06-25T19:30:46Z",
        "version": 1,
        "changeset": 153172446,
        "addr:city": "Muriaé",
        "addr:street": "Praça João Pinheiro",
        "addr:suburb": "Centro",
        "amenity": "arts_centre",
        "name": "Centro Cultural e Turístico Regional Doutor Pio Soares Canedo",
        "id": "node/12010163740"
      },
      "geometry": {
        "type": "Point",
        "coordinates": [
          -42.3626356,
          -21.1317423
        ]
      }
    }
  ]
}
