{
  "type": "FeatureCollection",
  "features": [
    {
      "type": "Feature",
      "id": "way/854078244",
      "properties": {
        "timestamp": "2024-12-12T13:19:28Z",
        "version": 2,
        "changeset": 160207807,
        "addr:city": "Vermelho",
        "addr:street": "Rua Aparico Veira Machado",
        "amenity": "clinic",
        "building": "house",
        "healthcare": "clinic",
        "healthcare:speciality": "general",
        "name": "ubs -Antonio de Castro junior",
        "nohousenumber": "yes",
        "operator": "Prefeitura Municipal de Muriaé",
        "id": "way/854078244"
      },
      "geometry": {
        "type": "Polygon",
        "coordinates": [
          [
            [
              -42.4485724,
              -21.108332
            ],
            [
              -42.4485866,
              -21.1084306
            ],
            [
              -42.4484301,
              -21.1084363
            ],
            [
              -42.448426,
              -21.1083434
            ],
            [
              -42.4485724,
              -21.108332
            ]
          ]
        ]
      }
    },
    {
      "type": "Feature",
      "id": "way/1280072330",
      "properties": {
        "timestamp": "2024-05-06T03:06:44Z",
        "version": 1,
        "changeset": 150944874,
        "addr:postcode": "36887-240",
        "addr:street": "Rua Jair Cardoso de Melo",
        "amenity": "clinic",
        "building": "yes",
        "healthcare": "clinic",
        "healthcare:speciality": "general",
        "name": "Unidade Básica de Saúde Heloise Carneiro de Mello",
        "opening_hours": "Mo-Fr 07:00-17:00; PH off",
        "operator": "Secretaria Municipal de Saúde",
        "operator:type": "government",
        "phone": "+55 32 3722 2967",
        "ref:CNES": "7604483",
        "short_name": "UBS Cardoso de Melo",
        "source": "CNES",
        "id": "way/1280072330"
      },
      "geometry": {
        "type": "Polygon",
        "coordinates": [
          [
            [
              -42.4057523,
              -21.1251549
            ],
            [
              -42.4057979,
              -21.1254351
            ],
            [
              -42.4057308,
              -21.1254651
            ],
            [
              -42.4056316,
              -21.1251999
            ],
            [
              -42.4057523,
              -21.1251549
            ]
          ]
        ]
      }
    },
    {
      "type": "Feature",
      "id": "way/1280396303",
      "properties": {
        "timestamp": "2024-05-06T23:16:21Z",
        "version": 1,
        "changeset": 150985855,
        "addr:postcode": "36881-017",
        "addr:street": "Rua Coronel Francisco Gomes Campos",
        "addr:suburb": "São Francisco",
        "amenity": "clinic",
        "building": "yes",
        "healthcare": "clinic",
        "healthcare:speciality": "general",
        "name": "Unidade Básica de Saúde Rita de Carvalho Pereira",
        "opening_hours": "Mo-Fr 07:00-21:00; PH off",
        "operator": "Secretaria Municipal da Saúde",
        "operator:type": "government",
        "ref:CNES": "6807119",
        "short_name": "UBS São Francisco",
        "source": "CNES",
        "id": "way/1280396303"
      },
      "geometry": {
        "type": "Polygon",
        "coordinates": [
          [
            [
              -42.3595129,
              -21.1385426
            ],
            [
              -42.3594324,
              -21.1388992
            ],
            [
              -42.3592772,
              -21.138851
            ],
            [
              -42.3592916,
              -21.1388107
            ],
            [
              -42.3593778,
              -21.1388134
            ],
            [
              -42.3594267,
              -21.1385373
            ],
            [
              -42.3595129,
              -21.1385426
            ]
          ]
        ]
      }
    },
    {
      "type": "Feature",
      "id": "way/1280403787",
      "properties": {
        "timestamp": "2024-05-07T00:03:22Z",
        "version": 1,
        "changeset": 150986567,
        "addr:postcode": "36887-118",
        "addr:street": "Rua Maria Cândido do Carmo",
        "addr:suburb": "Santana",
        "amenity": "clinic",
        "building": "yes",
        "healthcare": "clinic",
        "healthcare:speciality": "general",
        "name": "Unidade Básica de Saúde Santana",
        "opening_hours": "MO-Fr 07:00-21:00",
        "operator": "Secretaria Municipal de Saúde",
        "operator:type": "government",
        "phone": "+55 32 3722 4348",
        "ref:CNES": "2162342",
        "source": "CNES",
        "id": "way/1280403787"
      },
      "geometry": {
        "type": "Polygon",
        "coordinates": [
          [
            [
              -42.4062987,
              -21.1332724
            ],
            [
              -42.4061431,
              -21.1332599
            ],
            [
              -42.4061512,
              -21.1330597
            ],
            [
              -42.4062907,
              -21.1331148
            ],
            [
              -42.4062987,
              -21.1332724
            ]
          ]
        ]
      }
    },
    {
      "type": "Feature",
      "id": "way/1281333993",
      "properties": {
        "timestamp": "2024-05-10T02:34:50Z",
        "version": 1,
        "changeset": 151124952,
        "amenity": "clinic",
        "building": "yes",
        "healthcare": "clinic",
        "name": "Policlíca Municipal Doutor Evaristo Pereira de Carvalho",
        "operator": "Secretaria Municipal de Saúde",
        "id": "way/1281333993"
      },
      "geometry": {
        "type": "Polygon",
        "coordinates": [
          [
            [
              -42.398336,
              -21.134267
            ],
            [
              -42.3984084,
              -21.1343671
            ],
            [
              -42.398226,
              -21.1344622
            ],
            [
              -42.3981751,
              -21.1343546
            ],
            [
              -42.398336,
              -21.134267
            ]
          ]
        ]
      }
    },
    {
      "type": "Feature",
      "id": "way/1299064694",
      "properties": {
        "timestamp": "2024-07-04T14:33:13Z",
        "version": 1,
        "changeset": 153551095,
        "addr:city": "Muriaé",
        "addr:district": "Belisário",
        "addr:postcode": "36892-200",
        "addr:street": "Rua Olindo Jorge Vital",
        "addr:suburb": "Centro",
        "amenity": "clinic",
        "building": "yes",
        "building:levels": "1",
        "healthcare": "clinic",
        "healthcare:speciality": "general",
        "name": "Unidade Básica de Saúde Vereador Miguel Mota",
        "operator": "Secretaria Municipal de Saúde de Muriaé",
        "operator:type": "public",
        "id": "way/1299064694"
      },
      "geometry": {
        "type": "Polygon",
        "coordinates": [
          [
            [
              -42.4512518,
              -20.9290268
            ],
            [
              -42.45118,
              -20.929076
            ],
            [
              -42.451144,
              -20.9290302
            ],
            [
              -42.4511549,
              -20.9290227
            ],
            [
              -42.4511079,
              -20.9289629
            ],
            [
              -42.4510771,
              -20.928984
            ],
            [
              -42.451151,
              -20.9290782
            ],
            [
              -42.4510608,
              -20.92914
            ],
            [
              -42.4508982,
              -20.9289328
            ],
            [
              -42.450972,
              -20.9288823
            ],
            [
              -42.4509958,
              -20.9289126
            ],
            [
              -42.451104,
              -20.9288385
            ],
            [
              -42.4512518,
              -20.9290268
            ]
          ]
        ]
      }
    },
    {
      "type": "Feature",
      "id": "way/1299337371",
      "properties": {
        "timestamp": "2024-07-05T17:25:45Z",
        "version": 1,
        "changeset": 153598064,
        "addr:city": "Muriaé",
        "addr:district": "Pirapanema",
        "addr:postcode": "36892-400",
        "addr:street": "Rua Vereador Jacy Vargas",
        "addr:suburb": "Centro",
        "amenity": "clinic",
        "building": "yes",
        "healthcare": "clinic",
        "healthcare:speciality": "general",
        "name": "Centro Municipal de Saúde Margarida Gracina Simão",
        "operator": "Município de Muriaé",
        "operator:type": "public",
        "id": "way/1299337371"
      },
      "geometry": {
        "type": "Polygon",
        "coordinates": [
          [
            [
              -42.5024573,
              -21.073829
            ],
            [
              -42.5024101,
              -21.0737458
            ],
            [
              -42.5025529,
              -21.0736836
            ],
            [
              -42.5025863,
              -21.0737157
            ],
            [
              -42.502583,
              -21.0737458
            ],
            [
              -42.5024573,
              -21.073829
            ]
          ]
        ]
      }
    },
    {
      "type": "Feature",
      "id": "node/6003204805",
      "properties": {
        "timestamp": "2018-10-21T17:17:35Z",
        "version": 1,
        "changeset": 63733099,
        "amenity": "clinic",
        "healthcare": "clinic",
        "healthcare:speciality": "general",
        "name": "Policlinica",
        "operator": "Medicos",
        "id": "node/6003204805"
      },
      "geometry": {
        "type": "Point",
        "coordinates": [
          -42.354042,
          -21.1299689
        ]
      }
    },
    {
      "type": "Feature",
      "id": "node/11882718783",
      "properties": {
        "timestamp": "2024-05-06T02:39:43Z",
        "version": 2,
        "changeset": 150944612,
        "addr:housenumber": "428",
        "addr:postcode": "36889-166",
        "addr:street": "Praça da Liberdade",
        "addr:suburb": "São Pedro",
        "amenity": "clinic",
        "healthcare": "clinic",
        "healthcare:speciality": "general",
        "name": "Unidade Básica de Saúde Doutor Waltecy Antônio Garcia",
        "opening_hours": "Mo-Fr 07:00-17:00",
        "operator": "Secretaria Municipal de Saúde",
        "operator:type": "government",
        "ref:CNES": "4319540",
        "short_name": "UBS São Pedro",
        "source": "https://muriae.mg.gov.br/prefeitura-inaugura-nova-ubs-no-bairro-sao-pedro/;CNES",
        "id": "node/11882718783"
      },
      "geometry": {
        "type": "Point",
        "coordinates": [
          -42.3615409,
          -21.1259733
        ]
      }
    }
  ]
}
