{
  "type": "FeatureCollection",
  "features": [
    {
      "type": "Feature",
      "id": "way/1279381289",
      "properties": {
        "timestamp": "2024-05-03T16:07:21Z",
        "version": 1,
        "changeset": 150845359,
        "addr:street": "Rodovia Santos Dumont",
        "brand": "Ibis",
        "brand:wikidata": "Q920166",
        "building": "yes",
        "name": "Ibis",
        "tourism": "hotel",
        "id": "way/1279381289"
      },
      "geometry": {
        "type": "Polygon",
        "coordinates": [
          [
            [
              -42.3802294,
              -21.1460986
            ],
            [
              -42.3803084,
              -21.1461638
            ],
            [
              -42.3800713,
              -21.1463763
            ],
            [
              -42.3799893,
              -21.146297
            ],
            [
              -42.3802294,
              -21.1460986
            ]
          ]
        ]
      }
    },
    {
      "type": "Feature",
      "id": "node/8346949047",
      "properties": {
        "timestamp": "2024-06-25T00:40:48Z",
        "version": 2,
        "changeset": 153134249,
        "addr:city": "Muria√©",
        "addr:postcode": "36884-114",
        "addr:street": "Acesso BR-356",
        "addr:suburb": "Barra",
        "name": "Hotel Elite",
        "operator": "Maronia de Faria Marotta",
        "tourism": "hotel",
        "id": "node/8346949047"
      },
      "geometry": {
        "type": "Point",
        "coordinates": [
          -42.3825673,
          -21.1256469
        ]
      }
    },
    {
      "type": "Feature",
      "id": "node/8384209523",
      "properties": {
        "timestamp": "2021-02-01T14:35:24Z",
        "version": 1,
        "changeset": 98518170,
        "tourism": "hotel",
        "id": "node/8384209523"
      },
      "geometry": {
        "type": "Point",
        "coordinates": [
          -42.3794534,
          -21.1027675
        ]
      }
    }
  ]
}
