{
  "type": "FeatureCollection",
  "features": [
    {
      "type": "Feature",
      "id": "way/96973556",
      "properties": {
        "timestamp": "2016-12-17T17:36:37Z",
        "version": 6,
        "changeset": 44475175,
        "addr:city": "Guarapari",
        "addr:country": "BR",
        "addr:housenumber": "233",
        "addr:postcode": "29215-020",
        "addr:state": "ES",
        "addr:street": "Rua Santana do Iapó",
        "addr:suburb": "Muquiçaba",
        "amenity": "college",
        "contact:phone": "(27) 3261-0584 / 3361-0979",
        "name": "Darwin Guarapari",
        "short_name": "CE",
        "id": "way/96973556"
      },
      "geometry": {
        "type": "Polygon",
        "coordinates": [
          [
            [
              -40.5011817,
              -20.6600852
            ],
            [
              -40.5009758,
              -20.6600357
            ],
            [
              -40.5010024,
              -20.6599389
            ],
            [
              -40.5010365,
              -20.6598148
            ],
            [
              -40.5010565,
              -20.6597421
            ],
            [
              -40.5012623,
              -20.6597917
            ],
            [
              -40.5012423,
              -20.6598646
            ],
            [
              -40.5012082,
              -20.6599884
            ],
            [
              -40.5011817,
              -20.6600852
            ]
          ]
        ]
      }
    },
    {
      "type": "Feature",
      "id": "way/97085008",
      "properties": {
        "timestamp": "2016-12-09T23:08:45Z",
        "version": 7,
        "changeset": 44294180,
        "addr:city": "Guarapari",
        "addr:country": "BR",
        "addr:housenumber": "375",
        "addr:postcode": "29216-600",
        "addr:state": "ES",
        "addr:street": "Rua Josias Cerutti",
        "addr:suburb": "Praia do Morro",
        "amenity": "college",
        "building": "school",
        "contact:phone": "(27) 3362-6767",
        "name": "Centro de Especialização e Desenvolvimento Técnico Ltda",
        "roof:colour": "grey",
        "roof:shape": "flat",
        "short_name": "CEDTEC",
        "id": "way/97085008"
      },
      "geometry": {
        "type": "Polygon",
        "coordinates": [
          [
            [
              -40.4844204,
              -20.6443307
            ],
            [
              -40.4842476,
              -20.6444782
            ],
            [
              -40.484021,
              -20.6442459
            ],
            [
              -40.4841939,
              -20.6440983
            ],
            [
              -40.4844204,
              -20.6443307
            ]
          ]
        ]
      }
    },
    {
      "type": "Feature",
      "id": "way/273622115",
      "properties": {
        "timestamp": "2024-10-11T14:05:56Z",
        "version": 6,
        "changeset": 157758745,
        "addr:city": "Guarapari",
        "addr:postcode": "29215-090",
        "addr:street": "Estrada da Tartaruga",
        "addr:suburb": "Muquiçaba",
        "alt_name": "IFES - Instituto Federal do Espírito Santo",
        "amenity": "college",
        "contact:phone": "(27) 3362-6607",
        "name": "IFES - Campus Guarapari",
        "office": "educational_institution",
        "short_name": "IFES",
        "id": "way/273622115"
      },
      "geometry": {
        "type": "Polygon",
        "coordinates": [
          [
            [
              -40.4962937,
              -20.6474037
            ],
            [
              -40.4960633,
              -20.6475459
            ],
            [
              -40.4957401,
              -20.647614
            ],
            [
              -40.49553,
              -20.6474249
            ],
            [
              -40.4955867,
              -20.647138
            ],
            [
              -40.4957354,
              -20.6468781
            ],
            [
              -40.4958326,
              -20.6467291
            ],
            [
              -40.4960067,
              -20.646684
            ],
            [
              -40.4960194,
              -20.6465959
            ],
            [
              -40.4960633,
              -20.6462908
            ],
            [
              -40.4961522,
              -20.6460034
            ],
            [
              -40.4962653,
              -20.6458825
            ],
            [
              -40.4963849,
              -20.6459262
            ],
            [
              -40.4962937,
              -20.6474037
            ]
          ]
        ]
      }
    },
    {
      "type": "Feature",
      "id": "way/355193188",
      "properties": {
        "timestamp": "2016-12-10T17:45:51Z",
        "version": 3,
        "changeset": 44308301,
        "addr:city": "Guarapari",
        "addr:country": "BR",
        "addr:postcode": "29215-090",
        "addr:state": "ES",
        "addr:street": "Estrada da Tartaruga",
        "addr:suburb": "Muquiçaba",
        "alt_name": "IFES - Instituto Federal do Espírito Santo",
        "amenity": "college",
        "building": "college",
        "contact:phone": "(27) 3362-6607",
        "name": "IFES - Campus Guarapari",
        "office": "educational_institution",
        "roof:colour": "grey",
        "short_name": "IFES",
        "id": "way/355193188"
      },
      "geometry": {
        "type": "Polygon",
        "coordinates": [
          [
            [
              -40.4962653,
              -20.6468505
            ],
            [
              -40.4960283,
              -20.6473926
            ],
            [
              -40.4958881,
              -20.647339
            ],
            [
              -40.4961251,
              -20.6467969
            ],
            [
              -40.4962653,
              -20.6468505
            ]
          ]
        ]
      }
    },
    {
      "type": "Feature",
      "id": "node/3385461555",
      "properties": {
        "timestamp": "2015-03-06T04:18:03Z",
        "version": 1,
        "changeset": 29281884,
        "amenity": "college",
        "name": "Datacontrol",
        "id": "node/3385461555"
      },
      "geometry": {
        "type": "Point",
        "coordinates": [
          -40.4977578,
          -20.6593149
        ]
      }
    },
    {
      "type": "Feature",
      "id": "node/3402635626",
      "properties": {
        "timestamp": "2019-07-11T17:33:19Z",
        "version": 3,
        "changeset": 72146221,
        "addr:city": "Guarapari",
        "addr:country": "BR",
        "addr:housenumber": "155",
        "addr:postcode": "29200-750",
        "addr:state": "ES",
        "addr:street": "Rua Horácio Santana",
        "addr:suburb": "Centro",
        "amenity": "college",
        "contact:phone": "+55 27 3362-1554;+55 27 3362-2148",
        "name": "Faculdade Batista de Vitória - Campus Guarapari",
        "short_name": "FABAVI",
        "id": "node/3402635626"
      },
      "geometry": {
        "type": "Point",
        "coordinates": [
          -40.5027822,
          -20.67298
        ]
      }
    }
  ]
}
