{
  "type": "FeatureCollection",
  "features": [
    {
      "type": "Feature",
      "id": "way/329285609",
      "properties": {
        "timestamp": "2015-03-19T16:09:11Z",
        "version": 2,
        "changeset": 29592460,
        "amenity": "social_facility",
        "building": "yes",
        "name": "Asilo Recanto dos Idosos.",
        "social_facility": "group_home",
        "social_facility:for": "senior",
        "id": "way/329285609"
      },
      "geometry": {
        "type": "Polygon",
        "coordinates": [
          [
            [
              -40.5016014,
              -20.6497727
            ],
            [
              -40.5016872,
              -20.6500199
            ],
            [
              -40.5013654,
              -20.6501166
            ],
            [
              -40.5012983,
              -20.649917
            ],
            [
              -40.5012903,
              -20.6498781
            ],
            [
              -40.5013412,
              -20.649853
            ],
            [
              -40.5016014,
              -20.6497727
            ]
          ]
        ]
      }
    },
    {
      "type": "Feature",
      "id": "node/3999139446",
      "properties": {
        "timestamp": "2016-02-10T13:37:16Z",
        "version": 1,
        "changeset": 37124622,
        "addr:city": "Guarapari",
        "addr:housenumber": "58",
        "addr:postcode": "29203-000",
        "addr:street": "Rua Jones dos Santos Neves",
        "addr:suburb": "Kubitschek",
        "alt_name": "Centro de Referência de Assistência Social",
        "amenity": "social_facility",
        "contact:phone": "(27) 3261-7848/3261-8390",
        "name": "CRAS - Kubitschek",
        "social_facility": "outreach",
        "source": "IJSN",
        "id": "node/3999139446"
      },
      "geometry": {
        "type": "Point",
        "coordinates": [
          -40.5206918,
          -20.6766633
        ]
      }
    },
    {
      "type": "Feature",
      "id": "node/3999140687",
      "properties": {
        "timestamp": "2016-02-10T13:37:24Z",
        "version": 1,
        "changeset": 37124622,
        "addr:city": "Guarapari",
        "addr:housenumber": "400",
        "addr:postcode": "29221-105",
        "addr:street": "Avenida Prefeito Santa Rita",
        "addr:suburb": "Santa Mônica",
        "alt_name": "Centro de Referência de Assistência Social",
        "amenity": "social_facility",
        "contact:phone": "(27) 3262-1727",
        "name": "CRAS - Santa Mônica",
        "social_facility": "outreach",
        "source": "IJSN",
        "id": "node/3999140687"
      },
      "geometry": {
        "type": "Point",
        "coordinates": [
          -40.4585302,
          -20.6187278
        ]
      }
    },
    {
      "type": "Feature",
      "id": "node/3999140696",
      "properties": {
        "timestamp": "2016-12-09T23:08:34Z",
        "version": 2,
        "changeset": 44294180,
        "addr:city": "Guarapari",
        "addr:country": "BR",
        "addr:housenumber": "37",
        "addr:postcode": "29211-045",
        "addr:state": "ES",
        "addr:street": "Rua Santo Amaro",
        "addr:suburb": "São José",
        "alt_name": "Centro de Referência de Assistência Social",
        "amenity": "social_facility",
        "contact:phone": "(27) 3361-4957/33627855",
        "name": "CRAS - São José",
        "social_facility": "outreach",
        "source": "IJSN",
        "id": "node/3999140696"
      },
      "geometry": {
        "type": "Point",
        "coordinates": [
          -40.5164251,
          -20.6450737
        ]
      }
    }
  ]
}
