{
  "type": "FeatureCollection",
  "features": [
    {
      "type": "Feature",
      "id": "way/331574764",
      "properties": {
        "timestamp": "2016-12-18T02:19:37Z",
        "version": 5,
        "changeset": 44482367,
        "addr:city": "Guarapari",
        "addr:country": "BR",
        "addr:housenumber": "1000",
        "addr:postcode": "29214-005",
        "addr:state": "ES",
        "addr:street": "Rodovia Jones dos Santos Neves",
        "addr:suburb": "Lagoa Funda",
        "amenity": "university",
        "name": "Faculdade Pitágoras de Guarapari",
        "operator": "Rede Pitágoras",
        "id": "way/331574764"
      },
      "geometry": {
        "type": "Polygon",
        "coordinates": [
          [
            [
              -40.5033726,
              -20.6555104
            ],
            [
              -40.503825,
              -20.6560469
            ],
            [
              -40.5040723,
              -20.6563088
            ],
            [
              -40.5046002,
              -20.6568525
            ],
            [
              -40.5048389,
              -20.6566479
            ],
            [
              -40.5050619,
              -20.6568971
            ],
            [
              -40.5052838,
              -20.6571388
            ],
            [
              -40.5052777,
              -20.6571668
            ],
            [
              -40.5050736,
              -20.6573401
            ],
            [
              -40.5045626,
              -20.6577736
            ],
            [
              -40.5045385,
              -20.6578238
            ],
            [
              -40.5045787,
              -20.6578414
            ],
            [
              -40.5045492,
              -20.6579995
            ],
            [
              -40.5045224,
              -20.658002
            ],
            [
              -40.5043856,
              -20.6580296
            ],
            [
              -40.5043507,
              -20.6580497
            ],
            [
              -40.5042622,
              -20.6580421
            ],
            [
              -40.5042112,
              -20.6580823
            ],
            [
              -40.5041201,
              -20.6580948
            ],
            [
              -40.5039967,
              -20.6580973
            ],
            [
              -40.5040101,
              -20.6579593
            ],
            [
              -40.5032047,
              -20.6571029
            ],
            [
              -40.5029797,
              -20.6568519
            ],
            [
              -40.5030749,
              -20.6565055
            ],
            [
              -40.5031121,
              -20.6563973
            ],
            [
              -40.5031299,
              -20.6563436
            ],
            [
              -40.5033726,
              -20.6555104
            ]
          ]
        ]
      }
    },
    {
      "type": "Feature",
      "id": "node/1027959602",
      "properties": {
        "timestamp": "2022-02-17T17:02:14Z",
        "version": 5,
        "changeset": 117530324,
        "access": "permissive",
        "barrier": "gate",
        "bicycle": "yes",
        "foot": "yes",
        "id": "node/1027959602"
      },
      "geometry": {
        "type": "Point",
        "coordinates": [
          -40.5031121,
          -20.6563973
        ]
      }
    },
    {
      "type": "Feature",
      "id": "node/3402848606",
      "properties": {
        "timestamp": "2019-07-11T17:33:19Z",
        "version": 3,
        "changeset": 72146221,
        "addr:city": "Guarapari",
        "addr:country": "BR",
        "addr:housenumber": "1000",
        "addr:postcode": "29214-005",
        "addr:state": "ES",
        "addr:street": "Avenida Governador Jones dos Santos Neves",
        "addr:suburb": "Muquiçaba",
        "amenity": "university",
        "contact:phone": "+55 27 3361-8300",
        "name": "Faculdade de Comunicação Social de Guarapari",
        "short_name": "FACOM",
        "id": "node/3402848606"
      },
      "geometry": {
        "type": "Point",
        "coordinates": [
          -40.5039915,
          -20.6572646
        ]
      }
    },
    {
      "type": "Feature",
      "id": "node/3402848607",
      "properties": {
        "timestamp": "2019-07-11T17:33:19Z",
        "version": 3,
        "changeset": 72146221,
        "addr:city": "Guarapari",
        "addr:country": "BR",
        "addr:housenumber": "1000",
        "addr:postcode": "29215-002",
        "addr:state": "ES",
        "addr:street": "Avenida Governador Jones dos Santos Neves",
        "addr:suburb": "Muquiçaba",
        "amenity": "university",
        "contact:phone": "+55 27 3361-8300",
        "name": "Faculdade de Direito de Guarapari",
        "short_name": "FADIG",
        "id": "node/3402848607"
      },
      "geometry": {
        "type": "Point",
        "coordinates": [
          -40.5040297,
          -20.6571486
        ]
      }
    },
    {
      "type": "Feature",
      "id": "node/3402848609",
      "properties": {
        "timestamp": "2019-07-11T17:33:19Z",
        "version": 3,
        "changeset": 72146221,
        "addr:city": "Guarapari",
        "addr:country": "BR",
        "addr:housenumber": "1000",
        "addr:postcode": "29214-005",
        "addr:state": "ES",
        "addr:street": "Avenida Governador Jones dos Santos Neves",
        "addr:suburb": "Muquiçaba",
        "amenity": "university",
        "contact:phone": "+55 27 3361-8300",
        "name": "Faculdades Integradas Padre Anchieta de Guarapari",
        "short_name": "FIPAG",
        "id": "node/3402848609"
      },
      "geometry": {
        "type": "Point",
        "coordinates": [
          -40.5042055,
          -20.6571764
        ]
      }
    }
  ]
}
