{
  "type": "FeatureCollection",
  "features": [
    {
      "type": "Feature",
      "id": "way/404382939",
      "properties": {
        "timestamp": "2022-02-10T00:12:52Z",
        "version": 2,
        "changeset": 117223600,
        "addr:city": "Davinópolis",
        "addr:postcode": "75730000",
        "addr:street": "Rua Jose Rita",
        "addr:suburb": "centro",
        "amenity": "school",
        "name": "Escola Municipal Balbino Antonio Ferreira",
        "operator": "Prefeitura Municipal de Davinópolis",
        "operator:type": "government",
        "id": "way/404382939"
      },
      "geometry": {
        "type": "Polygon",
        "coordinates": [
          [
            [
              -47.5644174,
              -18.154263
            ],
            [
              -47.5637016,
              -18.154224
            ],
            [
              -47.5637252,
              -18.1538315
            ],
            [
              -47.564441,
              -18.1538704
            ],
            [
              -47.5644174,
              -18.154263
            ]
          ]
        ]
      }
    }
  ]
}
