{
  "type": "FeatureCollection",
  "features": [
    {
      "type": "Feature",
      "id": "way/297826405",
      "properties": {
        "timestamp": "2014-08-14T23:50:38Z",
        "version": 1,
        "changeset": 24757025,
        "internet_access": "yes",
        "internet_access:fee": "no",
        "name": "Hotel Pousada Arauna",
        "tourism": "hotel",
        "id": "way/297826405"
      },
      "geometry": {
        "type": "Polygon",
        "coordinates": [
          [
            [
              -56.4852542,
              -21.1196863
            ],
            [
              -56.4853834,
              -21.1196616
            ],
            [
              -56.4854138,
              -21.1197999
            ],
            [
              -56.4852846,
              -21.1198246
            ],
            [
              -56.4852542,
              -21.1196863
            ]
          ]
        ]
      }
    },
    {
      "type": "Feature",
      "id": "way/297882899",
      "properties": {
        "timestamp": "2014-08-17T13:41:35Z",
        "version": 2,
        "changeset": 24807803,
        "addr:city": "Bonito",
        "addr:country": "BR",
        "addr:street": "Rua Coronel Pilad Rebuá",
        "internet_access": "yes",
        "internet_access:fee": "no",
        "name": "Pousada São Jose",
        "smoking": "separated",
        "tourism": "hotel",
        "wheelchair": "no",
        "id": "way/297882899"
      },
      "geometry": {
        "type": "Polygon",
        "coordinates": [
          [
            [
              -56.488947,
              -21.1263808
            ],
            [
              -56.4889059,
              -21.1264009
            ],
            [
              -56.4888417,
              -21.1264334
            ],
            [
              -56.4887592,
              -21.1262919
            ],
            [
              -56.4887097,
              -21.1263167
            ],
            [
              -56.488662,
              -21.1263407
            ],
            [
              -56.4886352,
              -21.1262944
            ],
            [
              -56.488626,
              -21.1262868
            ],
            [
              -56.4885998,
              -21.126242
            ],
            [
              -56.4885705,
              -21.1262569
            ],
            [
              -56.4885225,
              -21.1261749
            ],
            [
              -56.4884798,
              -21.1261024
            ],
            [
              -56.4887107,
              -21.1259894
            ],
            [
              -56.488947,
              -21.1263808
            ]
          ]
        ]
      }
    },
    {
      "type": "Feature",
      "id": "way/398595011",
      "properties": {
        "timestamp": "2020-07-05T01:21:44Z",
        "version": 3,
        "changeset": 87544504,
        "name": "Pousada Jubaia",
        "phone": "+55 67 3255-4883",
        "tourism": "hotel",
        "id": "way/398595011"
      },
      "geometry": {
        "type": "Polygon",
        "coordinates": [
          [
            [
              -56.4811882,
              -21.129161
            ],
            [
              -56.4810035,
              -21.1292687
            ],
            [
              -56.4807255,
              -21.129434
            ],
            [
              -56.4805971,
              -21.1293299
            ],
            [
              -56.480511,
              -21.1291818
            ],
            [
              -56.4804163,
              -21.1290415
            ],
            [
              -56.4804467,
              -21.1290242
            ],
            [
              -56.4803555,
              -21.1288587
            ],
            [
              -56.4808497,
              -21.128617
            ],
            [
              -56.4811882,
              -21.129161
            ]
          ]
        ]
      }
    },
    {
      "type": "Feature",
      "id": "way/430111724",
      "properties": {
        "timestamp": "2022-05-24T19:57:25Z",
        "version": 4,
        "changeset": 121443150,
        "addr:city": "Bonito",
        "addr:housenumber": "1895",
        "addr:postcode": "79290-000",
        "addr:state": "MS",
        "addr:street": "Rua 24 de Fevereiro",
        "addr:suburb": "Centro",
        "building": "yes",
        "building:levels": "1",
        "name": "Pousada Rancho Jarinu",
        "operator": "Pousada Rancho Jarinu",
        "phone": "+55 67 32552094",
        "smoking": "separated",
        "tourism": "hotel",
        "website": "https://www.pousadaranchojarinu.com.br/",
        "id": "way/430111724"
      },
      "geometry": {
        "type": "Polygon",
        "coordinates": [
          [
            [
              -56.4847179,
              -21.1261999
            ],
            [
              -56.4845608,
              -21.1259291
            ],
            [
              -56.4849018,
              -21.1257571
            ],
            [
              -56.4850588,
              -21.1260279
            ],
            [
              -56.4847179,
              -21.1261999
            ]
          ]
        ]
      }
    },
    {
      "type": "Feature",
      "id": "way/1201115184",
      "properties": {
        "timestamp": "2023-08-22T15:11:27Z",
        "version": 1,
        "changeset": 140234186,
        "building": "yes",
        "name": "Che Lagarto Hostel - Bonito Sul",
        "tourism": "hotel",
        "id": "way/1201115184"
      },
      "geometry": {
        "type": "Polygon",
        "coordinates": [
          [
            [
              -56.4779582,
              -21.1333499
            ],
            [
              -56.4782025,
              -21.1335302
            ],
            [
              -56.4780788,
              -21.1336805
            ],
            [
              -56.477836,
              -21.1334856
            ],
            [
              -56.4779582,
              -21.1333499
            ]
          ]
        ]
      }
    },
    {
      "type": "Feature",
      "id": "node/2721697150",
      "properties": {
        "timestamp": "2014-03-16T18:15:42Z",
        "version": 1,
        "changeset": 21141559,
        "name": "Hotel Araras",
        "tourism": "hotel",
        "id": "node/2721697150"
      },
      "geometry": {
        "type": "Point",
        "coordinates": [
          -56.4247789,
          -21.162649
        ]
      }
    },
    {
      "type": "Feature",
      "id": "node/2721697154",
      "properties": {
        "timestamp": "2016-10-27T23:07:12Z",
        "version": 2,
        "changeset": 43232825,
        "name": "Hotel SESI Bonito MS",
        "tourism": "hotel",
        "id": "node/2721697154"
      },
      "geometry": {
        "type": "Point",
        "coordinates": [
          -56.4444469,
          -21.1673707
        ]
      }
    },
    {
      "type": "Feature",
      "id": "node/2721697158",
      "properties": {
        "timestamp": "2020-11-30T11:51:12Z",
        "version": 2,
        "changeset": 95042561,
        "name": "Hotel Santa Esmeralda",
        "tourism": "hotel",
        "id": "node/2721697158"
      },
      "geometry": {
        "type": "Point",
        "coordinates": [
          -56.4033888,
          -21.1465963
        ]
      }
    },
    {
      "type": "Feature",
      "id": "node/2950134425",
      "properties": {
        "timestamp": "2020-07-05T00:58:01Z",
        "version": 2,
        "changeset": 87544340,
        "addr:city": "Bonito",
        "addr:postcode": "79290-000",
        "name": "Pousada Chamamé",
        "tourism": "hotel",
        "id": "node/2950134425"
      },
      "geometry": {
        "type": "Point",
        "coordinates": [
          -56.4756429,
          -21.1337813
        ]
      }
    },
    {
      "type": "Feature",
      "id": "node/3046489529",
      "properties": {
        "timestamp": "2016-02-18T20:38:22Z",
        "version": 2,
        "changeset": 37297038,
        "addr:city": "Bonito",
        "addr:country": "BR",
        "addr:housenumber": "1444",
        "addr:street": "Rua Coronel Pilad Rebuá",
        "internet_access": "yes",
        "internet_access:fee": "no",
        "name": "Hotel da Praça",
        "smoking": "no",
        "tourism": "hotel",
        "id": "node/3046489529"
      },
      "geometry": {
        "type": "Point",
        "coordinates": [
          -56.4834465,
          -21.1293698
        ]
      }
    },
    {
      "type": "Feature",
      "id": "node/3046489530",
      "properties": {
        "timestamp": "2014-08-27T21:32:51Z",
        "version": 1,
        "changeset": 25062478,
        "addr:city": "Bonito",
        "addr:country": "BR",
        "addr:housenumber": "1444",
        "addr:street": "Rua Coronel Pilad Rebuá",
        "internet_access": "yes",
        "internet_access:fee": "no",
        "name": "Hotel e Pousada Muito Bonito",
        "smoking": "no",
        "tourism": "hotel",
        "id": "node/3046489530"
      },
      "geometry": {
        "type": "Point",
        "coordinates": [
          -56.4911534,
          -21.1255602
        ]
      }
    },
    {
      "type": "Feature",
      "id": "node/3046489531",
      "properties": {
        "timestamp": "2014-08-27T21:32:51Z",
        "version": 1,
        "changeset": 25062478,
        "addr:city": "Bonito",
        "addr:country": "BR",
        "addr:housenumber": "1884",
        "addr:street": "Rua Coronel Pilad Rebuá",
        "internet_access": "yes",
        "internet_access:fee": "no",
        "name": "Hotel e Pousada Paraiso das Águas",
        "smoking": "no",
        "tourism": "hotel",
        "id": "node/3046489531"
      },
      "geometry": {
        "type": "Point",
        "coordinates": [
          -56.4859679,
          -21.1281347
        ]
      }
    },
    {
      "type": "Feature",
      "id": "node/3912456852",
      "properties": {
        "timestamp": "2022-05-24T19:56:53Z",
        "version": 3,
        "changeset": 121443116,
        "addr:housenumber": "366",
        "addr:street": "Rua Nossa Senhora da Penha",
        "name": "Hotel Refúgio",
        "phone": "+55-67-3255-1570",
        "stars": "2",
        "tourism": "hotel",
        "website": "https://www.hotelrefugio.com.br/",
        "id": "node/3912456852"
      },
      "geometry": {
        "type": "Point",
        "coordinates": [
          -56.4875037,
          -21.1230711
        ]
      }
    },
    {
      "type": "Feature",
      "id": "node/4464727189",
      "properties": {
        "timestamp": "2016-10-26T11:37:48Z",
        "version": 1,
        "changeset": 43190644,
        "name": "Experience hostel",
        "tourism": "hotel",
        "id": "node/4464727189"
      },
      "geometry": {
        "type": "Point",
        "coordinates": [
          -56.4891413,
          -21.123668
        ]
      }
    },
    {
      "type": "Feature",
      "id": "node/4530816770",
      "properties": {
        "timestamp": "2021-07-15T21:06:04Z",
        "version": 2,
        "changeset": 108074165,
        "addr:city": "Bonito",
        "addr:housenumber": "500",
        "addr:postcode": "79290000",
        "addr:street": "Rua Arida Silva Machado",
        "addr:suburb": "Formoso",
        "internet_access": "wlan",
        "name": "Pousada do Peralta",
        "tourism": "hotel",
        "id": "node/4530816770"
      },
      "geometry": {
        "type": "Point",
        "coordinates": [
          -56.5010866,
          -21.1183708
        ]
      }
    },
    {
      "type": "Feature",
      "id": "node/6614575455",
      "properties": {
        "timestamp": "2019-07-14T16:09:58Z",
        "version": 1,
        "changeset": 72236903,
        "name": "Lucca Pousada",
        "tourism": "hotel",
        "id": "node/6614575455"
      },
      "geometry": {
        "type": "Point",
        "coordinates": [
          -56.4856929,
          -21.1243748
        ]
      }
    },
    {
      "type": "Feature",
      "id": "node/8923546084",
      "properties": {
        "timestamp": "2022-03-12T12:31:58Z",
        "version": 4,
        "changeset": 118396333,
        "addr:city": "Bonito",
        "addr:housenumber": "442",
        "addr:postcode": "79290-000",
        "addr:street": "Rua Soldado Desconhecido",
        "addr:suburb": "Formoso",
        "contact:phone": "67 9 9286 1524",
        "internet_access": "wlan",
        "name": "Pousada Diamante",
        "rooms": "9",
        "tourism": "hotel",
        "id": "node/8923546084"
      },
      "geometry": {
        "type": "Point",
        "coordinates": [
          -56.504324,
          -21.118053
        ]
      }
    },
    {
      "type": "Feature",
      "id": "node/8923546085",
      "properties": {
        "timestamp": "2021-07-15T21:06:04Z",
        "version": 1,
        "changeset": 108074165,
        "addr:city": "Bonito",
        "addr:housenumber": "580",
        "addr:postcode": "79290-000",
        "addr:street": "Rua Soldado Desconhecido",
        "addr:suburb": "Formoso",
        "internet_access": "yes",
        "name": "Pousada Chão de Pedra",
        "tourism": "hotel",
        "id": "node/8923546085"
      },
      "geometry": {
        "type": "Point",
        "coordinates": [
          -56.5049966,
          -21.1199591
        ]
      }
    },
    {
      "type": "Feature",
      "id": "node/8923546086",
      "properties": {
        "timestamp": "2021-07-15T21:06:04Z",
        "version": 1,
        "changeset": 108074165,
        "addr:city": "Bonito",
        "addr:housenumber": "679",
        "addr:postcode": "79290000",
        "addr:street": "Rua Coronel Pilad Rebuá",
        "addr:suburb": "Formoso",
        "internet_access": "wlan",
        "name": "Wetiga Hotel",
        "tourism": "hotel",
        "id": "node/8923546086"
      },
      "geometry": {
        "type": "Point",
        "coordinates": [
          -56.4997682,
          -21.120921
        ]
      }
    },
    {
      "type": "Feature",
      "id": "node/8923546087",
      "properties": {
        "timestamp": "2021-07-15T21:06:04Z",
        "version": 1,
        "changeset": 108074165,
        "addr:city": "Bonito",
        "addr:housenumber": "840",
        "addr:postcode": "79290000",
        "addr:street": "Rua 2 de Outubro",
        "addr:suburb": "Centro",
        "internet_access": "wlan",
        "name": "Pousada Sucuri",
        "tourism": "hotel",
        "id": "node/8923546087"
      },
      "geometry": {
        "type": "Point",
        "coordinates": [
          -56.4946325,
          -21.1238524
        ]
      }
    },
    {
      "type": "Feature",
      "id": "node/8923546088",
      "properties": {
        "timestamp": "2021-07-15T21:06:04Z",
        "version": 1,
        "changeset": 108074165,
        "addr:city": "Bonito",
        "addr:housenumber": "618",
        "addr:postcode": "79290000",
        "addr:street": "Rua Arida Silva Machado",
        "addr:suburb": "Formoso",
        "internet_access": "wlan",
        "name": "Hotel Lago Azul",
        "tourism": "hotel",
        "id": "node/8923546088"
      },
      "geometry": {
        "type": "Point",
        "coordinates": [
          -56.5015222,
          -21.1199361
        ]
      }
    },
    {
      "type": "Feature",
      "id": "node/11136452221",
      "properties": {
        "timestamp": "2023-08-22T15:11:27Z",
        "version": 1,
        "changeset": 140234186,
        "name": "Che Lagarto Hostel - Bonito Centro",
        "tourism": "hotel",
        "id": "node/11136452221"
      },
      "geometry": {
        "type": "Point",
        "coordinates": [
          -56.4852651,
          -21.1270785
        ]
      }
    }
  ]
}
