{
  "type": "FeatureCollection",
  "features": [
    {
      "type": "Feature",
      "id": "way/1068566287",
      "properties": {
        "timestamp": "2022-06-13T19:37:07Z",
        "version": 2,
        "changeset": 122340590,
        "addr:city": "Américo Brasiliense",
        "addr:housenumber": "70",
        "addr:postcode": "14821-002",
        "addr:street": "Avenida Antônio Rocha",
        "addr:suburb": "Distrito Industrial",
        "amenity": "school",
        "grades": "10-12",
        "name": "Colégio Raio de Sol",
        "phone": "+55 16 2221 0560",
        "id": "way/1068566287"
      },
      "geometry": {
        "type": "Polygon",
        "coordinates": [
          [
            [
              -48.1285769,
              -21.7436218
            ],
            [
              -48.1285769,
              -21.7440702
            ],
            [
              -48.1284992,
              -21.74412
            ],
            [
              -48.1277857,
              -21.7439382
            ],
            [
              -48.1278323,
              -21.7436677
            ],
            [
              -48.1278608,
              -21.7435027
            ],
            [
              -48.1278635,
              -21.7434872
            ],
            [
              -48.1285769,
              -21.7436218
            ]
          ]
        ]
      }
    }
  ]
}
