{
  "type": "FeatureCollection",
  "features": [
    {
      "type": "Feature",
      "id": "way/551764904",
      "properties": {
        "timestamp": "2018-01-09T03:23:43Z",
        "version": 1,
        "changeset": 55280962,
        "addr:city": "Rio do Sul",
        "addr:postcode": "89163-089",
        "addr:street": "Rua Prefeito Wenceslau Borini",
        "addr:suburb": "Canta Galo",
        "building": "yes",
        "name": "Bicicletaria Canta Galo",
        "shop": "bicycle",
        "id": "way/551764904"
      },
      "geometry": {
        "type": "Polygon",
        "coordinates": [
          [
            [
              -49.6340553,
              -27.2054872
            ],
            [
              -49.6340655,
              -27.205612
            ],
            [
              -49.6338925,
              -27.2055759
            ],
            [
              -49.6338866,
              -27.2055957
            ],
            [
              -49.6337911,
              -27.2055758
            ],
            [
              -49.6338033,
              -27.2053516
            ],
            [
              -49.6339496,
              -27.2053896
            ],
            [
              -49.6339293,
              -27.2054583
            ],
            [
              -49.6340553,
              -27.2054872
            ]
          ]
        ]
      }
    },
    {
      "type": "Feature",
      "id": "way/723883629",
      "properties": {
        "timestamp": "2019-11-22T13:38:16Z",
        "version": 2,
        "changeset": 77429324,
        "addr:housenumber": "1300",
        "addr:street": "Avenida Oscar Barcelos",
        "alt_name": "WB Bike",
        "building": "apartments",
        "name": "WB Bike Shop",
        "shop": "bicycle",
        "website": "https://www.wbbikeshop.com.br/",
        "id": "way/723883629"
      },
      "geometry": {
        "type": "Polygon",
        "coordinates": [
          [
            [
              -49.6327203,
              -27.2116187
            ],
            [
              -49.6326457,
              -27.2117612
            ],
            [
              -49.6324901,
              -27.2116944
            ],
            [
              -49.6325679,
              -27.2115501
            ],
            [
              -49.6327203,
              -27.2116187
            ]
          ]
        ]
      }
    },
    {
      "type": "Feature",
      "id": "way/725198871",
      "properties": {
        "timestamp": "2019-09-16T21:35:39Z",
        "version": 1,
        "changeset": 74551101,
        "addr:housenumber": "1468",
        "addr:street": "Alameda Aristiliano Ramos",
        "building": "commercial",
        "name": "Bike Connect",
        "shop": "bicycle",
        "website": "https://bike-connect.negocio.site/",
        "id": "way/725198871"
      },
      "geometry": {
        "type": "Polygon",
        "coordinates": [
          [
            [
              -49.6314001,
              -27.2104614
            ],
            [
              -49.6312842,
              -27.2106585
            ],
            [
              -49.6311763,
              -27.2106075
            ],
            [
              -49.6312909,
              -27.2104133
            ],
            [
              -49.6314001,
              -27.2104614
            ]
          ]
        ]
      }
    },
    {
      "type": "Feature",
      "id": "way/746729614",
      "properties": {
        "timestamp": "2019-11-18T17:50:07Z",
        "version": 1,
        "changeset": 77241216,
        "addr:housenumber": "611",
        "addr:street": "Avenida Governador Jorge Lacerda",
        "alt_name": "Bicicletaria China",
        "building": "residential",
        "name": "China Bicicletaria",
        "shop": "bicycle",
        "id": "way/746729614"
      },
      "geometry": {
        "type": "Polygon",
        "coordinates": [
          [
            [
              -49.6577371,
              -27.2235877
            ],
            [
              -49.6577391,
              -27.2237386
            ],
            [
              -49.6575909,
              -27.223741
            ],
            [
              -49.6575855,
              -27.2235889
            ],
            [
              -49.6577371,
              -27.2235877
            ]
          ]
        ]
      }
    },
    {
      "type": "Feature",
      "id": "node/6795891292",
      "properties": {
        "timestamp": "2019-09-14T19:46:45Z",
        "version": 1,
        "changeset": 74483091,
        "addr:housenumber": "1752",
        "addr:street": "Alameda Aristiliano Ramos",
        "name": "Rio do Sul Bike",
        "shop": "bicycle",
        "id": "node/6795891292"
      },
      "geometry": {
        "type": "Point",
        "coordinates": [
          -49.6293198,
          -27.2095499
        ]
      }
    },
    {
      "type": "Feature",
      "id": "node/6805318579",
      "properties": {
        "timestamp": "2019-09-18T11:20:17Z",
        "version": 1,
        "changeset": 74620640,
        "addr:housenumber": "686",
        "addr:street": "Avenida Oscar Barcelos",
        "name": "Bike Plus",
        "shop": "bicycle",
        "website": "https://www.bikeplus.com.br/",
        "id": "node/6805318579"
      },
      "geometry": {
        "type": "Point",
        "coordinates": [
          -49.6367736,
          -27.2135764
        ]
      }
    },
    {
      "type": "Feature",
      "id": "node/6858566122",
      "properties": {
        "timestamp": "2021-03-03T18:23:39Z",
        "version": 3,
        "changeset": 100369237,
        "addr:housenumber": "1206",
        "addr:street": "Estrada Blumenau",
        "name": "Bike Castro",
        "shop": "bicycle",
        "id": "node/6858566122"
      },
      "geometry": {
        "type": "Point",
        "coordinates": [
          -49.612546,
          -27.1950834
        ]
      }
    }
  ]
}
