{
  "type": "FeatureCollection",
  "features": [
    {
      "type": "Feature",
      "id": "way/479198269",
      "properties": {
        "timestamp": "2024-07-08T14:30:06Z",
        "version": 3,
        "changeset": 153706672,
        "addr:city": "Barão de Melgaço",
        "addr:housenumber": "00",
        "addr:postcode": "78190-000",
        "addr:street": "Rua Eugenio Figueiredo",
        "addr:suburb": "Centro",
        "amenity": "school",
        "grades": "6-12",
        "name": "Escola Estadual Coronel Antonio Paes de Barros",
        "operator": "Estadual",
        "operator:type": "government",
        "id": "way/479198269"
      },
      "geometry": {
        "type": "Polygon",
        "coordinates": [
          [
            [
              -55.965514,
              -16.1956765
            ],
            [
              -55.965003,
              -16.1951047
            ],
            [
              -55.9650254,
              -16.195084
            ],
            [
              -55.9653752,
              -16.1947605
            ],
            [
              -55.9658539,
              -16.1954405
            ],
            [
              -55.9658239,
              -16.1954614
            ],
            [
              -55.9658271,
              -16.1954656
            ],
            [
              -55.965539,
              -16.1956678
            ],
            [
              -55.9655347,
              -16.1956621
            ],
            [
              -55.965514,
              -16.1956765
            ]
          ]
        ]
      }
    },
    {
      "type": "Feature",
      "id": "way/1168124365",
      "properties": {
        "timestamp": "2023-05-02T19:47:34Z",
        "version": 1,
        "changeset": 135631285,
        "addr:city": "Barão de Melgaço",
        "addr:housenumber": "00",
        "addr:postcode": "78190-000",
        "addr:street": "Avenida Augusto Leverger",
        "addr:suburb": "Centro",
        "amenity": "school",
        "building": "school",
        "grades": "12-18",
        "name": "Antiga E. E. Cel. Antonio Paes de Barros",
        "operator": "Publico",
        "operator:type": "government",
        "id": "way/1168124365"
      },
      "geometry": {
        "type": "Polygon",
        "coordinates": [
          [
            [
              -55.9674085,
              -16.1941454
            ],
            [
              -55.9669836,
              -16.1943472
            ],
            [
              -55.9668995,
              -16.1942239
            ],
            [
              -55.9673011,
              -16.1939884
            ],
            [
              -55.9674085,
              -16.1941454
            ]
          ]
        ]
      }
    },
    {
      "type": "Feature",
      "id": "way/1168135748",
      "properties": {
        "timestamp": "2023-05-02T20:32:14Z",
        "version": 1,
        "changeset": 135632742,
        "addr:city": "Barão de Melgaço",
        "addr:housenumber": "00",
        "addr:postcode": "78190-000",
        "addr:street": "Rua Eduardo Boreti",
        "addr:suburb": "Vila Recreio",
        "amenity": "school",
        "building": "school",
        "grades": "12-18",
        "name": "Escola Estadual Ciro Siqueira Gonçalves",
        "operator": "Estadual",
        "operator:type": "government",
        "id": "way/1168135748"
      },
      "geometry": {
        "type": "Polygon",
        "coordinates": [
          [
            [
              -55.9483996,
              -16.1928631
            ],
            [
              -55.9486618,
              -16.1931481
            ],
            [
              -55.9481495,
              -16.1936068
            ],
            [
              -55.9478995,
              -16.1933609
            ],
            [
              -55.9483996,
              -16.1928631
            ]
          ]
        ]
      }
    }
  ]
}
