{
  "type": "FeatureCollection",
  "features": [
    {
      "type": "Feature",
      "id": "way/728206783",
      "properties": {
        "timestamp": "2019-09-25T21:26:11Z",
        "version": 1,
        "changeset": 74928825,
        "addr:city": "Ilha Grande",
        "addr:postcode": "64224000",
        "addr:street": "Avenida Martins Ribeiro",
        "addr:suburb": "Centro",
        "amenity": "community_centre",
        "building": "yes",
        "name": "Col√¥nia de Pescadores Z-7",
        "id": "way/728206783"
      },
      "geometry": {
        "type": "Polygon",
        "coordinates": [
          [
            [
              -41.8175444,
              -2.8520051
            ],
            [
              -41.8175835,
              -2.8519037
            ],
            [
              -41.8178342,
              -2.8519782
            ],
            [
              -41.8177915,
              -2.852097
            ],
            [
              -41.8175444,
              -2.8520051
            ]
          ]
        ]
      }
    }
  ]
}
