{
  "type": "FeatureCollection",
  "features": [
    {
      "type": "Feature",
      "id": "way/367512136",
      "properties": {
        "timestamp": "2025-02-27T13:19:42Z",
        "version": 2,
        "changeset": 163012221,
        "addr:city": "Pedro Alexandre",
        "addr:postcode": "48580-000",
        "addr:street": "Rua do Colégio",
        "addr:suburb": "Centro",
        "amenity": "school",
        "name": "Colégio Estadual Doutor Rui Barcelar",
        "id": "way/367512136"
      },
      "geometry": {
        "type": "Polygon",
        "coordinates": [
          [
            [
              -37.8945893,
              -10.0187213
            ],
            [
              -37.8938222,
              -10.0189645
            ],
            [
              -37.8936333,
              -10.0183529
            ],
            [
              -37.8943984,
              -10.0181115
            ],
            [
              -37.8945893,
              -10.0187213
            ]
          ]
        ]
      }
    },
    {
      "type": "Feature",
      "id": "way/367512138",
      "properties": {
        "timestamp": "2025-02-27T13:19:42Z",
        "version": 2,
        "changeset": 163012221,
        "addr:city": "Pedro Alexandre",
        "addr:postcode": "48580-000",
        "addr:street": "Travessa João Batista de Carvalho",
        "addr:suburb": "Centro",
        "amenity": "school",
        "name": "Escola Municipal Professora Nivalda Carvalho Leite",
        "operator": "Município de Pedro Alexandre",
        "operator:type": "public",
        "id": "way/367512138"
      },
      "geometry": {
        "type": "Polygon",
        "coordinates": [
          [
            [
              -37.8958297,
              -10.0139112
            ],
            [
              -37.895741,
              -10.0142715
            ],
            [
              -37.8953865,
              -10.0141647
            ],
            [
              -37.8954924,
              -10.0138196
            ],
            [
              -37.8958297,
              -10.0139112
            ]
          ]
        ]
      }
    },
    {
      "type": "Feature",
      "id": "way/367512139",
      "properties": {
        "timestamp": "2025-02-27T13:19:42Z",
        "version": 2,
        "changeset": 163012221,
        "addr:city": "Pedro Alexandre",
        "addr:postcode": "48580-000",
        "addr:street": "Rua Antônio Pessoa Pinto",
        "addr:suburb": "Centro",
        "amenity": "school",
        "name": "Escola Municipal Luiz Eduardo Magalhães",
        "operator": "Município de Pedro Alexandre",
        "operator:type": "public",
        "id": "way/367512139"
      },
      "geometry": {
        "type": "Polygon",
        "coordinates": [
          [
            [
              -37.8945895,
              -10.0148061
            ],
            [
              -37.894365,
              -10.0151837
            ],
            [
              -37.8942453,
              -10.0152961
            ],
            [
              -37.8939743,
              -10.0148334
            ],
            [
              -37.8940946,
              -10.0146871
            ],
            [
              -37.8942376,
              -10.0145599
            ],
            [
              -37.8944191,
              -10.0144583
            ],
            [
              -37.8945895,
              -10.0148061
            ]
          ]
        ]
      }
    },
    {
      "type": "Feature",
      "id": "node/3714285219",
      "properties": {
        "timestamp": "2025-02-27T13:19:42Z",
        "version": 2,
        "changeset": 163012221,
        "addr:city": "Pedro Alexandre",
        "addr:postcode": "48580-000",
        "addr:street": "Praça General Liberato de Carvalho",
        "addr:suburb": "Centro",
        "amenity": "school",
        "name": "Colegio Guilhermina de Almeida",
        "id": "node/3714285219"
      },
      "geometry": {
        "type": "Point",
        "coordinates": [
          -37.8923765,
          -10.0087855
        ]
      }
    },
    {
      "type": "Feature",
      "id": "node/3714285222",
      "properties": {
        "timestamp": "2025-02-27T13:19:42Z",
        "version": 2,
        "changeset": 163012221,
        "addr:city": "Pedro Alexandre",
        "addr:postcode": "48580-000",
        "addr:street": "Avenida João Batista de Carvalho",
        "addr:suburb": "Centro",
        "amenity": "school",
        "name": "Escola Municipal Pedro Alexandre",
        "operator": "Município de Pedro Alexandre",
        "operator:type": "public",
        "id": "node/3714285222"
      },
      "geometry": {
        "type": "Point",
        "coordinates": [
          -37.8981496,
          -10.0144034
        ]
      }
    },
    {
      "type": "Feature",
      "id": "node/3714286992",
      "properties": {
        "timestamp": "2025-02-27T13:19:42Z",
        "version": 2,
        "changeset": 163012221,
        "addr:city": "Pedro Alexandre",
        "addr:postcode": "48580-000",
        "addr:street": "Praça General Liberato de Carvalho",
        "addr:suburb": "Centro",
        "amenity": "school",
        "name": "Creche Municipal Pedro Alexandre",
        "operator": "Município de Pedro Alexandre",
        "operator:type": "public",
        "id": "node/3714286992"
      },
      "geometry": {
        "type": "Point",
        "coordinates": [
          -37.892692,
          -10.0086875
        ]
      }
    },
    {
      "type": "Feature",
      "id": "node/7390094357",
      "properties": {
        "timestamp": "2020-04-18T16:37:31Z",
        "version": 2,
        "changeset": 83749155,
        "amenity": "school",
        "name": "heracliton de carvalho",
        "id": "node/7390094357"
      },
      "geometry": {
        "type": "Point",
        "coordinates": [
          -38.0480908,
          -10.0984747
        ]
      }
    },
    {
      "type": "Feature",
      "id": "node/11346766736",
      "properties": {
        "timestamp": "2025-02-27T17:36:32Z",
        "version": 2,
        "changeset": 163022342,
        "amenity": "school",
        "name": "Escola Municipal João Maria de Carvalho",
        "operator": "M",
        "id": "node/11346766736"
      },
      "geometry": {
        "type": "Point",
        "coordinates": [
          -37.7870749,
          -10.2536189
        ]
      }
    },
    {
      "type": "Feature",
      "id": "node/11346766737",
      "properties": {
        "timestamp": "2023-11-13T16:43:14Z",
        "version": 1,
        "changeset": 143978519,
        "amenity": "school",
        "id": "node/11346766737"
      },
      "geometry": {
        "type": "Point",
        "coordinates": [
          -37.7871309,
          -10.2533868
        ]
      }
    },
    {
      "type": "Feature",
      "id": "node/12621115717",
      "properties": {
        "timestamp": "2025-02-27T19:26:53Z",
        "version": 2,
        "changeset": 163026088,
        "IBGE:COD_UNICO_ENDERECO": "191749787",
        "addr:housenumber": "18",
        "addr:postcode": "48580-000",
        "addr:street": "Projeto de Assentamento Bonito das Umburanas",
        "addr:suburb": "Projeto de Assentamento Bonito das Umburanas",
        "amenity": "school",
        "building": "yes",
        "name": "Escola Alto Bonito das Umburanas",
        "id": "node/12621115717"
      },
      "geometry": {
        "type": "Point",
        "coordinates": [
          -37.997569,
          -9.9540791
        ]
      }
    }
  ]
}
