{
  "type": "FeatureCollection",
  "features": [
    {
      "type": "Feature",
      "id": "way/1167961782",
      "properties": {
        "timestamp": "2023-05-02T13:10:02Z",
        "version": 1,
        "changeset": 135616071,
        "addr:city": "Limeira do Oeste",
        "addr:postcode": "38295000",
        "addr:street": "Avenida Venezuela",
        "addr:suburb": "Joam√°rio",
        "amenity": "community_centre",
        "building": "yes",
        "name": "AMBAJO",
        "website": "https://sapl.limeiradooeste.mg.leg.br/media/sapl/public/normajuridica/2004/1021/1021_texto_integral.pdf",
        "id": "way/1167961782"
      },
      "geometry": {
        "type": "Polygon",
        "coordinates": [
          [
            [
              -50.574403,
              -19.5461301
            ],
            [
              -50.5741998,
              -19.5458906
            ],
            [
              -50.5742872,
              -19.545814
            ],
            [
              -50.5743116,
              -19.5458408
            ],
            [
              -50.5743786,
              -19.5457853
            ],
            [
              -50.5744823,
              -19.5459117
            ],
            [
              -50.5745087,
              -19.5458945
            ],
            [
              -50.5745778,
              -19.5459998
            ],
            [
              -50.5744925,
              -19.5460611
            ],
            [
              -50.574403,
              -19.5461301
            ]
          ]
        ]
      }
    },
    {
      "type": "Feature",
      "id": "node/10865076624",
      "properties": {
        "timestamp": "2023-05-16T19:15:18Z",
        "version": 4,
        "changeset": 136183251,
        "addr:city": "Limeira do Oeste",
        "addr:housenumber": "200",
        "addr:postcode": "38295000",
        "addr:street": "Estr. Interna Pindoba / PA Reserva",
        "addr:suburb": "PA Reserva (Tracaja)",
        "amenity": "community_centre",
        "name": "Capelinha dos Milagres",
        "id": "node/10865076624"
      },
      "geometry": {
        "type": "Point",
        "coordinates": [
          -50.8111361,
          -19.4621267
        ]
      }
    }
  ]
}
