{
  "type": "FeatureCollection",
  "features": [
    {
      "type": "Feature",
      "id": "way/1168305906",
      "properties": {
        "timestamp": "2023-05-03T15:59:39Z",
        "version": 1,
        "changeset": 135667392,
        "addr:city": "Limeira do Oeste",
        "addr:housenumber": "441",
        "addr:postcode": "38295000",
        "addr:street": "Avenida Minas Gerais",
        "addr:suburb": "Jardim Humaitá",
        "building": "yes",
        "government": "public_service",
        "name": "Secretaria Municipal de Cultura",
        "office": "government",
        "opening_hours": "Mo-Fr 07:30-11:30 13:00 16:30",
        "phone": "+55 34 3453-1710",
        "website": "https://limeiradooeste.mg.gov.br/cultura/",
        "id": "way/1168305906"
      },
      "geometry": {
        "type": "Polygon",
        "coordinates": [
          [
            [
              -50.5811404,
              -19.552495
            ],
            [
              -50.5809656,
              -19.5526195
            ],
            [
              -50.5808091,
              -19.5524385
            ],
            [
              -50.5808773,
              -19.5523897
            ],
            [
              -50.5809951,
              -19.5525266
            ],
            [
              -50.5811028,
              -19.552449
            ],
            [
              -50.5811404,
              -19.552495
            ]
          ]
        ]
      }
    },
    {
      "type": "Feature",
      "id": "node/10853785206",
      "properties": {
        "timestamp": "2024-02-07T17:46:56Z",
        "version": 4,
        "changeset": 147186195,
        "addr:city": "Limeira do Oeste",
        "addr:housenumber": "54",
        "addr:postcode": "38295-000",
        "addr:street": "Travessa Duque de Caxias",
        "addr:suburb": "Centro",
        "government": "register_office",
        "name": "Cartorio e Tabeleonato Magalhães Sousa",
        "office": "government",
        "opening_hours": "Mo-Su 08:00-11:30 13:00-16:00",
        "operator": "Bruno Magalhães",
        "phone": "+55 34 3453 1128",
        "id": "node/10853785206"
      },
      "geometry": {
        "type": "Point",
        "coordinates": [
          -50.5807019,
          -19.5513771
        ]
      }
    },
    {
      "type": "Feature",
      "id": "node/10863683195",
      "properties": {
        "timestamp": "2023-06-16T16:08:24Z",
        "version": 3,
        "changeset": 137420438,
        "addr:city": "Limeira do Oeste",
        "addr:housenumber": "1210",
        "addr:postcode": "38295000",
        "addr:street": "Rua Pernambuco",
        "addr:suburb": "Joamário",
        "email": "assistenciasocial@limeiradooeste.mg.gov.br",
        "government": "public_service",
        "name": "Secretaria Municipal Promoção Social",
        "office": "government",
        "opening_hours": "Mo-Su 08:00-17:00",
        "phone": "+55 34 3453-1702",
        "website": "https://limeiradooeste.mg.gov.br/secretaria-municipal-de-assistencia-social/",
        "id": "node/10863683195"
      },
      "geometry": {
        "type": "Point",
        "coordinates": [
          -50.5733856,
          -19.550317
        ]
      }
    },
    {
      "type": "Feature",
      "id": "node/10870784811",
      "properties": {
        "timestamp": "2023-05-09T15:51:31Z",
        "version": 2,
        "changeset": 135901950,
        "addr:city": "Limeira do Oeste",
        "addr:postcode": "38295000",
        "addr:street": "Rua Canadá",
        "addr:suburb": "São João",
        "email": "sec.saude@limeiradooeste.mg.gov.br",
        "government": "yes",
        "name": "Secretaria Municipal de Saude",
        "office": "government",
        "opening_hours": "Mo-Su 07:00-11:30 13:00-16:30",
        "phone": "+55 34 3453-0394",
        "website": "https://limeiradooeste.mg.gov.br/secretaria-municipal-de-saude/",
        "id": "node/10870784811"
      },
      "geometry": {
        "type": "Point",
        "coordinates": [
          -50.5830333,
          -19.5489276
        ]
      }
    },
    {
      "type": "Feature",
      "id": "node/10881250122",
      "properties": {
        "timestamp": "2023-09-10T14:00:50Z",
        "version": 3,
        "changeset": 141064619,
        "addr:city": "Limeira do Oeste",
        "addr:housenumber": "751",
        "addr:postcode": "38295-000",
        "addr:street": "Rua Canadá",
        "addr:suburb": "São João",
        "government": "administrative",
        "name": "Almoxarifado da Prefeitura Municipal",
        "office": "government",
        "id": "node/10881250122"
      },
      "geometry": {
        "type": "Point",
        "coordinates": [
          -50.5834258,
          -19.5491875
        ]
      }
    },
    {
      "type": "Feature",
      "id": "node/10914145032",
      "properties": {
        "timestamp": "2023-05-21T00:18:00Z",
        "version": 2,
        "changeset": 136356277,
        "addr:city": "Limeira do Oeste",
        "addr:housenumber": "757",
        "addr:postcode": "38295000",
        "addr:street": "Avenida Minas Gerais",
        "addr:suburb": "Centro",
        "description": "CNPJ: 06.086.659/0001-99 - Razão Social: Secretaria Municipal de Educacao - Data de Abertura: 26/01/2004",
        "email": "educacao@limeiradooeste.mg.gov.br",
        "government": "yes",
        "name": "Semec - Secretaria Mun. Educacao",
        "office": "government",
        "opening_hours": "Mo-Fr 07:30-16:30",
        "phone": "+55  34 3453-1745",
        "id": "node/10914145032"
      },
      "geometry": {
        "type": "Point",
        "coordinates": [
          -50.5787511,
          -19.5542501
        ]
      }
    },
    {
      "type": "Feature",
      "id": "node/10962603386",
      "properties": {
        "timestamp": "2023-06-08T00:09:44Z",
        "version": 1,
        "changeset": 137075036,
        "addr:city": "Limeira do Oeste",
        "addr:housenumber": "465",
        "addr:postcode": "38295000",
        "addr:street": "Avenida Bolívia",
        "addr:suburb": "Joamário",
        "name": "Vigilância Ambiental em Saúde Maria Lourdes F. de Andrade",
        "office": "government",
        "id": "node/10962603386"
      },
      "geometry": {
        "type": "Point",
        "coordinates": [
          -50.5746675,
          -19.5481603
        ]
      }
    },
    {
      "type": "Feature",
      "id": "node/10962603387",
      "properties": {
        "timestamp": "2023-06-08T00:09:44Z",
        "version": 1,
        "changeset": 137075036,
        "addr:city": "Limeira do Oeste",
        "addr:housenumber": "654",
        "addr:postcode": "38295000",
        "addr:street": "Avenida Equador",
        "addr:suburb": "Joamário",
        "government": "public_service",
        "name": "UAI Joamario",
        "office": "government",
        "id": "node/10962603387"
      },
      "geometry": {
        "type": "Point",
        "coordinates": [
          -50.5742172,
          -19.547622
        ]
      }
    },
    {
      "type": "Feature",
      "id": "node/11018692627",
      "properties": {
        "timestamp": "2023-07-01T20:55:27Z",
        "version": 1,
        "changeset": 138005630,
        "addr:city": "Limeira do Oeste",
        "addr:housenumber": "1138",
        "addr:postcode": "38295000",
        "addr:street": "Rua Goiás",
        "addr:suburb": "Joamário",
        "government": "social_services",
        "name": "Farmácia de Minas",
        "office": "government",
        "phone": "+55 34 3453-1700",
        "website": "https://limeiradooeste.mg.gov.br",
        "id": "node/11018692627"
      },
      "geometry": {
        "type": "Point",
        "coordinates": [
          -50.5766085,
          -19.549768
        ]
      }
    }
  ]
}
