{
  "type": "FeatureCollection",
  "features": [
    {
      "type": "Feature",
      "id": "node/10853557083",
      "properties": {
        "timestamp": "2023-05-26T13:49:08Z",
        "version": 3,
        "changeset": 136589133,
        "addr:city": "Limeira do Oeste",
        "addr:housenumber": "793",
        "addr:postcode": "38295000",
        "addr:street": "Avenida da Saudade",
        "addr:suburb": "Centro",
        "amenity": "pharmacy",
        "description": "ZAP: +55 34 99856-1603",
        "dispensing": "yes",
        "healthcare": "pharmacy",
        "name": "Droga Lider",
        "opening_hours": "Mo-Su 08:00-20:00",
        "phone": "+55 34 3453-1447",
        "id": "node/10853557083"
      },
      "geometry": {
        "type": "Point",
        "coordinates": [
          -50.5767057,
          -19.5523506
        ]
      }
    },
    {
      "type": "Feature",
      "id": "node/10857909116",
      "properties": {
        "timestamp": "2023-04-30T22:16:47Z",
        "version": 2,
        "changeset": 135554849,
        "addr:city": "Limeira do Oeste",
        "addr:housenumber": "616",
        "addr:postcode": "38295000",
        "addr:street": "Avenida Bahia",
        "addr:suburb": "Centro",
        "amenity": "pharmacy",
        "dispensing": "yes",
        "healthcare": "pharmacy",
        "name": "Drogaria VIP",
        "opening_hours": "Mo-Su 08:00-22:00",
        "operator": "Jose Aguilar",
        "phone": "+55 34 3453-1263",
        "id": "node/10857909116"
      },
      "geometry": {
        "type": "Point",
        "coordinates": [
          -50.5772285,
          -19.5533452
        ]
      }
    },
    {
      "type": "Feature",
      "id": "node/10860185402",
      "properties": {
        "timestamp": "2023-06-20T22:16:44Z",
        "version": 2,
        "changeset": 137580846,
        "addr:city": "Limeira do Oeste",
        "addr:housenumber": "743",
        "addr:postcode": "38295000",
        "addr:street": "Avenida da Saudade",
        "addr:suburb": "Centro",
        "amenity": "pharmacy",
        "dispensing": "yes",
        "healthcare": "pharmacy",
        "name": "Hiper Popular",
        "opening_hours": "Mo-Su 07:30-21:00",
        "phone": "+55 34 3453-0685",
        "id": "node/10860185402"
      },
      "geometry": {
        "type": "Point",
        "coordinates": [
          -50.5770478,
          -19.552087
        ]
      }
    },
    {
      "type": "Feature",
      "id": "node/10860185404",
      "properties": {
        "timestamp": "2023-05-04T19:08:01Z",
        "version": 3,
        "changeset": 135713719,
        "addr:city": "Limeira do Oeste",
        "addr:housenumber": "601",
        "addr:postcode": "38295000",
        "addr:street": "Avenida da Saudade",
        "addr:suburb": "Joam√°rio",
        "amenity": "pharmacy",
        "dispensing": "yes",
        "healthcare": "pharmacy",
        "name": "Droga Nova",
        "opening_hours": "Mo-Su 07:00-20:00",
        "operator": "Alexandre",
        "phone": "+55 34 3453-1306",
        "id": "node/10860185404"
      },
      "geometry": {
        "type": "Point",
        "coordinates": [
          -50.5781732,
          -19.5512319
        ]
      }
    },
    {
      "type": "Feature",
      "id": "node/10983878513",
      "properties": {
        "timestamp": "2023-06-18T12:17:34Z",
        "version": 1,
        "changeset": 137476586,
        "addr:city": "Limeira do Oeste",
        "addr:housenumber": "698",
        "addr:postcode": "38295000",
        "addr:street": "Avenida Bahia",
        "addr:suburb": "Centro",
        "amenity": "pharmacy",
        "healthcare": "pharmacy",
        "name": "Bio Pharma",
        "opening_hours": "Mo-Su 09:00-21:00",
        "operator": "rede Inova",
        "phone": "+55 34 3453-1030",
        "id": "node/10983878513"
      },
      "geometry": {
        "type": "Point",
        "coordinates": [
          -50.5781297,
          -19.5526598
        ]
      }
    }
  ]
}
