{
  "type": "FeatureCollection",
  "features": [
    {
      "type": "Feature",
      "id": "way/466960625",
      "properties": {
        "timestamp": "2023-06-20T14:01:27Z",
        "version": 6,
        "changeset": 137565731,
        "addr:city": "Limeira do Oeste",
        "addr:housenumber": "475",
        "addr:postcode": "38295000",
        "addr:street": "Avenida Bahia",
        "addr:suburb": "Jardim Humaitá",
        "amenity": "school",
        "operator": "MG",
        "operator:type": "public",
        "phone": "+55 34 3453-1344",
        "source": "IBGE",
        "wheelchair": "yes",
        "id": "way/466960625"
      },
      "geometry": {
        "type": "Polygon",
        "coordinates": [
          [
            [
              -50.5800972,
              -19.5509425
            ],
            [
              -50.5800671,
              -19.5509694
            ],
            [
              -50.5800529,
              -19.5509786
            ],
            [
              -50.579492,
              -19.551429
            ],
            [
              -50.5794594,
              -19.5513968
            ],
            [
              -50.5790058,
              -19.5508652
            ],
            [
              -50.5793767,
              -19.5505992
            ],
            [
              -50.5799634,
              -19.5508761
            ],
            [
              -50.5800972,
              -19.5509425
            ]
          ]
        ]
      }
    },
    {
      "type": "Feature",
      "id": "way/1165334434",
      "properties": {
        "timestamp": "2023-09-10T14:43:33Z",
        "version": 3,
        "changeset": 141066489,
        "addr:city": "Limeira do Oeste",
        "addr:housenumber": "636",
        "addr:postcode": "38295-000",
        "addr:street": "Avenida Tocantins",
        "addr:suburb": "Jardim Paraíso",
        "amenity": "school",
        "name": "Escola Municipal Maria Tonini da Silva",
        "operator": "Prefeitura Municipal",
        "operator:type": "government",
        "source": "IBGE",
        "website": "https://sapl.limeiradooeste.mg.leg.br/media/sapl/public/normajuridica/2018/1741/1741_texto_integral.pdf",
        "id": "way/1165334434"
      },
      "geometry": {
        "type": "Polygon",
        "coordinates": [
          [
            [
              -50.5758357,
              -19.5572993
            ],
            [
              -50.5756877,
              -19.5577327
            ],
            [
              -50.5747646,
              -19.5574528
            ],
            [
              -50.5749126,
              -19.5570194
            ],
            [
              -50.5758357,
              -19.5572993
            ]
          ]
        ]
      }
    },
    {
      "type": "Feature",
      "id": "way/1165338615",
      "properties": {
        "timestamp": "2023-05-03T15:59:39Z",
        "version": 3,
        "changeset": 135667392,
        "addr:city": "Limeira do Oeste",
        "addr:housenumber": "496",
        "addr:postcode": "38295000",
        "addr:street": "Avenida Sergipe",
        "addr:suburb": "Jardim Humaitá",
        "amenity": "school",
        "name": "Escola Municipal Ana Galicioli do Nascimento",
        "operator": "Prefeitura Municipal",
        "operator:type": "government",
        "phone": "+55 34 3453-1282",
        "id": "way/1165338615"
      },
      "geometry": {
        "type": "Polygon",
        "coordinates": [
          [
            [
              -50.5808019,
              -19.5517673
            ],
            [
              -50.5811843,
              -19.5522033
            ],
            [
              -50.5809014,
              -19.5524174
            ],
            [
              -50.5808773,
              -19.5523897
            ],
            [
              -50.5805248,
              -19.5519841
            ],
            [
              -50.5808019,
              -19.5517673
            ]
          ]
        ]
      }
    },
    {
      "type": "Feature",
      "id": "way/1165966538",
      "properties": {
        "timestamp": "2023-09-10T14:54:33Z",
        "version": 2,
        "changeset": 141066926,
        "addr:city": "Limeira do Oeste",
        "addr:housenumber": "770",
        "addr:postcode": "38295-000",
        "addr:street": "Avenida Argetina",
        "addr:suburb": "Joamário",
        "amenity": "school",
        "name": "Escola Municipal Antônio Vicente da Fonseca",
        "operator": "Prefeitura Municipal",
        "operator:type": "government",
        "religion": "none",
        "id": "way/1165966538"
      },
      "geometry": {
        "type": "Polygon",
        "coordinates": [
          [
            [
              -50.5741367,
              -19.5508918
            ],
            [
              -50.5739919,
              -19.5507224
            ],
            [
              -50.5738819,
              -19.5505859
            ],
            [
              -50.5740509,
              -19.550457
            ],
            [
              -50.5740267,
              -19.5504115
            ],
            [
              -50.5744881,
              -19.5500829
            ],
            [
              -50.5747778,
              -19.550414
            ],
            [
              -50.5741367,
              -19.5508918
            ]
          ]
        ]
      }
    },
    {
      "type": "Feature",
      "id": "node/10913189887",
      "properties": {
        "timestamp": "2023-05-20T00:27:33Z",
        "version": 1,
        "changeset": 136320006,
        "addr:city": "Limeira do Oeste",
        "addr:housenumber": "900",
        "addr:postcode": "38295000",
        "addr:street": "Rua Santa Catarina",
        "addr:suburb": "Centro",
        "amenity": "school",
        "name": "Graham English School",
        "phone": "+55 34 99842-0065",
        "website": "https://graham-school-language-school.negocio.site/?utm_source=gmb&utm_medium=referral",
        "id": "node/10913189887"
      },
      "geometry": {
        "type": "Point",
        "coordinates": [
          -50.5754121,
          -19.5541161
        ]
      }
    },
    {
      "type": "Feature",
      "id": "node/10992163452",
      "properties": {
        "timestamp": "2023-06-20T13:41:04Z",
        "version": 1,
        "changeset": 137564929,
        "addr:city": "Limeira do Oeste",
        "addr:housenumber": "475",
        "addr:postcode": "38295000",
        "addr:street": "Avenida Bahia",
        "addr:suburb": "Jardim Humaitá",
        "amenity": "school",
        "name": "Escola Estadual Izoldino Soares de Freitas",
        "operator": "MG",
        "operator:type": "public",
        "phone": "+55 34 3453-1344",
        "id": "node/10992163452"
      },
      "geometry": {
        "type": "Point",
        "coordinates": [
          -50.579828,
          -19.5511482
        ]
      }
    }
  ]
}
