{
  "type": "FeatureCollection",
  "features": [
    {
      "type": "Feature",
      "id": "node/10857851081",
      "properties": {
        "timestamp": "2023-04-30T12:43:52Z",
        "version": 1,
        "changeset": 135535521,
        "addr:city": "Limeira do Oeste",
        "addr:housenumber": "633",
        "addr:postcode": "38295000",
        "addr:street": "Rua São Paulo",
        "addr:suburb": "Centro",
        "amenity": "veterinary",
        "name": "HM Veterinaria",
        "opening_hours": "Mo-Su 09:00-17:00",
        "phone": "+55 34 3453-1050",
        "id": "node/10857851081"
      },
      "geometry": {
        "type": "Point",
        "coordinates": [
          -50.5791542,
          -19.5538276
        ]
      }
    },
    {
      "type": "Feature",
      "id": "node/10861502372",
      "properties": {
        "timestamp": "2023-05-02T01:54:04Z",
        "version": 1,
        "changeset": 135596176,
        "addr:city": "Limeira do Oeste",
        "addr:housenumber": "761",
        "addr:postcode": "38295000",
        "addr:street": "Rua Goiás",
        "addr:suburb": "Jardim Humaitá",
        "amenity": "veterinary",
        "name": "Agropet",
        "opening_hours": "Mo-Su 08:00-18:00",
        "operator": "Katarina",
        "phone": "+55 34 3453-2882",
        "id": "node/10861502372"
      },
      "geometry": {
        "type": "Point",
        "coordinates": [
          -50.5790876,
          -19.5522873
        ]
      }
    },
    {
      "type": "Feature",
      "id": "node/10868974391",
      "properties": {
        "timestamp": "2023-05-04T19:08:01Z",
        "version": 1,
        "changeset": 135713719,
        "addr:city": "Limeira do Oeste",
        "addr:housenumber": "725",
        "addr:postcode": "38295000",
        "addr:street": "Rua São Paulo",
        "addr:suburb": "Centro",
        "amenity": "veterinary",
        "name": "Casa do Criador",
        "opening_hours": "Mo-Su 08:00-17:00",
        "operator": "Clorisvaldo",
        "phone": "+55 34 3453-1127",
        "id": "node/10868974391"
      },
      "geometry": {
        "type": "Point",
        "coordinates": [
          -50.5785673,
          -19.5532092
        ]
      }
    },
    {
      "type": "Feature",
      "id": "node/10938331771",
      "properties": {
        "timestamp": "2023-05-29T22:44:14Z",
        "version": 1,
        "changeset": 136719499,
        "addr:city": "Limeira do Oeste",
        "addr:housenumber": "823",
        "addr:postcode": "38295000",
        "addr:street": "Rua São Paulo",
        "addr:suburb": "Centro",
        "amenity": "veterinary",
        "name": "Agro Veterinaria Boivet",
        "opening_hours": "Mo-Su 08:00-17:00",
        "operator": "Jeronimo",
        "phone": "+55 34 3453-1143",
        "id": "node/10938331771"
      },
      "geometry": {
        "type": "Point",
        "coordinates": [
          -50.5780025,
          -19.5525149
        ]
      }
    }
  ]
}
