{
  "type": "FeatureCollection",
  "features": [
    {
      "type": "Feature",
      "id": "way/1336567536",
      "properties": {
        "timestamp": "2024-11-21T18:25:35Z",
        "version": 1,
        "changeset": 159428757,
        "addr:city": "Tamboril do Piauí",
        "addr:street": "Avenida Mateus Valente",
        "building": "house",
        "office": "government",
        "id": "way/1336567536"
      },
      "geometry": {
        "type": "Polygon",
        "coordinates": [
          [
            [
              -42.9120193,
              -8.4008582
            ],
            [
              -42.9120762,
              -8.4010254
            ],
            [
              -42.9118446,
              -8.4010707
            ],
            [
              -42.9118044,
              -8.4009136
            ],
            [
              -42.9120193,
              -8.4008582
            ]
          ]
        ]
      }
    },
    {
      "type": "Feature",
      "id": "node/4214736418",
      "properties": {
        "timestamp": "2016-05-30T03:43:50Z",
        "version": 1,
        "changeset": 39654724,
        "addr:city": "Tamboril do Piauí",
        "name": "Secretaria Municipal de Saúde",
        "office": "government",
        "id": "node/4214736418"
      },
      "geometry": {
        "type": "Point",
        "coordinates": [
          -42.9127157,
          -8.4019499
        ]
      }
    },
    {
      "type": "Feature",
      "id": "node/4214736423",
      "properties": {
        "timestamp": "2018-06-19T22:43:38Z",
        "version": 2,
        "changeset": 59992644,
        "addr:city": "Tamboril do Piauí",
        "government": "legislative",
        "name": "Câmara de Vereadores de Tamboril do Piauí",
        "office": "government",
        "id": "node/4214736423"
      },
      "geometry": {
        "type": "Point",
        "coordinates": [
          -42.9114892,
          -8.4013904
        ]
      }
    },
    {
      "type": "Feature",
      "id": "node/4214747495",
      "properties": {
        "timestamp": "2016-05-30T03:51:35Z",
        "version": 1,
        "changeset": 39654791,
        "addr:city": "Tamboril do Piauí",
        "addr:housenumber": "129",
        "addr:postcode": "64893-000",
        "addr:street": "Rua Pedro Rocha",
        "addr:suburb": "Centro",
        "email": "smetamboril@gmail.com",
        "name": "Secretaria Municipal de Educação",
        "office": "government",
        "phone": "+55 89 3528 0105",
        "website": "http://prefeituradetamborildopiaui-pi.blogspot.com.br/2015/01/secretaria-municipal-de-educacao-e.html",
        "id": "node/4214747495"
      },
      "geometry": {
        "type": "Point",
        "coordinates": [
          -42.9118834,
          -8.4009611
        ]
      }
    }
  ]
}
