{
  "type": "FeatureCollection",
  "features": [
    {
      "type": "Feature",
      "id": "way/1285942867",
      "properties": {
        "timestamp": "2024-12-12T12:49:25Z",
        "version": 2,
        "changeset": 160206801,
        "addr:city": "Bom Jardim de Minas",
        "addr:postcode": "37310-000",
        "addr:street": "Estrada Onofre José Rodrigues",
        "addr:suburb": "Capoeira Grande",
        "amenity": "community_centre",
        "building": "yes",
        "building:levels": "1",
        "height": "4.5",
        "name": "Centro Comunitário Gilmar José de Paula",
        "nohousenumber": "yes",
        "id": "way/1285942867"
      },
      "geometry": {
        "type": "Polygon",
        "coordinates": [
          [
            [
              -44.0937166,
              -21.8459864
            ],
            [
              -44.0934925,
              -21.8459229
            ],
            [
              -44.0935199,
              -21.8458324
            ],
            [
              -44.0937422,
              -21.8458959
            ],
            [
              -44.0937166,
              -21.8459864
            ]
          ]
        ]
      }
    }
  ]
}
