{
  "type": "FeatureCollection",
  "features": [
    {
      "type": "Feature",
      "id": "way/488057390",
      "properties": {
        "timestamp": "2025-01-10T20:42:42Z",
        "version": 2,
        "changeset": 161219784,
        "addr:city": "Berizal",
        "addr:housenumber": "28",
        "addr:postcode": "39555-000",
        "addr:street": "Rua Isabel Batista da Silva",
        "addr:suburb": "Barreiros",
        "amenity": "school",
        "name": "Escola Estadual Conrado Veríssimo de Oliveira",
        "operator": "Secretaria de Estado de Educação de Minas Gerais",
        "operator:type": "government",
        "operator:wikidata": "Q61612780",
        "id": "way/488057390"
      },
      "geometry": {
        "type": "Polygon",
        "coordinates": [
          [
            [
              -41.795614,
              -15.7103545
            ],
            [
              -41.7958795,
              -15.710953
            ],
            [
              -41.7955191,
              -15.7109144
            ],
            [
              -41.7954667,
              -15.7109263
            ],
            [
              -41.7952572,
              -15.7110212
            ],
            [
              -41.7950661,
              -15.710692
            ],
            [
              -41.7950061,
              -15.710481
            ],
            [
              -41.7952753,
              -15.7104706
            ],
            [
              -41.7953943,
              -15.7104507
            ],
            [
              -41.795614,
              -15.7103545
            ]
          ]
        ]
      }
    },
    {
      "type": "Feature",
      "id": "way/1245477236",
      "properties": {
        "timestamp": "2025-01-10T20:42:42Z",
        "version": 2,
        "changeset": 161219784,
        "addr:city": "Berizal",
        "addr:housenumber": "170",
        "addr:postcode": "39555-000",
        "addr:street": "Rua Luiz Otávio Franco",
        "addr:suburb": "Centro",
        "amenity": "school",
        "grades": "10-17",
        "name": "Escola Estadual João Álvaro Bahia",
        "operator": "Secretaria de Estado de Educação de Minas Gerais",
        "operator:type": "government",
        "operator:wikidata": "Q61612780",
        "id": "way/1245477236"
      },
      "geometry": {
        "type": "Polygon",
        "coordinates": [
          [
            [
              -41.7409369,
              -15.6125589
            ],
            [
              -41.7404347,
              -15.6133631
            ],
            [
              -41.7397569,
              -15.6130129
            ],
            [
              -41.7402745,
              -15.6121464
            ],
            [
              -41.7409369,
              -15.6125589
            ]
          ]
        ]
      }
    },
    {
      "type": "Feature",
      "id": "way/1245477852",
      "properties": {
        "timestamp": "2025-01-10T20:42:42Z",
        "version": 2,
        "changeset": 161219784,
        "addr:city": "Berizal",
        "addr:postcode": "39555-000",
        "addr:street": "Rua Santa Cruz",
        "addr:suburb": "Planalto",
        "amenity": "school",
        "grades": "6-10",
        "name": "Escola Municipal Luiz Otavio Franco",
        "operator": "Município de Berizal",
        "operator:type": "public",
        "id": "way/1245477852"
      },
      "geometry": {
        "type": "Polygon",
        "coordinates": [
          [
            [
              -41.7418814,
              -15.6085047
            ],
            [
              -41.7416238,
              -15.6089908
            ],
            [
              -41.7413276,
              -15.608853
            ],
            [
              -41.7415818,
              -15.6083581
            ],
            [
              -41.7418814,
              -15.6085047
            ]
          ]
        ]
      }
    },
    {
      "type": "Feature",
      "id": "way/1350341569",
      "properties": {
        "timestamp": "2025-01-11T10:53:32Z",
        "version": 1,
        "changeset": 161234347,
        "addr:city": "Berizal",
        "addr:housenumber": "812",
        "addr:postcode": "39555-000",
        "addr:street": "Rua Santa Cruz",
        "addr:suburb": "Planalto",
        "amenity": "school",
        "name": "Escola Municipal Brasiliano Ferreira Souza",
        "operator": "Município de Berizal",
        "operator:type": "public",
        "id": "way/1350341569"
      },
      "geometry": {
        "type": "Polygon",
        "coordinates": [
          [
            [
              -41.7380102,
              -15.6074992
            ],
            [
              -41.7375126,
              -15.6085125
            ],
            [
              -41.7371841,
              -15.6083668
            ],
            [
              -41.7375256,
              -15.6077075
            ],
            [
              -41.7377711,
              -15.6073927
            ],
            [
              -41.7380102,
              -15.6074992
            ]
          ]
        ]
      }
    }
  ]
}
