{
  "type": "FeatureCollection",
  "features": [
    {
      "type": "Feature",
      "id": "node/10736746623",
      "properties": {
        "timestamp": "2023-03-15T10:09:00Z",
        "version": 1,
        "changeset": 133703158,
        "addr:city": "Santa Rita de Caldas",
        "addr:housenumber": "20",
        "addr:postcode": "37775-000",
        "addr:street": "Rua Prefeito Sebastião Januzzi",
        "addr:suburb": "Centro",
        "amenity": "university",
        "description": "A Universidade Aberta do Brasil é um sistema integrado por universidades públicas que oferece cursos de nível superior para camadas da população que têm dificuldade de acesso à formação universitária, por meio do uso da metodologia da educação a distância",
        "email": "polouabsrc@gmail.com",
        "internet_access": "yes",
        "internet_access:fee": "no",
        "internet_access:ssid": "polo-visitante",
        "name": "Polo UAB - Santa Rita de Caldas",
        "operator": "Polo UAB - Santa Rita de Caldas",
        "operator:type": "public",
        "phone": "+55 3734-1209",
        "website": "http://polouabsrcmg.blogspot.com/",
        "wheelchair": "yes",
        "id": "node/10736746623"
      },
      "geometry": {
        "type": "Point",
        "coordinates": [
          -46.3382731,
          -22.0280682
        ]
      }
    }
  ]
}
