{
  "type": "FeatureCollection",
  "features": [
    {
      "type": "Feature",
      "id": "way/629227640",
      "properties": {
        "timestamp": "2022-02-01T22:54:11Z",
        "version": 2,
        "changeset": 116888711,
        "addr:city": "Patos do Piauí",
        "addr:housenumber": "365",
        "addr:postcode": "64580-000",
        "addr:street": "Rua Manoel Bispo Teixeira",
        "addr:suburb": "Centro",
        "amenity": "school",
        "name": "Escola Municipal Antonio Crisanto De Sousa",
        "phone": "+55 89 3459 1139",
        "id": "way/629227640"
      },
      "geometry": {
        "type": "Polygon",
        "coordinates": [
          [
            [
              -41.2427039,
              -7.6791907
            ],
            [
              -41.2425846,
              -7.6795309
            ],
            [
              -41.2422346,
              -7.6794073
            ],
            [
              -41.2423499,
              -7.6790644
            ],
            [
              -41.2427039,
              -7.6791907
            ]
          ]
        ]
      }
    },
    {
      "type": "Feature",
      "id": "way/629227643",
      "properties": {
        "timestamp": "2022-02-01T22:53:17Z",
        "version": 3,
        "changeset": 116888677,
        "addr:city": "Patos do Piauí",
        "addr:housenumber": "595",
        "addr:postcode": "64580-000",
        "addr:street": "Rua Luís Lélis de Carvalho",
        "addr:suburb": "Centro",
        "amenity": "school",
        "name": "Escola Municipal Comunitaria Vereador Pedro Crisanto",
        "phone": "+55 89 3459 1139",
        "id": "way/629227643"
      },
      "geometry": {
        "type": "Polygon",
        "coordinates": [
          [
            [
              -41.2440518,
              -7.6808281
            ],
            [
              -41.2436602,
              -7.6806979
            ],
            [
              -41.2437835,
              -7.6803204
            ],
            [
              -41.2441885,
              -7.6804533
            ],
            [
              -41.2440518,
              -7.6808281
            ]
          ]
        ]
      }
    },
    {
      "type": "Feature",
      "id": "node/9467255362",
      "properties": {
        "timestamp": "2022-02-01T22:51:20Z",
        "version": 1,
        "changeset": 116888628,
        "addr:city": "Patos do Piauí",
        "addr:postcode": "64580-000",
        "addr:street": "Rua Luís Lélis de Carvalho",
        "amenity": "school",
        "name": "Escola Municipal Tia Maria De Jesus Teixeira",
        "phone": "+55 89 3459 1139",
        "id": "node/9467255362"
      },
      "geometry": {
        "type": "Point",
        "coordinates": [
          -41.2441631,
          -7.6810766
        ]
      }
    },
    {
      "type": "Feature",
      "id": "node/9467273332",
      "properties": {
        "timestamp": "2025-02-19T12:41:37Z",
        "version": 2,
        "changeset": 162699359,
        "amenity": "school",
        "name": "Escola Municipal Tia Teresinha De Fatima Dias Dos Reis",
        "phone": "+55 89 3459 1139",
        "id": "node/9467273332"
      },
      "geometry": {
        "type": "Point",
        "coordinates": [
          -41.3544589,
          -7.7211883
        ]
      }
    },
    {
      "type": "Feature",
      "id": "node/11384469778",
      "properties": {
        "timestamp": "2025-02-19T12:41:37Z",
        "version": 2,
        "changeset": 162699359,
        "amenity": "school",
        "name": "U E Martinho Vieira",
        "id": "node/11384469778"
      },
      "geometry": {
        "type": "Point",
        "coordinates": [
          -41.3552542,
          -7.7204456
        ]
      }
    }
  ]
}
