{
  "type": "FeatureCollection",
  "features": [
    {
      "type": "Feature",
      "id": "way/284262395",
      "properties": {
        "timestamp": "2023-10-21T23:39:26Z",
        "version": 7,
        "changeset": 142943502,
        "addr:city": "Angra dos Reis",
        "addr:housenumber": "186",
        "addr:postcode": "23900-000",
        "addr:street": "Praça Nilo Peçanha",
        "addr:suburb": "Centro",
        "amenity": "townhall",
        "building": "yes",
        "name": "Prefeitura Municipal de Angra dos Reis",
        "office": "government",
        "phone": "+55 24 3377 8311",
        "website": "https://www.angra.rj.gov.br/",
        "wikidata": "Q69362566",
        "id": "way/284262395"
      },
      "geometry": {
        "type": "Polygon",
        "coordinates": [
          [
            [
              -44.3195204,
              -23.0088063
            ],
            [
              -44.3195204,
              -23.0089826
            ],
            [
              -44.3193227,
              -23.0089826
            ],
            [
              -44.3193227,
              -23.0088063
            ],
            [
              -44.3195204,
              -23.0088063
            ]
          ]
        ]
      }
    },
    {
      "type": "Feature",
      "id": "node/4257021592",
      "properties": {
        "timestamp": "2016-06-21T17:43:54Z",
        "version": 2,
        "changeset": 40186595,
        "name": "Marinha do Brasil",
        "office": "government",
        "opening_hours": "Mo-Fr 08:30-13:30",
        "id": "node/4257021592"
      },
      "geometry": {
        "type": "Point",
        "coordinates": [
          -44.3210603,
          -23.0100724
        ]
      }
    },
    {
      "type": "Feature",
      "id": "node/11056858823",
      "properties": {
        "timestamp": "2023-07-20T14:08:50Z",
        "version": 1,
        "changeset": 138767265,
        "addr:city": "Angra dos Reis",
        "addr:country": "BR",
        "addr:housenumber": "59",
        "addr:postcode": "23900-220",
        "addr:street": "Rua Presidente Castelo Branco",
        "addr:suburb": "Centro",
        "government": "public_service",
        "name": "Geoprocessamento - Prefeitura de Angra dos Reis",
        "office": "government",
        "opening_hours": "Mo-Fr 09:00-17:00",
        "website": "http://siga.angra.rj.gov.br",
        "id": "node/11056858823"
      },
      "geometry": {
        "type": "Point",
        "coordinates": [
          -44.3204438,
          -23.0101576
        ]
      }
    },
    {
      "type": "Feature",
      "id": "node/11608530775",
      "properties": {
        "timestamp": "2024-04-22T12:57:20Z",
        "version": 2,
        "changeset": 150345881,
        "government": "yes",
        "name": "Secretaria Executiva de Segurança Pública",
        "office": "government",
        "id": "node/11608530775"
      },
      "geometry": {
        "type": "Point",
        "coordinates": [
          -44.3201278,
          -23.0104529
        ]
      }
    },
    {
      "type": "Feature",
      "id": "node/12074636119",
      "properties": {
        "timestamp": "2024-07-26T05:46:59Z",
        "version": 1,
        "changeset": 154423476,
        "name": "Secretaria de Esportes e Lazer",
        "office": "government",
        "id": "node/12074636119"
      },
      "geometry": {
        "type": "Point",
        "coordinates": [
          -44.306358,
          -22.9986505
        ]
      }
    },
    {
      "type": "Feature",
      "id": "node/12074636123",
      "properties": {
        "timestamp": "2024-07-26T05:46:59Z",
        "version": 1,
        "changeset": 154423476,
        "name": "Secretaria de Desenvolvimento Social",
        "office": "government",
        "id": "node/12074636123"
      },
      "geometry": {
        "type": "Point",
        "coordinates": [
          -44.3066966,
          -22.9973935
        ]
      }
    },
    {
      "type": "Feature",
      "id": "node/12294665402",
      "properties": {
        "timestamp": "2024-10-28T20:12:34Z",
        "version": 1,
        "changeset": 158472621,
        "government": "environment",
        "name": "INEA - Base Aventureiro",
        "office": "government",
        "id": "node/12294665402"
      },
      "geometry": {
        "type": "Point",
        "coordinates": [
          -44.3190631,
          -23.189406
        ]
      }
    }
  ]
}
