{
  "type": "FeatureCollection",
  "features": [
    {
      "type": "Feature",
      "id": "way/284319115",
      "properties": {
        "timestamp": "2014-12-19T00:13:21Z",
        "version": 2,
        "changeset": 27561306,
        "addr:city": "Angra dos Reis",
        "addr:housenumber": "116",
        "addr:postcode": "23900-620",
        "addr:street": "Rua Doutor Coutinho",
        "addr:suburb": "Centro",
        "amenity": "social_facility",
        "building": "yes",
        "name": "Associação de Caridade São Vicente de Paulo",
        "phone": "+55 24 3365 0770",
        "social_facility:for": "underprivileged",
        "id": "way/284319115"
      },
      "geometry": {
        "type": "Polygon",
        "coordinates": [
          [
            [
              -44.3140054,
              -23.0066565
            ],
            [
              -44.3139712,
              -23.0069756
            ],
            [
              -44.3138169,
              -23.0069616
            ],
            [
              -44.3138511,
              -23.0066425
            ],
            [
              -44.3140054,
              -23.0066565
            ]
          ]
        ]
      }
    }
  ]
}
