{
  "type": "FeatureCollection",
  "features": [
    {
      "type": "Feature",
      "id": "way/530141402",
      "properties": {
        "timestamp": "2017-10-05T02:49:41Z",
        "version": 1,
        "changeset": 52642074,
        "building": "yes",
        "shop": "bicycle",
        "id": "way/530141402"
      },
      "geometry": {
        "type": "Polygon",
        "coordinates": [
          [
            [
              -43.0698456,
              -22.8662642
            ],
            [
              -43.0698964,
              -22.8663714
            ],
            [
              -43.0697871,
              -22.8664175
            ],
            [
              -43.0697339,
              -22.8663082
            ],
            [
              -43.0698456,
              -22.8662642
            ]
          ]
        ]
      }
    },
    {
      "type": "Feature",
      "id": "way/735334803",
      "properties": {
        "timestamp": "2019-10-16T20:45:27Z",
        "version": 1,
        "changeset": 75801553,
        "addr:city": "São Gonçalo",
        "addr:street": "Avenida Washington Luís",
        "addr:suburb": "Gradim",
        "building": "yes",
        "name": "Bike Grau",
        "shop": "bicycle",
        "id": "way/735334803"
      },
      "geometry": {
        "type": "Polygon",
        "coordinates": [
          [
            [
              -43.0845724,
              -22.8281979
            ],
            [
              -43.0846572,
              -22.8281931
            ],
            [
              -43.0846659,
              -22.8282219
            ],
            [
              -43.0845706,
              -22.8282266
            ],
            [
              -43.0845724,
              -22.8281979
            ]
          ]
        ]
      }
    },
    {
      "type": "Feature",
      "id": "node/2284512966",
      "properties": {
        "timestamp": "2013-04-28T16:41:50Z",
        "version": 1,
        "changeset": 15898023,
        "name": "Cicle",
        "shop": "bicycle",
        "id": "node/2284512966"
      },
      "geometry": {
        "type": "Point",
        "coordinates": [
          -42.9998613,
          -22.8527625
        ]
      }
    },
    {
      "type": "Feature",
      "id": "node/2495749610",
      "properties": {
        "timestamp": "2013-11-05T23:09:09Z",
        "version": 2,
        "changeset": 18739151,
        "addr:street": "Estrada Velha de Maricá",
        "shop": "bicycle",
        "id": "node/2495749610"
      },
      "geometry": {
        "type": "Point",
        "coordinates": [
          -42.9888113,
          -22.8910377
        ]
      }
    },
    {
      "type": "Feature",
      "id": "node/2524494792",
      "properties": {
        "timestamp": "2013-11-08T17:29:42Z",
        "version": 1,
        "changeset": 18786147,
        "addr:city": "São Gonçalo",
        "addr:housenumber": "2657",
        "addr:street": "Avenida Edson",
        "name": "Gloria Cicle",
        "phone": "+55-21-27243723",
        "shop": "bicycle",
        "source": "survey",
        "id": "node/2524494792"
      },
      "geometry": {
        "type": "Point",
        "coordinates": [
          -43.0489294,
          -22.8333238
        ]
      }
    },
    {
      "type": "Feature",
      "id": "node/2524502385",
      "properties": {
        "timestamp": "2014-02-04T20:58:01Z",
        "version": 2,
        "changeset": 20380936,
        "addr:city": "São Gonçalo",
        "addr:housenumber": "9 / loja 5",
        "addr:street": "Estrada de Itaúna",
        "name": "Cicle do Nariz",
        "old_name": "Tecno Bike",
        "phone": "+55 21 37125703",
        "shop": "bicycle",
        "source": "survey",
        "id": "node/2524502385"
      },
      "geometry": {
        "type": "Point",
        "coordinates": [
          -43.0302434,
          -22.7919857
        ]
      }
    },
    {
      "type": "Feature",
      "id": "node/2524521662",
      "properties": {
        "timestamp": "2017-06-17T02:01:06Z",
        "version": 2,
        "changeset": 49605700,
        "addr:city": "São Gonçalo",
        "addr:housenumber": "84",
        "addr:street": "Rua Lúcio Tomé Feteira",
        "name": "Vila Bike",
        "phone": "+55-21-32481923",
        "shop": "bicycle",
        "source": "survey",
        "id": "node/2524521662"
      },
      "geometry": {
        "type": "Point",
        "coordinates": [
          -43.0890908,
          -22.8459075
        ]
      }
    },
    {
      "type": "Feature",
      "id": "node/2794930026",
      "properties": {
        "timestamp": "2014-04-22T14:26:40Z",
        "version": 2,
        "changeset": 21863450,
        "addr:city": "Várzea das Moças, São Gonçalo",
        "addr:housenumber": "N.15, Lojas 3,4 e 5",
        "addr:postcode": "24753-500",
        "addr:street": "Avenida Plínio Gomes de Matos Filho",
        "contact:facebook": "https://www.facebook.com/bikeworksbr",
        "email": "contato@bikeworks.com.br",
        "name": "Bike Works",
        "opening_hours": "Mo-Sa 08:00-19:00",
        "phone": "+55 21 3701-5025; +55 21 3701-2846",
        "shop": "bicycle",
        "website": "http://www.bikeworks.com.br",
        "id": "node/2794930026"
      },
      "geometry": {
        "type": "Point",
        "coordinates": [
          -42.9852616,
          -22.9029025
        ]
      }
    },
    {
      "type": "Feature",
      "id": "node/6439566172",
      "properties": {
        "timestamp": "2019-04-30T18:54:08Z",
        "version": 1,
        "changeset": 69748022,
        "name": "Da lua Cicle",
        "shop": "bicycle",
        "id": "node/6439566172"
      },
      "geometry": {
        "type": "Point",
        "coordinates": [
          -43.0579372,
          -22.814274
        ]
      }
    }
  ]
}
