{
  "type": "FeatureCollection",
  "features": [
    {
      "type": "Feature",
      "id": "way/1375450322",
      "properties": {
        "timestamp": "2025-04-07T01:03:30Z",
        "version": 1,
        "changeset": 164612633,
        "amenity": "kindergarten",
        "name": "Instituto Educacional Sobral Pinto",
        "id": "way/1375450322"
      },
      "geometry": {
        "type": "Polygon",
        "coordinates": [
          [
            [
              -43.0282502,
              -22.8548965
            ],
            [
              -43.0281735,
              -22.8549593
            ],
            [
              -43.0281048,
              -22.8548807
            ],
            [
              -43.0281762,
              -22.8548253
            ],
            [
              -43.0282502,
              -22.8548965
            ]
          ]
        ]
      }
    },
    {
      "type": "Feature",
      "id": "node/10022085666",
      "properties": {
        "timestamp": "2022-09-13T17:53:52Z",
        "version": 1,
        "changeset": 126145811,
        "addr:city": "São Gonçalo",
        "addr:housenumber": "19",
        "addr:postcode": "24756560",
        "addr:street": "Rua Eugenio Martins Pereira",
        "amenity": "kindergarten",
        "name": "escola espaço exato",
        "id": "node/10022085666"
      },
      "geometry": {
        "type": "Point",
        "coordinates": [
          -43.0277765,
          -22.8753537
        ]
      }
    },
    {
      "type": "Feature",
      "id": "node/10023249041",
      "properties": {
        "timestamp": "2022-09-14T03:44:39Z",
        "version": 1,
        "changeset": 126159316,
        "addr:city": "São Gonçalo",
        "addr:housenumber": "541",
        "addr:postcode": "24440-110",
        "addr:street": "Rua Rodrigues da Fonseca",
        "addr:suburb": "Zé Garoto",
        "amenity": "kindergarten",
        "name": "Espaço Baby",
        "phone": "(21) 2604-5815",
        "id": "node/10023249041"
      },
      "geometry": {
        "type": "Point",
        "coordinates": [
          -43.0593147,
          -22.8295637
        ]
      }
    },
    {
      "type": "Feature",
      "id": "node/12735511416",
      "properties": {
        "timestamp": "2025-04-07T00:38:13Z",
        "version": 1,
        "changeset": 164612317,
        "amenity": "kindergarten",
        "name": "Instituto Educacional Castelo Gomes",
        "id": "node/12735511416"
      },
      "geometry": {
        "type": "Point",
        "coordinates": [
          -43.0282,
          -22.8549354
        ]
      }
    }
  ]
}
