{
  "type": "FeatureCollection",
  "features": [
    {
      "type": "Feature",
      "id": "way/284498082",
      "properties": {
        "timestamp": "2021-06-29T16:56:37Z",
        "version": 5,
        "changeset": 107160760,
        "addr:city": "Bom Despacho - MG",
        "addr:housenumber": "831",
        "addr:postcode": "35600-000",
        "addr:street": "Praça da Estação (Avenida São Vicente)",
        "addr:suburb": "Centro",
        "amenity": "clinic",
        "building": "yes",
        "healthcare": "clinic",
        "name": "HEMOMINAS - Posto Avançado",
        "operator": "Hemominas",
        "operator:type": "public",
        "id": "way/284498082"
      },
      "geometry": {
        "type": "Polygon",
        "coordinates": [
          [
            [
              -45.2544288,
              -19.7345946
            ],
            [
              -45.2544317,
              -19.7346978
            ],
            [
              -45.2541957,
              -19.7347036
            ],
            [
              -45.2541929,
              -19.7346004
            ],
            [
              -45.2544288,
              -19.7345946
            ]
          ]
        ]
      }
    },
    {
      "type": "Feature",
      "id": "way/296485310",
      "properties": {
        "timestamp": "2021-04-29T09:22:27Z",
        "version": 4,
        "changeset": 103831036,
        "addr:city": "Bom Despacho-MG",
        "addr:postcode": "35600-000",
        "addr:street": "Praça Irmã Albuquerque",
        "addr:suburb": "Centro",
        "amenity": "clinic",
        "building": "yes",
        "healthcare": "clinic",
        "name": "Nefrobom (Hemodiálise)",
        "opening_hours": "07:00 - 17:00",
        "operator": "Privado/SUS",
        "operator:type": "private",
        "id": "way/296485310"
      },
      "geometry": {
        "type": "Polygon",
        "coordinates": [
          [
            [
              -45.2501928,
              -19.7334624
            ],
            [
              -45.2502438,
              -19.7333235
            ],
            [
              -45.2507561,
              -19.7334725
            ],
            [
              -45.2507065,
              -19.733663
            ],
            [
              -45.2501928,
              -19.7334624
            ]
          ]
        ]
      }
    },
    {
      "type": "Feature",
      "id": "way/299251189",
      "properties": {
        "timestamp": "2021-06-29T16:56:37Z",
        "version": 2,
        "changeset": 107160760,
        "addr:city": "Bom Despacho",
        "addr:postcode": "35600-000",
        "addr:street": "Avenida Doutor Juca",
        "addr:suburb": "São Vicente",
        "amenity": "clinic",
        "building": "yes",
        "healthcare": "clinic",
        "name": "PSF Aeroporto - São Vicente",
        "id": "way/299251189"
      },
      "geometry": {
        "type": "Polygon",
        "coordinates": [
          [
            [
              -45.2811083,
              -19.7422736
            ],
            [
              -45.2812905,
              -19.7421524
            ],
            [
              -45.2814962,
              -19.7424026
            ],
            [
              -45.281329,
              -19.7425458
            ],
            [
              -45.2811083,
              -19.7422736
            ]
          ]
        ]
      }
    },
    {
      "type": "Feature",
      "id": "way/299893832",
      "properties": {
        "timestamp": "2022-05-23T17:43:43Z",
        "version": 5,
        "changeset": 121382716,
        "addr:city": "Bom Despacho",
        "addr:housenumber": "355",
        "addr:postcode": "35600-000",
        "addr:street": "Avenida Ari Marques",
        "addr:suburb": "Centro",
        "amenity": "clinic",
        "building": "yes",
        "healthcare": "clinic",
        "name": "Policlínica de Especialidades Doutor Gê",
        "phone": "+55 37 3521 3683",
        "website": "https://www.bomdespacho.mg.gov.br/",
        "wheelchair": "yes",
        "id": "way/299893832"
      },
      "geometry": {
        "type": "Polygon",
        "coordinates": [
          [
            [
              -45.2516297,
              -19.7340625
            ],
            [
              -45.2518906,
              -19.7343091
            ],
            [
              -45.251789,
              -19.7344074
            ],
            [
              -45.2516427,
              -19.7342734
            ],
            [
              -45.2516826,
              -19.7342278
            ],
            [
              -45.251569,
              -19.7341182
            ],
            [
              -45.2516297,
              -19.7340625
            ]
          ]
        ]
      }
    },
    {
      "type": "Feature",
      "id": "way/1079486593",
      "properties": {
        "timestamp": "2022-07-18T14:23:54Z",
        "version": 1,
        "changeset": 123766916,
        "addr:city": "Bom Despacho",
        "addr:street": "Avenida Ana Rosa",
        "addr:suburb": "Ana Rosa (Tabatinga)",
        "amenity": "clinic",
        "building": "yes",
        "healthcare": "clinic",
        "name": "UBS Ana Rosa",
        "operator": "Secretaria Municipal de Saúde",
        "operator:type": "public",
        "id": "way/1079486593"
      },
      "geometry": {
        "type": "Polygon",
        "coordinates": [
          [
            [
              -45.2414234,
              -19.7417684
            ],
            [
              -45.2413531,
              -19.7418381
            ],
            [
              -45.241374,
              -19.7418568
            ],
            [
              -45.2412998,
              -19.7419303
            ],
            [
              -45.2412769,
              -19.7419098
            ],
            [
              -45.241224,
              -19.7419623
            ],
            [
              -45.2411452,
              -19.7418919
            ],
            [
              -45.2412063,
              -19.7418313
            ],
            [
              -45.2411471,
              -19.7417785
            ],
            [
              -45.2412082,
              -19.7417179
            ],
            [
              -45.2412654,
              -19.7417691
            ],
            [
              -45.2413404,
              -19.7416947
            ],
            [
              -45.2414234,
              -19.7417684
            ]
          ]
        ]
      }
    },
    {
      "type": "Feature",
      "id": "way/1116109824",
      "properties": {
        "timestamp": "2022-11-21T21:58:30Z",
        "version": 1,
        "changeset": 129213432,
        "amenity": "clinic",
        "building": "yes",
        "healthcare": "clinic",
        "healthcare:speciality": "general",
        "operator": "Polícia Militar de Minas Gerais",
        "operator:type": "military",
        "id": "way/1116109824"
      },
      "geometry": {
        "type": "Polygon",
        "coordinates": [
          [
            [
              -45.2553011,
              -19.7313018
            ],
            [
              -45.2552602,
              -19.7312538
            ],
            [
              -45.2554799,
              -19.7310877
            ],
            [
              -45.2558081,
              -19.7314725
            ],
            [
              -45.2557832,
              -19.7316263
            ],
            [
              -45.2558059,
              -19.7316296
            ],
            [
              -45.2557883,
              -19.7317382
            ],
            [
              -45.2557784,
              -19.7317936
            ],
            [
              -45.255679,
              -19.7317789
            ],
            [
              -45.2557266,
              -19.731507
            ],
            [
              -45.2557087,
              -19.7315109
            ],
            [
              -45.2554405,
              -19.7311964
            ],
            [
              -45.2553011,
              -19.7313018
            ]
          ]
        ]
      }
    },
    {
      "type": "Feature",
      "id": "node/2880746893",
      "properties": {
        "timestamp": "2024-11-05T09:31:24Z",
        "version": 4,
        "changeset": 158771296,
        "addr:city": "Bom Despacho",
        "addr:postcode": "35600-000",
        "amenity": "clinic",
        "emergency": "no",
        "healthcare": "clinic",
        "name": "Policlínica de Especialidades Dr. Gê",
        "id": "node/2880746893"
      },
      "geometry": {
        "type": "Point",
        "coordinates": [
          -45.2518168,
          -19.7343606
        ]
      }
    },
    {
      "type": "Feature",
      "id": "node/2890051843",
      "properties": {
        "timestamp": "2021-06-29T16:56:37Z",
        "version": 4,
        "changeset": 107160760,
        "addr:city": "Bom Despacho",
        "addr:postcode": "35600-000",
        "addr:street": "Rua Sete de Setembro",
        "amenity": "clinic",
        "healthcare": "clinic",
        "name": "ESF (PSF) Ozanam/Fátima",
        "opening_hours": "07:00 - 17:00",
        "id": "node/2890051843"
      },
      "geometry": {
        "type": "Point",
        "coordinates": [
          -45.2609572,
          -19.7357027
        ]
      }
    }
  ]
}
