{
  "type": "FeatureCollection",
  "features": [
    {
      "type": "Feature",
      "id": "way/620139179",
      "properties": {
        "timestamp": "2018-08-26T17:44:27Z",
        "version": 1,
        "changeset": 62012198,
        "addr:city": "Bom Despacho - MG",
        "addr:housenumber": "500",
        "addr:postcode": "35600-000",
        "addr:street": "Rua Picão Camacho",
        "addr:suburb": "Ozanam",
        "amenity": "community_centre",
        "building": "yes",
        "name": "Salão Comunitário Ozanãn",
        "id": "way/620139179"
      },
      "geometry": {
        "type": "Polygon",
        "coordinates": [
          [
            [
              -45.2633365,
              -19.7313442
            ],
            [
              -45.2634088,
              -19.7314496
            ],
            [
              -45.2632018,
              -19.731575
            ],
            [
              -45.2631494,
              -19.7314602
            ],
            [
              -45.2633365,
              -19.7313442
            ]
          ]
        ]
      }
    }
  ]
}
