{
  "type": "FeatureCollection",
  "features": [
    {
      "type": "Feature",
      "id": "way/1180056230",
      "properties": {
        "timestamp": "2023-06-06T18:11:07Z",
        "version": 1,
        "changeset": 137026170,
        "addr:city": "Mendonça",
        "addr:housenumber": "683",
        "addr:street": "Rua Nelson Bazzoti",
        "addr:suburb": "Centro",
        "amenity": "school",
        "name": "Escola Estadual Dona Nicota de Souza",
        "operator": "Governo do Estado de São Paulo",
        "operator:type": "government",
        "operator:wikidata": "Q10290787",
        "phone": "+55 17 3248 1218",
        "id": "way/1180056230"
      },
      "geometry": {
        "type": "Polygon",
        "coordinates": [
          [
            [
              -49.5780386,
              -21.1835227
            ],
            [
              -49.5781258,
              -21.1841667
            ],
            [
              -49.5771199,
              -21.1842792
            ],
            [
              -49.5770422,
              -21.183639
            ],
            [
              -49.5780386,
              -21.1835227
            ]
          ]
        ]
      }
    }
  ]
}
