{
  "type": "FeatureCollection",
  "features": [
    {
      "type": "Feature",
      "id": "way/822166074",
      "properties": {
        "timestamp": "2020-07-02T10:16:14Z",
        "version": 1,
        "changeset": 87446792,
        "addr:city": "Itaperuna",
        "addr:postcode": "28335000",
        "addr:street": "Rua Francisco Garcia da Silva",
        "addr:suburb": "Aré",
        "amenity": "clinic",
        "building": "yes",
        "healthcare": "clinic",
        "name": "Posto de Saúde da Família de Aré",
        "id": "way/822166074"
      },
      "geometry": {
        "type": "Polygon",
        "coordinates": [
          [
            [
              -41.789545,
              -21.2771793
            ],
            [
              -41.7896466,
              -21.2773005
            ],
            [
              -41.7895185,
              -21.2773706
            ],
            [
              -41.789425,
              -21.2772494
            ],
            [
              -41.789545,
              -21.2771793
            ]
          ]
        ]
      }
    },
    {
      "type": "Feature",
      "id": "way/1278352934",
      "properties": {
        "timestamp": "2024-04-30T01:05:39Z",
        "version": 1,
        "changeset": 150685665,
        "addr:city": "Itaperuna",
        "addr:postcode": "28300-000",
        "addr:street": "Rua Gil Vieira Leite",
        "addr:suburb": "Aeroporto",
        "amenity": "clinic",
        "building": "yes",
        "healthcare": "clinic",
        "healthcare:speciality": "general",
        "name": "Unidade Básica de Saúde Aeroporto",
        "operator": "Secretaria Municipal de Saúde",
        "operator:type": "public",
        "id": "way/1278352934"
      },
      "geometry": {
        "type": "Polygon",
        "coordinates": [
          [
            [
              -41.875071,
              -21.2110348
            ],
            [
              -41.8750356,
              -21.2112024
            ],
            [
              -41.8750048,
              -21.2111967
            ],
            [
              -41.8750022,
              -21.2112087
            ],
            [
              -41.8748671,
              -21.2111839
            ],
            [
              -41.8749051,
              -21.2110043
            ],
            [
              -41.875071,
              -21.2110348
            ]
          ]
        ]
      }
    },
    {
      "type": "Feature",
      "id": "way/1344517516",
      "properties": {
        "timestamp": "2024-12-21T10:36:51Z",
        "version": 1,
        "changeset": 160464529,
        "addr:city": "Itaperuna",
        "addr:housenumber": "40",
        "addr:postcode": "28300-000",
        "addr:street": "Rua Estácio de Sá",
        "addr:suburb": "Boa Fortuna",
        "amenity": "clinic",
        "building": "yes",
        "building:levels": "1",
        "healthcare": "clinic",
        "healthcare:speciality": "general",
        "name": "Unidade Básica de Saúde Boa Fortuna",
        "operator": "Município de Itaperuna",
        "operator:type": "public",
        "id": "way/1344517516"
      },
      "geometry": {
        "type": "Polygon",
        "coordinates": [
          [
            [
              -41.8643374,
              -21.2103675
            ],
            [
              -41.8642951,
              -21.2105447
            ],
            [
              -41.8641143,
              -21.2105071
            ],
            [
              -41.8641672,
              -21.2102856
            ],
            [
              -41.8642271,
              -21.210298
            ],
            [
              -41.8642165,
              -21.2103424
            ],
            [
              -41.8643374,
              -21.2103675
            ]
          ]
        ]
      }
    },
    {
      "type": "Feature",
      "id": "node/11860532449",
      "properties": {
        "timestamp": "2024-04-27T19:56:36Z",
        "version": 1,
        "changeset": 150594783,
        "addr:city": "Itaperuna",
        "addr:postcode": "28300-000",
        "addr:street": "Rua José da Silveira Goulart",
        "addr:suburb": "Cehab",
        "amenity": "clinic",
        "healthcare": "clinic",
        "healthcare:speciality": "general",
        "name": "Unidade Básica de Saúde Cehab",
        "operator": "Secretaria Municipal de Saúde de Itaperuna",
        "operator:type": "public",
        "phone": "+55 22 3824 5599",
        "id": "node/11860532449"
      },
      "geometry": {
        "type": "Point",
        "coordinates": [
          -41.8946568,
          -21.1944326
        ]
      }
    },
    {
      "type": "Feature",
      "id": "node/11860532450",
      "properties": {
        "timestamp": "2024-04-27T19:56:36Z",
        "version": 1,
        "changeset": 150594783,
        "addr:city": "Itaperuna",
        "addr:postcode": "28300-000",
        "addr:street": "Rua José da Silveira Goulart",
        "addr:suburb": "Cehab",
        "amenity": "clinic",
        "healthcare": "clinic",
        "healthcare:speciality": "orthodontics",
        "name": "Centro Odontológico Infanto Juvenil",
        "operator": "Secretaria Municipal de Saúde de Itaperuna",
        "operator:type": "public",
        "id": "node/11860532450"
      },
      "geometry": {
        "type": "Point",
        "coordinates": [
          -41.8947362,
          -21.1946267
        ]
      }
    },
    {
      "type": "Feature",
      "id": "node/11885146906",
      "properties": {
        "timestamp": "2024-05-06T23:23:05Z",
        "version": 1,
        "changeset": 150985957,
        "addr:city": "Itaperuna",
        "addr:housenumber": "647",
        "addr:postcode": "28300-000",
        "addr:street": "Rua Dez de Maio",
        "addr:suburb": "Centro",
        "amenity": "clinic",
        "healthcare": "clinic",
        "healthcare:speciality": "paediatrics",
        "name": "Unidade Ambulatorial Pediátrica Mariza Mozer",
        "operator": "Secretaria Municipal de Saúde de Itaperuna",
        "operator:type": "public",
        "id": "node/11885146906"
      },
      "geometry": {
        "type": "Point",
        "coordinates": [
          -41.8908403,
          -21.2027493
        ]
      }
    },
    {
      "type": "Feature",
      "id": "node/11887261414",
      "properties": {
        "timestamp": "2024-05-07T18:03:40Z",
        "version": 1,
        "changeset": 151022683,
        "addr:city": "Itaperuna",
        "addr:postcode": "28300-000",
        "addr:street": "Avenida Senador Sá Tinoco",
        "addr:suburb": "Centro",
        "amenity": "clinic",
        "healthcare": "clinic",
        "healthcare:speciality": "general",
        "id": "node/11887261414"
      },
      "geometry": {
        "type": "Point",
        "coordinates": [
          -41.6254396,
          -21.3179009
        ]
      }
    }
  ]
}
