{
  "type": "FeatureCollection",
  "features": [
    {
      "type": "Feature",
      "id": "way/584320767",
      "properties": {
        "timestamp": "2024-12-21T20:11:36Z",
        "version": 3,
        "changeset": 160482072,
        "building": "yes",
        "government": "cadaster",
        "name": "Gerência Regional do Trabalho e Emprego",
        "office": "government",
        "id": "way/584320767"
      },
      "geometry": {
        "type": "Polygon",
        "coordinates": [
          [
            [
              -41.8919346,
              -21.2035567
            ],
            [
              -41.8919933,
              -21.2034925
            ],
            [
              -41.8920032,
              -21.2034999
            ],
            [
              -41.8921269,
              -21.2035908
            ],
            [
              -41.8920965,
              -21.2036267
            ],
            [
              -41.8920733,
              -21.2036096
            ],
            [
              -41.8920454,
              -21.2036427
            ],
            [
              -41.8919346,
              -21.2035567
            ]
          ]
        ]
      }
    },
    {
      "type": "Feature",
      "id": "way/584322720",
      "properties": {
        "timestamp": "2024-04-28T14:05:14Z",
        "version": 2,
        "changeset": 150620286,
        "addr:city": "Itaperuna",
        "addr:postcode": "28300-000",
        "addr:street": "Avenida Cardoso Moreira",
        "addr:suburb": "Centro",
        "building": "yes",
        "government": "education",
        "name": "Secretaria Municipal de Educação",
        "office": "government",
        "id": "way/584322720"
      },
      "geometry": {
        "type": "Polygon",
        "coordinates": [
          [
            [
              -41.8899648,
              -21.2061788
            ],
            [
              -41.8897799,
              -21.2063877
            ],
            [
              -41.8896529,
              -21.20629
            ],
            [
              -41.8898378,
              -21.2060811
            ],
            [
              -41.8899648,
              -21.2061788
            ]
          ]
        ]
      }
    },
    {
      "type": "Feature",
      "id": "way/586790110",
      "properties": {
        "timestamp": "2024-05-04T00:34:21Z",
        "version": 2,
        "changeset": 150859851,
        "addr:city": "Itaperuna",
        "addr:housenumber": "294",
        "addr:postcode": "28300-000",
        "addr:street": "Avenida Cardoso Moreira",
        "addr:suburb": "Centro",
        "building": "yes",
        "building:levels": "3",
        "email": "irf2201@fazenda.rj.gov.br",
        "government": "tax",
        "name": "Auditoria-Fiscal Regional – Noroeste Fluminense",
        "office": "government",
        "phone": "+55 22 3822 1831",
        "id": "way/586790110"
      },
      "geometry": {
        "type": "Polygon",
        "coordinates": [
          [
            [
              -41.888259,
              -21.207056
            ],
            [
              -41.8881909,
              -21.2071338
            ],
            [
              -41.8880806,
              -21.2070499
            ],
            [
              -41.8881486,
              -21.2069723
            ],
            [
              -41.8882397,
              -21.2070389
            ],
            [
              -41.888259,
              -21.207056
            ]
          ]
        ]
      }
    },
    {
      "type": "Feature",
      "id": "way/586790638",
      "properties": {
        "timestamp": "2024-04-30T09:49:36Z",
        "version": 2,
        "changeset": 150698484,
        "addr:city": "Itaperuna",
        "addr:postcode": "28300-000",
        "addr:street": "Avenida Senador Francisco Sá Tinoco",
        "addr:suburb": "Centro",
        "building": "yes",
        "building:levels": "1",
        "government": "security",
        "name": "Guarda Civil Municipal",
        "office": "government",
        "id": "way/586790638"
      },
      "geometry": {
        "type": "Polygon",
        "coordinates": [
          [
            [
              -41.8929413,
              -21.2024153
            ],
            [
              -41.8929287,
              -21.2026091
            ],
            [
              -41.8928054,
              -21.2026021
            ],
            [
              -41.892818,
              -21.2024083
            ],
            [
              -41.8929413,
              -21.2024153
            ]
          ]
        ]
      }
    },
    {
      "type": "Feature",
      "id": "way/804723584",
      "properties": {
        "timestamp": "2024-05-02T14:07:33Z",
        "version": 2,
        "changeset": 150796130,
        "addr:city": "Itaperuna",
        "addr:housenumber": "92",
        "addr:postcode": "28300-000",
        "addr:street": "Avenida Senador Francisco Sá Tinoco",
        "addr:suburb": "Centro",
        "building": "house",
        "building:levels": "4",
        "government": "social_security",
        "name": "Agência da Previdência Social em Itaperuna",
        "office": "government",
        "operator": "Instituto Nacional do Seguro Social",
        "operator:short": "INSS",
        "operator:wikidata": "Q10302614",
        "id": "way/804723584"
      },
      "geometry": {
        "type": "Polygon",
        "coordinates": [
          [
            [
              -41.8875425,
              -21.2091522
            ],
            [
              -41.8878216,
              -21.2093885
            ],
            [
              -41.8877508,
              -21.2094446
            ],
            [
              -41.8874726,
              -21.2092289
            ],
            [
              -41.8875425,
              -21.2091522
            ]
          ]
        ]
      }
    },
    {
      "type": "Feature",
      "id": "way/1279878096",
      "properties": {
        "timestamp": "2024-05-05T11:37:49Z",
        "version": 1,
        "changeset": 150916038,
        "addr:city": "Itaperuna",
        "addr:housenumber": "710",
        "addr:postcode": "28300-000",
        "addr:street": "Rua Luis Carlos Ferreira Tirado",
        "addr:suburb": "Presidente Costa e Silva",
        "government": "administrative",
        "name": "Sexta Residência de Obras e Conservação de Itaperuna",
        "office": "government",
        "operator": "Derpartamento de Estradas e Rodagem do Rio de Janeiro",
        "phone": "+55 22 3823 6897",
        "id": "way/1279878096"
      },
      "geometry": {
        "type": "Polygon",
        "coordinates": [
          [
            [
              -41.9134353,
              -21.1954539
            ],
            [
              -41.9134732,
              -21.1961688
            ],
            [
              -41.9117085,
              -21.1962429
            ],
            [
              -41.9116796,
              -21.195755
            ],
            [
              -41.9116021,
              -21.1957567
            ],
            [
              -41.9115992,
              -21.1956842
            ],
            [
              -41.9115948,
              -21.1956406
            ],
            [
              -41.9123888,
              -21.1956103
            ],
            [
              -41.9123888,
              -21.1954909
            ],
            [
              -41.9134353,
              -21.1954539
            ]
          ]
        ]
      }
    },
    {
      "type": "Feature",
      "id": "node/11862015248",
      "properties": {
        "timestamp": "2024-05-01T13:15:38Z",
        "version": 2,
        "changeset": 150750167,
        "addr:city": "Itaperuna",
        "addr:postcode": "28300-000",
        "addr:street": "Rua Expedicionário Cabo Gama",
        "addr:suburb": "Cidade Nova",
        "government": "education",
        "name": "Diretoria Regional Noroeste Fluminense de Educação",
        "office": "government",
        "operator": "Secretaria de Educação do Estado do Rio de Janeiro",
        "phone": "+55 22 3824 2877",
        "website": "https://www.seeduc.rj.gov.br/cidad%C3%A3o/mapa-das-regionais",
        "id": "node/11862015248"
      },
      "geometry": {
        "type": "Point",
        "coordinates": [
          -41.9067174,
          -21.2034494
        ]
      }
    },
    {
      "type": "Feature",
      "id": "node/11862334311",
      "properties": {
        "timestamp": "2024-04-28T14:05:14Z",
        "version": 1,
        "changeset": 150620286,
        "addr:city": "Itaperuna",
        "addr:housenumber": "623",
        "addr:postcode": "28300-000",
        "addr:street": "Avenida Cardoso Moreira",
        "addr:suburb": "Centro",
        "government": "tax",
        "name": "Agência da Receita Federal do Brasil",
        "office": "government",
        "id": "node/11862334311"
      },
      "geometry": {
        "type": "Point",
        "coordinates": [
          -41.8905202,
          -21.2052681
        ]
      }
    },
    {
      "type": "Feature",
      "id": "node/11874220635",
      "properties": {
        "timestamp": "2024-05-02T14:07:33Z",
        "version": 1,
        "changeset": 150796130,
        "addr:city": "Itaperuna",
        "addr:housenumber": "470",
        "addr:postcode": "28300-000",
        "addr:street": "Rua Alcides Augusto Magalhães",
        "addr:suburb": "Aeroporto",
        "email": "defesacivil@itaperuna.rj.gov.br",
        "government": "yes",
        "name": "Defesa Civil em Itaperuna",
        "office": "government",
        "phone": "+55 22 3824 6334",
        "id": "node/11874220635"
      },
      "geometry": {
        "type": "Point",
        "coordinates": [
          -41.8764687,
          -21.2162933
        ]
      }
    },
    {
      "type": "Feature",
      "id": "node/11877732403",
      "properties": {
        "timestamp": "2024-05-04T01:16:32Z",
        "version": 1,
        "changeset": 150860328,
        "addr:city": "Itaperuna",
        "addr:housenumber": "21",
        "addr:postcode": "28300-000",
        "addr:street": "Rua Rubens Tinoco Ferraz",
        "addr:suburb": "Centro",
        "government": "agriculture",
        "name": "Emater Rio Itaperuna",
        "office": "government",
        "phone": "+55 22 3822 1193",
        "id": "node/11877732403"
      },
      "geometry": {
        "type": "Point",
        "coordinates": [
          -41.8974487,
          -21.1988086
        ]
      }
    }
  ]
}
