{
  "type": "FeatureCollection",
  "features": [
    {
      "type": "Feature",
      "id": "way/804414871",
      "properties": {
        "timestamp": "2020-05-16T19:31:59Z",
        "version": 3,
        "changeset": 85315141,
        "addr:city": "Itaperuna",
        "addr:postcode": "28300-000",
        "addr:street": "Avenida Cardoso Moreira",
        "addr:suburb": "Centro",
        "building": "yes",
        "building:levels": "4",
        "name": "Meirelles",
        "tourism": "hotel",
        "id": "way/804414871"
      },
      "geometry": {
        "type": "Polygon",
        "coordinates": [
          [
            [
              -41.8876497,
              -21.2085081
            ],
            [
              -41.8877898,
              -21.2086162
            ],
            [
              -41.8882934,
              -21.2090108
            ],
            [
              -41.8881384,
              -21.2091362
            ],
            [
              -41.8875239,
              -21.208644
            ],
            [
              -41.8876497,
              -21.2085081
            ]
          ]
        ]
      }
    },
    {
      "type": "Feature",
      "id": "way/1280993245",
      "properties": {
        "timestamp": "2024-05-08T23:42:11Z",
        "version": 1,
        "changeset": 151078899,
        "building": "yes",
        "building:levels": "2",
        "tourism": "hotel",
        "id": "way/1280993245"
      },
      "geometry": {
        "type": "Polygon",
        "coordinates": [
          [
            [
              -41.887244,
              -21.2080746
            ],
            [
              -41.8872017,
              -21.2081355
            ],
            [
              -41.8869913,
              -21.2080084
            ],
            [
              -41.8870336,
              -21.2079476
            ],
            [
              -41.887244,
              -21.2080746
            ]
          ]
        ]
      }
    },
    {
      "type": "Feature",
      "id": "node/5577547754",
      "properties": {
        "timestamp": "2018-10-31T19:26:15Z",
        "version": 4,
        "changeset": 64057485,
        "addr:city": "Itaperuna",
        "addr:housenumber": "500",
        "addr:postcode": "28300-000",
        "addr:street": "Rua Coronel Luiz Ferraz",
        "addr:suburb": "Centro",
        "email": "starhotel@starhotel.com.br",
        "internet_access": "wlan",
        "name": "Star Hotel",
        "phone": "+55 22 3824-2615;+55 22 98837-6715;+55 22 99923-3215",
        "tourism": "hotel",
        "id": "node/5577547754"
      },
      "geometry": {
        "type": "Point",
        "coordinates": [
          -41.888575,
          -21.2017405
        ]
      }
    },
    {
      "type": "Feature",
      "id": "node/6023920824",
      "properties": {
        "timestamp": "2024-05-04T00:34:21Z",
        "version": 3,
        "changeset": 150859851,
        "addr:city": "Itaperuna",
        "addr:housenumber": "236",
        "addr:postcode": "28300-000",
        "addr:street": "Avenida Cardoso Moreira",
        "addr:suburb": "Centro",
        "internet_access": "wlan",
        "name": "Top Center",
        "phone": "+55 22 3822-7772",
        "tourism": "hotel",
        "id": "node/6023920824"
      },
      "geometry": {
        "type": "Point",
        "coordinates": [
          -41.8878627,
          -21.2075515
        ]
      }
    },
    {
      "type": "Feature",
      "id": "node/11862334297",
      "properties": {
        "timestamp": "2024-04-28T14:05:14Z",
        "version": 1,
        "changeset": 150620286,
        "addr:city": "Itaperuna",
        "addr:housenumber": "407 A",
        "addr:postcode": "28300-000",
        "addr:street": "Avenida Zulamith Bittencourt",
        "addr:suburb": "Cidade Nova",
        "brand": "Ibis Budget",
        "brand:wikidata": "Q1458135",
        "name": "Ibis Budget",
        "tourism": "hotel",
        "id": "node/11862334297"
      },
      "geometry": {
        "type": "Point",
        "coordinates": [
          -41.8965196,
          -21.2011209
        ]
      }
    },
    {
      "type": "Feature",
      "id": "node/11871779778",
      "properties": {
        "timestamp": "2024-05-01T13:15:38Z",
        "version": 1,
        "changeset": 150750167,
        "name": "Hotel Cai√ßara",
        "tourism": "hotel",
        "id": "node/11871779778"
      },
      "geometry": {
        "type": "Point",
        "coordinates": [
          -41.8589133,
          -21.2103115
        ]
      }
    }
  ]
}
