{
  "type": "FeatureCollection",
  "features": [
    {
      "type": "Feature",
      "id": "way/583789300",
      "properties": {
        "timestamp": "2024-12-20T19:04:55Z",
        "version": 4,
        "changeset": 160445945,
        "addr:city": "Itaperuna",
        "addr:postcode": "28300-000",
        "addr:street": "Avenida Presidente Dutra",
        "addr:suburb": "Centro",
        "amenity": "school",
        "name": "CIEP 263 - Lina Bo Bardi",
        "operator": "Secretaria de Educação do Estado do Rio de Janeiro",
        "operator:type": "government",
        "operator:wikidata": "Q56351917",
        "id": "way/583789300"
      },
      "geometry": {
        "type": "Polygon",
        "coordinates": [
          [
            [
              -41.8982514,
              -21.2001353
            ],
            [
              -41.8982865,
              -21.2005891
            ],
            [
              -41.8974084,
              -21.2006483
            ],
            [
              -41.8973732,
              -21.2001945
            ],
            [
              -41.8982514,
              -21.2001353
            ]
          ]
        ]
      }
    },
    {
      "type": "Feature",
      "id": "way/821930099",
      "properties": {
        "timestamp": "2024-12-21T10:36:51Z",
        "version": 3,
        "changeset": 160464529,
        "addr:city": "Itaperuna",
        "addr:postcode": "28335000",
        "addr:street": "Rua São Domingo",
        "addr:suburb": "Aré",
        "amenity": "school",
        "building": "school",
        "building:levels": "1",
        "name": "Colégio Estadual Etelvina Alves da Silva",
        "id": "way/821930099"
      },
      "geometry": {
        "type": "Polygon",
        "coordinates": [
          [
            [
              -41.789849,
              -21.2757418
            ],
            [
              -41.7896693,
              -21.2754443
            ],
            [
              -41.7896988,
              -21.2754218
            ],
            [
              -41.7896827,
              -21.2753893
            ],
            [
              -41.7897739,
              -21.2753493
            ],
            [
              -41.78979,
              -21.2753868
            ],
            [
              -41.7899375,
              -21.2753069
            ],
            [
              -41.7899778,
              -21.2753818
            ],
            [
              -41.7898651,
              -21.2754393
            ],
            [
              -41.7899965,
              -21.2756593
            ],
            [
              -41.789849,
              -21.2757418
            ]
          ]
        ]
      }
    },
    {
      "type": "Feature",
      "id": "way/965878965",
      "properties": {
        "timestamp": "2024-05-01T00:36:50Z",
        "version": 3,
        "changeset": 150731032,
        "addr:city": "Itaperuna",
        "addr:housenumber": "883",
        "addr:postcode": "28300000",
        "addr:street": "Rua Deputado José Serqueira Garcia",
        "addr:suburb": "Presidente Costa e Silva",
        "amenity": "school",
        "description": "A Firjan SENAI SESI oferece uma estrutura completa e diferenciada em serviços de educação, saúde, esporte e lazer para você e sua família, em todo o estado do Rio. Venha desfrutar de qualidade de vida e se capacitar para o mercado de trabalho conosco.",
        "name": "Escola Firjan/SESI Itaperuna",
        "operator": "Firjan - Federação das Indústrias do Rio de Janeiro",
        "operator:type": "private",
        "phone": "+55 22 3811-9200",
        "website": "https://firjan.com.br/",
        "wheelchair": "yes",
        "id": "way/965878965"
      },
      "geometry": {
        "type": "Polygon",
        "coordinates": [
          [
            [
              -41.8965683,
              -21.188381
            ],
            [
              -41.8970887,
              -21.1897026
            ],
            [
              -41.895466,
              -21.1902641
            ],
            [
              -41.8949472,
              -21.1889512
            ],
            [
              -41.8965683,
              -21.188381
            ]
          ]
        ]
      }
    },
    {
      "type": "Feature",
      "id": "way/1277798226",
      "properties": {
        "timestamp": "2024-12-20T19:04:55Z",
        "version": 2,
        "changeset": 160445945,
        "addr:city": "Itaperuna",
        "addr:housenumber": "61",
        "addr:postcode": "28300-000",
        "addr:street": "Avenida Doutor Luiz Eugênio Monteiro de Barros",
        "addr:suburb": "Cidade Nova",
        "amenity": "school",
        "name": "Colégio Estadual Romualdo Monteiro de Barros",
        "operator": "Secretaria de Educação do Estado do Rio de Janeiro",
        "operator:type": "government",
        "operator:wikidata": "Q56351917",
        "phone": "+55 22 3824 1090",
        "id": "way/1277798226"
      },
      "geometry": {
        "type": "Polygon",
        "coordinates": [
          [
            [
              -41.9057107,
              -21.2049408
            ],
            [
              -41.9047043,
              -21.2055069
            ],
            [
              -41.9042601,
              -21.2046567
            ],
            [
              -41.9051077,
              -21.2041386
            ],
            [
              -41.9057107,
              -21.2049408
            ]
          ]
        ]
      }
    },
    {
      "type": "Feature",
      "id": "way/1277798231",
      "properties": {
        "timestamp": "2024-12-21T13:58:20Z",
        "version": 2,
        "changeset": 160470592,
        "addr:city": "Itaperuna",
        "addr:postcode": "28300-000",
        "addr:street": "Rua São João Batista",
        "addr:suburb": "Cidade Nova",
        "amenity": "school",
        "name": "Escola Municipal Humberto de Campos",
        "operator": "Secretaria Municipal de Educação de Itaperuna",
        "operator:type": "government",
        "operator:wikidata": "Q1675245",
        "phone": "+55 22 99713 3862",
        "id": "way/1277798231"
      },
      "geometry": {
        "type": "Polygon",
        "coordinates": [
          [
            [
              -41.9153056,
              -21.2092156
            ],
            [
              -41.9134237,
              -21.2092216
            ],
            [
              -41.9134216,
              -21.2089995
            ],
            [
              -41.9143915,
              -21.2086774
            ],
            [
              -41.9143679,
              -21.2082674
            ],
            [
              -41.9152755,
              -21.2079753
            ],
            [
              -41.9153056,
              -21.2092156
            ]
          ]
        ]
      }
    },
    {
      "type": "Feature",
      "id": "way/1277798234",
      "properties": {
        "timestamp": "2024-12-20T19:04:55Z",
        "version": 2,
        "changeset": 160445945,
        "addr:city": "Itaperuna",
        "addr:housenumber": "225",
        "addr:postcode": "28300-000",
        "addr:street": "Rua José de Oliveira Campos",
        "addr:suburb": "Cidade Nova",
        "amenity": "school",
        "name": "Jardim de Infância Professora Maria Madalena Magacho dos Santos",
        "operator": "Secretaria Municipal de Educação de Itaperuna",
        "operator:type": "government",
        "operator:wikidata": "Q1675245",
        "phone": "+55 22 3822 0588",
        "id": "way/1277798234"
      },
      "geometry": {
        "type": "Polygon",
        "coordinates": [
          [
            [
              -41.9061116,
              -21.2046825
            ],
            [
              -41.9055017,
              -21.2039045
            ],
            [
              -41.9063423,
              -21.2033712
            ],
            [
              -41.906703,
              -21.2039332
            ],
            [
              -41.9064993,
              -21.2040552
            ],
            [
              -41.9066715,
              -21.204302
            ],
            [
              -41.9061116,
              -21.2046825
            ]
          ]
        ]
      }
    },
    {
      "type": "Feature",
      "id": "way/1277834692",
      "properties": {
        "timestamp": "2024-12-20T19:04:55Z",
        "version": 2,
        "changeset": 160445945,
        "addr:city": "Itaperuna",
        "addr:housenumber": "571",
        "addr:postcode": "28300-000",
        "addr:street": "Avenida Cardoso Moreira",
        "addr:suburb": "Centro",
        "amenity": "school",
        "name": "Colégio Estadual Dez de Maio",
        "operator": "Secretaria de Educação do Estado do Rio de Janeiro",
        "operator:type": "government",
        "operator:wikidata": "Q56351917",
        "phone": "+55 22 3824 7360",
        "id": "way/1277834692"
      },
      "geometry": {
        "type": "Polygon",
        "coordinates": [
          [
            [
              -41.8902617,
              -21.2055359
            ],
            [
              -41.8912768,
              -21.206261
            ],
            [
              -41.8908468,
              -21.2067463
            ],
            [
              -41.8900813,
              -21.2061956
            ],
            [
              -41.8902663,
              -21.2059803
            ],
            [
              -41.8900226,
              -21.20579
            ],
            [
              -41.8902617,
              -21.2055359
            ]
          ]
        ]
      }
    },
    {
      "type": "Feature",
      "id": "way/1278113745",
      "properties": {
        "timestamp": "2024-12-20T19:04:55Z",
        "version": 2,
        "changeset": 160445945,
        "addr:city": "Itaperuna",
        "addr:housenumber": "97",
        "addr:postcode": "28300-000",
        "addr:street": "Rua Vagner Gomes da Silva",
        "addr:suburb": "Presidente Costa e Silva",
        "amenity": "school",
        "name": "Colégio Estadual Lions Clube de Itaperuna",
        "operator": "Secretaria de Educação do Estado do Rio de Janeiro",
        "operator:type": "government",
        "operator:wikidata": "Q56351917",
        "phone": "+55 22 3824 6861",
        "id": "way/1278113745"
      },
      "geometry": {
        "type": "Polygon",
        "coordinates": [
          [
            [
              -41.9022674,
              -21.1957532
            ],
            [
              -41.9021218,
              -21.1960305
            ],
            [
              -41.9017956,
              -21.1960008
            ],
            [
              -41.9018957,
              -21.1955028
            ],
            [
              -41.9022674,
              -21.1957532
            ]
          ]
        ]
      }
    },
    {
      "type": "Feature",
      "id": "way/1278179711",
      "properties": {
        "timestamp": "2024-04-29T13:37:00Z",
        "version": 1,
        "changeset": 150664244,
        "addr:city": "Itaperuna",
        "addr:housenumber": "178",
        "addr:postcode": "28300-000",
        "addr:street": "Rua Ary Parreiras",
        "addr:suburb": "Niterói",
        "amenity": "school",
        "name": "Colégio Estadual Buarque de Nazareth",
        "operator": "Secretaria de Educação do Estado Rio de Janeiro",
        "operator:type": "public",
        "id": "way/1278179711"
      },
      "geometry": {
        "type": "Polygon",
        "coordinates": [
          [
            [
              -41.8873707,
              -21.2138794
            ],
            [
              -41.8869324,
              -21.214324
            ],
            [
              -41.8864963,
              -21.2140318
            ],
            [
              -41.8872594,
              -21.2133395
            ],
            [
              -41.8872912,
              -21.2133543
            ],
            [
              -41.8873707,
              -21.2138794
            ]
          ]
        ]
      }
    },
    {
      "type": "Feature",
      "id": "way/1278340573",
      "properties": {
        "timestamp": "2024-12-21T10:54:00Z",
        "version": 4,
        "changeset": 160465022,
        "addr:city": "Itaperuna",
        "addr:postcode": "28300-000",
        "addr:street": "Rua Tomé de Souza",
        "addr:suburb": "Boa Fortuna",
        "amenity": "school",
        "name": "Ciep 467 Henriett Amado",
        "operator": "Secretaria de Estado da Educação do Rio de Janeiro",
        "operator:type": "public",
        "id": "way/1278340573"
      },
      "geometry": {
        "type": "Polygon",
        "coordinates": [
          [
            [
              -41.8634083,
              -21.2075167
            ],
            [
              -41.8629402,
              -21.2081113
            ],
            [
              -41.8627577,
              -21.2080784
            ],
            [
              -41.8627429,
              -21.2081261
            ],
            [
              -41.8627259,
              -21.208187
            ],
            [
              -41.8620037,
              -21.2080627
            ],
            [
              -41.8621665,
              -21.2072962
            ],
            [
              -41.8634083,
              -21.2075167
            ]
          ]
        ]
      }
    },
    {
      "type": "Feature",
      "id": "way/1278442455",
      "properties": {
        "timestamp": "2024-04-30T09:49:36Z",
        "version": 1,
        "changeset": 150698484,
        "addr:city": "Itaperuna",
        "addr:housenumber": "522",
        "addr:postcode": "28300-000",
        "addr:street": "Rua Vinhosa",
        "addr:suburb": "Vinhosa",
        "amenity": "school",
        "name": "Colégio Estadual Luiz Ferraz",
        "operator": "Secretaria de Educação do Estado Rio de Janeiro",
        "operator:type": "public",
        "phone": "+55 22 3824 1142",
        "id": "way/1278442455"
      },
      "geometry": {
        "type": "Polygon",
        "coordinates": [
          [
            [
              -41.8856727,
              -21.1973095
            ],
            [
              -41.8854417,
              -21.1977906
            ],
            [
              -41.8846929,
              -21.1974205
            ],
            [
              -41.8848535,
              -21.1971076
            ],
            [
              -41.8849094,
              -21.1970706
            ],
            [
              -41.8849762,
              -21.1970554
            ],
            [
              -41.8850953,
              -21.1970655
            ],
            [
              -41.8851242,
              -21.1970184
            ],
            [
              -41.8856727,
              -21.1973095
            ]
          ]
        ]
      }
    },
    {
      "type": "Feature",
      "id": "way/1278596161",
      "properties": {
        "timestamp": "2024-12-20T19:04:55Z",
        "version": 2,
        "changeset": 160445945,
        "addr:city": "Itaperuna",
        "addr:housenumber": "131",
        "addr:postcode": "28300-000",
        "addr:street": "Rua Olavo Bilac",
        "addr:suburb": "Castelo",
        "amenity": "school",
        "name": "Escola Municipal São José",
        "operator": "Secretaria Municipal de Educação de Itaperuna",
        "operator:type": "government",
        "operator:wikidata": "Q1675245",
        "id": "way/1278596161"
      },
      "geometry": {
        "type": "Polygon",
        "coordinates": [
          [
            [
              -41.8872732,
              -21.2022835
            ],
            [
              -41.8868816,
              -21.2027787
            ],
            [
              -41.8862084,
              -21.2023761
            ],
            [
              -41.8870935,
              -21.2014858
            ],
            [
              -41.8872732,
              -21.2022835
            ]
          ]
        ]
      }
    },
    {
      "type": "Feature",
      "id": "way/1278596162",
      "properties": {
        "timestamp": "2024-12-21T13:58:20Z",
        "version": 2,
        "changeset": 160470592,
        "addr:city": "Itaperuna",
        "addr:housenumber": "159",
        "addr:postcode": "28300-000",
        "addr:street": "Rua Palaio Martins Paixão",
        "addr:suburb": "Niterói",
        "amenity": "school",
        "name": "Escola Municipal Sítio São Benedito",
        "operator": "Secretaria Municipal de Educação de Itaperuna",
        "operator:type": "government",
        "operator:wikidata": "Q1675245",
        "phone": "+55 22 99899 7557",
        "id": "way/1278596162"
      },
      "geometry": {
        "type": "Polygon",
        "coordinates": [
          [
            [
              -41.8965578,
              -21.209882
            ],
            [
              -41.8969101,
              -21.20999
            ],
            [
              -41.8968145,
              -21.2102609
            ],
            [
              -41.8964623,
              -21.2101529
            ],
            [
              -41.8965578,
              -21.209882
            ]
          ]
        ]
      }
    },
    {
      "type": "Feature",
      "id": "way/1278648769",
      "properties": {
        "timestamp": "2024-12-20T19:04:55Z",
        "version": 2,
        "changeset": 160445945,
        "addr:city": "Itaperuna",
        "addr:housenumber": "300",
        "addr:postcode": "28300-000",
        "addr:street": "Rua Francisco Vicente Arrabal",
        "addr:suburb": "Governador Roberto Silveira",
        "amenity": "school",
        "name": "Escola Municipal Francisco de Mattos Ligiero",
        "operator": "Secretaria Municipal de Educação de Itaperuna",
        "operator:type": "government",
        "operator:wikidata": "Q1675245",
        "id": "way/1278648769"
      },
      "geometry": {
        "type": "Polygon",
        "coordinates": [
          [
            [
              -41.891605,
              -21.1872329
            ],
            [
              -41.8918346,
              -21.1878251
            ],
            [
              -41.8913904,
              -21.1879711
            ],
            [
              -41.8911716,
              -21.1873829
            ],
            [
              -41.891605,
              -21.1872329
            ]
          ]
        ]
      }
    },
    {
      "type": "Feature",
      "id": "way/1278774218",
      "properties": {
        "timestamp": "2024-05-01T12:03:11Z",
        "version": 1,
        "changeset": 150746538,
        "addr:city": "Itaperuna",
        "addr:postcode": "28300-000",
        "addr:street": "Rua Benedito Nicolau",
        "addr:suburb": "São Mateus",
        "amenity": "school",
        "name": "Ciep 264 Henriett Morineau",
        "operator": "Secretaria de Educação do Estado do Rio de Janeiro",
        "operator:type": "public",
        "id": "way/1278774218"
      },
      "geometry": {
        "type": "Polygon",
        "coordinates": [
          [
            [
              -41.8769223,
              -21.1857531
            ],
            [
              -41.8760339,
              -21.1861172
            ],
            [
              -41.8757614,
              -21.185312
            ],
            [
              -41.8757678,
              -21.185182
            ],
            [
              -41.8764867,
              -21.1848799
            ],
            [
              -41.8769223,
              -21.1857531
            ]
          ]
        ]
      }
    },
    {
      "type": "Feature",
      "id": "way/1278895622",
      "properties": {
        "timestamp": "2024-05-01T20:51:56Z",
        "version": 1,
        "changeset": 150768697,
        "addr:city": "Itaperuna",
        "addr:housenumber": "444",
        "addr:postcode": "28300-000",
        "addr:street": "Rua Pastor Abelard Suzano de Siqueira",
        "addr:suburb": "Cidade Nova",
        "amenity": "school",
        "name": "Externato Duque de Caxias de Itaperuna",
        "phone": "+55 22 99954 6746",
        "id": "way/1278895622"
      },
      "geometry": {
        "type": "Polygon",
        "coordinates": [
          [
            [
              -41.8975096,
              -21.1940263
            ],
            [
              -41.8972798,
              -21.194109
            ],
            [
              -41.8970681,
              -21.1935976
            ],
            [
              -41.8972978,
              -21.1935149
            ],
            [
              -41.8975096,
              -21.1940263
            ]
          ]
        ]
      }
    },
    {
      "type": "Feature",
      "id": "way/1279172763",
      "properties": {
        "timestamp": "2024-05-02T18:44:13Z",
        "version": 1,
        "changeset": 150807267,
        "addr:city": "Itaperuna",
        "addr:postcode": "28300-000",
        "addr:street": "Rua José de Assis Barbosa",
        "amenity": "school",
        "name": "Escola Municipal Doutor Auto de Oliveira Pinto",
        "id": "way/1279172763"
      },
      "geometry": {
        "type": "Polygon",
        "coordinates": [
          [
            [
              -41.8922684,
              -21.1906088
            ],
            [
              -41.8917142,
              -21.190287
            ],
            [
              -41.8920912,
              -21.1901536
            ],
            [
              -41.8922684,
              -21.1906088
            ]
          ]
        ]
      }
    },
    {
      "type": "Feature",
      "id": "way/1279705409",
      "properties": {
        "timestamp": "2024-05-04T17:41:04Z",
        "version": 1,
        "changeset": 150891477,
        "addr:city": "Itaperuna",
        "addr:postcode": "28300-000",
        "addr:suburb": "Centro",
        "amenity": "school",
        "name": "Colégio Estadual José Garcia de Freitas",
        "operator": "Secretaria de Eduacação do Estado do Rio de Janeiro",
        "operator:type": "public",
        "phone": "+55 22 3847 5290",
        "id": "way/1279705409"
      },
      "geometry": {
        "type": "Polygon",
        "coordinates": [
          [
            [
              -42.0130272,
              -21.1755563
            ],
            [
              -42.0130196,
              -21.1758548
            ],
            [
              -42.0129513,
              -21.1761562
            ],
            [
              -42.012091,
              -21.1758605
            ],
            [
              -42.0121502,
              -21.175221
            ],
            [
              -42.0127025,
              -21.1755152
            ],
            [
              -42.0130272,
              -21.1755563
            ]
          ]
        ]
      }
    },
    {
      "type": "Feature",
      "id": "way/1279705413",
      "properties": {
        "timestamp": "2024-12-21T13:58:20Z",
        "version": 2,
        "changeset": 160470592,
        "addr:city": "Itaperuna",
        "addr:postcode": "28300-000",
        "addr:street": "Rua Beira Linha",
        "addr:suburb": "Centro",
        "amenity": "school",
        "name": "Escola Municipal Joaquim de Oliveira Camara",
        "operator": "Secretaria Municipal de Educação de Itaperuna",
        "operator:type": "government",
        "operator:wikidata": "Q1675245",
        "id": "way/1279705413"
      },
      "geometry": {
        "type": "Polygon",
        "coordinates": [
          [
            [
              -42.0052435,
              -21.1768698
            ],
            [
              -42.0048826,
              -21.1769236
            ],
            [
              -42.004823,
              -21.176296
            ],
            [
              -42.0051695,
              -21.1762372
            ],
            [
              -42.0052435,
              -21.1768698
            ]
          ]
        ]
      }
    },
    {
      "type": "Feature",
      "id": "way/1279727540",
      "properties": {
        "timestamp": "2024-12-21T13:58:20Z",
        "version": 2,
        "changeset": 160470592,
        "addr:city": "Itaperuna",
        "addr:housenumber": "09",
        "addr:postcode": "28300-000",
        "addr:street": "Rua Nicolau Bastos",
        "addr:suburb": "Centro",
        "amenity": "school",
        "name": "Escola Municpal Comendador Venancio Garcia",
        "operator": "Secretaria Municipal de Educação de Itaperuna",
        "operator:type": "government",
        "operator:wikidata": "Q1675245",
        "phone": "+55 22 3847 3239",
        "id": "way/1279727540"
      },
      "geometry": {
        "type": "Polygon",
        "coordinates": [
          [
            [
              -42.1056408,
              -21.1804517
            ],
            [
              -42.1050464,
              -21.1803617
            ],
            [
              -42.1049198,
              -21.1799755
            ],
            [
              -42.1053511,
              -21.1797975
            ],
            [
              -42.1056408,
              -21.1804517
            ]
          ]
        ]
      }
    },
    {
      "type": "Feature",
      "id": "way/1279878093",
      "properties": {
        "timestamp": "2024-05-05T11:37:49Z",
        "version": 1,
        "changeset": 150916038,
        "addr:city": "Itaperuna",
        "addr:postcode": "28300-000",
        "addr:street": "Rua Jornalista José Americo",
        "addr:suburb": "Presidente Costa e Silva",
        "amenity": "school",
        "name": "Escola Municipal Águas Claras",
        "operator": "Secretaria Municipal de Educação",
        "operator:type": "public",
        "phone": "+55 22 3823 6407",
        "id": "way/1279878093"
      },
      "geometry": {
        "type": "Polygon",
        "coordinates": [
          [
            [
              -41.9139934,
              -21.1941621
            ],
            [
              -41.9131371,
              -21.1942103
            ],
            [
              -41.9133243,
              -21.1939881
            ],
            [
              -41.9135064,
              -21.1936627
            ],
            [
              -41.9135747,
              -21.1934844
            ],
            [
              -41.9139475,
              -21.1934468
            ],
            [
              -41.9139646,
              -21.1937688
            ],
            [
              -41.9139934,
              -21.1941621
            ]
          ]
        ]
      }
    },
    {
      "type": "Feature",
      "id": "way/1280567808",
      "properties": {
        "timestamp": "2024-05-07T13:27:01Z",
        "version": 1,
        "changeset": 151011107,
        "addr:city": "Itaperuna",
        "addr:district": "Boaventura",
        "addr:postcode": "28300-000",
        "addr:street": "Avenida Senador Sá Tinoco",
        "addr:suburb": "Centro",
        "amenity": "school",
        "email": "cesesati@yahoo.com.br",
        "name": "Centro Educacional Senador Sá Tinoco",
        "phone": "+55 22 3828 1550",
        "id": "way/1280567808"
      },
      "geometry": {
        "type": "Polygon",
        "coordinates": [
          [
            [
              -41.6273409,
              -21.3190374
            ],
            [
              -41.6267942,
              -21.3195801
            ],
            [
              -41.6264062,
              -21.319177
            ],
            [
              -41.6269466,
              -21.3186603
            ],
            [
              -41.6273409,
              -21.3190374
            ]
          ]
        ]
      }
    },
    {
      "type": "Feature",
      "id": "way/1280656092",
      "properties": {
        "timestamp": "2024-12-21T10:36:51Z",
        "version": 2,
        "changeset": 160464529,
        "addr:city": "Itaperuna",
        "addr:postcode": "28300-000",
        "addr:suburb": "Córrego da Chica",
        "amenity": "school",
        "name": "Escola Municipal Córrego da Chica",
        "operator": "Secretaria Municipal de Educação de Itaperuna",
        "operator:type": "government",
        "operator:wikidata": "Q1675245",
        "id": "way/1280656092"
      },
      "geometry": {
        "type": "Polygon",
        "coordinates": [
          [
            [
              -41.6688845,
              -21.3286346
            ],
            [
              -41.6685861,
              -21.329097
            ],
            [
              -41.668271,
              -21.3289152
            ],
            [
              -41.6685332,
              -21.3285229
            ],
            [
              -41.6685806,
              -21.3285437
            ],
            [
              -41.6686001,
              -21.3285178
            ],
            [
              -41.6688845,
              -21.3286346
            ]
          ]
        ]
      }
    },
    {
      "type": "Feature",
      "id": "node/11876543076",
      "properties": {
        "timestamp": "2024-05-03T13:15:14Z",
        "version": 1,
        "changeset": 150837331,
        "addr:city": "Itaperuna",
        "addr:postcode": "28345-000",
        "addr:street": "Rua São Sebastião da Boa Vista",
        "addr:suburb": "São Sebastião da Boa Vista",
        "amenity": "school",
        "name": "Escola Municipal de São Sebastião da Boa Vista",
        "operator": "Secretaria Municipal de Educação",
        "operator:type": "public",
        "id": "node/11876543076"
      },
      "geometry": {
        "type": "Point",
        "coordinates": [
          -42.0804479,
          -21.3362382
        ]
      }
    }
  ]
}
