{
  "type": "FeatureCollection",
  "features": [
    {
      "type": "Feature",
      "id": "way/488126040",
      "properties": {
        "timestamp": "2020-09-14T21:40:28Z",
        "version": 5,
        "changeset": 90886917,
        "addr:city": "Jandira",
        "addr:postcode": "06620-020",
        "addr:street": "Rua Guarujá",
        "addr:suburb": "Vale do Sol",
        "alt_name": "UBS Vale do Sol",
        "amenity": "clinic",
        "building": "yes",
        "healthcare": "clinic",
        "healthcare:speciality": "general;paediatrics;gynaecology",
        "name": "Unidade Básica de Saúde Vale do Sol",
        "id": "way/488126040"
      },
      "geometry": {
        "type": "Polygon",
        "coordinates": [
          [
            [
              -46.8919326,
              -23.5451296
            ],
            [
              -46.8918065,
              -23.5453018
            ],
            [
              -46.8917341,
              -23.5452525
            ],
            [
              -46.8917985,
              -23.5451493
            ],
            [
              -46.8917529,
              -23.5451173
            ],
            [
              -46.8918414,
              -23.5450534
            ],
            [
              -46.8918977,
              -23.5450841
            ],
            [
              -46.8919326,
              -23.5451296
            ]
          ]
        ]
      }
    },
    {
      "type": "Feature",
      "id": "way/546817442",
      "properties": {
        "timestamp": "2021-09-17T21:20:41Z",
        "version": 6,
        "changeset": 111354962,
        "addr:city": "Jandira",
        "addr:housenumber": "201",
        "addr:postcode": "06622-200",
        "addr:street": "Rua São Bernardo do Campo",
        "addr:suburb": "Parque Santa Tereza",
        "amenity": "clinic",
        "building": "yes",
        "healthcare": "clinic",
        "healthcare:speciality": "general;vaccination;paediatrics;gynaecology",
        "name": "Unidade Básica de Saúde Santa Teresa",
        "opening_hours": "Mo-Sa 07:00-19:00; Sa,Su,PH off",
        "phone": "+55 11 4206 2258",
        "ref": "INEP-2746638",
        "short_name": "USB Santa Tereza",
        "id": "way/546817442"
      },
      "geometry": {
        "type": "Polygon",
        "coordinates": [
          [
            [
              -46.8992981,
              -23.5475162
            ],
            [
              -46.899329,
              -23.5475917
            ],
            [
              -46.8993102,
              -23.5476058
            ],
            [
              -46.8993547,
              -23.5477518
            ],
            [
              -46.8993785,
              -23.5477523
            ],
            [
              -46.8993893,
              -23.5477841
            ],
            [
              -46.8993131,
              -23.5478102
            ],
            [
              -46.8992949,
              -23.5477822
            ],
            [
              -46.8992469,
              -23.5478044
            ],
            [
              -46.8991673,
              -23.5475826
            ],
            [
              -46.8991682,
              -23.5475573
            ],
            [
              -46.8992981,
              -23.5475162
            ]
          ]
        ]
      }
    },
    {
      "type": "Feature",
      "id": "way/591433468",
      "properties": {
        "timestamp": "2018-05-27T22:46:27Z",
        "version": 1,
        "changeset": 59323639,
        "addr:city": "Jandira",
        "addr:housenumber": "545",
        "addr:street": "Rua Fernando Pessoa",
        "addr:suburb": "Jardim Montecarlo",
        "amenity": "clinic",
        "building": "yes",
        "healthcare": "clinic",
        "healthcare:speciality": "neurology",
        "name": "Centro de Reabilitação Humana",
        "phone": "+55 11 4707 1668",
        "source": "http://www.jandira.sp.gov.br/address.php",
        "id": "way/591433468"
      },
      "geometry": {
        "type": "Polygon",
        "coordinates": [
          [
            [
              -46.9101065,
              -23.5402107
            ],
            [
              -46.9099563,
              -23.5403797
            ],
            [
              -46.9097851,
              -23.5402667
            ],
            [
              -46.909908,
              -23.5400902
            ],
            [
              -46.9101065,
              -23.5402107
            ]
          ]
        ]
      }
    },
    {
      "type": "Feature",
      "id": "way/987552105",
      "properties": {
        "timestamp": "2023-09-03T23:45:09Z",
        "version": 2,
        "changeset": 140780317,
        "addr:housenumber": "35",
        "addr:postcode": "06612-070",
        "addr:street": "Rua Benedito Domingos Velho",
        "addr:suburb": "Jardim Alvorada",
        "amenity": "clinic",
        "building": "yes",
        "healthcare": "clinic",
        "healthcare:speciality": "general;vaccination;paediatrics;gynaecology",
        "name": "Unidade de Básica de Saúde Alvorada",
        "opening_hours": "Mo-Fr 07:00-17:00; Sa,Su,PH off",
        "operator:ref:vatin": "BR46522991000173",
        "phone": "+55 11 4789 7280",
        "ref": "CNES-2792192",
        "ref:CNES": "2792192",
        "short_name": "UBS Alvorada",
        "id": "way/987552105"
      },
      "geometry": {
        "type": "Polygon",
        "coordinates": [
          [
            [
              -46.9225259,
              -23.5223764
            ],
            [
              -46.9225197,
              -23.522465
            ],
            [
              -46.922382,
              -23.5224612
            ],
            [
              -46.9223902,
              -23.522367
            ],
            [
              -46.9225259,
              -23.5223764
            ]
          ]
        ]
      }
    }
  ]
}
