{
  "type": "FeatureCollection",
  "features": [
    {
      "type": "Feature",
      "id": "node/6529839953",
      "properties": {
        "timestamp": "2019-06-06T18:34:13Z",
        "version": 1,
        "changeset": 71000194,
        "addr:city": "São João do Itaperiú",
        "addr:street": "Rua José Bonifácio Pires",
        "amenity": "dentist",
        "healthcare": "dentist",
        "name": "Odontologia Adilson da Costa",
        "phone": "+55 47 3458-0197",
        "id": "node/6529839953"
      },
      "geometry": {
        "type": "Point",
        "coordinates": [
          -48.7665451,
          -26.6155823
        ]
      }
    },
    {
      "type": "Feature",
      "id": "node/6529839965",
      "properties": {
        "timestamp": "2019-06-06T19:24:23Z",
        "version": 2,
        "changeset": 71001429,
        "addr:city": "São João do Itaperiú",
        "addr:street": "Rua José Bonifácio Pires",
        "amenity": "dentist",
        "healthcare": "dentist",
        "name": "Consultório Odontológico Regiane Girardi Lisboa",
        "phone": "+55 47 3458-0786",
        "id": "node/6529839965"
      },
      "geometry": {
        "type": "Point",
        "coordinates": [
          -48.7659326,
          -26.6142244
        ]
      }
    }
  ]
}
