{
  "type": "FeatureCollection",
  "features": [
    {
      "type": "Feature",
      "id": "node/6195240516",
      "properties": {
        "timestamp": "2019-01-09T13:28:15Z",
        "version": 1,
        "changeset": 66162183,
        "addr:city": "Içara",
        "addr:housenumber": "146",
        "addr:postcode": "88820-000",
        "addr:street": "Avenida Dílcio Esmael da Silva",
        "addr:suburb": "Centro",
        "government": "register_office",
        "name": "Ofício de Registro de Imóveis da Comarca de Içara",
        "office": "government",
        "opening_hours": "Mo-Fr 09:00-12:00, Mo-Fr 14:00-18:00",
        "phone": "+55 48 3432 3562",
        "id": "node/6195240516"
      },
      "geometry": {
        "type": "Point",
        "coordinates": [
          -49.3018279,
          -28.720113
        ]
      }
    },
    {
      "type": "Feature",
      "id": "node/6651305044",
      "properties": {
        "timestamp": "2022-10-31T21:10:34Z",
        "version": 2,
        "changeset": 128317173,
        "addr:city": "Içara",
        "addr:housenumber": "148",
        "addr:postcode": "88820-000",
        "addr:street": "Avenida Dílcio Esmael da Silva",
        "addr:suburb": "Centro",
        "government": "environment",
        "name": "Fundação Municipal do Meio Ambiente de Içara",
        "office": "government",
        "short_name": "FUNDAI",
        "id": "node/6651305044"
      },
      "geometry": {
        "type": "Point",
        "coordinates": [
          -49.3018291,
          -28.7203736
        ]
      }
    },
    {
      "type": "Feature",
      "id": "node/8309782994",
      "properties": {
        "timestamp": "2022-06-08T13:41:27Z",
        "version": 2,
        "changeset": 122119440,
        "addr:city": "Içara",
        "addr:housenumber": "155",
        "addr:postcode": "88820-000",
        "addr:street": "Rua Arcolino Guglielmi",
        "addr:suburb": "Centro",
        "email": "camara@camaraicara.sc.gov.br",
        "government": "legislative",
        "name": "Câmara de Vereadores de Içara",
        "office": "government",
        "phone": "+55 48 3468-7150",
        "website": "https://www.camaraicara.sc.gov.br",
        "id": "node/8309782994"
      },
      "geometry": {
        "type": "Point",
        "coordinates": [
          -49.2985706,
          -28.712997
        ]
      }
    }
  ]
}
