{
  "type": "FeatureCollection",
  "features": [
    {
      "type": "Feature",
      "id": "way/620721554",
      "properties": {
        "timestamp": "2018-08-28T21:11:08Z",
        "version": 1,
        "changeset": 62085261,
        "addr:city": "Areal",
        "addr:housenumber": "407",
        "addr:postcode": "25845000",
        "addr:street": "Rua Afonsina",
        "addr:suburb": "Centro",
        "amenity": "doctors",
        "building": "yes",
        "healthcare": "doctor",
        "healthcare:speciality": "Cardiologia;Clínico_Geral;Dermatologista;Endocrinologista;Fisioterapia;Fonoaudiologia;Gastroenterologia;Ginecologia;Obstetrícia;Nutrição;Pediatria;Psicologia;Urologia;Laboratório;Eletrocardiograma;Ultrassonografia",
        "name": "MedLife",
        "opening_hours": "Mo-Sa 08:00-20:00",
        "phone": "+55 24 2257-2403",
        "id": "way/620721554"
      },
      "geometry": {
        "type": "Polygon",
        "coordinates": [
          [
            [
              -43.0994766,
              -22.2285187
            ],
            [
              -43.0993518,
              -22.2285557
            ],
            [
              -43.0993256,
              -22.2284502
            ],
            [
              -43.0994535,
              -22.2284188
            ],
            [
              -43.0994766,
              -22.2285187
            ]
          ]
        ]
      }
    }
  ]
}
