{
  "type": "FeatureCollection",
  "features": [
    {
      "type": "Feature",
      "id": "way/1213681458",
      "properties": {
        "timestamp": "2023-10-06T19:22:05Z",
        "version": 1,
        "changeset": 142245595,
        "addr:city": "Areal",
        "addr:housenumber": "250",
        "addr:postcode": "25845-000",
        "addr:street": "Avenida Presidente Vargas",
        "addr:suburb": "Centro",
        "amenity": "hospital",
        "emergency": "yes",
        "healthcare": "hospital",
        "healthcare:speciality": "general;infectious_diseases;gynaecology;paediatrics;emergency",
        "level": "2",
        "name": "Hospital Municipal Nossa Senhora das Dores",
        "operator": "Prefeitura de Areal",
        "operator:type": "public/government",
        "phone": "(24) 22579702",
        "website": "https://areal.rj.gov.br/a-prefeitura/secretarias/secretaria-de-saude/unidades-de-saude/",
        "id": "way/1213681458"
      },
      "geometry": {
        "type": "Polygon",
        "coordinates": [
          [
            [
              -43.1028291,
              -22.2302293
            ],
            [
              -43.1024327,
              -22.2301367
            ],
            [
              -43.1021425,
              -22.2301007
            ],
            [
              -43.1021527,
              -22.2300564
            ],
            [
              -43.1024665,
              -22.2299889
            ],
            [
              -43.1028806,
              -22.2300823
            ],
            [
              -43.1028291,
              -22.2302293
            ]
          ]
        ]
      }
    }
  ]
}
