{
  "type": "FeatureCollection",
  "features": [
    {
      "type": "Feature",
      "id": "way/620721590",
      "properties": {
        "timestamp": "2021-11-29T19:04:39Z",
        "version": 2,
        "changeset": 114373671,
        "addr:city": "Areal",
        "addr:housenumber": "39",
        "addr:postcode": "25845000",
        "addr:street": "Rua Antônio Jaques Filho",
        "addr:suburb": "Centro",
        "air_conditioning": "no",
        "bar": "no",
        "building": "yes",
        "internet_access": "wlan",
        "internet_access:fee": "no",
        "name": "Hotel São Miguel Aracanjo",
        "tourism": "hotel",
        "wheelchair": "limited",
        "id": "way/620721590"
      },
      "geometry": {
        "type": "Polygon",
        "coordinates": [
          [
            [
              -43.1025419,
              -22.2377387
            ],
            [
              -43.1025451,
              -22.2378348
            ],
            [
              -43.1024037,
              -22.2378062
            ],
            [
              -43.1024804,
              -22.2375419
            ],
            [
              -43.1025253,
              -22.2375592
            ],
            [
              -43.1025419,
              -22.2377387
            ]
          ]
        ]
      }
    }
  ]
}
