{
  "type": "FeatureCollection",
  "features": [
    {
      "type": "Feature",
      "id": "node/3500128880",
      "properties": {
        "timestamp": "2024-07-26T18:17:13Z",
        "version": 2,
        "changeset": 154455701,
        "addr:city": "Areal",
        "addr:housenumber": "94",
        "addr:postcode": "25845000",
        "addr:street": "Praça Presidente Castelo Branco",
        "addr:suburb": "Centro",
        "amenity": "pharmacy",
        "dispensing": "yes",
        "drive_through": "no",
        "healthcare": "pharmacy",
        "name": "Farmácia Centro Arealense",
        "opening_hours": "Mo-Sa 08:00-19:00",
        "wheelchair": "limited",
        "id": "node/3500128880"
      },
      "geometry": {
        "type": "Point",
        "coordinates": [
          -43.1020493,
          -22.2363057
        ]
      }
    },
    {
      "type": "Feature",
      "id": "node/5864365154",
      "properties": {
        "timestamp": "2024-12-28T02:38:02Z",
        "version": 2,
        "changeset": 160699010,
        "addr:city": "Areal",
        "addr:postcode": "25845000",
        "addr:street": "Avenida Ernani de Amaral Peixoto",
        "addr:suburb": "Centro",
        "amenity": "pharmacy",
        "dispensing": "no",
        "healthcare": "pharmacy",
        "name": "Drogaria Ki Saúde",
        "opening_hours": "Mo-Sa 08:00-20:00",
        "id": "node/5864365154"
      },
      "geometry": {
        "type": "Point",
        "coordinates": [
          -43.1022952,
          -22.2356628
        ]
      }
    },
    {
      "type": "Feature",
      "id": "node/5864365155",
      "properties": {
        "timestamp": "2023-08-23T08:42:45Z",
        "version": 3,
        "changeset": 140264063,
        "addr:city": "Areal",
        "addr:postcode": "25845000",
        "addr:street": "Rua Antão Barros de Oliveira",
        "addr:suburb": "Centro",
        "amenity": "pharmacy",
        "dispensing": "yes",
        "drive_through": "no",
        "healthcare": "pharmacy",
        "name": "Farcária do Povo",
        "opening_hours": "Mo-Sa 08:00-20:00",
        "id": "node/5864365155"
      },
      "geometry": {
        "type": "Point",
        "coordinates": [
          -43.1022877,
          -22.2354387
        ]
      }
    }
  ]
}
