{
  "type": "FeatureCollection",
  "features": [
    {
      "type": "Feature",
      "id": "way/978506637",
      "properties": {
        "timestamp": "2021-09-01T17:55:09Z",
        "version": 2,
        "changeset": 110579609,
        "addr:city": "Tupanciretã",
        "addr:housenumber": "1057",
        "addr:postcode": "98170-000",
        "addr:street": "Avenida Vaz Ferreira",
        "addr:suburb": "Centro",
        "amenity": "pharmacy",
        "building": "yes",
        "dispensing": "yes",
        "healthcare": "pharmacy",
        "name": "Farmácia Capile",
        "id": "way/978506637"
      },
      "geometry": {
        "type": "Polygon",
        "coordinates": [
          [
            [
              -53.8365077,
              -29.0823149
            ],
            [
              -53.836482,
              -29.0824031
            ],
            [
              -53.8363575,
              -29.0824012
            ],
            [
              -53.8364068,
              -29.0822943
            ],
            [
              -53.8365077,
              -29.0823149
            ]
          ]
        ]
      }
    },
    {
      "type": "Feature",
      "id": "way/978507301",
      "properties": {
        "timestamp": "2021-09-01T17:56:04Z",
        "version": 2,
        "changeset": 110579642,
        "addr:city": "Tupanciretã",
        "addr:housenumber": "1118",
        "addr:postcode": "98170-000",
        "addr:street": "Avenida Vaz Ferreira",
        "addr:suburb": "Centro",
        "amenity": "pharmacy",
        "building": "yes",
        "dispensing": "yes",
        "healthcare": "pharmacy",
        "name": "Farmácia São João",
        "id": "way/978507301"
      },
      "geometry": {
        "type": "Polygon",
        "coordinates": [
          [
            [
              -53.8369557,
              -29.0813228
            ],
            [
              -53.8368945,
              -29.081411
            ],
            [
              -53.8368141,
              -29.0813913
            ],
            [
              -53.8368581,
              -29.0813153
            ],
            [
              -53.8369557,
              -29.0813228
            ]
          ]
        ]
      }
    },
    {
      "type": "Feature",
      "id": "way/978508946",
      "properties": {
        "timestamp": "2021-09-01T17:54:37Z",
        "version": 1,
        "changeset": 110579589,
        "addr:city": "Tupanciretã",
        "addr:housenumber": "1159",
        "addr:postcode": "98170-000",
        "addr:street": "Avenida Vaz Ferreira",
        "addr:suburb": "Centro",
        "amenity": "pharmacy",
        "building": "yes",
        "dispensing": "yes",
        "healthcare": "pharmacy",
        "name": "Farmácia Palhano",
        "id": "way/978508946"
      },
      "geometry": {
        "type": "Polygon",
        "coordinates": [
          [
            [
              -53.8369911,
              -29.0803421
            ],
            [
              -53.8369395,
              -29.0804362
            ],
            [
              -53.8368227,
              -29.0803951
            ],
            [
              -53.8368621,
              -29.0803103
            ],
            [
              -53.8369911,
              -29.0803421
            ]
          ]
        ]
      }
    },
    {
      "type": "Feature",
      "id": "node/10207918867",
      "properties": {
        "timestamp": "2022-11-21T18:19:26Z",
        "version": 1,
        "changeset": 129207789,
        "amenity": "pharmacy",
        "name": "Farmácias Associadas",
        "id": "node/10207918867"
      },
      "geometry": {
        "type": "Point",
        "coordinates": [
          -53.8258243,
          -29.0876052
        ]
      }
    }
  ]
}
