{
  "type": "FeatureCollection",
  "features": [
    {
      "type": "Feature",
      "id": "way/546145383",
      "properties": {
        "timestamp": "2017-12-11T17:07:51Z",
        "version": 1,
        "changeset": 54545567,
        "building": "yes",
        "name": "Hotel Bras찾o",
        "tourism": "hotel",
        "id": "way/546145383"
      },
      "geometry": {
        "type": "Polygon",
        "coordinates": [
          [
            [
              -44.3623442,
              -9.0803649
            ],
            [
              -44.3624191,
              -9.080781
            ],
            [
              -44.3620609,
              -9.0808439
            ],
            [
              -44.361986,
              -9.0804279
            ],
            [
              -44.3623442,
              -9.0803649
            ]
          ]
        ]
      }
    },
    {
      "type": "Feature",
      "id": "node/11457507770",
      "properties": {
        "timestamp": "2023-12-26T20:33:44Z",
        "version": 1,
        "changeset": 145548935,
        "addr:city": "Bom Jesus",
        "addr:postcode": "64900-000",
        "addr:street": "Avenida Ademar Di처genes",
        "addr:suburb": "Miramar",
        "name": "Hotel Familiar",
        "tourism": "hotel",
        "id": "node/11457507770"
      },
      "geometry": {
        "type": "Point",
        "coordinates": [
          -44.355134,
          -9.0750849
        ]
      }
    },
    {
      "type": "Feature",
      "id": "node/11457507775",
      "properties": {
        "timestamp": "2023-12-26T20:33:44Z",
        "version": 1,
        "changeset": 145548935,
        "addr:city": "Bom Jesus",
        "addr:postcode": "64900-000",
        "addr:street": "Avenida Ademar Di처genes",
        "addr:suburb": "Miramar",
        "name": "Gurgueia Palace Hotel",
        "tourism": "hotel",
        "id": "node/11457507775"
      },
      "geometry": {
        "type": "Point",
        "coordinates": [
          -44.3530488,
          -9.0748566
        ]
      }
    },
    {
      "type": "Feature",
      "id": "node/11459692258",
      "properties": {
        "timestamp": "2023-12-27T15:24:33Z",
        "version": 1,
        "changeset": 145580936,
        "addr:city": "Bom Jesus",
        "addr:postcode": "64900-000",
        "addr:street": "Avenida Ademar Di처genes",
        "addr:suburb": "Miramar",
        "internet_access": "wlan",
        "name": "Hotel Miramar",
        "phone": "89 98116-3093",
        "tourism": "hotel",
        "id": "node/11459692258"
      },
      "geometry": {
        "type": "Point",
        "coordinates": [
          -44.3508903,
          -9.0750771
        ]
      }
    }
  ]
}
