{
  "type": "FeatureCollection",
  "features": [
    {
      "type": "Feature",
      "id": "way/712079179",
      "properties": {
        "timestamp": "2019-08-08T16:54:18Z",
        "version": 1,
        "changeset": 73164043,
        "addr:housenumber": "53",
        "addr:postcode": "08576-000",
        "addr:street": "Avenida Vereador João Fernandes da Silva",
        "addr:suburb": "Vila Virgínia",
        "amenity": "library",
        "building": "yes",
        "name": "Biblioteca Pública Municipal",
        "opening_hours": "Mo-Fr 08:00-17:00; Sa,Su,PH Off",
        "id": "way/712079179"
      },
      "geometry": {
        "type": "Polygon",
        "coordinates": [
          [
            [
              -46.3536401,
              -23.4829146
            ],
            [
              -46.3536213,
              -23.4829614
            ],
            [
              -46.3535489,
              -23.4829368
            ],
            [
              -46.353565,
              -23.4828925
            ],
            [
              -46.3536401,
              -23.4829146
            ]
          ]
        ]
      }
    }
  ]
}
