{
  "type": "FeatureCollection",
  "features": [
    {
      "type": "Feature",
      "id": "way/504414521",
      "properties": {
        "timestamp": "2019-08-08T16:54:18Z",
        "version": 2,
        "changeset": 73164043,
        "addr:city": "Itaquaquecetuba",
        "addr:housenumber": "735",
        "addr:postcode": "08573-000",
        "addr:street": "Avenida Ítalo Adami",
        "addr:suburb": "Vila Zeferina",
        "amenity": "pharmacy",
        "building": "yes",
        "drive_through": "no",
        "healthcare": "pharmacy",
        "name": "Drogaria SP",
        "opening_hours": "Mo-Su 07:00-23:00",
        "phone": "+55 11 3717 0007",
        "id": "way/504414521"
      },
      "geometry": {
        "type": "Polygon",
        "coordinates": [
          [
            [
              -46.3487756,
              -23.4864498
            ],
            [
              -46.3487675,
              -23.4865752
            ],
            [
              -46.3486307,
              -23.486585
            ],
            [
              -46.3486361,
              -23.4864227
            ],
            [
              -46.3487756,
              -23.4864498
            ]
          ]
        ]
      }
    },
    {
      "type": "Feature",
      "id": "way/1299589781",
      "properties": {
        "timestamp": "2024-07-06T20:26:34Z",
        "version": 1,
        "changeset": 153638680,
        "addr:street": "Rua dos Cajueiros",
        "amenity": "pharmacy",
        "building": "yes",
        "dispensing": "yes",
        "drive_through": "no",
        "healthcare": "pharmacy",
        "name": "Drogaria Mais Saúde",
        "id": "way/1299589781"
      },
      "geometry": {
        "type": "Polygon",
        "coordinates": [
          [
            [
              -46.3234612,
              -23.4392727
            ],
            [
              -46.3234822,
              -23.4393205
            ],
            [
              -46.323399,
              -23.4393527
            ],
            [
              -46.323378,
              -23.4393067
            ],
            [
              -46.3234612,
              -23.4392727
            ]
          ]
        ]
      }
    },
    {
      "type": "Feature",
      "id": "way/1299636482",
      "properties": {
        "timestamp": "2024-07-07T02:20:02Z",
        "version": 1,
        "changeset": 153645006,
        "addr:street": "Estrada dos Índios",
        "amenity": "pharmacy",
        "building": "yes",
        "healthcare": "pharmacy",
        "name": "Drogarias Confiança",
        "id": "way/1299636482"
      },
      "geometry": {
        "type": "Polygon",
        "coordinates": [
          [
            [
              -46.3208516,
              -23.4377489
            ],
            [
              -46.3208502,
              -23.437795
            ],
            [
              -46.3206935,
              -23.4377871
            ],
            [
              -46.3206978,
              -23.4377462
            ],
            [
              -46.3208516,
              -23.4377489
            ]
          ]
        ]
      }
    },
    {
      "type": "Feature",
      "id": "node/11347151312",
      "properties": {
        "timestamp": "2023-11-13T19:57:11Z",
        "version": 1,
        "changeset": 143985156,
        "addr:housenumber": "607",
        "addr:street": "Avenida Brasil",
        "amenity": "pharmacy",
        "dispensing": "yes",
        "drive_through": "no",
        "healthcare": "pharmacy",
        "name": "Drogaria OliverFarma",
        "phone": "+55 11 2470 5331",
        "id": "node/11347151312"
      },
      "geometry": {
        "type": "Point",
        "coordinates": [
          -46.3416148,
          -23.4887684
        ]
      }
    },
    {
      "type": "Feature",
      "id": "node/11660242701",
      "properties": {
        "timestamp": "2024-02-24T20:14:37Z",
        "version": 1,
        "changeset": 147869496,
        "addr:street": "Rua João Vagnotti",
        "addr:suburb": "Centro",
        "amenity": "pharmacy",
        "dispensing": "yes",
        "drive_through": "no",
        "healthcare": "pharmacy",
        "mobile": "+55 11 97321 4229",
        "name": "Rede Vida Formula",
        "phone": "+55 11 4642 6090",
        "id": "node/11660242701"
      },
      "geometry": {
        "type": "Point",
        "coordinates": [
          -46.3521144,
          -23.4743327
        ]
      }
    },
    {
      "type": "Feature",
      "id": "node/11660302573",
      "properties": {
        "timestamp": "2024-02-24T20:29:30Z",
        "version": 1,
        "changeset": 147869940,
        "addr:housenumber": "186",
        "addr:street": "Rua João Vagnotti",
        "amenity": "pharmacy",
        "dispensing": "yes",
        "drive_through": "no",
        "healthcare": "pharmacy",
        "mobile": "+55 11 98158 8799",
        "name": "Drogarias Farmaativa",
        "phone": "+55 11 4753 5567",
        "id": "node/11660302573"
      },
      "geometry": {
        "type": "Point",
        "coordinates": [
          -46.3525494,
          -23.4746374
        ]
      }
    },
    {
      "type": "Feature",
      "id": "node/12039996435",
      "properties": {
        "timestamp": "2024-07-07T14:04:25Z",
        "version": 1,
        "changeset": 153663661,
        "addr:street": "Estrada dos Índios",
        "amenity": "pharmacy",
        "dispensing": "yes",
        "drive_through": "no",
        "healthcare": "pharmacy",
        "name": "Promofarma",
        "id": "node/12039996435"
      },
      "geometry": {
        "type": "Point",
        "coordinates": [
          -46.3197149,
          -23.4362556
        ]
      }
    },
    {
      "type": "Feature",
      "id": "node/12040172364",
      "properties": {
        "timestamp": "2024-12-12T13:15:24Z",
        "version": 2,
        "changeset": 160207704,
        "addr:housenumber": "1122",
        "addr:street": "Estrada dos Índios",
        "amenity": "pharmacy",
        "dispensing": "yes",
        "drive_through": "no",
        "healthcare": "pharmacy",
        "name": "Rede de Drogarias W Leste",
        "id": "node/12040172364"
      },
      "geometry": {
        "type": "Point",
        "coordinates": [
          -46.3194144,
          -23.4359851
        ]
      }
    },
    {
      "type": "Feature",
      "id": "node/12040205670",
      "properties": {
        "timestamp": "2024-07-07T16:23:22Z",
        "version": 1,
        "changeset": 153669263,
        "addr:street": "Estrada dos Índios",
        "amenity": "pharmacy",
        "dispensing": "yes",
        "drive_through": "no",
        "healthcare": "pharmacy",
        "name": "Ultrafarma Popular",
        "id": "node/12040205670"
      },
      "geometry": {
        "type": "Point",
        "coordinates": [
          -46.3190784,
          -23.4356005
        ]
      }
    },
    {
      "type": "Feature",
      "id": "node/12046534059",
      "properties": {
        "timestamp": "2024-07-10T18:53:19Z",
        "version": 1,
        "changeset": 153797104,
        "addr:housenumber": "893",
        "addr:street": "Avenida Turmalinas",
        "amenity": "pharmacy",
        "dispensing": "yes",
        "drive_through": "no",
        "healthcare": "pharmacy",
        "name": "Drogaria da Vila",
        "phone": "+55 11 4649 3653",
        "id": "node/12046534059"
      },
      "geometry": {
        "type": "Point",
        "coordinates": [
          -46.300622,
          -23.4369427
        ]
      }
    },
    {
      "type": "Feature",
      "id": "node/12057873799",
      "properties": {
        "timestamp": "2024-07-16T19:58:54Z",
        "version": 1,
        "changeset": 154031229,
        "addr:housenumber": "1147",
        "addr:street": "Avenida Ítalo Adami",
        "addr:suburb": "Vila Zeferina",
        "amenity": "pharmacy",
        "dispensing": "yes",
        "drive_through": "no",
        "healthcare": "pharmacy",
        "mobile": "+55 11 93390 7477",
        "name": "Farma Mania",
        "phone": "+55 11 4754 3652",
        "id": "node/12057873799"
      },
      "geometry": {
        "type": "Point",
        "coordinates": [
          -46.3483704,
          -23.492694
        ]
      }
    },
    {
      "type": "Feature",
      "id": "node/12064125750",
      "properties": {
        "timestamp": "2024-07-20T02:27:49Z",
        "version": 1,
        "changeset": 154163599,
        "addr:street": "Avenida Ítalo Adami",
        "amenity": "pharmacy",
        "healthcare": "pharmacy",
        "name": "D'Avó Farma",
        "id": "node/12064125750"
      },
      "geometry": {
        "type": "Point",
        "coordinates": [
          -46.348239,
          -23.4969153
        ]
      }
    }
  ]
}
