{
  "type": "FeatureCollection",
  "features": [
    {
      "type": "Feature",
      "id": "way/475185129",
      "properties": {
        "timestamp": "2023-08-04T14:34:14Z",
        "version": 7,
        "changeset": 139445029,
        "addr:housenumber": "25",
        "addr:postcode": "08599-330",
        "addr:street": "Rua Rio Pinheiros",
        "addr:suburb": "Vila Nely",
        "amenity": "school",
        "contact:phone": "+55 11 4647 7885",
        "email": "e912347a@educacao.sp.gov.br",
        "name": "Escola Estadual Dona Rosária Isolina de Moraes",
        "operator": "Secretaria da Educação do Estado de São Paulo",
        "operator:type": "government",
        "phone": "+55 11 4645 1117",
        "ref": "INEP-35912347",
        "religion": "none",
        "id": "way/475185129"
      },
      "geometry": {
        "type": "Polygon",
        "coordinates": [
          [
            [
              -46.3415087,
              -23.4681964
            ],
            [
              -46.3409742,
              -23.468052
            ],
            [
              -46.3411764,
              -23.4674113
            ],
            [
              -46.3414664,
              -23.4672052
            ],
            [
              -46.3416351,
              -23.4674981
            ],
            [
              -46.341677,
              -23.4676666
            ],
            [
              -46.3415087,
              -23.4681964
            ]
          ]
        ]
      }
    },
    {
      "type": "Feature",
      "id": "way/496184861",
      "properties": {
        "timestamp": "2022-02-08T21:39:48Z",
        "version": 3,
        "changeset": 117178159,
        "addr:city": "Itaquaquecetuba",
        "addr:country": "BR",
        "addr:housenumber": "465",
        "addr:postcode": "08572-700",
        "addr:street": "Rua Rio Grande do Sul",
        "addr:suburb": "Jardim do Algarve",
        "amenity": "school",
        "contact:phone": "+55 11 4647 5896",
        "email": "e923722a@educacao.sp.gov.br",
        "name": "Escola Estadual Vila Ercília Algarve",
        "operator": "Secretaria da Educação do Estado de São Paulo",
        "operator:type": "government",
        "phone": "+55 11 4647 3911",
        "ref": "INEP-35923722",
        "religion": "none",
        "source": "CADMEC 2017",
        "id": "way/496184861"
      },
      "geometry": {
        "type": "Polygon",
        "coordinates": [
          [
            [
              -46.3431162,
              -23.5016837
            ],
            [
              -46.3430806,
              -23.502109
            ],
            [
              -46.3430032,
              -23.5020724
            ],
            [
              -46.342948,
              -23.5020595
            ],
            [
              -46.3428575,
              -23.502022
            ],
            [
              -46.3427562,
              -23.5020189
            ],
            [
              -46.3427026,
              -23.5020435
            ],
            [
              -46.3426565,
              -23.5020792
            ],
            [
              -46.3420295,
              -23.5020267
            ],
            [
              -46.3420813,
              -23.5015944
            ],
            [
              -46.3431162,
              -23.5016837
            ]
          ]
        ]
      }
    },
    {
      "type": "Feature",
      "id": "way/496188994",
      "properties": {
        "timestamp": "2022-02-08T21:39:48Z",
        "version": 5,
        "changeset": 117178159,
        "addr:city": "Itaquaquecetuba",
        "addr:country": "BR",
        "addr:housenumber": "1711",
        "addr:postcode": "08572-000",
        "addr:street": "Avenida Fernando Vieira Rossi",
        "addr:suburb": "Pedreira",
        "amenity": "school",
        "contact:phone": "+55 11 4647 5876",
        "email": "e912300a@educacao.sp.gov.br",
        "name": "Escola Estadual  José Olympio Pereira Filho",
        "operator": "Secretaria da Educação do Estado de São Paulo",
        "operator:type": "government",
        "phone": "+55 11 4647 0680",
        "ref": "INEP-35912300",
        "religion": "none",
        "source": "CADMEC 2017",
        "id": "way/496188994"
      },
      "geometry": {
        "type": "Polygon",
        "coordinates": [
          [
            [
              -46.340623,
              -23.495529
            ],
            [
              -46.3402743,
              -23.4955192
            ],
            [
              -46.3400999,
              -23.4950223
            ],
            [
              -46.3402582,
              -23.4950002
            ],
            [
              -46.3402555,
              -23.4946066
            ],
            [
              -46.3407222,
              -23.4946115
            ],
            [
              -46.340623,
              -23.495529
            ]
          ]
        ]
      }
    },
    {
      "type": "Feature",
      "id": "way/502800883",
      "properties": {
        "timestamp": "2018-07-26T20:20:38Z",
        "version": 2,
        "changeset": 61100032,
        "addr:city": "Itaquaquecetuba",
        "addr:housenumber": "177",
        "addr:postcode": "08592-140",
        "addr:street": "Rua Mombuca",
        "addr:suburb": "Parque Recanto Mônica",
        "amenity": "school",
        "contact:phone": "+55 11 4645 3165",
        "email": "e910181a@educacao.sp.gov.br",
        "name": "Escola Estadual Mário Martins Pereira",
        "operator": "Secretaria da Educação do Estado de São Paulo",
        "phone": "+55 11 4645 1471",
        "id": "way/502800883"
      },
      "geometry": {
        "type": "Polygon",
        "coordinates": [
          [
            [
              -46.2894457,
              -23.4733599
            ],
            [
              -46.2894779,
              -23.4736133
            ],
            [
              -46.2894618,
              -23.4738421
            ],
            [
              -46.2894189,
              -23.4741152
            ],
            [
              -46.289329,
              -23.4743988
            ],
            [
              -46.2888663,
              -23.4741988
            ],
            [
              -46.288987,
              -23.4738495
            ],
            [
              -46.2889978,
              -23.4735641
            ],
            [
              -46.288861,
              -23.4728506
            ],
            [
              -46.2889106,
              -23.4728039
            ],
            [
              -46.2889709,
              -23.4728457
            ],
            [
              -46.2894457,
              -23.4733599
            ]
          ]
        ]
      }
    },
    {
      "type": "Feature",
      "id": "way/503153671",
      "properties": {
        "timestamp": "2024-07-09T21:23:10Z",
        "version": 3,
        "changeset": 153761004,
        "addr:city": "Itaquaquecetuba",
        "addr:country": "BR",
        "addr:postcode": "08589-030",
        "addr:street": "Rua Vespasiano",
        "addr:suburb": "Estância Fraternidade",
        "amenity": "school",
        "contact:phone": "+55 11 4648 7188",
        "email": "e912323a@educacao.sp.gov.br",
        "name": "Escola Estadual Joaquim Gonçalves Ferreira da Silva",
        "operator": "Secretaria da Educação do Estado de São Paulo",
        "operator:type": "government",
        "phone": "+55 11 4648 8566",
        "religion": "none",
        "id": "way/503153671"
      },
      "geometry": {
        "type": "Polygon",
        "coordinates": [
          [
            [
              -46.3045115,
              -23.4384682
            ],
            [
              -46.3047153,
              -23.4379059
            ],
            [
              -46.3049567,
              -23.4379145
            ],
            [
              -46.3049326,
              -23.4388177
            ],
            [
              -46.3043049,
              -23.4391991
            ],
            [
              -46.3039348,
              -23.4391253
            ],
            [
              -46.303908,
              -23.4390293
            ],
            [
              -46.3037846,
              -23.4390613
            ],
            [
              -46.3035861,
              -23.4388152
            ],
            [
              -46.3045115,
              -23.4384682
            ]
          ]
        ]
      }
    },
    {
      "type": "Feature",
      "id": "way/504438630",
      "properties": {
        "timestamp": "2023-12-10T18:41:27Z",
        "version": 5,
        "changeset": 144974084,
        "addr:city": "Itaquaquecetuba",
        "addr:country": "BR",
        "addr:housenumber": "110",
        "addr:postcode": "08583-680",
        "addr:street": "Rua Joaquim Serra",
        "addr:suburb": "Parque Piratininga",
        "amenity": "school",
        "contact:phone": "+55 11 4648 3748",
        "email": "e923941a@educacao.sp.gov.br",
        "name": "Escola Estadual Parque Piratininga II",
        "operator": "Secretaria de Educação do Estado de São Paulo",
        "operator:type": "government",
        "phone": "+55 11 4648 1138",
        "ref": "INEP-35923941",
        "religion": "none",
        "id": "way/504438630"
      },
      "geometry": {
        "type": "Polygon",
        "coordinates": [
          [
            [
              -46.3796044,
              -23.4402926
            ],
            [
              -46.3791431,
              -23.4402114
            ],
            [
              -46.3788722,
              -23.4395494
            ],
            [
              -46.378821,
              -23.4393907
            ],
            [
              -46.3792223,
              -23.4393675
            ],
            [
              -46.3796932,
              -23.4394838
            ],
            [
              -46.3798026,
              -23.4395139
            ],
            [
              -46.3796581,
              -23.4402336
            ],
            [
              -46.3796044,
              -23.4402926
            ]
          ]
        ]
      }
    },
    {
      "type": "Feature",
      "id": "way/504438631",
      "properties": {
        "timestamp": "2020-09-06T00:57:37Z",
        "version": 5,
        "changeset": 90467326,
        "addr:city": "Itaquaquecetuba",
        "addr:housenumber": "56",
        "addr:postcode": "08583-630",
        "addr:street": "Rua Jorge Amado",
        "addr:suburb": "Parque Piratininga",
        "amenity": "school",
        "contact:phone": "+55 11 4641 6442",
        "email": "e916584a@educacao.sp.gov.br",
        "name": "Escola Estadual Parque Piratininga",
        "operator": "Secretaria de Educação do Estado de São Paulo",
        "operator:type": "government",
        "phone": "+55 11 4641 4695",
        "ref": "INEP-35916584",
        "id": "way/504438631"
      },
      "geometry": {
        "type": "Polygon",
        "coordinates": [
          [
            [
              -46.3796158,
              -23.4383465
            ],
            [
              -46.3799886,
              -23.4387476
            ],
            [
              -46.379883,
              -23.4391633
            ],
            [
              -46.3797338,
              -23.4391192
            ],
            [
              -46.3794008,
              -23.4390323
            ],
            [
              -46.3796158,
              -23.4383465
            ]
          ]
        ]
      }
    },
    {
      "type": "Feature",
      "id": "way/504491766",
      "properties": {
        "timestamp": "2018-03-10T22:15:24Z",
        "version": 2,
        "changeset": 57069050,
        "addr:city": "Itaquaquecetuba",
        "addr:country": "BR",
        "addr:housenumber": "274",
        "addr:postcode": "08580-030",
        "addr:street": "Rua dos Motoristas",
        "addr:suburb": "Jardim Itaquá",
        "amenity": "school",
        "contact:phone": "+55 11 4648 2644",
        "email": "e923928a@educacao.gov.sp.br",
        "name": "Escola Estadual Jardim Itaquá",
        "operator": "Secretaria da Educação do Estado de São Paulo",
        "phone": "+55 11 4648 3015",
        "id": "way/504491766"
      },
      "geometry": {
        "type": "Polygon",
        "coordinates": [
          [
            [
              -46.3475957,
              -23.4507331
            ],
            [
              -46.3475526,
              -23.4509904
            ],
            [
              -46.3474558,
              -23.4511626
            ],
            [
              -46.3473646,
              -23.4512315
            ],
            [
              -46.3473083,
              -23.4512708
            ],
            [
              -46.3471447,
              -23.4513053
            ],
            [
              -46.3466619,
              -23.4513766
            ],
            [
              -46.3466244,
              -23.4513619
            ],
            [
              -46.3468067,
              -23.4512413
            ],
            [
              -46.3469435,
              -23.4510838
            ],
            [
              -46.3470481,
              -23.4509239
            ],
            [
              -46.347134,
              -23.4506532
            ],
            [
              -46.347484,
              -23.4507196
            ],
            [
              -46.3475957,
              -23.4507331
            ]
          ]
        ]
      }
    },
    {
      "type": "Feature",
      "id": "way/507686438",
      "properties": {
        "timestamp": "2021-06-29T20:43:19Z",
        "version": 3,
        "changeset": 107170076,
        "addr:city": "Itaquaquecetuba",
        "addr:country": "BR",
        "addr:housenumber": "215",
        "addr:postcode": "08589-009",
        "addr:street": "Rua Americana",
        "addr:suburb": "Cidade Nova Louzada",
        "amenity": "school",
        "contact:phone": "+55 11 4649 7181",
        "email": "e038428a@educacao.sp.gov.br",
        "name": "Escola Estadual Doutor Ervin Horvarth",
        "operator": "Secretaria de Educação do Estado de São Paulo",
        "operator:type": "government",
        "phone": "+55 11 4648 6194",
        "ref": "INEP-35038428",
        "source": "CADMEC 2017",
        "id": "way/507686438"
      },
      "geometry": {
        "type": "Polygon",
        "coordinates": [
          [
            [
              -46.2978923,
              -23.4321581
            ],
            [
              -46.2979084,
              -23.4325445
            ],
            [
              -46.2972941,
              -23.4325568
            ],
            [
              -46.2970527,
              -23.432638
            ],
            [
              -46.2968918,
              -23.4323132
            ],
            [
              -46.2970501,
              -23.4322369
            ],
            [
              -46.297262,
              -23.4321631
            ],
            [
              -46.2978923,
              -23.4321581
            ]
          ]
        ]
      }
    },
    {
      "type": "Feature",
      "id": "way/507693505",
      "properties": {
        "timestamp": "2024-12-14T22:07:26Z",
        "version": 3,
        "changeset": 160293243,
        "addr:city": "Itaquaquecetuba",
        "addr:housenumber": "91",
        "addr:postcode": "08579-590",
        "addr:street": "Rua Fernão de Magalhães",
        "addr:suburb": "Pequeno Coração",
        "amenity": "school",
        "contact:phone": "+55 11 4648 3815",
        "email": "e923936a@educacao.sp.gov.br",
        "name": "Escola Estadual Pequeno Coração II",
        "operator": "Secretaria da Educação do Estado de São Paulo",
        "operator:type": "government",
        "operator:wikidata": "Q10369245",
        "phone": "+55 11 4648 2053",
        "religion": "none",
        "id": "way/507693505"
      },
      "geometry": {
        "type": "Polygon",
        "coordinates": [
          [
            [
              -46.3805778,
              -23.4616272
            ],
            [
              -46.3800924,
              -23.4616026
            ],
            [
              -46.3800414,
              -23.4615165
            ],
            [
              -46.3799824,
              -23.4606578
            ],
            [
              -46.3806395,
              -23.4607045
            ],
            [
              -46.3806851,
              -23.4608054
            ],
            [
              -46.3805778,
              -23.4616272
            ]
          ]
        ]
      }
    },
    {
      "type": "Feature",
      "id": "way/568575025",
      "properties": {
        "timestamp": "2024-12-14T21:19:55Z",
        "version": 4,
        "changeset": 160292178,
        "addr:city": "Itaquaquecetuba",
        "addr:country": "BR",
        "addr:housenumber": "34",
        "addr:postcode": "08582-110",
        "addr:street": "Rua Ronda Alta",
        "addr:suburb": "Parque Viviane",
        "amenity": "school",
        "contact:phone": "+55 11 4648 3272",
        "email": "e926059a@educacao.sp.gov.br",
        "name": "Escola Estadual Parque Viviane Jardim Adriana",
        "operator": "Secretaria da Educação do Estado de São Paulo",
        "operator:type": "government",
        "operator:wikidata": "Q10369245",
        "phone": "+55 11 4468 3397",
        "ref:INEP": "35926059",
        "religion": "none",
        "id": "way/568575025"
      },
      "geometry": {
        "type": "Polygon",
        "coordinates": [
          [
            [
              -46.3575184,
              -23.4505926
            ],
            [
              -46.3574862,
              -23.4505557
            ],
            [
              -46.3574943,
              -23.4503834
            ],
            [
              -46.3574701,
              -23.4502555
            ],
            [
              -46.3573924,
              -23.4500217
            ],
            [
              -46.3573736,
              -23.4498962
            ],
            [
              -46.3579342,
              -23.449532
            ],
            [
              -46.3580408,
              -23.4496686
            ],
            [
              -46.3581367,
              -23.4499036
            ],
            [
              -46.3580341,
              -23.4501583
            ],
            [
              -46.3581032,
              -23.4503884
            ],
            [
              -46.3575184,
              -23.4505926
            ]
          ]
        ]
      }
    },
    {
      "type": "Feature",
      "id": "way/568581502",
      "properties": {
        "timestamp": "2018-03-10T22:11:41Z",
        "version": 1,
        "changeset": 57068998,
        "addr:city": "Itaquaquecetuba",
        "addr:country": "BR",
        "addr:housenumber": "475",
        "addr:postcode": "08576-310",
        "addr:street": "Rua Ourinhos",
        "addr:suburb": "Vila Virgínia",
        "amenity": "school",
        "contact:phone": "+55 11 4647 5897",
        "email": "e912293a@educacao.sp.gov.br",
        "name": "Escola Estadual Nemésio Cândido Gomes",
        "operator": "Secretaria da Educação do Estado de São Paulo",
        "phone": "+55 11 4642 8899",
        "id": "way/568581502"
      },
      "geometry": {
        "type": "Polygon",
        "coordinates": [
          [
            [
              -46.3572559,
              -23.4884388
            ],
            [
              -46.3567543,
              -23.4882125
            ],
            [
              -46.3567141,
              -23.4880772
            ],
            [
              -46.3568508,
              -23.4874573
            ],
            [
              -46.3574463,
              -23.4875483
            ],
            [
              -46.3573752,
              -23.4880354
            ],
            [
              -46.3572559,
              -23.4884388
            ]
          ]
        ]
      }
    },
    {
      "type": "Feature",
      "id": "way/568583766",
      "properties": {
        "timestamp": "2021-07-02T17:02:52Z",
        "version": 2,
        "changeset": 107322998,
        "addr:city": "Itaquaquecetuba",
        "addr:country": "BR",
        "addr:housenumber": "250",
        "addr:postcode": "08590-500",
        "addr:street": "Estrada do Ribeiro",
        "addr:suburb": "Jardim Rosely",
        "amenity": "school",
        "contact:phone": "+55 11 4645 3266",
        "email": "e904430a@educacao.sp.gov.br",
        "name": "Escola Estadual Roque Barbosa de Miranda",
        "operator": "Secretaria da Educação do Estado de São Paulo",
        "operator:type": "government",
        "phone": "+55 11 4645 1010",
        "ref": "INEP-35904430",
        "id": "way/568583766"
      },
      "geometry": {
        "type": "Polygon",
        "coordinates": [
          [
            [
              -46.2785694,
              -23.4383933
            ],
            [
              -46.2783065,
              -23.4384426
            ],
            [
              -46.2779739,
              -23.4374976
            ],
            [
              -46.2781241,
              -23.4371826
            ],
            [
              -46.2783601,
              -23.437217
            ],
            [
              -46.2784567,
              -23.4378569
            ],
            [
              -46.2785694,
              -23.4383933
            ]
          ]
        ]
      }
    },
    {
      "type": "Feature",
      "id": "way/568585631",
      "properties": {
        "timestamp": "2020-07-14T18:25:20Z",
        "version": 2,
        "changeset": 87991984,
        "addr:city": "Itaquaquecetuba",
        "addr:country": "BR",
        "addr:housenumber": "368",
        "addr:postcode": "08574-310",
        "addr:street": "Rua Maringá",
        "addr:suburb": "Vila Ursulina",
        "amenity": "school",
        "contact:phone": "+55 11 4642 8938",
        "email": "e446300a@educacao.sp.gov.br",
        "name": "Escola Estadual Vila Ursulina",
        "operator": "Secretaria da Educação do Estado de São Paulo",
        "phone": "+55 11 4640 1828",
        "id": "way/568585631"
      },
      "geometry": {
        "type": "Polygon",
        "coordinates": [
          [
            [
              -46.351866,
              -23.5026919
            ],
            [
              -46.3519277,
              -23.5022344
            ],
            [
              -46.3521047,
              -23.5022492
            ],
            [
              -46.3521222,
              -23.502093
            ],
            [
              -46.3524253,
              -23.5021274
            ],
            [
              -46.3524199,
              -23.5021569
            ],
            [
              -46.3527994,
              -23.5021901
            ],
            [
              -46.3527779,
              -23.5023193
            ],
            [
              -46.3527109,
              -23.50235
            ],
            [
              -46.3526439,
              -23.5023439
            ],
            [
              -46.3526184,
              -23.5025419
            ],
            [
              -46.3525441,
              -23.5025287
            ],
            [
              -46.3525178,
              -23.5027977
            ],
            [
              -46.351866,
              -23.5026919
            ]
          ]
        ]
      }
    },
    {
      "type": "Feature",
      "id": "way/568597122",
      "properties": {
        "timestamp": "2019-07-19T23:49:14Z",
        "version": 2,
        "changeset": 72448750,
        "addr:city": "Itaquaquecetuba",
        "addr:country": "BR",
        "addr:housenumber": "961",
        "addr:postcode": "08594-270",
        "addr:street": "Avenida Gonçalves Dias",
        "addr:suburb": "Parque Residencial Marengo",
        "amenity": "school",
        "contact:phone": "+55 11 4645 3110",
        "email": "e921497a@educacao.sp.gov.br",
        "name": "Escola Estadual Professora Dulce Maria Sampaio",
        "operator": "Secretaria da Educação do Estado de São Paulo",
        "operator:type": "government",
        "phone": "+55 11 4645 1100",
        "id": "way/568597122"
      },
      "geometry": {
        "type": "Polygon",
        "coordinates": [
          [
            [
              -46.3009973,
              -23.4903041
            ],
            [
              -46.3002865,
              -23.4904148
            ],
            [
              -46.300249,
              -23.4903902
            ],
            [
              -46.3002731,
              -23.4898047
            ],
            [
              -46.3008954,
              -23.4897235
            ],
            [
              -46.3009973,
              -23.4903041
            ]
          ]
        ]
      }
    },
    {
      "type": "Feature",
      "id": "way/568598667",
      "properties": {
        "timestamp": "2022-02-08T22:15:11Z",
        "version": 2,
        "changeset": 117178986,
        "addr:city": "Itaquaquecetuba",
        "addr:country": "BR",
        "addr:housenumber": "201",
        "addr:postcode": "08573-640",
        "addr:street": "Rua Vera Cruz",
        "addr:suburb": "Jardim Gonçalves",
        "amenity": "school",
        "contact:phone": "+55 11 4647 5877",
        "email": "e007080a@educacao.sp.gov.br",
        "name": "Escola Estadual Eugênio Victório Deliberato",
        "operator": "Secretaria da Educação do Estado de São Paulo",
        "operator:type": "government",
        "phone": "+55 11 4640 2168",
        "ref": "INEP-35007080",
        "religion": "none",
        "source": "CADMEC 2017",
        "id": "way/568598667"
      },
      "geometry": {
        "type": "Polygon",
        "coordinates": [
          [
            [
              -46.3443117,
              -23.491154
            ],
            [
              -46.3436779,
              -23.4911019
            ],
            [
              -46.3437849,
              -23.4900063
            ],
            [
              -46.3442694,
              -23.4900461
            ],
            [
              -46.3441985,
              -23.4907726
            ],
            [
              -46.3443478,
              -23.4907848
            ],
            [
              -46.3443117,
              -23.491154
            ]
          ]
        ]
      }
    },
    {
      "type": "Feature",
      "id": "way/568765072",
      "properties": {
        "timestamp": "2019-08-08T16:54:18Z",
        "version": 2,
        "changeset": 73164043,
        "addr:city": "Itaquaquecetuba",
        "addr:country": "BR",
        "addr:housenumber": "157",
        "addr:postcode": "08576-070",
        "addr:street": "Avenida João Barbosa de Moraes",
        "addr:suburb": "Vila Zeferina",
        "amenity": "school",
        "contact:phone": "+55 11 4647 5887",
        "email": "e007122a@educacao.sp.gov.br",
        "name": "Escola Estadual Homero Fernando Millano",
        "operator": "Secretaria da Educação do Estado de São Paulo",
        "operator:type": "government",
        "phone": "+55 11 4640 1088",
        "ref": "35007122",
        "id": "way/568765072"
      },
      "geometry": {
        "type": "Polygon",
        "coordinates": [
          [
            [
              -46.3531097,
              -23.4812966
            ],
            [
              -46.3532492,
              -23.4827333
            ],
            [
              -46.3531178,
              -23.4828231
            ],
            [
              -46.3522729,
              -23.481855
            ],
            [
              -46.3522514,
              -23.4818009
            ],
            [
              -46.3527879,
              -23.4810777
            ],
            [
              -46.3531097,
              -23.4812966
            ]
          ]
        ]
      }
    },
    {
      "type": "Feature",
      "id": "way/569747193",
      "properties": {
        "timestamp": "2019-07-07T23:25:34Z",
        "version": 2,
        "changeset": 71993538,
        "addr:city": "Itaquaquecetuba",
        "addr:housenumber": "92",
        "addr:postcode": "08570-007",
        "addr:street": "Rua MMDC",
        "addr:suburb": "Centro",
        "amenity": "school",
        "email": "vandaplima@bol.com.br",
        "name": "Escola Municipal Professor Benedito Vieira da Mota",
        "phone": "+55 11 4640 2903",
        "ref": "35291717",
        "id": "way/569747193"
      },
      "geometry": {
        "type": "Polygon",
        "coordinates": [
          [
            [
              -46.3545107,
              -23.4791592
            ],
            [
              -46.353977,
              -23.4791297
            ],
            [
              -46.3540655,
              -23.4785835
            ],
            [
              -46.3544571,
              -23.4786721
            ],
            [
              -46.3544759,
              -23.4785073
            ],
            [
              -46.3545831,
              -23.4784999
            ],
            [
              -46.3545107,
              -23.4791592
            ]
          ]
        ]
      }
    },
    {
      "type": "Feature",
      "id": "way/573323568",
      "properties": {
        "timestamp": "2018-03-26T22:40:23Z",
        "version": 1,
        "changeset": 57550751,
        "addr:city": "Itaquaquecetuba",
        "addr:country": "BR",
        "addr:housenumber": "426",
        "addr:postcode": "08580-230",
        "addr:street": "Rua Pixinguinha",
        "addr:suburb": "Jardim Maragogipe",
        "amenity": "school",
        "contact:phone": "+55 11 4648 2993",
        "email": "e912311a@educacao.sp.gov.br",
        "name": "Escola Estadual Vereador Maurício Alves Braz",
        "operator": "Secretaria da Educação do Estado de São Paulo",
        "phone": "+55 11 4648 2052",
        "id": "way/573323568"
      },
      "geometry": {
        "type": "Polygon",
        "coordinates": [
          [
            [
              -46.340189,
              -23.4519739
            ],
            [
              -46.3400616,
              -23.4521092
            ],
            [
              -46.3403244,
              -23.4522987
            ],
            [
              -46.3401528,
              -23.4524931
            ],
            [
              -46.339383,
              -23.4519443
            ],
            [
              -46.3393776,
              -23.4519197
            ],
            [
              -46.3393884,
              -23.4518877
            ],
            [
              -46.3394527,
              -23.4518533
            ],
            [
              -46.3395091,
              -23.4518853
            ],
            [
              -46.3396257,
              -23.4517696
            ],
            [
              -46.3396921,
              -23.451729
            ],
            [
              -46.3397545,
              -23.4517093
            ],
            [
              -46.3398001,
              -23.4517056
            ],
            [
              -46.3398497,
              -23.4517204
            ],
            [
              -46.340189,
              -23.4519739
            ]
          ]
        ]
      }
    },
    {
      "type": "Feature",
      "id": "way/573587598",
      "properties": {
        "timestamp": "2018-03-27T12:56:12Z",
        "version": 1,
        "changeset": 57566915,
        "addr:city": "Itaquaquecetuba",
        "addr:housenumber": "130",
        "addr:postcode": "08570-310",
        "addr:street": "Rua Vital Brasil",
        "addr:suburb": "Vila Maria Augusta",
        "amenity": "school",
        "name": "Escola Municipal José Marinho Ferreira",
        "phone": "+55 11 4642 6435",
        "id": "way/573587598"
      },
      "geometry": {
        "type": "Polygon",
        "coordinates": [
          [
            [
              -46.3553957,
              -23.4742266
            ],
            [
              -46.3554654,
              -23.4742512
            ],
            [
              -46.3556237,
              -23.474785
            ],
            [
              -46.355342,
              -23.4751959
            ],
            [
              -46.3547412,
              -23.4748933
            ],
            [
              -46.3552777,
              -23.4744295
            ],
            [
              -46.3553957,
              -23.4742266
            ]
          ]
        ]
      }
    },
    {
      "type": "Feature",
      "id": "way/573767230",
      "properties": {
        "timestamp": "2020-09-05T19:31:50Z",
        "version": 2,
        "changeset": 90462665,
        "addr:city": "Itaquaquecetuba",
        "addr:country": "BR",
        "addr:housenumber": "381",
        "addr:postcode": "08599-020",
        "addr:street": "Rua São Roque",
        "addr:suburb": "Vila Japão",
        "amenity": "school",
        "contact:phone": "+55 11 4648 2048",
        "email": "e007286a@educacao.sp.gov.br",
        "name": "Escola Estadual Professora Edina Alvares Barbosa",
        "operator": "Secretaria da Educação do Estado de São Paulo",
        "operator:type": "government",
        "phone": "+55 11 4648 1175",
        "ref": "INEP-35007286",
        "id": "way/573767230"
      },
      "geometry": {
        "type": "Polygon",
        "coordinates": [
          [
            [
              -46.3442793,
              -23.4669204
            ],
            [
              -46.3446725,
              -23.4666232
            ],
            [
              -46.34476,
              -23.4665646
            ],
            [
              -46.3449365,
              -23.4664382
            ],
            [
              -46.3451699,
              -23.4666547
            ],
            [
              -46.3447166,
              -23.4669918
            ],
            [
              -46.3451162,
              -23.4674272
            ],
            [
              -46.3448936,
              -23.4675847
            ],
            [
              -46.3445422,
              -23.467228
            ],
            [
              -46.3442793,
              -23.4669204
            ]
          ]
        ]
      }
    },
    {
      "type": "Feature",
      "id": "way/573768646",
      "properties": {
        "timestamp": "2020-09-05T19:31:50Z",
        "version": 2,
        "changeset": 90462665,
        "addr:city": "Itaquaquecetuba",
        "addr:housenumber": "431",
        "addr:postcode": "08599-020",
        "addr:street": "Rua São Roque",
        "addr:suburb": "Vila Japão",
        "amenity": "school",
        "email": "emjoaogeraldo@semecti.com",
        "name": "Escola Municipal João Geraldo dos Santos",
        "operator": "Secretaria Municipal de Educação",
        "operator:type": "government",
        "phone": "+55 11 4648 2912",
        "ref": "INEP-35069413",
        "id": "way/573768646"
      },
      "geometry": {
        "type": "Polygon",
        "coordinates": [
          [
            [
              -46.3445637,
              -23.4665932
            ],
            [
              -46.3442096,
              -23.4668466
            ],
            [
              -46.3437075,
              -23.4663748
            ],
            [
              -46.34439,
              -23.4658132
            ],
            [
              -46.3445047,
              -23.4659313
            ],
            [
              -46.3446281,
              -23.4660568
            ],
            [
              -46.3443303,
              -23.4663176
            ],
            [
              -46.3445637,
              -23.4665932
            ]
          ]
        ]
      }
    },
    {
      "type": "Feature",
      "id": "way/575393659",
      "properties": {
        "timestamp": "2018-04-02T01:26:38Z",
        "version": 1,
        "changeset": 57725971,
        "addr:city": "Itaquaquecetuba",
        "addr:country": "BR",
        "addr:housenumber": "121",
        "addr:postcode": "08598-394",
        "addr:street": "Rua Olavo Bilac",
        "addr:suburb": "Jardim Altos de Itaqua",
        "amenity": "school",
        "email": "emjoaomarques@semecti.com",
        "name": "Escola Municipal Vereador João Marques",
        "operator": "Secretaria Municipal de Educação",
        "phone": "+55 11 4644 3087",
        "id": "way/575393659"
      },
      "geometry": {
        "type": "Polygon",
        "coordinates": [
          [
            [
              -46.3261328,
              -23.4649706
            ],
            [
              -46.3261797,
              -23.465005
            ],
            [
              -46.3261838,
              -23.4650837
            ],
            [
              -46.3259826,
              -23.4655045
            ],
            [
              -46.325355,
              -23.4655734
            ],
            [
              -46.3253686,
              -23.4649533
            ],
            [
              -46.325389,
              -23.46489
            ],
            [
              -46.3254274,
              -23.464882
            ],
            [
              -46.3255588,
              -23.4648845
            ],
            [
              -46.3261328,
              -23.4649706
            ]
          ]
        ]
      }
    },
    {
      "type": "Feature",
      "id": "way/576101268",
      "properties": {
        "timestamp": "2018-04-03T22:52:53Z",
        "version": 1,
        "changeset": 57786957,
        "addr:city": "Itaquaquecetuba",
        "addr:country": "BR",
        "addr:housenumber": "217",
        "addr:postcode": "08598-451",
        "addr:street": "Rua Carlos Mariguela",
        "addr:suburb": "Jardim Odete II",
        "amenity": "school",
        "contact:phone": "+55 11 4647 8358",
        "email": "emruialberto@gmail.com",
        "name": "Escola Municipal Professor Rui Alberto Pestana Henriques",
        "operator": "Secretaria Municipal de Educação",
        "phone": "+55 11 4645 4128",
        "id": "way/576101268"
      },
      "geometry": {
        "type": "Polygon",
        "coordinates": [
          [
            [
              -46.3246943,
              -23.4700588
            ],
            [
              -46.3253273,
              -23.4706911
            ],
            [
              -46.3253166,
              -23.4707379
            ],
            [
              -46.3252308,
              -23.4707551
            ],
            [
              -46.3247077,
              -23.4707969
            ],
            [
              -46.3244234,
              -23.4702925
            ],
            [
              -46.3246943,
              -23.4700588
            ]
          ]
        ]
      }
    },
    {
      "type": "Feature",
      "id": "way/576120492",
      "properties": {
        "timestamp": "2025-01-03T04:44:20Z",
        "version": 2,
        "changeset": 160934154,
        "addr:city": "Itaquaquecetuba",
        "addr:country": "BR",
        "addr:housenumber": "50",
        "addr:postcode": "08597-580",
        "addr:street": "Rua Garibaldi",
        "addr:suburb": "Quinta da Boa Vista",
        "amenity": "school",
        "contact:phone": "+55 11 4645 3716",
        "name": "Escola Municipal Vereador Leolino dos Santos",
        "operator": "Secretaria Municipal da Educação",
        "operator:type": "government",
        "phone": "+55 11 4645 0568",
        "id": "way/576120492"
      },
      "geometry": {
        "type": "Polygon",
        "coordinates": [
          [
            [
              -46.3281588,
              -23.4638835
            ],
            [
              -46.3273273,
              -23.4638245
            ],
            [
              -46.3274185,
              -23.463266
            ],
            [
              -46.3276934,
              -23.4633029
            ],
            [
              -46.3277376,
              -23.4629806
            ],
            [
              -46.3283197,
              -23.4630396
            ],
            [
              -46.3282392,
              -23.4637987
            ],
            [
              -46.328199,
              -23.4638731
            ],
            [
              -46.3281588,
              -23.4638835
            ]
          ]
        ]
      }
    },
    {
      "type": "Feature",
      "id": "way/576845087",
      "properties": {
        "timestamp": "2018-04-13T00:11:47Z",
        "version": 2,
        "changeset": 58050447,
        "addr:city": "Itaquaquecetuba",
        "addr:country": "BR",
        "addr:housenumber": "105",
        "addr:postcode": "08580-400",
        "addr:street": "Rua Paulistânia",
        "addr:suburb": "Jardim Maragogipe",
        "amenity": "school",
        "email": "emvirgiliomarinho@hotmail.com",
        "name": "Escola Municipal Virgílio Marinho",
        "operator": "Secretaria da Educação do Estado de São Paulo",
        "phone": "+55 11 4648 1537",
        "id": "way/576845087"
      },
      "geometry": {
        "type": "Polygon",
        "coordinates": [
          [
            [
              -46.3360171,
              -23.4519905
            ],
            [
              -46.3363819,
              -23.4522317
            ],
            [
              -46.3364596,
              -23.4522907
            ],
            [
              -46.3362854,
              -23.4524507
            ],
            [
              -46.3358803,
              -23.4521431
            ],
            [
              -46.3360171,
              -23.4519905
            ]
          ]
        ]
      }
    },
    {
      "type": "Feature",
      "id": "way/576853589",
      "properties": {
        "timestamp": "2018-04-07T22:29:47Z",
        "version": 2,
        "changeset": 57901985,
        "addr:city": "Itaquaquecetuba",
        "addr:country": "BR",
        "addr:housenumber": "3500",
        "addr:postcode": "08584-584",
        "addr:street": "Avenida Pedro da Cunha Albuquerque Lopes",
        "addr:suburb": "Perobal",
        "amenity": "school",
        "contact:phone": "+55 11 4648 8282",
        "email": "e908642a@educacao.sp.gov.br",
        "name": "Escola Estadual Jardim América",
        "operator": "Secretaria da Educação do Estado de São Paulo",
        "phone": "+55 11 4648 7047",
        "id": "way/576853589"
      },
      "geometry": {
        "type": "Polygon",
        "coordinates": [
          [
            [
              -46.3515551,
              -23.420939
            ],
            [
              -46.3514532,
              -23.4211752
            ],
            [
              -46.351421,
              -23.4211875
            ],
            [
              -46.3514049,
              -23.4211506
            ],
            [
              -46.3513781,
              -23.4211654
            ],
            [
              -46.3511394,
              -23.421094
            ],
            [
              -46.3510348,
              -23.4210817
            ],
            [
              -46.3508122,
              -23.4210596
            ],
            [
              -46.3504957,
              -23.4210226
            ],
            [
              -46.3505305,
              -23.4207322
            ],
            [
              -46.3507076,
              -23.4207347
            ],
            [
              -46.3508122,
              -23.4207667
            ],
            [
              -46.3509972,
              -23.4207593
            ],
            [
              -46.3510992,
              -23.4207618
            ],
            [
              -46.3510992,
              -23.4208208
            ],
            [
              -46.3513325,
              -23.4208651
            ],
            [
              -46.3515551,
              -23.420939
            ]
          ]
        ]
      }
    },
    {
      "type": "Feature",
      "id": "way/591861441",
      "properties": {
        "timestamp": "2018-05-29T16:10:32Z",
        "version": 1,
        "changeset": 59372654,
        "addr:city": "Itaquaquecetuba",
        "addr:housenumber": "2300",
        "addr:street": "Estrada dos Índios",
        "addr:suburb": "Parque Residencial Village",
        "amenity": "school",
        "name": "Escola Municipal Village",
        "id": "way/591861441"
      },
      "geometry": {
        "type": "Polygon",
        "coordinates": [
          [
            [
              -46.3136701,
              -23.4288006
            ],
            [
              -46.3133268,
              -23.4288474
            ],
            [
              -46.3132195,
              -23.4288498
            ],
            [
              -46.3131328,
              -23.4285039
            ],
            [
              -46.313617,
              -23.4284199
            ],
            [
              -46.3136709,
              -23.4285438
            ],
            [
              -46.3137104,
              -23.4287465
            ],
            [
              -46.3136996,
              -23.428776
            ],
            [
              -46.3136701,
              -23.4288006
            ]
          ]
        ]
      }
    },
    {
      "type": "Feature",
      "id": "way/704458801",
      "properties": {
        "timestamp": "2019-07-20T01:43:35Z",
        "version": 2,
        "changeset": 72450158,
        "addr:city": "Itaquaquecetuba SP",
        "addr:street": "Rua Um",
        "addr:suburb": "Jardim Santa Rita II",
        "amenity": "school",
        "id": "way/704458801"
      },
      "geometry": {
        "type": "Polygon",
        "coordinates": [
          [
            [
              -46.3053596,
              -23.485586
            ],
            [
              -46.3048763,
              -23.4856309
            ],
            [
              -46.3047936,
              -23.4846838
            ],
            [
              -46.3049307,
              -23.4846372
            ],
            [
              -46.3053082,
              -23.4850823
            ],
            [
              -46.3053251,
              -23.4851162
            ],
            [
              -46.3053421,
              -23.485362
            ],
            [
              -46.3053596,
              -23.485586
            ]
          ]
        ]
      }
    },
    {
      "type": "Feature",
      "id": "way/715202552",
      "properties": {
        "timestamp": "2020-09-06T00:57:37Z",
        "version": 2,
        "changeset": 90467326,
        "addr:housenumber": "98",
        "addr:postcode": "08583-680",
        "addr:street": "Rua Joaquim Serra",
        "addr:suburb": "Parque Piratininga",
        "amenity": "school",
        "contact:phone": "+55 11 4648 3817",
        "email": "e923953a@educacao.sp.gov.br",
        "name": "Escola Estadual Parque Piratininga III",
        "operator": "Secretaria de Educação do Estado de São Paulo",
        "operator:type": "government",
        "phone": "+55 11 4648 2044",
        "ref": "INEP-35923953",
        "id": "way/715202552"
      },
      "geometry": {
        "type": "Polygon",
        "coordinates": [
          [
            [
              -46.379852,
              -23.4392077
            ],
            [
              -46.379803,
              -23.4394562
            ],
            [
              -46.3787713,
              -23.4392817
            ],
            [
              -46.3788231,
              -23.4390834
            ],
            [
              -46.3790681,
              -23.4391548
            ],
            [
              -46.379218,
              -23.4390147
            ],
            [
              -46.379852,
              -23.4392077
            ]
          ]
        ]
      }
    },
    {
      "type": "Feature",
      "id": "way/844660482",
      "properties": {
        "timestamp": "2024-12-22T10:28:44Z",
        "version": 3,
        "changeset": 160496049,
        "addr:housenumber": "200",
        "addr:postcode": "08581-210",
        "addr:street": "Rua Serra dos Parecis",
        "amenity": "school",
        "contact:phone": "+55 11 4648 2021",
        "email": "e045019A@educacao.sp.gov.br",
        "name": "Escola Estadual Kakunosuke Hasegawa",
        "operator": "Secretaria da Educação do Estado de São Paulo",
        "operator:type": "government",
        "operator:wikidata": "Q10369245",
        "phone": "+55 11 4648 1611",
        "ref:INEP": "35045019",
        "religion": "none",
        "id": "way/844660482"
      },
      "geometry": {
        "type": "Polygon",
        "coordinates": [
          [
            [
              -46.3542737,
              -23.454059
            ],
            [
              -46.3543695,
              -23.4547614
            ],
            [
              -46.3534643,
              -23.454937
            ],
            [
              -46.3534424,
              -23.4548768
            ],
            [
              -46.3535162,
              -23.4543951
            ],
            [
              -46.354003,
              -23.4543299
            ],
            [
              -46.3539811,
              -23.4541092
            ],
            [
              -46.3542737,
              -23.454059
            ]
          ]
        ]
      }
    },
    {
      "type": "Feature",
      "id": "way/844660483",
      "properties": {
        "timestamp": "2024-12-14T21:19:55Z",
        "version": 2,
        "changeset": 160292178,
        "addr:housenumber": "132",
        "addr:postcode": "08581-100",
        "addr:street": "Rua Serra do Espinhaço",
        "amenity": "school",
        "contact:phone": "+55 11 4648 9719",
        "email": "emsebastiaogregorio@semecti.com",
        "grades": "1-7",
        "name": "Escola Municipal Sebastião Gregório dos Santos",
        "phone": "+55 11 4643 1396",
        "ref:INEP": "35078402",
        "religion": "none",
        "id": "way/844660483"
      },
      "geometry": {
        "type": "Polygon",
        "coordinates": [
          [
            [
              -46.3542136,
              -23.453487
            ],
            [
              -46.3542819,
              -23.4540389
            ],
            [
              -46.3539456,
              -23.4541041
            ],
            [
              -46.3539729,
              -23.4543048
            ],
            [
              -46.3535244,
              -23.4543675
            ],
            [
              -46.3537405,
              -23.4533415
            ],
            [
              -46.3537514,
              -23.4533139
            ],
            [
              -46.3537788,
              -23.4532863
            ],
            [
              -46.3538143,
              -23.45329
            ],
            [
              -46.3542136,
              -23.453487
            ]
          ]
        ]
      }
    },
    {
      "type": "Feature",
      "id": "way/844665283",
      "properties": {
        "timestamp": "2024-12-14T21:34:31Z",
        "version": 3,
        "changeset": 160292543,
        "addr:housenumber": "22",
        "addr:postcode": "08582-710",
        "addr:street": "Rua Edivaldo Austino de Souza",
        "addr:suburb": "Jardim Maria Rosa",
        "amenity": "school",
        "email": "crecheoliviocesar@semecti.com",
        "grades": "0-6",
        "name": "Unidade de Educação Básica Olívio César de Paulo Silva",
        "phone": "+55 11 4649 2800",
        "ref:INEP": "35578071",
        "id": "way/844665283"
      },
      "geometry": {
        "type": "Polygon",
        "coordinates": [
          [
            [
              -46.3696065,
              -23.4463238
            ],
            [
              -46.369172,
              -23.4464985
            ],
            [
              -46.3690003,
              -23.4461171
            ],
            [
              -46.3689949,
              -23.4460876
            ],
            [
              -46.3690513,
              -23.4460408
            ],
            [
              -46.3693678,
              -23.4459818
            ],
            [
              -46.3694107,
              -23.4459941
            ],
            [
              -46.3694455,
              -23.4460113
            ],
            [
              -46.3694885,
              -23.4460507
            ],
            [
              -46.3696065,
              -23.4463238
            ]
          ]
        ]
      }
    },
    {
      "type": "Feature",
      "id": "way/1069105977",
      "properties": {
        "timestamp": "2022-06-13T01:26:59Z",
        "version": 1,
        "changeset": 122301989,
        "addr:housenumber": "665",
        "addr:postcode": "08583-370",
        "addr:street": "Estrada Agua Chata",
        "addr:suburb": "Parque Piratininga",
        "amenity": "school",
        "name": "Escola Municipal Professora Olívia Aparecida da Silva Costa Guglielmo",
        "phone": "+55 11 4649 9493",
        "ref": "INEP-35078414",
        "religion": "none",
        "short_name": "EMEB Professora Olívia Aparecida da Silva Costa Guglielmo",
        "source": "CADMEC 2017",
        "id": "way/1069105977"
      },
      "geometry": {
        "type": "Polygon",
        "coordinates": [
          [
            [
              -46.3832256,
              -23.4367406
            ],
            [
              -46.3832338,
              -23.4371494
            ],
            [
              -46.3830523,
              -23.4372238
            ],
            [
              -46.3828942,
              -23.4369992
            ],
            [
              -46.3827759,
              -23.4367558
            ],
            [
              -46.3832256,
              -23.4367406
            ]
          ]
        ]
      }
    },
    {
      "type": "Feature",
      "id": "way/1299593280",
      "properties": {
        "timestamp": "2024-07-06T21:00:39Z",
        "version": 3,
        "changeset": 153639551,
        "addr:housenumber": "6468",
        "addr:street": "Rodovia Alberto Hinoto",
        "amenity": "school",
        "building": "residential",
        "name": "Colégio Dó Ré Mi",
        "id": "way/1299593280"
      },
      "geometry": {
        "type": "Polygon",
        "coordinates": [
          [
            [
              -46.3255091,
              -23.4380833
            ],
            [
              -46.3256539,
              -23.4381342
            ],
            [
              -46.325603,
              -23.4382656
            ],
            [
              -46.3254544,
              -23.4382211
            ],
            [
              -46.3255091,
              -23.4380833
            ]
          ]
        ]
      }
    },
    {
      "type": "Feature",
      "id": "way/1299856856",
      "properties": {
        "timestamp": "2024-07-07T19:24:04Z",
        "version": 1,
        "changeset": 153675710,
        "addr:street": "Avenida Pedro de Toledo",
        "amenity": "school",
        "id": "way/1299856856"
      },
      "geometry": {
        "type": "Polygon",
        "coordinates": [
          [
            [
              -46.3188414,
              -23.4362381
            ],
            [
              -46.3190167,
              -23.4364438
            ],
            [
              -46.3185654,
              -23.4368606
            ],
            [
              -46.3183555,
              -23.4366628
            ],
            [
              -46.3188414,
              -23.4362381
            ]
          ]
        ]
      }
    },
    {
      "type": "Feature",
      "id": "way/1299856857",
      "properties": {
        "timestamp": "2024-07-07T19:24:04Z",
        "version": 1,
        "changeset": 153675710,
        "amenity": "school",
        "id": "way/1299856857"
      },
      "geometry": {
        "type": "Polygon",
        "coordinates": [
          [
            [
              -46.3181169,
              -23.4369423
            ],
            [
              -46.3182894,
              -23.4371059
            ],
            [
              -46.3178611,
              -23.4374778
            ],
            [
              -46.3176943,
              -23.4373063
            ],
            [
              -46.3181169,
              -23.4369423
            ]
          ]
        ]
      }
    },
    {
      "type": "Feature",
      "id": "way/1301826173",
      "properties": {
        "timestamp": "2024-07-16T19:58:54Z",
        "version": 2,
        "changeset": 154031229,
        "addr:housenumber": "1386",
        "addr:street": "Avenida Ítalo Adami",
        "addr:suburb": "Vila Zeferina",
        "amenity": "school",
        "contact:facebook": "https://pt-br.facebook.com/colegioitaqua/",
        "mobile": "+55 11 97653 4479",
        "name": "Colégio Itaquá",
        "phone": "+55 11 4647 0763",
        "website": "https://www.colegioitaqua.com.br/",
        "id": "way/1301826173"
      },
      "geometry": {
        "type": "Polygon",
        "coordinates": [
          [
            [
              -46.3492216,
              -23.4921475
            ],
            [
              -46.3492014,
              -23.4923531
            ],
            [
              -46.3486264,
              -23.4922999
            ],
            [
              -46.3486035,
              -23.4922978
            ],
            [
              -46.3486437,
              -23.4920895
            ],
            [
              -46.3492216,
              -23.4921475
            ]
          ]
        ]
      }
    },
    {
      "type": "Feature",
      "id": "way/1303735381",
      "properties": {
        "timestamp": "2024-07-25T16:47:08Z",
        "version": 1,
        "changeset": 154403355,
        "amenity": "school",
        "id": "way/1303735381"
      },
      "geometry": {
        "type": "Polygon",
        "coordinates": [
          [
            [
              -46.3550271,
              -23.4732506
            ],
            [
              -46.3551451,
              -23.4733294
            ],
            [
              -46.355247,
              -23.4735532
            ],
            [
              -46.3553329,
              -23.4738805
            ],
            [
              -46.3552926,
              -23.4740256
            ],
            [
              -46.3552095,
              -23.4740084
            ],
            [
              -46.3550995,
              -23.4742077
            ],
            [
              -46.3549332,
              -23.4742347
            ],
            [
              -46.3545792,
              -23.4740502
            ],
            [
              -46.3549064,
              -23.4735877
            ],
            [
              -46.3548179,
              -23.4735385
            ],
            [
              -46.3549091,
              -23.4734475
            ],
            [
              -46.3550271,
              -23.4732506
            ]
          ]
        ]
      }
    },
    {
      "type": "Feature",
      "id": "node/2289386096",
      "properties": {
        "timestamp": "2018-03-11T18:47:16Z",
        "version": 2,
        "changeset": 57090501,
        "addr:city": "Itaquaquecetuba",
        "amenity": "school",
        "name": "Colégio Sentido Obrigatório",
        "id": "node/2289386096"
      },
      "geometry": {
        "type": "Point",
        "coordinates": [
          -46.3480769,
          -23.4901055
        ]
      }
    },
    {
      "type": "Feature",
      "id": "node/2289391830",
      "properties": {
        "timestamp": "2018-03-14T20:28:10Z",
        "version": 2,
        "changeset": 57189902,
        "addr:city": "Itaquaquecetuba",
        "addr:street": "Avenida Emancipação",
        "addr:suburb": "Centro",
        "amenity": "school",
        "name": "Macro Byte",
        "id": "node/2289391830"
      },
      "geometry": {
        "type": "Point",
        "coordinates": [
          -46.3532562,
          -23.4792372
        ]
      }
    },
    {
      "type": "Feature",
      "id": "node/5532326350",
      "properties": {
        "timestamp": "2018-04-06T02:26:28Z",
        "version": 1,
        "changeset": 57851636,
        "addr:city": "Itaquaquecetuba",
        "addr:country": "BR",
        "addr:housenumber": "208",
        "addr:postcode": "08598-740",
        "addr:street": "Rua Zaire",
        "addr:suburb": "Jardim Adriane",
        "amenity": "school",
        "contact:phone": "+55 11 4645 9910",
        "email": "pedaguIIitaqua@fundacaocasa.sp.gov.br",
        "name": "Escola Estadual Centro Atendimento Socioeducativo ao Adolescentente Terra Nova C1",
        "operator": "Secretaria da Educação do Estado de São Paulo",
        "phone": "+55 11 4645 2412",
        "id": "node/5532326350"
      },
      "geometry": {
        "type": "Point",
        "coordinates": [
          -46.323769,
          -23.4729363
        ]
      }
    }
  ]
}
