{
  "type": "FeatureCollection",
  "features": [
    {
      "type": "Feature",
      "id": "way/568796390",
      "properties": {
        "timestamp": "2024-07-06T01:40:31Z",
        "version": 4,
        "changeset": 153608772,
        "addr:city": "Itaquaquecetuba",
        "addr:housenumber": "251",
        "addr:street": "Avenida Uberaba",
        "addr:suburb": "Vila Virginia",
        "alt_name": "UNG universidade",
        "amenity": "university",
        "internet_access": "wlan",
        "internet_access:fee": "customers",
        "name": "Univeritas - Universidade Universus Veritas",
        "operator": "Grupo Ser Educacional",
        "operator:type": "private",
        "website": "https://www.univeritas.com/institucional/itaquaquecetuba",
        "id": "way/568796390"
      },
      "geometry": {
        "type": "Polygon",
        "coordinates": [
          [
            [
              -46.3502092,
              -23.4884468
            ],
            [
              -46.3495225,
              -23.4889068
            ],
            [
              -46.3492328,
              -23.4885403
            ],
            [
              -46.34943,
              -23.4883878
            ],
            [
              -46.3493301,
              -23.4882303
            ],
            [
              -46.3494233,
              -23.4881713
            ],
            [
              -46.3495641,
              -23.4883017
            ],
            [
              -46.3498846,
              -23.4880754
            ],
            [
              -46.3499973,
              -23.4881922
            ],
            [
              -46.3502092,
              -23.4884468
            ]
          ]
        ]
      }
    },
    {
      "type": "Feature",
      "id": "way/1099427404",
      "properties": {
        "timestamp": "2022-09-30T20:16:51Z",
        "version": 2,
        "changeset": 126839274,
        "addr:city": "Itaquaquecetuba",
        "addr:housenumber": "500",
        "addr:postcode": "08571050",
        "addr:street": "Rua Primeiro de Maio",
        "addr:suburb": "Estação",
        "amenity": "university",
        "internet_access": "wlan",
        "internet_access:fee": "customers",
        "name": "Instituto Federal de São Paulo - Câmpus Itaquaquecetuba",
        "name:pt": "IFSP - Câmpus Itaquaquecetuba",
        "website": "https://itq.ifsp.edu.br",
        "wheelchair": "yes",
        "id": "way/1099427404"
      },
      "geometry": {
        "type": "Polygon",
        "coordinates": [
          [
            [
              -46.3441409,
              -23.4852194
            ],
            [
              -46.3440313,
              -23.4862369
            ],
            [
              -46.3416554,
              -23.4860753
            ],
            [
              -46.3417411,
              -23.4851058
            ],
            [
              -46.3441409,
              -23.4852194
            ]
          ]
        ]
      }
    },
    {
      "type": "Feature",
      "id": "node/10065184888",
      "properties": {
        "timestamp": "2022-09-30T19:59:25Z",
        "version": 1,
        "changeset": 126838753,
        "addr:city": "Itaquaquecetuba",
        "addr:housenumber": "500",
        "addr:postcode": "08571050",
        "addr:street": "Rua Primeiro de Maio",
        "addr:suburb": "Estação",
        "amenity": "university",
        "internet_access": "wlan",
        "internet_access:fee": "customers",
        "name": "Instituto Federal de São Paulo - Câmpus Itaquaquecetuba",
        "name:pt": "IFSP - Câmpus Itaquaquecetuba",
        "website": "https://itq.ifsp.edu.br",
        "wheelchair": "yes",
        "id": "node/10065184888"
      },
      "geometry": {
        "type": "Point",
        "coordinates": [
          -46.3434925,
          -23.4857284
        ]
      }
    }
  ]
}
