{
  "type": "FeatureCollection",
  "features": [
    {
      "type": "Feature",
      "id": "way/492903947",
      "properties": {
        "timestamp": "2017-05-12T03:24:59Z",
        "version": 1,
        "changeset": 48609958,
        "addr:city": "São Francisco de Paula",
        "addr:housenumber": "752",
        "addr:postcode": "95400-000",
        "addr:street": "Avenida Júlio de Castilhos",
        "addr:suburb": "Centro",
        "amenity": "pharmacy",
        "building": "yes",
        "name": "São José",
        "id": "way/492903947"
      },
      "geometry": {
        "type": "Polygon",
        "coordinates": [
          [
            [
              -50.5803648,
              -29.4445391
            ],
            [
              -50.5802714,
              -29.444568
            ],
            [
              -50.5802682,
              -29.4445515
            ],
            [
              -50.5802223,
              -29.4445694
            ],
            [
              -50.5802128,
              -29.4445377
            ],
            [
              -50.5801827,
              -29.444546
            ],
            [
              -50.5801589,
              -29.4444743
            ],
            [
              -50.5801827,
              -29.444466
            ],
            [
              -50.58017,
              -29.4444356
            ],
            [
              -50.5803094,
              -29.4443929
            ],
            [
              -50.5803648,
              -29.4445391
            ]
          ]
        ]
      }
    },
    {
      "type": "Feature",
      "id": "node/4848721932",
      "properties": {
        "timestamp": "2017-08-09T02:46:47Z",
        "version": 2,
        "changeset": 50958656,
        "addr:city": "São Francisco de Paula",
        "addr:housenumber": "587",
        "addr:postcode": "95400-000",
        "addr:street": "Avenida Júlio de Castilhos",
        "addr:suburb": "Centro",
        "amenity": "pharmacy",
        "name": "Sanar",
        "id": "node/4848721932"
      },
      "geometry": {
        "type": "Point",
        "coordinates": [
          -50.5813365,
          -29.4460144
        ]
      }
    },
    {
      "type": "Feature",
      "id": "node/4848721937",
      "properties": {
        "timestamp": "2017-05-12T03:24:51Z",
        "version": 1,
        "changeset": 48609958,
        "addr:city": "São Francisco de Paula",
        "addr:housenumber": "530",
        "addr:postcode": "95400-000",
        "addr:street": "Avenida Júlio de Castilhos",
        "addr:suburb": "Centro",
        "amenity": "pharmacy",
        "name": "Agafarma",
        "id": "node/4848721937"
      },
      "geometry": {
        "type": "Point",
        "coordinates": [
          -50.5810796,
          -29.4464703
        ]
      }
    },
    {
      "type": "Feature",
      "id": "node/4848721942",
      "properties": {
        "timestamp": "2017-05-12T03:24:52Z",
        "version": 1,
        "changeset": 48609958,
        "addr:city": "São Francisco de Paula",
        "addr:housenumber": "341",
        "addr:postcode": "95400-000",
        "addr:street": "Avenida Júlio de Castilhos",
        "addr:suburb": "Centro",
        "amenity": "pharmacy",
        "name": "São João",
        "id": "node/4848721942"
      },
      "geometry": {
        "type": "Point",
        "coordinates": [
          -50.5820535,
          -29.4479509
        ]
      }
    },
    {
      "type": "Feature",
      "id": "node/4848824505",
      "properties": {
        "timestamp": "2017-05-12T04:39:52Z",
        "version": 1,
        "changeset": 48610912,
        "addr:city": "São Francisco de Paula",
        "addr:housenumber": "40",
        "addr:postcode": "95400-000",
        "addr:street": "Rua Pinheiro Machado",
        "addr:suburb": "Centro",
        "amenity": "pharmacy",
        "name": "São João",
        "id": "node/4848824505"
      },
      "geometry": {
        "type": "Point",
        "coordinates": [
          -50.5793171,
          -29.4463678
        ]
      }
    },
    {
      "type": "Feature",
      "id": "node/4848824506",
      "properties": {
        "timestamp": "2017-05-12T04:39:53Z",
        "version": 1,
        "changeset": 48610912,
        "addr:city": "São Francisco de Paula",
        "addr:housenumber": "292",
        "addr:postcode": "95400-000",
        "addr:street": "Avenida Júlio de Castilhos",
        "addr:suburb": "Centro",
        "amenity": "pharmacy",
        "name": "Ekilíbiro",
        "id": "node/4848824506"
      },
      "geometry": {
        "type": "Point",
        "coordinates": [
          -50.5818332,
          -29.4485011
        ]
      }
    },
    {
      "type": "Feature",
      "id": "node/5016624380",
      "properties": {
        "timestamp": "2017-08-05T15:49:31Z",
        "version": 1,
        "changeset": 50865834,
        "addr:city": "São Francisco de Paula",
        "addr:housenumber": "705",
        "addr:postcode": "95400-000",
        "addr:street": "Avenida Júlio de Castilhos",
        "addr:suburb": "Centro",
        "amenity": "pharmacy",
        "name": "Tchê Farmácias",
        "id": "node/5016624380"
      },
      "geometry": {
        "type": "Point",
        "coordinates": [
          -50.5808935,
          -29.4448477
        ]
      }
    }
  ]
}
