{
  "type": "FeatureCollection",
  "features": [
    {
      "type": "Feature",
      "id": "way/394994927",
      "properties": {
        "timestamp": "2016-01-30T23:45:45Z",
        "version": 2,
        "changeset": 36908083,
        "addr:housenumber": "45",
        "addr:street": "Rua Osamu Shiota",
        "addr:suburb": "Granada 1",
        "amenity": "clinic",
        "building": "yes",
        "name": "UBS Doutor Juan Alejandro Yugar Lopez",
        "id": "way/394994927"
      },
      "geometry": {
        "type": "Polygon",
        "coordinates": [
          [
            [
              -49.3232934,
              -20.5425397
            ],
            [
              -49.3233174,
              -20.5425568
            ],
            [
              -49.3232919,
              -20.5425881
            ],
            [
              -49.3232679,
              -20.542571
            ],
            [
              -49.3232547,
              -20.5425873
            ],
            [
              -49.3232183,
              -20.5425614
            ],
            [
              -49.3232134,
              -20.5425675
            ],
            [
              -49.3230742,
              -20.5424683
            ],
            [
              -49.3231244,
              -20.5424066
            ],
            [
              -49.3232999,
              -20.5425316
            ],
            [
              -49.3232934,
              -20.5425397
            ]
          ]
        ]
      }
    },
    {
      "type": "Feature",
      "id": "way/498672600",
      "properties": {
        "timestamp": "2021-05-13T17:59:12Z",
        "version": 2,
        "changeset": 104652737,
        "addr:city": "Nova Granada",
        "addr:street": "Avenida 7 de Setembro",
        "amenity": "clinic",
        "building": "public",
        "healthcare": "clinic",
        "healthcare:speciality": "general",
        "name": "Estratégia Saúde da Família",
        "operator": "Prefeitura Municipal",
        "id": "way/498672600"
      },
      "geometry": {
        "type": "Polygon",
        "coordinates": [
          [
            [
              -49.3127478,
              -20.5265612
            ],
            [
              -49.3127327,
              -20.5265796
            ],
            [
              -49.312684,
              -20.5265446
            ],
            [
              -49.3126987,
              -20.5265267
            ],
            [
              -49.3126677,
              -20.5265049
            ],
            [
              -49.3127804,
              -20.5263644
            ],
            [
              -49.3128622,
              -20.5264219
            ],
            [
              -49.3127824,
              -20.5265213
            ],
            [
              -49.3127982,
              -20.5265325
            ],
            [
              -49.3127653,
              -20.5265735
            ],
            [
              -49.3127478,
              -20.5265612
            ]
          ]
        ]
      }
    },
    {
      "type": "Feature",
      "id": "node/2876782495",
      "properties": {
        "timestamp": "2023-08-08T00:03:06Z",
        "version": 5,
        "changeset": 139587229,
        "addr:city": "Nova Granada",
        "addr:housenumber": "513",
        "addr:postcode": "15440-000",
        "addr:street": "Rua Jacinto Ruiz Garcia",
        "addr:suburb": "Centro",
        "amenity": "clinic",
        "healthcare": "clinic",
        "name": "Posto de Saúde de Nova Granada",
        "operator:ref:vatin": "BR45147733000191",
        "ref:CNES": "2038129",
        "id": "node/2876782495"
      },
      "geometry": {
        "type": "Point",
        "coordinates": [
          -49.3191183,
          -20.534713
        ]
      }
    },
    {
      "type": "Feature",
      "id": "node/2889773334",
      "properties": {
        "timestamp": "2022-11-26T20:34:00Z",
        "version": 3,
        "changeset": 129414824,
        "amenity": "clinic",
        "building": "public",
        "healthcare": "clinic",
        "name": "Posto de Saúde de Onda Branca",
        "operator": "Prefeitura Municipal",
        "id": "node/2889773334"
      },
      "geometry": {
        "type": "Point",
        "coordinates": [
          -49.384833,
          -20.4629087
        ]
      }
    },
    {
      "type": "Feature",
      "id": "node/3067429007",
      "properties": {
        "timestamp": "2016-01-31T11:51:08Z",
        "version": 3,
        "changeset": 36914631,
        "addr:city": "Nova Granada",
        "addr:housenumber": "40",
        "addr:postcode": "15440-000",
        "addr:street": "Avenida Osterno Nogueira Franco",
        "amenity": "clinic",
        "name": "Clinica São Marcos",
        "id": "node/3067429007"
      },
      "geometry": {
        "type": "Point",
        "coordinates": [
          -49.3213869,
          -20.5323605
        ]
      }
    },
    {
      "type": "Feature",
      "id": "node/3339569779",
      "properties": {
        "timestamp": "2023-08-08T00:03:06Z",
        "version": 5,
        "changeset": 139587229,
        "addr:city": "Nova Granada",
        "addr:housenumber": "1013",
        "addr:postcode": "15440-000",
        "addr:street": "Avenida Doutor Hildeberto Albuquerque Ferreira",
        "amenity": "clinic",
        "healthcare": "clinic",
        "name": "Clinica Médica Integrada",
        "ref:CNES": "7416261",
        "ref:vatin": "BR18085644000195",
        "id": "node/3339569779"
      },
      "geometry": {
        "type": "Point",
        "coordinates": [
          -49.3198288,
          -20.5348275
        ]
      }
    },
    {
      "type": "Feature",
      "id": "node/3609445651",
      "properties": {
        "timestamp": "2023-08-08T00:03:06Z",
        "version": 2,
        "changeset": 139587229,
        "addr:city": "Nova Granada",
        "addr:housenumber": "667",
        "addr:postcode": "15440-000",
        "addr:street": "Rua Francisco dos Santos",
        "addr:suburb": "Centro",
        "amenity": "clinic",
        "healthcare": "clinic",
        "name": "Clínica Saúde",
        "phone": "+55 17 3262-1043",
        "ref:CNES": "6587917",
        "id": "node/3609445651"
      },
      "geometry": {
        "type": "Point",
        "coordinates": [
          -49.3180657,
          -20.5312755
        ]
      }
    },
    {
      "type": "Feature",
      "id": "node/3641502752",
      "properties": {
        "timestamp": "2023-08-08T00:03:06Z",
        "version": 2,
        "changeset": 139587229,
        "addr:city": "Nova Granada",
        "addr:housenumber": "809",
        "addr:postcode": "15440-000",
        "addr:street": "Avenida Sete de Setembro",
        "addr:suburb": "Centro",
        "amenity": "clinic",
        "healthcare": "clinic",
        "name": "Clínica Bella Vita",
        "phone": "+55 17 3262 1962",
        "ref:CNES": "6827365",
        "ref:vatin": "BR13843093000168",
        "id": "node/3641502752"
      },
      "geometry": {
        "type": "Point",
        "coordinates": [
          -49.3185936,
          -20.5316923
        ]
      }
    }
  ]
}
