{
  "type": "FeatureCollection",
  "features": [
    {
      "type": "Feature",
      "id": "way/374972421",
      "properties": {
        "timestamp": "2019-10-15T23:51:48Z",
        "version": 4,
        "changeset": 75747255,
        "addr:city": "Nova Granada",
        "addr:housenumber": "867",
        "addr:street": "Avenida Doutor Hildeberto Albuquerque Ferreira",
        "addr:suburb": "Centro",
        "building": "public",
        "government": "register_office",
        "name": "Cartório de Registro Civil",
        "office": "government",
        "phone": "+55 17 3262 1041",
        "id": "way/374972421"
      },
      "geometry": {
        "type": "Polygon",
        "coordinates": [
          [
            [
              -49.317253,
              -20.5329071
            ],
            [
              -49.3173181,
              -20.5329552
            ],
            [
              -49.3171997,
              -20.5330955
            ],
            [
              -49.3171347,
              -20.5330474
            ],
            [
              -49.317253,
              -20.5329071
            ]
          ]
        ]
      }
    },
    {
      "type": "Feature",
      "id": "way/388921017",
      "properties": {
        "timestamp": "2019-09-09T01:29:54Z",
        "version": 2,
        "changeset": 74239429,
        "addr:housenumber": "516",
        "addr:street": "Rua Jansen de Melo",
        "building": "yes",
        "government": "register_office",
        "name": "Cartório Eleitoral",
        "office": "government",
        "phone": "+55 17 3262 1988",
        "id": "way/388921017"
      },
      "geometry": {
        "type": "Polygon",
        "coordinates": [
          [
            [
              -49.3181358,
              -20.5339823
            ],
            [
              -49.3180949,
              -20.5340343
            ],
            [
              -49.3180689,
              -20.5340168
            ],
            [
              -49.3180581,
              -20.5340299
            ],
            [
              -49.3180374,
              -20.5340143
            ],
            [
              -49.3180294,
              -20.5340224
            ],
            [
              -49.3179524,
              -20.533966
            ],
            [
              -49.3180133,
              -20.5338933
            ],
            [
              -49.3181358,
              -20.5339823
            ]
          ]
        ]
      }
    },
    {
      "type": "Feature",
      "id": "way/902418582",
      "properties": {
        "timestamp": "2021-01-31T20:25:40Z",
        "version": 1,
        "changeset": 98465430,
        "addr:city": "Nova Granada",
        "addr:housenumber": "1067",
        "addr:postcode": "15440-000",
        "addr:street": "Avenida Adolfo Rodrigues",
        "addr:suburb": "Centro",
        "building": "public",
        "government": "legislative",
        "name": "Câmara Municipal",
        "office": "government",
        "phone": "+55 17 3262-3658",
        "id": "way/902418582"
      },
      "geometry": {
        "type": "Polygon",
        "coordinates": [
          [
            [
              -49.320992,
              -20.5345032
            ],
            [
              -49.3208404,
              -20.5346819
            ],
            [
              -49.3207569,
              -20.5346197
            ],
            [
              -49.3209085,
              -20.5344411
            ],
            [
              -49.320992,
              -20.5345032
            ]
          ]
        ]
      }
    },
    {
      "type": "Feature",
      "id": "node/3316824215",
      "properties": {
        "timestamp": "2020-05-28T20:50:07Z",
        "version": 3,
        "changeset": 85908398,
        "addr:city": "Nova Granada",
        "addr:housenumber": "467",
        "addr:street": "Rua Quinze de Novembro",
        "government": "administrative",
        "name": "Casa da Agricultura",
        "office": "government",
        "id": "node/3316824215"
      },
      "geometry": {
        "type": "Point",
        "coordinates": [
          -49.3169993,
          -20.5341444
        ]
      }
    },
    {
      "type": "Feature",
      "id": "node/3669341981",
      "properties": {
        "timestamp": "2020-05-28T20:50:07Z",
        "version": 3,
        "changeset": 85908398,
        "addr:city": "Nova Granada",
        "addr:postcode": "15440-000",
        "addr:street": "Rua XV de Novembro",
        "government": "administrative",
        "name": "Posto de Atendimento ao Trabalhador",
        "office": "government",
        "short_name": "P A T",
        "id": "node/3669341981"
      },
      "geometry": {
        "type": "Point",
        "coordinates": [
          -49.3166833,
          -20.5345685
        ]
      }
    },
    {
      "type": "Feature",
      "id": "node/3669341982",
      "properties": {
        "timestamp": "2020-05-28T20:50:07Z",
        "version": 3,
        "changeset": 85908398,
        "addr:city": "Nova Granada",
        "addr:postcode": "15440-000",
        "addr:street": "Rua Quinze de Novembro",
        "addr:suburb": "Centro",
        "government": "administrative",
        "name": "Junta do Serviço Militar",
        "office": "government",
        "id": "node/3669341982"
      },
      "geometry": {
        "type": "Point",
        "coordinates": [
          -49.316634,
          -20.5346233
        ]
      }
    },
    {
      "type": "Feature",
      "id": "node/5347679159",
      "properties": {
        "timestamp": "2021-07-20T17:41:03Z",
        "version": 3,
        "changeset": 108332510,
        "addr:city": "Nova Granada",
        "addr:housenumber": "870",
        "addr:street": "Avenida Adolfo Rodrigues",
        "addr:suburb": "Centro",
        "government": "county",
        "name": "Ganha Tempo",
        "office": "government",
        "operator": "Prefeitura Municipal",
        "id": "node/5347679159"
      },
      "geometry": {
        "type": "Point",
        "coordinates": [
          -49.3180192,
          -20.5321856
        ]
      }
    }
  ]
}
