{
  "type": "FeatureCollection",
  "features": [
    {
      "type": "Feature",
      "id": "way/364683060",
      "properties": {
        "timestamp": "2020-05-31T20:24:49Z",
        "version": 4,
        "changeset": 86020547,
        "addr:city": "Nova Granada",
        "addr:housenumber": "100",
        "addr:postcode": "15440-000",
        "addr:street": "Rua Carlos Cassavia",
        "addr:suburb": "Vila Bela",
        "amenity": "kindergarten",
        "name": "Emei César Monteiro",
        "official_name": "Escola Municipal de Ensino Infantil César Monteiro",
        "phone": "+55 17 3262-2046",
        "id": "way/364683060"
      },
      "geometry": {
        "type": "Polygon",
        "coordinates": [
          [
            [
              -49.3221115,
              -20.5505728
            ],
            [
              -49.3220994,
              -20.5512937
            ],
            [
              -49.3217228,
              -20.5512886
            ],
            [
              -49.3217337,
              -20.5505677
            ],
            [
              -49.3221115,
              -20.5505728
            ]
          ]
        ]
      }
    },
    {
      "type": "Feature",
      "id": "way/389024308",
      "properties": {
        "timestamp": "2020-05-31T20:24:49Z",
        "version": 3,
        "changeset": 86020547,
        "addr:housenumber": "62",
        "addr:postcode": "15440-000",
        "addr:street": "Rua José Alves Anchieta",
        "addr:suburb": "Bairro Manoel Blanco de Oliveira",
        "amenity": "kindergarten",
        "building": "kindergarten",
        "name": "EMEI Neli Calil",
        "operator": "Prefeitura Municipal",
        "phone": "+55 17 3262 3519",
        "wheelchair": "yes",
        "id": "way/389024308"
      },
      "geometry": {
        "type": "Polygon",
        "coordinates": [
          [
            [
              -49.3218835,
              -20.5422894
            ],
            [
              -49.3219391,
              -20.5424429
            ],
            [
              -49.3217828,
              -20.5424926
            ],
            [
              -49.3217272,
              -20.5423391
            ],
            [
              -49.3218835,
              -20.5422894
            ]
          ]
        ]
      }
    },
    {
      "type": "Feature",
      "id": "way/810314429",
      "properties": {
        "timestamp": "2020-05-31T20:24:49Z",
        "version": 1,
        "changeset": 86020547,
        "addr:city": "Nova Granada",
        "addr:housenumber": "115",
        "addr:street": "Rua Maria Rosa Nascimento",
        "addr:suburb": "Loteamento Sebastião Correa da Cunha",
        "amenity": "kindergarten",
        "name": "Emei Parque das Américas",
        "operator": "Prefeitura Municipal",
        "phone": "+55 17 3261-2592",
        "wheelchair": "yes",
        "id": "way/810314429"
      },
      "geometry": {
        "type": "Polygon",
        "coordinates": [
          [
            [
              -49.3280165,
              -20.5320142
            ],
            [
              -49.3277161,
              -20.5321599
            ],
            [
              -49.3275525,
              -20.5317253
            ],
            [
              -49.3275552,
              -20.5316851
            ],
            [
              -49.3275645,
              -20.5316575
            ],
            [
              -49.3275994,
              -20.5316223
            ],
            [
              -49.3280165,
              -20.5320142
            ]
          ]
        ]
      }
    },
    {
      "type": "Feature",
      "id": "node/3316824216",
      "properties": {
        "timestamp": "2018-11-02T19:40:59Z",
        "version": 2,
        "changeset": 64125515,
        "addr:city": "Nova Granada",
        "addr:housenumber": "451",
        "addr:street": "Rua Quinze de Novembro",
        "amenity": "kindergarten",
        "name": "Casa da Criança Lar de Nazaré",
        "operator": "Prefeitura",
        "id": "node/3316824216"
      },
      "geometry": {
        "type": "Point",
        "coordinates": [
          -49.3167254,
          -20.5345169
        ]
      }
    },
    {
      "type": "Feature",
      "id": "node/3669341979",
      "properties": {
        "timestamp": "2021-05-13T17:59:12Z",
        "version": 5,
        "changeset": 104652737,
        "addr:housenumber": "440",
        "addr:street": "Avenida Sete de Setembro",
        "amenity": "kindergarten",
        "name": "Creche José Aidar",
        "operator": "Prefeitura Municipal",
        "phone": "+55 17 3262 1107",
        "id": "node/3669341979"
      },
      "geometry": {
        "type": "Point",
        "coordinates": [
          -49.3123119,
          -20.5269731
        ]
      }
    }
  ]
}
