{
  "type": "FeatureCollection",
  "features": [
    {
      "type": "Feature",
      "id": "way/740553529",
      "properties": {
        "timestamp": "2019-10-31T00:28:32Z",
        "version": 1,
        "changeset": 76419197,
        "addr:city": "Nova Granada",
        "addr:housenumber": "1290",
        "addr:street": "Avenida Doutor Hildeberto Albuquerque Ferreira",
        "addr:suburb": "Centro",
        "amenity": "pharmacy",
        "building": "commercial",
        "name": "Drogaria São Miguel",
        "phone": "+55 17 3262-0650",
        "id": "way/740553529"
      },
      "geometry": {
        "type": "Polygon",
        "coordinates": [
          [
            [
              -49.3240906,
              -20.5377106
            ],
            [
              -49.3240375,
              -20.5376684
            ],
            [
              -49.3240947,
              -20.5376053
            ],
            [
              -49.3241601,
              -20.5376573
            ],
            [
              -49.3241151,
              -20.5377069
            ],
            [
              -49.3240906,
              -20.5377106
            ]
          ]
        ]
      }
    },
    {
      "type": "Feature",
      "id": "way/740553531",
      "properties": {
        "timestamp": "2019-10-31T00:28:32Z",
        "version": 1,
        "changeset": 76419197,
        "addr:city": "Nova Granada",
        "addr:housenumber": "800",
        "addr:street": "Rua Theóphilo Mansur",
        "addr:suburb": "Centro",
        "amenity": "pharmacy",
        "building": "commercial",
        "name": "Farma Nova",
        "wheelchair": "yes",
        "id": "way/740553531"
      },
      "geometry": {
        "type": "Polygon",
        "coordinates": [
          [
            [
              -49.3165503,
              -20.5300424
            ],
            [
              -49.3165034,
              -20.5300117
            ],
            [
              -49.3165803,
              -20.5299084
            ],
            [
              -49.316643,
              -20.5299493
            ],
            [
              -49.3165754,
              -20.5300401
            ],
            [
              -49.3165503,
              -20.5300424
            ]
          ]
        ]
      }
    },
    {
      "type": "Feature",
      "id": "node/2770105926",
      "properties": {
        "timestamp": "2018-11-02T19:40:54Z",
        "version": 5,
        "changeset": 64125515,
        "addr:city": "Nova Granada",
        "addr:housenumber": "900",
        "addr:postcode": "15440-000",
        "addr:street": "Avenida Adolfo Rodrigues",
        "addr:suburb": "Centro",
        "amenity": "pharmacy",
        "name": "Drogaria Simoni",
        "id": "node/2770105926"
      },
      "geometry": {
        "type": "Point",
        "coordinates": [
          -49.3184228,
          -20.532492
        ]
      }
    },
    {
      "type": "Feature",
      "id": "node/2770105932",
      "properties": {
        "timestamp": "2018-11-02T19:40:54Z",
        "version": 3,
        "changeset": 64125515,
        "addr:city": "Nova Granada",
        "addr:housenumber": "970",
        "addr:postcode": "15440-000",
        "addr:street": "Avenida Adolfo Rodrigues",
        "addr:suburb": "Centro",
        "amenity": "pharmacy",
        "name": "Drogaria Deofarma 1",
        "id": "node/2770105932"
      },
      "geometry": {
        "type": "Point",
        "coordinates": [
          -49.3195702,
          -20.5333056
        ]
      }
    },
    {
      "type": "Feature",
      "id": "node/2770105943",
      "properties": {
        "timestamp": "2022-10-12T20:32:16Z",
        "version": 5,
        "changeset": 127434845,
        "addr:city": "Nova Granada",
        "addr:housenumber": "812",
        "addr:postcode": "15440-000",
        "addr:street": "Avenida Adolfo Rodrigues",
        "addr:suburb": "Centro",
        "amenity": "pharmacy",
        "healthcare": "pharmacy",
        "name": "Farmácia Central",
        "id": "node/2770105943"
      },
      "geometry": {
        "type": "Point",
        "coordinates": [
          -49.3170564,
          -20.531525
        ]
      }
    },
    {
      "type": "Feature",
      "id": "node/2856491519",
      "properties": {
        "timestamp": "2014-05-13T19:46:53Z",
        "version": 1,
        "changeset": 22320269,
        "addr:city": "Nova Granada",
        "addr:housenumber": "736",
        "addr:street": "Rua Theóphilo Mansur",
        "amenity": "pharmacy",
        "name": "Farmácia Santa Cecília",
        "id": "node/2856491519"
      },
      "geometry": {
        "type": "Point",
        "coordinates": [
          -49.3158379,
          -20.5308787
        ]
      }
    },
    {
      "type": "Feature",
      "id": "node/2916118082",
      "properties": {
        "timestamp": "2022-10-10T19:32:29Z",
        "version": 4,
        "changeset": 127321133,
        "addr:city": "Nova Granada",
        "addr:housenumber": "860",
        "addr:street": "Avenida Adolfo Rodrigues",
        "amenity": "pharmacy",
        "healthcare": "pharmacy",
        "name": "Farmácia Santo Antônio",
        "id": "node/2916118082"
      },
      "geometry": {
        "type": "Point",
        "coordinates": [
          -49.3178525,
          -20.5320835
        ]
      }
    },
    {
      "type": "Feature",
      "id": "node/3067278428",
      "properties": {
        "timestamp": "2017-12-28T10:47:18Z",
        "version": 3,
        "changeset": 54979384,
        "addr:city": "Nova Granada",
        "addr:housename": "Quintessência - Farmácia de Manipulação",
        "addr:housenumber": "908",
        "addr:street": "Avenida Adolfo Rodrigues",
        "addr:suburb": "Centro",
        "amenity": "pharmacy",
        "name": "Farmácia de Manipulação Quintessência",
        "id": "node/3067278428"
      },
      "geometry": {
        "type": "Point",
        "coordinates": [
          -49.3187209,
          -20.5326947
        ]
      }
    },
    {
      "type": "Feature",
      "id": "node/3339699535",
      "properties": {
        "timestamp": "2018-03-25T00:46:52Z",
        "version": 3,
        "changeset": 57498571,
        "addr:city": "Nova Granada",
        "addr:housenumber": "913",
        "addr:street": "Avenida Doutor Hildeberto Albuquerque Ferreira",
        "addr:suburb": "Centro",
        "amenity": "pharmacy",
        "name": "Pró-Ervas Farmácia de Manipulação",
        "phases": "+55 17 3261 2698",
        "id": "node/3339699535"
      },
      "geometry": {
        "type": "Point",
        "coordinates": [
          -49.3179747,
          -20.5334866
        ]
      }
    },
    {
      "type": "Feature",
      "id": "node/3396727975",
      "properties": {
        "timestamp": "2015-03-13T12:36:55Z",
        "version": 1,
        "changeset": 29447163,
        "addr:housenumber": "520",
        "addr:street": "Rua Ignácio Negreiros Rinaldi",
        "amenity": "pharmacy",
        "name": "Drogaria Del Farma 2",
        "id": "node/3396727975"
      },
      "geometry": {
        "type": "Point",
        "coordinates": [
          -49.3251948,
          -20.5434878
        ]
      }
    },
    {
      "type": "Feature",
      "id": "node/3629924200",
      "properties": {
        "timestamp": "2018-11-02T19:41:04Z",
        "version": 3,
        "changeset": 64125515,
        "addr:city": "Nova Granada",
        "addr:housenumber": "759",
        "addr:postcode": "15440-000",
        "addr:street": "Rua Theóphilo Mansur",
        "addr:suburb": "Centro",
        "amenity": "pharmacy",
        "name": "Drogaria Vida",
        "phone": "+55 17 3262 2772",
        "id": "node/3629924200"
      },
      "geometry": {
        "type": "Point",
        "coordinates": [
          -49.3162911,
          -20.5305689
        ]
      }
    },
    {
      "type": "Feature",
      "id": "node/3629924203",
      "properties": {
        "timestamp": "2018-11-02T19:41:04Z",
        "version": 4,
        "changeset": 64125515,
        "addr:city": "Nova Granada",
        "addr:housenumber": "1402",
        "addr:postcode": "15440-000",
        "addr:street": "Avenida Brasil",
        "addr:suburb": "Jardim Bandeirantes",
        "amenity": "pharmacy",
        "name": "Drogaria Saúde",
        "phone": "+55 17 3262 1181",
        "id": "node/3629924203"
      },
      "geometry": {
        "type": "Point",
        "coordinates": [
          -49.3251889,
          -20.5407844
        ]
      }
    },
    {
      "type": "Feature",
      "id": "node/3641502765",
      "properties": {
        "timestamp": "2016-09-21T20:08:07Z",
        "version": 2,
        "changeset": 42332806,
        "addr:city": "Nova Granada",
        "addr:housenumber": "1316",
        "addr:postcode": "15440-000",
        "addr:street": "Avenida Adolfo Rodrigues",
        "addr:suburb": "Vila Pavani",
        "amenity": "pharmacy",
        "name": "Drogaria Deofarma 3",
        "phone": "+55 17 3261 2499",
        "id": "node/3641502765"
      },
      "geometry": {
        "type": "Point",
        "coordinates": [
          -49.3247225,
          -20.5379741
        ]
      }
    },
    {
      "type": "Feature",
      "id": "node/3953928771",
      "properties": {
        "timestamp": "2019-11-14T19:55:03Z",
        "version": 3,
        "changeset": 77092765,
        "addr:city": "Nova Granada",
        "addr:housenumber": "1273",
        "addr:state": "SP",
        "addr:street": "Avenida Doutor Hildeberto Albuquerque Ferreira",
        "amenity": "pharmacy",
        "name": "Drogaria Total",
        "phone": "+55 17 3262 0878",
        "id": "node/3953928771"
      },
      "geometry": {
        "type": "Point",
        "coordinates": [
          -49.3232942,
          -20.5373268
        ]
      }
    }
  ]
}
