{
  "type": "FeatureCollection",
  "features": [
    {
      "type": "Feature",
      "id": "relation/6825871",
      "properties": {
        "timestamp": "2022-11-20T20:06:49Z",
        "version": 6,
        "changeset": 129168476,
        "addr:city": "Nova Granada",
        "addr:housenumber": "153",
        "addr:state": "SP",
        "addr:street": "Rua Paulo Araújo",
        "amenity": "school",
        "brand:wikidata": "Q10290787",
        "building": "school",
        "layer": "1",
        "name": "Escola Estadual Francisco Marques Pinto",
        "operator": "Governo do Estado de São Paulo",
        "operator:type": "government",
        "operator:wikidata": "Q10290787",
        "phone": "+55 17 3261 1088",
        "type": "multipolygon",
        "wheelchair": "yes",
        "id": "relation/6825871"
      },
      "geometry": {
        "type": "Polygon",
        "coordinates": [
          [
            [
              -49.3201301,
              -20.5304038
            ],
            [
              -49.3201043,
              -20.5303843
            ],
            [
              -49.3200137,
              -20.5303157
            ],
            [
              -49.3203445,
              -20.5299326
            ],
            [
              -49.3203323,
              -20.5299233
            ],
            [
              -49.3205955,
              -20.5296223
            ],
            [
              -49.3207843,
              -20.5297642
            ],
            [
              -49.3205228,
              -20.5300681
            ],
            [
              -49.3207907,
              -20.5302717
            ],
            [
              -49.3207079,
              -20.5303694
            ],
            [
              -49.3206173,
              -20.5303016
            ],
            [
              -49.3205771,
              -20.5302715
            ],
            [
              -49.3203794,
              -20.5301237
            ],
            [
              -49.3202176,
              -20.5303134
            ],
            [
              -49.3204152,
              -20.5304612
            ],
            [
              -49.320452,
              -20.5304891
            ],
            [
              -49.3206014,
              -20.5306005
            ],
            [
              -49.3205178,
              -20.5306974
            ],
            [
              -49.3201301,
              -20.5304038
            ]
          ]
        ]
      }
    },
    {
      "type": "Feature",
      "id": "way/234571834",
      "properties": {
        "timestamp": "2015-10-13T03:35:36Z",
        "version": 2,
        "changeset": 34602999,
        "amenity": "school",
        "building": "yes",
        "source": "Bing",
        "id": "way/234571834"
      },
      "geometry": {
        "type": "Polygon",
        "coordinates": [
          [
            [
              -49.3318231,
              -20.4306294
            ],
            [
              -49.3319464,
              -20.4306313
            ],
            [
              -49.3319446,
              -20.4307315
            ],
            [
              -49.3314191,
              -20.4307233
            ],
            [
              -49.3314208,
              -20.430626
            ],
            [
              -49.3317281,
              -20.4306308
            ],
            [
              -49.3317303,
              -20.4305058
            ],
            [
              -49.3318253,
              -20.4305073
            ],
            [
              -49.3318231,
              -20.4306294
            ]
          ]
        ]
      }
    },
    {
      "type": "Feature",
      "id": "way/283862530",
      "properties": {
        "timestamp": "2020-05-31T20:24:49Z",
        "version": 4,
        "changeset": 86020547,
        "addr:city": "Nova Granada",
        "addr:housenumber": "651",
        "addr:postcode": "15440-000",
        "addr:street": "Rua Jacinto Ruiz Garcia",
        "addr:suburb": "Centro",
        "amenity": "school",
        "name": "Escola Municipal Professora Adalgisa Pereira Prado",
        "operator": "Prefeitura Municipal",
        "phone": "+55 17 3262-5010",
        "wheelchair": "yes",
        "id": "way/283862530"
      },
      "geometry": {
        "type": "Polygon",
        "coordinates": [
          [
            [
              -49.3216181,
              -20.5327624
            ],
            [
              -49.3211374,
              -20.5333344
            ],
            [
              -49.3204474,
              -20.5328364
            ],
            [
              -49.3209106,
              -20.5322579
            ],
            [
              -49.3216181,
              -20.5327624
            ]
          ]
        ]
      }
    },
    {
      "type": "Feature",
      "id": "way/283863646",
      "properties": {
        "timestamp": "2022-11-20T20:06:49Z",
        "version": 7,
        "changeset": 129168476,
        "addr:city": "Nova Granada",
        "addr:housenumber": "449",
        "addr:postcode": "15440-000",
        "addr:street": "Rua Jansen de Melo",
        "addr:suburb": "Jardim Primavera",
        "amenity": "school",
        "email": "e917291a@educacao.sp.gov.br",
        "name": "Escola Estadual Professora Alzira Salomão",
        "operator": "Governo do Estado de São Paulo",
        "operator:type": "government",
        "operator:wikidata": "Q10290787",
        "phone": "+55 17 3261 2512,+55 17 3261 2699",
        "ref:INEP": "35917291",
        "religion": "none",
        "source": "CADMEC 2017",
        "wheelchair": "yes",
        "id": "way/283863646"
      },
      "geometry": {
        "type": "Polygon",
        "coordinates": [
          [
            [
              -49.3176514,
              -20.5355326
            ],
            [
              -49.3171318,
              -20.5361789
            ],
            [
              -49.3167578,
              -20.5358993
            ],
            [
              -49.3172601,
              -20.5352448
            ],
            [
              -49.3176514,
              -20.5355326
            ]
          ]
        ]
      }
    },
    {
      "type": "Feature",
      "id": "way/810314428",
      "properties": {
        "timestamp": "2020-05-31T20:24:49Z",
        "version": 1,
        "changeset": 86020547,
        "addr:housenumber": "512",
        "addr:postcode": "15440-000",
        "addr:street": "Rua Júlio Frasson",
        "addr:suburb": "Estação",
        "amenity": "school",
        "name": "Escola Municipal Madalena de Almeida Cais",
        "operator": "Prefeitura Municipal",
        "phone": "+55 17 3261-2220",
        "wheelchair": "yes",
        "id": "way/810314428"
      },
      "geometry": {
        "type": "Polygon",
        "coordinates": [
          [
            [
              -49.3294822,
              -20.5417153
            ],
            [
              -49.3297062,
              -20.5420857
            ],
            [
              -49.3288573,
              -20.5426722
            ],
            [
              -49.3284067,
              -20.542573
            ],
            [
              -49.3283879,
              -20.5425617
            ],
            [
              -49.3283772,
              -20.5425454
            ],
            [
              -49.3283745,
              -20.5425253
            ],
            [
              -49.3283866,
              -20.5425027
            ],
            [
              -49.3294822,
              -20.5417153
            ]
          ]
        ]
      }
    },
    {
      "type": "Feature",
      "id": "node/2770105948",
      "properties": {
        "timestamp": "2016-09-30T20:10:34Z",
        "version": 4,
        "changeset": 42551644,
        "addr:city": "Nova Granada",
        "addr:housenumber": "983",
        "addr:postcode": "15440-000",
        "addr:street": "Avenida Adolfo Rodrigues",
        "amenity": "school",
        "name": "Dinamica Objetivo",
        "id": "node/2770105948"
      },
      "geometry": {
        "type": "Point",
        "coordinates": [
          -49.3200859,
          -20.5338362
        ]
      }
    },
    {
      "type": "Feature",
      "id": "node/2782082893",
      "properties": {
        "timestamp": "2014-04-10T19:41:55Z",
        "version": 1,
        "changeset": 21614145,
        "amenity": "school",
        "name": "Escola Municipal",
        "id": "node/2782082893"
      },
      "geometry": {
        "type": "Point",
        "coordinates": [
          -49.3874211,
          -20.4638751
        ]
      }
    },
    {
      "type": "Feature",
      "id": "node/2919140727",
      "properties": {
        "timestamp": "2018-11-02T19:40:56Z",
        "version": 2,
        "changeset": 64125515,
        "addr:city": "Nova Granada",
        "addr:housenumber": "466",
        "addr:postcode": "15440-000",
        "addr:street": "Rua José Barone Mercadante",
        "addr:suburb": "Centro",
        "amenity": "school",
        "name": "Colégio Decisão Anglo",
        "id": "node/2919140727"
      },
      "geometry": {
        "type": "Point",
        "coordinates": [
          -49.3146065,
          -20.53378
        ]
      }
    },
    {
      "type": "Feature",
      "id": "node/3609445648",
      "properties": {
        "timestamp": "2022-11-20T20:06:49Z",
        "version": 6,
        "changeset": 129168476,
        "addr:city": "Nova Granada",
        "addr:housenumber": "153",
        "addr:postcode": "15440-000",
        "addr:street": "Rua Paulo de Araujo",
        "addr:suburb": "Centro",
        "amenity": "school",
        "name": "Centro de Estudos de Línguas",
        "operator": "Governo do Estado de São Paulo",
        "operator:type": "government",
        "operator:wikidata": "Q10290787",
        "phone": "+55 17 3262 1088",
        "short_name": "Cel",
        "id": "node/3609445648"
      },
      "geometry": {
        "type": "Point",
        "coordinates": [
          -49.3199446,
          -20.5300601
        ]
      }
    },
    {
      "type": "Feature",
      "id": "node/3641502749",
      "properties": {
        "timestamp": "2020-05-30T20:48:27Z",
        "version": 2,
        "changeset": 85992895,
        "amenity": "school",
        "id": "node/3641502749"
      },
      "geometry": {
        "type": "Point",
        "coordinates": [
          -49.3356766,
          -20.4098889
        ]
      }
    },
    {
      "type": "Feature",
      "id": "node/4065480766",
      "properties": {
        "timestamp": "2017-01-28T17:17:07Z",
        "version": 3,
        "changeset": 45598593,
        "amenity": "school",
        "name": "Escola de Educação Infantil Bairro Misael",
        "note": "Em construção",
        "id": "node/4065480766"
      },
      "geometry": {
        "type": "Point",
        "coordinates": [
          -49.3207389,
          -20.5367721
        ]
      }
    }
  ]
}
