{
  "type": "FeatureCollection",
  "features": [
    {
      "type": "Feature",
      "id": "way/1266849710",
      "properties": {
        "timestamp": "2024-03-27T17:59:47Z",
        "version": 1,
        "changeset": 149237546,
        "addr:housenumber": "55",
        "addr:postcode": "16260-000",
        "addr:street": "Rua Carlos de Campos",
        "addr:suburb": "Centro",
        "amenity": "clinic",
        "building": "yes",
        "healthcare": "clinic",
        "healthcare:speciality": "ginecologia;paediatrics;dentistry",
        "name": "UBSF Coroados",
        "old_name": "Centro de Sa√∫de II",
        "id": "way/1266849710"
      },
      "geometry": {
        "type": "Polygon",
        "coordinates": [
          [
            [
              -50.2843709,
              -21.3563879
            ],
            [
              -50.2844494,
              -21.3564696
            ],
            [
              -50.2843015,
              -21.3565902
            ],
            [
              -50.2842199,
              -21.3565055
            ],
            [
              -50.2843709,
              -21.3563879
            ]
          ]
        ]
      }
    }
  ]
}
