{
  "type": "FeatureCollection",
  "features": [
    {
      "type": "Feature",
      "id": "node/11766708819",
      "properties": {
        "timestamp": "2024-03-27T18:11:25Z",
        "version": 1,
        "changeset": 149237932,
        "addr:housenumber": "1680C",
        "addr:postcode": "16260-000",
        "addr:street": "Rua Djalma Dutra",
        "addr:suburb": "Centro",
        "amenity": "pharmacy",
        "dispensing": "yes",
        "drive_through": "no",
        "healthcare": "pharmacy",
        "mobile": "+55 18 99798 9081",
        "name": "Pharmavida",
        "id": "node/11766708819"
      },
      "geometry": {
        "type": "Point",
        "coordinates": [
          -50.2850565,
          -21.3553
        ]
      }
    },
    {
      "type": "Feature",
      "id": "node/11766731620",
      "properties": {
        "timestamp": "2024-03-27T18:35:40Z",
        "version": 1,
        "changeset": 149238761,
        "addr:street": "Avenida Rui Barbosa",
        "addr:suburb": "Centro",
        "amenity": "pharmacy",
        "dispensing": "yes",
        "drive_through": "no",
        "healthcare": "pharmacy",
        "mobile": "+55 18 99752 2710",
        "name": "FarmAvenida",
        "id": "node/11766731620"
      },
      "geometry": {
        "type": "Point",
        "coordinates": [
          -50.2845499,
          -21.3543266
        ]
      }
    }
  ]
}
