{
  "type": "FeatureCollection",
  "features": [
    {
      "type": "Feature",
      "id": "way/1097048197",
      "properties": {
        "timestamp": "2023-01-02T15:04:54Z",
        "version": 5,
        "changeset": 130791598,
        "addr:city": "Charqueadas",
        "addr:housenumber": "166",
        "addr:street": "Avenida Getúlio Vargas",
        "addr:suburb": "Centro",
        "building": "yes",
        "building:levels": "1",
        "government": "administrative",
        "name": "Secretaria Municipal de Cultura, Lazer e Esporte",
        "office": "government",
        "operator": "Secretaria Municipal de Cultura, Lazer e Esporte",
        "roof:height": "0.5",
        "roof:shape": "gabled",
        "id": "way/1097048197"
      },
      "geometry": {
        "type": "Polygon",
        "coordinates": [
          [
            [
              -51.6236271,
              -29.9616497
            ],
            [
              -51.623475,
              -29.9616496
            ],
            [
              -51.623475,
              -29.9615841
            ],
            [
              -51.6236271,
              -29.9615842
            ],
            [
              -51.6236271,
              -29.9616497
            ]
          ]
        ]
      }
    },
    {
      "type": "Feature",
      "id": "way/1126489860",
      "properties": {
        "timestamp": "2023-01-03T21:49:44Z",
        "version": 3,
        "changeset": 130844086,
        "addr:city": "Charqueadas",
        "addr:housenumber": "166",
        "addr:postcode": "96745-000",
        "addr:street": "Avenida Getúlio Vargas",
        "addr:suburb": "Centro",
        "building": "yes",
        "building:levels": "1",
        "government": "administrative",
        "layer": "0",
        "name": "Coordenadoria Municipal de Segurança Pública",
        "office": "government",
        "operator": "Coordenadoria Municipal de Segurança Pública",
        "roof:height": "0.5",
        "roof:shape": "gabled",
        "id": "way/1126489860"
      },
      "geometry": {
        "type": "Polygon",
        "coordinates": [
          [
            [
              -51.6233373,
              -29.961648
            ],
            [
              -51.6231853,
              -29.9616479
            ],
            [
              -51.6231853,
              -29.9615825
            ],
            [
              -51.6233374,
              -29.9615825
            ],
            [
              -51.6233373,
              -29.961648
            ]
          ]
        ]
      }
    },
    {
      "type": "Feature",
      "id": "way/1126489861",
      "properties": {
        "timestamp": "2023-01-03T21:45:46Z",
        "version": 2,
        "changeset": 130843959,
        "addr:city": "Charqueadas",
        "addr:housenumber": "166",
        "addr:postcode": "96745-000",
        "addr:street": "Avenida Getúlio Vargas",
        "addr:suburb": "Centro",
        "building": "yes",
        "building:levels": "1",
        "government": "administrative",
        "layer": "0",
        "loc_name": "SINE",
        "name": "FGTAS / SINE",
        "office": "government",
        "official_name": "Fundação Gaúcha do Trabalho e Ação Social / Sistema Nacional de Emprego",
        "operator": "Secretaria Municipal de Cultura, Lazer e Esporte",
        "roof:height": "0.5",
        "roof:shape": "gabled",
        "id": "way/1126489861"
      },
      "geometry": {
        "type": "Polygon",
        "coordinates": [
          [
            [
              -51.6233668,
              -29.9618004
            ],
            [
              -51.6233683,
              -29.9616686
            ],
            [
              -51.6234438,
              -29.9616693
            ],
            [
              -51.6234423,
              -29.961801
            ],
            [
              -51.6233668,
              -29.9618004
            ]
          ]
        ]
      }
    },
    {
      "type": "Feature",
      "id": "way/1126489862",
      "properties": {
        "timestamp": "2023-01-02T15:04:54Z",
        "version": 1,
        "changeset": 130791598,
        "addr:city": "Charqueadas",
        "addr:housenumber": "166",
        "addr:street": "Avenida Getúlio Vargas",
        "addr:suburb": "Centro",
        "building": "yes",
        "building:levels": "1",
        "government": "public_service",
        "loc_name": "Telecentro",
        "name": "Telecentro José Ewaldi Scheid",
        "office": "government",
        "operator": "Prefeitura Municipal de Charqueadas",
        "roof:height": "0.5",
        "roof:shape": "gabled",
        "id": "way/1126489862"
      },
      "geometry": {
        "type": "Polygon",
        "coordinates": [
          [
            [
              -51.6233702,
              -29.9615514
            ],
            [
              -51.6233717,
              -29.9614197
            ],
            [
              -51.6234473,
              -29.9614203
            ],
            [
              -51.6234457,
              -29.9615521
            ],
            [
              -51.6233702,
              -29.9615514
            ]
          ]
        ]
      }
    },
    {
      "type": "Feature",
      "id": "way/1283027728",
      "properties": {
        "timestamp": "2024-05-14T21:49:43Z",
        "version": 1,
        "changeset": 151333439,
        "addr:city": "Charqueadas",
        "addr:postcode": "96745-000",
        "addr:street": "Rua Rui Barbosa",
        "addr:suburb": "Centro",
        "building": "yes",
        "building:levels": "1",
        "government": "public_service",
        "name": "Defensoria Pública do Estado do Rio Grande do Sul",
        "office": "government",
        "roof:orientation": "along",
        "roof:shape": "gabled",
        "id": "way/1283027728"
      },
      "geometry": {
        "type": "Polygon",
        "coordinates": [
          [
            [
              -51.6272847,
              -29.958084
            ],
            [
              -51.6274086,
              -29.9580673
            ],
            [
              -51.6274348,
              -29.9582132
            ],
            [
              -51.6273109,
              -29.95823
            ],
            [
              -51.6272847,
              -29.958084
            ]
          ]
        ]
      }
    },
    {
      "type": "Feature",
      "id": "way/1306230461",
      "properties": {
        "timestamp": "2024-08-07T19:28:25Z",
        "version": 1,
        "changeset": 154950984,
        "building": "yes",
        "government": "yes",
        "name": "Secretaria Municipal de Saúde",
        "office": "government",
        "id": "way/1306230461"
      },
      "geometry": {
        "type": "Polygon",
        "coordinates": [
          [
            [
              -51.6276598,
              -29.9594235
            ],
            [
              -51.6276554,
              -29.9591291
            ],
            [
              -51.6277472,
              -29.9591281
            ],
            [
              -51.6277515,
              -29.9594225
            ],
            [
              -51.6276598,
              -29.9594235
            ]
          ]
        ]
      }
    },
    {
      "type": "Feature",
      "id": "node/12021371448",
      "properties": {
        "timestamp": "2024-06-29T23:50:37Z",
        "version": 1,
        "changeset": 153351114,
        "addr:city": "Charqueadas",
        "addr:housenumber": "1005",
        "addr:postcode": "96745-000",
        "addr:street": "Rua Rui Barbosa",
        "addr:suburb": "Cruz de Malta",
        "government": "healthcare",
        "name": "Vigilância em Saúde",
        "office": "government",
        "id": "node/12021371448"
      },
      "geometry": {
        "type": "Point",
        "coordinates": [
          -51.6278043,
          -29.9640988
        ]
      }
    }
  ]
}
