{
  "type": "FeatureCollection",
  "features": [
    {
      "type": "Feature",
      "id": "way/1297472122",
      "properties": {
        "timestamp": "2024-06-29T22:10:20Z",
        "version": 1,
        "changeset": 153349261,
        "addr:city": "Charqueadas",
        "addr:housenumber": "550",
        "addr:postcode": "96745-000",
        "addr:street": "Rua Orvalino Prattes Dornelles",
        "addr:suburb": "Cruz de Malta",
        "amenity": "pharmacy",
        "building": "yes",
        "building:levels": "1",
        "dispensing": "no",
        "healthcare": "pharmacy",
        "name": "Farmácia Básica Municipal",
        "opening_hours": "Mo-Fr 08:00-12:00; 13:00-17:00",
        "operator": "Secretaria Municipal da Saúde",
        "website": "https://famurs.com.br/remume",
        "wheelchair": "limited",
        "id": "way/1297472122"
      },
      "geometry": {
        "type": "Polygon",
        "coordinates": [
          [
            [
              -51.6279504,
              -29.9643463
            ],
            [
              -51.6278141,
              -29.9643485
            ],
            [
              -51.6278114,
              -29.964222
            ],
            [
              -51.6278487,
              -29.9642213
            ],
            [
              -51.6278643,
              -29.9642212
            ],
            [
              -51.6278642,
              -29.9642142
            ],
            [
              -51.6279098,
              -29.9642138
            ],
            [
              -51.6279474,
              -29.9642128
            ],
            [
              -51.6279484,
              -29.9642565
            ],
            [
              -51.6279491,
              -29.9642893
            ],
            [
              -51.6279496,
              -29.9643102
            ],
            [
              -51.62795,
              -29.9643282
            ],
            [
              -51.6279504,
              -29.9643463
            ]
          ]
        ]
      }
    },
    {
      "type": "Feature",
      "id": "way/1304861658",
      "properties": {
        "timestamp": "2024-08-05T22:41:51Z",
        "version": 3,
        "changeset": 154870649,
        "addr:city": "Charqueadas",
        "addr:housenumber": "510",
        "addr:postcode": "96745-000",
        "addr:street": "Avenida Doutor José Athanásio",
        "addr:suburb": "Centro",
        "amenity": "pharmacy",
        "brand": "Agafarma",
        "brand:wikidata": "Q93735939",
        "building": "yes",
        "building:levels": "1",
        "healthcare": "pharmacy",
        "name": "Agafarma",
        "id": "way/1304861658"
      },
      "geometry": {
        "type": "Polygon",
        "coordinates": [
          [
            [
              -51.6286069,
              -29.9591022
            ],
            [
              -51.6284375,
              -29.9591177
            ],
            [
              -51.6284299,
              -29.9590685
            ],
            [
              -51.6285354,
              -29.9590605
            ],
            [
              -51.6285624,
              -29.9590584
            ],
            [
              -51.6286069,
              -29.9591022
            ]
          ]
        ]
      }
    },
    {
      "type": "Feature",
      "id": "way/1307315272",
      "properties": {
        "timestamp": "2024-08-18T23:16:52Z",
        "version": 2,
        "changeset": 155437494,
        "addr:city": "Charqueadas",
        "addr:housenumber": "781",
        "addr:postcode": "96745-000",
        "addr:street": "Avenida Bento Gonçalves",
        "addr:suburb": "Centro",
        "amenity": "pharmacy",
        "brand": "São João",
        "brand:wikidata": "Q62663306",
        "building": "yes",
        "contact:website": "https://institucional.saojoaofarmacias.com.br/loja/124/charqueadas1",
        "dispensing": "yes",
        "drive_through": "no",
        "healthcare": "pharmacy",
        "loc_name": "Farmácias São João Charqueadas 1",
        "name": "São João",
        "id": "way/1307315272"
      },
      "geometry": {
        "type": "Polygon",
        "coordinates": [
          [
            [
              -51.6260968,
              -29.9546901
            ],
            [
              -51.6261005,
              -29.9549776
            ],
            [
              -51.6259587,
              -29.9549553
            ],
            [
              -51.6259947,
              -29.9546757
            ],
            [
              -51.6260968,
              -29.9546901
            ]
          ]
        ]
      }
    },
    {
      "type": "Feature",
      "id": "node/11177497237",
      "properties": {
        "timestamp": "2024-07-31T19:10:54Z",
        "version": 3,
        "changeset": 154664909,
        "addr:city": "Charqueadas",
        "addr:housenumber": "1003",
        "addr:postcode": "96745-00",
        "addr:street": "Rodovia José Manoel Gonzales de Souza",
        "addr:suburb": "Cruz de Malta",
        "amenity": "pharmacy",
        "brand": "Agafarma",
        "brand:wikidata": "Q93735939",
        "healthcare": "pharmacy",
        "loc_name": "Agafarma RS-401",
        "name": "Agafarma",
        "id": "node/11177497237"
      },
      "geometry": {
        "type": "Point",
        "coordinates": [
          -51.628787,
          -29.9670951
        ]
      }
    },
    {
      "type": "Feature",
      "id": "node/12021296605",
      "properties": {
        "timestamp": "2024-06-29T22:10:20Z",
        "version": 1,
        "changeset": 153349261,
        "access": "yes",
        "door": "yes",
        "entrance": "main",
        "id": "node/12021296605"
      },
      "geometry": {
        "type": "Point",
        "coordinates": [
          -51.62795,
          -29.9643282
        ]
      }
    }
  ]
}
