{
  "type": "FeatureCollection",
  "features": [
    {
      "type": "Feature",
      "id": "way/1119129266",
      "properties": {
        "timestamp": "2023-10-16T18:54:40Z",
        "version": 2,
        "changeset": 142679976,
        "addr:city": "Maiquinique",
        "addr:postcode": "45770-000",
        "addr:street": "Rua Zeferino SIlveira Filho",
        "addr:suburb": "Caixa d'Água",
        "amenity": "school",
        "name": "Colégio Estadual Altair Almeida Meira",
        "operator": "Governo da Bahia",
        "operator:type": "public",
        "phone": "+55 77 3275 2710",
        "id": "way/1119129266"
      },
      "geometry": {
        "type": "Polygon",
        "coordinates": [
          [
            [
              -40.268527,
              -15.6224543
            ],
            [
              -40.2677081,
              -15.6221314
            ],
            [
              -40.2682051,
              -15.6215554
            ],
            [
              -40.2682909,
              -15.6216536
            ],
            [
              -40.2683298,
              -15.6216342
            ],
            [
              -40.2686879,
              -15.6220707
            ],
            [
              -40.268527,
              -15.6224543
            ]
          ]
        ]
      }
    },
    {
      "type": "Feature",
      "id": "way/1119129267",
      "properties": {
        "timestamp": "2023-10-16T18:54:40Z",
        "version": 2,
        "changeset": 142679976,
        "addr:city": "Maiquinique",
        "addr:housenumber": "330",
        "addr:postcode": "45770-000",
        "addr:street": "Rua Castro Alves",
        "addr:suburb": "São Marcos",
        "amenity": "school",
        "name": "Escola Municipal Simões Filho",
        "operator": "Município de Maiquinique",
        "operator:type": "public",
        "phone": "+55 77 3275 2179",
        "id": "way/1119129267"
      },
      "geometry": {
        "type": "Polygon",
        "coordinates": [
          [
            [
              -40.265421,
              -15.6215851
            ],
            [
              -40.2652885,
              -15.6215628
            ],
            [
              -40.2651939,
              -15.6215468
            ],
            [
              -40.2649918,
              -15.6215128
            ],
            [
              -40.265201,
              -15.6209122
            ],
            [
              -40.265535,
              -15.6210155
            ],
            [
              -40.265421,
              -15.6215851
            ]
          ]
        ]
      }
    },
    {
      "type": "Feature",
      "id": "node/11267565432",
      "properties": {
        "timestamp": "2023-10-16T18:54:40Z",
        "version": 1,
        "changeset": 142679976,
        "addr:city": "Maiquinique",
        "addr:housenumber": "192",
        "addr:postcode": "45770-000",
        "addr:street": "Rua Luiz Rodrigues Silva",
        "addr:suburb": "Centro",
        "amenity": "school",
        "name": "Centro Educacional Municipal Nataniel Souza Silveira",
        "operator": "Município de Maiquinique",
        "operator:type": "public",
        "phone": "+55 77 3275 2179",
        "id": "node/11267565432"
      },
      "geometry": {
        "type": "Point",
        "coordinates": [
          -40.262988,
          -15.6180317
        ]
      }
    },
    {
      "type": "Feature",
      "id": "node/11267565433",
      "properties": {
        "timestamp": "2023-10-16T18:54:40Z",
        "version": 1,
        "changeset": 142679976,
        "addr:city": "Maiquinique",
        "addr:housenumber": "124",
        "addr:postcode": "45770-000",
        "addr:street": "Rua Luiz Rodrigues Silva",
        "addr:suburb": "Centro",
        "amenity": "school",
        "name": "Escola Municipal Edivaldo Flores",
        "operator": "Município de Maiquinique",
        "operator:type": "public",
        "id": "node/11267565433"
      },
      "geometry": {
        "type": "Point",
        "coordinates": [
          -40.2623748,
          -15.6182423
        ]
      }
    },
    {
      "type": "Feature",
      "id": "node/11267565434",
      "properties": {
        "timestamp": "2023-10-16T18:54:40Z",
        "version": 1,
        "changeset": 142679976,
        "addr:city": "Maiquinique",
        "addr:housenumber": "381",
        "addr:postcode": "45770-000",
        "addr:street": "Rua Zeferino SIlveira Filho",
        "addr:suburb": "Bela Vista",
        "amenity": "school",
        "name": "Escola Municipal Eurico Gaspar Dutra",
        "operator": "Município de Maiquinique",
        "operator:type": "public",
        "id": "node/11267565434"
      },
      "geometry": {
        "type": "Point",
        "coordinates": [
          -40.2672999,
          -15.620775
        ]
      }
    },
    {
      "type": "Feature",
      "id": "node/11267565435",
      "properties": {
        "timestamp": "2023-10-16T18:54:40Z",
        "version": 1,
        "changeset": 142679976,
        "addr:city": "Maiquinique",
        "addr:postcode": "45770-000",
        "addr:street": "Rua Calmon de Sá",
        "addr:suburb": "Bela Vista",
        "amenity": "school",
        "name": "Escola Municipal Nelson José de Oliveira",
        "operator": "Município de Maiquinique",
        "operator:type": "public",
        "id": "node/11267565435"
      },
      "geometry": {
        "type": "Point",
        "coordinates": [
          -40.2641488,
          -15.6237759
        ]
      }
    }
  ]
}
