{
  "type": "FeatureCollection",
  "features": [
    {
      "type": "Feature",
      "id": "way/541916031",
      "properties": {
        "timestamp": "2022-04-16T22:55:02Z",
        "version": 4,
        "changeset": 119800700,
        "addr:city": "Mostardas",
        "addr:housenumber": "795",
        "addr:postcode": "96270-000",
        "addr:street": "Rua XV de Novembro",
        "addr:suburb": "Centro",
        "amenity": "clinic",
        "building": "yes",
        "building:levels": "1",
        "healthcare": "clinic",
        "id": "way/541916031"
      },
      "geometry": {
        "type": "Polygon",
        "coordinates": [
          [
            [
              -50.9171312,
              -31.1102007
            ],
            [
              -50.9172234,
              -31.1103333
            ],
            [
              -50.9170779,
              -31.110407
            ],
            [
              -50.917029,
              -31.1103357
            ],
            [
              -50.9170418,
              -31.110329
            ],
            [
              -50.9170074,
              -31.1102815
            ],
            [
              -50.9170274,
              -31.1102482
            ],
            [
              -50.9171312,
              -31.1102007
            ]
          ]
        ]
      }
    },
    {
      "type": "Feature",
      "id": "way/599437328",
      "properties": {
        "timestamp": "2018-06-19T17:34:45Z",
        "version": 1,
        "changeset": 59985914,
        "addr:city": "Mostardas",
        "addr:postcode": "96270-000",
        "addr:suburb": "Rincão do Cristóvão Pereira",
        "amenity": "clinic",
        "building": "yes",
        "healthcare": "clinic",
        "id": "way/599437328"
      },
      "geometry": {
        "type": "Polygon",
        "coordinates": [
          [
            [
              -51.0673248,
              -31.1301422
            ],
            [
              -51.0672476,
              -31.1301566
            ],
            [
              -51.0672232,
              -31.1300486
            ],
            [
              -51.0672978,
              -31.1300321
            ],
            [
              -51.0673248,
              -31.1301422
            ]
          ]
        ]
      }
    }
  ]
}
