{
  "type": "FeatureCollection",
  "features": [
    {
      "type": "Feature",
      "id": "way/580460685",
      "properties": {
        "timestamp": "2018-06-28T11:29:48Z",
        "version": 2,
        "changeset": 60245984,
        "addr:city": "Mostardas",
        "addr:postcode": "96270-000",
        "addr:street": "Rua IndependÃªncia",
        "addr:suburb": "Centro",
        "amenity": "dentist",
        "building": "yes",
        "healthcare": "dentist",
        "id": "way/580460685"
      },
      "geometry": {
        "type": "Polygon",
        "coordinates": [
          [
            [
              -50.9191638,
              -31.1082529
            ],
            [
              -50.9191197,
              -31.1082748
            ],
            [
              -50.9190684,
              -31.1081928
            ],
            [
              -50.919112,
              -31.1081727
            ],
            [
              -50.9191638,
              -31.1082529
            ]
          ]
        ]
      }
    }
  ]
}
