{
  "type": "FeatureCollection",
  "features": [
    {
      "type": "Feature",
      "id": "way/541913300",
      "properties": {
        "timestamp": "2018-05-11T11:37:49Z",
        "version": 2,
        "changeset": 58876069,
        "addr:city": "Mostardas",
        "addr:housenumber": "740",
        "addr:postcode": "96270-000",
        "addr:street": "Rua Bento Gonçalves",
        "addr:suburb": "Centro",
        "building": "yes",
        "building:levels": "1",
        "name": "Cartório Eleitoral",
        "office": "government",
        "id": "way/541913300"
      },
      "geometry": {
        "type": "Polygon",
        "coordinates": [
          [
            [
              -50.9176423,
              -31.109593
            ],
            [
              -50.9177257,
              -31.1097235
            ],
            [
              -50.9175071,
              -31.1098311
            ],
            [
              -50.9174591,
              -31.109763
            ],
            [
              -50.9176106,
              -31.1096932
            ],
            [
              -50.9175675,
              -31.10963
            ],
            [
              -50.9176423,
              -31.109593
            ]
          ]
        ]
      }
    },
    {
      "type": "Feature",
      "id": "way/541922711",
      "properties": {
        "timestamp": "2018-05-11T11:37:50Z",
        "version": 3,
        "changeset": 58876069,
        "addr:city": "Mostardas",
        "addr:housenumber": "761",
        "addr:postcode": "96270-000",
        "addr:street": "Rua Independência",
        "addr:suburb": "Centro",
        "building": "yes",
        "building:levels": "1",
        "name": "Secretaria Municipal de Educação",
        "office": "government",
        "id": "way/541922711"
      },
      "geometry": {
        "type": "Polygon",
        "coordinates": [
          [
            [
              -50.9171872,
              -31.1092875
            ],
            [
              -50.9172442,
              -31.1093697
            ],
            [
              -50.9169763,
              -31.1094946
            ],
            [
              -50.9169223,
              -31.1094099
            ],
            [
              -50.9171872,
              -31.1092875
            ]
          ]
        ]
      }
    },
    {
      "type": "Feature",
      "id": "way/569399381",
      "properties": {
        "timestamp": "2018-03-14T11:01:57Z",
        "version": 2,
        "changeset": 57174261,
        "addr:city": "Mostardas",
        "addr:housenumber": "1084",
        "addr:postcode": "96270-000",
        "addr:street": "Rua Bento Gonçalves",
        "addr:suburb": "Centro",
        "building": "yes",
        "government": "register_office",
        "office": "government",
        "id": "way/569399381"
      },
      "geometry": {
        "type": "Polygon",
        "coordinates": [
          [
            [
              -50.9166411,
              -31.107424
            ],
            [
              -50.9165346,
              -31.1074748
            ],
            [
              -50.9164945,
              -31.1074179
            ],
            [
              -50.9165045,
              -31.1074131
            ],
            [
              -50.9165017,
              -31.1074081
            ],
            [
              -50.916596,
              -31.1073628
            ],
            [
              -50.9166411,
              -31.107424
            ]
          ]
        ]
      }
    },
    {
      "type": "Feature",
      "id": "way/632573029",
      "properties": {
        "timestamp": "2019-01-24T12:42:55Z",
        "version": 2,
        "changeset": 66600611,
        "addr:city": "Mostardas",
        "addr:postcode": "96270-000",
        "addr:suburb": "4º Distrito - Doutor Edgardo Pereira Velho",
        "building": "yes",
        "name": "Sub-Prefeitura Doutor Edgardo Pereira Velho",
        "office": "government",
        "id": "way/632573029"
      },
      "geometry": {
        "type": "Polygon",
        "coordinates": [
          [
            [
              -50.5681548,
              -30.6948361
            ],
            [
              -50.5679392,
              -30.6946217
            ],
            [
              -50.5680322,
              -30.6945628
            ],
            [
              -50.5682438,
              -30.6947764
            ],
            [
              -50.5681548,
              -30.6948361
            ]
          ]
        ]
      }
    },
    {
      "type": "Feature",
      "id": "node/4899960702",
      "properties": {
        "timestamp": "2017-06-06T16:25:27Z",
        "version": 1,
        "changeset": 49310612,
        "name": "Secretaria Municipal da Saúde",
        "office": "government",
        "id": "node/4899960702"
      },
      "geometry": {
        "type": "Point",
        "coordinates": [
          -50.9152128,
          -31.1010374
        ]
      }
    },
    {
      "type": "Feature",
      "id": "node/4899982893",
      "properties": {
        "timestamp": "2017-06-06T16:24:23Z",
        "version": 1,
        "changeset": 49310583,
        "name": "Secretaria de Turismo e Desporto",
        "office": "government",
        "id": "node/4899982893"
      },
      "geometry": {
        "type": "Point",
        "coordinates": [
          -50.9201201,
          -31.105677
        ]
      }
    }
  ]
}
