{
  "type": "FeatureCollection",
  "features": [
    {
      "type": "Feature",
      "id": "way/541918791",
      "properties": {
        "timestamp": "2018-05-11T11:37:49Z",
        "version": 3,
        "changeset": 58876069,
        "addr:city": "Mostardas",
        "addr:housenumber": "941",
        "addr:postcode": "96270-000",
        "addr:street": "Rua Luiz Araújo",
        "addr:suburb": "Centro",
        "building": "yes",
        "building:levels": "3",
        "name": "Pizzaria e Hotel Recanto",
        "tourism": "hotel",
        "id": "way/541918791"
      },
      "geometry": {
        "type": "Polygon",
        "coordinates": [
          [
            [
              -50.9179941,
              -31.1082186
            ],
            [
              -50.9180403,
              -31.108296
            ],
            [
              -50.9178971,
              -31.1083566
            ],
            [
              -50.9178535,
              -31.1082792
            ],
            [
              -50.9179941,
              -31.1082186
            ]
          ]
        ]
      }
    },
    {
      "type": "Feature",
      "id": "way/542949060",
      "properties": {
        "timestamp": "2018-05-11T11:37:50Z",
        "version": 2,
        "changeset": 58876069,
        "addr:city": "Mostardas",
        "addr:postcode": "96270-000",
        "addr:street": "Rua Almirante Tamandaré",
        "addr:suburb": "Centro",
        "building": "yes",
        "building:levels": "2",
        "name": "Novo Hotel",
        "tourism": "hotel",
        "id": "way/542949060"
      },
      "geometry": {
        "type": "Polygon",
        "coordinates": [
          [
            [
              -50.9176157,
              -31.1057658
            ],
            [
              -50.9174293,
              -31.1058508
            ],
            [
              -50.9173461,
              -31.105721
            ],
            [
              -50.9175339,
              -31.1056372
            ],
            [
              -50.9176157,
              -31.1057658
            ]
          ]
        ]
      }
    },
    {
      "type": "Feature",
      "id": "way/546172699",
      "properties": {
        "timestamp": "2017-12-11T19:24:22Z",
        "version": 1,
        "changeset": 54548431,
        "addr:city": "Mostardas",
        "addr:postcode": "96270-000",
        "addr:street": "Avenida Padre Simão",
        "building": "yes",
        "name": "Estrela do Mar",
        "tourism": "hotel",
        "id": "way/546172699"
      },
      "geometry": {
        "type": "Polygon",
        "coordinates": [
          [
            [
              -50.8095082,
              -31.153204
            ],
            [
              -50.8096275,
              -31.153326
            ],
            [
              -50.8095191,
              -31.1534047
            ],
            [
              -50.8094053,
              -31.1532803
            ],
            [
              -50.8095082,
              -31.153204
            ]
          ]
        ]
      }
    },
    {
      "type": "Feature",
      "id": "way/546172907",
      "properties": {
        "timestamp": "2018-05-14T18:14:03Z",
        "version": 2,
        "changeset": 58960769,
        "addr:city": "Mostardas",
        "addr:postcode": "96270-000",
        "addr:street": "Avenida Padre Simão",
        "addr:suburb": "Balneário Mostardense",
        "building": "yes",
        "tourism": "hotel",
        "id": "way/546172907"
      },
      "geometry": {
        "type": "Polygon",
        "coordinates": [
          [
            [
              -50.8136494,
              -31.1502412
            ],
            [
              -50.8139051,
              -31.1505117
            ],
            [
              -50.8136606,
              -31.1506694
            ],
            [
              -50.8134001,
              -31.150407
            ],
            [
              -50.8136494,
              -31.1502412
            ]
          ]
        ]
      }
    },
    {
      "type": "Feature",
      "id": "way/554033736",
      "properties": {
        "timestamp": "2018-05-11T11:37:50Z",
        "version": 2,
        "changeset": 58876069,
        "addr:city": "Mostardas",
        "addr:postcode": "96270-000",
        "addr:street": "Rua Bento Gonçalves",
        "addr:suburb": "Centro",
        "building": "yes",
        "building:levels": "2",
        "tourism": "hotel",
        "id": "way/554033736"
      },
      "geometry": {
        "type": "Polygon",
        "coordinates": [
          [
            [
              -50.9178349,
              -31.1099045
            ],
            [
              -50.9178846,
              -31.1099768
            ],
            [
              -50.9176329,
              -31.1100959
            ],
            [
              -50.9175866,
              -31.1100264
            ],
            [
              -50.9178349,
              -31.1099045
            ]
          ]
        ]
      }
    },
    {
      "type": "Feature",
      "id": "way/554042895",
      "properties": {
        "timestamp": "2018-09-17T15:11:43Z",
        "version": 3,
        "changeset": 62668550,
        "addr:city": "Mostardas",
        "addr:housenumber": "711",
        "addr:postcode": "96270-000",
        "addr:street": "Avenida Pinheiro Machado",
        "addr:suburb": "Centro",
        "building": "yes",
        "building:levels": "1",
        "tourism": "hotel",
        "id": "way/554042895"
      },
      "geometry": {
        "type": "Polygon",
        "coordinates": [
          [
            [
              -50.9184673,
              -31.1110035
            ],
            [
              -50.918403,
              -31.1109117
            ],
            [
              -50.9181418,
              -31.111037
            ],
            [
              -50.9180686,
              -31.11093
            ],
            [
              -50.9183904,
              -31.1107723
            ],
            [
              -50.9185317,
              -31.1109743
            ],
            [
              -50.9184673,
              -31.1110035
            ]
          ]
        ]
      }
    },
    {
      "type": "Feature",
      "id": "way/561320837",
      "properties": {
        "timestamp": "2018-05-11T11:37:49Z",
        "version": 3,
        "changeset": 58876069,
        "addr:city": "Mostardas",
        "addr:postcode": "96270-000",
        "addr:street": "Avenida Padre Simão",
        "building": "yes",
        "building:levels": "3",
        "tourism": "hotel",
        "id": "way/561320837"
      },
      "geometry": {
        "type": "Polygon",
        "coordinates": [
          [
            [
              -50.9128772,
              -31.1087889
            ],
            [
              -50.9127969,
              -31.1086642
            ],
            [
              -50.9130595,
              -31.1085396
            ],
            [
              -50.9131421,
              -31.1086652
            ],
            [
              -50.9128772,
              -31.1087889
            ]
          ]
        ]
      }
    },
    {
      "type": "Feature",
      "id": "way/588149077",
      "properties": {
        "timestamp": "2018-05-14T14:13:51Z",
        "version": 1,
        "changeset": 58954653,
        "addr:city": "Mostardas",
        "addr:postcode": "96270-000",
        "addr:street": "Avenida Padre Simão",
        "addr:suburb": "Centro",
        "building": "yes",
        "tourism": "hotel",
        "id": "way/588149077"
      },
      "geometry": {
        "type": "Polygon",
        "coordinates": [
          [
            [
              -50.9146161,
              -31.1081686
            ],
            [
              -50.9146995,
              -31.1081293
            ],
            [
              -50.9147978,
              -31.1082888
            ],
            [
              -50.9147132,
              -31.1083288
            ],
            [
              -50.9146161,
              -31.1081686
            ]
          ]
        ]
      }
    }
  ]
}
