{
  "type": "FeatureCollection",
  "features": [
    {
      "type": "Feature",
      "id": "way/541920395",
      "properties": {
        "timestamp": "2021-01-21T04:17:45Z",
        "version": 3,
        "changeset": 97871055,
        "addr:city": "Mostardas",
        "addr:postcode": "96270-000",
        "addr:street": "Rua XV de Novembro",
        "addr:suburb": "Centro",
        "amenity": "pharmacy",
        "building": "yes",
        "building:levels": "1",
        "dispensing": "yes",
        "healthcare": "pharmacy",
        "id": "way/541920395"
      },
      "geometry": {
        "type": "Polygon",
        "coordinates": [
          [
            [
              -50.9194778,
              -31.1087404
            ],
            [
              -50.919521,
              -31.1088074
            ],
            [
              -50.919372,
              -31.1088846
            ],
            [
              -50.9193273,
              -31.1088131
            ],
            [
              -50.9194778,
              -31.1087404
            ]
          ]
        ]
      }
    },
    {
      "type": "Feature",
      "id": "way/542936306",
      "properties": {
        "timestamp": "2018-05-14T18:52:40Z",
        "version": 3,
        "changeset": 58961804,
        "addr:city": "Mostardas",
        "addr:housenumber": "1083",
        "addr:postcode": "96270-000",
        "addr:street": "Rua Almirante Tamandaré",
        "addr:suburb": "Centro",
        "amenity": "pharmacy",
        "building": "yes",
        "dispensing": "yes",
        "healthcare": "pharmacy",
        "name": "Farmácia Economia",
        "id": "way/542936306"
      },
      "geometry": {
        "type": "Polygon",
        "coordinates": [
          [
            [
              -50.9180903,
              -31.1065189
            ],
            [
              -50.9181346,
              -31.1065843
            ],
            [
              -50.9179958,
              -31.1066486
            ],
            [
              -50.9179522,
              -31.1065843
            ],
            [
              -50.9180903,
              -31.1065189
            ]
          ]
        ]
      }
    },
    {
      "type": "Feature",
      "id": "node/4904614658",
      "properties": {
        "timestamp": "2021-01-21T04:17:45Z",
        "version": 2,
        "changeset": 97871055,
        "amenity": "pharmacy",
        "healthcare": "pharmacy",
        "name": "Farmácia Agafarma",
        "id": "node/4904614658"
      },
      "geometry": {
        "type": "Point",
        "coordinates": [
          -50.918406,
          -31.1085959
        ]
      }
    }
  ]
}
