{
  "type": "FeatureCollection",
  "features": [
    {
      "type": "Feature",
      "id": "way/974846307",
      "properties": {
        "timestamp": "2022-02-06T16:43:47Z",
        "version": 2,
        "changeset": 117086531,
        "addr:city": "Inhuma",
        "addr:postcode": "64535-000",
        "addr:street": "Rua do Amparo",
        "addr:suburb": "Centro",
        "amenity": "school",
        "name": "UE João de Deus Carvalho",
        "id": "way/974846307"
      },
      "geometry": {
        "type": "Polygon",
        "coordinates": [
          [
            [
              -41.7095187,
              -6.6699111
            ],
            [
              -41.7095692,
              -6.6704113
            ],
            [
              -41.7089934,
              -6.6705199
            ],
            [
              -41.7089284,
              -6.6700084
            ],
            [
              -41.7095187,
              -6.6699111
            ]
          ]
        ]
      }
    },
    {
      "type": "Feature",
      "id": "way/1028211428",
      "properties": {
        "timestamp": "2022-02-04T23:45:29Z",
        "version": 1,
        "changeset": 117027419,
        "amenity": "school",
        "name": "Escola Municipal Porfirio Mendes De Moura",
        "id": "way/1028211428"
      },
      "geometry": {
        "type": "Polygon",
        "coordinates": [
          [
            [
              -41.5140129,
              -6.7225881
            ],
            [
              -41.514395,
              -6.7225562
            ],
            [
              -41.5144439,
              -6.7228385
            ],
            [
              -41.5140592,
              -6.7228858
            ],
            [
              -41.5140129,
              -6.7225881
            ]
          ]
        ]
      }
    },
    {
      "type": "Feature",
      "id": "way/1028689898",
      "properties": {
        "timestamp": "2022-02-06T16:41:11Z",
        "version": 1,
        "changeset": 117086408,
        "addr:city": "Inhuma",
        "addr:housenumber": "763",
        "addr:postcode": "64535-000",
        "addr:street": "Rua Eurípedes de Aguiar",
        "addr:suburb": "Centro",
        "amenity": "school",
        "name": "Unid Esc Joao De Sousa Leal",
        "id": "way/1028689898"
      },
      "geometry": {
        "type": "Polygon",
        "coordinates": [
          [
            [
              -41.7098903,
              -6.6652053
            ],
            [
              -41.7105272,
              -6.6651131
            ],
            [
              -41.7105909,
              -6.6654734
            ],
            [
              -41.7099457,
              -6.6655449
            ],
            [
              -41.7098903,
              -6.6652053
            ]
          ]
        ]
      }
    },
    {
      "type": "Feature",
      "id": "way/1028690133",
      "properties": {
        "timestamp": "2022-02-06T16:42:19Z",
        "version": 1,
        "changeset": 117086474,
        "addr:city": "Inhuma",
        "addr:housenumber": "1075",
        "addr:postcode": "64535-000",
        "addr:street": "Rua Antônio de Deus de Carvalho",
        "addr:suburb": "Centro",
        "amenity": "school",
        "name": "U E Manoel Ferreira Barbosa De Macedo",
        "id": "way/1028690133"
      },
      "geometry": {
        "type": "Polygon",
        "coordinates": [
          [
            [
              -41.7086509,
              -6.663718
            ],
            [
              -41.7087021,
              -6.6641553
            ],
            [
              -41.7081704,
              -6.6642474
            ],
            [
              -41.7081441,
              -6.6637936
            ],
            [
              -41.7086509,
              -6.663718
            ]
          ]
        ]
      }
    },
    {
      "type": "Feature",
      "id": "node/9483813302",
      "properties": {
        "timestamp": "2022-02-06T16:43:18Z",
        "version": 1,
        "changeset": 117086514,
        "addr:city": "Inhuma",
        "addr:housenumber": "74",
        "addr:postcode": "64535-000",
        "addr:street": "Rua João Ferreira",
        "addr:suburb": "Centro",
        "amenity": "school",
        "name": "Escola Municipal Arlindo Cipriano Leal",
        "id": "node/9483813302"
      },
      "geometry": {
        "type": "Point",
        "coordinates": [
          -41.7075951,
          -6.6681628
        ]
      }
    },
    {
      "type": "Feature",
      "id": "node/9483818407",
      "properties": {
        "timestamp": "2022-02-06T16:44:22Z",
        "version": 1,
        "changeset": 117086551,
        "addr:city": "Inhuma",
        "addr:housenumber": "36",
        "addr:postcode": "64535-000",
        "addr:street": "Rua Raimundo Borges de Oliveira",
        "addr:suburb": "Centro",
        "amenity": "school",
        "name": "U E Antonio De Deus Carvalho",
        "id": "node/9483818407"
      },
      "geometry": {
        "type": "Point",
        "coordinates": [
          -41.7044301,
          -6.6712664
        ]
      }
    },
    {
      "type": "Feature",
      "id": "node/9483851082",
      "properties": {
        "timestamp": "2022-02-06T16:40:02Z",
        "version": 1,
        "changeset": 117086342,
        "amenity": "school",
        "name": "Escola Municipal Monsenhor Lopes",
        "phone": "+55 89 3477 1214",
        "id": "node/9483851082"
      },
      "geometry": {
        "type": "Point",
        "coordinates": [
          -41.777802,
          -6.7187561
        ]
      }
    },
    {
      "type": "Feature",
      "id": "node/9483861375",
      "properties": {
        "timestamp": "2022-02-06T16:40:28Z",
        "version": 1,
        "changeset": 117086372,
        "amenity": "school",
        "name": "Unidade Escolar Joao Amilton Ferreira",
        "id": "node/9483861375"
      },
      "geometry": {
        "type": "Point",
        "coordinates": [
          -41.7138286,
          -6.6684185
        ]
      }
    },
    {
      "type": "Feature",
      "id": "node/9483866328",
      "properties": {
        "timestamp": "2022-02-06T16:41:44Z",
        "version": 1,
        "changeset": 117086431,
        "addr:city": "Inhuma",
        "addr:housenumber": "934",
        "addr:postcode": "64535-000",
        "addr:street": "Rua Eurípedes de Aguiar",
        "addr:suburb": "Centro",
        "amenity": "school",
        "name": "Escola Municipal Tia Nenen Brito",
        "id": "node/9483866328"
      },
      "geometry": {
        "type": "Point",
        "coordinates": [
          -41.7095397,
          -6.6635885
        ]
      }
    },
    {
      "type": "Feature",
      "id": "node/9483869443",
      "properties": {
        "timestamp": "2022-02-06T16:44:40Z",
        "version": 1,
        "changeset": 117086565,
        "amenity": "school",
        "name": "Escola Municipal Rita Pereira De Sao Jose",
        "id": "node/9483869443"
      },
      "geometry": {
        "type": "Point",
        "coordinates": [
          -41.7935787,
          -6.6356974
        ]
      }
    }
  ]
}
