{
  "type": "FeatureCollection",
  "features": [
    {
      "type": "Feature",
      "id": "way/946806817",
      "properties": {
        "timestamp": "2021-12-06T04:10:52Z",
        "version": 5,
        "changeset": 114601467,
        "addr:city": "Montanha",
        "addr:housenumber": "Km 130",
        "addr:postcode": "29890-000",
        "addr:street": "Avenida Antônio Paulino",
        "amenity": "college",
        "name": "IFES - Campus Montanha",
        "operator": "Instituto Federal do Espírito Santo",
        "operator:type": "government",
        "phone": "(27) 3754-3950",
        "website": "https://montanha.ifes.edu.br/",
        "id": "way/946806817"
      },
      "geometry": {
        "type": "Polygon",
        "coordinates": [
          [
            [
              -40.3518773,
              -18.1280174
            ],
            [
              -40.3526373,
              -18.1301169
            ],
            [
              -40.3491755,
              -18.1310849
            ],
            [
              -40.3485193,
              -18.1288719
            ],
            [
              -40.3518773,
              -18.1280174
            ]
          ]
        ]
      }
    }
  ]
}
