{
  "type": "FeatureCollection",
  "features": [
    {
      "type": "Feature",
      "id": "way/233727967",
      "properties": {
        "timestamp": "2023-01-15T11:32:13Z",
        "version": 5,
        "changeset": 131294265,
        "IJSN:administra": "Municipal",
        "IJSN:classeCnae": "Fundamental",
        "addr:city": "Montanha",
        "addr:housenumber": "311",
        "addr:postcode": "29890-000",
        "addr:street": "Avenida José Silveira",
        "addr:suburb": "São Sebastião",
        "alt_name": "EMEF Maria Clementina",
        "amenity": "school",
        "contact:phone": "+55 27 3754 1799;+55 27 3754 2267",
        "name": "Escola Municipal de Ensino Fundamental Maria Clementina",
        "source": "IJSN",
        "wheelchair": "yes",
        "id": "way/233727967"
      },
      "geometry": {
        "type": "Polygon",
        "coordinates": [
          [
            [
              -40.3549918,
              -18.1283183
            ],
            [
              -40.3549273,
              -18.1287776
            ],
            [
              -40.3543061,
              -18.1286974
            ],
            [
              -40.354355,
              -18.1282306
            ],
            [
              -40.3549918,
              -18.1283183
            ]
          ]
        ]
      }
    },
    {
      "type": "Feature",
      "id": "way/233729844",
      "properties": {
        "timestamp": "2023-01-06T20:09:41Z",
        "version": 6,
        "changeset": 130961118,
        "IJSN:administra": "Estadual",
        "IJSN:classeCnae": "Fundamental e Médio",
        "addr:city": "Montanha",
        "addr:housenumber": "14",
        "addr:postcode": "29890-000",
        "addr:street": "Rua Linhares",
        "addr:suburb": "Centro",
        "alt_name": "EEEFM Dom José Dalvit",
        "amenity": "school",
        "contact:phone": "+55 27 3754 1249;+55 27 3754 1707 / 3754-1249",
        "name": "Escola Estadual de Ensino Fundamental e Médio Dom José Dalvit",
        "source": "IJSN",
        "wheelchair": "limited",
        "id": "way/233729844"
      },
      "geometry": {
        "type": "Polygon",
        "coordinates": [
          [
            [
              -40.3664059,
              -18.1264229
            ],
            [
              -40.3664057,
              -18.1271699
            ],
            [
              -40.3663019,
              -18.1271694
            ],
            [
              -40.3662993,
              -18.127335
            ],
            [
              -40.3659179,
              -18.1273323
            ],
            [
              -40.3659523,
              -18.1264275
            ],
            [
              -40.3664059,
              -18.1264229
            ]
          ]
        ]
      }
    },
    {
      "type": "Feature",
      "id": "way/1132155964",
      "properties": {
        "timestamp": "2023-01-15T11:32:13Z",
        "version": 1,
        "changeset": 131294265,
        "IJSN:administra": "Privada",
        "IJSN:classeCnae": "Infantil e Fundamental",
        "addr:city": "Montanha",
        "addr:housenumber": "692",
        "addr:postcode": "29890-000",
        "addr:street": "Rua José Coelho Cortes",
        "addr:suburb": "Centro",
        "alt_name": "CEB Nossa Senhora Aparecida",
        "amenity": "school",
        "contact:phone": "(27) 3754-1106 / 3754-1459",
        "name": "Centro de Educação Básica Nossa Senhora Aparecida",
        "operator": "Associação Educacional e Cultural Filhas de Nossa Senhora do Monte Calvário",
        "operator:type": "private",
        "source": "IJSN",
        "wheelchair": "yes",
        "id": "way/1132155964"
      },
      "geometry": {
        "type": "Polygon",
        "coordinates": [
          [
            [
              -40.3620301,
              -18.1283112
            ],
            [
              -40.3628271,
              -18.1283755
            ],
            [
              -40.3627903,
              -18.1288473
            ],
            [
              -40.3620073,
              -18.1287907
            ],
            [
              -40.3620301,
              -18.1283112
            ]
          ]
        ]
      }
    },
    {
      "type": "Feature",
      "id": "way/1132180859",
      "properties": {
        "timestamp": "2023-01-15T14:16:39Z",
        "version": 1,
        "changeset": 131299990,
        "IJSN:administra": "Municipal",
        "IJSN:classeCnae": "Fundamental",
        "addr:city": "Montanha",
        "addr:postcode": "29890-000",
        "addr:street": "Avenida dos Combonianos",
        "addr:suburb": "Irmã Maria Zélia Prudente",
        "alt_name": "EMEF Domingos Martins",
        "amenity": "school",
        "contact:phone": "+55 27 3754 2275;+55 27 3754 1791;+55 27 3754 2260",
        "name": "Escola Municipal de Ensino Fundamental Domingos Martins",
        "source": "IJSN",
        "id": "way/1132180859"
      },
      "geometry": {
        "type": "Polygon",
        "coordinates": [
          [
            [
              -40.372477,
              -18.1279657
            ],
            [
              -40.3719402,
              -18.1279703
            ],
            [
              -40.3719407,
              -18.1278053
            ],
            [
              -40.371935,
              -18.1275378
            ],
            [
              -40.3725296,
              -18.1274178
            ],
            [
              -40.3725344,
              -18.1274856
            ],
            [
              -40.3725369,
              -18.1276043
            ],
            [
              -40.3725408,
              -18.1276218
            ],
            [
              -40.3725425,
              -18.1277014
            ],
            [
              -40.3725488,
              -18.1278074
            ],
            [
              -40.3724752,
              -18.127806
            ],
            [
              -40.3724773,
              -18.1279033
            ],
            [
              -40.372477,
              -18.1279657
            ]
          ]
        ]
      }
    },
    {
      "type": "Feature",
      "id": "node/2422063696",
      "properties": {
        "timestamp": "2019-07-11T17:33:19Z",
        "version": 4,
        "changeset": 72146221,
        "IJSN:administra": "Municipal",
        "IJSN:classeCnae": "Fundamental",
        "addr:city": "Montanha",
        "addr:postcode": "29894-000",
        "addr:street": "Avenida Cristiano Dias Lopes Filho",
        "addr:suburb": "Comunidade Vinhático",
        "alt_name": "Escola Municipal de Ensino Fundamental",
        "amenity": "school",
        "contact:phone": "+55 27 3754-5142;+55 27 3754-5210",
        "name": "EMEF Pedro Palácios",
        "source": "IJSN",
        "id": "node/2422063696"
      },
      "geometry": {
        "type": "Point",
        "coordinates": [
          -40.2653363,
          -18.1973143
        ]
      }
    },
    {
      "type": "Feature",
      "id": "node/4024904794",
      "properties": {
        "timestamp": "2021-03-06T20:18:26Z",
        "version": 2,
        "changeset": 100551790,
        "IJSN:administra": "Estadual",
        "IJSN:classeCnae": "Fundamental",
        "addr:city": "Montanha",
        "addr:housenumber": "1085",
        "addr:postcode": "29890-000",
        "addr:street": "Avenida Antônio Paulino",
        "addr:suburb": "Centro",
        "alt_name": "Escola Estadual de Ensino Fundamental e Médio",
        "amenity": "school",
        "contact:phone": "(27) 3754-1735 / 3754-1735",
        "name": "EEEFM Elpídio Campos de Oliveira",
        "source": "IJSN",
        "wheelchair": "yes",
        "id": "node/4024904794"
      },
      "geometry": {
        "type": "Point",
        "coordinates": [
          -40.3620051,
          -18.1264099
        ]
      }
    },
    {
      "type": "Feature",
      "id": "node/4024904829",
      "properties": {
        "timestamp": "2016-02-25T01:59:37Z",
        "version": 1,
        "changeset": 37426154,
        "IJSN:administra": "Estadual",
        "IJSN:classeCnae": "Fundamental e Médio",
        "addr:city": "Montanha",
        "addr:housenumber": "190",
        "addr:postcode": "29894-000",
        "addr:street": "Rua Presidente Kennedy",
        "addr:suburb": "Centro",
        "alt_name": "Escola Estadual de Ensino Fundamental e Médio",
        "amenity": "school",
        "contact:phone": "(27) 3754-5181 / 3754-5180 / 3754-5181",
        "name": "EEEFM Padre Manoel da Nobrega",
        "source": "IJSN",
        "id": "node/4024904829"
      },
      "geometry": {
        "type": "Point",
        "coordinates": [
          -40.2651612,
          -18.1959598
        ]
      }
    },
    {
      "type": "Feature",
      "id": "node/4024904888",
      "properties": {
        "timestamp": "2016-02-25T01:59:47Z",
        "version": 1,
        "changeset": 37426154,
        "IJSN:administra": "Estadual",
        "IJSN:classeCnae": "Fundamental",
        "addr:city": "Montanha",
        "addr:housenumber": "55",
        "addr:postcode": "29890-000",
        "addr:suburb": "Comunidade Assentamento Bela Vista",
        "alt_name": "Escola Estadual Pluridocente de Ensino Fundamental",
        "amenity": "school",
        "name": "EEPEF Bela Vista",
        "source": "IJSN",
        "id": "node/4024904888"
      },
      "geometry": {
        "type": "Point",
        "coordinates": [
          -40.2453587,
          -18.2092364
        ]
      }
    },
    {
      "type": "Feature",
      "id": "node/4024904997",
      "properties": {
        "timestamp": "2016-02-25T01:59:49Z",
        "version": 1,
        "changeset": 37426154,
        "IJSN:administra": "Estadual",
        "IJSN:classeCnae": "Fundamental",
        "addr:city": "Montanha",
        "addr:housenumber": "6",
        "addr:postcode": "29890-000",
        "addr:suburb": "Comunidade São Lourenço",
        "alt_name": "Escola Estadual Pluridocente de Ensino Fundamental",
        "amenity": "school",
        "name": "EEPEF Francisco Domingos Ramos",
        "source": "IJSN",
        "id": "node/4024904997"
      },
      "geometry": {
        "type": "Point",
        "coordinates": [
          -40.1739207,
          -18.2662333
        ]
      }
    },
    {
      "type": "Feature",
      "id": "node/4024905004",
      "properties": {
        "timestamp": "2016-02-25T01:59:50Z",
        "version": 1,
        "changeset": 37426154,
        "IJSN:administra": "Estadual",
        "IJSN:classeCnae": "Fundamental",
        "addr:city": "Montanha",
        "addr:housenumber": "55",
        "addr:postcode": "29890-000",
        "addr:street": "Rua Assentamento Adriano Machado",
        "addr:suburb": "Comunidade Montanha",
        "alt_name": "Escola Estadual Pluridocente de Ensino Fundamental",
        "amenity": "school",
        "name": "EEPEF Paulo Freire",
        "source": "IJSN",
        "id": "node/4024905004"
      },
      "geometry": {
        "type": "Point",
        "coordinates": [
          -40.3276364,
          -18.1111433
        ]
      }
    },
    {
      "type": "Feature",
      "id": "node/4024905041",
      "properties": {
        "timestamp": "2016-02-25T01:59:55Z",
        "version": 1,
        "changeset": 37426154,
        "IJSN:administra": "Estadual",
        "IJSN:classeCnae": "Fundamental",
        "addr:city": "Montanha",
        "addr:housenumber": "4",
        "addr:postcode": "29890-000",
        "addr:suburb": "Comunidade Santo Antônio",
        "alt_name": "Escola Estadual Unidocente de Ensino Fundamental",
        "amenity": "school",
        "name": "EEUEF Francisco Fialho de Lima",
        "source": "IJSN",
        "id": "node/4024905041"
      },
      "geometry": {
        "type": "Point",
        "coordinates": [
          -40.2759474,
          -18.1261425
        ]
      }
    },
    {
      "type": "Feature",
      "id": "node/4024905052",
      "properties": {
        "timestamp": "2016-02-25T01:59:57Z",
        "version": 1,
        "changeset": 37426154,
        "IJSN:administra": "Estadual",
        "IJSN:classeCnae": "Fundamental",
        "addr:city": "Montanha",
        "addr:housenumber": "46",
        "addr:postcode": "29890-000",
        "addr:suburb": "Comunidade São Lourenço",
        "alt_name": "Escola Estadual Unidocente de Ensino Fundamental",
        "amenity": "school",
        "name": "EEUEF Rosangela Leite Alves",
        "source": "IJSN",
        "id": "node/4024905052"
      },
      "geometry": {
        "type": "Point",
        "coordinates": [
          -40.2252534,
          -18.2444592
        ]
      }
    },
    {
      "type": "Feature",
      "id": "node/4024905072",
      "properties": {
        "timestamp": "2016-02-25T02:00:00Z",
        "version": 1,
        "changeset": 37426154,
        "IJSN:administra": "Privada",
        "IJSN:classeCnae": "Fundamental e Médio",
        "addr:city": "Montanha",
        "addr:postcode": "29890-000",
        "addr:street": "Rodovia Vinhático Montanha",
        "addr:suburb": "Comunidade Assentamento Bela Vista",
        "alt_name": "Escola Família Agrícola",
        "amenity": "school",
        "contact:phone": "(27) 3754-5192",
        "name": "EFA de Vinhático",
        "source": "IJSN",
        "id": "node/4024905072"
      },
      "geometry": {
        "type": "Point",
        "coordinates": [
          -40.2629083,
          -18.1793237
        ]
      }
    },
    {
      "type": "Feature",
      "id": "node/4024905271",
      "properties": {
        "timestamp": "2016-02-25T02:00:16Z",
        "version": 1,
        "changeset": 37426154,
        "IJSN:administra": "Municipal",
        "IJSN:classeCnae": "Fundamental",
        "addr:city": "Montanha",
        "addr:housenumber": "126",
        "addr:postcode": "29890-000",
        "addr:street": "Rua Professor Fagundes de Lima",
        "addr:suburb": "Brasília",
        "alt_name": "Escola Municipal de Ensino Fundamental",
        "amenity": "school",
        "contact:phone": "(27) 3754-2278 / 3754-1699",
        "name": "EMEF Bairro Brasília",
        "source": "IJSN",
        "id": "node/4024905271"
      },
      "geometry": {
        "type": "Point",
        "coordinates": [
          -40.3732035,
          -18.1301282
        ]
      }
    },
    {
      "type": "Feature",
      "id": "node/4024905659",
      "properties": {
        "timestamp": "2016-02-25T02:00:48Z",
        "version": 1,
        "changeset": 37426154,
        "IJSN:administra": "Municipal",
        "IJSN:classeCnae": "Fundamental",
        "addr:city": "Montanha",
        "addr:housenumber": "234",
        "addr:postcode": "29890-000",
        "addr:street": "Praça Coronel Vindilino de Matos Lima",
        "addr:suburb": "Fundão",
        "alt_name": "Escola Municipal de Ensino Fundamental",
        "amenity": "school",
        "contact:phone": "(27) 3754-1790 / 3157-1715",
        "name": "EMEF Presidente Costa e Silva",
        "source": "IJSN",
        "id": "node/4024905659"
      },
      "geometry": {
        "type": "Point",
        "coordinates": [
          -40.3630101,
          -18.1236715
        ]
      }
    },
    {
      "type": "Feature",
      "id": "node/4024905721",
      "properties": {
        "timestamp": "2016-02-25T02:00:58Z",
        "version": 1,
        "changeset": 37426154,
        "IJSN:administra": "Municipal",
        "IJSN:classeCnae": "Fundamental",
        "addr:city": "Montanha",
        "addr:postcode": "29890-000",
        "addr:street": "Avenida Antônio Pinheiro Barbosa",
        "addr:suburb": "Comunidade São Sebastião do Norte",
        "alt_name": "Escola Municipal de Ensino Fundamental",
        "amenity": "school",
        "contact:phone": "(27) 3754-6086 / 3754-6064",
        "name": "EMEF São Sebastião do Norte",
        "source": "IJSN",
        "id": "node/4024905721"
      },
      "geometry": {
        "type": "Point",
        "coordinates": [
          -40.172837,
          -18.1073013
        ]
      }
    },
    {
      "type": "Feature",
      "id": "node/4024906287",
      "properties": {
        "timestamp": "2016-02-25T02:01:56Z",
        "version": 1,
        "changeset": 37426154,
        "IJSN:administra": "Municipal",
        "IJSN:classeCnae": "Fundamental",
        "addr:city": "Montanha",
        "addr:postcode": "29890-000",
        "addr:suburb": "Comunidade Limoeiro",
        "alt_name": "Escola Municipal Unidocente de Ensino Fundamental",
        "amenity": "school",
        "name": "EMUEF Córrego do Limoeiro",
        "source": "IJSN",
        "id": "node/4024906287"
      },
      "geometry": {
        "type": "Point",
        "coordinates": [
          -40.247102,
          -18.1418871
        ]
      }
    },
    {
      "type": "Feature",
      "id": "node/4024906365",
      "properties": {
        "timestamp": "2016-02-25T02:02:08Z",
        "version": 1,
        "changeset": 37426154,
        "IJSN:administra": "Municipal",
        "IJSN:classeCnae": "Fundamental",
        "addr:city": "Montanha",
        "addr:postcode": "29890-000",
        "addr:suburb": "Comunidade Ramal da Fumaça",
        "alt_name": "Escola Municipal Unidocente de Ensino Fundamental",
        "amenity": "school",
        "contact:phone": "(27) 3754-2277 / 3754-2582",
        "name": "EMUEF Professora Almerinda Rezende Fiorio",
        "source": "IJSN",
        "id": "node/4024906365"
      },
      "geometry": {
        "type": "Point",
        "coordinates": [
          -40.1878459,
          -18.0990613
        ]
      }
    },
    {
      "type": "Feature",
      "id": "node/4024906598",
      "properties": {
        "timestamp": "2016-02-25T02:02:13Z",
        "version": 1,
        "changeset": 37426154,
        "IJSN:administra": "Municipal",
        "IJSN:classeCnae": "Fundamental",
        "addr:city": "Montanha",
        "addr:postcode": "29890-000",
        "addr:street": "Fazenda Dois Irmãos",
        "addr:suburb": "Comunidade São Lourenço",
        "alt_name": "Escola Municipal Unidocente de Ensino Fundamental",
        "amenity": "school",
        "contact:phone": "(27) 3754-2277 / 3754-2262",
        "name": "EMUEF São Lourenço",
        "source": "IJSN",
        "id": "node/4024906598"
      },
      "geometry": {
        "type": "Point",
        "coordinates": [
          -40.1696985,
          -18.2698287
        ]
      }
    }
  ]
}
