{
  "type": "FeatureCollection",
  "features": [
    {
      "type": "Feature",
      "id": "node/8596004091",
      "properties": {
        "timestamp": "2024-02-01T01:50:05Z",
        "version": 3,
        "changeset": 146927139,
        "addr:city": "Indaiatuba",
        "addr:housenumber": "116",
        "addr:postcode": "13338-050",
        "addr:street": "Avenida dos Trabalhadores",
        "addr:suburb": "Vila Castelo Branco",
        "amenity": "doctors",
        "contact:instagram": "https://www.instagram.com//",
        "description": "Psicóloga Especialista em Clínica Psicanalítica. Te ajudo a viver com propósito e amor próprio.",
        "healthcare": "doctor",
        "healthcare:speciality": "psychology;psychotherapist;psychotherapy",
        "level": "10",
        "name": "Psicóloga Isabela Berghe",
        "operator": "Isabela Berghe de Oliveira Conti",
        "phone": "+55 19 99212 2129",
        "id": "node/8596004091"
      },
      "geometry": {
        "type": "Point",
        "coordinates": [
          -47.1992673,
          -23.0870095
        ]
      }
    },
    {
      "type": "Feature",
      "id": "node/11504268098",
      "properties": {
        "timestamp": "2024-02-01T01:46:32Z",
        "version": 3,
        "changeset": 146927071,
        "addr:city": "Indaiatuba",
        "addr:housenumber": "116",
        "addr:postcode": "13338-050",
        "addr:street": "Avenida dos Trabalhadores",
        "addr:suburb": "Vila Castelo Branco",
        "amenity": "doctors",
        "contact:facebook": "https://www.facebook.com/profile.php?id=61555639221662&mibextid=ZbWKwL",
        "email": "consultoriodrajoyce@gmail.com",
        "emergency": "no",
        "healthcare": "doctor",
        "healthcare:speciality": "endocrinology;metabologia",
        "mobile": "+55 19 97163 7823",
        "name": "Doutora Joyce do Rosario Martins",
        "operator": "Joyce do Rosario Martins",
        "operator:type": "business",
        "payment:cards": "yes",
        "payment:cash": "yes",
        "source": "local knowledge",
        "website": "https://www.drajoycemartins.com.br",
        "wheelchair": "yes",
        "id": "node/11504268098"
      },
      "geometry": {
        "type": "Point",
        "coordinates": [
          -47.1992601,
          -23.0870922
        ]
      }
    }
  ]
}
