{
  "type": "FeatureCollection",
  "features": [
    {
      "type": "Feature",
      "id": "way/364590456",
      "properties": {
        "timestamp": "2021-03-06T19:23:18Z",
        "version": 8,
        "changeset": 100550608,
        "addr:city": "Indaiatuba",
        "addr:housenumber": "3665",
        "addr:postcode": "13348-883",
        "addr:street": "Avenida Engenheiro Fábio Roberto Barnabé",
        "addr:suburb": "Jardim Regina",
        "building": "yes",
        "contact:phone": "+55 19 3016 7758",
        "loc_name": "CIAEI",
        "name": "Secretaria de Educação de Indaiatuba",
        "office": "government",
        "opening_hours": "Mo-Fr 08:00-17:00; PH Off",
        "phone": "+55 19 3801 9191",
        "website": "https://www.indaiatuba.sp.gov.br/educacao/",
        "id": "way/364590456"
      },
      "geometry": {
        "type": "Polygon",
        "coordinates": [
          [
            [
              -47.2280821,
              -23.0987747
            ],
            [
              -47.2280528,
              -23.0988014
            ],
            [
              -47.2281279,
              -23.0988575
            ],
            [
              -47.2281899,
              -23.0989347
            ],
            [
              -47.2282307,
              -23.0989181
            ],
            [
              -47.228256,
              -23.0990149
            ],
            [
              -47.2280534,
              -23.0990488
            ],
            [
              -47.2278984,
              -23.0988739
            ],
            [
              -47.2279431,
              -23.0987437
            ],
            [
              -47.2280607,
              -23.0986946
            ],
            [
              -47.2280442,
              -23.0987308
            ],
            [
              -47.2280821,
              -23.0987747
            ]
          ]
        ]
      }
    },
    {
      "type": "Feature",
      "id": "node/4548642696",
      "properties": {
        "timestamp": "2023-04-28T07:18:26Z",
        "version": 3,
        "changeset": 135454771,
        "addr:city": "Indaiatuba",
        "addr:housenumber": "1050",
        "addr:street": "Rua das Primaveras",
        "addr:suburb": "Jardim Pompéia",
        "government": "public_service",
        "name": "Poupatempo Indaiatuba",
        "office": "government",
        "opening_hours": "Mo-Fr 08:00-17:00; Sa 08:00-12:00; PH off",
        "id": "node/4548642696"
      },
      "geometry": {
        "type": "Point",
        "coordinates": [
          -47.2241383,
          -23.0961333
        ]
      }
    }
  ]
}
