{
  "type": "FeatureCollection",
  "features": [
    {
      "type": "Feature",
      "id": "way/754138164",
      "properties": {
        "timestamp": "2019-12-10T02:02:50Z",
        "version": 1,
        "changeset": 78177560,
        "addr:city": "Itajaí",
        "addr:housenumber": "1008",
        "addr:street": "Rua Estéfano José Vanolli",
        "addr:suburb": "São Vicente",
        "building": "yes",
        "contact:facebook": "https://www.facebook.com/Raioeroda/",
        "name": "Raio e Roda Cicle Peças",
        "opening_hours": "Mo-Fr 08:00-12:00, 13:30-18:30; Sa 08:00-12:00, 13:30-16:00",
        "shop": "bicycle",
        "id": "way/754138164"
      },
      "geometry": {
        "type": "Polygon",
        "coordinates": [
          [
            [
              -48.6888254,
              -26.9031576
            ],
            [
              -48.6890718,
              -26.9031537
            ],
            [
              -48.6890723,
              -26.9032629
            ],
            [
              -48.6888251,
              -26.9032684
            ],
            [
              -48.6888254,
              -26.9031576
            ]
          ]
        ]
      }
    },
    {
      "type": "Feature",
      "id": "way/1222394281",
      "properties": {
        "timestamp": "2023-11-10T04:00:13Z",
        "version": 1,
        "changeset": 143846137,
        "building": "yes",
        "shop": "bicycle",
        "id": "way/1222394281"
      },
      "geometry": {
        "type": "Polygon",
        "coordinates": [
          [
            [
              -48.6547585,
              -26.9071673
            ],
            [
              -48.6545736,
              -26.9071526
            ],
            [
              -48.6545796,
              -26.9070669
            ],
            [
              -48.6547716,
              -26.907093
            ],
            [
              -48.6547585,
              -26.9071673
            ]
          ]
        ]
      }
    },
    {
      "type": "Feature",
      "id": "node/3940291199",
      "properties": {
        "timestamp": "2022-10-10T14:22:05Z",
        "version": 9,
        "changeset": 127306569,
        "addr:city": "Itajaí",
        "addr:housenumber": "3612",
        "addr:postcode": "88306-002",
        "addr:street": "Avenida Osvaldo Reis",
        "addr:suburb": "Praia Brava",
        "name": "Demarchi Bicicletas",
        "old_name": "Demarchi Biciclette",
        "phone": "+55 47 3349-1527",
        "service:bicycle:repair": "yes",
        "service:bicycle:second_hand": "yes",
        "shop": "bicycle",
        "id": "node/3940291199"
      },
      "geometry": {
        "type": "Point",
        "coordinates": [
          -48.6401906,
          -26.9554961
        ]
      }
    },
    {
      "type": "Feature",
      "id": "node/3940291200",
      "properties": {
        "timestamp": "2023-11-10T04:00:13Z",
        "version": 8,
        "changeset": 143846137,
        "name": "Pedalli Bike Store",
        "old_name": "Pedalli Bike Shop",
        "opening_hours": "Mo-Fr 09:00-12:00, 13:30-19:00; Sa 09:00-12:00",
        "phone": "+55 47 98413 0719",
        "service:bicycle:repair": "yes",
        "service:bicycle:retail": "yes",
        "service:bicycle:second_hand": "yes",
        "shop": "bicycle",
        "website": "https://www.pedalli.com.br/",
        "id": "node/3940291200"
      },
      "geometry": {
        "type": "Point",
        "coordinates": [
          -48.6546775,
          -26.9068671
        ]
      }
    },
    {
      "type": "Feature",
      "id": "node/11023076860",
      "properties": {
        "timestamp": "2023-07-03T17:22:03Z",
        "version": 5,
        "changeset": 138073789,
        "name": "Casa Ary",
        "opening_hours": "Mo-Fr 08:00-12:00, 13:30-18:30; Sa 08:00-12:00",
        "phone": "+55 47 99724 2829",
        "service:bicycle:pump": "yes",
        "service:bicycle:second_hand": "yes",
        "shop": "bicycle",
        "website": "https://www.casaary.com.br/",
        "id": "node/11023076860"
      },
      "geometry": {
        "type": "Point",
        "coordinates": [
          -48.6687443,
          -26.9053881
        ]
      }
    },
    {
      "type": "Feature",
      "id": "node/11023089058",
      "properties": {
        "timestamp": "2023-07-04T12:44:47Z",
        "version": 7,
        "changeset": 138106808,
        "contact:instagram": "tribodasbikes",
        "contact:phone": "+55 47 98436-3329",
        "name": "Tribo das bikes",
        "opening_hours": "Mo-Fr 09:00-12:00, 13:30-19:00; Sa 09:00-13:00",
        "service:bicycle:cleaning": "yes",
        "service:bicycle:pump": "separate",
        "service:bicycle:rental": "no",
        "service:bicycle:repair": "yes",
        "service:bicycle:retail": "yes",
        "shop": "bicycle",
        "id": "node/11023089058"
      },
      "geometry": {
        "type": "Point",
        "coordinates": [
          -48.6538886,
          -26.9191594
        ]
      }
    },
    {
      "type": "Feature",
      "id": "node/11023090509",
      "properties": {
        "timestamp": "2023-07-07T16:28:43Z",
        "version": 5,
        "changeset": 138235994,
        "name": "Santos Bikes",
        "opening_hours": "Mo-Fr 09:00-12:00, 13:30-19:00; Sa 09:00-13:00",
        "phone": "+55 47 3045 7885",
        "service:bicycle:repair": "yes",
        "service:bicycle:retail": "yes",
        "shop": "bicycle",
        "website": "https://www.santosbikes.com.br/",
        "id": "node/11023090509"
      },
      "geometry": {
        "type": "Point",
        "coordinates": [
          -48.6572322,
          -26.9121649
        ]
      }
    },
    {
      "type": "Feature",
      "id": "node/11035713285",
      "properties": {
        "timestamp": "2023-07-09T14:53:44Z",
        "version": 1,
        "changeset": 138299632,
        "addr:city": "Itajaí",
        "addr:street": "Avenida Ministro Luiz Gallotti",
        "addr:suburb": "Cidade Nova",
        "name": "Bike Peças",
        "shop": "bicycle",
        "id": "node/11035713285"
      },
      "geometry": {
        "type": "Point",
        "coordinates": [
          -48.7004372,
          -26.9237589
        ]
      }
    },
    {
      "type": "Feature",
      "id": "node/11036523509",
      "properties": {
        "timestamp": "2023-07-10T02:42:57Z",
        "version": 1,
        "changeset": 138317306,
        "addr:city": "Itajaí",
        "addr:street": "Avenida Ministro Luiz Gallotti",
        "addr:suburb": "Cidade Nova",
        "name": "Bicicletaria Styllus",
        "shop": "bicycle",
        "id": "node/11036523509"
      },
      "geometry": {
        "type": "Point",
        "coordinates": [
          -48.6990982,
          -26.9248853
        ]
      }
    }
  ]
}
