{
  "type": "FeatureCollection",
  "features": [
    {
      "type": "Feature",
      "id": "node/9084831356",
      "properties": {
        "timestamp": "2021-09-12T21:27:52Z",
        "version": 2,
        "changeset": 111113235,
        "addr:city": "Itajaí",
        "addr:housenumber": "1850",
        "addr:street": "Avenida Governador Adolfo Konder",
        "addr:suburb": "São Vicente",
        "amenity": "college",
        "name": "Assessoritec",
        "opening_hours": "Mo-Th 08:00-12:00,14:00-19:30; Fr 08:00-12:00,14:00-18:00",
        "phone": "+55 47 3045-1709",
        "website": "https://www.assessoritec.com.br/",
        "id": "node/9084831356"
      },
      "geometry": {
        "type": "Point",
        "coordinates": [
          -48.700437,
          -26.9153013
        ]
      }
    },
    {
      "type": "Feature",
      "id": "node/11124110996",
      "properties": {
        "timestamp": "2023-08-18T00:56:29Z",
        "version": 1,
        "changeset": 140035093,
        "addr:city": "Itajaí",
        "addr:street": "Avenida Vereador Nilo Simas",
        "addr:suburb": "Cidade Nova",
        "alt_name": "Escola da Refrigeração CREAR",
        "amenity": "college",
        "contact:facebook": "https://www.facebook.com/crearitajai/",
        "name": "Escola da Refrigeração",
        "official_name": "Centro de Referência Educacional em Ar Condicionado e Refrigeração",
        "id": "node/11124110996"
      },
      "geometry": {
        "type": "Point",
        "coordinates": [
          -48.6953551,
          -26.9257976
        ]
      }
    }
  ]
}
