{
  "type": "FeatureCollection",
  "features": [
    {
      "type": "Feature",
      "id": "node/10108947155",
      "properties": {
        "timestamp": "2022-10-17T16:29:47Z",
        "version": 2,
        "changeset": 127682226,
        "addr:city": "Itajaí",
        "addr:housenumber": "757",
        "addr:street": "Rua Camboriú",
        "addr:suburb": "Fazenda",
        "amenity": "doctors",
        "healthcare": "doctor",
        "name": "Felizmed",
        "opening_hours": "Mo-Fr 08:00-22:00; Sa 08:00-24:00",
        "id": "node/10108947155"
      },
      "geometry": {
        "type": "Point",
        "coordinates": [
          -48.6553244,
          -26.914477
        ]
      }
    },
    {
      "type": "Feature",
      "id": "node/10126488695",
      "properties": {
        "timestamp": "2022-12-05T14:20:12Z",
        "version": 2,
        "changeset": 129743990,
        "amenity": "doctors",
        "check_date": "2022-12-05",
        "healthcare": "doctor",
        "healthcare:speciality": "optometry",
        "name": "Hospital de olhos de Itajaí",
        "id": "node/10126488695"
      },
      "geometry": {
        "type": "Point",
        "coordinates": [
          -48.655555,
          -26.9148827
        ]
      }
    },
    {
      "type": "Feature",
      "id": "node/12580364793",
      "properties": {
        "timestamp": "2025-02-11T22:58:08Z",
        "version": 1,
        "changeset": 162409973,
        "addr:city": "Itajaí",
        "addr:housenumber": "2087",
        "addr:postcode": "88301-203",
        "addr:street": "Av. Sete de Setembro",
        "addr:suburb": "Fazenda",
        "amenity": "doctors",
        "currency:XBT": "yes",
        "healthcare": "doctor",
        "healthcare:speciality": "radiology",
        "instagram": "https://www.instagram.com/icrdiagnostico/",
        "mobile": "047 999085500",
        "name": "ICR - Instituto Catarinense de Radiologia - Ultrassonografia",
        "opening_hours": "Mo-Fr 08:00-18:00",
        "payment:bitcoin": "yes",
        "payment:lightning": "yes",
        "phone": "047 32415555",
        "website": "https://icrdiagnostico.com.br/",
        "id": "node/12580364793"
      },
      "geometry": {
        "type": "Point",
        "coordinates": [
          -48.652786,
          -26.9216529
        ]
      }
    }
  ]
}
