{
  "type": "FeatureCollection",
  "features": [
    {
      "type": "Feature",
      "id": "node/4681029391",
      "properties": {
        "timestamp": "2021-08-11T16:08:59Z",
        "version": 2,
        "changeset": 109526059,
        "addr:city": "Guaraciaba do Norte",
        "addr:housenumber": "65",
        "addr:street": "Rua Prefeito Valdemiro Ferreira Gomes",
        "internet_access": "wlan",
        "name": "Hotel e Lanche Davi",
        "name:pt": "Hotel e Lanche Davi",
        "phone": "+55 88 9 9328 9748",
        "tourism": "hotel",
        "id": "node/4681029391"
      },
      "geometry": {
        "type": "Point",
        "coordinates": [
          -40.7531501,
          -4.1618124
        ]
      }
    },
    {
      "type": "Feature",
      "id": "node/5072330804",
      "properties": {
        "timestamp": "2017-08-31T21:34:13Z",
        "version": 1,
        "changeset": 51628651,
        "addr:city": "Guaraciaba do Norte",
        "addr:street": "CE-366",
        "name": "Fazenda Gospel",
        "tourism": "hotel",
        "id": "node/5072330804"
      },
      "geometry": {
        "type": "Point",
        "coordinates": [
          -40.7257014,
          -4.138997
        ]
      }
    }
  ]
}
