{
  "type": "FeatureCollection",
  "features": [
    {
      "type": "Feature",
      "id": "way/302827822",
      "properties": {
        "timestamp": "2023-10-15T11:59:05Z",
        "version": 7,
        "changeset": 142614522,
        "addr:housenumber": "5797",
        "addr:postcode": "83705-170",
        "addr:street": "Rodovia do Xisto",
        "building": "hotel",
        "name": "Hotel Saara",
        "phone": "+55 41 36421944",
        "smoking": "no",
        "tourism": "hotel",
        "website": "https://www.hotelsaara.com.br/",
        "id": "way/302827822"
      },
      "geometry": {
        "type": "Polygon",
        "coordinates": [
          [
            [
              -49.3913277,
              -25.5769053
            ],
            [
              -49.3915046,
              -25.5770503
            ],
            [
              -49.3912969,
              -25.5772726
            ],
            [
              -49.3910772,
              -25.5774999
            ],
            [
              -49.3909941,
              -25.5774346
            ],
            [
              -49.3913409,
              -25.5770752
            ],
            [
              -49.3912401,
              -25.576996
            ],
            [
              -49.3913277,
              -25.5769053
            ]
          ]
        ]
      }
    },
    {
      "type": "Feature",
      "id": "node/3636861742",
      "properties": {
        "timestamp": "2015-07-07T11:58:57Z",
        "version": 2,
        "changeset": 32470018,
        "addr:city": "Araucária",
        "addr:housenumber": "8",
        "addr:street": "Rua Raul Domingues Siqueira",
        "name": "Executive Class Hotel",
        "tourism": "hotel",
        "id": "node/3636861742"
      },
      "geometry": {
        "type": "Point",
        "coordinates": [
          -49.3904566,
          -25.5875281
        ]
      }
    },
    {
      "type": "Feature",
      "id": "node/3636861743",
      "properties": {
        "timestamp": "2024-07-01T06:55:21Z",
        "version": 5,
        "changeset": 153396677,
        "addr:city": "Araucária",
        "addr:housenumber": "1660",
        "addr:street": "Avenida Doutor Victor do Amaral",
        "name": "Rihad Palace Hotel",
        "tourism": "hotel",
        "website": "https://www.rihadpalacehotel.com.br/",
        "id": "node/3636861743"
      },
      "geometry": {
        "type": "Point",
        "coordinates": [
          -49.3970992,
          -25.5824621
        ]
      }
    },
    {
      "type": "Feature",
      "id": "node/3636931446",
      "properties": {
        "timestamp": "2015-07-07T11:58:57Z",
        "version": 2,
        "changeset": 32470018,
        "addr:city": "Araucária",
        "addr:housenumber": "7930",
        "addr:postcode": "83703-035",
        "addr:street": "Rodovia do Xisto",
        "name": "Hotel San Gabriel",
        "tourism": "hotel",
        "id": "node/3636931446"
      },
      "geometry": {
        "type": "Point",
        "coordinates": [
          -49.4075603,
          -25.588271
        ]
      }
    },
    {
      "type": "Feature",
      "id": "node/3636931447",
      "properties": {
        "timestamp": "2024-07-01T06:55:18Z",
        "version": 3,
        "changeset": 153396677,
        "addr:city": "Araucária",
        "addr:housenumber": "96",
        "addr:street": "Rua Kazimiera Szymanski",
        "name": "Sokulski Park Hotel",
        "tourism": "hotel",
        "website": "https://www.sokulskiparkhotel.com.br/",
        "id": "node/3636931447"
      },
      "geometry": {
        "type": "Point",
        "coordinates": [
          -49.411425,
          -25.5901916
        ]
      }
    },
    {
      "type": "Feature",
      "id": "node/3636931449",
      "properties": {
        "timestamp": "2018-08-11T18:37:07Z",
        "version": 3,
        "changeset": 61572002,
        "addr:city": "Araucária",
        "addr:housenumber": "1651",
        "addr:street": "Avenida Doutor Victor do Amaral",
        "name": "Hotel Colônia",
        "tourism": "hotel",
        "id": "node/3636931449"
      },
      "geometry": {
        "type": "Point",
        "coordinates": [
          -49.3973625,
          -25.5823826
        ]
      }
    },
    {
      "type": "Feature",
      "id": "node/3636997159",
      "properties": {
        "timestamp": "2015-07-07T11:58:57Z",
        "version": 2,
        "changeset": 32470018,
        "addr:city": "Araucária",
        "addr:housenumber": "482",
        "addr:street": "Rua José Cetnarowski",
        "name": "Hotel Finardi",
        "tourism": "hotel",
        "id": "node/3636997159"
      },
      "geometry": {
        "type": "Point",
        "coordinates": [
          -49.3932404,
          -25.5894668
        ]
      }
    },
    {
      "type": "Feature",
      "id": "node/3636997163",
      "properties": {
        "timestamp": "2015-07-07T11:58:57Z",
        "version": 2,
        "changeset": 32470018,
        "addr:city": "Araucária",
        "addr:housenumber": "1",
        "addr:street": "Rua Estanislau Lesniowski",
        "name": "Hotel Voichoski",
        "tourism": "hotel",
        "id": "node/3636997163"
      },
      "geometry": {
        "type": "Point",
        "coordinates": [
          -49.3922139,
          -25.5764381
        ]
      }
    }
  ]
}
