{
  "type": "FeatureCollection",
  "features": [
    {
      "type": "Feature",
      "id": "node/8846224496",
      "properties": {
        "timestamp": "2021-08-12T22:18:19Z",
        "version": 3,
        "changeset": 109595986,
        "addr:housenumber": "2159",
        "addr:street": "Rua Ademir Lustosa",
        "name": "Câmara Regional de Justiça Arbitral",
        "office": "government",
        "phone": "+55 88 9 8192 3916",
        "id": "node/8846224496"
      },
      "geometry": {
        "type": "Point",
        "coordinates": [
          -37.7855606,
          -4.8441877
        ]
      }
    },
    {
      "type": "Feature",
      "id": "node/8849095198",
      "properties": {
        "timestamp": "2021-08-12T13:24:25Z",
        "version": 2,
        "changeset": 109575218,
        "addr:housenumber": "1402",
        "addr:street": "Rua Coronel Raimundo Francisco",
        "government": "register_office",
        "name": "Cartório Eleitoral de Jaguaruana-CE",
        "office": "government",
        "phone": "+55 85 3453 3575",
        "id": "node/8849095198"
      },
      "geometry": {
        "type": "Point",
        "coordinates": [
          -37.7823143,
          -4.8416877
        ]
      }
    },
    {
      "type": "Feature",
      "id": "node/8849120394",
      "properties": {
        "timestamp": "2021-08-12T21:27:41Z",
        "version": 2,
        "changeset": 109594763,
        "addr:housenumber": "1223",
        "addr:street": "Travessa Joaquim Rebouças de Almeida",
        "name": "Câmara Municipal de Jaguaruana",
        "office": "government",
        "phone": "+55 88 3418 1276",
        "id": "node/8849120394"
      },
      "geometry": {
        "type": "Point",
        "coordinates": [
          -37.782814,
          -4.8416877
        ]
      }
    },
    {
      "type": "Feature",
      "id": "node/8855359191",
      "properties": {
        "timestamp": "2021-08-14T14:30:47Z",
        "version": 2,
        "changeset": 109672590,
        "addr:housenumber": "1519",
        "addr:street": "Avenida Simão Góis",
        "name": "Secretaria da Educação de Jaguaruana",
        "office": "government",
        "phone": "+55 88 9 9327 6425",
        "id": "node/8855359191"
      },
      "geometry": {
        "type": "Point",
        "coordinates": [
          -37.7833849,
          -4.8388455
        ]
      }
    },
    {
      "type": "Feature",
      "id": "node/8861478818",
      "properties": {
        "timestamp": "2021-06-23T22:31:22Z",
        "version": 1,
        "changeset": 106862252,
        "addr:street": "Avenida Simão Góis",
        "name": "Prefeitura Municipal de Jaguaruana",
        "office": "government",
        "id": "node/8861478818"
      },
      "geometry": {
        "type": "Point",
        "coordinates": [
          -37.7824364,
          -4.8376875
        ]
      }
    },
    {
      "type": "Feature",
      "id": "node/8873344764",
      "properties": {
        "timestamp": "2021-06-28T20:31:59Z",
        "version": 1,
        "changeset": 107109727,
        "addr:housenumber": "105",
        "addr:street": "Avenida Simão Góis",
        "name": "Casa Do Cidadão",
        "office": "government",
        "id": "node/8873344764"
      },
      "geometry": {
        "type": "Point",
        "coordinates": [
          -37.7805634,
          -4.8349376
        ]
      }
    }
  ]
}
