{
  "type": "FeatureCollection",
  "features": [
    {
      "type": "Feature",
      "id": "node/8746208655",
      "properties": {
        "timestamp": "2021-08-11T23:50:33Z",
        "version": 2,
        "changeset": 109540718,
        "name": "Paraíso Baixa da Égua",
        "phone": "+55 88 9 9762 3385",
        "tourism": "hotel",
        "id": "node/8746208655"
      },
      "geometry": {
        "type": "Point",
        "coordinates": [
          -37.8174362,
          -4.8486876
        ]
      }
    },
    {
      "type": "Feature",
      "id": "node/8848454855",
      "properties": {
        "timestamp": "2021-06-19T14:29:13Z",
        "version": 1,
        "changeset": 106634551,
        "addr:housenumber": "25",
        "addr:street": "Rua Ademir Lustosa",
        "name": "Pousada Lunema",
        "tourism": "hotel",
        "id": "node/8848454855"
      },
      "geometry": {
        "type": "Point",
        "coordinates": [
          -37.7850609,
          -4.8423123
        ]
      }
    },
    {
      "type": "Feature",
      "id": "node/8851239264",
      "properties": {
        "timestamp": "2021-06-20T20:19:20Z",
        "version": 1,
        "changeset": 106679689,
        "addr:housenumber": "1645",
        "addr:street": "Rua Coronel Antônio José de Freitas",
        "name": "Renato",
        "tourism": "hotel",
        "id": "node/8851239264"
      },
      "geometry": {
        "type": "Point",
        "coordinates": [
          -37.7836876,
          -4.8403125
        ]
      }
    },
    {
      "type": "Feature",
      "id": "node/8855360690",
      "properties": {
        "timestamp": "2021-06-21T22:21:05Z",
        "version": 1,
        "changeset": 106739508,
        "addr:housenumber": "1565",
        "addr:street": "Avenida Simão Góis",
        "description": "Casa de férias para não fumantes",
        "name": "Point do Gelas",
        "tourism": "hotel",
        "id": "node/8855360690"
      },
      "geometry": {
        "type": "Point",
        "coordinates": [
          -37.7836876,
          -4.8391876
        ]
      }
    },
    {
      "type": "Feature",
      "id": "node/8942427871",
      "properties": {
        "timestamp": "2021-08-12T16:06:54Z",
        "version": 2,
        "changeset": 109583098,
        "addr:housenumber": "314",
        "addr:street": "Rua João Francisco Rodrigues",
        "name": "Pousada Aconchego",
        "phone": "+55 88 9 9647 2441",
        "tourism": "hotel",
        "id": "node/8942427871"
      },
      "geometry": {
        "type": "Point",
        "coordinates": [
          -37.7776871,
          -4.8366876
        ]
      }
    }
  ]
}
