{
  "type": "FeatureCollection",
  "features": [
    {
      "type": "Feature",
      "id": "node/11158877254",
      "properties": {
        "timestamp": "2024-12-11T19:33:08Z",
        "version": 2,
        "changeset": 160182290,
        "access": "permissive",
        "addr:city": "Jaguaruana",
        "addr:postcode": "62823-000",
        "addr:street": "Rua João Celedônio Sobrinho",
        "addr:suburb": "Alto",
        "air_conditioning": "yes",
        "amenity": "library",
        "baby_feeding": "no",
        "check_date": "2023/08/31",
        "description": "Biblioteca da EEEP Francisca Rocha Silva",
        "email": "epjaguaruana@escola.gov.ce.br",
        "internet_access": "wired",
        "level": "1",
        "name": "Biblioteca da EEEP Francisca Rocha Silva",
        "nohousenumber": "yes",
        "opening_hours": "Mo-Fr 07:00-17:00",
        "operator": "Emerson",
        "operator:type": "government",
        "polling_station": "yes",
        "source": "local knowledge",
        "start_date": "2011/08/22",
        "wheelchair": "yes",
        "id": "node/11158877254"
      },
      "geometry": {
        "type": "Point",
        "coordinates": [
          -37.779293,
          -4.8313448
        ]
      }
    }
  ]
}
