{
  "type": "FeatureCollection",
  "features": [
    {
      "type": "Feature",
      "id": "node/8851285291",
      "properties": {
        "timestamp": "2021-08-12T13:46:48Z",
        "version": 3,
        "changeset": 109576243,
        "addr:housenumber": "1720",
        "addr:street": "Avenida Simão Góis",
        "amenity": "pharmacy",
        "healthcare": "pharmacy",
        "name": "Farmácia Mais Economia",
        "phone": "+55 88 9 9696 5884",
        "id": "node/8851285291"
      },
      "geometry": {
        "type": "Point",
        "coordinates": [
          -37.784829,
          -4.8401982
        ]
      }
    },
    {
      "type": "Feature",
      "id": "node/8855374617",
      "properties": {
        "timestamp": "2021-08-11T23:48:37Z",
        "version": 2,
        "changeset": 109540703,
        "addr:street": "Avenida Simão Góis",
        "amenity": "pharmacy",
        "healthcare": "pharmacy",
        "name": "Farmácia Do Povo",
        "id": "node/8855374617"
      },
      "geometry": {
        "type": "Point",
        "coordinates": [
          -37.782814,
          -4.8379374
        ]
      }
    }
  ]
}
