{
  "type": "FeatureCollection",
  "features": [
    {
      "type": "Feature",
      "id": "way/1284741062",
      "properties": {
        "timestamp": "2024-05-19T23:47:05Z",
        "version": 1,
        "changeset": 151555713,
        "amenity": "school",
        "name": "Jardim de Infância Carolina Oliveira de Almeida",
        "id": "way/1284741062"
      },
      "geometry": {
        "type": "Polygon",
        "coordinates": [
          [
            [
              -42.0433149,
              -20.9692636
            ],
            [
              -42.0432613,
              -20.9688147
            ],
            [
              -42.0437527,
              -20.9689951
            ],
            [
              -42.0437248,
              -20.9692235
            ],
            [
              -42.0433149,
              -20.9692636
            ]
          ]
        ]
      }
    },
    {
      "type": "Feature",
      "id": "way/1284741063",
      "properties": {
        "timestamp": "2024-05-19T23:47:05Z",
        "version": 1,
        "changeset": 151555713,
        "addr:city": "Porciúncula",
        "addr:housenumber": "150",
        "addr:postcode": "28390-000",
        "addr:street": "Rua Cirilo Furtado",
        "addr:suburb": "Centro",
        "amenity": "school",
        "name": "Escola Municipal Orlinda Veiga",
        "id": "way/1284741063"
      },
      "geometry": {
        "type": "Polygon",
        "coordinates": [
          [
            [
              -42.0426267,
              -20.9671923
            ],
            [
              -42.0423854,
              -20.9676837
            ],
            [
              -42.0421492,
              -20.9675908
            ],
            [
              -42.0423905,
              -20.9670889
            ],
            [
              -42.0426267,
              -20.9671923
            ]
          ]
        ]
      }
    },
    {
      "type": "Feature",
      "id": "way/1287088558",
      "properties": {
        "timestamp": "2024-05-27T14:21:42Z",
        "version": 1,
        "changeset": 151902446,
        "addr:city": "Porciúncula",
        "addr:housenumber": "45",
        "addr:postcode": "28390-000",
        "addr:street": "Rua Joaquim Monteiro de Castro",
        "addr:suburb": "João Francisco Braz",
        "amenity": "school",
        "name": "Escola Municipal João Francisco Braz",
        "id": "way/1287088558"
      },
      "geometry": {
        "type": "Polygon",
        "coordinates": [
          [
            [
              -42.0362012,
              -20.9653204
            ],
            [
              -42.0357159,
              -20.9655741
            ],
            [
              -42.0355761,
              -20.9653408
            ],
            [
              -42.0360615,
              -20.9650872
            ],
            [
              -42.0362012,
              -20.9653204
            ]
          ]
        ]
      }
    },
    {
      "type": "Feature",
      "id": "node/10002600038",
      "properties": {
        "timestamp": "2022-09-05T17:20:54Z",
        "version": 1,
        "changeset": 125824327,
        "addr:city": "Porciúncula",
        "addr:postcode": "28390-000",
        "addr:street": "Rua Teixeira de Rezende",
        "addr:suburb": "Santa Clara",
        "amenity": "school",
        "name": "Colégio Estadual Deputado Carlos Pinto Filho",
        "id": "node/10002600038"
      },
      "geometry": {
        "type": "Point",
        "coordinates": [
          -41.9100351,
          -20.8225542
        ]
      }
    },
    {
      "type": "Feature",
      "id": "node/10002600040",
      "properties": {
        "timestamp": "2022-09-05T17:20:54Z",
        "version": 1,
        "changeset": 125824327,
        "addr:city": "Porciúncula",
        "addr:postcode": "28390-000",
        "addr:street": "Rua Teixeira de Rezende",
        "addr:suburb": "Santa Clara",
        "amenity": "school",
        "name": "Escola Municipal Maria Puddó Muruci",
        "id": "node/10002600040"
      },
      "geometry": {
        "type": "Point",
        "coordinates": [
          -41.9100217,
          -20.8223022
        ]
      }
    },
    {
      "type": "Feature",
      "id": "node/11918743465",
      "properties": {
        "timestamp": "2024-05-20T23:05:03Z",
        "version": 2,
        "changeset": 151603376,
        "addr:city": "Porciúncula",
        "addr:housenumber": "268",
        "addr:postcode": "28390-000",
        "addr:street": "Rua Prefeito Ivan Chein Mansur",
        "addr:suburb": "Centro",
        "amenity": "school",
        "name": "Centro Educacional São José",
        "phone": "+55 22 3842 1323",
        "id": "node/11918743465"
      },
      "geometry": {
        "type": "Point",
        "coordinates": [
          -42.0381403,
          -20.9652536
        ]
      }
    },
    {
      "type": "Feature",
      "id": "node/11920851597",
      "properties": {
        "timestamp": "2024-05-20T23:05:03Z",
        "version": 1,
        "changeset": 151603376,
        "addr:city": "Porciúncula",
        "addr:housenumber": "749",
        "addr:postcode": "28390-000",
        "addr:street": "Rua Pedro Lopes de Oliveira",
        "addr:suburb": "Vale do Sol",
        "amenity": "school",
        "name": "Centro Educacional Elo",
        "id": "node/11920851597"
      },
      "geometry": {
        "type": "Point",
        "coordinates": [
          -42.0477577,
          -20.9710729
        ]
      }
    },
    {
      "type": "Feature",
      "id": "node/11929748389",
      "properties": {
        "timestamp": "2024-05-24T01:34:08Z",
        "version": 1,
        "changeset": 151747679,
        "addr:city": "Porciúncula",
        "addr:district": "Puilândia",
        "addr:housenumber": "150",
        "addr:postcode": "28390-000",
        "addr:state": "Rio de Janeiro",
        "addr:street": "Rua Cirilo Furtado",
        "amenity": "school",
        "name": "Escola Municipal Orlinda Veiga",
        "operator": "Secretaria Municipal de Educação de Porciúncula",
        "id": "node/11929748389"
      },
      "geometry": {
        "type": "Point",
        "coordinates": [
          -41.9566315,
          -20.9311196
        ]
      }
    }
  ]
}
