{
  "type": "FeatureCollection",
  "features": [
    {
      "type": "Feature",
      "id": "way/975107720",
      "properties": {
        "timestamp": "2021-08-20T21:42:35Z",
        "version": 1,
        "changeset": 110007292,
        "addr:city": "Alto Alegre do Maranhão",
        "addr:postcode": "65413-000",
        "addr:street": "Avenida Rodoviária",
        "addr:suburb": "Centro",
        "amenity": "school",
        "name": "UI João Mamede Pires",
        "phone": "+55 99 9 8853 1073",
        "id": "way/975107720"
      },
      "geometry": {
        "type": "Polygon",
        "coordinates": [
          [
            [
              -44.4530008,
              -4.208767
            ],
            [
              -44.4528347,
              -4.2091916
            ],
            [
              -44.4523826,
              -4.2090158
            ],
            [
              -44.4523992,
              -4.2089733
            ],
            [
              -44.4522286,
              -4.2089069
            ],
            [
              -44.4523781,
              -4.2085247
            ],
            [
              -44.4530008,
              -4.208767
            ]
          ]
        ]
      }
    },
    {
      "type": "Feature",
      "id": "way/975214452",
      "properties": {
        "timestamp": "2021-08-21T11:14:31Z",
        "version": 1,
        "changeset": 110024004,
        "addr:city": "Alto Alegre do Maranhão",
        "addr:postcode": "65413-000",
        "addr:street": "Rua das Pedrinhas",
        "addr:suburb": "Mocambo",
        "amenity": "school",
        "name": "UE São Benedito",
        "id": "way/975214452"
      },
      "geometry": {
        "type": "Polygon",
        "coordinates": [
          [
            [
              -44.4325622,
              -4.1993406
            ],
            [
              -44.4325643,
              -4.1996058
            ],
            [
              -44.4322725,
              -4.1996082
            ],
            [
              -44.4322704,
              -4.1993429
            ],
            [
              -44.4325622,
              -4.1993406
            ]
          ]
        ]
      }
    },
    {
      "type": "Feature",
      "id": "way/975239382",
      "properties": {
        "timestamp": "2021-08-21T13:46:12Z",
        "version": 1,
        "changeset": 110029168,
        "addr:city": "Alto Alegre do Maranhão",
        "addr:postcode": "65413-000",
        "amenity": "school",
        "name": "UI Faustino de Sousa Ramos",
        "phone": "+55 99 9 9951 0726",
        "id": "way/975239382"
      },
      "geometry": {
        "type": "Polygon",
        "coordinates": [
          [
            [
              -44.4619183,
              -4.2907793
            ],
            [
              -44.4614985,
              -4.2911179
            ],
            [
              -44.4612175,
              -4.2907714
            ],
            [
              -44.4616372,
              -4.2904329
            ],
            [
              -44.4619183,
              -4.2907793
            ]
          ]
        ]
      }
    },
    {
      "type": "Feature",
      "id": "way/975248975",
      "properties": {
        "timestamp": "2021-08-21T14:47:30Z",
        "version": 1,
        "changeset": 110031382,
        "addr:city": "Alto Alegre do Maranhão",
        "addr:postcode": "65413-000",
        "addr:street": "Rua São José",
        "addr:suburb": "Centro",
        "amenity": "school",
        "name": "Centro Educacional Methodus",
        "phone": "+55 99 9 8854 8694",
        "id": "way/975248975"
      },
      "geometry": {
        "type": "Polygon",
        "coordinates": [
          [
            [
              -44.4508162,
              -4.2072947
            ],
            [
              -44.4506789,
              -4.2075993
            ],
            [
              -44.4502682,
              -4.2073996
            ],
            [
              -44.4504055,
              -4.2071228
            ],
            [
              -44.4508162,
              -4.2072947
            ]
          ]
        ]
      }
    },
    {
      "type": "Feature",
      "id": "way/975250013",
      "properties": {
        "timestamp": "2021-08-21T14:48:50Z",
        "version": 1,
        "changeset": 110031434,
        "addr:city": "Alto Alegre do Maranhão",
        "addr:postcode": "65413-000",
        "amenity": "school",
        "name": "UI Lindalva Marao",
        "id": "way/975250013"
      },
      "geometry": {
        "type": "Polygon",
        "coordinates": [
          [
            [
              -44.427572,
              -4.2698012
            ],
            [
              -44.427464,
              -4.2699641
            ],
            [
              -44.4270472,
              -4.2697377
            ],
            [
              -44.4271206,
              -4.2696162
            ],
            [
              -44.427572,
              -4.2698012
            ]
          ]
        ]
      }
    },
    {
      "type": "Feature",
      "id": "way/975271824",
      "properties": {
        "timestamp": "2021-08-21T17:16:09Z",
        "version": 1,
        "changeset": 110036242,
        "addr:city": "Alto Alegre do Maranhão",
        "addr:postcode": "65413-000",
        "amenity": "school",
        "name": "Escola Quilombola José Pereira Silva",
        "phone": "+55 99 9 8837 3022",
        "id": "way/975271824"
      },
      "geometry": {
        "type": "Polygon",
        "coordinates": [
          [
            [
              -44.3365392,
              -4.2333293
            ],
            [
              -44.3362985,
              -4.233901
            ],
            [
              -44.3358905,
              -4.2337301
            ],
            [
              -44.3361313,
              -4.2331584
            ],
            [
              -44.3365392,
              -4.2333293
            ]
          ]
        ]
      }
    },
    {
      "type": "Feature",
      "id": "way/975285346",
      "properties": {
        "timestamp": "2021-08-21T18:59:59Z",
        "version": 1,
        "changeset": 110039127,
        "addr:city": "Alto Alegre do Maranhão",
        "addr:postcode": "65413-000",
        "amenity": "school",
        "name": "Centro Municipal De Educação Infantil Vila Feliz",
        "phone": "+55 99 9 8812 5919",
        "id": "way/975285346"
      },
      "geometry": {
        "type": "Polygon",
        "coordinates": [
          [
            [
              -44.4338778,
              -4.1986734
            ],
            [
              -44.4339291,
              -4.1989849
            ],
            [
              -44.4335458,
              -4.1990476
            ],
            [
              -44.4334946,
              -4.1987361
            ],
            [
              -44.4338778,
              -4.1986734
            ]
          ]
        ]
      }
    },
    {
      "type": "Feature",
      "id": "way/975287052",
      "properties": {
        "timestamp": "2021-08-21T19:14:46Z",
        "version": 1,
        "changeset": 110039536,
        "addr:city": "Alto Alegre do Maranhão",
        "addr:postcode": "65413-000",
        "addr:street": "Rua José Ribamar Marão",
        "addr:suburb": "Tucum",
        "amenity": "school",
        "name": "UE Santa Mônica",
        "phone": "+55 99 9 8823 3981",
        "id": "way/975287052"
      },
      "geometry": {
        "type": "Polygon",
        "coordinates": [
          [
            [
              -44.4572671,
              -4.2127135
            ],
            [
              -44.4569309,
              -4.2132452
            ],
            [
              -44.4565613,
              -4.2130859
            ],
            [
              -44.4568603,
              -4.2125765
            ],
            [
              -44.4572671,
              -4.2127135
            ]
          ]
        ]
      }
    },
    {
      "type": "Feature",
      "id": "way/975291418",
      "properties": {
        "timestamp": "2021-08-21T19:44:33Z",
        "version": 1,
        "changeset": 110040288,
        "amenity": "school",
        "name": "EM Nsa Sra Dos Milagres",
        "id": "way/975291418"
      },
      "geometry": {
        "type": "Polygon",
        "coordinates": [
          [
            [
              -44.3449141,
              -4.1374901
            ],
            [
              -44.3452014,
              -4.137357
            ],
            [
              -44.3453126,
              -4.1375956
            ],
            [
              -44.3450252,
              -4.1377287
            ],
            [
              -44.3449141,
              -4.1374901
            ]
          ]
        ]
      }
    },
    {
      "type": "Feature",
      "id": "way/975293009",
      "properties": {
        "timestamp": "2021-08-21T20:01:39Z",
        "version": 1,
        "changeset": 110040687,
        "addr:city": "Alto Alegre do Maranhão",
        "addr:postcode": "65413-000",
        "amenity": "school",
        "name": "UI Alberto Torres",
        "phone": "+55 99 8842 7477",
        "id": "way/975293009"
      },
      "geometry": {
        "type": "Polygon",
        "coordinates": [
          [
            [
              -44.3815432,
              -4.1780412
            ],
            [
              -44.3814702,
              -4.1782106
            ],
            [
              -44.3812209,
              -4.1781036
            ],
            [
              -44.381294,
              -4.1779343
            ],
            [
              -44.3815432,
              -4.1780412
            ]
          ]
        ]
      }
    },
    {
      "type": "Feature",
      "id": "way/975295612",
      "properties": {
        "timestamp": "2021-08-21T20:22:22Z",
        "version": 1,
        "changeset": 110041177,
        "addr:city": "Alto Alegre do Maranhão",
        "addr:postcode": "65413-000",
        "addr:street": "Travessa São Domingos",
        "addr:suburb": "Centro",
        "amenity": "school",
        "name": "UI Benedito Pereira Leite",
        "id": "way/975295612"
      },
      "geometry": {
        "type": "Polygon",
        "coordinates": [
          [
            [
              -44.4492339,
              -4.2063907
            ],
            [
              -44.4490377,
              -4.2066498
            ],
            [
              -44.4486075,
              -4.206336
            ],
            [
              -44.4487345,
              -4.2060942
            ],
            [
              -44.4492339,
              -4.2063907
            ]
          ]
        ]
      }
    },
    {
      "type": "Feature",
      "id": "way/975307850",
      "properties": {
        "timestamp": "2021-08-21T22:08:12Z",
        "version": 1,
        "changeset": 110043389,
        "addr:city": "Alto Alegre do Maranhão",
        "addr:postcode": "65413-000",
        "addr:street": "Rua Dico Veiga",
        "amenity": "school",
        "name": "Centro de Ensino José Ribamar Marão",
        "id": "way/975307850"
      },
      "geometry": {
        "type": "Polygon",
        "coordinates": [
          [
            [
              -44.4443697,
              -4.2092091
            ],
            [
              -44.4441772,
              -4.2094666
            ],
            [
              -44.4438939,
              -4.2092818
            ],
            [
              -44.4440792,
              -4.2089742
            ],
            [
              -44.4443697,
              -4.2092091
            ]
          ]
        ]
      }
    },
    {
      "type": "Feature",
      "id": "way/975311775",
      "properties": {
        "timestamp": "2021-08-21T22:54:42Z",
        "version": 1,
        "changeset": 110044227,
        "addr:city": "Alto Alegre do Maranhão",
        "addr:postcode": "65413-000",
        "addr:street": "Rua São Benedito",
        "amenity": "school",
        "name": "Creche Municipal Natiany Vieira Aroso",
        "phone": "+55 99 9 8429 4983",
        "id": "way/975311775"
      },
      "geometry": {
        "type": "Polygon",
        "coordinates": [
          [
            [
              -44.4538348,
              -4.2014866
            ],
            [
              -44.4536841,
              -4.2016689
            ],
            [
              -44.453652,
              -4.2018097
            ],
            [
              -44.4529576,
              -4.2016881
            ],
            [
              -44.4530346,
              -4.2011379
            ],
            [
              -44.4538092,
              -4.2013506
            ],
            [
              -44.4537659,
              -4.2014498
            ],
            [
              -44.4538348,
              -4.2014866
            ]
          ]
        ]
      }
    },
    {
      "type": "Feature",
      "id": "node/4108856508",
      "properties": {
        "timestamp": "2016-04-09T01:10:10Z",
        "version": 1,
        "changeset": 38420125,
        "amenity": "school",
        "id": "node/4108856508"
      },
      "geometry": {
        "type": "Point",
        "coordinates": [
          -44.4635349,
          -4.1904824
        ]
      }
    },
    {
      "type": "Feature",
      "id": "node/9023827528",
      "properties": {
        "timestamp": "2021-08-20T21:23:39Z",
        "version": 1,
        "changeset": 110006903,
        "addr:city": "Alto Alegre do Maranhão",
        "addr:postcode": "65413-000",
        "addr:street": "Rua Santa Luzia",
        "addr:suburb": "Santa Luzia",
        "amenity": "school",
        "name": "UI Ubirajara Rayol",
        "phone": "+55 99 9 8811 1129",
        "id": "node/9023827528"
      },
      "geometry": {
        "type": "Point",
        "coordinates": [
          -44.446576,
          -4.203033
        ]
      }
    },
    {
      "type": "Feature",
      "id": "node/9024733363",
      "properties": {
        "timestamp": "2021-08-21T11:41:15Z",
        "version": 1,
        "changeset": 110025051,
        "addr:city": "Alto Alegre do Maranhão",
        "addr:postcode": "65413-000",
        "amenity": "school",
        "name": "EM Vereador Silvino Marques",
        "phone": "+55 99 9 9986 8726",
        "id": "node/9024733363"
      },
      "geometry": {
        "type": "Point",
        "coordinates": [
          -44.453802,
          -4.2580056
        ]
      }
    },
    {
      "type": "Feature",
      "id": "node/9024885984",
      "properties": {
        "timestamp": "2021-08-21T13:37:22Z",
        "version": 1,
        "changeset": 110028897,
        "addr:city": "Alto Alegre do Maranhão",
        "addr:postcode": "65413-000",
        "addr:street": "Rua Dico Veiga",
        "addr:suburb": "Centro",
        "amenity": "school",
        "name": "UI Augusto Cury",
        "phone": "+55 99 8832 6900",
        "id": "node/9024885984"
      },
      "geometry": {
        "type": "Point",
        "coordinates": [
          -44.4463377,
          -4.2117981
        ]
      }
    },
    {
      "type": "Feature",
      "id": "node/9024979432",
      "properties": {
        "timestamp": "2021-08-21T14:43:42Z",
        "version": 1,
        "changeset": 110031250,
        "addr:city": "Alto Alegre do Maranhão",
        "addr:postcode": "65413-000",
        "addr:street": "Rua Natinho Filho",
        "amenity": "school",
        "name": "UE Dom Pedro II",
        "phone": "+55 99 3638 1141",
        "id": "node/9024979432"
      },
      "geometry": {
        "type": "Point",
        "coordinates": [
          -44.45179,
          -4.2174482
        ]
      }
    },
    {
      "type": "Feature",
      "id": "node/9025117977",
      "properties": {
        "timestamp": "2021-08-21T17:29:31Z",
        "version": 1,
        "changeset": 110036691,
        "addr:city": "Alto Alegre do Maranhão",
        "addr:postcode": "65413-000",
        "amenity": "school",
        "name": "UI Eliza Monteiro",
        "phone": "+55 99 9631 1508",
        "id": "node/9025117977"
      },
      "geometry": {
        "type": "Point",
        "coordinates": [
          -44.4815049,
          -4.2477989
        ]
      }
    },
    {
      "type": "Feature",
      "id": "node/9025330122",
      "properties": {
        "timestamp": "2021-08-21T19:22:09Z",
        "version": 1,
        "changeset": 110039691,
        "addr:city": "Alto Alegre do Maranhão",
        "addr:postcode": "65413-000",
        "amenity": "school",
        "name": "EM Cecilia Meireles Cavalcante",
        "phone": "+55 99 8808 1861",
        "id": "node/9025330122"
      },
      "geometry": {
        "type": "Point",
        "coordinates": [
          -44.4722496,
          -4.3044209
        ]
      }
    },
    {
      "type": "Feature",
      "id": "node/9025370810",
      "properties": {
        "timestamp": "2021-08-21T20:16:31Z",
        "version": 1,
        "changeset": 110041035,
        "addr:city": "Alto Alegre do Maranhão",
        "addr:postcode": "65413-000",
        "amenity": "school",
        "name": "EM Carlos Magno Bacelar",
        "phone": "+55 99 9 9220 5400",
        "id": "node/9025370810"
      },
      "geometry": {
        "type": "Point",
        "coordinates": [
          -44.4675829,
          -4.1864305
        ]
      }
    },
    {
      "type": "Feature",
      "id": "node/9025473900",
      "properties": {
        "timestamp": "2021-08-21T21:58:21Z",
        "version": 1,
        "changeset": 110043199,
        "addr:city": "Alto Alegre do Maranhão",
        "addr:postcode": "65413-000",
        "amenity": "school",
        "name": "EM Sembal",
        "id": "node/9025473900"
      },
      "geometry": {
        "type": "Point",
        "coordinates": [
          -44.3658848,
          -4.1118353
        ]
      }
    },
    {
      "type": "Feature",
      "id": "node/9025509074",
      "properties": {
        "timestamp": "2021-08-21T22:34:52Z",
        "version": 1,
        "changeset": 110043887,
        "addr:city": "Alto Alegre do Maranhão",
        "addr:postcode": "65413-000",
        "addr:street": "Rua do Matadouro",
        "amenity": "school",
        "name": "Creche Municipal José Rozendo Silva",
        "phone": "+55 99 8440 8634",
        "id": "node/9025509074"
      },
      "geometry": {
        "type": "Point",
        "coordinates": [
          -44.4536102,
          -4.2212465
        ]
      }
    },
    {
      "type": "Feature",
      "id": "node/9025509082",
      "properties": {
        "timestamp": "2021-08-21T22:59:44Z",
        "version": 1,
        "changeset": 110044303,
        "addr:city": "Alto Alegre do Maranhão",
        "addr:postcode": "65413-000",
        "amenity": "school",
        "name": "EM Paulo Freire",
        "phone": "+55 99 8836 6045",
        "id": "node/9025509082"
      },
      "geometry": {
        "type": "Point",
        "coordinates": [
          -44.4404066,
          -4.1577982
        ]
      }
    },
    {
      "type": "Feature",
      "id": "node/9025555563",
      "properties": {
        "timestamp": "2021-08-21T22:18:46Z",
        "version": 1,
        "changeset": 110043602,
        "addr:city": "Alto Alegre do Maranhão",
        "addr:postcode": "65413-000",
        "amenity": "school",
        "name": "Unidade Integrada Rosimeire Torres Nunes",
        "id": "node/9025555563"
      },
      "geometry": {
        "type": "Point",
        "coordinates": [
          -44.467729,
          -4.1855541
        ]
      }
    },
    {
      "type": "Feature",
      "id": "node/9025575780",
      "properties": {
        "timestamp": "2021-08-21T23:11:28Z",
        "version": 1,
        "changeset": 110044462,
        "addr:city": "Alto Alegre do Maranhão",
        "addr:postcode": "65413-000",
        "amenity": "school",
        "name": "EM Professor Rubem Almeida",
        "id": "node/9025575780"
      },
      "geometry": {
        "type": "Point",
        "coordinates": [
          -44.3985482,
          -4.2272358
        ]
      }
    },
    {
      "type": "Feature",
      "id": "node/9025595101",
      "properties": {
        "timestamp": "2021-08-21T23:32:09Z",
        "version": 1,
        "changeset": 110044727,
        "addr:city": "Alto Alegre do Maranhão",
        "addr:postcode": "65413-000",
        "addr:street": "Rua Sete de Setembro",
        "addr:suburb": "Centro",
        "amenity": "school",
        "name": "JI Vovo Natercia",
        "id": "node/9025595101"
      },
      "geometry": {
        "type": "Point",
        "coordinates": [
          -44.4506291,
          -4.2056628
        ]
      }
    },
    {
      "type": "Feature",
      "id": "node/9025605372",
      "properties": {
        "timestamp": "2021-08-21T23:40:24Z",
        "version": 1,
        "changeset": 110044853,
        "addr:city": "Alto Alegre do Maranhão",
        "addr:housenumber": "1332",
        "addr:postcode": "65413-000",
        "addr:street": "Rua Setubal",
        "addr:suburb": "Centro",
        "amenity": "school",
        "name": "Centro Educacional Professora Celia Cruz",
        "phone": "+55 99 9 8808 9006",
        "id": "node/9025605372"
      },
      "geometry": {
        "type": "Point",
        "coordinates": [
          -44.4463505,
          -4.2066253
        ]
      }
    },
    {
      "type": "Feature",
      "id": "node/9095089134",
      "properties": {
        "timestamp": "2021-09-15T18:35:15Z",
        "version": 1,
        "changeset": 111258090,
        "amenity": "school",
        "name": "EM São Francisco",
        "id": "node/9095089134"
      },
      "geometry": {
        "type": "Point",
        "coordinates": [
          -44.3209614,
          -4.2687851
        ]
      }
    }
  ]
}
