{
  "type": "FeatureCollection",
  "features": [
    {
      "type": "Feature",
      "id": "way/394393842",
      "properties": {
        "timestamp": "2016-02-24T23:41:18Z",
        "version": 3,
        "changeset": 37424312,
        "addr:city": "Jaguariúna",
        "addr:postcode": "13820-000",
        "addr:suburb": "Parque Florianópolis",
        "amenity": "clinic",
        "name": "Unidade Básica de Saúde VI - Doutor Jorge Rios Muraro",
        "short_name": "UBS VI - Dr. Jorge Rios Muraro",
        "id": "way/394393842"
      },
      "geometry": {
        "type": "Polygon",
        "coordinates": [
          [
            [
              -46.9616512,
              -22.7035751
            ],
            [
              -46.961619,
              -22.7037431
            ],
            [
              -46.9616531,
              -22.7037486
            ],
            [
              -46.9616385,
              -22.7038249
            ],
            [
              -46.9616045,
              -22.7038193
            ],
            [
              -46.9615717,
              -22.7039907
            ],
            [
              -46.961414,
              -22.7039651
            ],
            [
              -46.9614467,
              -22.7037937
            ],
            [
              -46.9614138,
              -22.7037883
            ],
            [
              -46.9614284,
              -22.703712
            ],
            [
              -46.9614613,
              -22.7037174
            ],
            [
              -46.9614935,
              -22.7035494
            ],
            [
              -46.9616512,
              -22.7035751
            ]
          ]
        ]
      }
    },
    {
      "type": "Feature",
      "id": "way/1188766361",
      "properties": {
        "timestamp": "2023-07-11T01:35:31Z",
        "version": 1,
        "changeset": 138358038,
        "addr:housenumber": "140",
        "addr:postcode": "13916-004",
        "addr:street": "Rua Frachetta",
        "addr:suburb": "Vila Miguel Martini",
        "alt_name": "Unidade Básica de Saúde Miguel Martini",
        "amenity": "clinic",
        "building": "yes",
        "contact:phone": "+55 19 3837 4344",
        "healthcare": "clinic",
        "healthcare:speciality": "general;paediatrics;ginecologia;vaccination",
        "name": "Unidade Básica de Saúde Luiz Fernandes Costódio",
        "opening_hours": "Mo-Fr 07:00-16:00; Sa,Su,PH Off",
        "phone": "+55 19 3837 3379",
        "ref:CNES": "2023504",
        "source": "CNES;http://www.jaguariuna.sp.gov.br/portais/transparencia/?page_id=421",
        "id": "way/1188766361"
      },
      "geometry": {
        "type": "Polygon",
        "coordinates": [
          [
            [
              -46.9930813,
              -22.6888514
            ],
            [
              -46.9931398,
              -22.6889808
            ],
            [
              -46.9931214,
              -22.6890447
            ],
            [
              -46.9929427,
              -22.6890959
            ],
            [
              -46.9929088,
              -22.6890163
            ],
            [
              -46.992918,
              -22.6889992
            ],
            [
              -46.9928826,
              -22.6889197
            ],
            [
              -46.9930813,
              -22.6888514
            ]
          ]
        ]
      }
    },
    {
      "type": "Feature",
      "id": "node/10134348787",
      "properties": {
        "timestamp": "2022-10-28T00:56:01Z",
        "version": 1,
        "changeset": 128150820,
        "addr:housenumber": "459",
        "addr:street": "Rua Candido Bueno",
        "amenity": "clinic",
        "description": "Clínica de fisioterapia",
        "name": "Fisio Corpo",
        "opening_hours": "Mo-Fr 07:00-20:00",
        "phone": "19 99984-0037",
        "id": "node/10134348787"
      },
      "geometry": {
        "type": "Point",
        "coordinates": [
          -46.9898467,
          -22.708188
        ]
      }
    },
    {
      "type": "Feature",
      "id": "node/10170170217",
      "properties": {
        "timestamp": "2023-03-20T17:37:24Z",
        "version": 2,
        "changeset": 133908955,
        "addr:housenumber": "363",
        "addr:postcode": "13910005",
        "addr:street": "Rua Silvia Bueno",
        "amenity": "clinic",
        "healthcare": "clinic",
        "name": "Clinica Selten",
        "name:en": "Selten Clinic",
        "opening_hours": "Mo-Fr 08:00-19:00",
        "phone": "+55 19 99913-0708",
        "id": "node/10170170217"
      },
      "geometry": {
        "type": "Point",
        "coordinates": [
          -46.9880685,
          -22.7055241
        ]
      }
    },
    {
      "type": "Feature",
      "id": "node/12108741301",
      "properties": {
        "timestamp": "2024-08-13T18:18:08Z",
        "version": 1,
        "changeset": 155208972,
        "addr:housenumber": "1200",
        "addr:postcode": "13820000",
        "addr:street": "Rua Julio Frank",
        "amenity": "clinic",
        "name": "Fisiomed",
        "opening_hours": "Mo-Fr 09:00-18:00",
        "phone": "+55 19 3837-1099",
        "id": "node/12108741301"
      },
      "geometry": {
        "type": "Point",
        "coordinates": [
          -46.986089,
          -22.7035797
        ]
      }
    }
  ]
}
