{
  "type": "FeatureCollection",
  "features": [
    {
      "type": "Feature",
      "id": "node/7658835549",
      "properties": {
        "timestamp": "2020-06-27T16:34:36Z",
        "version": 1,
        "changeset": 87230652,
        "name": "Centro Ciclista",
        "shop": "bicycle",
        "id": "node/7658835549"
      },
      "geometry": {
        "type": "Point",
        "coordinates": [
          -52.3574465,
          -31.7636363
        ]
      }
    },
    {
      "type": "Feature",
      "id": "node/7747111309",
      "properties": {
        "timestamp": "2020-07-25T17:32:39Z",
        "version": 1,
        "changeset": 88501893,
        "addr:housenumber": "2768",
        "addr:street": "Avenida Domingos José de Almeida",
        "name": "Vá de Bike",
        "shop": "bicycle",
        "id": "node/7747111309"
      },
      "geometry": {
        "type": "Point",
        "coordinates": [
          -52.3068617,
          -31.7525321
        ]
      }
    },
    {
      "type": "Feature",
      "id": "node/7856908043",
      "properties": {
        "timestamp": "2020-08-29T16:07:35Z",
        "version": 1,
        "changeset": 90124009,
        "name": "Lorenzeto",
        "shop": "bicycle",
        "id": "node/7856908043"
      },
      "geometry": {
        "type": "Point",
        "coordinates": [
          -52.3320635,
          -31.7696862
        ]
      }
    },
    {
      "type": "Feature",
      "id": "node/8225395960",
      "properties": {
        "timestamp": "2023-10-11T16:51:39Z",
        "version": 3,
        "changeset": 142445179,
        "addr:city": "Pelotas",
        "addr:housenumber": "10",
        "addr:postcode": "96020-470",
        "addr:street": "Rua Lindolfo Collor",
        "addr:suburb": "Centro",
        "name": "Sweet Bike Shop",
        "opening_hours": "Mo-Fr 09:00-12:00, 14:00-19:00; Sa 09:00-14:00",
        "payment:cash": "yes",
        "payment:coins": "yes",
        "payment:credit_cards": "yes",
        "payment:debit_cards": "yes",
        "phone": "+55 53 3303 1817",
        "phone:mobile": "+55 53 98447 8710",
        "service:bicycle:parts": "yes",
        "service:bicycle:pump": "yes",
        "service:bicycle:repair": "yes",
        "service:bicycle:retail": "yes",
        "service:bicycle:tools": "yes",
        "shop": "bicycle",
        "website": "https://sweetbikeshop.com.br/",
        "id": "node/8225395960"
      },
      "geometry": {
        "type": "Point",
        "coordinates": [
          -52.3431677,
          -31.7499005
        ]
      }
    },
    {
      "type": "Feature",
      "id": "node/8912281477",
      "properties": {
        "timestamp": "2021-07-11T21:49:17Z",
        "version": 1,
        "changeset": 107799028,
        "name": "Restaura Bike",
        "shop": "bicycle",
        "id": "node/8912281477"
      },
      "geometry": {
        "type": "Point",
        "coordinates": [
          -52.3593166,
          -31.7631418
        ]
      }
    },
    {
      "type": "Feature",
      "id": "node/8931353972",
      "properties": {
        "timestamp": "2021-07-19T00:19:49Z",
        "version": 1,
        "changeset": 108211139,
        "addr:housenumber": "488",
        "addr:street": "Rua São Paulo",
        "name": "SM Bicicletaria",
        "shop": "bicycle",
        "id": "node/8931353972"
      },
      "geometry": {
        "type": "Point",
        "coordinates": [
          -52.3542253,
          -31.7207685
        ]
      }
    }
  ]
}
