{
  "type": "FeatureCollection",
  "features": [
    {
      "type": "Feature",
      "id": "way/971251491",
      "properties": {
        "timestamp": "2021-10-15T18:15:19Z",
        "version": 6,
        "changeset": 112553799,
        "addr:city": "Pelotas",
        "addr:housenumber": "532",
        "addr:postcode": "96025-220",
        "addr:street": "Rua Jornalista Cândido de Mello",
        "addr:suburb": "Fragata",
        "amenity": "veterinary",
        "building": "residential",
        "building:levels": "1",
        "contact:phone": "+55 53 99100-8382",
        "name": "Bom Trato Consultório Veterinário",
        "opening_hours": "Mo-Fr 09:00-12:00,14:00-18:30; Sa 09:00-13:00",
        "payment:cash": "yes",
        "payment:credit_cards": "yes",
        "payment:debit_cards": "yes",
        "roof:levels": "0",
        "website": "https://www.instagram.com/bomtratoconsultorio/",
        "id": "way/971251491"
      },
      "geometry": {
        "type": "Polygon",
        "coordinates": [
          [
            [
              -52.3558319,
              -31.7704855
            ],
            [
              -52.3558097,
              -31.7704289
            ],
            [
              -52.3559662,
              -31.7703818
            ],
            [
              -52.3559951,
              -31.7704379
            ],
            [
              -52.3558319,
              -31.7704855
            ]
          ]
        ]
      }
    },
    {
      "type": "Feature",
      "id": "node/7597179626",
      "properties": {
        "timestamp": "2020-06-06T01:27:15Z",
        "version": 1,
        "changeset": 86266353,
        "amenity": "veterinary",
        "opening_hours": "24/7",
        "id": "node/7597179626"
      },
      "geometry": {
        "type": "Point",
        "coordinates": [
          -52.3424396,
          -31.7787804
        ]
      }
    },
    {
      "type": "Feature",
      "id": "node/7658835499",
      "properties": {
        "timestamp": "2020-06-27T16:34:36Z",
        "version": 1,
        "changeset": 87230652,
        "amenity": "veterinary",
        "id": "node/7658835499"
      },
      "geometry": {
        "type": "Point",
        "coordinates": [
          -52.376038,
          -31.7578524
        ]
      }
    },
    {
      "type": "Feature",
      "id": "node/7747111314",
      "properties": {
        "timestamp": "2020-07-25T17:32:39Z",
        "version": 1,
        "changeset": 88501893,
        "amenity": "veterinary",
        "name": "Veterinária Areal",
        "id": "node/7747111314"
      },
      "geometry": {
        "type": "Point",
        "coordinates": [
          -52.309106,
          -31.7529253
        ]
      }
    },
    {
      "type": "Feature",
      "id": "node/7835420201",
      "properties": {
        "timestamp": "2020-08-22T16:40:00Z",
        "version": 1,
        "changeset": 89786557,
        "amenity": "veterinary",
        "name": "Clínica Veterinária Animal",
        "id": "node/7835420201"
      },
      "geometry": {
        "type": "Point",
        "coordinates": [
          -52.3436339,
          -31.7629531
        ]
      }
    },
    {
      "type": "Feature",
      "id": "node/9747684869",
      "properties": {
        "timestamp": "2022-05-17T01:55:36Z",
        "version": 1,
        "changeset": 121074594,
        "addr:city": "Pelotas",
        "addr:door": "101",
        "addr:housenumber": "624",
        "addr:postcode": "96020-780",
        "addr:street": "Rua Padre Felício",
        "addr:suburb": "Centro",
        "addr:unit": "A",
        "amenity": "veterinary",
        "level": "3",
        "name": "Piá Veterinária | M.V. Lorena V. N. Coll",
        "opening_hours": "Mo-Fr 08:00-11:45,14:00-18:30; Sa 08:00-11:45; PH off",
        "phone": "+55 53 3027 1557",
        "id": "node/9747684869"
      },
      "geometry": {
        "type": "Point",
        "coordinates": [
          -52.3403952,
          -31.7567077
        ]
      }
    }
  ]
}
