{
  "type": "FeatureCollection",
  "features": [
    {
      "type": "Feature",
      "id": "node/619007591",
      "properties": {
        "timestamp": "2021-05-27T20:01:55Z",
        "version": 8,
        "changeset": 105447698,
        "addr:city": "Cama√ßari",
        "addr:country": "BR",
        "addr:postcode": "42820-000",
        "addr:street": "Rua da Jaqueira",
        "addr:suburb": "Monte Gordo",
        "name": "Pousada Monte Gordo",
        "phone": "+55 71 3674 2206",
        "tourism": "guest_house",
        "website": "http://www.pousadamontegordo.com.br",
        "id": "node/619007591"
      },
      "geometry": {
        "type": "Point",
        "coordinates": [
          -38.0945024,
          -12.6410841
        ]
      }
    },
    {
      "type": "Feature",
      "id": "node/619074876",
      "properties": {
        "timestamp": "2021-05-26T23:10:20Z",
        "version": 5,
        "changeset": 105382967,
        "name": "Pousada Colibri",
        "phone": "+55 71 3674 1091",
        "tourism": "guest_house",
        "url": "http://www.pousadacolibri.com.br",
        "id": "node/619074876"
      },
      "geometry": {
        "type": "Point",
        "coordinates": [
          -38.0817592,
          -12.6522561
        ]
      }
    },
    {
      "type": "Feature",
      "id": "node/619076122",
      "properties": {
        "timestamp": "2023-02-14T01:32:10Z",
        "version": 5,
        "changeset": 132515179,
        "name": "Guarajuba Summer House",
        "tourism": "guest_house",
        "id": "node/619076122"
      },
      "geometry": {
        "type": "Point",
        "coordinates": [
          -38.0711394,
          -12.6496742
        ]
      }
    },
    {
      "type": "Feature",
      "id": "node/651767616",
      "properties": {
        "timestamp": "2011-03-05T15:59:53Z",
        "version": 4,
        "changeset": 7464577,
        "addr:city": "Guarajuba",
        "addr:country": "BR",
        "addr:street": "Estrada do Coco km40",
        "internet_access": "wlan",
        "name": "Village Canto da Lagoa",
        "phone": "+55 71 36740084",
        "tourism": "guest_house",
        "website": "http://www.cantodalagoa.com",
        "id": "node/651767616"
      },
      "geometry": {
        "type": "Point",
        "coordinates": [
          -38.085918,
          -12.6564816
        ]
      }
    },
    {
      "type": "Feature",
      "id": "node/1132335298",
      "properties": {
        "timestamp": "2011-02-02T13:43:18Z",
        "version": 1,
        "changeset": 7164795,
        "name": "Pousado do Machado",
        "source": "survey",
        "tourism": "guest_house",
        "id": "node/1132335298"
      },
      "geometry": {
        "type": "Point",
        "coordinates": [
          -38.1345758,
          -12.7033198
        ]
      }
    }
  ]
}
