{
  "type": "FeatureCollection",
  "features": [
    {
      "type": "Feature",
      "id": "way/77588099",
      "properties": {
        "timestamp": "2023-02-04T00:22:55Z",
        "version": 11,
        "changeset": 132061819,
        "addr:city": "Camaçari",
        "addr:postcode": "42820-000",
        "addr:street": "Rua Praia de Guarajuba",
        "addr:suburb": "Monte Gordo",
        "fax": "+55 71 3674 8301",
        "name": "Vila Galé Marés",
        "operator": "Vila Galé",
        "smoking": "outside",
        "tourism": "hotel",
        "website": "https://www.vilagale.com/de/hotels/brazil/vila-gale-mares/",
        "wikidata": "Q24293088",
        "wikipedia": "pt:Vila Galé Hotéis",
        "id": "way/77588099"
      },
      "geometry": {
        "type": "Polygon",
        "coordinates": [
          [
            [
              -38.0576826,
              -12.6411394
            ],
            [
              -38.0554872,
              -12.6390807
            ],
            [
              -38.0548338,
              -12.6385593
            ],
            [
              -38.0546136,
              -12.6383836
            ],
            [
              -38.0552333,
              -12.6376122
            ],
            [
              -38.0569404,
              -12.6354871
            ],
            [
              -38.0580737,
              -12.636366
            ],
            [
              -38.0581797,
              -12.6369746
            ],
            [
              -38.0576765,
              -12.6373639
            ],
            [
              -38.0583674,
              -12.6378943
            ],
            [
              -38.0593348,
              -12.6383751
            ],
            [
              -38.0595143,
              -12.6385401
            ],
            [
              -38.0596318,
              -12.6386483
            ],
            [
              -38.0597132,
              -12.6387175
            ],
            [
              -38.059861,
              -12.6388524
            ],
            [
              -38.0594583,
              -12.6393834
            ],
            [
              -38.0593818,
              -12.6394843
            ],
            [
              -38.0587882,
              -12.6397576
            ],
            [
              -38.0576826,
              -12.6411394
            ]
          ]
        ]
      }
    },
    {
      "type": "Feature",
      "id": "way/318769883",
      "properties": {
        "timestamp": "2019-03-19T01:10:24Z",
        "version": 4,
        "changeset": 68277432,
        "addr:city": "Camaçari",
        "addr:housenumber": "366",
        "addr:postcode": "42800-420",
        "addr:street": "Avenida Comercial",
        "addr:suburb": "Centro",
        "building": "yes",
        "building:levels": "4",
        "email": "reservas@camacariplaza.com.br",
        "internet_access": "wlan",
        "internet_access:fee": "no",
        "name": "Camaçari Plaza Hotel",
        "phone": "+55 71 3622-8800",
        "rooms": "93",
        "stars": "4",
        "tourism": "hotel",
        "website": "https://www.camacariplaza.com.br/pt-br/",
        "id": "way/318769883"
      },
      "geometry": {
        "type": "Polygon",
        "coordinates": [
          [
            [
              -38.3213261,
              -12.7032335
            ],
            [
              -38.3213844,
              -12.7033126
            ],
            [
              -38.321163,
              -12.7034785
            ],
            [
              -38.3211028,
              -12.7034038
            ],
            [
              -38.3213261,
              -12.7032335
            ]
          ]
        ]
      }
    },
    {
      "type": "Feature",
      "id": "way/319044205",
      "properties": {
        "timestamp": "2021-09-23T23:49:21Z",
        "version": 4,
        "changeset": 111622856,
        "addr:city": "Camaçari",
        "addr:street": "Avenida Jorge Amado",
        "building": "yes",
        "name": "Hotel Cambuci",
        "old_name": "Avenida Leste",
        "tourism": "hotel",
        "id": "way/319044205"
      },
      "geometry": {
        "type": "Polygon",
        "coordinates": [
          [
            [
              -38.3177054,
              -12.7057482
            ],
            [
              -38.317641,
              -12.7059157
            ],
            [
              -38.3171663,
              -12.7057352
            ],
            [
              -38.3171918,
              -12.7056711
            ],
            [
              -38.3171059,
              -12.705641
            ],
            [
              -38.3170402,
              -12.7058019
            ],
            [
              -38.3169075,
              -12.7057495
            ],
            [
              -38.3170992,
              -12.7052393
            ],
            [
              -38.3172347,
              -12.7052864
            ],
            [
              -38.3171422,
              -12.7055494
            ],
            [
              -38.3177054,
              -12.7057482
            ]
          ]
        ]
      }
    },
    {
      "type": "Feature",
      "id": "way/319046295",
      "properties": {
        "timestamp": "2021-09-24T01:01:09Z",
        "version": 2,
        "changeset": 111624011,
        "addr:city": "Camaçari",
        "addr:housenumber": "3",
        "addr:street": "Rua da Rodoviária",
        "addr:suburb": "Centro",
        "building": "yes",
        "name": "Hotel Rey",
        "tourism": "hotel",
        "id": "way/319046295"
      },
      "geometry": {
        "type": "Polygon",
        "coordinates": [
          [
            [
              -38.3199182,
              -12.7023834
            ],
            [
              -38.3199048,
              -12.7024828
            ],
            [
              -38.3196366,
              -12.7024435
            ],
            [
              -38.3196527,
              -12.7023415
            ],
            [
              -38.3199182,
              -12.7023834
            ]
          ]
        ]
      }
    },
    {
      "type": "Feature",
      "id": "way/320324484",
      "properties": {
        "timestamp": "2015-01-04T01:51:56Z",
        "version": 1,
        "changeset": 27901436,
        "building": "yes",
        "name": "Hotel Uberlândia",
        "tourism": "hotel",
        "id": "way/320324484"
      },
      "geometry": {
        "type": "Polygon",
        "coordinates": [
          [
            [
              -38.3217276,
              -12.6999319
            ],
            [
              -38.3216619,
              -12.7001491
            ],
            [
              -38.3213146,
              -12.7000549
            ],
            [
              -38.321387,
              -12.6998273
            ],
            [
              -38.3217276,
              -12.6999319
            ]
          ]
        ]
      }
    },
    {
      "type": "Feature",
      "id": "way/320329829",
      "properties": {
        "timestamp": "2015-01-04T03:30:41Z",
        "version": 2,
        "changeset": 27902169,
        "addr:city": "camaçari",
        "addr:housenumber": "41",
        "addr:street": "Rua Moreira Cesar",
        "building": "yes",
        "name": "Hotel Belo Horizonte",
        "tourism": "hotel",
        "id": "way/320329829"
      },
      "geometry": {
        "type": "Polygon",
        "coordinates": [
          [
            [
              -38.3357994,
              -12.6982779
            ],
            [
              -38.3356223,
              -12.6984532
            ],
            [
              -38.3355472,
              -12.6983773
            ],
            [
              -38.3357189,
              -12.698202
            ],
            [
              -38.3357994,
              -12.6982779
            ]
          ]
        ]
      }
    },
    {
      "type": "Feature",
      "id": "way/320330059",
      "properties": {
        "timestamp": "2021-09-23T22:17:30Z",
        "version": 4,
        "changeset": 111621212,
        "addr:city": "Camaçari",
        "addr:housenumber": "36",
        "addr:postcode": "42807-140",
        "addr:street": "Rua Moreira Cesar",
        "addr:suburb": "Camaçari de Dentro",
        "building": "yes",
        "name": "Pousada do Sol",
        "tourism": "hotel",
        "id": "way/320330059"
      },
      "geometry": {
        "type": "Polygon",
        "coordinates": [
          [
            [
              -38.3353006,
              -12.6984988
            ],
            [
              -38.3353371,
              -12.6985505
            ],
            [
              -38.3351501,
              -12.6986759
            ],
            [
              -38.3351136,
              -12.6986241
            ],
            [
              -38.3353006,
              -12.6984988
            ]
          ]
        ]
      }
    },
    {
      "type": "Feature",
      "id": "way/320330184",
      "properties": {
        "timestamp": "2021-09-23T23:24:38Z",
        "version": 3,
        "changeset": 111622382,
        "addr:housenumber": "75",
        "addr:street": "Rua Francisco Drumond",
        "building": "yes",
        "name": "Hotel Lima",
        "tourism": "hotel",
        "website": "https://www.facebook.com/pages/Hotel-Lima/157855024279305",
        "id": "way/320330184"
      },
      "geometry": {
        "type": "Polygon",
        "coordinates": [
          [
            [
              -38.3242136,
              -12.702351
            ],
            [
              -38.3243267,
              -12.7024646
            ],
            [
              -38.3243529,
              -12.7024485
            ],
            [
              -38.3244297,
              -12.7025432
            ],
            [
              -38.3242822,
              -12.7026198
            ],
            [
              -38.3242188,
              -12.7025349
            ],
            [
              -38.3241169,
              -12.7024159
            ],
            [
              -38.3242136,
              -12.702351
            ]
          ]
        ]
      }
    },
    {
      "type": "Feature",
      "id": "way/320330508",
      "properties": {
        "timestamp": "2023-02-15T18:56:31Z",
        "version": 2,
        "changeset": 132596727,
        "addr:city": "camaçari",
        "addr:housenumber": "35",
        "addr:street": "Rua da Rodoviária",
        "building": "yes",
        "name": "Hotel Paraty",
        "tourism": "hotel",
        "id": "way/320330508"
      },
      "geometry": {
        "type": "Polygon",
        "coordinates": [
          [
            [
              -38.3194814,
              -12.7042226
            ],
            [
              -38.319511,
              -12.7042915
            ],
            [
              -38.3195303,
              -12.7043238
            ],
            [
              -38.3195241,
              -12.7043273
            ],
            [
              -38.3193415,
              -12.7044107
            ],
            [
              -38.3192926,
              -12.7043095
            ],
            [
              -38.3194814,
              -12.7042226
            ]
          ]
        ]
      }
    },
    {
      "type": "Feature",
      "id": "way/544593332",
      "properties": {
        "timestamp": "2017-12-04T18:02:09Z",
        "version": 1,
        "changeset": 54337606,
        "addr:city": "Camaçari",
        "addr:housenumber": "106",
        "addr:postcode": "42823-000",
        "addr:street": "Rua Lagoa Clara",
        "addr:suburb": "Itacimirim",
        "building": "yes",
        "internet_access": "wlan",
        "internet_access:fee": "no",
        "name": "Holiday home Enseada Ville",
        "tourism": "hotel",
        "id": "way/544593332"
      },
      "geometry": {
        "type": "Polygon",
        "coordinates": [
          [
            [
              -38.0465965,
              -12.6207896
            ],
            [
              -38.046102,
              -12.6211493
            ],
            [
              -38.0458258,
              -12.6207877
            ],
            [
              -38.0463203,
              -12.620428
            ],
            [
              -38.0465965,
              -12.6207896
            ]
          ]
        ]
      }
    },
    {
      "type": "Feature",
      "id": "way/544593336",
      "properties": {
        "timestamp": "2017-12-04T18:02:09Z",
        "version": 1,
        "changeset": 54337606,
        "addr:housenumber": "104",
        "addr:postcode": "42823-000",
        "addr:street": "Alameda Atlântica",
        "addr:suburb": "Itacimirim",
        "building": "yes",
        "internet_access": "wlan",
        "internet_access:fee": "no",
        "name": "Village Laguna Ville",
        "tourism": "hotel",
        "id": "way/544593336"
      },
      "geometry": {
        "type": "Polygon",
        "coordinates": [
          [
            [
              -38.0469911,
              -12.6204903
            ],
            [
              -38.0466162,
              -12.6207606
            ],
            [
              -38.0463539,
              -12.6204141
            ],
            [
              -38.0467288,
              -12.6201438
            ],
            [
              -38.0469911,
              -12.6204903
            ]
          ]
        ]
      }
    },
    {
      "type": "Feature",
      "id": "way/544593339",
      "properties": {
        "timestamp": "2017-12-04T18:02:09Z",
        "version": 1,
        "changeset": 54337606,
        "addr:city": "Camaçari",
        "addr:postcode": "42823-000",
        "addr:street": "Rua Lagoa Clara",
        "addr:suburb": "Itacimirim",
        "building": "yes",
        "internet_access": "wlan",
        "internet_access:fee": "no",
        "name": "Pousada Villa Maeva Lagoa Clara",
        "tourism": "hotel",
        "id": "way/544593339"
      },
      "geometry": {
        "type": "Polygon",
        "coordinates": [
          [
            [
              -38.0467208,
              -12.6200396
            ],
            [
              -38.0464589,
              -12.6202509
            ],
            [
              -38.0461602,
              -12.6198984
            ],
            [
              -38.0464221,
              -12.6196871
            ],
            [
              -38.0467208,
              -12.6200396
            ]
          ]
        ]
      }
    },
    {
      "type": "Feature",
      "id": "way/544683148",
      "properties": {
        "timestamp": "2017-12-05T03:41:37Z",
        "version": 1,
        "changeset": 54352306,
        "addr:city": "Camaçari",
        "addr:housenumber": "300",
        "addr:postcode": "42825-000",
        "addr:street": "Rua Direita de Itacimirim",
        "addr:suburb": "Itacimirim",
        "building": "yes",
        "internet_access": "wlan",
        "internet_access:fee": "no",
        "name": "Itacimirim Praia Hotel",
        "tourism": "hotel",
        "id": "way/544683148"
      },
      "geometry": {
        "type": "Polygon",
        "coordinates": [
          [
            [
              -38.0473342,
              -12.6209732
            ],
            [
              -38.0475246,
              -12.6213737
            ],
            [
              -38.0476024,
              -12.6215988
            ],
            [
              -38.0476346,
              -12.6218056
            ],
            [
              -38.0471679,
              -12.6218082
            ],
            [
              -38.0467843,
              -12.6218344
            ],
            [
              -38.0467038,
              -12.6213606
            ],
            [
              -38.0473342,
              -12.6209732
            ]
          ]
        ]
      }
    },
    {
      "type": "Feature",
      "id": "way/544683156",
      "properties": {
        "timestamp": "2017-12-05T03:41:37Z",
        "version": 1,
        "changeset": 54352306,
        "addr:city": "Camaçari",
        "addr:postcode": "42823-000",
        "addr:street": "Loteamento Sta. Maria Lote 08",
        "addr:suburb": "Itacimirim",
        "building": "yes",
        "internet_access": "wlan",
        "internet_access:fee": "no",
        "name": "Pousada Ilha do Meio",
        "tourism": "hotel",
        "id": "way/544683156"
      },
      "geometry": {
        "type": "Polygon",
        "coordinates": [
          [
            [
              -38.0507371,
              -12.6256191
            ],
            [
              -38.0498898,
              -12.6256702
            ],
            [
              -38.0502903,
              -12.6247893
            ],
            [
              -38.0504752,
              -12.6247201
            ],
            [
              -38.0506693,
              -12.6247021
            ],
            [
              -38.0507371,
              -12.6256191
            ]
          ]
        ]
      }
    },
    {
      "type": "Feature",
      "id": "way/544683163",
      "properties": {
        "timestamp": "2017-12-05T03:41:37Z",
        "version": 1,
        "changeset": 54352306,
        "addr:city": "Camaçari",
        "addr:postcode": "42823-000",
        "addr:street": "Travessa Itacimirim",
        "addr:suburb": "Itacimirim",
        "building": "yes",
        "name": "Pousada Recanto dos Corais",
        "tourism": "hotel",
        "id": "way/544683163"
      },
      "geometry": {
        "type": "Polygon",
        "coordinates": [
          [
            [
              -38.0513842,
              -12.624644
            ],
            [
              -38.0514264,
              -12.6251026
            ],
            [
              -38.0510742,
              -12.6251334
            ],
            [
              -38.0510321,
              -12.6246748
            ],
            [
              -38.0513842,
              -12.624644
            ]
          ]
        ]
      }
    },
    {
      "type": "Feature",
      "id": "way/556882197",
      "properties": {
        "timestamp": "2021-09-23T21:18:06Z",
        "version": 2,
        "changeset": 111619918,
        "addr:city": "camaçari",
        "addr:housenumber": "2",
        "addr:postcode": "42807-220",
        "addr:street": "Rua Dois do Triângulo",
        "addr:suburb": "Gleaba A",
        "building": "yes",
        "internet_access": "wlan",
        "name": "Hotel Splendor",
        "tourism": "hotel",
        "id": "way/556882197"
      },
      "geometry": {
        "type": "Polygon",
        "coordinates": [
          [
            [
              -38.3343384,
              -12.6964312
            ],
            [
              -38.3343315,
              -12.6965107
            ],
            [
              -38.3341046,
              -12.6964973
            ],
            [
              -38.3341111,
              -12.6964053
            ],
            [
              -38.3343384,
              -12.6964312
            ]
          ]
        ]
      }
    },
    {
      "type": "Feature",
      "id": "way/556883870",
      "properties": {
        "timestamp": "2022-09-10T20:46:00Z",
        "version": 2,
        "changeset": 126029626,
        "addr:city": "camaçari",
        "addr:housenumber": "1º Andar",
        "addr:postcode": "42807-450",
        "addr:street": "Travessa Getúlio Vargas",
        "building": "yes",
        "name": "Sos Hostel",
        "tourism": "hotel",
        "id": "way/556883870"
      },
      "geometry": {
        "type": "Polygon",
        "coordinates": [
          [
            [
              -38.3304379,
              -12.6972896
            ],
            [
              -38.3304833,
              -12.6973713
            ],
            [
              -38.3302132,
              -12.697517
            ],
            [
              -38.3301641,
              -12.6974389
            ],
            [
              -38.3304379,
              -12.6972896
            ]
          ]
        ]
      }
    },
    {
      "type": "Feature",
      "id": "way/591918830",
      "properties": {
        "timestamp": "2022-09-10T20:46:31Z",
        "version": 2,
        "changeset": 126029647,
        "addr:city": "camaçari",
        "addr:housenumber": "19",
        "addr:postcode": "42807-450",
        "addr:street": "Travessa Getúlio Vargas",
        "addr:suburb": "Alto da Cruz",
        "building": "yes",
        "name": "Pousada Auto da Cruz",
        "phone": "+55 71 3621-2173",
        "tourism": "hotel",
        "website": "http://www.pousadaaltodacruz.com.br/",
        "id": "way/591918830"
      },
      "geometry": {
        "type": "Polygon",
        "coordinates": [
          [
            [
              -38.329185,
              -12.6964295
            ],
            [
              -38.3292918,
              -12.6965237
            ],
            [
              -38.329194,
              -12.6966341
            ],
            [
              -38.3290769,
              -12.6965525
            ],
            [
              -38.329185,
              -12.6964295
            ]
          ]
        ]
      }
    },
    {
      "type": "Feature",
      "id": "way/608334287",
      "properties": {
        "timestamp": "2018-07-16T11:51:14Z",
        "version": 1,
        "changeset": 60760158,
        "internet_access": "wlan",
        "internet_access:fee": "no",
        "name": "B Blue Beachouses",
        "rooms": "30",
        "tourism": "hotel",
        "id": "way/608334287"
      },
      "geometry": {
        "type": "Polygon",
        "coordinates": [
          [
            [
              -38.0340183,
              -12.599272
            ],
            [
              -38.0341232,
              -12.5996179
            ],
            [
              -38.0331425,
              -12.6003839
            ],
            [
              -38.0328248,
              -12.5999444
            ],
            [
              -38.0336963,
              -12.5993783
            ],
            [
              -38.0337735,
              -12.5994224
            ],
            [
              -38.0338479,
              -12.5993669
            ],
            [
              -38.0339135,
              -12.5994438
            ],
            [
              -38.0339834,
              -12.5993954
            ],
            [
              -38.0340183,
              -12.599272
            ]
          ]
        ]
      }
    },
    {
      "type": "Feature",
      "id": "way/1144989516",
      "properties": {
        "timestamp": "2024-04-19T23:58:34Z",
        "version": 5,
        "changeset": 150244078,
        "addr:city": "Camaçari",
        "addr:street": "Alameda Humaitá",
        "addr:suburb": "Guarajuba",
        "building": "yes",
        "building:levels": "4",
        "check_date": "2023-12-14",
        "tourism": "hotel",
        "id": "way/1144989516"
      },
      "geometry": {
        "type": "Polygon",
        "coordinates": [
          [
            [
              -38.0757826,
              -12.6476947
            ],
            [
              -38.0757733,
              -12.6477974
            ],
            [
              -38.0753972,
              -12.6477649
            ],
            [
              -38.0754177,
              -12.6475379
            ],
            [
              -38.0755037,
              -12.6475454
            ],
            [
              -38.0754999,
              -12.647587
            ],
            [
              -38.0755914,
              -12.6475948
            ],
            [
              -38.0755879,
              -12.6476337
            ],
            [
              -38.0757013,
              -12.6476435
            ],
            [
              -38.0756974,
              -12.6476873
            ],
            [
              -38.0757826,
              -12.6476947
            ]
          ]
        ]
      }
    },
    {
      "type": "Feature",
      "id": "node/619074874",
      "properties": {
        "timestamp": "2021-05-26T23:09:10Z",
        "version": 4,
        "changeset": 105382950,
        "name": "Hotel Praia de Guarajuba",
        "phone": "+55 71 3674 0319",
        "tourism": "hotel",
        "url": "http://www.hotelpraiadeguarajuba.com.br/",
        "id": "node/619074874"
      },
      "geometry": {
        "type": "Point",
        "coordinates": [
          -38.0820373,
          -12.6509509
        ]
      }
    },
    {
      "type": "Feature",
      "id": "node/716375960",
      "properties": {
        "timestamp": "2021-08-03T21:05:45Z",
        "version": 4,
        "changeset": 109113798,
        "addr:city": "Camaçari",
        "addr:housenumber": "272",
        "addr:postcode": "42835-000",
        "addr:street": "Rua do Pirui",
        "addr:suburb": "Arembepe",
        "name": "Pousada Fazenda",
        "phone": "+55 71 3624 1030",
        "tourism": "hotel",
        "id": "node/716375960"
      },
      "geometry": {
        "type": "Point",
        "coordinates": [
          -38.1810984,
          -12.7760033
        ]
      }
    },
    {
      "type": "Feature",
      "id": "node/716376359",
      "properties": {
        "timestamp": "2021-08-03T21:56:09Z",
        "version": 4,
        "changeset": 109115244,
        "addr:city": "Camaçari",
        "addr:postcode": "42835-000",
        "addr:street": "Rua Manoel Coelho",
        "addr:suburb": "Arembepe",
        "email": "hoteltubaraojunior@gmail.com",
        "name": "Tubarão Junior",
        "phone": "+55 71 3627 2574",
        "rooms": "25",
        "tourism": "hotel",
        "id": "node/716376359"
      },
      "geometry": {
        "type": "Point",
        "coordinates": [
          -38.1792247,
          -12.7747189
        ]
      }
    },
    {
      "type": "Feature",
      "id": "node/725845319",
      "properties": {
        "timestamp": "2021-08-03T23:50:07Z",
        "version": 2,
        "changeset": 109117138,
        "name": "Pousada Vilamar",
        "phone": "+55 71 3624 1448",
        "tourism": "hotel",
        "url": "http://www.vilamar.com.br",
        "id": "node/725845319"
      },
      "geometry": {
        "type": "Point",
        "coordinates": [
          -38.1768372,
          -12.7718722
        ]
      }
    },
    {
      "type": "Feature",
      "id": "node/740241355",
      "properties": {
        "timestamp": "2011-03-15T13:31:57Z",
        "version": 3,
        "changeset": 7566286,
        "name": "Hotel Canto do Mar",
        "tourism": "hotel",
        "id": "node/740241355"
      },
      "geometry": {
        "type": "Point",
        "coordinates": [
          -38.0778406,
          -12.658703
        ]
      }
    },
    {
      "type": "Feature",
      "id": "node/2018534220",
      "properties": {
        "timestamp": "2012-11-22T16:58:19Z",
        "version": 3,
        "changeset": 13987905,
        "name": "Pousada Jardim Cambui",
        "tourism": "hotel",
        "id": "node/2018534220"
      },
      "geometry": {
        "type": "Point",
        "coordinates": [
          -38.0477852,
          -12.6177274
        ]
      }
    },
    {
      "type": "Feature",
      "id": "node/4690649697",
      "properties": {
        "timestamp": "2021-08-04T01:28:30Z",
        "version": 3,
        "changeset": 109118124,
        "addr:city": "Camaçari",
        "addr:housenumber": "01",
        "addr:street": "1ª Trav. da Glória",
        "addr:suburb": "Arembepe",
        "email": "mira.klee@hotmail.com",
        "internet_access": "wlan",
        "internet_access:fee": "no",
        "name": "Pousada Arembepe",
        "phone": "+55 71  3624 2222",
        "tourism": "hotel",
        "id": "node/4690649697"
      },
      "geometry": {
        "type": "Point",
        "coordinates": [
          -38.1783735,
          -12.7732807
        ]
      }
    },
    {
      "type": "Feature",
      "id": "node/4690715139",
      "properties": {
        "timestamp": "2017-02-17T15:32:46Z",
        "version": 1,
        "changeset": 46168073,
        "addr:city": "Camaçari",
        "addr:housenumber": "16",
        "addr:street": "Praça dos Coqueiros",
        "addr:suburb": "Arembepe",
        "internet_access": "wlan",
        "name": "Pousada Vitória",
        "phone": "+55 71 3624-1888",
        "tourism": "hotel",
        "id": "node/4690715139"
      },
      "geometry": {
        "type": "Point",
        "coordinates": [
          -38.1752038,
          -12.7706382
        ]
      }
    },
    {
      "type": "Feature",
      "id": "node/4690726136",
      "properties": {
        "timestamp": "2021-06-19T03:36:03Z",
        "version": 3,
        "changeset": 106615246,
        "addr:city": "Camaçari",
        "addr:postcode": "42835-000",
        "addr:street": "Rua Guilherme Machado",
        "addr:suburb": "Arembepe",
        "email": "reservas@pousadamaluar.com.br",
        "name": "Pousada Maluar",
        "phone": "+55 71 3624-3064",
        "rooms": "13",
        "tourism": "hotel",
        "website": "http://pousadamaluar.com.br/",
        "id": "node/4690726136"
      },
      "geometry": {
        "type": "Point",
        "coordinates": [
          -38.1751445,
          -12.7692396
        ]
      }
    },
    {
      "type": "Feature",
      "id": "node/5012872121",
      "properties": {
        "timestamp": "2022-05-24T10:50:34Z",
        "version": 4,
        "changeset": 121416806,
        "addr:housenumber": "61",
        "addr:postcode": "48280000",
        "addr:street": "Rua Núcleo Colonial Jk, lote 61 - Area rural, Mata de São João - BA, 48280-000",
        "internet_access": "wlan",
        "name": "Hotel Fazenda Ecoville",
        "name:pt": "Hotel Fazenda Ecoville",
        "phone": "+55 71 9 9222 5677",
        "tourism": "hotel",
        "website": "https://hotelfazendaecoville.com.br/",
        "id": "node/5012872121"
      },
      "geometry": {
        "type": "Point",
        "coordinates": [
          -38.2355121,
          -12.4934438
        ]
      }
    },
    {
      "type": "Feature",
      "id": "node/5163896622",
      "properties": {
        "timestamp": "2017-10-12T20:44:22Z",
        "version": 1,
        "changeset": 52871657,
        "name": "Casa de painho",
        "tourism": "hotel",
        "id": "node/5163896622"
      },
      "geometry": {
        "type": "Point",
        "coordinates": [
          -38.3278821,
          -12.6920745
        ]
      }
    },
    {
      "type": "Feature",
      "id": "node/5163896623",
      "properties": {
        "timestamp": "2017-10-12T20:44:23Z",
        "version": 1,
        "changeset": 52871657,
        "name": "Case de Vó",
        "tourism": "hotel",
        "id": "node/5163896623"
      },
      "geometry": {
        "type": "Point",
        "coordinates": [
          -38.3170144,
          -12.7085648
        ]
      }
    },
    {
      "type": "Feature",
      "id": "node/5163896721",
      "properties": {
        "timestamp": "2017-10-12T20:44:19Z",
        "version": 1,
        "changeset": 52871657,
        "addr:housenumber": "5",
        "addr:postcode": "42802140",
        "addr:street": "R. Fortaleza",
        "name": "Casa",
        "tourism": "hotel",
        "id": "node/5163896721"
      },
      "geometry": {
        "type": "Point",
        "coordinates": [
          -38.3224037,
          -12.7127082
        ]
      }
    },
    {
      "type": "Feature",
      "id": "node/6522132247",
      "properties": {
        "timestamp": "2019-06-04T21:35:19Z",
        "version": 1,
        "changeset": 70938735,
        "name": "Pousada Brisas do Mar",
        "tourism": "hotel",
        "id": "node/6522132247"
      },
      "geometry": {
        "type": "Point",
        "coordinates": [
          -38.1745489,
          -12.77014
        ]
      }
    },
    {
      "type": "Feature",
      "id": "node/11162767705",
      "properties": {
        "timestamp": "2023-09-02T11:56:17Z",
        "version": 1,
        "changeset": 140715342,
        "addr:housenumber": "72",
        "addr:street": "Rua Tilápia",
        "email": "mardeguarajuba@gmail.com",
        "name": "Mar de Guarajuba",
        "phone": "+557141110109",
        "tourism": "hotel",
        "id": "node/11162767705"
      },
      "geometry": {
        "type": "Point",
        "coordinates": [
          -38.0773362,
          -12.6567319
        ]
      }
    }
  ]
}
