{
  "type": "FeatureCollection",
  "features": [
    {
      "type": "Feature",
      "id": "way/1139084676",
      "properties": {
        "timestamp": "2023-02-08T01:20:42Z",
        "version": 1,
        "changeset": 132232262,
        "addr:city": "Camaçari",
        "addr:housenumber": "290",
        "addr:street": "Avenida Eixo Urbano Central",
        "amenity": "veterinary",
        "building": "yes",
        "name": "Clinvet",
        "id": "way/1139084676"
      },
      "geometry": {
        "type": "Polygon",
        "coordinates": [
          [
            [
              -38.3259005,
              -12.7091834
            ],
            [
              -38.3258955,
              -12.7092596
            ],
            [
              -38.3258194,
              -12.7092549
            ],
            [
              -38.3258244,
              -12.7091787
            ],
            [
              -38.3259005,
              -12.7091834
            ]
          ]
        ]
      }
    },
    {
      "type": "Feature",
      "id": "node/837333153",
      "properties": {
        "timestamp": "2012-11-19T20:59:48Z",
        "version": 3,
        "changeset": 13937676,
        "amenity": "veterinary",
        "id": "node/837333153"
      },
      "geometry": {
        "type": "Point",
        "coordinates": [
          -38.0420477,
          -12.5966138
        ]
      }
    },
    {
      "type": "Feature",
      "id": "node/904026926",
      "properties": {
        "timestamp": "2010-09-09T13:10:13Z",
        "version": 1,
        "changeset": 5732537,
        "amenity": "veterinary",
        "id": "node/904026926"
      },
      "geometry": {
        "type": "Point",
        "coordinates": [
          -38.087443,
          -12.6452749
        ]
      }
    },
    {
      "type": "Feature",
      "id": "node/1110759304",
      "properties": {
        "timestamp": "2024-04-10T18:55:19Z",
        "version": 2,
        "changeset": 149834939,
        "amenity": "veterinary",
        "name": "Casa da Ração",
        "shop": "pet",
        "source": "survey",
        "id": "node/1110759304"
      },
      "geometry": {
        "type": "Point",
        "coordinates": [
          -38.0886126,
          -12.6417853
        ]
      }
    },
    {
      "type": "Feature",
      "id": "node/8633076473",
      "properties": {
        "timestamp": "2021-04-15T18:34:48Z",
        "version": 1,
        "changeset": 103012151,
        "addr:city": "Camaçari",
        "addr:housenumber": "250",
        "addr:postcode": "42809244",
        "addr:street": "Rua Dois de Maio",
        "addr:suburb": "Centro",
        "amenity": "veterinary",
        "name": "Prevpet Clinica Veterinária",
        "operator": "Roberto",
        "id": "node/8633076473"
      },
      "geometry": {
        "type": "Point",
        "coordinates": [
          -38.3222238,
          -12.7052671
        ]
      }
    }
  ]
}
