{
  "type": "FeatureCollection",
  "features": [
    {
      "type": "Feature",
      "id": "node/2747176814",
      "properties": {
        "timestamp": "2019-05-06T23:09:51Z",
        "version": 5,
        "changeset": 69953995,
        "addr:city": "Jacutinga",
        "addr:housenumber": "63",
        "addr:postcode": "37590000",
        "addr:street": "Rua Pedro Turano",
        "government": "social_security",
        "name": "INSS - Agência Jacutinga",
        "office": "government",
        "opening_hours": "07:30-16:00",
        "id": "node/2747176814"
      },
      "geometry": {
        "type": "Point",
        "coordinates": [
          -46.6051383,
          -22.2798508
        ]
      }
    },
    {
      "type": "Feature",
      "id": "node/6453269213",
      "properties": {
        "timestamp": "2022-11-29T00:04:07Z",
        "version": 2,
        "changeset": 129496200,
        "addr:city": "Jacutinga",
        "addr:housenumber": "141-A",
        "addr:postcode": "37590-000",
        "addr:street": "Rua Pedro Cintra",
        "addr:suburb": "Centro",
        "government": "register_office",
        "name": "Cartório de Protesto",
        "office": "government",
        "opening_hours": "Mo-Fr 09:00-11:00 13:00-17:00",
        "phone": "+55 35 3443-2341",
        "id": "node/6453269213"
      },
      "geometry": {
        "type": "Point",
        "coordinates": [
          -46.6121297,
          -22.2912072
        ]
      }
    },
    {
      "type": "Feature",
      "id": "node/6453269214",
      "properties": {
        "timestamp": "2022-11-29T00:04:07Z",
        "version": 2,
        "changeset": 129496200,
        "addr:city": "Jacutinga",
        "addr:housenumber": "141-B",
        "addr:postcode": "37590-000",
        "addr:street": "Rua Pedro Cintra",
        "addr:suburb": "Centro",
        "government": "register_office",
        "name": "Cartório de Registro Civil",
        "office": "government",
        "opening_hours": "Mo-Fr 08:00-11:00 13:00-17:00",
        "phone": "+55 35 3443-1902",
        "id": "node/6453269214"
      },
      "geometry": {
        "type": "Point",
        "coordinates": [
          -46.612076,
          -22.2912159
        ]
      }
    },
    {
      "type": "Feature",
      "id": "node/6453269215",
      "properties": {
        "timestamp": "2023-08-12T23:03:54Z",
        "version": 2,
        "changeset": 139804967,
        "addr:city": "Jacutinga",
        "addr:housenumber": "612",
        "addr:postcode": "37590-000",
        "addr:street": "Rua Santo Antônio",
        "addr:suburb": "Centro",
        "air_conditioning": "yes",
        "government": "register_office",
        "name": "Segundo Tabelionato de Notas de Jacutinga",
        "office": "government",
        "opening_hours": "Mo-Fr 09:00-17:00",
        "phone": "55 35 99888-2598",
        "wheelchair": "yes",
        "id": "node/6453269215"
      },
      "geometry": {
        "type": "Point",
        "coordinates": [
          -46.6113,
          -22.288471
        ]
      }
    }
  ]
}
