{
  "type": "FeatureCollection",
  "features": [
    {
      "type": "Feature",
      "id": "way/1304878667",
      "properties": {
        "timestamp": "2024-08-09T00:09:57Z",
        "version": 2,
        "changeset": 155000993,
        "addr:city": "Santa Fé do Sul",
        "addr:housenumber": "857",
        "addr:postcode": "15775-000",
        "addr:street": "Rua Oito",
        "addr:suburb": "Centro",
        "amenity": "university",
        "name": "UNIFUNEC - Campus I",
        "website": "https://unifunec.edu.br/",
        "id": "way/1304878667"
      },
      "geometry": {
        "type": "Polygon",
        "coordinates": [
          [
            [
              -50.9225603,
              -20.2071253
            ],
            [
              -50.9234217,
              -20.2070331
            ],
            [
              -50.9235199,
              -20.2078405
            ],
            [
              -50.9226584,
              -20.2079327
            ],
            [
              -50.9225603,
              -20.2071253
            ]
          ]
        ]
      }
    },
    {
      "type": "Feature",
      "id": "way/1304878668",
      "properties": {
        "timestamp": "2024-08-09T00:09:58Z",
        "version": 2,
        "changeset": 155000993,
        "addr:city": "Santa Fé do Sul",
        "addr:postcode": "15775-000",
        "addr:street": "Avenida Paulo Nunes da Silva",
        "addr:suburb": "Centro",
        "amenity": "university",
        "name": "UNIFUNEC - Campus III",
        "website": "https://unifunec.edu.br/",
        "id": "way/1304878668"
      },
      "geometry": {
        "type": "Polygon",
        "coordinates": [
          [
            [
              -50.92331,
              -20.2187775
            ],
            [
              -50.9239638,
              -20.2180588
            ],
            [
              -50.9245263,
              -20.219104
            ],
            [
              -50.9238657,
              -20.2195006
            ],
            [
              -50.9237641,
              -20.2195019
            ],
            [
              -50.9236696,
              -20.2194568
            ],
            [
              -50.92331,
              -20.2187775
            ]
          ]
        ]
      }
    }
  ]
}
