{
  "type": "FeatureCollection",
  "features": [
    {
      "type": "Feature",
      "id": "way/954092213",
      "properties": {
        "timestamp": "2021-06-13T23:41:50Z",
        "version": 1,
        "changeset": 106300190,
        "addr:housenumber": "930",
        "addr:postcode": "11259-090",
        "addr:street": "Rua Lincoln Bolivar Neves",
        "addr:suburb": "Chácara Vista Linda",
        "amenity": "kindergarten",
        "name": "Núcleo de Educação Infantil Municipal Chácara Vista Linda",
        "phone": "+55 13 3319 8006",
        "preschool": "yes",
        "ref": "INEP-35196236",
        "source": "INEP",
        "id": "way/954092213"
      },
      "geometry": {
        "type": "Polygon",
        "coordinates": [
          [
            [
              -46.0832907,
              -23.7954726
            ],
            [
              -46.08326,
              -23.7957436
            ],
            [
              -46.08321,
              -23.7957964
            ],
            [
              -46.0827715,
              -23.7957753
            ],
            [
              -46.0827792,
              -23.7954339
            ],
            [
              -46.0832907,
              -23.7954726
            ]
          ]
        ]
      }
    },
    {
      "type": "Feature",
      "id": "way/1154032066",
      "properties": {
        "timestamp": "2023-03-13T13:38:01Z",
        "version": 1,
        "changeset": 133625962,
        "addr:postcode": "11256-230",
        "addr:street": "Rua Pastor Djalma da Silva Coimbra",
        "addr:suburb": "Jardim Rio da Granja",
        "amenity": "kindergarten",
        "name": "Escola Municipal Professora Cristina dos Santos",
        "operator": "Secretaria de Educação",
        "phone": "+55 13 331 77348",
        "preschool": "yes",
        "ref": "INEP-35023224",
        "source": "INEP",
        "id": "way/1154032066"
      },
      "geometry": {
        "type": "Polygon",
        "coordinates": [
          [
            [
              -46.1158946,
              -23.8137229
            ],
            [
              -46.1158523,
              -23.8140744
            ],
            [
              -46.1150674,
              -23.813991
            ],
            [
              -46.1151488,
              -23.8136454
            ],
            [
              -46.1158946,
              -23.8137229
            ]
          ]
        ]
      }
    },
    {
      "type": "Feature",
      "id": "way/1154033817",
      "properties": {
        "timestamp": "2023-03-13T13:48:17Z",
        "version": 1,
        "changeset": 133626366,
        "addr:housenumber": "697",
        "addr:postcode": "11250-117",
        "addr:street": "Rua Luiz Pereira de Campos",
        "addr:suburb": "Centro",
        "amenity": "kindergarten",
        "name": "Núcleo de EducaçãoInfantil Municipal Professor Amilton José do Amparo",
        "operator": "Secretaria de Educação",
        "operator:type": "government",
        "phone": "+55 13 3317 1341",
        "preschool": "yes",
        "ref": "INEP-35004474",
        "source": "INEP",
        "id": "way/1154033817"
      },
      "geometry": {
        "type": "Polygon",
        "coordinates": [
          [
            [
              -46.1425842,
              -23.8489835
            ],
            [
              -46.1427768,
              -23.8493989
            ],
            [
              -46.1420524,
              -23.8497197
            ],
            [
              -46.1418569,
              -23.8493043
            ],
            [
              -46.1425842,
              -23.8489835
            ]
          ]
        ]
      }
    },
    {
      "type": "Feature",
      "id": "way/1154034895",
      "properties": {
        "timestamp": "2023-03-13T13:54:26Z",
        "version": 1,
        "changeset": 133626647,
        "addr:postcode": "11250-288",
        "addr:street": "Avenida Manoel da Nóbrega",
        "addr:suburb": "Centro",
        "amenity": "kindergarten",
        "name": "Escola Municipal Professor Delphino Stockler de Lima",
        "operator": "Secretaria de educação",
        "operator:type": "government",
        "phone": "+55 13 3317 5060",
        "id": "way/1154034895"
      },
      "geometry": {
        "type": "Polygon",
        "coordinates": [
          [
            [
              -46.1365603,
              -23.8419067
            ],
            [
              -46.1368241,
              -23.842425
            ],
            [
              -46.1363193,
              -23.8426365
            ],
            [
              -46.1361174,
              -23.842154
            ],
            [
              -46.1365603,
              -23.8419067
            ]
          ]
        ]
      }
    }
  ]
}
