{
  "type": "FeatureCollection",
  "features": [
    {
      "type": "Feature",
      "id": "way/372289128",
      "properties": {
        "timestamp": "2018-09-27T04:06:18Z",
        "version": 4,
        "changeset": 62964082,
        "addr:city": "Bertioga",
        "addr:postcode": "11250-000",
        "addr:street": "Rua Alzemiro Balio",
        "addr:suburb": "Vista Linda",
        "amenity": "social_facility",
        "building": "yes",
        "name": "Núcleo de Apoio a Crianças Especiais (Nace)",
        "note": "Sem numeração",
        "opening_hours": "Mo-Fr 08:00-17:00: Sa-Su,PH off",
        "operator": "Secretaria de Desenvolvimento Social, Trabalho e Renda",
        "phone": "+55 13 3313 9135",
        "social_facility": "childrens_centre",
        "social_facility:for": "mental_health",
        "wheelchair": "yes",
        "id": "way/372289128"
      },
      "geometry": {
        "type": "Polygon",
        "coordinates": [
          [
            [
              -46.0831499,
              -23.8128439
            ],
            [
              -46.0831702,
              -23.8121372
            ],
            [
              -46.0833369,
              -23.8121892
            ],
            [
              -46.0834629,
              -23.8119958
            ],
            [
              -46.0836743,
              -23.8120144
            ],
            [
              -46.0831499,
              -23.8128439
            ]
          ]
        ]
      }
    }
  ]
}
