{
  "type": "FeatureCollection",
  "features": [
    {
      "type": "Feature",
      "id": "way/1123126729",
      "properties": {
        "timestamp": "2022-12-18T15:35:21Z",
        "version": 2,
        "changeset": 130216236,
        "addr:housenumber": "57",
        "addr:postcode": "11271-135",
        "addr:street": "Avenida Deputado Emílio Justo",
        "addr:suburb": "Boracéia",
        "amenity": "veterinary",
        "building": "yes",
        "contact:mobile": "+55 13 99628 7647",
        "name": "Mundo das Patas Clínica Veterinária",
        "phone": "+55 13 98205 9133",
        "id": "way/1123126729"
      },
      "geometry": {
        "type": "Polygon",
        "coordinates": [
          [
            [
              -45.8547734,
              -23.7560067
            ],
            [
              -45.8547734,
              -23.7560913
            ],
            [
              -45.8545362,
              -23.7560772
            ],
            [
              -45.8545485,
              -23.7559982
            ],
            [
              -45.8547734,
              -23.7560067
            ]
          ]
        ]
      }
    }
  ]
}
