{
  "type": "FeatureCollection",
  "features": [
    {
      "type": "Feature",
      "id": "way/1153607748",
      "properties": {
        "timestamp": "2023-03-11T23:06:47Z",
        "version": 1,
        "changeset": 133570009,
        "addr:housenumber": "442",
        "addr:postcode": "86895-000",
        "addr:street": "Rua Aleixo Francisco dos Santos",
        "addr:suburb": "Centro",
        "building": "yes",
        "government": "administrative",
        "name": "Emater",
        "office": "government",
        "id": "way/1153607748"
      },
      "geometry": {
        "type": "Polygon",
        "coordinates": [
          [
            [
              -51.5079746,
              -23.7631202
            ],
            [
              -51.5080121,
              -23.7631654
            ],
            [
              -51.5079489,
              -23.7632106
            ],
            [
              -51.5079083,
              -23.7631654
            ],
            [
              -51.5079746,
              -23.7631202
            ]
          ]
        ]
      }
    },
    {
      "type": "Feature",
      "id": "way/1153608298",
      "properties": {
        "timestamp": "2023-03-11T23:11:28Z",
        "version": 1,
        "changeset": 133570093,
        "addr:housenumber": "735",
        "addr:postcode": "86895-000",
        "addr:street": "Avenida 28 de Setembro",
        "addr:suburb": "Centro",
        "building": "yes",
        "government": "administrative",
        "name": "Sanepar",
        "office": "government",
        "id": "way/1153608298"
      },
      "geometry": {
        "type": "Polygon",
        "coordinates": [
          [
            [
              -51.5078992,
              -23.7632248
            ],
            [
              -51.5079416,
              -23.763277
            ],
            [
              -51.5078846,
              -23.7633157
            ],
            [
              -51.5078357,
              -23.7632606
            ],
            [
              -51.5078992,
              -23.7632248
            ]
          ]
        ]
      }
    }
  ]
}
