{
  "type": "FeatureCollection",
  "features": [
    {
      "type": "Feature",
      "id": "way/406610983",
      "properties": {
        "timestamp": "2023-07-20T16:36:04Z",
        "version": 2,
        "changeset": 138773760,
        "addr:city": "Alvorada",
        "addr:housenumber": "30",
        "addr:street": "Rua Bandeirantes",
        "building": "yes",
        "name": "Look Bike",
        "shop": "bicycle",
        "id": "way/406610983"
      },
      "geometry": {
        "type": "Polygon",
        "coordinates": [
          [
            [
              -51.0788611,
              -30.0022156
            ],
            [
              -51.0787029,
              -30.0021029
            ],
            [
              -51.0788035,
              -30.0020123
            ],
            [
              -51.0788477,
              -30.0020297
            ],
            [
              -51.0789107,
              -30.0021703
            ],
            [
              -51.0788611,
              -30.0022156
            ]
          ]
        ]
      }
    },
    {
      "type": "Feature",
      "id": "way/729269483",
      "properties": {
        "timestamp": "2019-09-28T10:02:24Z",
        "version": 1,
        "changeset": 75036107,
        "building": "yes",
        "name": "Cadito",
        "shop": "bicycle",
        "id": "way/729269483"
      },
      "geometry": {
        "type": "Polygon",
        "coordinates": [
          [
            [
              -51.0680521,
              -29.9968654
            ],
            [
              -51.0678793,
              -29.9968775
            ],
            [
              -51.0678817,
              -29.9967987
            ],
            [
              -51.0680498,
              -29.9967875
            ],
            [
              -51.0680521,
              -29.9968654
            ]
          ]
        ]
      }
    },
    {
      "type": "Feature",
      "id": "way/1239149178",
      "properties": {
        "timestamp": "2024-11-27T00:30:55Z",
        "version": 2,
        "changeset": 159638861,
        "addr:city": "Alvorada",
        "addr:housenumber": "1560",
        "addr:postcode": "94830-030",
        "addr:street": "Rua Henrique Dias",
        "addr:suburb": "Sítio dos Açudes",
        "building": "yes",
        "name": "Mágico das Bicicletas",
        "opening_hours": "Mo-Fr 08:00-18:00",
        "phone": "051981376370",
        "shop": "bicycle",
        "id": "way/1239149178"
      },
      "geometry": {
        "type": "Polygon",
        "coordinates": [
          [
            [
              -51.0332956,
              -29.9835598
            ],
            [
              -51.0332852,
              -29.9836344
            ],
            [
              -51.0331404,
              -29.9836193
            ],
            [
              -51.0331508,
              -29.9835446
            ],
            [
              -51.0332956,
              -29.9835598
            ]
          ]
        ]
      }
    },
    {
      "type": "Feature",
      "id": "node/6822920053",
      "properties": {
        "timestamp": "2019-09-25T14:29:17Z",
        "version": 1,
        "changeset": 74913728,
        "addr:city": "Alvorada",
        "addr:street": "Avenida Presidente Getúlio Vargas",
        "name": "Fernando Bikes",
        "shop": "bicycle",
        "id": "node/6822920053"
      },
      "geometry": {
        "type": "Point",
        "coordinates": [
          -51.0469689,
          -30.0054084
        ]
      }
    },
    {
      "type": "Feature",
      "id": "node/8334440290",
      "properties": {
        "timestamp": "2021-01-18T14:30:09Z",
        "version": 1,
        "changeset": 97705355,
        "addr:city": "Alvorada",
        "addr:housenumber": "638",
        "addr:street": "Avenida Zero Hora",
        "addr:suburb": "Jardim Algarve",
        "name": "Lara Bikes",
        "service:bicycle:parts": "yes",
        "service:bicycle:repair": "yes",
        "service:bicycle:tools": "yes",
        "shop": "bicycle",
        "id": "node/8334440290"
      },
      "geometry": {
        "type": "Point",
        "coordinates": [
          -51.0785669,
          -30.0291337
        ]
      }
    },
    {
      "type": "Feature",
      "id": "node/9327366936",
      "properties": {
        "timestamp": "2021-12-10T13:57:48Z",
        "version": 1,
        "changeset": 114786578,
        "addr:city": "Alvorada",
        "addr:housenumber": "3379",
        "addr:street": "Avenida Presidente Getúlio Vargas",
        "name": "Bigode Bikes",
        "payment:cash": "yes",
        "payment:credit_cards": "yes",
        "payment:debit_cards": "yes",
        "service:bicycle:parts": "yes",
        "service:bicycle:repair": "yes",
        "service:bicycle:sales": "yes",
        "shop": "bicycle",
        "id": "node/9327366936"
      },
      "geometry": {
        "type": "Point",
        "coordinates": [
          -51.0666351,
          -29.9961172
        ]
      }
    }
  ]
}
