{
  "type": "FeatureCollection",
  "features": [
    {
      "type": "Feature",
      "id": "way/410380528",
      "properties": {
        "timestamp": "2016-04-15T00:28:17Z",
        "version": 1,
        "changeset": 38574832,
        "addr:city": "Alvorada",
        "addr:housenumber": "49",
        "addr:postcode": "98824-300",
        "addr:street": "Rua Viamão",
        "addr:suburb": "Sumaré",
        "building": "yes",
        "name": "Cartório Eleitoral - 124ª Zona Eleitoral",
        "office": "government",
        "id": "way/410380528"
      },
      "geometry": {
        "type": "Polygon",
        "coordinates": [
          [
            [
              -51.0746921,
              -29.9973407
            ],
            [
              -51.0746921,
              -29.9974464
            ],
            [
              -51.074499,
              -29.9974441
            ],
            [
              -51.074511,
              -29.9973349
            ],
            [
              -51.0746921,
              -29.9973407
            ]
          ]
        ]
      }
    },
    {
      "type": "Feature",
      "id": "way/420821008",
      "properties": {
        "timestamp": "2024-08-04T19:13:54Z",
        "version": 2,
        "changeset": 154827052,
        "addr:city": "Alvorada",
        "addr:housenumber": "1070",
        "addr:postcode": "94810-001",
        "addr:street": "Avenida Presidente Getúlio Vargas",
        "addr:suburb": "Bela Vista",
        "building": "yes",
        "government": "register_office",
        "name": "Cartório de Alvorada",
        "office": "government",
        "id": "way/420821008"
      },
      "geometry": {
        "type": "Polygon",
        "coordinates": [
          [
            [
              -51.0846237,
              -30.0068547
            ],
            [
              -51.08457,
              -30.0067501
            ],
            [
              -51.0848631,
              -30.0066109
            ],
            [
              -51.0848834,
              -30.0066524
            ],
            [
              -51.0849442,
              -30.0066302
            ],
            [
              -51.08496,
              -30.0067029
            ],
            [
              -51.0846237,
              -30.0068547
            ]
          ]
        ]
      }
    }
  ]
}
