{
  "type": "FeatureCollection",
  "features": [
    {
      "type": "Feature",
      "id": "node/6700911113",
      "properties": {
        "timestamp": "2019-08-11T21:37:07Z",
        "version": 3,
        "changeset": 73251290,
        "addr:city": "Foz do Iguaçu",
        "addr:housenumber": "244",
        "addr:street": "Rua Martins Pena",
        "addr:suburb": "Jardim Renato Festugato",
        "amenity": "doctors",
        "healthcare": "doctor",
        "name": "Dra. Liana Genovez - Reumatologia & Clínica Médica",
        "opening_hours": "Mo-Th 13:30-18:00",
        "id": "node/6700911113"
      },
      "geometry": {
        "type": "Point",
        "coordinates": [
          -54.5898201,
          -25.5316825
        ]
      }
    },
    {
      "type": "Feature",
      "id": "node/6935118485",
      "properties": {
        "timestamp": "2020-04-09T00:01:14Z",
        "version": 2,
        "changeset": 83274990,
        "addr:postcode": "85864-290",
        "addr:street": "Rua Di Cavalcanti",
        "amenity": "doctors",
        "name": "Unidade Básica d Saúde d Jardim América",
        "id": "node/6935118485"
      },
      "geometry": {
        "type": "Point",
        "coordinates": [
          -54.5887001,
          -25.5227628
        ]
      }
    },
    {
      "type": "Feature",
      "id": "node/7966672985",
      "properties": {
        "timestamp": "2021-07-07T19:12:14Z",
        "version": 2,
        "changeset": 107585767,
        "addr:housenumber": "620",
        "addr:street": "Rua Edmundo de Barros",
        "amenity": "doctors",
        "healthcare": "doctor",
        "name": "9a Regional da Saúde",
        "opening_hours": "Mo-Fr 09:00-18:00",
        "id": "node/7966672985"
      },
      "geometry": {
        "type": "Point",
        "coordinates": [
          -54.581221,
          -25.5447088
        ]
      }
    },
    {
      "type": "Feature",
      "id": "node/7966730985",
      "properties": {
        "timestamp": "2023-05-15T02:46:06Z",
        "version": 3,
        "changeset": 136106125,
        "addr:housenumber": "620",
        "addr:street": "Rua Santos Dumont",
        "amenity": "doctors",
        "healthcare": "doctor",
        "name": "9a Regional da Saúde",
        "opening_hours": "24/7",
        "id": "node/7966730985"
      },
      "geometry": {
        "type": "Point",
        "coordinates": [
          -54.5807474,
          -25.5457814
        ]
      }
    }
  ]
}
