{
  "type": "FeatureCollection",
  "features": [
    {
      "type": "Feature",
      "id": "way/614630108",
      "properties": {
        "timestamp": "2019-08-26T17:34:33Z",
        "version": 2,
        "changeset": 73764386,
        "addr:city": "foz do iguaçu",
        "addr:housenumber": "2027",
        "addr:postcode": "85870-130",
        "addr:street": "Rua Belo Horizonte",
        "addr:suburb": "jardim belvedere",
        "amenity": "pharmacy",
        "building": "commercial",
        "dispensing": "yes",
        "healthcare": "pharmacy",
        "name": "Farmácia Cooperfarma",
        "source": "bing;cidi",
        "id": "way/614630108"
      },
      "geometry": {
        "type": "Polygon",
        "coordinates": [
          [
            [
              -54.5802565,
              -25.4771043
            ],
            [
              -54.5802373,
              -25.4772092
            ],
            [
              -54.5800573,
              -25.4771824
            ],
            [
              -54.5800766,
              -25.4770774
            ],
            [
              -54.5802565,
              -25.4771043
            ]
          ]
        ]
      }
    },
    {
      "type": "Feature",
      "id": "node/532563270",
      "properties": {
        "timestamp": "2023-05-15T02:46:06Z",
        "version": 3,
        "changeset": 136106125,
        "amenity": "pharmacy",
        "healthcare": "pharmacy",
        "name": "Farma Util",
        "id": "node/532563270"
      },
      "geometry": {
        "type": "Point",
        "coordinates": [
          -54.5865199,
          -25.5426449
        ]
      }
    },
    {
      "type": "Feature",
      "id": "node/3131166059",
      "properties": {
        "timestamp": "2019-08-26T17:45:06Z",
        "version": 4,
        "changeset": 73764776,
        "amenity": "pharmacy",
        "name": "Globão",
        "id": "node/3131166059"
      },
      "geometry": {
        "type": "Point",
        "coordinates": [
          -54.5870051,
          -25.5367753
        ]
      }
    },
    {
      "type": "Feature",
      "id": "node/3131166069",
      "properties": {
        "timestamp": "2014-10-15T13:27:13Z",
        "version": 1,
        "changeset": 26095107,
        "amenity": "pharmacy",
        "name": "DASC",
        "id": "node/3131166069"
      },
      "geometry": {
        "type": "Point",
        "coordinates": [
          -54.5848139,
          -25.4677833
        ]
      }
    },
    {
      "type": "Feature",
      "id": "node/3133624407",
      "properties": {
        "timestamp": "2023-01-26T12:28:53Z",
        "version": 5,
        "changeset": 131730798,
        "amenity": "pharmacy",
        "check_date": "2023-01-22",
        "healthcare": "pharmacy",
        "name": "Farmácia Cataratas",
        "id": "node/3133624407"
      },
      "geometry": {
        "type": "Point",
        "coordinates": [
          -54.5860521,
          -25.5233161
        ]
      }
    },
    {
      "type": "Feature",
      "id": "node/3133624409",
      "properties": {
        "timestamp": "2014-10-16T23:23:05Z",
        "version": 2,
        "changeset": 26133715,
        "amenity": "pharmacy",
        "name": "Farmavida",
        "id": "node/3133624409"
      },
      "geometry": {
        "type": "Point",
        "coordinates": [
          -54.5859824,
          -25.5220236
        ]
      }
    },
    {
      "type": "Feature",
      "id": "node/3133624833",
      "properties": {
        "timestamp": "2023-01-22T17:31:37Z",
        "version": 5,
        "changeset": 131575194,
        "addr:city": "Foz do Iguaçu",
        "addr:housenumber": "3705",
        "addr:street": "Avenida Juscelino Kubitschek",
        "amenity": "pharmacy",
        "check_date": "2023-01-22",
        "contact:phone": "+55 45 3028-5077",
        "healthcare": "pharmacy",
        "name": "Farmácia Preço Justo",
        "id": "node/3133624833"
      },
      "geometry": {
        "type": "Point",
        "coordinates": [
          -54.5854757,
          -25.5149929
        ]
      }
    },
    {
      "type": "Feature",
      "id": "node/3133625179",
      "properties": {
        "timestamp": "2014-10-16T23:23:06Z",
        "version": 2,
        "changeset": 26133715,
        "amenity": "pharmacy",
        "name": "Drogafoz",
        "id": "node/3133625179"
      },
      "geometry": {
        "type": "Point",
        "coordinates": [
          -54.5956437,
          -25.5098528
        ]
      }
    },
    {
      "type": "Feature",
      "id": "node/3134316110",
      "properties": {
        "timestamp": "2014-10-16T23:23:05Z",
        "version": 2,
        "changeset": 26133715,
        "amenity": "pharmacy",
        "name": "Bioética",
        "id": "node/3134316110"
      },
      "geometry": {
        "type": "Point",
        "coordinates": [
          -54.5719464,
          -25.5511312
        ]
      }
    },
    {
      "type": "Feature",
      "id": "node/3134316112",
      "properties": {
        "timestamp": "2023-01-25T10:45:21Z",
        "version": 4,
        "changeset": 131689201,
        "amenity": "pharmacy",
        "check_date": "2023-01-25",
        "name": "Farmácias Preço Justo",
        "old_name": "Preço Justo",
        "wheelchair": "yes",
        "id": "node/3134316112"
      },
      "geometry": {
        "type": "Point",
        "coordinates": [
          -54.5707609,
          -25.5518571
        ]
      }
    },
    {
      "type": "Feature",
      "id": "node/3136115181",
      "properties": {
        "timestamp": "2014-10-18T00:30:22Z",
        "version": 1,
        "changeset": 26162076,
        "amenity": "pharmacy",
        "name": "Cooperfarma",
        "id": "node/3136115181"
      },
      "geometry": {
        "type": "Point",
        "coordinates": [
          -54.5722073,
          -25.5514192
        ]
      }
    },
    {
      "type": "Feature",
      "id": "node/3136115376",
      "properties": {
        "timestamp": "2017-07-03T01:38:49Z",
        "version": 2,
        "changeset": 49996847,
        "amenity": "pharmacy",
        "contact:phone": "+55 45 3523-4003",
        "name": "Farmácia Americana",
        "id": "node/3136115376"
      },
      "geometry": {
        "type": "Point",
        "coordinates": [
          -54.5869825,
          -25.5383543
        ]
      }
    },
    {
      "type": "Feature",
      "id": "node/3136115865",
      "properties": {
        "timestamp": "2018-05-02T02:56:33Z",
        "version": 2,
        "changeset": 58600504,
        "amenity": "pharmacy",
        "name": "Farmácia Minipreço",
        "id": "node/3136115865"
      },
      "geometry": {
        "type": "Point",
        "coordinates": [
          -54.5715361,
          -25.5517876
        ]
      }
    },
    {
      "type": "Feature",
      "id": "node/4202746893",
      "properties": {
        "timestamp": "2016-05-23T18:49:08Z",
        "version": 1,
        "changeset": 39516551,
        "amenity": "pharmacy",
        "name": "Cooperfarma",
        "id": "node/4202746893"
      },
      "geometry": {
        "type": "Point",
        "coordinates": [
          -54.5862464,
          -25.5405759
        ]
      }
    },
    {
      "type": "Feature",
      "id": "node/4202759490",
      "properties": {
        "timestamp": "2022-10-08T20:50:19Z",
        "version": 2,
        "changeset": 127220591,
        "amenity": "pharmacy",
        "brand": "Droga Raia",
        "brand:wikidata": "Q10357101",
        "healthcare": "pharmacy",
        "name": "Droga Raia",
        "id": "node/4202759490"
      },
      "geometry": {
        "type": "Point",
        "coordinates": [
          -54.5863971,
          -25.5417585
        ]
      }
    },
    {
      "type": "Feature",
      "id": "node/4202766790",
      "properties": {
        "timestamp": "2016-05-23T19:01:42Z",
        "version": 1,
        "changeset": 39516856,
        "amenity": "pharmacy",
        "name": "Cooperfarma",
        "id": "node/4202766790"
      },
      "geometry": {
        "type": "Point",
        "coordinates": [
          -54.5872926,
          -25.5358941
        ]
      }
    },
    {
      "type": "Feature",
      "id": "node/4222699340",
      "properties": {
        "timestamp": "2018-07-16T23:14:33Z",
        "version": 2,
        "changeset": 60778216,
        "addr:street": "Rua Indianópolis",
        "amenity": "pharmacy",
        "name": "Vivir más",
        "id": "node/4222699340"
      },
      "geometry": {
        "type": "Point",
        "coordinates": [
          -54.5393303,
          -25.5826763
        ]
      }
    },
    {
      "type": "Feature",
      "id": "node/4939435662",
      "properties": {
        "timestamp": "2023-01-20T17:45:07Z",
        "version": 4,
        "changeset": 131517287,
        "amenity": "pharmacy",
        "check_date": "2023-01-20",
        "contact:phone": "+55 45 3574-2504",
        "name": "Farmácia Dal Di",
        "id": "node/4939435662"
      },
      "geometry": {
        "type": "Point",
        "coordinates": [
          -54.5786299,
          -25.5472982
        ]
      }
    },
    {
      "type": "Feature",
      "id": "node/4943227326",
      "properties": {
        "timestamp": "2017-06-30T00:59:56Z",
        "version": 1,
        "changeset": 49933294,
        "amenity": "pharmacy",
        "name": "Nissei",
        "id": "node/4943227326"
      },
      "geometry": {
        "type": "Point",
        "coordinates": [
          -54.5869714,
          -25.5393498
        ]
      }
    },
    {
      "type": "Feature",
      "id": "node/5105390521",
      "properties": {
        "timestamp": "2017-09-14T13:57:00Z",
        "version": 1,
        "changeset": 52038557,
        "amenity": "pharmacy",
        "name": "Santa Maria",
        "id": "node/5105390521"
      },
      "geometry": {
        "type": "Point",
        "coordinates": [
          -54.5637024,
          -25.5209721
        ]
      }
    },
    {
      "type": "Feature",
      "id": "node/6388317652",
      "properties": {
        "timestamp": "2019-04-06T22:43:30Z",
        "version": 1,
        "changeset": 68963698,
        "amenity": "pharmacy",
        "brand": "Farmacity",
        "brand:wikidata": "Q5856076",
        "brand:wikipedia": "es:Farmacity",
        "dispensing": "yes",
        "healthcare": "pharmacy",
        "name": "Farmacity",
        "id": "node/6388317652"
      },
      "geometry": {
        "type": "Point",
        "coordinates": [
          -54.5518075,
          -25.5358784
        ]
      }
    },
    {
      "type": "Feature",
      "id": "node/6388326832",
      "properties": {
        "timestamp": "2019-04-06T22:56:51Z",
        "version": 1,
        "changeset": 68963887,
        "amenity": "pharmacy",
        "brand": "Farmacity",
        "brand:wikidata": "Q5856076",
        "brand:wikipedia": "es:Farmacity",
        "dispensing": "yes",
        "healthcare": "pharmacy",
        "name": "Farmacity",
        "id": "node/6388326832"
      },
      "geometry": {
        "type": "Point",
        "coordinates": [
          -54.5571023,
          -25.5355864
        ]
      }
    },
    {
      "type": "Feature",
      "id": "node/7039237003",
      "properties": {
        "timestamp": "2019-12-06T18:46:52Z",
        "version": 1,
        "changeset": 78068186,
        "addr:city": "Foz do Iguaçu",
        "addr:housenumber": "1229",
        "addr:postcode": "85851-180",
        "addr:street": "R. Xavier da Silva",
        "addr:suburb": "Centro",
        "amenity": "pharmacy",
        "brand": "Droga Raia",
        "brand:wikidata": "Q10357101",
        "brand:wikipedia": "pt:RaiaDrogasil",
        "dispensing": "yes",
        "healthcare": "pharmacy",
        "name": "Droga Raia",
        "id": "node/7039237003"
      },
      "geometry": {
        "type": "Point",
        "coordinates": [
          -54.5764291,
          -25.5376941
        ]
      }
    },
    {
      "type": "Feature",
      "id": "node/7040728268",
      "properties": {
        "timestamp": "2019-12-07T19:23:00Z",
        "version": 1,
        "changeset": 78094349,
        "addr:city": "Foz do Iguaçu",
        "addr:housenumber": "1162",
        "addr:street": "Avenida Paraná",
        "addr:suburb": "Centro",
        "amenity": "pharmacy",
        "dispensing": "yes",
        "healthcare": "pharmacy",
        "name": "Farmácia Preço Justo",
        "id": "node/7040728268"
      },
      "geometry": {
        "type": "Point",
        "coordinates": [
          -54.57591,
          -25.5378356
        ]
      }
    },
    {
      "type": "Feature",
      "id": "node/7040728277",
      "properties": {
        "timestamp": "2019-12-07T19:23:00Z",
        "version": 1,
        "changeset": 78094349,
        "addr:city": "Foz do Iguaçu",
        "addr:housenumber": "222",
        "addr:street": "Avenida Costa e Silva",
        "addr:suburb": "Polo Centro",
        "amenity": "pharmacy",
        "dispensing": "yes",
        "healthcare": "pharmacy",
        "name": "Farmácia Via Rápida",
        "id": "node/7040728277"
      },
      "geometry": {
        "type": "Point",
        "coordinates": [
          -54.5741925,
          -25.5332211
        ]
      }
    },
    {
      "type": "Feature",
      "id": "node/7040920992",
      "properties": {
        "timestamp": "2019-12-07T21:30:43Z",
        "version": 1,
        "changeset": 78096987,
        "addr:city": "Foz do Iguaçu",
        "addr:housenumber": "1720",
        "addr:street": "Avenida Silvio Américo Sadelli",
        "addr:suburb": "Vila A",
        "amenity": "pharmacy",
        "dispensing": "yes",
        "healthcare": "pharmacy",
        "name": "Farmácias Mini Preço",
        "id": "node/7040920992"
      },
      "geometry": {
        "type": "Point",
        "coordinates": [
          -54.5645481,
          -25.4946558
        ]
      }
    },
    {
      "type": "Feature",
      "id": "node/7040920994",
      "properties": {
        "timestamp": "2019-12-07T21:30:43Z",
        "version": 1,
        "changeset": 78096987,
        "addr:city": "Foz do Iguaçu",
        "addr:housenumber": "1999",
        "addr:street": "Avenida Silvio Américo Sadelli",
        "addr:suburb": "Vila A",
        "amenity": "pharmacy",
        "dispensing": "yes",
        "healthcare": "pharmacy",
        "name": "Farmácia Farmautil",
        "id": "node/7040920994"
      },
      "geometry": {
        "type": "Point",
        "coordinates": [
          -54.5637405,
          -25.4942571
        ]
      }
    },
    {
      "type": "Feature",
      "id": "node/7040920997",
      "properties": {
        "timestamp": "2019-12-07T21:30:43Z",
        "version": 1,
        "changeset": 78096987,
        "addr:city": "Foz do Iguaçu",
        "addr:housenumber": "2349",
        "addr:street": "Avenida Silvio Américo Sadelli",
        "addr:suburb": "Vila A",
        "amenity": "pharmacy",
        "dispensing": "yes",
        "healthcare": "pharmacy",
        "name": "Farma A",
        "id": "node/7040920997"
      },
      "geometry": {
        "type": "Point",
        "coordinates": [
          -54.5606092,
          -25.4940901
        ]
      }
    },
    {
      "type": "Feature",
      "id": "node/7040921001",
      "properties": {
        "timestamp": "2023-10-30T11:41:08Z",
        "version": 2,
        "changeset": 143360675,
        "addr:city": "Foz do Iguaçu",
        "addr:housenumber": "1820",
        "addr:street": "Avenida Garibaldi",
        "addr:suburb": "Jardim Lancaster",
        "amenity": "pharmacy",
        "dispensing": "yes",
        "healthcare": "pharmacy",
        "name": "Farmacias Nissei",
        "id": "node/7040921001"
      },
      "geometry": {
        "type": "Point",
        "coordinates": [
          -54.5569799,
          -25.4943109
        ]
      }
    },
    {
      "type": "Feature",
      "id": "node/7042442738",
      "properties": {
        "timestamp": "2019-12-08T21:42:26Z",
        "version": 1,
        "changeset": 78119724,
        "addr:city": "Foz do Iguaçu",
        "addr:housenumber": "508",
        "addr:street": "Avenida Brasil",
        "addr:suburb": "Centro",
        "amenity": "pharmacy",
        "dispensing": "yes",
        "healthcare": "pharmacy",
        "name": "Farmácias Nissei",
        "id": "node/7042442738"
      },
      "geometry": {
        "type": "Point",
        "coordinates": [
          -54.5861525,
          -25.5385994
        ]
      }
    },
    {
      "type": "Feature",
      "id": "node/7042442741",
      "properties": {
        "timestamp": "2019-12-08T21:42:26Z",
        "version": 1,
        "changeset": 78119724,
        "addr:city": "Foz do Iguaçu",
        "addr:housenumber": "1215",
        "addr:street": "Avenida Brasil",
        "addr:suburb": "Centro",
        "amenity": "pharmacy",
        "dispensing": "yes",
        "healthcare": "pharmacy",
        "name": "Farmácia Cooperfarma",
        "id": "node/7042442741"
      },
      "geometry": {
        "type": "Point",
        "coordinates": [
          -54.5863268,
          -25.5448335
        ]
      }
    },
    {
      "type": "Feature",
      "id": "node/7042442743",
      "properties": {
        "timestamp": "2024-01-19T20:58:47Z",
        "version": 2,
        "changeset": 146457802,
        "addr:city": "Foz do Iguaçu",
        "addr:housenumber": "140",
        "addr:street": "Avenida Jorge Schimmelpfeng",
        "addr:suburb": "Centro",
        "amenity": "pharmacy",
        "brand": "Droga Raia",
        "brand:wikidata": "Q10357101",
        "brand:wikipedia": "pt:RaiaDrogasil",
        "dispensing": "yes",
        "healthcare": "pharmacy",
        "name": "Droga Raia",
        "id": "node/7042442743"
      },
      "geometry": {
        "type": "Point",
        "coordinates": [
          -54.5868956,
          -25.5471021
        ]
      }
    },
    {
      "type": "Feature",
      "id": "node/7042442744",
      "properties": {
        "timestamp": "2019-12-08T21:42:26Z",
        "version": 1,
        "changeset": 78119724,
        "addr:city": "Foz do Iguaçu",
        "addr:housenumber": "1571",
        "addr:street": "Avenida Brasil",
        "addr:suburb": "Centro",
        "amenity": "pharmacy",
        "dispensing": "yes",
        "healthcare": "pharmacy",
        "name": "Farmácia Preço Justo",
        "id": "node/7042442744"
      },
      "geometry": {
        "type": "Point",
        "coordinates": [
          -54.5864973,
          -25.5480781
        ]
      }
    },
    {
      "type": "Feature",
      "id": "node/7042442745",
      "properties": {
        "timestamp": "2019-12-08T21:42:26Z",
        "version": 1,
        "changeset": 78119724,
        "addr:city": "Foz do Iguaçu",
        "addr:housenumber": "211",
        "addr:street": "Rua Belarmino de Mendonça",
        "addr:suburb": "Centro",
        "amenity": "pharmacy",
        "dispensing": "yes",
        "healthcare": "pharmacy",
        "name": "Dima's Farma",
        "id": "node/7042442745"
      },
      "geometry": {
        "type": "Point",
        "coordinates": [
          -54.587438,
          -25.548042
        ]
      }
    },
    {
      "type": "Feature",
      "id": "node/7043880552",
      "properties": {
        "timestamp": "2019-12-09T12:38:45Z",
        "version": 1,
        "changeset": 78150161,
        "addr:city": "Foz do Iguaçu",
        "addr:housenumber": "397",
        "addr:street": "Rua Belarmino de Mendonça",
        "addr:suburb": "Centro",
        "amenity": "pharmacy",
        "dispensing": "yes",
        "healthcare": "pharmacy",
        "name": "Botica Ouro Preto",
        "id": "node/7043880552"
      },
      "geometry": {
        "type": "Point",
        "coordinates": [
          -54.5857279,
          -25.5481215
        ]
      }
    },
    {
      "type": "Feature",
      "id": "node/7043880553",
      "properties": {
        "timestamp": "2019-12-09T12:38:45Z",
        "version": 1,
        "changeset": 78150161,
        "addr:city": "Foz do Iguaçu",
        "addr:housenumber": "1505",
        "addr:street": "Avenida Brasil",
        "addr:suburb": "Centro",
        "amenity": "pharmacy",
        "dispensing": "yes",
        "healthcare": "pharmacy",
        "name": "Artesani Manipulação de Fórmulas",
        "id": "node/7043880553"
      },
      "geometry": {
        "type": "Point",
        "coordinates": [
          -54.5864396,
          -25.5473821
        ]
      }
    },
    {
      "type": "Feature",
      "id": "node/7043880567",
      "properties": {
        "timestamp": "2019-12-09T12:38:45Z",
        "version": 1,
        "changeset": 78150161,
        "addr:city": "Foz do Iguaçu",
        "addr:housenumber": "2814",
        "addr:street": "Avenida República Argentina",
        "amenity": "pharmacy",
        "brand": "Droga Raia",
        "brand:wikidata": "Q10357101",
        "brand:wikipedia": "pt:RaiaDrogasil",
        "dispensing": "yes",
        "healthcare": "pharmacy",
        "name": "Droga Raia",
        "id": "node/7043880567"
      },
      "geometry": {
        "type": "Point",
        "coordinates": [
          -54.5609298,
          -25.5354107
        ]
      }
    },
    {
      "type": "Feature",
      "id": "node/7084790286",
      "properties": {
        "timestamp": "2020-03-07T07:12:09Z",
        "version": 2,
        "changeset": 81892034,
        "addr:street": "Rua Ângela Aparecida Andrade",
        "amenity": "pharmacy",
        "name": "Coprtfarma",
        "opening_hours": "Mo-Sa 08:00-20:00",
        "id": "node/7084790286"
      },
      "geometry": {
        "type": "Point",
        "coordinates": [
          -54.5873574,
          -25.4689481
        ]
      }
    },
    {
      "type": "Feature",
      "id": "node/7100261923",
      "properties": {
        "timestamp": "2020-01-01T21:59:11Z",
        "version": 1,
        "changeset": 79092649,
        "addr:city": "Foz de Iguaçu",
        "addr:housenumber": "22",
        "addr:street": "Avenida Brasil",
        "addr:suburb": "Centro",
        "amenity": "pharmacy",
        "dispensing": "yes",
        "healthcare": "pharmacy",
        "name": "Farmácia Preço Justo",
        "id": "node/7100261923"
      },
      "geometry": {
        "type": "Point",
        "coordinates": [
          -54.5858215,
          -25.5342727
        ]
      }
    },
    {
      "type": "Feature",
      "id": "node/7100261924",
      "properties": {
        "timestamp": "2020-01-01T21:59:11Z",
        "version": 1,
        "changeset": 79092649,
        "addr:city": "Foz de Iguaçu",
        "addr:housenumber": "46",
        "addr:street": "Avenida Brasil",
        "addr:suburb": "Centro",
        "amenity": "pharmacy",
        "dispensing": "yes",
        "healthcare": "pharmacy",
        "name": "Farmarede",
        "id": "node/7100261924"
      },
      "geometry": {
        "type": "Point",
        "coordinates": [
          -54.5858161,
          -25.5344875
        ]
      }
    },
    {
      "type": "Feature",
      "id": "node/7100261925",
      "properties": {
        "timestamp": "2020-01-01T21:59:11Z",
        "version": 1,
        "changeset": 79092649,
        "addr:city": "Foz de Iguaçu",
        "addr:housenumber": "98",
        "addr:street": "Avenida Brasil",
        "addr:suburb": "Centro",
        "amenity": "pharmacy",
        "dispensing": "yes",
        "healthcare": "pharmacy",
        "name": "Coperfarma",
        "id": "node/7100261925"
      },
      "geometry": {
        "type": "Point",
        "coordinates": [
          -54.5858478,
          -25.5348304
        ]
      }
    },
    {
      "type": "Feature",
      "id": "node/7249958385",
      "properties": {
        "timestamp": "2020-02-28T11:54:52Z",
        "version": 1,
        "changeset": 81588893,
        "amenity": "pharmacy",
        "name": "Preço justo",
        "id": "node/7249958385"
      },
      "geometry": {
        "type": "Point",
        "coordinates": [
          -54.554941,
          -25.5433785
        ]
      }
    },
    {
      "type": "Feature",
      "id": "node/7771236485",
      "properties": {
        "timestamp": "2020-07-30T21:52:06Z",
        "version": 1,
        "changeset": 88753226,
        "addr:housenumber": "778",
        "addr:postcode": "85856-410",
        "addr:street": "Rua Monsenhor Guilherme",
        "amenity": "pharmacy",
        "name": "Cad Farma",
        "opening_hours": "Mo-Sa 08:00-20:00",
        "phone": "+554535267761",
        "id": "node/7771236485"
      },
      "geometry": {
        "type": "Point",
        "coordinates": [
          -54.5518343,
          -25.5407722
        ]
      }
    },
    {
      "type": "Feature",
      "id": "node/7907643885",
      "properties": {
        "timestamp": "2020-09-15T06:19:55Z",
        "version": 1,
        "changeset": 90901441,
        "amenity": "pharmacy",
        "id": "node/7907643885"
      },
      "geometry": {
        "type": "Point",
        "coordinates": [
          -54.5307463,
          -25.5173548
        ]
      }
    },
    {
      "type": "Feature",
      "id": "node/10572473251",
      "properties": {
        "timestamp": "2023-01-21T11:44:56Z",
        "version": 1,
        "changeset": 131538278,
        "addr:housenumber": "500",
        "addr:street": "Avenida Jorge Schimmelpfeng",
        "amenity": "pharmacy",
        "brand": "Panvel",
        "brand:wikidata": "Q10344254",
        "check_date": "2023-01-20",
        "healthcare": "pharmacy",
        "name": "Panvel",
        "id": "node/10572473251"
      },
      "geometry": {
        "type": "Point",
        "coordinates": [
          -54.5824273,
          -25.5470939
        ]
      }
    },
    {
      "type": "Feature",
      "id": "node/10574427862",
      "properties": {
        "timestamp": "2023-01-26T21:15:26Z",
        "version": 3,
        "changeset": 131748472,
        "amenity": "pharmacy",
        "check_date": "2023-01-22",
        "healthcare": "pharmacy",
        "name": "IguaFarma",
        "id": "node/10574427862"
      },
      "geometry": {
        "type": "Point",
        "coordinates": [
          -54.5774444,
          -25.5488854
        ]
      }
    },
    {
      "type": "Feature",
      "id": "node/10581258263",
      "properties": {
        "timestamp": "2023-01-25T10:45:21Z",
        "version": 1,
        "changeset": 131689201,
        "amenity": "pharmacy",
        "check_date": "2023-01-24",
        "healthcare": "pharmacy",
        "name": "Farmácias São João",
        "id": "node/10581258263"
      },
      "geometry": {
        "type": "Point",
        "coordinates": [
          -54.576454,
          -25.545123
        ]
      }
    },
    {
      "type": "Feature",
      "id": "node/12044590619",
      "properties": {
        "timestamp": "2024-07-09T20:30:49Z",
        "version": 1,
        "changeset": 153759545,
        "addr:street": "Rua Belo Horizonte",
        "amenity": "pharmacy",
        "healthcare": "pharmacy",
        "name": "Farmácia Coperfarma",
        "id": "node/12044590619"
      },
      "geometry": {
        "type": "Point",
        "coordinates": [
          -54.5801631,
          -25.4771502
        ]
      }
    }
  ]
}
