{
  "type": "FeatureCollection",
  "features": [
    {
      "type": "Feature",
      "id": "relation/13827760",
      "properties": {
        "timestamp": "2022-02-19T22:39:06Z",
        "version": 1,
        "changeset": 117621528,
        "addr:city": "Ponte Alta do Tocantins",
        "addr:housenumber": "03",
        "addr:postcode": "77590-000",
        "addr:street": "Rua Primavera do Leste",
        "addr:suburb": "Setor Sul",
        "amenity": "school",
        "name": "Escola Estadual Alcides Rufo",
        "phone": "+55 63 3378 1270",
        "type": "multipolygon",
        "id": "relation/13827760"
      },
      "geometry": {
        "type": "Polygon",
        "coordinates": [
          [
            [
              -47.5321826,
              -10.7529363
            ],
            [
              -47.5321084,
              -10.7534942
            ],
            [
              -47.5314785,
              -10.7533998
            ],
            [
              -47.5315578,
              -10.7528888
            ],
            [
              -47.5316061,
              -10.7528396
            ],
            [
              -47.5321826,
              -10.7529363
            ]
          ]
        ]
      }
    },
    {
      "type": "Feature",
      "id": "relation/13827761",
      "properties": {
        "timestamp": "2022-02-19T22:39:06Z",
        "version": 1,
        "changeset": 117621528,
        "amenity": "school",
        "type": "multipolygon",
        "id": "relation/13827761"
      },
      "geometry": {
        "type": "Polygon",
        "coordinates": [
          [
            [
              -47.5321826,
              -10.7529363
            ],
            [
              -47.5325578,
              -10.7529871
            ],
            [
              -47.5324562,
              -10.7537113
            ],
            [
              -47.532085,
              -10.7536611
            ],
            [
              -47.5321084,
              -10.7534942
            ],
            [
              -47.5321826,
              -10.7529363
            ]
          ]
        ]
      }
    },
    {
      "type": "Feature",
      "id": "way/1033359081",
      "properties": {
        "timestamp": "2022-02-19T23:48:09Z",
        "version": 1,
        "changeset": 117622645,
        "addr:city": "Ponte Alta do Tocantins",
        "addr:housenumber": "296",
        "addr:postcode": "77590-000",
        "addr:street": "Rua das Américas",
        "addr:suburb": "Centro",
        "amenity": "school",
        "name": "Escola Municipal De Educacao Basica Cleyton Maia Barros",
        "phone": "+55 63 3378 1597",
        "id": "way/1033359081"
      },
      "geometry": {
        "type": "Polygon",
        "coordinates": [
          [
            [
              -47.5365879,
              -10.7504898
            ],
            [
              -47.5364655,
              -10.751327
            ],
            [
              -47.5359909,
              -10.75126
            ],
            [
              -47.5361132,
              -10.7504229
            ],
            [
              -47.5365879,
              -10.7504898
            ]
          ]
        ]
      }
    },
    {
      "type": "Feature",
      "id": "way/1033359145",
      "properties": {
        "timestamp": "2022-02-19T23:51:04Z",
        "version": 1,
        "changeset": 117622676,
        "addr:city": "Ponte Alta do Tocantins",
        "addr:housenumber": "00",
        "addr:postcode": "77590-000",
        "addr:street": "Rua Dois",
        "addr:suburb": "Centro",
        "amenity": "school",
        "name": "Escola Especial Amilson Frazao Dos Reis",
        "id": "way/1033359145"
      },
      "geometry": {
        "type": "Polygon",
        "coordinates": [
          [
            [
              -47.5381221,
              -10.7462736
            ],
            [
              -47.5380953,
              -10.7467611
            ],
            [
              -47.5377573,
              -10.7467111
            ],
            [
              -47.5378592,
              -10.7462157
            ],
            [
              -47.5381221,
              -10.7462736
            ]
          ]
        ]
      }
    },
    {
      "type": "Feature",
      "id": "node/9520616602",
      "properties": {
        "timestamp": "2022-02-19T22:36:55Z",
        "version": 1,
        "changeset": 117621491,
        "amenity": "school",
        "name": "Esc Mul Morro Limpo",
        "id": "node/9520616602"
      },
      "geometry": {
        "type": "Point",
        "coordinates": [
          -47.617958,
          -10.9078899
        ]
      }
    },
    {
      "type": "Feature",
      "id": "node/9521572098",
      "properties": {
        "timestamp": "2022-02-20T13:04:36Z",
        "version": 1,
        "changeset": 117637863,
        "addr:city": "Ponte Alta do Tocantins",
        "addr:housenumber": "305",
        "addr:postcode": "77590-000",
        "addr:street": "Avenida Brasília",
        "addr:suburb": "Centro",
        "amenity": "school",
        "name": "Colegio Estadual Odolfo Soares",
        "phone": "+55 63 3378 1263",
        "id": "node/9521572098"
      },
      "geometry": {
        "type": "Point",
        "coordinates": [
          -47.5389351,
          -10.7435528
        ]
      }
    },
    {
      "type": "Feature",
      "id": "node/9521573314",
      "properties": {
        "timestamp": "2022-02-20T13:05:25Z",
        "version": 1,
        "changeset": 117637896,
        "addr:city": "Ponte Alta do Tocantins",
        "addr:postcode": "77590-000",
        "addr:street": "Rua das Laranjeiras",
        "addr:suburb": "Boa Esperança",
        "amenity": "school",
        "name": "Centro Educacional Municipal Sabino Ferreira Medeiro",
        "phone": "+55 63 3378 1292",
        "id": "node/9521573314"
      },
      "geometry": {
        "type": "Point",
        "coordinates": [
          -47.5322427,
          -10.7393879
        ]
      }
    },
    {
      "type": "Feature",
      "id": "node/9521577149",
      "properties": {
        "timestamp": "2022-02-20T13:03:38Z",
        "version": 1,
        "changeset": 117637834,
        "addr:city": "Ponte Alta do Tocantins",
        "addr:postcode": "77590-000",
        "addr:street": "Rua Doutor Albeny Ferraz Machado",
        "addr:suburb": "Centro",
        "amenity": "school",
        "name": "Centro Mul De Educacao Infantil Recanto Do Saber",
        "phone": "+55 63 3378 1287",
        "id": "node/9521577149"
      },
      "geometry": {
        "type": "Point",
        "coordinates": [
          -47.5385137,
          -10.7435199
        ]
      }
    },
    {
      "type": "Feature",
      "id": "node/9521577150",
      "properties": {
        "timestamp": "2022-02-20T13:05:47Z",
        "version": 1,
        "changeset": 117637913,
        "amenity": "school",
        "name": "Escola Municipal Santa Tereza",
        "id": "node/9521577150"
      },
      "geometry": {
        "type": "Point",
        "coordinates": [
          -47.7590503,
          -10.4433764
        ]
      }
    }
  ]
}
