{
  "type": "FeatureCollection",
  "features": [
    {
      "type": "Feature",
      "id": "way/787553938",
      "properties": {
        "timestamp": "2020-04-03T15:06:11Z",
        "version": 1,
        "changeset": 83041230,
        "addr:city": "Dores do Rio Preto",
        "addr:postcode": "29580-000",
        "addr:street": "Estrada Parque ES",
        "addr:suburb": "Forquilha do Rio",
        "building": "yes",
        "name": "Pousada Flor de Caf√©",
        "tourism": "hotel",
        "id": "way/787553938"
      },
      "geometry": {
        "type": "Polygon",
        "coordinates": [
          [
            [
              -41.811191,
              -20.5103237
            ],
            [
              -41.8111477,
              -20.5103759
            ],
            [
              -41.811191,
              -20.5104049
            ],
            [
              -41.8111167,
              -20.5104745
            ],
            [
              -41.8109309,
              -20.5103353
            ],
            [
              -41.81103,
              -20.5102193
            ],
            [
              -41.811191,
              -20.5103237
            ]
          ]
        ]
      }
    },
    {
      "type": "Feature",
      "id": "way/787553942",
      "properties": {
        "timestamp": "2020-04-03T15:06:11Z",
        "version": 1,
        "changeset": 83041230,
        "addr:city": "Dores do Rio Preto",
        "addr:postcode": "29580-000",
        "addr:street": "Estrada Parque ES",
        "addr:suburb": "Forquilha do Rio",
        "building": "yes",
        "name": "Pousada Alto das Colinas",
        "tourism": "hotel",
        "id": "way/787553942"
      },
      "geometry": {
        "type": "Polygon",
        "coordinates": [
          [
            [
              -41.8084042,
              -20.507058
            ],
            [
              -41.8084042,
              -20.5072262
            ],
            [
              -41.8082494,
              -20.507232
            ],
            [
              -41.8082308,
              -20.5070464
            ],
            [
              -41.8084042,
              -20.507058
            ]
          ]
        ]
      }
    }
  ]
}
