{
  "type": "FeatureCollection",
  "features": [
    {
      "type": "Feature",
      "id": "node/3087386619",
      "properties": {
        "timestamp": "2014-09-20T12:40:56Z",
        "version": 1,
        "changeset": 25558758,
        "amenity": "school",
        "id": "node/3087386619"
      },
      "geometry": {
        "type": "Point",
        "coordinates": [
          -41.8064007,
          -20.6313213
        ]
      }
    },
    {
      "type": "Feature",
      "id": "node/3087386624",
      "properties": {
        "timestamp": "2020-04-09T15:03:32Z",
        "version": 4,
        "changeset": 83316260,
        "IJSN:administra": "Municipal",
        "IJSN:classeCnae": "Fundamental",
        "addr:city": "Dores do Rio Preto",
        "addr:postcode": "29580-000",
        "addr:street": "Rua Luiz Faria da Silva",
        "addr:suburb": "Mundo Novo",
        "alt_name": "Escola Municipal de Ensino Fundamental",
        "amenity": "school",
        "contact:phone": "+55 28 3559-4051",
        "name": "EMEF Mundo Novo",
        "source": "IJSN",
        "id": "node/3087386624"
      },
      "geometry": {
        "type": "Point",
        "coordinates": [
          -41.8052942,
          -20.6324731
        ]
      }
    },
    {
      "type": "Feature",
      "id": "node/3675708409",
      "properties": {
        "timestamp": "2016-02-25T02:03:30Z",
        "version": 2,
        "changeset": 37426154,
        "IJSN:administra": "Estadual",
        "IJSN:classeCnae": "Fundamental e Médio",
        "addr:city": "Dores do Rio Preto",
        "addr:postcode": "29580-000",
        "addr:street": "Rua Principal",
        "addr:suburb": "Pedra Menina",
        "alt_name": "Escola Estadual de Ensino Fundamental e Médio",
        "amenity": "school",
        "contact:phone": "(28) 3559-3007",
        "name": "EEEFM São José",
        "source": "IJSN",
        "id": "node/3675708409"
      },
      "geometry": {
        "type": "Point",
        "coordinates": [
          -41.8188054,
          -20.5552846
        ]
      }
    },
    {
      "type": "Feature",
      "id": "node/4024904417",
      "properties": {
        "timestamp": "2016-02-25T01:59:17Z",
        "version": 1,
        "changeset": 37426154,
        "IJSN:administra": "Municipal",
        "IJSN:classeCnae": "Infantil e Fundamental",
        "addr:city": "Dores do Rio Preto",
        "addr:postcode": "29580-000",
        "addr:street": "Avenida Beira Rio",
        "addr:suburb": "Centro",
        "alt_name": "Centro Municipal de Ensino Infantil e Fundamental",
        "amenity": "school",
        "contact:phone": "(28) 3559-1478",
        "name": "CMEIEF Cristina Peixoto do Carmo",
        "source": "IJSN",
        "id": "node/4024904417"
      },
      "geometry": {
        "type": "Point",
        "coordinates": [
          -41.8503727,
          -20.6918193
        ]
      }
    },
    {
      "type": "Feature",
      "id": "node/4024904831",
      "properties": {
        "timestamp": "2022-08-30T13:15:42Z",
        "version": 3,
        "changeset": 125569626,
        "IJSN:administra": "Estadual",
        "IJSN:classeCnae": "Fundamental e Médio",
        "addr:city": "Dores do Rio Preto",
        "addr:housenumber": "360",
        "addr:postcode": "29580-000",
        "addr:street": "Avenida Firmino Dias",
        "addr:suburb": "Centro",
        "alt_name": "Escola Estadual de Ensino Fundamental e Médio",
        "amenity": "school",
        "contact:phone": "(28) 3559-1586",
        "name": "EEEFM Pedro de Alcântara Galveas",
        "source": "IJSN",
        "id": "node/4024904831"
      },
      "geometry": {
        "type": "Point",
        "coordinates": [
          -41.8488102,
          -20.6927546
        ]
      }
    },
    {
      "type": "Feature",
      "id": "node/4024905484",
      "properties": {
        "timestamp": "2020-04-03T15:06:11Z",
        "version": 2,
        "changeset": 83041230,
        "IJSN:administra": "Municipal",
        "IJSN:classeCnae": "Infantil e Fundamental",
        "addr:city": "Dores do Rio Preto",
        "addr:postcode": "29580-000",
        "addr:street": "Estrada Parque ES",
        "addr:suburb": "Forquilha do Rio",
        "alt_name": "Escola Municipal de Ensino Fundamental",
        "amenity": "school",
        "contact:phone": "(28) 3559-1336",
        "name": "EMEF João Alves Lacerda",
        "source": "IJSN",
        "id": "node/4024905484"
      },
      "geometry": {
        "type": "Point",
        "coordinates": [
          -41.8056401,
          -20.5339143
        ]
      }
    },
    {
      "type": "Feature",
      "id": "node/4024905650",
      "properties": {
        "timestamp": "2016-02-25T02:00:46Z",
        "version": 1,
        "changeset": 37426154,
        "IJSN:administra": "Municipal",
        "IJSN:classeCnae": "Infantil e Fundamental",
        "addr:city": "Dores do Rio Preto",
        "addr:postcode": "29580-000",
        "addr:suburb": "Comunidade Vista Alegre",
        "alt_name": "Escola Municipal de Ensino Fundamental",
        "amenity": "school",
        "contact:phone": "(28) 3559-1336",
        "name": "EMEF Pedra Menina",
        "source": "IJSN",
        "id": "node/4024905650"
      },
      "geometry": {
        "type": "Point",
        "coordinates": [
          -41.8388304,
          -20.6148637
        ]
      }
    },
    {
      "type": "Feature",
      "id": "node/4024906148",
      "properties": {
        "timestamp": "2016-02-25T02:01:35Z",
        "version": 1,
        "changeset": 37426154,
        "IJSN:administra": "Municipal",
        "IJSN:classeCnae": "Infantil e Fundamental",
        "addr:city": "Dores do Rio Preto",
        "addr:postcode": "29580-000",
        "addr:suburb": "Comunidade Parada Pimentel",
        "alt_name": "Escola Municipal Pluridocente de Ensino Fundamental",
        "amenity": "school",
        "contact:phone": "(28) 3559-1336",
        "name": "EMPEF Parada Pimentel",
        "source": "IJSN",
        "id": "node/4024906148"
      },
      "geometry": {
        "type": "Point",
        "coordinates": [
          -41.8077159,
          -20.7300182
        ]
      }
    },
    {
      "type": "Feature",
      "id": "node/4024906608",
      "properties": {
        "timestamp": "2016-02-25T02:02:14Z",
        "version": 1,
        "changeset": 37426154,
        "IJSN:administra": "Municipal",
        "IJSN:classeCnae": "Fundamental",
        "addr:city": "Dores do Rio Preto",
        "addr:postcode": "29580-000",
        "addr:suburb": "Comunidade Cachoeira Alegre",
        "alt_name": "Escola Municipal Unidocente de Ensino Fundamental",
        "amenity": "school",
        "contact:phone": "(28) 3559-1336",
        "name": "EMUEF Três Estados",
        "source": "IJSN",
        "id": "node/4024906608"
      },
      "geometry": {
        "type": "Point",
        "coordinates": [
          -41.8591497,
          -20.7645719
        ]
      }
    }
  ]
}
