{
  "type": "FeatureCollection",
  "features": [
    {
      "type": "Feature",
      "id": "node/11228350361",
      "properties": {
        "timestamp": "2023-09-30T16:38:33Z",
        "version": 3,
        "changeset": 141959467,
        "addr:city": "Prado",
        "addr:postcode": "45980-000",
        "addr:street": "Avenida Dois de Julho",
        "addr:suburb": "Centro",
        "government": "government",
        "name": "Secretaria Municipal de Turismo, Cultura, Esporte e Lazer",
        "office": "government",
        "opening_hours": "Mo-Fr 08:00-14:00",
        "phone": "+55 73 3021 1126",
        "id": "node/11228350361"
      },
      "geometry": {
        "type": "Point",
        "coordinates": [
          -39.2241733,
          -17.3417254
        ]
      }
    },
    {
      "type": "Feature",
      "id": "node/11228797283",
      "properties": {
        "timestamp": "2023-09-30T11:29:23Z",
        "version": 1,
        "changeset": 141947089,
        "addr:city": "Prado",
        "addr:housenumber": "29",
        "addr:postcode": "45980-000",
        "addr:street": "Praça Antônio S de Alcântara",
        "addr:suburb": "Centro",
        "government": "administrative",
        "name": "Secretaria Municipal de Educação",
        "office": "government",
        "phone": "+55 73 3021 1112",
        "id": "node/11228797283"
      },
      "geometry": {
        "type": "Point",
        "coordinates": [
          -39.2217432,
          -17.3398735
        ]
      }
    },
    {
      "type": "Feature",
      "id": "node/11228797293",
      "properties": {
        "timestamp": "2023-09-30T11:29:23Z",
        "version": 1,
        "changeset": 141947089,
        "addr:city": "Prado",
        "addr:postcode": "45980-000",
        "addr:street": "Rua Jacy Ribeiro Có",
        "addr:suburb": "Ribeira",
        "government": "administrative",
        "name": "Secretaria Municipal de Meio Ambiente",
        "office": "government",
        "phone": "+55 73 3021 1171",
        "id": "node/11228797293"
      },
      "geometry": {
        "type": "Point",
        "coordinates": [
          -39.230074,
          -17.3379647
        ]
      }
    }
  ]
}
