{
  "type": "FeatureCollection",
  "features": [
    {
      "type": "Feature",
      "id": "node/3981029782",
      "properties": {
        "timestamp": "2016-02-01T01:41:11Z",
        "version": 1,
        "changeset": 36929078,
        "amenity": "pharmacy",
        "name": "Farm√°cia Patrick",
        "phone": "+55 73 35731222",
        "source": "survey",
        "id": "node/3981029782"
      },
      "geometry": {
        "type": "Point",
        "coordinates": [
          -39.1844432,
          -17.1130627
        ]
      }
    },
    {
      "type": "Feature",
      "id": "node/11727605861",
      "properties": {
        "timestamp": "2024-03-13T14:13:23Z",
        "version": 1,
        "changeset": 148596020,
        "addr:city": "Prado",
        "addr:postcode": "45980-000",
        "addr:street": "Avenida Itamaraju",
        "addr:suburb": "Centro",
        "amenity": "pharmacy",
        "dispensing": "yes",
        "healthcare": "pharmacy",
        "name": "Indiana",
        "id": "node/11727605861"
      },
      "geometry": {
        "type": "Point",
        "coordinates": [
          -39.2250683,
          -17.3416763
        ]
      }
    }
  ]
}
