{
  "type": "FeatureCollection",
  "features": [
    {
      "type": "Feature",
      "id": "way/543805685",
      "properties": {
        "timestamp": "2022-02-19T18:54:36Z",
        "version": 3,
        "changeset": 117615823,
        "addr:city": "Figueirópolis",
        "addr:postcode": "77465-000",
        "addr:street": "Rua Seis",
        "addr:suburb": "Centro",
        "amenity": "school",
        "name": "Colégio Estadual Cândido Figueira",
        "phone": "+55 63 3374 1230",
        "id": "way/543805685"
      },
      "geometry": {
        "type": "Polygon",
        "coordinates": [
          [
            [
              -49.1678329,
              -12.1334031
            ],
            [
              -49.1675605,
              -12.1342735
            ],
            [
              -49.1666783,
              -12.1340032
            ],
            [
              -49.1669547,
              -12.1331407
            ],
            [
              -49.1678329,
              -12.1334031
            ]
          ]
        ]
      }
    },
    {
      "type": "Feature",
      "id": "way/544445982",
      "properties": {
        "timestamp": "2022-02-19T18:45:30Z",
        "version": 2,
        "changeset": 117615575,
        "addr:city": "Figueirópolis",
        "addr:housenumber": "1641",
        "addr:postcode": "77465-000",
        "addr:street": "Avenida Amazonas",
        "addr:suburb": "Centro",
        "amenity": "school",
        "name": "Colégio Estadual Alair Sena Conceição",
        "phone": "+55 63 3374 1327",
        "id": "way/544445982"
      },
      "geometry": {
        "type": "Polygon",
        "coordinates": [
          [
            [
              -49.1725206,
              -12.1414923
            ],
            [
              -49.1723437,
              -12.1423677
            ],
            [
              -49.1713421,
              -12.1421774
            ],
            [
              -49.1715049,
              -12.1412951
            ],
            [
              -49.1725206,
              -12.1414923
            ]
          ]
        ]
      }
    },
    {
      "type": "Feature",
      "id": "way/1033315568",
      "properties": {
        "timestamp": "2022-02-19T18:47:40Z",
        "version": 2,
        "changeset": 117615632,
        "addr:city": "Figueirópolis",
        "addr:postcode": "77465-000",
        "addr:street": "Avenida Bernardo Sayao",
        "addr:suburb": "Centro",
        "amenity": "school",
        "name": "Cmei Maria Da Gloria Cabral Moreno",
        "id": "way/1033315568"
      },
      "geometry": {
        "type": "Polygon",
        "coordinates": [
          [
            [
              -49.1706112,
              -12.1402563
            ],
            [
              -49.1705172,
              -12.1407977
            ],
            [
              -49.1698475,
              -12.1406003
            ],
            [
              -49.1700074,
              -12.1400999
            ],
            [
              -49.1706112,
              -12.1402563
            ]
          ]
        ]
      }
    },
    {
      "type": "Feature",
      "id": "way/1033317274",
      "properties": {
        "timestamp": "2022-02-19T18:53:04Z",
        "version": 1,
        "changeset": 117615776,
        "addr:city": "Figueirópolis",
        "addr:postcode": "77465-000",
        "addr:street": "Rua Onze",
        "amenity": "school",
        "name": "Escola Municipal Professora Edileuza Barbosa Da Silva Santos",
        "id": "way/1033317274"
      },
      "geometry": {
        "type": "Polygon",
        "coordinates": [
          [
            [
              -49.1654719,
              -12.1374422
            ],
            [
              -49.1652037,
              -12.1382787
            ],
            [
              -49.1644259,
              -12.1380401
            ],
            [
              -49.16467,
              -12.1372141
            ],
            [
              -49.1654719,
              -12.1374422
            ]
          ]
        ]
      }
    }
  ]
}
