{
  "type": "FeatureCollection",
  "features": [
    {
      "type": "Feature",
      "id": "node/6703408041",
      "properties": {
        "timestamp": "2025-03-14T12:54:49Z",
        "version": 2,
        "changeset": 163609122,
        "addr:city": "Piraju",
        "addr:housenumber": "662",
        "addr:postcode": "18800-000",
        "addr:state": "SP",
        "addr:street": "Rua Treze de Maio",
        "alt_name": "Centro Regional de Arqueologia Ambiental Mario Neme",
        "amenity": "college",
        "email": "mae@edu.usp.br",
        "name": "Casa da USP em Piraju",
        "operator": "Universidade de São Paulo",
        "operator:type": "public",
        "operator:wikidata": "Q835960",
        "phone": "+55 14 3351-6027",
        "website": "http://www.vmptbr.mae.usp.br/pesquisa/st/33/centro-regional-de-arqueologia-ambiental.html",
        "id": "node/6703408041"
      },
      "geometry": {
        "type": "Point",
        "coordinates": [
          -49.3859321,
          -23.1942328
        ]
      }
    },
    {
      "type": "Feature",
      "id": "node/11147316583",
      "properties": {
        "timestamp": "2023-08-27T00:22:08Z",
        "version": 1,
        "changeset": 140433029,
        "addr:city": "Piraju",
        "addr:housenumber": "36",
        "addr:street": "Rua Coronel João Oliva",
        "amenity": "college",
        "name": "CETEP",
        "id": "node/11147316583"
      },
      "geometry": {
        "type": "Point",
        "coordinates": [
          -49.3862175,
          -23.191105
        ]
      }
    },
    {
      "type": "Feature",
      "id": "node/11147317523",
      "properties": {
        "timestamp": "2023-08-27T00:23:01Z",
        "version": 1,
        "changeset": 140433035,
        "addr:city": "Piraju",
        "addr:street": "Rodovia Raposo Tavares",
        "amenity": "college",
        "name": "Etec Waldyr Duron Júnior",
        "id": "node/11147317523"
      },
      "geometry": {
        "type": "Point",
        "coordinates": [
          -49.3506581,
          -23.193913
        ]
      }
    }
  ]
}
