{
  "type": "FeatureCollection",
  "features": [
    {
      "type": "Feature",
      "id": "node/11146278912",
      "properties": {
        "timestamp": "2023-08-26T13:54:17Z",
        "version": 1,
        "changeset": 140413165,
        "addr:city": "Piraju",
        "amenity": "community_centre",
        "name": "Centro de Lazer do Trabalhador Vereador Eduardo Casanho",
        "id": "node/11146278912"
      },
      "geometry": {
        "type": "Point",
        "coordinates": [
          -49.3803151,
          -23.1811311
        ]
      }
    },
    {
      "type": "Feature",
      "id": "node/11147299428",
      "properties": {
        "timestamp": "2023-08-26T23:56:16Z",
        "version": 1,
        "changeset": 140432721,
        "addr:city": "Piraju",
        "addr:housenumber": "275",
        "addr:street": "Avenida São Sebastião",
        "amenity": "community_centre",
        "name": "Centro de Lazer do Trabalhador Doutor Luiz Ferreira de Oliveira",
        "id": "node/11147299428"
      },
      "geometry": {
        "type": "Point",
        "coordinates": [
          -49.3753085,
          -23.2028538
        ]
      }
    }
  ]
}
