{
  "type": "FeatureCollection",
  "features": [
    {
      "type": "Feature",
      "id": "node/11144553082",
      "properties": {
        "timestamp": "2023-08-25T18:55:42Z",
        "version": 1,
        "changeset": 140385342,
        "addr:city": "Piraju",
        "addr:housenumber": "552",
        "addr:street": "Rua Capitão Maximiano dos Santos Guerra",
        "name": "Consórcio Intermunicipal do Alto Vale do Paranapanema",
        "office": "government",
        "id": "node/11144553082"
      },
      "geometry": {
        "type": "Point",
        "coordinates": [
          -49.3752216,
          -23.2008724
        ]
      }
    },
    {
      "type": "Feature",
      "id": "node/11147300318",
      "properties": {
        "timestamp": "2023-08-27T00:13:08Z",
        "version": 1,
        "changeset": 140432932,
        "addr:city": "Piraju",
        "addr:housenumber": "411",
        "addr:street": "Avenida Doutor Domingos Teodoro Gallo",
        "government": "register_office",
        "name": "Oficial de Registro de Imóveis, Títulos e Documentos e Civil de Pessoa Jurídica",
        "office": "government",
        "id": "node/11147300318"
      },
      "geometry": {
        "type": "Point",
        "coordinates": [
          -49.383538,
          -23.201149
        ]
      }
    },
    {
      "type": "Feature",
      "id": "node/11147300319",
      "properties": {
        "timestamp": "2023-08-27T00:13:08Z",
        "version": 1,
        "changeset": 140432932,
        "addr:city": "Piraju",
        "addr:housenumber": "217",
        "addr:street": "Rua Major Mariano",
        "government": "register_office",
        "name": "Oficial de Registro Civil das Pessoas Naturais e de Interdições e Tutelas",
        "office": "government",
        "id": "node/11147300319"
      },
      "geometry": {
        "type": "Point",
        "coordinates": [
          -49.3846053,
          -23.1922628
        ]
      }
    },
    {
      "type": "Feature",
      "id": "node/11147305387",
      "properties": {
        "timestamp": "2023-08-27T00:13:47Z",
        "version": 1,
        "changeset": 140432944,
        "addr:city": "Piraju",
        "addr:housenumber": "211",
        "addr:street": "Rua Coronel Joaquim Theotônio de Araújo",
        "government": "register_office",
        "name": "Cartório Eleitoral",
        "office": "government",
        "id": "node/11147305387"
      },
      "geometry": {
        "type": "Point",
        "coordinates": [
          -49.385131,
          -23.1937741
        ]
      }
    }
  ]
}
