{
  "type": "FeatureCollection",
  "features": [
    {
      "type": "Feature",
      "id": "node/8848180558",
      "properties": {
        "timestamp": "2021-06-19T12:21:01Z",
        "version": 1,
        "changeset": 106630214,
        "addr:city": "Piraju",
        "addr:housenumber": "109",
        "addr:postcode": "18810-012",
        "addr:street": "Rua Augusto Garcia",
        "addr:suburb": "Vila Santo Antônio (Tibiriçá do Paranapanema)",
        "name": "Hotel Beira Rio",
        "tourism": "hotel",
        "id": "node/8848180558"
      },
      "geometry": {
        "type": "Point",
        "coordinates": [
          -49.3794862,
          -23.1860109
        ]
      }
    },
    {
      "type": "Feature",
      "id": "node/8848180559",
      "properties": {
        "timestamp": "2021-06-19T12:21:01Z",
        "version": 1,
        "changeset": 106630214,
        "addr:city": "Piraju",
        "addr:housenumber": "197",
        "addr:postcode": "18800-015",
        "addr:street": "Rua Dona Francisca Leonel",
        "addr:suburb": "Centro",
        "name": "Hotel Furlan",
        "tourism": "hotel",
        "id": "node/8848180559"
      },
      "geometry": {
        "type": "Point",
        "coordinates": [
          -49.3843043,
          -23.1920522
        ]
      }
    },
    {
      "type": "Feature",
      "id": "node/8848180560",
      "properties": {
        "timestamp": "2021-06-19T12:21:01Z",
        "version": 1,
        "changeset": 106630214,
        "addr:city": "Piraju",
        "addr:housenumber": "170",
        "addr:postcode": "18800-001",
        "addr:street": "Rua 13 de Maio",
        "addr:suburb": "Centro",
        "name": "Hotel Internacional",
        "tourism": "hotel",
        "id": "node/8848180560"
      },
      "geometry": {
        "type": "Point",
        "coordinates": [
          -49.3852562,
          -23.1898813
        ]
      }
    },
    {
      "type": "Feature",
      "id": "node/8848180561",
      "properties": {
        "timestamp": "2021-06-19T12:21:01Z",
        "version": 1,
        "changeset": 106630214,
        "addr:city": "Piraju",
        "addr:housenumber": "361",
        "addr:postcode": "18800-788",
        "addr:street": "Rua Constantino Leman",
        "addr:suburb": "Parque Residencial Ana Cristina",
        "name": "Hotel Pousada Campos Verdes",
        "tourism": "hotel",
        "id": "node/8848180561"
      },
      "geometry": {
        "type": "Point",
        "coordinates": [
          -49.3670689,
          -23.2071274
        ]
      }
    },
    {
      "type": "Feature",
      "id": "node/8848180562",
      "properties": {
        "timestamp": "2021-06-19T12:21:01Z",
        "version": 1,
        "changeset": 106630214,
        "addr:city": "Piraju",
        "addr:housenumber": "882",
        "addr:postcode": "18803-350",
        "addr:street": "Avenida Vereador Milton Spinola",
        "addr:suburb": "Jardim Ana Maria II",
        "name": "Pousada Manacá",
        "tourism": "hotel",
        "id": "node/8848180562"
      },
      "geometry": {
        "type": "Point",
        "coordinates": [
          -49.3783977,
          -23.2135558
        ]
      }
    },
    {
      "type": "Feature",
      "id": "node/11148431469",
      "properties": {
        "timestamp": "2023-08-27T15:40:01Z",
        "version": 1,
        "changeset": 140457427,
        "addr:city": "Piraju",
        "addr:housenumber": "480",
        "addr:street": "Rua São Vicente de Paula",
        "name": "Casa Francesa de Piraju",
        "tourism": "hotel",
        "id": "node/11148431469"
      },
      "geometry": {
        "type": "Point",
        "coordinates": [
          -49.3814782,
          -23.2017273
        ]
      }
    }
  ]
}
