{
  "type": "FeatureCollection",
  "features": [
    {
      "type": "Feature",
      "id": "node/11144553349",
      "properties": {
        "timestamp": "2023-08-25T19:03:43Z",
        "version": 1,
        "changeset": 140385658,
        "addr:city": "Piraju",
        "addr:housenumber": "838",
        "addr:street": "Rua Major Mariano",
        "amenity": "pharmacy",
        "healthcare": "pharmacy",
        "name": "Drogacentro",
        "id": "node/11144553349"
      },
      "geometry": {
        "type": "Point",
        "coordinates": [
          -49.3850367,
          -23.1979204
        ]
      }
    },
    {
      "type": "Feature",
      "id": "node/11144553350",
      "properties": {
        "timestamp": "2023-08-25T19:03:43Z",
        "version": 1,
        "changeset": 140385658,
        "addr:city": "Piraju",
        "addr:housenumber": "66",
        "addr:street": "Avenida Doutor Domingos Teodoro Gallo",
        "amenity": "pharmacy",
        "healthcare": "pharmacy",
        "name": "Drogarias Ultra Popular",
        "id": "node/11144553350"
      },
      "geometry": {
        "type": "Point",
        "coordinates": [
          -49.3840552,
          -23.1980894
        ]
      }
    }
  ]
}
