{
  "type": "FeatureCollection",
  "features": [
    {
      "type": "Feature",
      "id": "node/11146088984",
      "properties": {
        "timestamp": "2023-08-26T13:00:44Z",
        "version": 1,
        "changeset": 140410891,
        "addr:city": "Piraju",
        "addr:housenumber": "74",
        "addr:street": "Rua Pedro Barros Pinto",
        "amenity": "school",
        "name": "Escola Municipal Professora Balbina Marques Galvão",
        "id": "node/11146088984"
      },
      "geometry": {
        "type": "Point",
        "coordinates": [
          -49.3984947,
          -23.1939726
        ]
      }
    },
    {
      "type": "Feature",
      "id": "node/11146088985",
      "properties": {
        "timestamp": "2023-08-26T13:00:44Z",
        "version": 1,
        "changeset": 140410891,
        "addr:city": "Piraju",
        "addr:housenumber": "357",
        "addr:street": "Avenida Pinheiro Preto",
        "amenity": "school",
        "name": "Escola Municipal Madre Vicentina",
        "id": "node/11146088985"
      },
      "geometry": {
        "type": "Point",
        "coordinates": [
          -49.3962024,
          -23.1937262
        ]
      }
    },
    {
      "type": "Feature",
      "id": "node/11146103171",
      "properties": {
        "timestamp": "2023-08-26T13:14:23Z",
        "version": 1,
        "changeset": 140411437,
        "addr:city": "Piraju",
        "addr:housenumber": "140",
        "addr:street": "Rua Waldemar Enz",
        "amenity": "school",
        "name": "Escola Municipal Elza Camargo Lopes",
        "id": "node/11146103171"
      },
      "geometry": {
        "type": "Point",
        "coordinates": [
          -49.3997044,
          -23.1848315
        ]
      }
    },
    {
      "type": "Feature",
      "id": "node/11146162499",
      "properties": {
        "timestamp": "2023-08-26T13:54:17Z",
        "version": 1,
        "changeset": 140413165,
        "addr:city": "Piraju",
        "addr:housenumber": "453",
        "addr:street": "Rua São Vicente de Paula",
        "amenity": "school",
        "name": "Escola Estadual Doutor Joaquim Guilherme Moreira Porto",
        "id": "node/11146162499"
      },
      "geometry": {
        "type": "Point",
        "coordinates": [
          -49.3813527,
          -23.2017497
        ]
      }
    },
    {
      "type": "Feature",
      "id": "node/11146164476",
      "properties": {
        "timestamp": "2023-08-26T12:58:54Z",
        "version": 1,
        "changeset": 140410818,
        "addr:city": "Piraju",
        "addr:housenumber": "80",
        "addr:street": "Praça Maria Hungria Buchler",
        "amenity": "school",
        "name": "Escola Estadual Monica Bernabe Garrote",
        "id": "node/11146164476"
      },
      "geometry": {
        "type": "Point",
        "coordinates": [
          -49.3992945,
          -23.190479
        ]
      }
    },
    {
      "type": "Feature",
      "id": "node/11146164481",
      "properties": {
        "timestamp": "2023-08-26T12:58:54Z",
        "version": 1,
        "changeset": 140410818,
        "addr:city": "Piraju",
        "addr:housenumber": "141",
        "addr:street": "Rua Professor Camilo Golfieri",
        "amenity": "school",
        "name": "Escola Municipal Maria Aparecida Barros Maluly",
        "id": "node/11146164481"
      },
      "geometry": {
        "type": "Point",
        "coordinates": [
          -49.3992504,
          -23.1915126
        ]
      }
    },
    {
      "type": "Feature",
      "id": "node/11146164482",
      "properties": {
        "timestamp": "2023-08-26T12:58:54Z",
        "version": 1,
        "changeset": 140410818,
        "addr:city": "Piraju",
        "addr:housenumber": "29",
        "addr:street": "Rua Aníbal Cezário Garcia",
        "amenity": "school",
        "name": "Escola Municipal Professora Maria Dardes Barbério",
        "id": "node/11146164482"
      },
      "geometry": {
        "type": "Point",
        "coordinates": [
          -49.3993452,
          -23.1923363
        ]
      }
    },
    {
      "type": "Feature",
      "id": "node/11146176192",
      "properties": {
        "timestamp": "2023-08-26T12:51:06Z",
        "version": 1,
        "changeset": 140410538,
        "addr:city": "Piraju",
        "addr:housenumber": "494",
        "addr:street": "Rua Nenê Freitas",
        "amenity": "school",
        "name": "Escola Estadual Ataliba Leonel",
        "id": "node/11146176192"
      },
      "geometry": {
        "type": "Point",
        "coordinates": [
          -49.3814105,
          -23.1932906
        ]
      }
    },
    {
      "type": "Feature",
      "id": "node/11146176193",
      "properties": {
        "timestamp": "2023-08-26T12:51:06Z",
        "version": 1,
        "changeset": 140410538,
        "addr:city": "Piraju",
        "addr:housenumber": "60",
        "addr:street": "Rua Coronel Nhonhô Braga",
        "amenity": "school",
        "name": "Escola Estadual Coronel Nhonhô Braga",
        "id": "node/11146176193"
      },
      "geometry": {
        "type": "Point",
        "coordinates": [
          -49.3890805,
          -23.1955075
        ]
      }
    },
    {
      "type": "Feature",
      "id": "node/11146176194",
      "properties": {
        "timestamp": "2023-08-26T12:51:06Z",
        "version": 1,
        "changeset": 140410538,
        "addr:city": "Piraju",
        "addr:housenumber": "66",
        "addr:street": "Rua José Lourenço Alvarez",
        "amenity": "school",
        "name": "Escola Municipal Anexo do Nhonhô Braga",
        "id": "node/11146176194"
      },
      "geometry": {
        "type": "Point",
        "coordinates": [
          -49.3887443,
          -23.1962329
        ]
      }
    },
    {
      "type": "Feature",
      "id": "node/11146204447",
      "properties": {
        "timestamp": "2023-08-26T13:29:14Z",
        "version": 1,
        "changeset": 140412131,
        "addr:city": "Piraju",
        "addr:housenumber": "43",
        "addr:street": "Rua Padre Gualter Faria Negrão",
        "amenity": "school",
        "name": "Escola Municipal Presbítero Ademar Monteiro",
        "id": "node/11146204447"
      },
      "geometry": {
        "type": "Point",
        "coordinates": [
          -49.3786679,
          -23.1964759
        ]
      }
    },
    {
      "type": "Feature",
      "id": "node/11146204452",
      "properties": {
        "timestamp": "2023-08-26T13:29:14Z",
        "version": 1,
        "changeset": 140412131,
        "addr:city": "Piraju",
        "addr:housenumber": "133",
        "addr:street": "Avenida Augusto Piacenza",
        "amenity": "school",
        "name": "Escola Municipal Moacir Faria",
        "id": "node/11146204452"
      },
      "geometry": {
        "type": "Point",
        "coordinates": [
          -49.3767802,
          -23.1980989
        ]
      }
    },
    {
      "type": "Feature",
      "id": "node/11146204455",
      "properties": {
        "timestamp": "2023-08-26T13:29:14Z",
        "version": 1,
        "changeset": 140412131,
        "addr:city": "Piraju",
        "addr:housenumber": "16",
        "addr:street": "Rua Major Diogo Goulart",
        "amenity": "school",
        "name": "Escola Municipal Professora Yolanda Marinho Lessa",
        "id": "node/11146204455"
      },
      "geometry": {
        "type": "Point",
        "coordinates": [
          -49.3747203,
          -23.1989819
        ]
      }
    },
    {
      "type": "Feature",
      "id": "node/11146213984",
      "properties": {
        "timestamp": "2023-08-26T13:41:27Z",
        "version": 1,
        "changeset": 140412589,
        "addr:city": "Piraju",
        "addr:housenumber": "43",
        "addr:street": "Rua Luiz da Cruz",
        "amenity": "school",
        "name": "Escola Municipal Professora Carolina Medaglia Barros",
        "id": "node/11146213984"
      },
      "geometry": {
        "type": "Point",
        "coordinates": [
          -49.3826917,
          -23.206776
        ]
      }
    },
    {
      "type": "Feature",
      "id": "node/11146215235",
      "properties": {
        "timestamp": "2023-08-26T13:33:51Z",
        "version": 1,
        "changeset": 140412299,
        "addr:city": "Piraju",
        "addr:housenumber": "225",
        "addr:street": "Rua Bibiana Izaura da Silva Andrade",
        "amenity": "school",
        "name": "Escola Municipal Professor Camilo Golfieri",
        "id": "node/11146215235"
      },
      "geometry": {
        "type": "Point",
        "coordinates": [
          -49.3698216,
          -23.206161
        ]
      }
    },
    {
      "type": "Feature",
      "id": "node/11146215248",
      "properties": {
        "timestamp": "2023-08-26T13:33:51Z",
        "version": 1,
        "changeset": 140412299,
        "addr:city": "Piraju",
        "addr:housenumber": "96",
        "addr:street": "Rua Santa Cruz",
        "amenity": "school",
        "name": "Escola Municipal Professora Maria Virgínia Moreira Simões",
        "id": "node/11146215248"
      },
      "geometry": {
        "type": "Point",
        "coordinates": [
          -49.3756139,
          -23.2077219
        ]
      }
    },
    {
      "type": "Feature",
      "id": "node/11146215249",
      "properties": {
        "timestamp": "2023-08-26T13:33:51Z",
        "version": 1,
        "changeset": 140412299,
        "addr:city": "Piraju",
        "addr:housenumber": "9",
        "addr:street": "Praça Corona",
        "amenity": "school",
        "name": "Escola Municipal Vereador José Domingues dos Santos",
        "id": "node/11146215249"
      },
      "geometry": {
        "type": "Point",
        "coordinates": [
          -49.3807998,
          -23.2099189
        ]
      }
    },
    {
      "type": "Feature",
      "id": "node/11146247047",
      "properties": {
        "timestamp": "2023-08-26T13:38:05Z",
        "version": 1,
        "changeset": 140412477,
        "addr:city": "Piraju",
        "addr:housenumber": "91",
        "addr:street": "Rua Orestes Sanches",
        "amenity": "school",
        "name": "Escola Municipal Pedro Longo",
        "id": "node/11146247047"
      },
      "geometry": {
        "type": "Point",
        "coordinates": [
          -49.3825512,
          -23.2120884
        ]
      }
    },
    {
      "type": "Feature",
      "id": "node/11146247048",
      "properties": {
        "timestamp": "2023-08-26T13:38:05Z",
        "version": 1,
        "changeset": 140412477,
        "addr:city": "Piraju",
        "addr:housenumber": "246",
        "addr:street": "Praça João de Freitas Barreiros",
        "amenity": "school",
        "name": "Escola Municipal Professora Vera Lúcia Pereira",
        "id": "node/11146247048"
      },
      "geometry": {
        "type": "Point",
        "coordinates": [
          -49.3749022,
          -23.2135165
        ]
      }
    },
    {
      "type": "Feature",
      "id": "node/11146247049",
      "properties": {
        "timestamp": "2023-08-26T13:38:05Z",
        "version": 1,
        "changeset": 140412477,
        "addr:city": "Piraju",
        "addr:housenumber": "5",
        "addr:street": "Praça José Ataliba Leonel",
        "amenity": "school",
        "name": "Escola Estadual Maria Gonçalves da Motta",
        "id": "node/11146247049"
      },
      "geometry": {
        "type": "Point",
        "coordinates": [
          -49.3718243,
          -23.2136099
        ]
      }
    },
    {
      "type": "Feature",
      "id": "node/11146278909",
      "properties": {
        "timestamp": "2023-08-26T13:54:17Z",
        "version": 1,
        "changeset": 140413165,
        "addr:city": "Piraju",
        "addr:housenumber": "83",
        "addr:street": "Rua João Domingues do Val",
        "amenity": "school",
        "name": "Escola Municipal Professora Cinira Garcia Gonçalves da Motta",
        "id": "node/11146278909"
      },
      "geometry": {
        "type": "Point",
        "coordinates": [
          -49.3864348,
          -23.1971744
        ]
      }
    },
    {
      "type": "Feature",
      "id": "node/11146278910",
      "properties": {
        "timestamp": "2023-08-26T13:54:17Z",
        "version": 1,
        "changeset": 140413165,
        "addr:city": "Piraju",
        "addr:housenumber": "20",
        "addr:street": "Rua Romeu Novaga Neto",
        "amenity": "school",
        "name": "Escola Municipal Professor Gilberto Bonafé",
        "id": "node/11146278910"
      },
      "geometry": {
        "type": "Point",
        "coordinates": [
          -49.3801678,
          -23.1818509
        ]
      }
    },
    {
      "type": "Feature",
      "id": "node/11146278911",
      "properties": {
        "timestamp": "2023-08-26T13:54:17Z",
        "version": 1,
        "changeset": 140413165,
        "addr:city": "Piraju",
        "addr:housenumber": "77",
        "addr:street": "Rua Naby Assaf",
        "amenity": "school",
        "name": "Escola Estadual Prefeito Quinzinho Camargo",
        "id": "node/11146278911"
      },
      "geometry": {
        "type": "Point",
        "coordinates": [
          -49.380991,
          -23.1820247
        ]
      }
    },
    {
      "type": "Feature",
      "id": "node/11146278913",
      "properties": {
        "timestamp": "2023-08-26T13:54:17Z",
        "version": 1,
        "changeset": 140413165,
        "addr:city": "Piraju",
        "addr:housenumber": "215",
        "addr:street": "Rua Maria Conceição Trumbact",
        "amenity": "school",
        "name": "Escola Municipal Maria Conceição Trumbact",
        "id": "node/11146278913"
      },
      "geometry": {
        "type": "Point",
        "coordinates": [
          -49.3826623,
          -23.1772578
        ]
      }
    },
    {
      "type": "Feature",
      "id": "node/11146278916",
      "properties": {
        "timestamp": "2023-08-26T13:54:17Z",
        "version": 1,
        "changeset": 140413165,
        "addr:city": "Piraju",
        "addr:housenumber": "62",
        "addr:street": "Rua dos Pedreiros",
        "amenity": "school",
        "name": "Escola Municipal Prof. Luiz Caramaschi",
        "id": "node/11146278916"
      },
      "geometry": {
        "type": "Point",
        "coordinates": [
          -49.3840346,
          -23.1713874
        ]
      }
    },
    {
      "type": "Feature",
      "id": "node/11146278917",
      "properties": {
        "timestamp": "2023-08-26T13:54:17Z",
        "version": 1,
        "changeset": 140413165,
        "addr:city": "Piraju",
        "addr:housenumber": "20",
        "addr:street": "Rua dos Advogados",
        "amenity": "school",
        "name": "Escola Municipal Professor Leonel Lowande Mendes Gonçalves",
        "id": "node/11146278917"
      },
      "geometry": {
        "type": "Point",
        "coordinates": [
          -49.384543,
          -23.1712146
        ]
      }
    },
    {
      "type": "Feature",
      "id": "node/11147311346",
      "properties": {
        "timestamp": "2023-08-27T00:19:49Z",
        "version": 1,
        "changeset": 140433005,
        "addr:city": "Piraju",
        "addr:housenumber": "408",
        "addr:street": "Rua João Hailer",
        "amenity": "school",
        "name": "Colégio Lumen Objetivo",
        "id": "node/11147311346"
      },
      "geometry": {
        "type": "Point",
        "coordinates": [
          -49.3872868,
          -23.1946438
        ]
      }
    }
  ]
}
