{
  "type": "FeatureCollection",
  "features": [
    {
      "type": "Feature",
      "id": "way/1025826399",
      "properties": {
        "timestamp": "2022-01-29T13:54:23Z",
        "version": 1,
        "changeset": 116745097,
        "amenity": "school",
        "name": "Unid Esc De Varzea Grande",
        "phone": "+55 89 3551 1112",
        "id": "way/1025826399"
      },
      "geometry": {
        "type": "Polygon",
        "coordinates": [
          [
            [
              -43.65831,
              -7.5601926
            ],
            [
              -43.6586641,
              -7.5599693
            ],
            [
              -43.6587821,
              -7.5601687
            ],
            [
              -43.6584441,
              -7.5603894
            ],
            [
              -43.65831,
              -7.5601926
            ]
          ]
        ]
      }
    },
    {
      "type": "Feature",
      "id": "way/1025826527",
      "properties": {
        "timestamp": "2022-01-29T13:55:28Z",
        "version": 1,
        "changeset": 116745137,
        "amenity": "school",
        "name": "Esc Mul Isaias Rodrigues De Sousa",
        "phone": "+55 89 3551 1112",
        "id": "way/1025826527"
      },
      "geometry": {
        "type": "Polygon",
        "coordinates": [
          [
            [
              -43.6495174,
              -7.5947711
            ],
            [
              -43.6493224,
              -7.5949681
            ],
            [
              -43.6491304,
              -7.5947813
            ],
            [
              -43.6493253,
              -7.5945844
            ],
            [
              -43.6495174,
              -7.5947711
            ]
          ]
        ]
      }
    },
    {
      "type": "Feature",
      "id": "way/1025827889",
      "properties": {
        "timestamp": "2022-01-29T13:58:32Z",
        "version": 1,
        "changeset": 116745242,
        "amenity": "school",
        "name": "Unid Esc Joao Batista De Araujo Santos",
        "phone": "+55 89 3551 1112",
        "id": "way/1025827889"
      },
      "geometry": {
        "type": "Polygon",
        "coordinates": [
          [
            [
              -43.6266352,
              -7.3127935
            ],
            [
              -43.6264823,
              -7.3130169
            ],
            [
              -43.6263053,
              -7.3128892
            ],
            [
              -43.6264287,
              -7.3126791
            ],
            [
              -43.6266352,
              -7.3127935
            ]
          ]
        ]
      }
    },
    {
      "type": "Feature",
      "id": "node/9454108798",
      "properties": {
        "timestamp": "2022-01-27T23:06:40Z",
        "version": 1,
        "changeset": 116685511,
        "addr:city": "Canavieira",
        "addr:housenumber": "508",
        "addr:postcode": "64833-000",
        "addr:street": "Avenida Pedro Fonseca",
        "addr:suburb": "Centro",
        "amenity": "school",
        "name": "U E Mariano Jose Roberto",
        "phone": "+55 89 5551 1208",
        "id": "node/9454108798"
      },
      "geometry": {
        "type": "Point",
        "coordinates": [
          -43.7192224,
          -7.691127
        ]
      }
    },
    {
      "type": "Feature",
      "id": "node/9454156307",
      "properties": {
        "timestamp": "2022-01-27T23:08:55Z",
        "version": 2,
        "changeset": 116685566,
        "addr:city": "Canavieira",
        "addr:housenumber": "503",
        "addr:postcode": "64833-000",
        "addr:street": "Avenida Pedro Fonseca",
        "addr:suburb": "Centro",
        "amenity": "school",
        "name": "Unid Esc Dr Joao Martins De A Costa",
        "phone": "+55 89 3551 1112",
        "id": "node/9454156307"
      },
      "geometry": {
        "type": "Point",
        "coordinates": [
          -43.7190292,
          -7.6908053
        ]
      }
    },
    {
      "type": "Feature",
      "id": "node/9454167655",
      "properties": {
        "timestamp": "2022-01-27T23:08:55Z",
        "version": 1,
        "changeset": 116685566,
        "addr:city": "Canavieira",
        "addr:housenumber": "532",
        "addr:postcode": "64833-000",
        "addr:street": "Avenida Pedro Fonseca",
        "addr:suburb": "Centro",
        "amenity": "school",
        "name": "Unid Esc Jose Donato De Araujo",
        "phone": "+55 89 3551 1112",
        "id": "node/9454167655"
      },
      "geometry": {
        "type": "Point",
        "coordinates": [
          -43.7192729,
          -7.6913923
        ]
      }
    },
    {
      "type": "Feature",
      "id": "node/9454183608",
      "properties": {
        "timestamp": "2022-01-27T23:04:58Z",
        "version": 1,
        "changeset": 116685483,
        "amenity": "school",
        "name": "Esc Mul Prof Francisco Moura",
        "phone": "+55 89 3551 1112",
        "id": "node/9454183608"
      },
      "geometry": {
        "type": "Point",
        "coordinates": [
          -43.5825504,
          -7.8101842
        ]
      }
    },
    {
      "type": "Feature",
      "id": "node/9454184645",
      "properties": {
        "timestamp": "2022-01-27T23:05:49Z",
        "version": 1,
        "changeset": 116685492,
        "addr:city": "Canavieira",
        "addr:postcode": "64833-000",
        "addr:street": "Rua SÃ£o Pedro",
        "addr:suburb": "Centro",
        "amenity": "school",
        "name": "Creche Casulo Tia Doroteia",
        "phone": "+55 89 3551 1112",
        "id": "node/9454184645"
      },
      "geometry": {
        "type": "Point",
        "coordinates": [
          -43.7182246,
          -7.6915469
        ]
      }
    },
    {
      "type": "Feature",
      "id": "node/9458000628",
      "properties": {
        "timestamp": "2022-01-29T13:53:16Z",
        "version": 1,
        "changeset": 116745059,
        "amenity": "school",
        "name": "Unid Esc Francisco Ribeiro Das Neves",
        "phone": "+55 89 3551 1219",
        "id": "node/9458000628"
      },
      "geometry": {
        "type": "Point",
        "coordinates": [
          -43.6702962,
          -7.5804727
        ]
      }
    }
  ]
}
