{
  "type": "FeatureCollection",
  "features": [
    {
      "type": "Feature",
      "id": "way/578701911",
      "properties": {
        "timestamp": "2023-04-06T03:29:38Z",
        "version": 4,
        "changeset": 134559515,
        "addr:housenumber": "1310",
        "addr:street": "Rua Maciel Muraski",
        "addr:suburb": "Jardim Paraíso",
        "amenity": "clinic",
        "building": "yes",
        "healthcare": "clinic",
        "name": "Unidade de Saúde Paraíso",
        "operator:type": "public",
        "id": "way/578701911"
      },
      "geometry": {
        "type": "Polygon",
        "coordinates": [
          [
            [
              -49.3079081,
              -25.3115713
            ],
            [
              -49.3080482,
              -25.3115212
            ],
            [
              -49.3081059,
              -25.3116531
            ],
            [
              -49.3079658,
              -25.3117032
            ],
            [
              -49.3079081,
              -25.3115713
            ]
          ]
        ]
      }
    },
    {
      "type": "Feature",
      "id": "node/1224811411",
      "properties": {
        "timestamp": "2023-04-06T03:29:38Z",
        "version": 4,
        "changeset": 134559515,
        "addr:housenumber": "39",
        "addr:street": "Rua Araucária",
        "addr:suburb": "Jardim Roma",
        "amenity": "clinic",
        "healthcare": "clinic",
        "name": "Unidade de Saúde Roma",
        "operator:type": "public",
        "id": "node/1224811411"
      },
      "geometry": {
        "type": "Point",
        "coordinates": [
          -49.2732999,
          -25.3265663
        ]
      }
    },
    {
      "type": "Feature",
      "id": "node/5544246744",
      "properties": {
        "timestamp": "2023-04-06T03:29:38Z",
        "version": 3,
        "changeset": 134559515,
        "operator:type": "public",
        "id": "node/5544246744"
      },
      "geometry": {
        "type": "Point",
        "coordinates": [
          -49.3079081,
          -25.3115713
        ]
      }
    },
    {
      "type": "Feature",
      "id": "node/5544246748",
      "properties": {
        "timestamp": "2023-04-06T03:29:38Z",
        "version": 3,
        "changeset": 134559515,
        "operator:type": "public",
        "id": "node/5544246748"
      },
      "geometry": {
        "type": "Point",
        "coordinates": [
          -49.3079658,
          -25.3117032
        ]
      }
    },
    {
      "type": "Feature",
      "id": "node/5546582970",
      "properties": {
        "timestamp": "2023-04-06T03:29:38Z",
        "version": 3,
        "changeset": 134559515,
        "operator:type": "public",
        "id": "node/5546582970"
      },
      "geometry": {
        "type": "Point",
        "coordinates": [
          -49.3080482,
          -25.3115212
        ]
      }
    },
    {
      "type": "Feature",
      "id": "node/5546582971",
      "properties": {
        "timestamp": "2023-04-06T03:29:38Z",
        "version": 3,
        "changeset": 134559515,
        "operator:type": "public",
        "id": "node/5546582971"
      },
      "geometry": {
        "type": "Point",
        "coordinates": [
          -49.3081059,
          -25.3116531
        ]
      }
    },
    {
      "type": "Feature",
      "id": "node/10759060683",
      "properties": {
        "timestamp": "2023-04-06T03:29:38Z",
        "version": 3,
        "changeset": 134559515,
        "addr:housenumber": "153",
        "addr:street": "Rua Professor Antônio Rodrigues Dias",
        "addr:suburb": "Cachoeira",
        "amenity": "clinic",
        "healthcare": "clinic",
        "name": "Unidade de Saúde Cachoeira",
        "operator:type": "public",
        "id": "node/10759060683"
      },
      "geometry": {
        "type": "Point",
        "coordinates": [
          -49.2721783,
          -25.3396263
        ]
      }
    },
    {
      "type": "Feature",
      "id": "node/10759060684",
      "properties": {
        "timestamp": "2023-04-06T03:29:38Z",
        "version": 2,
        "changeset": 134559515,
        "addr:housenumber": "4200",
        "addr:street": "Rua Vereador Wadislau Bugalski",
        "addr:suburb": "Lamenha Grande",
        "amenity": "clinic",
        "healthcare": "clinic",
        "name": "Unidade de Saúde Lamenha",
        "operator:type": "public",
        "id": "node/10759060684"
      },
      "geometry": {
        "type": "Point",
        "coordinates": [
          -49.2993836,
          -25.3443279
        ]
      }
    },
    {
      "type": "Feature",
      "id": "node/10759060685",
      "properties": {
        "timestamp": "2023-04-06T03:29:38Z",
        "version": 2,
        "changeset": 134559515,
        "addr:housenumber": "3501",
        "addr:street": "Rua José Real Prado",
        "addr:suburb": "Jardim Rosana",
        "amenity": "clinic",
        "healthcare": "clinic",
        "name": "Unidade de Saúde Rosana",
        "operator:type": "public",
        "id": "node/10759060685"
      },
      "geometry": {
        "type": "Point",
        "coordinates": [
          -49.2632848,
          -25.3147431
        ]
      }
    },
    {
      "type": "Feature",
      "id": "node/10759060686",
      "properties": {
        "timestamp": "2023-04-06T03:29:38Z",
        "version": 2,
        "changeset": 134559515,
        "addr:housenumber": "141",
        "addr:street": "Rua Zilda Barbosa",
        "addr:suburb": "São João Batista",
        "amenity": "clinic",
        "healthcare": "clinic",
        "name": "Unidade de Saúde São João Batista",
        "operator:type": "public",
        "id": "node/10759060686"
      },
      "geometry": {
        "type": "Point",
        "coordinates": [
          -49.301223,
          -25.2382924
        ]
      }
    },
    {
      "type": "Feature",
      "id": "node/10759060687",
      "properties": {
        "timestamp": "2023-04-06T03:29:38Z",
        "version": 2,
        "changeset": 134559515,
        "addr:housenumber": "131",
        "addr:street": "Rua Geraldo Cordeiro Santana",
        "addr:suburb": "São Venâncio",
        "amenity": "clinic",
        "healthcare": "clinic",
        "name": "Unidade de Saúde São Venâncio",
        "operator:type": "public",
        "id": "node/10759060687"
      },
      "geometry": {
        "type": "Point",
        "coordinates": [
          -49.2643374,
          -25.3383379
        ]
      }
    },
    {
      "type": "Feature",
      "id": "node/10759060688",
      "properties": {
        "timestamp": "2023-04-06T03:29:38Z",
        "version": 2,
        "changeset": 134559515,
        "addr:housenumber": "330",
        "addr:street": "Rua Frei Mauro",
        "addr:suburb": "Vila Santa Terezinha",
        "amenity": "clinic",
        "healthcare": "clinic",
        "name": "Unidade de Saúde Sede",
        "operator:type": "public",
        "id": "node/10759060688"
      },
      "geometry": {
        "type": "Point",
        "coordinates": [
          -49.2969766,
          -25.3122828
        ]
      }
    },
    {
      "type": "Feature",
      "id": "node/10759060689",
      "properties": {
        "timestamp": "2023-04-06T03:29:38Z",
        "version": 2,
        "changeset": 134559515,
        "addr:housenumber": "123",
        "addr:street": "Rua Pontal do Sul",
        "addr:suburb": "Vila Tamboara",
        "amenity": "clinic",
        "healthcare": "clinic",
        "name": "Unidade de Saúde Tamboara",
        "operator:type": "public",
        "id": "node/10759060689"
      },
      "geometry": {
        "type": "Point",
        "coordinates": [
          -49.252587,
          -25.3468564
        ]
      }
    },
    {
      "type": "Feature",
      "id": "node/10759060690",
      "properties": {
        "timestamp": "2023-04-06T03:29:38Z",
        "version": 2,
        "changeset": 134559515,
        "addr:housenumber": "65",
        "addr:street": "Rua César Augusto Ferri",
        "addr:suburb": "Tanguá",
        "amenity": "clinic",
        "healthcare": "clinic",
        "name": "Unidade de Saúde Tanguá",
        "operator:type": "public",
        "id": "node/10759060690"
      },
      "geometry": {
        "type": "Point",
        "coordinates": [
          -49.3095564,
          -25.3713437
        ]
      }
    },
    {
      "type": "Feature",
      "id": "node/10759060691",
      "properties": {
        "timestamp": "2023-04-06T03:29:38Z",
        "version": 2,
        "changeset": 134559515,
        "addr:housenumber": "323",
        "addr:street": "Rua Antônio Stocheiro",
        "addr:suburb": "Tranqueira",
        "amenity": "clinic",
        "healthcare": "clinic",
        "name": "Unidade de Saúde Tranqueira",
        "operator:type": "public",
        "id": "node/10759060691"
      },
      "geometry": {
        "type": "Point",
        "coordinates": [
          -49.3059465,
          -25.2591541
        ]
      }
    },
    {
      "type": "Feature",
      "id": "node/10759060692",
      "properties": {
        "timestamp": "2023-04-06T03:29:38Z",
        "version": 2,
        "changeset": 134559515,
        "addr:housenumber": "140",
        "addr:street": "Rua Filipinas",
        "addr:suburb": "Jardim Graziela",
        "amenity": "clinic",
        "healthcare": "clinic",
        "name": "Unidade de Saúde Jardim Graziela",
        "operator:type": "public",
        "id": "node/10759060692"
      },
      "geometry": {
        "type": "Point",
        "coordinates": [
          -49.2452796,
          -25.3445471
        ]
      }
    },
    {
      "type": "Feature",
      "id": "node/10759140138",
      "properties": {
        "timestamp": "2023-04-06T03:29:38Z",
        "version": 2,
        "changeset": 134559515,
        "addr:housenumber": "76",
        "addr:street": "Rua Coronel João Cândido de Oliveira",
        "amenity": "clinic",
        "healthcare": "clinic",
        "name": "Centro de Atenção Psicossocial Álcool e Drogas",
        "operator:type": "public",
        "id": "node/10759140138"
      },
      "geometry": {
        "type": "Point",
        "coordinates": [
          -49.2947412,
          -25.3066185
        ]
      }
    },
    {
      "type": "Feature",
      "id": "node/10759140139",
      "properties": {
        "timestamp": "2023-04-06T03:29:38Z",
        "version": 2,
        "changeset": 134559515,
        "addr:housenumber": "546",
        "addr:street": "Rua José Carlos Colodel",
        "amenity": "clinic",
        "healthcare": "clinic",
        "name": "Centro de Atenção Psicossocial II",
        "operator:type": "public",
        "id": "node/10759140139"
      },
      "geometry": {
        "type": "Point",
        "coordinates": [
          -49.2965492,
          -25.311781
        ]
      }
    },
    {
      "type": "Feature",
      "id": "node/10759140140",
      "properties": {
        "timestamp": "2023-04-06T03:29:38Z",
        "version": 2,
        "changeset": 134559515,
        "addr:housenumber": "153",
        "addr:street": "Rua Professor Antônio Rodrigues Dias",
        "addr:suburb": "Cachoeira",
        "amenity": "clinic",
        "healthcare": "clinic",
        "name": "Centro de Testagem e Aconselhamento",
        "operator:type": "public",
        "id": "node/10759140140"
      },
      "geometry": {
        "type": "Point",
        "coordinates": [
          -49.2719067,
          -25.339538
        ]
      }
    }
  ]
}
