{
  "type": "FeatureCollection",
  "features": [
    {
      "type": "Feature",
      "id": "way/1040686083",
      "properties": {
        "timestamp": "2022-03-16T01:05:04Z",
        "version": 1,
        "changeset": 118531582,
        "amenity": "social_facility",
        "social_facility": "group_home",
        "social_facility:for": "senior",
        "id": "way/1040686083"
      },
      "geometry": {
        "type": "Polygon",
        "coordinates": [
          [
            [
              -49.2555975,
              -25.3253561
            ],
            [
              -49.256186,
              -25.3257769
            ],
            [
              -49.2554306,
              -25.3264279
            ],
            [
              -49.254864,
              -25.3259158
            ],
            [
              -49.2555975,
              -25.3253561
            ]
          ]
        ]
      }
    },
    {
      "type": "Feature",
      "id": "node/10759060693",
      "properties": {
        "timestamp": "2023-03-24T13:20:35Z",
        "version": 1,
        "changeset": 134067817,
        "addr:housenumber": "273",
        "addr:street": "Rua Bocaiúva do Sul",
        "addr:suburb": "Jardim Roma",
        "amenity": "social_facility",
        "name": "Centro de Referência de Assistência Social Roma",
        "id": "node/10759060693"
      },
      "geometry": {
        "type": "Point",
        "coordinates": [
          -49.2691682,
          -25.3274306
        ]
      }
    },
    {
      "type": "Feature",
      "id": "node/10759060694",
      "properties": {
        "timestamp": "2023-03-24T13:20:35Z",
        "version": 1,
        "changeset": 134067817,
        "addr:housenumber": "1808",
        "addr:street": "Rua Professor Alberto Krause",
        "addr:suburb": "Tanguá",
        "amenity": "social_facility",
        "name": "Centro de Referência de Assistência Social Tanguá",
        "id": "node/10759060694"
      },
      "geometry": {
        "type": "Point",
        "coordinates": [
          -49.3059745,
          -25.3732686
        ]
      }
    },
    {
      "type": "Feature",
      "id": "node/10759060695",
      "properties": {
        "timestamp": "2023-03-24T13:20:35Z",
        "version": 1,
        "changeset": 134067817,
        "addr:housenumber": "208",
        "addr:street": "Rua José Milek Filho",
        "addr:suburb": "Jardim São Vicente",
        "amenity": "social_facility",
        "name": "Centro de Referência de Assistência Social Graziela",
        "id": "node/10759060695"
      },
      "geometry": {
        "type": "Point",
        "coordinates": [
          -49.2541375,
          -25.3457739
        ]
      }
    },
    {
      "type": "Feature",
      "id": "node/10759060696",
      "properties": {
        "timestamp": "2023-03-24T13:20:35Z",
        "version": 1,
        "changeset": 134067817,
        "addr:housenumber": "113",
        "addr:street": "Rua Zilda Barbosa",
        "addr:suburb": "São João Batista",
        "amenity": "social_facility",
        "name": "Centro de Referência de Assistência Social São João Batista",
        "id": "node/10759060696"
      },
      "geometry": {
        "type": "Point",
        "coordinates": [
          -49.3011962,
          -25.2385611
        ]
      }
    }
  ]
}
