{
  "type": "FeatureCollection",
  "features": [
    {
      "type": "Feature",
      "id": "way/302785575",
      "properties": {
        "timestamp": "2022-07-29T21:32:34Z",
        "version": 5,
        "changeset": 124248815,
        "addr:city": "Carambeí",
        "addr:housenumber": "277",
        "addr:postcode": "84145-000",
        "addr:street": "Rua Ouro Preto",
        "building": "yes",
        "building:levels": "2",
        "name": "Hotel Ágape",
        "phone": "+55 42 3231 1425",
        "tourism": "hotel",
        "website": "https://www.hotelagape.com.br/",
        "id": "way/302785575"
      },
      "geometry": {
        "type": "Polygon",
        "coordinates": [
          [
            [
              -50.1140611,
              -24.9535037
            ],
            [
              -50.114149,
              -24.9537638
            ],
            [
              -50.1138942,
              -24.9538346
            ],
            [
              -50.1138062,
              -24.9535746
            ],
            [
              -50.1140611,
              -24.9535037
            ]
          ]
        ]
      }
    },
    {
      "type": "Feature",
      "id": "way/302785578",
      "properties": {
        "timestamp": "2017-02-08T12:24:45Z",
        "version": 4,
        "changeset": 45914897,
        "addr:city": "Carambei",
        "addr:housenumber": "1306",
        "addr:postcode": "84145-000",
        "addr:street": "Avenida dos Pioneiros",
        "building": "yes",
        "internet_access": "wlan",
        "name": "Hotel de Klomp",
        "phone": "+554232311708",
        "tourism": "hotel",
        "website": "http://www.hoteldeklomp.com.br",
        "id": "way/302785578"
      },
      "geometry": {
        "type": "Polygon",
        "coordinates": [
          [
            [
              -50.1237113,
              -24.9462022
            ],
            [
              -50.1238466,
              -24.9464997
            ],
            [
              -50.123677,
              -24.9465631
            ],
            [
              -50.1235416,
              -24.9462657
            ],
            [
              -50.1237113,
              -24.9462022
            ]
          ]
        ]
      }
    }
  ]
}
