{
  "type": "FeatureCollection",
  "features": [
    {
      "type": "Feature",
      "id": "way/1342635687",
      "properties": {
        "timestamp": "2024-12-14T11:50:15Z",
        "version": 1,
        "changeset": 160276901,
        "addr:city": "Carambeí",
        "addr:postcode": "84145-000",
        "addr:street": "Rua da Prata",
        "amenity": "library",
        "building": "yes",
        "internet_access": "yes",
        "internet_access:fee": "no",
        "name": "Biblioteca Municipal de Carambeí",
        "opening_hours": "Mo-Fr 08:00-17:00",
        "operator": "Prefeitura de Carambeí",
        "operator:type": "public",
        "id": "way/1342635687"
      },
      "geometry": {
        "type": "Polygon",
        "coordinates": [
          [
            [
              -50.1148978,
              -24.9510241
            ],
            [
              -50.1149246,
              -24.9510776
            ],
            [
              -50.1147127,
              -24.9510971
            ],
            [
              -50.1146376,
              -24.9507688
            ],
            [
              -50.1148281,
              -24.9507299
            ],
            [
              -50.1148817,
              -24.9509244
            ],
            [
              -50.1148978,
              -24.9510241
            ]
          ]
        ]
      }
    }
  ]
}
