{
  "type": "FeatureCollection",
  "features": [
    {
      "type": "Feature",
      "id": "way/1036657850",
      "properties": {
        "timestamp": "2022-03-02T21:09:33Z",
        "version": 1,
        "changeset": 118033994,
        "addr:city": "Xambioá",
        "addr:housenumber": "674",
        "addr:postcode": "77880-000",
        "addr:street": "Rua Presidente Juscelino Kubitschek",
        "addr:suburb": "Centro",
        "amenity": "school",
        "name": "Escola Estadual Eurico Mota",
        "phone": "+55 63 3473 1218",
        "id": "way/1036657850"
      },
      "geometry": {
        "type": "Polygon",
        "coordinates": [
          [
            [
              -48.5340102,
              -6.4126199
            ],
            [
              -48.5333906,
              -6.4131903
            ],
            [
              -48.5327335,
              -6.4125879
            ],
            [
              -48.5333745,
              -6.4119935
            ],
            [
              -48.5340102,
              -6.4126199
            ]
          ]
        ]
      }
    },
    {
      "type": "Feature",
      "id": "way/1036657851",
      "properties": {
        "timestamp": "2022-03-02T21:09:33Z",
        "version": 1,
        "changeset": 118033994,
        "addr:city": "Xambioá",
        "addr:postcode": "77880-000",
        "addr:street": "Rua Dois",
        "addr:suburb": "Setor Leste",
        "amenity": "school",
        "name": "Centro Educacional Maria Alves Antunes",
        "phone": "+55 63 3473 1634",
        "id": "way/1036657851"
      },
      "geometry": {
        "type": "Polygon",
        "coordinates": [
          [
            [
              -48.5313474,
              -6.4094557
            ],
            [
              -48.5316241,
              -6.4095447
            ],
            [
              -48.5315242,
              -6.4098518
            ],
            [
              -48.5312475,
              -6.4097629
            ],
            [
              -48.5313474,
              -6.4094557
            ]
          ]
        ]
      }
    },
    {
      "type": "Feature",
      "id": "way/1036658843",
      "properties": {
        "timestamp": "2022-03-02T21:11:22Z",
        "version": 1,
        "changeset": 118034044,
        "addr:city": "Xambioá",
        "addr:postcode": "77880-000",
        "addr:street": "Rua São José",
        "addr:suburb": "São José",
        "amenity": "school",
        "name": "Escola Municipal Dom Cornelio Chizzini",
        "id": "way/1036658843"
      },
      "geometry": {
        "type": "Polygon",
        "coordinates": [
          [
            [
              -48.5301132,
              -6.4065432
            ],
            [
              -48.5298249,
              -6.4069291
            ],
            [
              -48.5295488,
              -6.4067387
            ],
            [
              -48.5298146,
              -6.4063597
            ],
            [
              -48.5301132,
              -6.4065432
            ]
          ]
        ]
      }
    },
    {
      "type": "Feature",
      "id": "way/1036659132",
      "properties": {
        "timestamp": "2022-03-02T21:14:41Z",
        "version": 1,
        "changeset": 118034125,
        "addr:city": "Xambioá",
        "addr:housenumber": "176",
        "addr:postcode": "77880-000",
        "addr:street": "Rua José Bonifácio",
        "addr:suburb": "Centro",
        "amenity": "school",
        "name": "Escola Paroquial Sao Miguel Conveniada",
        "phone": "+55 63 3473 1493",
        "id": "way/1036659132"
      },
      "geometry": {
        "type": "Polygon",
        "coordinates": [
          [
            [
              -48.5369363,
              -6.4112294
            ],
            [
              -48.5367125,
              -6.4115779
            ],
            [
              -48.5361682,
              -6.4112892
            ],
            [
              -48.5363188,
              -6.4109065
            ],
            [
              -48.5369363,
              -6.4112294
            ]
          ]
        ]
      }
    },
    {
      "type": "Feature",
      "id": "way/1036659133",
      "properties": {
        "timestamp": "2022-03-02T21:14:41Z",
        "version": 1,
        "changeset": 118034125,
        "amenity": "school",
        "id": "way/1036659133"
      },
      "geometry": {
        "type": "Polygon",
        "coordinates": [
          [
            [
              -48.537383,
              -6.4114804
            ],
            [
              -48.5372162,
              -6.4118044
            ],
            [
              -48.5369967,
              -6.4116928
            ],
            [
              -48.5371635,
              -6.4113687
            ],
            [
              -48.537383,
              -6.4114804
            ]
          ]
        ]
      }
    },
    {
      "type": "Feature",
      "id": "way/1036659811",
      "properties": {
        "timestamp": "2022-03-02T21:16:44Z",
        "version": 1,
        "changeset": 118034172,
        "addr:city": "Xambioá",
        "addr:housenumber": "367",
        "addr:postcode": "77880-000",
        "addr:street": "Rua Nossa Senhora Aparecida",
        "addr:suburb": "Setor Trecho Seco",
        "amenity": "school",
        "name": "Escola Municipal Severino Teixeira Da Rocha",
        "id": "way/1036659811"
      },
      "geometry": {
        "type": "Polygon",
        "coordinates": [
          [
            [
              -48.5351276,
              -6.4226685
            ],
            [
              -48.5348908,
              -6.4228581
            ],
            [
              -48.5346942,
              -6.422616
            ],
            [
              -48.534933,
              -6.4224198
            ],
            [
              -48.5351276,
              -6.4226685
            ]
          ]
        ]
      }
    },
    {
      "type": "Feature",
      "id": "node/9550539751",
      "properties": {
        "timestamp": "2022-03-02T20:53:54Z",
        "version": 2,
        "changeset": 118033590,
        "addr:city": "Xambioá",
        "addr:housenumber": "23",
        "addr:postcode": "77880-000",
        "addr:street": "Rua 3",
        "addr:suburb": "Vila Otacilio Cardoso",
        "amenity": "school",
        "name": "Escola Municipal Otacilio Cardoso",
        "id": "node/9550539751"
      },
      "geometry": {
        "type": "Point",
        "coordinates": [
          -48.52477,
          -6.4146056
        ]
      }
    },
    {
      "type": "Feature",
      "id": "node/9550547410",
      "properties": {
        "timestamp": "2022-03-02T20:47:48Z",
        "version": 1,
        "changeset": 118033424,
        "amenity": "school",
        "name": "Esc Municipal Joaquim Vitorino De Assuncao",
        "phone": "+55 63 3473 1634",
        "id": "node/9550547410"
      },
      "geometry": {
        "type": "Point",
        "coordinates": [
          -48.4540589,
          -6.4175829
        ]
      }
    },
    {
      "type": "Feature",
      "id": "node/9550551126",
      "properties": {
        "timestamp": "2022-03-02T20:48:02Z",
        "version": 1,
        "changeset": 118033433,
        "amenity": "school",
        "name": "Escola Municipal Rui Barbosa",
        "id": "node/9550551126"
      },
      "geometry": {
        "type": "Point",
        "coordinates": [
          -48.5030253,
          -6.4114178
        ]
      }
    },
    {
      "type": "Feature",
      "id": "node/9550584464",
      "properties": {
        "timestamp": "2022-03-02T21:15:46Z",
        "version": 1,
        "changeset": 118034146,
        "addr:city": "Xambioá",
        "addr:housenumber": "660",
        "addr:postcode": "77880-000",
        "addr:street": "Rua Antônio Maranhão",
        "addr:suburb": "Baixa Fria",
        "amenity": "school",
        "name": "Escola Municipal Francisco Oliveira",
        "id": "node/9550584464"
      },
      "geometry": {
        "type": "Point",
        "coordinates": [
          -48.538055,
          -6.4148268
        ]
      }
    },
    {
      "type": "Feature",
      "id": "node/9550585480",
      "properties": {
        "timestamp": "2022-03-02T21:12:10Z",
        "version": 1,
        "changeset": 118034067,
        "addr:city": "Xambioá",
        "addr:housenumber": "111",
        "addr:postcode": "77880-000",
        "addr:street": "Rua Vinte e Um de Abril",
        "addr:suburb": "Centro",
        "amenity": "school",
        "name": "Centro Educacional Francisca Antunes De Carvalho",
        "id": "node/9550585480"
      },
      "geometry": {
        "type": "Point",
        "coordinates": [
          -48.5353969,
          -6.4081206
        ]
      }
    }
  ]
}
