{
  "type": "FeatureCollection",
  "features": [
    {
      "type": "Feature",
      "id": "way/364566045",
      "properties": {
        "timestamp": "2023-06-15T19:00:28Z",
        "version": 2,
        "changeset": 137385863,
        "addr:city": "Divino das Laranjeiras",
        "addr:district": "Central de Santa Helena",
        "addr:housenumber": "240",
        "addr:postcode": "35267-000",
        "addr:street": "Travessa José Onofre Ruela",
        "addr:suburb": "Centro",
        "amenity": "school",
        "email": "escola.42463@educacao.mg.gov.br",
        "name": "Escola Estadual Central de Santa Helena",
        "operator": "Governo de Minas Gerais",
        "operator:type": "public",
        "id": "way/364566045"
      },
      "geometry": {
        "type": "Polygon",
        "coordinates": [
          [
            [
              -41.5676132,
              -18.7561661
            ],
            [
              -41.5671638,
              -18.7557472
            ],
            [
              -41.5671815,
              -18.7556868
            ],
            [
              -41.5678822,
              -18.7555126
            ],
            [
              -41.5680167,
              -18.7559248
            ],
            [
              -41.5676132,
              -18.7561661
            ]
          ]
        ]
      }
    },
    {
      "type": "Feature",
      "id": "way/1182133179",
      "properties": {
        "timestamp": "2023-06-15T01:47:26Z",
        "version": 2,
        "changeset": 137349813,
        "addr:city": "Divino das Laranjeiras",
        "addr:housenumber": "879",
        "addr:postcode": "35265-000",
        "addr:street": "Avenida Israel Pinheiro",
        "addr:suburb": "Centro",
        "amenity": "school",
        "email": "escola.42421@educacao.mg.gov.br",
        "name": "Escola Estadual de Linópolis",
        "operator": "Governo de Minas Gerais",
        "operator:type": "public",
        "phone": "+55 33 3277 0091",
        "id": "way/1182133179"
      },
      "geometry": {
        "type": "Polygon",
        "coordinates": [
          [
            [
              -41.4896911,
              -18.7320845
            ],
            [
              -41.489365,
              -18.7322305
            ],
            [
              -41.4890716,
              -18.7317112
            ],
            [
              -41.4894214,
              -18.7315456
            ],
            [
              -41.4896911,
              -18.7320845
            ]
          ]
        ]
      }
    },
    {
      "type": "Feature",
      "id": "way/1182141947",
      "properties": {
        "timestamp": "2023-06-15T01:47:26Z",
        "version": 1,
        "changeset": 137349813,
        "addr:city": "Divino das Laranjeiras",
        "addr:housenumber": "146",
        "addr:postcode": "35265-000",
        "addr:street": "Avenida Minas Gerais",
        "addr:suburb": "Centro",
        "amenity": "school",
        "email": "escola.42412@educacao.mg.gov.br",
        "name": "Escola Estadual Francisco de Souza Resende",
        "operator": "Governo de Minas Gerais",
        "operator:type": "public",
        "phone": "+55 33 3245 1132",
        "id": "way/1182141947"
      },
      "geometry": {
        "type": "Polygon",
        "coordinates": [
          [
            [
              -41.4794223,
              -18.7766899
            ],
            [
              -41.4792075,
              -18.7770048
            ],
            [
              -41.4787515,
              -18.7769308
            ],
            [
              -41.4788121,
              -18.7766242
            ],
            [
              -41.4789795,
              -18.7764396
            ],
            [
              -41.4794223,
              -18.7766899
            ]
          ]
        ]
      }
    },
    {
      "type": "Feature",
      "id": "way/1182141950",
      "properties": {
        "timestamp": "2023-06-15T01:47:26Z",
        "version": 1,
        "changeset": 137349813,
        "addr:city": "Divino das Laranjeiras",
        "addr:housenumber": "58",
        "addr:postcode": "35265-000",
        "addr:street": "Rua das Acácias",
        "addr:suburb": "Centro",
        "amenity": "school",
        "email": "emmundoencantado@hotmail.com",
        "name": "Escola Municipal Mundo Encantado",
        "operator": "Município de Divino das Laranjeiras",
        "operator:type": "public",
        "phone": "+55 33 3245 1129",
        "id": "way/1182141950"
      },
      "geometry": {
        "type": "Polygon",
        "coordinates": [
          [
            [
              -41.4825479,
              -18.7786272
            ],
            [
              -41.4825412,
              -18.7786941
            ],
            [
              -41.4824974,
              -18.7787515
            ],
            [
              -41.4824233,
              -18.7788025
            ],
            [
              -41.4823459,
              -18.7788376
            ],
            [
              -41.4822819,
              -18.7788535
            ],
            [
              -41.4821994,
              -18.778844
            ],
            [
              -41.482122,
              -18.7788153
            ],
            [
              -41.4819772,
              -18.7787212
            ],
            [
              -41.4816489,
              -18.7784646
            ],
            [
              -41.4818577,
              -18.7780709
            ],
            [
              -41.4822213,
              -18.7782431
            ],
            [
              -41.4823139,
              -18.7783801
            ],
            [
              -41.4824099,
              -18.7784933
            ],
            [
              -41.4824755,
              -18.7785507
            ],
            [
              -41.4825226,
              -18.7785842
            ],
            [
              -41.4825479,
              -18.7786272
            ]
          ]
        ]
      }
    },
    {
      "type": "Feature",
      "id": "way/1182141951",
      "properties": {
        "timestamp": "2023-06-15T01:47:26Z",
        "version": 1,
        "changeset": 137349813,
        "addr:city": "Divino das Laranjeiras",
        "addr:postcode": "35265-000",
        "addr:street": "Praça Anacleto Falci",
        "addr:suburb": "Centro",
        "amenity": "school",
        "name": "Pré Escola Municipal Coraçãozinho Infantil",
        "operator": "Município de Divino das Laranjeiras",
        "operator:type": "public",
        "id": "way/1182141951"
      },
      "geometry": {
        "type": "Polygon",
        "coordinates": [
          [
            [
              -41.4812611,
              -18.778354
            ],
            [
              -41.4809644,
              -18.7783852
            ],
            [
              -41.4809198,
              -18.7779574
            ],
            [
              -41.4812843,
              -18.7779281
            ],
            [
              -41.4813154,
              -18.7779868
            ],
            [
              -41.4813251,
              -18.7781043
            ],
            [
              -41.4813347,
              -18.7782291
            ],
            [
              -41.4813212,
              -18.7782897
            ],
            [
              -41.4812611,
              -18.778354
            ]
          ]
        ]
      }
    }
  ]
}
