{
  "type": "FeatureCollection",
  "features": [
    {
      "type": "Feature",
      "id": "way/384073830",
      "properties": {
        "timestamp": "2021-03-22T18:41:58Z",
        "version": 5,
        "changeset": 101523699,
        "building": "yes",
        "shop": "bicycle",
        "id": "way/384073830"
      },
      "geometry": {
        "type": "Polygon",
        "coordinates": [
          [
            [
              -49.097856,
              -26.4818619
            ],
            [
              -49.0978563,
              -26.4817854
            ],
            [
              -49.097915,
              -26.481784
            ],
            [
              -49.097914,
              -26.4818611
            ],
            [
              -49.097856,
              -26.4818619
            ]
          ]
        ]
      }
    },
    {
      "type": "Feature",
      "id": "node/4203554389",
      "properties": {
        "timestamp": "2017-03-27T21:57:01Z",
        "version": 3,
        "changeset": 47213691,
        "addr:city": "Jaraguá do Sul",
        "addr:housenumber": "1420",
        "addr:street": "Rua João Januário Ayroso",
        "addr:suburb": "Jaraguá Esquerdo",
        "name": "Viola Bikes",
        "phone": "+55 47 3370 7648",
        "shop": "bicycle",
        "source": "survey",
        "website": "https://www.facebook.com/violabikes",
        "id": "node/4203554389"
      },
      "geometry": {
        "type": "Point",
        "coordinates": [
          -49.0927813,
          -26.5032749
        ]
      }
    },
    {
      "type": "Feature",
      "id": "node/6555933704",
      "properties": {
        "timestamp": "2022-07-15T18:52:18Z",
        "version": 2,
        "changeset": 123665486,
        "name": "E-Power Bike Shop",
        "phone": "+55 47 3054 3964",
        "shop": "bicycle",
        "id": "node/6555933704"
      },
      "geometry": {
        "type": "Point",
        "coordinates": [
          -49.0821856,
          -26.481826
        ]
      }
    },
    {
      "type": "Feature",
      "id": "node/6568447140",
      "properties": {
        "timestamp": "2022-07-14T20:35:21Z",
        "version": 2,
        "changeset": 123624981,
        "name": "Esporte Moto Bike",
        "phone": "+55 47 3371 1191",
        "shop": "bicycle",
        "id": "node/6568447140"
      },
      "geometry": {
        "type": "Point",
        "coordinates": [
          -49.0515056,
          -26.4779292
        ]
      }
    },
    {
      "type": "Feature",
      "id": "node/6568463139",
      "properties": {
        "timestamp": "2022-07-15T18:59:13Z",
        "version": 2,
        "changeset": 123665687,
        "name": "Bike Jump",
        "phone": "+55 47 3370 6755",
        "shop": "bicycle",
        "id": "node/6568463139"
      },
      "geometry": {
        "type": "Point",
        "coordinates": [
          -49.0733009,
          -26.4822239
        ]
      }
    },
    {
      "type": "Feature",
      "id": "node/6590143632",
      "properties": {
        "timestamp": "2024-09-18T15:58:30Z",
        "version": 7,
        "changeset": 156780954,
        "contact:whatsapp": "+55 47 99746-9131",
        "name": "Pedalando Gostoso",
        "phone": "+55 47 3371-4322",
        "service:bicycle:retail": "yes",
        "shop": "bicycle",
        "id": "node/6590143632"
      },
      "geometry": {
        "type": "Point",
        "coordinates": [
          -49.0875229,
          -26.4801274
        ]
      }
    },
    {
      "type": "Feature",
      "id": "node/6594310263",
      "properties": {
        "timestamp": "2019-07-19T15:52:19Z",
        "version": 2,
        "changeset": 72437638,
        "addr:city": "Jaraguá do Sul",
        "addr:housenumber": "2727",
        "addr:street": "Rua Walter Marquardt",
        "addr:suburb": "Barra do Rio Molha",
        "name": "Nexa Bike",
        "shop": "bicycle",
        "id": "node/6594310263"
      },
      "geometry": {
        "type": "Point",
        "coordinates": [
          -49.1060298,
          -26.5087203
        ]
      }
    },
    {
      "type": "Feature",
      "id": "node/9241484402",
      "properties": {
        "timestamp": "2021-11-10T19:38:40Z",
        "version": 1,
        "changeset": 113623556,
        "addr:city": "Jaraguá do Sul",
        "addr:housenumber": "872",
        "addr:street": "Rua Joaquim Francisco de Paula",
        "addr:suburb": "Chico de Paulo",
        "alt_name": "Loja e Oficina de Bicicletas Toni",
        "name": "Toni Bicicletaria",
        "phone": "+55 47 3372-3800",
        "service:bicycle:repair": "yes",
        "service:bicycle:sales": "yes",
        "shop": "bicycle",
        "id": "node/9241484402"
      },
      "geometry": {
        "type": "Point",
        "coordinates": [
          -49.1065574,
          -26.4801912
        ]
      }
    },
    {
      "type": "Feature",
      "id": "node/9836275184",
      "properties": {
        "timestamp": "2022-06-22T20:02:16Z",
        "version": 2,
        "changeset": 122727403,
        "addr:city": "Jaraguá do Sul",
        "addr:street": "Rua Waldemiro Schmitz",
        "addr:suburb": "Jaraguá Esquerdo",
        "name": "Old School Bikes",
        "shop": "bicycle",
        "id": "node/9836275184"
      },
      "geometry": {
        "type": "Point",
        "coordinates": [
          -49.0970183,
          -26.5047577
        ]
      }
    },
    {
      "type": "Feature",
      "id": "node/9836275441",
      "properties": {
        "timestamp": "2022-06-21T14:10:20Z",
        "version": 1,
        "changeset": 122671131,
        "addr:city": "Jaraguá do Sul",
        "addr:housenumber": "249",
        "addr:street": "Rua Pedro Gesser",
        "addr:suburb": "Amizade",
        "name": "Dr. Bikes Studio",
        "shop": "bicycle",
        "id": "node/9836275441"
      },
      "geometry": {
        "type": "Point",
        "coordinates": [
          -49.0965353,
          -26.4670852
        ]
      }
    },
    {
      "type": "Feature",
      "id": "node/9858989845",
      "properties": {
        "timestamp": "2023-11-30T18:28:13Z",
        "version": 2,
        "changeset": 144635569,
        "name": "World Bikes",
        "shop": "bicycle",
        "id": "node/9858989845"
      },
      "geometry": {
        "type": "Point",
        "coordinates": [
          -49.1148318,
          -26.5108252
        ]
      }
    },
    {
      "type": "Feature",
      "id": "node/9858997687",
      "properties": {
        "timestamp": "2022-06-30T20:21:20Z",
        "version": 1,
        "changeset": 123060008,
        "name": "Bike Ride",
        "shop": "bicycle",
        "id": "node/9858997687"
      },
      "geometry": {
        "type": "Point",
        "coordinates": [
          -49.1113777,
          -26.5020482
        ]
      }
    },
    {
      "type": "Feature",
      "id": "node/9859004418",
      "properties": {
        "timestamp": "2022-06-30T20:25:10Z",
        "version": 1,
        "changeset": 123060102,
        "name": "Overbike",
        "shop": "bicycle",
        "id": "node/9859004418"
      },
      "geometry": {
        "type": "Point",
        "coordinates": [
          -49.0837452,
          -26.4918333
        ]
      }
    }
  ]
}
