{
  "type": "FeatureCollection",
  "features": [
    {
      "type": "Feature",
      "id": "way/356689190",
      "properties": {
        "timestamp": "2019-03-18T17:21:06Z",
        "version": 10,
        "changeset": 68266034,
        "addr:city": "Jaraguá do Sul",
        "addr:housenumber": "263",
        "addr:postcode": "89259-590",
        "addr:street": "Rua Isidoro Pedri",
        "addr:suburb": "Barra do Rio Molha",
        "amenity": "college",
        "email": "jaragua@sc.senai.br",
        "name": "Senai",
        "phone": "+55 47 3372-9500",
        "website": "https://www.sc.senai.br/siteinstitucional/servicos/curso/lista?modalidade-curso=all&aberto=&modalidade=4&unidade=Jaragu%C3%A1+do+Sul&area=&palavra-chave=Palavra-chave",
        "id": "way/356689190"
      },
      "geometry": {
        "type": "Polygon",
        "coordinates": [
          [
            [
              -49.0890906,
              -26.5044711
            ],
            [
              -49.0889185,
              -26.5050365
            ],
            [
              -49.0880167,
              -26.5048009
            ],
            [
              -49.0880263,
              -26.5047682
            ],
            [
              -49.0881263,
              -26.5043943
            ],
            [
              -49.088005,
              -26.5043683
            ],
            [
              -49.0878751,
              -26.5043389
            ],
            [
              -49.0879773,
              -26.503977
            ],
            [
              -49.0882755,
              -26.5029629
            ],
            [
              -49.0887611,
              -26.5030772
            ],
            [
              -49.0883991,
              -26.5043083
            ],
            [
              -49.0889024,
              -26.5044268
            ],
            [
              -49.0889172,
              -26.5044303
            ],
            [
              -49.0890906,
              -26.5044711
            ]
          ]
        ]
      }
    },
    {
      "type": "Feature",
      "id": "way/432564475",
      "properties": {
        "timestamp": "2021-08-18T19:01:44Z",
        "version": 4,
        "changeset": 109892653,
        "addr:city": "Jaraguá do Sul",
        "addr:housenumber": "410",
        "addr:street": "Rua dos Imigrantes",
        "amenity": "college",
        "name": "Senac",
        "id": "way/432564475"
      },
      "geometry": {
        "type": "Polygon",
        "coordinates": [
          [
            [
              -49.1135135,
              -26.4673836
            ],
            [
              -49.113497,
              -26.4674138
            ],
            [
              -49.1133956,
              -26.4675999
            ],
            [
              -49.1133271,
              -26.4677379
            ],
            [
              -49.1132595,
              -26.4678628
            ],
            [
              -49.1129871,
              -26.4677709
            ],
            [
              -49.1115458,
              -26.4673272
            ],
            [
              -49.1117841,
              -26.4668775
            ],
            [
              -49.1131973,
              -26.4672839
            ],
            [
              -49.1135135,
              -26.4673836
            ]
          ]
        ]
      }
    },
    {
      "type": "Feature",
      "id": "way/737564283",
      "properties": {
        "timestamp": "2019-10-22T12:32:26Z",
        "version": 1,
        "changeset": 76048354,
        "amenity": "college",
        "id": "way/737564283"
      },
      "geometry": {
        "type": "Polygon",
        "coordinates": [
          [
            [
              -49.0614183,
              -26.4839298
            ],
            [
              -49.0614183,
              -26.4842864
            ],
            [
              -49.0606459,
              -26.4842937
            ],
            [
              -49.0606296,
              -26.4839371
            ],
            [
              -49.0614183,
              -26.4839298
            ]
          ]
        ]
      }
    },
    {
      "type": "Feature",
      "id": "node/3455802715",
      "properties": {
        "timestamp": "2019-10-14T20:35:58Z",
        "version": 7,
        "changeset": 75687637,
        "addr:city": "Jaraguá do Sul",
        "addr:housenumber": "742",
        "addr:street": "Rua Padre Aluísio Boeing",
        "addr:suburb": "Barra do Rio Cerro",
        "amenity": "college",
        "denomination": "roman_catholic",
        "email": "secretarianoviciado@gmail.com",
        "name": "Noviciado Nossa Senhora de Fátima",
        "phone": "+55 47 3376-0559",
        "religion": "christian",
        "source": "Bing;survey",
        "start_date": "1956",
        "website": "http://dehonbrasil.com/noviciado/",
        "id": "node/3455802715"
      },
      "geometry": {
        "type": "Point",
        "coordinates": [
          -49.1185524,
          -26.5196576
        ]
      }
    },
    {
      "type": "Feature",
      "id": "node/3697972907",
      "properties": {
        "timestamp": "2022-06-02T18:21:25Z",
        "version": 8,
        "changeset": 121863689,
        "addr:city": "Jaraguá do Sul",
        "addr:housenumber": "206",
        "addr:street": "Rua Expedicionário Antônio Carlos Ferreira",
        "addr:suburb": "Centro",
        "amenity": "college",
        "name": "Sebrae",
        "website": "https://www.sebrae-sc.com.br/",
        "id": "node/3697972907"
      },
      "geometry": {
        "type": "Point",
        "coordinates": [
          -49.0847043,
          -26.4835511
        ]
      }
    },
    {
      "type": "Feature",
      "id": "node/6617010343",
      "properties": {
        "timestamp": "2019-07-15T16:13:03Z",
        "version": 1,
        "changeset": 72272479,
        "addr:city": "Jaraguá do Sul",
        "addr:housenumber": "435",
        "addr:street": "Rua Amazonas",
        "addr:suburb": "Jaraguá Esquerdo",
        "amenity": "college",
        "name": "Escola Técnica de Enfermagem",
        "phone": "+55 47 3376-4296",
        "website": "https://enfermagemjaragua.com.br/",
        "id": "node/6617010343"
      },
      "geometry": {
        "type": "Point",
        "coordinates": [
          -49.0904024,
          -26.4920063
        ]
      }
    }
  ]
}
