{
  "type": "FeatureCollection",
  "features": [
    {
      "type": "Feature",
      "id": "way/384076640",
      "properties": {
        "timestamp": "2023-03-15T16:26:20Z",
        "version": 7,
        "changeset": 133717004,
        "addr:housenumber": "1687",
        "addr:street": "Rua Expedicionário Antônio Carlos Ferreira",
        "addr:suburb": "Vila Lenzi",
        "amenity": "dentist",
        "building": "yes",
        "building:levels": "2",
        "healthcare": "dentist",
        "id": "way/384076640"
      },
      "geometry": {
        "type": "Polygon",
        "coordinates": [
          [
            [
              -49.1005557,
              -26.4832522
            ],
            [
              -49.1005236,
              -26.4832247
            ],
            [
              -49.1006731,
              -26.4831209
            ],
            [
              -49.1007217,
              -26.4831779
            ],
            [
              -49.100704,
              -26.4831912
            ],
            [
              -49.1007226,
              -26.4832125
            ],
            [
              -49.1006902,
              -26.4832339
            ],
            [
              -49.1007073,
              -26.4832529
            ],
            [
              -49.1006405,
              -26.4832975
            ],
            [
              -49.1006095,
              -26.4832621
            ],
            [
              -49.1005948,
              -26.4832707
            ],
            [
              -49.1005898,
              -26.4832648
            ],
            [
              -49.1005705,
              -26.4832424
            ],
            [
              -49.1005557,
              -26.4832522
            ]
          ]
        ]
      }
    },
    {
      "type": "Feature",
      "id": "way/583005950",
      "properties": {
        "timestamp": "2019-05-07T19:45:24Z",
        "version": 3,
        "changeset": 69996999,
        "addr:housenumber": "763",
        "addr:street": "Rua José Theodoro Ribeiro",
        "addr:suburb": "Ilha da Figueira",
        "amenity": "dentist",
        "building": "yes",
        "healthcare": "dentist",
        "id": "way/583005950"
      },
      "geometry": {
        "type": "Polygon",
        "coordinates": [
          [
            [
              -49.0641306,
              -26.4913051
            ],
            [
              -49.064111,
              -26.4913962
            ],
            [
              -49.0639791,
              -26.4913734
            ],
            [
              -49.063993,
              -26.4913091
            ],
            [
              -49.0640527,
              -26.4913195
            ],
            [
              -49.0640585,
              -26.4912926
            ],
            [
              -49.0641306,
              -26.4913051
            ]
          ]
        ]
      }
    },
    {
      "type": "Feature",
      "id": "node/3429383269",
      "properties": {
        "timestamp": "2019-06-03T13:57:15Z",
        "version": 6,
        "changeset": 70887403,
        "addr:city": "Jaraguá do Sul",
        "addr:housenumber": "108",
        "addr:street": "Rua José Theodoro Ribeiro",
        "addr:suburb": "Ilha da Figueira",
        "amenity": "dentist",
        "healthcare": "dentist",
        "name": "Dentista Danna",
        "phone": "+55 47 3371 9960",
        "source": "survey",
        "id": "node/3429383269"
      },
      "geometry": {
        "type": "Point",
        "coordinates": [
          -49.0692192,
          -26.4943486
        ]
      }
    },
    {
      "type": "Feature",
      "id": "node/5148358324",
      "properties": {
        "timestamp": "2020-07-15T16:25:56Z",
        "version": 3,
        "changeset": 88042469,
        "amenity": "dentist",
        "healthcare": "dentist",
        "name": "Oral Sim Implantes",
        "id": "node/5148358324"
      },
      "geometry": {
        "type": "Point",
        "coordinates": [
          -49.0808176,
          -26.493947
        ]
      }
    },
    {
      "type": "Feature",
      "id": "node/5148418321",
      "properties": {
        "timestamp": "2020-07-15T16:25:56Z",
        "version": 3,
        "changeset": 88042469,
        "addr:street": "Rua Angelo Schiochet",
        "amenity": "dentist",
        "healthcare": "dentist",
        "name": "Odonto Sul",
        "phone": "+55 47 3373-3100",
        "id": "node/5148418321"
      },
      "geometry": {
        "type": "Point",
        "coordinates": [
          -49.0808106,
          -26.4930262
        ]
      }
    },
    {
      "type": "Feature",
      "id": "node/5392815122",
      "properties": {
        "timestamp": "2024-09-18T16:15:47Z",
        "version": 3,
        "changeset": 156781659,
        "amenity": "dentist",
        "healthcare": "dentist",
        "name": "Doutora Alessandra Maiochi",
        "phone": "+55 47 3371-8024",
        "id": "node/5392815122"
      },
      "geometry": {
        "type": "Point",
        "coordinates": [
          -49.0833587,
          -26.4810347
        ]
      }
    },
    {
      "type": "Feature",
      "id": "node/5393003922",
      "properties": {
        "timestamp": "2020-07-14T13:57:12Z",
        "version": 3,
        "changeset": 87982117,
        "addr:city": "Jaraguá do Sul",
        "addr:housenumber": "333",
        "addr:street": "Avenida Marechal Deodoro da Fonseca",
        "addr:suburb": "Centro",
        "amenity": "dentist",
        "healthcare": "dentist",
        "name": "Cirurgiões Dentistas Guenther",
        "phone": "+55 47 3371-0846",
        "id": "node/5393003922"
      },
      "geometry": {
        "type": "Point",
        "coordinates": [
          -49.0826403,
          -26.4842825
        ]
      }
    },
    {
      "type": "Feature",
      "id": "node/6331472129",
      "properties": {
        "timestamp": "2022-07-14T12:27:31Z",
        "version": 2,
        "changeset": 123607866,
        "addr:postcode": "89251-700",
        "addr:street": "Avenida Marechal Deodoro da Fonseca",
        "addr:suburb": "Centro",
        "amenity": "dentist",
        "healthcare": "dentist",
        "name": "Odontocop",
        "phone": "+55 47 3370 3164",
        "id": "node/6331472129"
      },
      "geometry": {
        "type": "Point",
        "coordinates": [
          -49.0828862,
          -26.4850844
        ]
      }
    },
    {
      "type": "Feature",
      "id": "node/6331495088",
      "properties": {
        "timestamp": "2022-07-15T18:55:33Z",
        "version": 2,
        "changeset": 123665566,
        "addr:postcode": "89251-630",
        "addr:street": "Luiz Kienen",
        "amenity": "dentist",
        "healthcare": "dentist",
        "name": "Dental Plus",
        "phone": "+55 47 3372 3084",
        "id": "node/6331495088"
      },
      "geometry": {
        "type": "Point",
        "coordinates": [
          -49.0804505,
          -26.4875988
        ]
      }
    },
    {
      "type": "Feature",
      "id": "node/7017187335",
      "properties": {
        "timestamp": "2019-11-28T14:14:10Z",
        "version": 1,
        "changeset": 77685869,
        "addr:city": "Jaraguá do Sul",
        "addr:housenumber": "284",
        "addr:street": "Rua Walter Marquardt",
        "addr:suburb": "Vila Nova",
        "amenity": "dentist",
        "contact:whatsapp": "+55 47 99943-0376",
        "healthcare": "dentist",
        "name": "Essence Life",
        "phone": "+55 47 3084-0070",
        "website": "https://essencelife.com.br/",
        "id": "node/7017187335"
      },
      "geometry": {
        "type": "Point",
        "coordinates": [
          -49.0877709,
          -26.4981608
        ]
      }
    },
    {
      "type": "Feature",
      "id": "node/9949816499",
      "properties": {
        "timestamp": "2022-08-12T18:26:56Z",
        "version": 1,
        "changeset": 124829614,
        "amenity": "dentist",
        "healthcare": "dentist",
        "healthcare:speciality": "orthodontics",
        "name": "Santé Clínica Odontológica",
        "phone": "+55 47 3371-7209",
        "id": "node/9949816499"
      },
      "geometry": {
        "type": "Point",
        "coordinates": [
          -49.0662488,
          -26.4790216
        ]
      }
    }
  ]
}
