{
  "type": "FeatureCollection",
  "features": [
    {
      "type": "Feature",
      "id": "way/325002642",
      "properties": {
        "timestamp": "2023-05-25T12:22:44Z",
        "version": 6,
        "changeset": 136541689,
        "addr:city": "Jaraguá do Sul",
        "addr:street": "Rua Jorge Czerniewicz",
        "addr:suburb": "Czerniewicz",
        "amenity": "doctors",
        "building": "yes",
        "healthcare": "doctor",
        "id": "way/325002642"
      },
      "geometry": {
        "type": "Polygon",
        "coordinates": [
          [
            [
              -49.0807675,
              -26.4790161
            ],
            [
              -49.0806021,
              -26.479183
            ],
            [
              -49.0804895,
              -26.4790902
            ],
            [
              -49.0805556,
              -26.4790283
            ],
            [
              -49.0805157,
              -26.4789938
            ],
            [
              -49.0805258,
              -26.4789856
            ],
            [
              -49.0804748,
              -26.4789377
            ],
            [
              -49.0806148,
              -26.4788066
            ],
            [
              -49.0806682,
              -26.4788439
            ],
            [
              -49.080623,
              -26.4788866
            ],
            [
              -49.0807243,
              -26.4789745
            ],
            [
              -49.0807196,
              -26.4789792
            ],
            [
              -49.0807675,
              -26.4790161
            ]
          ]
        ]
      }
    },
    {
      "type": "Feature",
      "id": "way/376607242",
      "properties": {
        "timestamp": "2021-05-21T19:31:47Z",
        "version": 7,
        "changeset": 105108055,
        "addr:city": "Jaraguá do Sul",
        "addr:housenumber": "242",
        "addr:street": "Rua Governador Jorge Lacerda",
        "addr:suburb": "Centro",
        "amenity": "doctors",
        "building": "yes",
        "healthcare": "doctor",
        "id": "way/376607242"
      },
      "geometry": {
        "type": "Polygon",
        "coordinates": [
          [
            [
              -49.0786312,
              -26.4909899
            ],
            [
              -49.0786488,
              -26.4912117
            ],
            [
              -49.0785048,
              -26.4912174
            ],
            [
              -49.0785012,
              -26.4911696
            ],
            [
              -49.0785104,
              -26.4911698
            ],
            [
              -49.0784984,
              -26.4909955
            ],
            [
              -49.0786312,
              -26.4909899
            ]
          ]
        ]
      }
    },
    {
      "type": "Feature",
      "id": "way/378040717",
      "properties": {
        "timestamp": "2023-03-16T18:18:05Z",
        "version": 8,
        "changeset": 133760504,
        "addr:city": "Jaraguá do Sul",
        "addr:housenumber": "100",
        "addr:street": "Rua Nelson Nasato",
        "addr:suburb": "Centro",
        "amenity": "doctors",
        "building": "yes",
        "building:levels": "2",
        "healthcare": "doctor",
        "name": "Clínica FETUS",
        "id": "way/378040717"
      },
      "geometry": {
        "type": "Polygon",
        "coordinates": [
          [
            [
              -49.0858545,
              -26.4919258
            ],
            [
              -49.0860266,
              -26.491902
            ],
            [
              -49.0860431,
              -26.491914
            ],
            [
              -49.0860482,
              -26.4919477
            ],
            [
              -49.0860615,
              -26.4919561
            ],
            [
              -49.0860655,
              -26.4919921
            ],
            [
              -49.0860584,
              -26.4920012
            ],
            [
              -49.0860606,
              -26.4920249
            ],
            [
              -49.0860408,
              -26.4920508
            ],
            [
              -49.0857,
              -26.4920948
            ],
            [
              -49.085738,
              -26.4920016
            ],
            [
              -49.0858272,
              -26.4920285
            ],
            [
              -49.0858719,
              -26.4920241
            ],
            [
              -49.0858721,
              -26.4920124
            ],
            [
              -49.0858247,
              -26.4919703
            ],
            [
              -49.0858216,
              -26.4919302
            ],
            [
              -49.0858545,
              -26.4919258
            ]
          ]
        ]
      }
    },
    {
      "type": "Feature",
      "id": "node/4413280789",
      "properties": {
        "timestamp": "2020-07-15T16:25:56Z",
        "version": 3,
        "changeset": 88042469,
        "addr:city": "Jaraguá do Sul",
        "addr:housenumber": "170",
        "addr:street": "Rua Emil Burow",
        "amenity": "doctors",
        "healthcare": "doctor",
        "name": "Miriani Finilli",
        "id": "node/4413280789"
      },
      "geometry": {
        "type": "Point",
        "coordinates": [
          -49.0802243,
          -26.4939458
        ]
      }
    },
    {
      "type": "Feature",
      "id": "node/5184409321",
      "properties": {
        "timestamp": "2017-10-25T14:53:55Z",
        "version": 2,
        "changeset": 53237840,
        "addr:city": "Jaraguá do Sul",
        "addr:housenumber": "185",
        "addr:street": "Rua Prefeito Leopoldo Augusto Gerent",
        "addr:suburb": "Centro",
        "amenity": "doctors",
        "healthcare": "doctor",
        "name": "Clínica de Anestesiologia",
        "phone": "+55 47 3371-0635",
        "id": "node/5184409321"
      },
      "geometry": {
        "type": "Point",
        "coordinates": [
          -49.0768714,
          -26.4889819
        ]
      }
    },
    {
      "type": "Feature",
      "id": "node/5188771854",
      "properties": {
        "timestamp": "2017-10-25T15:00:34Z",
        "version": 2,
        "changeset": 53237977,
        "addr:city": "Jaraguá do Sul",
        "addr:housenumber": "185",
        "addr:street": "Rua Prefeito Leopoldo Augusto Gerent",
        "addr:suburb": "Centro",
        "amenity": "doctors",
        "healthcare": "doctor",
        "name": "Cassia Biron",
        "opening_hours": "Mo-Fr 09:00-12:00,14:00-18:30; Tu 08:00-12:00,14:00-18:30; Th 08:00-12:00",
        "id": "node/5188771854"
      },
      "geometry": {
        "type": "Point",
        "coordinates": [
          -49.0769292,
          -26.4888437
        ]
      }
    },
    {
      "type": "Feature",
      "id": "node/5192372807",
      "properties": {
        "timestamp": "2017-10-26T23:40:10Z",
        "version": 1,
        "changeset": 53277693,
        "addr:city": "Jaraguá do Sul",
        "addr:door": "608",
        "addr:housenumber": "1990",
        "addr:street": "Rua João Planincheck",
        "addr:suburb": "Jaraguá Esquerdo",
        "alt_name": "Doutor AlexandreLorenzini Schlabendorff",
        "amenity": "doctors",
        "healthcare": "doctor",
        "name": "Proctoclin",
        "phone": "+55 47 3371-5117",
        "source": "survey",
        "source:date": "2017-10-25",
        "id": "node/5192372807"
      },
      "geometry": {
        "type": "Point",
        "coordinates": [
          -49.0899325,
          -26.4959655
        ]
      }
    },
    {
      "type": "Feature",
      "id": "node/6840137685",
      "properties": {
        "timestamp": "2021-12-13T14:59:56Z",
        "version": 3,
        "changeset": 114887094,
        "addr:housenumber": "30",
        "addr:street": "Rua Professor Adejaime Reitz",
        "amenity": "doctors",
        "healthcare": "doctor",
        "name": "Medicina Nuclear",
        "opening_hours": "Mo-Su 07:00-12:00, 13:00-18:00",
        "id": "node/6840137685"
      },
      "geometry": {
        "type": "Point",
        "coordinates": [
          -49.0841212,
          -26.4900111
        ]
      }
    }
  ]
}
