{
  "type": "FeatureCollection",
  "features": [
    {
      "type": "Feature",
      "id": "way/257037542",
      "properties": {
        "timestamp": "2021-04-13T16:27:50Z",
        "version": 13,
        "changeset": 102877795,
        "addr:city": "Jaraguá do Sul",
        "addr:housenumber": "245",
        "addr:street": "Avenida Getúlio Vargas",
        "addr:suburb": "Centro",
        "amenity": "library",
        "building": "yes",
        "building:levels": "2",
        "building:material": "brick",
        "description": "Construído em 1943. Antigo depósito de cargas da estação ferroviária. Atual biblioteca pública.",
        "email": "bibliotecapublica@jaraguadosul.sc.gov.br",
        "historic": "building",
        "name": "Biblioteca Pública Municipal Rui Barbosa",
        "old_name": "Biblioteca Emílio Carlos Jourdan",
        "opening_hours": "Mo-We 12:00-17:30; Th-Fr 07:30-12:30; Sa 08:00-12:00",
        "phone": "+55 47 2106 8708",
        "roof:material": "roof_tiles",
        "roof:shape": "gabled",
        "id": "way/257037542"
      },
      "geometry": {
        "type": "Polygon",
        "coordinates": [
          [
            [
              -49.0853687,
              -26.4802017
            ],
            [
              -49.0846745,
              -26.4804872
            ],
            [
              -49.08462,
              -26.4803788
            ],
            [
              -49.0853062,
              -26.4800819
            ],
            [
              -49.0853687,
              -26.4802017
            ]
          ]
        ]
      }
    },
    {
      "type": "Feature",
      "id": "way/356689221",
      "properties": {
        "timestamp": "2016-09-08T20:58:28Z",
        "version": 2,
        "changeset": 42012785,
        "addr:city": "Jaraguá do Sul",
        "addr:housenumber": "263",
        "addr:postcode": "89259-590",
        "addr:street": "Rua Isidoro Pedri",
        "addr:suburb": "Barra do Rio Molha",
        "amenity": "library",
        "building": "yes",
        "building:levels": "2",
        "name": "Biblioteca Senai",
        "operator": "Senai",
        "id": "way/356689221"
      },
      "geometry": {
        "type": "Polygon",
        "coordinates": [
          [
            [
              -49.088512,
              -26.5037264
            ],
            [
              -49.0884501,
              -26.5039756
            ],
            [
              -49.088246,
              -26.503935
            ],
            [
              -49.0883078,
              -26.5036859
            ],
            [
              -49.088512,
              -26.5037264
            ]
          ]
        ]
      }
    },
    {
      "type": "Feature",
      "id": "node/6303980429",
      "properties": {
        "timestamp": "2019-02-26T17:03:22Z",
        "version": 1,
        "changeset": 67589354,
        "addr:city": "Jaraguá do Sul",
        "addr:street": "Avenida Getúlio Vargas",
        "amenity": "library",
        "name": "Biblioteca Pública",
        "id": "node/6303980429"
      },
      "geometry": {
        "type": "Point",
        "coordinates": [
          -49.0859991,
          -26.4798934
        ]
      }
    },
    {
      "type": "Feature",
      "id": "node/7807218616",
      "properties": {
        "timestamp": "2020-08-12T16:22:58Z",
        "version": 1,
        "changeset": 89314038,
        "amenity": "library",
        "id": "node/7807218616"
      },
      "geometry": {
        "type": "Point",
        "coordinates": [
          -49.1034624,
          -26.4862622
        ]
      }
    },
    {
      "type": "Feature",
      "id": "node/8636288187",
      "properties": {
        "timestamp": "2021-04-16T18:33:33Z",
        "version": 1,
        "changeset": 103075689,
        "amenity": "library",
        "name": "Biblioteca Pública Municipal Rui Barbosa",
        "id": "node/8636288187"
      },
      "geometry": {
        "type": "Point",
        "coordinates": [
          -49.080012,
          -26.492408
        ]
      }
    }
  ]
}
