{
  "type": "FeatureCollection",
  "features": [
    {
      "type": "Feature",
      "id": "way/323096964",
      "properties": {
        "timestamp": "2024-04-08T00:56:08Z",
        "version": 9,
        "changeset": 149714132,
        "addr:city": "Jaraguá do Sul",
        "addr:housenumber": "132",
        "addr:street": "Rua Expedicionário Cabo Harry Hadlich",
        "addr:suburb": "Centro",
        "amenity": "pharmacy",
        "building": "yes",
        "building:levels": "2",
        "dispensing": "no",
        "healthcare": "pharmacy",
        "id": "way/323096964"
      },
      "geometry": {
        "type": "Polygon",
        "coordinates": [
          [
            [
              -49.0813803,
              -26.4900941
            ],
            [
              -49.0813745,
              -26.4899244
            ],
            [
              -49.0814642,
              -26.4899202
            ],
            [
              -49.0814697,
              -26.4900937
            ],
            [
              -49.0813803,
              -26.4900941
            ]
          ]
        ]
      }
    },
    {
      "type": "Feature",
      "id": "way/356870710",
      "properties": {
        "timestamp": "2022-05-19T17:30:48Z",
        "version": 10,
        "changeset": 121205856,
        "addr:city": "Jaraguá do Sul",
        "addr:housenumber": "207",
        "addr:postcode": "89251-100",
        "addr:street": "Rua Presidente Epitácio Pessoa",
        "addr:suburb": "Centro",
        "amenity": "pharmacy",
        "brand": "Droga Raia",
        "brand:wikidata": "Q10357101",
        "building": "commercial",
        "healthcare": "pharmacy",
        "name": "Droga Raia",
        "opening_hours": "24/7",
        "phone": "+55 47 3054 3660",
        "website": "https://www.drogaraia.com.br/",
        "id": "way/356870710"
      },
      "geometry": {
        "type": "Polygon",
        "coordinates": [
          [
            [
              -49.0831277,
              -26.4794194
            ],
            [
              -49.08321,
              -26.4793621
            ],
            [
              -49.0832261,
              -26.479382
            ],
            [
              -49.0833582,
              -26.4795457
            ],
            [
              -49.0833019,
              -26.4795682
            ],
            [
              -49.0832654,
              -26.4795828
            ],
            [
              -49.0831277,
              -26.4794194
            ]
          ]
        ]
      }
    },
    {
      "type": "Feature",
      "id": "way/370952666",
      "properties": {
        "timestamp": "2021-05-31T16:57:30Z",
        "version": 4,
        "changeset": 105636094,
        "addr:city": "Jaraguá do Sul",
        "addr:housenumber": "1233",
        "addr:street": "Avenida Marechal Deodoro da Fonseca",
        "addr:suburb": "Centro",
        "amenity": "pharmacy",
        "building": "yes",
        "dispensing": "yes",
        "healthcare": "pharmacy",
        "name": "Farmácia Raia",
        "source": "Prefeiutura",
        "id": "way/370952666"
      },
      "geometry": {
        "type": "Polygon",
        "coordinates": [
          [
            [
              -49.0834871,
              -26.4923504
            ],
            [
              -49.0835101,
              -26.4923332
            ],
            [
              -49.0835022,
              -26.4923259
            ],
            [
              -49.083662,
              -26.4921951
            ],
            [
              -49.0837185,
              -26.4921966
            ],
            [
              -49.0837801,
              -26.4922584
            ],
            [
              -49.0835893,
              -26.4924109
            ],
            [
              -49.0835837,
              -26.4924054
            ],
            [
              -49.0835594,
              -26.4924235
            ],
            [
              -49.0834871,
              -26.4923504
            ]
          ]
        ]
      }
    },
    {
      "type": "Feature",
      "id": "way/371173866",
      "properties": {
        "timestamp": "2022-06-21T19:37:42Z",
        "version": 9,
        "changeset": 122683151,
        "addr:city": "Jaraguá do Sul",
        "addr:housenumber": "852",
        "addr:street": "Avenida Marechal Deodoro da Fonseca",
        "addr:suburb": "Centro",
        "amenity": "pharmacy",
        "building": "yes",
        "healthcare": "pharmacy",
        "name": "Farmácia Descontão",
        "phone": "+55 47 3370 6477",
        "source": "Prefeitura",
        "id": "way/371173866"
      },
      "geometry": {
        "type": "Polygon",
        "coordinates": [
          [
            [
              -49.083097,
              -26.4889545
            ],
            [
              -49.083097,
              -26.4889622
            ],
            [
              -49.0830982,
              -26.4890172
            ],
            [
              -49.0829507,
              -26.4890183
            ],
            [
              -49.0829504,
              -26.4890113
            ],
            [
              -49.0829501,
              -26.4889728
            ],
            [
              -49.0829536,
              -26.4889641
            ],
            [
              -49.0829704,
              -26.4889554
            ],
            [
              -49.083097,
              -26.4889545
            ]
          ]
        ]
      }
    },
    {
      "type": "Feature",
      "id": "way/377205790",
      "properties": {
        "timestamp": "2021-06-10T14:40:42Z",
        "version": 9,
        "changeset": 106162413,
        "addr:city": "Jaraguá do Sul",
        "addr:housenumber": "183",
        "addr:street": "Rua Padre Alberto Romuald Jakobs",
        "addr:suburb": "Nova Brasília",
        "amenity": "pharmacy",
        "building": "yes",
        "dispensing": "yes",
        "healthcare": "pharmacy",
        "name": "Farmácia do Josué",
        "old_name": "Farmácia Vida e Saúde",
        "phone": "+55 47 3371-8664",
        "id": "way/377205790"
      },
      "geometry": {
        "type": "Polygon",
        "coordinates": [
          [
            [
              -49.0944199,
              -26.4822901
            ],
            [
              -49.0944336,
              -26.4821102
            ],
            [
              -49.0945329,
              -26.4821107
            ],
            [
              -49.0945318,
              -26.4821554
            ],
            [
              -49.0945734,
              -26.4821574
            ],
            [
              -49.0945625,
              -26.482297
            ],
            [
              -49.0944199,
              -26.4822901
            ]
          ]
        ]
      }
    },
    {
      "type": "Feature",
      "id": "way/378395078",
      "properties": {
        "timestamp": "2023-03-14T18:25:34Z",
        "version": 7,
        "changeset": 133679826,
        "addr:city": "Jaraguá do Sul",
        "addr:housenumber": "70",
        "addr:street": "Rua Presidente Epitácio Pessoa",
        "addr:suburb": "Centro",
        "amenity": "pharmacy",
        "building": "yes",
        "building:levels": "2",
        "dispensing": "yes",
        "healthcare": "pharmacy",
        "id": "way/378395078"
      },
      "geometry": {
        "type": "Polygon",
        "coordinates": [
          [
            [
              -49.0818833,
              -26.4800835
            ],
            [
              -49.0818501,
              -26.4800792
            ],
            [
              -49.0817199,
              -26.47994
            ],
            [
              -49.0817942,
              -26.4798878
            ],
            [
              -49.0817963,
              -26.4798903
            ],
            [
              -49.0818598,
              -26.4799603
            ],
            [
              -49.0819372,
              -26.4800457
            ],
            [
              -49.0818833,
              -26.4800835
            ]
          ]
        ]
      }
    },
    {
      "type": "Feature",
      "id": "way/679284319",
      "properties": {
        "timestamp": "2022-02-03T14:17:28Z",
        "version": 3,
        "changeset": 116966770,
        "addr:city": "Jaraguá do Sul",
        "addr:housenumber": "378",
        "addr:street": "Rua Dorval Marcatto",
        "amenity": "pharmacy",
        "building": "residential",
        "healthcare": "pharmacy",
        "level": "0",
        "name": "FarmaCézar",
        "name:pt": "FarmaCézar",
        "wheelchair": "yes",
        "id": "way/679284319"
      },
      "geometry": {
        "type": "Polygon",
        "coordinates": [
          [
            [
              -49.113825,
              -26.4837361
            ],
            [
              -49.1138261,
              -26.4836376
            ],
            [
              -49.1139561,
              -26.4836379
            ],
            [
              -49.1139573,
              -26.4836307
            ],
            [
              -49.1140141,
              -26.483631
            ],
            [
              -49.1140152,
              -26.4835959
            ],
            [
              -49.1140321,
              -26.4835961
            ],
            [
              -49.1140312,
              -26.4836284
            ],
            [
              -49.114038,
              -26.4836285
            ],
            [
              -49.1140366,
              -26.4837135
            ],
            [
              -49.114026,
              -26.4837133
            ],
            [
              -49.1140263,
              -26.48373
            ],
            [
              -49.1139748,
              -26.4837294
            ],
            [
              -49.1139753,
              -26.4837363
            ],
            [
              -49.1139343,
              -26.4837363
            ],
            [
              -49.113825,
              -26.4837361
            ]
          ]
        ]
      }
    },
    {
      "type": "Feature",
      "id": "way/767120718",
      "properties": {
        "timestamp": "2022-05-18T16:48:29Z",
        "version": 5,
        "changeset": 121156475,
        "addr:housenumber": "584",
        "addr:street": "Rua Irmão Leandro",
        "addr:suburb": "Vila Lenzi",
        "amenity": "pharmacy",
        "building": "yes",
        "healthcare": "pharmacy",
        "name": "Farmácia Raia",
        "id": "way/767120718"
      },
      "geometry": {
        "type": "Polygon",
        "coordinates": [
          [
            [
              -49.1016336,
              -26.4828302
            ],
            [
              -49.1017059,
              -26.4828235
            ],
            [
              -49.1017075,
              -26.4828363
            ],
            [
              -49.1017373,
              -26.4828356
            ],
            [
              -49.1017408,
              -26.482887
            ],
            [
              -49.1017152,
              -26.4828961
            ],
            [
              -49.1017182,
              -26.4829397
            ],
            [
              -49.1016568,
              -26.4829444
            ],
            [
              -49.1016554,
              -26.4829176
            ],
            [
              -49.1016429,
              -26.482918
            ],
            [
              -49.1016336,
              -26.4828302
            ]
          ]
        ]
      }
    },
    {
      "type": "Feature",
      "id": "way/1012149411",
      "properties": {
        "timestamp": "2022-10-05T11:38:20Z",
        "version": 5,
        "changeset": 127042664,
        "access": "yes",
        "addr:city": "Jaraguá do Sul",
        "addr:housenumber": "27",
        "addr:street": "Rua Padre Francken",
        "addr:suburb": "Centro",
        "amenity": "pharmacy",
        "brand": "Sistema Único de Saúde",
        "brand:short": "SUS",
        "brand:wikidata": "Q7531056",
        "brand:wikipedia": "pt:Sistema Único de Saúde",
        "building": "yes",
        "description": "L E I Nº 8.923/2021 Denomina Unidade de Farmácia Básica.",
        "dispensing": "yes",
        "healthcare": "pharmacy",
        "name": "Farmácia Básica Antônio Bento de Souza Sobrinho - Benfica",
        "opening_hours:covid19": "Mo-Sa 07:00-19:00",
        "operator": "Prefeitura Municipal de Jaraguá do Sul",
        "operator:type": "public",
        "id": "way/1012149411"
      },
      "geometry": {
        "type": "Polygon",
        "coordinates": [
          [
            [
              -49.0858777,
              -26.4786351
            ],
            [
              -49.0858798,
              -26.478699
            ],
            [
              -49.0858817,
              -26.4787544
            ],
            [
              -49.0858498,
              -26.4787536
            ],
            [
              -49.0858545,
              -26.478811
            ],
            [
              -49.0857616,
              -26.4788222
            ],
            [
              -49.0857431,
              -26.4786131
            ],
            [
              -49.085852,
              -26.4785537
            ],
            [
              -49.0858777,
              -26.4786351
            ]
          ]
        ]
      }
    },
    {
      "type": "Feature",
      "id": "way/1214309090",
      "properties": {
        "timestamp": "2023-10-09T11:30:32Z",
        "version": 2,
        "changeset": 142345534,
        "addr:city": "Jaraguá do Sul",
        "addr:housenumber": "3117",
        "addr:street": "Rua Roberto Ziemann",
        "addr:suburb": "Amizade",
        "amenity": "pharmacy",
        "building": "yes",
        "healthcare": "pharmacy",
        "id": "way/1214309090"
      },
      "geometry": {
        "type": "Polygon",
        "coordinates": [
          [
            [
              -49.1079323,
              -26.4531318
            ],
            [
              -49.1079284,
              -26.4533605
            ],
            [
              -49.107728,
              -26.4533598
            ],
            [
              -49.1077292,
              -26.4531309
            ],
            [
              -49.1079323,
              -26.4531318
            ]
          ]
        ]
      }
    },
    {
      "type": "Feature",
      "id": "node/3429411715",
      "properties": {
        "timestamp": "2020-01-26T16:28:20Z",
        "version": 11,
        "changeset": 80102426,
        "addr:city": "Jaraguá do Sul",
        "addr:housenumber": "835",
        "addr:postcode": "89259-565",
        "addr:street": "Rua Walter Marquardt",
        "addr:suburb": "Barra do Rio Molha",
        "amenity": "pharmacy",
        "dispensing": "yes",
        "drive_through": "no",
        "email": "fm915@sesifarmacias.com.br",
        "healthcare": "pharmacy",
        "name": "Farma Sesi",
        "old_name": "Sesi Farmácia",
        "opening_hours": "Mo-Fr 08:00-17:30",
        "phone": "+55 47 3370-3393",
        "source": "survey",
        "wheelchair": "yes",
        "id": "node/3429411715"
      },
      "geometry": {
        "type": "Point",
        "coordinates": [
          -49.089419,
          -26.5026181
        ]
      }
    },
    {
      "type": "Feature",
      "id": "node/3453190219",
      "properties": {
        "timestamp": "2019-06-03T14:51:42Z",
        "version": 7,
        "changeset": 70889291,
        "addr:city": "Jaraguá do Sul",
        "addr:housenumber": "855",
        "addr:street": "Avenida Marechal Deodoro da Fonseca",
        "addr:suburb": "Centro",
        "amenity": "pharmacy",
        "healthcare": "pharmacy",
        "name": "Farmácia Preço Popular",
        "phone": "+55 47 3371 1602",
        "source": "Bing;survey",
        "website": "https://www.precopopular.com.br/",
        "id": "node/3453190219"
      },
      "geometry": {
        "type": "Point",
        "coordinates": [
          -49.0827505,
          -26.489068
        ]
      }
    },
    {
      "type": "Feature",
      "id": "node/3454106549",
      "properties": {
        "timestamp": "2019-06-03T14:48:36Z",
        "version": 6,
        "changeset": 70889178,
        "amenity": "pharmacy",
        "healthcare": "pharmacy",
        "name": "Farmácia Cooper Vila Nova",
        "phone": "+55 47 3274 7520",
        "source": "survey",
        "id": "node/3454106549"
      },
      "geometry": {
        "type": "Point",
        "coordinates": [
          -49.0870985,
          -26.497341
        ]
      }
    },
    {
      "type": "Feature",
      "id": "node/3482197069",
      "properties": {
        "timestamp": "2022-05-27T19:50:47Z",
        "version": 8,
        "changeset": 121591675,
        "addr:city": "Jaraguá do Sul",
        "addr:housenumber": "70",
        "addr:street": "Rua Presidente Epitácio Pessoa",
        "addr:suburb": "Centro",
        "amenity": "pharmacy",
        "dispensing": "yes",
        "healthcare": "pharmacy",
        "name": "Drogaria Catarinense",
        "opening_hours": "Mo-Su 06:00-24:00",
        "phone": "+55 47 3276-1577",
        "website": "https://www.drogariacatarinense.com.br/",
        "id": "node/3482197069"
      },
      "geometry": {
        "type": "Point",
        "coordinates": [
          -49.0818755,
          -26.4800574
        ]
      }
    },
    {
      "type": "Feature",
      "id": "node/3507904724",
      "properties": {
        "timestamp": "2023-10-02T22:31:39Z",
        "version": 9,
        "changeset": 142065239,
        "addr:city": "Jaraguá do Sul",
        "addr:housenumber": "1750",
        "addr:street": "Rua João Januário Ayroso",
        "addr:suburb": "Jaraguá Esquerdo",
        "amenity": "pharmacy",
        "healthcare": "pharmacy",
        "name": "Drogaria Farmagnus",
        "phone": "+55 47 3370 8012",
        "source": "Bing;survey",
        "website": "https://farmagnus.com.br/",
        "id": "node/3507904724"
      },
      "geometry": {
        "type": "Point",
        "coordinates": [
          -49.095859,
          -26.5041817
        ]
      }
    },
    {
      "type": "Feature",
      "id": "node/4419724589",
      "properties": {
        "timestamp": "2020-01-26T16:28:20Z",
        "version": 7,
        "changeset": 80102426,
        "addr:city": "Jaraguá do Sul",
        "addr:street": "Rua Maria Umbelina da Silva",
        "amenity": "pharmacy",
        "healthcare": "pharmacy",
        "name": "Farmácia Ativa",
        "opening_hours": "Mo-Fr 07:30-19:30; Sa 08:00-18:00",
        "phone": "+55 47 3054 4511",
        "id": "node/4419724589"
      },
      "geometry": {
        "type": "Point",
        "coordinates": [
          -49.1019144,
          -26.4827296
        ]
      }
    },
    {
      "type": "Feature",
      "id": "node/4503903671",
      "properties": {
        "timestamp": "2020-01-26T16:28:20Z",
        "version": 4,
        "changeset": 80102426,
        "amenity": "pharmacy",
        "healthcare": "pharmacy",
        "name": "Farmácia Basica",
        "id": "node/4503903671"
      },
      "geometry": {
        "type": "Point",
        "coordinates": [
          -49.0895285,
          -26.5037632
        ]
      }
    },
    {
      "type": "Feature",
      "id": "node/4698266998",
      "properties": {
        "timestamp": "2020-01-26T16:28:20Z",
        "version": 5,
        "changeset": 80102426,
        "amenity": "pharmacy",
        "healthcare": "pharmacy",
        "name": "Farmafig",
        "id": "node/4698266998"
      },
      "geometry": {
        "type": "Point",
        "coordinates": [
          -49.0331867,
          -26.4902895
        ]
      }
    },
    {
      "type": "Feature",
      "id": "node/4698266999",
      "properties": {
        "timestamp": "2023-06-10T20:48:28Z",
        "version": 7,
        "changeset": 137185283,
        "amenity": "pharmacy",
        "healthcare": "pharmacy",
        "name": "Super Popular",
        "old_name": "Nossa Farma",
        "id": "node/4698266999"
      },
      "geometry": {
        "type": "Point",
        "coordinates": [
          -49.0477664,
          -26.4781647
        ]
      }
    },
    {
      "type": "Feature",
      "id": "node/4698267000",
      "properties": {
        "timestamp": "2020-01-26T16:28:20Z",
        "version": 6,
        "changeset": 80102426,
        "amenity": "pharmacy",
        "healthcare": "pharmacy",
        "name": "Nossa Farmácia",
        "opening_hours": "Mo-Fr 08:00-22:00; Sa 08:00-16:00",
        "id": "node/4698267000"
      },
      "geometry": {
        "type": "Point",
        "coordinates": [
          -49.0564263,
          -26.4830773
        ]
      }
    },
    {
      "type": "Feature",
      "id": "node/4698287997",
      "properties": {
        "timestamp": "2020-01-26T16:28:20Z",
        "version": 4,
        "changeset": 80102426,
        "amenity": "pharmacy",
        "healthcare": "pharmacy",
        "name": "Masterfarma",
        "name:pt": "Masterfarma",
        "id": "node/4698287997"
      },
      "geometry": {
        "type": "Point",
        "coordinates": [
          -49.06149,
          -26.444135
        ]
      }
    },
    {
      "type": "Feature",
      "id": "node/4701417991",
      "properties": {
        "timestamp": "2023-08-30T21:16:13Z",
        "version": 6,
        "changeset": 140608466,
        "amenity": "pharmacy",
        "contact:phone": "+55 47 3371-9373",
        "healthcare": "pharmacy",
        "name": "Masterfarma",
        "name:pt": "Masterfarma",
        "id": "node/4701417991"
      },
      "geometry": {
        "type": "Point",
        "coordinates": [
          -49.1305889,
          -26.5112201
        ]
      }
    },
    {
      "type": "Feature",
      "id": "node/4701419291",
      "properties": {
        "timestamp": "2020-01-26T16:28:20Z",
        "version": 4,
        "changeset": 80102426,
        "amenity": "pharmacy",
        "healthcare": "pharmacy",
        "name": "Farmacruz",
        "name:pt": "Farmacruz",
        "id": "node/4701419291"
      },
      "geometry": {
        "type": "Point",
        "coordinates": [
          -49.1215158,
          -26.4672501
        ]
      }
    },
    {
      "type": "Feature",
      "id": "node/4701419292",
      "properties": {
        "timestamp": "2021-02-04T12:16:57Z",
        "version": 5,
        "changeset": 98704894,
        "amenity": "pharmacy",
        "healthcare": "pharmacy",
        "name": "Masterfarma",
        "name:pt": "Masterfarma",
        "id": "node/4701419292"
      },
      "geometry": {
        "type": "Point",
        "coordinates": [
          -49.0950771,
          -26.5041947
        ]
      }
    },
    {
      "type": "Feature",
      "id": "node/4701419293",
      "properties": {
        "timestamp": "2020-01-26T16:28:20Z",
        "version": 5,
        "changeset": 80102426,
        "amenity": "pharmacy",
        "healthcare": "pharmacy",
        "name": "Farmácia Unisul",
        "name:pt": "Farmácia Unisul",
        "id": "node/4701419293"
      },
      "geometry": {
        "type": "Point",
        "coordinates": [
          -49.119783,
          -26.5123424
        ]
      }
    },
    {
      "type": "Feature",
      "id": "node/4701419793",
      "properties": {
        "timestamp": "2020-07-13T12:18:03Z",
        "version": 5,
        "changeset": 87923545,
        "addr:city": "Jaraguá do Sul",
        "addr:housenumber": "1721",
        "addr:street": "Rua Erwino Menegotti",
        "addr:suburb": "Rau",
        "amenity": "pharmacy",
        "healthcare": "pharmacy",
        "name": "Farmácia Santa Clara",
        "phone": "+55 47 3376-4300",
        "id": "node/4701419793"
      },
      "geometry": {
        "type": "Point",
        "coordinates": [
          -49.108938,
          -26.4682486
        ]
      }
    },
    {
      "type": "Feature",
      "id": "node/4701419794",
      "properties": {
        "timestamp": "2020-01-26T16:28:20Z",
        "version": 4,
        "changeset": 80102426,
        "amenity": "pharmacy",
        "healthcare": "pharmacy",
        "name": "Farmagnus",
        "name:pt": "Farmagnus",
        "id": "node/4701419794"
      },
      "geometry": {
        "type": "Point",
        "coordinates": [
          -49.117093,
          -26.4631106
        ]
      }
    },
    {
      "type": "Feature",
      "id": "node/4701419795",
      "properties": {
        "timestamp": "2019-06-03T14:48:36Z",
        "version": 3,
        "changeset": 70889178,
        "addr:city": "Jaraguá do Sul",
        "addr:housenumber": "1798",
        "addr:street": "Avenida Marechal Deodoro da Fonseca",
        "amenity": "pharmacy",
        "healthcare": "pharmacy",
        "name": "Farmácia dos Sindicatos",
        "phone": "+55 47 3275-0874",
        "id": "node/4701419795"
      },
      "geometry": {
        "type": "Point",
        "coordinates": [
          -49.0883282,
          -26.4952706
        ]
      }
    },
    {
      "type": "Feature",
      "id": "node/4701419796",
      "properties": {
        "timestamp": "2020-01-26T16:28:20Z",
        "version": 4,
        "changeset": 80102426,
        "amenity": "pharmacy",
        "healthcare": "pharmacy",
        "name": "Farmagnus",
        "name:pt": "Farmagnus",
        "id": "node/4701419796"
      },
      "geometry": {
        "type": "Point",
        "coordinates": [
          -49.1279247,
          -26.5143836
        ]
      }
    },
    {
      "type": "Feature",
      "id": "node/4701419891",
      "properties": {
        "timestamp": "2020-01-26T16:28:20Z",
        "version": 4,
        "changeset": 80102426,
        "amenity": "pharmacy",
        "healthcare": "pharmacy",
        "name": "Masterfarma",
        "name:pt": "Masterfarma",
        "id": "node/4701419891"
      },
      "geometry": {
        "type": "Point",
        "coordinates": [
          -49.0909487,
          -26.4710562
        ]
      }
    },
    {
      "type": "Feature",
      "id": "node/4701419893",
      "properties": {
        "timestamp": "2020-01-26T16:28:20Z",
        "version": 4,
        "changeset": 80102426,
        "amenity": "pharmacy",
        "healthcare": "pharmacy",
        "name": "Farmácia Unisul",
        "name:pt": "Farmácia Unisul",
        "id": "node/4701419893"
      },
      "geometry": {
        "type": "Point",
        "coordinates": [
          -49.1166829,
          -26.4911277
        ]
      }
    },
    {
      "type": "Feature",
      "id": "node/4701419894",
      "properties": {
        "timestamp": "2020-01-26T16:28:20Z",
        "version": 4,
        "changeset": 80102426,
        "amenity": "pharmacy",
        "healthcare": "pharmacy",
        "name": "Farmácia São Luiz",
        "name:pt": "Farmácia São Luiz",
        "id": "node/4701419894"
      },
      "geometry": {
        "type": "Point",
        "coordinates": [
          -49.1094244,
          -26.5074461
        ]
      }
    },
    {
      "type": "Feature",
      "id": "node/4701419895",
      "properties": {
        "timestamp": "2021-07-28T23:35:40Z",
        "version": 5,
        "changeset": 108782728,
        "amenity": "pharmacy",
        "healthcare": "pharmacy",
        "name": "Farmácia São Luiz",
        "name:pt": "Farmácia São Luiz",
        "id": "node/4701419895"
      },
      "geometry": {
        "type": "Point",
        "coordinates": [
          -49.1336953,
          -26.5210253
        ]
      }
    },
    {
      "type": "Feature",
      "id": "node/4701419896",
      "properties": {
        "timestamp": "2020-01-26T16:28:20Z",
        "version": 4,
        "changeset": 80102426,
        "amenity": "pharmacy",
        "healthcare": "pharmacy",
        "name": "Drogaria Nereu Ramos",
        "name:pt": "Drogaria Nereu Ramos",
        "id": "node/4701419896"
      },
      "geometry": {
        "type": "Point",
        "coordinates": [
          -49.1706172,
          -26.4496363
        ]
      }
    },
    {
      "type": "Feature",
      "id": "node/4701446290",
      "properties": {
        "timestamp": "2023-10-09T11:30:32Z",
        "version": 6,
        "changeset": 142345534,
        "amenity": "pharmacy",
        "healthcare": "pharmacy",
        "name": "Farmácia Unisul",
        "name:pt": "Farmácia Unisul",
        "id": "node/4701446290"
      },
      "geometry": {
        "type": "Point",
        "coordinates": [
          -49.1078585,
          -26.4532691
        ]
      }
    },
    {
      "type": "Feature",
      "id": "node/4701446291",
      "properties": {
        "timestamp": "2022-11-22T11:03:46Z",
        "version": 7,
        "changeset": 129234006,
        "amenity": "pharmacy",
        "healthcare": "pharmacy",
        "name": "Farmácias Desconto Fácil",
        "old_name": "Farmácia Ativa",
        "id": "node/4701446291"
      },
      "geometry": {
        "type": "Point",
        "coordinates": [
          -49.1157916,
          -26.481212
        ]
      }
    },
    {
      "type": "Feature",
      "id": "node/4701446292",
      "properties": {
        "timestamp": "2020-01-26T16:28:20Z",
        "version": 4,
        "changeset": 80102426,
        "amenity": "pharmacy",
        "healthcare": "pharmacy",
        "name": "Farmavitta",
        "name:pt": "Farmavitta",
        "id": "node/4701446292"
      },
      "geometry": {
        "type": "Point",
        "coordinates": [
          -49.1143544,
          -26.4991355
        ]
      }
    },
    {
      "type": "Feature",
      "id": "node/4701446293",
      "properties": {
        "timestamp": "2020-01-26T16:28:20Z",
        "version": 4,
        "changeset": 80102426,
        "amenity": "pharmacy",
        "healthcare": "pharmacy",
        "name": "Drogaria da Barra",
        "name:pt": "Drogaria da Barra",
        "id": "node/4701446293"
      },
      "geometry": {
        "type": "Point",
        "coordinates": [
          -49.1213803,
          -26.5130827
        ]
      }
    },
    {
      "type": "Feature",
      "id": "node/4701446589",
      "properties": {
        "timestamp": "2020-01-26T16:28:20Z",
        "version": 4,
        "changeset": 80102426,
        "amenity": "pharmacy",
        "healthcare": "pharmacy",
        "name": "Farma Bem",
        "name:pt": "Farma Bem",
        "id": "node/4701446589"
      },
      "geometry": {
        "type": "Point",
        "coordinates": [
          -49.1124306,
          -26.5020918
        ]
      }
    },
    {
      "type": "Feature",
      "id": "node/4701446590",
      "properties": {
        "timestamp": "2020-01-26T16:28:20Z",
        "version": 4,
        "changeset": 80102426,
        "amenity": "pharmacy",
        "healthcare": "pharmacy",
        "name": "Masterfarma",
        "name:pt": "Masterfarma",
        "id": "node/4701446590"
      },
      "geometry": {
        "type": "Point",
        "coordinates": [
          -49.1481217,
          -26.4379921
        ]
      }
    },
    {
      "type": "Feature",
      "id": "node/5113012283",
      "properties": {
        "timestamp": "2020-01-26T16:28:20Z",
        "version": 6,
        "changeset": 80102426,
        "addr:city": "Jaraguá do Sul",
        "addr:housenumber": "311",
        "addr:street": "Rua Expedicionário Gumercindo da Silva",
        "addr:suburb": "Centro",
        "amenity": "pharmacy",
        "healthcare": "pharmacy",
        "level": "1",
        "name": "Masterfarma",
        "source": "survey",
        "survey:date": "2017-09-17",
        "id": "node/5113012283"
      },
      "geometry": {
        "type": "Point",
        "coordinates": [
          -49.0867985,
          -26.4811147
        ]
      }
    },
    {
      "type": "Feature",
      "id": "node/5192372806",
      "properties": {
        "timestamp": "2017-10-26T23:40:10Z",
        "version": 1,
        "changeset": 53277693,
        "addr:city": "Jaraguá do Sul",
        "addr:housenumber": "1990",
        "addr:street": "Rua João Planincheck",
        "addr:suburb": "Jaraguá Esquerdo",
        "amenity": "pharmacy",
        "healthcare": "pharmacy",
        "name": "Fórmula Certa",
        "opening_hours": "Mo-Fr 08:30-12:00,13:30-19:00",
        "phone": "+55 47 3371-4082",
        "source": "survey",
        "source:date": "2017-10-25",
        "id": "node/5192372806"
      },
      "geometry": {
        "type": "Point",
        "coordinates": [
          -49.090143,
          -26.4961587
        ]
      }
    },
    {
      "type": "Feature",
      "id": "node/5392739323",
      "properties": {
        "timestamp": "2020-01-26T16:28:20Z",
        "version": 4,
        "changeset": 80102426,
        "amenity": "pharmacy",
        "healthcare": "pharmacy",
        "name": "Fórmula Certa Farmácia de Manipulação",
        "phone": "+55 47 3275-2828",
        "id": "node/5392739323"
      },
      "geometry": {
        "type": "Point",
        "coordinates": [
          -49.0816523,
          -26.4801928
        ]
      }
    },
    {
      "type": "Feature",
      "id": "node/5392836121",
      "properties": {
        "timestamp": "2022-07-05T01:31:55Z",
        "version": 5,
        "changeset": 123212606,
        "addr:housenumber": "55",
        "addr:street": "Avenida Getúlio Vargas",
        "amenity": "pharmacy",
        "healthcare": "pharmacy",
        "name": "Farmácia Ultrafarma",
        "id": "node/5392836121"
      },
      "geometry": {
        "type": "Point",
        "coordinates": [
          -49.0831669,
          -26.4811109
        ]
      }
    },
    {
      "type": "Feature",
      "id": "node/5395972435",
      "properties": {
        "timestamp": "2018-02-07T15:15:39Z",
        "version": 1,
        "changeset": 56152230,
        "addr:city": "Jaraguá do Sul",
        "addr:housenumber": "240",
        "addr:street": "Avenida Marechal Deodoro da Fonseca",
        "addr:suburb": "Centro",
        "amenity": "pharmacy",
        "healthcare": "pharmacy",
        "name": "Farmácia Popular",
        "id": "node/5395972435"
      },
      "geometry": {
        "type": "Point",
        "coordinates": [
          -49.0828422,
          -26.4834495
        ]
      }
    },
    {
      "type": "Feature",
      "id": "node/5574304120",
      "properties": {
        "timestamp": "2018-04-23T18:42:10Z",
        "version": 1,
        "changeset": 58348287,
        "amenity": "pharmacy",
        "dispensing": "yes",
        "healthcare": "pharmacy",
        "id": "node/5574304120"
      },
      "geometry": {
        "type": "Point",
        "coordinates": [
          -49.084553,
          -26.4796436
        ]
      }
    },
    {
      "type": "Feature",
      "id": "node/6331495086",
      "properties": {
        "timestamp": "2021-08-25T12:43:51Z",
        "version": 4,
        "changeset": 110231099,
        "addr:postcode": "89254-700",
        "addr:street": "Rua Reinoldo Rau",
        "addr:suburb": "Centro",
        "amenity": "pharmacy",
        "dispensing": "yes",
        "healthcare": "pharmacy",
        "name": "Receituário Farmácia Magistral",
        "phone": "+55 47 3275-0764",
        "website": "https://www.receituario.com.br/",
        "id": "node/6331495086"
      },
      "geometry": {
        "type": "Point",
        "coordinates": [
          -49.0809619,
          -26.4860752
        ]
      }
    },
    {
      "type": "Feature",
      "id": "node/6331522860",
      "properties": {
        "timestamp": "2019-03-11T18:13:07Z",
        "version": 1,
        "changeset": 68033218,
        "amenity": "pharmacy",
        "dispensing": "yes",
        "healthcare": "pharmacy",
        "name": "Biodora",
        "id": "node/6331522860"
      },
      "geometry": {
        "type": "Point",
        "coordinates": [
          -49.0830429,
          -26.4906715
        ]
      }
    },
    {
      "type": "Feature",
      "id": "node/6532622439",
      "properties": {
        "timestamp": "2021-06-21T18:07:21Z",
        "version": 2,
        "changeset": 106731447,
        "amenity": "pharmacy",
        "dispensing": "yes",
        "healthcare": "pharmacy",
        "name": "Útil Farma",
        "id": "node/6532622439"
      },
      "geometry": {
        "type": "Point",
        "coordinates": [
          -49.0696248,
          -26.4825278
        ]
      }
    },
    {
      "type": "Feature",
      "id": "node/6538035727",
      "properties": {
        "timestamp": "2021-08-25T12:43:51Z",
        "version": 2,
        "changeset": 110231099,
        "amenity": "pharmacy",
        "dispensing": "yes",
        "healthcare": "pharmacy",
        "name": "Farmácia Paraná",
        "phone": "+55 47 3275-1689",
        "id": "node/6538035727"
      },
      "geometry": {
        "type": "Point",
        "coordinates": [
          -49.0834451,
          -26.4919267
        ]
      }
    },
    {
      "type": "Feature",
      "id": "node/6568447127",
      "properties": {
        "timestamp": "2021-08-25T12:43:51Z",
        "version": 2,
        "changeset": 110231099,
        "addr:city": "Jaraguá do Sul",
        "addr:housenumber": "777",
        "addr:street": "Avenida Marechal Deodoro da Fonseca",
        "amenity": "pharmacy",
        "dispensing": "yes",
        "healthcare": "pharmacy",
        "name": "Drogaria Catarinense",
        "opening_hours": "24/7",
        "phone": "+55 47 3084-5653",
        "id": "node/6568447127"
      },
      "geometry": {
        "type": "Point",
        "coordinates": [
          -49.0825555,
          -26.4882211
        ]
      }
    },
    {
      "type": "Feature",
      "id": "node/6570914189",
      "properties": {
        "timestamp": "2022-07-15T22:52:38Z",
        "version": 4,
        "changeset": 123671379,
        "amenity": "pharmacy",
        "dispensing": "yes",
        "healthcare": "pharmacy",
        "name": "Farmácia Preço Popular",
        "phone": "0800 643 3031",
        "id": "node/6570914189"
      },
      "geometry": {
        "type": "Point",
        "coordinates": [
          -49.0611767,
          -26.4912526
        ]
      }
    },
    {
      "type": "Feature",
      "id": "node/6631599139",
      "properties": {
        "timestamp": "2020-01-25T21:44:08Z",
        "version": 2,
        "changeset": 80084896,
        "addr:city": "Jaraguá do Sul",
        "addr:housenumber": "1110",
        "addr:street": "Rua Angelo Rubini",
        "addr:suburb": "Barra do Rio Cerro",
        "amenity": "pharmacy",
        "dispensing": "yes",
        "healthcare": "pharmacy",
        "name": "Preço Popular",
        "id": "node/6631599139"
      },
      "geometry": {
        "type": "Point",
        "coordinates": [
          -49.1205893,
          -26.5125683
        ]
      }
    },
    {
      "type": "Feature",
      "id": "node/6672987341",
      "properties": {
        "timestamp": "2021-12-13T16:15:23Z",
        "version": 3,
        "changeset": 114889530,
        "addr:city": "Jaraguá do Sul",
        "addr:housenumber": "220",
        "addr:street": "Rua Walter Marquardt",
        "addr:suburb": "Vila Nova",
        "amenity": "pharmacy",
        "dispensing": "yes",
        "healthcare": "pharmacy",
        "name": "Drogaria Catarinense",
        "opening_hours": "Mo-Sa 08:00-22:00; Su 10:00-22:00",
        "phone": "+55 47 3273-2292",
        "id": "node/6672987341"
      },
      "geometry": {
        "type": "Point",
        "coordinates": [
          -49.0877864,
          -26.4976351
        ]
      }
    },
    {
      "type": "Feature",
      "id": "node/7159481964",
      "properties": {
        "timestamp": "2023-08-30T21:16:13Z",
        "version": 2,
        "changeset": 140608466,
        "amenity": "pharmacy",
        "healthcare": "pharmacy",
        "name": "Droga Raia",
        "id": "node/7159481964"
      },
      "geometry": {
        "type": "Point",
        "coordinates": [
          -49.1204429,
          -26.5142946
        ]
      }
    },
    {
      "type": "Feature",
      "id": "node/8415083244",
      "properties": {
        "timestamp": "2021-02-11T13:25:44Z",
        "version": 1,
        "changeset": 99110540,
        "amenity": "pharmacy",
        "dispensing": "yes",
        "healthcare": "pharmacy",
        "id": "node/8415083244"
      },
      "geometry": {
        "type": "Point",
        "coordinates": [
          -49.0843761,
          -26.4814746
        ]
      }
    },
    {
      "type": "Feature",
      "id": "node/8968858969",
      "properties": {
        "timestamp": "2021-09-15T12:58:01Z",
        "version": 2,
        "changeset": 111244286,
        "addr:city": "Jaraguá do Sul",
        "addr:housenumber": "929",
        "addr:street": "Rua Expedicionário Antônio Carlos Ferreira",
        "addr:suburb": "Nova Brasília",
        "amenity": "pharmacy",
        "brand": "Farmácias São João",
        "brand:wikidata": "Q65164556",
        "brand:wikipedia": "pt:Farmácias São João",
        "dispensing": "yes",
        "healthcare": "pharmacy",
        "name": "Farmácias São João",
        "id": "node/8968858969"
      },
      "geometry": {
        "type": "Point",
        "coordinates": [
          -49.0927227,
          -26.4835658
        ]
      }
    },
    {
      "type": "Feature",
      "id": "node/8968866770",
      "properties": {
        "timestamp": "2022-07-14T22:26:43Z",
        "version": 4,
        "changeset": 123627921,
        "addr:city": "Jaraguá do Sul",
        "addr:housenumber": "70",
        "addr:street": "Rua 25 de Julho",
        "addr:suburb": "Vila Nova",
        "amenity": "pharmacy",
        "brand": "Farmácia São João",
        "brand:wikidata": "Q65164556",
        "brand:wikipedia": "pt:Farmácias São João",
        "dispensing": "yes",
        "healthcare": "pharmacy",
        "name": "Farmácia São João",
        "id": "node/8968866770"
      },
      "geometry": {
        "type": "Point",
        "coordinates": [
          -49.0871031,
          -26.5005179
        ]
      }
    },
    {
      "type": "Feature",
      "id": "node/9084097617",
      "properties": {
        "timestamp": "2024-09-18T16:15:47Z",
        "version": 3,
        "changeset": 156781659,
        "addr:city": "Jaraguá do Sul",
        "addr:housenumber": "60",
        "addr:street": "Rua Marechal Floriano Peixoto",
        "addr:suburb": "Centro",
        "amenity": "pharmacy",
        "healthcare": "pharmacy",
        "name": "Farmácia Básica Central",
        "id": "node/9084097617"
      },
      "geometry": {
        "type": "Point",
        "coordinates": [
          -49.0818232,
          -26.4812747
        ]
      }
    },
    {
      "type": "Feature",
      "id": "node/9240769461",
      "properties": {
        "timestamp": "2021-11-10T14:59:16Z",
        "version": 1,
        "changeset": 113612299,
        "addr:housenumber": "655",
        "addr:street": "Rua Presidente Epitácio Pessoa",
        "amenity": "pharmacy",
        "healthcare": "pharmacy",
        "name": "Farmácia Magna",
        "id": "node/9240769461"
      },
      "geometry": {
        "type": "Point",
        "coordinates": [
          -49.1034681,
          -26.4779633
        ]
      }
    },
    {
      "type": "Feature",
      "id": "node/9353197494",
      "properties": {
        "timestamp": "2022-07-15T17:14:55Z",
        "version": 2,
        "changeset": 123662503,
        "amenity": "pharmacy",
        "dispensing": "yes",
        "healthcare": "pharmacy",
        "name": "Farmalenzi",
        "id": "node/9353197494"
      },
      "geometry": {
        "type": "Point",
        "coordinates": [
          -49.1016558,
          -26.4822845
        ]
      }
    },
    {
      "type": "Feature",
      "id": "node/11267076715",
      "properties": {
        "timestamp": "2023-10-16T14:52:32Z",
        "version": 1,
        "changeset": 142670271,
        "amenity": "pharmacy",
        "healthcare": "pharmacy",
        "name": "Unifarma",
        "id": "node/11267076715"
      },
      "geometry": {
        "type": "Point",
        "coordinates": [
          -49.0701579,
          -26.4820764
        ]
      }
    }
  ]
}
