{
  "type": "FeatureCollection",
  "features": [
    {
      "type": "Feature",
      "id": "way/919771926",
      "properties": {
        "timestamp": "2021-03-20T17:21:34Z",
        "version": 1,
        "changeset": 101400620,
        "addr:city": "Morungaba",
        "addr:postcode": "13260-000",
        "addr:street": "R. Luiza Gorete Frare Nascimento",
        "addr:suburb": "Jardim Amélia",
        "amenity": "clinic",
        "building": "yes",
        "healthcare": "clinic",
        "healthcare:speciality": "paediatrics",
        "name": "Unidade Básica de Saúde Amélia Stranieri Frare",
        "opening_hours": "Mo-Fr 07:00-16:00",
        "id": "way/919771926"
      },
      "geometry": {
        "type": "Polygon",
        "coordinates": [
          [
            [
              -46.7939306,
              -22.8671038
            ],
            [
              -46.7937743,
              -22.8669388
            ],
            [
              -46.7938828,
              -22.8668592
            ],
            [
              -46.7940996,
              -22.8671052
            ],
            [
              -46.7940467,
              -22.8671403
            ],
            [
              -46.7939792,
              -22.8670719
            ],
            [
              -46.7939306,
              -22.8671038
            ]
          ]
        ]
      }
    }
  ]
}
