{
  "type": "FeatureCollection",
  "features": [
    {
      "type": "Feature",
      "id": "way/1033342912",
      "properties": {
        "timestamp": "2022-02-19T21:23:03Z",
        "version": 1,
        "changeset": 117619987,
        "addr:city": "Aliança do Tocantins",
        "addr:postcode": "77455-000",
        "addr:street": "Rua 3",
        "addr:suburb": "Jardim Aliança",
        "amenity": "school",
        "name": "Colegio Estadual Anita Cassimiro Moreno",
        "phone": "+55 63 3377 1340",
        "id": "way/1033342912"
      },
      "geometry": {
        "type": "Polygon",
        "coordinates": [
          [
            [
              -48.9468478,
              -11.3057824
            ],
            [
              -48.9469202,
              -11.3062979
            ],
            [
              -48.9461987,
              -11.3064715
            ],
            [
              -48.9460994,
              -11.3059192
            ],
            [
              -48.9468478,
              -11.3057824
            ]
          ]
        ]
      }
    },
    {
      "type": "Feature",
      "id": "way/1033343041",
      "properties": {
        "timestamp": "2022-02-19T21:24:51Z",
        "version": 1,
        "changeset": 117620021,
        "addr:city": "Aliança do Tocantins",
        "addr:postcode": "77455-000",
        "addr:street": "Rua 111",
        "addr:suburb": "Jardim Aliança",
        "amenity": "school",
        "name": "Educandario Evangelico Jerusalem",
        "phone": "+55 63 3377 1728",
        "id": "way/1033343041"
      },
      "geometry": {
        "type": "Polygon",
        "coordinates": [
          [
            [
              -48.947808,
              -11.3025236
            ],
            [
              -48.9477624,
              -11.3027761
            ],
            [
              -48.9471723,
              -11.3028603
            ],
            [
              -48.9470677,
              -11.3022843
            ],
            [
              -48.947808,
              -11.3025236
            ]
          ]
        ]
      }
    },
    {
      "type": "Feature",
      "id": "way/1033343156",
      "properties": {
        "timestamp": "2022-02-19T21:25:43Z",
        "version": 1,
        "changeset": 117620046,
        "addr:city": "Aliança do Tocantins",
        "addr:housenumber": "45",
        "addr:postcode": "77455-000",
        "addr:street": "Rua das Bandeiras",
        "addr:suburb": "Centro",
        "amenity": "school",
        "name": "Escola Mun Duque De Caxias",
        "phone": "+55 63 3377 1114",
        "id": "way/1033343156"
      },
      "geometry": {
        "type": "Polygon",
        "coordinates": [
          [
            [
              -48.9387797,
              -11.3030576
            ],
            [
              -48.9389299,
              -11.3036783
            ],
            [
              -48.9382701,
              -11.3039071
            ],
            [
              -48.9381628,
              -11.3031838
            ],
            [
              -48.9386134,
              -11.3030102
            ],
            [
              -48.9387797,
              -11.3030576
            ]
          ]
        ]
      }
    },
    {
      "type": "Feature",
      "id": "way/1033343219",
      "properties": {
        "timestamp": "2022-02-19T21:26:51Z",
        "version": 1,
        "changeset": 117620070,
        "addr:city": "Aliança do Tocantins",
        "addr:postcode": "77455-000",
        "addr:street": "Avenida Aliança",
        "addr:suburb": "Jardim dos Buritis",
        "amenity": "school",
        "name": "Escola Estadual Nossa Senhora Do Carmo",
        "phone": "+55 63 3377 1144",
        "id": "way/1033343219"
      },
      "geometry": {
        "type": "Polygon",
        "coordinates": [
          [
            [
              -48.9337827,
              -11.3021528
            ],
            [
              -48.9337237,
              -11.3028156
            ],
            [
              -48.9330746,
              -11.3025815
            ],
            [
              -48.9331444,
              -11.3020344
            ],
            [
              -48.9337827,
              -11.3021528
            ]
          ]
        ]
      }
    },
    {
      "type": "Feature",
      "id": "way/1033343732",
      "properties": {
        "timestamp": "2022-02-19T21:28:56Z",
        "version": 1,
        "changeset": 117620120,
        "addr:city": "Aliança do Tocantins",
        "addr:postcode": "77455-000",
        "addr:street": "Rua 3",
        "amenity": "school",
        "name": "Associacao De Apoio Escola Especial Amor Fraternal",
        "phone": "+55 63 3377 1250",
        "id": "way/1033343732"
      },
      "geometry": {
        "type": "Polygon",
        "coordinates": [
          [
            [
              -48.9325623,
              -11.304754
            ],
            [
              -48.932445,
              -11.3056534
            ],
            [
              -48.9319261,
              -11.3055274
            ],
            [
              -48.9321814,
              -11.3046331
            ],
            [
              -48.9325623,
              -11.304754
            ]
          ]
        ]
      }
    },
    {
      "type": "Feature",
      "id": "way/1033343869",
      "properties": {
        "timestamp": "2022-02-19T21:29:43Z",
        "version": 1,
        "changeset": 117620142,
        "addr:city": "Aliança do Tocantins",
        "addr:postcode": "77455-000",
        "addr:street": "Rua 3",
        "amenity": "school",
        "name": "Centro Municipal De Educacao Infantil Crianca Feliz",
        "phone": "+55 63 3377 1662",
        "id": "way/1033343869"
      },
      "geometry": {
        "type": "Polygon",
        "coordinates": [
          [
            [
              -48.9325652,
              -11.3056826
            ],
            [
              -48.9324791,
              -11.3060237
            ],
            [
              -48.9318399,
              -11.3058683
            ],
            [
              -48.9319261,
              -11.3055274
            ],
            [
              -48.932445,
              -11.3056534
            ],
            [
              -48.9325652,
              -11.3056826
            ]
          ]
        ]
      }
    }
  ]
}
