{
  "type": "FeatureCollection",
  "features": [
    {
      "type": "Feature",
      "id": "node/4469923090",
      "properties": {
        "timestamp": "2016-10-29T12:30:47Z",
        "version": 1,
        "changeset": 43264875,
        "addr:housenumber": "45620000",
        "addr:street": "RUA ONÓRIO GOÉS",
        "amenity": "clinic",
        "name": "Posto de saúde unidade Sebastião Oliva",
        "id": "node/4469923090"
      },
      "geometry": {
        "type": "Point",
        "coordinates": [
          -39.3370583,
          -15.0820523
        ]
      }
    },
    {
      "type": "Feature",
      "id": "node/4532608390",
      "properties": {
        "timestamp": "2017-01-17T15:30:56Z",
        "version": 3,
        "changeset": 45245685,
        "addr:street": "ACM",
        "amenity": "clinic",
        "name": "Posto médico",
        "name:pt": "Posto médico",
        "id": "node/4532608390"
      },
      "geometry": {
        "type": "Point",
        "coordinates": [
          -39.335091,
          -15.0767213
        ]
      }
    }
  ]
}
