{
  "type": "FeatureCollection",
  "features": [
    {
      "type": "Feature",
      "id": "node/5750285521",
      "properties": {
        "timestamp": "2019-05-23T17:51:31Z",
        "version": 2,
        "changeset": 70560964,
        "addr:street": "Praca maconica",
        "amenity": "pharmacy",
        "healthcare": "pharmacy",
        "name": "Drogaria silva nascimento farmacia betel",
        "id": "node/5750285521"
      },
      "geometry": {
        "type": "Point",
        "coordinates": [
          -38.9471973,
          -15.6710331
        ]
      }
    },
    {
      "type": "Feature",
      "id": "node/10562785409",
      "properties": {
        "timestamp": "2023-01-17T17:41:37Z",
        "version": 2,
        "changeset": 131390264,
        "addr:city": "Canavieiras",
        "addr:housenumber": "751",
        "addr:postcode": "45860-000",
        "addr:street": "Avenida Professora Assis Gonçalves",
        "addr:suburb": "Centro",
        "amenity": "pharmacy",
        "contact:facebook": "farmaciasbetel",
        "contact:instagram": "farmaciasbeteloficial",
        "dispensing": "yes",
        "drive_through": "no",
        "email": "farmaciabetel01@gmail.com",
        "healthcare": "pharmacy",
        "name": "Farmácia Betel Matriz",
        "name:en": "Betel Drugstore",
        "opening_hours": "Mo-Su 07:00-22:00",
        "operator": "Rede Betel",
        "id": "node/10562785409"
      },
      "geometry": {
        "type": "Point",
        "coordinates": [
          -38.9492842,
          -15.6780577
        ]
      }
    },
    {
      "type": "Feature",
      "id": "node/10562878109",
      "properties": {
        "timestamp": "2023-01-17T17:41:37Z",
        "version": 2,
        "changeset": 131390264,
        "addr:city": "Canavieiras",
        "addr:housenumber": "580",
        "addr:postcode": "45860-000",
        "addr:street": "Avenida Barão do Rio Branco",
        "addr:suburb": "Centro",
        "amenity": "pharmacy",
        "branch": "Rede Betel",
        "contact:facebook": "farmaciasbetel",
        "contact:instagram": "farmaciasbeteloficial",
        "dispensing": "yes",
        "drive_through": "no",
        "email": "farmaciabetel03@gmail.com",
        "healthcare": "pharmacy",
        "name": "Farmácia Betel 3",
        "opening_hours": "Mo-Su 07:00-22:00",
        "operator": "Rede Betel",
        "id": "node/10562878109"
      },
      "geometry": {
        "type": "Point",
        "coordinates": [
          -38.9476814,
          -15.6776052
        ]
      }
    }
  ]
}
