{
  "type": "FeatureCollection",
  "features": [
    {
      "type": "Feature",
      "id": "way/431214841",
      "properties": {
        "timestamp": "2024-11-17T02:50:07Z",
        "version": 5,
        "changeset": 159228056,
        "addr:city": "Porto Belo",
        "addr:housenumber": "227",
        "addr:postcode": "89210-000",
        "addr:street": "Rua Artur Guerreiro",
        "addr:suburb": "Perequê",
        "building": "yes",
        "contact:phone": "+55 47 3267-0090",
        "contact:website": "http://www.viamar.net.br/",
        "name": "Residencial Maravilha",
        "operator": "Viamar",
        "tourism": "hotel",
        "id": "way/431214841"
      },
      "geometry": {
        "type": "Polygon",
        "coordinates": [
          [
            [
              -48.5697745,
              -27.158763
            ],
            [
              -48.5695804,
              -27.1589967
            ],
            [
              -48.5694532,
              -27.1589131
            ],
            [
              -48.5696473,
              -27.1586794
            ],
            [
              -48.5697745,
              -27.158763
            ]
          ]
        ]
      }
    },
    {
      "type": "Feature",
      "id": "way/527597841",
      "properties": {
        "timestamp": "2024-11-16T06:20:03Z",
        "version": 4,
        "changeset": 159195342,
        "addr:city": "Porto Belo",
        "addr:housenumber": "167",
        "addr:postcode": "88210-000",
        "addr:street": "Rua Pompílio Barbosa da Silva",
        "addr:suburb": "Balneário Perequê",
        "building": "yes",
        "name": "Residencial Estrela do Mar",
        "operator": "Viamar",
        "tourism": "hotel",
        "website": "https://www.viamar.net.br/",
        "id": "way/527597841"
      },
      "geometry": {
        "type": "Polygon",
        "coordinates": [
          [
            [
              -48.5793263,
              -27.1550621
            ],
            [
              -48.5795398,
              -27.1549231
            ],
            [
              -48.5795935,
              -27.1549884
            ],
            [
              -48.5794187,
              -27.1551022
            ],
            [
              -48.5793799,
              -27.1551274
            ],
            [
              -48.5793263,
              -27.1550621
            ]
          ]
        ]
      }
    },
    {
      "type": "Feature",
      "id": "way/531148442",
      "properties": {
        "timestamp": "2024-11-23T14:40:25Z",
        "version": 4,
        "changeset": 159502820,
        "addr:city": "Porto Belo",
        "addr:housenumber": "400",
        "addr:postcode": "88210-000",
        "addr:street": "Rua Flávia Verônica Martinelli",
        "addr:suburb": "Araçá",
        "email": "reservas@refugiodoestaleiro.com.br",
        "leisure": "resort",
        "name": "Resort Refúgio do Estaleiro",
        "opening_hours": "24/7",
        "tourism": "hotel",
        "id": "way/531148442"
      },
      "geometry": {
        "type": "Polygon",
        "coordinates": [
          [
            [
              -48.5100652,
              -27.1162985
            ],
            [
              -48.5100652,
              -27.1161754
            ],
            [
              -48.5102671,
              -27.1159013
            ],
            [
              -48.5105552,
              -27.1157384
            ],
            [
              -48.5115953,
              -27.1155405
            ],
            [
              -48.5118229,
              -27.1162018
            ],
            [
              -48.5130006,
              -27.1176843
            ],
            [
              -48.5122202,
              -27.1183271
            ],
            [
              -48.5114898,
              -27.1184146
            ],
            [
              -48.5113402,
              -27.1180914
            ],
            [
              -48.5112748,
              -27.117971
            ],
            [
              -48.5111075,
              -27.1177275
            ],
            [
              -48.511031,
              -27.1176456
            ],
            [
              -48.5108274,
              -27.1174999
            ],
            [
              -48.5107243,
              -27.1174092
            ],
            [
              -48.5106472,
              -27.1172888
            ],
            [
              -48.5105962,
              -27.1171579
            ],
            [
              -48.5106049,
              -27.1170439
            ],
            [
              -48.5105952,
              -27.1168866
            ],
            [
              -48.5104808,
              -27.1166895
            ],
            [
              -48.5100652,
              -27.1162985
            ]
          ]
        ]
      }
    }
  ]
}
