{
  "type": "FeatureCollection",
  "features": [
    {
      "type": "Feature",
      "id": "node/7761400707",
      "properties": {
        "timestamp": "2024-11-16T06:20:03Z",
        "version": 4,
        "changeset": 159195342,
        "access": "yes",
        "addr:city": "Porto Belo",
        "addr:housenumber": "137",
        "addr:postcode": "89210-000",
        "addr:street": "Rua Iara de Araújo Miranda",
        "addr:suburb": "Balneário Perequê",
        "amenity": "social_facility",
        "name": "Centro de Referência de Assistência Social Moacir João Pedro (Muka)",
        "operator": "Governo do Estado de Santa Catarina",
        "operator:type": "public",
        "short_name": "CRAS Moacir João Pedro (Muka)",
        "social_facility": "outreach",
        "social_facility:for": "underprivileged",
        "id": "node/7761400707"
      },
      "geometry": {
        "type": "Point",
        "coordinates": [
          -48.5850531,
          -27.1502871
        ]
      }
    }
  ]
}
