{
  "type": "FeatureCollection",
  "features": [
    {
      "type": "Feature",
      "id": "node/9895144427",
      "properties": {
        "timestamp": "2022-07-22T00:37:23Z",
        "version": 2,
        "changeset": 123915282,
        "addr:city": "Ataléia",
        "addr:postcode": "39850-000",
        "addr:street": "Rua Governador Valadares",
        "addr:suburb": "Centro",
        "email": "ataleia@emater.mg.gov.br",
        "government": "administrative",
        "name": "Empresa de Assistência Técnica e Extensão Rural do Estado de Minas Gerais - Emater-MG",
        "office": "government",
        "phone": "+55 33 3526 1413",
        "website": "https://www.emater.mg.gov.br/",
        "id": "node/9895144427"
      },
      "geometry": {
        "type": "Point",
        "coordinates": [
          -41.1109148,
          -18.0432012
        ]
      }
    },
    {
      "type": "Feature",
      "id": "node/9895144428",
      "properties": {
        "timestamp": "2022-07-18T12:22:53Z",
        "version": 1,
        "changeset": 123762048,
        "addr:city": "Ataléia",
        "addr:housenumber": "230",
        "addr:postcode": "39850-000",
        "addr:street": "Rua Itambacuri",
        "addr:suburb": "Centro",
        "email": "ataleia@ima.mg.gov.br",
        "government": "administrative",
        "name": "Instituto Mineiro de Agropecuária - Ima",
        "office": "government",
        "phone": "+55 33 3526 1498",
        "website": "http://www.ima.mg.gov.br/",
        "id": "node/9895144428"
      },
      "geometry": {
        "type": "Point",
        "coordinates": [
          -41.1095764,
          -18.0433628
        ]
      }
    },
    {
      "type": "Feature",
      "id": "node/9897661828",
      "properties": {
        "timestamp": "2022-07-20T12:42:40Z",
        "version": 2,
        "changeset": 123850057,
        "addr:city": "Ataléia",
        "addr:housenumber": "46",
        "addr:postcode": "39850-000",
        "addr:street": "Rua Teófilo Otoni",
        "addr:suburb": "Centro",
        "government": "register_office",
        "mobile": "+55 33 98853 0142",
        "name": "Cartório de Registro Civil e Notas de Ataléia-MG",
        "office": "government",
        "phone": "+55 33 3522 2194",
        "id": "node/9897661828"
      },
      "geometry": {
        "type": "Point",
        "coordinates": [
          -41.1108175,
          -18.0448278
        ]
      }
    },
    {
      "type": "Feature",
      "id": "node/9903992282",
      "properties": {
        "timestamp": "2022-07-22T14:31:02Z",
        "version": 3,
        "changeset": 123942639,
        "addr:city": "Ataléia",
        "addr:housenumber": "66",
        "addr:postcode": "39850-000",
        "addr:street": "Rua João José de Almeida",
        "addr:suburb": "Acari",
        "email": "saude@ataleia.mg.gov.br",
        "government": "administrative",
        "name": "Secretaria Municipal de Saúde de Ataléia",
        "office": "government",
        "operator": "Município de Ataléia",
        "operator:type": "government",
        "phone": "+55 33 98832 9021",
        "id": "node/9903992282"
      },
      "geometry": {
        "type": "Point",
        "coordinates": [
          -41.1079161,
          -18.0375588
        ]
      }
    },
    {
      "type": "Feature",
      "id": "node/9903992284",
      "properties": {
        "timestamp": "2022-07-22T12:14:42Z",
        "version": 1,
        "changeset": 123936850,
        "addr:city": "Ataléia",
        "addr:housenumber": "241",
        "addr:postcode": "39850-000",
        "addr:street": "Rua Itambacuri",
        "addr:suburb": "Centro",
        "email": "smeataleia@hotmail.com",
        "government": "administrative",
        "name": "Secretaria Municipal de Educação, Cultura e Esporte",
        "office": "government",
        "phone": "+55 33 98808 2191",
        "id": "node/9903992284"
      },
      "geometry": {
        "type": "Point",
        "coordinates": [
          -41.1095859,
          -18.0434635
        ]
      }
    }
  ]
}
