{
  "type": "FeatureCollection",
  "features": [
    {
      "type": "Feature",
      "id": "node/9902522820",
      "properties": {
        "timestamp": "2022-07-21T19:18:28Z",
        "version": 1,
        "changeset": 123906714,
        "addr:city": "Ataléia",
        "addr:housenumber": "76",
        "addr:postcode": "39850-000",
        "addr:street": "Rua Governador Valadares",
        "addr:suburb": "Centro",
        "amenity": "pharmacy",
        "dispensing": "yes",
        "name": "Drogaria Ataléia",
        "operator": "Drogaria Rodoviaria Limitada",
        "id": "node/9902522820"
      },
      "geometry": {
        "type": "Point",
        "coordinates": [
          -41.1108616,
          -18.0437067
        ]
      }
    },
    {
      "type": "Feature",
      "id": "node/9904278025",
      "properties": {
        "timestamp": "2022-07-22T14:31:02Z",
        "version": 1,
        "changeset": 123942639,
        "addr:city": "Ataléia",
        "addr:housenumber": "132",
        "addr:postcode": "39850-000",
        "addr:street": "Rua Governador Valadares",
        "addr:suburb": "Centro",
        "amenity": "pharmacy",
        "name": "Drogaria Mais Saúde",
        "operator": "Drogaria Familia Mais Saúde Limitada",
        "id": "node/9904278025"
      },
      "geometry": {
        "type": "Point",
        "coordinates": [
          -41.1109257,
          -18.0431153
        ]
      }
    },
    {
      "type": "Feature",
      "id": "node/9904278026",
      "properties": {
        "timestamp": "2022-07-22T14:31:02Z",
        "version": 1,
        "changeset": 123942639,
        "addr:city": "Ataléia",
        "addr:housenumber": "131",
        "addr:postcode": "39850-000",
        "addr:street": "Rua Governador Valadares",
        "addr:suburb": "Centro",
        "amenity": "pharmacy",
        "name": "Drogaria Bom Jeus",
        "operator": "Drogaria Vieira Santos Comércio Varejista de Produtos Farmacêuticos Limitada",
        "id": "node/9904278026"
      },
      "geometry": {
        "type": "Point",
        "coordinates": [
          -41.1110055,
          -18.043151
        ]
      }
    },
    {
      "type": "Feature",
      "id": "node/9904738198",
      "properties": {
        "timestamp": "2022-07-22T19:12:15Z",
        "version": 1,
        "changeset": 123952900,
        "addr:city": "Ataléia",
        "addr:housenumber": "163",
        "addr:postcode": "39850-000",
        "addr:street": "Rua Governador Valadares",
        "addr:suburb": "Centro",
        "amenity": "pharmacy",
        "dispensing": "yes",
        "healthcare": "pharmacy",
        "name": "Drogafarma",
        "operator": "Drogafarma Vieira Limitada",
        "id": "node/9904738198"
      },
      "geometry": {
        "type": "Point",
        "coordinates": [
          -41.1110282,
          -18.0427714
        ]
      }
    },
    {
      "type": "Feature",
      "id": "node/9917180601",
      "properties": {
        "timestamp": "2022-07-28T14:27:47Z",
        "version": 1,
        "changeset": 124189805,
        "addr:city": "Ataléia",
        "addr:housenumber": "207",
        "addr:postcode": "39850-000",
        "addr:street": "Rua Governador Valadares",
        "addr:suburb": "Centro",
        "amenity": "pharmacy",
        "name": "Drogaria Aguiar",
        "operator": "Drogaria Santos & Aguiar Limitada",
        "id": "node/9917180601"
      },
      "geometry": {
        "type": "Point",
        "coordinates": [
          -41.1110591,
          -18.0424018
        ]
      }
    }
  ]
}
