{
  "type": "FeatureCollection",
  "features": [
    {
      "type": "Feature",
      "id": "way/488962926",
      "properties": {
        "timestamp": "2022-07-09T02:22:43Z",
        "version": 2,
        "changeset": 123385896,
        "addr:city": "Ataléia",
        "addr:housenumber": "01",
        "addr:postcode": "39850-000",
        "addr:street": "Rua João Machado",
        "addr:suburb": "Tipiti",
        "amenity": "school",
        "name": "Escola Municipal Duque de Caxias",
        "id": "way/488962926"
      },
      "geometry": {
        "type": "Polygon",
        "coordinates": [
          [
            [
              -41.2364958,
              -18.4210274
            ],
            [
              -41.2366919,
              -18.4213787
            ],
            [
              -41.2360185,
              -18.4215196
            ],
            [
              -41.2360049,
              -18.421097
            ],
            [
              -41.2364958,
              -18.4210274
            ]
          ]
        ]
      }
    },
    {
      "type": "Feature",
      "id": "way/1076405590",
      "properties": {
        "timestamp": "2022-07-06T18:34:26Z",
        "version": 1,
        "changeset": 123288931,
        "addr:city": "Ataléia",
        "addr:housenumber": "220",
        "addr:postcode": "39850-000",
        "addr:street": "Rua Frei Gaspar",
        "addr:suburb": "Fidelândia",
        "amenity": "school",
        "name": "Escola Estadual Daniel Pereira Otoni",
        "id": "way/1076405590"
      },
      "geometry": {
        "type": "Polygon",
        "coordinates": [
          [
            [
              -41.2382353,
              -18.1946922
            ],
            [
              -41.237958,
              -18.1949614
            ],
            [
              -41.237656,
              -18.1947507
            ],
            [
              -41.2379025,
              -18.1944316
            ],
            [
              -41.2382353,
              -18.1946922
            ]
          ]
        ]
      }
    },
    {
      "type": "Feature",
      "id": "way/1078021809",
      "properties": {
        "timestamp": "2022-07-12T18:07:52Z",
        "version": 1,
        "changeset": 123531483,
        "addr:city": "Ataléia",
        "addr:district": "Novo Horizonte",
        "addr:postcode": "39850-000",
        "addr:state": "Minas Gerais",
        "amenity": "school",
        "name": "Escola Estadual de Novo Horizonte",
        "id": "way/1078021809"
      },
      "geometry": {
        "type": "Polygon",
        "coordinates": [
          [
            [
              -41.1446826,
              -18.2956551
            ],
            [
              -41.1447108,
              -18.2961568
            ],
            [
              -41.1442937,
              -18.2961937
            ],
            [
              -41.1441891,
              -18.2957035
            ],
            [
              -41.1446826,
              -18.2956551
            ]
          ]
        ]
      }
    },
    {
      "type": "Feature",
      "id": "way/1078892330",
      "properties": {
        "timestamp": "2022-07-15T19:22:19Z",
        "version": 1,
        "changeset": 123666459,
        "addr:city": "Ataléia",
        "addr:housenumber": "576",
        "addr:postcode": "39850-000",
        "addr:street": "Rua Professor Álvaro Pires",
        "addr:suburb": "Acari",
        "amenity": "school",
        "name": "Escola Estadual Professora Herminia Pereira Almeida",
        "operator": "Secretaria de Educação do Estado de Minas Gerais",
        "operator:type": "public",
        "id": "way/1078892330"
      },
      "geometry": {
        "type": "Polygon",
        "coordinates": [
          [
            [
              -41.1063239,
              -18.0380403
            ],
            [
              -41.1059204,
              -18.0387167
            ],
            [
              -41.1055382,
              -18.0385619
            ],
            [
              -41.1057895,
              -18.0377643
            ],
            [
              -41.1063239,
              -18.0380403
            ]
          ]
        ]
      }
    },
    {
      "type": "Feature",
      "id": "way/1078892334",
      "properties": {
        "timestamp": "2022-07-21T19:18:28Z",
        "version": 3,
        "changeset": 123906714,
        "addr:city": "Ataléia",
        "addr:housenumber": "652",
        "addr:postcode": "39850-000",
        "addr:street": "Avenida do Contorno",
        "addr:suburb": "Cidade Nova",
        "amenity": "school",
        "name": "Escola Estadual Prefeito Clemente Esteves Ferraz",
        "operator": "Secretaria de Educação do Estado de Minas Gerais",
        "operator:type": "public",
        "id": "way/1078892334"
      },
      "geometry": {
        "type": "Polygon",
        "coordinates": [
          [
            [
              -41.113763,
              -18.0452775
            ],
            [
              -41.1144336,
              -18.0461773
            ],
            [
              -41.1140583,
              -18.0462371
            ],
            [
              -41.1134589,
              -18.0459942
            ],
            [
              -41.1131406,
              -18.0455558
            ],
            [
              -41.1127216,
              -18.0447824
            ],
            [
              -41.1127986,
              -18.0446857
            ],
            [
              -41.113014,
              -18.0445718
            ],
            [
              -41.1132854,
              -18.0444338
            ],
            [
              -41.113763,
              -18.0452775
            ]
          ]
        ]
      }
    },
    {
      "type": "Feature",
      "id": "way/1078892341",
      "properties": {
        "timestamp": "2022-07-15T19:22:19Z",
        "version": 1,
        "changeset": 123666459,
        "addr:city": "Ataléia",
        "addr:housenumber": "24",
        "addr:postcode": "39850-000",
        "addr:street": "Rua Carlos Chagas",
        "addr:suburb": "Cidade Nova",
        "amenity": "school",
        "name": "Escola Estadual Doutor Antonio Olinto",
        "id": "way/1078892341"
      },
      "geometry": {
        "type": "Polygon",
        "coordinates": [
          [
            [
              -41.1163626,
              -18.0465869
            ],
            [
              -41.1164086,
              -18.0469066
            ],
            [
              -41.1158246,
              -18.0470025
            ],
            [
              -41.1158299,
              -18.0466895
            ],
            [
              -41.1163626,
              -18.0465869
            ]
          ]
        ]
      }
    },
    {
      "type": "Feature",
      "id": "way/1078892342",
      "properties": {
        "timestamp": "2022-07-19T12:58:30Z",
        "version": 2,
        "changeset": 123807526,
        "addr:city": "Ataléia",
        "addr:housenumber": "245",
        "addr:postcode": "39850-000",
        "addr:street": "Rua Rio Branco",
        "addr:suburb": "Cidade Nova",
        "amenity": "school",
        "name": "Escola Estadual Professora Alnêda de Matos Machado",
        "id": "way/1078892342"
      },
      "geometry": {
        "type": "Polygon",
        "coordinates": [
          [
            [
              -41.1172728,
              -18.0469515
            ],
            [
              -41.1168476,
              -18.0470188
            ],
            [
              -41.1167891,
              -18.0465501
            ],
            [
              -41.1171619,
              -18.0464769
            ],
            [
              -41.1172728,
              -18.0469515
            ]
          ]
        ]
      }
    },
    {
      "type": "Feature",
      "id": "node/9902522823",
      "properties": {
        "timestamp": "2022-07-21T19:18:28Z",
        "version": 1,
        "changeset": 123906714,
        "entrance": "yes",
        "id": "node/9902522823"
      },
      "geometry": {
        "type": "Point",
        "coordinates": [
          -41.113014,
          -18.0445718
        ]
      }
    }
  ]
}
