{
  "type": "FeatureCollection",
  "features": [
    {
      "type": "Feature",
      "id": "way/502138705",
      "properties": {
        "timestamp": "2021-05-10T05:58:07Z",
        "version": 2,
        "changeset": 104423928,
        "addr:city": "Guarapuava",
        "addr:street": "Avenida Prefeito Moacir Júlio Silvestre",
        "addr:suburb": "Vila Bela",
        "amenity": "clinic",
        "building": "yes",
        "healthcare": "clinic",
        "name": "Posto de Saúde Vila Bela",
        "id": "way/502138705"
      },
      "geometry": {
        "type": "Polygon",
        "coordinates": [
          [
            [
              -51.4949854,
              -25.3926498
            ],
            [
              -51.4949935,
              -25.3929866
            ],
            [
              -51.4946127,
              -25.393019
            ],
            [
              -51.4945941,
              -25.3926899
            ],
            [
              -51.4949854,
              -25.3926498
            ]
          ]
        ]
      }
    },
    {
      "type": "Feature",
      "id": "way/571042502",
      "properties": {
        "timestamp": "2018-03-19T16:09:57Z",
        "version": 1,
        "changeset": 57322851,
        "addr:city": "Guarapuava",
        "addr:street": "Avenida Salvador Gomes",
        "addr:suburb": "Planalto",
        "amenity": "clinic",
        "building": "yes",
        "healthcare": "clinic",
        "id": "way/571042502"
      },
      "geometry": {
        "type": "Polygon",
        "coordinates": [
          [
            [
              -51.4957986,
              -25.409567
            ],
            [
              -51.4960376,
              -25.4095254
            ],
            [
              -51.4960755,
              -25.4097029
            ],
            [
              -51.4959656,
              -25.409722
            ],
            [
              -51.4959523,
              -25.4096593
            ],
            [
              -51.4958231,
              -25.4096818
            ],
            [
              -51.4957986,
              -25.409567
            ]
          ]
        ]
      }
    },
    {
      "type": "Feature",
      "id": "way/626222999",
      "properties": {
        "timestamp": "2022-04-16T22:55:02Z",
        "version": 2,
        "changeset": 119800700,
        "addr:city": "Guarapuava",
        "addr:postcode": "85015080",
        "addr:street": "Avenida Vereador Rubem Siqueira Ribas",
        "addr:suburb": "Santa Cruz",
        "amenity": "clinic",
        "building": "yes",
        "healthcare": "clinic",
        "id": "way/626222999"
      },
      "geometry": {
        "type": "Polygon",
        "coordinates": [
          [
            [
              -51.4633004,
              -25.4107796
            ],
            [
              -51.4635632,
              -25.41069
            ],
            [
              -51.4636196,
              -25.4107893
            ],
            [
              -51.4636973,
              -25.4109225
            ],
            [
              -51.4634023,
              -25.4110582
            ],
            [
              -51.4633004,
              -25.4107796
            ]
          ]
        ]
      }
    },
    {
      "type": "Feature",
      "id": "way/1163458016",
      "properties": {
        "timestamp": "2023-04-17T19:00:29Z",
        "version": 1,
        "changeset": 135028697,
        "amenity": "clinic",
        "building": "yes",
        "healthcare": "clinic",
        "id": "way/1163458016"
      },
      "geometry": {
        "type": "Polygon",
        "coordinates": [
          [
            [
              -51.5207671,
              -25.3970034
            ],
            [
              -51.5209061,
              -25.3970681
            ],
            [
              -51.5208125,
              -25.397232
            ],
            [
              -51.5206735,
              -25.3971673
            ],
            [
              -51.5207671,
              -25.3970034
            ]
          ]
        ]
      }
    },
    {
      "type": "Feature",
      "id": "node/6370497387",
      "properties": {
        "timestamp": "2022-07-30T14:14:39Z",
        "version": 4,
        "changeset": 124270087,
        "addr:housenumber": "1812",
        "addr:postcode": "85010-130",
        "addr:street": "Rua Coronel Saldanha",
        "amenity": "clinic",
        "healthcare": "clinic",
        "internet_access": "wlan",
        "name": "Instituto de Olhos",
        "opening_hours": "Mo-Fr 09:00-18:00",
        "phone": "+55 42 3621 7777",
        "id": "node/6370497387"
      },
      "geometry": {
        "type": "Point",
        "coordinates": [
          -51.4623705,
          -25.3931878
        ]
      }
    },
    {
      "type": "Feature",
      "id": "node/10690036573",
      "properties": {
        "timestamp": "2023-02-24T07:00:21Z",
        "version": 1,
        "changeset": 132953877,
        "addr:city": "Guarapuava",
        "addr:housenumber": "800",
        "addr:postcode": "85010290",
        "addr:street": "Rua Saldanha Marinho",
        "addr:suburb": "Trianon",
        "amenity": "clinic",
        "description": "Clínica de Estética Avançada, Especializada em Harmonização Facial, Rejuvenescimento , Estética Corporal, Emagrecimento, Saúde & Beleza, Cuidados Pós-Operatórios de Cirurgia Plástica, Massagens.\nLifting Facial, Botox, Peeling, Ultrassom Microfocado e Macr",
        "email": "dra.anacalgaroto@gmail.com",
        "healthcare": "clinic",
        "name": "Dra. Ana Calgaroto Estética Avançada",
        "opening_hours": "Mo-Sa 08:00-18:00",
        "wheelchair": "yes",
        "id": "node/10690036573"
      },
      "geometry": {
        "type": "Point",
        "coordinates": [
          -51.4642922,
          -25.3995827
        ]
      }
    }
  ]
}
