{
  "type": "FeatureCollection",
  "features": [
    {
      "type": "Feature",
      "id": "way/610095589",
      "properties": {
        "timestamp": "2018-07-23T04:11:20Z",
        "version": 1,
        "changeset": 60968268,
        "addr:city": "Guarapuava",
        "addr:street": "Rua Azevedo Portugal",
        "addr:suburb": "Centro",
        "building": "yes",
        "internet_access": "yes",
        "name": "Hotel Libra",
        "tourism": "hotel",
        "id": "way/610095589"
      },
      "geometry": {
        "type": "Polygon",
        "coordinates": [
          [
            [
              -51.4652743,
              -25.3881407
            ],
            [
              -51.4654594,
              -25.3883273
            ],
            [
              -51.4653736,
              -25.3884
            ],
            [
              -51.4652958,
              -25.3883079
            ],
            [
              -51.4651617,
              -25.3884145
            ],
            [
              -51.465049,
              -25.3883079
            ],
            [
              -51.4652743,
              -25.3881407
            ]
          ]
        ]
      }
    },
    {
      "type": "Feature",
      "id": "way/1025562820",
      "properties": {
        "timestamp": "2024-06-25T11:48:47Z",
        "version": 3,
        "changeset": 153153467,
        "addr:city": "Guarapuava",
        "addr:country": "BR",
        "addr:housenumber": "3863",
        "addr:postcode": "85055-010",
        "addr:state": "PR",
        "addr:street": "Avenida Manoel Ribas",
        "addr:suburb": "Bonsucesso",
        "building": "hotel",
        "name": "San Marino Palace Hotel",
        "phone": "+55 42 36243200",
        "tourism": "hotel",
        "website": "https://www.sanmarinopalace.com.br/",
        "id": "way/1025562820"
      },
      "geometry": {
        "type": "Polygon",
        "coordinates": [
          [
            [
              -51.4747909,
              -25.3754014
            ],
            [
              -51.474713,
              -25.3755763
            ],
            [
              -51.474577,
              -25.3755363
            ],
            [
              -51.4745431,
              -25.3756039
            ],
            [
              -51.4743471,
              -25.3755335
            ],
            [
              -51.4743993,
              -25.3753941
            ],
            [
              -51.4743483,
              -25.3753747
            ],
            [
              -51.4744127,
              -25.3752075
            ],
            [
              -51.4744541,
              -25.3751949
            ],
            [
              -51.4744944,
              -25.3751827
            ],
            [
              -51.4749638,
              -25.3753498
            ],
            [
              -51.4750106,
              -25.3753664
            ],
            [
              -51.4749679,
              -25.3754644
            ],
            [
              -51.4749261,
              -25.3754495
            ],
            [
              -51.4747909,
              -25.3754014
            ]
          ]
        ]
      }
    },
    {
      "type": "Feature",
      "id": "way/1223747461",
      "properties": {
        "timestamp": "2023-11-15T11:06:12Z",
        "version": 1,
        "changeset": 144046837,
        "addr:city": "Guarapuava",
        "addr:housenumber": "413",
        "addr:postcode": "85010-000",
        "addr:street": "Avenida Professora Laura Pacheco Bastos",
        "addr:suburb": "Cidade dos Lagos",
        "brand": "Ibis",
        "building": "yes",
        "name": "Ibis",
        "phone": "+55 1199999999",
        "tourism": "hotel",
        "website": "https://all.accor.com/hotel/B0H5/index.es.shtml",
        "id": "way/1223747461"
      },
      "geometry": {
        "type": "Polygon",
        "coordinates": [
          [
            [
              -51.4824315,
              -25.3504422
            ],
            [
              -51.4823911,
              -25.3505651
            ],
            [
              -51.4821595,
              -25.3505017
            ],
            [
              -51.4822169,
              -25.350375
            ],
            [
              -51.4824315,
              -25.3504422
            ]
          ]
        ]
      }
    },
    {
      "type": "Feature",
      "id": "way/1223747462",
      "properties": {
        "timestamp": "2023-11-15T11:06:12Z",
        "version": 1,
        "changeset": 144046837,
        "addr:city": "Guarapuava",
        "addr:housenumber": "145",
        "addr:postcode": "85045-302",
        "addr:street": "Rua Tucurui",
        "addr:suburb": "Conradinho",
        "brand": "Slaviero Slim",
        "building": "yes",
        "name": "Slaviero Slim",
        "phone": "+55 (42) 3141-6100",
        "tourism": "hotel",
        "website": "https://www.slavierohoteis.com.br/hoteis/slim-guarapuava",
        "id": "way/1223747462"
      },
      "geometry": {
        "type": "Polygon",
        "coordinates": [
          [
            [
              -51.4770276,
              -25.3657968
            ],
            [
              -51.4769204,
              -25.3661936
            ],
            [
              -51.4769671,
              -25.3662644
            ],
            [
              -51.4770581,
              -25.366278
            ],
            [
              -51.4770167,
              -25.3664338
            ],
            [
              -51.4767915,
              -25.3663836
            ],
            [
              -51.4768354,
              -25.3661573
            ],
            [
              -51.4767932,
              -25.3661488
            ],
            [
              -51.4768873,
              -25.3657675
            ],
            [
              -51.4770276,
              -25.3657968
            ]
          ]
        ]
      }
    },
    {
      "type": "Feature",
      "id": "way/1223751195",
      "properties": {
        "timestamp": "2023-11-15T11:27:03Z",
        "version": 1,
        "changeset": 144047551,
        "addr:city": "Guarapuava",
        "addr:postcode": "85040-364",
        "addr:street": "Rua Tucurui",
        "addr:suburb": "Vila Carli",
        "brand": "BR Hotel Express",
        "building": "yes",
        "name": "BR Hotel Express",
        "phone": "+55 42 36242112",
        "tourism": "hotel",
        "id": "way/1223751195"
      },
      "geometry": {
        "type": "Polygon",
        "coordinates": [
          [
            [
              -51.483959,
              -25.3661741
            ],
            [
              -51.483948,
              -25.3665777
            ],
            [
              -51.4837494,
              -25.3665927
            ],
            [
              -51.4837494,
              -25.3664183
            ],
            [
              -51.4835509,
              -25.3664133
            ],
            [
              -51.4835068,
              -25.3665179
            ],
            [
              -51.4833909,
              -25.3665229
            ],
            [
              -51.483413,
              -25.3662987
            ],
            [
              -51.4838487,
              -25.3662987
            ],
            [
              -51.4838818,
              -25.3661641
            ],
            [
              -51.483959,
              -25.3661741
            ]
          ]
        ]
      }
    },
    {
      "type": "Feature",
      "id": "node/2119604006",
      "properties": {
        "timestamp": "2013-01-19T17:39:12Z",
        "version": 1,
        "changeset": 14710800,
        "name": "Hotel Princesa",
        "tourism": "hotel",
        "id": "node/2119604006"
      },
      "geometry": {
        "type": "Point",
        "coordinates": [
          -51.4687329,
          -25.3921815
        ]
      }
    },
    {
      "type": "Feature",
      "id": "node/2906974009",
      "properties": {
        "timestamp": "2014-06-09T09:37:22Z",
        "version": 1,
        "changeset": 22826074,
        "name": "Hotel Puava",
        "tourism": "hotel",
        "id": "node/2906974009"
      },
      "geometry": {
        "type": "Point",
        "coordinates": [
          -51.4752176,
          -25.3902191
        ]
      }
    },
    {
      "type": "Feature",
      "id": "node/9455842333",
      "properties": {
        "timestamp": "2022-01-28T16:12:01Z",
        "version": 1,
        "changeset": 116713860,
        "entrance": "main",
        "id": "node/9455842333"
      },
      "geometry": {
        "type": "Point",
        "coordinates": [
          -51.4744541,
          -25.3751949
        ]
      }
    }
  ]
}
