{
  "type": "FeatureCollection",
  "features": [
    {
      "type": "Feature",
      "id": "way/686162603",
      "properties": {
        "timestamp": "2024-11-21T22:55:23Z",
        "version": 3,
        "changeset": 159438138,
        "addr:city": "Guaruj√°",
        "addr:housenumber": "165",
        "addr:postcode": "11431-090",
        "addr:street": "Rua Doutor Carlos Nehryng",
        "addr:suburb": "Jardim Helena Maria",
        "amenity": "college",
        "email": "etecsantosdumont@etecsantosdumont.com.br",
        "name": "Etec Alberto Santos Dumont",
        "operator": "Centro Paula Souza",
        "operator:wikidata": "Q52637715",
        "phone": "+55133382-4173",
        "website": "https://etecsantosdumont.com.br/",
        "id": "way/686162603"
      },
      "geometry": {
        "type": "Polygon",
        "coordinates": [
          [
            [
              -46.2740743,
              -23.9934082
            ],
            [
              -46.2741674,
              -23.9938854
            ],
            [
              -46.2731306,
              -23.9940543
            ],
            [
              -46.2730375,
              -23.9935771
            ],
            [
              -46.2740743,
              -23.9934082
            ]
          ]
        ]
      }
    },
    {
      "type": "Feature",
      "id": "node/2813540208",
      "properties": {
        "timestamp": "2017-06-22T21:10:31Z",
        "version": 2,
        "changeset": 49757199,
        "amenity": "college",
        "name": "Cursos Profissionalizantes",
        "id": "node/2813540208"
      },
      "geometry": {
        "type": "Point",
        "coordinates": [
          -46.2359966,
          -23.9834026
        ]
      }
    }
  ]
}
