{
  "type": "FeatureCollection",
  "features": [
    {
      "type": "Feature",
      "id": "way/234367207",
      "properties": {
        "timestamp": "2013-08-21T02:36:53Z",
        "version": 2,
        "changeset": 17434726,
        "amenity": "customs",
        "building": "office",
        "height": "10",
        "office": "government",
        "id": "way/234367207"
      },
      "geometry": {
        "type": "Polygon",
        "coordinates": [
          [
            [
              -46.3083575,
              -23.9374579
            ],
            [
              -46.3082053,
              -23.9374256
            ],
            [
              -46.3082767,
              -23.9371443
            ],
            [
              -46.3084289,
              -23.9371766
            ],
            [
              -46.3083575,
              -23.9374579
            ]
          ]
        ]
      }
    },
    {
      "type": "Feature",
      "id": "way/484305083",
      "properties": {
        "timestamp": "2017-04-02T04:11:40Z",
        "version": 1,
        "changeset": 47372172,
        "addr:city": "Guarujá",
        "addr:housenumber": "218",
        "addr:postcode": "11430-000",
        "addr:street": "Avenida Ademar de Barros",
        "addr:suburb": "Santo Antonio",
        "building": "yes",
        "name": "Procom Guarujá",
        "office": "government",
        "id": "way/484305083"
      },
      "geometry": {
        "type": "Polygon",
        "coordinates": [
          [
            [
              -46.262723,
              -23.9896183
            ],
            [
              -46.2626735,
              -23.9897473
            ],
            [
              -46.2626082,
              -23.9897264
            ],
            [
              -46.2626577,
              -23.9895974
            ],
            [
              -46.262723,
              -23.9896183
            ]
          ]
        ]
      }
    },
    {
      "type": "Feature",
      "id": "way/484454907",
      "properties": {
        "timestamp": "2017-04-03T03:37:06Z",
        "version": 1,
        "changeset": 47398351,
        "addr:city": "Guarujá",
        "addr:street": "Avenida Vereador Lydio Martins Corrêa",
        "addr:suburb": "Morrinhos",
        "building": "yes",
        "name": "IML - Guarujá - Policia Civil",
        "office": "government",
        "id": "way/484454907"
      },
      "geometry": {
        "type": "Polygon",
        "coordinates": [
          [
            [
              -46.2595228,
              -23.9678361
            ],
            [
              -46.2594288,
              -23.9680452
            ],
            [
              -46.2593126,
              -23.9680016
            ],
            [
              -46.2594066,
              -23.9677925
            ],
            [
              -46.2595228,
              -23.9678361
            ]
          ]
        ]
      }
    },
    {
      "type": "Feature",
      "id": "way/547547689",
      "properties": {
        "timestamp": "2019-01-26T00:36:09Z",
        "version": 2,
        "changeset": 66647045,
        "addr:housenumber": "686",
        "addr:postcode": "11431-100",
        "addr:street": "Av. Manuel Albino",
        "addr:suburb": "Jardim Helena Maria",
        "building": "orfanato",
        "government": "orfanato",
        "name": "Casa do Menor do Guarujá",
        "office": "government",
        "phone": "(13) 3355-4166",
        "id": "way/547547689"
      },
      "geometry": {
        "type": "Polygon",
        "coordinates": [
          [
            [
              -46.2762513,
              -23.9950347
            ],
            [
              -46.2763258,
              -23.9954602
            ],
            [
              -46.2762273,
              -23.9955172
            ],
            [
              -46.2754663,
              -23.9956335
            ],
            [
              -46.2762081,
              -23.9950304
            ],
            [
              -46.2762513,
              -23.9950347
            ]
          ]
        ]
      }
    },
    {
      "type": "Feature",
      "id": "way/547550416",
      "properties": {
        "timestamp": "2017-12-18T03:04:19Z",
        "version": 1,
        "changeset": 54718773,
        "addr:city": "Guarujá",
        "addr:housenumber": "300",
        "addr:postcode": "11431-070",
        "addr:street": "R. Rafael Gonzáles",
        "addr:suburb": "Jardim Helena Maria",
        "building": "yes",
        "government": "Deposito_de_carros_apreendidos",
        "name": "Deposito antigo do Patio do Detran",
        "office": "government",
        "id": "way/547550416"
      },
      "geometry": {
        "type": "Polygon",
        "coordinates": [
          [
            [
              -46.2761381,
              -23.994428
            ],
            [
              -46.2762203,
              -23.9947932
            ],
            [
              -46.2760247,
              -23.9949408
            ],
            [
              -46.2748084,
              -23.9951221
            ],
            [
              -46.2747659,
              -23.9950729
            ],
            [
              -46.2746837,
              -23.9946429
            ],
            [
              -46.2747517,
              -23.9945989
            ],
            [
              -46.2760644,
              -23.9943839
            ],
            [
              -46.2761381,
              -23.994428
            ]
          ]
        ]
      }
    },
    {
      "type": "Feature",
      "id": "way/1116137985",
      "properties": {
        "timestamp": "2023-04-15T16:48:41Z",
        "version": 3,
        "changeset": 134948322,
        "addr:city": "Guarujá",
        "addr:housenumber": "1586",
        "addr:postcode": "11460-001",
        "addr:street": "Avenida Santos Dumont",
        "addr:suburb": "Sítio Paecara (Vicente de Carvalho)",
        "air_conditioning": "yes",
        "building": "commercial",
        "government": "public_service",
        "name": "Poupatempo Guarujá",
        "office": "government",
        "opening_hours": "Mo-Fr 09:00-17:00 | Sa 09:00-13:00",
        "operator": "Governo do Estado de São Paulo",
        "operator:wikidata": "Q10290787",
        "phone": "+55 11 95220-2974",
        "website": "https://www.poupatempo.sp.gov.br",
        "wheelchair": "yes",
        "id": "way/1116137985"
      },
      "geometry": {
        "type": "Polygon",
        "coordinates": [
          [
            [
              -46.2915933,
              -23.9552276
            ],
            [
              -46.2914022,
              -23.9553283
            ],
            [
              -46.2910884,
              -23.9550899
            ],
            [
              -46.291214,
              -23.9549421
            ],
            [
              -46.2912558,
              -23.9549459
            ],
            [
              -46.2915933,
              -23.9552276
            ]
          ]
        ]
      }
    },
    {
      "type": "Feature",
      "id": "node/4770496823",
      "properties": {
        "timestamp": "2024-04-01T02:35:50Z",
        "version": 3,
        "changeset": 149413771,
        "addr:city": "Guarujá",
        "addr:housenumber": "230",
        "addr:postcode": "11430-000",
        "addr:street": "Avenida Ademar de Barros",
        "addr:suburb": "Santo Antonio",
        "government": "tax",
        "name": "Receita Federal",
        "office": "government",
        "operator": "Receita Federal do Brasil",
        "operator:wikidata": "Q10369254",
        "phone": "+55 13 3384-4326",
        "id": "node/4770496823"
      },
      "geometry": {
        "type": "Point",
        "coordinates": [
          -46.2625404,
          -23.9896879
        ]
      }
    },
    {
      "type": "Feature",
      "id": "node/4770496824",
      "properties": {
        "timestamp": "2023-04-20T08:08:48Z",
        "version": 2,
        "changeset": 135136442,
        "addr:city": "Guarujá",
        "addr:housenumber": "230",
        "addr:postcode": "11430-000",
        "addr:street": "Avenida Ademar de Barros",
        "addr:suburb": "Santo Antonio",
        "government": "social_security",
        "name": "Guarujá Previdência",
        "office": "government",
        "id": "node/4770496824"
      },
      "geometry": {
        "type": "Point",
        "coordinates": [
          -46.2623829,
          -23.9896407
        ]
      }
    },
    {
      "type": "Feature",
      "id": "node/11826469318",
      "properties": {
        "timestamp": "2024-04-18T00:50:39Z",
        "version": 1,
        "changeset": 150152163,
        "admin_level": "8",
        "government": "legislative",
        "name": "Câmara Municipal de Guarujá",
        "office": "government",
        "id": "node/11826469318"
      },
      "geometry": {
        "type": "Point",
        "coordinates": [
          -46.2559149,
          -23.9944727
        ]
      }
    },
    {
      "type": "Feature",
      "id": "node/11826587649",
      "properties": {
        "timestamp": "2024-04-18T02:35:00Z",
        "version": 1,
        "changeset": 150153283,
        "government": "register_office",
        "name": "Cartório de Registro de Imóveis de Guarujá",
        "office": "government",
        "id": "node/11826587649"
      },
      "geometry": {
        "type": "Point",
        "coordinates": [
          -46.2578131,
          -23.9916651
        ]
      }
    },
    {
      "type": "Feature",
      "id": "node/11826615099",
      "properties": {
        "timestamp": "2024-04-18T02:37:50Z",
        "version": 1,
        "changeset": 150153305,
        "government": "register_office",
        "name": "Cartório Guarujá - Ofício da Cidadania",
        "office": "government",
        "id": "node/11826615099"
      },
      "geometry": {
        "type": "Point",
        "coordinates": [
          -46.2564794,
          -23.9907039
        ]
      }
    }
  ]
}
