{
  "type": "FeatureCollection",
  "features": [
    {
      "type": "Feature",
      "id": "way/484302247",
      "properties": {
        "timestamp": "2019-06-12T23:34:52Z",
        "version": 3,
        "changeset": 71197568,
        "addr:city": "Guarujá",
        "addr:housenumber": "405",
        "addr:street": "Avenida Santos Dumont",
        "addr:suburb": "Santo Antonio",
        "amenity": "veterinary",
        "building": "yes",
        "name": "Clínica Veterinária São Francisco",
        "phone": "+55 13 3387 1745",
        "id": "way/484302247"
      },
      "geometry": {
        "type": "Polygon",
        "coordinates": [
          [
            [
              -46.2646252,
              -23.987779
            ],
            [
              -46.2648507,
              -23.9879126
            ],
            [
              -46.2647944,
              -23.9879919
            ],
            [
              -46.2645689,
              -23.9878583
            ],
            [
              -46.2646252,
              -23.987779
            ]
          ]
        ]
      }
    }
  ]
}
