{
  "type": "FeatureCollection",
  "features": [
    {
      "type": "Feature",
      "id": "node/5676654271",
      "properties": {
        "timestamp": "2018-06-19T22:44:11Z",
        "version": 2,
        "changeset": 59992644,
        "addr:city": "Bugre",
        "addr:housenumber": "72",
        "addr:street": "Rua Gico Santos",
        "addr:suburb": "Centro",
        "government": "legislative",
        "name": "Câmara Municipal de Bugre",
        "office": "government",
        "id": "node/5676654271"
      },
      "geometry": {
        "type": "Point",
        "coordinates": [
          -42.2556602,
          -19.4255678
        ]
      }
    },
    {
      "type": "Feature",
      "id": "node/5676692040",
      "properties": {
        "timestamp": "2018-08-24T13:46:26Z",
        "version": 3,
        "changeset": 61959593,
        "addr:city": "Bugre",
        "addr:housenumber": "79",
        "addr:street": "Rua Gico Santos",
        "addr:suburb": "Centro",
        "email": "cartoriodebugre@ig.com.br",
        "government": "register_office",
        "name": "Cartório de Bugre - Ofício do registro civil e tabelionato de notas",
        "office": "government",
        "opening_hours": "Mo-Fr 08:00-16:00",
        "phone": "+55 33 3355-8010",
        "id": "node/5676692040"
      },
      "geometry": {
        "type": "Point",
        "coordinates": [
          -42.2559166,
          -19.4251576
        ]
      }
    }
  ]
}
