{
  "type": "FeatureCollection",
  "features": [
    {
      "type": "Feature",
      "id": "node/4954584130",
      "properties": {
        "timestamp": "2021-06-05T17:17:18Z",
        "version": 3,
        "changeset": 105891304,
        "addr:city": "Roda velha",
        "addr:street": "avenida Paraná",
        "amenity": "pharmacy",
        "name": "Tm perreira da silva farmácia são joao",
        "name:pt": "Tm perreira da silva farmácia são joao",
        "id": "node/4954584130"
      },
      "geometry": {
        "type": "Point",
        "coordinates": [
          -45.9475368,
          -12.7584066
        ]
      }
    },
    {
      "type": "Feature",
      "id": "node/5005908822",
      "properties": {
        "timestamp": "2021-06-05T17:17:18Z",
        "version": 3,
        "changeset": 105891304,
        "addr:city": "Roda velha",
        "addr:street": "rua salvador",
        "amenity": "pharmacy",
        "name": "Drogavida",
        "name:pt": "Drogavida",
        "id": "node/5005908822"
      },
      "geometry": {
        "type": "Point",
        "coordinates": [
          -45.9489584,
          -12.757844
        ]
      }
    }
  ]
}
