{
  "type": "FeatureCollection",
  "features": [
    {
      "type": "Feature",
      "id": "way/1149582047",
      "properties": {
        "timestamp": "2023-02-26T08:32:16Z",
        "version": 1,
        "changeset": 133032634,
        "addr:city": "Ilhéus",
        "addr:postcode": "45658-635",
        "addr:street": "Avenida Governador Roberto Santos",
        "addr:suburb": "Esperança",
        "amenity": "clinic",
        "building": "yes",
        "healthcare": "clinic",
        "healthcare:speciality": "vaccination;general",
        "name": "Unidade Básica de Saúde (UBS) - Avenida Esperança",
        "opening_hours": "Mo-Fr 07:00-17:00",
        "wheelchair": "yes",
        "id": "way/1149582047"
      },
      "geometry": {
        "type": "Polygon",
        "coordinates": [
          [
            [
              -39.0607876,
              -14.7893461
            ],
            [
              -39.0607234,
              -14.7891292
            ],
            [
              -39.061028,
              -14.7890646
            ],
            [
              -39.0610957,
              -14.789285
            ],
            [
              -39.0607876,
              -14.7893461
            ]
          ]
        ]
      }
    },
    {
      "type": "Feature",
      "id": "way/1149582492",
      "properties": {
        "timestamp": "2023-02-26T08:37:06Z",
        "version": 1,
        "changeset": 133032717,
        "addr:city": "Ilhéus",
        "addr:street": "Avenida Governador Roberto Santos",
        "addr:suburb": "Esperança",
        "air_conditioning": "yes",
        "amenity": "clinic",
        "building": "yes",
        "healthcare": "clinic",
        "healthcare:speciality": "general",
        "name": "UPA Av Esperança - Unidade de Pronto Atendimento",
        "opening_hours": "24/7",
        "wheelchair": "yes",
        "id": "way/1149582492"
      },
      "geometry": {
        "type": "Polygon",
        "coordinates": [
          [
            [
              -39.0612483,
              -14.7899106
            ],
            [
              -39.0610002,
              -14.7896336
            ],
            [
              -39.0608077,
              -14.7894087
            ],
            [
              -39.0607953,
              -14.7893551
            ],
            [
              -39.0616041,
              -14.7891748
            ],
            [
              -39.0617859,
              -14.7894623
            ],
            [
              -39.0612483,
              -14.7899106
            ]
          ]
        ]
      }
    }
  ]
}
