{
  "type": "FeatureCollection",
  "features": [
    {
      "type": "Feature",
      "id": "way/1177427749",
      "properties": {
        "timestamp": "2023-05-30T02:18:04Z",
        "version": 1,
        "changeset": 136722125,
        "amenity": "arts_centre",
        "building": "yes",
        "name": "Centro Cultural de Capoeira Águia Bria Branca",
        "id": "way/1177427749"
      },
      "geometry": {
        "type": "Polygon",
        "coordinates": [
          [
            [
              -47.9377822,
              -19.7303337
            ],
            [
              -47.9376338,
              -19.7304033
            ],
            [
              -47.9376267,
              -19.7303117
            ],
            [
              -47.9377419,
              -19.7302577
            ],
            [
              -47.9377822,
              -19.7303337
            ]
          ]
        ]
      }
    },
    {
      "type": "Feature",
      "id": "node/11291373311",
      "properties": {
        "timestamp": "2023-10-26T17:20:12Z",
        "version": 1,
        "changeset": 143172307,
        "addr:city": "Uberaba",
        "addr:housenumber": "231",
        "addr:postcode": "38010-280",
        "addr:street": "Praça Frei Eugênio",
        "addr:suburb": "Centro",
        "amenity": "arts_centre",
        "name": "Centro Cultural SESIMINAS José Maria Barra",
        "opening_hours": "Segunda a Sexta 07:00 às 18:00",
        "id": "node/11291373311"
      },
      "geometry": {
        "type": "Point",
        "coordinates": [
          -47.9381792,
          -19.7531667
        ]
      }
    }
  ]
}
