{
  "type": "FeatureCollection",
  "features": [
    {
      "type": "Feature",
      "id": "way/166192609",
      "properties": {
        "timestamp": "2021-02-18T04:49:05Z",
        "version": 3,
        "changeset": 99489793,
        "brand": "Ibis",
        "brand:wikidata": "Q920166",
        "brand:wikipedia": "en:Ibis (hotel)",
        "building": "hotel",
        "name": "Ibis",
        "tourism": "hotel",
        "id": "way/166192609"
      },
      "geometry": {
        "type": "Polygon",
        "coordinates": [
          [
            [
              -49.3475668,
              -28.6830554
            ],
            [
              -49.3475619,
              -28.683463
            ],
            [
              -49.3474978,
              -28.6834631
            ],
            [
              -49.3473822,
              -28.6834614
            ],
            [
              -49.3473899,
              -28.6830543
            ],
            [
              -49.3475668,
              -28.6830554
            ]
          ]
        ]
      }
    },
    {
      "type": "Feature",
      "id": "way/404928302",
      "properties": {
        "timestamp": "2018-03-21T02:46:08Z",
        "version": 3,
        "changeset": 57371017,
        "addr:city": "Criciúma",
        "addr:housenumber": "17",
        "addr:postcode": "88802-160",
        "addr:street": "Rua Dom Pedro II",
        "addr:suburb": "Centro",
        "building": "hotel",
        "internet_access": "wlan",
        "name": "Hotel Zata",
        "phone": "+55 48 3437 1822",
        "smoking": "isolated",
        "tourism": "hotel",
        "id": "way/404928302"
      },
      "geometry": {
        "type": "Polygon",
        "coordinates": [
          [
            [
              -49.3729959,
              -28.6804808
            ],
            [
              -49.372994,
              -28.6805723
            ],
            [
              -49.3726907,
              -28.6805675
            ],
            [
              -49.3726925,
              -28.6804761
            ],
            [
              -49.3729959,
              -28.6804808
            ]
          ]
        ]
      }
    },
    {
      "type": "Feature",
      "id": "way/404928317",
      "properties": {
        "timestamp": "2023-11-05T20:14:41Z",
        "version": 2,
        "changeset": 143664721,
        "addr:city": "Criciúma",
        "addr:postcode": "88802-160",
        "addr:street": "Rua Dom Pedro II",
        "addr:suburb": "Centro",
        "building": "yes",
        "name": "Hotel Zata",
        "tourism": "hotel",
        "id": "way/404928317"
      },
      "geometry": {
        "type": "Polygon",
        "coordinates": [
          [
            [
              -49.3725625,
              -28.6807263
            ],
            [
              -49.3725593,
              -28.6808703
            ],
            [
              -49.3722849,
              -28.6808656
            ],
            [
              -49.3722881,
              -28.6807216
            ],
            [
              -49.3725625,
              -28.6807263
            ]
          ]
        ]
      }
    },
    {
      "type": "Feature",
      "id": "way/404929769",
      "properties": {
        "timestamp": "2023-11-05T20:14:41Z",
        "version": 2,
        "changeset": 143664721,
        "addr:city": "Criciúma",
        "addr:postcode": "88802-150",
        "addr:street": "Avenida Centenário",
        "addr:suburb": "Centro",
        "building": "yes",
        "name": "Tri Hotel",
        "tourism": "hotel",
        "id": "way/404929769"
      },
      "geometry": {
        "type": "Polygon",
        "coordinates": [
          [
            [
              -49.3733823,
              -28.6797146
            ],
            [
              -49.3733755,
              -28.6799326
            ],
            [
              -49.373213,
              -28.6799286
            ],
            [
              -49.3732198,
              -28.6797107
            ],
            [
              -49.3733823,
              -28.6797146
            ]
          ]
        ]
      }
    },
    {
      "type": "Feature",
      "id": "way/404929771",
      "properties": {
        "timestamp": "2023-11-05T20:14:41Z",
        "version": 2,
        "changeset": 143664721,
        "addr:city": "Criciúma",
        "addr:postcode": "88802-150",
        "addr:street": "Rua Padre Cícero",
        "addr:suburb": "Centro",
        "building": "yes",
        "name": "Delupo",
        "tourism": "hotel",
        "id": "way/404929771"
      },
      "geometry": {
        "type": "Polygon",
        "coordinates": [
          [
            [
              -49.3728393,
              -28.6796951
            ],
            [
              -49.3728378,
              -28.6799023
            ],
            [
              -49.3725654,
              -28.6799008
            ],
            [
              -49.3725669,
              -28.6796936
            ],
            [
              -49.3728393,
              -28.6796951
            ]
          ]
        ]
      }
    },
    {
      "type": "Feature",
      "id": "way/922223395",
      "properties": {
        "timestamp": "2025-03-11T17:07:18Z",
        "version": 2,
        "changeset": 163494542,
        "building": "public",
        "tourism": "hotel",
        "id": "way/922223395"
      },
      "geometry": {
        "type": "Polygon",
        "coordinates": [
          [
            [
              -49.3611274,
              -28.6756837
            ],
            [
              -49.3611677,
              -28.6756461
            ],
            [
              -49.361205,
              -28.6756772
            ],
            [
              -49.3615141,
              -28.6753885
            ],
            [
              -49.3616592,
              -28.6755093
            ],
            [
              -49.3615931,
              -28.675571
            ],
            [
              -49.3615642,
              -28.6755469
            ],
            [
              -49.3615507,
              -28.6755595
            ],
            [
              -49.3615787,
              -28.6755828
            ],
            [
              -49.3614431,
              -28.6757094
            ],
            [
              -49.3614158,
              -28.6756865
            ],
            [
              -49.3613998,
              -28.6757014
            ],
            [
              -49.361428,
              -28.6757249
            ],
            [
              -49.3613097,
              -28.6758354
            ],
            [
              -49.3611274,
              -28.6756837
            ]
          ]
        ]
      }
    },
    {
      "type": "Feature",
      "id": "node/2540429656",
      "properties": {
        "timestamp": "2023-10-22T17:15:40Z",
        "version": 5,
        "changeset": 142977507,
        "addr:housenumber": "3050",
        "addr:postcode": "88802-150",
        "addr:street": "Avenida Centenário",
        "addr:suburb": "Centro",
        "email": "reservas@delupoaparthotel.com.br",
        "name": "Delupo Apart Hotel",
        "phone": "+55 48 3461-5858",
        "rooms": "47",
        "tourism": "hotel",
        "website": "https://www.delupoaparthotel.com.br/",
        "id": "node/2540429656"
      },
      "geometry": {
        "type": "Point",
        "coordinates": [
          -49.3727075,
          -28.6797181
        ]
      }
    },
    {
      "type": "Feature",
      "id": "node/3083929803",
      "properties": {
        "timestamp": "2020-01-18T22:45:38Z",
        "version": 5,
        "changeset": 79743398,
        "addr:housenumber": "3001",
        "addr:postcode": "88801-000",
        "addr:street": "Avenida Centenário",
        "addr:suburb": "Centro",
        "contact:facebook": "https://www.facebook.com/interclasscriciuma/",
        "contact:instagram": "https://www.instagram.com/interclasscriciuma/",
        "contact:mobile": "+55 48 99176 9419",
        "contact:phone": "+55 48 3081-9150",
        "contact:website": "http://www.interclass.com.br/",
        "internet_access": "wlan",
        "name": "Interclass Hotel",
        "old_name": "Crisul Hotel",
        "phone": "+55 48 3081 9150",
        "tourism": "hotel",
        "website": "http://www.interclass.com.br/",
        "id": "node/3083929803"
      },
      "geometry": {
        "type": "Point",
        "coordinates": [
          -49.3739219,
          -28.6793206
        ]
      }
    },
    {
      "type": "Feature",
      "id": "node/4064345712",
      "properties": {
        "timestamp": "2020-01-18T22:45:38Z",
        "version": 2,
        "changeset": 79743398,
        "addr:housenumber": "3110",
        "addr:postcode": "88802-000",
        "addr:street": "Avenida Centenário",
        "contact:mobile": "+55 48 99107 5579",
        "email": "contato@hotelcentenariocriciuma.com.br",
        "name": "Hotel Centenário",
        "phone": "+55 48 3045 1110",
        "tourism": "hotel",
        "website": "http://hotelcentenariocriciuma.com.br/",
        "id": "node/4064345712"
      },
      "geometry": {
        "type": "Point",
        "coordinates": [
          -49.3721254,
          -28.67991
        ]
      }
    },
    {
      "type": "Feature",
      "id": "node/4064345714",
      "properties": {
        "timestamp": "2020-01-18T22:57:08Z",
        "version": 2,
        "changeset": 79743573,
        "addr:housenumber": "3020",
        "addr:street": "Avenida Centenário",
        "addr:suburb": "Centro",
        "name": "Merco Plaza Hotel",
        "rooms": "78",
        "tourism": "hotel",
        "id": "node/4064345714"
      },
      "geometry": {
        "type": "Point",
        "coordinates": [
          -49.3732363,
          -28.6798203
        ]
      }
    },
    {
      "type": "Feature",
      "id": "node/4064345715",
      "properties": {
        "timestamp": "2020-01-18T22:57:08Z",
        "version": 2,
        "changeset": 79743573,
        "addr:street": "Avenida Centenário",
        "tourism": "hotel",
        "id": "node/4064345715"
      },
      "geometry": {
        "type": "Point",
        "coordinates": [
          -49.3724784,
          -28.6797796
        ]
      }
    },
    {
      "type": "Feature",
      "id": "node/4071770650",
      "properties": {
        "timestamp": "2016-03-21T13:38:25Z",
        "version": 1,
        "changeset": 37977123,
        "name": "Hotel Zata",
        "tourism": "hotel",
        "id": "node/4071770650"
      },
      "geometry": {
        "type": "Point",
        "coordinates": [
          -49.3724347,
          -28.6808009
        ]
      }
    },
    {
      "type": "Feature",
      "id": "node/7284784882",
      "properties": {
        "timestamp": "2020-03-11T11:50:31Z",
        "version": 1,
        "changeset": 82057469,
        "name": "Hotel Soratur",
        "tourism": "hotel",
        "id": "node/7284784882"
      },
      "geometry": {
        "type": "Point",
        "coordinates": [
          -49.3661901,
          -28.6771279
        ]
      }
    }
  ]
}
