{
  "type": "FeatureCollection",
  "features": [
    {
      "type": "Feature",
      "id": "node/4633314991",
      "properties": {
        "timestamp": "2022-12-12T14:21:01Z",
        "version": 2,
        "changeset": 130000888,
        "addr:city": "Sobral",
        "addr:street": "Avenida John Sanford",
        "addr:suburb": "Junco",
        "amenity": "cinema",
        "name": "Cinema Renato Aragão",
        "id": "node/4633314991"
      },
      "geometry": {
        "type": "Point",
        "coordinates": [
          -40.3678903,
          -3.6741495
        ]
      }
    },
    {
      "type": "Feature",
      "id": "node/6512361184",
      "properties": {
        "timestamp": "2022-12-17T16:33:29Z",
        "version": 3,
        "changeset": 130191046,
        "addr:city": "Sobral",
        "addr:housenumber": "300",
        "addr:postcode": "62050-255",
        "addr:street": "Avenida Monsenhor Aloísio Pinto",
        "addr:suburb": "Dom Expedito",
        "amenity": "cinema",
        "brand": "Multicine",
        "level": "2",
        "min_age": "3",
        "name": "Multicine Cinemas Sobral",
        "opening_hours": "Mo-Su 14:00-23:00",
        "screen": "5",
        "website": "https://multicinecinemas.com.br/",
        "wheelchair": "yes",
        "id": "node/6512361184"
      },
      "geometry": {
        "type": "Point",
        "coordinates": [
          -40.3486026,
          -3.697918
        ]
      }
    }
  ]
}
