{
  "type": "FeatureCollection",
  "features": [
    {
      "type": "Feature",
      "id": "way/736348303",
      "properties": {
        "timestamp": "2020-02-28T17:18:05Z",
        "version": 2,
        "changeset": 81600592,
        "addr:city": "Sobral",
        "addr:housenumber": "17",
        "addr:street": "Rua Menino Deus",
        "addr:suburb": "Centro",
        "building": "historic_building",
        "name": "Pinacoteca de Sobral - Espa√ßo Raimundo Cela",
        "opening_hours": "Mo-Fr 08:00-17:00",
        "operator": "Prefeitura Municipal de Sobral",
        "start_date": "december 29th 2016",
        "tourism": "gallery",
        "wheelchair": "limited",
        "id": "way/736348303"
      },
      "geometry": {
        "type": "Polygon",
        "coordinates": [
          [
            [
              -40.3466246,
              -3.6880258
            ],
            [
              -40.3465585,
              -3.6879593
            ],
            [
              -40.3466862,
              -3.6878331
            ],
            [
              -40.3467522,
              -3.6878997
            ],
            [
              -40.3466246,
              -3.6880258
            ]
          ]
        ]
      }
    }
  ]
}
