{
  "type": "FeatureCollection",
  "features": [
    {
      "type": "Feature",
      "id": "way/468889541",
      "properties": {
        "timestamp": "2018-10-29T12:51:13Z",
        "version": 2,
        "changeset": 63976968,
        "addr:city": "Sobral",
        "addr:housenumber": "720",
        "addr:street": "Rua Eurípedes Ferreira Gomes",
        "addr:suburb": "Pedrinhas",
        "building": "yes",
        "name": "Receita Federal",
        "office": "government",
        "id": "way/468889541"
      },
      "geometry": {
        "type": "Polygon",
        "coordinates": [
          [
            [
              -40.3427944,
              -3.6833771
            ],
            [
              -40.3425563,
              -3.683644
            ],
            [
              -40.3423618,
              -3.6834713
            ],
            [
              -40.3425999,
              -3.6832043
            ],
            [
              -40.3427944,
              -3.6833771
            ]
          ]
        ]
      }
    },
    {
      "type": "Feature",
      "id": "way/468889543",
      "properties": {
        "timestamp": "2022-06-11T13:33:59Z",
        "version": 4,
        "changeset": 122249750,
        "addr:city": "Sobral",
        "addr:street": "Avenida Doutor Guarani",
        "addr:suburb": "Derby Club",
        "building": "yes",
        "name": "Secretaria dos Direitos Humanos",
        "office": "government",
        "operator:wikipedia": "pt:Serviço de Atendimento Móvel de Urgência",
        "id": "way/468889543"
      },
      "geometry": {
        "type": "Polygon",
        "coordinates": [
          [
            [
              -40.3408472,
              -3.6817435
            ],
            [
              -40.3409702,
              -3.6818577
            ],
            [
              -40.3407395,
              -3.6821055
            ],
            [
              -40.3406164,
              -3.6819914
            ],
            [
              -40.3408472,
              -3.6817435
            ]
          ]
        ]
      }
    },
    {
      "type": "Feature",
      "id": "way/469214977",
      "properties": {
        "timestamp": "2018-06-19T22:44:42Z",
        "version": 2,
        "changeset": 59992644,
        "addr:city": "Sobral",
        "addr:suburb": "Centro",
        "building": "yes",
        "government": "legislative",
        "name": "Câmara Municipal de Sobral",
        "office": "government",
        "id": "way/469214977"
      },
      "geometry": {
        "type": "Polygon",
        "coordinates": [
          [
            [
              -40.3488889,
              -3.6910044
            ],
            [
              -40.3488197,
              -3.6911091
            ],
            [
              -40.3486017,
              -3.6909656
            ],
            [
              -40.3486709,
              -3.6908609
            ],
            [
              -40.3488889,
              -3.6910044
            ]
          ]
        ]
      }
    },
    {
      "type": "Feature",
      "id": "way/476165598",
      "properties": {
        "timestamp": "2018-12-15T20:16:58Z",
        "version": 2,
        "changeset": 65508550,
        "landuse": "commercial",
        "name": "CAGECE Unidade de Negócio Bacia do Acaraú e Coreaú",
        "office": "government",
        "operator": "Companhia de Água e Esgoto do Ceará",
        "id": "way/476165598"
      },
      "geometry": {
        "type": "Polygon",
        "coordinates": [
          [
            [
              -40.3581918,
              -3.6910709
            ],
            [
              -40.3581466,
              -3.6914275
            ],
            [
              -40.3579863,
              -3.6914073
            ],
            [
              -40.3579776,
              -3.6914756
            ],
            [
              -40.3578944,
              -3.6914651
            ],
            [
              -40.3579483,
              -3.6910401
            ],
            [
              -40.3581918,
              -3.6910709
            ]
          ]
        ]
      }
    },
    {
      "type": "Feature",
      "id": "way/756941665",
      "properties": {
        "timestamp": "2021-08-12T13:02:49Z",
        "version": 2,
        "changeset": 109574161,
        "addr:city": "Sobral",
        "addr:housenumber": "341",
        "addr:street": "Avenida José Euclides Ferreira Gomes",
        "building": "yes",
        "government": "yes",
        "name": "Agência Municipal do Meio Ambiente - AMA",
        "office": "government",
        "phone": "+55 88 3611 2016",
        "id": "way/756941665"
      },
      "geometry": {
        "type": "Polygon",
        "coordinates": [
          [
            [
              -40.3498618,
              -3.6787054
            ],
            [
              -40.3497053,
              -3.6790833
            ],
            [
              -40.3495008,
              -3.6790152
            ],
            [
              -40.3496498,
              -3.6786222
            ],
            [
              -40.3498618,
              -3.6787054
            ]
          ]
        ]
      }
    },
    {
      "type": "Feature",
      "id": "way/756941669",
      "properties": {
        "timestamp": "2021-02-23T17:21:20Z",
        "version": 2,
        "changeset": 99844498,
        "addr:city": "Sobral",
        "addr:housenumber": "887",
        "addr:street": "Avenida Senador Fernandes Távora",
        "addr:suburb": "Sinhá Sabóia",
        "building": "yes",
        "government": "transportation",
        "name": "Unidade Local DNIT/CE",
        "office": "government",
        "phone": "+55 88 3614-3908",
        "id": "way/756941669"
      },
      "geometry": {
        "type": "Polygon",
        "coordinates": [
          [
            [
              -40.3364175,
              -3.7091379
            ],
            [
              -40.3363332,
              -3.7091172
            ],
            [
              -40.3362777,
              -3.7091185
            ],
            [
              -40.3363254,
              -3.7087942
            ],
            [
              -40.336397,
              -3.7088065
            ],
            [
              -40.3364701,
              -3.708822
            ],
            [
              -40.3364175,
              -3.7091379
            ]
          ]
        ]
      }
    },
    {
      "type": "Feature",
      "id": "way/850286851",
      "properties": {
        "timestamp": "2021-08-09T22:29:03Z",
        "version": 2,
        "changeset": 109430904,
        "addr:city": "Sobral",
        "addr:housenumber": "201",
        "addr:street": "Rua Coronel Adeodato",
        "addr:suburb": "Centro",
        "building": "yes",
        "government": "yes",
        "name": "Vapt Vupt",
        "office": "government",
        "phone": "+55 88 3695 3100",
        "id": "way/850286851"
      },
      "geometry": {
        "type": "Polygon",
        "coordinates": [
          [
            [
              -40.353618,
              -3.6858511
            ],
            [
              -40.3538692,
              -3.6855956
            ],
            [
              -40.3539879,
              -3.6857118
            ],
            [
              -40.3537366,
              -3.6859672
            ],
            [
              -40.353618,
              -3.6858511
            ]
          ]
        ]
      }
    },
    {
      "type": "Feature",
      "id": "way/919856173",
      "properties": {
        "timestamp": "2021-05-05T00:06:18Z",
        "version": 2,
        "changeset": 104149931,
        "addr:city": "Sobral",
        "addr:postcode": "62040000",
        "addr:street": "Avenida José Euclides Ferreira Gomes",
        "addr:suburb": "Colina da Boa Vista",
        "building": "yes",
        "email": "crede06@crede06.seduc.ce.gov.br",
        "government": "education",
        "name": "CREDE 06 - Regional Sobral",
        "office": "government",
        "operator": "SEDUC - Secretaria da Educaçao CEARA",
        "short_name": "06ª CREDE",
        "website": "https://crede06.seduc.ce.gov.br/",
        "id": "way/919856173"
      },
      "geometry": {
        "type": "Polygon",
        "coordinates": [
          [
            [
              -40.3512038,
              -3.6706041
            ],
            [
              -40.3512009,
              -3.670668
            ],
            [
              -40.3511736,
              -3.6706826
            ],
            [
              -40.351173,
              -3.6708565
            ],
            [
              -40.3511947,
              -3.6708566
            ],
            [
              -40.3511944,
              -3.6709293
            ],
            [
              -40.350957,
              -3.6709284
            ],
            [
              -40.3509573,
              -3.6708481
            ],
            [
              -40.3509121,
              -3.670848
            ],
            [
              -40.3509125,
              -3.6707633
            ],
            [
              -40.3508563,
              -3.6707631
            ],
            [
              -40.3508569,
              -3.6706195
            ],
            [
              -40.3509389,
              -3.6706199
            ],
            [
              -40.3509493,
              -3.6705927
            ],
            [
              -40.3512038,
              -3.6706041
            ]
          ]
        ]
      }
    },
    {
      "type": "Feature",
      "id": "way/1118342171",
      "properties": {
        "timestamp": "2022-11-30T13:16:06Z",
        "version": 1,
        "changeset": 129561731,
        "addr:city": "Sobral",
        "addr:housenumber": "131",
        "addr:postcode": "62010-830",
        "addr:street": "Avenida Lúcia Sabóia",
        "addr:suburb": "Centro",
        "air_conditioning": "yes",
        "building": "yes",
        "building:levels": "2",
        "government": "social_security",
        "office": "government",
        "opening_hours": "Mo-Fr 09:00-17:00",
        "operator": "Instituto Nacional do Seguro Social",
        "operator:short": "INSS",
        "operator:wikidata": "Q10302614",
        "phone": "135",
        "website": "www.previdencia.gov.br",
        "wheelchair": "yes",
        "id": "way/1118342171"
      },
      "geometry": {
        "type": "Polygon",
        "coordinates": [
          [
            [
              -40.3535087,
              -3.6922947
            ],
            [
              -40.3535011,
              -3.6924782
            ],
            [
              -40.3530516,
              -3.6924212
            ],
            [
              -40.3530796,
              -3.6922358
            ],
            [
              -40.3535087,
              -3.6922947
            ]
          ]
        ]
      }
    },
    {
      "type": "Feature",
      "id": "way/1121001227",
      "properties": {
        "timestamp": "2022-12-11T14:36:30Z",
        "version": 1,
        "changeset": 129964675,
        "addr:city": "Sobral",
        "addr:street": "Avenida Lúcia Sabóia",
        "addr:suburb": "Centro",
        "building": "yes",
        "building:levels": "2",
        "name": "Conselho Tutelar",
        "office": "government",
        "opening_hours": "Mo-Fr 08:00-17:00",
        "phone": "+55 88 3611 2332",
        "website": "facebook.com/sobralct",
        "id": "way/1121001227"
      },
      "geometry": {
        "type": "Polygon",
        "coordinates": [
          [
            [
              -40.3529665,
              -3.6908498
            ],
            [
              -40.3528526,
              -3.6908467
            ],
            [
              -40.3528874,
              -3.6904271
            ],
            [
              -40.3530113,
              -3.6904342
            ],
            [
              -40.3529971,
              -3.6905578
            ],
            [
              -40.3530325,
              -3.6905613
            ],
            [
              -40.3530254,
              -3.6906266
            ],
            [
              -40.3529936,
              -3.6906319
            ],
            [
              -40.3529665,
              -3.6908498
            ]
          ]
        ]
      }
    },
    {
      "type": "Feature",
      "id": "node/9456901238",
      "properties": {
        "timestamp": "2022-06-11T13:36:30Z",
        "version": 3,
        "changeset": 122249853,
        "addr:street": "Rua Coronel Estanislau Frota",
        "government": "social_security",
        "name": "INSS",
        "office": "government",
        "operator": "Instituto Nacional do Seguro Social",
        "operator:short": "INSS",
        "operator:wikidata": "Q10302614",
        "id": "node/9456901238"
      },
      "geometry": {
        "type": "Point",
        "coordinates": [
          -40.3533519,
          -3.6922923
        ]
      }
    },
    {
      "type": "Feature",
      "id": "node/9456901239",
      "properties": {
        "timestamp": "2022-05-11T23:28:00Z",
        "version": 2,
        "changeset": 120861505,
        "addr:street": "Rua José Maria Álverne",
        "name": "Hemoce Sobral",
        "office": "government",
        "id": "node/9456901239"
      },
      "geometry": {
        "type": "Point",
        "coordinates": [
          -40.3594996,
          -3.6946143
        ]
      }
    }
  ]
}
