{
  "type": "FeatureCollection",
  "features": [
    {
      "type": "Feature",
      "id": "way/547037329",
      "properties": {
        "timestamp": "2021-08-12T16:01:45Z",
        "version": 2,
        "changeset": 109582771,
        "addr:city": "Sobral",
        "addr:housenumber": "473",
        "addr:street": "Avenida Lúcia Sabóia",
        "addr:suburb": "Centro",
        "building": "yes",
        "internet_access": "yes",
        "name": "Visconde Hotel",
        "phone": "+55 88 3677 8600",
        "tourism": "hotel",
        "id": "way/547037329"
      },
      "geometry": {
        "type": "Polygon",
        "coordinates": [
          [
            [
              -40.3539179,
              -3.6892901
            ],
            [
              -40.3538858,
              -3.6894955
            ],
            [
              -40.3533547,
              -3.6894126
            ],
            [
              -40.3533869,
              -3.6892073
            ],
            [
              -40.3539179,
              -3.6892901
            ]
          ]
        ]
      }
    },
    {
      "type": "Feature",
      "id": "way/692078893",
      "properties": {
        "timestamp": "2019-05-23T21:19:06Z",
        "version": 1,
        "changeset": 70566545,
        "addr:city": "Sobral",
        "addr:housenumber": "400",
        "addr:street": "Rua Deputado João Adeodato",
        "addr:suburb": "Centro",
        "building": "yes",
        "name": "Beira Rio Hotel",
        "tourism": "hotel",
        "id": "way/692078893"
      },
      "geometry": {
        "type": "Polygon",
        "coordinates": [
          [
            [
              -40.3508724,
              -3.6925034
            ],
            [
              -40.3506998,
              -3.6923281
            ],
            [
              -40.3507183,
              -3.6921467
            ],
            [
              -40.3509186,
              -3.6921836
            ],
            [
              -40.3508724,
              -3.6925034
            ]
          ]
        ]
      }
    },
    {
      "type": "Feature",
      "id": "way/692078894",
      "properties": {
        "timestamp": "2025-04-04T21:49:19Z",
        "version": 2,
        "changeset": 164529660,
        "addr:city": "Sobral",
        "addr:housenumber": "550",
        "addr:street": "Rua Deputado João Adeodato",
        "addr:suburb": "Centro",
        "building": "yes",
        "name": "Hotel e Flat Sobral Mundi",
        "tourism": "hotel",
        "id": "way/692078894"
      },
      "geometry": {
        "type": "Polygon",
        "coordinates": [
          [
            [
              -40.3514639,
              -3.692651
            ],
            [
              -40.3516303,
              -3.6926848
            ],
            [
              -40.3515317,
              -3.693106
            ],
            [
              -40.3514085,
              -3.6930445
            ],
            [
              -40.35142,
              -3.6929628
            ],
            [
              -40.3514639,
              -3.692651
            ]
          ]
        ]
      }
    },
    {
      "type": "Feature",
      "id": "way/1119465063",
      "properties": {
        "timestamp": "2022-12-04T21:01:30Z",
        "version": 1,
        "changeset": 129718277,
        "addr:city": "Sobral",
        "addr:housenumber": "300",
        "addr:postcode": "62050-255",
        "addr:street": "Avenida Monsenhor Aloísio Pinto",
        "addr:suburb": "Dom Expedito",
        "air_conditioning": "yes",
        "building": "yes",
        "building:levels": "12",
        "internet_access": "yes",
        "internet_access:fee": "customers",
        "name": "Best Hotel",
        "phone": "+55 88 3112 115",
        "reservation": "yes",
        "stars": "3",
        "tourism": "hotel",
        "website": "https://www.besthotelsobral.com.br/",
        "wheelchair": "yes",
        "id": "way/1119465063"
      },
      "geometry": {
        "type": "Polygon",
        "coordinates": [
          [
            [
              -40.3483784,
              -3.6972053
            ],
            [
              -40.3481361,
              -3.6969181
            ],
            [
              -40.3482726,
              -3.6968035
            ],
            [
              -40.3485148,
              -3.6970907
            ],
            [
              -40.3483784,
              -3.6972053
            ]
          ]
        ]
      }
    },
    {
      "type": "Feature",
      "id": "way/1119467814",
      "properties": {
        "timestamp": "2024-11-25T17:48:40Z",
        "version": 2,
        "changeset": 159583993,
        "building": "yes",
        "building:levels": "3",
        "height": "9",
        "internet_access": "wlan",
        "tourism": "hotel",
        "wheelchair": "yes",
        "id": "way/1119467814"
      },
      "geometry": {
        "type": "Polygon",
        "coordinates": [
          [
            [
              -40.3432217,
              -3.6848718
            ],
            [
              -40.3431357,
              -3.6849624
            ],
            [
              -40.3429952,
              -3.6848186
            ],
            [
              -40.3430933,
              -3.6847304
            ],
            [
              -40.3432217,
              -3.6848718
            ]
          ]
        ]
      }
    },
    {
      "type": "Feature",
      "id": "way/1121072728",
      "properties": {
        "timestamp": "2022-12-11T21:32:28Z",
        "version": 1,
        "changeset": 129976529,
        "addr:city": "Sobral",
        "addr:postcode": "62042-250",
        "addr:street": "Rua Comandante Maurocélio Rocha Pontes",
        "addr:suburb": "Jocely Dantas de Andrade Torres",
        "building": "yes",
        "name": "Hotel Nacional",
        "tourism": "hotel",
        "id": "way/1121072728"
      },
      "geometry": {
        "type": "Polygon",
        "coordinates": [
          [
            [
              -40.337454,
              -3.6821935
            ],
            [
              -40.3375242,
              -3.6824173
            ],
            [
              -40.3374139,
              -3.6824497
            ],
            [
              -40.3373573,
              -3.6822644
            ],
            [
              -40.3373442,
              -3.6822263
            ],
            [
              -40.337454,
              -3.6821935
            ]
          ]
        ]
      }
    },
    {
      "type": "Feature",
      "id": "node/6496347192",
      "properties": {
        "timestamp": "2019-05-23T21:19:02Z",
        "version": 1,
        "changeset": 70566545,
        "addr:city": "Sobral",
        "addr:housenumber": "619",
        "addr:street": "Rua Deputado João Adeodato",
        "addr:suburb": "Centro",
        "name": "Hugo Plaza Hotel",
        "tourism": "hotel",
        "id": "node/6496347192"
      },
      "geometry": {
        "type": "Point",
        "coordinates": [
          -40.3517241,
          -3.6939475
        ]
      }
    },
    {
      "type": "Feature",
      "id": "node/6496347217",
      "properties": {
        "timestamp": "2022-12-04T21:18:13Z",
        "version": 2,
        "changeset": 129718643,
        "addr:city": "Sobral",
        "addr:street": "Avenida Doutor Guarani",
        "addr:suburb": "Centro",
        "name": "Letiva Hotel",
        "tourism": "hotel",
        "id": "node/6496347217"
      },
      "geometry": {
        "type": "Point",
        "coordinates": [
          -40.3431214,
          -3.6848543
        ]
      }
    },
    {
      "type": "Feature",
      "id": "node/6496347218",
      "properties": {
        "timestamp": "2019-05-23T21:19:03Z",
        "version": 1,
        "changeset": 70566545,
        "addr:city": "Sobral",
        "addr:street": "Avenida Doutor Guarani",
        "name": "Pousada Norte",
        "tourism": "hotel",
        "id": "node/6496347218"
      },
      "geometry": {
        "type": "Point",
        "coordinates": [
          -40.3427979,
          -3.6841106
        ]
      }
    },
    {
      "type": "Feature",
      "id": "node/6496347268",
      "properties": {
        "timestamp": "2019-05-23T21:19:05Z",
        "version": 1,
        "changeset": 70566545,
        "addr:city": "Sobral",
        "addr:housenumber": "499",
        "addr:street": "Rua Domingos Olímpio",
        "addr:suburb": "Centro",
        "name": "Hotel Vitória",
        "tourism": "hotel",
        "id": "node/6496347268"
      },
      "geometry": {
        "type": "Point",
        "coordinates": [
          -40.3517268,
          -3.6872611
        ]
      }
    }
  ]
}
