{
  "type": "FeatureCollection",
  "features": [
    {
      "type": "Feature",
      "id": "way/692487734",
      "properties": {
        "timestamp": "2019-05-25T21:16:58Z",
        "version": 1,
        "changeset": 70619652,
        "amenity": "pharmacy",
        "building": "yes",
        "dispensing": "yes",
        "healthcare": "pharmacy",
        "name": "Central De Abastecimento Farmacêutico",
        "id": "way/692487734"
      },
      "geometry": {
        "type": "Polygon",
        "coordinates": [
          [
            [
              -40.3681866,
              -3.6729023
            ],
            [
              -40.3684325,
              -3.673155
            ],
            [
              -40.3682159,
              -3.6734003
            ],
            [
              -40.3679554,
              -3.6730918
            ],
            [
              -40.3681866,
              -3.6729023
            ]
          ]
        ]
      }
    },
    {
      "type": "Feature",
      "id": "way/692487735",
      "properties": {
        "timestamp": "2019-05-25T21:16:58Z",
        "version": 1,
        "changeset": 70619652,
        "addr:city": "Sobral",
        "addr:street": "Avenida John Sanford",
        "addr:suburb": "Junco",
        "amenity": "pharmacy",
        "brand": "Pague Menos",
        "brand:wikidata": "Q7124466",
        "brand:wikipedia": "pt:Pague Menos",
        "building": "yes",
        "dispensing": "yes",
        "healthcare": "pharmacy",
        "name": "Pague Menos",
        "id": "way/692487735"
      },
      "geometry": {
        "type": "Polygon",
        "coordinates": [
          [
            [
              -40.3667748,
              -3.6759873
            ],
            [
              -40.3666044,
              -3.6758222
            ],
            [
              -40.3666823,
              -3.6757493
            ],
            [
              -40.3668454,
              -3.6759096
            ],
            [
              -40.3667748,
              -3.6759873
            ]
          ]
        ]
      }
    },
    {
      "type": "Feature",
      "id": "way/1118095247",
      "properties": {
        "timestamp": "2024-07-17T07:37:37Z",
        "version": 2,
        "changeset": 154044465,
        "addr:city": "Sobral",
        "addr:street": "Avenida Dom José Tupinambá da Frota",
        "addr:suburb": "Centro",
        "amenity": "pharmacy",
        "brand": "Pague Menos",
        "brand:wikidata": "Q7124466",
        "building": "yes",
        "dispensing": "yes",
        "healthcare": "pharmacy",
        "name": "Pague Menos",
        "opening_hours": "Mo-Fr 07:00-23:00",
        "payment:apple_pay": "yes",
        "payment:cash": "yes",
        "payment:contactless": "yes",
        "payment:credit_cards": "yes",
        "payment:debit_cards": "yes",
        "payment:google_pay": "yes",
        "website": "https://www.paguemenos.com.br",
        "wheelchair": "yes",
        "id": "way/1118095247"
      },
      "geometry": {
        "type": "Polygon",
        "coordinates": [
          [
            [
              -40.3441417,
              -3.6843562
            ],
            [
              -40.3439861,
              -3.6841849
            ],
            [
              -40.3442088,
              -3.6839915
            ],
            [
              -40.3443147,
              -3.6842411
            ],
            [
              -40.3441417,
              -3.6843562
            ]
          ]
        ]
      }
    },
    {
      "type": "Feature",
      "id": "way/1118173136",
      "properties": {
        "timestamp": "2022-12-11T14:36:30Z",
        "version": 3,
        "changeset": 129964675,
        "addr:city": "Sobral",
        "addr:housenumber": "405",
        "addr:street": "Rua Tabelião Ildefonso Cavalcante",
        "addr:suburb": "Centro",
        "amenity": "pharmacy",
        "brand": "Drogasil",
        "brand:wikidata": "Q5308185",
        "building": "pharmacy",
        "dispensing": "yes",
        "drive_through": "yes",
        "healthcare": "pharmacy",
        "name": "Drogasil",
        "opening_hours": "Mo-Su 07:00-23:00",
        "phone": "+55 88 3611-1608",
        "website": "https://drogasil.com.br/",
        "wheelchair": "yes",
        "id": "way/1118173136"
      },
      "geometry": {
        "type": "Polygon",
        "coordinates": [
          [
            [
              -40.3561355,
              -3.6907772
            ],
            [
              -40.3561194,
              -3.6909873
            ],
            [
              -40.3559893,
              -3.6909712
            ],
            [
              -40.3560054,
              -3.6907678
            ],
            [
              -40.3561355,
              -3.6907772
            ]
          ]
        ]
      }
    },
    {
      "type": "Feature",
      "id": "way/1118173138",
      "properties": {
        "timestamp": "2022-12-11T14:36:30Z",
        "version": 2,
        "changeset": 129964675,
        "addr:city": "Sobral",
        "addr:housenumber": "480",
        "addr:postcode": "62010-560",
        "addr:street": "Rua Tabelião Ildefonso Cavalcante",
        "addr:suburb": "Centro",
        "amenity": "pharmacy",
        "brand": "Pague Menos",
        "brand:wikidata": "Q7124466",
        "building": "yes",
        "dispensing": "yes",
        "healthcare": "pharmacy",
        "name": "Pague Menos",
        "opening_hours": "24/7",
        "phone": "+55 88 98877 4454",
        "wheelchair": "yes",
        "id": "way/1118173138"
      },
      "geometry": {
        "type": "Polygon",
        "coordinates": [
          [
            [
              -40.3569775,
              -3.6904277
            ],
            [
              -40.356948,
              -3.6906833
            ],
            [
              -40.356822,
              -3.6906673
            ],
            [
              -40.3568837,
              -3.6904143
            ],
            [
              -40.3569775,
              -3.6904277
            ]
          ]
        ]
      }
    },
    {
      "type": "Feature",
      "id": "way/1118340808",
      "properties": {
        "timestamp": "2024-07-17T07:37:36Z",
        "version": 2,
        "changeset": 154044465,
        "addr:city": "Sobral",
        "addr:housenumber": "1045",
        "addr:postcode": "62011-040",
        "addr:street": "Avenida Dom José Tupinambá da Frota",
        "addr:suburb": "Centro",
        "amenity": "pharmacy",
        "brand": "Pague Menos",
        "brand:wikidata": "Q7124466",
        "building": "yes",
        "dispensing": "yes",
        "healthcare": "pharmacy",
        "name": "Pague Menos",
        "opening_hours": "Mo-Su 07:00-22:00",
        "phone": "+55 88 3677 2830",
        "website": "https://www.paguemenos.com.br",
        "id": "way/1118340808"
      },
      "geometry": {
        "type": "Polygon",
        "coordinates": [
          [
            [
              -40.3491687,
              -3.6895289
            ],
            [
              -40.3490672,
              -3.6896314
            ],
            [
              -40.3489884,
              -3.689555
            ],
            [
              -40.3490792,
              -3.6894546
            ],
            [
              -40.3491687,
              -3.6895289
            ]
          ]
        ]
      }
    },
    {
      "type": "Feature",
      "id": "way/1118340809",
      "properties": {
        "timestamp": "2024-07-17T07:37:35Z",
        "version": 2,
        "changeset": 154044465,
        "addr:city": "Sobral",
        "addr:postcode": "62011-040",
        "addr:street": "Avenida Dom José Tupinambá da Frota",
        "addr:suburb": "Centro",
        "amenity": "pharmacy",
        "brand": "Pague Menos",
        "brand:wikidata": "Q7124466",
        "building": "yes",
        "dispensing": "yes",
        "healthcare": "pharmacy",
        "name": "Pague Menos",
        "opening_hours": "Mo-Su 07:00-22:00",
        "phone": "+55 88 3677 2830",
        "website": "https://www.paguemenos.com.br",
        "id": "way/1118340809"
      },
      "geometry": {
        "type": "Polygon",
        "coordinates": [
          [
            [
              -40.3529221,
              -3.6915146
            ],
            [
              -40.3529135,
              -3.6915918
            ],
            [
              -40.3528264,
              -3.6915861
            ],
            [
              -40.3528351,
              -3.691462
            ],
            [
              -40.3528888,
              -3.6914636
            ],
            [
              -40.3529221,
              -3.6915146
            ]
          ]
        ]
      }
    },
    {
      "type": "Feature",
      "id": "node/4642168959",
      "properties": {
        "timestamp": "2017-01-29T15:17:16Z",
        "version": 1,
        "changeset": 45623045,
        "amenity": "pharmacy",
        "name": "Farmácia Donato",
        "id": "node/4642168959"
      },
      "geometry": {
        "type": "Point",
        "coordinates": [
          -40.3338121,
          -3.708943
        ]
      }
    },
    {
      "type": "Feature",
      "id": "node/6496347195",
      "properties": {
        "timestamp": "2019-05-23T21:19:02Z",
        "version": 1,
        "changeset": 70566545,
        "amenity": "pharmacy",
        "brand": "Extrafarma",
        "brand:wikidata": "Q20055480",
        "brand:wikipedia": "pt:Extrafarma",
        "dispensing": "yes",
        "healthcare": "pharmacy",
        "name": "Extrafarma",
        "id": "node/6496347195"
      },
      "geometry": {
        "type": "Point",
        "coordinates": [
          -40.3509518,
          -3.6903596
        ]
      }
    },
    {
      "type": "Feature",
      "id": "node/6946237985",
      "properties": {
        "timestamp": "2021-02-23T17:21:20Z",
        "version": 3,
        "changeset": 99844498,
        "addr:housenumber": "1460",
        "addr:postcode": "62010-150",
        "addr:street": "Rua Coronel Diogo Gomes",
        "amenity": "pharmacy",
        "healthcare": "pharmacy",
        "name": "Farmácia Zé Osmar",
        "opening_hours": "Mo-Sa 07:00-21:00; Su 07:00-12:00",
        "phone": "+55 88 3611-2415",
        "id": "node/6946237985"
      },
      "geometry": {
        "type": "Point",
        "coordinates": [
          -40.3526198,
          -3.6863342
        ]
      }
    },
    {
      "type": "Feature",
      "id": "node/7602589903",
      "properties": {
        "timestamp": "2020-06-08T11:16:24Z",
        "version": 1,
        "changeset": 86351449,
        "amenity": "pharmacy",
        "name": "Farma certa",
        "id": "node/7602589903"
      },
      "geometry": {
        "type": "Point",
        "coordinates": [
          -40.5004353,
          -3.7753084
        ]
      }
    }
  ]
}
