{
  "type": "FeatureCollection",
  "features": [
    {
      "type": "Feature",
      "id": "node/5842562700",
      "properties": {
        "timestamp": "2018-08-19T22:35:30Z",
        "version": 1,
        "changeset": 61805671,
        "addr:city": "Coração de Jesus",
        "addr:postcode": "39347000",
        "addr:street": "Praça da Matriz",
        "addr:suburb": "Alvação",
        "amenity": "clinic",
        "healthcare": "clinic",
        "name": "UBS Alvação",
        "id": "node/5842562700"
      },
      "geometry": {
        "type": "Point",
        "coordinates": [
          -44.2197452,
          -16.4153779
        ]
      }
    },
    {
      "type": "Feature",
      "id": "node/6052758721",
      "properties": {
        "timestamp": "2018-11-11T14:08:12Z",
        "version": 1,
        "changeset": 64375432,
        "amenity": "clinic",
        "name": "Posto de Saúde",
        "id": "node/6052758721"
      },
      "geometry": {
        "type": "Point",
        "coordinates": [
          -44.6957195,
          -16.6264387
        ]
      }
    }
  ]
}
