{
  "type": "FeatureCollection",
  "features": [
    {
      "type": "Feature",
      "id": "node/4377551806",
      "properties": {
        "timestamp": "2022-10-12T14:02:00Z",
        "version": 3,
        "changeset": 127418299,
        "addr:city": "Belo Oriente",
        "addr:hamlet": "Esperança",
        "addr:postcode": "35195-000",
        "addr:state": "Minas Gerais",
        "amenity": "school",
        "name": "Escola Municipal de Esperança",
        "operator": "Município de Belo Oriente",
        "id": "node/4377551806"
      },
      "geometry": {
        "type": "Point",
        "coordinates": [
          -42.4780095,
          -19.1700622
        ]
      }
    },
    {
      "type": "Feature",
      "id": "node/10092681125",
      "properties": {
        "timestamp": "2022-10-11T19:10:21Z",
        "version": 2,
        "changeset": 127376609,
        "addr:city": "Belo Oriente",
        "addr:housenumber": "505",
        "addr:postcode": "35195-000",
        "addr:street": "Avenida Brasil",
        "addr:suburb": "Novo Oriente",
        "amenity": "school",
        "name": "Escola Municipal Francisco Goncalves De Britto",
        "operator": "Município de Belo Oriente",
        "operator:type": "public",
        "id": "node/10092681125"
      },
      "geometry": {
        "type": "Point",
        "coordinates": [
          -42.491535,
          -19.2205067
        ]
      }
    },
    {
      "type": "Feature",
      "id": "node/10092681126",
      "properties": {
        "timestamp": "2022-10-11T19:10:21Z",
        "version": 2,
        "changeset": 127376609,
        "addr:city": "Belo Oriente",
        "addr:postcode": "35195-000",
        "addr:street": "Rua Roraima",
        "addr:suburb": "Novo Oriente",
        "amenity": "school",
        "name": "Escola Estadual José Hemetrio de Menezes",
        "operator": "Secretaria de Educação do Estado de Minas Gerais",
        "operator:type": "public",
        "id": "node/10092681126"
      },
      "geometry": {
        "type": "Point",
        "coordinates": [
          -42.4910531,
          -19.2223368
        ]
      }
    },
    {
      "type": "Feature",
      "id": "node/10092681127",
      "properties": {
        "timestamp": "2022-10-11T19:10:21Z",
        "version": 2,
        "changeset": 127376609,
        "addr:city": "Belo Oriente",
        "addr:housenumber": "19",
        "addr:postcode": "35195-000",
        "addr:street": "Rua Francisco Gonçalves de Brito",
        "addr:suburb": "Santa Terezinha",
        "amenity": "school",
        "name": "Escola Municipal Francisco Gonçalves",
        "operator": "Município de Belo Oriente",
        "operator:type": "public",
        "id": "node/10092681127"
      },
      "geometry": {
        "type": "Point",
        "coordinates": [
          -42.4844033,
          -19.2240425
        ]
      }
    },
    {
      "type": "Feature",
      "id": "node/10093273511",
      "properties": {
        "timestamp": "2022-10-11T19:10:21Z",
        "version": 1,
        "changeset": 127376609,
        "addr:city": "Belo Oriente",
        "addr:housenumber": "404",
        "addr:postcode": "35195-000",
        "addr:street": "Rua Joanesia",
        "addr:suburb": "Novo Oriente",
        "amenity": "school",
        "name": "Escola Municipal Infantil Lua de Cristal",
        "operator": "Município de Belo Oriente",
        "operator:type": "public",
        "id": "node/10093273511"
      },
      "geometry": {
        "type": "Point",
        "coordinates": [
          -42.4893506,
          -19.2223261
        ]
      }
    },
    {
      "type": "Feature",
      "id": "node/10093672540",
      "properties": {
        "timestamp": "2022-10-11T23:51:12Z",
        "version": 1,
        "changeset": 127385895,
        "addr:city": "Belo Oriente",
        "addr:housenumber": "615",
        "addr:postcode": "35197-000",
        "addr:street": "Rua Francisco Monteiro de Oliveira",
        "addr:suburb": "São Sebastião de Braúnas",
        "amenity": "school",
        "email": "emantoniofirmino@yahoo.com.br",
        "name": "Escola Municipal Antonio Firmino",
        "phone": "+55 33 3253 4183",
        "id": "node/10093672540"
      },
      "geometry": {
        "type": "Point",
        "coordinates": [
          -42.4534,
          -19.2471322
        ]
      }
    },
    {
      "type": "Feature",
      "id": "node/10093672556",
      "properties": {
        "timestamp": "2022-10-11T23:51:12Z",
        "version": 1,
        "changeset": 127385895,
        "addr:city": "Belo Oriente",
        "addr:housenumber": "49",
        "addr:postcode": "35196-000",
        "addr:street": "Rua Antônio Ambrosio",
        "addr:suburb": "Perpétuo Socorro",
        "amenity": "school",
        "name": "Escola Estadual Presidente Tancredo Neves",
        "id": "node/10093672556"
      },
      "geometry": {
        "type": "Point",
        "coordinates": [
          -42.3687972,
          -19.3137541
        ]
      }
    },
    {
      "type": "Feature",
      "id": "node/10095373766",
      "properties": {
        "timestamp": "2022-10-12T19:28:08Z",
        "version": 2,
        "changeset": 127432912,
        "addr:city": "Belo Oriente",
        "addr:housenumber": "300",
        "addr:postcode": "35196-000",
        "addr:street": "Avenida Juscelino Kubitscheck de Oliveira",
        "addr:suburb": "Perpétuo Socorro",
        "amenity": "school",
        "name": "Escola Municipal Hilda Morais",
        "operator": "Município de Belo Oriente",
        "id": "node/10095373766"
      },
      "geometry": {
        "type": "Point",
        "coordinates": [
          -42.3662475,
          -19.3073098
        ]
      }
    }
  ]
}
