{
  "type": "FeatureCollection",
  "features": [
    {
      "type": "Feature",
      "id": "node/10935431949",
      "properties": {
        "timestamp": "2023-05-29T00:21:32Z",
        "version": 1,
        "changeset": 136675110,
        "addr:city": "Unistalda",
        "addr:country": "BR",
        "addr:housenumber": "205",
        "addr:postcode": "97755-000",
        "addr:state": "Rio Grande do Sul",
        "addr:street": "Rua Desidério Finamor",
        "addr:suburb": "Centro",
        "contact:email": "saude@unistalda.rs.gov.br",
        "contact:mobile": "+55 (55) 9 9904-6154",
        "contact:website": "https://unistalda.rs.gov.br/secretaria-municipal-de-saude/",
        "government": "healthcare",
        "name": "Secretaria Municipal de Saúde",
        "office": "government",
        "opening_hours": "Mo-Fr 08:00-16:00",
        "ref:CNES": "6843867",
        "id": "node/10935431949"
      },
      "geometry": {
        "type": "Point",
        "coordinates": [
          -55.1512237,
          -29.0485148
        ]
      }
    }
  ]
}
