{
  "type": "FeatureCollection",
  "features": [
    {
      "type": "Feature",
      "id": "way/506427477",
      "properties": {
        "timestamp": "2021-05-11T13:20:29Z",
        "version": 2,
        "changeset": 104515456,
        "addr:city": "Passagem Franca",
        "addr:postcode": "65680-000",
        "amenity": "school",
        "name": "Em 19 de Novembro",
        "id": "way/506427477"
      },
      "geometry": {
        "type": "Polygon",
        "coordinates": [
          [
            [
              -43.8305238,
              -6.0032477
            ],
            [
              -43.8305204,
              -6.0035221
            ],
            [
              -43.8302307,
              -6.0035186
            ],
            [
              -43.8302341,
              -6.0032442
            ],
            [
              -43.8305238,
              -6.0032477
            ]
          ]
        ]
      }
    },
    {
      "type": "Feature",
      "id": "way/938180325",
      "properties": {
        "timestamp": "2021-05-11T13:38:20Z",
        "version": 2,
        "changeset": 104516326,
        "addr:city": "Passagem Franca",
        "addr:housenumber": "05",
        "addr:postcode": "65680-000",
        "addr:street": "Rua Vicente Sousa",
        "addr:suburb": "Centro",
        "amenity": "school",
        "name": "Centro Educa Mais Antonio Reinaldo Porto",
        "id": "way/938180325"
      },
      "geometry": {
        "type": "Polygon",
        "coordinates": [
          [
            [
              -43.777843,
              -6.18188
            ],
            [
              -43.7786245,
              -6.1814649
            ],
            [
              -43.7787522,
              -6.1816987
            ],
            [
              -43.7787066,
              -6.1822428
            ],
            [
              -43.778211,
              -6.1825058
            ],
            [
              -43.777843,
              -6.18188
            ]
          ]
        ]
      }
    },
    {
      "type": "Feature",
      "id": "way/941810265",
      "properties": {
        "timestamp": "2021-05-11T12:46:03Z",
        "version": 1,
        "changeset": 104513599,
        "addr:city": "Passagem Franca",
        "addr:housenumber": "908",
        "addr:postcode": "65680-000",
        "addr:street": "Rua Siqueira Campos",
        "addr:suburb": "Centro",
        "amenity": "school",
        "name": "Escola Municipalizada Estado Do Parana",
        "id": "way/941810265"
      },
      "geometry": {
        "type": "Polygon",
        "coordinates": [
          [
            [
              -43.7794659,
              -6.1779069
            ],
            [
              -43.7797955,
              -6.1776711
            ],
            [
              -43.780021,
              -6.1779828
            ],
            [
              -43.7796915,
              -6.1782186
            ],
            [
              -43.7794659,
              -6.1779069
            ]
          ]
        ]
      }
    },
    {
      "type": "Feature",
      "id": "way/941817227",
      "properties": {
        "timestamp": "2021-05-11T13:13:08Z",
        "version": 1,
        "changeset": 104515072,
        "addr:city": "Passagem Franca",
        "addr:postcode": "65680-000",
        "amenity": "school",
        "name": "EM Nossa Senhora das Graças",
        "id": "way/941817227"
      },
      "geometry": {
        "type": "Polygon",
        "coordinates": [
          [
            [
              -43.9397276,
              -6.2683654
            ],
            [
              -43.9397145,
              -6.2687778
            ],
            [
              -43.9394769,
              -6.2687703
            ],
            [
              -43.9394901,
              -6.2683579
            ],
            [
              -43.9397276,
              -6.2683654
            ]
          ]
        ]
      }
    },
    {
      "type": "Feature",
      "id": "way/941824478",
      "properties": {
        "timestamp": "2021-05-11T13:33:16Z",
        "version": 1,
        "changeset": 104516084,
        "amenity": "school",
        "name": "Escola Municipal Professora Maria Jose Reis",
        "id": "way/941824478"
      },
      "geometry": {
        "type": "Polygon",
        "coordinates": [
          [
            [
              -43.7841537,
              -6.181499
            ],
            [
              -43.7840914,
              -6.181717
            ],
            [
              -43.7838597,
              -6.1816584
            ],
            [
              -43.7839013,
              -6.1814301
            ],
            [
              -43.7841537,
              -6.181499
            ]
          ]
        ]
      }
    },
    {
      "type": "Feature",
      "id": "way/941824794",
      "properties": {
        "timestamp": "2021-05-11T13:35:05Z",
        "version": 1,
        "changeset": 104516175,
        "addr:city": "Passagem Franca",
        "amenity": "school",
        "name": "Em Manoel Raimundo Ferreira Dias",
        "id": "way/941824794"
      },
      "geometry": {
        "type": "Polygon",
        "coordinates": [
          [
            [
              -43.6371186,
              -6.0915334
            ],
            [
              -43.637168,
              -6.0917177
            ],
            [
              -43.6370188,
              -6.0917572
            ],
            [
              -43.6369695,
              -6.0915729
            ],
            [
              -43.6371186,
              -6.0915334
            ]
          ]
        ]
      }
    },
    {
      "type": "Feature",
      "id": "way/941824993",
      "properties": {
        "timestamp": "2021-05-11T13:36:22Z",
        "version": 1,
        "changeset": 104516240,
        "addr:city": "Passagem Franca",
        "addr:postcode": "65680-000",
        "addr:street": "Rua da Igreja",
        "addr:suburb": "Compertino",
        "amenity": "school",
        "name": "Em Coração De Jesus",
        "id": "way/941824993"
      },
      "geometry": {
        "type": "Polygon",
        "coordinates": [
          [
            [
              -43.9097964,
              -6.0438182
            ],
            [
              -43.9100562,
              -6.0437125
            ],
            [
              -43.910163,
              -6.0439722
            ],
            [
              -43.9099032,
              -6.0440778
            ],
            [
              -43.9097964,
              -6.0438182
            ]
          ]
        ]
      }
    },
    {
      "type": "Feature",
      "id": "node/7235197429",
      "properties": {
        "timestamp": "2021-05-11T13:14:39Z",
        "version": 2,
        "changeset": 104515159,
        "addr:city": "Passagem Franca",
        "addr:postcode": "65680-000",
        "addr:street": "Rua Vespasiano Ramos",
        "addr:suburb": "Centro",
        "amenity": "school",
        "name": "Esc Municipalizada Prof Heloisa Maria De Sousa Almeida",
        "id": "node/7235197429"
      },
      "geometry": {
        "type": "Point",
        "coordinates": [
          -43.785548,
          -6.1816008
        ]
      }
    },
    {
      "type": "Feature",
      "id": "node/7236543463",
      "properties": {
        "timestamp": "2020-02-23T11:31:13Z",
        "version": 1,
        "changeset": 81364333,
        "amenity": "school",
        "id": "node/7236543463"
      },
      "geometry": {
        "type": "Point",
        "coordinates": [
          -43.7840248,
          -6.1817946
        ]
      }
    },
    {
      "type": "Feature",
      "id": "node/8429461215",
      "properties": {
        "timestamp": "2021-02-16T17:18:14Z",
        "version": 1,
        "changeset": 99396788,
        "addr:city": "Buriti Bravo",
        "addr:postcode": "65685-000",
        "addr:street": "Rua Principal",
        "amenity": "school",
        "name": "EM Ministro Mario Andreazza",
        "id": "node/8429461215"
      },
      "geometry": {
        "type": "Point",
        "coordinates": [
          -43.8864208,
          -6.0069713
        ]
      }
    },
    {
      "type": "Feature",
      "id": "node/8432467068",
      "properties": {
        "timestamp": "2021-02-17T16:56:29Z",
        "version": 1,
        "changeset": 99467150,
        "addr:city": "Buriti Bravo",
        "addr:postcode": "65685-000",
        "amenity": "school",
        "name": "Centro de Ensino Professora Zuleica Santos",
        "id": "node/8432467068"
      },
      "geometry": {
        "type": "Point",
        "coordinates": [
          -43.886362,
          -6.0068893
        ]
      }
    },
    {
      "type": "Feature",
      "id": "node/8707916361",
      "properties": {
        "timestamp": "2021-05-07T01:34:11Z",
        "version": 1,
        "changeset": 104280270,
        "amenity": "school",
        "name": "EM Manoel Dias",
        "id": "node/8707916361"
      },
      "geometry": {
        "type": "Point",
        "coordinates": [
          -43.667896,
          -6.2612262
        ]
      }
    },
    {
      "type": "Feature",
      "id": "node/8707918829",
      "properties": {
        "timestamp": "2021-05-07T01:33:34Z",
        "version": 1,
        "changeset": 104280260,
        "amenity": "school",
        "name": "EM Professor Raimundo Masculo Saraiva da Silva",
        "id": "node/8707918829"
      },
      "geometry": {
        "type": "Point",
        "coordinates": [
          -43.7937102,
          -6.1810359
        ]
      }
    },
    {
      "type": "Feature",
      "id": "node/8721657960",
      "properties": {
        "timestamp": "2021-05-11T12:39:13Z",
        "version": 1,
        "changeset": 104513180,
        "addr:city": "Passagem Franca",
        "addr:postcode": "65680-000",
        "amenity": "school",
        "name": "EM Raimundo Diogo",
        "id": "node/8721657960"
      },
      "geometry": {
        "type": "Point",
        "coordinates": [
          -43.9091279,
          -6.0755808
        ]
      }
    },
    {
      "type": "Feature",
      "id": "node/8721701095",
      "properties": {
        "timestamp": "2021-05-11T12:44:33Z",
        "version": 1,
        "changeset": 104513513,
        "amenity": "school",
        "name": "EM Gonçalo Moreira Lima",
        "id": "node/8721701095"
      },
      "geometry": {
        "type": "Point",
        "coordinates": [
          -43.9245324,
          -6.1584852
        ]
      }
    },
    {
      "type": "Feature",
      "id": "node/8721703738",
      "properties": {
        "timestamp": "2021-05-11T12:40:40Z",
        "version": 1,
        "changeset": 104513274,
        "addr:city": "Passagem Franca",
        "addr:postcode": "65680-000",
        "amenity": "school",
        "name": "EM Coronel Germano Cardoso Silva",
        "id": "node/8721703738"
      },
      "geometry": {
        "type": "Point",
        "coordinates": [
          -43.7796162,
          -6.1934172
        ]
      }
    },
    {
      "type": "Feature",
      "id": "node/8721706504",
      "properties": {
        "timestamp": "2021-05-11T13:20:57Z",
        "version": 2,
        "changeset": 104515484,
        "addr:city": "Passagem Franca",
        "addr:postcode": "65680-000",
        "addr:street": "Travessa do Colégio",
        "addr:suburb": "Centro",
        "amenity": "school",
        "name": "EM Getulio Vargas",
        "id": "node/8721706504"
      },
      "geometry": {
        "type": "Point",
        "coordinates": [
          -43.7769724,
          -6.1794845
        ]
      }
    },
    {
      "type": "Feature",
      "id": "node/8721712628",
      "properties": {
        "timestamp": "2021-05-11T12:41:50Z",
        "version": 1,
        "changeset": 104513332,
        "addr:city": "Passagem Franca",
        "addr:postcode": "65680-000",
        "addr:street": "Rua Viriato Correia",
        "addr:suburb": "Faveira",
        "amenity": "school",
        "name": "Creche Mario Fernandes De Oliveira",
        "id": "node/8721712628"
      },
      "geometry": {
        "type": "Point",
        "coordinates": [
          -43.7801949,
          -6.1890901
        ]
      }
    },
    {
      "type": "Feature",
      "id": "node/8721715283",
      "properties": {
        "timestamp": "2021-05-11T12:43:28Z",
        "version": 1,
        "changeset": 104513440,
        "addr:city": "Passagem Franca",
        "addr:postcode": "65680-000",
        "amenity": "school",
        "name": "EM Raimundo Verissimo",
        "id": "node/8721715283"
      },
      "geometry": {
        "type": "Point",
        "coordinates": [
          -43.8847839,
          -6.0068213
        ]
      }
    },
    {
      "type": "Feature",
      "id": "node/8721728198",
      "properties": {
        "timestamp": "2021-05-11T12:46:38Z",
        "version": 1,
        "changeset": 104513638,
        "amenity": "school",
        "name": "Pre-Escolar Comunitaria Sebastiao Pereira Da Costa",
        "id": "node/8721728198"
      },
      "geometry": {
        "type": "Point",
        "coordinates": [
          -43.8322369,
          -6.0030584
        ]
      }
    },
    {
      "type": "Feature",
      "id": "node/8721739377",
      "properties": {
        "timestamp": "2021-05-11T13:10:27Z",
        "version": 1,
        "changeset": 104514945,
        "amenity": "school",
        "name": "EM Maranhense Educacional",
        "id": "node/8721739377"
      },
      "geometry": {
        "type": "Point",
        "coordinates": [
          -43.6130135,
          -6.2292426
        ]
      }
    },
    {
      "type": "Feature",
      "id": "node/8721749903",
      "properties": {
        "timestamp": "2021-05-11T13:09:55Z",
        "version": 1,
        "changeset": 104514924,
        "amenity": "school",
        "name": "EM Duque de Caxias",
        "id": "node/8721749903"
      },
      "geometry": {
        "type": "Point",
        "coordinates": [
          -43.9237231,
          -6.1977037
        ]
      }
    },
    {
      "type": "Feature",
      "id": "node/8721776604",
      "properties": {
        "timestamp": "2021-05-11T13:19:48Z",
        "version": 1,
        "changeset": 104515433,
        "addr:city": "Passagem Franca",
        "addr:postcode": "65680-000",
        "amenity": "school",
        "name": "EM Nossa Senhora do Perpetuo Socorro",
        "id": "node/8721776604"
      },
      "geometry": {
        "type": "Point",
        "coordinates": [
          -43.6521984,
          -6.0470431
        ]
      }
    },
    {
      "type": "Feature",
      "id": "node/8721780841",
      "properties": {
        "timestamp": "2021-05-11T13:17:22Z",
        "version": 1,
        "changeset": 104515324,
        "addr:city": "Passagem Franca",
        "addr:postcode": "65680-000",
        "addr:street": "Rua do Prado",
        "addr:suburb": "Centro",
        "amenity": "school",
        "name": "JI Tia Cloris",
        "id": "node/8721780841"
      },
      "geometry": {
        "type": "Point",
        "coordinates": [
          -43.779127,
          -6.1777985
        ]
      }
    },
    {
      "type": "Feature",
      "id": "node/8721781203",
      "properties": {
        "timestamp": "2021-05-11T13:11:18Z",
        "version": 1,
        "changeset": 104514986,
        "amenity": "school",
        "name": "EM Luis Marques",
        "id": "node/8721781203"
      },
      "geometry": {
        "type": "Point",
        "coordinates": [
          -43.766879,
          -6.0946694
        ]
      }
    },
    {
      "type": "Feature",
      "id": "node/8721785754",
      "properties": {
        "timestamp": "2021-05-11T13:24:07Z",
        "version": 1,
        "changeset": 104515648,
        "addr:city": "Passagem Franca",
        "addr:housenumber": "24",
        "addr:postcode": "65680-000",
        "addr:street": "Rua Ditador Castelo Branco",
        "addr:suburb": "Nelson Porto",
        "amenity": "school",
        "name": "Centro de Educação Portal do Saber",
        "id": "node/8721785754"
      },
      "geometry": {
        "type": "Point",
        "coordinates": [
          -43.7765574,
          -6.1758341
        ]
      }
    },
    {
      "type": "Feature",
      "id": "node/8721797184",
      "properties": {
        "timestamp": "2021-05-11T13:16:35Z",
        "version": 1,
        "changeset": 104515278,
        "addr:city": "Passagem Franca",
        "addr:postcode": "65680-000",
        "addr:street": "Rua Vicente Sousa",
        "addr:suburb": "Mutirão",
        "amenity": "school",
        "name": "Jardim de Infancia Catarina Pereira da Silva",
        "id": "node/8721797184"
      },
      "geometry": {
        "type": "Point",
        "coordinates": [
          -43.7763009,
          -6.1829479
        ]
      }
    },
    {
      "type": "Feature",
      "id": "node/8721809521",
      "properties": {
        "timestamp": "2021-05-11T13:18:47Z",
        "version": 1,
        "changeset": 104515388,
        "addr:city": "Passagem Franca",
        "addr:housenumber": "698",
        "addr:postcode": "65680-000",
        "addr:street": "Rua Siqueira Campos",
        "addr:suburb": "Centro",
        "amenity": "school",
        "name": "Centro de Educação Agnus Dei",
        "phone": "+55 99 3558 1765",
        "id": "node/8721809521"
      },
      "geometry": {
        "type": "Point",
        "coordinates": [
          -43.780543,
          -6.1787317
        ]
      }
    },
    {
      "type": "Feature",
      "id": "node/8721817732",
      "properties": {
        "timestamp": "2021-05-11T13:30:16Z",
        "version": 1,
        "changeset": 104515943,
        "addr:city": "Passagem Franca",
        "addr:postcode": "65680-000",
        "amenity": "school",
        "name": "EM Luiza Fernandes",
        "id": "node/8721817732"
      },
      "geometry": {
        "type": "Point",
        "coordinates": [
          -43.9246712,
          -6.2901364
        ]
      }
    },
    {
      "type": "Feature",
      "id": "node/8721825776",
      "properties": {
        "timestamp": "2021-05-11T13:27:22Z",
        "version": 1,
        "changeset": 104515806,
        "addr:city": "Passagem Franca",
        "addr:postcode": "65680-000",
        "addr:street": "Rua Vicente Sousa",
        "addr:suburb": "Mutirão",
        "amenity": "school",
        "name": "Escola Municipal Isabel Cristina Porto",
        "id": "node/8721825776"
      },
      "geometry": {
        "type": "Point",
        "coordinates": [
          -43.7764811,
          -6.1828764
        ]
      }
    },
    {
      "type": "Feature",
      "id": "node/8721826206",
      "properties": {
        "timestamp": "2021-05-11T13:29:32Z",
        "version": 1,
        "changeset": 104515912,
        "addr:city": "Passagem Franca",
        "addr:postcode": "65680-000",
        "amenity": "school",
        "name": "EM Imaculada Conceição",
        "id": "node/8721826206"
      },
      "geometry": {
        "type": "Point",
        "coordinates": [
          -43.8832305,
          -6.1762408
        ]
      }
    },
    {
      "type": "Feature",
      "id": "node/8721827260",
      "properties": {
        "timestamp": "2021-05-11T13:31:44Z",
        "version": 1,
        "changeset": 104516006,
        "addr:city": "Passagem Franca",
        "addr:housenumber": "01",
        "addr:postcode": "65680-000",
        "addr:street": "Rua Siqueira Campos",
        "addr:suburb": "Cohab",
        "amenity": "school",
        "name": "EM Afonso Costa",
        "id": "node/8721827260"
      },
      "geometry": {
        "type": "Point",
        "coordinates": [
          -43.7770483,
          -6.1728881
        ]
      }
    },
    {
      "type": "Feature",
      "id": "node/8721828530",
      "properties": {
        "timestamp": "2021-05-11T13:33:53Z",
        "version": 1,
        "changeset": 104516114,
        "addr:city": "Passagem Franca",
        "addr:postcode": "65680-000",
        "addr:street": "Rua da Palmeira",
        "addr:suburb": "Centro",
        "amenity": "school",
        "name": "Creche Jacy Saraiva Da Silva Santos",
        "id": "node/8721828530"
      },
      "geometry": {
        "type": "Point",
        "coordinates": [
          -43.7772553,
          -6.1798282
        ]
      }
    },
    {
      "type": "Feature",
      "id": "node/8721861204",
      "properties": {
        "timestamp": "2021-05-11T13:38:49Z",
        "version": 1,
        "changeset": 104516351,
        "amenity": "school",
        "name": "Escola Municipal Joao Zidorio Pereira Da Costa",
        "id": "node/8721861204"
      },
      "geometry": {
        "type": "Point",
        "coordinates": [
          -43.8172811,
          -6.0575783
        ]
      }
    }
  ]
}
