{
  "type": "FeatureCollection",
  "features": [
    {
      "type": "Feature",
      "id": "way/895405814",
      "properties": {
        "timestamp": "2022-06-07T00:11:30Z",
        "version": 2,
        "changeset": 122046644,
        "addr:city": "Itaiópolis",
        "addr:housenumber": "68",
        "addr:postcode": "89340-000",
        "addr:street": "Avenida Tancredo Neves",
        "addr:suburb": "Centro",
        "building": "yes",
        "email": "contato@camaraitaiopolis.sc.gov.br",
        "government": "legislative",
        "name": "Câmara de Vereadores de Itaiópolis",
        "office": "government",
        "phone": "+55 47 3652-2233",
        "website": "https://www.camaraitaiopolis.sc.gov.br",
        "id": "way/895405814"
      },
      "geometry": {
        "type": "Polygon",
        "coordinates": [
          [
            [
              -49.9059359,
              -26.3360201
            ],
            [
              -49.9057428,
              -26.3360225
            ],
            [
              -49.9057509,
              -26.3358927
            ],
            [
              -49.9059333,
              -26.3358903
            ],
            [
              -49.9059359,
              -26.3360201
            ]
          ]
        ]
      }
    },
    {
      "type": "Feature",
      "id": "node/10014176781",
      "properties": {
        "timestamp": "2022-09-22T14:46:08Z",
        "version": 2,
        "changeset": 126508635,
        "addr:housenumber": "43",
        "addr:street": "Rua Karril Pflanzer",
        "alt_name": "3ºGBM/1ºPBM/4ªCBM/9ºBBM;SAT;Seção de Atividades Técnicas",
        "contact:email": "9431ssci@cbm.sc.gov.br;9431cmt@cbm.sc.gov.br",
        "contact:phone": "+55 47 3647-0300",
        "contact:website": "https://www.cbm.sc.gov.br/",
        "contact:whatsapp": "+55 47 3647-0300",
        "government": "fire_service",
        "name": "Serviço de Segurança Contra Incêndio",
        "office": "government",
        "operator": "Corpo de Bombeiros Militar de Santa Catarina",
        "operator:short": "CBMSC",
        "operator:type": "public",
        "operator:wikidata": "Q768967",
        "owner": "Governo do Estado de Santa Catarina",
        "ownership": "state",
        "short_name": "SSCI",
        "id": "node/10014176781"
      },
      "geometry": {
        "type": "Point",
        "coordinates": [
          -49.9073803,
          -26.3380593
        ]
      }
    }
  ]
}
