{
  "type": "FeatureCollection",
  "features": [
    {
      "type": "Feature",
      "id": "node/7177703200",
      "properties": {
        "timestamp": "2020-02-01T18:12:31Z",
        "version": 1,
        "changeset": 80417883,
        "addr:city": "Itai√≥polis-SC",
        "addr:housenumber": "40",
        "addr:postcode": "89340-000",
        "addr:street": "R. Serafim Furtado de Mello",
        "addr:suburb": "Lucena",
        "amenity": "school",
        "name": "Eeb Odir Zanelatto",
        "id": "node/7177703200"
      },
      "geometry": {
        "type": "Point",
        "coordinates": [
          -49.9083642,
          -26.3647602
        ]
      }
    },
    {
      "type": "Feature",
      "id": "node/10108765366",
      "properties": {
        "timestamp": "2022-10-17T13:41:26Z",
        "version": 1,
        "changeset": 127674071,
        "amenity": "school",
        "name": "EEB Amandus Bauer",
        "id": "node/10108765366"
      },
      "geometry": {
        "type": "Point",
        "coordinates": [
          -50.0152498,
          -26.4470306
        ]
      }
    }
  ]
}
