{
  "type": "FeatureCollection",
  "features": [
    {
      "type": "Feature",
      "id": "way/975103587",
      "properties": {
        "timestamp": "2021-08-20T21:18:40Z",
        "version": 1,
        "changeset": 110006772,
        "addr:city": "Amapá do Maranhão",
        "addr:postcode": "65293-000",
        "addr:suburb": "Vila Soares",
        "amenity": "school",
        "name": "Unidade Escola Deputado Carlos Braide",
        "phone": "+55 98 9 8434 3359",
        "id": "way/975103587"
      },
      "geometry": {
        "type": "Polygon",
        "coordinates": [
          [
            [
              -46.0175426,
              -1.6880908
            ],
            [
              -46.0172454,
              -1.6882515
            ],
            [
              -46.0172866,
              -1.6883056
            ],
            [
              -46.0170087,
              -1.6884637
            ],
            [
              -46.0168312,
              -1.6879314
            ],
            [
              -46.0173754,
              -1.687714
            ],
            [
              -46.0175426,
              -1.6880908
            ]
          ]
        ]
      }
    },
    {
      "type": "Feature",
      "id": "way/975103868",
      "properties": {
        "timestamp": "2021-08-20T21:21:27Z",
        "version": 1,
        "changeset": 110006840,
        "addr:city": "Amapá do Maranhão",
        "addr:postcode": "65293-000",
        "addr:suburb": "Vila Caxias",
        "amenity": "school",
        "name": "Unidade Escola Padre Carlo Ellena",
        "phone": "+55 98 3321 1094",
        "id": "way/975103868"
      },
      "geometry": {
        "type": "Polygon",
        "coordinates": [
          [
            [
              -46.0186191,
              -1.7027778
            ],
            [
              -46.018357,
              -1.7028673
            ],
            [
              -46.0183013,
              -1.7027043
            ],
            [
              -46.0185634,
              -1.7026148
            ],
            [
              -46.0186191,
              -1.7027778
            ]
          ]
        ]
      }
    },
    {
      "type": "Feature",
      "id": "way/975104959",
      "properties": {
        "timestamp": "2021-08-20T21:27:38Z",
        "version": 1,
        "changeset": 110007004,
        "addr:city": "Amapá do Maranhão",
        "addr:postcode": "65293-000",
        "amenity": "school",
        "name": "Unidade Escola Professora Maria Isabete Silva Franco",
        "id": "way/975104959"
      },
      "geometry": {
        "type": "Polygon",
        "coordinates": [
          [
            [
              -46.0171602,
              -1.5567008
            ],
            [
              -46.0172003,
              -1.5570339
            ],
            [
              -46.0168983,
              -1.5570508
            ],
            [
              -46.0168154,
              -1.5567453
            ],
            [
              -46.0171602,
              -1.5567008
            ]
          ]
        ]
      }
    },
    {
      "type": "Feature",
      "id": "way/975213719",
      "properties": {
        "timestamp": "2021-08-21T11:08:44Z",
        "version": 1,
        "changeset": 110023732,
        "addr:city": "Amapá do Maranhão",
        "addr:postcode": "65293-000",
        "addr:suburb": "Anta",
        "amenity": "school",
        "name": "Unidade Escola Dom Pedro I",
        "id": "way/975213719"
      },
      "geometry": {
        "type": "Polygon",
        "coordinates": [
          [
            [
              -45.9257393,
              -1.5849065
            ],
            [
              -45.9256992,
              -1.5850414
            ],
            [
              -45.9255247,
              -1.5849896
            ],
            [
              -45.9255648,
              -1.5848547
            ],
            [
              -45.9257393,
              -1.5849065
            ]
          ]
        ]
      }
    },
    {
      "type": "Feature",
      "id": "way/975272514",
      "properties": {
        "timestamp": "2021-08-21T17:21:48Z",
        "version": 1,
        "changeset": 110036466,
        "addr:city": "Amapá do Maranhão",
        "addr:postcode": "65293-000",
        "addr:street": "Rua Vinte e Um de Agosto",
        "addr:suburb": "Centro",
        "amenity": "school",
        "name": "Centro De Educação Infantil Nossa Senhora Consolata",
        "id": "way/975272514"
      },
      "geometry": {
        "type": "Polygon",
        "coordinates": [
          [
            [
              -46.0126342,
              -1.674286
            ],
            [
              -46.0123091,
              -1.674481
            ],
            [
              -46.0119525,
              -1.6741133
            ],
            [
              -46.0122422,
              -1.6738831
            ],
            [
              -46.0126342,
              -1.674286
            ]
          ]
        ]
      }
    },
    {
      "type": "Feature",
      "id": "way/975286288",
      "properties": {
        "timestamp": "2021-08-21T19:09:49Z",
        "version": 1,
        "changeset": 110039375,
        "addr:city": "Amapá do Maranhão",
        "addr:postcode": "65293-000",
        "addr:street": "Rua Mariano Pereira",
        "addr:suburb": "Centro",
        "amenity": "school",
        "name": "Centro De Educação Infantil Padre Silvio Ruffino",
        "id": "way/975286288"
      },
      "geometry": {
        "type": "Polygon",
        "coordinates": [
          [
            [
              -46.0167674,
              -1.6777844
            ],
            [
              -46.016421,
              -1.6780641
            ],
            [
              -46.0159972,
              -1.6775397
            ],
            [
              -46.0163435,
              -1.6772601
            ],
            [
              -46.0167674,
              -1.6777844
            ]
          ]
        ]
      }
    },
    {
      "type": "Feature",
      "id": "way/975312807",
      "properties": {
        "timestamp": "2024-04-30T00:53:52Z",
        "version": 2,
        "changeset": 150685532,
        "addr:city": "Amapá do Maranhão",
        "addr:postcode": "65293-000",
        "addr:street": "Avenida Luis Roco",
        "amenity": "school",
        "name": "Unidade Integrada Governador Epitácio Cafeteira",
        "id": "way/975312807"
      },
      "geometry": {
        "type": "Polygon",
        "coordinates": [
          [
            [
              -46.0082331,
              -1.6791985
            ],
            [
              -46.0085233,
              -1.6800301
            ],
            [
              -46.007774,
              -1.6802147
            ],
            [
              -46.0075248,
              -1.6794219
            ],
            [
              -46.0082331,
              -1.6791985
            ]
          ]
        ]
      }
    },
    {
      "type": "Feature",
      "id": "way/975313384",
      "properties": {
        "timestamp": "2021-08-21T23:16:46Z",
        "version": 1,
        "changeset": 110044530,
        "addr:city": "Amapá do Maranhão",
        "addr:postcode": "65293-000",
        "amenity": "school",
        "name": "Unidade Escola São Francisco De Assis",
        "phone": "+55 98 9 8503 4328",
        "id": "way/975313384"
      },
      "geometry": {
        "type": "Polygon",
        "coordinates": [
          [
            [
              -46.0017236,
              -1.5848229
            ],
            [
              -46.0019281,
              -1.5846747
            ],
            [
              -46.0021241,
              -1.5849448
            ],
            [
              -46.0019197,
              -1.585093
            ],
            [
              -46.0017236,
              -1.5848229
            ]
          ]
        ]
      }
    },
    {
      "type": "Feature",
      "id": "node/9023437202",
      "properties": {
        "timestamp": "2021-08-20T19:21:47Z",
        "version": 1,
        "changeset": 110002950,
        "addr:city": "Amapá do Maranhão",
        "addr:postcode": "65293-000",
        "addr:street": "Rua São Pedro",
        "addr:suburb": "Centro",
        "amenity": "school",
        "name": "Unidade Escola Raimunda Torres",
        "phone": "+55 98 9 8348 6582",
        "id": "node/9023437202"
      },
      "geometry": {
        "type": "Point",
        "coordinates": [
          -46.0117218,
          -1.6768992
        ]
      }
    },
    {
      "type": "Feature",
      "id": "node/9023635511",
      "properties": {
        "timestamp": "2021-08-20T21:26:41Z",
        "version": 1,
        "changeset": 110006981,
        "addr:city": "Amapá do Maranhão",
        "addr:postcode": "65293-000",
        "amenity": "school",
        "name": "Unidade Escola Nossa Senhora Aparecida",
        "id": "node/9023635511"
      },
      "geometry": {
        "type": "Point",
        "coordinates": [
          -45.9930263,
          -1.6233398
        ]
      }
    },
    {
      "type": "Feature",
      "id": "node/9023835361",
      "properties": {
        "timestamp": "2021-08-20T21:40:48Z",
        "version": 1,
        "changeset": 110007256,
        "addr:city": "Amapá do Maranhão",
        "addr:postcode": "65293-000",
        "addr:suburb": "Formiga",
        "amenity": "school",
        "name": "Unidade Escola Tancredo Neves",
        "phone": "+55 98 9 8434 3359",
        "id": "node/9023835361"
      },
      "geometry": {
        "type": "Point",
        "coordinates": [
          -45.8374304,
          -1.6067177
        ]
      }
    },
    {
      "type": "Feature",
      "id": "node/9024668339",
      "properties": {
        "timestamp": "2021-08-21T11:10:03Z",
        "version": 1,
        "changeset": 110023810,
        "addr:city": "Amapá do Maranhão",
        "addr:housenumber": "16",
        "addr:postcode": "65293-000",
        "addr:street": "Rua Treze de Maio",
        "addr:suburb": "Centro",
        "amenity": "school",
        "name": "Instituto de Ensino Pequeno Polegar",
        "phone": "+55 98 9 8175 6238",
        "id": "node/9024668339"
      },
      "geometry": {
        "type": "Point",
        "coordinates": [
          -46.0117627,
          -1.6757641
        ]
      }
    },
    {
      "type": "Feature",
      "id": "node/9025191554",
      "properties": {
        "timestamp": "2021-08-21T17:28:35Z",
        "version": 1,
        "changeset": 110036669,
        "addr:city": "Amapá do Maranhão",
        "addr:postcode": "65293-000",
        "amenity": "school",
        "name": "Unidade Escola Professora Doraci Gomes De Sousa",
        "id": "node/9025191554"
      },
      "geometry": {
        "type": "Point",
        "coordinates": [
          -45.9529484,
          -1.7064286
        ]
      }
    },
    {
      "type": "Feature",
      "id": "node/9025279879",
      "properties": {
        "timestamp": "2021-08-21T18:57:39Z",
        "version": 1,
        "changeset": 110039095,
        "addr:city": "Amapá do Maranhão",
        "addr:postcode": "65293-000",
        "addr:street": "Rodovia MA-206",
        "addr:suburb": "Bela Vista",
        "amenity": "school",
        "name": "Unidade Escola Professora Raimunda Borges Silva",
        "phone": "+55 98 9 8440 7620",
        "id": "node/9025279879"
      },
      "geometry": {
        "type": "Point",
        "coordinates": [
          -45.9965742,
          -1.607747
        ]
      }
    },
    {
      "type": "Feature",
      "id": "node/9025286335",
      "properties": {
        "timestamp": "2021-08-21T18:56:13Z",
        "version": 1,
        "changeset": 110039071,
        "addr:city": "Amapá do Maranhão",
        "addr:postcode": "65293-000",
        "addr:street": "Rua Barão do Rio Branco",
        "addr:suburb": "Centro",
        "amenity": "school",
        "name": "Anexo I - Ce Prof Maria Do Socorro Mendonca Da Silva",
        "phone": "+55 98 9 8181 5929",
        "id": "node/9025286335"
      },
      "geometry": {
        "type": "Point",
        "coordinates": [
          -46.0110413,
          -1.6741186
        ]
      }
    },
    {
      "type": "Feature",
      "id": "node/9025383226",
      "properties": {
        "timestamp": "2021-08-21T20:11:07Z",
        "version": 1,
        "changeset": 110040892,
        "addr:city": "Amapá do Maranhão",
        "addr:postcode": "65293-000",
        "addr:suburb": "Vila Nova",
        "amenity": "school",
        "name": "Unidade Escola Alfredo Barroso",
        "id": "node/9025383226"
      },
      "geometry": {
        "type": "Point",
        "coordinates": [
          -45.883549,
          -1.5925653
        ]
      }
    },
    {
      "type": "Feature",
      "id": "node/9025575904",
      "properties": {
        "timestamp": "2021-08-21T23:12:21Z",
        "version": 1,
        "changeset": 110044475,
        "amenity": "school",
        "name": "Centro De Ensino João Teixeira Sousa - Anexo Ii - 21 De Abril",
        "id": "node/9025575904"
      },
      "geometry": {
        "type": "Point",
        "coordinates": [
          -46.0210003,
          -1.6776389
        ]
      }
    }
  ]
}
