{
  "type": "FeatureCollection",
  "features": [
    {
      "type": "Feature",
      "id": "way/349213824",
      "properties": {
        "timestamp": "2020-12-05T01:29:33Z",
        "version": 4,
        "changeset": 95320658,
        "addr:city": "Pindaí",
        "addr:district": "Guirapá",
        "addr:postcode": "46370-000",
        "addr:street": "Rua Israel Alves Cotrim",
        "addr:suburb": "São Sebastião",
        "amenity": "community_centre",
        "building": "yes",
        "name": "Centro Comunitário de Múltiplo Uso Francisco Brito de Castro",
        "source": "Lei Municipal 474 de 01 de Julho de 2020",
        "wheelchair": "limited",
        "id": "way/349213824"
      },
      "geometry": {
        "type": "Polygon",
        "coordinates": [
          [
            [
              -42.6147911,
              -14.4063819
            ],
            [
              -42.6150297,
              -14.4064118
            ],
            [
              -42.6150108,
              -14.4065537
            ],
            [
              -42.6147721,
              -14.4065238
            ],
            [
              -42.6147911,
              -14.4063819
            ]
          ]
        ]
      }
    }
  ]
}
