{
  "type": "FeatureCollection",
  "features": [
    {
      "type": "Feature",
      "id": "node/3680693640",
      "properties": {
        "timestamp": "2018-06-19T22:42:16Z",
        "version": 3,
        "changeset": 59992644,
        "addr:city": "Pindaí",
        "addr:housenumber": "109",
        "addr:postcode": "46360-000",
        "addr:street": "Rua Vereadora Carmelita Lélis Muniz",
        "addr:suburb": "Alzira Moraes",
        "government": "legislative",
        "name": "Câmara Municipal de Vereadores",
        "office": "government",
        "phone": "+55 77 3667 2178",
        "source": "IBGE Mapa de Setores Urbanos",
        "id": "node/3680693640"
      },
      "geometry": {
        "type": "Point",
        "coordinates": [
          -42.6891431,
          -14.4957053
        ]
      }
    },
    {
      "type": "Feature",
      "id": "node/4683528337",
      "properties": {
        "timestamp": "2017-02-13T14:01:57Z",
        "version": 1,
        "changeset": 46048277,
        "addr:postcode": "46370-000",
        "addr:street": "Rua Pindaí",
        "government": "register_office",
        "office": "government",
        "id": "node/4683528337"
      },
      "geometry": {
        "type": "Point",
        "coordinates": [
          -42.6191487,
          -14.4020383
        ]
      }
    }
  ]
}
