{
  "type": "FeatureCollection",
  "features": [
    {
      "type": "Feature",
      "id": "way/442805821",
      "properties": {
        "timestamp": "2022-05-22T14:54:57Z",
        "version": 2,
        "changeset": 121322277,
        "addr:city": "João Pessoa",
        "addr:housenumber": "100",
        "addr:street": "Rua Walfredo Macedo Brandão",
        "addr:suburb": "Bancários",
        "amenity": "veterinary",
        "building": "yes",
        "name": "Centro de Vigilância Ambiental e Zoonoses - Carrocinha",
        "operator": "Prefeitura Municipal de João Pessoa",
        "phone": "+55 83 32189357",
        "website": "https://www.joaopessoa.pb.gov.br/secretarias/saude/zoonoses/",
        "id": "way/442805821"
      },
      "geometry": {
        "type": "Polygon",
        "coordinates": [
          [
            [
              -34.8391476,
              -7.1590465
            ],
            [
              -34.8391208,
              -7.1594085
            ],
            [
              -34.8385817,
              -7.1593872
            ],
            [
              -34.8385978,
              -7.1590279
            ],
            [
              -34.8391476,
              -7.1590465
            ]
          ]
        ]
      }
    }
  ]
}
