{
  "type": "FeatureCollection",
  "features": [
    {
      "type": "Feature",
      "id": "node/10184581948",
      "properties": {
        "timestamp": "2022-11-14T23:29:19Z",
        "version": 1,
        "changeset": 128912815,
        "government": "register_office",
        "office": "government",
        "id": "node/10184581948"
      },
      "geometry": {
        "type": "Point",
        "coordinates": [
          -40.8338775,
          -19.6951393
        ]
      }
    },
    {
      "type": "Feature",
      "id": "node/10879359955",
      "properties": {
        "timestamp": "2023-11-13T22:29:53Z",
        "version": 2,
        "changeset": 143989089,
        "addr:city": "Itaguaçu",
        "addr:housenumber": "71",
        "addr:postcode": "29690-000",
        "addr:street": "Rua José Theodoro",
        "addr:suburb": "Centro",
        "email": "p.itaguacu@mpes.mp.br",
        "government": "prosecutor",
        "name": "Promotoria de Justiça no Município de Itaguaçu",
        "office": "government",
        "opening_hours": "Mo-Fr 12:00-17:00",
        "operator": "Ministério Público do Estado do Espírito Santo",
        "operator:wikidata": "Q20060323",
        "website": "https://www.mpes.mp.br/",
        "id": "node/10879359955"
      },
      "geometry": {
        "type": "Point",
        "coordinates": [
          -40.8561733,
          -19.8043098
        ]
      }
    },
    {
      "type": "Feature",
      "id": "node/10879455595",
      "properties": {
        "timestamp": "2023-05-08T19:04:03Z",
        "version": 1,
        "changeset": 135866072,
        "addr:city": "Itaguaçu",
        "addr:housenumber": "283",
        "addr:postcode": "29690-000",
        "addr:street": "Rua Bernardino Monteiro",
        "addr:suburb": "Centro",
        "government": "agriculture",
        "name": "Posto de Atendimento Local do Idaf",
        "office": "government",
        "operator": "Instituto de Defesa Agrícola e Florestal do Espírito Santo - Idaf",
        "phone": "+55 27 3725 0427",
        "id": "node/10879455595"
      },
      "geometry": {
        "type": "Point",
        "coordinates": [
          -40.8558917,
          -19.8023414
        ]
      }
    },
    {
      "type": "Feature",
      "id": "node/10879455599",
      "properties": {
        "timestamp": "2023-05-09T17:09:58Z",
        "version": 2,
        "changeset": 135904746,
        "addr:city": "Itaguaçu",
        "addr:housenumber": "283",
        "addr:postcode": "29690-000",
        "addr:street": "Rua Bernardino Monteiro",
        "addr:suburb": "Centro",
        "government": "agriculture",
        "name": "Escritório Local do Incaper",
        "office": "government",
        "operator": "Instituto Capixaba de Pesquisa, Assistência Técnica e Extensão Rural (Incaper)",
        "phone": "+55 27 3725 1225",
        "id": "node/10879455599"
      },
      "geometry": {
        "type": "Point",
        "coordinates": [
          -40.8558193,
          -19.8022934
        ]
      }
    },
    {
      "type": "Feature",
      "id": "node/10879723509",
      "properties": {
        "timestamp": "2023-05-08T22:32:07Z",
        "version": 1,
        "changeset": 135870977,
        "office": "government",
        "id": "node/10879723509"
      },
      "geometry": {
        "type": "Point",
        "coordinates": [
          -40.8561498,
          -19.8040937
        ]
      }
    },
    {
      "type": "Feature",
      "id": "node/10879723511",
      "properties": {
        "timestamp": "2023-05-08T22:32:07Z",
        "version": 1,
        "changeset": 135870977,
        "addr:city": "Itaguaçu",
        "addr:postcode": "29690-000",
        "addr:street": "Rua Josias Domingues dos Reis",
        "addr:suburb": "Centro",
        "government": "transit",
        "name": "Posto de Atendimento Veicular de Itaguaçu",
        "office": "government",
        "operator": "Departamento de Transito do Estado do Espírito Santo - Detran",
        "id": "node/10879723511"
      },
      "geometry": {
        "type": "Point",
        "coordinates": [
          -40.8545271,
          -19.801772
        ]
      }
    }
  ]
}
