{
  "type": "FeatureCollection",
  "features": [
    {
      "type": "Feature",
      "id": "way/640490993",
      "properties": {
        "timestamp": "2019-08-17T15:13:48Z",
        "version": 2,
        "changeset": 73445179,
        "amenity": "school",
        "id": "way/640490993"
      },
      "geometry": {
        "type": "Polygon",
        "coordinates": [
          [
            [
              -40.8359971,
              -19.6645439
            ],
            [
              -40.8359649,
              -19.664703
            ],
            [
              -40.835627,
              -19.664655
            ],
            [
              -40.8356136,
              -19.6647384
            ],
            [
              -40.8354875,
              -19.6647207
            ],
            [
              -40.8355036,
              -19.6646474
            ],
            [
              -40.8354017,
              -19.6646323
            ],
            [
              -40.835434,
              -19.6645005
            ],
            [
              -40.8354419,
              -19.6644681
            ],
            [
              -40.8359971,
              -19.6645439
            ]
          ]
        ]
      }
    },
    {
      "type": "Feature",
      "id": "node/3273467144",
      "properties": {
        "timestamp": "2019-07-11T17:33:19Z",
        "version": 3,
        "changeset": 72146221,
        "IJSN:administra": "Estadual",
        "IJSN:classeCnae": "Fundamental e Médio",
        "addr:city": "Itaguaçu",
        "addr:housenumber": "160",
        "addr:postcode": "29690-000",
        "addr:street": "Avenida 17 de Fevereiro",
        "addr:suburb": "Centro",
        "alt_name": "Escola Estadual de Ensino Fundamental e Médio",
        "amenity": "school",
        "contact:phone": "+55 27 3725-1311;+55 27 3725-1494",
        "name": "EEEFM Eurico Salles",
        "source": "IJSN",
        "id": "node/3273467144"
      },
      "geometry": {
        "type": "Point",
        "coordinates": [
          -40.8559156,
          -19.8035344
        ]
      }
    },
    {
      "type": "Feature",
      "id": "node/3273469561",
      "properties": {
        "timestamp": "2019-07-11T17:33:19Z",
        "version": 3,
        "changeset": 72146221,
        "IJSN:administra": "Municipal",
        "IJSN:classeCnae": "Fundamental",
        "addr:city": "Itaguaçu",
        "addr:housenumber": "90",
        "addr:postcode": "29690-000",
        "addr:street": "Avenida 17 de Fevereiro",
        "addr:suburb": "Centro",
        "alt_name": "Escola Municipal de Ensino Fundamental",
        "amenity": "school",
        "contact:phone": "+55 27 3725-1239;+55 27 3725-1078",
        "name": "EMEF Thiers Velloso",
        "source": "IJSN",
        "id": "node/3273469561"
      },
      "geometry": {
        "type": "Point",
        "coordinates": [
          -40.8564955,
          -19.80399
        ]
      }
    },
    {
      "type": "Feature",
      "id": "node/4024904473",
      "properties": {
        "timestamp": "2016-02-25T01:59:27Z",
        "version": 1,
        "changeset": 37426154,
        "IJSN:administra": "Estadual",
        "IJSN:classeCnae": "Fundamental e Médio",
        "addr:city": "Itaguaçu",
        "addr:housenumber": "14",
        "addr:postcode": "29690-000",
        "addr:suburb": "Comunidade Itaimbé",
        "alt_name": "Escola Estadual de Ensino Fundamental e Médio",
        "amenity": "school",
        "name": "EEEFM Alfredo Lemos",
        "source": "IJSN",
        "id": "node/4024904473"
      },
      "geometry": {
        "type": "Point",
        "coordinates": [
          -40.8356319,
          -19.6645232
        ]
      }
    },
    {
      "type": "Feature",
      "id": "node/4024904475",
      "properties": {
        "timestamp": "2016-02-25T01:59:27Z",
        "version": 1,
        "changeset": 37426154,
        "IJSN:administra": "Estadual",
        "IJSN:classeCnae": "Fundamental e Médio",
        "addr:city": "Itaguaçu",
        "addr:postcode": "29690-000",
        "addr:suburb": "Comunidade Alto Laje",
        "alt_name": "Escola Estadual de Ensino Fundamental e Médio",
        "amenity": "school",
        "name": "EEEFM Alto Lage",
        "source": "IJSN",
        "id": "node/4024904475"
      },
      "geometry": {
        "type": "Point",
        "coordinates": [
          -40.9208963,
          -19.693659
        ]
      }
    },
    {
      "type": "Feature",
      "id": "node/4024904887",
      "properties": {
        "timestamp": "2016-02-25T01:59:47Z",
        "version": 1,
        "changeset": 37426154,
        "IJSN:administra": "Estadual",
        "IJSN:classeCnae": "Fundamental",
        "addr:city": "Itaguaçu",
        "addr:housenumber": "12",
        "addr:postcode": "29690-000",
        "addr:suburb": "Comunidade Caetano",
        "alt_name": "Escola Estadual Pluridocente de Ensino Fundamental",
        "amenity": "school",
        "name": "EEPEF Antônio Conselheiro",
        "source": "IJSN",
        "id": "node/4024904887"
      },
      "geometry": {
        "type": "Point",
        "coordinates": [
          -40.8650628,
          -19.7750144
        ]
      }
    },
    {
      "type": "Feature",
      "id": "node/4024904993",
      "properties": {
        "timestamp": "2016-02-25T01:59:48Z",
        "version": 1,
        "changeset": 37426154,
        "IJSN:administra": "Estadual",
        "IJSN:classeCnae": "Fundamental",
        "addr:city": "Itaguaçu",
        "addr:housenumber": "20",
        "addr:postcode": "29690-000",
        "addr:suburb": "Comunidade Sobreiro",
        "alt_name": "Escola Estadual Pluridocente de Ensino Fundamental",
        "amenity": "school",
        "name": "EEPEF Fazenda Boa Sorte",
        "source": "IJSN",
        "id": "node/4024904993"
      },
      "geometry": {
        "type": "Point",
        "coordinates": [
          -40.9095649,
          -19.7354538
        ]
      }
    },
    {
      "type": "Feature",
      "id": "node/4024904995",
      "properties": {
        "timestamp": "2016-02-25T01:59:49Z",
        "version": 1,
        "changeset": 37426154,
        "IJSN:administra": "Estadual",
        "IJSN:classeCnae": "Fundamental",
        "addr:city": "Itaguaçu",
        "addr:housenumber": "63",
        "addr:postcode": "29690-000",
        "addr:suburb": "Comunidade Beira Rio",
        "alt_name": "Escola Estadual Pluridocente de Ensino Fundamental",
        "amenity": "school",
        "name": "EEPEF Fazenda Germano Petter",
        "source": "IJSN",
        "id": "node/4024904995"
      },
      "geometry": {
        "type": "Point",
        "coordinates": [
          -40.8216322,
          -19.6700301
        ]
      }
    },
    {
      "type": "Feature",
      "id": "node/4024904996",
      "properties": {
        "timestamp": "2016-02-25T01:59:49Z",
        "version": 1,
        "changeset": 37426154,
        "IJSN:administra": "Estadual",
        "IJSN:classeCnae": "Fundamental",
        "addr:city": "Itaguaçu",
        "addr:housenumber": "26",
        "addr:postcode": "29690-000",
        "addr:suburb": "Comunidade Fazenda Panorama",
        "alt_name": "Escola Estadual Pluridocente de Ensino Fundamental",
        "amenity": "school",
        "name": "EEPEF Fazenda Quintiliano Martinelli",
        "source": "IJSN",
        "id": "node/4024904996"
      },
      "geometry": {
        "type": "Point",
        "coordinates": [
          -40.8751258,
          -19.6732805
        ]
      }
    },
    {
      "type": "Feature",
      "id": "node/4024905050",
      "properties": {
        "timestamp": "2016-02-25T01:59:57Z",
        "version": 1,
        "changeset": 37426154,
        "IJSN:administra": "Estadual",
        "IJSN:classeCnae": "Fundamental",
        "addr:city": "Itaguaçu",
        "addr:housenumber": "33",
        "addr:postcode": "29690-000",
        "addr:street": "Rua Pontal",
        "addr:suburb": "Comunidade Fazenda Pontal",
        "alt_name": "Escola Estadual Unidocente de Ensino Fundamental",
        "amenity": "school",
        "name": "EEUEF Pontal",
        "source": "IJSN",
        "id": "node/4024905050"
      },
      "geometry": {
        "type": "Point",
        "coordinates": [
          -40.8258592,
          -19.6178141
        ]
      }
    },
    {
      "type": "Feature",
      "id": "node/4024905253",
      "properties": {
        "timestamp": "2016-02-25T02:00:13Z",
        "version": 1,
        "changeset": 37426154,
        "IJSN:administra": "Municipal",
        "IJSN:classeCnae": "Fundamental",
        "addr:city": "Itaguaçu",
        "addr:postcode": "29690-000",
        "addr:street": "Rodovia 484 - Km 4 - Barra do Triunfo",
        "addr:suburb": "Comunidade Itaguaçú",
        "alt_name": "Escola Municipal de Ensino Fundamental",
        "amenity": "school",
        "contact:phone": "(27) 3725-0002",
        "name": "EMEF Amanda Leite Cunha",
        "source": "IJSN",
        "id": "node/4024905253"
      },
      "geometry": {
        "type": "Point",
        "coordinates": [
          -40.8675553,
          -19.8254556
        ]
      }
    },
    {
      "type": "Feature",
      "id": "node/4024905607",
      "properties": {
        "timestamp": "2016-02-25T02:00:39Z",
        "version": 1,
        "changeset": 37426154,
        "IJSN:administra": "Municipal",
        "IJSN:classeCnae": "Fundamental",
        "addr:city": "Itaguaçu",
        "addr:postcode": "29697-000",
        "addr:street": "Rua Valério A. Frechiani",
        "addr:suburb": "Comunidade Itaçú",
        "alt_name": "Escola Municipal de Ensino Fundamental",
        "amenity": "school",
        "contact:phone": "(27) 3725-4073",
        "name": "EMEF Maria Pauli Sperandio",
        "source": "IJSN",
        "id": "node/4024905607"
      },
      "geometry": {
        "type": "Point",
        "coordinates": [
          -40.785295,
          -19.7027325
        ]
      }
    },
    {
      "type": "Feature",
      "id": "node/4024905639",
      "properties": {
        "timestamp": "2016-02-25T02:00:45Z",
        "version": 1,
        "changeset": 37426154,
        "IJSN:administra": "Municipal",
        "IJSN:classeCnae": "Fundamental",
        "addr:city": "Itaguaçu",
        "addr:postcode": "29690-000",
        "addr:street": "Rua Romualdo Vieira Carvalho",
        "addr:suburb": "Comunidade Palmeira",
        "alt_name": "Escola Municipal de Ensino Fundamental",
        "amenity": "school",
        "contact:phone": "(27) 3725-6044",
        "name": "EMEF Padre Alonso",
        "source": "IJSN",
        "id": "node/4024905639"
      },
      "geometry": {
        "type": "Point",
        "coordinates": [
          -40.8343763,
          -19.6952998
        ]
      }
    },
    {
      "type": "Feature",
      "id": "node/4024905892",
      "properties": {
        "timestamp": "2016-02-25T02:01:10Z",
        "version": 1,
        "changeset": 37426154,
        "IJSN:administra": "Municipal",
        "IJSN:classeCnae": "Fundamental",
        "addr:city": "Itaguaçu",
        "addr:postcode": "29690-000",
        "addr:suburb": "Comunidade Caparaó",
        "alt_name": "Escola Municipal de Ensino Infantil e Fundamental",
        "amenity": "school",
        "name": "EMEIEF Hugo Azevedo",
        "source": "IJSN",
        "id": "node/4024905892"
      },
      "geometry": {
        "type": "Point",
        "coordinates": [
          -40.9605745,
          -19.7368691
        ]
      }
    },
    {
      "type": "Feature",
      "id": "node/4024905986",
      "properties": {
        "timestamp": "2016-02-25T02:01:25Z",
        "version": 1,
        "changeset": 37426154,
        "IJSN:administra": "Municipal",
        "IJSN:classeCnae": "Fundamental",
        "addr:city": "Itaguaçu",
        "addr:postcode": "29690-000",
        "addr:suburb": "Comunidade Mata Pau",
        "alt_name": "Escola Municipal Pluridocente de Ensino Fundamental",
        "amenity": "school",
        "name": "EMPEF Alto Sobreiro",
        "source": "IJSN",
        "id": "node/4024905986"
      },
      "geometry": {
        "type": "Point",
        "coordinates": [
          -40.957127,
          -19.7816266
        ]
      }
    },
    {
      "type": "Feature",
      "id": "node/4024906177",
      "properties": {
        "timestamp": "2016-02-25T02:01:40Z",
        "version": 1,
        "changeset": 37426154,
        "IJSN:administra": "Municipal",
        "IJSN:classeCnae": "Infantil e Fundamental",
        "addr:city": "Itaguaçu",
        "addr:postcode": "29690-000",
        "addr:suburb": "Comunidade Alto Sobreiro",
        "alt_name": "Escola Municipal Pluridocente de Ensino Fundamental e Infantil",
        "amenity": "school",
        "name": "EMPEFEI José Fernandes",
        "source": "IJSN",
        "id": "node/4024906177"
      },
      "geometry": {
        "type": "Point",
        "coordinates": [
          -40.9840946,
          -19.7751999
        ]
      }
    },
    {
      "type": "Feature",
      "id": "node/4024906616",
      "properties": {
        "timestamp": "2016-02-25T02:02:15Z",
        "version": 1,
        "changeset": 37426154,
        "IJSN:administra": "Municipal",
        "IJSN:classeCnae": "Infantil e Fundamental",
        "addr:city": "Itaguaçu",
        "addr:postcode": "29690-000",
        "addr:suburb": "Comunidade São Sebastião",
        "alt_name": "Escola Municipal Unidocente de Ensino Fundamental e Infantil",
        "amenity": "school",
        "name": "EMUEFEI Sobreiro",
        "source": "IJSN",
        "id": "node/4024906616"
      },
      "geometry": {
        "type": "Point",
        "coordinates": [
          -40.902438,
          -19.7432656
        ]
      }
    },
    {
      "type": "Feature",
      "id": "node/5852820614",
      "properties": {
        "timestamp": "2018-08-24T03:00:54Z",
        "version": 2,
        "changeset": 61938037,
        "IJSN:administra": "Municipal",
        "IJSN:classeCnae": "Infantil e Fundamental",
        "addr:city": "Itaguaçu",
        "addr:postcode": "29690-000",
        "addr:suburb": "Comunidade Barra do Laranjal",
        "alt_name": "Escola Municipal de Ensino Infantil e Fundamental",
        "amenity": "school",
        "contact:phone": "(27) 9821-8304",
        "name": "EMEIEF Pedro Thomazini",
        "source": "IJSN",
        "id": "node/5852820614"
      },
      "geometry": {
        "type": "Point",
        "coordinates": [
          -40.891987,
          -19.5956724
        ]
      }
    }
  ]
}
