{
  "type": "FeatureCollection",
  "features": [
    {
      "type": "Feature",
      "id": "way/276988951",
      "properties": {
        "timestamp": "2014-04-25T11:26:26Z",
        "version": 1,
        "changeset": 21928911,
        "amenity": "school",
        "name": "Escola Estadual Francisco Domingues",
        "id": "way/276988951"
      },
      "geometry": {
        "type": "Polygon",
        "coordinates": [
          [
            [
              -36.5020499,
              -9.7378707
            ],
            [
              -36.5020803,
              -9.7381086
            ],
            [
              -36.5018552,
              -9.7381234
            ],
            [
              -36.5018369,
              -9.7379053
            ],
            [
              -36.5020499,
              -9.7378707
            ]
          ]
        ]
      }
    },
    {
      "type": "Feature",
      "id": "way/276988952",
      "properties": {
        "timestamp": "2014-04-25T11:26:26Z",
        "version": 1,
        "changeset": 21928911,
        "amenity": "school",
        "name": "Escola Municipal Maria Júlia Ferreira de Albuquerque",
        "source": "IBGE",
        "id": "way/276988952"
      },
      "geometry": {
        "type": "Polygon",
        "coordinates": [
          [
            [
              -36.5009004,
              -9.735704
            ],
            [
              -36.5010868,
              -9.7360362
            ],
            [
              -36.500916,
              -9.7361292
            ],
            [
              -36.5007297,
              -9.735797
            ],
            [
              -36.5009004,
              -9.735704
            ]
          ]
        ]
      }
    },
    {
      "type": "Feature",
      "id": "way/276988953",
      "properties": {
        "timestamp": "2014-04-25T11:26:26Z",
        "version": 1,
        "changeset": 21928911,
        "addr:city": "Limoeiro de Anadia",
        "addr:housenumber": "100",
        "addr:street": "Rua Luiz Gonzaga Bezerra da Silva",
        "amenity": "school",
        "name": "Escola Municipal Nossa Senhora da Conceição",
        "old_name": "Escola Antônio Albuquerque",
        "source": "IBGE",
        "id": "way/276988953"
      },
      "geometry": {
        "type": "Polygon",
        "coordinates": [
          [
            [
              -36.5025828,
              -9.7350391
            ],
            [
              -36.5026417,
              -9.7353681
            ],
            [
              -36.5020078,
              -9.7354783
            ],
            [
              -36.5019489,
              -9.7351493
            ],
            [
              -36.5025828,
              -9.7350391
            ]
          ]
        ]
      }
    },
    {
      "type": "Feature",
      "id": "node/2815428878",
      "properties": {
        "timestamp": "2017-01-11T18:58:33Z",
        "version": 2,
        "changeset": 45084107,
        "amenity": "school",
        "name": "Creche",
        "id": "node/2815428878"
      },
      "geometry": {
        "type": "Point",
        "coordinates": [
          -36.5044097,
          -9.7427627
        ]
      }
    },
    {
      "type": "Feature",
      "id": "node/2827958626",
      "properties": {
        "timestamp": "2014-04-30T23:16:50Z",
        "version": 1,
        "changeset": 22054228,
        "addr:hamlet": "Sítio Areia Vermelha",
        "addr:number": "25SMS",
        "addr:postcode": "57260000",
        "addr:street": "Sítio Areia Vermelha",
        "amenity": "school",
        "name": "Escola Municipal Coronel Adauto G. Barbosa",
        "source": "IBGE",
        "id": "node/2827958626"
      },
      "geometry": {
        "type": "Point",
        "coordinates": [
          -36.463543,
          -9.716247
        ]
      }
    },
    {
      "type": "Feature",
      "id": "node/2827958627",
      "properties": {
        "timestamp": "2014-04-30T23:16:50Z",
        "version": 1,
        "changeset": 22054228,
        "amenity": "school",
        "name": "Escola Rui Soares Palmeira",
        "id": "node/2827958627"
      },
      "geometry": {
        "type": "Point",
        "coordinates": [
          -36.4757476,
          -9.7425538
        ]
      }
    },
    {
      "type": "Feature",
      "id": "node/2827958628",
      "properties": {
        "timestamp": "2014-04-30T23:16:50Z",
        "version": 1,
        "changeset": 22054228,
        "amenity": "school",
        "name": "Escola Targino Domingos",
        "id": "node/2827958628"
      },
      "geometry": {
        "type": "Point",
        "coordinates": [
          -36.5125156,
          -9.7054571
        ]
      }
    },
    {
      "type": "Feature",
      "id": "node/2827958629",
      "properties": {
        "timestamp": "2014-04-30T23:16:50Z",
        "version": 1,
        "changeset": 22054228,
        "addr:hamlet": "Sítio Oiti",
        "addr:number": "9SMS",
        "addr:postcode": "57260000",
        "addr:street": "Sítio Oiti",
        "amenity": "school",
        "name": "Escola de Primeiro Grau Antônio Garcia",
        "source": "IBGE",
        "id": "node/2827958629"
      },
      "geometry": {
        "type": "Point",
        "coordinates": [
          -36.4663019,
          -9.754667
        ]
      }
    },
    {
      "type": "Feature",
      "id": "node/2827958708",
      "properties": {
        "timestamp": "2014-04-30T23:16:51Z",
        "version": 1,
        "changeset": 22054228,
        "addr:hamlet": "Sítio Gulandim",
        "addr:number": "21SMS",
        "addr:postcode": "57260000",
        "addr:street": "Sítio Gulandim",
        "amenity": "school",
        "source": "IBGE",
        "id": "node/2827958708"
      },
      "geometry": {
        "type": "Point",
        "coordinates": [
          -36.5384193,
          -9.6970782
        ]
      }
    },
    {
      "type": "Feature",
      "id": "node/2830030529",
      "properties": {
        "timestamp": "2014-05-01T19:55:59Z",
        "version": 1,
        "changeset": 22071659,
        "addr:hamlet": "CAMPESTRE",
        "addr:number": "0SN",
        "addr:postcode": "57260000",
        "addr:street": "SITIO CAMPESTRE",
        "amenity": "school",
        "fixme": "Localização e Nome",
        "name": "ESCOLA DE ENSINO FUNDAMENTAL",
        "source": "IBGE",
        "id": "node/2830030529"
      },
      "geometry": {
        "type": "Point",
        "coordinates": [
          -36.57609,
          -9.740092
        ]
      }
    },
    {
      "type": "Feature",
      "id": "node/2830030530",
      "properties": {
        "timestamp": "2015-02-09T22:29:36Z",
        "version": 2,
        "changeset": 28739455,
        "addr:hamlet": "Povoado Poção",
        "addr:number": "52",
        "addr:postcode": "57260-000",
        "addr:street": "Povoado Poção",
        "amenity": "school",
        "fixme": "Localização",
        "name": "Escola Manuel Antonio Teófilo",
        "id": "node/2830030530"
      },
      "geometry": {
        "type": "Point",
        "coordinates": [
          -36.573737,
          -9.695524
        ]
      }
    },
    {
      "type": "Feature",
      "id": "node/2830030531",
      "properties": {
        "timestamp": "2017-05-26T19:48:16Z",
        "version": 2,
        "changeset": 49010927,
        "addr:hamlet": "AREIA BRANCA",
        "addr:number": "0SN",
        "addr:postcode": "57260000",
        "addr:street": "SITIO AREIA BRANCA",
        "amenity": "school",
        "source": "IBGE",
        "id": "node/2830030531"
      },
      "geometry": {
        "type": "Point",
        "coordinates": [
          -36.5666187,
          -9.73951
        ]
      }
    },
    {
      "type": "Feature",
      "id": "node/2830030532",
      "properties": {
        "timestamp": "2017-01-11T18:58:33Z",
        "version": 2,
        "changeset": 45084107,
        "addr:hamlet": "SITIO PE LEVE",
        "addr:number": "30",
        "addr:postcode": "57260000",
        "addr:street": "SITIO PE LEVE",
        "amenity": "school",
        "id": "node/2830030532"
      },
      "geometry": {
        "type": "Point",
        "coordinates": [
          -36.5394419,
          -9.8076179
        ]
      }
    },
    {
      "type": "Feature",
      "id": "node/2830030533",
      "properties": {
        "timestamp": "2014-05-01T19:56:00Z",
        "version": 1,
        "changeset": 22071659,
        "addr:hamlet": "Timbo de Cima",
        "addr:number": "0SN",
        "addr:postcode": "57260000",
        "addr:street": "Sítio Timbo de Cima",
        "amenity": "school",
        "name": "Escola M. Benício Veríssimo da Silva",
        "source": "IBGE",
        "id": "node/2830030533"
      },
      "geometry": {
        "type": "Point",
        "coordinates": [
          -36.501835,
          -9.790387
        ]
      }
    },
    {
      "type": "Feature",
      "id": "node/2830030534",
      "properties": {
        "timestamp": "2014-05-01T19:56:00Z",
        "version": 1,
        "changeset": 22071659,
        "addr:hamlet": "Sítio Pau Ferro",
        "addr:number": "30",
        "addr:postcode": "57260000",
        "addr:street": "Sítio Pau Ferro",
        "amenity": "school",
        "name": "Escola Municipal Francisco Melo",
        "source": "IBGE",
        "id": "node/2830030534"
      },
      "geometry": {
        "type": "Point",
        "coordinates": [
          -36.442323,
          -9.751992
        ]
      }
    },
    {
      "type": "Feature",
      "id": "node/2830030535",
      "properties": {
        "timestamp": "2014-05-01T19:56:00Z",
        "version": 1,
        "changeset": 22071659,
        "addr:hamlet": "Sítio Papa Farinha",
        "addr:number": "0SN",
        "addr:postcode": "57260000",
        "addr:street": "Sítio Papa Farinha",
        "amenity": "school",
        "name": "Escola Municipal Governador Lamenha Filho",
        "source": "IBGE",
        "id": "node/2830030535"
      },
      "geometry": {
        "type": "Point",
        "coordinates": [
          -36.449208,
          -9.752938
        ]
      }
    },
    {
      "type": "Feature",
      "id": "node/2830030536",
      "properties": {
        "timestamp": "2014-05-01T19:56:00Z",
        "version": 1,
        "changeset": 22071659,
        "addr:hamlet": "Sítio Nicácia",
        "addr:number": "7SMS",
        "addr:postcode": "57260000",
        "addr:street": "Sítio Nicácia",
        "amenity": "school",
        "name": "Escola Municipal Helena Ribeiro Silva",
        "source": "IBGE",
        "id": "node/2830030536"
      },
      "geometry": {
        "type": "Point",
        "coordinates": [
          -36.4251487,
          -9.7168933
        ]
      }
    },
    {
      "type": "Feature",
      "id": "node/2830030537",
      "properties": {
        "timestamp": "2014-05-01T19:56:00Z",
        "version": 1,
        "changeset": 22071659,
        "addr:hamlet": "Fazenda Santa Rita",
        "addr:number": "40SMS",
        "addr:postcode": "57260000",
        "addr:street": "Fazenda Santa Rita",
        "amenity": "school",
        "name": "Escola Municipal José Marques da Silva",
        "id": "node/2830030537"
      },
      "geometry": {
        "type": "Point",
        "coordinates": [
          -36.4007781,
          -9.7687478
        ]
      }
    },
    {
      "type": "Feature",
      "id": "node/2830030538",
      "properties": {
        "timestamp": "2015-02-09T22:29:36Z",
        "version": 2,
        "changeset": 28739455,
        "addr:hamlet": "Sítio Baixa Seca",
        "addr:number": "38SMS",
        "addr:postcode": "57260-000",
        "addr:street": "Sítio Baixa Seca",
        "amenity": "school",
        "name": "Escola Municipal João Ramalho",
        "source": "IBGE",
        "id": "node/2830030538"
      },
      "geometry": {
        "type": "Point",
        "coordinates": [
          -36.36646,
          -9.726468
        ]
      }
    },
    {
      "type": "Feature",
      "id": "node/2830030539",
      "properties": {
        "timestamp": "2014-05-01T19:56:00Z",
        "version": 1,
        "changeset": 22071659,
        "addr:hamlet": "Covos",
        "addr:number": "24",
        "addr:postcode": "57260000",
        "addr:street": "Sítio Covos",
        "amenity": "school",
        "name": "Escola Municipal João da Silva",
        "id": "node/2830030539"
      },
      "geometry": {
        "type": "Point",
        "coordinates": [
          -36.489901,
          -9.6845546
        ]
      }
    },
    {
      "type": "Feature",
      "id": "node/2830030540",
      "properties": {
        "timestamp": "2014-05-01T19:56:00Z",
        "version": 1,
        "changeset": 22071659,
        "addr:hamlet": "Sítio Gravatá",
        "addr:number": "0SN",
        "addr:postcode": "57260000",
        "addr:street": "Sítio Gravatá",
        "amenity": "school",
        "name": "Escola Municipal Juvenal Francisco de Souza",
        "source": "IBGE",
        "id": "node/2830030540"
      },
      "geometry": {
        "type": "Point",
        "coordinates": [
          -36.4738486,
          -9.7130052
        ]
      }
    },
    {
      "type": "Feature",
      "id": "node/2830030541",
      "properties": {
        "timestamp": "2014-05-01T19:56:00Z",
        "version": 1,
        "changeset": 22071659,
        "addr:hamlet": "Fazend Serra Limpa",
        "addr:number": "0SN",
        "addr:postcode": "57260000",
        "addr:street": "Fazend Serra Limpa",
        "amenity": "school",
        "name": "Escola Municipal Maria Rocha",
        "source": "IBGE",
        "id": "node/2830030541"
      },
      "geometry": {
        "type": "Point",
        "coordinates": [
          -36.4835895,
          -9.6840494
        ]
      }
    },
    {
      "type": "Feature",
      "id": "node/2830030543",
      "properties": {
        "timestamp": "2014-05-01T19:56:01Z",
        "version": 1,
        "changeset": 22071659,
        "addr:hamlet": "Canto I",
        "addr:number": "64SMS",
        "addr:postcode": "57260000",
        "addr:street": "Sítio Canto I",
        "amenity": "school",
        "name": "Escola Municipal Nenita Moreira do Carmo",
        "source": "IBGE",
        "id": "node/2830030543"
      },
      "geometry": {
        "type": "Point",
        "coordinates": [
          -36.4472492,
          -9.7278908
        ]
      }
    },
    {
      "type": "Feature",
      "id": "node/2830030544",
      "properties": {
        "timestamp": "2014-08-27T01:09:11Z",
        "version": 2,
        "changeset": 25042442,
        "addr:hamlet": "Sítio Urtigas",
        "addr:number": "0SN",
        "addr:postcode": "57260000",
        "addr:street": "Sítio Urtigas",
        "amenity": "school",
        "fixme": "position",
        "name": "Escola Municipal Padre R. Batista",
        "id": "node/2830030544"
      },
      "geometry": {
        "type": "Point",
        "coordinates": [
          -36.431816,
          -9.7685315
        ]
      }
    },
    {
      "type": "Feature",
      "id": "node/2830030545",
      "properties": {
        "timestamp": "2014-05-01T19:56:01Z",
        "version": 1,
        "changeset": 22071659,
        "addr:hamlet": "Sítio Olho D'água",
        "addr:number": "46FNS",
        "addr:postcode": "57260000",
        "addr:street": "Sítio Olho D'água",
        "amenity": "school",
        "name": "Escola Municipal Pedro Álvares Cabral",
        "source": "IBGE",
        "id": "node/2830030545"
      },
      "geometry": {
        "type": "Point",
        "coordinates": [
          -36.4797,
          -9.793687
        ]
      }
    },
    {
      "type": "Feature",
      "id": "node/2830030546",
      "properties": {
        "timestamp": "2014-05-01T19:56:01Z",
        "version": 1,
        "changeset": 22071659,
        "addr:hamlet": "Poço Comprido",
        "addr:number": "85SMS",
        "addr:postcode": "57260000",
        "addr:street": "Povoado Poço Comprido",
        "amenity": "school",
        "name": "Escola Municipal Presidente Ernesto Geisel",
        "source": "IBGE",
        "id": "node/2830030546"
      },
      "geometry": {
        "type": "Point",
        "coordinates": [
          -36.473657,
          -9.768475
        ]
      }
    },
    {
      "type": "Feature",
      "id": "node/2830030547",
      "properties": {
        "timestamp": "2014-05-01T19:56:01Z",
        "version": 1,
        "changeset": 22071659,
        "addr:hamlet": "SITIO CHAPEU DE SOL",
        "addr:number": "0SN",
        "addr:postcode": "57260000",
        "addr:street": "SITIO CHAPEU DE SOL",
        "amenity": "school",
        "name": "Escola Municipal Rosália F. Reis",
        "source": "IBGE",
        "id": "node/2830030547"
      },
      "geometry": {
        "type": "Point",
        "coordinates": [
          -36.4142821,
          -9.7772616
        ]
      }
    },
    {
      "type": "Feature",
      "id": "node/2830030549",
      "properties": {
        "timestamp": "2014-05-01T19:56:01Z",
        "version": 1,
        "changeset": 22071659,
        "addr:hamlet": "Sítio Cacimbas",
        "addr:number": "0",
        "addr:postcode": "57260000",
        "addr:street": "Sítio Cacimbas",
        "amenity": "school",
        "fixme": "position",
        "name": "Escola Nossa Senhora de Fátima",
        "id": "node/2830030549"
      },
      "geometry": {
        "type": "Point",
        "coordinates": [
          -36.4656133,
          -9.6774261
        ]
      }
    },
    {
      "type": "Feature",
      "id": "node/2830030550",
      "properties": {
        "timestamp": "2014-05-01T19:56:01Z",
        "version": 1,
        "changeset": 22071659,
        "addr:hamlet": "Sítio Varginha",
        "addr:number": "24",
        "addr:postcode": "57260000",
        "addr:street": "Sítio Varginha",
        "amenity": "school",
        "name": "Escola de Varginha",
        "source": "IBGE",
        "id": "node/2830030550"
      },
      "geometry": {
        "type": "Point",
        "coordinates": [
          -36.4461174,
          -9.6758654
        ]
      }
    },
    {
      "type": "Feature",
      "id": "node/2830031192",
      "properties": {
        "timestamp": "2014-05-01T19:56:05Z",
        "version": 1,
        "changeset": 22071659,
        "addr:hamlet": "Brejo",
        "addr:number": "32SMS",
        "addr:postcode": "57260000",
        "addr:street": "Travessa Apóstolo Brejo",
        "amenity": "school",
        "source": "IBGE",
        "id": "node/2830031192"
      },
      "geometry": {
        "type": "Point",
        "coordinates": [
          -36.557242,
          -9.678533
        ]
      }
    },
    {
      "type": "Feature",
      "id": "node/2830031423",
      "properties": {
        "timestamp": "2017-05-26T19:48:16Z",
        "version": 2,
        "changeset": 49010927,
        "addr:hamlet": "POCO DA JULIA",
        "addr:number": "0SN",
        "addr:postcode": "57260000",
        "addr:street": "SITIO POCO DA JULIA",
        "amenity": "school",
        "fixme": "Localização e Nome",
        "id": "node/2830031423"
      },
      "geometry": {
        "type": "Point",
        "coordinates": [
          -36.5678875,
          -9.7015364
        ]
      }
    },
    {
      "type": "Feature",
      "id": "node/2830032221",
      "properties": {
        "timestamp": "2017-05-26T19:48:16Z",
        "version": 3,
        "changeset": 49010927,
        "addr:hamlet": "SITIO JUREMA",
        "addr:number": "10",
        "addr:postcode": "57260000",
        "addr:street": "SITIO JUREMA",
        "amenity": "school",
        "fixme": "Localização e Nome",
        "id": "node/2830032221"
      },
      "geometry": {
        "type": "Point",
        "coordinates": [
          -36.5495056,
          -9.7987682
        ]
      }
    },
    {
      "type": "Feature",
      "id": "node/4856838748",
      "properties": {
        "timestamp": "2017-05-16T04:00:44Z",
        "version": 1,
        "changeset": 48717883,
        "amenity": "school",
        "name": "Escola Municipal de Educação Básica Max Antônio Ferreira Barbosa",
        "id": "node/4856838748"
      },
      "geometry": {
        "type": "Point",
        "coordinates": [
          -36.5269716,
          -9.7602688
        ]
      }
    }
  ]
}
