{
  "type": "FeatureCollection",
  "features": [
    {
      "type": "Feature",
      "id": "way/625674457",
      "properties": {
        "timestamp": "2018-09-15T00:01:09Z",
        "version": 2,
        "changeset": 62598606,
        "addr:city": "Ouro Fino",
        "addr:housenumber": "100",
        "addr:postcode": "37570-000",
        "addr:street": "Avenida Doutor Professor Antônio Eufrásio de Toledo",
        "addr:suburb": "Jardim dos Ypês",
        "amenity": "university",
        "email": "administracao@asmec.br",
        "name": "Faculdades ASMEC",
        "operator": "União das Instituições de Serviços, Ensino e Pesquisa Ltda – UNISEPE",
        "phone": "+55 35 3441 1617",
        "id": "way/625674457"
      },
      "geometry": {
        "type": "Polygon",
        "coordinates": [
          [
            [
              -46.3750855,
              -22.2872916
            ],
            [
              -46.3744472,
              -22.2871328
            ],
            [
              -46.3748763,
              -22.2858223
            ],
            [
              -46.3751231,
              -22.2858819
            ],
            [
              -46.3754315,
              -22.2865619
            ],
            [
              -46.3752639,
              -22.2870856
            ],
            [
              -46.375223,
              -22.2872258
            ],
            [
              -46.3750855,
              -22.2872916
            ]
          ]
        ]
      }
    }
  ]
}
