{
  "type": "FeatureCollection",
  "features": [
    {
      "type": "Feature",
      "id": "node/4879558340",
      "properties": {
        "timestamp": "2022-10-07T10:51:29Z",
        "version": 2,
        "changeset": 127145327,
        "addr:city": "Conceição do Mato Dentro",
        "addr:street": "Alameda Francisco de Oliveira Matos",
        "addr:suburb": "Alto da Boa Vista",
        "email": "gerencia@atishotel.com.br",
        "name": "Átis Hotel Express Conceição",
        "operator": "Imaginie Tecnologia Educacional LTDA",
        "operator:type": "private",
        "phone": "+55 31 3311 4800",
        "tourism": "hotel",
        "id": "node/4879558340"
      },
      "geometry": {
        "type": "Point",
        "coordinates": [
          -43.4238368,
          -19.0443079
        ]
      }
    },
    {
      "type": "Feature",
      "id": "node/10038191063",
      "properties": {
        "timestamp": "2022-09-19T22:27:01Z",
        "version": 1,
        "changeset": 126398799,
        "addr:city": "Conceição do Mato Dentro",
        "addr:housenumber": "128",
        "addr:postcode": "35860-000",
        "addr:street": "Avenida Getúlio Vargas",
        "addr:suburb": "Centro",
        "name": "Pires Pousada",
        "phone": "+55 31 3868 1020",
        "tourism": "hotel",
        "id": "node/10038191063"
      },
      "geometry": {
        "type": "Point",
        "coordinates": [
          -43.423701,
          -19.037016
        ]
      }
    },
    {
      "type": "Feature",
      "id": "node/10038191064",
      "properties": {
        "timestamp": "2022-10-10T02:26:25Z",
        "version": 3,
        "changeset": 127275248,
        "addr:city": "Conceição do Mato Dentro",
        "addr:housenumber": "494",
        "addr:postcode": "35860-000",
        "addr:street": "Avenida Juscelino Kubitschek",
        "addr:suburb": "Centro",
        "name": "Pousada Serra Velha",
        "phone": "+55 31 3868 1351",
        "tourism": "hotel",
        "website": "https://www.serravelha.com.br/",
        "id": "node/10038191064"
      },
      "geometry": {
        "type": "Point",
        "coordinates": [
          -43.4247619,
          -19.0341389
        ]
      }
    },
    {
      "type": "Feature",
      "id": "node/10038920938",
      "properties": {
        "timestamp": "2022-09-20T09:07:55Z",
        "version": 1,
        "changeset": 126412972,
        "addr:city": "Conceição do Mato Dentro",
        "addr:postcode": "35860-000",
        "addr:street": "Rua Quinzinho Costa",
        "name": "Pousada do Carioca",
        "tourism": "hotel",
        "id": "node/10038920938"
      },
      "geometry": {
        "type": "Point",
        "coordinates": [
          -43.4226734,
          -19.0368938
        ]
      }
    },
    {
      "type": "Feature",
      "id": "node/10038920940",
      "properties": {
        "timestamp": "2022-09-20T09:07:55Z",
        "version": 1,
        "changeset": 126412972,
        "addr:city": "Conceição do Mato Dentro",
        "addr:postcode": "35860-000",
        "addr:street": "Praça Magalhães Pinto",
        "name": "Pallitos Hotel",
        "tourism": "hotel",
        "id": "node/10038920940"
      },
      "geometry": {
        "type": "Point",
        "coordinates": [
          -43.4232472,
          -19.0392618
        ]
      }
    },
    {
      "type": "Feature",
      "id": "node/10081694517",
      "properties": {
        "timestamp": "2022-10-07T10:51:29Z",
        "version": 1,
        "changeset": 127145327,
        "addr:city": "Conceição do Mato Dentro",
        "addr:housenumber": "142",
        "addr:postcode": "35860-000",
        "addr:street": "Rua Professor Juvêncio Policarpo",
        "addr:suburb": "Saudade",
        "name": "Pousada da Saudade",
        "phone": "+55 31 99700 6677",
        "tourism": "hotel",
        "website": "mariguerra25@gmail.com",
        "id": "node/10081694517"
      },
      "geometry": {
        "type": "Point",
        "coordinates": [
          -43.4250764,
          -19.039566
        ]
      }
    },
    {
      "type": "Feature",
      "id": "node/10081694518",
      "properties": {
        "timestamp": "2022-10-07T10:51:29Z",
        "version": 1,
        "changeset": 127145327,
        "name": "Hotel Moralima",
        "tourism": "hotel",
        "id": "node/10081694518"
      },
      "geometry": {
        "type": "Point",
        "coordinates": [
          -43.4244424,
          -19.0411596
        ]
      }
    },
    {
      "type": "Feature",
      "id": "node/10081694527",
      "properties": {
        "timestamp": "2022-10-07T10:51:29Z",
        "version": 1,
        "changeset": 127145327,
        "addr:city": "Conceição do Mato Dentro",
        "addr:housenumber": "78",
        "addr:postcode": "35860-000",
        "addr:street": "Travessa Professor Costa Chiab",
        "addr:suburb": "Maranhão",
        "name": "Pousada Chácara Santa Inês",
        "phone": "+55 31 3313 1708",
        "tourism": "hotel",
        "id": "node/10081694527"
      },
      "geometry": {
        "type": "Point",
        "coordinates": [
          -43.4269813,
          -19.0397404
        ]
      }
    },
    {
      "type": "Feature",
      "id": "node/10081694532",
      "properties": {
        "timestamp": "2022-10-07T10:51:29Z",
        "version": 1,
        "changeset": 127145327,
        "addr:city": "Conceição do Mato Dentro",
        "addr:housenumber": "700",
        "addr:postcode": "35860-000",
        "addr:street": "Rua Professor Oscarino Ferreira Carneiro",
        "addr:suburb": "Alto da Boa Vista",
        "name": "Pousada Estrada Velha",
        "tourism": "hotel",
        "id": "node/10081694532"
      },
      "geometry": {
        "type": "Point",
        "coordinates": [
          -43.4265377,
          -19.0432071
        ]
      }
    }
  ]
}
