{
  "type": "FeatureCollection",
  "features": [
    {
      "type": "Feature",
      "id": "way/247541586",
      "properties": {
        "timestamp": "2019-04-07T21:09:08Z",
        "version": 2,
        "changeset": 68987399,
        "amenity": "school",
        "id": "way/247541586"
      },
      "geometry": {
        "type": "Polygon",
        "coordinates": [
          [
            [
              -43.4226427,
              -19.0307667
            ],
            [
              -43.4225048,
              -19.0308584
            ],
            [
              -43.4224568,
              -19.0307937
            ],
            [
              -43.4225947,
              -19.0307021
            ],
            [
              -43.4226427,
              -19.0307667
            ]
          ]
        ]
      }
    },
    {
      "type": "Feature",
      "id": "way/247541589",
      "properties": {
        "timestamp": "2019-04-07T21:09:08Z",
        "version": 2,
        "changeset": 68987399,
        "amenity": "school",
        "id": "way/247541589"
      },
      "geometry": {
        "type": "Polygon",
        "coordinates": [
          [
            [
              -43.4227398,
              -19.0308798
            ],
            [
              -43.4227949,
              -19.0309549
            ],
            [
              -43.4223089,
              -19.0312734
            ],
            [
              -43.4222538,
              -19.0311983
            ],
            [
              -43.4227398,
              -19.0308798
            ]
          ]
        ]
      }
    },
    {
      "type": "Feature",
      "id": "way/247541590",
      "properties": {
        "timestamp": "2019-04-07T21:09:08Z",
        "version": 2,
        "changeset": 68987399,
        "amenity": "school",
        "id": "way/247541590"
      },
      "geometry": {
        "type": "Polygon",
        "coordinates": [
          [
            [
              -43.4226974,
              -19.0308402
            ],
            [
              -43.4222229,
              -19.0311555
            ],
            [
              -43.4221683,
              -19.031082
            ],
            [
              -43.4225048,
              -19.0308584
            ],
            [
              -43.4226427,
              -19.0307667
            ],
            [
              -43.4226974,
              -19.0308402
            ]
          ]
        ]
      }
    },
    {
      "type": "Feature",
      "id": "way/247948069",
      "properties": {
        "timestamp": "2018-11-20T12:14:02Z",
        "version": 2,
        "changeset": 64694299,
        "amenity": "school",
        "id": "way/247948069"
      },
      "geometry": {
        "type": "Polygon",
        "coordinates": [
          [
            [
              -43.4439052,
              -19.0173919
            ],
            [
              -43.4439427,
              -19.0174691
            ],
            [
              -43.4437023,
              -19.0175734
            ],
            [
              -43.4436966,
              -19.0175617
            ],
            [
              -43.4436635,
              -19.017576
            ],
            [
              -43.4434912,
              -19.0176508
            ],
            [
              -43.4434594,
              -19.0175853
            ],
            [
              -43.4439052,
              -19.0173919
            ]
          ]
        ]
      }
    },
    {
      "type": "Feature",
      "id": "way/682307418",
      "properties": {
        "timestamp": "2022-10-06T19:32:04Z",
        "version": 2,
        "changeset": 127116560,
        "addr:city": "Conceição do Mato Dentro",
        "addr:postcode": "35860-000",
        "addr:street": "Rua Daniel Carvalho",
        "addr:suburb": "Centro",
        "amenity": "school",
        "website": "escola.23451@educacao.mg.gov.br",
        "id": "way/682307418"
      },
      "geometry": {
        "type": "Polygon",
        "coordinates": [
          [
            [
              -43.4255788,
              -19.0351191
            ],
            [
              -43.4253857,
              -19.0351164
            ],
            [
              -43.4248143,
              -19.0349866
            ],
            [
              -43.4248592,
              -19.0344581
            ],
            [
              -43.4252155,
              -19.0344852
            ],
            [
              -43.4252255,
              -19.0343882
            ],
            [
              -43.425595,
              -19.0344619
            ],
            [
              -43.4255788,
              -19.0351191
            ]
          ]
        ]
      }
    },
    {
      "type": "Feature",
      "id": "way/1122062431",
      "properties": {
        "timestamp": "2022-12-14T14:19:52Z",
        "version": 1,
        "changeset": 130078067,
        "amenity": "school",
        "id": "way/1122062431"
      },
      "geometry": {
        "type": "Polygon",
        "coordinates": [
          [
            [
              -43.4308219,
              -19.0237503
            ],
            [
              -43.4311512,
              -19.0237803
            ],
            [
              -43.4311426,
              -19.0238651
            ],
            [
              -43.4311771,
              -19.0238682
            ],
            [
              -43.4311628,
              -19.024009
            ],
            [
              -43.4310451,
              -19.0239983
            ],
            [
              -43.4310596,
              -19.0238567
            ],
            [
              -43.4308134,
              -19.0238343
            ],
            [
              -43.4308219,
              -19.0237503
            ]
          ]
        ]
      }
    },
    {
      "type": "Feature",
      "id": "node/4569074291",
      "properties": {
        "timestamp": "2022-10-06T19:32:04Z",
        "version": 3,
        "changeset": 127116560,
        "addr:city": "Conceição do Mato Dentro",
        "addr:housenumber": "250",
        "addr:postcode": "35860-000",
        "addr:street": "Rua Daniel Carvalho",
        "addr:suburb": "Centro",
        "amenity": "school",
        "email": "escola.23451@educacao.mg.gov.br",
        "name": "Escola Estadual São Joaquim",
        "name:pt": "Escola Estadual São Joaquim",
        "id": "node/4569074291"
      },
      "geometry": {
        "type": "Point",
        "coordinates": [
          -43.4256038,
          -19.0347135
        ]
      }
    },
    {
      "type": "Feature",
      "id": "node/10050644875",
      "properties": {
        "timestamp": "2022-09-25T10:05:42Z",
        "version": 1,
        "changeset": 126609468,
        "addr:city": "Conceição do Mato Dentro",
        "addr:suburb": "Córregos",
        "amenity": "school",
        "name": "Escola Estadual Cônego Antônio Madureira",
        "id": "node/10050644875"
      },
      "geometry": {
        "type": "Point",
        "coordinates": [
          -43.5006747,
          -18.8880312
        ]
      }
    },
    {
      "type": "Feature",
      "id": "node/10080560587",
      "properties": {
        "timestamp": "2022-10-06T19:32:04Z",
        "version": 1,
        "changeset": 127116560,
        "addr:city": "Conceição do Mato Dentro",
        "addr:housenumber": "12",
        "addr:postcode": "35860-000",
        "addr:street": "Praça Dom Joaquim",
        "addr:suburb": "Centro",
        "amenity": "school",
        "name": "Escola Estadual Daniel de Carvalho",
        "operator": "Secretaria de Educação do Estado de Minas Gerais",
        "operator:type": "public",
        "id": "node/10080560587"
      },
      "geometry": {
        "type": "Point",
        "coordinates": [
          -43.4258557,
          -19.0344197
        ]
      }
    },
    {
      "type": "Feature",
      "id": "node/10080560590",
      "properties": {
        "timestamp": "2022-10-06T19:32:04Z",
        "version": 1,
        "changeset": 127116560,
        "amenity": "school",
        "name": "Escola Municipal Professor João Lima",
        "id": "node/10080560590"
      },
      "geometry": {
        "type": "Point",
        "coordinates": [
          -43.4248219,
          -19.0353425
        ]
      }
    },
    {
      "type": "Feature",
      "id": "node/10081939561",
      "properties": {
        "timestamp": "2022-10-07T13:15:32Z",
        "version": 1,
        "changeset": 127152565,
        "addr:city": "Conceição do Mato Dentro",
        "addr:housenumber": "797",
        "addr:postcode": "35860-000",
        "addr:street": "Avenida Juscelino Kubitschek",
        "addr:suburb": "Centro",
        "amenity": "school",
        "name": "Colégio Integra",
        "id": "node/10081939561"
      },
      "geometry": {
        "type": "Point",
        "coordinates": [
          -43.4269857,
          -19.0308244
        ]
      }
    },
    {
      "type": "Feature",
      "id": "node/10081939563",
      "properties": {
        "timestamp": "2022-12-14T14:19:52Z",
        "version": 2,
        "changeset": 130078067,
        "addr:city": "Conceição de Mato Dentro",
        "addr:housenumber": "250",
        "addr:postcode": "35860-000",
        "addr:street": "Rua Professor Juvêncio Miranda",
        "addr:suburb": "Bandeirinhas",
        "amenity": "school",
        "name": "Escola Estadual Aracy Pedrelina de Lima Oliveira",
        "operator": "Secretaria de Educação do Estado de Minas Gerais",
        "operator:type": "public",
        "id": "node/10081939563"
      },
      "geometry": {
        "type": "Point",
        "coordinates": [
          -43.431041,
          -19.0240407
        ]
      }
    },
    {
      "type": "Feature",
      "id": "node/10081939564",
      "properties": {
        "timestamp": "2022-10-07T13:15:32Z",
        "version": 1,
        "changeset": 127152565,
        "addr:city": "Conceição do Mato Dentro",
        "addr:housenumber": "447",
        "addr:postcode": "35860-000",
        "addr:street": "Rua Três",
        "addr:suburb": "Jardim Bouganville",
        "amenity": "school",
        "name": "Coleguium - Unidade Conceição do Mato Dentro",
        "operator": "Imaginie Tecnologia Educacional LTDA",
        "operator:type": "private",
        "id": "node/10081939564"
      },
      "geometry": {
        "type": "Point",
        "coordinates": [
          -43.4386048,
          -19.0252617
        ]
      }
    },
    {
      "type": "Feature",
      "id": "node/10081939566",
      "properties": {
        "timestamp": "2022-10-07T13:15:32Z",
        "version": 1,
        "changeset": 127152565,
        "addr:city": "Conceição do Mato Dentro",
        "addr:postcode": "35850-000",
        "addr:street": "Rua dos Forros",
        "addr:suburb": "Costa Sena",
        "amenity": "school",
        "name": "Escola Estadual Leandro Pereira Malaquias",
        "id": "node/10081939566"
      },
      "geometry": {
        "type": "Point",
        "coordinates": [
          -43.6624198,
          -18.6690464
        ]
      }
    },
    {
      "type": "Feature",
      "id": "node/10081939571",
      "properties": {
        "timestamp": "2022-10-07T13:15:32Z",
        "version": 1,
        "changeset": 127152565,
        "amenity": "school",
        "id": "node/10081939571"
      },
      "geometry": {
        "type": "Point",
        "coordinates": [
          -43.520726,
          -19.00196
        ]
      }
    },
    {
      "type": "Feature",
      "id": "node/10081939573",
      "properties": {
        "timestamp": "2022-10-07T13:15:32Z",
        "version": 1,
        "changeset": 127152565,
        "addr:city": "Conceição do Mato Dentro",
        "addr:housenumber": "298",
        "addr:postcode": "35850-000",
        "addr:street": "Rua Pedro Peixoto",
        "addr:suburb": "Itacolomi",
        "amenity": "school",
        "name": "Escola Estadual de Itacolomi",
        "operator": "Secretaria de Educação do Estado de Minas Gerais",
        "operator:type": "public",
        "id": "node/10081939573"
      },
      "geometry": {
        "type": "Point",
        "coordinates": [
          -43.5195076,
          -19.0020716
        ]
      }
    },
    {
      "type": "Feature",
      "id": "node/10166366503",
      "properties": {
        "timestamp": "2022-11-07T12:17:02Z",
        "version": 1,
        "changeset": 128595270,
        "addr:city": "Conceição do Mato Dentro",
        "addr:postcode": "35858-000",
        "addr:street": "Rua Saulo Madureira",
        "addr:suburb": "Meloso",
        "amenity": "school",
        "name": "Escola Mucipal de Meloso",
        "id": "node/10166366503"
      },
      "geometry": {
        "type": "Point",
        "coordinates": [
          -43.3405375,
          -19.0782325
        ]
      }
    }
  ]
}
