{
  "type": "FeatureCollection",
  "features": [
    {
      "type": "Feature",
      "id": "way/545236622",
      "properties": {
        "timestamp": "2021-09-25T06:33:15Z",
        "version": 2,
        "changeset": 111674724,
        "addr:city": "Cabo Frio",
        "addr:housenumber": "27",
        "addr:postcode": "28922-235",
        "addr:street": "Rua do Moinho",
        "addr:suburb": "Per√≥",
        "building": "retail",
        "name": "Cicle Brasileiro",
        "shop": "bicycle",
        "id": "way/545236622"
      },
      "geometry": {
        "type": "Polygon",
        "coordinates": [
          [
            [
              -41.9908241,
              -22.8606465
            ],
            [
              -41.9907794,
              -22.8607167
            ],
            [
              -41.9907073,
              -22.860669
            ],
            [
              -41.9907489,
              -22.8605997
            ],
            [
              -41.9908241,
              -22.8606465
            ]
          ]
        ]
      }
    }
  ]
}
