{
  "type": "FeatureCollection",
  "features": [
    {
      "type": "Feature",
      "id": "way/302813545",
      "properties": {
        "timestamp": "2023-06-17T18:29:26Z",
        "version": 2,
        "changeset": 137457399,
        "addr:city": "Medeiros Neto",
        "addr:postcode": "45960-000",
        "addr:street": "Rua Doutor Antônio Coelho de Lima",
        "building": "yes",
        "government": "social_security",
        "name": "Agência da Previdência Social em Medeiros Neto",
        "office": "government",
        "operator": "Instituto Nacional do Seguro Social",
        "operator:short": "INSS",
        "operator:wikidata": "Q10302614",
        "phone": "+55 73 3296 2004",
        "id": "way/302813545"
      },
      "geometry": {
        "type": "Polygon",
        "coordinates": [
          [
            [
              -40.2235037,
              -17.3647748
            ],
            [
              -40.2235365,
              -17.364663
            ],
            [
              -40.2237973,
              -17.3647327
            ],
            [
              -40.2237644,
              -17.3648446
            ],
            [
              -40.2235037,
              -17.3647748
            ]
          ]
        ]
      }
    },
    {
      "type": "Feature",
      "id": "node/10982894072",
      "properties": {
        "timestamp": "2023-06-17T18:29:26Z",
        "version": 1,
        "changeset": 137457399,
        "addr:city": "Medeiros Neto",
        "addr:postcode": "45960-000",
        "addr:street": "Rua Inácio Pereira",
        "addr:suburb": "Centro",
        "government": "education",
        "name": "Secretaria Municipal de Educação",
        "office": "government",
        "id": "node/10982894072"
      },
      "geometry": {
        "type": "Point",
        "coordinates": [
          -40.2224608,
          -17.3728949
        ]
      }
    },
    {
      "type": "Feature",
      "id": "node/10983844035",
      "properties": {
        "timestamp": "2023-06-18T19:34:52Z",
        "version": 2,
        "changeset": 137490726,
        "addr:city": "Medeiros Neto",
        "addr:postcode": "45960-000",
        "addr:street": "Praça Deolisano Rodrigues",
        "addr:suburb": "Centro",
        "government": "healthcare",
        "name": "Secretaria Municipal de Saúde",
        "office": "government",
        "id": "node/10983844035"
      },
      "geometry": {
        "type": "Point",
        "coordinates": [
          -40.2209557,
          -17.3711797
        ]
      }
    },
    {
      "type": "Feature",
      "id": "node/10984701396",
      "properties": {
        "timestamp": "2023-06-18T19:34:52Z",
        "version": 1,
        "changeset": 137490726,
        "addr:city": "Medeiros Neto",
        "addr:postcode": "45960-000",
        "addr:street": "Rua Santo Antônio",
        "addr:suburb": "Centro",
        "government": "environment",
        "name": "Secretaria Municipal de Meio Ambiente",
        "office": "government",
        "id": "node/10984701396"
      },
      "geometry": {
        "type": "Point",
        "coordinates": [
          -40.2199115,
          -17.3750254
        ]
      }
    },
    {
      "type": "Feature",
      "id": "node/10984701397",
      "properties": {
        "timestamp": "2023-06-18T19:34:52Z",
        "version": 1,
        "changeset": 137490726,
        "addr:city": "Medeiros Neto",
        "addr:postcode": "45960-000",
        "addr:street": "Rua Santo Antônio",
        "addr:suburb": "Centro",
        "government": "agriculture",
        "name": "Secretaria Municipal de Agropecuária",
        "office": "government",
        "id": "node/10984701397"
      },
      "geometry": {
        "type": "Point",
        "coordinates": [
          -40.2199253,
          -17.3750916
        ]
      }
    }
  ]
}
