{
  "type": "FeatureCollection",
  "features": [
    {
      "type": "Feature",
      "id": "way/729923069",
      "properties": {
        "timestamp": "2023-06-18T14:56:16Z",
        "version": 2,
        "changeset": 137481670,
        "addr:city": "Medeiros Neto",
        "addr:district": "Itupeva",
        "addr:housenumber": "559",
        "addr:postcode": "45960-000",
        "addr:street": "Praça Eugenia Viana Rodrigues",
        "addr:suburb": "Centro",
        "amenity": "school",
        "email": "veralucia.rg@hotmail.com",
        "name": "Colégio Estadual Isaura Trancoso Viana",
        "operator": "Governo da Bahia",
        "operator:type": "public",
        "phone": "+55 73 3645 1114",
        "school": "high_school",
        "id": "way/729923069"
      },
      "geometry": {
        "type": "Polygon",
        "coordinates": [
          [
            [
              -40.4710049,
              -17.4857358
            ],
            [
              -40.4707387,
              -17.4859629
            ],
            [
              -40.4704005,
              -17.485616
            ],
            [
              -40.4706655,
              -17.4853933
            ],
            [
              -40.4710049,
              -17.4857358
            ]
          ]
        ]
      }
    },
    {
      "type": "Feature",
      "id": "way/729932192",
      "properties": {
        "timestamp": "2019-10-09T10:59:13Z",
        "version": 3,
        "changeset": 75454511,
        "amenity": "school",
        "name": "Sargento Pedro Salustiano De Souza Filho",
        "school": "secondary",
        "id": "way/729932192"
      },
      "geometry": {
        "type": "Polygon",
        "coordinates": [
          [
            [
              -40.4722101,
              -17.4875139
            ],
            [
              -40.4720894,
              -17.4877442
            ],
            [
              -40.4716013,
              -17.4874525
            ],
            [
              -40.4717649,
              -17.4872248
            ],
            [
              -40.4722101,
              -17.4875139
            ]
          ]
        ]
      }
    },
    {
      "type": "Feature",
      "id": "way/1182751255",
      "properties": {
        "timestamp": "2023-06-17T18:29:26Z",
        "version": 1,
        "changeset": 137457399,
        "addr:city": "Medeiros Neto",
        "addr:postcode": "45960-000",
        "addr:street": "Praça dos Estudantes",
        "addr:suburb": "Centro",
        "amenity": "school",
        "name": "Ginásio João Vinte e Três",
        "operator": "Governo da Bahia",
        "operator:type": "public",
        "phone": "+55 73 99952 9962",
        "id": "way/1182751255"
      },
      "geometry": {
        "type": "Polygon",
        "coordinates": [
          [
            [
              -40.2229082,
              -17.3729159
            ],
            [
              -40.2229467,
              -17.3733191
            ],
            [
              -40.2227061,
              -17.3733867
            ],
            [
              -40.222378,
              -17.373431
            ],
            [
              -40.22232,
              -17.3729892
            ],
            [
              -40.2229082,
              -17.3729159
            ]
          ]
        ]
      }
    },
    {
      "type": "Feature",
      "id": "way/1182779740",
      "properties": {
        "timestamp": "2023-06-17T21:23:57Z",
        "version": 1,
        "changeset": 137461586,
        "addr:city": "Medeiros Neto",
        "addr:postcode": "45960-000",
        "addr:street": "Rua Doutor Antônio Coelho de Lima",
        "addr:suburb": "Planalto",
        "amenity": "school",
        "id": "way/1182779740"
      },
      "geometry": {
        "type": "Polygon",
        "coordinates": [
          [
            [
              -40.2240685,
              -17.3641466
            ],
            [
              -40.2239496,
              -17.3645066
            ],
            [
              -40.2235991,
              -17.3644127
            ],
            [
              -40.2237262,
              -17.3640527
            ],
            [
              -40.2240685,
              -17.3641466
            ]
          ]
        ]
      }
    },
    {
      "type": "Feature",
      "id": "way/1182779770",
      "properties": {
        "timestamp": "2023-06-18T01:33:05Z",
        "version": 2,
        "changeset": 137464423,
        "addr:city": "Medeiros Neto",
        "addr:postcode": "45960-000",
        "addr:street": "Rodovia BA-290",
        "amenity": "school",
        "name": "Centro Territorial Educacional Profissional Medeiros Neto",
        "operator": "Governo da Bahia",
        "operator:type": "public",
        "id": "way/1182779770"
      },
      "geometry": {
        "type": "Polygon",
        "coordinates": [
          [
            [
              -40.2099541,
              -17.4276501
            ],
            [
              -40.2090156,
              -17.4287084
            ],
            [
              -40.2076261,
              -17.4276618
            ],
            [
              -40.2086377,
              -17.4264756
            ],
            [
              -40.2099541,
              -17.4276501
            ]
          ]
        ]
      }
    },
    {
      "type": "Feature",
      "id": "way/1182779795",
      "properties": {
        "timestamp": "2023-06-18T11:46:04Z",
        "version": 2,
        "changeset": 137475624,
        "addr:city": "Medeiros Neto",
        "addr:housenumber": "100",
        "addr:postcode": "45960-000",
        "addr:street": "Avenida Presidente Médici",
        "addr:suburb": "Centro",
        "amenity": "school",
        "email": "solyvieira@hotmail.com",
        "name": "Escola Estadual Deolisano Rodrigues De Souza",
        "operator": "Governo da Bahia",
        "operator:type": "public",
        "phone": "+55 73 3396 1046",
        "id": "way/1182779795"
      },
      "geometry": {
        "type": "Polygon",
        "coordinates": [
          [
            [
              -40.2227808,
              -17.3711751
            ],
            [
              -40.2218556,
              -17.3714669
            ],
            [
              -40.2216946,
              -17.3707655
            ],
            [
              -40.2226709,
              -17.3707041
            ],
            [
              -40.2227808,
              -17.3711751
            ]
          ]
        ]
      }
    },
    {
      "type": "Feature",
      "id": "way/1182800426",
      "properties": {
        "timestamp": "2023-06-18T01:33:05Z",
        "version": 1,
        "changeset": 137464423,
        "addr:city": "Medeiros Neto",
        "addr:postcode": "45960-000",
        "addr:street": "Avenida Ayrton Senna",
        "addr:suburb": "Uldurico Pinto",
        "amenity": "school",
        "email": "escola_chistinna@hotmail.com",
        "name": "Escola Municipal Christinna de Amarante e Mota",
        "operator": "Município de Medeiros Neto",
        "operator:type": "public",
        "id": "way/1182800426"
      },
      "geometry": {
        "type": "Polygon",
        "coordinates": [
          [
            [
              -40.2315709,
              -17.3847292
            ],
            [
              -40.231249,
              -17.3851413
            ],
            [
              -40.230903,
              -17.3848803
            ],
            [
              -40.2312383,
              -17.3844784
            ],
            [
              -40.2315709,
              -17.3847292
            ]
          ]
        ]
      }
    },
    {
      "type": "Feature",
      "id": "way/1182800430",
      "properties": {
        "timestamp": "2023-06-18T01:33:05Z",
        "version": 1,
        "changeset": 137464423,
        "addr:city": "Medeiros Neto",
        "addr:housenumber": "250",
        "addr:postcode": "4590-000",
        "addr:street": "Rua Dois Irmãos",
        "addr:suburb": "São Bernardo",
        "amenity": "school",
        "email": "aurelino_andrade@hotmail.com",
        "name": "Escola Estadual de Primeiro Grau Aurelino Andrade Silva",
        "operator": "Governo da Bahia",
        "operator:type": "public",
        "phone": "+55 73 3296 1675",
        "id": "way/1182800430"
      },
      "geometry": {
        "type": "Polygon",
        "coordinates": [
          [
            [
              -40.2211154,
              -17.3791561
            ],
            [
              -40.2210108,
              -17.3792918
            ],
            [
              -40.2205736,
              -17.3789258
            ],
            [
              -40.2206997,
              -17.3787875
            ],
            [
              -40.2211154,
              -17.3791561
            ]
          ]
        ]
      }
    },
    {
      "type": "Feature",
      "id": "way/1182853084",
      "properties": {
        "timestamp": "2024-04-22T19:06:30Z",
        "version": 2,
        "changeset": 150362187,
        "addr:city": "Medeiros Neto",
        "addr:postcode": "45960-000",
        "addr:street": "Rua Maria Imperatriz",
        "addr:suburb": "Planalto Dois",
        "amenity": "school",
        "name": "Escola Municipal de Primeiro Grau Virgilio Ferreira da Silva",
        "operator": "Município de Medeiros Neto",
        "operator:type": "public",
        "phone": "+55 73 3296 1657",
        "id": "way/1182853084"
      },
      "geometry": {
        "type": "Polygon",
        "coordinates": [
          [
            [
              -40.2279794,
              -17.3715563
            ],
            [
              -40.2279812,
              -17.3717961
            ],
            [
              -40.22756,
              -17.3718502
            ],
            [
              -40.2275193,
              -17.3715816
            ],
            [
              -40.2279794,
              -17.3715563
            ]
          ]
        ]
      }
    },
    {
      "type": "Feature",
      "id": "way/1182853086",
      "properties": {
        "timestamp": "2023-06-18T11:46:04Z",
        "version": 1,
        "changeset": 137475624,
        "addr:city": "Medeiros Neto",
        "addr:housenumber": "88",
        "addr:postcode": "45960-000",
        "addr:street": "Rua Antônio Fonseca",
        "addr:suburb": "Centro",
        "amenity": "school",
        "email": "p.maciel@terra.com.br",
        "name": "Centro Educacional O Lírio dos Vales",
        "operator": "Centro Educacional O Lírio dos Vales",
        "operator:type": "private",
        "phone": "+55 73 3296 1062",
        "id": "way/1182853086"
      },
      "geometry": {
        "type": "Polygon",
        "coordinates": [
          [
            [
              -40.2205439,
              -17.3700321
            ],
            [
              -40.2205456,
              -17.3701942
            ],
            [
              -40.2203085,
              -17.3701858
            ],
            [
              -40.2203068,
              -17.3699797
            ],
            [
              -40.2205439,
              -17.3700321
            ]
          ]
        ]
      }
    },
    {
      "type": "Feature",
      "id": "way/1182853088",
      "properties": {
        "timestamp": "2023-06-18T11:46:04Z",
        "version": 1,
        "changeset": 137475624,
        "addr:city": "Medeiros Neto",
        "addr:postcode": "45960-000",
        "addr:street": "Rua Clidenor de Oliveira",
        "addr:suburb": "Centro",
        "amenity": "school",
        "email": "grupohumberto@hotmail.com",
        "name": "Escola Municipal Humberto de Alencar Castelo Branco",
        "operator": "Município de Medeiros Neto",
        "operator:type": "public",
        "phone": "+55 73 99800 2874",
        "id": "way/1182853088"
      },
      "geometry": {
        "type": "Polygon",
        "coordinates": [
          [
            [
              -40.2232717,
              -17.3709782
            ],
            [
              -40.2232502,
              -17.3710281
            ],
            [
              -40.2230062,
              -17.3711152
            ],
            [
              -40.2228519,
              -17.3706941
            ],
            [
              -40.223147,
              -17.3706032
            ],
            [
              -40.2232717,
              -17.3709782
            ]
          ]
        ]
      }
    },
    {
      "type": "Feature",
      "id": "way/1275043485",
      "properties": {
        "timestamp": "2024-04-22T19:45:10Z",
        "version": 1,
        "changeset": 150363555,
        "addr:city": "Medeiros Neto",
        "addr:postcode": "45960-000",
        "addr:street": "Rua Principal",
        "addr:suburb": "Vila Mutum",
        "amenity": "school",
        "name": "Escola Municipal Antônio Alves Guimarães",
        "operator": "Secretaria Municipal de Educação de Medeiros Neto",
        "operator:type": "public",
        "phone": "+55 73 3645 6067",
        "id": "way/1275043485"
      },
      "geometry": {
        "type": "Polygon",
        "coordinates": [
          [
            [
              -40.456428,
              -17.2813645
            ],
            [
              -40.4563734,
              -17.2815268
            ],
            [
              -40.4559212,
              -17.2814123
            ],
            [
              -40.4559425,
              -17.281266
            ],
            [
              -40.4563172,
              -17.2811226
            ],
            [
              -40.456428,
              -17.2813645
            ]
          ]
        ]
      }
    },
    {
      "type": "Feature",
      "id": "node/11048819072",
      "properties": {
        "timestamp": "2023-07-16T01:38:35Z",
        "version": 1,
        "changeset": 138563251,
        "addr:city": "Medeiros Neto",
        "addr:district": "Nova Lídice",
        "addr:postcode": "45965-000",
        "addr:street": "Rua Manoel Ferreira Lima",
        "addr:suburb": "Centro",
        "amenity": "school",
        "name": "Escola Municipal Manoel Ferreira Lima",
        "operator": "Município de Medeiros Neto",
        "operator:type": "public",
        "phone": "+55 73 3645 2038",
        "id": "node/11048819072"
      },
      "geometry": {
        "type": "Point",
        "coordinates": [
          -39.9397029,
          -17.4375512
        ]
      }
    },
    {
      "type": "Feature",
      "id": "node/11048819073",
      "properties": {
        "timestamp": "2023-07-16T01:38:35Z",
        "version": 1,
        "changeset": 138563251,
        "addr:city": "Medeiros Neto",
        "addr:district": "Nova Lídice",
        "addr:postcode": "45965-000",
        "addr:street": "Praça Deolisano Rodrigues",
        "addr:suburb": "Centro",
        "amenity": "school",
        "name": "Colégio Estadual Leur Lomanto",
        "operator": "Governo do Estado da Bahia",
        "operator:type": "public",
        "phone": "+55 73 3645 2038",
        "id": "node/11048819073"
      },
      "geometry": {
        "type": "Point",
        "coordinates": [
          -39.9386685,
          -17.4366044
        ]
      }
    },
    {
      "type": "Feature",
      "id": "node/11048819074",
      "properties": {
        "timestamp": "2023-07-16T01:38:35Z",
        "version": 1,
        "changeset": 138563251,
        "addr:city": "Nova Lídice",
        "addr:street": "Estrada Antiga",
        "addr:suburb": "Centro",
        "amenity": "school",
        "id": "node/11048819074"
      },
      "geometry": {
        "type": "Point",
        "coordinates": [
          -39.9361516,
          -17.4363676
        ]
      }
    },
    {
      "type": "Feature",
      "id": "node/11103479945",
      "properties": {
        "timestamp": "2023-08-09T23:05:27Z",
        "version": 1,
        "changeset": 139681083,
        "addr:city": "Caravelas",
        "addr:street": "Rua do Grupo",
        "addr:suburb": "Juracitaba",
        "amenity": "school",
        "name": "Escola Municipal Domingos Carlos da Rocha",
        "id": "node/11103479945"
      },
      "geometry": {
        "type": "Point",
        "coordinates": [
          -40.1027368,
          -17.4537239
        ]
      }
    },
    {
      "type": "Feature",
      "id": "node/11200967572",
      "properties": {
        "timestamp": "2023-09-18T21:32:44Z",
        "version": 1,
        "changeset": 141442984,
        "amenity": "school",
        "name": "Escola Monteiro Lobato",
        "id": "node/11200967572"
      },
      "geometry": {
        "type": "Point",
        "coordinates": [
          -40.2216416,
          -17.3739298
        ]
      }
    }
  ]
}
