{
  "type": "FeatureCollection",
  "features": [
    {
      "type": "Feature",
      "id": "node/7508823235",
      "properties": {
        "timestamp": "2020-05-11T22:03:52Z",
        "version": 1,
        "changeset": 85048087,
        "addr:street": "Estrada Geral Arataca",
        "amenity": "clinic",
        "healthcare": "clinic",
        "name": "Posto de Saúde da Arataca",
        "id": "node/7508823235"
      },
      "geometry": {
        "type": "Point",
        "coordinates": [
          -48.8923453,
          -27.3684814
        ]
      }
    },
    {
      "type": "Feature",
      "id": "node/8546398837",
      "properties": {
        "timestamp": "2023-01-21T15:42:25Z",
        "version": 3,
        "changeset": 131545356,
        "access": "yes",
        "addr:city": "São João Batista",
        "addr:postcode": "88240-000",
        "addr:street": "Rua Gilson Geraldo Sartori",
        "addr:suburb": "Centro",
        "amenity": "clinic",
        "brand": "Sistema Único de Saúde",
        "brand:short": "SUS",
        "brand:wikidata": "Q7531056",
        "brand:wikipedia": "pt:Sistema Único de Saúde",
        "healthcare": "clinic",
        "healthcare:speciality": "general",
        "name": "Unidade Central de Saúde",
        "operator": "Prefeitura Municipal de São João Batista",
        "operator:type": "government",
        "id": "node/8546398837"
      },
      "geometry": {
        "type": "Point",
        "coordinates": [
          -48.8551151,
          -27.2723073
        ]
      }
    }
  ]
}
