{
  "type": "FeatureCollection",
  "features": [
    {
      "type": "Feature",
      "id": "node/7465041080",
      "properties": {
        "timestamp": "2021-04-21T20:09:01Z",
        "version": 2,
        "changeset": 103362756,
        "addr:city": "São João Batista",
        "addr:housenumber": "37",
        "addr:postcode": "88240-000",
        "addr:street": "Rua João Vicente Gomes",
        "addr:suburb": "Centro",
        "government": "legislative",
        "name": "Câmara de Vereadores de São João Batista",
        "office": "government",
        "id": "node/7465041080"
      },
      "geometry": {
        "type": "Point",
        "coordinates": [
          -48.8529716,
          -27.2769288
        ]
      }
    },
    {
      "type": "Feature",
      "id": "node/7508668877",
      "properties": {
        "timestamp": "2020-05-11T21:01:15Z",
        "version": 1,
        "changeset": 85046310,
        "addr:housenumber": "38",
        "addr:street": "Rua João Francisco Steil",
        "government": "register_office",
        "name": "Tabelionato de Notas e Protestos de São João Batista SC",
        "office": "government",
        "id": "node/7508668877"
      },
      "geometry": {
        "type": "Point",
        "coordinates": [
          -48.8536626,
          -27.2780088
        ]
      }
    },
    {
      "type": "Feature",
      "id": "node/7508810658",
      "properties": {
        "timestamp": "2020-05-11T22:03:52Z",
        "version": 1,
        "changeset": 85048087,
        "government": "yes",
        "name": "Intendência de Tijipió",
        "office": "government",
        "id": "node/7508810658"
      },
      "geometry": {
        "type": "Point",
        "coordinates": [
          -48.8932576,
          -27.3651288
        ]
      }
    }
  ]
}
