{
  "type": "FeatureCollection",
  "features": [
    {
      "type": "Feature",
      "id": "way/1074346237",
      "properties": {
        "timestamp": "2022-06-28T22:13:27Z",
        "version": 1,
        "changeset": 122976459,
        "building": "yes",
        "government": "register_office",
        "office": "government",
        "id": "way/1074346237"
      },
      "geometry": {
        "type": "Polygon",
        "coordinates": [
          [
            [
              -48.8085199,
              -20.8796972
            ],
            [
              -48.8085184,
              -20.87955
            ],
            [
              -48.8085587,
              -20.8795496
            ],
            [
              -48.8085592,
              -20.8796014
            ],
            [
              -48.8086111,
              -20.879601
            ],
            [
              -48.8086117,
              -20.8796591
            ],
            [
              -48.8085886,
              -20.8796593
            ],
            [
              -48.8085889,
              -20.8796966
            ],
            [
              -48.8085199,
              -20.8796972
            ]
          ]
        ]
      }
    },
    {
      "type": "Feature",
      "id": "way/1077742147",
      "properties": {
        "timestamp": "2022-07-11T17:08:48Z",
        "version": 1,
        "changeset": 123484447,
        "building": "yes",
        "name": "Casa da Agricultura",
        "office": "government",
        "id": "way/1077742147"
      },
      "geometry": {
        "type": "Polygon",
        "coordinates": [
          [
            [
              -48.8065125,
              -20.8797271
            ],
            [
              -48.8063329,
              -20.8797316
            ],
            [
              -48.8063299,
              -20.8796291
            ],
            [
              -48.8065095,
              -20.8796246
            ],
            [
              -48.8065125,
              -20.8797271
            ]
          ]
        ]
      }
    },
    {
      "type": "Feature",
      "id": "node/5943741472",
      "properties": {
        "timestamp": "2019-01-31T15:26:52Z",
        "version": 3,
        "changeset": 66805605,
        "addr:city": "Cajobi",
        "addr:housenumber": "417",
        "addr:postcode": "15410-000",
        "addr:street": "Rua Ulysses de Paula Monteiro",
        "addr:suburb": "Centro",
        "name": "DETRAN-Departamento Estadual de Transito",
        "office": "government",
        "phone": "+55 17 3563 3276",
        "id": "node/5943741472"
      },
      "geometry": {
        "type": "Point",
        "coordinates": [
          -48.8113005,
          -20.8777058
        ]
      }
    },
    {
      "type": "Feature",
      "id": "node/6251850658",
      "properties": {
        "timestamp": "2019-02-01T15:52:58Z",
        "version": 1,
        "changeset": 66836925,
        "addr:city": "Cajobi",
        "addr:housenumber": "11",
        "addr:street": "Rua Capitão Lázaro Vaz de Lima",
        "addr:suburb": "Centro",
        "email": "educacao@cajobi.sp.gov.br",
        "name": "Secretaria de Educação e Cultura",
        "office": "government",
        "phone": "17 3563-1510",
        "id": "node/6251850658"
      },
      "geometry": {
        "type": "Point",
        "coordinates": [
          -48.8093973,
          -20.8814377
        ]
      }
    },
    {
      "type": "Feature",
      "id": "node/9816147327",
      "properties": {
        "timestamp": "2022-06-14T02:26:30Z",
        "version": 1,
        "changeset": 122348662,
        "addr:city": "Cajobi",
        "addr:housenumber": "465",
        "addr:postcode": "15410-000",
        "addr:street": "Rua Doutor Adhemaro Godoy",
        "addr:suburb": "Centro",
        "government": "register_office",
        "name": "Oficial de Registro Civil das Pessoas Naturais e Tabelião de Notas",
        "office": "government",
        "id": "node/9816147327"
      },
      "geometry": {
        "type": "Point",
        "coordinates": [
          -48.8085426,
          -20.8796803
        ]
      }
    }
  ]
}
