{
  "type": "FeatureCollection",
  "features": [
    {
      "type": "Feature",
      "id": "node/4445868889",
      "properties": {
        "timestamp": "2020-02-23T18:01:23Z",
        "version": 2,
        "changeset": 81372701,
        "amenity": "dentist",
        "healthcare": "dentist",
        "id": "node/4445868889"
      },
      "geometry": {
        "type": "Point",
        "coordinates": [
          -50.9335925,
          -17.7987545
        ]
      }
    },
    {
      "type": "Feature",
      "id": "node/7480597689",
      "properties": {
        "timestamp": "2020-05-04T14:45:42Z",
        "version": 2,
        "changeset": 84630731,
        "addr:city": "Rio Verde",
        "addr:housenumber": "296",
        "addr:postcode": "75901140",
        "addr:street": "Rua Avelino de Faria",
        "addr:suburb": "Centro",
        "amenity": "dentist",
        "healthcare": "dentist",
        "healthcare:speciality": "dentist",
        "name": "Dra Camilla Nascimento",
        "id": "node/7480597689"
      },
      "geometry": {
        "type": "Point",
        "coordinates": [
          -50.9281066,
          -17.7928517
        ]
      }
    },
    {
      "type": "Feature",
      "id": "node/9914909983",
      "properties": {
        "timestamp": "2022-07-27T14:41:50Z",
        "version": 2,
        "changeset": 124144980,
        "amenity": "dentist",
        "name": "Alegratti Odontologia",
        "id": "node/9914909983"
      },
      "geometry": {
        "type": "Point",
        "coordinates": [
          -50.9279296,
          -17.8209946
        ]
      }
    },
    {
      "type": "Feature",
      "id": "node/10212290937",
      "properties": {
        "timestamp": "2022-11-23T15:35:50Z",
        "version": 1,
        "changeset": 129287069,
        "amenity": "dentist",
        "healthcare": "dentist",
        "name": "Arquitetura do Sorriso",
        "id": "node/10212290937"
      },
      "geometry": {
        "type": "Point",
        "coordinates": [
          -50.9448426,
          -17.8139663
        ]
      }
    },
    {
      "type": "Feature",
      "id": "node/10212296648",
      "properties": {
        "timestamp": "2022-11-23T15:33:22Z",
        "version": 1,
        "changeset": 129286989,
        "addr:city": "Rio Verde",
        "addr:housenumber": "435",
        "addr:street": "Rua 20",
        "addr:suburb": "Bairro Popular",
        "amenity": "dentist",
        "healthcare": "dentist",
        "name": "Sorriso Sa√∫de",
        "opening_hours": "Mo-Fr 08:00-18:00",
        "operator": "Dra Camilla Nascimento",
        "id": "node/10212296648"
      },
      "geometry": {
        "type": "Point",
        "coordinates": [
          -50.9160468,
          -17.7765126
        ]
      }
    },
    {
      "type": "Feature",
      "id": "node/10310836014",
      "properties": {
        "timestamp": "2023-01-06T12:58:35Z",
        "version": 1,
        "changeset": 130946602,
        "amenity": "dentist",
        "name": "Oral Essence",
        "id": "node/10310836014"
      },
      "geometry": {
        "type": "Point",
        "coordinates": [
          -50.925686,
          -17.7995079
        ]
      }
    }
  ]
}
