{
  "type": "FeatureCollection",
  "features": [
    {
      "type": "Feature",
      "id": "node/6464789226",
      "properties": {
        "timestamp": "2019-05-29T17:06:00Z",
        "version": 2,
        "changeset": 70741398,
        "addr:city": "Piraí",
        "addr:street": "Via Sítio Manancial",
        "addr:suburb": "Arrozal",
        "amenity": "community_centre",
        "name": "Sítio Manancial Eventos",
        "id": "node/6464789226"
      },
      "geometry": {
        "type": "Point",
        "coordinates": [
          -44.0333648,
          -22.5816361
        ]
      }
    },
    {
      "type": "Feature",
      "id": "node/6684674107",
      "properties": {
        "timestamp": "2019-08-05T14:12:51Z",
        "version": 1,
        "changeset": 73026730,
        "addr:city": "Piraí",
        "addr:street": "Rodovia Presidente Dutra",
        "addr:suburb": "Arrozal",
        "amenity": "community_centre",
        "name": "Sítio Manancial",
        "id": "node/6684674107"
      },
      "geometry": {
        "type": "Point",
        "coordinates": [
          -44.0331354,
          -22.5818925
        ]
      }
    }
  ]
}
