{
  "type": "FeatureCollection",
  "features": [
    {
      "type": "Feature",
      "id": "node/12613922653",
      "properties": {
        "timestamp": "2025-02-23T23:02:36Z",
        "version": 2,
        "changeset": 162871623,
        "addr:city": "Pinheiral",
        "addr:housenumber": "107 C",
        "addr:street": "Rua Valter Valim Botelho",
        "addr:suburb": "Vale do Sol",
        "amenity": "doctors",
        "check_date:opening_hours": "2025-02-23",
        "contact:facebook": "https://www.facebook.com/Medissonmedicos/",
        "contact:instagram": "https://www.instagram.com/medissonmedicos",
        "healthcare": "doctor",
        "name": "Medisson Clínica da Família",
        "opening_hours": "Mo-Sa 09:00-17:00",
        "opening_hours:url": "https://www.facebook.com/Medissonmedicos/",
        "source:opening_hours": "website",
        "id": "node/12613922653"
      },
      "geometry": {
        "type": "Point",
        "coordinates": [
          -44.0140045,
          -22.5031019
        ]
      }
    }
  ]
}
