{
  "type": "FeatureCollection",
  "features": [
    {
      "type": "Feature",
      "id": "node/4330877007",
      "properties": {
        "timestamp": "2016-08-01T12:55:03Z",
        "version": 1,
        "changeset": 41167203,
        "addr:city": "Pinheiral",
        "addr:street": "Rua Coronel Joaquim Ferreira Ribeiro",
        "amenity": "school",
        "name": "Ciep 291 Dom Martinho Schlude",
        "id": "node/4330877007"
      },
      "geometry": {
        "type": "Point",
        "coordinates": [
          -43.9963577,
          -22.5195794
        ]
      }
    },
    {
      "type": "Feature",
      "id": "node/4330909202",
      "properties": {
        "timestamp": "2016-08-01T13:18:04Z",
        "version": 1,
        "changeset": 41167731,
        "addr:city": "Pinheiral",
        "addr:street": "Rua José Breves",
        "amenity": "school",
        "name": "IFRJ - Campus Nilo Peçanha",
        "id": "node/4330909202"
      },
      "geometry": {
        "type": "Point",
        "coordinates": [
          -43.9947844,
          -22.5189036
        ]
      }
    },
    {
      "type": "Feature",
      "id": "node/4330913728",
      "properties": {
        "timestamp": "2016-08-01T13:19:37Z",
        "version": 1,
        "changeset": 41167771,
        "addr:city": "Pinheiral",
        "addr:street": "Rua José Breves",
        "amenity": "school",
        "name": "Colégio Agrícola Nilo Peçanha",
        "id": "node/4330913728"
      },
      "geometry": {
        "type": "Point",
        "coordinates": [
          -43.993701,
          -22.5193221
        ]
      }
    }
  ]
}
