{
  "type": "FeatureCollection",
  "features": [
    {
      "type": "Feature",
      "id": "way/1020908030",
      "properties": {
        "timestamp": "2022-01-13T17:25:40Z",
        "version": 1,
        "changeset": 116116039,
        "addr:city": "Guaçuí",
        "addr:housenumber": "s/n",
        "addr:postcode": "29560-000",
        "addr:street": "Avenida Agenor Luis Thomé",
        "addr:suburb": "Quincas Machado",
        "amenity": "clinic",
        "building": "yes",
        "building:levels": "1",
        "healthcare": "clinic",
        "healthcare:speciality": "cardiology;orthopaedics;psychiatry",
        "name": "Rede Cuidar Guaçuí",
        "operator": "Secretaria de Estado da Saúde",
        "operator:type": "public",
        "id": "way/1020908030"
      },
      "geometry": {
        "type": "Polygon",
        "coordinates": [
          [
            [
              -41.680375,
              -20.7707398
            ],
            [
              -41.680325,
              -20.7708668
            ],
            [
              -41.6802731,
              -20.770849
            ],
            [
              -41.6801224,
              -20.7712323
            ],
            [
              -41.6800375,
              -20.7712031
            ],
            [
              -41.6800254,
              -20.7712338
            ],
            [
              -41.6798727,
              -20.7711813
            ],
            [
              -41.6800855,
              -20.7706402
            ],
            [
              -41.680375,
              -20.7707398
            ]
          ]
        ]
      }
    },
    {
      "type": "Feature",
      "id": "node/6123242516",
      "properties": {
        "timestamp": "2022-08-25T12:55:22Z",
        "version": 5,
        "changeset": 125360738,
        "addr:city": "Guaçuí",
        "addr:housenumber": "162",
        "addr:postcode": "29560-000",
        "addr:street": "Rua Luis Pires de Andrade",
        "addr:suburb": "Quincas Machado",
        "amenity": "clinic",
        "healthcare": "clinic",
        "healthcare:speciality": "radiology",
        "name": "Clínica São Miguel Arcanjo",
        "operator": "Clínica São Miguel Arcanjo Limitada",
        "operator:type": "private",
        "id": "node/6123242516"
      },
      "geometry": {
        "type": "Point",
        "coordinates": [
          -41.6768825,
          -20.7680822
        ]
      }
    },
    {
      "type": "Feature",
      "id": "node/9976992771",
      "properties": {
        "timestamp": "2022-08-25T12:55:22Z",
        "version": 1,
        "changeset": 125360738,
        "addr:city": "Guaçuí",
        "addr:postcode": "29560-000",
        "addr:street": "Avenida Cândido Avelino Mendonça",
        "addr:suburb": "São Tiago",
        "amenity": "clinic",
        "healthcare": "clinic",
        "healthcare:speciality": "general",
        "name": "Estratégia Saúde Da Família Antonio Dutra de Mendonça",
        "operator": "Município de Guaçuí",
        "operator:type": "public",
        "phone": "+55 28 3553 1336",
        "id": "node/9976992771"
      },
      "geometry": {
        "type": "Point",
        "coordinates": [
          -41.6816293,
          -20.7224067
        ]
      }
    },
    {
      "type": "Feature",
      "id": "node/9976992799",
      "properties": {
        "timestamp": "2022-08-25T12:55:22Z",
        "version": 1,
        "changeset": 125360738,
        "addr:city": "Guaçuí",
        "addr:postcode": "29560-000",
        "addr:street": "Avenida José Moraes Moulin",
        "addr:suburb": "Tancredo Neves",
        "amenity": "clinic",
        "healthcare": "clinic",
        "healthcare:speciality": "general",
        "name": "Estratégia de Saúde da Família Doutor Abelha",
        "operator": "Município de Guaçuí",
        "operator:type": "public",
        "phone": "+55 28 3553 3588",
        "id": "node/9976992799"
      },
      "geometry": {
        "type": "Point",
        "coordinates": [
          -41.6686722,
          -20.7585894
        ]
      }
    },
    {
      "type": "Feature",
      "id": "node/9978691453",
      "properties": {
        "timestamp": "2022-08-25T22:12:48Z",
        "version": 1,
        "changeset": 125381495,
        "addr:city": "Guaçuí",
        "addr:postcode": "29560-000",
        "addr:street": "Avenida Espírito Santo",
        "addr:suburb": "Centro",
        "amenity": "clinic",
        "healthcare": "clinic",
        "healthcare:speciality": "general",
        "name": "Unidade Básica de Saúde Doutor Aloísio Moreira Andrade",
        "operator": "Município de Guaçuí",
        "operator:type": "public",
        "id": "node/9978691453"
      },
      "geometry": {
        "type": "Point",
        "coordinates": [
          -41.6747521,
          -20.7728848
        ]
      }
    },
    {
      "type": "Feature",
      "id": "node/9992547054",
      "properties": {
        "timestamp": "2022-09-01T10:54:54Z",
        "version": 1,
        "changeset": 125650229,
        "addr:city": "Guaçuí",
        "addr:postcode": "29560-000",
        "addr:street": "Avenida José Ferreira Alves",
        "addr:suburb": "Balança",
        "amenity": "clinic",
        "healthcare": "clinic",
        "healthcare:speciality": "general",
        "name": "Unidade Básica de Saúde Antônio de Oliveira (Catatau)",
        "operator": "Município de Guaçuí",
        "operator:type": "public",
        "phone": "+55 28 3553 1336",
        "ref": "Cnes - 2447835",
        "id": "node/9992547054"
      },
      "geometry": {
        "type": "Point",
        "coordinates": [
          -41.6624564,
          -20.7812381
        ]
      }
    },
    {
      "type": "Feature",
      "id": "node/9993477539",
      "properties": {
        "timestamp": "2022-09-01T19:29:57Z",
        "version": 1,
        "changeset": 125669441,
        "addr:city": "Guaçuí",
        "addr:postcode": "29560-000",
        "addr:street": "Rua Mariana Viana Emery",
        "addr:suburb": "Vale do Sol",
        "amenity": "clinic",
        "healthcare": "clinic",
        "healthcare:speciality": "general",
        "name": "Estratégia de Saúde da Família José Theodoro",
        "operator": "Município de Guaçuí",
        "operator:type": "public",
        "phone": "+55 28 3553 3861",
        "ref": "5431387 - Cnes",
        "id": "node/9993477539"
      },
      "geometry": {
        "type": "Point",
        "coordinates": [
          -41.6870672,
          -20.777018
        ]
      }
    },
    {
      "type": "Feature",
      "id": "node/9993477544",
      "properties": {
        "timestamp": "2022-09-01T19:29:57Z",
        "version": 1,
        "changeset": 125669441,
        "addr:city": "Guaçuí",
        "addr:postcode": "29564-000",
        "addr:street": "Rua Agostinho Zanini",
        "addr:suburb": "São Pedro de Rates",
        "amenity": "clinic",
        "healthcare": "clinic",
        "healthcare:speciality": "general",
        "name": "Estratégia de Saúde da Família João Polido de Souza",
        "operator": "Município de Guaçuí",
        "operator:type": "public",
        "ref": "Cnes - 2446979",
        "id": "node/9993477544"
      },
      "geometry": {
        "type": "Point",
        "coordinates": [
          -41.80203,
          -20.779983
        ]
      }
    }
  ]
}
