{
  "type": "FeatureCollection",
  "features": [
    {
      "type": "Feature",
      "id": "node/9976835542",
      "properties": {
        "timestamp": "2022-08-25T13:25:50Z",
        "version": 2,
        "changeset": 125362476,
        "addr:city": "Guaçuí",
        "addr:postcode": "29560-000",
        "addr:street": "Avenida Agenor Luis Thomé",
        "addr:suburb": "Quincas Machado",
        "email": "p.guacui@mpes.mp.br",
        "government": "prosecutor",
        "name": "Ministério Público do Estado do Espírito Santo",
        "office": "government",
        "operator": "Ministério Público do Estado dos Espírito Santo",
        "phone": "+55 28 3553 3422",
        "website": "https://www.mpes.mp.br/",
        "id": "node/9976835542"
      },
      "geometry": {
        "type": "Point",
        "coordinates": [
          -41.6791782,
          -20.7719137
        ]
      }
    },
    {
      "type": "Feature",
      "id": "node/9976992809",
      "properties": {
        "timestamp": "2022-08-25T12:55:22Z",
        "version": 1,
        "changeset": 125360738,
        "addr:city": "Guaçuí",
        "addr:housenumber": "713",
        "addr:postcode": "29560-000",
        "addr:street": "Avenida José Alexandre",
        "addr:suburb": "Centro",
        "email": "sreguacui@sedu.es.gov.br",
        "government": "administrative",
        "name": "Superintendência Regional de Educação de Guaçuí",
        "office": "government",
        "phone": "+55 28 3553-6610;+55 28 3553-6612;+55 28 3553-6613",
        "id": "node/9976992809"
      },
      "geometry": {
        "type": "Point",
        "coordinates": [
          -41.6697659,
          -20.7715842
        ]
      }
    },
    {
      "type": "Feature",
      "id": "node/9977106450",
      "properties": {
        "timestamp": "2022-08-25T13:25:50Z",
        "version": 1,
        "changeset": 125362476,
        "addr:city": "Guaçuí",
        "addr:housenumber": "565",
        "addr:postcode": "29560-000",
        "addr:street": "Avenida José Alexandre",
        "addr:suburb": "Centro",
        "government": "administrative",
        "name": "Quarta Circunscrição Regional de Trânsito de Guaçuí - Ciretran",
        "office": "government",
        "phone": "+55 28 3553 1296",
        "id": "node/9977106450"
      },
      "geometry": {
        "type": "Point",
        "coordinates": [
          -41.6706069,
          -20.7704584
        ]
      }
    },
    {
      "type": "Feature",
      "id": "node/9978691437",
      "properties": {
        "timestamp": "2022-08-25T22:12:48Z",
        "version": 1,
        "changeset": 125381495,
        "addr:city": "Guaçuí",
        "addr:housenumber": "40",
        "addr:postcode": "29560-000",
        "addr:street": "Avenida Espírito Santo",
        "addr:suburb": "Centro",
        "email": "contato@guacui.es.gov.br",
        "government": "administrative",
        "name": "Secretaria Municipal de Educação - Seme",
        "office": "government",
        "phone": "+55 28 3553 1794",
        "website": "https://guacui.es.gov.br/secretaria-de-educacao.html",
        "id": "node/9978691437"
      },
      "geometry": {
        "type": "Point",
        "coordinates": [
          -41.6778909,
          -20.7734907
        ]
      }
    },
    {
      "type": "Feature",
      "id": "node/9978691438",
      "properties": {
        "timestamp": "2022-08-25T22:12:48Z",
        "version": 1,
        "changeset": 125381495,
        "addr:city": "Guaçuí",
        "addr:housenumber": "34",
        "addr:postcode": "29560-000",
        "addr:street": "Avenida Espírito Santo",
        "addr:suburb": "Centro",
        "government": "administrative",
        "name": "Secretaria Municipal de Meio Ambiente - Semmam",
        "office": "government",
        "id": "node/9978691438"
      },
      "geometry": {
        "type": "Point",
        "coordinates": [
          -41.677781,
          -20.7734707
        ]
      }
    },
    {
      "type": "Feature",
      "id": "node/9980725028",
      "properties": {
        "timestamp": "2022-08-27T01:13:06Z",
        "version": 2,
        "changeset": 125427578,
        "addr:city": "Guaçuí",
        "addr:housenumber": "328",
        "addr:postcode": "29560-000",
        "addr:street": "Avenida Espírito Santo",
        "addr:suburb": "Centro",
        "email": "cartoriofaria@hotmail.com",
        "government": "register_office",
        "name": "Cartório Farias de Ofício do Registro Civil e Tabelionato de Notas",
        "office": "government",
        "operator": "Cartório de Registro Civil e Tabelionato de Notas de Guacuí",
        "phone": "+55 28 3553 2061",
        "id": "node/9980725028"
      },
      "geometry": {
        "type": "Point",
        "coordinates": [
          -41.6766408,
          -20.7733207
        ]
      }
    },
    {
      "type": "Feature",
      "id": "node/9980725029",
      "properties": {
        "timestamp": "2022-09-01T19:29:57Z",
        "version": 3,
        "changeset": 125669441,
        "addr:city": "Guaçuí",
        "addr:housenumber": "341",
        "addr:postcode": "29560-000",
        "addr:street": "Avenida Espírito Santo",
        "addr:suburb": "Centro",
        "email": "cartorio1oficioguacui@gmail.com",
        "government": "register_office",
        "name": "Cartório do Primeiro Ofício de Guaçuí",
        "office": "government",
        "operator": "Serviço Notarial e Registral de Guaçuí",
        "phone": "+55 28 99969 0607",
        "id": "node/9980725029"
      },
      "geometry": {
        "type": "Point",
        "coordinates": [
          -41.6762732,
          -20.7731363
        ]
      }
    },
    {
      "type": "Feature",
      "id": "node/9980834616",
      "properties": {
        "timestamp": "2022-08-27T01:13:06Z",
        "version": 1,
        "changeset": 125427578,
        "addr:city": "Guaçuí",
        "addr:housenumber": "159",
        "addr:postcode": "29560-000",
        "addr:street": "Rua Capitão Waldir Alves Siqueira",
        "addr:suburb": "Centro",
        "email": "cartorio.guacui@gmail.com",
        "government": "register_office",
        "mobile": "+55 28 99946 0036",
        "name": "Cartório do Segundo Ofício de Guaçuí",
        "office": "government",
        "operator": "Cartório do Segundo Ofício Tabelionato de Notas da Comarca de Guaçuí",
        "id": "node/9980834616"
      },
      "geometry": {
        "type": "Point",
        "coordinates": [
          -41.6733093,
          -20.7694906
        ]
      }
    }
  ]
}
