{
  "type": "FeatureCollection",
  "features": [
    {
      "type": "Feature",
      "id": "node/9978691439",
      "properties": {
        "timestamp": "2022-08-25T22:12:48Z",
        "version": 1,
        "changeset": 125381495,
        "IJSN:tipoUnidad": "Hospital Geral",
        "addr:city": "Guaçuí",
        "addr:housenumber": "07",
        "addr:place": "Quincas Machado",
        "addr:postcode": "29560-000",
        "addr:street": "Rua Doutor Nilton Gomes Figueiredo",
        "addr:suburb": "Quincas Machado",
        "amenity": "hospital",
        "contact:phone": "+55 28 3553 1781",
        "email": "santacasaguacui@yahoo.com.br",
        "emergency": "yes",
        "healthcare": "hospital",
        "healthcare:speciality": "general;emergency;gynaecology;paediatrics",
        "name": "Santa Casa de Misericórdia de Guaçuí",
        "id": "node/9978691439"
      },
      "geometry": {
        "type": "Point",
        "coordinates": [
          -41.6773123,
          -20.7677986
        ]
      }
    }
  ]
}
