{
  "type": "FeatureCollection",
  "features": [
    {
      "type": "Feature",
      "id": "way/848156796",
      "properties": {
        "timestamp": "2020-09-16T18:31:23Z",
        "version": 1,
        "changeset": 91002431,
        "addr:city": "Guaçuí",
        "addr:postcode": "29560-000",
        "addr:suburb": "Alcantilado",
        "amenity": "school",
        "name": "Escola do Alcantilado",
        "id": "way/848156796"
      },
      "geometry": {
        "type": "Polygon",
        "coordinates": [
          [
            [
              -41.6808326,
              -20.8589244
            ],
            [
              -41.6807035,
              -20.8591536
            ],
            [
              -41.6805607,
              -20.8590834
            ],
            [
              -41.6806003,
              -20.8590132
            ],
            [
              -41.6806541,
              -20.8590396
            ],
            [
              -41.6807061,
              -20.8589472
            ],
            [
              -41.6806565,
              -20.8589228
            ],
            [
              -41.680694,
              -20.8588562
            ],
            [
              -41.6808326,
              -20.8589244
            ]
          ]
        ]
      }
    },
    {
      "type": "Feature",
      "id": "node/2799755332",
      "properties": {
        "timestamp": "2014-04-18T20:35:23Z",
        "version": 1,
        "changeset": 21776849,
        "amenity": "school",
        "id": "node/2799755332"
      },
      "geometry": {
        "type": "Point",
        "coordinates": [
          -41.6737926,
          -20.7717945
        ]
      }
    },
    {
      "type": "Feature",
      "id": "node/3705820047",
      "properties": {
        "timestamp": "2022-08-25T22:12:48Z",
        "version": 3,
        "changeset": 125381495,
        "addr:city": "Guaçuí",
        "addr:postcode": "29560-000",
        "addr:street": "Avenida Governador Francisco Lacerda de Aguiar",
        "addr:suburb": "Centro",
        "amenity": "school",
        "name": "Casa Veneranda Creche Vovó Cotinha",
        "operator": "Casa Veneranda",
        "operator:type": "private",
        "id": "node/3705820047"
      },
      "geometry": {
        "type": "Point",
        "coordinates": [
          -41.6776378,
          -20.7748187
        ]
      }
    },
    {
      "type": "Feature",
      "id": "node/4024904391",
      "properties": {
        "timestamp": "2022-08-25T22:12:48Z",
        "version": 2,
        "changeset": 125381495,
        "IJSN:administra": "Privada",
        "IJSN:classeCnae": "Infantil, Fundamental e Médio",
        "addr:city": "Guaçuí",
        "addr:housenumber": "258",
        "addr:postcode": "29560-000",
        "addr:street": "Rua Sebastião Simões",
        "addr:suburb": "Bairro da Palha",
        "alt_name": "Centro Educacional",
        "amenity": "school",
        "contact:phone": "+55 28 3553 3788;+55 28 3553 3075",
        "name": "Escola Israel Azevedo Alves de Souza",
        "operator": "Centro Educacional Israel Limitada",
        "operator:type": "private",
        "source": "IJSN",
        "id": "node/4024904391"
      },
      "geometry": {
        "type": "Point",
        "coordinates": [
          -41.682629,
          -20.7740809
        ]
      }
    },
    {
      "type": "Feature",
      "id": "node/4024904442",
      "properties": {
        "timestamp": "2022-08-25T11:00:50Z",
        "version": 2,
        "changeset": 125355608,
        "IJSN:administra": "Municipal",
        "IJSN:classeCnae": "Fundamental",
        "addr:city": "Guaçuí",
        "addr:postcode": "29560-000",
        "addr:street": "Rua José Vieira de Souza",
        "addr:suburb": "Quincas Machado",
        "alt_name": "Escola Estadual de Ensino Fundamental",
        "amenity": "school",
        "contact:phone": "(28) 3553-2043 / 3553-2210",
        "name": "EEEF Antônio Carneiro Ribeiro",
        "source": "IJSN",
        "id": "node/4024904442"
      },
      "geometry": {
        "type": "Point",
        "coordinates": [
          -41.6784454,
          -20.7707752
        ]
      }
    },
    {
      "type": "Feature",
      "id": "node/4024904872",
      "properties": {
        "timestamp": "2024-10-05T13:35:22Z",
        "version": 2,
        "changeset": 157501518,
        "IJSN:administra": "Estadual",
        "IJSN:classeCnae": "Médio",
        "addr:city": "Guaçuí",
        "addr:housenumber": "km 96",
        "addr:postcode": "29560-000",
        "addr:street": "Rodovia Prefeito Norival Couzi",
        "addr:suburb": "Morada das Palmeiras",
        "alt_name": "Escola Estadual de Ensino Médio",
        "amenity": "school",
        "contact:phone": "(28) 3553-1695 / 3553-2891",
        "name": "EEEM Monsenhor Miguel de Sanctis",
        "source": "IJSN",
        "id": "node/4024904872"
      },
      "geometry": {
        "type": "Point",
        "coordinates": [
          -41.6838908,
          -20.784517
        ]
      }
    },
    {
      "type": "Feature",
      "id": "node/4024905261",
      "properties": {
        "timestamp": "2022-08-25T22:12:48Z",
        "version": 2,
        "changeset": 125381495,
        "IJSN:administra": "Municipal",
        "IJSN:classeCnae": "Fundamental",
        "addr:city": "Guaçuí",
        "addr:housenumber": "93",
        "addr:postcode": "29560-000",
        "addr:street": "Rua Senador Atílio Vivácqua",
        "addr:suburb": "Centro",
        "alt_name": "Escola Municipal de Ensino Fundamental",
        "amenity": "school",
        "contact:phone": "(28) 3553-1575 / 3553-3051",
        "name": "EMEF Anísio Teixeira",
        "operator": "Município de Guaçuí",
        "operator:type": "public",
        "source": "IJSN",
        "id": "node/4024905261"
      },
      "geometry": {
        "type": "Point",
        "coordinates": [
          -41.674737,
          -20.7724702
        ]
      }
    },
    {
      "type": "Feature",
      "id": "node/4024905427",
      "properties": {
        "timestamp": "2022-08-25T22:12:48Z",
        "version": 2,
        "changeset": 125381495,
        "IJSN:administra": "Municipal",
        "IJSN:classeCnae": "Fundamental",
        "addr:city": "Guaçuí",
        "addr:housenumber": "426",
        "addr:postcode": "29560-000",
        "addr:street": "Avenida Espírito Santo",
        "addr:suburb": "Centro",
        "alt_name": "Escola Municipal de Ensino Fundamental",
        "amenity": "school",
        "contact:phone": "+55 28 3553 1732;+55 28 3553 2531",
        "name": "EMEF Deocleciano de Oliveira",
        "operator": "Município de Guaçuí",
        "operator:type": "public",
        "source": "IJSN",
        "id": "node/4024905427"
      },
      "geometry": {
        "type": "Point",
        "coordinates": [
          -41.6753899,
          -20.7731791
        ]
      }
    },
    {
      "type": "Feature",
      "id": "node/4024905445",
      "properties": {
        "timestamp": "2022-08-25T22:12:48Z",
        "version": 2,
        "changeset": 125381495,
        "IJSN:administra": "Municipal",
        "IJSN:classeCnae": "Infantil e Fundamental",
        "addr:city": "Guaçuí",
        "addr:postcode": "29560-000",
        "addr:street": "Avenida Sérgio Ricardo Januário Couzi",
        "addr:suburb": "Horto Florestal",
        "alt_name": "Escola Municipal de Ensino Fundamental",
        "amenity": "school",
        "contact:phone": "(28) 3553-4025 / 3553-1355",
        "name": "EMEF Eugênio de Souza Paixão",
        "operator": "Município de Guaçuí",
        "operator:type": "public",
        "source": "IJSN",
        "id": "node/4024905445"
      },
      "geometry": {
        "type": "Point",
        "coordinates": [
          -41.6536616,
          -20.7953966
        ]
      }
    },
    {
      "type": "Feature",
      "id": "node/4024905471",
      "properties": {
        "timestamp": "2022-08-25T12:55:22Z",
        "version": 2,
        "changeset": 125360738,
        "IJSN:administra": "Municipal",
        "IJSN:classeCnae": "Infantil e Fundamental",
        "addr:city": "Guaçuí",
        "addr:postcode": "29560-000",
        "addr:street": "Avenida José Moulim Moraes",
        "addr:suburb": "Tancredo Neves",
        "alt_name": "Escola Municipal de Ensino Fundamental",
        "amenity": "school",
        "contact:phone": "(28) 3553-3590 / 3553-3095",
        "name": "EMEF Isaura Marques da Silva",
        "source": "IJSN",
        "id": "node/4024905471"
      },
      "geometry": {
        "type": "Point",
        "coordinates": [
          -41.6689414,
          -20.7600145
        ]
      }
    },
    {
      "type": "Feature",
      "id": "node/4024905477",
      "properties": {
        "timestamp": "2022-08-25T12:55:22Z",
        "version": 2,
        "changeset": 125360738,
        "IJSN:administra": "Municipal",
        "IJSN:classeCnae": "Infantil e Fundamental",
        "addr:city": "Guaçuí",
        "addr:postcode": "29560-000",
        "addr:street": "Rua Dimas Nolasco de Carvalho",
        "addr:suburb": "São Tiago",
        "alt_name": "Escola Municipal de Ensino Fundamental",
        "amenity": "school",
        "contact:phone": "(28) 3553-1138",
        "name": "EMEF José Antônio de Carvalho",
        "source": "IJSN",
        "id": "node/4024905477"
      },
      "geometry": {
        "type": "Point",
        "coordinates": [
          -41.6823684,
          -20.723569
        ]
      }
    },
    {
      "type": "Feature",
      "id": "node/4024905673",
      "properties": {
        "timestamp": "2016-02-25T02:00:50Z",
        "version": 1,
        "changeset": 37426154,
        "IJSN:administra": "Municipal",
        "IJSN:classeCnae": "Infantil e Fundamental",
        "addr:city": "Guaçuí",
        "addr:postcode": "29564-000",
        "addr:street": "Avenida Júlio Dias Ferreira",
        "addr:suburb": "São Pedro de Rates",
        "alt_name": "Escola Municipal de Ensino Fundamental",
        "amenity": "school",
        "contact:phone": "(28) 3553-5022 /3553-5001",
        "name": "EMEF Professora Elvira Bruzzi",
        "source": "IJSN",
        "id": "node/4024905673"
      },
      "geometry": {
        "type": "Point",
        "coordinates": [
          -41.8010825,
          -20.7801669
        ]
      }
    },
    {
      "type": "Feature",
      "id": "node/4024905701",
      "properties": {
        "timestamp": "2016-02-25T02:00:55Z",
        "version": 1,
        "changeset": 37426154,
        "IJSN:administra": "Municipal",
        "IJSN:classeCnae": "Fundamental",
        "addr:city": "Divino de São Lourenço",
        "addr:postcode": "29590-000",
        "addr:suburb": "Comunidade Santo Antônio",
        "alt_name": "Escola Municipal de Ensino Fundamental",
        "amenity": "school",
        "name": "EMEF Serra Azul",
        "source": "IJSN",
        "id": "node/4024905701"
      },
      "geometry": {
        "type": "Point",
        "coordinates": [
          -41.7397152,
          -20.648956
        ]
      }
    },
    {
      "type": "Feature",
      "id": "node/4024905710",
      "properties": {
        "timestamp": "2022-08-25T22:12:48Z",
        "version": 2,
        "changeset": 125381495,
        "IJSN:administra": "Municipal",
        "IJSN:classeCnae": "Fundamental",
        "addr:city": "Guaçuí",
        "addr:housenumber": "21",
        "addr:postcode": "29560-000",
        "addr:street": "Avenida Francisco Lacerda Aguiar",
        "addr:suburb": "Bairro da Matriz",
        "alt_name": "Escola Municipal de Ensino Fundamental",
        "amenity": "school",
        "contact:phone": "(28) 3553-1446 / 3553-3071",
        "name": "Escola Municipal de Ensino Fundamental São Geraldo",
        "operator": "Município de Guaçuí",
        "operator:type": "public",
        "source": "IJSN",
        "id": "node/4024905710"
      },
      "geometry": {
        "type": "Point",
        "coordinates": [
          -41.679202,
          -20.774688
        ]
      }
    },
    {
      "type": "Feature",
      "id": "node/4024905739",
      "properties": {
        "timestamp": "2016-02-25T02:01:01Z",
        "version": 1,
        "changeset": 37426154,
        "IJSN:administra": "Municipal",
        "IJSN:classeCnae": "Fundamental",
        "addr:city": "Divino de São Lourenço",
        "addr:postcode": "29590-000",
        "addr:suburb": "Comunidade Santo Antônio",
        "alt_name": "Escola Municipal de Ensino Fundamental",
        "amenity": "school",
        "name": "EMEF Vista Alegre",
        "source": "IJSN",
        "id": "node/4024905739"
      },
      "geometry": {
        "type": "Point",
        "coordinates": [
          -41.7230083,
          -20.6642179
        ]
      }
    },
    {
      "type": "Feature",
      "id": "node/4024906116",
      "properties": {
        "timestamp": "2016-02-25T02:01:30Z",
        "version": 1,
        "changeset": 37426154,
        "IJSN:administra": "Municipal",
        "IJSN:classeCnae": "Fundamental",
        "addr:city": "Guaçuí",
        "addr:postcode": "29560-000",
        "addr:street": "Fazenda Alcantilado",
        "addr:suburb": "Comunidade São Domingos",
        "alt_name": "Escola Municipal Pluridocente de Ensino Fundamental",
        "amenity": "school",
        "name": "EMPEF Fazenda Alcantilado",
        "source": "IJSN",
        "id": "node/4024906116"
      },
      "geometry": {
        "type": "Point",
        "coordinates": [
          -41.7036628,
          -20.8159679
        ]
      }
    },
    {
      "type": "Feature",
      "id": "node/4024906130",
      "properties": {
        "timestamp": "2016-02-25T02:01:32Z",
        "version": 1,
        "changeset": 37426154,
        "IJSN:administra": "Municipal",
        "IJSN:classeCnae": "Fundamental",
        "addr:city": "Guaçuí",
        "addr:postcode": "29560-000",
        "addr:suburb": "Comunidade Santo Antônio",
        "alt_name": "Escola Municipal Pluridocente de Ensino Fundamental",
        "amenity": "school",
        "name": "EMPEF Honório Pedro de Siqueira",
        "source": "IJSN",
        "id": "node/4024906130"
      },
      "geometry": {
        "type": "Point",
        "coordinates": [
          -41.7737179,
          -20.6697088
        ]
      }
    },
    {
      "type": "Feature",
      "id": "node/4024906153",
      "properties": {
        "timestamp": "2021-09-14T17:58:17Z",
        "version": 3,
        "changeset": 111208371,
        "IJSN:administra": "Municipal",
        "IJSN:classeCnae": "Fundamental",
        "addr:city": "Guaçuí",
        "addr:postcode": "29560-000",
        "addr:suburb": "Cachoeira Alta",
        "alt_name": "Escola Municipal Pluridocente de Ensino Fundamental",
        "amenity": "school",
        "contact:phone": "(28) 3553-6002",
        "name": "Escola Municipal Ensino Fundamental Professora Guiomar Soares de Azevedo",
        "source": "IJSN",
        "id": "node/4024906153"
      },
      "geometry": {
        "type": "Point",
        "coordinates": [
          -41.7508111,
          -20.7447645
        ]
      }
    },
    {
      "type": "Feature",
      "id": "node/4024906292",
      "properties": {
        "timestamp": "2016-02-25T02:01:57Z",
        "version": 1,
        "changeset": 37426154,
        "IJSN:administra": "Municipal",
        "IJSN:classeCnae": "Fundamental",
        "addr:city": "Guaçuí",
        "addr:postcode": "29560-000",
        "addr:suburb": "Comunidade Santa fé",
        "alt_name": "Escola Municipal Unidocente de Ensino Fundamental",
        "amenity": "school",
        "name": "EMUEF Córrego do Patrimônio",
        "source": "IJSN",
        "id": "node/4024906292"
      },
      "geometry": {
        "type": "Point",
        "coordinates": [
          -41.6222998,
          -20.7225748
        ]
      }
    },
    {
      "type": "Feature",
      "id": "node/4024906364",
      "properties": {
        "timestamp": "2016-02-25T02:02:08Z",
        "version": 1,
        "changeset": 37426154,
        "IJSN:administra": "Municipal",
        "IJSN:classeCnae": "Fundamental",
        "addr:city": "Guaçuí",
        "addr:postcode": "29560-000",
        "addr:suburb": "Comunidade Pratinha de Santa Luzia",
        "alt_name": "Escola Municipal Unidocente de Ensino Fundamental",
        "amenity": "school",
        "name": "EMUEF Pratinha",
        "source": "IJSN",
        "id": "node/4024906364"
      },
      "geometry": {
        "type": "Point",
        "coordinates": [
          -41.6105963,
          -20.6749263
        ]
      }
    },
    {
      "type": "Feature",
      "id": "node/6088961203",
      "properties": {
        "timestamp": "2022-08-25T22:12:48Z",
        "version": 4,
        "changeset": 125381495,
        "IJSN:administra": "Privada",
        "IJSN:classeCnae": "Infantil, Fundamental e Médio",
        "addr:city": "Guaçuí",
        "addr:housenumber": "199",
        "addr:postcode": "29560-000",
        "addr:street": "Rua Francisco Ourique",
        "addr:suburb": "Bairro da Matriz",
        "amenity": "school",
        "contact:phone": "(28) 3553-2841",
        "name": "Colégio São Geraldo",
        "operator": "Sociedade Educacional Jurema Moretz-Sohn S/S Limitada",
        "operator:type": "private",
        "source": "IJSN",
        "id": "node/6088961203"
      },
      "geometry": {
        "type": "Point",
        "coordinates": [
          -41.6801728,
          -20.774669
        ]
      }
    },
    {
      "type": "Feature",
      "id": "node/9978561518",
      "properties": {
        "timestamp": "2022-08-25T22:12:48Z",
        "version": 2,
        "changeset": 125381495,
        "addr:city": "Guaçuí",
        "addr:housenumber": "97",
        "addr:postcode": "29560-000",
        "addr:street": "Rua Comendador Waldemiro Azevedo",
        "addr:suburb": "Centro",
        "amenity": "school",
        "name": "Centro Municipal de Educação Infantil Zelia Vianna de Aguiar",
        "operator": "Município de Guaçuí",
        "operator:type": "public",
        "id": "node/9978561518"
      },
      "geometry": {
        "type": "Point",
        "coordinates": [
          -41.6781914,
          -20.7749713
        ]
      }
    }
  ]
}
