{
  "type": "FeatureCollection",
  "features": [
    {
      "type": "Feature",
      "id": "node/3999139425",
      "properties": {
        "timestamp": "2016-02-10T13:37:12Z",
        "version": 1,
        "changeset": 37124622,
        "addr:city": "Guaçuí",
        "addr:postcode": "29560-000",
        "addr:street": "Rua José Beato",
        "addr:suburb": "Centro",
        "alt_name": "Centro de Referência de Assistência Social",
        "amenity": "social_facility",
        "contact:phone": "(28) 3553-1514",
        "name": "CRAS - Guaçuí",
        "social_facility": "outreach",
        "source": "IJSN",
        "id": "node/3999139425"
      },
      "geometry": {
        "type": "Point",
        "coordinates": [
          -41.6735111,
          -20.7675326
        ]
      }
    },
    {
      "type": "Feature",
      "id": "node/9978672093",
      "properties": {
        "timestamp": "2022-08-25T22:12:48Z",
        "version": 1,
        "changeset": 125381495,
        "addr:city": "Guaçuí",
        "addr:housenumber": "283",
        "addr:postcode": "29560-000",
        "addr:street": "Rua São Vicente de Paula",
        "addr:suburb": "Centro",
        "amenity": "social_facility",
        "name": "Lar dos Idosos Frederico Ozanan",
        "operator": "Lar dos Idosos Frederico Ozanam de Guaçuí",
        "operator:type": "private",
        "social_facility": "group_home",
        "social_facility:for": "senior",
        "wheelchair": "yes",
        "id": "node/9978672093"
      },
      "geometry": {
        "type": "Point",
        "coordinates": [
          -41.679035,
          -20.7761861
        ]
      }
    },
    {
      "type": "Feature",
      "id": "node/9978672094",
      "properties": {
        "timestamp": "2022-08-25T22:12:48Z",
        "version": 1,
        "changeset": 125381495,
        "addr:city": "Guaçuí",
        "addr:housenumber": "259",
        "addr:postcode": "29560-000",
        "addr:street": "Rua São Vicente de Paula",
        "addr:suburb": "Centro",
        "amenity": "social_facility",
        "name": "Sociedade São Vicente de Paulo",
        "operator": "Sociedade São Vicente de Paulo Conselho Central Guaçuí",
        "id": "node/9978672094"
      },
      "geometry": {
        "type": "Point",
        "coordinates": [
          -41.6790743,
          -20.7759326
        ]
      }
    }
  ]
}
