{
  "type": "FeatureCollection",
  "features": [
    {
      "type": "Feature",
      "id": "way/488457585",
      "properties": {
        "timestamp": "2024-12-31T17:43:22Z",
        "version": 2,
        "changeset": 160842966,
        "addr:city": "São João do Paraíso",
        "addr:district": "Mandacaru",
        "addr:postcode": "39540-000",
        "addr:street": "Praça do Mercado",
        "addr:suburb": "Centro",
        "amenity": "school",
        "name": "Escola Municipal Benevenuto Costa",
        "operator": "Município de São João do Paraíso",
        "operator:type": "government",
        "id": "way/488457585"
      },
      "geometry": {
        "type": "Polygon",
        "coordinates": [
          [
            [
              -41.8272961,
              -15.4870439
            ],
            [
              -41.8274518,
              -15.4873427
            ],
            [
              -41.8272936,
              -15.4875004
            ],
            [
              -41.8271085,
              -15.4871359
            ],
            [
              -41.8272961,
              -15.4870439
            ]
          ]
        ]
      }
    },
    {
      "type": "Feature",
      "id": "way/527667206",
      "properties": {
        "timestamp": "2024-12-31T13:47:06Z",
        "version": 4,
        "changeset": 160833414,
        "addr:city": "São João do Paraíso",
        "addr:housenumber": "438",
        "addr:postcode": "39540-000",
        "addr:street": "Avenida Doutor Osório Adrião da Rocha",
        "addr:suburb": "Centro",
        "amenity": "school",
        "name": "Escola Estadual Professora Dora Barbosa",
        "operator": "Secretaria de Estado de Educação de Minas Gerais",
        "operator:type": "government",
        "operator:wikidata": "Q61612780",
        "id": "way/527667206"
      },
      "geometry": {
        "type": "Polygon",
        "coordinates": [
          [
            [
              -42.0171974,
              -15.3143594
            ],
            [
              -42.017359,
              -15.31488
            ],
            [
              -42.0168194,
              -15.3150358
            ],
            [
              -42.0166578,
              -15.3145152
            ],
            [
              -42.0171974,
              -15.3143594
            ]
          ]
        ]
      }
    },
    {
      "type": "Feature",
      "id": "way/527667209",
      "properties": {
        "timestamp": "2024-12-31T13:47:06Z",
        "version": 4,
        "changeset": 160833414,
        "addr:city": "São João do Paraíso",
        "addr:housenumber": "315",
        "addr:postcode": "39540-000",
        "addr:street": "Rua Joaquim Pedro de Almeida",
        "addr:suburb": "Centro",
        "amenity": "school",
        "name": "Escola Estadual Mendes de Oliveira",
        "operator": "Secretaria de Estado de Educação de Minas Gerais",
        "operator:type": "government",
        "operator:wikidata": "Q61612780",
        "id": "way/527667209"
      },
      "geometry": {
        "type": "Polygon",
        "coordinates": [
          [
            [
              -42.0158501,
              -15.316056
            ],
            [
              -42.0160183,
              -15.3166175
            ],
            [
              -42.0155764,
              -15.316743
            ],
            [
              -42.0153812,
              -15.3161977
            ],
            [
              -42.0158501,
              -15.316056
            ]
          ]
        ]
      }
    },
    {
      "type": "Feature",
      "id": "way/527667211",
      "properties": {
        "timestamp": "2024-12-31T13:47:06Z",
        "version": 2,
        "changeset": 160833414,
        "addr:city": "São João do Paraíso",
        "addr:postcode": "39540-000",
        "addr:street": "Rua Joaquim Pereira Ramos",
        "addr:suburb": "Morada do Sol",
        "amenity": "school",
        "name": "Escola Estadual Divane Rocha de Sá",
        "operator": "Secretaria de Estado de Educação de Minas Gerais",
        "operator:type": "government",
        "operator:wikidata": "Q61612780",
        "id": "way/527667211"
      },
      "geometry": {
        "type": "Polygon",
        "coordinates": [
          [
            [
              -42.0259892,
              -15.3146763
            ],
            [
              -42.0262629,
              -15.3154304
            ],
            [
              -42.0258659,
              -15.3155533
            ],
            [
              -42.0255976,
              -15.3147177
            ],
            [
              -42.0259892,
              -15.3146763
            ]
          ]
        ]
      }
    },
    {
      "type": "Feature",
      "id": "way/1242607877",
      "properties": {
        "timestamp": "2024-12-30T13:53:25Z",
        "version": 2,
        "changeset": 160793312,
        "addr:city": "São João do Paraíso",
        "addr:suburb": "Centro",
        "amenity": "school",
        "email": "escola.246255@educacao.mg.gov.br",
        "name": "Escola Estadual Santo Antônio",
        "operator": "Secretaria de Estado de Educação de Minas Gerais",
        "operator:type": "government",
        "operator:wikidata": "Q61612780",
        "id": "way/1242607877"
      },
      "geometry": {
        "type": "Polygon",
        "coordinates": [
          [
            [
              -42.1574271,
              -15.3389881
            ],
            [
              -42.1570408,
              -15.3387709
            ],
            [
              -42.1572983,
              -15.3384036
            ],
            [
              -42.1577248,
              -15.338582
            ],
            [
              -42.1574271,
              -15.3389881
            ]
          ]
        ]
      }
    },
    {
      "type": "Feature",
      "id": "node/12327515529",
      "properties": {
        "timestamp": "2024-11-09T21:21:58Z",
        "version": 1,
        "changeset": 158949469,
        "addr:housenumber": "130",
        "addr:postcode": "39540-000",
        "addr:street": "Rua Valdemar Almeida",
        "addr:suburb": "Centro",
        "amenity": "school",
        "name": "Escola Municipal Pingo de Gente",
        "id": "node/12327515529"
      },
      "geometry": {
        "type": "Point",
        "coordinates": [
          -42.0199236,
          -15.3139038
        ]
      }
    },
    {
      "type": "Feature",
      "id": "node/12463125428",
      "properties": {
        "timestamp": "2024-12-30T13:53:25Z",
        "version": 1,
        "changeset": 160793312,
        "addr:city": "São João do Paraíso",
        "addr:postcode": "39540-000",
        "addr:suburb": "São Felipe",
        "amenity": "school",
        "name": "Escola Municipal Felisberto Pereira",
        "operator": "Município de São João do Paraíso",
        "operator:type": "government",
        "id": "node/12463125428"
      },
      "geometry": {
        "type": "Point",
        "coordinates": [
          -42.1648037,
          -15.271992
        ]
      }
    },
    {
      "type": "Feature",
      "id": "node/12463125891",
      "properties": {
        "timestamp": "2024-12-30T13:53:25Z",
        "version": 1,
        "changeset": 160793312,
        "addr:city": "São João do Paraíso",
        "addr:postcode": "39540-000",
        "amenity": "school",
        "name": "Escola Municipal Tiradentes",
        "id": "node/12463125891"
      },
      "geometry": {
        "type": "Point",
        "coordinates": [
          -42.0549355,
          -15.2561727
        ]
      }
    },
    {
      "type": "Feature",
      "id": "node/12463388724",
      "properties": {
        "timestamp": "2024-12-30T16:35:47Z",
        "version": 1,
        "changeset": 160799925,
        "addr:city": "São João do Paraíso",
        "addr:postcode": "39540-000",
        "addr:suburb": "Muquém",
        "amenity": "school",
        "name": "Escola Municipal Joaquim Carlos",
        "operator": "Município de São João do Paraíso",
        "operator:type": "public",
        "id": "node/12463388724"
      },
      "geometry": {
        "type": "Point",
        "coordinates": [
          -41.8876371,
          -15.2417889
        ]
      }
    },
    {
      "type": "Feature",
      "id": "node/12465109400",
      "properties": {
        "timestamp": "2024-12-31T10:41:50Z",
        "version": 1,
        "changeset": 160826749,
        "addr:city": "São João do Paraíso",
        "addr:postcode": "39540-000",
        "addr:street": "Rua da Lagoa",
        "addr:suburb": "Barrinha",
        "amenity": "school",
        "email": "escola.319074@educacao.mg.gov.br",
        "name": "Escola Estadual Mário Coelho",
        "operator": "Secretaria de Estado de Educação de Minas Gerais",
        "operator:type": "government",
        "operator:wikidata": "Q61612780",
        "id": "node/12465109400"
      },
      "geometry": {
        "type": "Point",
        "coordinates": [
          -41.839227,
          -15.1842929
        ]
      }
    }
  ]
}
