{
  "type": "FeatureCollection",
  "features": [
    {
      "type": "Feature",
      "id": "way/791861557",
      "properties": {
        "timestamp": "2023-02-12T22:06:01Z",
        "version": 2,
        "changeset": 132464625,
        "addr:city": "Olinda",
        "addr:housenumber": "26",
        "addr:postcode": "53120-090",
        "addr:street": "Rua de São Francisco",
        "addr:suburb": "Carmo",
        "building": "yes",
        "name": "Espaço Oswaldo Sérgio",
        "tourism": "gallery",
        "id": "way/791861557"
      },
      "geometry": {
        "type": "Polygon",
        "coordinates": [
          [
            [
              -34.8483928,
              -8.0164637
            ],
            [
              -34.8482546,
              -8.0165194
            ],
            [
              -34.8482033,
              -8.0163947
            ],
            [
              -34.8483414,
              -8.016339
            ],
            [
              -34.8483928,
              -8.0164637
            ]
          ]
        ]
      }
    },
    {
      "type": "Feature",
      "id": "node/5032288635",
      "properties": {
        "timestamp": "2021-02-22T02:12:45Z",
        "version": 2,
        "changeset": 99705879,
        "addr:housenumber": "82",
        "addr:street": "Rua do sol",
        "contact:facebook": "https://www.facebook.com/pg/comdominio.art",
        "name": "Com Dominio.art",
        "tourism": "gallery",
        "id": "node/5032288635"
      },
      "geometry": {
        "type": "Point",
        "coordinates": [
          -34.847448,
          -8.0163346
        ]
      }
    }
  ]
}
