{
  "type": "FeatureCollection",
  "features": [
    {
      "type": "Feature",
      "id": "way/660544887",
      "properties": {
        "timestamp": "2020-04-14T20:25:20Z",
        "version": 2,
        "changeset": 83553045,
        "addr:city": "Olinda",
        "addr:housenumber": "177",
        "addr:postcode": "53010-230",
        "addr:street": "Avenida Santos Dumont",
        "addr:suburb": "Varadouro",
        "government": "yes",
        "name": "Secretaria da Fazenda e da Administração",
        "office": "government",
        "opening_hours": "Mo-Fr 07:30-13:30",
        "id": "way/660544887"
      },
      "geometry": {
        "type": "Polygon",
        "coordinates": [
          [
            [
              -34.852931,
              -8.0219379
            ],
            [
              -34.8531459,
              -8.0214015
            ],
            [
              -34.8532674,
              -8.0210982
            ],
            [
              -34.8533858,
              -8.0211404
            ],
            [
              -34.8533645,
              -8.0211897
            ],
            [
              -34.8535138,
              -8.021246
            ],
            [
              -34.8534847,
              -8.0213319
            ],
            [
              -34.8533593,
              -8.0216256
            ],
            [
              -34.8532628,
              -8.0218426
            ],
            [
              -34.8532791,
              -8.0218507
            ],
            [
              -34.8531818,
              -8.0220576
            ],
            [
              -34.852931,
              -8.0219379
            ]
          ]
        ]
      }
    },
    {
      "type": "Feature",
      "id": "way/885983819",
      "properties": {
        "timestamp": "2020-12-17T19:32:46Z",
        "version": 1,
        "changeset": 96025333,
        "building": "yes",
        "office": "government",
        "id": "way/885983819"
      },
      "geometry": {
        "type": "Polygon",
        "coordinates": [
          [
            [
              -34.844702,
              -8.0049181
            ],
            [
              -34.84474,
              -8.0050138
            ],
            [
              -34.8445551,
              -8.0050858
            ],
            [
              -34.8445171,
              -8.0049901
            ],
            [
              -34.844702,
              -8.0049181
            ]
          ]
        ]
      }
    },
    {
      "type": "Feature",
      "id": "node/6507343440",
      "properties": {
        "timestamp": "2019-05-29T01:22:20Z",
        "version": 1,
        "changeset": 70715545,
        "name": "Expresso Cidadão Olinda",
        "office": "government",
        "id": "node/6507343440"
      },
      "geometry": {
        "type": "Point",
        "coordinates": [
          -34.8655354,
          -8.0183615
        ]
      }
    },
    {
      "type": "Feature",
      "id": "node/8235316642",
      "properties": {
        "timestamp": "2020-12-16T18:23:47Z",
        "version": 2,
        "changeset": 95958250,
        "addr:city": "Olinda",
        "addr:housenumber": "136",
        "addr:postcode": "53160330",
        "addr:street": "Rua São José",
        "addr:suburb": "Passarinho",
        "email": "cras1olinda@hotmail.com",
        "name": "Cras - 1 Passarinho",
        "office": "government",
        "phone": "+55 81 9 9236-6463",
        "id": "node/8235316642"
      },
      "geometry": {
        "type": "Point",
        "coordinates": [
          -34.9125667,
          -7.9885869
        ]
      }
    },
    {
      "type": "Feature",
      "id": "node/8235321863",
      "properties": {
        "timestamp": "2020-12-16T18:32:11Z",
        "version": 1,
        "changeset": 95958535,
        "addr:city": "Olinda",
        "addr:housenumber": "388",
        "addr:postcode": "53270-675",
        "addr:street": "Rua João Pessoa",
        "addr:suburb": "São Benedito",
        "name": "Cras 2",
        "office": "government",
        "phone": "+55 81 9 9236-1507",
        "id": "node/8235321863"
      },
      "geometry": {
        "type": "Point",
        "coordinates": [
          -34.8906872,
          -8.0008883
        ]
      }
    },
    {
      "type": "Feature",
      "id": "node/8235472007",
      "properties": {
        "timestamp": "2020-12-16T19:47:39Z",
        "version": 1,
        "changeset": 95961326,
        "addr:city": "Olinda",
        "addr:housenumber": "82",
        "addr:postcode": "53230610",
        "addr:street": "Rua Aderito Gomes de Araújo",
        "addr:suburb": "Peixinhos",
        "name": "Cras 4",
        "office": "government",
        "phone": "+55 81 9 9237.0800",
        "id": "node/8235472007"
      },
      "geometry": {
        "type": "Point",
        "coordinates": [
          -34.8711276,
          -8.0132064
        ]
      }
    },
    {
      "type": "Feature",
      "id": "node/8235479748",
      "properties": {
        "timestamp": "2020-12-16T19:42:25Z",
        "version": 1,
        "changeset": 95961130,
        "addr:city": "Olinda",
        "addr:housenumber": "56",
        "addr:postcode": "53270-710",
        "addr:street": "Rua Malásia",
        "addr:suburb": "Sapúcaia de Dentro",
        "name": "Cras 3",
        "office": "government",
        "phone": "+55 81 3451-9331",
        "id": "node/8235479748"
      },
      "geometry": {
        "type": "Point",
        "coordinates": [
          -34.8876199,
          -7.9981133
        ]
      }
    },
    {
      "type": "Feature",
      "id": "node/8237375245",
      "properties": {
        "timestamp": "2020-12-17T12:14:31Z",
        "version": 1,
        "changeset": 96004941,
        "addr:city": "Olinda",
        "addr:housenumber": "153",
        "addr:postcode": "53030260",
        "addr:street": "Avenida Governador Carlos de Lima Cavalcante",
        "addr:suburb": "Bairro Novo",
        "email": "cras6olinda@hotmail.com",
        "name": "CRAS 6",
        "office": "government",
        "phone": "+55 81 9 9106-6916",
        "id": "node/8237375245"
      },
      "geometry": {
        "type": "Point",
        "coordinates": [
          -34.8467821,
          -8.0036059
        ]
      }
    },
    {
      "type": "Feature",
      "id": "node/8237413715",
      "properties": {
        "timestamp": "2020-12-17T12:29:23Z",
        "version": 1,
        "changeset": 96005950,
        "addr:city": "Olinda",
        "addr:housenumber": "1000",
        "addr:postcode": "53360-150",
        "addr:street": "Rua Nevada",
        "addr:suburb": "Cidade Tabajara",
        "name": "CRAS 7",
        "office": "government",
        "phone": "+55 81 9 9235-5083",
        "id": "node/8237413715"
      },
      "geometry": {
        "type": "Point",
        "coordinates": [
          -34.8683982,
          -7.9728708
        ]
      }
    },
    {
      "type": "Feature",
      "id": "node/8237742502",
      "properties": {
        "timestamp": "2020-12-17T18:08:44Z",
        "version": 2,
        "changeset": 96022323,
        "addr:city": "Olinda",
        "addr:housenumber": "774",
        "addr:street": "Avenida Doutor Joaquim Nabuco",
        "addr:suburb": "Varadouro",
        "name": "Cras 8",
        "office": "government",
        "phone": "+55 81 9 3439-3170",
        "id": "node/8237742502"
      },
      "geometry": {
        "type": "Point",
        "coordinates": [
          -34.8560571,
          -8.0126244
        ]
      }
    },
    {
      "type": "Feature",
      "id": "node/8238285465",
      "properties": {
        "timestamp": "2020-12-17T18:53:08Z",
        "version": 1,
        "changeset": 96024098,
        "addr:city": "Olinda",
        "addr:housenumber": "862",
        "addr:street": "Avenida Coronel Frederico Lundgren",
        "addr:suburb": "Rio Doce",
        "email": "cras9olinda#hotmail.com",
        "name": "Cras 9",
        "office": "government",
        "phone": "+55 81 9 3492-5333",
        "id": "node/8238285465"
      },
      "geometry": {
        "type": "Point",
        "coordinates": [
          -34.8385362,
          -7.9668364
        ]
      }
    },
    {
      "type": "Feature",
      "id": "node/8238291111",
      "properties": {
        "timestamp": "2020-12-17T18:59:17Z",
        "version": 2,
        "changeset": 96024328,
        "addr:city": "Olinda",
        "addr:housenumber": "546",
        "addr:street": "Avenida Luís Correia de Brito",
        "addr:suburb": "Sitio Novo",
        "email": "cras10olinda@hotmail.com",
        "name": "Cras 10",
        "office": "government",
        "phone": "+55 81 9 9181-5345",
        "id": "node/8238291111"
      },
      "geometry": {
        "type": "Point",
        "coordinates": [
          -34.8755049,
          -8.0269844
        ]
      }
    },
    {
      "type": "Feature",
      "id": "node/8238342080",
      "properties": {
        "timestamp": "2020-12-17T19:10:01Z",
        "version": 2,
        "changeset": 96024649,
        "addr:city": "Olinda",
        "addr:housenumber": "546",
        "addr:postcode": "53110-000",
        "addr:street": "Rua Maria Ramos",
        "addr:suburb": "Bairro Novo",
        "name": "CMDCA Concelho municipal dos Direitos da Criança e do Adolescente",
        "office": "government",
        "phone": "+55 81 3305-1005",
        "id": "node/8238342080"
      },
      "geometry": {
        "type": "Point",
        "coordinates": [
          -34.8430763,
          -8.001492
        ]
      }
    },
    {
      "type": "Feature",
      "id": "node/8238358901",
      "properties": {
        "timestamp": "2020-12-17T19:33:17Z",
        "version": 2,
        "changeset": 96025349,
        "addr:city": "Olinda",
        "addr:housenumber": "131",
        "addr:street": "Rua Maria Ramos",
        "addr:suburb": "Bairro Novo",
        "name": "CRAM - Centro de Referência de Atendimento a Mulher",
        "office": "government",
        "phone": "+55 81 3429-2707",
        "id": "node/8238358901"
      },
      "geometry": {
        "type": "Point",
        "coordinates": [
          -34.8438181,
          -8.0050918
        ]
      }
    },
    {
      "type": "Feature",
      "id": "node/8238407645",
      "properties": {
        "timestamp": "2020-12-17T19:43:58Z",
        "version": 2,
        "changeset": 96025696,
        "addr:city": "Olinda",
        "addr:housenumber": "3533",
        "addr:street": "Avenida Presidente Kennedy",
        "addr:suburb": "São Benedito",
        "name": "Concelho Tutelar 1° Região",
        "office": "government",
        "phone": "+55 81 3449 - 6075",
        "id": "node/8238407645"
      },
      "geometry": {
        "type": "Point",
        "coordinates": [
          -34.8840694,
          -8.0059498
        ]
      }
    },
    {
      "type": "Feature",
      "id": "node/8238481637",
      "properties": {
        "timestamp": "2020-12-17T20:19:38Z",
        "version": 1,
        "changeset": 96026752,
        "addr:city": "Olinda",
        "addr:housenumber": "752",
        "addr:street": "Rua José Augusto Silva Braga",
        "addr:suburb": "Bairro Novo",
        "name": "Conselho Tutelar 2° Região",
        "office": "government",
        "phone": "+55 81 3494-2120",
        "id": "node/8238481637"
      },
      "geometry": {
        "type": "Point",
        "coordinates": [
          -34.8443926,
          -7.9973476
        ]
      }
    },
    {
      "type": "Feature",
      "id": "node/12439057423",
      "properties": {
        "timestamp": "2024-12-21T18:43:24Z",
        "version": 1,
        "changeset": 160479742,
        "name": "Secretaria do medio ambiente",
        "office": "government",
        "id": "node/12439057423"
      },
      "geometry": {
        "type": "Point",
        "coordinates": [
          -34.8515004,
          -8.0094028
        ]
      }
    }
  ]
}
