{
  "type": "FeatureCollection",
  "features": [
    {
      "type": "Feature",
      "id": "way/471309834",
      "properties": {
        "timestamp": "2017-02-02T00:20:47Z",
        "version": 1,
        "changeset": 45730954,
        "addr:city": "Olinda",
        "addr:housenumber": "183",
        "addr:postcode": "53020-080",
        "addr:street": "Rua do Amparo",
        "building": "yes",
        "internet_access": "yes",
        "internet_access:fee": "no",
        "name": "Pousada Villa Olinda",
        "tourism": "guest_house",
        "id": "way/471309834"
      },
      "geometry": {
        "type": "Polygon",
        "coordinates": [
          [
            [
              -34.8532092,
              -8.0130569
            ],
            [
              -34.8533316,
              -8.0131306
            ],
            [
              -34.8533121,
              -8.013166
            ],
            [
              -34.8531878,
              -8.0130964
            ],
            [
              -34.8532092,
              -8.0130569
            ]
          ]
        ]
      }
    },
    {
      "type": "Feature",
      "id": "node/4196127201",
      "properties": {
        "timestamp": "2016-05-19T22:50:13Z",
        "version": 1,
        "changeset": 39439102,
        "internet_access": "wlan",
        "tourism": "guest_house",
        "id": "node/4196127201"
      },
      "geometry": {
        "type": "Point",
        "coordinates": [
          -34.8522524,
          -8.0177187
        ]
      }
    },
    {
      "type": "Feature",
      "id": "node/4349689208",
      "properties": {
        "timestamp": "2016-08-14T13:21:19Z",
        "version": 1,
        "changeset": 41446737,
        "name": "Minha casa",
        "tourism": "guest_house",
        "id": "node/4349689208"
      },
      "geometry": {
        "type": "Point",
        "coordinates": [
          -34.8511768,
          -7.9676
        ]
      }
    },
    {
      "type": "Feature",
      "id": "node/4517237889",
      "properties": {
        "timestamp": "2016-11-23T15:10:20Z",
        "version": 1,
        "changeset": 43898224,
        "addr:housenumber": "178",
        "addr:postcode": "53020-460",
        "addr:street": "Rua Prudente de Morais",
        "internet_access": "wlan",
        "name": "Pousada d'Olinda",
        "phone": "+558134936011",
        "tourism": "guest_house",
        "id": "node/4517237889"
      },
      "geometry": {
        "type": "Point",
        "coordinates": [
          -34.8510759,
          -8.0161003
        ]
      }
    },
    {
      "type": "Feature",
      "id": "node/7142338785",
      "properties": {
        "timestamp": "2020-04-16T02:21:52Z",
        "version": 2,
        "changeset": 83618638,
        "addr:city": "Recife",
        "addr:housenumber": "328",
        "addr:street": "Rua Coronel Ant√¥nio Carlos Ferreira",
        "email": "hospedariadajo@gmail.com",
        "name": "Hospedaria da Josinete",
        "phone": "+55 81 9 9922-4678",
        "tourism": "guest_house",
        "id": "node/7142338785"
      },
      "geometry": {
        "type": "Point",
        "coordinates": [
          -34.8743292,
          -8.0292734
        ]
      }
    }
  ]
}
