{
  "type": "FeatureCollection",
  "features": [
    {
      "type": "Feature",
      "id": "way/785866424",
      "properties": {
        "timestamp": "2023-05-25T17:42:49Z",
        "version": 2,
        "changeset": 136553977,
        "addr:city": "Olinda",
        "addr:street": "Rua Elesbão de Castro",
        "addr:suburb": "Bairro Novo",
        "amenity": "pharmacy",
        "building": "yes",
        "healthcare": "pharmacy",
        "name": "Pague Menos",
        "id": "way/785866424"
      },
      "geometry": {
        "type": "Polygon",
        "coordinates": [
          [
            [
              -34.8403006,
              -8.0001143
            ],
            [
              -34.8403101,
              -8.0002076
            ],
            [
              -34.840101,
              -8.0002286
            ],
            [
              -34.8400914,
              -8.0001354
            ],
            [
              -34.8403006,
              -8.0001143
            ]
          ]
        ]
      }
    },
    {
      "type": "Feature",
      "id": "way/791549200",
      "properties": {
        "timestamp": "2023-05-25T17:44:16Z",
        "version": 2,
        "changeset": 136554033,
        "addr:city": "Olinda",
        "addr:street": "Rua Coronel Alberto Lundgren",
        "addr:suburb": "Bairro Novo",
        "amenity": "pharmacy",
        "brand": "Drogaria São Paulo",
        "brand:wikidata": "Q5308184",
        "building": "yes",
        "healthcare": "pharmacy",
        "name": "Drogaria São Paulo",
        "id": "way/791549200"
      },
      "geometry": {
        "type": "Polygon",
        "coordinates": [
          [
            [
              -34.8406546,
              -8.0020068
            ],
            [
              -34.8406785,
              -8.0021687
            ],
            [
              -34.8404574,
              -8.0022007
            ],
            [
              -34.8404336,
              -8.0020388
            ],
            [
              -34.8406546,
              -8.0020068
            ]
          ]
        ]
      }
    },
    {
      "type": "Feature",
      "id": "way/791773857",
      "properties": {
        "timestamp": "2023-05-25T22:04:59Z",
        "version": 2,
        "changeset": 136561185,
        "addr:city": "Olinda",
        "addr:street": "Avenida Governador Carlos de Lima Cavalcante",
        "addr:suburb": "Casa Caiada",
        "amenity": "pharmacy",
        "building": "yes",
        "healthcare": "pharmacy",
        "name": "Pague Menos",
        "id": "way/791773857"
      },
      "geometry": {
        "type": "Polygon",
        "coordinates": [
          [
            [
              -34.8410705,
              -7.9898558
            ],
            [
              -34.8409402,
              -7.9899239
            ],
            [
              -34.8408373,
              -7.9897309
            ],
            [
              -34.8409675,
              -7.9896628
            ],
            [
              -34.8410705,
              -7.9898558
            ]
          ]
        ]
      }
    },
    {
      "type": "Feature",
      "id": "way/791774108",
      "properties": {
        "timestamp": "2020-06-16T03:19:12Z",
        "version": 2,
        "changeset": 86693733,
        "addr:city": "Olinda",
        "addr:postcode": "53130-410",
        "addr:street": "Avenida Doutor José Augusto Moreira",
        "addr:suburb": "Casa Caiada",
        "amenity": "pharmacy",
        "brand": "Drogaria São Paulo",
        "brand:wikidata": "Q5308184",
        "brand:wikipedia": "en:Grupo DPSP",
        "building": "yes",
        "dispensing": "yes",
        "healthcare": "pharmacy",
        "name": "Drogaria São Paulo",
        "id": "way/791774108"
      },
      "geometry": {
        "type": "Polygon",
        "coordinates": [
          [
            [
              -34.8379764,
              -7.9841296
            ],
            [
              -34.8378772,
              -7.98418
            ],
            [
              -34.8378046,
              -7.9840401
            ],
            [
              -34.8379038,
              -7.9839897
            ],
            [
              -34.8379764,
              -7.9841296
            ]
          ]
        ]
      }
    },
    {
      "type": "Feature",
      "id": "way/1271752465",
      "properties": {
        "timestamp": "2024-04-30T18:30:54Z",
        "version": 2,
        "changeset": 150722091,
        "addr:city": "Olinda",
        "addr:housenumber": "215",
        "addr:postcode": "53130-410",
        "addr:street": "Avenida Doutor José Augusto Moreira",
        "addr:suburb": "Casa Caiada",
        "amenity": "pharmacy",
        "brand": "Farmácias Pague Menos",
        "brand:wikidata": "Q7124466",
        "building": "yes",
        "healthcare": "pharmacy",
        "name": "Pague Menos",
        "id": "way/1271752465"
      },
      "geometry": {
        "type": "Polygon",
        "coordinates": [
          [
            [
              -34.8396108,
              -7.9914187
            ],
            [
              -34.8395998,
              -7.9912465
            ],
            [
              -34.8396948,
              -7.9912405
            ],
            [
              -34.8397093,
              -7.9912498
            ],
            [
              -34.8397348,
              -7.9912482
            ],
            [
              -34.8397451,
              -7.9914103
            ],
            [
              -34.8396108,
              -7.9914187
            ]
          ]
        ]
      }
    },
    {
      "type": "Feature",
      "id": "node/5347854315",
      "properties": {
        "timestamp": "2018-01-18T21:04:47Z",
        "version": 1,
        "changeset": 55561262,
        "addr:city": "Olinda",
        "addr:housenumber": "1241",
        "addr:postcode": "53130-410",
        "addr:street": "Avenida José Augusto Moreira",
        "addr:suburb": "Casa Caiada",
        "amenity": "pharmacy",
        "healthcare": "pharmacy",
        "name": "Drograria São Paulo",
        "phone": "4003-3393",
        "website": "https://www.drogariasaopaulo.com.br",
        "id": "node/5347854315"
      },
      "geometry": {
        "type": "Point",
        "coordinates": [
          -34.8378726,
          -7.9840561
        ]
      }
    }
  ]
}
