{
  "type": "FeatureCollection",
  "features": [
    {
      "type": "Feature",
      "id": "way/1112096905",
      "properties": {
        "timestamp": "2022-11-10T18:28:23Z",
        "version": 1,
        "changeset": 128745959,
        "addr:city": "São Mateus do Maranhão",
        "addr:postcode": "65470-000",
        "addr:street": "Avenida Rodoviaria",
        "addr:suburb": "Centro",
        "amenity": "library",
        "building": "yes",
        "internet_access": "wlan",
        "internet_access:fee": "customers",
        "name": "Farol da Educação - Machado de Assis",
        "opening_hours": "Mo-Fr 08:00-17:00",
        "id": "way/1112096905"
      },
      "geometry": {
        "type": "Polygon",
        "coordinates": [
          [
            [
              -44.4683909,
              -4.0386454
            ],
            [
              -44.4684244,
              -4.0387618
            ],
            [
              -44.4683064,
              -4.0387939
            ],
            [
              -44.4682742,
              -4.0386775
            ],
            [
              -44.4683909,
              -4.0386454
            ]
          ]
        ]
      }
    }
  ]
}
