{
  "type": "FeatureCollection",
  "features": [
    {
      "type": "Feature",
      "id": "node/5099476523",
      "properties": {
        "timestamp": "2021-02-20T21:15:55Z",
        "version": 2,
        "changeset": 99660429,
        "addr:housenumber": "50",
        "addr:street": "Rua José Vidal",
        "amenity": "pharmacy",
        "healthcare": "pharmacy",
        "name": "Farmácia Santo António",
        "name:pt": "Farmácia Santo António",
        "phone": "+5583996632255",
        "id": "node/5099476523"
      },
      "geometry": {
        "type": "Point",
        "coordinates": [
          -37.6407875,
          -7.514679
        ]
      }
    },
    {
      "type": "Feature",
      "id": "node/5099476527",
      "properties": {
        "timestamp": "2021-02-20T21:15:55Z",
        "version": 2,
        "changeset": 99660429,
        "amenity": "pharmacy",
        "healthcare": "pharmacy",
        "name": "Alan Farma",
        "name:pt": "Alan Farma",
        "id": "node/5099476527"
      },
      "geometry": {
        "type": "Point",
        "coordinates": [
          -37.6410251,
          -7.5140237
        ]
      }
    },
    {
      "type": "Feature",
      "id": "node/5099476625",
      "properties": {
        "timestamp": "2021-02-20T21:15:55Z",
        "version": 3,
        "changeset": 99660429,
        "amenity": "pharmacy",
        "brand": "Extrafarma",
        "brand:wikidata": "Q20055480",
        "brand:wikipedia": "pt:Extrafarma",
        "healthcare": "pharmacy",
        "name": "Extrafarma",
        "phone": "+5583996434855",
        "id": "node/5099476625"
      },
      "geometry": {
        "type": "Point",
        "coordinates": [
          -37.6406955,
          -7.5148436
        ]
      }
    }
  ]
}
