{
  "type": "FeatureCollection",
  "features": [
    {
      "type": "Feature",
      "id": "way/184937310",
      "properties": {
        "timestamp": "2019-03-17T01:47:31Z",
        "version": 3,
        "changeset": 68217774,
        "building": "yes",
        "name": "Amazonas Bike",
        "shop": "bicycle",
        "website": "https://www.amazonasbike.com.br/",
        "id": "way/184937310"
      },
      "geometry": {
        "type": "Polygon",
        "coordinates": [
          [
            [
              -43.1206075,
              -22.8872567
            ],
            [
              -43.1205941,
              -22.8873276
            ],
            [
              -43.1201439,
              -22.8872555
            ],
            [
              -43.1201572,
              -22.8871847
            ],
            [
              -43.1206075,
              -22.8872567
            ]
          ]
        ]
      }
    },
    {
      "type": "Feature",
      "id": "way/238356441",
      "properties": {
        "timestamp": "2013-09-18T00:05:58Z",
        "version": 2,
        "changeset": 17896307,
        "addr:housenumber": "34",
        "addr:street": "Rua Comendador Queiroz",
        "building": "yes",
        "name": "Barcellos Bike",
        "phone": "+55-21-27108069",
        "shop": "bicycle",
        "website": "http://www.barcellosbike.com.br",
        "id": "way/238356441"
      },
      "geometry": {
        "type": "Polygon",
        "coordinates": [
          [
            [
              -43.1085578,
              -22.9113024
            ],
            [
              -43.1086243,
              -22.9113573
            ],
            [
              -43.1085367,
              -22.9114472
            ],
            [
              -43.1084703,
              -22.9113923
            ],
            [
              -43.1085578,
              -22.9113024
            ]
          ]
        ]
      }
    },
    {
      "type": "Feature",
      "id": "way/238356443",
      "properties": {
        "timestamp": "2013-09-18T00:03:47Z",
        "version": 2,
        "changeset": 17896300,
        "addr:housename": "Loja 2",
        "addr:housenumber": "160",
        "addr:street": "Rua Nóbrega",
        "building": "yes",
        "name": "Cicle São Salvador",
        "phone": "+55-21-27051909",
        "shop": "bicycle",
        "id": "way/238356443"
      },
      "geometry": {
        "type": "Polygon",
        "coordinates": [
          [
            [
              -43.1037743,
              -22.9031389
            ],
            [
              -43.1038942,
              -22.903246
            ],
            [
              -43.1038291,
              -22.9033078
            ],
            [
              -43.1037092,
              -22.9032007
            ],
            [
              -43.1037743,
              -22.9031389
            ]
          ]
        ]
      }
    },
    {
      "type": "Feature",
      "id": "way/238356444",
      "properties": {
        "timestamp": "2024-12-06T13:01:10Z",
        "version": 4,
        "changeset": 159993448,
        "addr:city": "Niterói",
        "addr:housenumber": "22",
        "addr:street": "Avenida Sete de Setembro",
        "building": "yes",
        "name": "Cicle Sete de Setembro",
        "shop": "bicycle",
        "id": "way/238356444"
      },
      "geometry": {
        "type": "Polygon",
        "coordinates": [
          [
            [
              -43.1047086,
              -22.9082306
            ],
            [
              -43.1046534,
              -22.9082901
            ],
            [
              -43.104624,
              -22.9082458
            ],
            [
              -43.1046652,
              -22.908196
            ],
            [
              -43.1047086,
              -22.9082306
            ]
          ]
        ]
      }
    },
    {
      "type": "Feature",
      "id": "way/1218893112",
      "properties": {
        "timestamp": "2023-10-27T22:02:30Z",
        "version": 1,
        "changeset": 143231805,
        "building": "yes",
        "shop": "bicycle",
        "id": "way/1218893112"
      },
      "geometry": {
        "type": "Polygon",
        "coordinates": [
          [
            [
              -43.1121092,
              -22.903595
            ],
            [
              -43.1120298,
              -22.9036111
            ],
            [
              -43.1119855,
              -22.9035617
            ],
            [
              -43.1120672,
              -22.903552
            ],
            [
              -43.1121092,
              -22.903595
            ]
          ]
        ]
      }
    },
    {
      "type": "Feature",
      "id": "node/2098619319",
      "properties": {
        "timestamp": "2013-01-06T18:37:58Z",
        "version": 1,
        "changeset": 14553569,
        "addr:housenumber": "170",
        "addr:street": "Rua Tiradentes",
        "name": "Elias Guerra",
        "phone": "+55-21-3021-3985",
        "phone:2": "+55-21-8180-5093",
        "shop": "bicycle",
        "id": "node/2098619319"
      },
      "geometry": {
        "type": "Point",
        "coordinates": [
          -43.1232051,
          -22.9015423
        ]
      }
    },
    {
      "type": "Feature",
      "id": "node/2098660421",
      "properties": {
        "timestamp": "2013-01-06T19:19:49Z",
        "version": 2,
        "changeset": 14554180,
        "addr:housenumber": "7",
        "addr:postcode": "24324270",
        "addr:street": "Rua Dezessete",
        "name": "Facebike",
        "phone": "+55-21-95147285",
        "shop": "bicycle",
        "id": "node/2098660421"
      },
      "geometry": {
        "type": "Point",
        "coordinates": [
          -43.0228101,
          -22.9403033
        ]
      }
    },
    {
      "type": "Feature",
      "id": "node/2111114909",
      "properties": {
        "timestamp": "2013-01-14T18:35:39Z",
        "version": 1,
        "changeset": 14651555,
        "shop": "bicycle",
        "id": "node/2111114909"
      },
      "geometry": {
        "type": "Point",
        "coordinates": [
          -43.0781518,
          -22.912345
        ]
      }
    },
    {
      "type": "Feature",
      "id": "node/2111266737",
      "properties": {
        "timestamp": "2014-04-28T19:02:59Z",
        "version": 3,
        "changeset": 22008581,
        "name": "Saulo Biker",
        "note": "Avenida Ewerton da Costa Xavier esquina com Estrada Jean Vallenteau Moulliac, próximo a Rodovia Amaral Peixoto",
        "phone:2": "+55-21-3701-2846",
        "shop": "bicycle",
        "id": "node/2111266737"
      },
      "geometry": {
        "type": "Point",
        "coordinates": [
          -42.985608,
          -22.9107379
        ]
      }
    },
    {
      "type": "Feature",
      "id": "node/2379122551",
      "properties": {
        "timestamp": "2025-02-05T22:14:01Z",
        "version": 4,
        "changeset": 162185314,
        "name": "Cicle  Itaipu",
        "shop": "bicycle",
        "id": "node/2379122551"
      },
      "geometry": {
        "type": "Point",
        "coordinates": [
          -43.021093,
          -22.9340822
        ]
      }
    },
    {
      "type": "Feature",
      "id": "node/2524492403",
      "properties": {
        "timestamp": "2013-11-08T17:25:35Z",
        "version": 1,
        "changeset": 18786072,
        "addr:city": "Niterói",
        "addr:housenumber": "51 Loja 101",
        "addr:street": "Estrada Washington Luiz",
        "name": "Bretas Bike",
        "phone": "+55-21-26168374",
        "shop": "bicycle",
        "source": "survey",
        "id": "node/2524492403"
      },
      "geometry": {
        "type": "Point",
        "coordinates": [
          -43.0662339,
          -22.9062065
        ]
      }
    },
    {
      "type": "Feature",
      "id": "node/2524523542",
      "properties": {
        "timestamp": "2013-11-08T18:05:53Z",
        "version": 1,
        "changeset": 18786779,
        "addr:city": "Niterói",
        "addr:housenumber": "423 Loja 1",
        "addr:street": "Rua Noronha Torrezão",
        "name": "Cicle São José",
        "phone": "+55-21-26102997",
        "shop": "bicycle",
        "source": "survey",
        "id": "node/2524523542"
      },
      "geometry": {
        "type": "Point",
        "coordinates": [
          -43.0981062,
          -22.8906356
        ]
      }
    },
    {
      "type": "Feature",
      "id": "node/4472536251",
      "properties": {
        "timestamp": "2023-11-14T23:57:22Z",
        "version": 4,
        "changeset": 144030342,
        "addr:city": "Niterói",
        "addr:door": "Loja 1",
        "addr:housenumber": "196",
        "addr:street": "Avenida Roberto Silveira",
        "addr:suburb": "Icaraí",
        "name": "Garage Bike",
        "phone": "+55 21 3674-6777",
        "shop": "bicycle",
        "website": "https://facebook.com/ciclegaragebike",
        "id": "node/4472536251"
      },
      "geometry": {
        "type": "Point",
        "coordinates": [
          -43.1076841,
          -22.9025862
        ]
      }
    },
    {
      "type": "Feature",
      "id": "node/6264703265",
      "properties": {
        "timestamp": "2023-11-14T20:05:49Z",
        "version": 2,
        "changeset": 144024849,
        "addr:city": "Niterói",
        "addr:housenumber": "4",
        "addr:street": "Avenida Roberto Silveira",
        "addr:suburb": "Icaraí",
        "name": "Cicle Garage Bike",
        "opening_hours": "Mo-Fr 09:00-20:00; Sa 09:00-14:00",
        "phone": "+55 21 36746777",
        "shop": "bicycle",
        "website": "https://www.facebook.com/ciclegaragebike/",
        "id": "node/6264703265"
      },
      "geometry": {
        "type": "Point",
        "coordinates": [
          -43.1108289,
          -22.8995563
        ]
      }
    },
    {
      "type": "Feature",
      "id": "node/6266667376",
      "properties": {
        "timestamp": "2023-06-05T20:13:58Z",
        "version": 4,
        "changeset": 136988098,
        "name": "Amazonas Bike",
        "shop": "bicycle",
        "id": "node/6266667376"
      },
      "geometry": {
        "type": "Point",
        "coordinates": [
          -43.1111202,
          -22.9002573
        ]
      }
    },
    {
      "type": "Feature",
      "id": "node/9074456886",
      "properties": {
        "timestamp": "2021-09-10T22:39:09Z",
        "version": 2,
        "changeset": 111044226,
        "shop": "bicycle",
        "id": "node/9074456886"
      },
      "geometry": {
        "type": "Point",
        "coordinates": [
          -43.1135238,
          -22.8941525
        ]
      }
    },
    {
      "type": "Feature",
      "id": "node/11279851166",
      "properties": {
        "timestamp": "2023-10-21T17:23:15Z",
        "version": 1,
        "changeset": 142933573,
        "addr:city": "Niterói",
        "addr:street": "Avenida Irene Lopes Sodré",
        "addr:suburb": "Engenho do Mato",
        "name": "Master Bike",
        "phone": "(21) 99124-7330",
        "shop": "bicycle",
        "id": "node/11279851166"
      },
      "geometry": {
        "type": "Point",
        "coordinates": [
          -43.0168374,
          -22.9404442
        ]
      }
    },
    {
      "type": "Feature",
      "id": "node/12280105706",
      "properties": {
        "timestamp": "2024-10-22T22:42:33Z",
        "version": 1,
        "changeset": 158231448,
        "addr:city": "Niterói",
        "addr:street": "Alameda São Boaventura",
        "addr:suburb": "Fonseca",
        "name": "Pedalar",
        "service:bicycle:pump": "yes",
        "service:bicycle:repair": "yes",
        "service:bicycle:second_hand": "yes",
        "service:bicycle:service": "yes",
        "shop": "bicycle",
        "id": "node/12280105706"
      },
      "geometry": {
        "type": "Point",
        "coordinates": [
          -43.0929112,
          -22.8812788
        ]
      }
    }
  ]
}
