{
  "type": "FeatureCollection",
  "features": [
    {
      "type": "Feature",
      "id": "way/130927115",
      "properties": {
        "timestamp": "2011-09-23T22:10:34Z",
        "version": 2,
        "changeset": 9380483,
        "amenity": "kindergarten",
        "building": "yes",
        "id": "way/130927115"
      },
      "geometry": {
        "type": "Polygon",
        "coordinates": [
          [
            [
              -43.1326794,
              -22.9000187
            ],
            [
              -43.1324088,
              -22.8997604
            ],
            [
              -43.1325087,
              -22.8996716
            ],
            [
              -43.1326638,
              -22.8995337
            ],
            [
              -43.1329344,
              -22.8997921
            ],
            [
              -43.1326794,
              -22.9000187
            ]
          ]
        ]
      }
    },
    {
      "type": "Feature",
      "id": "way/866370373",
      "properties": {
        "timestamp": "2020-11-02T17:01:13Z",
        "version": 1,
        "changeset": 93431948,
        "addr:housenumber": "249",
        "addr:postcode": "24220-020",
        "addr:street": "Rua Álvares de Azevedo",
        "amenity": "kindergarten",
        "area": "yes",
        "building": "school",
        "phone": "+55 21 3674-2297",
        "preschool": "yes",
        "id": "way/866370373"
      },
      "geometry": {
        "type": "Polygon",
        "coordinates": [
          [
            [
              -43.1106549,
              -22.9001686
            ],
            [
              -43.1105492,
              -22.9002854
            ],
            [
              -43.11047,
              -22.9002275
            ],
            [
              -43.1105837,
              -22.9001084
            ],
            [
              -43.1106549,
              -22.9001686
            ]
          ]
        ]
      }
    },
    {
      "type": "Feature",
      "id": "way/980660262",
      "properties": {
        "timestamp": "2021-09-07T17:59:14Z",
        "version": 1,
        "changeset": 110873284,
        "amenity": "kindergarten",
        "name": "Unidade Municipal de Educação Infantil Neuza Brizola",
        "id": "way/980660262"
      },
      "geometry": {
        "type": "Polygon",
        "coordinates": [
          [
            [
              -43.0893593,
              -22.8664305
            ],
            [
              -43.0893285,
              -22.8664532
            ],
            [
              -43.0891499,
              -22.8662935
            ],
            [
              -43.0892914,
              -22.8661588
            ],
            [
              -43.0894702,
              -22.8663311
            ],
            [
              -43.0893593,
              -22.8664305
            ]
          ]
        ]
      }
    },
    {
      "type": "Feature",
      "id": "way/996068572",
      "properties": {
        "timestamp": "2021-10-24T13:54:59Z",
        "version": 1,
        "changeset": 112907151,
        "addr:housenumber": "338",
        "addr:street": "Rua Ministro Otávio Kelly",
        "amenity": "kindergarten",
        "building": "yes",
        "name": "Casa Escola Golfinho Feliz",
        "phone": "+55 21 96822-8159",
        "preschool": "yes",
        "id": "way/996068572"
      },
      "geometry": {
        "type": "Polygon",
        "coordinates": [
          [
            [
              -43.1037845,
              -22.9044389
            ],
            [
              -43.1038541,
              -22.9045091
            ],
            [
              -43.1037863,
              -22.904566
            ],
            [
              -43.1037168,
              -22.9044958
            ],
            [
              -43.1037845,
              -22.9044389
            ]
          ]
        ]
      }
    },
    {
      "type": "Feature",
      "id": "way/1094615872",
      "properties": {
        "timestamp": "2022-09-14T20:30:28Z",
        "version": 1,
        "changeset": 126197329,
        "amenity": "kindergarten",
        "name": "Jardim Escola Balão Mágico",
        "id": "way/1094615872"
      },
      "geometry": {
        "type": "Polygon",
        "coordinates": [
          [
            [
              -43.0596084,
              -22.9072212
            ],
            [
              -43.0595602,
              -22.9075621
            ],
            [
              -43.0592228,
              -22.9075114
            ],
            [
              -43.059271,
              -22.9071721
            ],
            [
              -43.0596084,
              -22.9072212
            ]
          ]
        ]
      }
    },
    {
      "type": "Feature",
      "id": "way/1167964460",
      "properties": {
        "timestamp": "2024-01-17T21:24:55Z",
        "version": 3,
        "changeset": 146381825,
        "addr:city": "Niterói",
        "addr:housename": "S/N",
        "addr:postcode": "24360-970",
        "addr:street": "Avenida Quintino Bocaiúva",
        "addr:suburb": "São Francisco",
        "amenity": "kindergarten",
        "building": "yes",
        "name": "Creche Comunitária Dom Orione",
        "note": "Posição Aproximada",
        "phone": "+55 21 2711 1670",
        "website": "http://www.orionitas.com.br/creche-comunitaria-dom-orione.php",
        "id": "way/1167964460"
      },
      "geometry": {
        "type": "Polygon",
        "coordinates": [
          [
            [
              -43.0937665,
              -22.922234
            ],
            [
              -43.0938444,
              -22.9224003
            ],
            [
              -43.0933206,
              -22.922635
            ],
            [
              -43.0932321,
              -22.9224687
            ],
            [
              -43.0937665,
              -22.922234
            ]
          ]
        ]
      }
    },
    {
      "type": "Feature",
      "id": "way/1356403826",
      "properties": {
        "timestamp": "2025-02-09T15:46:27Z",
        "version": 2,
        "changeset": 162319573,
        "addr:city": "Niterói",
        "addr:housenumber": "39",
        "addr:postcode": "24342-810",
        "addr:street": "Rua Rubem Assis Bonfim",
        "addr:suburb": "Serra Grande",
        "amenity": "kindergarten",
        "email": "umeiaureapimentel@educacao.niteroi.rj.gov.br",
        "name": "UMEI Professora Áurea Trindade Pimentel de Menezes",
        "preschool": "yes",
        "id": "way/1356403826"
      },
      "geometry": {
        "type": "Polygon",
        "coordinates": [
          [
            [
              -43.0224912,
              -22.9355053
            ],
            [
              -43.0225839,
              -22.9353924
            ],
            [
              -43.0226854,
              -22.9354647
            ],
            [
              -43.0226799,
              -22.9354697
            ],
            [
              -43.0226976,
              -22.9354798
            ],
            [
              -43.0226308,
              -22.9355615
            ],
            [
              -43.0226698,
              -22.9355852
            ],
            [
              -43.022646,
              -22.9356118
            ],
            [
              -43.0226256,
              -22.9355978
            ],
            [
              -43.0225081,
              -22.9355172
            ],
            [
              -43.0224912,
              -22.9355053
            ]
          ]
        ]
      }
    },
    {
      "type": "Feature",
      "id": "way/1359588397",
      "properties": {
        "timestamp": "2025-02-13T12:47:09Z",
        "version": 1,
        "changeset": 162465505,
        "amenity": "kindergarten",
        "name": "Crescerzinho",
        "operator": "Escola Especial Crescer",
        "operator:type": "private",
        "id": "way/1359588397"
      },
      "geometry": {
        "type": "Polygon",
        "coordinates": [
          [
            [
              -43.0639035,
              -22.9394261
            ],
            [
              -43.0636868,
              -22.9392176
            ],
            [
              -43.0637669,
              -22.9391509
            ],
            [
              -43.063787,
              -22.939141
            ],
            [
              -43.0638116,
              -22.9391495
            ],
            [
              -43.0640088,
              -22.9393282
            ],
            [
              -43.0639035,
              -22.9394261
            ]
          ]
        ]
      }
    },
    {
      "type": "Feature",
      "id": "node/1922902317",
      "properties": {
        "timestamp": "2012-09-20T01:03:13Z",
        "version": 1,
        "changeset": 13177604,
        "amenity": "kindergarten",
        "name": "Creche Meninar",
        "id": "node/1922902317"
      },
      "geometry": {
        "type": "Point",
        "coordinates": [
          -43.0440638,
          -22.9411532
        ]
      }
    },
    {
      "type": "Feature",
      "id": "node/2494437130",
      "properties": {
        "timestamp": "2013-10-13T19:46:27Z",
        "version": 2,
        "changeset": 18339275,
        "addr:housenumber": "545",
        "addr:street": "Estrada Alarico de Souza",
        "amenity": "kindergarten",
        "name": "Creche Comunitária Alarico de Souza",
        "id": "node/2494437130"
      },
      "geometry": {
        "type": "Point",
        "coordinates": [
          -43.0865484,
          -22.9007841
        ]
      }
    },
    {
      "type": "Feature",
      "id": "node/2495365581",
      "properties": {
        "timestamp": "2013-10-13T19:44:59Z",
        "version": 1,
        "changeset": 18339248,
        "addr:housenumber": "671",
        "addr:street": "Avenida Rui Barbosa",
        "amenity": "kindergarten",
        "name": "Creche Comunitária Betânia",
        "id": "node/2495365581"
      },
      "geometry": {
        "type": "Point",
        "coordinates": [
          -43.0795298,
          -22.9125739
        ]
      }
    },
    {
      "type": "Feature",
      "id": "node/2495380150",
      "properties": {
        "timestamp": "2013-10-13T19:53:12Z",
        "version": 1,
        "changeset": 18339427,
        "addr:housenumber": "479",
        "addr:street": "Rua Doutor Martins Torres",
        "amenity": "kindergarten",
        "name": "Creche Comunitária Anália Franco",
        "id": "node/2495380150"
      },
      "geometry": {
        "type": "Point",
        "coordinates": [
          -43.0882561,
          -22.8986309
        ]
      }
    },
    {
      "type": "Feature",
      "id": "node/2495396052",
      "properties": {
        "timestamp": "2022-06-07T01:24:39Z",
        "version": 2,
        "changeset": 122047407,
        "addr:housenumber": "1076",
        "addr:street": "Rua Doutor Salomão Vergueiro da Cruz",
        "amenity": "kindergarten",
        "name": "Creche Comunitária Cafubá",
        "id": "node/2495396052"
      },
      "geometry": {
        "type": "Point",
        "coordinates": [
          -43.0688398,
          -22.9352299
        ]
      }
    },
    {
      "type": "Feature",
      "id": "node/2495414032",
      "properties": {
        "timestamp": "2013-10-13T20:06:40Z",
        "version": 1,
        "changeset": 18339723,
        "addr:housenumber": "474",
        "addr:street": "Rua Nossa Senhora das Graças",
        "amenity": "kindergarten",
        "name": "Creche Comunitária Cidade das Crianças",
        "id": "node/2495414032"
      },
      "geometry": {
        "type": "Point",
        "coordinates": [
          -43.0793548,
          -22.9060277
        ]
      }
    },
    {
      "type": "Feature",
      "id": "node/2495471659",
      "properties": {
        "timestamp": "2013-10-13T20:34:42Z",
        "version": 1,
        "changeset": 18340266,
        "addr:housenumber": "166 Fundos",
        "addr:street": "Travessa Beltrão",
        "amenity": "kindergarten",
        "name": "Creche Comunitária Cristo Vive",
        "id": "node/2495471659"
      },
      "geometry": {
        "type": "Point",
        "coordinates": [
          -43.0857546,
          -22.902768
        ]
      }
    },
    {
      "type": "Feature",
      "id": "node/2495543044",
      "properties": {
        "timestamp": "2013-10-13T21:20:30Z",
        "version": 1,
        "changeset": 18340880,
        "addr:housenumber": "235",
        "addr:street": "Rua Desembargador Lima Castro",
        "amenity": "kindergarten",
        "name": "Creche Comunitária Instituto Doutor March",
        "id": "node/2495543044"
      },
      "geometry": {
        "type": "Point",
        "coordinates": [
          -43.0862946,
          -22.8866932
        ]
      }
    },
    {
      "type": "Feature",
      "id": "node/2495565449",
      "properties": {
        "timestamp": "2013-10-13T21:39:47Z",
        "version": 1,
        "changeset": 18341103,
        "addr:housenumber": "179",
        "addr:street": "Rua 15 de Novembro",
        "amenity": "kindergarten",
        "name": "Creche Comunitária Jóias de Cristo",
        "id": "node/2495565449"
      },
      "geometry": {
        "type": "Point",
        "coordinates": [
          -43.1197597,
          -22.8963726
        ]
      }
    },
    {
      "type": "Feature",
      "id": "node/2495623240",
      "properties": {
        "timestamp": "2013-10-13T22:30:24Z",
        "version": 1,
        "changeset": 18341598,
        "addr:city": "Niterói",
        "addr:housenumber": "30",
        "addr:street": "Rua Tenente Osório",
        "amenity": "kindergarten",
        "name": "Creche Comunitária Sagrada Família",
        "id": "node/2495623240"
      },
      "geometry": {
        "type": "Point",
        "coordinates": [
          -43.0918491,
          -22.8787145
        ]
      }
    },
    {
      "type": "Feature",
      "id": "node/2495646147",
      "properties": {
        "timestamp": "2013-10-13T23:01:27Z",
        "version": 1,
        "changeset": 18341846,
        "addr:city": "Niterói",
        "addr:housenumber": "56",
        "addr:street": "Alameda Paris",
        "amenity": "kindergarten",
        "name": "Creche Comunitária Medalha Milagrosa",
        "note": "Posição Aproximada",
        "id": "node/2495646147"
      },
      "geometry": {
        "type": "Point",
        "coordinates": [
          -43.101437,
          -22.9119842
        ]
      }
    },
    {
      "type": "Feature",
      "id": "node/2495647339",
      "properties": {
        "timestamp": "2013-10-13T23:07:09Z",
        "version": 1,
        "changeset": 18341879,
        "addr:city": "Niterói",
        "addr:housenumber": "499",
        "addr:street": "Estrada Frei Orlando",
        "amenity": "kindergarten",
        "name": "Creche Comunitária Amigos do Jacaré",
        "note": "Posição Aproximada",
        "id": "node/2495647339"
      },
      "geometry": {
        "type": "Point",
        "coordinates": [
          -43.0446132,
          -22.9128992
        ]
      }
    },
    {
      "type": "Feature",
      "id": "node/2495649921",
      "properties": {
        "timestamp": "2013-10-13T23:14:29Z",
        "version": 1,
        "changeset": 18341935,
        "addr:city": "Niterói",
        "addr:housename": "Lote 13 Quadra A",
        "addr:street": "Rua Quatro",
        "amenity": "kindergarten",
        "name": "Creche Comunitária Basílio Neves",
        "note": "Posição Aproximada",
        "id": "node/2495649921"
      },
      "geometry": {
        "type": "Point",
        "coordinates": [
          -42.997266,
          -22.9344463
        ]
      }
    },
    {
      "type": "Feature",
      "id": "node/2495653659",
      "properties": {
        "timestamp": "2013-10-13T23:21:53Z",
        "version": 1,
        "changeset": 18341978,
        "addr:city": "Niterói",
        "addr:housename": "Travessa 7 e 8",
        "addr:street": "Rua João Dalossi",
        "amenity": "kindergarten",
        "name": "Creche Comunitária Criança Esperança",
        "note": "Posição Aproximada",
        "id": "node/2495653659"
      },
      "geometry": {
        "type": "Point",
        "coordinates": [
          -43.0930656,
          -22.9071337
        ]
      }
    },
    {
      "type": "Feature",
      "id": "node/2495670110",
      "properties": {
        "timestamp": "2013-10-13T23:45:37Z",
        "version": 1,
        "changeset": 18342109,
        "addr:city": "Niterói",
        "addr:housenumber": "147",
        "addr:street": "Rua Miguel Vieira Ferreira",
        "amenity": "kindergarten",
        "name": "Creche Comunitária Disp. São Vicente de Paulo",
        "note": "Posição Aproximada",
        "id": "node/2495670110"
      },
      "geometry": {
        "type": "Point",
        "coordinates": [
          -43.1055215,
          -22.9072632
        ]
      }
    },
    {
      "type": "Feature",
      "id": "node/2495673748",
      "properties": {
        "timestamp": "2013-10-14T00:07:23Z",
        "version": 1,
        "changeset": 18342191,
        "addr:city": "Niterói",
        "addr:housename": "7 Lote 17",
        "addr:street": "Rua 9",
        "amenity": "kindergarten",
        "name": "Creche Comunitária Ercílio Marques",
        "note": "Posição Aproximada",
        "id": "node/2495673748"
      },
      "geometry": {
        "type": "Point",
        "coordinates": [
          -43.0574824,
          -22.8976806
        ]
      }
    },
    {
      "type": "Feature",
      "id": "node/2495698214",
      "properties": {
        "timestamp": "2023-11-14T23:45:04Z",
        "version": 2,
        "changeset": 144030094,
        "addr:city": "Niterói",
        "addr:housenumber": "1037",
        "addr:street": "Alameda Jandira Fróes",
        "amenity": "kindergarten",
        "name": "Creche Comunitária Irmã Catarina",
        "note": "Posição Aproximada",
        "id": "node/2495698214"
      },
      "geometry": {
        "type": "Point",
        "coordinates": [
          -43.0979283,
          -22.9133318
        ]
      }
    },
    {
      "type": "Feature",
      "id": "node/2495698909",
      "properties": {
        "timestamp": "2013-10-14T01:00:13Z",
        "version": 1,
        "changeset": 18342421,
        "addr:city": "Niterói",
        "addr:housenumber": "153",
        "addr:street": "Avenida Carlos Ermelindo Marins",
        "amenity": "kindergarten",
        "name": "Creche Comunitária Jurujuba",
        "note": "Posição aproximada",
        "id": "node/2495698909"
      },
      "geometry": {
        "type": "Point",
        "coordinates": [
          -43.1163729,
          -22.931793
        ]
      }
    },
    {
      "type": "Feature",
      "id": "node/2495701353",
      "properties": {
        "timestamp": "2013-10-14T01:02:23Z",
        "version": 1,
        "changeset": 18342431,
        "addr:city": "Niterói",
        "addr:housenumber": "9",
        "addr:street": "Rua Professor Roberto Lira",
        "amenity": "kindergarten",
        "name": "Creche Comunitária Maceió (Newton Pires Rosa)",
        "note": "Posição Aproximada",
        "id": "node/2495701353"
      },
      "geometry": {
        "type": "Point",
        "coordinates": [
          -43.0718968,
          -22.9131059
        ]
      }
    },
    {
      "type": "Feature",
      "id": "node/2495729446",
      "properties": {
        "timestamp": "2013-10-14T01:43:22Z",
        "version": 1,
        "changeset": 18342621,
        "addr:city": "Niterói",
        "addr:housename": "Lote 18 Quadra 59",
        "addr:street": "Rua Três",
        "amenity": "kindergarten",
        "name": "Creche Comunitária Kairós",
        "note": "Posição Aproximada",
        "id": "node/2495729446"
      },
      "geometry": {
        "type": "Point",
        "coordinates": [
          -43.0235235,
          -22.9333585
        ]
      }
    },
    {
      "type": "Feature",
      "id": "node/2495730394",
      "properties": {
        "timestamp": "2023-11-19T00:38:54Z",
        "version": 2,
        "changeset": 144193518,
        "addr:city": "Niterói",
        "addr:housename": "Lote 3 Quadra 166",
        "addr:street": "Rua Engenheiro Carlos Álvaro Quintela",
        "amenity": "kindergarten",
        "name": "Creche Comunitária Meimei",
        "note": "Posição Aproximada",
        "id": "node/2495730394"
      },
      "geometry": {
        "type": "Point",
        "coordinates": [
          -43.070393,
          -22.9391554
        ]
      }
    },
    {
      "type": "Feature",
      "id": "node/2495730783",
      "properties": {
        "timestamp": "2013-10-14T01:52:13Z",
        "version": 1,
        "changeset": 18342658,
        "addr:city": "Niterói",
        "addr:housename": "Lote 14 Quadra 64",
        "addr:street": "Rua Demócrito da Cunha Silveira",
        "amenity": "kindergarten",
        "name": "Creche Comunitária Minha Querência",
        "id": "node/2495730783"
      },
      "geometry": {
        "type": "Point",
        "coordinates": [
          -43.0732906,
          -22.9315398
        ]
      }
    },
    {
      "type": "Feature",
      "id": "node/2495731962",
      "properties": {
        "timestamp": "2013-10-14T01:57:17Z",
        "version": 1,
        "changeset": 18342680,
        "addr:city": "Niterói",
        "addr:housenumber": "3",
        "addr:street": "Rua Jorge Nemmer",
        "amenity": "kindergarten",
        "name": "Creche Comunitária Nossa Senhora Aparecida",
        "id": "node/2495731962"
      },
      "geometry": {
        "type": "Point",
        "coordinates": [
          -43.1279615,
          -22.9045768
        ]
      }
    },
    {
      "type": "Feature",
      "id": "node/2495733240",
      "properties": {
        "timestamp": "2013-10-14T02:07:39Z",
        "version": 1,
        "changeset": 18342718,
        "addr:city": "Niterói",
        "addr:housenumber": "47",
        "addr:street": "Estrada Jean Vallenteau Moulliac",
        "amenity": "kindergarten",
        "name": "Creche Comunitária Professora Clélia Rocha",
        "note": "Posição Aproximada",
        "id": "node/2495733240"
      },
      "geometry": {
        "type": "Point",
        "coordinates": [
          -42.9884196,
          -22.9047105
        ]
      }
    },
    {
      "type": "Feature",
      "id": "node/2495733989",
      "properties": {
        "timestamp": "2024-10-13T14:12:26Z",
        "version": 2,
        "changeset": 157837137,
        "addr:city": "Niterói",
        "addr:housenumber": "307",
        "addr:street": "Rua General Andrade Neves",
        "amenity": "kindergarten",
        "name": "Creche Comunitária Geraldo Cavalcante Albuquerque",
        "id": "node/2495733989"
      },
      "geometry": {
        "type": "Point",
        "coordinates": [
          -43.1258928,
          -22.9004764
        ]
      }
    },
    {
      "type": "Feature",
      "id": "node/2495734031",
      "properties": {
        "timestamp": "2013-10-14T02:12:37Z",
        "version": 1,
        "changeset": 18342735,
        "addr:city": "Niterói",
        "addr:housename": "S/N",
        "addr:street": "Rua Leonel Brizola",
        "amenity": "kindergarten",
        "name": "Creche Comunitária Professora Lenilda Soares Cunha",
        "note": "Posição Aproximada",
        "id": "node/2495734031"
      },
      "geometry": {
        "type": "Point",
        "coordinates": [
          -43.1279709,
          -22.9049633
        ]
      }
    },
    {
      "type": "Feature",
      "id": "node/2495735100",
      "properties": {
        "timestamp": "2013-10-14T02:19:49Z",
        "version": 1,
        "changeset": 18342759,
        "addr:city": "Niterói",
        "addr:housenumber": "78",
        "addr:postcode": "24020-091",
        "addr:street": "Rua Doutor Celestino",
        "amenity": "kindergarten",
        "name": "Creche Comunitária Rosalda Paim",
        "id": "node/2495735100"
      },
      "geometry": {
        "type": "Point",
        "coordinates": [
          -43.1163893,
          -22.8952858
        ]
      }
    },
    {
      "type": "Feature",
      "id": "node/2495735755",
      "properties": {
        "timestamp": "2024-11-17T20:32:25Z",
        "version": 3,
        "changeset": 159258428,
        "addr:city": "Niterói",
        "addr:street": "Praça Dom Agostinho Benassi",
        "amenity": "kindergarten",
        "name": "Creche Comunitária São Lourenço",
        "id": "node/2495735755"
      },
      "geometry": {
        "type": "Point",
        "coordinates": [
          -43.1084424,
          -22.8812636
        ]
      }
    },
    {
      "type": "Feature",
      "id": "node/2495735912",
      "properties": {
        "timestamp": "2013-10-14T02:28:55Z",
        "version": 1,
        "changeset": 18342793,
        "addr:city": "Niterói",
        "addr:housenumber": "73",
        "addr:street": "Rua Tenente Osório",
        "amenity": "kindergarten",
        "name": "Núcleo Avançado de Educação Infantil Vila Ipiranga",
        "id": "node/2495735912"
      },
      "geometry": {
        "type": "Point",
        "coordinates": [
          -43.0921692,
          -22.8782323
        ]
      }
    },
    {
      "type": "Feature",
      "id": "node/2495748475",
      "properties": {
        "timestamp": "2024-12-12T18:04:49Z",
        "version": 3,
        "changeset": 160218360,
        "addr:city": "Niterói",
        "addr:street": "Avenida Desembargador Nestor Rodrigues Perlingeiro",
        "addr:suburb": "Santa Bárbara",
        "amenity": "kindergarten",
        "name": "UMEI Hermógenes Reis (Integral)",
        "nohousenumber": "yes",
        "phone": "+55 21 2705-9940/2705-9941",
        "id": "node/2495748475"
      },
      "geometry": {
        "type": "Point",
        "coordinates": [
          -43.0489187,
          -22.8752308
        ]
      }
    },
    {
      "type": "Feature",
      "id": "node/6011398161",
      "properties": {
        "timestamp": "2018-10-25T01:23:10Z",
        "version": 1,
        "changeset": 63850994,
        "addr:city": "Niterói",
        "addr:housenumber": "866",
        "addr:street": "R. Ver. José Mª Cavalcanti",
        "addr:suburb": "Santa Bárbara",
        "amenity": "kindergarten",
        "name": "UMEI Marly Sarney (Integral)",
        "phone": "+55 21 2705-9877/2705-9887",
        "id": "node/6011398161"
      },
      "geometry": {
        "type": "Point",
        "coordinates": [
          -43.0487732,
          -22.8767932
        ]
      }
    },
    {
      "type": "Feature",
      "id": "node/9776737300",
      "properties": {
        "timestamp": "2022-05-28T12:24:38Z",
        "version": 1,
        "changeset": 121614611,
        "addr:city": "Niterói",
        "addr:housenumber": "7",
        "addr:postcode": "24230-550",
        "addr:street": "Rua Estado de Israel",
        "addr:suburb": "Icaraí",
        "amenity": "kindergarten",
        "name": "Colégio Castelo do Saber",
        "phone": "021 27048467",
        "id": "node/9776737300"
      },
      "geometry": {
        "type": "Point",
        "coordinates": [
          -43.1044573,
          -22.9102176
        ]
      }
    }
  ]
}
