{
  "type": "FeatureCollection",
  "features": [
    {
      "type": "Feature",
      "id": "way/1231152222",
      "properties": {
        "timestamp": "2023-12-14T17:16:37Z",
        "version": 1,
        "changeset": 145120922,
        "addr:city": "Palmeira do Piauí",
        "addr:postcode": "64925000",
        "addr:street": "Avenida José Luz",
        "addr:suburb": "Centro",
        "amenity": "clinic",
        "building": "yes",
        "healthcare": "clinic",
        "name": "UBS Rosalina Rosal",
        "id": "way/1231152222"
      },
      "geometry": {
        "type": "Polygon",
        "coordinates": [
          [
            [
              -44.2317868,
              -8.7285235
            ],
            [
              -44.2319731,
              -8.7283939
            ],
            [
              -44.2321632,
              -8.7286611
            ],
            [
              -44.2319769,
              -8.7287906
            ],
            [
              -44.2317868,
              -8.7285235
            ]
          ]
        ]
      }
    },
    {
      "type": "Feature",
      "id": "way/1231152231",
      "properties": {
        "timestamp": "2023-12-14T17:16:37Z",
        "version": 1,
        "changeset": 145120922,
        "addr:city": "Palmeira do Piauí",
        "addr:postcode": "64925-000",
        "addr:street": "Avenida Chico Borges",
        "addr:suburb": "Povoado São Francisco",
        "amenity": "clinic",
        "building": "yes",
        "healthcare": "clinic",
        "name": "UBS Vereador Chico Mendes",
        "id": "way/1231152231"
      },
      "geometry": {
        "type": "Polygon",
        "coordinates": [
          [
            [
              -44.5715834,
              -8.4999476
            ],
            [
              -44.571399,
              -8.5000538
            ],
            [
              -44.5712869,
              -8.4998644
            ],
            [
              -44.571483,
              -8.499749
            ],
            [
              -44.5715834,
              -8.4999476
            ]
          ]
        ]
      }
    },
    {
      "type": "Feature",
      "id": "way/1235186553",
      "properties": {
        "timestamp": "2023-12-29T13:34:39Z",
        "version": 1,
        "changeset": 145661787,
        "amenity": "clinic",
        "building": "yes",
        "healthcare": "clinic",
        "id": "way/1235186553"
      },
      "geometry": {
        "type": "Polygon",
        "coordinates": [
          [
            [
              -44.2001536,
              -8.7383124
            ],
            [
              -44.2000761,
              -8.7383642
            ],
            [
              -44.2000004,
              -8.7382533
            ],
            [
              -44.200078,
              -8.7382016
            ],
            [
              -44.2001536,
              -8.7383124
            ]
          ]
        ]
      }
    },
    {
      "type": "Feature",
      "id": "node/8867148483",
      "properties": {
        "timestamp": "2021-08-08T12:39:19Z",
        "version": 2,
        "changeset": 109344390,
        "addr:city": "Palmeira do Piauí",
        "addr:street": "Rua Simão Borges",
        "addr:suburb": "Centro",
        "amenity": "clinic",
        "emergency": "yes",
        "healthcare": "clinic",
        "name": "Unidade Mista de Saúde Miguel Pinheiro Lopes",
        "operator": "Sistema Único de Saúde",
        "operator:short": "SUS",
        "operator:type": "government",
        "operator:wikidata": "Q7531056",
        "operator:wikipedia": "pt:Sistema Único de Saúde",
        "id": "node/8867148483"
      },
      "geometry": {
        "type": "Point",
        "coordinates": [
          -44.2365973,
          -8.7254953
        ]
      }
    },
    {
      "type": "Feature",
      "id": "node/8868970933",
      "properties": {
        "timestamp": "2023-12-29T13:34:39Z",
        "version": 3,
        "changeset": 145661787,
        "addr:city": "Palmeira do Piauí",
        "addr:postcode": "64925000",
        "addr:street": "PI-395",
        "addr:suburb": "Salinas",
        "amenity": "clinic",
        "healthcare": "clinic",
        "name": "Posto de Saúde José Ribeiro",
        "id": "node/8868970933"
      },
      "geometry": {
        "type": "Point",
        "coordinates": [
          -44.2000777,
          -8.738276
        ]
      }
    }
  ]
}
