{
  "type": "FeatureCollection",
  "features": [
    {
      "type": "Feature",
      "id": "way/1289378541",
      "properties": {
        "timestamp": "2024-06-04T14:40:09Z",
        "version": 1,
        "changeset": 152247480,
        "addr:city": "Palmeira do Piauí",
        "addr:postcode": "64925-000",
        "addr:street": "Rua Simão Borges",
        "addr:suburb": "Centro",
        "building": "yes",
        "government": "healthcare",
        "name": "Secretaria Municipal de Saúde",
        "office": "government",
        "id": "way/1289378541"
      },
      "geometry": {
        "type": "Polygon",
        "coordinates": [
          [
            [
              -44.2363894,
              -8.7252297
            ],
            [
              -44.23633,
              -8.7252899
            ],
            [
              -44.2362291,
              -8.7251926
            ],
            [
              -44.2362885,
              -8.7251324
            ],
            [
              -44.2363894,
              -8.7252297
            ]
          ]
        ]
      }
    },
    {
      "type": "Feature",
      "id": "node/5881975475",
      "properties": {
        "timestamp": "2024-06-04T14:40:09Z",
        "version": 4,
        "changeset": 152247480,
        "name": "Secretaria de Saúde",
        "office": "government",
        "id": "node/5881975475"
      },
      "geometry": {
        "type": "Point",
        "coordinates": [
          -44.2363106,
          -8.7252102
        ]
      }
    },
    {
      "type": "Feature",
      "id": "node/5881975476",
      "properties": {
        "timestamp": "2023-12-29T14:08:28Z",
        "version": 3,
        "changeset": 145663161,
        "addr:city": "Palmeira do Piauí",
        "addr:postcode": "64925000",
        "addr:street": "Avenida José Luz",
        "addr:suburb": "Centro",
        "name": "Câmara Municipal de Palmeira do Piauí",
        "office": "government",
        "id": "node/5881975476"
      },
      "geometry": {
        "type": "Point",
        "coordinates": [
          -44.2347437,
          -8.7260899
        ]
      }
    },
    {
      "type": "Feature",
      "id": "node/5881975477",
      "properties": {
        "timestamp": "2024-01-24T19:28:08Z",
        "version": 3,
        "changeset": 146644105,
        "addr:city": "Palmeira do Piauí",
        "addr:postcode": "64925000",
        "addr:street": "Rua Sete de Setembro",
        "addr:suburb": "Centro",
        "name": "Conselho Tutelar",
        "office": "government",
        "id": "node/5881975477"
      },
      "geometry": {
        "type": "Point",
        "coordinates": [
          -44.2377434,
          -8.7261927
        ]
      }
    },
    {
      "type": "Feature",
      "id": "node/5881975478",
      "properties": {
        "timestamp": "2024-01-24T19:28:08Z",
        "version": 4,
        "changeset": 146644105,
        "addr:city": "Palmeira do Piauí",
        "addr:postcode": "64925000",
        "addr:street": "Rua Rosalina Rosal",
        "addr:suburb": "Cohab II",
        "name": "Secretaria Municipal de Educação",
        "office": "government",
        "id": "node/5881975478"
      },
      "geometry": {
        "type": "Point",
        "coordinates": [
          -44.2388553,
          -8.7222367
        ]
      }
    },
    {
      "type": "Feature",
      "id": "node/10264818406",
      "properties": {
        "timestamp": "2024-01-24T19:20:40Z",
        "version": 2,
        "changeset": 146643893,
        "addr:city": "Palmeira do Piauí",
        "addr:postcode": "64925-000",
        "addr:street": "Rua Simão Borges",
        "addr:suburb": "Centro",
        "government": "register_office",
        "name": "Cartório Único 1º Ofício",
        "office": "government",
        "id": "node/10264818406"
      },
      "geometry": {
        "type": "Point",
        "coordinates": [
          -44.2360284,
          -8.7258089
        ]
      }
    },
    {
      "type": "Feature",
      "id": "node/10264888310",
      "properties": {
        "timestamp": "2022-12-15T12:33:10Z",
        "version": 1,
        "changeset": 130113326,
        "addr:city": "Palmeira do Piauí",
        "addr:postcode": "64925000",
        "addr:street": "Avenida José Luz",
        "addr:suburb": "Centro",
        "government": "social_services",
        "name": "EMATER - PI",
        "office": "government",
        "id": "node/10264888310"
      },
      "geometry": {
        "type": "Point",
        "coordinates": [
          -44.23465,
          -8.7256809
        ]
      }
    }
  ]
}
