{
  "type": "FeatureCollection",
  "features": [
    {
      "type": "Feature",
      "id": "node/8868966184",
      "properties": {
        "timestamp": "2024-01-24T19:08:20Z",
        "version": 2,
        "changeset": 146643442,
        "addr:city": "Palmeira do Piauí",
        "addr:postcode": "64925000",
        "addr:street": "Avenida José Luz",
        "addr:suburb": "Centro",
        "amenity": "pharmacy",
        "dispensing": "yes",
        "healthcare": "pharmacy",
        "name": "Drogaria Nova Vida",
        "id": "node/8868966184"
      },
      "geometry": {
        "type": "Point",
        "coordinates": [
          -44.2370582,
          -8.7233556
        ]
      }
    },
    {
      "type": "Feature",
      "id": "node/8868966186",
      "properties": {
        "timestamp": "2024-01-24T19:08:20Z",
        "version": 3,
        "changeset": 146643442,
        "addr:city": "Palmeira do Piauí",
        "addr:postcode": "64925000",
        "addr:street": "Avenida José Luz",
        "addr:suburb": "Centro",
        "amenity": "pharmacy",
        "healthcare": "pharmacy",
        "name": "Drogaria Palmeira",
        "id": "node/8868966186"
      },
      "geometry": {
        "type": "Point",
        "coordinates": [
          -44.2369716,
          -8.7234104
        ]
      }
    }
  ]
}
