{
  "type": "FeatureCollection",
  "features": [
    {
      "type": "Feature",
      "id": "way/635805940",
      "properties": {
        "timestamp": "2022-02-05T14:24:08Z",
        "version": 2,
        "changeset": 117046803,
        "addr:city": "Pio IX",
        "addr:housenumber": "03",
        "addr:postcode": "64660-000",
        "addr:street": "Rua Major Vitalino Bezerra",
        "addr:suburb": "Barragem",
        "amenity": "kindergarten",
        "name": "Creche Tia Ana Matutina",
        "id": "way/635805940"
      },
      "geometry": {
        "type": "Polygon",
        "coordinates": [
          [
            [
              -40.6170827,
              -6.8366583
            ],
            [
              -40.6168547,
              -6.8365691
            ],
            [
              -40.6169084,
              -6.8364226
            ],
            [
              -40.6171417,
              -6.8365025
            ],
            [
              -40.6170827,
              -6.8366583
            ]
          ]
        ]
      }
    }
  ]
}
