{
  "type": "FeatureCollection",
  "features": [
    {
      "type": "Feature",
      "id": "way/1032921873",
      "properties": {
        "timestamp": "2022-02-18T14:55:34Z",
        "version": 1,
        "changeset": 117568908,
        "addr:city": "Combinado",
        "addr:housenumber": "889",
        "addr:postcode": "77350-000",
        "addr:street": "Rua João da Silva Biao",
        "addr:suburb": "Centro",
        "amenity": "school",
        "name": "Escola Estadual Professora Augusta Vaz Dos Santos Teixeira",
        "phone": "+55 63 3685 1038",
        "id": "way/1032921873"
      },
      "geometry": {
        "type": "Polygon",
        "coordinates": [
          [
            [
              -46.5469481,
              -12.8209538
            ],
            [
              -46.5470905,
              -12.8214703
            ],
            [
              -46.5465531,
              -12.8216112
            ],
            [
              -46.5464107,
              -12.8210947
            ],
            [
              -46.5469481,
              -12.8209538
            ]
          ]
        ]
      }
    },
    {
      "type": "Feature",
      "id": "way/1032922518",
      "properties": {
        "timestamp": "2022-02-18T14:57:39Z",
        "version": 1,
        "changeset": 117568987,
        "addr:city": "Combinado",
        "addr:housenumber": "69",
        "addr:postcode": "77350-000",
        "addr:street": "Avenida Palmas",
        "addr:suburb": "Centro",
        "amenity": "school",
        "name": "Escola Estadual Girassol De Tempo Integral Combinado",
        "id": "way/1032922518"
      },
      "geometry": {
        "type": "Polygon",
        "coordinates": [
          [
            [
              -46.5499292,
              -12.8165483
            ],
            [
              -46.5502833,
              -12.8171341
            ],
            [
              -46.5502457,
              -12.8171917
            ],
            [
              -46.5495618,
              -12.8173852
            ],
            [
              -46.549315,
              -12.8167183
            ],
            [
              -46.5499292,
              -12.8165483
            ]
          ]
        ]
      }
    },
    {
      "type": "Feature",
      "id": "way/1032923126",
      "properties": {
        "timestamp": "2022-02-18T14:58:44Z",
        "version": 1,
        "changeset": 117569030,
        "addr:city": "Combinado",
        "addr:postcode": "77350-000",
        "addr:street": "Rua Rio Grande do Sul",
        "addr:suburb": "Centro",
        "amenity": "school",
        "name": "Colegio Estadual Joaquim De Sena E Silva",
        "id": "way/1032923126"
      },
      "geometry": {
        "type": "Polygon",
        "coordinates": [
          [
            [
              -46.5462331,
              -12.8133026
            ],
            [
              -46.54626,
              -12.8136896
            ],
            [
              -46.5460883,
              -12.8137446
            ],
            [
              -46.5461607,
              -12.81415
            ],
            [
              -46.5463968,
              -12.8141944
            ],
            [
              -46.5465711,
              -12.8143801
            ],
            [
              -46.545863,
              -12.8144978
            ],
            [
              -46.5455036,
              -12.8133549
            ],
            [
              -46.5462331,
              -12.8133026
            ]
          ]
        ]
      }
    },
    {
      "type": "Feature",
      "id": "way/1032923965",
      "properties": {
        "timestamp": "2022-02-18T14:59:47Z",
        "version": 1,
        "changeset": 117569079,
        "addr:city": "Combinado",
        "addr:housenumber": "436",
        "addr:postcode": "77350-000",
        "addr:street": "Rua Deputado José de Assis",
        "addr:suburb": "Centro",
        "amenity": "school",
        "name": "Centro Municipal De Educacao Basica Mundo Feliz",
        "phone": "+55 63 3685 1159",
        "id": "way/1032923965"
      },
      "geometry": {
        "type": "Polygon",
        "coordinates": [
          [
            [
              -46.547821,
              -12.810095
            ],
            [
              -46.5478666,
              -12.8107584
            ],
            [
              -46.5473486,
              -12.8107923
            ],
            [
              -46.5473029,
              -12.8101289
            ],
            [
              -46.547821,
              -12.810095
            ]
          ]
        ]
      }
    },
    {
      "type": "Feature",
      "id": "way/1032924128",
      "properties": {
        "timestamp": "2022-02-18T15:01:03Z",
        "version": 1,
        "changeset": 117569119,
        "addr:city": "Combinado",
        "addr:postcode": "77350-000",
        "addr:street": "Rua Progresso",
        "addr:suburb": "Setor Girassois",
        "amenity": "school",
        "name": "Creche Municipal Castelo Encantado Dona Doninha",
        "phone": "+55 63 3685 1064",
        "id": "way/1032924128"
      },
      "geometry": {
        "type": "Polygon",
        "coordinates": [
          [
            [
              -46.5478418,
              -12.8050748
            ],
            [
              -46.5478704,
              -12.805691
            ],
            [
              -46.5473957,
              -12.8057119
            ],
            [
              -46.5473672,
              -12.8050957
            ],
            [
              -46.5478418,
              -12.8050748
            ]
          ]
        ]
      }
    }
  ]
}
