{
  "type": "FeatureCollection",
  "features": [
    {
      "type": "Feature",
      "id": "node/10695882805",
      "properties": {
        "timestamp": "2023-04-29T21:46:50Z",
        "version": 2,
        "changeset": 135518979,
        "addr:housenumber": "397",
        "addr:postcode": "13930-000",
        "addr:street": "Rua José Bonifácio",
        "government": "public_service",
        "name": "Poupatempo Serra Negra",
        "office": "government",
        "id": "node/10695882805"
      },
      "geometry": {
        "type": "Point",
        "coordinates": [
          -46.7025462,
          -22.6146677
        ]
      }
    },
    {
      "type": "Feature",
      "id": "node/11456224141",
      "properties": {
        "timestamp": "2024-04-10T12:15:34Z",
        "version": 2,
        "changeset": 149817074,
        "addr:city": "Serra Negra",
        "addr:housenumber": "127",
        "addr:postcode": "13930000",
        "addr:street": "Rua Guarani",
        "addr:suburb": "Centro",
        "government": "register_office",
        "name": "Oficial de Registro de Imóveis e Anexos de Serra Negra",
        "office": "government",
        "opening_hours": "Mo-Fr 09:00-16:00",
        "phone": "19982478391",
        "id": "node/11456224141"
      },
      "geometry": {
        "type": "Point",
        "coordinates": [
          -46.6993503,
          -22.6166005
        ]
      }
    }
  ]
}
