{
  "type": "FeatureCollection",
  "features": [
    {
      "type": "Feature",
      "id": "way/1271229525",
      "properties": {
        "timestamp": "2024-04-09T16:55:24Z",
        "version": 1,
        "changeset": 149786332,
        "addr:city": "Serra Negra",
        "addr:postcode": "13930-000",
        "addr:street": "Estrada Municipal Claudio de Andrea Corsetti",
        "addr:suburb": "Ramalhada",
        "building": "yes",
        "internet_access": "wlan",
        "internet_access:fee": "customers",
        "name": "Pousada Brilho do Sol",
        "phone": "+5519999870363",
        "tourism": "guest_house",
        "website": "https://www.booking.com/hotel/br/pousada-brilho-do-sol-serra-negra1.pt-br.html",
        "id": "way/1271229525"
      },
      "geometry": {
        "type": "Polygon",
        "coordinates": [
          [
            [
              -46.650175,
              -22.579537
            ],
            [
              -46.6501227,
              -22.5795654
            ],
            [
              -46.6499967,
              -22.5793444
            ],
            [
              -46.6502064,
              -22.5792028
            ],
            [
              -46.6502399,
              -22.5792517
            ],
            [
              -46.6500783,
              -22.5793693
            ],
            [
              -46.650175,
              -22.579537
            ]
          ]
        ]
      }
    },
    {
      "type": "Feature",
      "id": "node/5659126845",
      "properties": {
        "timestamp": "2023-10-22T02:02:47Z",
        "version": 2,
        "changeset": 142946288,
        "addr:housenumber": "83",
        "addr:postcode": "13930000",
        "addr:street": "Rua Maestro Ã‚ngelo Lamari",
        "internet_access": "wlan",
        "name": "Pousada da Fonte",
        "tourism": "guest_house",
        "website": "https://www.pousadadafonte.com.br/",
        "id": "node/5659126845"
      },
      "geometry": {
        "type": "Point",
        "coordinates": [
          -46.7069314,
          -22.6063325
        ]
      }
    }
  ]
}
