{
  "type": "FeatureCollection",
  "features": [
    {
      "type": "Feature",
      "id": "node/9776140417",
      "properties": {
        "timestamp": "2022-05-28T00:26:55Z",
        "version": 1,
        "changeset": 121597251,
        "addr:housenumber": "58",
        "addr:postcode": "56512-650",
        "addr:street": "Rua Nino Claudino Felipe",
        "amenity": "community_centre",
        "name": "Grupo de samba de Coco Fulô do Barro",
        "id": "node/9776140417"
      },
      "geometry": {
        "type": "Point",
        "coordinates": [
          -37.0753296,
          -8.4131606
        ]
      }
    },
    {
      "type": "Feature",
      "id": "node/9776163717",
      "properties": {
        "timestamp": "2022-05-28T00:56:17Z",
        "version": 1,
        "changeset": 121597524,
        "addr:housenumber": "170",
        "addr:postcode": "56509-814",
        "addr:street": "Rua José de Siqueira Brito",
        "amenity": "community_centre",
        "name": "Samba de Coco Raízes de Arcoverde",
        "id": "node/9776163717"
      },
      "geometry": {
        "type": "Point",
        "coordinates": [
          -37.0527918,
          -8.4225584
        ]
      }
    }
  ]
}
