{
  "type": "FeatureCollection",
  "features": [
    {
      "type": "Feature",
      "id": "way/448590940",
      "properties": {
        "timestamp": "2016-10-20T03:46:38Z",
        "version": 1,
        "changeset": 43024045,
        "amenity": "university",
        "name": "AESA - CESA",
        "id": "way/448590940"
      },
      "geometry": {
        "type": "Polygon",
        "coordinates": [
          [
            [
              -37.06921,
              -8.4112626
            ],
            [
              -37.0688104,
              -8.4129052
            ],
            [
              -37.068019,
              -8.4127286
            ],
            [
              -37.0684574,
              -8.411086
            ],
            [
              -37.06921,
              -8.4112626
            ]
          ]
        ]
      }
    },
    {
      "type": "Feature",
      "id": "node/12104577656",
      "properties": {
        "timestamp": "2024-08-11T17:07:59Z",
        "version": 1,
        "changeset": 155113494,
        "addr:city": "Arcoverde",
        "addr:housenumber": "10017",
        "addr:postcode": "56512-670",
        "addr:street": "Avenida Osvaldo Cruz",
        "addr:suburb": "São Cristóvão",
        "amenity": "university",
        "contact:facebook": "https://www.facebook.com/medicinadosertao/",
        "email": "secretaria.presidencia@slmandic.edu.br",
        "internet_access": "yes",
        "internet_access:fee": "customers",
        "mobile": "+55 87 98118-8283",
        "name": "Faculdade Medicina do Sertão",
        "opening_hours": "Mo-Fr 08:00-18:00; Sa 08:00-12:00",
        "operator": "São Leopoldo Mandic",
        "operator:type": "private",
        "website": "http://medicinadosertao.com.br/",
        "wheelchair": "yes",
        "id": "node/12104577656"
      },
      "geometry": {
        "type": "Point",
        "coordinates": [
          -37.1063495,
          -8.4103423
        ]
      }
    }
  ]
}
