{
  "type": "FeatureCollection",
  "features": [
    {
      "type": "Feature",
      "id": "node/2897250171",
      "properties": {
        "timestamp": "2021-10-20T20:14:43Z",
        "version": 8,
        "changeset": 112761596,
        "amenity": "bicycle_rental",
        "capacity": "15",
        "name": "CLN 209 L1 Norte",
        "network": "tembici",
        "opening_hours": "24/7",
        "operator": "tembici",
        "ref": "48",
        "website": "https://brasilia.tembici.com.br/",
        "id": "node/2897250171"
      },
      "geometry": {
        "type": "Point",
        "coordinates": [
          -47.882172,
          -15.7573394
        ]
      }
    },
    {
      "type": "Feature",
      "id": "node/3148378171",
      "properties": {
        "timestamp": "2023-08-18T18:15:15Z",
        "version": 7,
        "changeset": 140069093,
        "amenity": "bicycle_rental",
        "brand": "BikeRio",
        "brand:wikidata": "Q28724",
        "capacity": "27",
        "fee": "yes",
        "name": "Parque da Cidade SRTVS - Estação 18",
        "network": "tembici",
        "opening_hours": "24/7",
        "operator": "Tembici",
        "operator:type": "private",
        "payment:contactless": "yes",
        "payment:credit_cards": "yes",
        "payment:debit_cards": "yes",
        "ref": "18",
        "website": "https://brasilia.tembici.com.br/",
        "wikidata": "Q97188366",
        "wikimedia_commons": "Category:Bike Itaú",
        "wikipedia": "pt:Bike Itaú",
        "id": "node/3148378171"
      },
      "geometry": {
        "type": "Point",
        "coordinates": [
          -47.8951954,
          -15.7951284
        ]
      }
    },
    {
      "type": "Feature",
      "id": "node/3148378172",
      "properties": {
        "timestamp": "2023-08-18T18:15:15Z",
        "version": 8,
        "changeset": 140069093,
        "amenity": "bicycle_rental",
        "brand": "BikeRio",
        "brand:wikidata": "Q28724",
        "capacity": "11",
        "fee": "yes",
        "name": "Brasília Shopping - Estação 34",
        "network": "tembici",
        "opening_hours": "24/7",
        "operator": "Tembici",
        "operator:type": "private",
        "payment:contactless": "yes",
        "payment:credit_cards": "yes",
        "payment:debit_cards": "yes",
        "ref": "34",
        "website": "https://brasilia.tembici.com.br/",
        "wikidata": "Q97188366",
        "wikimedia_commons": "Category:Bike Itaú",
        "wikipedia": "pt:Bike Itaú",
        "id": "node/3148378172"
      },
      "geometry": {
        "type": "Point",
        "coordinates": [
          -47.8879309,
          -15.7870149
        ]
      }
    },
    {
      "type": "Feature",
      "id": "node/3150030033",
      "properties": {
        "timestamp": "2023-08-18T18:15:15Z",
        "version": 8,
        "changeset": 140069093,
        "amenity": "bicycle_rental",
        "brand": "BikeRio",
        "brand:wikidata": "Q28724",
        "capacity": "11",
        "covered": "no",
        "name": "Shopping Pátio Brasil - Estação 20",
        "network": "tembici",
        "operator": "Tembici",
        "ref": "20",
        "website": "https://brasilia.tembici.com.br/",
        "wikidata": "Q97188366",
        "wikimedia_commons": "Category:Bike Itaú",
        "wikipedia": "pt:Bike Itaú",
        "id": "node/3150030033"
      },
      "geometry": {
        "type": "Point",
        "coordinates": [
          -47.8914767,
          -15.7973914
        ]
      }
    },
    {
      "type": "Feature",
      "id": "node/3249673965",
      "properties": {
        "timestamp": "2023-06-15T01:20:35Z",
        "version": 5,
        "changeset": 137349444,
        "amenity": "bicycle_rental",
        "brand": "BikeRio",
        "brand:wikidata": "Q28724",
        "capacity": "11",
        "name": "CLS 103 W1 Sul",
        "network": "tembici",
        "opening_hours": "24/7",
        "operator": "Tembici",
        "ref": "24",
        "website": "https://brasilia.tembici.com.br/",
        "id": "node/3249673965"
      },
      "geometry": {
        "type": "Point",
        "coordinates": [
          -47.8936639,
          -15.805924
        ]
      }
    },
    {
      "type": "Feature",
      "id": "node/3249673966",
      "properties": {
        "timestamp": "2021-10-20T20:14:43Z",
        "version": 6,
        "changeset": 112761596,
        "amenity": "bicycle_rental",
        "capacity": "11",
        "name": "SQS 406",
        "network": "tembici",
        "opening_hours": "24/7",
        "operator": "tembici",
        "ref": "32",
        "website": "https://brasilia.tembici.com.br/",
        "id": "node/3249673966"
      },
      "geometry": {
        "type": "Point",
        "coordinates": [
          -47.893933,
          -15.8156154
        ]
      }
    },
    {
      "type": "Feature",
      "id": "node/3365953792",
      "properties": {
        "timestamp": "2021-10-20T20:14:43Z",
        "version": 4,
        "changeset": 112761596,
        "amenity": "bicycle_rental",
        "capacity": "11",
        "name": "CLS 204",
        "network": "tembici",
        "opening_hours": "24/7",
        "operator": "tembici",
        "ref": "30",
        "website": "https://brasilia.tembici.com.br/",
        "id": "node/3365953792"
      },
      "geometry": {
        "type": "Point",
        "coordinates": [
          -47.8890189,
          -15.8105483
        ]
      }
    },
    {
      "type": "Feature",
      "id": "node/3368414113",
      "properties": {
        "timestamp": "2023-07-23T19:55:52Z",
        "version": 7,
        "changeset": 138909252,
        "amenity": "bicycle_rental",
        "brand": "BikeRio",
        "brand:wikidata": "Q28724",
        "capacity": "19",
        "name": "Metrô Galeria - Estação 21",
        "network": "tembici",
        "opening_hours": "24/7",
        "operator": "Tembici",
        "ref": "21",
        "website": "https://brasilia.tembici.com.br/",
        "id": "node/3368414113"
      },
      "geometry": {
        "type": "Point",
        "coordinates": [
          -47.8854614,
          -15.7988776
        ]
      }
    },
    {
      "type": "Feature",
      "id": "node/4042680574",
      "properties": {
        "timestamp": "2021-10-20T20:14:43Z",
        "version": 5,
        "changeset": 112761596,
        "amenity": "bicycle_rental",
        "capacity": "11",
        "name": "CLN 204 L1 Norte",
        "network": "tembici",
        "opening_hours": "24/7",
        "operator": "tembici",
        "ref": "42",
        "website": "https://brasilia.tembici.com.br/",
        "id": "node/4042680574"
      },
      "geometry": {
        "type": "Point",
        "coordinates": [
          -47.8777108,
          -15.7767614
        ]
      }
    },
    {
      "type": "Feature",
      "id": "node/4042680576",
      "properties": {
        "timestamp": "2021-10-20T20:14:43Z",
        "version": 4,
        "changeset": 112761596,
        "amenity": "bicycle_rental",
        "capacity": "19",
        "name": "CLN 406 L2 Norte",
        "network": "tembici",
        "opening_hours": "24/7",
        "operator": "tembici",
        "ref": "45",
        "website": "https://brasilia.tembici.com.br/",
        "id": "node/4042680576"
      },
      "geometry": {
        "type": "Point",
        "coordinates": [
          -47.87652,
          -15.7655286
        ]
      }
    },
    {
      "type": "Feature",
      "id": "node/4042680577",
      "properties": {
        "timestamp": "2023-06-15T01:20:35Z",
        "version": 5,
        "changeset": 137349444,
        "amenity": "bicycle_rental",
        "brand": "BikeRio",
        "brand:wikidata": "Q28724",
        "capacity": "11",
        "name": "Santuário Dom Bosco",
        "network": "tembici",
        "opening_hours": "24/7",
        "operator": "Tembici",
        "ref": "23",
        "website": "https://brasilia.tembici.com.br/",
        "id": "node/4042680577"
      },
      "geometry": {
        "type": "Point",
        "coordinates": [
          -47.8941759,
          -15.8006335
        ]
      }
    },
    {
      "type": "Feature",
      "id": "node/4042680578",
      "properties": {
        "timestamp": "2021-10-20T20:14:43Z",
        "version": 5,
        "changeset": 112761596,
        "amenity": "bicycle_rental",
        "capacity": "11",
        "name": "EQN 410/411",
        "network": "tembici",
        "opening_hours": "24/7",
        "operator": "tembici",
        "ref": "49",
        "website": "https://brasilia.tembici.com.br/",
        "id": "node/4042680578"
      },
      "geometry": {
        "type": "Point",
        "coordinates": [
          -47.8797171,
          -15.7538785
        ]
      }
    },
    {
      "type": "Feature",
      "id": "node/4042680579",
      "properties": {
        "timestamp": "2023-06-15T01:20:35Z",
        "version": 4,
        "changeset": 137349444,
        "amenity": "bicycle_rental",
        "brand": "BikeRio",
        "brand:wikidata": "Q28724",
        "name": "SQS 306 W3 Sul",
        "network": "tembici",
        "opening_hours": "24/7",
        "operator": "Tembici",
        "website": "https://brasilia.tembici.com.br/",
        "id": "node/4042680579"
      },
      "geometry": {
        "type": "Point",
        "coordinates": [
          -47.9008841,
          -15.8078945
        ]
      }
    },
    {
      "type": "Feature",
      "id": "node/4042680580",
      "properties": {
        "timestamp": "2021-10-20T20:14:43Z",
        "version": 4,
        "changeset": 112761596,
        "amenity": "bicycle_rental",
        "capacity": "11",
        "name": "CLS 405 L2 Sul",
        "network": "tembici",
        "opening_hours": "24/7",
        "operator": "tembici",
        "ref": "31",
        "website": "https://brasilia.tembici.com.br/",
        "id": "node/4042680580"
      },
      "geometry": {
        "type": "Point",
        "coordinates": [
          -47.889355,
          -15.8153829
        ]
      }
    },
    {
      "type": "Feature",
      "id": "node/4042680581",
      "properties": {
        "timestamp": "2021-10-20T20:14:43Z",
        "version": 5,
        "changeset": 112761596,
        "amenity": "bicycle_rental",
        "capacity": "15",
        "name": "SQN 405 L2 Norte",
        "network": "tembici",
        "opening_hours": "24/7",
        "operator": "tembici",
        "ref": "43",
        "website": "https://brasilia.tembici.com.br/",
        "id": "node/4042680581"
      },
      "geometry": {
        "type": "Point",
        "coordinates": [
          -47.8750467,
          -15.7716377
        ]
      }
    },
    {
      "type": "Feature",
      "id": "node/4042680582",
      "properties": {
        "timestamp": "2023-06-15T01:20:35Z",
        "version": 5,
        "changeset": 137349444,
        "amenity": "bicycle_rental",
        "brand": "BikeRio",
        "brand:wikidata": "Q28724",
        "name": "SQS 305",
        "network": "tembici",
        "opening_hours": "24/7",
        "operator": "Tembici",
        "website": "https://brasilia.tembici.com.br/",
        "id": "node/4042680582"
      },
      "geometry": {
        "type": "Point",
        "coordinates": [
          -47.9053877,
          -15.8115749
        ]
      }
    },
    {
      "type": "Feature",
      "id": "node/4042680583",
      "properties": {
        "timestamp": "2021-10-20T20:14:43Z",
        "version": 5,
        "changeset": 112761596,
        "amenity": "bicycle_rental",
        "capacity": "11",
        "name": "CLN 107",
        "network": "tembici",
        "opening_hours": "24/7",
        "operator": "tembici",
        "ref": "54",
        "website": "https://brasilia.tembici.com.br/",
        "id": "node/4042680583"
      },
      "geometry": {
        "type": "Point",
        "coordinates": [
          -47.8863149,
          -15.7660503
        ]
      }
    },
    {
      "type": "Feature",
      "id": "node/9611823123",
      "properties": {
        "timestamp": "2023-08-18T18:15:15Z",
        "version": 4,
        "changeset": 140069093,
        "amenity": "bicycle_rental",
        "brand": "BikeRio",
        "brand:wikidata": "Q28724",
        "capacity": "12",
        "covered": "no",
        "fee": "yes",
        "name": "Centro de Convenções - Estação 3",
        "network": "Tembici",
        "operator": "Tembici",
        "operator:type": "private",
        "payment:contactless": "yes",
        "payment:credit_cards": "yes",
        "payment:debit_cards": "yes",
        "website": "https://brasilia.tembici.com.br",
        "wikidata": "Q97188366",
        "wikimedia_commons": "Category:Bike Itaú",
        "wikipedia": "pt:Bike Itaú",
        "id": "node/9611823123"
      },
      "geometry": {
        "type": "Point",
        "coordinates": [
          -47.9005876,
          -15.7861156
        ]
      }
    },
    {
      "type": "Feature",
      "id": "node/9613494630",
      "properties": {
        "timestamp": "2023-08-18T18:15:15Z",
        "version": 4,
        "changeset": 140069093,
        "amenity": "bicycle_rental",
        "brand": "BikeRio",
        "brand:wikidata": "Q28724",
        "covered": "no",
        "fee": "yes",
        "name": "Rodoviária Superior - Estação 8",
        "network": "Tembici",
        "operator": "Tembici",
        "operator:type": "private",
        "payment:contactless": "yes",
        "payment:credit_cards": "yes",
        "payment:debit_cards": "yes",
        "website": "https://brasilia.tembici.com.br",
        "wikidata": "Q97188366",
        "wikimedia_commons": "Category:Bike Itaú",
        "wikipedia": "pt:Bike Itaú",
        "id": "node/9613494630"
      },
      "geometry": {
        "type": "Point",
        "coordinates": [
          -47.8830289,
          -15.7929801
        ]
      }
    },
    {
      "type": "Feature",
      "id": "node/9966316090",
      "properties": {
        "timestamp": "2024-07-26T21:19:22Z",
        "version": 4,
        "changeset": 154461680,
        "amenity": "bicycle_rental",
        "bicycle_rental": "docking_station",
        "brand": "BikeRio",
        "brand:wikidata": "Q28724",
        "covered": "no",
        "fee": "yes",
        "name": "Rodoviária Oeste - Estação 6",
        "operator": "Tembici",
        "operator:type": "private",
        "payment:contactless": "yes",
        "payment:credit_cards": "yes",
        "payment:debit_cards": "yes",
        "website": "https://brasilia.tembici.com.br",
        "wikidata": "Q97188366",
        "wikimedia_commons": "Category:Bike Itaú",
        "wikipedia": "pt:Bike Itaú",
        "id": "node/9966316090"
      },
      "geometry": {
        "type": "Point",
        "coordinates": [
          -47.8841068,
          -15.7925882
        ]
      }
    },
    {
      "type": "Feature",
      "id": "node/9966316091",
      "properties": {
        "timestamp": "2023-06-15T01:20:35Z",
        "version": 2,
        "changeset": 137349444,
        "amenity": "bicycle_rental",
        "brand": "BikeRio",
        "brand:wikidata": "Q28724",
        "covered": "no",
        "fee": "yes",
        "name": "Setor Hoteleiro Norte - Estação 5",
        "operator": "Tembici",
        "operator:type": "private",
        "payment:contactless": "yes",
        "payment:credit_cards": "yes",
        "payment:debit_cards": "yes",
        "website": "https://brasilia.tembici.com.br",
        "id": "node/9966316091"
      },
      "geometry": {
        "type": "Point",
        "coordinates": [
          -47.8868414,
          -15.7910118
        ]
      }
    },
    {
      "type": "Feature",
      "id": "node/9966316093",
      "properties": {
        "timestamp": "2023-08-18T18:15:15Z",
        "version": 4,
        "changeset": 140069093,
        "amenity": "bicycle_rental",
        "brand": "BikeRio",
        "brand:wikidata": "Q28724",
        "covered": "no",
        "fee": "yes",
        "name": "Rodoviária Leste - Estação 7",
        "network": "Tembici",
        "operator": "Tembici",
        "operator:type": "private",
        "payment:contactless": "yes",
        "payment:credit_cards": "yes",
        "payment:debit_cards": "yes",
        "website": "https://brasilia.tembici.com.br",
        "wikidata": "Q97188366",
        "wikimedia_commons": "Category:Bike Itaú",
        "wikipedia": "pt:Bike Itaú",
        "id": "node/9966316093"
      },
      "geometry": {
        "type": "Point",
        "coordinates": [
          -47.881452,
          -15.7936161
        ]
      }
    },
    {
      "type": "Feature",
      "id": "node/9966316111",
      "properties": {
        "timestamp": "2023-12-08T18:57:06Z",
        "version": 3,
        "changeset": 144914427,
        "amenity": "bicycle_rental",
        "brand": "BikeRio",
        "brand:wikidata": "Q28724",
        "fee": "yes",
        "name": "Torre de TV - Estação 4",
        "network": "Tembici",
        "operator": "Tembici",
        "operator:type": "private",
        "payment:contactless": "yes",
        "payment:credit_cards": "yes",
        "payment:debit_cards": "yes",
        "website": "https://brasilia.tembici.com.br",
        "id": "node/9966316111"
      },
      "geometry": {
        "type": "Point",
        "coordinates": [
          -47.8947803,
          -15.7880741
        ]
      }
    },
    {
      "type": "Feature",
      "id": "node/9966316112",
      "properties": {
        "timestamp": "2023-08-18T18:15:15Z",
        "version": 4,
        "changeset": 140069093,
        "amenity": "bicycle_rental",
        "bicycle_rental": "docking_station",
        "brand": "BikeRio",
        "brand:wikidata": "Q28724",
        "capacity": "12",
        "covered": "no",
        "fee": "yes",
        "name": "Funarte - Estação 17",
        "network": "Tembici",
        "operator": "Tembici",
        "operator:type": "private",
        "payment:contactless": "yes",
        "payment:credit_cards": "yes",
        "payment:debit_cards": "yes",
        "website": "https://brasilia.tembici.com.br",
        "wikidata": "Q97188366",
        "wikimedia_commons": "Category:Bike Itaú",
        "wikipedia": "pt:Bike Itaú",
        "id": "node/9966316112"
      },
      "geometry": {
        "type": "Point",
        "coordinates": [
          -47.8979008,
          -15.7911428
        ]
      }
    },
    {
      "type": "Feature",
      "id": "node/9966316115",
      "properties": {
        "timestamp": "2023-08-18T18:15:15Z",
        "version": 2,
        "changeset": 140069093,
        "amenity": "bicycle_rental",
        "capacity": "12",
        "covered": "no",
        "fee": "yes",
        "name": "709/710 W3 Norte - Estação 57",
        "network": "Tembici",
        "operator": "Tembici",
        "operator:type": "private",
        "payment:contactless": "yes",
        "payment:credit_cards": "yes",
        "payment:debit_cards": "yes",
        "website": "https://brasilia.tembici.com.br",
        "wikidata": "Q97188366",
        "wikimedia_commons": "Category:Bike Itaú",
        "wikipedia": "pt:Bike Itaú",
        "id": "node/9966316115"
      },
      "geometry": {
        "type": "Point",
        "coordinates": [
          -47.8933616,
          -15.7568749
        ]
      }
    },
    {
      "type": "Feature",
      "id": "node/9966316116",
      "properties": {
        "timestamp": "2023-08-18T18:15:15Z",
        "version": 2,
        "changeset": 140069093,
        "amenity": "bicycle_rental",
        "capacity": "12",
        "covered": "no",
        "fee": "yes",
        "name": "711/911 W4 Norte - Estação 58",
        "network": "Tembici",
        "operator": "Tembici",
        "operator:type": "private",
        "payment:contactless": "yes",
        "payment:credit_cards": "yes",
        "payment:debit_cards": "yes",
        "website": "https://brasilia.tembici.com.br",
        "wikidata": "Q97188366",
        "wikimedia_commons": "Category:Bike Itaú",
        "wikipedia": "pt:Bike Itaú",
        "id": "node/9966316116"
      },
      "geometry": {
        "type": "Point",
        "coordinates": [
          -47.8967631,
          -15.7556413
        ]
      }
    },
    {
      "type": "Feature",
      "id": "node/9966320457",
      "properties": {
        "timestamp": "2023-08-18T18:15:15Z",
        "version": 3,
        "changeset": 140069093,
        "amenity": "bicycle_rental",
        "brand": "BikeRio",
        "brand:wikidata": "Q28724",
        "covered": "no",
        "fee": "yes",
        "name": "Memorial JK - Estação 1",
        "network": "Tembici",
        "operator": "Tembici",
        "operator:type": "private",
        "payment:contactless": "yes",
        "payment:credit_cards": "yes",
        "payment:debit_cards": "yes",
        "website": "https://brasilia.tembici.com.br",
        "wikidata": "Q97188366",
        "wikimedia_commons": "Category:Bike Itaú",
        "wikipedia": "pt:Bike Itaú",
        "id": "node/9966320457"
      },
      "geometry": {
        "type": "Point",
        "coordinates": [
          -47.9136272,
          -15.7853295
        ]
      }
    },
    {
      "type": "Feature",
      "id": "node/9966320458",
      "properties": {
        "timestamp": "2023-08-18T18:15:15Z",
        "version": 3,
        "changeset": 140069093,
        "amenity": "bicycle_rental",
        "brand": "BikeRio",
        "brand:wikidata": "Q28724",
        "covered": "no",
        "fee": "yes",
        "name": "Praça CLDF - Estação 2",
        "network": "Tembici",
        "operator": "Tembici",
        "operator:type": "private",
        "payment:contactless": "yes",
        "payment:credit_cards": "yes",
        "payment:debit_cards": "yes",
        "website": "https://brasilia.tembici.com.br",
        "wikidata": "Q97188366",
        "wikimedia_commons": "Category:Bike Itaú",
        "wikipedia": "pt:Bike Itaú",
        "id": "node/9966320458"
      },
      "geometry": {
        "type": "Point",
        "coordinates": [
          -47.9100811,
          -15.7863793
        ]
      }
    },
    {
      "type": "Feature",
      "id": "node/10045300036",
      "properties": {
        "timestamp": "2023-08-18T18:15:15Z",
        "version": 2,
        "changeset": 140069093,
        "amenity": "bicycle_rental",
        "capacity": "11",
        "covered": "no",
        "fee": "yes",
        "name": "UnB Centro Olímpico - Estação 70",
        "network": "Tembici",
        "operator": "Tembici",
        "operator:type": "private",
        "payment:contactless": "yes",
        "payment:credit_cards": "yes",
        "payment:debit_cards": "yes",
        "website": "https://brasilia.tembici.com.br",
        "wikidata": "Q97188366",
        "wikimedia_commons": "Category:Bike Itaú",
        "wikipedia": "pt:Bike Itaú",
        "id": "node/10045300036"
      },
      "geometry": {
        "type": "Point",
        "coordinates": [
          -47.8584583,
          -15.7650667
        ]
      }
    },
    {
      "type": "Feature",
      "id": "node/10045300080",
      "properties": {
        "timestamp": "2023-08-18T18:15:15Z",
        "version": 2,
        "changeset": 140069093,
        "amenity": "bicycle_rental",
        "covered": "no",
        "fee": "yes",
        "name": "UnB ICC Sul - Estação 68",
        "network": "Tembici",
        "operator": "Tembici",
        "operator:type": "private",
        "payment:contactless": "yes",
        "payment:credit_cards": "yes",
        "payment:debit_cards": "yes",
        "website": "https://brasilia.tembici.com.br",
        "wikidata": "Q97188366",
        "wikimedia_commons": "Category:Bike Itaú",
        "wikipedia": "pt:Bike Itaú",
        "id": "node/10045300080"
      },
      "geometry": {
        "type": "Point",
        "coordinates": [
          -47.867023,
          -15.7660325
        ]
      }
    },
    {
      "type": "Feature",
      "id": "node/10045300086",
      "properties": {
        "timestamp": "2023-10-04T18:58:13Z",
        "version": 3,
        "changeset": 142159589,
        "amenity": "bicycle_rental",
        "bicycle_rental": "docking_station",
        "capacity": "11",
        "covered": "no",
        "fee": "yes",
        "name": "UnB Instituto de Artes - Estação 67",
        "network": "Tembici",
        "operator": "Tembici",
        "operator:type": "private",
        "payment:contactless": "yes",
        "payment:credit_cards": "yes",
        "payment:debit_cards": "yes",
        "website": "https://brasilia.tembici.com.br",
        "wikidata": "Q97188366",
        "wikimedia_commons": "Category:Bike Itaú",
        "wikipedia": "pt:Bike Itaú",
        "id": "node/10045300086"
      },
      "geometry": {
        "type": "Point",
        "coordinates": [
          -47.8708246,
          -15.7651838
        ]
      }
    },
    {
      "type": "Feature",
      "id": "node/10045300087",
      "properties": {
        "timestamp": "2023-10-04T20:14:09Z",
        "version": 4,
        "changeset": 142162318,
        "amenity": "bicycle_rental",
        "bicycle_rental": "docking_station",
        "capacity": "15",
        "covered": "no",
        "fee": "yes",
        "name": "UnB ICC Norte/PAT - Estação 69",
        "network": "Tembici",
        "operator": "Tembici",
        "operator:type": "private",
        "payment:contactless": "yes",
        "payment:credit_cards": "yes",
        "payment:debit_cards": "yes",
        "website": "https://brasilia.tembici.com.br",
        "wikidata": "Q97188366",
        "wikimedia_commons": "Category:Bike Itaú",
        "wikipedia": "pt:Bike Itaú",
        "id": "node/10045300087"
      },
      "geometry": {
        "type": "Point",
        "coordinates": [
          -47.8703852,
          -15.7594138
        ]
      }
    },
    {
      "type": "Feature",
      "id": "node/10055243335",
      "properties": {
        "timestamp": "2023-08-18T18:15:15Z",
        "version": 3,
        "changeset": 140069093,
        "amenity": "bicycle_rental",
        "brand": "BikeRio",
        "brand:wikidata": "Q28724",
        "covered": "no",
        "fee": "yes",
        "name": "Metrô 102 Sul - Estação 22",
        "network": "Tembici",
        "operator": "Tembici",
        "operator:type": "private",
        "payment:contactless": "yes",
        "payment:credit_cards": "yes",
        "payment:debit_cards": "yes",
        "website": "https://brasilia.tembici.com.br",
        "wikidata": "Q97188366",
        "wikimedia_commons": "Category:Bike Itaú",
        "wikipedia": "pt:Bike Itaú",
        "id": "node/10055243335"
      },
      "geometry": {
        "type": "Point",
        "coordinates": [
          -47.8900608,
          -15.8055859
        ]
      }
    },
    {
      "type": "Feature",
      "id": "node/10055243372",
      "properties": {
        "timestamp": "2023-08-18T18:15:15Z",
        "version": 3,
        "changeset": 140069093,
        "amenity": "bicycle_rental",
        "brand": "BikeRio",
        "brand:wikidata": "Q28724",
        "covered": "no",
        "fee": "yes",
        "name": "Metrô 108 Sul - Estação 36",
        "network": "Tembici",
        "operator": "Tembici",
        "operator:type": "private",
        "payment:contactless": "yes",
        "payment:credit_cards": "yes",
        "payment:debit_cards": "yes",
        "website": "https://brasilia.tembici.com.br",
        "wikidata": "Q97188366",
        "wikimedia_commons": "Category:Bike Itaú",
        "wikipedia": "pt:Bike Itaú",
        "id": "node/10055243372"
      },
      "geometry": {
        "type": "Point",
        "coordinates": [
          -47.9042128,
          -15.8184275
        ]
      }
    },
    {
      "type": "Feature",
      "id": "node/11341972434",
      "properties": {
        "timestamp": "2023-11-11T20:28:47Z",
        "version": 1,
        "changeset": 143914063,
        "amenity": "bicycle_rental",
        "capacity": "11",
        "operator": "Claro",
        "id": "node/11341972434"
      },
      "geometry": {
        "type": "Point",
        "coordinates": [
          -47.8726809,
          -15.7982887
        ]
      }
    },
    {
      "type": "Feature",
      "id": "node/11341972435",
      "properties": {
        "timestamp": "2023-11-11T20:28:47Z",
        "version": 1,
        "changeset": 143914063,
        "amenity": "bicycle_rental",
        "capacity": "15",
        "operator": "Claro",
        "id": "node/11341972435"
      },
      "geometry": {
        "type": "Point",
        "coordinates": [
          -47.8693634,
          -15.7993082
        ]
      }
    }
  ]
}
