{
  "type": "FeatureCollection",
  "features": [
    {
      "type": "Feature",
      "id": "node/4081269527",
      "properties": {
        "timestamp": "2016-03-27T14:27:06Z",
        "version": 1,
        "changeset": 38100769,
        "name": "Galeria Almeida Prado",
        "tourism": "gallery",
        "id": "node/4081269527"
      },
      "geometry": {
        "type": "Point",
        "coordinates": [
          -47.8765057,
          -15.7729445
        ]
      }
    },
    {
      "type": "Feature",
      "id": "node/4704213335",
      "properties": {
        "timestamp": "2017-02-24T20:12:22Z",
        "version": 1,
        "changeset": 46378379,
        "name": "Referência Galeria de Arte",
        "tourism": "gallery",
        "id": "node/4704213335"
      },
      "geometry": {
        "type": "Point",
        "coordinates": [
          -47.8797774,
          -15.7706064
        ]
      }
    },
    {
      "type": "Feature",
      "id": "node/6137515246",
      "properties": {
        "timestamp": "2018-12-14T15:25:08Z",
        "version": 1,
        "changeset": 65476931,
        "addr:housenumber": "SALA 201,202 E 203",
        "addr:postcode": "71605490",
        "addr:street": "SHIS QI 3 BLOCO J",
        "addr:suburb": "LAGO SUL",
        "name": "Divino Quadro",
        "opening_hours": "Mo-Fr 10:00-19:00",
        "operator": "Alva Pinheiro",
        "tourism": "gallery",
        "website": "Instagram.com/DivinoQuadro",
        "id": "node/6137515246"
      },
      "geometry": {
        "type": "Point",
        "coordinates": [
          -47.9104403,
          -15.8512274
        ]
      }
    },
    {
      "type": "Feature",
      "id": "node/6414228212",
      "properties": {
        "timestamp": "2019-04-18T13:28:01Z",
        "version": 1,
        "changeset": 69344911,
        "name": "Galeria de Arte do Banco Central",
        "tourism": "gallery",
        "id": "node/6414228212"
      },
      "geometry": {
        "type": "Point",
        "coordinates": [
          -47.8854805,
          -15.8032843
        ]
      }
    },
    {
      "type": "Feature",
      "id": "node/7179024931",
      "properties": {
        "timestamp": "2020-02-02T13:57:31Z",
        "version": 1,
        "changeset": 80436420,
        "name": "Referência",
        "opening_hours": "Mo-Fr 10:00-19:00; Sa 10:00-15:00",
        "tourism": "gallery",
        "id": "node/7179024931"
      },
      "geometry": {
        "type": "Point",
        "coordinates": [
          -47.8782666,
          -15.7834766
        ]
      }
    },
    {
      "type": "Feature",
      "id": "node/9094864277",
      "properties": {
        "timestamp": "2023-08-19T11:59:40Z",
        "version": 2,
        "changeset": 140091969,
        "addr:street": "EQNM 18/20",
        "addr:suburb": "Ceilândia Norte",
        "instagram": "https://www.instagram.com/galeriarisofloras/",
        "name": "Galeria Risofloras",
        "opening_hours": "Segunda a sabádo,das 14h às 18h",
        "tourism": "gallery",
        "id": "node/9094864277"
      },
      "geometry": {
        "type": "Point",
        "coordinates": [
          -48.1029878,
          -15.8130532
        ]
      }
    },
    {
      "type": "Feature",
      "id": "node/10197584158",
      "properties": {
        "timestamp": "2022-11-26T14:38:04Z",
        "version": 5,
        "changeset": 129404776,
        "addr:city": "Brasília - DF",
        "addr:housenumber": "Loja 51, Subsolo",
        "addr:postcode": "70772-510",
        "addr:street": "SHCLN 115  Bloco A",
        "addr:suburb": "Plano Piloto - Asa Norte",
        "name": "studiozin e Buraco TT",
        "phone": "+55 61 99982-3041",
        "tourism": "gallery",
        "wheelchair": "limited",
        "id": "node/10197584158"
      },
      "geometry": {
        "type": "Point",
        "coordinates": [
          -47.8929574,
          -15.7403218
        ]
      }
    }
  ]
}
