{
  "type": "FeatureCollection",
  "features": [
    {
      "type": "Feature",
      "id": "way/317866393",
      "properties": {
        "timestamp": "2024-06-28T18:44:58Z",
        "version": 4,
        "changeset": 153306677,
        "addr:city": "Miradouro",
        "addr:postcode": "36893-000",
        "addr:street": "Rua Miguel Gonçalves",
        "addr:suburb": "Centro",
        "amenity": "school",
        "email": "escola.98434@educacao.mg.gov.br",
        "name": "Escola Estadual Padre Alfredo Kobal",
        "operator": "Secretaria de Educação do Estado de Minas Gerais",
        "operator:type": "public",
        "phone": "+55 32 3753 1077",
        "id": "way/317866393"
      },
      "geometry": {
        "type": "Polygon",
        "coordinates": [
          [
            [
              -42.343721,
              -20.8911903
            ],
            [
              -42.3437192,
              -20.8914569
            ],
            [
              -42.3437018,
              -20.8914675
            ],
            [
              -42.3436979,
              -20.8916848
            ],
            [
              -42.3432199,
              -20.8918386
            ],
            [
              -42.3430804,
              -20.8913914
            ],
            [
              -42.343721,
              -20.8911903
            ]
          ]
        ]
      }
    },
    {
      "type": "Feature",
      "id": "way/490176695",
      "properties": {
        "timestamp": "2024-06-29T11:48:36Z",
        "version": 3,
        "changeset": 153328802,
        "addr:city": "Miradouro",
        "addr:postcode": "36893-000",
        "amenity": "school",
        "name": "Escola Municipal Euclides da Cunha",
        "operator": "Secretaria Municipal de Educação",
        "operator:type": "public",
        "id": "way/490176695"
      },
      "geometry": {
        "type": "Polygon",
        "coordinates": [
          [
            [
              -42.3949196,
              -20.9035104
            ],
            [
              -42.3941428,
              -20.9036099
            ],
            [
              -42.394187,
              -20.903492
            ],
            [
              -42.3941799,
              -20.9033759
            ],
            [
              -42.3942047,
              -20.903302
            ],
            [
              -42.39432,
              -20.9032598
            ],
            [
              -42.3943963,
              -20.9030892
            ],
            [
              -42.3949321,
              -20.9033476
            ],
            [
              -42.3949196,
              -20.9035104
            ]
          ]
        ]
      }
    },
    {
      "type": "Feature",
      "id": "way/1067025394",
      "properties": {
        "timestamp": "2024-06-27T13:07:32Z",
        "version": 2,
        "changeset": 153247163,
        "addr:city": "Miradouro",
        "amenity": "school",
        "building": "yes",
        "name": "Escola Municipal Elaine Mendes de Oliveira",
        "id": "way/1067025394"
      },
      "geometry": {
        "type": "Polygon",
        "coordinates": [
          [
            [
              -42.342183,
              -20.8936031
            ],
            [
              -42.3421529,
              -20.8936479
            ],
            [
              -42.3422001,
              -20.8936756
            ],
            [
              -42.3421277,
              -20.8937831
            ],
            [
              -42.3419577,
              -20.8936833
            ],
            [
              -42.3420602,
              -20.893531
            ],
            [
              -42.342183,
              -20.8936031
            ]
          ]
        ]
      }
    },
    {
      "type": "Feature",
      "id": "way/1296992193",
      "properties": {
        "timestamp": "2024-06-28T17:55:43Z",
        "version": 2,
        "changeset": 153304975,
        "addr:city": "Miradouro",
        "addr:housenumber": "112",
        "addr:postcode": "36893-000",
        "addr:street": "Rua Professor Ernesto de Abreu Lima",
        "addr:suburb": "São Pedro",
        "amenity": "school",
        "name": "Escola Municipal Doutor Olavo Tostes",
        "operator": "Secretaria Municipal de Educação",
        "operator:type": "public",
        "id": "way/1296992193"
      },
      "geometry": {
        "type": "Polygon",
        "coordinates": [
          [
            [
              -42.3412011,
              -20.8878749
            ],
            [
              -42.340869,
              -20.8879661
            ],
            [
              -42.3405712,
              -20.8878701
            ],
            [
              -42.3407132,
              -20.8874655
            ],
            [
              -42.3406396,
              -20.8871633
            ],
            [
              -42.3409888,
              -20.8871009
            ],
            [
              -42.3412011,
              -20.8878749
            ]
          ]
        ]
      }
    },
    {
      "type": "Feature",
      "id": "way/1297149093",
      "properties": {
        "timestamp": "2024-06-28T17:55:43Z",
        "version": 1,
        "changeset": 153304975,
        "addr:city": "Miradouro",
        "addr:housenumber": "35",
        "addr:postcode": "36893-000",
        "addr:street": "Rua Antonio de Mattos Lima",
        "addr:suburb": "Centro",
        "amenity": "school",
        "name": "Escola Municipal Desembargador Alberto Luz",
        "operator": "Secretária Municipal de Educação",
        "operator:type": "public",
        "phone": "+55 32 3753 1116",
        "id": "way/1297149093"
      },
      "geometry": {
        "type": "Polygon",
        "coordinates": [
          [
            [
              -42.3443191,
              -20.8934611
            ],
            [
              -42.3443512,
              -20.8937463
            ],
            [
              -42.3437559,
              -20.8939
            ],
            [
              -42.3436932,
              -20.8936656
            ],
            [
              -42.3437768,
              -20.8936004
            ],
            [
              -42.3443191,
              -20.8934611
            ]
          ]
        ]
      }
    },
    {
      "type": "Feature",
      "id": "way/1297195615",
      "properties": {
        "timestamp": "2024-06-29T11:48:36Z",
        "version": 2,
        "changeset": 153328802,
        "addr:city": "Miradouro",
        "addr:postcode": "36893-000",
        "addr:street": "Rua Miguel Gonçalves Gomes",
        "addr:suburb": "Centro",
        "amenity": "school",
        "name": "Pré Escola Municipal Margarida De Lacerda Meireles",
        "operator": "Município de Miradouro",
        "operator:type": "public",
        "id": "way/1297195615"
      },
      "geometry": {
        "type": "Polygon",
        "coordinates": [
          [
            [
              -42.3429603,
              -20.8913881
            ],
            [
              -42.3430081,
              -20.8915675
            ],
            [
              -42.3427066,
              -20.8916542
            ],
            [
              -42.3426471,
              -20.8914808
            ],
            [
              -42.3429603,
              -20.8913881
            ]
          ]
        ]
      }
    },
    {
      "type": "Feature",
      "id": "way/1297379017",
      "properties": {
        "timestamp": "2024-06-29T15:17:28Z",
        "version": 1,
        "changeset": 153336576,
        "addr:city": "Miradouro",
        "addr:postcode": "36893-000",
        "addr:street": "Rua Principal",
        "amenity": "school",
        "name": "Escola Municipal Alcino Bicalho",
        "operator": "Secretaria Municipal de Educação de Miradouro",
        "operator:type": "public",
        "id": "way/1297379017"
      },
      "geometry": {
        "type": "Polygon",
        "coordinates": [
          [
            [
              -42.4378674,
              -20.7811405
            ],
            [
              -42.4376999,
              -20.7811709
            ],
            [
              -42.4376738,
              -20.7809717
            ],
            [
              -42.4378365,
              -20.7809489
            ],
            [
              -42.4378674,
              -20.7811405
            ]
          ]
        ]
      }
    },
    {
      "type": "Feature",
      "id": "way/1298673052",
      "properties": {
        "timestamp": "2024-07-03T00:43:25Z",
        "version": 1,
        "changeset": 153480540,
        "addr:city": "Miradouro",
        "addr:postcode": "36893-000",
        "addr:street": "Rua Principal",
        "addr:suburb": "Centro",
        "amenity": "school",
        "email": "smedmiradouro@yahoo.com.br",
        "name": "Escola Municipal de Santa Bárbara",
        "operator": "Município de Miradouro",
        "operator:type": "public",
        "phone": "+55 32 99913 3924",
        "id": "way/1298673052"
      },
      "geometry": {
        "type": "Polygon",
        "coordinates": [
          [
            [
              -42.3600766,
              -20.8114775
            ],
            [
              -42.3605551,
              -20.8117262
            ],
            [
              -42.3601796,
              -20.81236
            ],
            [
              -42.3597397,
              -20.8120993
            ],
            [
              -42.3600766,
              -20.8114775
            ]
          ]
        ]
      }
    },
    {
      "type": "Feature",
      "id": "node/12018315127",
      "properties": {
        "timestamp": "2024-06-28T17:55:43Z",
        "version": 1,
        "changeset": 153304975,
        "addr:city": "Miradouro",
        "addr:housenumber": "160",
        "addr:postcode": "36893-000",
        "addr:street": "Rua Santo Antônio",
        "addr:suburb": "Centro",
        "amenity": "school",
        "name": "Escola de Educação Especial Elzi Campos",
        "operator": "APAE - Associação de Pais e Amigos dos Excepcionais",
        "operator:type": "private",
        "phone": "+55 32 3753 1063",
        "id": "node/12018315127"
      },
      "geometry": {
        "type": "Point",
        "coordinates": [
          -42.3425129,
          -20.8881588
        ]
      }
    }
  ]
}
