{
  "type": "FeatureCollection",
  "features": [
    {
      "type": "Feature",
      "id": "way/519030785",
      "properties": {
        "timestamp": "2017-08-27T10:27:21Z",
        "version": 1,
        "changeset": 51478279,
        "amenity": "school",
        "id": "way/519030785"
      },
      "geometry": {
        "type": "Polygon",
        "coordinates": [
          [
            [
              -41.1477925,
              -7.120616
            ],
            [
              -41.1481285,
              -7.1205818
            ],
            [
              -41.1481572,
              -7.1208585
            ],
            [
              -41.1478211,
              -7.1208928
            ],
            [
              -41.1477925,
              -7.120616
            ]
          ]
        ]
      }
    },
    {
      "type": "Feature",
      "id": "way/586066302",
      "properties": {
        "timestamp": "2018-05-06T13:18:55Z",
        "version": 1,
        "changeset": 58730004,
        "amenity": "school",
        "id": "way/586066302"
      },
      "geometry": {
        "type": "Polygon",
        "coordinates": [
          [
            [
              -41.1371188,
              -6.9952083
            ],
            [
              -41.1370946,
              -6.9955557
            ],
            [
              -41.1367111,
              -6.9955184
            ],
            [
              -41.136754,
              -6.995171
            ],
            [
              -41.1371188,
              -6.9952083
            ]
          ]
        ]
      }
    },
    {
      "type": "Feature",
      "id": "way/1027043939",
      "properties": {
        "timestamp": "2022-02-02T14:35:20Z",
        "version": 1,
        "changeset": 116916471,
        "amenity": "school",
        "name": "Esc Mul Jose Ramos",
        "phone": "+55 89 3450 1187",
        "id": "way/1027043939"
      },
      "geometry": {
        "type": "Polygon",
        "coordinates": [
          [
            [
              -41.1517341,
              -7.1181677
            ],
            [
              -41.1517207,
              -7.1188916
            ],
            [
              -41.1511655,
              -7.118873
            ],
            [
              -41.1511897,
              -7.1180586
            ],
            [
              -41.1517341,
              -7.1181677
            ]
          ]
        ]
      }
    },
    {
      "type": "Feature",
      "id": "way/1027695081",
      "properties": {
        "timestamp": "2022-02-04T12:20:59Z",
        "version": 1,
        "changeset": 117004520,
        "amenity": "school",
        "name": "Esc Mul Manoel Quaresma",
        "id": "way/1027695081"
      },
      "geometry": {
        "type": "Polygon",
        "coordinates": [
          [
            [
              -41.1141644,
              -7.053565
            ],
            [
              -41.1143629,
              -7.0534319
            ],
            [
              -41.1145158,
              -7.053573
            ],
            [
              -41.114261,
              -7.0537407
            ],
            [
              -41.1141644,
              -7.053565
            ]
          ]
        ]
      }
    },
    {
      "type": "Feature",
      "id": "way/1027696023",
      "properties": {
        "timestamp": "2022-02-04T12:22:35Z",
        "version": 1,
        "changeset": 117004594,
        "addr:city": "Francisco Santos",
        "addr:housenumber": "325",
        "addr:postcode": "64645-000",
        "addr:suburb": "Centro",
        "amenity": "school",
        "name": "Unidade Escolar Monteiro Lobato",
        "id": "way/1027696023"
      },
      "geometry": {
        "type": "Polygon",
        "coordinates": [
          [
            [
              -41.1360159,
              -6.997631
            ],
            [
              -41.1360662,
              -6.9978503
            ],
            [
              -41.135781,
              -6.9979146
            ],
            [
              -41.1357308,
              -6.9976953
            ],
            [
              -41.1360159,
              -6.997631
            ]
          ]
        ]
      }
    },
    {
      "type": "Feature",
      "id": "way/1028197087",
      "properties": {
        "timestamp": "2022-02-04T22:36:12Z",
        "version": 1,
        "changeset": 117025069,
        "addr:city": "Francisco Santos",
        "addr:postcode": "64645-000",
        "addr:street": "Travessa Cristo Rei",
        "addr:suburb": "Centro",
        "amenity": "school",
        "name": "Pre Esc Dona Mariinha",
        "phone": "+55 89 3450 1187",
        "id": "way/1028197087"
      },
      "geometry": {
        "type": "Polygon",
        "coordinates": [
          [
            [
              -41.1357915,
              -6.9962762
            ],
            [
              -41.136047,
              -6.996199
            ],
            [
              -41.1361025,
              -6.9964272
            ],
            [
              -41.1358415,
              -6.9965011
            ],
            [
              -41.1357915,
              -6.9962762
            ]
          ]
        ]
      }
    },
    {
      "type": "Feature",
      "id": "way/1028201296",
      "properties": {
        "timestamp": "2022-02-04T22:44:35Z",
        "version": 1,
        "changeset": 117025319,
        "addr:city": "Francisco Santos",
        "addr:postcode": "64645-000",
        "addr:street": "Rua Sete de Setembro",
        "addr:suburb": "Centro",
        "amenity": "school",
        "name": "Escola Municipal Dona Santana",
        "id": "way/1028201296"
      },
      "geometry": {
        "type": "Polygon",
        "coordinates": [
          [
            [
              -41.1350857,
              -6.99592
            ],
            [
              -41.1352054,
              -6.9963277
            ],
            [
              -41.134775,
              -6.9964455
            ],
            [
              -41.1346368,
              -6.996045
            ],
            [
              -41.1350857,
              -6.99592
            ]
          ]
        ]
      }
    },
    {
      "type": "Feature",
      "id": "node/9468843199",
      "properties": {
        "timestamp": "2022-02-02T14:34:21Z",
        "version": 1,
        "changeset": 116916421,
        "amenity": "school",
        "name": "Creche Maria Santa",
        "phone": "+55 89 3450 1187",
        "id": "node/9468843199"
      },
      "geometry": {
        "type": "Point",
        "coordinates": [
          -41.1478959,
          -7.1213056
        ]
      }
    },
    {
      "type": "Feature",
      "id": "node/9477194099",
      "properties": {
        "timestamp": "2022-02-04T22:39:07Z",
        "version": 1,
        "changeset": 117025161,
        "addr:city": "Francisco Santos",
        "addr:housenumber": "320",
        "addr:postcode": "64645-000",
        "addr:street": "Rua Cristo Rei",
        "addr:suburb": "Centro",
        "amenity": "school",
        "name": "Escola Municipal Santa Filomena",
        "id": "node/9477194099"
      },
      "geometry": {
        "type": "Point",
        "coordinates": [
          -41.1365207,
          -6.9961867
        ]
      }
    },
    {
      "type": "Feature",
      "id": "node/9477194100",
      "properties": {
        "timestamp": "2022-02-04T22:39:07Z",
        "version": 1,
        "changeset": 117025161,
        "addr:city": "Francisco Santos",
        "addr:housenumber": "250",
        "addr:postcode": "64645-000",
        "addr:street": "Rua Santa Rita",
        "addr:suburb": "Centro",
        "amenity": "school",
        "name": "U E Professor Mariano Da Silva Neto",
        "phone": "+55 89 3450 9030",
        "id": "node/9477194100"
      },
      "geometry": {
        "type": "Point",
        "coordinates": [
          -41.136408,
          -6.9957953
        ]
      }
    },
    {
      "type": "Feature",
      "id": "node/9477194101",
      "properties": {
        "timestamp": "2022-02-04T22:39:07Z",
        "version": 1,
        "changeset": 117025161,
        "addr:city": "Francisco Santos",
        "addr:housenumber": "150",
        "addr:postcode": "64645-000",
        "addr:street": "Rua Amadeu Rodrigues",
        "addr:suburb": "Centro",
        "amenity": "school",
        "name": "Creche Mae Santa",
        "id": "node/9477194101"
      },
      "geometry": {
        "type": "Point",
        "coordinates": [
          -41.1371751,
          -6.9952735
        ]
      }
    },
    {
      "type": "Feature",
      "id": "node/9477197071",
      "properties": {
        "timestamp": "2022-02-04T22:39:57Z",
        "version": 1,
        "changeset": 117025188,
        "addr:city": "Francisco Santos",
        "addr:housenumber": "170",
        "addr:postcode": "64645-000",
        "addr:street": "Rua Amadeu Rodrigues",
        "addr:suburb": "Centro",
        "amenity": "school",
        "name": "U E Franco Rodrigues",
        "phone": "+55 89 3450 1368",
        "id": "node/9477197071"
      },
      "geometry": {
        "type": "Point",
        "coordinates": [
          -41.137718,
          -6.9953656
        ]
      }
    },
    {
      "type": "Feature",
      "id": "node/9481256172",
      "properties": {
        "timestamp": "2022-02-05T14:47:18Z",
        "version": 1,
        "changeset": 117047643,
        "amenity": "school",
        "name": "Esc Mul Isaac Pereira",
        "id": "node/9481256172"
      },
      "geometry": {
        "type": "Point",
        "coordinates": [
          -41.1126651,
          -6.8953729
        ]
      }
    }
  ]
}
