{
  "type": "FeatureCollection",
  "features": [
    {
      "type": "Feature",
      "id": "way/898182314",
      "properties": {
        "timestamp": "2021-01-21T23:21:16Z",
        "version": 1,
        "changeset": 97931562,
        "addr:housenumber": "130",
        "addr:street": "Rua Noruega",
        "addr:suburb": "Jardim das Nações",
        "amenity": "dentist",
        "healthcare": "dentist",
        "name": "Supra Odontologia",
        "phone": "+55 12 3432 7007",
        "website": "http://supraodontologia.com.br/",
        "id": "way/898182314"
      },
      "geometry": {
        "type": "Polygon",
        "coordinates": [
          [
            [
              -45.579281,
              -23.0330661
            ],
            [
              -45.5794452,
              -23.0333101
            ],
            [
              -45.5793458,
              -23.0333618
            ],
            [
              -45.5791743,
              -23.0331191
            ],
            [
              -45.579281,
              -23.0330661
            ]
          ]
        ]
      }
    },
    {
      "type": "Feature",
      "id": "way/1373235179",
      "properties": {
        "timestamp": "2025-03-31T03:25:03Z",
        "version": 1,
        "changeset": 164311344,
        "amenity": "dentist",
        "building": "yes",
        "healthcare": "dentist",
        "id": "way/1373235179"
      },
      "geometry": {
        "type": "Polygon",
        "coordinates": [
          [
            [
              -45.5410005,
              -23.0329533
            ],
            [
              -45.5409289,
              -23.0329901
            ],
            [
              -45.5409089,
              -23.032856
            ],
            [
              -45.5409824,
              -23.0328156
            ],
            [
              -45.5410005,
              -23.0329533
            ]
          ]
        ]
      }
    },
    {
      "type": "Feature",
      "id": "node/4233959113",
      "properties": {
        "timestamp": "2021-10-10T00:18:46Z",
        "version": 6,
        "changeset": 112318211,
        "addr:city": "Taubaté",
        "addr:housenumber": "524",
        "addr:postcode": "12090-360",
        "addr:street": "Avenida  Imaculada Conceição",
        "addr:suburb": "Imaculada",
        "amenity": "dentist",
        "healthcare": "dentist",
        "name": "Consultório Odontológico Caroline De Carlo",
        "opening_hours": "Mo-Fr 13:00-18:00; Sa,Su,PH off",
        "phone": "+55 12 3629 1127",
        "id": "node/4233959113"
      },
      "geometry": {
        "type": "Point",
        "coordinates": [
          -45.5510913,
          -23.0364688
        ]
      }
    }
  ]
}
