{
  "type": "FeatureCollection",
  "features": [
    {
      "type": "Feature",
      "id": "way/904767373",
      "properties": {
        "timestamp": "2021-02-07T17:04:02Z",
        "version": 1,
        "changeset": 98857798,
        "addr:housenumber": "250",
        "addr:street": "Rua Canadá",
        "amenity": "veterinary",
        "contact:facebook": "https://www.facebook.com/LATIDOS-e-MIADOS-252983598074704/",
        "contact:mobile": "+55 12 99134 0632",
        "contact:phone": "+55 12 3682 1415",
        "name": "Latidos & Miados Clinica Veterinária",
        "phone": "+55 12 3681 4440",
        "id": "way/904767373"
      },
      "geometry": {
        "type": "Polygon",
        "coordinates": [
          [
            [
              -45.5768376,
              -23.0360504
            ],
            [
              -45.5769161,
              -23.0361482
            ],
            [
              -45.5768475,
              -23.0361934
            ],
            [
              -45.5768702,
              -23.0362507
            ],
            [
              -45.576772,
              -23.036296
            ],
            [
              -45.5766741,
              -23.0361345
            ],
            [
              -45.5768376,
              -23.0360504
            ]
          ]
        ]
      }
    },
    {
      "type": "Feature",
      "id": "way/984984215",
      "properties": {
        "timestamp": "2021-09-19T23:03:39Z",
        "version": 1,
        "changeset": 111426393,
        "addr:housenumber": "1100",
        "addr:street": "Avenida Brigadeiro José Vicente de Faria Lima",
        "amenity": "veterinary",
        "building": "yes",
        "contact:phone": "+55 12 3432 8137",
        "name": "Espaço Animal",
        "phone": "+55 12 3608 5009",
        "id": "way/984984215"
      },
      "geometry": {
        "type": "Polygon",
        "coordinates": [
          [
            [
              -45.5380457,
              -23.0213157
            ],
            [
              -45.5380293,
              -23.0214292
            ],
            [
              -45.5379799,
              -23.0214274
            ],
            [
              -45.5379984,
              -23.0213025
            ],
            [
              -45.5380457,
              -23.0213157
            ]
          ]
        ]
      }
    },
    {
      "type": "Feature",
      "id": "way/993303786",
      "properties": {
        "timestamp": "2021-10-16T17:19:16Z",
        "version": 1,
        "changeset": 112587529,
        "addr:housenumber": "169",
        "addr:street": "Rua Alessandro Henrique da Silva",
        "addr:suburb": "Jardim Continental",
        "amenity": "veterinary",
        "building": "yes",
        "name": "Clínica Veterinária Saúde Animal",
        "opening_hours": "Mo-Fr 09:00-21:00; Sa 09:00-12:00; Su,PH off",
        "phone": "+55 12 3025 1020",
        "id": "way/993303786"
      },
      "geometry": {
        "type": "Polygon",
        "coordinates": [
          [
            [
              -45.578087,
              -23.0655447
            ],
            [
              -45.578087,
              -23.0656614
            ],
            [
              -45.5780469,
              -23.0656798
            ],
            [
              -45.5779802,
              -23.0655918
            ],
            [
              -45.578087,
              -23.0655447
            ]
          ]
        ]
      }
    },
    {
      "type": "Feature",
      "id": "way/993440926",
      "properties": {
        "timestamp": "2021-10-17T13:34:47Z",
        "version": 1,
        "changeset": 112612192,
        "addr:street": "Avenida Francisco Barreto Leme",
        "amenity": "veterinary",
        "building": "yes",
        "name": "Cliníca Veterinária BichoconVida",
        "phone": "+55 12 3426 6163",
        "id": "way/993440926"
      },
      "geometry": {
        "type": "Polygon",
        "coordinates": [
          [
            [
              -45.5500916,
              -23.0005775
            ],
            [
              -45.5500937,
              -23.0006423
            ],
            [
              -45.5499914,
              -23.0006451
            ],
            [
              -45.5499893,
              -23.0005803
            ],
            [
              -45.5500916,
              -23.0005775
            ]
          ]
        ]
      }
    },
    {
      "type": "Feature",
      "id": "node/9176442029",
      "properties": {
        "timestamp": "2021-10-16T13:47:44Z",
        "version": 1,
        "changeset": 112579859,
        "addr:housenumber": "1750",
        "addr:street": "Estrada Municipal do Barreiro",
        "addr:suburb": "São Gonçalo",
        "amenity": "veterinary",
        "name": "Mialate",
        "opening_hours": "24/7",
        "phone": "+55 12 97406 3696",
        "id": "node/9176442029"
      },
      "geometry": {
        "type": "Point",
        "coordinates": [
          -45.5778405,
          -23.0528546
        ]
      }
    },
    {
      "type": "Feature",
      "id": "node/9386380517",
      "properties": {
        "timestamp": "2022-01-02T18:46:53Z",
        "version": 1,
        "changeset": 115681771,
        "addr:housenumber": "475",
        "addr:postcode": "12070490",
        "addr:street": "Rua Antônio José de Castro Nogueira",
        "amenity": "veterinary",
        "contact:facebook": "medcanivet",
        "contact:instagram": "medcanivet",
        "name": "MedCani",
        "phone": "1234133202;12992245155",
        "website": "http://WWW.medcani.com.br",
        "id": "node/9386380517"
      },
      "geometry": {
        "type": "Point",
        "coordinates": [
          -45.5462252,
          -23.0157519
        ]
      }
    }
  ]
}
