{
  "type": "FeatureCollection",
  "features": [
    {
      "type": "Feature",
      "id": "way/919348596",
      "properties": {
        "timestamp": "2023-01-26T18:48:52Z",
        "version": 2,
        "changeset": 131743966,
        "addr:city": "Vila Pavão",
        "addr:postcode": "29843-000",
        "addr:street": "Rua Bernardo Durães de Oliveira",
        "addr:suburb": "Nova Munique",
        "alt_name": "Centro de Referência Especializado de Assistência Social Izabel Luiza dos Reis",
        "amenity": "social_facility",
        "building": "yes",
        "name": "CREAS Izabel Luiza dos Reis",
        "operator": "Município de Vila Pavão",
        "operator:type": "public",
        "social_facility": "outreach",
        "social_facility:for": "underprivileged;abused;victim",
        "id": "way/919348596"
      },
      "geometry": {
        "type": "Polygon",
        "coordinates": [
          [
            [
              -40.6092527,
              -18.6263695
            ],
            [
              -40.609186,
              -18.6264112
            ],
            [
              -40.6090728,
              -18.6262487
            ],
            [
              -40.6091617,
              -18.6261931
            ],
            [
              -40.6092499,
              -18.6263198
            ],
            [
              -40.6092278,
              -18.6263337
            ],
            [
              -40.6092527,
              -18.6263695
            ]
          ]
        ]
      }
    },
    {
      "type": "Feature",
      "id": "node/3999140702",
      "properties": {
        "timestamp": "2016-02-10T13:37:26Z",
        "version": 1,
        "changeset": 37124622,
        "addr:city": "Vila Pavão",
        "addr:postcode": "29843-000",
        "addr:street": "Rua Adelaide Ramilow",
        "addr:suburb": "Ondina",
        "alt_name": "Centro de Referência de Assistência Social",
        "amenity": "social_facility",
        "contact:phone": "(27) 3753-1133",
        "name": "CRAS - Vila Pavão",
        "social_facility": "outreach",
        "source": "IJSN",
        "id": "node/3999140702"
      },
      "geometry": {
        "type": "Point",
        "coordinates": [
          -40.598467,
          -18.6198676
        ]
      }
    }
  ]
}
