{
  "type": "FeatureCollection",
  "features": [
    {
      "type": "Feature",
      "id": "way/1034341126",
      "properties": {
        "timestamp": "2022-02-23T02:02:32Z",
        "version": 2,
        "changeset": 117749293,
        "addr:city": "Brasilândia do Tocantins",
        "addr:housenumber": "676",
        "addr:postcode": "77735-000",
        "addr:street": "Rua Onorindo",
        "addr:suburb": "Centro",
        "amenity": "school",
        "name": "Centro Municipal De Educacao Infantil Odalia Maria Nunes",
        "phone": "+55 63 3461 1231",
        "id": "way/1034341126"
      },
      "geometry": {
        "type": "Polygon",
        "coordinates": [
          [
            [
              -48.483148,
              -8.3889125
            ],
            [
              -48.4829943,
              -8.3896089
            ],
            [
              -48.4826391,
              -8.3895284
            ],
            [
              -48.4828039,
              -8.3888431
            ],
            [
              -48.483148,
              -8.3889125
            ]
          ]
        ]
      }
    },
    {
      "type": "Feature",
      "id": "way/1034341129",
      "properties": {
        "timestamp": "2022-02-23T02:01:50Z",
        "version": 1,
        "changeset": 117749285,
        "addr:city": "Brasilândia do Tocantins",
        "addr:postcode": "77735-000",
        "addr:street": "Avenida João Pires de Castro",
        "addr:suburb": "Centro",
        "amenity": "school",
        "name": "Esc Mul Paulo Vi",
        "phone": "+55 63 346 11194",
        "id": "way/1034341129"
      },
      "geometry": {
        "type": "Polygon",
        "coordinates": [
          [
            [
              -48.4819629,
              -8.3912319
            ],
            [
              -48.4818985,
              -8.3914372
            ],
            [
              -48.4820417,
              -8.3914865
            ],
            [
              -48.4818889,
              -8.3920147
            ],
            [
              -48.4812488,
              -8.391819
            ],
            [
              -48.4814193,
              -8.3911078
            ],
            [
              -48.4819629,
              -8.3912319
            ]
          ]
        ]
      }
    },
    {
      "type": "Feature",
      "id": "way/1034341257",
      "properties": {
        "timestamp": "2022-02-23T02:03:19Z",
        "version": 1,
        "changeset": 117749302,
        "addr:city": "Brasilândia do Tocantins",
        "addr:housenumber": "847",
        "addr:postcode": "77735-000",
        "addr:street": "Avenida Antônio Mateus",
        "addr:suburb": "Centro",
        "amenity": "school",
        "name": "Colegio Estadual Sebastiao Rodrigues Sales",
        "phone": "+55 63 3461 1206",
        "id": "way/1034341257"
      },
      "geometry": {
        "type": "Polygon",
        "coordinates": [
          [
            [
              -48.4857602,
              -8.3887018
            ],
            [
              -48.4856365,
              -8.3893139
            ],
            [
              -48.4848159,
              -8.3891516
            ],
            [
              -48.4849396,
              -8.3885393
            ],
            [
              -48.4857602,
              -8.3887018
            ]
          ]
        ]
      }
    },
    {
      "type": "Feature",
      "id": "way/1034341376",
      "properties": {
        "timestamp": "2022-02-23T02:05:32Z",
        "version": 1,
        "changeset": 117749322,
        "addr:city": "Brasilândia do Tocantins",
        "amenity": "school",
        "name": "Escola Municipal Nestor Pereira De Sousaq",
        "id": "way/1034341376"
      },
      "geometry": {
        "type": "Polygon",
        "coordinates": [
          [
            [
              -48.4712877,
              -8.288079
            ],
            [
              -48.4713348,
              -8.2887896
            ],
            [
              -48.4709959,
              -8.2888116
            ],
            [
              -48.4709486,
              -8.2881011
            ],
            [
              -48.4712877,
              -8.288079
            ]
          ]
        ]
      }
    }
  ]
}
