{
  "type": "FeatureCollection",
  "features": [
    {
      "type": "Feature",
      "id": "way/540451834",
      "properties": {
        "timestamp": "2017-11-14T17:04:25Z",
        "version": 1,
        "changeset": 53777160,
        "addr:city": "São José dos Campos",
        "addr:housenumber": "2520",
        "addr:street": "Avenida Ouro Fino",
        "addr:suburb": "Bosque dos Eucaliptos",
        "amenity": "arts_centre",
        "building": "yes",
        "name": "casa de cultura Tim Lopes",
        "id": "way/540451834"
      },
      "geometry": {
        "type": "Polygon",
        "coordinates": [
          [
            [
              -45.8901594,
              -23.2584265
            ],
            [
              -45.890179,
              -23.2586271
            ],
            [
              -45.8899102,
              -23.2586492
            ],
            [
              -45.8898906,
              -23.2584486
            ],
            [
              -45.8901594,
              -23.2584265
            ]
          ]
        ]
      }
    },
    {
      "type": "Feature",
      "id": "way/575225257",
      "properties": {
        "timestamp": "2024-05-16T13:59:21Z",
        "version": 5,
        "changeset": 151410073,
        "addr:city": "São José dos Campos",
        "addr:housenumber": "2005",
        "addr:street": "Avenida Rui Barbosa",
        "addr:suburb": "Santana",
        "amenity": "arts_centre",
        "building": "yes",
        "email": "csantana@fccr.sp.gov.br",
        "full_name": "Casa de Cultura Cine Santana",
        "name": "Cine Santana",
        "phone": "+55 12 3942 1227",
        "source": "http://fccr.sp.gov.br/index.php/comphac-sp-27657/bens-preservados/342-cine-santana",
        "start_date": "1952-10-12",
        "wikidata": "Q9762789",
        "wikipedia": "pt:Cine Santana",
        "id": "way/575225257"
      },
      "geometry": {
        "type": "Polygon",
        "coordinates": [
          [
            [
              -45.8959508,
              -23.1619445
            ],
            [
              -45.896274,
              -23.1621232
            ],
            [
              -45.8961879,
              -23.1622589
            ],
            [
              -45.895838,
              -23.1620656
            ],
            [
              -45.8959508,
              -23.1619445
            ]
          ]
        ]
      }
    },
    {
      "type": "Feature",
      "id": "node/4014964755",
      "properties": {
        "timestamp": "2016-02-19T17:37:50Z",
        "version": 2,
        "changeset": 37313400,
        "addr:city": "São José dos Campos",
        "addr:postcode": "12225-700",
        "addr:street": "Rua dos Carteiros",
        "addr:suburb": "Novo Horizonte",
        "amenity": "arts_centre",
        "name": "Fundação Cultural Casiano Ricardo.",
        "id": "node/4014964755"
      },
      "geometry": {
        "type": "Point",
        "coordinates": [
          -45.7847442,
          -23.1939962
        ]
      }
    },
    {
      "type": "Feature",
      "id": "node/4714361946",
      "properties": {
        "timestamp": "2017-03-03T02:04:42Z",
        "version": 1,
        "changeset": 46537330,
        "amenity": "arts_centre",
        "name": "Casa de Cultura Flávio Craveiro",
        "id": "node/4714361946"
      },
      "geometry": {
        "type": "Point",
        "coordinates": [
          -45.8916563,
          -23.2740137
        ]
      }
    },
    {
      "type": "Feature",
      "id": "node/5520110923",
      "properties": {
        "timestamp": "2019-01-26T18:50:45Z",
        "version": 2,
        "changeset": 66661694,
        "amenity": "arts_centre",
        "name": "Centro de Artes Cênicas Walmor Chagas",
        "short_name": "CAC Walmor Chagas",
        "wikidata": "Q18484294",
        "wikipedia": "pt:Centro de Artes Cênicas Walmor Chagas",
        "id": "node/5520110923"
      },
      "geometry": {
        "type": "Point",
        "coordinates": [
          -45.8589444,
          -23.206658
        ]
      }
    }
  ]
}
