{
  "type": "FeatureCollection",
  "features": [
    {
      "type": "Feature",
      "id": "way/660021036",
      "properties": {
        "timestamp": "2024-06-07T13:08:38Z",
        "version": 6,
        "changeset": 152375896,
        "addr:city": "São José dos Campos",
        "addr:housenumber": "217",
        "addr:postcode": "12243-740",
        "addr:street": "Rua Pedro de Toledo",
        "addr:suburb": "Vila Adyana",
        "building": "retail",
        "building:levels": "2",
        "check_date": "2024-06-07",
        "contact:facebook": "https://www.facebook.com/sbrsportbr",
        "contact:instagram": "https://www.instagram.com/sbrsportbr/",
        "email": "sbrsport@sbrsport.com.br",
        "name": "SBR Sport",
        "opening_hours": "Mo-Fr 09:00-18:30; Sa 09:00-13:00",
        "phone": "+55 12 3923 2624",
        "roof:levels": "0",
        "roof:shape": "flat",
        "service:bicycle:pump": "no",
        "service:bicycle:retail": "yes",
        "shop": "bicycle",
        "website": "https://www.sbrsport.com.br",
        "id": "way/660021036"
      },
      "geometry": {
        "type": "Polygon",
        "coordinates": [
          [
            [
              -45.892881,
              -23.1993749
            ],
            [
              -45.8927845,
              -23.1994049
            ],
            [
              -45.8927439,
              -23.1992944
            ],
            [
              -45.8928404,
              -23.1992644
            ],
            [
              -45.892881,
              -23.1993749
            ]
          ]
        ]
      }
    },
    {
      "type": "Feature",
      "id": "way/661300807",
      "properties": {
        "timestamp": "2023-10-24T19:53:24Z",
        "version": 9,
        "changeset": 143081471,
        "addr:housenumber": "1039",
        "addr:street": "Avenida Doutor Adhemar de Barros",
        "building": "retail",
        "building:levels": "1",
        "name": "Goat Bike",
        "shop": "bicycle",
        "id": "way/661300807"
      },
      "geometry": {
        "type": "Polygon",
        "coordinates": [
          [
            [
              -45.8925937,
              -23.2013846
            ],
            [
              -45.8924586,
              -23.201431
            ],
            [
              -45.8924338,
              -23.20137
            ],
            [
              -45.892569,
              -23.2013237
            ],
            [
              -45.8925937,
              -23.2013846
            ]
          ]
        ]
      }
    },
    {
      "type": "Feature",
      "id": "way/1134515922",
      "properties": {
        "timestamp": "2024-04-25T21:58:23Z",
        "version": 3,
        "changeset": 150515537,
        "addr:housenumber": "371",
        "addr:postcode": "12244-597",
        "addr:street": "Avenida Maria de Lourdes Friggi",
        "building": "yes",
        "name": "CycleX Bike Shop Urbanova",
        "opening_hours": "Mo, We-Fr 08:00-18:00; Sa-Su 07:00-14:00; Tu 08:00-21:00",
        "phone": "012997399926",
        "shop": "bicycle",
        "website": "https://www.cyclexsports.com.br/",
        "id": "way/1134515922"
      },
      "geometry": {
        "type": "Polygon",
        "coordinates": [
          [
            [
              -45.9588646,
              -23.1996328
            ],
            [
              -45.9589602,
              -23.1997564
            ],
            [
              -45.958854,
              -23.199841
            ],
            [
              -45.9587443,
              -23.1996849
            ],
            [
              -45.9588646,
              -23.1996328
            ]
          ]
        ]
      }
    },
    {
      "type": "Feature",
      "id": "node/1913254534",
      "properties": {
        "timestamp": "2012-10-07T00:22:59Z",
        "version": 2,
        "changeset": 13392416,
        "name": "Pedalac",
        "shop": "bicycle",
        "id": "node/1913254534"
      },
      "geometry": {
        "type": "Point",
        "coordinates": [
          -45.8510949,
          -23.1800173
        ]
      }
    },
    {
      "type": "Feature",
      "id": "node/1914663595",
      "properties": {
        "timestamp": "2022-10-09T18:42:26Z",
        "version": 3,
        "changeset": 127262847,
        "name": "Pedivela",
        "shop": "bicycle",
        "id": "node/1914663595"
      },
      "geometry": {
        "type": "Point",
        "coordinates": [
          -45.8736013,
          -23.1882176
        ]
      }
    },
    {
      "type": "Feature",
      "id": "node/7475350818",
      "properties": {
        "timestamp": "2020-05-03T07:39:17Z",
        "version": 1,
        "changeset": 84550691,
        "name": "Pró Bike",
        "phone": "+55 12 3922-9279",
        "shop": "bicycle",
        "id": "node/7475350818"
      },
      "geometry": {
        "type": "Point",
        "coordinates": [
          -45.8972635,
          -23.2049796
        ]
      }
    },
    {
      "type": "Feature",
      "id": "node/8611158983",
      "properties": {
        "timestamp": "2021-04-09T12:56:31Z",
        "version": 2,
        "changeset": 102644937,
        "addr:city": "São José dos Campos/SP",
        "addr:housenumber": "104",
        "addr:postcode": "12233-410",
        "addr:street": "Rua Pedro Martins Ribeiro",
        "addr:suburb": "Bosque Eucaliptos",
        "name": "Bicicletaria Ciclo Manos",
        "name:pt": "Oficina de bicicletas Ciclo Manos",
        "phone": "(12) 3916-3262",
        "service:bicycle:Bicycle_Sales_and_Service": "yes",
        "shop": "bicycle",
        "id": "node/8611158983"
      },
      "geometry": {
        "type": "Point",
        "coordinates": [
          -45.8871968,
          -23.2566708
        ]
      }
    },
    {
      "type": "Feature",
      "id": "node/8888111618",
      "properties": {
        "timestamp": "2022-12-27T19:01:11Z",
        "version": 3,
        "changeset": 130569877,
        "addr:street": "Avenida Doutor João Batista Soares de Queiroz Júnior",
        "opening_hours": "Mo-Fr 09:00-18:00; Sa,Su,PH off",
        "phone": "+55 12 3939 9656",
        "shop": "bicycle",
        "id": "node/8888111618"
      },
      "geometry": {
        "type": "Point",
        "coordinates": [
          -45.923114,
          -23.2262585
        ]
      }
    },
    {
      "type": "Feature",
      "id": "node/11591352194",
      "properties": {
        "timestamp": "2024-02-06T10:48:22Z",
        "version": 1,
        "changeset": 147129510,
        "addr:city": "São José Dos Campos",
        "addr:housenumber": "454",
        "addr:postcode": "12246-856",
        "addr:street": "Avenida Comendador Vicente de Paulo Penido",
        "addr:suburb": "Parque Residencial Aquarius",
        "name": "S2 Bike Shop SJC",
        "opening_hours": "Mo-Fr 09:00-19:00",
        "phone": "+551299637-7474",
        "shop": "bicycle",
        "id": "node/11591352194"
      },
      "geometry": {
        "type": "Point",
        "coordinates": [
          -45.9030755,
          -23.2176386
        ]
      }
    }
  ]
}
