{
  "type": "FeatureCollection",
  "features": [
    {
      "type": "Feature",
      "id": "way/638633417",
      "properties": {
        "timestamp": "2023-04-16T14:34:04Z",
        "version": 3,
        "changeset": 134977725,
        "amenity": "veterinary",
        "building": "yes",
        "check_date": "2023-04-16",
        "name": "Carinho de Bicho",
        "id": "way/638633417"
      },
      "geometry": {
        "type": "Polygon",
        "coordinates": [
          [
            [
              -45.8996448,
              -23.2032679
            ],
            [
              -45.8996107,
              -23.2032957
            ],
            [
              -45.8996218,
              -23.2033072
            ],
            [
              -45.8995859,
              -23.2033365
            ],
            [
              -45.8995712,
              -23.2033214
            ],
            [
              -45.8995542,
              -23.2033353
            ],
            [
              -45.8994618,
              -23.2032396
            ],
            [
              -45.899549,
              -23.2031685
            ],
            [
              -45.8996448,
              -23.2032679
            ]
          ]
        ]
      }
    },
    {
      "type": "Feature",
      "id": "way/638633497",
      "properties": {
        "timestamp": "2021-02-22T02:12:45Z",
        "version": 3,
        "changeset": 99705879,
        "addr:city": "São José dos Campos",
        "addr:housenumber": "60",
        "addr:postcode": "12243-110",
        "addr:street": "Rua Augusto Édson Ehlke",
        "addr:suburb": "Jardim Apolo II",
        "amenity": "veterinary",
        "building": "yes",
        "contact:facebook": "https://www.facebook.com/clinicaveterinariasurreau/",
        "contact:phone": "+55 12 98261 8979",
        "name": "Clínica Veterinária Surreau",
        "opening_hours": "Mo-Sa 09:00-19:00; Su 13:00-18:00",
        "phone": "+55 12 3207 0459",
        "id": "way/638633497"
      },
      "geometry": {
        "type": "Polygon",
        "coordinates": [
          [
            [
              -45.9027911,
              -23.2024637
            ],
            [
              -45.9026732,
              -23.2025556
            ],
            [
              -45.9026092,
              -23.2024862
            ],
            [
              -45.9027271,
              -23.2023943
            ],
            [
              -45.9027911,
              -23.2024637
            ]
          ]
        ]
      }
    },
    {
      "type": "Feature",
      "id": "way/659711779",
      "properties": {
        "timestamp": "2022-05-16T22:34:43Z",
        "version": 3,
        "changeset": 121072155,
        "addr:city": "São José dos Campos",
        "addr:housenumber": "37",
        "addr:postcode": "12243-080",
        "addr:street": "Rua Padre Rodolfo",
        "addr:suburb": "Vila Ema",
        "amenity": "veterinary",
        "building": "yes",
        "contact:facebook": "https://www.facebook.com/ArcaDeNoeClinicaVeterinaria",
        "name": "Arca de Noé",
        "opening_hours": "Mo-Fr 08:00-19:00; Sa 08:00-16:00",
        "phone": "+55 12 3921 0894",
        "website": "https://www.arcadenoe.vet.br/",
        "id": "way/659711779"
      },
      "geometry": {
        "type": "Polygon",
        "coordinates": [
          [
            [
              -45.9009378,
              -23.2030316
            ],
            [
              -45.9008846,
              -23.202975
            ],
            [
              -45.9010131,
              -23.2028732
            ],
            [
              -45.9010663,
              -23.2029298
            ],
            [
              -45.9009378,
              -23.2030316
            ]
          ]
        ]
      }
    },
    {
      "type": "Feature",
      "id": "way/681780458",
      "properties": {
        "timestamp": "2019-04-05T04:53:14Z",
        "version": 1,
        "changeset": 68907205,
        "amenity": "veterinary",
        "building": "yes",
        "building:levels": "2",
        "name": "Hospital Veterinário Pandora",
        "id": "way/681780458"
      },
      "geometry": {
        "type": "Polygon",
        "coordinates": [
          [
            [
              -45.8923547,
              -23.2039513
            ],
            [
              -45.8922355,
              -23.2039946
            ],
            [
              -45.8921627,
              -23.2038252
            ],
            [
              -45.8922819,
              -23.2037819
            ],
            [
              -45.8923547,
              -23.2039513
            ]
          ]
        ]
      }
    },
    {
      "type": "Feature",
      "id": "way/804700377",
      "properties": {
        "timestamp": "2020-05-16T17:16:34Z",
        "version": 1,
        "changeset": 85311474,
        "addr:city": "São José dos Campos",
        "addr:housenumber": "1377",
        "addr:street": "Avenida Engenheiro Francisco José Longo",
        "amenity": "veterinary",
        "building": "yes",
        "name": "São Francisco",
        "id": "way/804700377"
      },
      "geometry": {
        "type": "Polygon",
        "coordinates": [
          [
            [
              -45.8879602,
              -23.2053168
            ],
            [
              -45.8878724,
              -23.2053041
            ],
            [
              -45.8878695,
              -23.2052534
            ],
            [
              -45.8879714,
              -23.2052608
            ],
            [
              -45.8879602,
              -23.2053168
            ]
          ]
        ]
      }
    },
    {
      "type": "Feature",
      "id": "node/4417402494",
      "properties": {
        "timestamp": "2020-07-03T00:51:48Z",
        "version": 2,
        "changeset": 87474377,
        "addr:street": "Rua Vinte e Três de Dezembro",
        "amenity": "veterinary",
        "name": "Recanto dos Bichos.",
        "name:pt": "Recanto dos Bichos.",
        "phone": "+55 12 3907 1096",
        "id": "node/4417402494"
      },
      "geometry": {
        "type": "Point",
        "coordinates": [
          -45.7890302,
          -23.1896964
        ]
      }
    },
    {
      "type": "Feature",
      "id": "node/7960156626",
      "properties": {
        "timestamp": "2020-09-30T16:01:31Z",
        "version": 1,
        "changeset": 91778390,
        "amenity": "veterinary",
        "contact:facebook": "https://www.facebook.com/petimperioaquarius",
        "contact:instagram": "https://www.instagram.com/petimperioaquarius/",
        "contact:mobile": "+55 12 99639 8353",
        "contact:whatsapp": "+55 12 99721 3203",
        "email": "dimperiopet@gmail.com",
        "name": "Pet Império",
        "opening_hours": "Mo-Fr 08:00-18:00; Sa 08:00-15:00",
        "phone": "+55 12 3911 7591",
        "shop": "pet",
        "website": "https://dimperiopet.wixsite.com/dimperiopet",
        "id": "node/7960156626"
      },
      "geometry": {
        "type": "Point",
        "coordinates": [
          -45.9066842,
          -23.2153556
        ]
      }
    },
    {
      "type": "Feature",
      "id": "node/7973910322",
      "properties": {
        "timestamp": "2020-10-04T19:46:18Z",
        "version": 1,
        "changeset": 91944577,
        "amenity": "veterinary",
        "contact:facebook": "https://www.facebook.com/pethalljdaquarius/",
        "contact:whatsapp": "+55 12 99628 4849",
        "name": "Pet Hall",
        "phone": "+55 12 3942 9279",
        "shop": "pet",
        "id": "node/7973910322"
      },
      "geometry": {
        "type": "Point",
        "coordinates": [
          -45.9072698,
          -23.2158734
        ]
      }
    },
    {
      "type": "Feature",
      "id": "node/8579327508",
      "properties": {
        "timestamp": "2021-03-31T14:36:04Z",
        "version": 1,
        "changeset": 102062547,
        "addr:street": "Rodovia Monteiro Lobato",
        "amenity": "veterinary",
        "contact:mobile": "+55 12 97000 0990",
        "phone": "+55 12 3948 1146",
        "id": "node/8579327508"
      },
      "geometry": {
        "type": "Point",
        "coordinates": [
          -45.917536,
          -23.1116065
        ]
      }
    },
    {
      "type": "Feature",
      "id": "node/8839910517",
      "properties": {
        "timestamp": "2022-12-27T19:22:53Z",
        "version": 6,
        "changeset": 130570676,
        "addr:city": "São José dos Campos",
        "addr:housenumber": "574",
        "addr:postcode": "12240-000",
        "addr:street": "Avenida Doutor João Batista Soares de Queiroz Júnior",
        "addr:suburb": "Jardim das Indústria",
        "amenity": "veterinary",
        "contact:mobile": "+55 12 9783 5134",
        "email": "contato@bichobrasil24h.com.br",
        "name": "Clínica Bicho Brasil",
        "opening_hours": "24/7",
        "phone": "+55 12 3939 7863",
        "website": "https://bichobrasil24h.com.br/",
        "wheelchair": "yes",
        "id": "node/8839910517"
      },
      "geometry": {
        "type": "Point",
        "coordinates": [
          -45.9157433,
          -23.228007
        ]
      }
    },
    {
      "type": "Feature",
      "id": "node/8888111520",
      "properties": {
        "timestamp": "2022-12-27T18:50:38Z",
        "version": 4,
        "changeset": 130569480,
        "addr:street": "Avenida Doutor João Batista Soares de Queiroz Júnior",
        "amenity": "veterinary",
        "name": "Cão Promisso",
        "opening_hours": "Mo-Fr 09:00-18:00; Sa,Su,PH off",
        "phone": "+55 12 98212 9196",
        "wheelchair": "yes",
        "id": "node/8888111520"
      },
      "geometry": {
        "type": "Point",
        "coordinates": [
          -45.9219846,
          -23.2256961
        ]
      }
    },
    {
      "type": "Feature",
      "id": "node/8892423017",
      "properties": {
        "timestamp": "2021-11-23T21:08:26Z",
        "version": 2,
        "changeset": 114156767,
        "addr:housenumber": "1810",
        "addr:street": "Avenida Doutor João Batista Soares de Queiroz Júnior",
        "amenity": "veterinary",
        "name": "CatShop, exclusivo para felinos",
        "name:pt": "The CatShop, exclusivo para felinos",
        "opening_hours": "Mo-Sa 00:00-24:00",
        "phone": "1239113229",
        "wheelchair": "yes",
        "id": "node/8892423017"
      },
      "geometry": {
        "type": "Point",
        "coordinates": [
          -45.9222956,
          -23.225676
        ]
      }
    },
    {
      "type": "Feature",
      "id": "node/10056132121",
      "properties": {
        "timestamp": "2022-09-30T13:33:00Z",
        "version": 3,
        "changeset": 126823893,
        "amenity": "veterinary",
        "contact:facebook": "https://www.facebook.com/clinicavetmundi",
        "contact:instagram": "https://www.instagram.com/clinicavetmundi/",
        "contact:whatsapp": "+55 12 98158 6961",
        "email": "contato@vetmundi.com.br",
        "level": "0",
        "name": "Vet Mundi",
        "phone": "+55 12 3346 0523",
        "shop": "pet",
        "website": "https://vetmundi.com.br/",
        "id": "node/10056132121"
      },
      "geometry": {
        "type": "Point",
        "coordinates": [
          -45.9052102,
          -23.2206606
        ]
      }
    },
    {
      "type": "Feature",
      "id": "node/10087333277",
      "properties": {
        "timestamp": "2022-10-09T16:42:51Z",
        "version": 1,
        "changeset": 127258102,
        "amenity": "veterinary",
        "name": "Polivet",
        "phone": "+55 12 3941 4280",
        "id": "node/10087333277"
      },
      "geometry": {
        "type": "Point",
        "coordinates": [
          -45.8748176,
          -23.1869175
        ]
      }
    }
  ]
}
