{
  "type": "FeatureCollection",
  "features": [
    {
      "type": "Feature",
      "id": "way/382248540",
      "properties": {
        "timestamp": "2023-08-21T23:26:19Z",
        "version": 5,
        "changeset": 140203724,
        "addr:housenumber": "149",
        "addr:postcode": "18556-048",
        "addr:street": "Rua Benedita Sanson Labronici",
        "addr:suburb": "Chácara Labronici",
        "amenity": "hospital",
        "email": "contato@hospitalsaoluiz.org.br",
        "emergency": "yes",
        "healthcare": "hospital",
        "healthcare:speciality": "general;paediatrics;maternity;orthopaedics;surgery",
        "name": "Hospital São Luis",
        "operator": "Fundação Luiz João Labronici",
        "operator:type": "private",
        "phone": "+55 15 3363 8833",
        "ref:CNES": "2081261",
        "ref:vatin": "BR45484383000159",
        "website": "https://www.hospitalsaoluiz.org.br/",
        "id": "way/382248540"
      },
      "geometry": {
        "type": "Polygon",
        "coordinates": [
          [
            [
              -47.6808186,
              -23.2885837
            ],
            [
              -47.681143,
              -23.2891498
            ],
            [
              -47.6807214,
              -23.2893536
            ],
            [
              -47.6802755,
              -23.2895692
            ],
            [
              -47.6799511,
              -23.2890031
            ],
            [
              -47.6808186,
              -23.2885837
            ]
          ]
        ]
      }
    }
  ]
}
