{
  "type": "FeatureCollection",
  "features": [
    {
      "type": "Feature",
      "id": "node/4257911890",
      "properties": {
        "timestamp": "2016-06-21T23:22:16Z",
        "version": 2,
        "changeset": 40193629,
        "addr:housenumber": "73",
        "addr:street": "Rua Mogno",
        "internet_access": "wlan",
        "name": "Lancaster Hotel",
        "tourism": "hotel",
        "id": "node/4257911890"
      },
      "geometry": {
        "type": "Point",
        "coordinates": [
          -49.8518167,
          -6.5329062
        ]
      }
    },
    {
      "type": "Feature",
      "id": "node/4257927789",
      "properties": {
        "timestamp": "2016-06-21T23:22:13Z",
        "version": 1,
        "changeset": 40193629,
        "addr:housenumber": "50",
        "addr:postcode": "68537000",
        "addr:street": "Rua Ma√ßaranduba",
        "internet_access": "wlan",
        "name": "Village Hotel",
        "phone": "+55 94 3392 4338",
        "tourism": "hotel",
        "id": "node/4257927789"
      },
      "geometry": {
        "type": "Point",
        "coordinates": [
          -49.8515475,
          -6.5371372
        ]
      }
    }
  ]
}
