{
  "type": "FeatureCollection",
  "features": [
    {
      "type": "Feature",
      "id": "node/7910096446",
      "properties": {
        "timestamp": "2020-09-15T19:29:13Z",
        "version": 1,
        "changeset": 90943877,
        "addr:city": "Governador Eugênio Barros",
        "addr:housenumber": "1913",
        "addr:postcode": "65780-000",
        "addr:street": "Rua Sete de Setembro",
        "amenity": "school",
        "name": "Colégio Dom Pedro I",
        "phone": "+55 99 3564 1219",
        "id": "node/7910096446"
      },
      "geometry": {
        "type": "Point",
        "coordinates": [
          -44.2465136,
          -5.3216669
        ]
      }
    },
    {
      "type": "Feature",
      "id": "node/7910105782",
      "properties": {
        "timestamp": "2020-09-15T20:05:13Z",
        "version": 1,
        "changeset": 90945148,
        "amenity": "school",
        "name": "UE Doutor Vieira",
        "id": "node/7910105782"
      },
      "geometry": {
        "type": "Point",
        "coordinates": [
          -43.9670358,
          -5.3275972
        ]
      }
    },
    {
      "type": "Feature",
      "id": "node/7910157821",
      "properties": {
        "timestamp": "2020-09-15T19:35:59Z",
        "version": 1,
        "changeset": 90944099,
        "addr:city": "Governador Eugênio Barros",
        "addr:postcode": "65780-000",
        "addr:street": "Povoado Tamboril",
        "amenity": "school",
        "name": "EM - Dom pedro II",
        "id": "node/7910157821"
      },
      "geometry": {
        "type": "Point",
        "coordinates": [
          -44.142706,
          -5.2857512
        ]
      }
    },
    {
      "type": "Feature",
      "id": "node/7910160114",
      "properties": {
        "timestamp": "2020-09-15T19:38:50Z",
        "version": 1,
        "changeset": 90944223,
        "addr:city": "Governador Eugênio Barros",
        "addr:postcode": "65780-000",
        "addr:street": "Povoado Desconsolo",
        "amenity": "school",
        "name": "EM - Floriano Peixoto",
        "id": "node/7910160114"
      },
      "geometry": {
        "type": "Point",
        "coordinates": [
          -43.8657339,
          -5.4398913
        ]
      }
    },
    {
      "type": "Feature",
      "id": "node/7910165747",
      "properties": {
        "timestamp": "2020-09-15T19:42:22Z",
        "version": 1,
        "changeset": 90944363,
        "addr:city": "Gorvernador Eugênio Barros",
        "addr:postcode": "65780-000",
        "addr:street": "Povoado Cipo",
        "amenity": "school",
        "name": "EM - Santa Maria",
        "phone": "+55 99 3564 1219",
        "id": "node/7910165747"
      },
      "geometry": {
        "type": "Point",
        "coordinates": [
          -43.9271827,
          -5.4541063
        ]
      }
    },
    {
      "type": "Feature",
      "id": "node/7910169292",
      "properties": {
        "timestamp": "2020-09-15T19:44:54Z",
        "version": 1,
        "changeset": 90944440,
        "addr:city": "Governador Eugênio Barros",
        "addr:street": "Povoado São Pedro",
        "amenity": "school",
        "name": "EM Rui Barbosa",
        "id": "node/7910169292"
      },
      "geometry": {
        "type": "Point",
        "coordinates": [
          -44.2073635,
          -5.441921
        ]
      }
    },
    {
      "type": "Feature",
      "id": "node/7910174571",
      "properties": {
        "timestamp": "2020-09-15T20:12:15Z",
        "version": 1,
        "changeset": 90945394,
        "addr:city": "Governador Eugênio Barros",
        "addr:postcode": "65780-000",
        "addr:street": "Povoado Bulandeira",
        "amenity": "school",
        "name": "UE - Ministro Aureliano Chaves",
        "id": "node/7910174571"
      },
      "geometry": {
        "type": "Point",
        "coordinates": [
          -44.0949336,
          -5.3957235
        ]
      }
    },
    {
      "type": "Feature",
      "id": "node/7910176551",
      "properties": {
        "timestamp": "2020-09-15T19:53:16Z",
        "version": 2,
        "changeset": 90944732,
        "addr:city": "Governador Eugênio Barros",
        "addr:street": "Povoado Baixão Verde",
        "amenity": "school",
        "name": "EM - Santa Fé",
        "id": "node/7910176551"
      },
      "geometry": {
        "type": "Point",
        "coordinates": [
          -44.0869899,
          -5.3705317
        ]
      }
    },
    {
      "type": "Feature",
      "id": "node/7910176552",
      "properties": {
        "timestamp": "2020-09-15T19:55:09Z",
        "version": 1,
        "changeset": 90944802,
        "addr:city": "Governador Eugênio Barros",
        "addr:street": "Rua Presidente Juscelino",
        "amenity": "school",
        "name": "UE - Agnelo Viera Chaves",
        "id": "node/7910176552"
      },
      "geometry": {
        "type": "Point",
        "coordinates": [
          -44.2421958,
          -5.3171587
        ]
      }
    },
    {
      "type": "Feature",
      "id": "node/7910176622",
      "properties": {
        "timestamp": "2020-09-15T19:53:16Z",
        "version": 1,
        "changeset": 90944732,
        "addr:city": "Governador Eugênio Barros",
        "addr:postcode": "65780-000",
        "addr:street": "Povoado São Luizinho",
        "amenity": "school",
        "name": "UE - Coelho Neto",
        "id": "node/7910176622"
      },
      "geometry": {
        "type": "Point",
        "coordinates": [
          -44.2552982,
          -5.3836959
        ]
      }
    },
    {
      "type": "Feature",
      "id": "node/7910176623",
      "properties": {
        "timestamp": "2020-09-15T19:53:16Z",
        "version": 1,
        "changeset": 90944732,
        "addr:city": "Governador Eugênio Barros",
        "addr:postcode": "65780-000",
        "addr:street": "Povoado Canaã",
        "amenity": "school",
        "name": "GE - Presidente Geisel",
        "phone": "+55 99 3564 1219",
        "id": "node/7910176623"
      },
      "geometry": {
        "type": "Point",
        "coordinates": [
          -44.218427,
          -5.3642635
        ]
      }
    },
    {
      "type": "Feature",
      "id": "node/7910186360",
      "properties": {
        "timestamp": "2020-09-15T20:02:04Z",
        "version": 1,
        "changeset": 90945021,
        "addr:city": "Governador Eugẽnio Barros",
        "addr:postcode": "65780-000",
        "addr:street": "Povoado Socorro",
        "amenity": "school",
        "name": "UE - Artur Azevedo II",
        "id": "node/7910186360"
      },
      "geometry": {
        "type": "Point",
        "coordinates": [
          -44.1504803,
          -5.3445303
        ]
      }
    },
    {
      "type": "Feature",
      "id": "node/7910193606",
      "properties": {
        "timestamp": "2020-09-15T19:57:46Z",
        "version": 1,
        "changeset": 90944892,
        "addr:city": "Governador Eugênio Barros",
        "addr:postcode": "65780-000",
        "addr:street": "Centro do Porfiro",
        "amenity": "school",
        "name": "UE - Quinze de Novembro",
        "id": "node/7910193606"
      },
      "geometry": {
        "type": "Point",
        "coordinates": [
          -44.2678046,
          -5.3536841
        ]
      }
    },
    {
      "type": "Feature",
      "id": "node/7910208991",
      "properties": {
        "timestamp": "2020-09-15T20:08:21Z",
        "version": 1,
        "changeset": 90945261,
        "addr:city": "Governador Eugênio Barros",
        "addr:postcode": "65780-000",
        "addr:street": "Povoado Cacimbão",
        "amenity": "school",
        "name": "UE - Joaquim Gomes",
        "id": "node/7910208991"
      },
      "geometry": {
        "type": "Point",
        "coordinates": [
          -44.0551531,
          -5.3956185
        ]
      }
    },
    {
      "type": "Feature",
      "id": "node/7910219929",
      "properties": {
        "timestamp": "2020-09-15T20:10:08Z",
        "version": 1,
        "changeset": 90945328,
        "addr:city": "Governador Eugênio Barros",
        "addr:postcode": "65780-000",
        "addr:street": "Rua do Clube",
        "addr:suburb": "Bom Lugar",
        "amenity": "school",
        "name": "UE José de Morais Rego",
        "id": "node/7910219929"
      },
      "geometry": {
        "type": "Point",
        "coordinates": [
          -44.2372862,
          -5.3080285
        ]
      }
    },
    {
      "type": "Feature",
      "id": "node/7910236494",
      "properties": {
        "timestamp": "2020-09-15T20:17:48Z",
        "version": 1,
        "changeset": 90945595,
        "addr:city": "Governador Eugênio Barros",
        "addr:postcode": "65780-000",
        "addr:street": "Povoado Santiago",
        "amenity": "school",
        "name": "UE - Padre Aderson",
        "id": "node/7910236494"
      },
      "geometry": {
        "type": "Point",
        "coordinates": [
          -44.1598892,
          -5.2626922
        ]
      }
    },
    {
      "type": "Feature",
      "id": "node/7910239120",
      "properties": {
        "timestamp": "2020-09-15T20:20:19Z",
        "version": 1,
        "changeset": 90945669,
        "addr:city": "Governador Eugênio Barros",
        "addr:postcode": "65780-000",
        "addr:street": "Povoado Montevideu",
        "amenity": "school",
        "name": "UE - Bom Jesus",
        "phone": "+55 99 3564 1219",
        "id": "node/7910239120"
      },
      "geometry": {
        "type": "Point",
        "coordinates": [
          -43.8793118,
          -5.4015142
        ]
      }
    },
    {
      "type": "Feature",
      "id": "node/7910421330",
      "properties": {
        "timestamp": "2020-09-15T20:24:25Z",
        "version": 1,
        "changeset": 90945831,
        "amenity": "school",
        "name": "UE - João Umbelino de Barros",
        "id": "node/7910421330"
      },
      "geometry": {
        "type": "Point",
        "coordinates": [
          -43.956896,
          -5.4424577
        ]
      }
    },
    {
      "type": "Feature",
      "id": "node/8703281157",
      "properties": {
        "timestamp": "2021-05-06T01:01:32Z",
        "version": 1,
        "changeset": 104213085,
        "addr:city": "Governador Luiz Rocha",
        "addr:postcode": "65795-000",
        "amenity": "school",
        "name": "UE Princesa Isabel",
        "id": "node/8703281157"
      },
      "geometry": {
        "type": "Point",
        "coordinates": [
          -43.9621937,
          -5.4847664
        ]
      }
    },
    {
      "type": "Feature",
      "id": "node/8703295371",
      "properties": {
        "timestamp": "2021-05-06T01:06:30Z",
        "version": 1,
        "changeset": 104213178,
        "addr:city": "Governador Luiz Rocha",
        "addr:postcode": "65795-000",
        "amenity": "school",
        "name": "UE Santa Rita",
        "id": "node/8703295371"
      },
      "geometry": {
        "type": "Point",
        "coordinates": [
          -44.0711131,
          -5.436979
        ]
      }
    }
  ]
}
