{
  "type": "FeatureCollection",
  "features": [
    {
      "type": "Feature",
      "id": "way/1034334758",
      "properties": {
        "timestamp": "2022-02-23T00:57:54Z",
        "version": 1,
        "changeset": 117748583,
        "addr:city": "Colméia",
        "addr:postcode": "77725-000",
        "addr:street": "Avenida Campinas Norte",
        "amenity": "school",
        "id": "way/1034334758"
      },
      "geometry": {
        "type": "Polygon",
        "coordinates": [
          [
            [
              -48.8524011,
              -8.6507839
            ],
            [
              -48.8522268,
              -8.6509903
            ],
            [
              -48.8518902,
              -8.6506815
            ],
            [
              -48.8519679,
              -8.6504068
            ],
            [
              -48.8524011,
              -8.6507839
            ]
          ]
        ]
      }
    },
    {
      "type": "Feature",
      "id": "way/1034334771",
      "properties": {
        "timestamp": "2022-02-23T00:58:14Z",
        "version": 1,
        "changeset": 117748589,
        "amenity": "school",
        "name": "Escola Municipal Ambrozina Lima Do Prado",
        "id": "way/1034334771"
      },
      "geometry": {
        "type": "Polygon",
        "coordinates": [
          [
            [
              -48.8239355,
              -8.6416718
            ],
            [
              -48.8243727,
              -8.6422685
            ],
            [
              -48.8239516,
              -8.6425548
            ],
            [
              -48.8235198,
              -8.6420139
            ],
            [
              -48.8239355,
              -8.6416718
            ]
          ]
        ]
      }
    },
    {
      "type": "Feature",
      "id": "way/1034335605",
      "properties": {
        "timestamp": "2023-09-25T23:41:14Z",
        "version": 2,
        "changeset": 141751439,
        "addr:postcode": "77725-000",
        "addr:street": "Rua Couto Magalhães",
        "addr:suburb": "Centro",
        "amenity": "school",
        "name": "Centro Educacional Arte do Saber - CEAS",
        "id": "way/1034335605"
      },
      "geometry": {
        "type": "Polygon",
        "coordinates": [
          [
            [
              -48.764577,
              -8.729053
            ],
            [
              -48.7647803,
              -8.7293725
            ],
            [
              -48.7645703,
              -8.729503
            ],
            [
              -48.764367,
              -8.7291836
            ],
            [
              -48.764577,
              -8.729053
            ]
          ]
        ]
      }
    },
    {
      "type": "Feature",
      "id": "way/1034335901",
      "properties": {
        "timestamp": "2023-09-25T23:41:14Z",
        "version": 2,
        "changeset": 141751439,
        "addr:city": "Colméia",
        "addr:housenumber": "334",
        "addr:postcode": "77725-000",
        "addr:street": "Avenida Guaraí",
        "addr:suburb": "Centro",
        "amenity": "school",
        "name": "Escola Municipal Pedro Ludovico Teixeira",
        "phone": "+55 63 3457 1559",
        "id": "way/1034335901"
      },
      "geometry": {
        "type": "Polygon",
        "coordinates": [
          [
            [
              -48.7627446,
              -8.731526
            ],
            [
              -48.7629344,
              -8.7319065
            ],
            [
              -48.7626669,
              -8.7320668
            ],
            [
              -48.7624771,
              -8.731712
            ],
            [
              -48.7627446,
              -8.731526
            ]
          ]
        ]
      }
    },
    {
      "type": "Feature",
      "id": "way/1034336386",
      "properties": {
        "timestamp": "2023-09-25T23:41:14Z",
        "version": 2,
        "changeset": 141751439,
        "addr:city": "Colméia",
        "addr:housenumber": "984",
        "addr:postcode": "77725-000",
        "addr:street": "Rua Três",
        "addr:suburb": "Centro",
        "amenity": "school",
        "name": "Escola Municipal Marechal Humberto de Alencar Castelo Branco",
        "id": "way/1034336386"
      },
      "geometry": {
        "type": "Polygon",
        "coordinates": [
          [
            [
              -48.7584141,
              -8.7322694
            ],
            [
              -48.758504,
              -8.7325521
            ],
            [
              -48.7578977,
              -8.7327403
            ],
            [
              -48.7578079,
              -8.7324577
            ],
            [
              -48.7584141,
              -8.7322694
            ]
          ]
        ]
      }
    },
    {
      "type": "Feature",
      "id": "way/1034336387",
      "properties": {
        "timestamp": "2023-09-25T23:41:14Z",
        "version": 3,
        "changeset": 141751439,
        "addr:city": "Colméia",
        "addr:postcode": "77725-000",
        "addr:street": "Avenida Castelo Branco",
        "addr:suburb": "Centro",
        "amenity": "school",
        "name": "Centro Municipal de Educação Infantil Euripedes Vieira de Sousa",
        "id": "way/1034336387"
      },
      "geometry": {
        "type": "Polygon",
        "coordinates": [
          [
            [
              -48.7574025,
              -8.73006
            ],
            [
              -48.7575026,
              -8.73035
            ],
            [
              -48.7570925,
              -8.7304883
            ],
            [
              -48.7569924,
              -8.7301983
            ],
            [
              -48.7574025,
              -8.73006
            ]
          ]
        ]
      }
    },
    {
      "type": "Feature",
      "id": "way/1034337579",
      "properties": {
        "timestamp": "2023-09-25T23:41:14Z",
        "version": 2,
        "changeset": 141751439,
        "addr:city": "Colméia",
        "addr:housenumber": "701",
        "addr:postcode": "77725-000",
        "addr:street": "Avenida Monsenhor Linconl",
        "addr:suburb": "Centro",
        "amenity": "school",
        "name": "Colégio Estadual Serra das Cordilheiras",
        "id": "way/1034337579"
      },
      "geometry": {
        "type": "Polygon",
        "coordinates": [
          [
            [
              -48.7582705,
              -8.7285853
            ],
            [
              -48.7583821,
              -8.7289191
            ],
            [
              -48.7570617,
              -8.7293505
            ],
            [
              -48.7569502,
              -8.729017
            ],
            [
              -48.7582705,
              -8.7285853
            ]
          ]
        ]
      }
    },
    {
      "type": "Feature",
      "id": "way/1034337799",
      "properties": {
        "timestamp": "2023-09-25T23:41:14Z",
        "version": 2,
        "changeset": 141751439,
        "addr:city": "Colméia",
        "addr:postcode": "77725-000",
        "addr:street": "Avenida Brasil",
        "addr:suburb": "Setor Sul",
        "amenity": "school",
        "name": "Centro Municipal de Educação Infantil Fabyano Ribeiro de Oliveira",
        "id": "way/1034337799"
      },
      "geometry": {
        "type": "Polygon",
        "coordinates": [
          [
            [
              -48.7543083,
              -8.7365149
            ],
            [
              -48.7539718,
              -8.7366466
            ],
            [
              -48.7537431,
              -8.7360754
            ],
            [
              -48.7540795,
              -8.7359437
            ],
            [
              -48.7543083,
              -8.7365149
            ]
          ]
        ]
      }
    },
    {
      "type": "Feature",
      "id": "way/1034337846",
      "properties": {
        "timestamp": "2023-09-25T23:41:14Z",
        "version": 2,
        "changeset": 141751439,
        "addr:city": "Colméia",
        "addr:housenumber": "1176",
        "addr:postcode": "77725-000",
        "addr:street": "Avenida Guaraí",
        "addr:suburb": "Centro",
        "amenity": "school",
        "name": "Associação de Apoio à Escola Especial Filhos da Luz",
        "phone": "+55 63 3457 1257",
        "id": "way/1034337846"
      },
      "geometry": {
        "type": "Polygon",
        "coordinates": [
          [
            [
              -48.7519694,
              -8.7358682
            ],
            [
              -48.7521426,
              -8.7363503
            ],
            [
              -48.7517222,
              -8.7364979
            ],
            [
              -48.751549,
              -8.7360158
            ],
            [
              -48.7519694,
              -8.7358682
            ]
          ]
        ]
      }
    },
    {
      "type": "Feature",
      "id": "way/1034337944",
      "properties": {
        "timestamp": "2023-09-25T23:35:34Z",
        "version": 2,
        "changeset": 141751365,
        "addr:city": "Colméia",
        "addr:housenumber": "1884",
        "addr:postcode": "77725-000",
        "addr:street": "Rua Oito",
        "addr:suburb": "Centro",
        "amenity": "school",
        "name": "Colégio Estadual Ary Ribeiro Valadão Filho",
        "id": "way/1034337944"
      },
      "geometry": {
        "type": "Polygon",
        "coordinates": [
          [
            [
              -48.7494747,
              -8.734795
            ],
            [
              -48.7497116,
              -8.7355516
            ],
            [
              -48.7488234,
              -8.7358233
            ],
            [
              -48.7485865,
              -8.7350665
            ],
            [
              -48.7494747,
              -8.734795
            ]
          ]
        ]
      }
    },
    {
      "type": "Feature",
      "id": "way/1034338059",
      "properties": {
        "timestamp": "2022-02-23T01:32:56Z",
        "version": 1,
        "changeset": 117748969,
        "addr:city": "Colméia",
        "addr:postcode": "77725-000",
        "addr:street": "Avenida Longuinho Vieira Júnior",
        "addr:suburb": "Setor Sul",
        "amenity": "school",
        "name": "Escola Municipal Josefina Ribeiro Dos Santos",
        "phone": "+55 63 3457 1954",
        "id": "way/1034338059"
      },
      "geometry": {
        "type": "Polygon",
        "coordinates": [
          [
            [
              -48.7491707,
              -8.7392517
            ],
            [
              -48.7494068,
              -8.7400425
            ],
            [
              -48.7488739,
              -8.7401901
            ],
            [
              -48.7486702,
              -8.7393935
            ],
            [
              -48.7491707,
              -8.7392517
            ]
          ]
        ]
      }
    }
  ]
}
