{
  "type": "FeatureCollection",
  "features": [
    {
      "type": "Feature",
      "id": "node/4701409738",
      "properties": {
        "timestamp": "2019-07-07T03:34:18Z",
        "version": 3,
        "changeset": 71972740,
        "amenity": "clinic",
        "healthcare": "laboratory",
        "name": "Clínica Imaginus - Serviços de Diagnóstico por Imagem",
        "id": "node/4701409738"
      },
      "geometry": {
        "type": "Point",
        "coordinates": [
          -41.1321569,
          -20.3292187
        ]
      }
    },
    {
      "type": "Feature",
      "id": "node/9533128963",
      "properties": {
        "timestamp": "2022-02-24T19:23:52Z",
        "version": 1,
        "changeset": 117824701,
        "addr:city": "Venda Nova do Imigrante",
        "addr:postcode": "29375-000",
        "addr:street": "Avenida Nelson Mieis",
        "addr:suburb": "Alto Caxixe",
        "amenity": "clinic",
        "healthcare": "clinic",
        "healthcare:speciality": "general",
        "name": "Unidade de Saúde da Família de Alto Caxixe",
        "operator": "Município de Venda Nova do Imigrante",
        "operator:type": "public",
        "id": "node/9533128963"
      },
      "geometry": {
        "type": "Point",
        "coordinates": [
          -41.0826012,
          -20.4181584
        ]
      }
    }
  ]
}
