{
  "type": "FeatureCollection",
  "features": [
    {
      "type": "Feature",
      "id": "node/2517509657",
      "properties": {
        "timestamp": "2013-11-02T16:09:42Z",
        "version": 1,
        "changeset": 18677369,
        "addr:housenumber": "164",
        "addr:postcode": "29375-000",
        "addr:street": "Avenida Antônio Roberto Feitosa",
        "email": "contato@alpeshotel.com.br",
        "internet_access": "wlan",
        "internet_access:fee": "no",
        "name": "Alpes Hotel",
        "phone": "+55 28 35461476",
        "source": "survey",
        "tourism": "hotel",
        "website": "http://alpeshotel.com.br/",
        "id": "node/2517509657"
      },
      "geometry": {
        "type": "Point",
        "coordinates": [
          -41.1290031,
          -20.3346291
        ]
      }
    },
    {
      "type": "Feature",
      "id": "node/3662153200",
      "properties": {
        "timestamp": "2022-02-23T18:04:46Z",
        "version": 2,
        "changeset": 117781830,
        "addr:city": "Venda Nova do Imigrante",
        "addr:postcode": "29375-000",
        "addr:street": "Avenida Ângelo Altoé",
        "addr:suburb": "Santa Cruz",
        "name": "Hotel Esmig",
        "tourism": "hotel",
        "id": "node/3662153200"
      },
      "geometry": {
        "type": "Point",
        "coordinates": [
          -41.1338315,
          -20.3268106
        ]
      }
    },
    {
      "type": "Feature",
      "id": "node/3918643949",
      "properties": {
        "timestamp": "2019-02-14T09:56:41Z",
        "version": 2,
        "changeset": 67188079,
        "name": "Hotel Venturim",
        "tourism": "hotel",
        "id": "node/3918643949"
      },
      "geometry": {
        "type": "Point",
        "coordinates": [
          -41.1906602,
          -20.3380682
        ]
      }
    },
    {
      "type": "Feature",
      "id": "node/3918663904",
      "properties": {
        "timestamp": "2019-03-16T05:01:10Z",
        "version": 3,
        "changeset": 68195675,
        "addr:housenumber": "2131",
        "addr:street": "Avenida 29 de Julho",
        "email": "contato@solardoimigrante.com.br",
        "name": "Hotel Solar do Imigrante",
        "phone": "+55 28 35463936;+55 28 35461159",
        "source": "survey",
        "tourism": "hotel",
        "website": "https://solardoimigrante.com.br/",
        "id": "node/3918663904"
      },
      "geometry": {
        "type": "Point",
        "coordinates": [
          -41.1461602,
          -20.3274761
        ]
      }
    }
  ]
}
