{
  "type": "FeatureCollection",
  "features": [
    {
      "type": "Feature",
      "id": "way/232912252",
      "properties": {
        "timestamp": "2016-02-25T02:03:01Z",
        "version": 4,
        "changeset": 37426154,
        "IJSN:administra": "Estadual",
        "IJSN:classeCnae": "Fundamental",
        "addr:city": "Venda Nova do Imigrante",
        "addr:housename": "Escola Estadual de Ensino Fundamental Liberal Zandonadi",
        "addr:housenumber": "51",
        "addr:postcode": "29375-000",
        "addr:street": "Rua Dom João Batista",
        "addr:suburb": "Vila Betânea",
        "alt_name": "Escola Estadual de Ensino Fundamental",
        "amenity": "school",
        "contact:phone": "(28) 3546-1981",
        "name": "EEEF Liberal Zandonadi",
        "source": "IJSN",
        "id": "way/232912252"
      },
      "geometry": {
        "type": "Polygon",
        "coordinates": [
          [
            [
              -41.1354718,
              -20.3237979
            ],
            [
              -41.1355489,
              -20.3244448
            ],
            [
              -41.1350858,
              -20.3245179
            ],
            [
              -41.1350165,
              -20.3238586
            ],
            [
              -41.1354718,
              -20.3237979
            ]
          ]
        ]
      }
    },
    {
      "type": "Feature",
      "id": "way/280331630",
      "properties": {
        "timestamp": "2022-02-24T19:23:52Z",
        "version": 3,
        "changeset": 117824701,
        "IJSN:administra": "Municipal",
        "IJSN:classeCnae": "Infantil e Fundamental",
        "addr:city": "Venda Nova do Imigrante",
        "addr:postcode": "29375-000",
        "addr:street": "Rua Vai e Vém",
        "addr:suburb": "Alto Caxixe",
        "alt_name": "Escola Municipal de Ensino Infantil e Fundamental",
        "amenity": "school",
        "contact:phone": "(28) 3546-5230",
        "name": "Emeief Caxixe",
        "operator": "Município de Venda Nova do Imigrante",
        "operator:type": "government",
        "source": "IJSN",
        "id": "way/280331630"
      },
      "geometry": {
        "type": "Polygon",
        "coordinates": [
          [
            [
              -41.0835658,
              -20.4182353
            ],
            [
              -41.0834143,
              -20.4185696
            ],
            [
              -41.0831487,
              -20.4185532
            ],
            [
              -41.0825399,
              -20.4185621
            ],
            [
              -41.0825439,
              -20.4183119
            ],
            [
              -41.0827866,
              -20.4183056
            ],
            [
              -41.0828266,
              -20.4180632
            ],
            [
              -41.0831836,
              -20.4181284
            ],
            [
              -41.0835658,
              -20.4182353
            ]
          ]
        ]
      }
    },
    {
      "type": "Feature",
      "id": "way/361771354",
      "properties": {
        "timestamp": "2015-07-22T17:46:46Z",
        "version": 1,
        "changeset": 32807926,
        "addr:city": "Venda Nova do Imigrante",
        "addr:housename": "Escola Municipal de Educação Infantil Vovó Helena Sossai",
        "addr:postcode": "29375000",
        "addr:street": "Rua Giobbe Zandonadi",
        "amenity": "school",
        "name": "Escola Municipal de Educação Infantil Vovó Helena Sossai",
        "id": "way/361771354"
      },
      "geometry": {
        "type": "Polygon",
        "coordinates": [
          [
            [
              -41.1350134,
              -20.3241689
            ],
            [
              -41.1350547,
              -20.3245217
            ],
            [
              -41.1348133,
              -20.3245544
            ],
            [
              -41.1347817,
              -20.3242001
            ],
            [
              -41.1350134,
              -20.3241689
            ]
          ]
        ]
      }
    },
    {
      "type": "Feature",
      "id": "node/2412337066",
      "properties": {
        "timestamp": "2019-07-11T17:33:19Z",
        "version": 5,
        "changeset": 72146221,
        "IJSN:administra": "Estadual",
        "IJSN:classeCnae": "Fundamental e Médio",
        "addr:city": "Venda Nova do Imigrante",
        "addr:housename": "Escola Estadual de Ensino Fundamental e Médio Fioravante Caliman",
        "addr:postcode": "29375-000",
        "addr:street": "Avenida Evandi Américo Comarela",
        "addr:suburb": "Santa Cruz",
        "alt_name": "Escola Estadual de Ensino Fundamental e Médio",
        "amenity": "school",
        "contact:phone": "+55 28 3546-2511",
        "name": "EEEFM Fioravante Caliman",
        "source": "IJSN",
        "id": "node/2412337066"
      },
      "geometry": {
        "type": "Point",
        "coordinates": [
          -41.1333975,
          -20.3283623
        ]
      }
    },
    {
      "type": "Feature",
      "id": "node/4024904418",
      "properties": {
        "timestamp": "2016-02-25T01:59:17Z",
        "version": 1,
        "changeset": 37426154,
        "IJSN:administra": "Privada",
        "IJSN:classeCnae": "Infantil e Fundamental",
        "addr:city": "Venda Nova do Imigrante",
        "addr:housenumber": "26",
        "addr:postcode": "29375-000",
        "addr:street": "Rua das Paineiras",
        "addr:suburb": "Vila Betânea",
        "alt_name": "Centro Educacional e Cultura Saber",
        "amenity": "school",
        "contact:phone": "(28) 3546-2033",
        "name": "COOPEDUCAR Centro Educacional e Cultura Saber",
        "source": "IJSN",
        "id": "node/4024904418"
      },
      "geometry": {
        "type": "Point",
        "coordinates": [
          -41.1365676,
          -20.3209734
        ]
      }
    },
    {
      "type": "Feature",
      "id": "node/4024904450",
      "properties": {
        "timestamp": "2016-02-25T01:59:23Z",
        "version": 1,
        "changeset": 37426154,
        "IJSN:administra": "Estadual",
        "IJSN:classeCnae": "Fundamental",
        "addr:city": "Venda Nova do Imigrante",
        "addr:housenumber": "134",
        "addr:postcode": "29375-000",
        "addr:street": "Rua La Ville",
        "addr:suburb": "30 de Dezembro",
        "alt_name": "Escola Estadual de Ensino Fundamental",
        "amenity": "school",
        "contact:phone": "(28) 3546-1608",
        "name": "EEEF Domingos Perim",
        "source": "IJSN",
        "id": "node/4024904450"
      },
      "geometry": {
        "type": "Point",
        "coordinates": [
          -41.1317185,
          -20.3350105
        ]
      }
    },
    {
      "type": "Feature",
      "id": "node/4024905266",
      "properties": {
        "timestamp": "2016-02-25T02:00:15Z",
        "version": 1,
        "changeset": 37426154,
        "IJSN:administra": "Municipal",
        "IJSN:classeCnae": "Fundamental",
        "addr:city": "Venda Nova do Imigrante",
        "addr:postcode": "29378-000",
        "addr:street": "Avenida Vinte e Quatro de Junho",
        "addr:suburb": "São João de Viçosa",
        "alt_name": "Escola Municipal de Ensino Fundamental",
        "amenity": "school",
        "contact:phone": "(28) 3546-6451",
        "name": "EMEF Atílio Pizzol",
        "source": "IJSN",
        "id": "node/4024905266"
      },
      "geometry": {
        "type": "Point",
        "coordinates": [
          -41.1852813,
          -20.3371577
        ]
      }
    },
    {
      "type": "Feature",
      "id": "node/4024905929",
      "properties": {
        "timestamp": "2016-02-25T02:01:16Z",
        "version": 1,
        "changeset": 37426154,
        "IJSN:administra": "Municipal",
        "IJSN:classeCnae": "Infantil e Fundamental",
        "addr:city": "Venda Nova do Imigrante",
        "addr:postcode": "29375-000",
        "addr:suburb": "Comunidade Pindobas",
        "alt_name": "Escola Municipal de Ensino Infantil e Fundamental",
        "amenity": "school",
        "contact:phone": "(28) 3546-6104",
        "name": "EMEIEF Pindobas",
        "source": "IJSN",
        "id": "node/4024905929"
      },
      "geometry": {
        "type": "Point",
        "coordinates": [
          -41.1444488,
          -20.3960311
        ]
      }
    },
    {
      "type": "Feature",
      "id": "node/4024906957",
      "properties": {
        "timestamp": "2016-02-25T02:02:52Z",
        "version": 1,
        "changeset": 37426154,
        "IJSN:administra": "Privada",
        "IJSN:classeCnae": "Infantil e Fundamental",
        "addr:city": "Venda Nova do Imigrante",
        "addr:housenumber": "99",
        "addr:postcode": "29375-000",
        "addr:street": "Rua dos Antúrios",
        "addr:suburb": "Vila da Mata",
        "alt_name": "Escola Fundação",
        "amenity": "school",
        "contact:phone": "(28) 3546-1919",
        "name": "Escola Fundação Deolindo Perim",
        "source": "IJSN",
        "id": "node/4024906957"
      },
      "geometry": {
        "type": "Point",
        "coordinates": [
          -41.1341655,
          -20.3382377
        ]
      }
    }
  ]
}
