{
  "type": "FeatureCollection",
  "features": [
    {
      "type": "Feature",
      "id": "way/628816235",
      "properties": {
        "timestamp": "2021-12-27T16:00:21Z",
        "version": 5,
        "changeset": 115433137,
        "addr:city": "Venda Nova do Imigrante",
        "addr:postcode": "29375-000",
        "addr:street": "Avenida Elizabeth Minete Perim",
        "addr:suburb": "São Rafael",
        "amenity": "university",
        "name": "IFES - Campus Venda Nova do Imigrante",
        "operator": "Instituto Federal do Espírito Santo",
        "operator:type": "public",
        "phone": "+55 28 3546 8600",
        "short_name": "IFES",
        "website": "https://vendanova.ifes.edu.br/",
        "id": "way/628816235"
      },
      "geometry": {
        "type": "Polygon",
        "coordinates": [
          [
            [
              -41.128386,
              -20.326767
            ],
            [
              -41.12799,
              -20.3271584
            ],
            [
              -41.1272054,
              -20.3274224
            ],
            [
              -41.1260946,
              -20.3273858
            ],
            [
              -41.1261001,
              -20.3267692
            ],
            [
              -41.1275644,
              -20.3248812
            ],
            [
              -41.1277486,
              -20.3250263
            ],
            [
              -41.1278723,
              -20.3251555
            ],
            [
              -41.127954,
              -20.3253629
            ],
            [
              -41.1280078,
              -20.3255781
            ],
            [
              -41.1280008,
              -20.3259328
            ],
            [
              -41.1280078,
              -20.3263116
            ],
            [
              -41.127919,
              -20.326386
            ],
            [
              -41.1280849,
              -20.3265305
            ],
            [
              -41.128386,
              -20.326767
            ]
          ]
        ]
      }
    },
    {
      "type": "Feature",
      "id": "node/9530546138",
      "properties": {
        "timestamp": "2022-02-23T18:04:46Z",
        "version": 1,
        "changeset": 117781830,
        "addr:city": "Venda Nova do Imigrante",
        "addr:housenumber": "888",
        "addr:postcode": "29375-000",
        "addr:street": "Avenida Ângelo Altoé",
        "addr:suburb": "Santa Cruz",
        "amenity": "university",
        "email": "sac@posgraduacaofaveni.com.br",
        "name": "Faculdade Venda Nova do Imigrante - Faveni",
        "phone": "0800 591 0700",
        "website": "https://faveni.edu.br/",
        "id": "node/9530546138"
      },
      "geometry": {
        "type": "Point",
        "coordinates": [
          -41.1334594,
          -20.3266873
        ]
      }
    }
  ]
}
