{
  "type": "FeatureCollection",
  "features": [
    {
      "type": "Feature",
      "id": "node/3919483398",
      "properties": {
        "timestamp": "2015-12-30T22:32:00Z",
        "version": 1,
        "changeset": 36272852,
        "addr:city": "Araguari",
        "addr:housenumber": "147",
        "addr:street": "Rua Uberaba",
        "addr:suburb": "Centro",
        "name": "Hotel It√°lia de Araguari",
        "tourism": "hotel",
        "id": "node/3919483398"
      },
      "geometry": {
        "type": "Point",
        "coordinates": [
          -48.1910731,
          -18.6542815
        ]
      }
    },
    {
      "type": "Feature",
      "id": "node/3919494215",
      "properties": {
        "timestamp": "2016-03-13T21:07:34Z",
        "version": 2,
        "changeset": 37805986,
        "addr:city": "Araguari",
        "addr:country": "BR",
        "addr:housenumber": "45",
        "addr:state": "Minas Gerais",
        "addr:street": "Rua Marciano Santos",
        "addr:suburb": "Centro",
        "name": "Big Hotel",
        "tourism": "hotel",
        "id": "node/3919494215"
      },
      "geometry": {
        "type": "Point",
        "coordinates": [
          -48.1907997,
          -18.6528722
        ]
      }
    },
    {
      "type": "Feature",
      "id": "node/3925546015",
      "properties": {
        "timestamp": "2016-01-03T15:27:51Z",
        "version": 1,
        "changeset": 36340426,
        "name": "Palace Hotel",
        "tourism": "hotel",
        "id": "node/3925546015"
      },
      "geometry": {
        "type": "Point",
        "coordinates": [
          -48.190667,
          -18.6485414
        ]
      }
    },
    {
      "type": "Feature",
      "id": "node/5048662923",
      "properties": {
        "timestamp": "2017-08-21T15:49:23Z",
        "version": 1,
        "changeset": 51310491,
        "name": "Motel",
        "tourism": "hotel",
        "id": "node/5048662923"
      },
      "geometry": {
        "type": "Point",
        "coordinates": [
          -48.2227773,
          -18.6400628
        ]
      }
    }
  ]
}
