{
  "type": "FeatureCollection",
  "features": [
    {
      "type": "Feature",
      "id": "node/5702991555",
      "properties": {
        "timestamp": "2018-06-19T17:36:16Z",
        "version": 1,
        "changeset": 59985947,
        "addr:city": "Itamarati de Minas",
        "addr:street": "Rua 1º de março",
        "addr:suburb": "Centro",
        "amenity": "school",
        "name": "Grupo Escolar Pedro Furtado",
        "id": "node/5702991555"
      },
      "geometry": {
        "type": "Point",
        "coordinates": [
          -42.8167776,
          -21.4174447
        ]
      }
    },
    {
      "type": "Feature",
      "id": "node/5702996253",
      "properties": {
        "timestamp": "2018-08-12T23:48:02Z",
        "version": 2,
        "changeset": 61603789,
        "addr:city": "Itamarati de Minas",
        "addr:housenumber": "439",
        "addr:street": "Avenida Coronel Araújo Porto",
        "addr:suburb": "Centro",
        "amenity": "school",
        "contact:phone": "+55 32 34521222",
        "name": "Escola Estadual Isa Moraes Freitas",
        "source": "IBGE; Cadastro Escolar MG",
        "id": "node/5702996253"
      },
      "geometry": {
        "type": "Point",
        "coordinates": [
          -42.818623,
          -21.4178942
        ]
      }
    }
  ]
}
