{
  "type": "FeatureCollection",
  "features": [
    {
      "type": "Feature",
      "id": "node/6436179805",
      "properties": {
        "timestamp": "2019-04-29T13:25:37Z",
        "version": 1,
        "changeset": 69696205,
        "addr:city": "Leandro Ferreira",
        "addr:postcode": "35657000",
        "addr:street": "Avenida Dona Isabel",
        "addr:suburb": "Centro",
        "amenity": "pharmacy",
        "dispensing": "yes",
        "healthcare": "pharmacy",
        "name": "Farmácia  Prade Libério",
        "id": "node/6436179805"
      },
      "geometry": {
        "type": "Point",
        "coordinates": [
          -45.0229142,
          -19.716503
        ]
      }
    },
    {
      "type": "Feature",
      "id": "node/6436259730",
      "properties": {
        "timestamp": "2019-04-29T13:59:36Z",
        "version": 1,
        "changeset": 69697488,
        "addr:city": "Leandro Ferreira",
        "addr:postcode": "35657000",
        "addr:street": "Av Padre Libério",
        "addr:suburb": "Centro",
        "amenity": "pharmacy",
        "dispensing": "yes",
        "healthcare": "pharmacy",
        "name": "Drogaria Padre Liberio",
        "id": "node/6436259730"
      },
      "geometry": {
        "type": "Point",
        "coordinates": [
          -45.0241954,
          -19.7160215
        ]
      }
    }
  ]
}
