{
  "type": "FeatureCollection",
  "features": [
    {
      "type": "Feature",
      "id": "way/681509621",
      "properties": {
        "timestamp": "2019-04-04T01:05:32Z",
        "version": 1,
        "changeset": 68862270,
        "addr:city": "Leandro Ferreira",
        "addr:postcode": "35657000",
        "addr:street": "Praça São Sebastião",
        "addr:suburb": "Centro",
        "amenity": "social_facility",
        "building": "yes",
        "name": "Asilo Padre Libério",
        "social_facility": "group_home",
        "social_facility:for": "senior",
        "wheelchair": "yes",
        "id": "way/681509621"
      },
      "geometry": {
        "type": "Polygon",
        "coordinates": [
          [
            [
              -45.0246588,
              -19.7177976
            ],
            [
              -45.0245077,
              -19.7178927
            ],
            [
              -45.0243272,
              -19.7177128
            ],
            [
              -45.0244996,
              -19.7175977
            ],
            [
              -45.0245396,
              -19.7176428
            ],
            [
              -45.0246588,
              -19.7177976
            ]
          ]
        ]
      }
    },
    {
      "type": "Feature",
      "id": "way/686644598",
      "properties": {
        "timestamp": "2019-04-29T13:25:38Z",
        "version": 1,
        "changeset": 69696205,
        "addr:city": "Leandro Ferreira",
        "addr:postcode": "35657000",
        "addr:street": "R. Jesus Rabelo",
        "addr:suburb": "Centro",
        "amenity": "social_facility",
        "building": "yes",
        "name": "CRAS",
        "id": "way/686644598"
      },
      "geometry": {
        "type": "Polygon",
        "coordinates": [
          [
            [
              -45.0243144,
              -19.7141693
            ],
            [
              -45.0243185,
              -19.7142854
            ],
            [
              -45.0242125,
              -19.7142867
            ],
            [
              -45.0242071,
              -19.7141693
            ],
            [
              -45.0243144,
              -19.7141693
            ]
          ]
        ]
      }
    }
  ]
}
