{
  "type": "FeatureCollection",
  "features": [
    {
      "type": "Feature",
      "id": "way/1374994643",
      "properties": {
        "timestamp": "2025-04-07T10:25:17Z",
        "version": 3,
        "changeset": 164626936,
        "addr:city": "Panorama",
        "addr:housenumber": "364",
        "addr:street": "Rodovia Comandante João Ribeiro de Barros",
        "addr:suburb": "Marrecas",
        "amenity": "dentist",
        "building": "yes",
        "healthcare": "dentist",
        "name": "Consultório Odontológico",
        "operator": "Dr.Paula P. GarçãoBeverari - CRO/100 286",
        "roof:colour": "brown",
        "roof:material": "tiles",
        "roof:shape": "gabled",
        "id": "way/1374994643"
      },
      "geometry": {
        "type": "Polygon",
        "coordinates": [
          [
            [
              -51.855984,
              -21.3529809
            ],
            [
              -51.8558885,
              -21.3529192
            ],
            [
              -51.8560394,
              -21.3528491
            ],
            [
              -51.8560606,
              -21.3528843
            ],
            [
              -51.856095,
              -21.3528647
            ],
            [
              -51.8561456,
              -21.3529042
            ],
            [
              -51.855984,
              -21.3529809
            ]
          ]
        ]
      }
    },
    {
      "type": "Feature",
      "id": "way/1375025198",
      "properties": {
        "timestamp": "2025-04-07T10:21:28Z",
        "version": 2,
        "changeset": 164626775,
        "addr:city": "Panorama",
        "addr:housenumber": "640",
        "addr:street": "Rua Paulo de Arruda Mendes",
        "addr:suburb": "Marrecas",
        "amenity": "dentist",
        "building": "yes",
        "healthcare": "dentist",
        "name": "Cedroni Odontologia",
        "operator": "Dr. Cláudio Roberto Cedroni",
        "roof:colour": "brown",
        "roof:material": "tiles",
        "roof:shape": "gabled",
        "id": "way/1375025198"
      },
      "geometry": {
        "type": "Polygon",
        "coordinates": [
          [
            [
              -51.854194,
              -21.3543551
            ],
            [
              -51.854233,
              -21.3544326
            ],
            [
              -51.8541573,
              -21.3544656
            ],
            [
              -51.8541183,
              -21.3543881
            ],
            [
              -51.854194,
              -21.3543551
            ]
          ]
        ]
      }
    },
    {
      "type": "Feature",
      "id": "way/1377000923",
      "properties": {
        "timestamp": "2025-04-12T15:34:57Z",
        "version": 1,
        "changeset": 164861290,
        "addr:city": "Panorama",
        "addr:housenumber": "2079",
        "addr:street": "Avenida Rodion Podolsky",
        "addr:suburb": "Porto",
        "amenity": "dentist",
        "building": "yes",
        "healthcare": "dentist",
        "healthcare:speciality": "orthodontics",
        "name": "GOU Odonto",
        "operator": "GOU Odonto",
        "phone": "+55 18 3871-4196",
        "roof:colour": "brown",
        "roof:material": "tiles",
        "roof:shape": "hipped",
        "id": "way/1377000923"
      },
      "geometry": {
        "type": "Polygon",
        "coordinates": [
          [
            [
              -51.8592517,
              -21.3549935
            ],
            [
              -51.8593069,
              -21.3549704
            ],
            [
              -51.8593162,
              -21.3549899
            ],
            [
              -51.8593614,
              -21.354971
            ],
            [
              -51.8593914,
              -21.3550334
            ],
            [
              -51.8593538,
              -21.3550491
            ],
            [
              -51.8593574,
              -21.3550736
            ],
            [
              -51.8593015,
              -21.3550969
            ],
            [
              -51.8592517,
              -21.3549935
            ]
          ]
        ]
      }
    }
  ]
}
