{
  "type": "FeatureCollection",
  "features": [
    {
      "type": "Feature",
      "id": "way/1318984021",
      "properties": {
        "timestamp": "2024-10-04T21:00:37Z",
        "version": 2,
        "changeset": 157477915,
        "addr:city": "Panorama",
        "addr:street": "Rua Anália Gonçalves da Costa",
        "addr:suburb": "Nosso Teto",
        "building": "yes",
        "government": "public_service",
        "name": "Vigilância Epidemiológica",
        "office": "government",
        "id": "way/1318984021"
      },
      "geometry": {
        "type": "Polygon",
        "coordinates": [
          [
            [
              -51.8521097,
              -21.3640891
            ],
            [
              -51.8521992,
              -21.3642472
            ],
            [
              -51.8520162,
              -21.3644137
            ],
            [
              -51.851879,
              -21.3640844
            ],
            [
              -51.8519532,
              -21.3640569
            ],
            [
              -51.852003,
              -21.3641374
            ],
            [
              -51.8521097,
              -21.3640891
            ]
          ]
        ]
      }
    },
    {
      "type": "Feature",
      "id": "way/1344045616",
      "properties": {
        "timestamp": "2024-12-20T10:55:53Z",
        "version": 3,
        "changeset": 160427813,
        "addr:city": "Panorama",
        "addr:housenumber": "417",
        "addr:street": "Avenida Prestes Maia",
        "addr:suburb": "Aeroporto",
        "building": "yes",
        "government": "transportation",
        "name": "DETRAN",
        "office": "government",
        "website": "https://www.detran.sp.gov.br/wps/portal/portaldetran/cidadao/home",
        "id": "way/1344045616"
      },
      "geometry": {
        "type": "Polygon",
        "coordinates": [
          [
            [
              -51.8629143,
              -21.3721386
            ],
            [
              -51.8629726,
              -21.3722504
            ],
            [
              -51.8628081,
              -21.3723248
            ],
            [
              -51.8627498,
              -21.372213
            ],
            [
              -51.8629143,
              -21.3721386
            ]
          ]
        ]
      }
    },
    {
      "type": "Feature",
      "id": "way/1344047751",
      "properties": {
        "timestamp": "2024-12-20T10:52:11Z",
        "version": 1,
        "changeset": 160427683,
        "addr:city": "Panorama",
        "addr:housenumber": "1105",
        "addr:street": "Avenida Prestes Maia",
        "addr:suburb": "Ginásio",
        "building": "yes",
        "government": "transportation",
        "name": "Psicologia do Trânsito - DETRAN",
        "office": "government",
        "phone": "+55 18 3871 4160",
        "id": "way/1344047751"
      },
      "geometry": {
        "type": "Polygon",
        "coordinates": [
          [
            [
              -51.859889,
              -21.365827
            ],
            [
              -51.859936,
              -21.3659231
            ],
            [
              -51.8598017,
              -21.3659801
            ],
            [
              -51.859789,
              -21.3659541
            ],
            [
              -51.8597672,
              -21.3659634
            ],
            [
              -51.8597322,
              -21.365892
            ],
            [
              -51.8597665,
              -21.3658774
            ],
            [
              -51.8597771,
              -21.365899
            ],
            [
              -51.8598358,
              -21.365874
            ],
            [
              -51.8598259,
              -21.3658538
            ],
            [
              -51.859889,
              -21.365827
            ]
          ]
        ]
      }
    },
    {
      "type": "Feature",
      "id": "way/1344048518",
      "properties": {
        "timestamp": "2024-12-20T10:55:24Z",
        "version": 1,
        "changeset": 160427795,
        "addr:city": "Panorama",
        "addr:housenumber": "1932",
        "addr:street": "Avenida Prestes Maia",
        "addr:suburb": "Centro",
        "building": "yes",
        "government": "transportation",
        "name": "Médico do Trânsito - DETRAN",
        "office": "government",
        "phone": "+55 18 99747 2464",
        "id": "way/1344048518"
      },
      "geometry": {
        "type": "Polygon",
        "coordinates": [
          [
            [
              -51.8558789,
              -21.3594512
            ],
            [
              -51.856014,
              -21.3593979
            ],
            [
              -51.8560234,
              -21.3594186
            ],
            [
              -51.8560758,
              -21.3593979
            ],
            [
              -51.8561095,
              -21.3594718
            ],
            [
              -51.855922,
              -21.3595458
            ],
            [
              -51.8558789,
              -21.3594512
            ]
          ]
        ]
      }
    },
    {
      "type": "Feature",
      "id": "way/1375367666",
      "properties": {
        "timestamp": "2025-04-06T18:08:11Z",
        "version": 1,
        "changeset": 164603696,
        "addr:city": "Panorama",
        "addr:housenumber": "2314",
        "addr:street": "Avenida Rodion Podolsky",
        "addr:suburb": "Marrecas",
        "building": "yes",
        "government": "administrative",
        "name": "Secretaria Municipal de Meio Ambiente",
        "office": "government",
        "opening_hours": "Mo-Fr 07:30-17:00",
        "phone": "+55 18 3871-1331",
        "website": "https://www.panorama.sp.gov.br/?pag=T1RjPU9EZz1PVFU9T0dVPU9HST1PVEE9T0dFPU9HRT0=&idmenu=229",
        "id": "way/1375367666"
      },
      "geometry": {
        "type": "Polygon",
        "coordinates": [
          [
            [
              -51.8578598,
              -21.3533226
            ],
            [
              -51.8580709,
              -21.3532256
            ],
            [
              -51.8581156,
              -21.3533101
            ],
            [
              -51.8579045,
              -21.353407
            ],
            [
              -51.8578598,
              -21.3533226
            ]
          ]
        ]
      }
    }
  ]
}
