{
  "type": "FeatureCollection",
  "features": [
    {
      "type": "Feature",
      "id": "way/974675781",
      "properties": {
        "timestamp": "2021-08-19T14:16:16Z",
        "version": 1,
        "changeset": 109937805,
        "addr:city": "Açailândia",
        "addr:postcode": "65930-000",
        "addr:suburb": "Jardim Gloria",
        "amenity": "college",
        "name": "IEMA",
        "phone": "+55 99 9 9144 8163",
        "id": "way/974675781"
      },
      "geometry": {
        "type": "Polygon",
        "coordinates": [
          [
            [
              -47.4899687,
              -4.9634145
            ],
            [
              -47.4907542,
              -4.9629124
            ],
            [
              -47.4913927,
              -4.9639038
            ],
            [
              -47.4906071,
              -4.964406
            ],
            [
              -47.4899687,
              -4.9634145
            ]
          ]
        ]
      }
    },
    {
      "type": "Feature",
      "id": "way/974680101",
      "properties": {
        "timestamp": "2021-08-19T14:36:07Z",
        "version": 1,
        "changeset": 109938681,
        "addr:city": "Açailândia",
        "addr:postcode": "65930-000",
        "addr:street": "Rua Doutor Luís Alfredo Ribeiro",
        "addr:suburb": "Vila Bom Jardim",
        "amenity": "college",
        "name": "SENAI",
        "phone": "+55 99 3538 4089",
        "id": "way/974680101"
      },
      "geometry": {
        "type": "Polygon",
        "coordinates": [
          [
            [
              -47.4935304,
              -4.9354301
            ],
            [
              -47.4916233,
              -4.936646
            ],
            [
              -47.4910922,
              -4.9357962
            ],
            [
              -47.4929993,
              -4.9345777
            ],
            [
              -47.4935304,
              -4.9354301
            ]
          ]
        ]
      }
    },
    {
      "type": "Feature",
      "id": "way/974772507",
      "properties": {
        "timestamp": "2021-08-19T17:19:28Z",
        "version": 1,
        "changeset": 109945877,
        "addr:city": "Açailândia",
        "addr:postcode": "65930-000",
        "amenity": "college",
        "name": "IFMA",
        "phone": "+55 99 3538 4118",
        "id": "way/974772507"
      },
      "geometry": {
        "type": "Polygon",
        "coordinates": [
          [
            [
              -47.4803661,
              -4.9520995
            ],
            [
              -47.4792637,
              -4.9531256
            ],
            [
              -47.4784403,
              -4.952634
            ],
            [
              -47.4791591,
              -4.9514101
            ],
            [
              -47.4803661,
              -4.9520995
            ]
          ]
        ]
      }
    }
  ]
}
