{
  "type": "FeatureCollection",
  "features": [
    {
      "type": "Feature",
      "id": "way/974774337",
      "properties": {
        "timestamp": "2021-08-19T17:28:03Z",
        "version": 1,
        "changeset": 109946240,
        "addr:city": "Açailândia - MA,",
        "addr:housenumber": "100",
        "addr:postcode": "65930-000",
        "addr:street": "Rua Topázio",
        "addr:suburb": "Vila São Francisco",
        "amenity": "university",
        "name": "UEMASUL - Universidade Estadual da Região Tocantina do Maranhão (Campus Açailândia)",
        "id": "way/974774337"
      },
      "geometry": {
        "type": "Polygon",
        "coordinates": [
          [
            [
              -47.4792758,
              -4.9440933
            ],
            [
              -47.4790268,
              -4.9445412
            ],
            [
              -47.477669,
              -4.9438139
            ],
            [
              -47.477929,
              -4.9433604
            ],
            [
              -47.4792758,
              -4.9440933
            ]
          ]
        ]
      }
    }
  ]
}
