{
  "type": "FeatureCollection",
  "features": [
    {
      "type": "Feature",
      "id": "node/12652841936",
      "properties": {
        "timestamp": "2025-03-12T13:57:38Z",
        "version": 2,
        "changeset": 163529289,
        "addr:city": "Nossa Senhora da Glória",
        "addr:country": "BR",
        "addr:housenumber": "147",
        "addr:postcode": "49680-000",
        "addr:street": "Rua Manoel Bezerra Lemos",
        "addr:suburb": "Divinéia",
        "government": "education",
        "name": "Diretoria Regional de Educação Nove",
        "office": "government",
        "operator": "Secretaria de Educação do Estado de Sergipe",
        "id": "node/12652841936"
      },
      "geometry": {
        "type": "Point",
        "coordinates": [
          -37.4243267,
          -10.222067
        ]
      }
    },
    {
      "type": "Feature",
      "id": "node/12699019233",
      "properties": {
        "timestamp": "2025-03-25T14:31:58Z",
        "version": 1,
        "changeset": 164080129,
        "addr:city": "Nossa Senhora da Glória",
        "addr:housenumber": "362",
        "addr:postcode": "49680-000",
        "addr:street": "Rua Castelo Branco",
        "addr:suburb": "Novo Horizonte",
        "email": "aps22001100@inss.gov.br",
        "government": "social_security",
        "name": "Agência da PrevidÊncia Social em Nossa Senhora da Glória",
        "office": "government",
        "operator": "Instituto Nacional do Seguro Social",
        "operator:short": "INSS",
        "operator:wikidata": "Q10302614",
        "id": "node/12699019233"
      },
      "geometry": {
        "type": "Point",
        "coordinates": [
          -37.4265171,
          -10.2140617
        ]
      }
    },
    {
      "type": "Feature",
      "id": "node/12700498157",
      "properties": {
        "timestamp": "2025-03-25T20:54:25Z",
        "version": 1,
        "changeset": 164096847,
        "addr:city": "Nossa Senhora da Glória",
        "addr:housenumber": "228",
        "addr:postcode": "49680-000",
        "addr:street": "Rua Antônio Joaquim Farias",
        "addr:suburb": "Centro",
        "alt_name": "Gedre 3 - Nossa Senhora da Glória",
        "email": "edson.barreto@der.se.gov.br",
        "government": "transportation",
        "name": "Gerência Executiva de Distrito Rodoviário Três - Nossa Senhora da Glória",
        "office": "government",
        "operator": "Departamento Estadual de Infraestrutura Rodoviária de Sergipe – DER/SEDer Sergipe",
        "phone": "+55 79 3253 2900",
        "id": "node/12700498157"
      },
      "geometry": {
        "type": "Point",
        "coordinates": [
          -37.4246108,
          -10.2201371
        ]
      }
    }
  ]
}
