{
  "type": "FeatureCollection",
  "features": [
    {
      "type": "Feature",
      "id": "node/11267873094",
      "properties": {
        "timestamp": "2023-10-16T20:47:30Z",
        "version": 1,
        "changeset": 142683697,
        "addr:city": "Itarantim",
        "addr:postcode": "45780-000",
        "addr:street": "Avenida Tancredo Neves",
        "addr:suburb": "Nova Esperança",
        "amenity": "school",
        "name": "Centro Educacional Municipal Lourival Souto",
        "id": "node/11267873094"
      },
      "geometry": {
        "type": "Point",
        "coordinates": [
          -40.0602996,
          -15.6521538
        ]
      }
    },
    {
      "type": "Feature",
      "id": "node/11267895666",
      "properties": {
        "timestamp": "2023-10-16T21:28:15Z",
        "version": 1,
        "changeset": 142684658,
        "addr:city": "Itarantim",
        "addr:postcode": "45780-000",
        "addr:street": "Travessa Afranio Ferraz",
        "addr:suburb": "Centro",
        "amenity": "school",
        "name": "Colégio Estadual Naomar Soares Alcântara",
        "operator": "Governo da Bahia",
        "operator:type": "public",
        "id": "node/11267895666"
      },
      "geometry": {
        "type": "Point",
        "coordinates": [
          -40.0651011,
          -15.6562537
        ]
      }
    },
    {
      "type": "Feature",
      "id": "node/11268024596",
      "properties": {
        "timestamp": "2023-10-16T21:28:15Z",
        "version": 1,
        "changeset": 142684658,
        "addr:city": "Itarantim",
        "addr:postcode": "45780-000",
        "addr:street": "Praça Luiz Viana Filho",
        "addr:suburb": "Centro",
        "amenity": "school",
        "name": "Grupo Escola Luiz Braga",
        "phone": "+55 73 3266 2110",
        "id": "node/11268024596"
      },
      "geometry": {
        "type": "Point",
        "coordinates": [
          -40.0643011,
          -15.6569012
        ]
      }
    },
    {
      "type": "Feature",
      "id": "node/11268024597",
      "properties": {
        "timestamp": "2023-10-16T21:28:15Z",
        "version": 1,
        "changeset": 142684658,
        "addr:city": "Itarantim",
        "addr:postcode": "45780-000",
        "addr:street": "Praça Luiz Viana Filho",
        "addr:suburb": "Centro",
        "amenity": "school",
        "name": "Escola Municipal Doutor Luiz Rogério",
        "id": "node/11268024597"
      },
      "geometry": {
        "type": "Point",
        "coordinates": [
          -40.0642058,
          -15.6565612
        ]
      }
    },
    {
      "type": "Feature",
      "id": "node/11268024598",
      "properties": {
        "timestamp": "2023-10-16T21:28:15Z",
        "version": 1,
        "changeset": 142684658,
        "addr:city": "Itarantim",
        "addr:postcode": "45780-000",
        "addr:street": "Avenida Rui Barbosa",
        "addr:suburb": "Centro",
        "amenity": "school",
        "name": "Grupo Escolar Cleriston Andrade",
        "id": "node/11268024598"
      },
      "geometry": {
        "type": "Point",
        "coordinates": [
          -40.0627866,
          -15.6567453
        ]
      }
    },
    {
      "type": "Feature",
      "id": "node/11268024599",
      "properties": {
        "timestamp": "2023-10-16T21:28:15Z",
        "version": 1,
        "changeset": 142684658,
        "addr:city": "Itarantim",
        "addr:housenumber": "915",
        "addr:postcode": "45780-000",
        "addr:street": "Rua Professor Estevão Araujo",
        "addr:suburb": "Centro",
        "amenity": "school",
        "name": "Instituto Educacional Kiarelly",
        "id": "node/11268024599"
      },
      "geometry": {
        "type": "Point",
        "coordinates": [
          -40.0612683,
          -15.6567214
        ]
      }
    }
  ]
}
