{
  "type": "FeatureCollection",
  "features": [
    {
      "type": "Feature",
      "id": "way/681305599",
      "properties": {
        "timestamp": "2022-02-07T17:34:05Z",
        "version": 3,
        "changeset": 117129065,
        "addr:city": "São Pedro do Piauí",
        "addr:housenumber": "546",
        "addr:postcode": "64430-000",
        "addr:street": "Rua dos Esportes",
        "addr:suburb": "Betel",
        "amenity": "school",
        "name": "Colégio Municipal Davina Veloso",
        "id": "way/681305599"
      },
      "geometry": {
        "type": "Polygon",
        "coordinates": [
          [
            [
              -42.7218996,
              -5.9255117
            ],
            [
              -42.7219422,
              -5.925903
            ],
            [
              -42.7216887,
              -5.9259304
            ],
            [
              -42.721646,
              -5.925539
            ],
            [
              -42.7218996,
              -5.9255117
            ]
          ]
        ]
      }
    },
    {
      "type": "Feature",
      "id": "way/681306949",
      "properties": {
        "timestamp": "2022-02-07T17:33:14Z",
        "version": 3,
        "changeset": 117129018,
        "addr:city": "São Pedro do Piauí",
        "addr:housenumber": "477",
        "addr:postcode": "64430-000",
        "addr:street": "Avenida Presidente Vargas",
        "addr:suburb": "Centro",
        "amenity": "school",
        "name": "Unidade Escolar Landri Sales",
        "phone": "+55 86 3280 1574",
        "id": "way/681306949"
      },
      "geometry": {
        "type": "Polygon",
        "coordinates": [
          [
            [
              -42.7210194,
              -5.9275997
            ],
            [
              -42.7210409,
              -5.9279069
            ],
            [
              -42.720248,
              -5.9279607
            ],
            [
              -42.720243,
              -5.9276618
            ],
            [
              -42.7210194,
              -5.9275997
            ]
          ]
        ]
      }
    },
    {
      "type": "Feature",
      "id": "way/1029046636",
      "properties": {
        "timestamp": "2022-02-07T17:29:54Z",
        "version": 1,
        "changeset": 117128870,
        "addr:city": "São Pedro do Piauí",
        "addr:postcode": "64430-000",
        "addr:street": "Rua Paraíba",
        "addr:suburb": "Outro Lado",
        "amenity": "school",
        "name": "Creche Professor Antonio Barbosa Cardoso",
        "id": "way/1029046636"
      },
      "geometry": {
        "type": "Polygon",
        "coordinates": [
          [
            [
              -42.7255572,
              -5.9386057
            ],
            [
              -42.7256518,
              -5.9388743
            ],
            [
              -42.7252649,
              -5.9390342
            ],
            [
              -42.7251587,
              -5.9387236
            ],
            [
              -42.7255572,
              -5.9386057
            ]
          ]
        ]
      }
    },
    {
      "type": "Feature",
      "id": "way/1029070965",
      "properties": {
        "timestamp": "2022-02-07T18:59:06Z",
        "version": 1,
        "changeset": 117131875,
        "addr:city": "São Pedro do Piauí",
        "addr:postcode": "64430-000",
        "addr:street": "Rua Osvaldo Cruz",
        "addr:suburb": "Mutirão",
        "amenity": "school",
        "name": "Centro De Ens Inf Professora Osvaldina De S Lima",
        "id": "way/1029070965"
      },
      "geometry": {
        "type": "Polygon",
        "coordinates": [
          [
            [
              -42.7168325,
              -5.915636
            ],
            [
              -42.7168193,
              -5.9160688
            ],
            [
              -42.716591,
              -5.9160866
            ],
            [
              -42.7166233,
              -5.9156372
            ],
            [
              -42.7168325,
              -5.915636
            ]
          ]
        ]
      }
    },
    {
      "type": "Feature",
      "id": "way/1029072107",
      "properties": {
        "timestamp": "2022-02-07T19:05:40Z",
        "version": 1,
        "changeset": 117132058,
        "amenity": "school",
        "name": "Unid Esc Profa Benedita Machado",
        "id": "way/1029072107"
      },
      "geometry": {
        "type": "Polygon",
        "coordinates": [
          [
            [
              -42.7378099,
              -5.8032101
            ],
            [
              -42.7377443,
              -5.8037553
            ],
            [
              -42.7373995,
              -5.8036785
            ],
            [
              -42.7374741,
              -5.8031666
            ],
            [
              -42.7378099,
              -5.8032101
            ]
          ]
        ]
      }
    },
    {
      "type": "Feature",
      "id": "node/9466608280",
      "properties": {
        "timestamp": "2022-02-01T17:06:11Z",
        "version": 1,
        "changeset": 116877189,
        "addr:city": "São Pedro do Piauí",
        "addr:housenumber": "580",
        "addr:postcode": "64430-000",
        "addr:street": "Rua Floriano Peixoto",
        "addr:suburb": "Centro",
        "amenity": "school",
        "name": "Centro De Ensino Infantil Professora Dalva Andrade",
        "phone": "+55 86 3280 1200",
        "id": "node/9466608280"
      },
      "geometry": {
        "type": "Point",
        "coordinates": [
          -42.7208532,
          -5.9263146
        ]
      }
    },
    {
      "type": "Feature",
      "id": "node/9487417624",
      "properties": {
        "timestamp": "2022-02-07T17:31:42Z",
        "version": 1,
        "changeset": 117128951,
        "addr:city": "São Pedro do Piauí",
        "addr:housenumber": "265",
        "addr:postcode": "64430-000",
        "addr:street": "Rua Benjamin Constant",
        "addr:suburb": "Centro",
        "amenity": "school",
        "name": "Centro De Atendimento Educacional Especializado Tio Thomas",
        "id": "node/9487417624"
      },
      "geometry": {
        "type": "Point",
        "coordinates": [
          -42.7196006,
          -5.9305338
        ]
      }
    },
    {
      "type": "Feature",
      "id": "node/9487430132",
      "properties": {
        "timestamp": "2022-02-07T17:28:35Z",
        "version": 1,
        "changeset": 117128823,
        "addr:city": "São Pedro do Piauí",
        "addr:housenumber": "61",
        "addr:postcode": "64430-000",
        "addr:street": "Avenida Nascimento",
        "addr:suburb": "Outro Lado",
        "amenity": "school",
        "name": "Unidade Escolar Dr Clovis Alves Pereira",
        "id": "node/9487430132"
      },
      "geometry": {
        "type": "Point",
        "coordinates": [
          -42.7221192,
          -5.9392176
        ]
      }
    },
    {
      "type": "Feature",
      "id": "node/9487608202",
      "properties": {
        "timestamp": "2022-02-07T18:57:29Z",
        "version": 1,
        "changeset": 117131828,
        "amenity": "school",
        "name": "Unid Esc Sao Jose",
        "phone": "+55 86 3280 1122",
        "id": "node/9487608202"
      },
      "geometry": {
        "type": "Point",
        "coordinates": [
          -42.6839192,
          -5.919985
        ]
      }
    },
    {
      "type": "Feature",
      "id": "node/9487618188",
      "properties": {
        "timestamp": "2022-02-07T19:00:43Z",
        "version": 1,
        "changeset": 117131926,
        "amenity": "school",
        "name": "Unid Esc Antonio Alves Da Silva",
        "id": "node/9487618188"
      },
      "geometry": {
        "type": "Point",
        "coordinates": [
          -42.7161969,
          -5.8657358
        ]
      }
    },
    {
      "type": "Feature",
      "id": "node/9487627022",
      "properties": {
        "timestamp": "2022-02-07T19:04:20Z",
        "version": 1,
        "changeset": 117132031,
        "amenity": "school",
        "name": "Unid Esc Antonio Monteiro Oliveira",
        "id": "node/9487627022"
      },
      "geometry": {
        "type": "Point",
        "coordinates": [
          -42.7331968,
          -5.823193
        ]
      }
    },
    {
      "type": "Feature",
      "id": "node/9491055803",
      "properties": {
        "timestamp": "2022-02-08T23:30:45Z",
        "version": 1,
        "changeset": 117180348,
        "amenity": "school",
        "name": "Unidade Escolar Roberto Jose De Santana",
        "id": "node/9491055803"
      },
      "geometry": {
        "type": "Point",
        "coordinates": [
          -42.8779636,
          -5.7367179
        ]
      }
    }
  ]
}
