{
  "type": "FeatureCollection",
  "features": [
    {
      "type": "Feature",
      "id": "node/3962546472",
      "properties": {
        "timestamp": "2021-02-02T03:43:14Z",
        "version": 3,
        "changeset": 98543883,
        "addr:city": "caçapava do sul",
        "addr:housenumber": "1055",
        "addr:postcode": "96570-000",
        "addr:street": "Rua Coronel Coriolano de Castro",
        "addr:suburb": "centro",
        "amenity": "pharmacy",
        "healthcare": "pharmacy",
        "name": "Farmácias Droga Giro - Matriz",
        "opening_hours": "08:00 - 19:30",
        "id": "node/3962546472"
      },
      "geometry": {
        "type": "Point",
        "coordinates": [
          -53.4871703,
          -30.5160801
        ]
      }
    },
    {
      "type": "Feature",
      "id": "node/3962546473",
      "properties": {
        "timestamp": "2021-02-02T03:43:14Z",
        "version": 3,
        "changeset": 98543883,
        "addr:street": "Rua",
        "amenity": "pharmacy",
        "healthcare": "pharmacy",
        "name": "Farmácias Droga Giro - 02",
        "id": "node/3962546473"
      },
      "geometry": {
        "type": "Point",
        "coordinates": [
          -53.4920189,
          -30.5155018
        ]
      }
    },
    {
      "type": "Feature",
      "id": "node/6131286197",
      "properties": {
        "timestamp": "2018-12-11T19:24:28Z",
        "version": 1,
        "changeset": 65386974,
        "amenity": "pharmacy",
        "dispensing": "yes",
        "healthcare": "pharmacy",
        "name": "Farmácia São João",
        "id": "node/6131286197"
      },
      "geometry": {
        "type": "Point",
        "coordinates": [
          -53.4920133,
          -30.5155561
        ]
      }
    },
    {
      "type": "Feature",
      "id": "node/6132573981",
      "properties": {
        "timestamp": "2018-12-17T18:13:36Z",
        "version": 2,
        "changeset": 65558370,
        "amenity": "pharmacy",
        "dispensing": "yes",
        "drive_through": "no",
        "healthcare": "pharmacy",
        "name": "Farmácia Municipal",
        "operator": "Prefeitura Municipal",
        "id": "node/6132573981"
      },
      "geometry": {
        "type": "Point",
        "coordinates": [
          -53.4856118,
          -30.5147759
        ]
      }
    }
  ]
}
