{
  "type": "FeatureCollection",
  "features": [
    {
      "type": "Feature",
      "id": "way/1227224545",
      "properties": {
        "timestamp": "2023-11-30T13:39:45Z",
        "version": 5,
        "changeset": 144625903,
        "addr:city": "Caçapava do Sul",
        "addr:country": "BR",
        "addr:postcode": "96570-000",
        "addr:state": "RS",
        "addr:suburb": "Vila Batista",
        "amenity": "university",
        "building": "university",
        "building:levels": "2",
        "name": "Laboratório de Lavra, Planejamento e Tratamento de Minérios",
        "operator": "Universidade Federal do Pampa Campus Caçapava do Sul",
        "short_name": "LATRAM",
        "website": "https://sites.unipampa.edu.br/latram/",
        "year_of_construction": "2019",
        "id": "way/1227224545"
      },
      "geometry": {
        "type": "Polygon",
        "coordinates": [
          [
            [
              -53.4831773,
              -30.4974935
            ],
            [
              -53.4832042,
              -30.4976373
            ],
            [
              -53.4828327,
              -30.4976887
            ],
            [
              -53.4828059,
              -30.4975449
            ],
            [
              -53.483026,
              -30.4975144
            ],
            [
              -53.4831773,
              -30.4974935
            ]
          ]
        ]
      }
    },
    {
      "type": "Feature",
      "id": "way/1227224546",
      "properties": {
        "timestamp": "2023-11-30T13:13:03Z",
        "version": 4,
        "changeset": 144625015,
        "addr:city": "Caçapava do Sul",
        "addr:country": "BR",
        "addr:postcode": "96570-000",
        "addr:state": "RS",
        "addr:suburb": "Vila Batista",
        "amenity": "university",
        "building": "university",
        "building:levels": "2",
        "name": "Laboratório de Química",
        "note": "Término da Obra: agosto/2018",
        "operator": "Universidade Federal do Pampa Campus Caçapava do Sul",
        "id": "way/1227224546"
      },
      "geometry": {
        "type": "Polygon",
        "coordinates": [
          [
            [
              -53.4826255,
              -30.4969631
            ],
            [
              -53.4829406,
              -30.4968117
            ],
            [
              -53.4830221,
              -30.4969376
            ],
            [
              -53.4829271,
              -30.4969833
            ],
            [
              -53.4827069,
              -30.497089
            ],
            [
              -53.4826255,
              -30.4969631
            ]
          ]
        ]
      }
    },
    {
      "type": "Feature",
      "id": "way/1227224547",
      "properties": {
        "timestamp": "2023-11-29T14:08:08Z",
        "version": 4,
        "changeset": 144589505,
        "abbr_name": "Unipampa",
        "addr:city": "Caçapava do Sul",
        "addr:country": "BR",
        "addr:housenumber": "111",
        "addr:postcode": "96570-000",
        "addr:state": "RS",
        "addr:street": "Avenida Pedro Anunciação",
        "addr:suburb": "Vila Batista",
        "amenity": "university",
        "barrier": "fence",
        "email": "cacapava@unipampa.edu.br",
        "name": "Universidade Federal do Pampa Campus Caçapava do Sul",
        "operator": "Universidade Federal do Pampa",
        "phone": "+55 55 32819000",
        "website": "https://unipampa.edu.br/",
        "id": "way/1227224547"
      },
      "geometry": {
        "type": "Polygon",
        "coordinates": [
          [
            [
              -53.4833644,
              -30.4977142
            ],
            [
              -53.4796396,
              -30.498269
            ],
            [
              -53.4797609,
              -30.4979176
            ],
            [
              -53.4799798,
              -30.4976199
            ],
            [
              -53.4800125,
              -30.4975754
            ],
            [
              -53.4800345,
              -30.4975455
            ],
            [
              -53.4805039,
              -30.497185
            ],
            [
              -53.4820384,
              -30.4960572
            ],
            [
              -53.482419,
              -30.4957775
            ],
            [
              -53.4829715,
              -30.4964847
            ],
            [
              -53.4833644,
              -30.4977142
            ]
          ]
        ]
      }
    },
    {
      "type": "Feature",
      "id": "node/11380264444",
      "properties": {
        "timestamp": "2023-11-27T20:11:41Z",
        "version": 1,
        "changeset": 144522695,
        "barrier": "gate",
        "id": "node/11380264444"
      },
      "geometry": {
        "type": "Point",
        "coordinates": [
          -53.4799798,
          -30.4976199
        ]
      }
    },
    {
      "type": "Feature",
      "id": "node/11380299600",
      "properties": {
        "timestamp": "2023-11-27T20:11:41Z",
        "version": 1,
        "changeset": 144522695,
        "barrier": "gate",
        "id": "node/11380299600"
      },
      "geometry": {
        "type": "Point",
        "coordinates": [
          -53.4800125,
          -30.4975754
        ]
      }
    },
    {
      "type": "Feature",
      "id": "node/11380299610",
      "properties": {
        "timestamp": "2023-11-27T20:11:41Z",
        "version": 1,
        "changeset": 144522695,
        "barrier": "gate",
        "id": "node/11380299610"
      },
      "geometry": {
        "type": "Point",
        "coordinates": [
          -53.4820384,
          -30.4960572
        ]
      }
    },
    {
      "type": "Feature",
      "id": "node/12175952812",
      "properties": {
        "timestamp": "2024-09-14T03:28:39Z",
        "version": 1,
        "changeset": 156595278,
        "addr:city": "Caçapava do Sul",
        "addr:housenumber": "111",
        "addr:street": "Avenida Pedro Anunciação",
        "addr:suburb": "Vila Batista",
        "amenity": "university",
        "name": "UNIPAMPA - Caçapava do Sul",
        "website": "https://unipampa.edu.br/cacapava/",
        "id": "node/12175952812"
      },
      "geometry": {
        "type": "Point",
        "coordinates": [
          -53.4806654,
          -30.4976611
        ]
      }
    }
  ]
}
