{
  "type": "FeatureCollection",
  "features": [
    {
      "type": "Feature",
      "id": "way/540301563",
      "properties": {
        "timestamp": "2017-11-14T02:47:58Z",
        "version": 1,
        "changeset": 53757311,
        "access": "private",
        "amenity": "clinic",
        "building": "yes",
        "name": "Posto Médico",
        "operator": "Veneza Water Park",
        "source": "Bing; survey",
        "id": "way/540301563"
      },
      "geometry": {
        "type": "Polygon",
        "coordinates": [
          [
            [
              -34.8358375,
              -7.869907
            ],
            [
              -34.8357249,
              -7.8698678
            ],
            [
              -34.8358228,
              -7.8695921
            ],
            [
              -34.8359354,
              -7.8696313
            ],
            [
              -34.8358375,
              -7.869907
            ]
          ]
        ]
      }
    },
    {
      "type": "Feature",
      "id": "node/4209074807",
      "properties": {
        "timestamp": "2020-06-11T20:17:51Z",
        "version": 3,
        "changeset": 86532933,
        "access": "yes",
        "addr:housenumber": "206",
        "addr:street": "Rua do Cajueiro",
        "amenity": "clinic",
        "name": "Policlin - Sassepe",
        "opening_hours": "Mo-Fr 07:00-18:00; PH,Sa,Su off",
        "phone": "+55 81 3372-3876",
        "id": "node/4209074807"
      },
      "geometry": {
        "type": "Point",
        "coordinates": [
          -34.8836407,
          -7.9398088
        ]
      }
    },
    {
      "type": "Feature",
      "id": "node/4444998992",
      "properties": {
        "timestamp": "2022-03-13T15:43:01Z",
        "version": 4,
        "changeset": 118434847,
        "addr:housenumber": "21 Sala: 41",
        "addr:postcode": "53401-440",
        "addr:street": "Avenida Senador Salgado Filho",
        "amenity": "clinic",
        "email": "comercial@padraosegmed.com.br",
        "healthcare": "clinic",
        "internet_access": "wlan",
        "name": "Padrão Treinamentos, Segurança e Medicina do Trabalho",
        "name:pt": "Padrão Treinamentos, Segurança e Medicina do Trabalho",
        "opening_hours": "Mo-Fr 07:30-16:00",
        "phone": "+55 81 3433-1214",
        "website": "http://www.padraosegmed.com.br",
        "id": "node/4444998992"
      },
      "geometry": {
        "type": "Point",
        "coordinates": [
          -34.8797079,
          -7.9396228
        ]
      }
    },
    {
      "type": "Feature",
      "id": "node/4934775523",
      "properties": {
        "timestamp": "2019-11-06T16:41:44Z",
        "version": 2,
        "changeset": 76713543,
        "addr:city": "Paulista",
        "addr:housenumber": "616",
        "addr:street": "Travessa Pompéu José da Silva",
        "addr:suburb": "Centro",
        "amenity": "clinic",
        "healthcare": "clinic",
        "name": "Centro Médico Paulista",
        "opening_hours": "Mo-Fr 08:00-18:00",
        "phone": "+55 81 3319-1000",
        "id": "node/4934775523"
      },
      "geometry": {
        "type": "Point",
        "coordinates": [
          -34.8808589,
          -7.941946
        ]
      }
    },
    {
      "type": "Feature",
      "id": "node/5330851850",
      "properties": {
        "timestamp": "2021-10-10T19:33:12Z",
        "version": 3,
        "changeset": 112346582,
        "amenity": "clinic",
        "healthcare": "clinic",
        "name": "Unidade de Saúde da Família Maranguape II A",
        "id": "node/5330851850"
      },
      "geometry": {
        "type": "Point",
        "coordinates": [
          -34.8518061,
          -7.9267541
        ]
      }
    },
    {
      "type": "Feature",
      "id": "node/5330851881",
      "properties": {
        "timestamp": "2021-10-07T20:33:23Z",
        "version": 2,
        "changeset": 112234340,
        "amenity": "clinic",
        "healthcare": "clinic",
        "name": "Unidade de Saúde da Família Nossa Senhora dos Prazeres I e II",
        "id": "node/5330851881"
      },
      "geometry": {
        "type": "Point",
        "coordinates": [
          -34.8583271,
          -7.9330267
        ]
      }
    },
    {
      "type": "Feature",
      "id": "node/5330851882",
      "properties": {
        "timestamp": "2021-10-07T20:33:23Z",
        "version": 2,
        "changeset": 112234340,
        "amenity": "clinic",
        "healthcare": "clinic",
        "name": "Policlínica José Correia Mandu",
        "id": "node/5330851882"
      },
      "geometry": {
        "type": "Point",
        "coordinates": [
          -34.8601654,
          -7.9331117
        ]
      }
    },
    {
      "type": "Feature",
      "id": "node/5330851883",
      "properties": {
        "timestamp": "2021-10-07T19:15:30Z",
        "version": 2,
        "changeset": 112231554,
        "amenity": "clinic",
        "healthcare": "clinic",
        "name": "Unidade de Saúde da Família Maranguape II B",
        "id": "node/5330851883"
      },
      "geometry": {
        "type": "Point",
        "coordinates": [
          -34.8515509,
          -7.9291295
        ]
      }
    },
    {
      "type": "Feature",
      "id": "node/9156743299",
      "properties": {
        "timestamp": "2021-10-08T02:07:02Z",
        "version": 1,
        "changeset": 112240312,
        "amenity": "clinic",
        "healthcare": "clinic",
        "name": "UBS Nossa Prata",
        "id": "node/9156743299"
      },
      "geometry": {
        "type": "Point",
        "coordinates": [
          -34.8586889,
          -7.9386496
        ]
      }
    },
    {
      "type": "Feature",
      "id": "node/10788588905",
      "properties": {
        "timestamp": "2023-04-05T18:41:01Z",
        "version": 1,
        "changeset": 134550185,
        "addr:housenumber": "81 99432-6120",
        "addr:postcode": "53435610",
        "addr:street": "Rua Tchecoslováquia",
        "amenity": "clinic",
        "internet_access": "wlan",
        "name": "Centro de Terapias",
        "name:en": "Center for Integrated Therapies",
        "name:pt": "Centro de Terapias Integradas Casarão",
        "opening_hours": "Mo-Fr 08:00-17:00",
        "id": "node/10788588905"
      },
      "geometry": {
        "type": "Point",
        "coordinates": [
          -34.8238785,
          -7.9148077
        ]
      }
    }
  ]
}
