{
  "type": "FeatureCollection",
  "features": [
    {
      "type": "Feature",
      "id": "node/4036865896",
      "properties": {
        "timestamp": "2022-03-13T15:43:01Z",
        "version": 2,
        "changeset": 118434847,
        "addr:city": "Paulista",
        "addr:street": "Rua Marechal Floriano Peixoto",
        "government": "register_office",
        "name": "Cartório Siqueira Campos 1° Ofício",
        "office": "government",
        "id": "node/4036865896"
      },
      "geometry": {
        "type": "Point",
        "coordinates": [
          -34.8792794,
          -7.9422761
        ]
      }
    },
    {
      "type": "Feature",
      "id": "node/12312322044",
      "properties": {
        "timestamp": "2024-11-04T15:47:56Z",
        "version": 1,
        "changeset": 158746435,
        "addr:city": "Paulista",
        "addr:housenumber": "242",
        "addr:street": "Rodovia PE-15",
        "addr:suburb": "Centro",
        "name": "Detran Pernambuco",
        "office": "government",
        "opening_hours": "Mo-Su 09:00-21:00",
        "phone": "+55 81 3184-8109",
        "website": "https://www.detran.pe.gov.br/institucional-detran/pontos-de-atendimento",
        "id": "node/12312322044"
      },
      "geometry": {
        "type": "Point",
        "coordinates": [
          -34.8776095,
          -7.9383307
        ]
      }
    }
  ]
}
