{
  "type": "FeatureCollection",
  "features": [
    {
      "type": "Feature",
      "id": "way/374304513",
      "properties": {
        "timestamp": "2024-03-23T01:05:57Z",
        "version": 2,
        "changeset": 149035463,
        "addr:city": "Londrina",
        "addr:housenumber": "1135",
        "addr:postcode": "86010-450",
        "addr:street": "Rua Pará",
        "addr:suburb": "Centro",
        "amenity": "dentist",
        "building": "yes",
        "healthcare": "dentist",
        "name": "Ortofamily",
        "phone": "+55 43 3322 6725",
        "website": "www.ortofamily.com.br/",
        "id": "way/374304513"
      },
      "geometry": {
        "type": "Polygon",
        "coordinates": [
          [
            [
              -51.1624962,
              -23.314522
            ],
            [
              -51.1624954,
              -23.3146177
            ],
            [
              -51.1622989,
              -23.3146163
            ],
            [
              -51.1622997,
              -23.3145206
            ],
            [
              -51.1623357,
              -23.3145208
            ],
            [
              -51.1624962,
              -23.314522
            ]
          ]
        ]
      }
    },
    {
      "type": "Feature",
      "id": "way/391456403",
      "properties": {
        "timestamp": "2016-01-14T21:31:33Z",
        "version": 1,
        "changeset": 36581013,
        "addr:city": "Londrina",
        "addr:housenumber": "552",
        "addr:street": "Avenida Paraná",
        "addr:suburb": "Centro",
        "amenity": "dentist",
        "building": "yes",
        "level": "1",
        "name": "Mais Sorriso",
        "phone": "+55 43 3322 2200",
        "id": "way/391456403"
      },
      "geometry": {
        "type": "Polygon",
        "coordinates": [
          [
            [
              -51.158595,
              -23.3110376
            ],
            [
              -51.1586041,
              -23.3110731
            ],
            [
              -51.1585785,
              -23.3110796
            ],
            [
              -51.1585675,
              -23.3110455
            ],
            [
              -51.158595,
              -23.3110376
            ]
          ]
        ]
      }
    },
    {
      "type": "Feature",
      "id": "way/472202400",
      "properties": {
        "timestamp": "2020-02-02T18:20:21Z",
        "version": 5,
        "changeset": 80443041,
        "addr:city": "Londrina",
        "addr:housenumber": "870",
        "addr:postcode": "86010-510",
        "addr:street": "Rua Espírito Santo",
        "addr:suburb": "Centro",
        "amenity": "dentist",
        "building": "yes",
        "building:levels": "3",
        "healthcare": "dentist",
        "id": "way/472202400"
      },
      "geometry": {
        "type": "Polygon",
        "coordinates": [
          [
            [
              -51.1605977,
              -23.3164378
            ],
            [
              -51.1605222,
              -23.3164376
            ],
            [
              -51.1605046,
              -23.3164375
            ],
            [
              -51.160505,
              -23.3163468
            ],
            [
              -51.1605981,
              -23.3163472
            ],
            [
              -51.1605977,
              -23.3164378
            ]
          ]
        ]
      }
    },
    {
      "type": "Feature",
      "id": "node/3776668234",
      "properties": {
        "timestamp": "2015-10-07T14:34:15Z",
        "version": 1,
        "changeset": 34492246,
        "entrance": "yes",
        "id": "node/3776668234"
      },
      "geometry": {
        "type": "Point",
        "coordinates": [
          -51.1623357,
          -23.3145208
        ]
      }
    },
    {
      "type": "Feature",
      "id": "node/6342048586",
      "properties": {
        "timestamp": "2019-03-16T22:07:12Z",
        "version": 1,
        "changeset": 68215008,
        "amenity": "dentist",
        "healthcare": "dentist",
        "name": "Guilhen",
        "id": "node/6342048586"
      },
      "geometry": {
        "type": "Point",
        "coordinates": [
          -51.1622115,
          -23.3164187
        ]
      }
    },
    {
      "type": "Feature",
      "id": "node/6342048592",
      "properties": {
        "timestamp": "2019-03-16T22:07:12Z",
        "version": 1,
        "changeset": 68215008,
        "amenity": "dentist",
        "healthcare": "dentist",
        "name": "Sergio Yokoyama",
        "id": "node/6342048592"
      },
      "geometry": {
        "type": "Point",
        "coordinates": [
          -51.1617764,
          -23.3164206
        ]
      }
    },
    {
      "type": "Feature",
      "id": "node/6342048593",
      "properties": {
        "timestamp": "2019-03-16T22:07:12Z",
        "version": 1,
        "changeset": 68215008,
        "amenity": "dentist",
        "healthcare": "dentist",
        "name": "Tanaka",
        "id": "node/6342048593"
      },
      "geometry": {
        "type": "Point",
        "coordinates": [
          -51.1634245,
          -23.3166736
        ]
      }
    },
    {
      "type": "Feature",
      "id": "node/6440396379",
      "properties": {
        "timestamp": "2024-02-19T00:40:00Z",
        "version": 2,
        "changeset": 147629373,
        "addr:city": "Londrina",
        "addr:housenumber": "3870",
        "addr:postcode": "86010-190",
        "addr:street": "Avenida Duque de Caxias",
        "addr:suburb": "Jardim Londrilar",
        "amenity": "dentist",
        "healthcare": "dentist",
        "name": "Centro de Especialidades Odontológicas Laudíseo Brinholli",
        "operator": "Secretaria de Saúde do Município de Londrina",
        "operator:type": "government",
        "phone": "+55 43 3379 0873",
        "id": "node/6440396379"
      },
      "geometry": {
        "type": "Point",
        "coordinates": [
          -51.1548681,
          -23.3085155
        ]
      }
    },
    {
      "type": "Feature",
      "id": "node/7179546896",
      "properties": {
        "timestamp": "2020-02-02T18:20:21Z",
        "version": 1,
        "changeset": 80443041,
        "entrance": "main",
        "level": "0",
        "wheelchair": "yes",
        "id": "node/7179546896"
      },
      "geometry": {
        "type": "Point",
        "coordinates": [
          -51.1605222,
          -23.3164376
        ]
      }
    },
    {
      "type": "Feature",
      "id": "node/7233997187",
      "properties": {
        "timestamp": "2020-02-21T20:03:43Z",
        "version": 1,
        "changeset": 81331432,
        "addr:city": "Londrina",
        "addr:housenumber": "777",
        "addr:street": "Avenida Bandeirantes",
        "amenity": "dentist",
        "healthcare": "dentist",
        "name": "OralSin",
        "id": "node/7233997187"
      },
      "geometry": {
        "type": "Point",
        "coordinates": [
          -51.1590964,
          -23.3266349
        ]
      }
    }
  ]
}
