{
  "type": "FeatureCollection",
  "features": [
    {
      "type": "Feature",
      "id": "node/4370113490",
      "properties": {
        "timestamp": "2016-08-27T18:24:32Z",
        "version": 1,
        "changeset": 41741752,
        "addr:housenumber": "200",
        "addr:postcode": "86047-580",
        "addr:street": "Rosanis Muniz Silva",
        "tourism": "guest_house",
        "id": "node/4370113490"
      },
      "geometry": {
        "type": "Point",
        "coordinates": [
          -51.1718296,
          -23.3520458
        ]
      }
    },
    {
      "type": "Feature",
      "id": "node/11784004203",
      "properties": {
        "timestamp": "2024-04-03T19:19:37Z",
        "version": 1,
        "changeset": 149540271,
        "addr:city": "Londrina",
        "addr:housenumber": "520",
        "addr:postcode": "86057-970",
        "addr:street": "Rua Kazuo Nishiyama",
        "addr:suburb": "Campus Universit√°rio",
        "check_date": "2024-04-03",
        "currency:XBT": "yes",
        "guest_house": "bed_and_breakfast",
        "name": "Kazuo520",
        "opening_hours": "Mo-Su 10:00-00:00",
        "payment:lightning": "yes",
        "payment:lightning_contactless": "no",
        "payment:onchain": "yes",
        "phone": "+55 43 9992 34239",
        "tourism": "guest_house",
        "website": "https://www.airbnb.com.br/users/show/12599337",
        "id": "node/11784004203"
      },
      "geometry": {
        "type": "Point",
        "coordinates": [
          -51.2002119,
          -23.3203464
        ]
      }
    }
  ]
}
