{
  "type": "FeatureCollection",
  "features": [
    {
      "type": "Feature",
      "id": "way/374889721",
      "properties": {
        "timestamp": "2023-10-15T23:52:05Z",
        "version": 4,
        "changeset": 142638877,
        "addr:city": "Londrina",
        "addr:housenumber": "904",
        "addr:postcode": "86071-260",
        "addr:street": "Rua Ruy Virmond Carnascialli",
        "addr:suburb": "Leonor",
        "amenity": "kindergarten",
        "id": "way/374889721"
      },
      "geometry": {
        "type": "Polygon",
        "coordinates": [
          [
            [
              -51.1950253,
              -23.2893919
            ],
            [
              -51.195307,
              -23.289613
            ],
            [
              -51.1951662,
              -23.2897643
            ],
            [
              -51.1948845,
              -23.2895432
            ],
            [
              -51.1950253,
              -23.2893919
            ]
          ]
        ]
      }
    },
    {
      "type": "Feature",
      "id": "way/617162029",
      "properties": {
        "timestamp": "2024-02-18T23:15:08Z",
        "version": 3,
        "changeset": 147628154,
        "addr:housenumber": "141",
        "addr:postcode": "86027-660",
        "addr:street": "Rua Santa Rosa",
        "addr:suburb": "Conjunto Pindorama",
        "amenity": "kindergarten",
        "email": "abdias.nascimento@londrina.pr.gov.br",
        "name": "Centro Municipal de Educação Infantil Abdias do Nascimento",
        "opening_hours": "Mo-Fr 07:30-17:30; PH off",
        "operator": "Secretaria Municipal de Educação",
        "operator:type": "government",
        "phone": "+55 43 3375 0189",
        "religion": "none",
        "id": "way/617162029"
      },
      "geometry": {
        "type": "Polygon",
        "coordinates": [
          [
            [
              -51.1436434,
              -23.3084113
            ],
            [
              -51.1434744,
              -23.3086983
            ],
            [
              -51.1430763,
              -23.3086317
            ],
            [
              -51.1430977,
              -23.3084912
            ],
            [
              -51.1436434,
              -23.3084113
            ]
          ]
        ]
      }
    },
    {
      "type": "Feature",
      "id": "way/617166253",
      "properties": {
        "timestamp": "2024-02-18T23:15:08Z",
        "version": 2,
        "changeset": 147628154,
        "addr:housenumber": "125",
        "addr:postcode": "86027-590",
        "addr:street": "Rua Santa Clara",
        "addr:suburb": "Vila da Fraternidade",
        "amenity": "kindergarten",
        "email": "malvina.pedriali@londrina.pr.gov.br",
        "name": "Centro Municipal de Educação Infantil Malvina Poppi Pedrialli",
        "opening_hours": "Mo-Fr 07:15-12:15,12:45-17:45; PH off",
        "operator": "Secretaria Municipal de Educação",
        "operator:type": "government",
        "phone": "+55 43 3375 0207",
        "id": "way/617166253"
      },
      "geometry": {
        "type": "Polygon",
        "coordinates": [
          [
            [
              -51.1451044,
              -23.3068463
            ],
            [
              -51.1449714,
              -23.3073647
            ],
            [
              -51.144646,
              -23.3073003
            ],
            [
              -51.1446281,
              -23.3070642
            ],
            [
              -51.1444843,
              -23.3069371
            ],
            [
              -51.1442074,
              -23.3068991
            ],
            [
              -51.1442721,
              -23.3066911
            ],
            [
              -51.1451044,
              -23.3068463
            ]
          ]
        ]
      }
    },
    {
      "type": "Feature",
      "id": "way/617167746",
      "properties": {
        "timestamp": "2024-04-02T18:43:14Z",
        "version": 2,
        "changeset": 149494870,
        "addr:housenumber": "390",
        "addr:postcode": "86037-140",
        "addr:street": "Rua Leontina da Conceição Gaion",
        "addr:suburb": "Conjunto Habitacional Ernani Moura Lima",
        "amenity": "kindergarten",
        "email": "rosangela.romano@londrina.pr.gov.br",
        "name": "CMEI Professora Rosângela de Oliveira Romano",
        "opening_hours": "Mo-Fr 07:30-18:00; PH off",
        "operator": "Secretaria Municipal da Educação",
        "operator:type": "government",
        "phone": "+55 43 3375 0026",
        "preschool": "yes",
        "source": "https://repositorio.londrina.pr.gov.br/index.php/menu-educacao/unidades-escolares/226-lista-simples-un-municipais/file",
        "id": "way/617167746"
      },
      "geometry": {
        "type": "Polygon",
        "coordinates": [
          [
            [
              -51.1059312,
              -23.3294148
            ],
            [
              -51.1058263,
              -23.3295403
            ],
            [
              -51.1055301,
              -23.3293337
            ],
            [
              -51.10565,
              -23.3291939
            ],
            [
              -51.1056725,
              -23.329191
            ],
            [
              -51.1056956,
              -23.3291949
            ],
            [
              -51.1059112,
              -23.3293521
            ],
            [
              -51.1059326,
              -23.3293788
            ],
            [
              -51.1059356,
              -23.3293982
            ],
            [
              -51.1059312,
              -23.3294148
            ]
          ]
        ]
      }
    },
    {
      "type": "Feature",
      "id": "way/617177727",
      "properties": {
        "timestamp": "2024-03-17T02:55:30Z",
        "version": 3,
        "changeset": 148756496,
        "addr:housenumber": "245",
        "addr:postcode": "86070-270",
        "addr:street": "Rua Plutão",
        "addr:suburb": "Jardim do Sol",
        "amenity": "kindergarten",
        "email": "haydee.colli.monteiro@gmail.com",
        "name": "CEI Haydee Colli Monteiro",
        "operator": "Associação de Pais e Amigos dos Portadores de Sindrome de Down",
        "operator:type": "private_non_profit",
        "phone": "+55 43 3338 9038",
        "preschool": "yes",
        "id": "way/617177727"
      },
      "geometry": {
        "type": "Polygon",
        "coordinates": [
          [
            [
              -51.18446,
              -23.2959454
            ],
            [
              -51.1844642,
              -23.2963293
            ],
            [
              -51.1840376,
              -23.2963355
            ],
            [
              -51.184023,
              -23.2960358
            ],
            [
              -51.18446,
              -23.2959454
            ]
          ]
        ]
      }
    },
    {
      "type": "Feature",
      "id": "way/617178830",
      "properties": {
        "timestamp": "2024-04-17T14:46:01Z",
        "version": 2,
        "changeset": 150133510,
        "addr:housenumber": "295",
        "addr:postcode": "86071-030",
        "addr:street": "Rua Nossa Senhora do Socorro",
        "addr:suburb": "Jardim Nossa Senhora da Paz",
        "amenity": "kindergarten",
        "email": "ceiibetania@yahoo.com.br",
        "name": "CEI Irmãs de Betânia",
        "operator": "Centro de Educação Infantil Irmãs de Betânia",
        "operator:type": "private_non_profit",
        "phone": "+55 43 3338-5686",
        "preschool": "yes",
        "source": "https://repositorio.londrina.pr.gov.br/index.php/menu-educacao/parcerias-edu/52208-conv-parcerias-2023/file",
        "id": "way/617178830"
      },
      "geometry": {
        "type": "Polygon",
        "coordinates": [
          [
            [
              -51.1886685,
              -23.2926501
            ],
            [
              -51.1886718,
              -23.2928871
            ],
            [
              -51.1883026,
              -23.2928952
            ],
            [
              -51.1882997,
              -23.2926516
            ],
            [
              -51.1886685,
              -23.2926501
            ]
          ]
        ]
      }
    },
    {
      "type": "Feature",
      "id": "way/618801000",
      "properties": {
        "timestamp": "2024-03-21T23:42:39Z",
        "version": 3,
        "changeset": 148990145,
        "addr:housenumber": "111",
        "addr:postcode": "86071-110",
        "addr:street": "Rua Eucaliptos",
        "addr:suburb": "Jardim Leonor",
        "amenity": "kindergarten",
        "email": "clemilde.santos@londrina.pr.gov.br",
        "name": "CMEI Clemilde de Martini Lopes dos Santos",
        "opening_hours": "Mo-Fr 07:30-12:30,13:00-18:00; PH off",
        "operator": "Secretaria Municipal da Educação",
        "operator:type": "government",
        "phone": "+55 43 3375 0222",
        "preschool": "yes",
        "religion": "none",
        "id": "way/618801000"
      },
      "geometry": {
        "type": "Polygon",
        "coordinates": [
          [
            [
              -51.1942145,
              -23.293649
            ],
            [
              -51.1942138,
              -23.2943587
            ],
            [
              -51.1937945,
              -23.294357
            ],
            [
              -51.193824,
              -23.2938525
            ],
            [
              -51.1942145,
              -23.293649
            ]
          ]
        ]
      }
    },
    {
      "type": "Feature",
      "id": "node/11535722388",
      "properties": {
        "timestamp": "2024-01-21T02:52:59Z",
        "version": 1,
        "changeset": 146498854,
        "addr:housenumber": "120",
        "addr:postcode": "86040-500",
        "addr:street": "Rua Maria de Oliveira Melo",
        "addr:suburb": "Jardim San Izidro",
        "amenity": "kindergarten",
        "name": "CEI Estrelinha Mágica",
        "phone": "+55 43 3329 4529",
        "source": "https://repositorio.londrina.pr.gov.br/index.php/menu-educacao/unidades-escolares/220-cei-particulares/file",
        "id": "node/11535722388"
      },
      "geometry": {
        "type": "Point",
        "coordinates": [
          -51.1333334,
          -23.3360011
        ]
      }
    }
  ]
}
