{
  "type": "FeatureCollection",
  "features": [
    {
      "type": "Feature",
      "id": "way/1027044084",
      "properties": {
        "timestamp": "2022-02-02T14:36:10Z",
        "version": 1,
        "changeset": 116916519,
        "amenity": "school",
        "name": "Unid Esc Manoel Batista De Carvalho",
        "phone": "+55 89 3449 1184",
        "id": "way/1027044084"
      },
      "geometry": {
        "type": "Polygon",
        "coordinates": [
          [
            [
              -41.2249897,
              -7.1113299
            ],
            [
              -41.2250123,
              -7.1115488
            ],
            [
              -41.2248511,
              -7.1115652
            ],
            [
              -41.2248425,
              -7.1114829
            ],
            [
              -41.2246907,
              -7.1114984
            ],
            [
              -41.2246766,
              -7.1113619
            ],
            [
              -41.2249897,
              -7.1113299
            ]
          ]
        ]
      }
    },
    {
      "type": "Feature",
      "id": "way/1027044311",
      "properties": {
        "timestamp": "2022-02-02T14:37:21Z",
        "version": 1,
        "changeset": 116916570,
        "amenity": "school",
        "name": "Unid Esc Joao Rodrigues De Almeida",
        "phone": "+55 89 3449 1120",
        "id": "way/1027044311"
      },
      "geometry": {
        "type": "Polygon",
        "coordinates": [
          [
            [
              -41.2041966,
              -6.9926128
            ],
            [
              -41.2044478,
              -6.9925338
            ],
            [
              -41.2045495,
              -6.9927756
            ],
            [
              -41.2043203,
              -6.9928622
            ],
            [
              -41.2041966,
              -6.9926128
            ]
          ]
        ]
      }
    },
    {
      "type": "Feature",
      "id": "way/1028201486",
      "properties": {
        "timestamp": "2022-02-04T22:46:42Z",
        "version": 1,
        "changeset": 117025395,
        "addr:city": "Santo Antônio de Lisboa",
        "addr:postcode": "64640-000",
        "addr:suburb": "Xique-Xique",
        "amenity": "school",
        "name": "Creche Municipal Daysa Regia De Sousa Silva",
        "phone": "+55 89 3449 1184",
        "id": "way/1028201486"
      },
      "geometry": {
        "type": "Polygon",
        "coordinates": [
          [
            [
              -41.2220513,
              -6.984654
            ],
            [
              -41.2224874,
              -6.9844228
            ],
            [
              -41.222728,
              -6.9848404
            ],
            [
              -41.2222855,
              -6.9850779
            ],
            [
              -41.2220513,
              -6.984654
            ]
          ]
        ]
      }
    },
    {
      "type": "Feature",
      "id": "way/1028201593",
      "properties": {
        "timestamp": "2022-02-04T22:47:36Z",
        "version": 1,
        "changeset": 117025445,
        "addr:city": "Santo Antônio de Lisboa",
        "addr:housenumber": "255",
        "addr:postcode": "64640-000",
        "addr:street": "Avenida Lino Rodrigues",
        "addr:suburb": "Centro",
        "amenity": "school",
        "name": "U E Maria De Carvalho",
        "id": "way/1028201593"
      },
      "geometry": {
        "type": "Polygon",
        "coordinates": [
          [
            [
              -41.2303521,
              -6.9833379
            ],
            [
              -41.2309231,
              -6.9831792
            ],
            [
              -41.2310087,
              -6.9834826
            ],
            [
              -41.2304377,
              -6.9836414
            ],
            [
              -41.2303521,
              -6.9833379
            ]
          ]
        ]
      }
    },
    {
      "type": "Feature",
      "id": "way/1028203638",
      "properties": {
        "timestamp": "2022-02-04T23:02:58Z",
        "version": 1,
        "changeset": 117026129,
        "amenity": "school",
        "name": "U E Miguel Borges De Moura",
        "id": "way/1028203638"
      },
      "geometry": {
        "type": "Polygon",
        "coordinates": [
          [
            [
              -41.2303485,
              -6.979837
            ],
            [
              -41.2307769,
              -6.9797055
            ],
            [
              -41.2308528,
              -6.9800528
            ],
            [
              -41.2303897,
              -6.9801856
            ],
            [
              -41.2303485,
              -6.979837
            ]
          ]
        ]
      }
    },
    {
      "type": "Feature",
      "id": "node/9468849591",
      "properties": {
        "timestamp": "2022-02-02T14:37:58Z",
        "version": 1,
        "changeset": 116916594,
        "addr:city": "Santo Antônio de Lisboa",
        "addr:postcode": "64640-000",
        "addr:street": "Avenida João Almeida",
        "amenity": "school",
        "name": "Unid Esc Antonio Serafim",
        "id": "node/9468849591"
      },
      "geometry": {
        "type": "Point",
        "coordinates": [
          -41.2041338,
          -6.992353
        ]
      }
    },
    {
      "type": "Feature",
      "id": "node/9477179647",
      "properties": {
        "timestamp": "2022-02-04T22:48:26Z",
        "version": 1,
        "changeset": 117025487,
        "addr:city": "Santo Antônio de Lisboa",
        "addr:postcode": "64640-000",
        "addr:street": "Avenida Lino Rodrigues",
        "addr:suburb": "Centro",
        "amenity": "school",
        "name": "Colegio Imaculada Conceicao",
        "id": "node/9477179647"
      },
      "geometry": {
        "type": "Point",
        "coordinates": [
          -41.2314849,
          -6.9835407
        ]
      }
    },
    {
      "type": "Feature",
      "id": "node/9477191530",
      "properties": {
        "timestamp": "2022-02-04T23:04:05Z",
        "version": 1,
        "changeset": 117026177,
        "amenity": "school",
        "name": "Unid Esc Antonio Sabino Da Silva",
        "phone": "+55 89 3449 1120",
        "id": "node/9477191530"
      },
      "geometry": {
        "type": "Point",
        "coordinates": [
          -41.2718301,
          -6.9772817
        ]
      }
    },
    {
      "type": "Feature",
      "id": "node/9477205104",
      "properties": {
        "timestamp": "2022-02-04T22:45:24Z",
        "version": 1,
        "changeset": 117025353,
        "addr:city": "Santo Antônio de Lisboa",
        "addr:postcode": "64640-000",
        "amenity": "school",
        "name": "Unid Esc Antonio Calixto Da Silva",
        "phone": "+55 89 3449 1184",
        "id": "node/9477205104"
      },
      "geometry": {
        "type": "Point",
        "coordinates": [
          -41.2203692,
          -6.9891636
        ]
      }
    },
    {
      "type": "Feature",
      "id": "node/9477224330",
      "properties": {
        "timestamp": "2022-02-04T23:01:33Z",
        "version": 1,
        "changeset": 117026074,
        "addr:city": "Santo Antônio de Lisboa",
        "addr:housenumber": "07",
        "addr:postcode": "64640-000",
        "addr:street": "Rua Mariano Silva",
        "addr:suburb": "Centro",
        "amenity": "school",
        "name": "Colegio Paulo Freire",
        "id": "node/9477224330"
      },
      "geometry": {
        "type": "Point",
        "coordinates": [
          -41.2325877,
          -6.9830415
        ]
      }
    },
    {
      "type": "Feature",
      "id": "node/9477237333",
      "properties": {
        "timestamp": "2022-02-04T23:02:28Z",
        "version": 1,
        "changeset": 117026115,
        "addr:city": "Santo Antônio de Lisboa",
        "addr:housenumber": "323",
        "addr:postcode": "64640-000",
        "addr:street": "Rua João Batista",
        "addr:suburb": "Centro",
        "amenity": "school",
        "name": "Nucleo Mul De Educacao V Francisco Das C Rodrigues",
        "phone": "+55 89 3449 1398",
        "id": "node/9477237333"
      },
      "geometry": {
        "type": "Point",
        "coordinates": [
          -41.2315084,
          -6.9815681
        ]
      }
    },
    {
      "type": "Feature",
      "id": "node/9481267327",
      "properties": {
        "timestamp": "2022-02-05T14:52:17Z",
        "version": 1,
        "changeset": 117047816,
        "amenity": "school",
        "name": "Unid Esc Padre Joao Pedro",
        "phone": "+55 89 3449 1120",
        "id": "node/9481267327"
      },
      "geometry": {
        "type": "Point",
        "coordinates": [
          -41.1948641,
          -6.8185686
        ]
      }
    }
  ]
}
