{
  "type": "FeatureCollection",
  "features": [
    {
      "type": "Feature",
      "id": "node/11115311695",
      "properties": {
        "timestamp": "2023-08-15T00:22:00Z",
        "version": 1,
        "changeset": 139893020,
        "addr:city": "Lagoa Grande",
        "addr:housenumber": "sn",
        "addr:postcode": "56395-000",
        "addr:street": "Rua Chile",
        "addr:suburb": "Centro",
        "amenity": "clinic",
        "healthcare": "clinic",
        "name": "PSF 1",
        "id": "node/11115311695"
      },
      "geometry": {
        "type": "Point",
        "coordinates": [
          -40.2703822,
          -8.996914
        ]
      }
    },
    {
      "type": "Feature",
      "id": "node/11115311696",
      "properties": {
        "timestamp": "2023-08-15T00:22:00Z",
        "version": 1,
        "changeset": 139893020,
        "addr:city": "Lagoa Grande",
        "addr:housenumber": "sn",
        "addr:postcode": "56395-000",
        "addr:street": "Avenida da Uva e do Vinho",
        "addr:suburb": "Centro",
        "amenity": "clinic",
        "healthcare": "clinic",
        "name": "CEAME - Centro de Especialidades Médicas",
        "id": "node/11115311696"
      },
      "geometry": {
        "type": "Point",
        "coordinates": [
          -40.2738036,
          -8.9967434
        ]
      }
    },
    {
      "type": "Feature",
      "id": "node/11115311698",
      "properties": {
        "timestamp": "2023-08-15T00:22:00Z",
        "version": 1,
        "changeset": 139893020,
        "addr:city": "Lagoa Grande",
        "addr:housenumber": "sn",
        "addr:postcode": "56395-000",
        "addr:street": "Rua Doutor Ozeias Ribeiro",
        "addr:suburb": "Chafariz",
        "amenity": "clinic",
        "healthcare": "clinic",
        "name": "PSF 6",
        "id": "node/11115311698"
      },
      "geometry": {
        "type": "Point",
        "coordinates": [
          -40.2768989,
          -8.9995732
        ]
      }
    },
    {
      "type": "Feature",
      "id": "node/11115311699",
      "properties": {
        "timestamp": "2023-08-15T00:22:00Z",
        "version": 1,
        "changeset": 139893020,
        "addr:city": "Lagoa Grande",
        "addr:housenumber": "SN",
        "addr:postcode": "56395-000",
        "addr:street": "Quadra AB",
        "addr:suburb": "Morada Nova",
        "amenity": "clinic",
        "healthcare": "clinic",
        "name": "PSF 7\\10",
        "id": "node/11115311699"
      },
      "geometry": {
        "type": "Point",
        "coordinates": [
          -40.2773055,
          -8.9899301
        ]
      }
    },
    {
      "type": "Feature",
      "id": "node/11115311701",
      "properties": {
        "timestamp": "2023-08-15T00:22:00Z",
        "version": 1,
        "changeset": 139893020,
        "addr:city": "Lagoa Grande",
        "addr:housenumber": "sn",
        "addr:postcode": "56395-000",
        "addr:street": "Rua José Ricardo",
        "addr:suburb": "Vasco",
        "amenity": "clinic",
        "healthcare": "clinic",
        "name": "PSF 2",
        "id": "node/11115311701"
      },
      "geometry": {
        "type": "Point",
        "coordinates": [
          -40.2702835,
          -8.9915042
        ]
      }
    }
  ]
}
