{
  "type": "FeatureCollection",
  "features": [
    {
      "type": "Feature",
      "id": "way/558496937",
      "properties": {
        "timestamp": "2020-05-04T21:55:51Z",
        "version": 3,
        "changeset": 84649426,
        "addr:city": "Afogados da Ingazeira",
        "addr:housenumber": "568",
        "addr:postcode": "56800-000",
        "addr:street": "Rua Aparício Veras",
        "addr:suburb": "Centro",
        "amenity": "clinic",
        "building": "yes",
        "healthcare": "clinic",
        "healthcare:speciality": "ophthalmology",
        "name": "Instituto de Olhos Jeová Raimundo",
        "phone": "+55 87 3838-1385",
        "id": "way/558496937"
      },
      "geometry": {
        "type": "Polygon",
        "coordinates": [
          [
            [
              -37.6357077,
              -7.7512923
            ],
            [
              -37.635567,
              -7.7515188
            ],
            [
              -37.6353718,
              -7.7513998
            ],
            [
              -37.6355175,
              -7.7511707
            ],
            [
              -37.6357077,
              -7.7512923
            ]
          ]
        ]
      }
    },
    {
      "type": "Feature",
      "id": "way/558559391",
      "properties": {
        "timestamp": "2022-12-07T20:57:14Z",
        "version": 2,
        "changeset": 129835740,
        "addr:city": "Afogados da Ingazeira",
        "addr:housenumber": "215",
        "addr:postcode": "56800-000",
        "addr:street": "Rua Senador Paulo Guerra",
        "addr:suburb": "Centro",
        "amenity": "clinic",
        "building": "yes",
        "healthcare": "clinic",
        "healthcare:speciality": "general;paediatrics;allergology;pneumologia;radiology;gynaecology;cardiology",
        "name": "Clinical Center",
        "phone": "+55 87 3838-1383",
        "id": "way/558559391"
      },
      "geometry": {
        "type": "Polygon",
        "coordinates": [
          [
            [
              -37.6375449,
              -7.7504521
            ],
            [
              -37.6374826,
              -7.7505687
            ],
            [
              -37.6372977,
              -7.7504715
            ],
            [
              -37.6373881,
              -7.7503024
            ],
            [
              -37.637464,
              -7.7503423
            ],
            [
              -37.6374359,
              -7.7503949
            ],
            [
              -37.6375449,
              -7.7504521
            ]
          ]
        ]
      }
    },
    {
      "type": "Feature",
      "id": "way/808434125",
      "properties": {
        "timestamp": "2020-05-26T13:11:48Z",
        "version": 1,
        "changeset": 85772581,
        "addr:city": "Afogados da Ingazeira",
        "addr:postcode": "56800-000",
        "addr:street": "Rua Berta Celi Lemos",
        "addr:suburb": "Sobreira",
        "amenity": "clinic",
        "building": "yes",
        "healthcare": "clinic",
        "name": "UBS Sobreira",
        "id": "way/808434125"
      },
      "geometry": {
        "type": "Polygon",
        "coordinates": [
          [
            [
              -37.6420367,
              -7.7588123
            ],
            [
              -37.6419505,
              -7.7591207
            ],
            [
              -37.6417625,
              -7.7590688
            ],
            [
              -37.6418396,
              -7.7587635
            ],
            [
              -37.6420367,
              -7.7588123
            ]
          ]
        ]
      }
    },
    {
      "type": "Feature",
      "id": "node/5273698474",
      "properties": {
        "timestamp": "2017-12-09T15:25:24Z",
        "version": 1,
        "changeset": 54488926,
        "amenity": "clinic",
        "healthcare": "clinic",
        "name": "UBS Mandacaru",
        "id": "node/5273698474"
      },
      "geometry": {
        "type": "Point",
        "coordinates": [
          -37.6372245,
          -7.7509572
        ]
      }
    }
  ]
}
