{
  "type": "FeatureCollection",
  "features": [
    {
      "type": "Feature",
      "id": "way/545485112",
      "properties": {
        "timestamp": "2024-12-07T19:19:38Z",
        "version": 12,
        "changeset": 160037253,
        "addr:city": "Afogados da Ingazeira",
        "addr:postcode": "56800-000",
        "addr:street": "Rua Simão Alves",
        "addr:suburb": "Centro",
        "building": "yes",
        "building:levels": "2",
        "denomination": "catholic",
        "government": "public_service",
        "image": "https://drive.google.com/file/d/1eJdIKZ60Dw8GEomaCcWPiR1JcK5AY_tT/view?usp=drivesdk",
        "name": "CAPS Infantil Dora Galvão",
        "nohousenumber": "yes",
        "office": "government",
        "opening_hours": "Mo-Fr 08:00-17:00",
        "religion": "christian",
        "wheelchair": "yes",
        "id": "way/545485112"
      },
      "geometry": {
        "type": "Polygon",
        "coordinates": [
          [
            [
              -37.6350883,
              -7.7526203
            ],
            [
              -37.635055,
              -7.7526842
            ],
            [
              -37.6349186,
              -7.7526145
            ],
            [
              -37.6349519,
              -7.7525505
            ],
            [
              -37.6350883,
              -7.7526203
            ]
          ]
        ]
      }
    },
    {
      "type": "Feature",
      "id": "way/545678187",
      "properties": {
        "timestamp": "2024-12-07T19:19:38Z",
        "version": 4,
        "changeset": 160037253,
        "addr:city": "Afogados da Ingazeira",
        "addr:postcode": "56800-000",
        "addr:street": "Rua Manoel Virgínio Sobrinho",
        "addr:suburb": "Padre Pedro Pereira",
        "government": "administrative",
        "name": "Detran PE",
        "nohousenumber": "yes",
        "office": "government",
        "phone": "+55 87 3838-8966",
        "id": "way/545678187"
      },
      "geometry": {
        "type": "Polygon",
        "coordinates": [
          [
            [
              -37.6489505,
              -7.7393263
            ],
            [
              -37.649648,
              -7.7399118
            ],
            [
              -37.6489673,
              -7.7404724
            ],
            [
              -37.6482619,
              -7.7398986
            ],
            [
              -37.6489505,
              -7.7393263
            ]
          ]
        ]
      }
    },
    {
      "type": "Feature",
      "id": "way/545681119",
      "properties": {
        "timestamp": "2017-12-09T15:18:51Z",
        "version": 1,
        "changeset": 54488739,
        "addr:city": "Afogados da Ingazeira",
        "addr:postcode": "56800-000",
        "addr:street": "Avenida Artur Padilha",
        "addr:suburb": "Centro",
        "building": "yes",
        "government": "administrative",
        "name": "GRE Sertão Auto do Pajeú",
        "office": "government",
        "id": "way/545681119"
      },
      "geometry": {
        "type": "Polygon",
        "coordinates": [
          [
            [
              -37.63495,
              -7.7466583
            ],
            [
              -37.6348736,
              -7.7467729
            ],
            [
              -37.6349252,
              -7.7468056
            ],
            [
              -37.6350078,
              -7.7466952
            ],
            [
              -37.6351791,
              -7.7468097
            ],
            [
              -37.635016,
              -7.7470592
            ],
            [
              -37.6349539,
              -7.7470131
            ],
            [
              -37.6350549,
              -7.7468714
            ],
            [
              -37.6350072,
              -7.7468392
            ],
            [
              -37.6348736,
              -7.7470367
            ],
            [
              -37.6348035,
              -7.7469897
            ],
            [
              -37.6349046,
              -7.7468547
            ],
            [
              -37.6348444,
              -7.7468122
            ],
            [
              -37.6347923,
              -7.746882
            ],
            [
              -37.6347223,
              -7.7468298
            ],
            [
              -37.6348798,
              -7.7466113
            ],
            [
              -37.63495,
              -7.7466583
            ]
          ]
        ]
      }
    },
    {
      "type": "Feature",
      "id": "way/546824159",
      "properties": {
        "timestamp": "2023-05-11T01:07:47Z",
        "version": 5,
        "changeset": 135956014,
        "addr:city": "Afogados da Ingazeira",
        "addr:postcode": "56800-000",
        "addr:street": "Rua Terezinha dos Santos Marques",
        "government": "administrative",
        "landuse": "garages",
        "name": "Centro de Logística Iraclides Liberal Bezerra",
        "office": "government",
        "phone": "+55 87 3838-2972",
        "id": "way/546824159"
      },
      "geometry": {
        "type": "Polygon",
        "coordinates": [
          [
            [
              -37.6318409,
              -7.7540199
            ],
            [
              -37.6314146,
              -7.754829
            ],
            [
              -37.6300964,
              -7.7544447
            ],
            [
              -37.6305959,
              -7.7535574
            ],
            [
              -37.6318409,
              -7.7540199
            ]
          ]
        ]
      }
    },
    {
      "type": "Feature",
      "id": "way/558561400",
      "properties": {
        "timestamp": "2025-03-05T20:07:14Z",
        "version": 4,
        "changeset": 163259460,
        "addr:city": "Afogados da Ingazeira",
        "addr:housenumber": "236",
        "addr:postcode": "56800-000",
        "addr:street": "Rua Doutor Roberto Nogueira Lima",
        "addr:suburb": "Centro",
        "building": "yes",
        "government": "legislative",
        "image": "https://www.flickr.com/photos/139355051@N08/25209327057",
        "name": "Câmara Municipal de Vereadores",
        "office": "government",
        "website": "https://afogadosdaingazeira.pe.leg.br/",
        "id": "way/558561400"
      },
      "geometry": {
        "type": "Polygon",
        "coordinates": [
          [
            [
              -37.6374343,
              -7.7506647
            ],
            [
              -37.6373206,
              -7.7508687
            ],
            [
              -37.6372171,
              -7.750812
            ],
            [
              -37.6373309,
              -7.750608
            ],
            [
              -37.6374343,
              -7.7506647
            ]
          ]
        ]
      }
    },
    {
      "type": "Feature",
      "id": "way/800150261",
      "properties": {
        "timestamp": "2020-05-04T21:55:51Z",
        "version": 1,
        "changeset": 84649426,
        "addr:city": "Afogados da Ingazeira",
        "addr:housenumber": "325",
        "addr:postcode": "56800-000",
        "addr:street": "Rua Senador Paulo Guerra",
        "addr:suburb": "Centro",
        "building": "yes",
        "government": "public_service",
        "name": "Secreteria de Assistência Social",
        "office": "government",
        "opening_hours": "Mo-Fr 08:00-13:00",
        "phone": "+55 87 3838 3837",
        "wheelchair": "yes",
        "id": "way/800150261"
      },
      "geometry": {
        "type": "Polygon",
        "coordinates": [
          [
            [
              -37.6365845,
              -7.7504093
            ],
            [
              -37.6366592,
              -7.7502804
            ],
            [
              -37.6367591,
              -7.7503372
            ],
            [
              -37.6366844,
              -7.7504661
            ],
            [
              -37.6365845,
              -7.7504093
            ]
          ]
        ]
      }
    },
    {
      "type": "Feature",
      "id": "way/800150262",
      "properties": {
        "timestamp": "2021-06-23T14:52:11Z",
        "version": 2,
        "changeset": 106845673,
        "addr:city": "Afogados da Ingazeira",
        "addr:housenumber": "165",
        "addr:postcode": "56800-000",
        "addr:street": "Rua Roberto Nogueira Lima",
        "addr:suburb": "Centro",
        "building": "yes",
        "email": "sadetur@afogadosdaingazeira.pe.gov.br",
        "government": "public_service",
        "name": "Secretaria de Administração, Desenvolvimento Econômico e Turismo (SADETUR)",
        "office": "government",
        "opening_hours": "Mo-Fr 08:00-14:00",
        "phone": "+55 87 99978 1331",
        "wheelchair": "yes",
        "id": "way/800150262"
      },
      "geometry": {
        "type": "Polygon",
        "coordinates": [
          [
            [
              -37.6373437,
              -7.7516021
            ],
            [
              -37.637113,
              -7.7514712
            ],
            [
              -37.63718,
              -7.7513402
            ],
            [
              -37.6374148,
              -7.7514742
            ],
            [
              -37.6373437,
              -7.7516021
            ]
          ]
        ]
      }
    },
    {
      "type": "Feature",
      "id": "way/1027497748",
      "properties": {
        "timestamp": "2022-04-12T23:47:46Z",
        "version": 4,
        "changeset": 119642560,
        "addr:city": "Afogados da Ingazeira, PE",
        "addr:housenumber": "345",
        "addr:postcode": "56800-000",
        "addr:street": "Rua Antônio Vidal de Freitas",
        "addr:suburb": "Centro",
        "building": "service",
        "government": "social_services",
        "name": "Defesa Civil Municipal",
        "office": "government",
        "phone": "87 99629-5758",
        "photo": "https://lh3.googleusercontent.com/RaK3h1LglvelwB16yhraFiqhBbNrXheWXiZDf9Da_2_2aj1M8yUU-5a19p9RO_zYGbnMJP_YPiuW64I5wIOevr0PNbC-ZTBfPF5mUXxFHA",
        "wheelchair": "yes",
        "id": "way/1027497748"
      },
      "geometry": {
        "type": "Polygon",
        "coordinates": [
          [
            [
              -37.6349647,
              -7.752757
            ],
            [
              -37.6349068,
              -7.7528659
            ],
            [
              -37.6348476,
              -7.752835
            ],
            [
              -37.6349055,
              -7.7527261
            ],
            [
              -37.6349647,
              -7.752757
            ]
          ]
        ]
      }
    },
    {
      "type": "Feature",
      "id": "way/1027499171",
      "properties": {
        "timestamp": "2022-02-03T20:57:42Z",
        "version": 1,
        "changeset": 116980463,
        "addr:city": "Afogados da Ingazeira, PE",
        "addr:housenumber": "383",
        "addr:postcode": "56800-000",
        "addr:street": "Rua Antônio Vidal de Freitas",
        "addr:suburb": "Centro",
        "building": "yes",
        "government": "public_service",
        "name": "Criança Feliz",
        "office": "government",
        "id": "way/1027499171"
      },
      "geometry": {
        "type": "Polygon",
        "coordinates": [
          [
            [
              -37.6346518,
              -7.7525364
            ],
            [
              -37.6345721,
              -7.752683
            ],
            [
              -37.6345191,
              -7.7526538
            ],
            [
              -37.6345989,
              -7.7525078
            ],
            [
              -37.6346518,
              -7.7525364
            ]
          ]
        ]
      }
    },
    {
      "type": "Feature",
      "id": "node/5272142419",
      "properties": {
        "timestamp": "2019-12-08T17:14:26Z",
        "version": 2,
        "changeset": 78114192,
        "addr:city": "Afogados da Ingazeira",
        "addr:housenumber": "517",
        "addr:postcode": "56800-000",
        "addr:street": "Avenida Artur Padilha",
        "addr:suburb": "Centro",
        "government": "public_service",
        "name": "COMPESA",
        "office": "government",
        "phone": "+55 87 3838 8701",
        "id": "node/5272142419"
      },
      "geometry": {
        "type": "Point",
        "coordinates": [
          -37.6349269,
          -7.7474564
        ]
      }
    },
    {
      "type": "Feature",
      "id": "node/5272192961",
      "properties": {
        "timestamp": "2018-02-04T16:56:07Z",
        "version": 3,
        "changeset": 56060942,
        "addr:city": "Afogados da Ingazeira",
        "addr:housenumber": "75",
        "addr:postcode": "56800-000",
        "addr:street": "Rua Newton César",
        "addr:suburb": "Centro",
        "government": "public_service",
        "name": "Secretaria Municipal de Educação",
        "office": "government",
        "id": "node/5272192961"
      },
      "geometry": {
        "type": "Point",
        "coordinates": [
          -37.6376746,
          -7.7501642
        ]
      }
    },
    {
      "type": "Feature",
      "id": "node/5307082010",
      "properties": {
        "timestamp": "2020-05-03T21:08:59Z",
        "version": 2,
        "changeset": 84581258,
        "government": "social_services",
        "name": "Previdência Social (INSS)",
        "office": "government",
        "id": "node/5307082010"
      },
      "geometry": {
        "type": "Point",
        "coordinates": [
          -37.6249216,
          -7.7532864
        ]
      }
    }
  ]
}
