{
  "type": "FeatureCollection",
  "features": [
    {
      "type": "Feature",
      "id": "node/5272159614",
      "properties": {
        "timestamp": "2022-09-05T14:23:33Z",
        "version": 3,
        "changeset": 125817946,
        "addr:city": "Afogados da Ingazeira",
        "addr:housenumber": "405",
        "addr:postcode": "56800-000",
        "addr:street": "Praça Monsenhor Alfredo de Arruda Camara",
        "addr:suburb": "Centro",
        "amenity": "pharmacy",
        "brand": "Pague Menos",
        "brand:wikidata": "Q7124466",
        "dispensing": "yes",
        "drive_through": "no",
        "healthcare": "pharmacy",
        "name": "Pague Menos",
        "opening_hours": "24/7",
        "wheelchair": "yes",
        "id": "node/5272159614"
      },
      "geometry": {
        "type": "Point",
        "coordinates": [
          -37.6395823,
          -7.750347
        ]
      }
    },
    {
      "type": "Feature",
      "id": "node/5387173293",
      "properties": {
        "timestamp": "2018-02-04T17:02:37Z",
        "version": 1,
        "changeset": 56061085,
        "addr:city": "Afogados da Ingazeira",
        "addr:housenumber": "54",
        "addr:postcode": "56800-000",
        "addr:street": "Rua Doutor Roberto Nogueira Lima",
        "addr:suburb": "Centro",
        "amenity": "pharmacy",
        "healthcare": "pharmacy",
        "name": "Farmácia dos Municípios",
        "phone": "+55 87 3838-1313",
        "id": "node/5387173293"
      },
      "geometry": {
        "type": "Point",
        "coordinates": [
          -37.6374863,
          -7.7505271
        ]
      }
    }
  ]
}
