{
  "type": "FeatureCollection",
  "features": [
    {
      "type": "Feature",
      "id": "node/5275386933",
      "properties": {
        "timestamp": "2019-12-08T17:14:26Z",
        "version": 2,
        "changeset": 78114192,
        "addr:city": "Afogados da Ingazeira",
        "addr:postcode": "56800-000",
        "addr:street": "Avenida Aparicio Vieiras",
        "addr:suburb": "Centro",
        "amenity": "social_facility",
        "name": "Abrigo SÃ£o Vicente",
        "social_facility": "group_home",
        "social_facility:for": "senior",
        "id": "node/5275386933"
      },
      "geometry": {
        "type": "Point",
        "coordinates": [
          -37.6383439,
          -7.7530334
        ]
      }
    },
    {
      "type": "Feature",
      "id": "node/10240985211",
      "properties": {
        "timestamp": "2022-12-05T20:33:47Z",
        "version": 1,
        "changeset": 129756170,
        "addr:city": "Afogados da Ingazeira",
        "addr:postcode": "56800-000",
        "amenity": "social_facility",
        "name": "ASAVAP",
        "social_facility": "nursing_home",
        "social_facility:for": "senior",
        "wheelchair": "yes",
        "id": "node/10240985211"
      },
      "geometry": {
        "type": "Point",
        "coordinates": [
          -37.6497531,
          -7.7389963
        ]
      }
    }
  ]
}
