{
  "type": "FeatureCollection",
  "features": [
    {
      "type": "Feature",
      "id": "way/1219239417",
      "properties": {
        "timestamp": "2024-09-20T02:27:53Z",
        "version": 3,
        "changeset": 156846426,
        "addr:city": "Leme",
        "addr:housenumber": "705",
        "addr:postcode": "13611-300",
        "addr:street": "Avenida Doutor Hermínio Ometto",
        "addr:suburb": "Jardim Alvorada",
        "amenity": "clinic",
        "healthcare": "clinic",
        "healthcare:speciality": "paediatrics",
        "name": "Centro Médico Integrado Antônio Macarenko",
        "name:pt": "CMI - Centro Médico Integrado Antônio Macarenko",
        "opening_hours": "Mo-Fr 07:00-17:00; PH off",
        "operator:type": "government",
        "ref:CNES": "2034468",
        "source": "CNES",
        "id": "way/1219239417"
      },
      "geometry": {
        "type": "Polygon",
        "coordinates": [
          [
            [
              -47.3766138,
              -22.1965078
            ],
            [
              -47.3762925,
              -22.1967819
            ],
            [
              -47.3762057,
              -22.1967054
            ],
            [
              -47.376531,
              -22.1964275
            ],
            [
              -47.3766138,
              -22.1965078
            ]
          ]
        ]
      }
    },
    {
      "type": "Feature",
      "id": "way/1220072801",
      "properties": {
        "timestamp": "2023-11-02T08:57:14Z",
        "version": 2,
        "changeset": 143517817,
        "addr:city": "Leme",
        "addr:housenumber": "200",
        "addr:postcode": "13612232",
        "addr:street": "Rua Antônio Carlos Guadagnini",
        "addr:suburb": "Jardim Renascença",
        "air_conditioning": "no",
        "amenity": "clinic",
        "building": "yes",
        "building:levels": "1",
        "check_date": "2023-11-01",
        "healthcare": "clinic",
        "healthcare:speciality": "community",
        "internet_access": "no",
        "name": "Unidade de Saúde da Família Renascença",
        "name:pt": "Unidade de Saúde da Família Renascença",
        "opening_hours": "Mo-Fr 08:00-17:00; Sa-Su off",
        "operator": "Secretaria de Saúde da Prefeitura do Município de Leme",
        "operator:type": "government",
        "payment:cards": "no",
        "payment:credit_cards": "no",
        "payment:debit_cards": "no",
        "phone": "+55 19 3572-2252",
        "roof:shape": "gabled",
        "wheelchair": "yes",
        "id": "way/1220072801"
      },
      "geometry": {
        "type": "Polygon",
        "coordinates": [
          [
            [
              -47.4021869,
              -22.1947056
            ],
            [
              -47.4020836,
              -22.1948241
            ],
            [
              -47.4018923,
              -22.1946812
            ],
            [
              -47.4019956,
              -22.1945627
            ],
            [
              -47.4021869,
              -22.1947056
            ]
          ]
        ]
      }
    },
    {
      "type": "Feature",
      "id": "way/1316826648",
      "properties": {
        "timestamp": "2024-09-20T00:46:45Z",
        "version": 1,
        "changeset": 156845237,
        "addr:housenumber": "465",
        "addr:postcode": "13616-520",
        "addr:street": "Rua Siqueira Campos",
        "addr:suburb": "São Manoel",
        "amenity": "clinic",
        "building": "yes",
        "healthcare": "clinic",
        "healthcare:speciality": "general",
        "opening_hours": "Mo-Fr 07:00-17:00; PH off",
        "operator": "Secretaria Municipal de Saúde",
        "operator:type": "government",
        "ref:CNES": "2088002",
        "short_name": "ESF São Manoel",
        "source": "CNES",
        "id": "way/1316826648"
      },
      "geometry": {
        "type": "Polygon",
        "coordinates": [
          [
            [
              -47.373641,
              -22.1697579
            ],
            [
              -47.3736723,
              -22.1699464
            ],
            [
              -47.3735315,
              -22.1699705
            ],
            [
              -47.3735002,
              -22.1697773
            ],
            [
              -47.373641,
              -22.1697579
            ]
          ]
        ]
      }
    }
  ]
}
