{
  "type": "FeatureCollection",
  "features": [
    {
      "type": "Feature",
      "id": "way/436184219",
      "properties": {
        "timestamp": "2022-08-14T08:42:34Z",
        "version": 2,
        "changeset": 124878495,
        "addr:city": "Leme",
        "addr:housenumber": "971",
        "addr:postcode": "13610-230",
        "addr:street": "Rua Padre Julião",
        "addr:suburb": "Centro",
        "building": "yes",
        "name": "SAECIL",
        "name:pt": "Superintendência de Águas e Esgoto de Leme",
        "office": "government",
        "opening_hours": "Mo-Fr 07:00-18:00",
        "phone": "+55 800 771 6231",
        "id": "way/436184219"
      },
      "geometry": {
        "type": "Polygon",
        "coordinates": [
          [
            [
              -47.3902219,
              -22.1887181
            ],
            [
              -47.3906028,
              -22.1889068
            ],
            [
              -47.3904043,
              -22.1892545
            ],
            [
              -47.3900127,
              -22.1890534
            ],
            [
              -47.3902219,
              -22.1887181
            ]
          ]
        ]
      }
    },
    {
      "type": "Feature",
      "id": "way/546257558",
      "properties": {
        "timestamp": "2023-11-02T01:59:22Z",
        "version": 4,
        "changeset": 143504878,
        "addr:street": "Rua Doutor Querubino Soeiro",
        "building": "yes",
        "government": "legislative",
        "name": "Câmara de Vereadores de Leme",
        "office": "government",
        "id": "way/546257558"
      },
      "geometry": {
        "type": "Polygon",
        "coordinates": [
          [
            [
              -47.3878554,
              -22.1848487
            ],
            [
              -47.3880827,
              -22.1849581
            ],
            [
              -47.387911,
              -22.1852505
            ],
            [
              -47.387687,
              -22.1851312
            ],
            [
              -47.3878554,
              -22.1848487
            ]
          ]
        ]
      }
    },
    {
      "type": "Feature",
      "id": "node/4274782132",
      "properties": {
        "timestamp": "2024-09-20T15:21:51Z",
        "version": 3,
        "changeset": 156873328,
        "addr:city": "Leme",
        "addr:housenumber": "541",
        "addr:postcode": "13617-000",
        "addr:street": "Avenida Maria Augusta Tomaz",
        "addr:suburb": "Centro",
        "government": "administrative",
        "name": "Secretaria da Educação",
        "office": "government",
        "opening_hours": "Mo-Fr 07:00-17:30; PH off",
        "phone": "+55 19 3573 6300",
        "website": "http://educaleme.sp.gov.br/",
        "id": "node/4274782132"
      },
      "geometry": {
        "type": "Point",
        "coordinates": [
          -47.3866184,
          -22.1777201
        ]
      }
    },
    {
      "type": "Feature",
      "id": "node/7762104419",
      "properties": {
        "timestamp": "2023-11-02T01:59:22Z",
        "version": 2,
        "changeset": 143504878,
        "addr:city": "Leme",
        "addr:housenumber": "587",
        "addr:postcode": "13610-200",
        "addr:street": "Rua Rafael de Barros",
        "addr:suburb": "Centro",
        "government": "register_office",
        "name": "Oficial de Registro Civil e de Interdições e Tutelas da Sede da Comarca de Leme do Estado de São Paulo",
        "office": "government",
        "opening_hours": "Mo-Fr 09:00-17:00; Sa 09:00-12:00",
        "opening_hours:covid19": "Mo-Fr 09:00-13:00",
        "phone": "+55 19 3571 5852",
        "id": "node/7762104419"
      },
      "geometry": {
        "type": "Point",
        "coordinates": [
          -47.3882641,
          -22.1846562
        ]
      }
    },
    {
      "type": "Feature",
      "id": "node/8505055078",
      "properties": {
        "timestamp": "2021-03-10T21:46:12Z",
        "version": 1,
        "changeset": 100802958,
        "addr:city": "Leme",
        "addr:housenumber": "188",
        "addr:street": "Avenida Carlos Bonfanti",
        "addr:suburb": "Centro",
        "government": "social_security",
        "name": "Agência da Previdência Social",
        "office": "government",
        "opening_hours": "Mo-Fr 07:00-13:00",
        "phone": "+551933661056",
        "website": "https://meu.inss.gov.br",
        "id": "node/8505055078"
      },
      "geometry": {
        "type": "Point",
        "coordinates": [
          -47.3838272,
          -22.1861237
        ]
      }
    },
    {
      "type": "Feature",
      "id": "node/11306347658",
      "properties": {
        "timestamp": "2023-11-02T01:59:22Z",
        "version": 1,
        "changeset": 143504878,
        "addr:city": "Leme",
        "addr:housenumber": "140",
        "addr:postcode": "13610-090",
        "addr:street": "Rua Antônio Mourão",
        "addr:suburb": "Centro",
        "air_conditioning": "yes",
        "government": "register_office",
        "name": "Oficial de Registro de Imoveis, Titulos e Documentos e Civil de Pessoa Juridica",
        "office": "government",
        "opening_hours": "Mo-Fr 09:00-16:00",
        "phone": "+55 19 3554-8162",
        "website": "https://rileme.com.br/",
        "wheelchair": "yes",
        "id": "node/11306347658"
      },
      "geometry": {
        "type": "Point",
        "coordinates": [
          -47.3862306,
          -22.1853327
        ]
      }
    }
  ]
}
