{
  "type": "FeatureCollection",
  "features": [
    {
      "type": "Feature",
      "id": "relation/16140809",
      "properties": {
        "timestamp": "2023-07-29T18:58:36Z",
        "version": 1,
        "changeset": 139185126,
        "addr:city": "Mato Leitão",
        "addr:country": "BR",
        "addr:housenumber": "1231",
        "addr:state": "Rio Grande do Sul",
        "addr:street": "Rua Ervino Leopoldo Kuhn",
        "amenity": "school",
        "contact:email": "emefirenobohn@gmail.com",
        "contact:phone": "+55 (51) 3784-1263",
        "name": "EMEF Ireno Bohn",
        "official_name": "Escola Municipal de Ensino Fundamental Ireno Bohn",
        "operator": "Prefeitura Municipal de Mato Leitão",
        "operator:wikidata": "Q121009948",
        "postal_code": "95835-000",
        "ref:INEP": "43070027",
        "type": "multipolygon",
        "id": "relation/16140809"
      },
      "geometry": {
        "type": "Polygon",
        "coordinates": [
          [
            [
              -52.1266119,
              -29.5295749
            ],
            [
              -52.1265288,
              -29.5289868
            ],
            [
              -52.1269445,
              -29.5289611
            ],
            [
              -52.1270143,
              -29.5295784
            ],
            [
              -52.1266119,
              -29.5295749
            ]
          ]
        ]
      }
    },
    {
      "type": "Feature",
      "id": "way/1193197925",
      "properties": {
        "timestamp": "2023-07-29T18:58:36Z",
        "version": 1,
        "changeset": 139185126,
        "addr:city": "Mato Leitão",
        "addr:country": "BR",
        "addr:housenumber": "688",
        "addr:state": "Rio Grande do Sul",
        "addr:street": "Rua Leopoldo Aluísio Hinterholz",
        "addr:suburb": "Centro",
        "amenity": "school",
        "name": "Colégio Estadual Poncho Verde",
        "operator": "Secretaria da Educação do Rio Grande do Sul",
        "operator:wikidata": "Q118145819",
        "ref:INEP": "43165060",
        "id": "way/1193197925"
      },
      "geometry": {
        "type": "Polygon",
        "coordinates": [
          [
            [
              -52.1277499,
              -29.524486
            ],
            [
              -52.1287174,
              -29.5244083
            ],
            [
              -52.1288143,
              -29.5244005
            ],
            [
              -52.1288522,
              -29.5247582
            ],
            [
              -52.1280413,
              -29.5248233
            ],
            [
              -52.1280355,
              -29.5247691
            ],
            [
              -52.1277821,
              -29.5247894
            ],
            [
              -52.1277499,
              -29.524486
            ]
          ]
        ]
      }
    }
  ]
}
