{
  "type": "FeatureCollection",
  "features": [
    {
      "type": "Feature",
      "id": "way/1033623211",
      "properties": {
        "timestamp": "2022-02-20T21:24:37Z",
        "version": 1,
        "changeset": 117655380,
        "amenity": "school",
        "name": "Esc Est Campo Maior",
        "id": "way/1033623211"
      },
      "geometry": {
        "type": "Polygon",
        "coordinates": [
          [
            [
              -49.0017204,
              -10.4271801
            ],
            [
              -49.0016265,
              -10.4275969
            ],
            [
              -49.0011303,
              -10.4274887
            ],
            [
              -49.0012483,
              -10.4270666
            ],
            [
              -49.0017204,
              -10.4271801
            ]
          ]
        ]
      }
    },
    {
      "type": "Feature",
      "id": "way/1033625776",
      "properties": {
        "timestamp": "2022-02-20T21:33:55Z",
        "version": 1,
        "changeset": 117655690,
        "addr:city": "Nova Rosal창ndia",
        "addr:housenumber": "470",
        "addr:postcode": "77495-000",
        "addr:street": "Avenida Tiradentes",
        "addr:suburb": "Centro",
        "amenity": "school",
        "name": "Escola Estadual Girassol De Tempo Integral Regina Siqueira Campos",
        "phone": "+55 63 3520 1120",
        "id": "way/1033625776"
      },
      "geometry": {
        "type": "Polygon",
        "coordinates": [
          [
            [
              -48.9118181,
              -10.5621064
            ],
            [
              -48.9118852,
              -10.562668
            ],
            [
              -48.9111663,
              -10.5627735
            ],
            [
              -48.9110644,
              -10.5621908
            ],
            [
              -48.9118181,
              -10.5621064
            ]
          ]
        ]
      }
    },
    {
      "type": "Feature",
      "id": "way/1033625884",
      "properties": {
        "timestamp": "2022-02-20T21:35:18Z",
        "version": 1,
        "changeset": 117655726,
        "addr:city": "Nova Rosal창ndia",
        "addr:postcode": "77495-000",
        "addr:street": "Rua 15 de Novembro",
        "addr:suburb": "Centro",
        "amenity": "school",
        "name": "Escola Municipal Abrao Jose De Melo",
        "phone": "+55 63 3520 1405",
        "id": "way/1033625884"
      },
      "geometry": {
        "type": "Polygon",
        "coordinates": [
          [
            [
              -48.9099321,
              -10.5642554
            ],
            [
              -48.9100858,
              -10.5651402
            ],
            [
              -48.9096435,
              -10.5652145
            ],
            [
              -48.9094896,
              -10.5643297
            ],
            [
              -48.9099321,
              -10.5642554
            ]
          ]
        ]
      }
    },
    {
      "type": "Feature",
      "id": "way/1033626689",
      "properties": {
        "timestamp": "2022-02-20T21:36:11Z",
        "version": 1,
        "changeset": 117655761,
        "addr:city": "Nova Rosal창ndia",
        "addr:postcode": "77495-000",
        "addr:street": "Avenida Tocantins",
        "addr:suburb": "Centro",
        "amenity": "school",
        "name": "Colegio Estadual Vereador Pedro Xavier Teixeira",
        "phone": "+55 63 3520 1114",
        "id": "way/1033626689"
      },
      "geometry": {
        "type": "Polygon",
        "coordinates": [
          [
            [
              -48.9125504,
              -10.5686218
            ],
            [
              -48.9127891,
              -10.5691517
            ],
            [
              -48.9122956,
              -10.5693126
            ],
            [
              -48.9120729,
              -10.5688406
            ],
            [
              -48.9125504,
              -10.5686218
            ]
          ]
        ]
      }
    },
    {
      "type": "Feature",
      "id": "node/9522668981",
      "properties": {
        "timestamp": "2022-02-20T21:33:08Z",
        "version": 1,
        "changeset": 117655667,
        "addr:city": "Nova Rosal창ndia",
        "addr:postcode": "77495-000",
        "addr:street": "Rua Raimundo de Souza Almeida",
        "addr:suburb": "Setor Jardim Aeroporto",
        "amenity": "school",
        "name": "Centro Municipal De Educacao Infantil Sossego Da Mamae",
        "phone": "+55 63 3520 1212",
        "id": "node/9522668981"
      },
      "geometry": {
        "type": "Point",
        "coordinates": [
          -48.91225,
          -10.5584782
        ]
      }
    }
  ]
}
