{
  "type": "FeatureCollection",
  "features": [
    {
      "type": "Feature",
      "id": "way/461697586",
      "properties": {
        "timestamp": "2022-05-22T15:06:09Z",
        "version": 6,
        "changeset": 121322938,
        "addr:city": "Parnamirim",
        "addr:housenumber": "155",
        "addr:postcode": "59143-455",
        "addr:street": "Rua Antônia de Lima Paiva",
        "addr:suburb": "Nova Esperança",
        "amenity": "college",
        "description": "Instituto Federal de Educação, Ciência e Tecnologia do Rio Grande do Norte",
        "internet_access": "yes",
        "name": "IFRN - Campus Parnamirim",
        "phone": "+55 84 4005-4108",
        "short_name": "IFRN - Campus Parnamirim",
        "website": "https://portal.ifrn.edu.br/campus/parnamirim",
        "id": "way/461697586"
      },
      "geometry": {
        "type": "Polygon",
        "coordinates": [
          [
            [
              -35.2680367,
              -5.9379526
            ],
            [
              -35.2680256,
              -5.9392006
            ],
            [
              -35.2680209,
              -5.9397343
            ],
            [
              -35.2651422,
              -5.93975
            ],
            [
              -35.2651461,
              -5.9390224
            ],
            [
              -35.2652331,
              -5.9389398
            ],
            [
              -35.265245,
              -5.9379448
            ],
            [
              -35.2659697,
              -5.9379494
            ],
            [
              -35.2665443,
              -5.937954
            ],
            [
              -35.2671197,
              -5.9379535
            ],
            [
              -35.2680367,
              -5.9379526
            ]
          ]
        ]
      }
    },
    {
      "type": "Feature",
      "id": "way/710635578",
      "properties": {
        "timestamp": "2019-08-04T11:31:33Z",
        "version": 1,
        "changeset": 72987583,
        "amenity": "college",
        "name": "Grau Técnico",
        "id": "way/710635578"
      },
      "geometry": {
        "type": "Polygon",
        "coordinates": [
          [
            [
              -35.2595976,
              -5.9037363
            ],
            [
              -35.2594514,
              -5.9037727
            ],
            [
              -35.2593667,
              -5.9034357
            ],
            [
              -35.2592194,
              -5.9034723
            ],
            [
              -35.2591505,
              -5.903198
            ],
            [
              -35.259444,
              -5.903125
            ],
            [
              -35.2595976,
              -5.9037363
            ]
          ]
        ]
      }
    },
    {
      "type": "Feature",
      "id": "node/5410178821",
      "properties": {
        "timestamp": "2021-01-14T10:49:11Z",
        "version": 2,
        "changeset": 97490503,
        "addr:city": "Natal",
        "addr:housenumber": "2-90",
        "addr:postcode": "59150-570",
        "addr:street": "Rua Antônio Lopes Chaves",
        "addr:suburb": "Neopolis",
        "amenity": "college",
        "name": "CEEP Lourdinha Guerra",
        "opening_hours": "Mo-Fr 07:30-17:00",
        "phone": "+55 84 3608-2669",
        "website": "https://m.facebook.com/ceepplg/",
        "id": "node/5410178821"
      },
      "geometry": {
        "type": "Point",
        "coordinates": [
          -35.2179058,
          -5.8742051
        ]
      }
    }
  ]
}
