{
  "type": "FeatureCollection",
  "features": [
    {
      "type": "Feature",
      "id": "way/494918035",
      "properties": {
        "timestamp": "2022-12-01T02:06:06Z",
        "version": 2,
        "changeset": 129582026,
        "addr:city": "Frei Lagonegro",
        "addr:postcode": "39708-000",
        "addr:street": "Rua Principal",
        "addr:suburb": "Córrego Tabatinga",
        "amenity": "school",
        "name": "Escola Municipal Vereador Vicente Queijeiro",
        "operator": "Município de Frei Lagonegro",
        "operator:type": "public",
        "id": "way/494918035"
      },
      "geometry": {
        "type": "Polygon",
        "coordinates": [
          [
            [
              -42.6623455,
              -18.1663342
            ],
            [
              -42.6621307,
              -18.166698
            ],
            [
              -42.6615516,
              -18.166414
            ],
            [
              -42.6617758,
              -18.1660324
            ],
            [
              -42.6623455,
              -18.1663342
            ]
          ]
        ]
      }
    },
    {
      "type": "Feature",
      "id": "node/10207429668",
      "properties": {
        "timestamp": "2022-11-21T14:07:41Z",
        "version": 1,
        "changeset": 129198942,
        "addr:city": "São José do Jacuri",
        "addr:housenumber": "57",
        "addr:postcode": "39707-000",
        "addr:street": "Rua Major Fulgêncio",
        "addr:suburb": "Centro",
        "amenity": "school",
        "name": "Escola Estadual John Kennedy",
        "operator": "Governo de Minas Gerais",
        "operator:type": "public",
        "id": "node/10207429668"
      },
      "geometry": {
        "type": "Point",
        "coordinates": [
          -42.6719206,
          -18.2776434
        ]
      }
    },
    {
      "type": "Feature",
      "id": "node/10207429676",
      "properties": {
        "timestamp": "2022-11-21T14:07:41Z",
        "version": 1,
        "changeset": 129198942,
        "addr:city": "São José do Jacuri",
        "addr:housenumber": "74",
        "addr:postcode": "39707-000",
        "addr:street": "Praça do Cruzeiro",
        "addr:suburb": "Centro",
        "amenity": "school",
        "name": "Escola Estadual Marcilio Dias",
        "operator": "Governo de Minas Gerais",
        "operator:type": "public",
        "id": "node/10207429676"
      },
      "geometry": {
        "type": "Point",
        "coordinates": [
          -42.6700188,
          -18.2760593
        ]
      }
    }
  ]
}
