{
  "type": "FeatureCollection",
  "features": [
    {
      "type": "Feature",
      "id": "way/553115561",
      "properties": {
        "timestamp": "2021-06-04T07:34:39Z",
        "version": 2,
        "changeset": 105820574,
        "building": "yes",
        "building:levels": "2",
        "name": "Pousada da ASPP",
        "operator": "Associação dos Servidores Públicos do Paraná",
        "tourism": "hotel",
        "id": "way/553115561"
      },
      "geometry": {
        "type": "Polygon",
        "coordinates": [
          [
            [
              -48.7098929,
              -25.4296951
            ],
            [
              -48.70981,
              -25.429537
            ],
            [
              -48.7099828,
              -25.4294659
            ],
            [
              -48.7100622,
              -25.429627
            ],
            [
              -48.7098929,
              -25.4296951
            ]
          ]
        ]
      }
    },
    {
      "type": "Feature",
      "id": "way/746618761",
      "properties": {
        "timestamp": "2019-11-18T11:42:50Z",
        "version": 1,
        "changeset": 77223833,
        "building": "yes",
        "name": "Capelista",
        "tourism": "hotel",
        "id": "way/746618761"
      },
      "geometry": {
        "type": "Polygon",
        "coordinates": [
          [
            [
              -48.7151736,
              -25.4309878
            ],
            [
              -48.7152229,
              -25.4311311
            ],
            [
              -48.7149533,
              -25.4312048
            ],
            [
              -48.7149086,
              -25.4310629
            ],
            [
              -48.7151736,
              -25.4309878
            ]
          ]
        ]
      }
    },
    {
      "type": "Feature",
      "id": "way/1209737509",
      "properties": {
        "timestamp": "2023-09-21T12:39:33Z",
        "version": 1,
        "changeset": 141557515,
        "building": "house",
        "tourism": "hotel",
        "id": "way/1209737509"
      },
      "geometry": {
        "type": "Polygon",
        "coordinates": [
          [
            [
              -48.7636231,
              -25.4042898
            ],
            [
              -48.7635332,
              -25.4044493
            ],
            [
              -48.7634488,
              -25.4044173
            ],
            [
              -48.7634836,
              -25.4043552
            ],
            [
              -48.7634368,
              -25.4043347
            ],
            [
              -48.7634963,
              -25.4042374
            ],
            [
              -48.7636231,
              -25.4042898
            ]
          ]
        ]
      }
    },
    {
      "type": "Feature",
      "id": "way/1209737511",
      "properties": {
        "timestamp": "2024-03-04T16:43:32Z",
        "version": 3,
        "changeset": 148215699,
        "building": "yes",
        "tourism": "hotel",
        "id": "way/1209737511"
      },
      "geometry": {
        "type": "Polygon",
        "coordinates": [
          [
            [
              -48.7638372,
              -25.4050965
            ],
            [
              -48.7638859,
              -25.4051531
            ],
            [
              -48.7638092,
              -25.4052071
            ],
            [
              -48.7637604,
              -25.4051505
            ],
            [
              -48.7638372,
              -25.4050965
            ]
          ]
        ]
      }
    },
    {
      "type": "Feature",
      "id": "way/1292381100",
      "properties": {
        "timestamp": "2024-06-14T17:22:30Z",
        "version": 3,
        "changeset": 152690610,
        "addr:city": "Antonina",
        "addr:postcode": "833070000",
        "addr:street": "Vila do Limoeiro",
        "addr:suburb": "Cachoeira de Baixo",
        "brand": "Chácara do Limoeiro",
        "building": "house",
        "contact:facebook": "https://www.facebook.com/chacaradolimoeiro/",
        "contact:instagram": "https://www.instagram.com/chacaradolimoeiro/",
        "email": "selmafausto@hotmail.com",
        "internet_access": "wlan",
        "internet_access:fee": "customers",
        "name": "Chácara do Limoeiro",
        "phone": "+55 (41) 99940-8498",
        "phone:mobile": "+55 (41) 99940-8498",
        "rooms": "3",
        "tourism": "hotel",
        "website": "chacaradolimoeiro.blogspot.com.br",
        "id": "way/1292381100"
      },
      "geometry": {
        "type": "Polygon",
        "coordinates": [
          [
            [
              -48.7084908,
              -25.3201686
            ],
            [
              -48.7084923,
              -25.3202946
            ],
            [
              -48.7083552,
              -25.3202952
            ],
            [
              -48.7083569,
              -25.3202268
            ],
            [
              -48.7083582,
              -25.3201686
            ],
            [
              -48.7084908,
              -25.3201686
            ]
          ]
        ]
      }
    },
    {
      "type": "Feature",
      "id": "node/6638431143",
      "properties": {
        "timestamp": "2024-12-27T21:56:51Z",
        "version": 4,
        "changeset": 160694317,
        "addr:city": "Antonina",
        "addr:housenumber": "S/N",
        "addr:postcode": "83370-000",
        "addr:street": "R. Valê Pôrto",
        "addr:suburb": "Centro Histórico",
        "email": "capela@hotelcamboa.com.br",
        "name": "Pousada Camboa",
        "phone": "+55(41) 98776-1100",
        "tourism": "hotel",
        "website": "https://www.hotelcamboa.com.br/home-antonina/",
        "id": "node/6638431143"
      },
      "geometry": {
        "type": "Point",
        "coordinates": [
          -48.7102086,
          -25.4310121
        ]
      }
    },
    {
      "type": "Feature",
      "id": "node/6985899055",
      "properties": {
        "timestamp": "2022-07-30T12:42:55Z",
        "version": 2,
        "changeset": 124266519,
        "addr:city": "Antonina",
        "addr:housenumber": "512",
        "addr:postcode": "83370000",
        "addr:street": "Daniel Pires",
        "addr:suburb": "Ponta da Pita",
        "internet_access": "wlan",
        "name": "Pousada Porto Feliz",
        "phone": "+55 41 3432 0655",
        "tourism": "hotel",
        "website": "https://www.facebook.com/pousadaportofelizantonina/",
        "id": "node/6985899055"
      },
      "geometry": {
        "type": "Point",
        "coordinates": [
          -48.6928483,
          -25.4604555
        ]
      }
    },
    {
      "type": "Feature",
      "id": "node/7239159586",
      "properties": {
        "timestamp": "2023-03-15T20:59:43Z",
        "version": 2,
        "changeset": 133725007,
        "name": "Pousada Porto Feliz",
        "tourism": "hotel",
        "id": "node/7239159586"
      },
      "geometry": {
        "type": "Point",
        "coordinates": [
          -48.6919605,
          -25.4609125
        ]
      }
    },
    {
      "type": "Feature",
      "id": "node/9887268372",
      "properties": {
        "timestamp": "2023-09-19T00:44:03Z",
        "version": 4,
        "changeset": 141445756,
        "addr:city": "Antonina",
        "addr:country": "BR",
        "addr:housenumber": "1400",
        "addr:postcode": "83370000",
        "addr:state": "PR",
        "addr:street": "Estrada Faisqueirinha",
        "addr:suburb": "Faisqueirinha",
        "camp_site": "serviced",
        "email": "portaldomangue.antonina@gmail.com",
        "internet_access": "yes",
        "internet_access:fee": "customers",
        "name": "Turismo Ecológico Portal do Mangue",
        "phone": "+5541991941414",
        "rooms": "2",
        "tourism": "hotel",
        "website": "https://www.facebook.com/profile.php?id=100063708306660",
        "id": "node/9887268372"
      },
      "geometry": {
        "type": "Point",
        "coordinates": [
          -48.7635273,
          -25.4043231
        ]
      }
    },
    {
      "type": "Feature",
      "id": "node/10128215041",
      "properties": {
        "timestamp": "2022-10-25T14:01:07Z",
        "version": 1,
        "changeset": 128042001,
        "addr:city": "Antonina",
        "addr:housenumber": "189",
        "addr:street": "Rua Comendador Araújo",
        "addr:suburb": "Centro",
        "name": "Hospedaria Luz",
        "phone": "+554134321625",
        "tourism": "hotel",
        "id": "node/10128215041"
      },
      "geometry": {
        "type": "Point",
        "coordinates": [
          -48.7138147,
          -25.4297015
        ]
      }
    }
  ]
}
