{
  "type": "FeatureCollection",
  "features": [
    {
      "type": "Feature",
      "id": "node/7994800888",
      "properties": {
        "timestamp": "2024-10-05T13:35:35Z",
        "version": 2,
        "changeset": 157501518,
        "addr:housenumber": "km 13",
        "addr:postcode": "78450000",
        "addr:street": "MT-235 km 13",
        "name": "Entrada parque das águas eco risort",
        "opening_hours": "Sa-Su 00:00-24:00",
        "tourism": "guest_house",
        "id": "node/7994800888"
      },
      "geometry": {
        "type": "Point",
        "coordinates": [
          -55.9620993,
          -13.8004281
        ]
      }
    },
    {
      "type": "Feature",
      "id": "node/7994833185",
      "properties": {
        "timestamp": "2024-10-05T13:35:35Z",
        "version": 2,
        "changeset": 157501518,
        "addr:housenumber": "MT-235 km 13",
        "addr:postcode": "78450000",
        "addr:street": "MT-235, km 13, Nova Mutum, MT",
        "name": "parque das águas",
        "opening_hours": "Sa-Su 00:00-24:00",
        "tourism": "guest_house",
        "id": "node/7994833185"
      },
      "geometry": {
        "type": "Point",
        "coordinates": [
          -55.9632578,
          -13.8073613
        ]
      }
    }
  ]
}
