{
  "type": "FeatureCollection",
  "features": [
    {
      "type": "Feature",
      "id": "node/11169149294",
      "properties": {
        "timestamp": "2023-11-15T01:17:06Z",
        "version": 4,
        "changeset": 144032060,
        "addr:city": "Capim Branco",
        "addr:housenumber": "55",
        "addr:postcode": "35730-000",
        "addr:street": "Rua Higina José da Silva",
        "addr:suburb": "Centro",
        "brand": "EMATER-MG",
        "brand:wikidata": "Q123439918",
        "email": "capim.branco@emater.mg.gov.br",
        "full_name": "Empresa de Assistência Técnica e Extensão Rural",
        "name": "EMATER",
        "office": "government",
        "opening_hours": "Mo-Fr 08:00-12:00,Mo-Fr 13:00-17:00",
        "phone": "+55 31 99292-0315",
        "ref:vatin": "19.198.118/0310-83",
        "smoking": "no",
        "website": "https://www.emater.mg.gov.br/",
        "id": "node/11169149294"
      },
      "geometry": {
        "type": "Point",
        "coordinates": [
          -44.13428,
          -19.543887
        ]
      }
    }
  ]
}
