{
  "type": "FeatureCollection",
  "features": [
    {
      "type": "Feature",
      "id": "way/960141611",
      "properties": {
        "timestamp": "2023-10-14T17:22:18Z",
        "version": 2,
        "changeset": 142586135,
        "addr:housenumber": "55",
        "addr:street": "Rua Raposo Tavares",
        "amenity": "dentist",
        "building": "yes",
        "contact:mobile": "+55 11 93073 9635",
        "email": "faleconosco@sorridents.com.br",
        "healthcare": "dentist",
        "healthcare:speciality": "clínico_geral;orthodontics;odontopediatria;periodontia;prótese_dentária;implantodontia",
        "name": "Sorridents Clínicas Odontológicas",
        "opening_hours": "Mo-Fr 09:00-20:00; Sa 09:00-14:00; PH off",
        "phone": "+55 11 4652 2424",
        "website": "https://sorridents.com.br/aruja/",
        "id": "way/960141611"
      },
      "geometry": {
        "type": "Polygon",
        "coordinates": [
          [
            [
              -46.3208683,
              -23.394581
            ],
            [
              -46.3207419,
              -23.3947183
            ],
            [
              -46.3206041,
              -23.3946152
            ],
            [
              -46.3206877,
              -23.3945194
            ],
            [
              -46.3207626,
              -23.3945573
            ],
            [
              -46.3207755,
              -23.3945431
            ],
            [
              -46.3208683,
              -23.394581
            ]
          ]
        ]
      }
    },
    {
      "type": "Feature",
      "id": "way/960186027",
      "properties": {
        "timestamp": "2021-07-01T20:02:10Z",
        "version": 1,
        "changeset": 107277863,
        "addr:housenumber": "251",
        "addr:street": "Rua Carimé Buíssa",
        "amenity": "dentist",
        "building": "yes",
        "healthcare": "dentist",
        "name": "Clínica Odontológica",
        "phone": "+55 11 97239 6696",
        "id": "way/960186027"
      },
      "geometry": {
        "type": "Polygon",
        "coordinates": [
          [
            [
              -46.3145855,
              -23.3860677
            ],
            [
              -46.3146066,
              -23.3861736
            ],
            [
              -46.3146201,
              -23.3862142
            ],
            [
              -46.3145432,
              -23.3862213
            ],
            [
              -46.3145355,
              -23.3861454
            ],
            [
              -46.3145162,
              -23.3860695
            ],
            [
              -46.3145855,
              -23.3860677
            ]
          ]
        ]
      }
    },
    {
      "type": "Feature",
      "id": "node/8907881485",
      "properties": {
        "timestamp": "2021-07-09T17:53:25Z",
        "version": 1,
        "changeset": 107719621,
        "addr:housenumber": "1361",
        "addr:street": "Avenida Doutor Armando Colângelo",
        "amenity": "dentist",
        "healthcare": "dentist",
        "name": "Odonto Class",
        "id": "node/8907881485"
      },
      "geometry": {
        "type": "Point",
        "coordinates": [
          -46.3260552,
          -23.3855615
        ]
      }
    },
    {
      "type": "Feature",
      "id": "node/8907881500",
      "properties": {
        "timestamp": "2021-07-09T17:53:25Z",
        "version": 1,
        "changeset": 107719621,
        "addr:housenumber": "1242",
        "addr:street": "Avenida Doutor Armando Colângelo",
        "addr:suburb": "Parque Rodrigo Barreto",
        "amenity": "dentist",
        "contact:phone": "+55 11 4653 7033",
        "healthcare": "dentist",
        "name": "Doutor Cícero F. Nogueira Silv",
        "ref": "CROSP-18205",
        "id": "node/8907881500"
      },
      "geometry": {
        "type": "Point",
        "coordinates": [
          -46.3258278,
          -23.3866806
        ]
      }
    },
    {
      "type": "Feature",
      "id": "node/8917154028",
      "properties": {
        "timestamp": "2021-07-13T16:56:06Z",
        "version": 1,
        "changeset": 107924568,
        "addr:street": "Rua Vanderlei Nasser do Prado",
        "addr:suburb": "Centro",
        "amenity": "dentist",
        "healthcare": "dentist",
        "healthcare:speciality": "surgery",
        "name": "Consulto Odontológico",
        "operator": "Doutora Kelen Santos Ferraz",
        "phone": "+55 11 4655 0097",
        "ref": "CROSP-99983",
        "id": "node/8917154028"
      },
      "geometry": {
        "type": "Point",
        "coordinates": [
          -46.3254144,
          -23.3934771
        ]
      }
    }
  ]
}
