{
  "type": "FeatureCollection",
  "features": [
    {
      "type": "Feature",
      "id": "way/581425407",
      "properties": {
        "timestamp": "2018-04-19T02:05:43Z",
        "version": 1,
        "changeset": 58219932,
        "addr:city": "Gravataí",
        "addr:housenumber": "680",
        "addr:street": "Avenida Dorival Cândido Luz de Oliveira",
        "amenity": "pharmacy",
        "building": "yes",
        "dispensing": "yes",
        "healthcare": "pharmacy",
        "name": "Panvel",
        "id": "way/581425407"
      },
      "geometry": {
        "type": "Polygon",
        "coordinates": [
          [
            [
              -51.0015823,
              -29.9382729
            ],
            [
              -51.0016495,
              -29.9383513
            ],
            [
              -51.001571,
              -29.9384663
            ],
            [
              -51.0014522,
              -29.9383278
            ],
            [
              -51.0015156,
              -29.9382869
            ],
            [
              -51.0015316,
              -29.9383055
            ],
            [
              -51.0015823,
              -29.9382729
            ]
          ]
        ]
      }
    },
    {
      "type": "Feature",
      "id": "way/598849894",
      "properties": {
        "timestamp": "2018-06-18T11:30:29Z",
        "version": 1,
        "changeset": 59941008,
        "addr:city": "Gravataí",
        "addr:housenumber": "325",
        "addr:street": "Avenida Dorival Cândido Luz de Oliveira",
        "addr:suburb": "Centro",
        "amenity": "pharmacy",
        "building": "yes",
        "dispensing": "yes",
        "healthcare": "pharmacy",
        "name": "Farmácias São João",
        "id": "way/598849894"
      },
      "geometry": {
        "type": "Polygon",
        "coordinates": [
          [
            [
              -50.9980787,
              -29.9394889
            ],
            [
              -50.9981569,
              -29.9397816
            ],
            [
              -50.9980593,
              -29.9398012
            ],
            [
              -50.9979812,
              -29.9395084
            ],
            [
              -50.9980787,
              -29.9394889
            ]
          ]
        ]
      }
    },
    {
      "type": "Feature",
      "id": "node/5032810423",
      "properties": {
        "timestamp": "2019-03-22T02:15:49Z",
        "version": 4,
        "changeset": 68394222,
        "amenity": "pharmacy",
        "name": "Panvel",
        "website": "https://www.panvel.com/",
        "id": "node/5032810423"
      },
      "geometry": {
        "type": "Point",
        "coordinates": [
          -51.0019635,
          -29.938036
        ]
      }
    },
    {
      "type": "Feature",
      "id": "node/10062544417",
      "properties": {
        "timestamp": "2022-09-29T21:58:28Z",
        "version": 1,
        "changeset": 126799705,
        "addr:housenumber": "5295",
        "addr:street": "Avenida Dorival Cândido Luz de Oliveira",
        "amenity": "pharmacy",
        "name": "Agafarma",
        "opening_hours": "Mo-Sa 08:30-19:00",
        "id": "node/10062544417"
      },
      "geometry": {
        "type": "Point",
        "coordinates": [
          -51.0474584,
          -29.9343353
        ]
      }
    },
    {
      "type": "Feature",
      "id": "node/10062548917",
      "properties": {
        "timestamp": "2022-09-29T22:01:20Z",
        "version": 1,
        "changeset": 126799766,
        "addr:housenumber": "5285",
        "addr:street": "Avenida Dorival Cândido Luz de Oliveira",
        "amenity": "pharmacy",
        "name": "Farmácias Preço Popular",
        "name:en": "Preço Popular Pharmacies",
        "opening_hours": "Mo-Sa 09:00-19:00",
        "id": "node/10062548917"
      },
      "geometry": {
        "type": "Point",
        "coordinates": [
          -51.0470896,
          -29.934397
        ]
      }
    },
    {
      "type": "Feature",
      "id": "node/10089739720",
      "properties": {
        "timestamp": "2022-10-10T13:30:01Z",
        "version": 1,
        "changeset": 127304376,
        "addr:street": "Avenida dos Estados",
        "amenity": "pharmacy",
        "name": "Farmácias São João",
        "id": "node/10089739720"
      },
      "geometry": {
        "type": "Point",
        "coordinates": [
          -51.0476803,
          -29.9339128
        ]
      }
    }
  ]
}
