{
  "type": "FeatureCollection",
  "features": [
    {
      "type": "Feature",
      "id": "way/1027471034",
      "properties": {
        "timestamp": "2022-02-03T18:49:19Z",
        "version": 1,
        "changeset": 116976554,
        "amenity": "school",
        "name": "Unidade Escolar Municipal Conceicao De Maria Gomes Alves De Sousa Bezerra",
        "id": "way/1027471034"
      },
      "geometry": {
        "type": "Polygon",
        "coordinates": [
          [
            [
              -40.5972572,
              -7.100516
            ],
            [
              -40.597174,
              -7.1010617
            ],
            [
              -40.596482,
              -7.1010138
            ],
            [
              -40.5965222,
              -7.1004814
            ],
            [
              -40.5972572,
              -7.100516
            ]
          ]
        ]
      }
    },
    {
      "type": "Feature",
      "id": "way/1027471836",
      "properties": {
        "timestamp": "2022-02-03T18:52:45Z",
        "version": 1,
        "changeset": 116976671,
        "addr:city": "Fronteiras",
        "addr:housenumber": "150",
        "addr:postcode": "64690-000",
        "addr:street": "Rua Ezequiel Batista",
        "addr:suburb": "Mutirão",
        "amenity": "school",
        "name": "Ceja Carolina Maria Bezerra",
        "id": "way/1027471836"
      },
      "geometry": {
        "type": "Polygon",
        "coordinates": [
          [
            [
              -40.6136824,
              -7.0891428
            ],
            [
              -40.6136666,
              -7.0894407
            ],
            [
              -40.6133593,
              -7.0894854
            ],
            [
              -40.6133407,
              -7.0891684
            ],
            [
              -40.6136824,
              -7.0891428
            ]
          ]
        ]
      }
    },
    {
      "type": "Feature",
      "id": "way/1027471915",
      "properties": {
        "timestamp": "2022-02-03T18:53:28Z",
        "version": 1,
        "changeset": 116976698,
        "amenity": "school",
        "name": "Ceti Francisca Pereira De Sousa Morais",
        "id": "way/1027471915"
      },
      "geometry": {
        "type": "Polygon",
        "coordinates": [
          [
            [
              -40.6171446,
              -7.0908098
            ],
            [
              -40.617097,
              -7.0912579
            ],
            [
              -40.6164756,
              -7.0911455
            ],
            [
              -40.6165631,
              -7.0907153
            ],
            [
              -40.6171446,
              -7.0908098
            ]
          ]
        ]
      }
    },
    {
      "type": "Feature",
      "id": "way/1028224248",
      "properties": {
        "timestamp": "2022-02-05T00:21:30Z",
        "version": 1,
        "changeset": 117028267,
        "addr:city": "Fronteiras",
        "amenity": "school",
        "name": "Ceep Francisco Alves De Sousa - Chico Abilio",
        "id": "way/1028224248"
      },
      "geometry": {
        "type": "Polygon",
        "coordinates": [
          [
            [
              -40.5912812,
              -7.0825816
            ],
            [
              -40.5910613,
              -7.0832443
            ],
            [
              -40.5898114,
              -7.0831938
            ],
            [
              -40.5898543,
              -7.0828744
            ],
            [
              -40.5899642,
              -7.0827386
            ],
            [
              -40.5898811,
              -7.0825975
            ],
            [
              -40.5899589,
              -7.081972
            ],
            [
              -40.5912812,
              -7.0825816
            ]
          ]
        ]
      }
    },
    {
      "type": "Feature",
      "id": "node/9472300415",
      "properties": {
        "timestamp": "2022-02-03T18:49:44Z",
        "version": 1,
        "changeset": 116976570,
        "amenity": "school",
        "name": "Centro De Educacao Infantil Jose Aquiles Filho",
        "id": "node/9472300415"
      },
      "geometry": {
        "type": "Point",
        "coordinates": [
          -40.6116714,
          -7.0899466
        ]
      }
    },
    {
      "type": "Feature",
      "id": "node/9472315075",
      "properties": {
        "timestamp": "2022-02-03T18:47:59Z",
        "version": 1,
        "changeset": 116976504,
        "amenity": "school",
        "name": "Unidade Escolar Isac Mena De Oliveira",
        "phone": "+55 89 3454 1348",
        "id": "node/9472315075"
      },
      "geometry": {
        "type": "Point",
        "coordinates": [
          -40.506172,
          -7.1571469
        ]
      }
    },
    {
      "type": "Feature",
      "id": "node/9472317523",
      "properties": {
        "timestamp": "2022-02-03T18:51:40Z",
        "version": 1,
        "changeset": 116976625,
        "addr:city": "Fronteiras",
        "addr:housenumber": "995",
        "addr:postcode": "64690-000",
        "addr:street": "Avenida Sete de Setembro",
        "addr:suburb": "Centro",
        "amenity": "school",
        "name": "Colegio Evangelico Aurenivia Ribeiro",
        "id": "node/9472317523"
      },
      "geometry": {
        "type": "Point",
        "coordinates": [
          -40.6111564,
          -7.0885332
        ]
      }
    },
    {
      "type": "Feature",
      "id": "node/9472323705",
      "properties": {
        "timestamp": "2022-02-03T18:51:04Z",
        "version": 1,
        "changeset": 116976611,
        "addr:city": "Fronteiras",
        "addr:housenumber": "310",
        "addr:postcode": "64690-000",
        "addr:street": "Rua Ezequiel Batista",
        "addr:suburb": "Mutirão",
        "amenity": "school",
        "name": "Unidade Escolar Jose Aquiles De Sousa",
        "id": "node/9472323705"
      },
      "geometry": {
        "type": "Point",
        "coordinates": [
          -40.6118859,
          -7.0894515
        ]
      }
    },
    {
      "type": "Feature",
      "id": "node/9477295671",
      "properties": {
        "timestamp": "2022-02-05T00:19:33Z",
        "version": 1,
        "changeset": 117028234,
        "addr:city": "Fronteiras",
        "addr:housenumber": "261",
        "addr:postcode": "64690-000",
        "addr:street": "Avenida Manoel Valério Pinto Meireles",
        "addr:suburb": "Centro",
        "amenity": "school",
        "name": "Inst De Ens Maria Do Socorro Aquiles E Sa",
        "phone": "+55 89 3454 1076",
        "id": "node/9477295671"
      },
      "geometry": {
        "type": "Point",
        "coordinates": [
          -40.6189214,
          -7.0868563
        ]
      }
    },
    {
      "type": "Feature",
      "id": "node/9477345031",
      "properties": {
        "timestamp": "2022-02-05T00:17:19Z",
        "version": 1,
        "changeset": 117028190,
        "addr:city": "Fronteiras",
        "addr:housenumber": "280",
        "addr:postcode": "64690-000",
        "addr:street": "Avenida Sete de Setembro",
        "addr:suburb": "Centro",
        "amenity": "school",
        "name": "Unidade Escolar Municipal Nossa Senhora De Fatima",
        "id": "node/9477345031"
      },
      "geometry": {
        "type": "Point",
        "coordinates": [
          -40.6176259,
          -7.0891933
        ]
      }
    },
    {
      "type": "Feature",
      "id": "node/9477354045",
      "properties": {
        "timestamp": "2022-02-05T00:20:34Z",
        "version": 1,
        "changeset": 117028255,
        "addr:city": "Fronteiras",
        "addr:postcode": "64690-000",
        "addr:suburb": "Bela Vista",
        "amenity": "school",
        "name": "Unidade Escolar Herminio Jose Ribeiro",
        "id": "node/9477354045"
      },
      "geometry": {
        "type": "Point",
        "coordinates": [
          -40.6191145,
          -7.0777505
        ]
      }
    }
  ]
}
