{
  "type": "FeatureCollection",
  "features": [
    {
      "type": "Feature",
      "id": "node/9949680477",
      "properties": {
        "timestamp": "2022-08-12T16:22:28Z",
        "version": 1,
        "changeset": 124825829,
        "addr:city": "Treviso",
        "addr:postcode": "88862-000",
        "addr:street": "Avenida Professor José Forest Abatti",
        "addr:suburb": "Centro",
        "amenity": "pharmacy",
        "dispensing": "yes",
        "drive_through": "no",
        "healthcare": "pharmacy",
        "name": "Farmácia Treviso",
        "id": "node/9949680477"
      },
      "geometry": {
        "type": "Point",
        "coordinates": [
          -49.4571815,
          -28.5140515
        ]
      }
    },
    {
      "type": "Feature",
      "id": "node/9949680478",
      "properties": {
        "timestamp": "2022-08-12T16:22:28Z",
        "version": 1,
        "changeset": 124825829,
        "addr:city": "Treviso",
        "addr:postcode": "88862-000",
        "addr:street": "Avenida Professor José Forest Abatti",
        "addr:suburb": "Centro",
        "amenity": "pharmacy",
        "dispensing": "yes",
        "drive_through": "no",
        "healthcare": "pharmacy",
        "name": "Drogaria Santo Alexandre",
        "opening_hours": "Mo-Fr 08:00-20:00; Sa 08:00-12:00,14:00-19:00; Su 16:30-19:00",
        "id": "node/9949680478"
      },
      "geometry": {
        "type": "Point",
        "coordinates": [
          -49.4571789,
          -28.5144427
        ]
      }
    }
  ]
}
