{
  "type": "FeatureCollection",
  "features": [
    {
      "type": "Feature",
      "id": "way/379362279",
      "properties": {
        "timestamp": "2022-04-16T22:55:02Z",
        "version": 2,
        "changeset": 119800700,
        "amenity": "doctors",
        "building": "yes",
        "id": "way/379362279"
      },
      "geometry": {
        "type": "Polygon",
        "coordinates": [
          [
            [
              -44.0750132,
              -22.4729905
            ],
            [
              -44.0749988,
              -22.4731645
            ],
            [
              -44.0748748,
              -22.4731557
            ],
            [
              -44.0748892,
              -22.4729818
            ],
            [
              -44.0750132,
              -22.4729905
            ]
          ]
        ]
      }
    },
    {
      "type": "Feature",
      "id": "node/5196307025",
      "properties": {
        "timestamp": "2022-05-27T08:41:49Z",
        "version": 2,
        "changeset": 121562818,
        "addr:housenumber": "1099",
        "addr:postcode": "27255430",
        "addr:street": "Rua 41-C",
        "amenity": "doctors",
        "email": "atendimento@hbvr.com.br",
        "name": "Medicina Hiperb√°rica de Volta Redonda",
        "phone": "(24) 3348-9914",
        "website": "https://hbvr.com.br/",
        "id": "node/5196307025"
      },
      "geometry": {
        "type": "Point",
        "coordinates": [
          -44.0991468,
          -22.5229019
        ]
      }
    }
  ]
}
