{
  "type": "FeatureCollection",
  "features": [
    {
      "type": "Feature",
      "id": "way/1080142105",
      "properties": {
        "timestamp": "2022-07-20T22:52:55Z",
        "version": 1,
        "changeset": 123868971,
        "addr:city": "Volta Redonda",
        "addr:housenumber": "12",
        "addr:street": "Rua Doutor Miguel Couto",
        "addr:suburb": "Jardim Amália I",
        "amenity": "pharmacy",
        "building": "yes",
        "dispensing": "yes",
        "healthcare": "pharmacy",
        "name": "Drogaria Moderna",
        "id": "way/1080142105"
      },
      "geometry": {
        "type": "Polygon",
        "coordinates": [
          [
            [
              -44.0825816,
              -22.5102038
            ],
            [
              -44.0825666,
              -22.5103102
            ],
            [
              -44.0825512,
              -22.5103083
            ],
            [
              -44.0825379,
              -22.5104024
            ],
            [
              -44.0825304,
              -22.5104394
            ],
            [
              -44.082388,
              -22.5103848
            ],
            [
              -44.0824117,
              -22.5101834
            ],
            [
              -44.0825816,
              -22.5102038
            ]
          ]
        ]
      }
    },
    {
      "type": "Feature",
      "id": "way/1112527929",
      "properties": {
        "timestamp": "2022-11-12T17:16:44Z",
        "version": 1,
        "changeset": 128821354,
        "addr:city": "Volta Redonda",
        "addr:postcode": "27212-280",
        "addr:street": "Rua Argentina",
        "addr:suburb": "Vila Americana",
        "amenity": "pharmacy",
        "building": "yes",
        "healthcare": "pharmacy",
        "name": "Drogaria Bem Popular Vila Americana",
        "id": "way/1112527929"
      },
      "geometry": {
        "type": "Polygon",
        "coordinates": [
          [
            [
              -44.0737177,
              -22.4987008
            ],
            [
              -44.0737411,
              -22.4988183
            ],
            [
              -44.073604,
              -22.4988325
            ],
            [
              -44.0735868,
              -22.4987191
            ],
            [
              -44.0737177,
              -22.4987008
            ]
          ]
        ]
      }
    },
    {
      "type": "Feature",
      "id": "way/1112559169",
      "properties": {
        "timestamp": "2022-11-12T20:26:22Z",
        "version": 1,
        "changeset": 128826316,
        "addr:city": "Volta Redonda",
        "addr:postcode": "27212140",
        "addr:street": "Rua Cruzeiro do Sul",
        "addr:suburb": "Vila Americana",
        "amenity": "pharmacy",
        "building": "yes",
        "healthcare": "pharmacy",
        "name": "New Pharma",
        "id": "way/1112559169"
      },
      "geometry": {
        "type": "Polygon",
        "coordinates": [
          [
            [
              -44.0734388,
              -22.4976364
            ],
            [
              -44.0733691,
              -22.4975655
            ],
            [
              -44.0734721,
              -22.4975006
            ],
            [
              -44.0735107,
              -22.497515
            ],
            [
              -44.0734388,
              -22.4976364
            ]
          ]
        ]
      }
    },
    {
      "type": "Feature",
      "id": "way/1159022464",
      "properties": {
        "timestamp": "2023-04-01T18:05:10Z",
        "version": 1,
        "changeset": 134390577,
        "addr:city": "Volta Redonda",
        "addr:housenumber": "01",
        "addr:postcode": "27251-330",
        "addr:street": "Rua Martins Fontes",
        "addr:suburb": "Jardim Amália I",
        "amenity": "pharmacy",
        "brand": "Droga Raia",
        "brand:wikidata": "Q10357101",
        "building": "yes",
        "dispensing": "yes",
        "drive_through": "no",
        "healthcare": "pharmacy",
        "name": "Droga Raia",
        "id": "way/1159022464"
      },
      "geometry": {
        "type": "Polygon",
        "coordinates": [
          [
            [
              -44.0844235,
              -22.511106
            ],
            [
              -44.0843604,
              -22.5112398
            ],
            [
              -44.0842265,
              -22.5112074
            ],
            [
              -44.0842991,
              -22.5110522
            ],
            [
              -44.0844235,
              -22.511106
            ]
          ]
        ]
      }
    },
    {
      "type": "Feature",
      "id": "node/2488856101",
      "properties": {
        "timestamp": "2013-10-08T22:16:53Z",
        "version": 1,
        "changeset": 18256404,
        "amenity": "pharmacy",
        "dispensing": "yes",
        "name": "Drogaria Retiro",
        "source": "survey",
        "id": "node/2488856101"
      },
      "geometry": {
        "type": "Point",
        "coordinates": [
          -44.115647,
          -22.5224226
        ]
      }
    },
    {
      "type": "Feature",
      "id": "node/4321040258",
      "properties": {
        "timestamp": "2016-07-26T11:21:37Z",
        "version": 1,
        "changeset": 41035261,
        "addr:city": "volta redonda",
        "addr:suburb": "São Lucas",
        "amenity": "pharmacy",
        "name": "Drogaria Retiro",
        "id": "node/4321040258"
      },
      "geometry": {
        "type": "Point",
        "coordinates": [
          -44.1199206,
          -22.5300277
        ]
      }
    },
    {
      "type": "Feature",
      "id": "node/5596650024",
      "properties": {
        "timestamp": "2018-05-04T14:21:36Z",
        "version": 1,
        "changeset": 58681187,
        "addr:city": "Volta Redonda",
        "addr:street": "Avenida Paulo de Frontin",
        "addr:suburb": "Aterrado",
        "amenity": "pharmacy",
        "dispensing": "yes",
        "healthcare": "pharmacy",
        "name": "Droga Raia",
        "id": "node/5596650024"
      },
      "geometry": {
        "type": "Point",
        "coordinates": [
          -44.0918338,
          -22.5040138
        ]
      }
    },
    {
      "type": "Feature",
      "id": "node/5596650025",
      "properties": {
        "timestamp": "2018-05-04T14:21:36Z",
        "version": 1,
        "changeset": 58681187,
        "addr:city": "Volta Redonda",
        "addr:street": "Avenida Paulo de Frontin",
        "addr:suburb": "Aterrado",
        "amenity": "pharmacy",
        "dispensing": "yes",
        "healthcare": "pharmacy",
        "name": "Drogaria Retiro",
        "id": "node/5596650025"
      },
      "geometry": {
        "type": "Point",
        "coordinates": [
          -44.0919029,
          -22.5042741
        ]
      }
    },
    {
      "type": "Feature",
      "id": "node/6008151783",
      "properties": {
        "timestamp": "2018-10-23T18:08:24Z",
        "version": 1,
        "changeset": 63805731,
        "addr:city": "Volta Redonda",
        "addr:street": "Estacionamento Unimed",
        "amenity": "pharmacy",
        "dispensing": "yes",
        "healthcare": "pharmacy",
        "name": "Drogaria Moderna",
        "id": "node/6008151783"
      },
      "geometry": {
        "type": "Point",
        "coordinates": [
          -44.076677,
          -22.5351415
        ]
      }
    },
    {
      "type": "Feature",
      "id": "node/9898504641",
      "properties": {
        "timestamp": "2022-07-21T02:48:17Z",
        "version": 3,
        "changeset": 123871622,
        "addr:city": "Volta Redonda",
        "addr:housenumber": "68",
        "addr:street": "Rua São João",
        "amenity": "pharmacy",
        "dispensing": "yes",
        "drive_through": "no",
        "healthcare": "pharmacy",
        "name": "Drogaria Moderna",
        "id": "node/9898504641"
      },
      "geometry": {
        "type": "Point",
        "coordinates": [
          -44.0924979,
          -22.5129626
        ]
      }
    },
    {
      "type": "Feature",
      "id": "node/9900875878",
      "properties": {
        "timestamp": "2022-07-22T05:24:03Z",
        "version": 2,
        "changeset": 123919694,
        "addr:city": "Volta Redonda",
        "addr:housenumber": "334",
        "addr:postcode": "27253-221",
        "addr:street": "Avenida Amaral Peixoto",
        "addr:suburb": "São João",
        "amenity": "pharmacy",
        "brand": "Droga Raia",
        "brand:wikidata": "Q10357101",
        "dispensing": "yes",
        "drive_through": "no",
        "healthcare": "pharmacy",
        "name": "Droga Raia",
        "id": "node/9900875878"
      },
      "geometry": {
        "type": "Point",
        "coordinates": [
          -44.0922836,
          -22.5129394
        ]
      }
    },
    {
      "type": "Feature",
      "id": "node/9900953668",
      "properties": {
        "timestamp": "2022-07-21T03:23:43Z",
        "version": 1,
        "changeset": 123872027,
        "addr:city": "Volta Redonda",
        "addr:postcode": "27253-360",
        "addr:street": "Rua São João",
        "addr:suburb": "São João",
        "amenity": "pharmacy",
        "dispensing": "yes",
        "drive_through": "no",
        "healthcare": "pharmacy",
        "name": "Farma One",
        "id": "node/9900953668"
      },
      "geometry": {
        "type": "Point",
        "coordinates": [
          -44.0923049,
          -22.5132235
        ]
      }
    },
    {
      "type": "Feature",
      "id": "node/10082650739",
      "properties": {
        "timestamp": "2022-10-07T19:48:24Z",
        "version": 1,
        "changeset": 127170028,
        "addr:city": "Volta Redonda",
        "addr:postcode": "27260-315",
        "addr:street": "Rua 12",
        "addr:suburb": "Vila Santa Cecília",
        "amenity": "pharmacy",
        "dispensing": "yes",
        "healthcare": "pharmacy",
        "name": "Drogaria Moderna",
        "id": "node/10082650739"
      },
      "geometry": {
        "type": "Point",
        "coordinates": [
          -44.1059114,
          -22.517884
        ]
      }
    },
    {
      "type": "Feature",
      "id": "node/10178171074",
      "properties": {
        "timestamp": "2022-11-12T17:16:44Z",
        "version": 2,
        "changeset": 128821354,
        "addr:city": "Volta Redonda",
        "addr:housenumber": "689",
        "addr:postcode": "27212-280",
        "addr:street": "Rua Argentina",
        "addr:suburb": "Vila Americana",
        "amenity": "pharmacy",
        "healthcare": "pharmacy",
        "name": "Drogaria Bem Popular Vila Americana",
        "opening_hours": "Mo-Sa 08:00-18:00",
        "payment:cards": "yes",
        "payment:cash": "yes",
        "id": "node/10178171074"
      },
      "geometry": {
        "type": "Point",
        "coordinates": [
          -44.0736164,
          -22.4987518
        ]
      }
    }
  ]
}
