{
  "type": "FeatureCollection",
  "features": [
    {
      "type": "Feature",
      "id": "way/539428792",
      "properties": {
        "timestamp": "2017-11-09T13:07:26Z",
        "version": 1,
        "changeset": 53638805,
        "addr:city": "Santa Mônica",
        "addr:postcode": "87915000",
        "addr:street": "Rua XV de Novembro",
        "addr:suburb": "Centro",
        "amenity": "dentist",
        "building": "yes",
        "healthcare": "dentist",
        "healthcare:speciality": "Dentista_e_Consultorio_Odontologico",
        "name": "Ortodontia Integrada",
        "opening_hours": "Terça e Quarta feira - 08:30 ás 18:00",
        "operator": "Dr. Jaqueline Homem",
        "id": "way/539428792"
      },
      "geometry": {
        "type": "Polygon",
        "coordinates": [
          [
            [
              -53.1087503,
              -23.1100119
            ],
            [
              -53.1087902,
              -23.1099901
            ],
            [
              -53.1088356,
              -23.1100651
            ],
            [
              -53.1087919,
              -23.1100859
            ],
            [
              -53.1087503,
              -23.1100119
            ]
          ]
        ]
      }
    }
  ]
}
