{
  "type": "FeatureCollection",
  "features": [
    {
      "type": "Feature",
      "id": "way/258770934",
      "properties": {
        "timestamp": "2021-07-10T14:25:11Z",
        "version": 2,
        "changeset": 107750174,
        "addr:housenumber": "222",
        "addr:postcode": "12525-000",
        "addr:street": "Avenida Governador Mário Covas",
        "building": "yes",
        "email": "atendimento@dominio.leg.br",
        "government": "administrative",
        "name": "Camara Municipal de Potim",
        "office": "government",
        "opening_hours": "Mo-Fr 12:00-18:00; Sa,Su,PH off",
        "phone": "+55 12 3112 1276",
        "website": "https://www.potim.sp.leg.br/",
        "id": "way/258770934"
      },
      "geometry": {
        "type": "Polygon",
        "coordinates": [
          [
            [
              -45.2512585,
              -22.8403977
            ],
            [
              -45.2512635,
              -22.840644
            ],
            [
              -45.2511622,
              -22.8406458
            ],
            [
              -45.2511572,
              -22.8403995
            ],
            [
              -45.2512585,
              -22.8403977
            ]
          ]
        ]
      }
    },
    {
      "type": "Feature",
      "id": "way/963219495",
      "properties": {
        "timestamp": "2021-07-10T14:42:36Z",
        "version": 1,
        "changeset": 107750797,
        "addr:street": "Rua Indaiá",
        "building": "yes",
        "name": "Velório Municipal de Potim",
        "office": "government",
        "id": "way/963219495"
      },
      "geometry": {
        "type": "Polygon",
        "coordinates": [
          [
            [
              -45.251633,
              -22.8378727
            ],
            [
              -45.251633,
              -22.8379611
            ],
            [
              -45.2515068,
              -22.8379673
            ],
            [
              -45.2515085,
              -22.8378758
            ],
            [
              -45.251633,
              -22.8378727
            ]
          ]
        ]
      }
    }
  ]
}
