{
  "type": "FeatureCollection",
  "features": [
    {
      "type": "Feature",
      "id": "way/1105808030",
      "properties": {
        "timestamp": "2022-10-21T14:06:38Z",
        "version": 1,
        "changeset": 127886259,
        "addr:city": "Potim",
        "addr:housenumber": "321",
        "addr:postcode": "12525-025",
        "addr:street": "Rua Ant√¥nio de Oliveira Portes",
        "addr:suburb": "Centro",
        "amenity": "pharmacy",
        "building": "yes",
        "dispensing": "yes",
        "drive_through": "yes",
        "healthcare": "pharmacy",
        "name": "G.S. Farma",
        "opening_hours": "Mo-Sa 08:00-21:00, Su 08:00-12:00",
        "wheelchair": "yes",
        "id": "way/1105808030"
      },
      "geometry": {
        "type": "Polygon",
        "coordinates": [
          [
            [
              -45.2547592,
              -22.8395531
            ],
            [
              -45.2547979,
              -22.8395034
            ],
            [
              -45.2548556,
              -22.8395415
            ],
            [
              -45.2548169,
              -22.8395912
            ],
            [
              -45.2547592,
              -22.8395531
            ]
          ]
        ]
      }
    }
  ]
}
