{
  "type": "FeatureCollection",
  "features": [
    {
      "type": "Feature",
      "id": "node/12511405070",
      "properties": {
        "timestamp": "2025-01-18T02:03:29Z",
        "version": 2,
        "changeset": 161476269,
        "addr:city": "TrÃªs Passos",
        "addr:housenumber": "2144",
        "addr:postcode": "98600-000",
        "addr:street": "Avenida Costa e Silva",
        "addr:suburb": "centro",
        "air_conditioning": "yes",
        "brand": "Sram, Rock shox, Shimano, Magura",
        "currency:EUR": "yes",
        "currency:Real": "yes",
        "currency:USD": "yes",
        "internet_access": "wlan",
        "internet_access:fee": "no",
        "level": "0",
        "name": "JR Bikes",
        "opening_hours": "Mo-Fr 08:30-12:00 13:30-18:00",
        "payment:cash": "yes",
        "payment:contactless": "yes",
        "payment:credit_cards": "yes",
        "payment:debit_cards": "yes",
        "phone": "+555520320202",
        "service:bicycle:bicycle": "yes",
        "service:bicycle:chain_tool": "yes",
        "service:bicycle:cleaning": "yes",
        "service:bicycle:dealer": "yes",
        "service:bicycle:mtb": "yes",
        "service:bicycle:parts": "yes",
        "service:bicycle:rental": "yes",
        "service:bicycle:repair": "yes",
        "service:bicycle:sales": "yes",
        "service:bicycle:tools": "yes",
        "shop": "bicycle",
        "stroller": "yes",
        "toilets": "yes",
        "wheelchair": "yes",
        "id": "node/12511405070"
      },
      "geometry": {
        "type": "Point",
        "coordinates": [
          -53.9433986,
          -27.4481221
        ]
      }
    }
  ]
}
