{
  "type": "FeatureCollection",
  "features": [
    {
      "type": "Feature",
      "id": "way/546795038",
      "properties": {
        "timestamp": "2022-07-25T17:35:40Z",
        "version": 2,
        "changeset": 124062547,
        "addr:city": "Ibiá",
        "addr:housenumber": "1251",
        "addr:postcode": "38950-000",
        "addr:street": "Avenida José Cambraia",
        "addr:suburb": "Deolinda Mendes",
        "amenity": "pharmacy",
        "building": "yes",
        "drive_through": "yes",
        "healthcare": "pharmacy",
        "name": "Farmacia Paulista",
        "opening_hours": "Mo-Su 08:00-22:00",
        "phone": "+55 34 3631 3815",
        "id": "way/546795038"
      },
      "geometry": {
        "type": "Polygon",
        "coordinates": [
          [
            [
              -46.5493881,
              -19.4943332
            ],
            [
              -46.5494824,
              -19.4944726
            ],
            [
              -46.5493563,
              -19.4945419
            ],
            [
              -46.5492663,
              -19.4944045
            ],
            [
              -46.5493881,
              -19.4943332
            ]
          ]
        ]
      }
    }
  ]
}
