{
  "type": "FeatureCollection",
  "features": [
    {
      "type": "Feature",
      "id": "node/4247471489",
      "properties": {
        "timestamp": "2016-06-16T21:52:49Z",
        "version": 1,
        "changeset": 40078870,
        "name": "hotel central",
        "tourism": "hotel",
        "id": "node/4247471489"
      },
      "geometry": {
        "type": "Point",
        "coordinates": [
          -50.1237983,
          -18.8393983
        ]
      }
    },
    {
      "type": "Feature",
      "id": "node/10586815599",
      "properties": {
        "timestamp": "2023-01-30T14:24:44Z",
        "version": 2,
        "changeset": 131883481,
        "addr:city": "Santa Vitória",
        "addr:housenumber": "1485",
        "addr:postcode": "38320-000",
        "addr:street": "Avenida Eduardo Brandão de Azeredo",
        "addr:suburb": "centro",
        "air_conditioning": "yes",
        "brand": "Grupo Oba!",
        "email": "obahotelsv@gmail.com",
        "internet_access": "wlan",
        "internet_access:fee": "customers",
        "name": "Oba Hotel",
        "phone": "+553432510512",
        "rooms": "17",
        "tourism": "hotel",
        "website": "https://www.instagram.com/obahotelsv",
        "id": "node/10586815599"
      },
      "geometry": {
        "type": "Point",
        "coordinates": [
          -50.1284915,
          -18.8432953
        ]
      }
    }
  ]
}
