{
  "type": "FeatureCollection",
  "features": [
    {
      "type": "Feature",
      "id": "node/4640761689",
      "properties": {
        "timestamp": "2017-07-05T00:07:34Z",
        "version": 2,
        "changeset": 50046678,
        "addr:postcode": "96178-000",
        "addr:street": "Rua Carlos Bohne",
        "amenity": "clinic",
        "name": "Unidade Básica de Saúde.",
        "opening_hours": "Mo-Fr 08:00-17:00",
        "id": "node/4640761689"
      },
      "geometry": {
        "type": "Point",
        "coordinates": [
          -51.5027939,
          -30.909167
        ]
      }
    },
    {
      "type": "Feature",
      "id": "node/4643062222",
      "properties": {
        "timestamp": "2019-04-22T19:59:56Z",
        "version": 3,
        "changeset": 69466365,
        "addr:postcode": "96178-000",
        "addr:street": "Rua João Xavier Pereira",
        "amenity": "clinic",
        "name": "Posto de Saúde - Pronto Atendimento",
        "opening_hours": "24/7",
        "phone": "+55 51 3676-1116",
        "id": "node/4643062222"
      },
      "geometry": {
        "type": "Point",
        "coordinates": [
          -51.5007039,
          -30.9125059
        ]
      }
    }
  ]
}
