{
  "type": "FeatureCollection",
  "features": [
    {
      "type": "Feature",
      "id": "way/1291379944",
      "properties": {
        "timestamp": "2024-06-11T16:11:01Z",
        "version": 1,
        "changeset": 152550581,
        "addr:city": "Pedra Lavrada",
        "addr:postcode": "58180-000",
        "addr:street": "Rua Mário Ferreira Vasconcelos",
        "addr:suburb": "Centro",
        "amenity": "clinic",
        "building": "yes",
        "healthcare": "clinic",
        "name": "Unidade Básica de Saúde Benildes de Medeiros Fernandes",
        "opening_hours": "Mo-We 07:00-11:00; 13:00-17:00",
        "operator": "Sistema Único de Saúde",
        "operator:short": "SUS",
        "operator:type": "public",
        "operator:wikidata": "Q7531056",
        "phone": "+558333754023",
        "ref:CNES": "2605570",
        "id": "way/1291379944"
      },
      "geometry": {
        "type": "Polygon",
        "coordinates": [
          [
            [
              -36.4641066,
              -6.7565294
            ],
            [
              -36.4641044,
              -6.7567471
            ],
            [
              -36.4639587,
              -6.7567456
            ],
            [
              -36.4639597,
              -6.7566506
            ],
            [
              -36.4639214,
              -6.7566502
            ],
            [
              -36.4639224,
              -6.7565576
            ],
            [
              -36.4639564,
              -6.7565579
            ],
            [
              -36.4639567,
              -6.7565279
            ],
            [
              -36.4641066,
              -6.7565294
            ]
          ]
        ]
      }
    },
    {
      "type": "Feature",
      "id": "way/1291506215",
      "properties": {
        "timestamp": "2025-02-12T20:14:47Z",
        "version": 2,
        "changeset": 162444003,
        "addr:city": "Pedra Lavrada",
        "addr:postcode": "58180-000",
        "addr:suburb": "Sítio Tanquinhos",
        "amenity": "clinic",
        "building": "yes",
        "healthcare": "clinic",
        "name": "Unidade Básica de Saúde Gregório Simplício da Costa",
        "opening_hours": "Mo-Tu 07:00-11:00; 13:00-17:00; We 07:00-11:00",
        "operator": "Sistema Único de Saúde",
        "operator:short": "SUS",
        "operator:type": "public",
        "operator:wikidata": "Q7531056",
        "phone": "+558333754023",
        "ref:CNES": "2364298",
        "short_name": "UBS Gregório Simplício da Costa",
        "id": "way/1291506215"
      },
      "geometry": {
        "type": "Polygon",
        "coordinates": [
          [
            [
              -36.398038,
              -6.7811692
            ],
            [
              -36.3979752,
              -6.7812149
            ],
            [
              -36.3978703,
              -6.7810729
            ],
            [
              -36.3979331,
              -6.7810271
            ],
            [
              -36.398038,
              -6.7811692
            ]
          ]
        ]
      }
    },
    {
      "type": "Feature",
      "id": "way/1291506216",
      "properties": {
        "timestamp": "2024-06-11T16:47:52Z",
        "version": 1,
        "changeset": 152552223,
        "addr:city": "Pedra Lavrada",
        "addr:postcode": "58180-000",
        "addr:suburb": "Sítio Serrote",
        "amenity": "clinic",
        "building": "yes",
        "healthcare": "clinic",
        "name": "Unidade Básica de Saúde Joana Alves de Souza",
        "opening_hours": "Th 07:00-11:00; 13:00-17:00",
        "operator": "Sistema Único de Saúde",
        "operator:short": "SUS",
        "operator:type": "public",
        "operator:wikidata": "Q7531056",
        "phone": "+558333754076",
        "ref:CNES": "7803958",
        "short_name": "UBS Joana Alves de Souza",
        "id": "way/1291506216"
      },
      "geometry": {
        "type": "Polygon",
        "coordinates": [
          [
            [
              -36.2717454,
              -6.778941
            ],
            [
              -36.2716646,
              -6.7790724
            ],
            [
              -36.2715734,
              -6.7790172
            ],
            [
              -36.2715777,
              -6.7789965
            ],
            [
              -36.2714657,
              -6.7789286
            ],
            [
              -36.2715361,
              -6.7788141
            ],
            [
              -36.2717454,
              -6.778941
            ]
          ]
        ]
      }
    },
    {
      "type": "Feature",
      "id": "node/11973472085",
      "properties": {
        "timestamp": "2024-06-11T16:47:52Z",
        "version": 1,
        "changeset": 152552223,
        "addr:city": "Pedra Lavrada",
        "addr:postcode": "58180-000",
        "addr:suburb": "Cumaru",
        "amenity": "clinic",
        "healthcare": "clinic",
        "name": "Unidade Básica de Saúde Dina de Azevedo Melo",
        "opening_hours": "Tu-We 07:00-11:00; 13:00-17:00; Fr 07:00-11:00",
        "operator": "Sistema Único de Saúde",
        "operator:short": "SUS",
        "operator:type": "public",
        "operator:wikidata": "Q7531056",
        "ref:CNES": "2364301",
        "short_name": "UBS Dina de Azevedo Melo",
        "id": "node/11973472085"
      },
      "geometry": {
        "type": "Point",
        "coordinates": [
          -36.2695617,
          -6.7326614
        ]
      }
    }
  ]
}
