{
  "type": "FeatureCollection",
  "features": [
    {
      "type": "Feature",
      "id": "node/4921371721",
      "properties": {
        "timestamp": "2019-03-01T22:24:45Z",
        "version": 2,
        "changeset": 67702129,
        "name": "MR PEÇAS",
        "opening_hours": "Mo-Fr 08:00-18:00",
        "shop": "bicycle",
        "id": "node/4921371721"
      },
      "geometry": {
        "type": "Point",
        "coordinates": [
          -42.7511343,
          -5.101408
        ]
      }
    },
    {
      "type": "Feature",
      "id": "node/6561959753",
      "properties": {
        "timestamp": "2019-06-21T00:48:40Z",
        "version": 1,
        "changeset": 71464418,
        "addr:city": "Teresina",
        "addr:street": "Rua Riachuelo",
        "addr:suburb": "Centro",
        "description": "#geoprocessamentoIFPI",
        "name": "Ciclovia - Bicicletas Peças e Acessórios",
        "shop": "bicycle",
        "id": "node/6561959753"
      },
      "geometry": {
        "type": "Point",
        "coordinates": [
          -42.8191065,
          -5.088793
        ]
      }
    },
    {
      "type": "Feature",
      "id": "node/11653173585",
      "properties": {
        "timestamp": "2024-02-22T15:37:43Z",
        "version": 1,
        "changeset": 147778637,
        "addr:city": "Teresina",
        "addr:housenumber": "2692",
        "addr:street": "Rua Lourenço Figueredo",
        "addr:suburb": "Parque Ideal",
        "name": "3K Bikes",
        "opening_hours": "Mo-Sa 08:00-18:00",
        "payment:cash": "yes",
        "payment:credit_cards": "yes",
        "payment:pix": "yes",
        "phone": "+558699960-6886",
        "service:bicycle:cleaning": "yes",
        "service:bicycle:dealer": "yes",
        "service:bicycle:diy": "yes",
        "service:bicycle:mtb": "yes",
        "service:bicycle:parts": "yes",
        "service:bicycle:pump": "yes",
        "service:bicycle:repair": "yes",
        "service:bicycle:retail": "yes",
        "service:bicycle:second_hand": "yes",
        "service:bicycle:service": "yes",
        "service:bicycle:stand": "yes",
        "service:bicycle:tools": "yes",
        "shop": "bicycle",
        "id": "node/11653173585"
      },
      "geometry": {
        "type": "Point",
        "coordinates": [
          -42.746307,
          -5.1019705
        ]
      }
    }
  ]
}
