{
  "type": "FeatureCollection",
  "features": [
    {
      "type": "Feature",
      "id": "relation/12092378",
      "properties": {
        "timestamp": "2020-12-25T15:06:09Z",
        "version": 1,
        "changeset": 96425847,
        "addr:city": "Teresina",
        "addr:street": "Rua Rui Barbosa",
        "addr:suburb": "Centro",
        "amenity": "community_centre",
        "landuse": "recreation_ground",
        "name": "Casa da Cultura de Teresina",
        "type": "multipolygon",
        "website": "https://fcmc.teresina.pi.gov.br/",
        "id": "relation/12092378"
      },
      "geometry": {
        "type": "Polygon",
        "coordinates": [
          [
            [
              -42.8144905,
              -5.0952415
            ],
            [
              -42.8146192,
              -5.0953096
            ],
            [
              -42.8145193,
              -5.095522
            ],
            [
              -42.8144773,
              -5.0955034
            ],
            [
              -42.8144495,
              -5.095556
            ],
            [
              -42.8143208,
              -5.0954885
            ],
            [
              -42.8143104,
              -5.0955082
            ],
            [
              -42.8141089,
              -5.0954027
            ],
            [
              -42.8141389,
              -5.0953458
            ],
            [
              -42.8141286,
              -5.0953404
            ],
            [
              -42.8142475,
              -5.0951145
            ],
            [
              -42.8144905,
              -5.0952415
            ]
          ]
        ]
      }
    },
    {
      "type": "Feature",
      "id": "way/1086977921",
      "properties": {
        "timestamp": "2022-08-17T14:09:01Z",
        "version": 2,
        "changeset": 125019928,
        "addr:city": "Teresina",
        "addr:housenumber": "133",
        "addr:postcode": "64002-853",
        "addr:street": "Rua Alexis Diniz",
        "addr:suburb": "Morro da Esperança",
        "amenity": "community_centre",
        "building": "yes",
        "denomination": "catholic",
        "name": "Centro Pastoral São José",
        "religion": "christian",
        "id": "way/1086977921"
      },
      "geometry": {
        "type": "Polygon",
        "coordinates": [
          [
            [
              -42.8073008,
              -5.0706315
            ],
            [
              -42.8074752,
              -5.0707117
            ],
            [
              -42.8073652,
              -5.0709441
            ],
            [
              -42.8071936,
              -5.070864
            ],
            [
              -42.8073008,
              -5.0706315
            ]
          ]
        ]
      }
    },
    {
      "type": "Feature",
      "id": "way/1086990189",
      "properties": {
        "timestamp": "2023-05-31T01:43:05Z",
        "version": 2,
        "changeset": 136767678,
        "addr:city": "Teresina",
        "addr:housenumber": "23",
        "addr:postcode": "64006-330",
        "addr:street": "Rua Samuel Soares Cordeiro",
        "addr:suburb": "Água Mineral",
        "amenity": "community_centre",
        "building": "yes",
        "name": "Associação dos Moradores Risoleta Neves",
        "id": "way/1086990189"
      },
      "geometry": {
        "type": "Polygon",
        "coordinates": [
          [
            [
              -42.8118819,
              -5.052589
            ],
            [
              -42.8119632,
              -5.0526299
            ],
            [
              -42.8119293,
              -5.0527479
            ],
            [
              -42.8118347,
              -5.0527205
            ],
            [
              -42.8118819,
              -5.052589
            ]
          ]
        ]
      }
    },
    {
      "type": "Feature",
      "id": "way/1086994600",
      "properties": {
        "timestamp": "2022-08-17T15:12:10Z",
        "version": 1,
        "changeset": 125022601,
        "addr:city": "Teresina",
        "addr:housenumber": "1759",
        "addr:postcode": "64007-450",
        "addr:street": "Rua Severo Eulalio",
        "addr:suburb": "Água Mineral",
        "amenity": "community_centre",
        "building": "yes",
        "name": "Associação Moradores da Água Mineral e Vl Cristalina",
        "operator": "Ascomamvic",
        "id": "way/1086994600"
      },
      "geometry": {
        "type": "Polygon",
        "coordinates": [
          [
            [
              -42.8030855,
              -5.0422988
            ],
            [
              -42.8030345,
              -5.0422828
            ],
            [
              -42.8030721,
              -5.0421813
            ],
            [
              -42.8031177,
              -5.0421946
            ],
            [
              -42.8030855,
              -5.0422988
            ]
          ]
        ]
      }
    },
    {
      "type": "Feature",
      "id": "way/1177592503",
      "properties": {
        "timestamp": "2023-05-30T12:55:41Z",
        "version": 1,
        "changeset": 136745508,
        "amenity": "community_centre",
        "building": "yes",
        "id": "way/1177592503"
      },
      "geometry": {
        "type": "Polygon",
        "coordinates": [
          [
            [
              -42.740701,
              -5.2189353
            ],
            [
              -42.7414362,
              -5.219119
            ],
            [
              -42.7413054,
              -5.2196251
            ],
            [
              -42.7405622,
              -5.2194343
            ],
            [
              -42.740701,
              -5.2189353
            ]
          ]
        ]
      }
    },
    {
      "type": "Feature",
      "id": "way/1290733137",
      "properties": {
        "timestamp": "2024-06-09T19:56:36Z",
        "version": 2,
        "changeset": 152469657,
        "addr:city": "Teresina",
        "addr:postcode": "64063660",
        "addr:street": "Rua Maria Marques da Silva",
        "addr:suburb": "Socopo",
        "amenity": "community_centre",
        "building": "house",
        "building:levels": "1",
        "house": "bungalow",
        "name": "ASMOSO - Associação de Desenvolvimento Comunitário do Bairro Socopo",
        "id": "way/1290733137"
      },
      "geometry": {
        "type": "Polygon",
        "coordinates": [
          [
            [
              -42.7578361,
              -5.0005211
            ],
            [
              -42.7578557,
              -5.0006122
            ],
            [
              -42.7577814,
              -5.0006272
            ],
            [
              -42.7577663,
              -5.0005593
            ],
            [
              -42.7577513,
              -5.0005621
            ],
            [
              -42.7577467,
              -5.0005383
            ],
            [
              -42.7578361,
              -5.0005211
            ]
          ]
        ]
      }
    },
    {
      "type": "Feature",
      "id": "way/1309938831",
      "properties": {
        "timestamp": "2024-08-22T19:48:45Z",
        "version": 1,
        "changeset": 155624052,
        "addr:city": "Teresina",
        "addr:street": "Rua 14",
        "addr:suburb": "Pedra Mole",
        "amenity": "community_centre",
        "building": "house",
        "community_centre": "cultural_centre",
        "name": "AMORPPAM",
        "id": "way/1309938831"
      },
      "geometry": {
        "type": "Polygon",
        "coordinates": [
          [
            [
              -42.7785684,
              -5.0167626
            ],
            [
              -42.7784892,
              -5.0168006
            ],
            [
              -42.7784323,
              -5.016683
            ],
            [
              -42.7785116,
              -5.016645
            ],
            [
              -42.7785684,
              -5.0167626
            ]
          ]
        ]
      }
    },
    {
      "type": "Feature",
      "id": "way/1313843864",
      "properties": {
        "timestamp": "2024-09-06T19:53:09Z",
        "version": 1,
        "changeset": 156290539,
        "addr:city": "Teresina",
        "addr:street": "Rua Gurupá",
        "addr:suburb": "Pedra Mole",
        "amenity": "community_centre",
        "building": "house",
        "building:levels": "1",
        "house": "bungalow",
        "name": "Associação de Moradores do HBB",
        "id": "way/1313843864"
      },
      "geometry": {
        "type": "Polygon",
        "coordinates": [
          [
            [
              -42.7783201,
              -5.0130631
            ],
            [
              -42.778281,
              -5.0130854
            ],
            [
              -42.7782531,
              -5.0130369
            ],
            [
              -42.7781889,
              -5.0130735
            ],
            [
              -42.7781727,
              -5.0130454
            ],
            [
              -42.7783826,
              -5.0129257
            ],
            [
              -42.7784289,
              -5.0130062
            ],
            [
              -42.7783223,
              -5.013067
            ],
            [
              -42.7783201,
              -5.0130631
            ]
          ]
        ]
      }
    },
    {
      "type": "Feature",
      "id": "node/4487134222",
      "properties": {
        "timestamp": "2016-11-07T15:46:31Z",
        "version": 1,
        "changeset": 43467181,
        "amenity": "community_centre",
        "name": "Centro social do Cristo Rei",
        "id": "node/4487134222"
      },
      "geometry": {
        "type": "Point",
        "coordinates": [
          -42.7903314,
          -5.1012299
        ]
      }
    },
    {
      "type": "Feature",
      "id": "node/6555728604",
      "properties": {
        "timestamp": "2020-08-04T18:42:30Z",
        "version": 2,
        "changeset": 88943539,
        "addr:city": "Teresina",
        "addr:housenumber": "1159",
        "addr:postcode": "64002-450",
        "addr:street": "Rua Jonatas Batista",
        "addr:suburb": "Centro Norte",
        "amenity": "community_centre",
        "name": "APADA",
        "id": "node/6555728604"
      },
      "geometry": {
        "type": "Point",
        "coordinates": [
          -42.8204046,
          -5.083479
        ]
      }
    },
    {
      "type": "Feature",
      "id": "node/6561985208",
      "properties": {
        "timestamp": "2019-06-21T00:48:40Z",
        "version": 1,
        "changeset": 71464418,
        "addr:city": "Teresina",
        "addr:street": "Rua Riachuelo",
        "addr:suburb": "Centro",
        "amenity": "community_centre",
        "description": "#geoprocessamentoIFPI",
        "name": "Sindicato Urbanitario",
        "id": "node/6561985208"
      },
      "geometry": {
        "type": "Point",
        "coordinates": [
          -42.8141179,
          -5.0983587
        ]
      }
    },
    {
      "type": "Feature",
      "id": "node/6575287353",
      "properties": {
        "timestamp": "2019-06-27T18:20:22Z",
        "version": 1,
        "changeset": 71682764,
        "addr:city": "Teresina",
        "addr:street": "Rua Doutor Area Leão",
        "addr:suburb": "Centro",
        "amenity": "community_centre",
        "name": "ABO",
        "id": "node/6575287353"
      },
      "geometry": {
        "type": "Point",
        "coordinates": [
          -42.8066386,
          -5.0935151
        ]
      }
    },
    {
      "type": "Feature",
      "id": "node/10939869819",
      "properties": {
        "timestamp": "2023-05-30T12:55:41Z",
        "version": 1,
        "changeset": 136745508,
        "amenity": "community_centre",
        "name": "ASSOCIAÇÃO",
        "id": "node/10939869819"
      },
      "geometry": {
        "type": "Point",
        "coordinates": [
          -42.7412605,
          -5.2192066
        ]
      }
    },
    {
      "type": "Feature",
      "id": "node/11123944582",
      "properties": {
        "timestamp": "2023-08-17T21:41:28Z",
        "version": 1,
        "changeset": 140032315,
        "addr:city": "Teresina",
        "addr:street": "Rua Breno Teodomiro de Carvalho",
        "addr:suburb": "Itararé",
        "amenity": "community_centre",
        "name": "CRAS Sudeste",
        "id": "node/11123944582"
      },
      "geometry": {
        "type": "Point",
        "coordinates": [
          -42.7557799,
          -5.1025638
        ]
      }
    }
  ]
}
