{
  "type": "FeatureCollection",
  "features": [
    {
      "type": "Feature",
      "id": "way/601896144",
      "properties": {
        "timestamp": "2019-07-28T07:47:49Z",
        "version": 3,
        "changeset": 72731533,
        "addr:city": "Teresina",
        "addr:housenumber": "168",
        "addr:postcode": "64007500",
        "addr:street": "Rua Lucrecio Avelino",
        "addr:suburb": "Água Mineral",
        "amenity": "dentist",
        "building": "yes",
        "healthcare": "dentist",
        "healthcare:speciality": "surgery;general;dentistry;orthodontics",
        "level": "1",
        "name": "PROODONTO CLÍNICA ODONTOLÓGICA",
        "opening_hours": "Mo-Sa 08:30-18:00",
        "phone": "+55 86 3081 7793",
        "website": "proodonto-odo.blogspot.com.br",
        "id": "way/601896144"
      },
      "geometry": {
        "type": "Polygon",
        "coordinates": [
          [
            [
              -42.8121444,
              -5.0517185
            ],
            [
              -42.8120773,
              -5.0516197
            ],
            [
              -42.8122625,
              -5.0514781
            ],
            [
              -42.8123294,
              -5.0515885
            ],
            [
              -42.8121444,
              -5.0517185
            ]
          ]
        ]
      }
    },
    {
      "type": "Feature",
      "id": "way/1304949730",
      "properties": {
        "timestamp": "2024-08-01T01:50:41Z",
        "version": 1,
        "changeset": 154673295,
        "amenity": "dentist",
        "building": "yes",
        "healthcare": "dentist",
        "name": "Antonio Barbosa",
        "id": "way/1304949730"
      },
      "geometry": {
        "type": "Polygon",
        "coordinates": [
          [
            [
              -42.8198799,
              -5.0430997
            ],
            [
              -42.8199183,
              -5.0431219
            ],
            [
              -42.8198931,
              -5.0431652
            ],
            [
              -42.8198547,
              -5.0431429
            ],
            [
              -42.8198799,
              -5.0430997
            ]
          ]
        ]
      }
    },
    {
      "type": "Feature",
      "id": "way/1308330638",
      "properties": {
        "timestamp": "2024-08-16T20:47:00Z",
        "version": 1,
        "changeset": 155346653,
        "addr:city": "Teresina",
        "addr:street": "Rua Vereador Joel Loureiro",
        "addr:suburb": "Pedra Mole",
        "amenity": "dentist",
        "building": "yes",
        "healthcare": "dentist",
        "healthcare:speciality": "dentistry",
        "name": "Dr. Previne",
        "id": "way/1308330638"
      },
      "geometry": {
        "type": "Polygon",
        "coordinates": [
          [
            [
              -42.7790649,
              -5.0202906
            ],
            [
              -42.7790885,
              -5.0203619
            ],
            [
              -42.7788192,
              -5.0204502
            ],
            [
              -42.7787956,
              -5.020379
            ],
            [
              -42.7790649,
              -5.0202906
            ]
          ]
        ]
      }
    },
    {
      "type": "Feature",
      "id": "way/1323408597",
      "properties": {
        "timestamp": "2024-10-12T12:52:02Z",
        "version": 1,
        "changeset": 157794482,
        "addr:city": "Teresina",
        "addr:postcode": "64078-575",
        "addr:street": "Rua Cláudio Pacheco Brasil",
        "addr:suburb": "Porto do Centro",
        "amenity": "dentist",
        "building": "yes",
        "healthcare": "dentist",
        "name": "Nando Odonto",
        "id": "way/1323408597"
      },
      "geometry": {
        "type": "Polygon",
        "coordinates": [
          [
            [
              -42.7480385,
              -5.0424645
            ],
            [
              -42.7480453,
              -5.0424664
            ],
            [
              -42.748057,
              -5.0425431
            ],
            [
              -42.748004,
              -5.0425419
            ],
            [
              -42.748004,
              -5.0424608
            ],
            [
              -42.7480385,
              -5.0424645
            ]
          ]
        ]
      }
    },
    {
      "type": "Feature",
      "id": "node/3787736257",
      "properties": {
        "timestamp": "2020-09-02T22:55:50Z",
        "version": 4,
        "changeset": 90326200,
        "addr:city": "Teresina",
        "addr:housenumber": "1127",
        "addr:street": "Rua Álvaro Mendes",
        "amenity": "dentist",
        "healthcare": "dentist",
        "name": "Sorriso & Cia",
        "toilets:wheelchair": "no",
        "wheelchair": "no",
        "id": "node/3787736257"
      },
      "geometry": {
        "type": "Point",
        "coordinates": [
          -42.8150725,
          -5.0911846
        ]
      }
    },
    {
      "type": "Feature",
      "id": "node/3832673163",
      "properties": {
        "timestamp": "2020-10-18T14:00:30Z",
        "version": 2,
        "changeset": 92657882,
        "addr:city": "Teresina",
        "addr:housenumber": "1637",
        "addr:street": "Rua Eliseu Martins",
        "amenity": "dentist",
        "healthcare": "dentist",
        "name": "Clínica Odontológica Teresina",
        "toilets:wheelchair": "no",
        "wheelchair": "no",
        "id": "node/3832673163"
      },
      "geometry": {
        "type": "Point",
        "coordinates": [
          -42.811547,
          -5.0875915
        ]
      }
    },
    {
      "type": "Feature",
      "id": "node/6509703498",
      "properties": {
        "timestamp": "2019-05-29T20:46:52Z",
        "version": 1,
        "changeset": 70748032,
        "addr:city": "Teresina",
        "addr:street": "Rua Quintino Bocaiúva",
        "addr:suburb": "Centro",
        "amenity": "dentist",
        "healthcare": "dentist",
        "healthcare:speciality": "dentist;orthodontics",
        "name": "Consultório Odontológico Marília Horácio",
        "id": "node/6509703498"
      },
      "geometry": {
        "type": "Point",
        "coordinates": [
          -42.8117885,
          -5.0865142
        ]
      }
    },
    {
      "type": "Feature",
      "id": "node/6537163518",
      "properties": {
        "timestamp": "2019-06-10T13:56:45Z",
        "version": 1,
        "changeset": 71104007,
        "addr:city": "Teresina",
        "addr:postcode": "64002-390",
        "addr:street": "Rua Gabriel Ferreira",
        "addr:suburb": "Centro",
        "amenity": "dentist",
        "healthcare": "dentist",
        "name": "Biodonto",
        "id": "node/6537163518"
      },
      "geometry": {
        "type": "Point",
        "coordinates": [
          -42.8130295,
          -5.0860434
        ]
      }
    },
    {
      "type": "Feature",
      "id": "node/6537342218",
      "properties": {
        "timestamp": "2019-06-10T15:12:15Z",
        "version": 1,
        "changeset": 71106864,
        "addr:city": "Teresina",
        "addr:postcode": "64000-040",
        "addr:street": "Rua Álvaro Mendes",
        "addr:suburb": "Centro",
        "amenity": "dentist",
        "healthcare": "dentist",
        "name": "Karol Lapa",
        "id": "node/6537342218"
      },
      "geometry": {
        "type": "Point",
        "coordinates": [
          -42.8123816,
          -5.09003
        ]
      }
    },
    {
      "type": "Feature",
      "id": "node/6537378542",
      "properties": {
        "timestamp": "2019-06-10T15:30:11Z",
        "version": 1,
        "changeset": 71107478,
        "addr:city": "Teresina",
        "addr:postcode": "64000-370",
        "addr:street": "Rua Coelho de Resende",
        "addr:suburb": "Centro",
        "amenity": "dentist",
        "healthcare": "dentist",
        "healthcare:speciality": "orthodontics",
        "name": "Belo Sorriso Odontologia",
        "id": "node/6537378542"
      },
      "geometry": {
        "type": "Point",
        "coordinates": [
          -42.8073932,
          -5.0859846
        ]
      }
    },
    {
      "type": "Feature",
      "id": "node/6537378559",
      "properties": {
        "timestamp": "2021-01-12T17:27:11Z",
        "version": 3,
        "changeset": 97388787,
        "addr:city": "Teresina",
        "addr:housenumber": "150",
        "addr:postcode": "64001-370",
        "addr:street": "Rua Coelho de Resende",
        "addr:suburb": "Centro",
        "amenity": "dentist",
        "healthcare": "dentist",
        "healthcare:speciality": "orthodontics",
        "name": "Centro De Odontologia",
        "phone": "+55 86 3305 5278",
        "id": "node/6537378559"
      },
      "geometry": {
        "type": "Point",
        "coordinates": [
          -42.8068394,
          -5.0870527
        ]
      }
    },
    {
      "type": "Feature",
      "id": "node/6537378562",
      "properties": {
        "timestamp": "2020-08-25T00:45:01Z",
        "version": 3,
        "changeset": 89881746,
        "addr:city": "Teresina",
        "addr:postcode": "64001-370",
        "addr:street": "Rua Coelho de Resende",
        "addr:suburb": "Centro",
        "amenity": "dentist",
        "healthcare": "dentist",
        "name": "Ib Odontologia",
        "id": "node/6537378562"
      },
      "geometry": {
        "type": "Point",
        "coordinates": [
          -42.8067972,
          -5.0877124
        ]
      }
    },
    {
      "type": "Feature",
      "id": "node/6537378572",
      "properties": {
        "timestamp": "2019-06-10T15:30:11Z",
        "version": 1,
        "changeset": 71107478,
        "addr:city": "Teresina",
        "addr:housenumber": "123",
        "addr:postcode": "64000-370",
        "addr:street": "Rua Coelho de Resende",
        "addr:suburb": "Centro",
        "amenity": "dentist",
        "healthcare": "dentist",
        "name": "Clínica Pádua Jr.",
        "id": "node/6537378572"
      },
      "geometry": {
        "type": "Point",
        "coordinates": [
          -42.805814,
          -5.0891875
        ]
      }
    },
    {
      "type": "Feature",
      "id": "node/6537378574",
      "properties": {
        "timestamp": "2019-06-10T15:30:11Z",
        "version": 1,
        "changeset": 71107478,
        "addr:city": "Teresina",
        "addr:postcode": "64001-370",
        "addr:street": "Rua Coelho de Resende",
        "addr:suburb": "Centro",
        "amenity": "dentist",
        "healthcare": "dentist",
        "name": "Clínica Odontológica",
        "id": "node/6537378574"
      },
      "geometry": {
        "type": "Point",
        "coordinates": [
          -42.8059589,
          -5.0893572
        ]
      }
    },
    {
      "type": "Feature",
      "id": "node/6537378577",
      "properties": {
        "timestamp": "2019-06-10T15:30:11Z",
        "version": 1,
        "changeset": 71107478,
        "addr:city": "Teresina",
        "addr:housenumber": "227",
        "addr:postcode": "64000-020",
        "addr:street": "Rua Coelho de Resende",
        "addr:suburb": "Centro",
        "amenity": "dentist",
        "healthcare": "dentist",
        "name": "Sorriso Legal",
        "id": "node/6537378577"
      },
      "geometry": {
        "type": "Point",
        "coordinates": [
          -42.8055418,
          -5.0898621
        ]
      }
    },
    {
      "type": "Feature",
      "id": "node/6546369900",
      "properties": {
        "timestamp": "2019-06-14T02:01:12Z",
        "version": 1,
        "changeset": 71236485,
        "addr:city": "Teresina",
        "addr:street": "Rua Governador Raimundo Artur de Vasconcelos",
        "addr:suburb": "Centro",
        "amenity": "dentist",
        "healthcare": "dentist",
        "name": "Morelli Ortodontia",
        "operator": "Particular",
        "id": "node/6546369900"
      },
      "geometry": {
        "type": "Point",
        "coordinates": [
          -42.8055439,
          -5.0849636
        ]
      }
    },
    {
      "type": "Feature",
      "id": "node/6548630210",
      "properties": {
        "timestamp": "2019-06-15T01:29:44Z",
        "version": 1,
        "changeset": 71269545,
        "addr:city": "Teresina",
        "addr:housenumber": "586 - 1",
        "addr:street": "Rua Rui Barbosa",
        "addr:suburb": "Centro",
        "amenity": "dentist",
        "healthcare": "dentist",
        "healthcare:speciality": "orthodontics",
        "name": "Cafi Odontologia",
        "id": "node/6548630210"
      },
      "geometry": {
        "type": "Point",
        "coordinates": [
          -42.8178122,
          -5.0877477
        ]
      }
    },
    {
      "type": "Feature",
      "id": "node/6549917400",
      "properties": {
        "timestamp": "2019-06-15T19:01:39Z",
        "version": 1,
        "changeset": 71286649,
        "addr:city": "Teresina",
        "addr:street": "Rua 7 de Setembro",
        "addr:suburb": "Centro",
        "amenity": "dentist",
        "healthcare": "dentist",
        "name": "Consultório Odontológico Antonio José",
        "id": "node/6549917400"
      },
      "geometry": {
        "type": "Point",
        "coordinates": [
          -42.8143898,
          -5.0865288
        ]
      }
    },
    {
      "type": "Feature",
      "id": "node/6549917413",
      "properties": {
        "timestamp": "2021-01-12T19:39:05Z",
        "version": 2,
        "changeset": 97394023,
        "addr:city": "Teresina",
        "addr:street": "Rua 7 de Setembro",
        "addr:suburb": "Centro",
        "amenity": "dentist",
        "healthcare": "dentist",
        "name": "CLISO - Clínica de Saúde Oral",
        "phone": "+55 86 3226 1644",
        "id": "node/6549917413"
      },
      "geometry": {
        "type": "Point",
        "coordinates": [
          -42.809483,
          -5.0961708
        ]
      }
    },
    {
      "type": "Feature",
      "id": "node/6555728633",
      "properties": {
        "timestamp": "2020-07-30T15:06:00Z",
        "version": 2,
        "changeset": 88740157,
        "addr:city": "Teresina",
        "addr:postcode": "64018-030",
        "addr:street": "Rua João Cabral",
        "addr:suburb": "Centro",
        "amenity": "dentist",
        "healthcare": "dentist",
        "name": "Mais Risos",
        "id": "node/6555728633"
      },
      "geometry": {
        "type": "Point",
        "coordinates": [
          -42.8205652,
          -5.087541
        ]
      }
    },
    {
      "type": "Feature",
      "id": "node/6559068221",
      "properties": {
        "timestamp": "2019-06-20T03:47:37Z",
        "version": 1,
        "changeset": 71423763,
        "addr:city": "Teresina",
        "addr:housenumber": "186",
        "addr:postcode": "64000-390",
        "addr:street": "Rua Desembargador Pires de Castro",
        "addr:suburb": "Centro Norte",
        "amenity": "dentist",
        "healthcare": "dentist",
        "healthcare:speciality": "orthodontics",
        "name": "Dentistas Associados 24h",
        "phone": "+55 86 99428-2476",
        "id": "node/6559068221"
      },
      "geometry": {
        "type": "Point",
        "coordinates": [
          -42.8065755,
          -5.0861674
        ]
      }
    },
    {
      "type": "Feature",
      "id": "node/6561929588",
      "properties": {
        "timestamp": "2019-06-20T23:15:48Z",
        "version": 1,
        "changeset": 71463399,
        "addr:city": "Teresina",
        "addr:postcode": "64001-390",
        "addr:street": "Rua Desembargador Pires de Castro",
        "addr:suburb": "Centro Sul",
        "amenity": "dentist",
        "healthcare": "dentist",
        "name": "Odonto Médica",
        "id": "node/6561929588"
      },
      "geometry": {
        "type": "Point",
        "coordinates": [
          -42.8050271,
          -5.0891913
        ]
      }
    },
    {
      "type": "Feature",
      "id": "node/6561929591",
      "properties": {
        "timestamp": "2019-06-20T23:15:48Z",
        "version": 1,
        "changeset": 71463399,
        "addr:city": "Teresina",
        "addr:postcode": "64001-390",
        "addr:street": "Rua Desembargador Pires de Castro",
        "addr:suburb": "Centro Sul",
        "amenity": "dentist",
        "healthcare": "dentist",
        "name": "Odonto Primus",
        "website": "http://www.odontoprimus.com.br/",
        "id": "node/6561929591"
      },
      "geometry": {
        "type": "Point",
        "coordinates": [
          -42.804777,
          -5.0896929
        ]
      }
    },
    {
      "type": "Feature",
      "id": "node/6563501833",
      "properties": {
        "timestamp": "2020-03-14T18:27:31Z",
        "version": 2,
        "changeset": 82200806,
        "amenity": "dentist",
        "healthcare": "dentist",
        "name": "Odonto Centro",
        "id": "node/6563501833"
      },
      "geometry": {
        "type": "Point",
        "coordinates": [
          -42.8133155,
          -5.0900843
        ]
      }
    },
    {
      "type": "Feature",
      "id": "node/6563501836",
      "properties": {
        "timestamp": "2020-03-14T18:27:31Z",
        "version": 3,
        "changeset": 82200806,
        "amenity": "dentist",
        "healthcare": "dentist",
        "name": "União Clinica Dentaria",
        "id": "node/6563501836"
      },
      "geometry": {
        "type": "Point",
        "coordinates": [
          -42.8131771,
          -5.0905119
        ]
      }
    },
    {
      "type": "Feature",
      "id": "node/6563919225",
      "properties": {
        "timestamp": "2019-06-21T21:15:41Z",
        "version": 1,
        "changeset": 71496530,
        "amenity": "dentist",
        "healthcare": "dentist",
        "name": "pronto dente",
        "id": "node/6563919225"
      },
      "geometry": {
        "type": "Point",
        "coordinates": [
          -42.8117416,
          -5.0933322
        ]
      }
    },
    {
      "type": "Feature",
      "id": "node/6563919246",
      "properties": {
        "timestamp": "2020-03-14T18:27:31Z",
        "version": 2,
        "changeset": 82200806,
        "amenity": "dentist",
        "healthcare": "dentist",
        "name": "Assist Odonto",
        "id": "node/6563919246"
      },
      "geometry": {
        "type": "Point",
        "coordinates": [
          -42.8110983,
          -5.0947733
        ]
      }
    },
    {
      "type": "Feature",
      "id": "node/6564158734",
      "properties": {
        "timestamp": "2019-11-18T00:49:24Z",
        "version": 2,
        "changeset": 77203038,
        "addr:city": "Teresina",
        "addr:street": "Rua Taumaturgo de Azevedo",
        "addr:suburb": "Centro",
        "amenity": "dentist",
        "description": "#geoprocessamentoIFPI",
        "healthcare": "dentist",
        "name": "Francivaldo Osterno - Cirurgião Dentista",
        "phone": "+55 86 3221 7427",
        "id": "node/6564158734"
      },
      "geometry": {
        "type": "Point",
        "coordinates": [
          -42.8071933,
          -5.0937103
        ]
      }
    },
    {
      "type": "Feature",
      "id": "node/6564196824",
      "properties": {
        "timestamp": "2021-01-12T22:48:20Z",
        "version": 3,
        "changeset": 97399939,
        "addr:city": "Teresina",
        "addr:street": "Avenida Joaquim Ribeiro",
        "addr:suburb": "Centro",
        "amenity": "dentist",
        "healthcare": "dentist",
        "name": "Odontologia Especializada",
        "phone": "+55 86 3221 1853",
        "id": "node/6564196824"
      },
      "geometry": {
        "type": "Point",
        "coordinates": [
          -42.8029562,
          -5.0963346
        ]
      }
    },
    {
      "type": "Feature",
      "id": "node/6564848329",
      "properties": {
        "timestamp": "2021-01-12T22:43:27Z",
        "version": 2,
        "changeset": 97399818,
        "addr:city": "Teresina",
        "addr:street": "Avenida Joaquim Ribeiro",
        "addr:suburb": "Centro",
        "amenity": "dentist",
        "healthcare": "dentist",
        "name": "Fine Odonto - Odontologia Especializada",
        "phone": "+55 86 3305 1771",
        "id": "node/6564848329"
      },
      "geometry": {
        "type": "Point",
        "coordinates": [
          -42.807756,
          -5.0983412
        ]
      }
    },
    {
      "type": "Feature",
      "id": "node/6571109350",
      "properties": {
        "timestamp": "2020-04-24T16:45:10Z",
        "version": 2,
        "changeset": 84071799,
        "addr:city": "Teresina",
        "addr:street": "Rua Barroso",
        "addr:suburb": "Centro",
        "amenity": "dentist",
        "healthcare": "dentist",
        "name": "Sorridents",
        "id": "node/6571109350"
      },
      "geometry": {
        "type": "Point",
        "coordinates": [
          -42.813928,
          -5.092532
        ]
      }
    },
    {
      "type": "Feature",
      "id": "node/6572733911",
      "properties": {
        "timestamp": "2019-06-26T14:52:25Z",
        "version": 1,
        "changeset": 71640775,
        "addr:street": "Rua Ricardo Seabra",
        "amenity": "dentist",
        "healthcare": "dentist",
        "name": "HC Odontologia e Saúde",
        "id": "node/6572733911"
      },
      "geometry": {
        "type": "Point",
        "coordinates": [
          -42.8024114,
          -5.0951427
        ]
      }
    },
    {
      "type": "Feature",
      "id": "node/6572932317",
      "properties": {
        "timestamp": "2019-06-26T16:44:03Z",
        "version": 1,
        "changeset": 71644604,
        "addr:city": "Teresina",
        "addr:street": "Rua Barroso",
        "addr:suburb": "Centro",
        "amenity": "dentist",
        "healthcare": "dentist",
        "name": "Dental Teresina",
        "id": "node/6572932317"
      },
      "geometry": {
        "type": "Point",
        "coordinates": [
          -42.8158729,
          -5.088353
        ]
      }
    },
    {
      "type": "Feature",
      "id": "node/6573602077",
      "properties": {
        "timestamp": "2020-09-02T22:43:27Z",
        "version": 3,
        "changeset": 90325998,
        "addr:city": "Teresina",
        "addr:housenumber": "1398",
        "addr:street": "Avenida Campos Sales",
        "addr:suburb": "Centro",
        "amenity": "dentist",
        "healthcare": "dentist",
        "name": "Dr. Marcelino Filho Odontologia",
        "phone": "+55 86 3221 6484",
        "id": "node/6573602077"
      },
      "geometry": {
        "type": "Point",
        "coordinates": [
          -42.8156382,
          -5.0843388
        ]
      }
    },
    {
      "type": "Feature",
      "id": "node/6573602081",
      "properties": {
        "timestamp": "2020-01-27T05:23:30Z",
        "version": 2,
        "changeset": 80119243,
        "addr:city": "Teresina",
        "addr:housenumber": "1454",
        "addr:street": "Avenida Campos Sales",
        "addr:suburb": "Centro",
        "amenity": "dentist",
        "fixme": "verificar",
        "healthcare": "dentist",
        "name": "Ciodente",
        "phone": "+55 86 3236 2364",
        "id": "node/6573602081"
      },
      "geometry": {
        "type": "Point",
        "coordinates": [
          -42.8152768,
          -5.084026
        ]
      }
    },
    {
      "type": "Feature",
      "id": "node/6573634487",
      "properties": {
        "timestamp": "2020-01-27T05:23:30Z",
        "version": 2,
        "changeset": 80119243,
        "amenity": "dentist",
        "fixme": "verificar",
        "healthcare": "dentist",
        "name": "Master Odontologia",
        "id": "node/6573634487"
      },
      "geometry": {
        "type": "Point",
        "coordinates": [
          -42.8130006,
          -5.0830584
        ]
      }
    },
    {
      "type": "Feature",
      "id": "node/6575414969",
      "properties": {
        "timestamp": "2021-01-12T17:03:17Z",
        "version": 2,
        "changeset": 97387685,
        "addr:city": "Teresina",
        "addr:housenumber": "611",
        "addr:street": "Rua 24 de Janeiro",
        "addr:suburb": "Centro",
        "amenity": "dentist",
        "healthcare": "dentist",
        "healthcare:speciality": "dentist",
        "name": "Clínica DJK Odonto",
        "phone": "+55 86 3222 9011",
        "id": "node/6575414969"
      },
      "geometry": {
        "type": "Point",
        "coordinates": [
          -42.8139668,
          -5.0855032
        ]
      }
    },
    {
      "type": "Feature",
      "id": "node/6575551111",
      "properties": {
        "timestamp": "2021-01-12T17:42:15Z",
        "version": 2,
        "changeset": 97389611,
        "addr:city": "Teresina",
        "addr:housenumber": "242",
        "addr:street": "Rua 24 de Janeiro",
        "addr:suburb": "Centro",
        "amenity": "dentist",
        "healthcare": "dentist",
        "healthcare:speciality": "dentist",
        "name": "Odonro Ciência C. Alves",
        "phone": "+55 86 3304 4092",
        "id": "node/6575551111"
      },
      "geometry": {
        "type": "Point",
        "coordinates": [
          -42.8105098,
          -5.0926261
        ]
      }
    },
    {
      "type": "Feature",
      "id": "node/6575551121",
      "properties": {
        "timestamp": "2021-01-12T17:29:37Z",
        "version": 3,
        "changeset": 97388907,
        "addr:city": "Teresina",
        "addr:housenumber": "319",
        "addr:street": "Rua 24 de Janeiro",
        "addr:suburb": "Centro",
        "amenity": "dentist",
        "healthcare": "dentist",
        "name": "Odonto+",
        "phone": "+55 86 3221 7127",
        "id": "node/6575551121"
      },
      "geometry": {
        "type": "Point",
        "coordinates": [
          -42.8128071,
          -5.0879445
        ]
      }
    },
    {
      "type": "Feature",
      "id": "node/6575551123",
      "properties": {
        "timestamp": "2021-01-12T14:47:41Z",
        "version": 2,
        "changeset": 97381199,
        "addr:city": "Teresina",
        "addr:housenumber": "421",
        "addr:street": "Rua 24 de Janeiro",
        "addr:suburb": "Centro Norte",
        "amenity": "dentist",
        "healthcare": "dentist",
        "name": "LABORATÓRIO DE PRÓTESES DENTÁRIAS SÃO PEDRO",
        "phone": "+55 86 3221 7109",
        "id": "node/6575551123"
      },
      "geometry": {
        "type": "Point",
        "coordinates": [
          -42.813176,
          -5.0872003
        ]
      }
    },
    {
      "type": "Feature",
      "id": "node/6575551125",
      "properties": {
        "timestamp": "2021-01-12T17:46:33Z",
        "version": 2,
        "changeset": 97389817,
        "addr:city": "Teresina",
        "addr:housenumber": "431",
        "addr:street": "Rua 24 de Janeiro",
        "addr:suburb": "Centro Norte",
        "amenity": "dentist",
        "healthcare": "dentist",
        "name": "Prótese e Cia",
        "phone": "+55 86 3221 1972",
        "id": "node/6575551125"
      },
      "geometry": {
        "type": "Point",
        "coordinates": [
          -42.8132519,
          -5.0870956
        ]
      }
    },
    {
      "type": "Feature",
      "id": "node/6575551127",
      "properties": {
        "timestamp": "2021-01-12T19:37:04Z",
        "version": 2,
        "changeset": 97393960,
        "addr:city": "Teresina",
        "addr:housenumber": "449 A",
        "addr:street": "Rua 24 de Janeiro",
        "addr:suburb": "Centro Norte",
        "amenity": "dentist",
        "healthcare": "dentist",
        "name": "Odonto System",
        "phone": "+55 86  3221 6014",
        "id": "node/6575551127"
      },
      "geometry": {
        "type": "Point",
        "coordinates": [
          -42.8132799,
          -5.0870096
        ]
      }
    },
    {
      "type": "Feature",
      "id": "node/6575551133",
      "properties": {
        "timestamp": "2019-06-27T21:26:02Z",
        "version": 1,
        "changeset": 71687323,
        "addr:city": "Teresina",
        "addr:housenumber": "621",
        "addr:street": "Rua 24 de Janeiro",
        "addr:suburb": "Centro Norte",
        "amenity": "dentist",
        "healthcare": "dentist",
        "name": "ODONTOLOGIA DR. IVALDO",
        "id": "node/6575551133"
      },
      "geometry": {
        "type": "Point",
        "coordinates": [
          -42.8141363,
          -5.0853559
        ]
      }
    },
    {
      "type": "Feature",
      "id": "node/6577368817",
      "properties": {
        "timestamp": "2020-01-27T05:23:30Z",
        "version": 2,
        "changeset": 80119243,
        "addr:city": "Teresina",
        "addr:housenumber": "1695",
        "addr:street": "Avenida Campos Sales",
        "addr:suburb": "Centro",
        "amenity": "dentist",
        "fixme": "Telefone meios de pagamentos CEP",
        "healthcare": "dentist",
        "name": "UniOdonto",
        "id": "node/6577368817"
      },
      "geometry": {
        "type": "Point",
        "coordinates": [
          -42.8133165,
          -5.0830882
        ]
      }
    },
    {
      "type": "Feature",
      "id": "node/6577368821",
      "properties": {
        "timestamp": "2020-01-27T05:23:30Z",
        "version": 2,
        "changeset": 80119243,
        "addr:city": "Teresina",
        "addr:housenumber": "1823",
        "addr:street": "Avenida Campos Sales",
        "addr:suburb": "Centro",
        "amenity": "dentist",
        "healthcare": "dentist",
        "name": "Pro Dental Odontologia",
        "phone": "+55 86 3222 4279",
        "id": "node/6577368821"
      },
      "geometry": {
        "type": "Point",
        "coordinates": [
          -42.8124201,
          -5.0826554
        ]
      }
    },
    {
      "type": "Feature",
      "id": "node/6578938004",
      "properties": {
        "timestamp": "2021-01-12T14:44:33Z",
        "version": 2,
        "changeset": 97381018,
        "amenity": "dentist",
        "healthcare": "dentist",
        "name": "Odonto Primus",
        "phone": "+55 86 3222 5390",
        "id": "node/6578938004"
      },
      "geometry": {
        "type": "Point",
        "coordinates": [
          -42.8164178,
          -5.0891308
        ]
      }
    },
    {
      "type": "Feature",
      "id": "node/6587737140",
      "properties": {
        "timestamp": "2019-07-04T00:04:51Z",
        "version": 1,
        "changeset": 71878196,
        "addr:city": "Teresina",
        "addr:housenumber": "2110",
        "addr:postcode": "64001-120",
        "addr:street": "Rua Paissandu",
        "addr:suburb": "Centro Sul",
        "amenity": "dentist",
        "healthcare": "dentist",
        "healthcare:speciality": "orthodontics",
        "name": "Cero",
        "opening_hours": "Mo-Fr 08:00-18:00; Sa 08:00-11:00",
        "phone": "+55 86 3223-7570",
        "id": "node/6587737140"
      },
      "geometry": {
        "type": "Point",
        "coordinates": [
          -42.805812,
          -5.0889028
        ]
      }
    },
    {
      "type": "Feature",
      "id": "node/6592819167",
      "properties": {
        "timestamp": "2019-07-06T07:35:19Z",
        "version": 1,
        "changeset": 71952858,
        "addr:city": "Teresina",
        "addr:housenumber": "1919",
        "addr:postcode": "64000-240",
        "addr:street": "Rua Desembargador Freitas",
        "addr:suburb": "Centro",
        "amenity": "dentist",
        "healthcare": "dentist",
        "name": "Hidelmar Carvalho Odontologia.",
        "phone": "+55 (86) 3223-2535",
        "id": "node/6592819167"
      },
      "geometry": {
        "type": "Point",
        "coordinates": [
          -42.8104676,
          -5.0841831
        ]
      }
    },
    {
      "type": "Feature",
      "id": "node/6592819171",
      "properties": {
        "timestamp": "2019-07-06T07:35:19Z",
        "version": 1,
        "changeset": 71952858,
        "addr:city": "Teresina",
        "addr:housenumber": "1629",
        "addr:postcode": "64000-240",
        "addr:street": "Rua Desembargador Freitas",
        "addr:suburb": "Centro",
        "amenity": "dentist",
        "healthcare": "dentist",
        "name": "Acial Odontologia.",
        "phone": "+55 (86) 3217-3204",
        "id": "node/6592819171"
      },
      "geometry": {
        "type": "Point",
        "coordinates": [
          -42.8128124,
          -5.0853554
        ]
      }
    },
    {
      "type": "Feature",
      "id": "node/6605324240",
      "properties": {
        "timestamp": "2019-07-11T13:25:24Z",
        "version": 1,
        "changeset": 72135943,
        "addr:city": "Teresina",
        "addr:housenumber": "1532",
        "addr:postcode": "64001-120",
        "addr:street": "Rua Paissandu",
        "addr:suburb": "Centro Sul",
        "amenity": "dentist",
        "healthcare": "dentist",
        "name": "Odontocompany",
        "opening_hours": "Mo-Fr 08:00-19:30; Sa 08:00-12:00",
        "phone": "+55 86 3029-1023",
        "website": "https://odontocompany.com/teresinacentro",
        "id": "node/6605324240"
      },
      "geometry": {
        "type": "Point",
        "coordinates": [
          -42.8107142,
          -5.0912766
        ]
      }
    },
    {
      "type": "Feature",
      "id": "node/6614502341",
      "properties": {
        "timestamp": "2019-07-14T15:42:39Z",
        "version": 1,
        "changeset": 72236188,
        "addr:city": "Teresina",
        "addr:housenumber": "1766",
        "addr:postcode": "64001-260",
        "addr:street": "Rua São Pedro",
        "addr:suburb": "Centro Sul",
        "amenity": "dentist",
        "healthcare": "dentist",
        "name": "Maxiodonto",
        "phone": "+55 86 3304-5000",
        "website": "http://www.maxiodonto.com.br/",
        "id": "node/6614502341"
      },
      "geometry": {
        "type": "Point",
        "coordinates": [
          -42.80796,
          -5.0920085
        ]
      }
    },
    {
      "type": "Feature",
      "id": "node/8459200913",
      "properties": {
        "timestamp": "2021-02-25T21:12:11Z",
        "version": 1,
        "changeset": 100004174,
        "addr:city": "Teresina",
        "addr:housenumber": "2344",
        "addr:street": "Rua Eliseu Martins",
        "addr:suburb": "Centro Norte",
        "amenity": "dentist",
        "healthcare": "dentist",
        "name": "Ciodonto",
        "id": "node/8459200913"
      },
      "geometry": {
        "type": "Point",
        "coordinates": [
          -42.8057956,
          -5.0849082
        ]
      }
    },
    {
      "type": "Feature",
      "id": "node/8707530090",
      "properties": {
        "timestamp": "2023-08-19T09:12:44Z",
        "version": 2,
        "changeset": 140086476,
        "addr:city": "Teresina",
        "addr:housenumber": "720",
        "addr:postcode": "64000-710",
        "addr:street": "Rua Mato Grosso",
        "addr:suburb": "Porenquanto",
        "amenity": "dentist",
        "description": "A L’Esthétic é um espaço de odontologia e estética idealizado com o propósito de transformar sua experiência em autocuidado, pois a estética deixou de ser apenas a busca por um padrão de beleza e tornou-se uma necessidade de cuidado com a saúde e autoesti",
        "healthcare": "dentist",
        "healthcare:speciality": "dentist;dermatology",
        "name": "L'Esthétic Odontologia e Estética Integral",
        "opening_hours": "Mo-Sa 08:00-20:00",
        "phone": "+55 (86) 99417-9224",
        "id": "node/8707530090"
      },
      "geometry": {
        "type": "Point",
        "coordinates": [
          -42.8024751,
          -5.0785177
        ]
      }
    },
    {
      "type": "Feature",
      "id": "node/9556171342",
      "properties": {
        "timestamp": "2022-03-05T15:09:44Z",
        "version": 1,
        "changeset": 118129740,
        "amenity": "dentist",
        "healthcare": "dentist",
        "name": "Clinica Ronaldo Neiva",
        "id": "node/9556171342"
      },
      "geometry": {
        "type": "Point",
        "coordinates": [
          -42.7896859,
          -5.0813624
        ]
      }
    },
    {
      "type": "Feature",
      "id": "node/10128379612",
      "properties": {
        "timestamp": "2022-10-25T16:06:12Z",
        "version": 1,
        "changeset": 128047038,
        "amenity": "dentist",
        "check_date": "2022-10-25",
        "healthcare": "dentist",
        "name": "RM Odontologia",
        "id": "node/10128379612"
      },
      "geometry": {
        "type": "Point",
        "coordinates": [
          -42.8075934,
          -5.1170119
        ]
      }
    }
  ]
}
