{
  "type": "FeatureCollection",
  "features": [
    {
      "type": "Feature",
      "id": "way/683426353",
      "properties": {
        "timestamp": "2022-05-18T13:57:42Z",
        "version": 2,
        "changeset": 121149428,
        "addr:housenumber": "767",
        "addr:street": "Rua Gardênia",
        "amenity": "doctors",
        "building": "house",
        "description": "https://www.ortomedteresina.com/",
        "healthcare": "doctor",
        "healthcare:speciality": "orthopaedics",
        "name": "Ortomed",
        "operator": "Ortomed",
        "id": "way/683426353"
      },
      "geometry": {
        "type": "Polygon",
        "coordinates": [
          [
            [
              -42.7922837,
              -5.077619
            ],
            [
              -42.7925896,
              -5.0777016
            ],
            [
              -42.7925523,
              -5.0778353
            ],
            [
              -42.7922429,
              -5.0777492
            ],
            [
              -42.7922837,
              -5.077619
            ]
          ]
        ]
      }
    },
    {
      "type": "Feature",
      "id": "way/683426355",
      "properties": {
        "timestamp": "2019-04-12T19:31:03Z",
        "version": 1,
        "changeset": 69161294,
        "amenity": "doctors",
        "building": "house",
        "healthcare": "doctor",
        "healthcare:speciality": "Fisioterapia",
        "name": "CORPUS",
        "operator": "CORPUS",
        "id": "way/683426355"
      },
      "geometry": {
        "type": "Polygon",
        "coordinates": [
          [
            [
              -42.7926012,
              -5.0776799
            ],
            [
              -42.7923454,
              -5.0776121
            ],
            [
              -42.7923847,
              -5.0774647
            ],
            [
              -42.7926406,
              -5.0775325
            ],
            [
              -42.7926012,
              -5.0776799
            ]
          ]
        ]
      }
    },
    {
      "type": "Feature",
      "id": "way/694095461",
      "properties": {
        "timestamp": "2019-06-02T16:20:55Z",
        "version": 1,
        "changeset": 70860265,
        "addr:city": "Teresina",
        "addr:housenumber": "205",
        "addr:postcode": "64001-290",
        "addr:street": "Rua Arlindo Nogueira",
        "addr:suburb": "Centro",
        "amenity": "doctors",
        "building": "house",
        "description": "Consultório pediatra.#geoprocessamentoifpi",
        "healthcare": "doctor",
        "healthcare:speciality": "paediatrics",
        "name": "Consultório Dra. Maria Goretti Ferreira dos Santos",
        "phone": "+55 86 3223 4924",
        "id": "way/694095461"
      },
      "geometry": {
        "type": "Polygon",
        "coordinates": [
          [
            [
              -42.8085331,
              -5.0913935
            ],
            [
              -42.8085041,
              -5.0914561
            ],
            [
              -42.8083859,
              -5.0914017
            ],
            [
              -42.8083806,
              -5.0914133
            ],
            [
              -42.8083541,
              -5.0914011
            ],
            [
              -42.8083971,
              -5.0913084
            ],
            [
              -42.8084286,
              -5.0913228
            ],
            [
              -42.8084199,
              -5.0913415
            ],
            [
              -42.8085331,
              -5.0913935
            ]
          ]
        ]
      }
    },
    {
      "type": "Feature",
      "id": "way/761323056",
      "properties": {
        "timestamp": "2020-01-06T20:05:20Z",
        "version": 1,
        "changeset": 79263758,
        "addr:city": "Teresina",
        "addr:housenumber": "471",
        "addr:postcode": "64014-047",
        "addr:street": "Rua Acre",
        "addr:suburb": "Frei Serafim",
        "amenity": "doctors",
        "building": "yes",
        "healthcare": "doctor",
        "name": "Macima Serviços Em Saúde",
        "opening_hours": "Mo-Fr 08:00-18:00",
        "id": "way/761323056"
      },
      "geometry": {
        "type": "Polygon",
        "coordinates": [
          [
            [
              -42.7973201,
              -5.0860728
            ],
            [
              -42.7972812,
              -5.0861593
            ],
            [
              -42.7970268,
              -5.0860475
            ],
            [
              -42.7970747,
              -5.0859521
            ],
            [
              -42.7973201,
              -5.0860728
            ]
          ]
        ]
      }
    },
    {
      "type": "Feature",
      "id": "way/805320600",
      "properties": {
        "timestamp": "2022-03-03T17:51:54Z",
        "version": 2,
        "changeset": 118065043,
        "addr:city": "Teresina",
        "addr:housenumber": "4522",
        "addr:postcode": "64002-180",
        "addr:street": "Rua Rui Barbosa",
        "addr:suburb": "São Joaquim",
        "amenity": "doctors",
        "building": "yes",
        "healthcare": "doctor",
        "name": "Clínica São Joaquim",
        "toilets:wheelchair": "no",
        "wheelchair": "limited",
        "id": "way/805320600"
      },
      "geometry": {
        "type": "Polygon",
        "coordinates": [
          [
            [
              -42.8319123,
              -5.0544617
            ],
            [
              -42.8319099,
              -5.0545847
            ],
            [
              -42.831695,
              -5.0545806
            ],
            [
              -42.8316974,
              -5.0544577
            ],
            [
              -42.8319123,
              -5.0544617
            ]
          ]
        ]
      }
    },
    {
      "type": "Feature",
      "id": "way/1304924335",
      "properties": {
        "timestamp": "2024-07-31T22:03:30Z",
        "version": 1,
        "changeset": 154669823,
        "amenity": "doctors",
        "building": "yes",
        "healthcare": "doctor",
        "healthcare:speciality": "general",
        "name": "Nutricionista Paulo Bessa",
        "id": "way/1304924335"
      },
      "geometry": {
        "type": "Polygon",
        "coordinates": [
          [
            [
              -42.8183043,
              -5.0383922
            ],
            [
              -42.8183208,
              -5.038456
            ],
            [
              -42.8182368,
              -5.0384776
            ],
            [
              -42.8182203,
              -5.0384138
            ],
            [
              -42.8183043,
              -5.0383922
            ]
          ]
        ]
      }
    },
    {
      "type": "Feature",
      "id": "node/3672560830",
      "properties": {
        "timestamp": "2020-09-02T22:26:30Z",
        "version": 6,
        "changeset": 90325741,
        "addr:city": "Teresina",
        "addr:housenumber": "1921",
        "addr:postcode": "64000120",
        "addr:street": "Rua Coelho Rodrigues",
        "addr:suburb": "Centro",
        "amenity": "doctors",
        "fixme": "verificar",
        "healthcare": "doctor",
        "name": "MedPlan",
        "operator": "Particular",
        "phone": "+55 86 3131 8888",
        "id": "node/3672560830"
      },
      "geometry": {
        "type": "Point",
        "coordinates": [
          -42.8090502,
          -5.0865343
        ]
      }
    },
    {
      "type": "Feature",
      "id": "node/5636348211",
      "properties": {
        "timestamp": "2023-10-13T18:42:43Z",
        "version": 2,
        "changeset": 142535782,
        "addr:city": "Teresina",
        "addr:street": "Rua Eliseu Martins",
        "amenity": "doctors",
        "healthcare": "doctor",
        "healthcare:speciality": "urology",
        "name": "Clínica Uros",
        "website": "https://www.urosclinica.com/",
        "id": "node/5636348211"
      },
      "geometry": {
        "type": "Point",
        "coordinates": [
          -42.8073558,
          -5.0856713
        ]
      }
    },
    {
      "type": "Feature",
      "id": "node/6537378592",
      "properties": {
        "timestamp": "2021-01-12T14:47:16Z",
        "version": 4,
        "changeset": 97381173,
        "addr:city": "Teresina",
        "addr:postcode": "64001-370",
        "addr:street": "Rua Coelho de Resende",
        "addr:suburb": "Centro",
        "amenity": "doctors",
        "healthcare": "doctor",
        "name": "Clinical",
        "phone": "+55 86 3222 2838",
        "id": "node/6537378592"
      },
      "geometry": {
        "type": "Point",
        "coordinates": [
          -42.8049827,
          -5.0913599
        ]
      }
    },
    {
      "type": "Feature",
      "id": "node/6546444272",
      "properties": {
        "timestamp": "2019-06-14T03:00:29Z",
        "version": 1,
        "changeset": 71237238,
        "addr:city": "Teresina",
        "addr:housenumber": "698",
        "addr:postcode": "64000-450",
        "addr:street": "Rua Governador Raimundo Artur de Vasconcelos",
        "addr:suburb": "Centro",
        "amenity": "doctors",
        "healthcare": "doctor",
        "healthcare:speciality": "Coração",
        "name": "Clinica Endocardio",
        "operator": "particular",
        "id": "node/6546444272"
      },
      "geometry": {
        "type": "Point",
        "coordinates": [
          -42.8015881,
          -5.0927341
        ]
      }
    },
    {
      "type": "Feature",
      "id": "node/6549917411",
      "properties": {
        "timestamp": "2021-01-12T14:13:15Z",
        "version": 2,
        "changeset": 97379534,
        "addr:city": "Teresina",
        "addr:street": "Rua 7 de Setembro",
        "addr:suburb": "Centro",
        "amenity": "doctors",
        "healthcare": "doctor",
        "name": "Clínica Imep",
        "phone": "+55 86 3222 3946",
        "id": "node/6549917411"
      },
      "geometry": {
        "type": "Point",
        "coordinates": [
          -42.8099409,
          -5.0955094
        ]
      }
    },
    {
      "type": "Feature",
      "id": "node/6556968904",
      "properties": {
        "timestamp": "2019-06-19T07:49:38Z",
        "version": 1,
        "changeset": 71391287,
        "addr:city": "Teresina",
        "addr:housenumber": "2138",
        "addr:postcode": "64001-020",
        "addr:street": "Avenida Frei Serafim",
        "addr:suburb": "Centro Sul",
        "amenity": "doctors",
        "healthcare": "doctor",
        "healthcare:speciality": "urology",
        "name": "Uroclínica",
        "opening_hours": "Mo-Fr 14:00-18:00",
        "operator": "Danísio Marabuco",
        "phone": "+55 86 3223-8956",
        "id": "node/6556968904"
      },
      "geometry": {
        "type": "Point",
        "coordinates": [
          -42.8061403,
          -5.0882367
        ]
      }
    },
    {
      "type": "Feature",
      "id": "node/6556968908",
      "properties": {
        "timestamp": "2019-06-19T07:49:38Z",
        "version": 1,
        "changeset": 71391287,
        "addr:city": "Teresina",
        "addr:postcode": "64001-020",
        "addr:street": "Avenida Frei Serafim",
        "addr:suburb": "Centro Sul",
        "amenity": "doctors",
        "healthcare": "doctor",
        "healthcare:speciality": "general",
        "name": "Clínica Santa Teresinha",
        "opening_hours": "Mo-Fr 06:30-19:00",
        "phone": "+55 86 3221-0106",
        "id": "node/6556968908"
      },
      "geometry": {
        "type": "Point",
        "coordinates": [
          -42.8053343,
          -5.0878233
        ]
      }
    },
    {
      "type": "Feature",
      "id": "node/6556968925",
      "properties": {
        "timestamp": "2020-01-27T04:58:55Z",
        "version": 3,
        "changeset": 80118411,
        "addr:city": "Teresina",
        "addr:postcode": "64000-020",
        "addr:street": "Avenida Frei Serafim",
        "addr:suburb": "Centro Norte",
        "amenity": "doctors",
        "fixme": "verificar",
        "healthcare": "doctor",
        "name": "Dmi Oftalmo",
        "opening_hours": "Mo-Fr 06:00-19:00",
        "phone": "+55 86 3221-0099",
        "website": "http://clinicadmi.com/contato",
        "id": "node/6556968925"
      },
      "geometry": {
        "type": "Point",
        "coordinates": [
          -42.8052841,
          -5.0873201
        ]
      }
    },
    {
      "type": "Feature",
      "id": "node/6559068215",
      "properties": {
        "timestamp": "2020-08-04T19:04:14Z",
        "version": 3,
        "changeset": 88944336,
        "addr:city": "Teresina",
        "addr:postcode": "64000-390",
        "addr:street": "Rua Desembargador Pires de Castro",
        "addr:suburb": "Centro Norte",
        "amenity": "doctors",
        "healthcare": "doctor",
        "healthcare:speciality": "general",
        "name": "UDI",
        "opening_hours": "24/7",
        "phone": "+55 86 4009-1715",
        "id": "node/6559068215"
      },
      "geometry": {
        "type": "Point",
        "coordinates": [
          -42.8070452,
          -5.0858771
        ]
      }
    },
    {
      "type": "Feature",
      "id": "node/6563455863",
      "properties": {
        "timestamp": "2020-10-18T13:54:19Z",
        "version": 2,
        "changeset": 92657670,
        "amenity": "doctors",
        "healthcare": "doctor",
        "id": "node/6563455863"
      },
      "geometry": {
        "type": "Point",
        "coordinates": [
          -42.8163294,
          -5.0843217
        ]
      }
    },
    {
      "type": "Feature",
      "id": "node/6563501798",
      "properties": {
        "timestamp": "2019-06-21T18:04:55Z",
        "version": 1,
        "changeset": 71491718,
        "amenity": "doctors",
        "healthcare": "doctor",
        "name": "Clínica Arimatéa Santos",
        "id": "node/6563501798"
      },
      "geometry": {
        "type": "Point",
        "coordinates": [
          -42.8145663,
          -5.0878339
        ]
      }
    },
    {
      "type": "Feature",
      "id": "node/6563729943",
      "properties": {
        "timestamp": "2020-01-27T04:46:38Z",
        "version": 2,
        "changeset": 80118026,
        "addr:city": "Teresina",
        "addr:housenumber": "2441",
        "addr:postcode": "64000-080",
        "addr:street": "Rua 19 de Novembro",
        "addr:suburb": "Centro",
        "amenity": "doctors",
        "description": "#geoprocessamentoIFPI",
        "healthcare": "doctor",
        "name": "Clínica Santo Antonio",
        "id": "node/6563729943"
      },
      "geometry": {
        "type": "Point",
        "coordinates": [
          -42.8047699,
          -5.0848335
        ]
      }
    },
    {
      "type": "Feature",
      "id": "node/6563729950",
      "properties": {
        "timestamp": "2021-01-12T13:38:53Z",
        "version": 3,
        "changeset": 97377735,
        "addr:city": "Teresina",
        "addr:street": "Rua 19 de Novembro",
        "addr:suburb": "Centro",
        "amenity": "doctors",
        "healthcare": "doctor",
        "name": "Cardio Criança - Climetran",
        "operator": "Dr. Ismael",
        "phone": "+55 86 3221 3045",
        "id": "node/6563729950"
      },
      "geometry": {
        "type": "Point",
        "coordinates": [
          -42.8041762,
          -5.0861348
        ]
      }
    },
    {
      "type": "Feature",
      "id": "node/6563729951",
      "properties": {
        "timestamp": "2020-01-27T04:46:38Z",
        "version": 3,
        "changeset": 80118026,
        "addr:city": "Teresina",
        "addr:street": "Rua 19 de Novembro",
        "addr:suburb": "Centro",
        "amenity": "doctors",
        "description": "#geoprocessamentoIFPI",
        "healthcare": "doctor",
        "name": "Bio Análise",
        "phone": "+55 86 3215 8585",
        "id": "node/6563729951"
      },
      "geometry": {
        "type": "Point",
        "coordinates": [
          -42.8038834,
          -5.0862001
        ]
      }
    },
    {
      "type": "Feature",
      "id": "node/6563919251",
      "properties": {
        "timestamp": "2019-06-21T21:15:41Z",
        "version": 1,
        "changeset": 71496530,
        "amenity": "doctors",
        "healthcare": "doctor",
        "name": "Dr. gonsalo vilario orologia",
        "id": "node/6563919251"
      },
      "geometry": {
        "type": "Point",
        "coordinates": [
          -42.8104763,
          -5.0959112
        ]
      }
    },
    {
      "type": "Feature",
      "id": "node/6564158692",
      "properties": {
        "timestamp": "2021-01-12T22:39:37Z",
        "version": 5,
        "changeset": 97399710,
        "addr:city": "Teresina",
        "addr:street": "Rua 19 de Novembro",
        "addr:suburb": "Centro",
        "amenity": "doctors",
        "healthcare": "doctor",
        "name": "Doutor Vespasiano Rubin",
        "operator": "Vespasiano Rubin",
        "phone": "+55 86 9 9452 1506",
        "id": "node/6564158692"
      },
      "geometry": {
        "type": "Point",
        "coordinates": [
          -42.8041061,
          -5.0862646
        ]
      }
    }
  ]
}
