{
  "type": "FeatureCollection",
  "features": [
    {
      "type": "Feature",
      "id": "way/454429849",
      "properties": {
        "timestamp": "2018-06-10T21:27:08Z",
        "version": 2,
        "changeset": 59722364,
        "amenity": "veterinary",
        "name": "Hospital Veterinário",
        "id": "way/454429849"
      },
      "geometry": {
        "type": "Polygon",
        "coordinates": [
          [
            [
              -42.7843636,
              -5.0470803
            ],
            [
              -42.7842903,
              -5.0472626
            ],
            [
              -42.7837207,
              -5.0470354
            ],
            [
              -42.7837939,
              -5.0468531
            ],
            [
              -42.7843636,
              -5.0470803
            ]
          ]
        ]
      }
    },
    {
      "type": "Feature",
      "id": "node/6330390006",
      "properties": {
        "timestamp": "2019-03-11T08:53:54Z",
        "version": 1,
        "changeset": 68014232,
        "amenity": "veterinary",
        "name": "G&G.",
        "opening_hours": "Mo-Fr 09:00-12:00,13:30-18:30; Sa 08:00-12:00; PH closed",
        "wheelchair": "yes",
        "id": "node/6330390006"
      },
      "geometry": {
        "type": "Point",
        "coordinates": [
          -42.770119,
          -5.0659698
        ]
      }
    },
    {
      "type": "Feature",
      "id": "node/6924349883",
      "properties": {
        "timestamp": "2019-10-28T11:05:05Z",
        "version": 1,
        "changeset": 76294477,
        "amenity": "veterinary",
        "name": "Pet Dreams",
        "id": "node/6924349883"
      },
      "geometry": {
        "type": "Point",
        "coordinates": [
          -42.7715215,
          -5.0690337
        ]
      }
    },
    {
      "type": "Feature",
      "id": "node/8243609559",
      "properties": {
        "timestamp": "2020-12-19T21:29:18Z",
        "version": 1,
        "changeset": 96122549,
        "addr:housenumber": "365",
        "addr:street": "Avenida Professor Pires Gaioso",
        "amenity": "veterinary",
        "name": "UDVET",
        "id": "node/8243609559"
      },
      "geometry": {
        "type": "Point",
        "coordinates": [
          -42.7780016,
          -5.0845769
        ]
      }
    },
    {
      "type": "Feature",
      "id": "node/9543081071",
      "properties": {
        "timestamp": "2022-02-27T17:03:15Z",
        "version": 2,
        "changeset": 117915876,
        "addr:city": "Teresina",
        "addr:housenumber": "2176",
        "addr:postcode": "64052-160",
        "addr:street": "Rua Professor Elias Torres",
        "addr:suburb": "Jockey",
        "amenity": "veterinary",
        "fee": "yes",
        "name": "Criar Hospital Veterinário 24h",
        "opening_hours": "24/7",
        "phone": "+55 86 3232 7444",
        "wheelchair": "yes",
        "id": "node/9543081071"
      },
      "geometry": {
        "type": "Point",
        "coordinates": [
          -42.7792896,
          -5.0734166
        ]
      }
    },
    {
      "type": "Feature",
      "id": "node/10716972735",
      "properties": {
        "timestamp": "2023-03-06T17:23:48Z",
        "version": 2,
        "changeset": 133372998,
        "addr:city": "Teresina",
        "addr:housenumber": "1928",
        "addr:street": "Rua Barroso",
        "addr:suburb": "Vermelha",
        "amenity": "veterinary",
        "name": "UbPet",
        "phone": "+55 86 9 9804 3110",
        "id": "node/10716972735"
      },
      "geometry": {
        "type": "Point",
        "coordinates": [
          -42.8068732,
          -5.1076899
        ]
      }
    }
  ]
}
