{
  "type": "FeatureCollection",
  "features": [
    {
      "type": "Feature",
      "id": "way/434918718",
      "properties": {
        "timestamp": "2020-05-22T20:04:23Z",
        "version": 2,
        "changeset": 85629635,
        "addr:city": "Mirassol",
        "addr:housenumber": "1757",
        "addr:street": "Rua Floriano Peixoto",
        "building": "yes",
        "email": "ca.mirassol@cati.sp.gov.br",
        "government": "administrative",
        "name": "Casa da Agricultura",
        "office": "government",
        "phone": "+55 17 3242 2044",
        "id": "way/434918718"
      },
      "geometry": {
        "type": "Polygon",
        "coordinates": [
          [
            [
              -49.5086847,
              -20.8221577
            ],
            [
              -49.5088352,
              -20.8221557
            ],
            [
              -49.5088379,
              -20.8223312
            ],
            [
              -49.5086874,
              -20.8223332
            ],
            [
              -49.5086847,
              -20.8221577
            ]
          ]
        ]
      }
    },
    {
      "type": "Feature",
      "id": "way/434918719",
      "properties": {
        "timestamp": "2020-05-22T20:04:23Z",
        "version": 2,
        "changeset": 85629635,
        "addr:city": "Mirassol",
        "addr:housenumber": "1735",
        "addr:street": "Rua Floriano Peixoto",
        "building": "yes",
        "government": "prosecutor",
        "name": "Ministério Público do Estado de São Paulo",
        "office": "government",
        "id": "way/434918719"
      },
      "geometry": {
        "type": "Polygon",
        "coordinates": [
          [
            [
              -49.5087706,
              -20.8224175
            ],
            [
              -49.5089208,
              -20.8224093
            ],
            [
              -49.5089288,
              -20.8225365
            ],
            [
              -49.5087785,
              -20.8225447
            ],
            [
              -49.5087706,
              -20.8224175
            ]
          ]
        ]
      }
    }
  ]
}
