{
  "type": "FeatureCollection",
  "features": [
    {
      "type": "Feature",
      "id": "way/885222431",
      "properties": {
        "timestamp": "2020-12-15T18:42:32Z",
        "version": 1,
        "changeset": 95894598,
        "building": "yes",
        "internet_access": "yes",
        "name": "Pousada Colina das Andorinhas",
        "tourism": "hotel",
        "id": "way/885222431"
      },
      "geometry": {
        "type": "Polygon",
        "coordinates": [
          [
            [
              -45.8572132,
              -22.646854
            ],
            [
              -45.8572449,
              -22.6469307
            ],
            [
              -45.8571028,
              -22.6469806
            ],
            [
              -45.8570712,
              -22.646904
            ],
            [
              -45.8572132,
              -22.646854
            ]
          ]
        ]
      }
    },
    {
      "type": "Feature",
      "id": "way/1085308442",
      "properties": {
        "timestamp": "2022-08-10T10:30:58Z",
        "version": 1,
        "changeset": 124723957,
        "addr:city": "Gonçalves",
        "addr:postcode": "37680-000",
        "addr:street": "Estrada São Sebastião",
        "addr:suburb": "Retiro",
        "building": "yes",
        "name": "Pousada Encontro Das Aguas",
        "tourism": "hotel",
        "id": "way/1085308442"
      },
      "geometry": {
        "type": "Polygon",
        "coordinates": [
          [
            [
              -45.8530484,
              -22.6696254
            ],
            [
              -45.8532597,
              -22.6697751
            ],
            [
              -45.8531978,
              -22.6698495
            ],
            [
              -45.8529865,
              -22.6696998
            ],
            [
              -45.8530484,
              -22.6696254
            ]
          ]
        ]
      }
    },
    {
      "type": "Feature",
      "id": "node/4083129404",
      "properties": {
        "timestamp": "2016-03-28T14:52:35Z",
        "version": 1,
        "changeset": 38122184,
        "name": "Pousada do Rio",
        "tourism": "hotel",
        "id": "node/4083129404"
      },
      "geometry": {
        "type": "Point",
        "coordinates": [
          -45.8376846,
          -22.6933983
        ]
      }
    },
    {
      "type": "Feature",
      "id": "node/4909128621",
      "properties": {
        "timestamp": "2022-07-28T23:10:02Z",
        "version": 3,
        "changeset": 124206255,
        "addr:postcode": "37680-009",
        "email": "pousada_goncalves@hotmail.com",
        "internet_access": "wlan",
        "name": "Pousada Gonçalves",
        "opening_hours": "24/7",
        "phone": "+55 35 9 9911 8384",
        "tourism": "hotel",
        "website": "https://www.pousadagoncalves.com/",
        "id": "node/4909128621"
      },
      "geometry": {
        "type": "Point",
        "coordinates": [
          -45.8266344,
          -22.7185533
        ]
      }
    },
    {
      "type": "Feature",
      "id": "node/9935805827",
      "properties": {
        "timestamp": "2022-08-06T15:20:56Z",
        "version": 2,
        "changeset": 124567036,
        "addr:city": "Gonçalves",
        "addr:postcode": "37680-000",
        "addr:street": "Estrada de São Sebastião",
        "addr:suburb": "Boa Vista",
        "name": "Pousada Vida Verde",
        "phone": "+55 35 3654-1217",
        "tourism": "hotel",
        "website": "https://www.pousadavidaverde.com.br/",
        "id": "node/9935805827"
      },
      "geometry": {
        "type": "Point",
        "coordinates": [
          -45.8564641,
          -22.6861428
        ]
      }
    }
  ]
}
