{
  "type": "FeatureCollection",
  "features": [
    {
      "type": "Feature",
      "id": "way/1115339088",
      "properties": {
        "timestamp": "2022-11-18T23:20:22Z",
        "version": 1,
        "changeset": 129105739,
        "addr:city": "Rio Vermelho",
        "addr:place": "Fazenda Mata-porcos",
        "addr:postcode": "39170-000",
        "addr:state": "Minas Gerais",
        "addr:suburb": "Fazenda Mata-porcos",
        "amenity": "school",
        "name": "Escolas Municipal Marcolina Dumont Lessa",
        "operator": "Município de Rio Vermelho",
        "operator:type": "public",
        "id": "way/1115339088"
      },
      "geometry": {
        "type": "Polygon",
        "coordinates": [
          [
            [
              -43.1478002,
              -18.2185638
            ],
            [
              -43.1478371,
              -18.2192969
            ],
            [
              -43.1474782,
              -18.2193276
            ],
            [
              -43.1474012,
              -18.218596
            ],
            [
              -43.1478002,
              -18.2185638
            ]
          ]
        ]
      }
    },
    {
      "type": "Feature",
      "id": "node/10177312346",
      "properties": {
        "timestamp": "2022-11-29T19:34:10Z",
        "version": 2,
        "changeset": 129533858,
        "addr:city": "Rio Vermelho",
        "addr:housenumber": "63",
        "addr:postcode": "39170-000",
        "addr:street": "Rua Bernardino Carvalhais",
        "addr:suburb": "Centro",
        "amenity": "school",
        "email": "escola.24651@educacao.mg.gov.br",
        "name": "Escola Estadual Doutor Afonso Pena Júnior",
        "operator": "Governo de Minas Gerais",
        "operator:type": "public",
        "phone": "+55 33 3436 1320",
        "id": "node/10177312346"
      },
      "geometry": {
        "type": "Point",
        "coordinates": [
          -43.009613,
          -18.293098
        ]
      }
    },
    {
      "type": "Feature",
      "id": "node/10177312357",
      "properties": {
        "timestamp": "2022-11-29T19:34:10Z",
        "version": 3,
        "changeset": 129533858,
        "addr:city": "Rio Vermelho",
        "addr:housenumber": "63",
        "addr:postcode": "39170-000",
        "addr:street": "Rua Maria da Lourdes Lessa Dumont Leal",
        "addr:suburb": "Centro",
        "amenity": "school",
        "email": "escola.24678@educacao.mg.gov.br",
        "name": "Escola Estadual Santos Carvalhais",
        "operator": "Governo de Minas Gerais",
        "operator:type": "government",
        "phone": "+55 33 3436 1291",
        "id": "node/10177312357"
      },
      "geometry": {
        "type": "Point",
        "coordinates": [
          -43.007877,
          -18.2947478
        ]
      }
    },
    {
      "type": "Feature",
      "id": "node/10177427497",
      "properties": {
        "timestamp": "2022-11-16T17:29:13Z",
        "version": 3,
        "changeset": 129002972,
        "addr:city": "Rio Vermelho",
        "addr:housenumber": "227",
        "addr:postcode": "39170-000",
        "addr:street": "Rua Bernardino Carvalhais",
        "addr:suburb": "Centro",
        "amenity": "school",
        "name": "Escola Municipal João Antônio Carvalhais",
        "operator": "Município de Rio Vermelho",
        "operator:type": "public",
        "id": "node/10177427497"
      },
      "geometry": {
        "type": "Point",
        "coordinates": [
          -43.0111297,
          -18.2931055
        ]
      }
    },
    {
      "type": "Feature",
      "id": "node/10180706957",
      "properties": {
        "timestamp": "2022-11-13T14:51:16Z",
        "version": 1,
        "changeset": 128850484,
        "addr:city": "Rio Vermelho",
        "addr:housenumber": "05",
        "addr:postcode": "39170-000",
        "addr:street": "Rua João Antônio Carvalhais",
        "addr:suburb": "Centro",
        "amenity": "school",
        "name": "Instituto Educacional Crescer",
        "operator": "Associação de Pais e Amigos dos Excepcionais - Apae",
        "operator:type": "private",
        "id": "node/10180706957"
      },
      "geometry": {
        "type": "Point",
        "coordinates": [
          -43.0087983,
          -18.2945102
        ]
      }
    },
    {
      "type": "Feature",
      "id": "node/10180706962",
      "properties": {
        "timestamp": "2022-11-13T14:51:16Z",
        "version": 1,
        "changeset": 128850484,
        "addr:city": "Rio Vermelho",
        "addr:housenumber": "345",
        "addr:postcode": "39165-000",
        "addr:street": "Rua João Antônio Carvalhais",
        "addr:suburb": "Centro",
        "amenity": "school",
        "id": "node/10180706962"
      },
      "geometry": {
        "type": "Point",
        "coordinates": [
          -43.008904,
          -18.2942617
        ]
      }
    },
    {
      "type": "Feature",
      "id": "node/10180987921",
      "properties": {
        "timestamp": "2022-11-14T22:28:03Z",
        "version": 2,
        "changeset": 128911640,
        "addr:city": "Rio Vermelho",
        "addr:housenumber": "11",
        "addr:postcode": "39165-000",
        "addr:street": "Praça Sagrado Coração de Jesus",
        "addr:suburb": "Pedra Menina",
        "amenity": "school",
        "name": "Escola Estadual Francisco Gonçalves Vieira",
        "operator": "Governo de Minas Gerais",
        "id": "node/10180987921"
      },
      "geometry": {
        "type": "Point",
        "coordinates": [
          -43.1144077,
          -18.1145812
        ]
      }
    },
    {
      "type": "Feature",
      "id": "node/10184500929",
      "properties": {
        "timestamp": "2022-11-14T22:28:03Z",
        "version": 1,
        "changeset": 128911640,
        "addr:city": "Rio Vermelho",
        "addr:housenumber": "66",
        "addr:postcode": "39165-000",
        "addr:street": "Rua Joaquim Rufino",
        "addr:suburb": "Magalhães",
        "amenity": "school",
        "name": "Escola Estadual Democlides Machado da Silva",
        "operator": "Governo de Minas Gerais",
        "phone": "+55 33 3436 1103",
        "id": "node/10184500929"
      },
      "geometry": {
        "type": "Point",
        "coordinates": [
          -43.0103753,
          -18.3105641
        ]
      }
    },
    {
      "type": "Feature",
      "id": "node/10184818670",
      "properties": {
        "timestamp": "2022-11-15T02:21:36Z",
        "version": 1,
        "changeset": 128915166,
        "addr:city": "Rio Vermelho",
        "addr:postcode": "39165-000",
        "addr:suburb": "Vargem de Macaúbas",
        "amenity": "school",
        "name": "Escola Estadual Eva das Dores Santos",
        "operator": "Governo de Minas Gerais",
        "id": "node/10184818670"
      },
      "geometry": {
        "type": "Point",
        "coordinates": [
          -43.0047168,
          -18.2088971
        ]
      }
    },
    {
      "type": "Feature",
      "id": "node/10187455436",
      "properties": {
        "timestamp": "2022-11-16T02:43:31Z",
        "version": 1,
        "changeset": 128966450,
        "addr:city": "Rio Vermelho",
        "addr:housenumber": "116",
        "addr:postcode": "39165-000",
        "addr:street": "Rua José Plicio dos Santos",
        "addr:suburb": "Chapadinha",
        "amenity": "school",
        "name": "Creche Bem Estar do Menor",
        "operator": "Município de Rio Vermelho",
        "id": "node/10187455436"
      },
      "geometry": {
        "type": "Point",
        "coordinates": [
          -43.0113971,
          -18.3006704
        ]
      }
    },
    {
      "type": "Feature",
      "id": "node/10191102346",
      "properties": {
        "timestamp": "2022-11-16T19:25:55Z",
        "version": 1,
        "changeset": 129007663,
        "addr:city": "Rio Vermelho",
        "addr:postcode": "39170-000",
        "addr:suburb": "Viana",
        "amenity": "school",
        "name": "Escola Municipal Geraldo Braz de Oliveira",
        "operator": "Município de Rio Vermelho",
        "operator:type": "public",
        "id": "node/10191102346"
      },
      "geometry": {
        "type": "Point",
        "coordinates": [
          -43.0757301,
          -18.2860661
        ]
      }
    },
    {
      "type": "Feature",
      "id": "node/10199629311",
      "properties": {
        "timestamp": "2022-11-18T13:57:22Z",
        "version": 1,
        "changeset": 129088348,
        "addr:city": "Rio Vermelho",
        "addr:postcode": "39170-000",
        "addr:suburb": "Mercês de Fortaleza",
        "amenity": "school",
        "name": "Escola Municipal Fernando de Melo Viana",
        "operator": "Município de Rio Vermelho",
        "operator:type": "público",
        "id": "node/10199629311"
      },
      "geometry": {
        "type": "Point",
        "coordinates": [
          -43.1834179,
          -18.2273045
        ]
      }
    },
    {
      "type": "Feature",
      "id": "node/10203044339",
      "properties": {
        "timestamp": "2022-11-20T02:03:17Z",
        "version": 1,
        "changeset": 129142694,
        "addr:city": "Rio Vermelho",
        "addr:postcode": "39170-000",
        "addr:suburb": "Cruz Lavrada",
        "amenity": "school",
        "name": "Escola Municipal Santos Costa",
        "operator": "Município de Rio Vermelho",
        "id": "node/10203044339"
      },
      "geometry": {
        "type": "Point",
        "coordinates": [
          -42.9471409,
          -18.1857865
        ]
      }
    },
    {
      "type": "Feature",
      "id": "node/10207846407",
      "properties": {
        "timestamp": "2022-11-21T17:32:05Z",
        "version": 1,
        "changeset": 129206187,
        "addr:city": "Rio Vermelho",
        "addr:postcode": "39165-000",
        "addr:suburb": "São Gregório",
        "amenity": "school",
        "name": "Escola Municipal Doutorr Benedito Valadares",
        "operator": "Município de Rio Vermelho",
        "operator:type": "public",
        "id": "node/10207846407"
      },
      "geometry": {
        "type": "Point",
        "coordinates": [
          -42.9251096,
          -18.1250781
        ]
      }
    },
    {
      "type": "Feature",
      "id": "node/10226355850",
      "properties": {
        "timestamp": "2022-11-29T19:34:10Z",
        "version": 1,
        "changeset": 129533858,
        "addr:city": "Rio Vermelho",
        "addr:housenumber": "53",
        "addr:postcode": "39170-000",
        "addr:street": "Rua Gil Câmara",
        "addr:suburb": "Centro",
        "amenity": "school",
        "email": "escola.24716@educacao.mg.gov.br",
        "name": "Cesec Mestra Chiquinha Carvalhais",
        "operator": "Governo de Minas Gerais",
        "operator:type": "public",
        "phone": "+55 33 3436 1206",
        "id": "node/10226355850"
      },
      "geometry": {
        "type": "Point",
        "coordinates": [
          -43.0098733,
          -18.2925533
        ]
      }
    }
  ]
}
