{
  "type": "FeatureCollection",
  "features": [
    {
      "type": "Feature",
      "id": "way/543715186",
      "properties": {
        "timestamp": "2019-08-27T16:21:22Z",
        "version": 2,
        "changeset": 73806296,
        "addr:city": "Ponte Nova",
        "addr:housenumber": "1035",
        "addr:postcode": "35430-000",
        "addr:street": "Avenida Francisco Vieira Martins",
        "addr:suburb": "Guarapiranga",
        "building": "yes",
        "description": "Orgão que rege a educação estadual na região de Ponte Nova, mais de 20 municipios e 80 escolas estaduais estão sob o comando deste orgão na região.",
        "government": "administrative",
        "name": "Superintendencia Regional de Ensino de Ponte Nova",
        "office": "government",
        "opening_hours": "Mo-Fr 09:00-17:00",
        "id": "way/543715186"
      },
      "geometry": {
        "type": "Polygon",
        "coordinates": [
          [
            [
              -42.8922787,
              -20.4062271
            ],
            [
              -42.8923292,
              -20.4062779
            ],
            [
              -42.8921435,
              -20.4064403
            ],
            [
              -42.8921219,
              -20.4064185
            ],
            [
              -42.8921049,
              -20.4064185
            ],
            [
              -42.8920839,
              -20.406398
            ],
            [
              -42.892107,
              -20.4063772
            ],
            [
              -42.8922787,
              -20.4062271
            ]
          ]
        ]
      }
    },
    {
      "type": "Feature",
      "id": "node/4153757789",
      "properties": {
        "timestamp": "2022-07-28T21:01:54Z",
        "version": 4,
        "changeset": 124203473,
        "addr:street": "Avenida Caetano Marinho",
        "name": "Prefeitura Municipal de Ponte Nova",
        "office": "government",
        "opening_hours": "Mo-Fr 12:00-16:00",
        "phone": "+55 31 3819 5454",
        "id": "node/4153757789"
      },
      "geometry": {
        "type": "Point",
        "coordinates": [
          -42.9084819,
          -20.4158732
        ]
      }
    },
    {
      "type": "Feature",
      "id": "node/4154559489",
      "properties": {
        "timestamp": "2022-07-28T21:05:35Z",
        "version": 2,
        "changeset": 124203494,
        "addr:street": "Rua Antônio Frederico Ozanan",
        "name": "Secretaria Municipal de Saúde",
        "office": "government",
        "phone": "+55 31 3817 1120",
        "id": "node/4154559489"
      },
      "geometry": {
        "type": "Point",
        "coordinates": [
          -42.9118338,
          -20.4167631
        ]
      }
    },
    {
      "type": "Feature",
      "id": "node/4162190390",
      "properties": {
        "timestamp": "2023-11-16T00:26:34Z",
        "version": 6,
        "changeset": 144073251,
        "addr:street": "Avenida Caetano Marinho",
        "name": "Acip CDL Ponte Nova",
        "office": "government",
        "phone": "+55 31 3817 2492",
        "website": "https://www.acipcdl.com.br/",
        "id": "node/4162190390"
      },
      "geometry": {
        "type": "Point",
        "coordinates": [
          -42.9085676,
          -20.4162358
        ]
      }
    },
    {
      "type": "Feature",
      "id": "node/4179676490",
      "properties": {
        "timestamp": "2022-07-28T21:00:48Z",
        "version": 4,
        "changeset": 124203429,
        "addr:street": "Avenida Doutor Cristiano de Freitas Castro",
        "government": "legislative",
        "name": "Câmara Municipal de Ponte Nova",
        "office": "government",
        "phone": "+55 31 3817 2017",
        "id": "node/4179676490"
      },
      "geometry": {
        "type": "Point",
        "coordinates": [
          -42.9046686,
          -20.4137449
        ]
      }
    },
    {
      "type": "Feature",
      "id": "node/5256081535",
      "properties": {
        "timestamp": "2017-11-30T15:47:10Z",
        "version": 1,
        "changeset": 54208605,
        "addr:city": "Ponte Nova",
        "addr:postcode": "35430-000",
        "addr:street": "Avenida Francisco Vieira Martins",
        "addr:suburb": "Guarapiranga",
        "government": "public_service",
        "name": "Superintendencia Regional de Ensino de Ponte Nova",
        "office": "government",
        "opening_hours": "Mo-Fr 09:00-17:00",
        "id": "node/5256081535"
      },
      "geometry": {
        "type": "Point",
        "coordinates": [
          -42.8920966,
          -20.4064412
        ]
      }
    }
  ]
}
