{
  "type": "FeatureCollection",
  "features": [
    {
      "type": "Feature",
      "id": "way/1122911712",
      "properties": {
        "timestamp": "2022-12-17T15:17:49Z",
        "version": 1,
        "changeset": 130188926,
        "addr:housenumber": "50",
        "addr:postcode": "18970-191",
        "addr:street": "Praça dos Estudantes",
        "addr:suburb": "Centro",
        "amenity": "school",
        "email": "e033893a@educacao.sp.gov.br",
        "name": "Escola Estadual Doutor Ernesto Fonseca",
        "operator": "Secretaria da Educação do Estado de São Paulo",
        "operator:type": "government",
        "phone": "+55 14 3342 1889",
        "ref": "INEP-35033893",
        "religion": "none",
        "source": "INEP;CADMEC 2017",
        "id": "way/1122911712"
      },
      "geometry": {
        "type": "Polygon",
        "coordinates": [
          [
            [
              -49.7086847,
              -23.0415337
            ],
            [
              -49.7082726,
              -23.0421891
            ],
            [
              -49.7076006,
              -23.0417645
            ],
            [
              -49.7080508,
              -23.0411379
            ],
            [
              -49.7086847,
              -23.0415337
            ]
          ]
        ]
      }
    },
    {
      "type": "Feature",
      "id": "way/1122923288",
      "properties": {
        "timestamp": "2022-12-17T16:10:42Z",
        "version": 1,
        "changeset": 130190414,
        "addr:housenumber": "551",
        "addr:postcode": "18970-180",
        "addr:street": "Rua Maestro Carlos Gomes",
        "addr:suburb": "Centro",
        "amenity": "school",
        "name": "Escola Municipal de Educação Fundamental Olegário Bueno",
        "phone": "+55 14 3342 9208",
        "ref": "INEP-35247698",
        "religion": "none",
        "short_name": "EMEF Olegário Bueno",
        "source": "INEP;CADMEC 2017",
        "id": "way/1122923288"
      },
      "geometry": {
        "type": "Polygon",
        "coordinates": [
          [
            [
              -49.7086073,
              -23.0406724
            ],
            [
              -49.7086559,
              -23.040619
            ],
            [
              -49.7088902,
              -23.0407591
            ],
            [
              -49.7088429,
              -23.040817
            ],
            [
              -49.7086073,
              -23.0406724
            ]
          ]
        ]
      }
    },
    {
      "type": "Feature",
      "id": "way/1122924203",
      "properties": {
        "timestamp": "2022-12-17T16:17:29Z",
        "version": 1,
        "changeset": 130190630,
        "addr:housenumber": "128",
        "addr:postcode": "18970-070",
        "addr:street": "Praça Conselheiro Antônio Prado",
        "addr:suburb": "Centro",
        "amenity": "school",
        "name": "Escola Municipal de Educação Fundamental Coronel Manoel Ferreira",
        "phone": "+55 14 33421203",
        "ref": "INEP-35230091",
        "religion": "none",
        "short_name": "EMEF Coronel Manoel Ferreira",
        "source": "INEP",
        "id": "way/1122924203"
      },
      "geometry": {
        "type": "Polygon",
        "coordinates": [
          [
            [
              -49.7109643,
              -23.0368361
            ],
            [
              -49.7109455,
              -23.0369649
            ],
            [
              -49.7108849,
              -23.0369496
            ],
            [
              -49.7108724,
              -23.0370399
            ],
            [
              -49.7108473,
              -23.0370438
            ],
            [
              -49.7108389,
              -23.0370842
            ],
            [
              -49.7107699,
              -23.0370765
            ],
            [
              -49.7108306,
              -23.0368149
            ],
            [
              -49.7109643,
              -23.0368361
            ]
          ]
        ]
      }
    },
    {
      "type": "Feature",
      "id": "node/10269752748",
      "properties": {
        "timestamp": "2022-12-17T15:56:47Z",
        "version": 1,
        "changeset": 130190027,
        "addr:housenumber": "91",
        "addr:postcode": "18970-276",
        "addr:street": "Avenida João Martins",
        "addr:suburb": "Chavantes Novo",
        "amenity": "school",
        "name": "Escola de Educação Especial Rosalinda Haddad",
        "operator": "APAE",
        "operator:type": "private_non_profit",
        "phone": "+55 14 3342 2304",
        "ref": "INEP-35304803",
        "source": "INEP",
        "id": "node/10269752748"
      },
      "geometry": {
        "type": "Point",
        "coordinates": [
          -49.7065166,
          -23.0462932
        ]
      }
    }
  ]
}
