{
  "type": "FeatureCollection",
  "features": [
    {
      "type": "Feature",
      "id": "node/6953584685",
      "properties": {
        "timestamp": "2021-09-07T22:01:06Z",
        "version": 3,
        "changeset": 110881130,
        "name": "RBR Powering Bikes",
        "phone": "+55 85 9 9639-4866",
        "shop": "bicycle",
        "id": "node/6953584685"
      },
      "geometry": {
        "type": "Point",
        "coordinates": [
          -38.6096512,
          -3.7416062
        ]
      }
    },
    {
      "type": "Feature",
      "id": "node/9026353212",
      "properties": {
        "timestamp": "2021-08-22T13:30:27Z",
        "version": 1,
        "changeset": 110061898,
        "addr:city": "Caucaia",
        "addr:country": "BR",
        "addr:housenumber": "78",
        "addr:postcode": "61635-320",
        "addr:street": "Rua Dez C",
        "name": "Rafa ciclos",
        "payment:coins": "yes",
        "payment:maestro": "yes",
        "payment:mastercard": "yes",
        "payment:notes": "yes",
        "payment:visa": "yes",
        "payment:visa_debit": "yes",
        "payment:visa_electron": "yes",
        "phone": "+55 85 9 8412-8897",
        "service:bicycle:repair": "yes",
        "shop": "bicycle",
        "id": "node/9026353212"
      },
      "geometry": {
        "type": "Point",
        "coordinates": [
          -38.6141686,
          -3.7389185
        ]
      }
    }
  ]
}
