{
  "type": "FeatureCollection",
  "features": [
    {
      "type": "Feature",
      "id": "relation/7552899",
      "properties": {
        "timestamp": "2023-10-13T18:45:16Z",
        "version": 5,
        "changeset": 142535891,
        "addr:city": "Caucaia",
        "addr:housenumber": "1767",
        "addr:street": "Rua Coronel Correia",
        "addr:suburb": "Centro",
        "building": "office",
        "building:levels": "1",
        "email": "sefin@caucaia.ce.gov.br",
        "government": "tax",
        "name": "Secretaria Municipal de Finanças, Planejamento e Orçamento",
        "office": "government",
        "opening_hours": "Mo-Fr 08:00-16:00",
        "operator": "Prefeitura de Caucaia",
        "phone": "+55 85 3387 7302",
        "short_name": "SEFIN Caucaia",
        "smoking": "no",
        "type": "multipolygon",
        "website": "https://sefin.caucaia.ce.gov.br/",
        "id": "relation/7552899"
      },
      "geometry": {
        "type": "Polygon",
        "coordinates": [
          [
            [
              -38.6567539,
              -3.7359158
            ],
            [
              -38.6566289,
              -3.7359158
            ],
            [
              -38.656628,
              -3.7354852
            ],
            [
              -38.656687,
              -3.7354851
            ],
            [
              -38.6567531,
              -3.735485
            ],
            [
              -38.6567535,
              -3.7356646
            ],
            [
              -38.6567539,
              -3.7359053
            ],
            [
              -38.6567539,
              -3.7359158
            ]
          ]
        ]
      }
    },
    {
      "type": "Feature",
      "id": "way/623079376",
      "properties": {
        "timestamp": "2023-05-19T04:30:42Z",
        "version": 3,
        "changeset": 136280316,
        "building": "yes",
        "government": "tax",
        "name": "SEFAZ (Posto Fiscal de Caucaia)",
        "office": "government",
        "id": "way/623079376"
      },
      "geometry": {
        "type": "Polygon",
        "coordinates": [
          [
            [
              -38.756712,
              -3.7326348
            ],
            [
              -38.7567299,
              -3.7327181
            ],
            [
              -38.7567633,
              -3.7328743
            ],
            [
              -38.7565507,
              -3.7329197
            ],
            [
              -38.7565132,
              -3.7327447
            ],
            [
              -38.7564993,
              -3.7326802
            ],
            [
              -38.756712,
              -3.7326348
            ]
          ]
        ]
      }
    },
    {
      "type": "Feature",
      "id": "way/958642826",
      "properties": {
        "timestamp": "2021-06-27T16:28:40Z",
        "version": 1,
        "changeset": 107043413,
        "addr:housenumber": "123",
        "addr:street": "Rua Francisco Sales",
        "building": "yes",
        "government": "public_service",
        "name": "Cadastro imobiliário",
        "office": "government",
        "opening_hours": "Mo-Fr 08:00-03:00",
        "id": "way/958642826"
      },
      "geometry": {
        "type": "Polygon",
        "coordinates": [
          [
            [
              -38.6565984,
              -3.7361752
            ],
            [
              -38.6565993,
              -3.7363163
            ],
            [
              -38.6566707,
              -3.7363159
            ],
            [
              -38.6566713,
              -3.7364119
            ],
            [
              -38.6565929,
              -3.7364124
            ],
            [
              -38.6565714,
              -3.7364125
            ],
            [
              -38.6565699,
              -3.7361753
            ],
            [
              -38.6565837,
              -3.7361753
            ],
            [
              -38.6565984,
              -3.7361752
            ]
          ]
        ]
      }
    },
    {
      "type": "Feature",
      "id": "way/1105250441",
      "properties": {
        "timestamp": "2022-10-19T14:23:55Z",
        "version": 2,
        "changeset": 127786124,
        "addr:city": "Caucaia",
        "addr:housenumber": "620",
        "addr:street": "Rua Joaquim Bento Cavalcante",
        "addr:suburb": "Grilo",
        "building": "yes",
        "email": "delegcmc@outlook.com",
        "government": "legislative",
        "name": "Câmara Municipal de Caucaia",
        "office": "government",
        "phone": "+55 (85) 3342-1021",
        "website": "https://www.cmcaucaia.ce.gov.br",
        "id": "way/1105250441"
      },
      "geometry": {
        "type": "Polygon",
        "coordinates": [
          [
            [
              -38.6614087,
              -3.7269807
            ],
            [
              -38.6614916,
              -3.7273458
            ],
            [
              -38.6607855,
              -3.7275198
            ],
            [
              -38.6606997,
              -3.727149
            ],
            [
              -38.6614087,
              -3.7269807
            ]
          ]
        ]
      }
    },
    {
      "type": "Feature",
      "id": "node/5665115428",
      "properties": {
        "timestamp": "2018-06-05T01:07:45Z",
        "version": 1,
        "changeset": 59552738,
        "addr:city": "Caucaia",
        "addr:housenumber": "344",
        "addr:postcode": "61605-620",
        "addr:street": "Rua 106",
        "addr:suburb": "Planalto Caucaia",
        "government": "yes",
        "name": "CRAS - Planalto Caucaia",
        "office": "government",
        "opening_hours": "Mo-Fr 08:00-17:00",
        "id": "node/5665115428"
      },
      "geometry": {
        "type": "Point",
        "coordinates": [
          -38.6642714,
          -3.7433013
        ]
      }
    },
    {
      "type": "Feature",
      "id": "node/6271349585",
      "properties": {
        "timestamp": "2023-10-13T18:45:13Z",
        "version": 3,
        "changeset": 142535887,
        "addr:city": "Caucaia",
        "addr:housenumber": "2061",
        "addr:street": "Rua Coronel Correia",
        "alt_name": "Secretaria de Administração",
        "email": "secretaria@sead.caucaia.ce.gov.br",
        "government": "administrative",
        "name": "Secretaria de Administração, Gestão de Pessoas e Tecnologia",
        "office": "government",
        "opening_hours": "Mo-Fr 08:00-16:00",
        "phone": "+55 85 3342 8104",
        "short_name": "SAGPT",
        "website": "https://www.caucaia.ce.gov.br/index.php?tabela=pagina&acao=orgao&codigo=2",
        "id": "node/6271349585"
      },
      "geometry": {
        "type": "Point",
        "coordinates": [
          -38.6590968,
          -3.7355128
        ]
      }
    },
    {
      "type": "Feature",
      "id": "node/8870011540",
      "properties": {
        "timestamp": "2021-06-27T16:28:40Z",
        "version": 1,
        "changeset": 107043413,
        "entrance": "main",
        "id": "node/8870011540"
      },
      "geometry": {
        "type": "Point",
        "coordinates": [
          -38.6565837,
          -3.7361753
        ]
      }
    },
    {
      "type": "Feature",
      "id": "node/8870011557",
      "properties": {
        "timestamp": "2021-07-15T16:00:12Z",
        "version": 2,
        "changeset": 108063292,
        "access": "permissive",
        "addr:city": "Caucaia",
        "addr:housenumber": "1767",
        "addr:street": "Rua Coronel Correia",
        "addr:suburb": "Centro",
        "entrance": "main",
        "id": "node/8870011557"
      },
      "geometry": {
        "type": "Point",
        "coordinates": [
          -38.656687,
          -3.7354851
        ]
      }
    },
    {
      "type": "Feature",
      "id": "node/8960628215",
      "properties": {
        "timestamp": "2023-10-13T18:41:55Z",
        "version": 2,
        "changeset": 142535748,
        "addr:city": "Caucaia",
        "addr:housenumber": "297",
        "addr:street": "Rua José da Rocha Sales",
        "addr:suburb": "Centro",
        "government": "public_service",
        "name": "Procuradoria Geral do Município de Caucaia",
        "office": "government",
        "opening_hours": "Mo-Fr 08:00-16:00",
        "website": "https://www.caucaia.ce.gov.br/index.php?tabela=pagina&acao=orgao&codigo=15",
        "id": "node/8960628215"
      },
      "geometry": {
        "type": "Point",
        "coordinates": [
          -38.6553808,
          -3.7371825
        ]
      }
    },
    {
      "type": "Feature",
      "id": "node/9452678648",
      "properties": {
        "timestamp": "2023-10-13T18:41:52Z",
        "version": 2,
        "changeset": 142535746,
        "addr:city": "Caucaia",
        "addr:housenumber": "179",
        "addr:street": "Rua Padre Romualdo",
        "email": "ipm@caucaia.ce.gov.br",
        "government": "administrative",
        "name": "Instituto de Previdência do Município de Caucaia",
        "office": "government",
        "opening_hours": "Mo-Fr 08:00-16:00",
        "phone": "+55 85 3342 8140",
        "short_name": "IPMC",
        "website": "https://www.caucaia.ce.gov.br/index.php?tabela=pagina&acao=orgao&codigo=18",
        "id": "node/9452678648"
      },
      "geometry": {
        "type": "Point",
        "coordinates": [
          -38.6557403,
          -3.7349678
        ]
      }
    },
    {
      "type": "Feature",
      "id": "node/9452678649",
      "properties": {
        "timestamp": "2023-10-13T18:46:03Z",
        "version": 2,
        "changeset": 142535966,
        "addr:city": "Caucaia",
        "addr:housenumber": "260",
        "addr:street": "Rua Joaquim Mota e Silva",
        "email": "amt@caucaia.ce.gov.br",
        "government": "administrative",
        "name": "Autarquia Municipal de Trânsito",
        "office": "government",
        "opening_hours": "Mo-Fr 08:00-16:00",
        "phone": "+55 85 98147 5703",
        "short_name": "AMT",
        "website": "https://www.caucaia.ce.gov.br/index.php?tabela=pagina&acao=orgao&codigo=20",
        "id": "node/9452678649"
      },
      "geometry": {
        "type": "Point",
        "coordinates": [
          -38.659946,
          -3.7281302
        ]
      }
    },
    {
      "type": "Feature",
      "id": "node/9452678650",
      "properties": {
        "timestamp": "2023-10-13T18:44:42Z",
        "version": 2,
        "changeset": 142535864,
        "addr:city": "Caucaia",
        "addr:housenumber": "1076",
        "addr:street": "Rodovia Doutor Waldemar de Alcântara",
        "email": "chefedegabinete@caucaia.ce.gov.br",
        "government": "administrative",
        "name": "Gabinete do Prefeito",
        "office": "government",
        "opening_hours": "Mo-Fr 08:00-16:00",
        "phone": "+55 85 3342 3906",
        "short_name": "GABPREF",
        "website": "https://www.caucaia.ce.gov.br/index.php?tabela=pagina&acao=orgao&codigo=23",
        "id": "node/9452678650"
      },
      "geometry": {
        "type": "Point",
        "coordinates": [
          -38.6452727,
          -3.733205
        ]
      }
    },
    {
      "type": "Feature",
      "id": "node/9452678651",
      "properties": {
        "timestamp": "2023-10-13T18:42:10Z",
        "version": 2,
        "changeset": 142535759,
        "addr:city": "Caucaia",
        "addr:housenumber": "1076",
        "addr:street": "Rodovia Doutor Waldemar de Alcântara",
        "email": "viceprefeito@caucaia.ce.gov.br",
        "government": "administrative",
        "name": "Gabinete do Vice-Prefeito",
        "office": "government",
        "opening_hours": "Mo-Fr 08:00-16:00",
        "phone": "+55 85 3287 8253",
        "short_name": "GABVICE",
        "website": "https://www.caucaia.ce.gov.br/index.php?tabela=pagina&acao=orgao&codigo=23",
        "id": "node/9452678651"
      },
      "geometry": {
        "type": "Point",
        "coordinates": [
          -38.6453314,
          -3.7331989
        ]
      }
    },
    {
      "type": "Feature",
      "id": "node/9452678653",
      "properties": {
        "timestamp": "2023-10-13T18:44:20Z",
        "version": 3,
        "changeset": 142535850,
        "addr:city": "Caucaia",
        "addr:housenumber": "127",
        "addr:street": "Rua Francisco Sales",
        "alt_name": "Ouvidoria Geral do Município",
        "email": "ouvidoriageral@caucaia.ce.gov.br",
        "government": "administrative",
        "name": "Ouvidoria Geral do Município",
        "office": "government",
        "opening_hours": "Mo-Fr 08:00-16:00",
        "phone": "+55 85 3342 8064",
        "short_name": "OGM",
        "website": "https://www.caucaia.ce.gov.br/index.php?tabela=pagina&acao=orgao&codigo=26",
        "id": "node/9452678653"
      },
      "geometry": {
        "type": "Point",
        "coordinates": [
          -38.6566161,
          -3.7361876
        ]
      }
    },
    {
      "type": "Feature",
      "id": "node/9452678654",
      "properties": {
        "timestamp": "2023-10-13T18:42:23Z",
        "version": 2,
        "changeset": 142535764,
        "addr:city": "Caucaia",
        "addr:housenumber": "1076",
        "addr:street": "Rodovia Doutor Waldemar de Alcântara",
        "alt_name": "Assessoria de Comunicação",
        "contact:facebook": "https://www.facebook.com/prefeituradecaucaia",
        "contact:instagram": "https://www.instagram.com/prefeituradecaucaia",
        "contact:youtube": "https://www.youtube.com/channel/UC1QQX4xxCXQshLggpzTHX8g",
        "email": "ascom@caucaia.ce.gov.br",
        "government": "administrative",
        "name": "Assessoria de Comunicação e Cerimonial",
        "office": "government",
        "opening_hours": "Mo-Fr 08:00-16:00",
        "phone": "+55 85 3342 4410",
        "short_name": "ASCOM",
        "website": "https://www.caucaia.ce.gov.br/index.php?tabela=pagina&acao=orgao&codigo=17",
        "id": "node/9452678654"
      },
      "geometry": {
        "type": "Point",
        "coordinates": [
          -38.6453951,
          -3.7331855
        ]
      }
    },
    {
      "type": "Feature",
      "id": "node/9452893638",
      "properties": {
        "timestamp": "2022-01-27T13:20:18Z",
        "version": 1,
        "changeset": 116666688,
        "addr:city": "Caucaia",
        "addr:housenumber": "2295",
        "addr:street": "Avenida dos Coqueiros",
        "alt_name": "Secretaria Municipal de Turismo e Cultura",
        "email": "setcult@caucaia.ce.gov.br",
        "government": "administrative",
        "name": "Secretaria Municipal de Turismo e Cultura",
        "office": "government",
        "opening_hours": "Mo-Fr 08:00-16:00",
        "phone": "+55 85 3318 1282",
        "short_name": "SECULT",
        "website": "w.caucaia.ce.gov.br/index.php?tabela=pagina&acao=orgao&codigo=13",
        "id": "node/9452893638"
      },
      "geometry": {
        "type": "Point",
        "coordinates": [
          -38.7316388,
          -3.625921
        ]
      }
    },
    {
      "type": "Feature",
      "id": "node/9452893639",
      "properties": {
        "timestamp": "2023-10-13T18:43:07Z",
        "version": 2,
        "changeset": 142535803,
        "addr:city": "Caucaia",
        "addr:housenumber": "2089",
        "addr:street": "Rua Coronel Correia",
        "alt_name": "Secretaria Municipal de Saúde",
        "email": "sms@caucaia.ce.gov.br",
        "government": "administrative",
        "name": "Secretaria Municipal de Saúde",
        "office": "government",
        "opening_hours": "Mo-Fr 08:00-16:00",
        "phone": "+55 85 3342 8023",
        "short_name": "SMS",
        "website": "https://www.caucaia.ce.gov.br/index.php?tabela=pagina&acao=orgao&codigo=8",
        "id": "node/9452893639"
      },
      "geometry": {
        "type": "Point",
        "coordinates": [
          -38.6592876,
          -3.735506
        ]
      }
    },
    {
      "type": "Feature",
      "id": "node/9452893640",
      "properties": {
        "timestamp": "2023-10-13T18:44:01Z",
        "version": 2,
        "changeset": 142535838,
        "addr:city": "Caucaia",
        "addr:housenumber": "99",
        "addr:street": "Rua Jerônimo Amaral",
        "alt_name": "Secretaria Municipal de Planejamento Urbano e Ambiental",
        "email": "seplam@caucaia.ce.gov.br",
        "government": "administrative",
        "name": "Secretaria Municipal de Planejamento Urbano e Ambiental",
        "office": "government",
        "opening_hours": "Mo-Fr 08:00-16:00",
        "phone": "+55 85 3342 3901",
        "short_name": "SEPLAM",
        "website": "https://www.caucaia.ce.gov.br/index.php?tabela=pagina&acao=orgao&codigo=5",
        "id": "node/9452893640"
      },
      "geometry": {
        "type": "Point",
        "coordinates": [
          -38.6567522,
          -3.7313999
        ]
      }
    },
    {
      "type": "Feature",
      "id": "node/9452893641",
      "properties": {
        "timestamp": "2023-10-13T18:43:10Z",
        "version": 2,
        "changeset": 142535805,
        "addr:city": "Caucaia",
        "addr:housenumber": "279",
        "addr:street": "Rua José Pontes",
        "alt_name": "Secretaria Municipal de Patrimônio e Transporte",
        "email": "spsp@caucaia.ce.gov.br",
        "government": "administrative",
        "name": "Secretaria Municipal de Patrimônio e Transporte",
        "office": "government",
        "opening_hours": "Mo-Fr 08:00-16:00",
        "short_name": "SPT",
        "website": "https://www.caucaia.ce.gov.br/index.php?tabela=pagina&acao=orgao&codigo=26",
        "id": "node/9452893641"
      },
      "geometry": {
        "type": "Point",
        "coordinates": [
          -38.6571002,
          -3.7377589
        ]
      }
    },
    {
      "type": "Feature",
      "id": "node/9452893642",
      "properties": {
        "timestamp": "2023-10-13T18:42:33Z",
        "version": 2,
        "changeset": 142535770,
        "addr:city": "Caucaia",
        "addr:housenumber": "1076",
        "addr:street": "Rodovia Doutor Waldemar de Alcântara",
        "email": "seinfra@caucaia.ce.gov.br",
        "government": "administrative",
        "name": "Secretaria Municipal de Infraestrutura",
        "office": "government",
        "opening_hours": "Mo-Fr 08:00-16:00",
        "phone": "+55 85 98852 4156",
        "short_name": "SEINFRA",
        "website": "https://www.caucaia.ce.gov.br/index.php?tabela=pagina&acao=orgao&codigo=6",
        "id": "node/9452893642"
      },
      "geometry": {
        "type": "Point",
        "coordinates": [
          -38.645344,
          -3.7332884
        ]
      }
    },
    {
      "type": "Feature",
      "id": "node/9452893643",
      "properties": {
        "timestamp": "2023-10-13T18:45:29Z",
        "version": 2,
        "changeset": 142535911,
        "addr:city": "Caucaia",
        "addr:housenumber": "1732",
        "addr:street": "Rua Juaci Sampaio Pontes",
        "alt_name": "Secretaria Municipal de Esporte e Juventude",
        "email": "sejuv@caucaia.ce.gov.br",
        "government": "administrative",
        "name": "Secretaria Municipal de Esporte e Juventude",
        "office": "government",
        "opening_hours": "Mo-Fr 08:00-16:00",
        "phone": "+55 85 3342 5869",
        "short_name": "SEJUV",
        "website": "https://www.caucaia.ce.gov.br/index.php?tabela=pagina&acao=orgao&codigo=3",
        "id": "node/9452893643"
      },
      "geometry": {
        "type": "Point",
        "coordinates": [
          -38.6579962,
          -3.7301464
        ]
      }
    },
    {
      "type": "Feature",
      "id": "node/9452893644",
      "properties": {
        "timestamp": "2023-10-13T18:43:21Z",
        "version": 2,
        "changeset": 142535811,
        "addr:city": "Caucaia",
        "addr:housenumber": "2000",
        "addr:street": "Rua Juaci Sampaio Pontes",
        "alt_name": "Secretaria Municipal de Educação",
        "email": "sme@caucaia.ce.gov.br",
        "government": "administrative",
        "name": "Secretaria Municipal de Educação",
        "office": "government",
        "opening_hours": "Mo-Fr 08:00-16:00",
        "phone": "+55 85 3342 8040",
        "short_name": "SME",
        "website": "https://www.caucaia.ce.gov.br/index.php?tabela=pagina&acao=orgao&codigo=9",
        "id": "node/9452893644"
      },
      "geometry": {
        "type": "Point",
        "coordinates": [
          -38.6580019,
          -3.7326036
        ]
      }
    },
    {
      "type": "Feature",
      "id": "node/9452893645",
      "properties": {
        "timestamp": "2023-10-13T18:45:41Z",
        "version": 2,
        "changeset": 142535936,
        "addr:city": "Caucaia",
        "addr:housenumber": "386",
        "addr:street": "Rua Jerônimo Amaral",
        "alt_name": "Secretaria Municipal de Desenvolvimento Social e Trabalho",
        "email": "sas@caucaia.ce.gov.br",
        "government": "administrative",
        "name": "Secretaria Municipal de Desenvolvimento Social e Trabalho",
        "office": "government",
        "opening_hours": "Mo-Fr 08:00-16:00",
        "phone": "+55 85 3342 8117",
        "short_name": "SDST",
        "website": "https://www.caucaia.ce.gov.br/index.php?tabela=pagina&acao=orgao&codigo=11",
        "id": "node/9452893645"
      },
      "geometry": {
        "type": "Point",
        "coordinates": [
          -38.6571342,
          -3.7338192
        ]
      }
    },
    {
      "type": "Feature",
      "id": "node/9452893646",
      "properties": {
        "timestamp": "2023-10-13T18:45:22Z",
        "version": 2,
        "changeset": 142535901,
        "addr:city": "Caucaia",
        "addr:housenumber": "1076",
        "addr:street": "Rodovia Doutor Waldemar de Alcântara",
        "email": "pgm@caucaia.ce.gov.br",
        "government": "administrative",
        "name": "Procuradoria Geral do Município",
        "office": "government",
        "opening_hours": "Mo-Fr 08:00-16:00",
        "phone": "+55 85 3342 5768",
        "short_name": "PGM",
        "website": "https://www.caucaia.ce.gov.br/index.php?tabela=pagina&acao=orgao&codigo=15",
        "id": "node/9452893646"
      },
      "geometry": {
        "type": "Point",
        "coordinates": [
          -38.6454173,
          -3.7332759
        ]
      }
    },
    {
      "type": "Feature",
      "id": "node/9452893647",
      "properties": {
        "timestamp": "2023-10-13T18:44:26Z",
        "version": 2,
        "changeset": 142535852,
        "addr:city": "Caucaia",
        "addr:housenumber": "99",
        "addr:street": "Rua Jerônimo Amaral",
        "alt_name": "Instituto do Meio Ambiente do Município de Caucaia",
        "email": "imac@caucaia.ce.gov.br",
        "government": "administrative",
        "name": "Instituto do Meio Ambiente do Município de Caucaia",
        "office": "government",
        "opening_hours": "Mo-Fr 08:00-16:00",
        "phone": "+55 85 99784 5339",
        "short_name": "IMAC",
        "website": "https://www.caucaia.ce.gov.br/index.php?tabela=pagina&acao=orgao&codigo=19",
        "id": "node/9452893647"
      },
      "geometry": {
        "type": "Point",
        "coordinates": [
          -38.6568941,
          -3.7313609
        ]
      }
    }
  ]
}
