{
  "type": "FeatureCollection",
  "features": [
    {
      "type": "Feature",
      "id": "way/669004492",
      "properties": {
        "timestamp": "2019-02-07T21:23:08Z",
        "version": 1,
        "changeset": 67007759,
        "addr:city": "Caucaia",
        "addr:housenumber": "1130",
        "addr:postcode": "61603130",
        "addr:street": "Rua Francisco Djalma Soares",
        "addr:suburb": "Parque Soledade",
        "amenity": "veterinary",
        "name": "Policlínica Veterinária Metropolitana",
        "opening_hours": "Mo-Fr 08:00-17:00",
        "operator": "Faculdade Terra Nordeste",
        "id": "way/669004492"
      },
      "geometry": {
        "type": "Polygon",
        "coordinates": [
          [
            [
              -38.6533025,
              -3.7359501
            ],
            [
              -38.6533545,
              -3.7363716
            ],
            [
              -38.6528524,
              -3.7364664
            ],
            [
              -38.6527716,
              -3.736094
            ],
            [
              -38.6533025,
              -3.7359501
            ]
          ]
        ]
      }
    }
  ]
}
