{
  "type": "FeatureCollection",
  "features": [
    {
      "type": "Feature",
      "id": "node/11264445312",
      "properties": {
        "timestamp": "2023-10-18T00:38:13Z",
        "version": 2,
        "changeset": 142734706,
        "addr:city": "Encruzilhada",
        "addr:postcode": "45150-000",
        "addr:street": "Praça Nelson Pales de Oliveira",
        "government": "social_security",
        "name": "Agência da Previdência Social em Encruzilhada",
        "office": "government",
        "operator": "Instituto Nacional do Seguro Social",
        "operator:short": "INSS",
        "operator:wikidata": "Q10302614",
        "id": "node/11264445312"
      },
      "geometry": {
        "type": "Point",
        "coordinates": [
          -40.9066436,
          -15.5329881
        ]
      }
    },
    {
      "type": "Feature",
      "id": "node/11270679253",
      "properties": {
        "timestamp": "2023-10-18T00:38:13Z",
        "version": 1,
        "changeset": 142734706,
        "addr:city": "Encruzilhada",
        "addr:postcode": "45150-000",
        "addr:street": "Rua Santa Rita",
        "government": "administrative",
        "name": "Secretaria Municipal de Saúde",
        "office": "government",
        "id": "node/11270679253"
      },
      "geometry": {
        "type": "Point",
        "coordinates": [
          -40.9059993,
          -15.5310987
        ]
      }
    },
    {
      "type": "Feature",
      "id": "node/11270679261",
      "properties": {
        "timestamp": "2023-10-18T00:38:13Z",
        "version": 1,
        "changeset": 142734706,
        "addr:city": "Encruzilhada",
        "addr:postcode": "45150-000",
        "addr:street": "Rua Francisco Pascoal",
        "addr:suburb": "Centro",
        "government": "administrative",
        "name": "Secretaria Municipal de Assistência Social",
        "office": "government",
        "id": "node/11270679261"
      },
      "geometry": {
        "type": "Point",
        "coordinates": [
          -40.9086711,
          -15.5324829
        ]
      }
    }
  ]
}
