{
  "type": "FeatureCollection",
  "features": [
    {
      "type": "Feature",
      "id": "way/255628173",
      "properties": {
        "timestamp": "2023-04-02T19:47:20Z",
        "version": 6,
        "changeset": 134427783,
        "amenity": "clinic",
        "healthcare": "clinic",
        "name": "Unidade Básica de Saúde Floresta",
        "id": "way/255628173"
      },
      "geometry": {
        "type": "Polygon",
        "coordinates": [
          [
            [
              -48.8491359,
              -26.3379807
            ],
            [
              -48.8491164,
              -26.3383491
            ],
            [
              -48.8489629,
              -26.3383425
            ],
            [
              -48.8489824,
              -26.3379741
            ],
            [
              -48.8491359,
              -26.3379807
            ]
          ]
        ]
      }
    },
    {
      "type": "Feature",
      "id": "way/255707624",
      "properties": {
        "timestamp": "2021-08-25T01:13:51Z",
        "version": 9,
        "changeset": 110198558,
        "addr:city": "Joinville",
        "addr:housenumber": "4648",
        "addr:postcode": "89239-700",
        "addr:street": "Rua Quinze de Outubro",
        "addr:suburb": "Rio Bonito",
        "alt_name": "Posto de Saúde",
        "amenity": "clinic",
        "healthcare": "clinic",
        "name": "Unidade Básica de Saúde da Família do Rio Bonito - Egon Seefeldt",
        "opening_hours": "Mo-Fr 08:00-17:00",
        "phone": "+55 47 3464 1487",
        "id": "way/255707624"
      },
      "geometry": {
        "type": "Polygon",
        "coordinates": [
          [
            [
              -48.9021956,
              -26.1419588
            ],
            [
              -48.9019238,
              -26.1420996
            ],
            [
              -48.9018613,
              -26.1420023
            ],
            [
              -48.9020968,
              -26.1418803
            ],
            [
              -48.9021331,
              -26.1418615
            ],
            [
              -48.9021956,
              -26.1419588
            ]
          ]
        ]
      }
    },
    {
      "type": "Feature",
      "id": "way/255951144",
      "properties": {
        "timestamp": "2024-04-21T16:06:32Z",
        "version": 9,
        "changeset": 150309069,
        "addr:city": "Joinville",
        "addr:housenumber": "555",
        "addr:postcode": "89202-310",
        "addr:street": "Rua Inácio Bastos",
        "addr:suburb": "Bucarein",
        "alt_name": "Posto de Saúde",
        "amenity": "clinic",
        "healthcare": "clinic",
        "name": "UBSF Bucarein e Centro de Especialidades Odontológicas",
        "opening_hours": "Mo-Fr 07:00-19:00; PH off",
        "phone": "+55 47 3489 7979",
        "id": "way/255951144"
      },
      "geometry": {
        "type": "Polygon",
        "coordinates": [
          [
            [
              -48.8394203,
              -26.3157285
            ],
            [
              -48.8399475,
              -26.3157458
            ],
            [
              -48.8399351,
              -26.3160491
            ],
            [
              -48.8396032,
              -26.3160382
            ],
            [
              -48.8394467,
              -26.316032
            ],
            [
              -48.8394092,
              -26.3160019
            ],
            [
              -48.8394203,
              -26.3157285
            ]
          ]
        ]
      }
    },
    {
      "type": "Feature",
      "id": "way/255957137",
      "properties": {
        "timestamp": "2022-03-29T02:13:13Z",
        "version": 10,
        "changeset": 119046113,
        "access": "yes",
        "addr:city": "Joinville",
        "addr:postcode": "89216-680",
        "addr:street": "Rua Brigada Lopes",
        "addr:suburb": "Glória",
        "alt_name": "Posto de Saúde",
        "amenity": "clinic",
        "building": "yes",
        "healthcare": "clinic",
        "name": "Unidade Básica de Saúde da Família Glória - Sérgio Duprat",
        "opening_hours": "Mo-Fr 07:00-19:00",
        "phone": "+55 47 3416-3074",
        "id": "way/255957137"
      },
      "geometry": {
        "type": "Polygon",
        "coordinates": [
          [
            [
              -48.8736776,
              -26.2938138
            ],
            [
              -48.8736885,
              -26.2939009
            ],
            [
              -48.8736186,
              -26.293908
            ],
            [
              -48.8736208,
              -26.2939249
            ],
            [
              -48.8735755,
              -26.2939295
            ],
            [
              -48.8735622,
              -26.2938258
            ],
            [
              -48.8736776,
              -26.2938138
            ]
          ]
        ]
      }
    },
    {
      "type": "Feature",
      "id": "way/255957144",
      "properties": {
        "timestamp": "2022-03-31T04:01:42Z",
        "version": 7,
        "changeset": 119139562,
        "access": "yes",
        "addr:city": "Joinville",
        "addr:housenumber": "5482",
        "addr:postcode": "89230-325",
        "addr:street": "Rua Monsenhor Gercino",
        "addr:suburb": "Jarivatuba",
        "alt_name": "Posto de Saúde",
        "amenity": "clinic",
        "healthcare": "clinic",
        "name": "Unidade Básica de Saúde Sede Jarivatuba - Belquise Ana Quintero",
        "opening_hours": "Mo-Fr 07:00-19:00",
        "phone": "+55 47 3466 4505",
        "id": "way/255957144"
      },
      "geometry": {
        "type": "Polygon",
        "coordinates": [
          [
            [
              -48.8012299,
              -26.3390871
            ],
            [
              -48.8011508,
              -26.3386742
            ],
            [
              -48.8014946,
              -26.3386237
            ],
            [
              -48.8016174,
              -26.3387575
            ],
            [
              -48.8014355,
              -26.3390463
            ],
            [
              -48.8012299,
              -26.3390871
            ]
          ]
        ]
      }
    },
    {
      "type": "Feature",
      "id": "way/255975097",
      "properties": {
        "timestamp": "2020-12-15T18:28:05Z",
        "version": 4,
        "changeset": 95893982,
        "addr:city": "Joinville",
        "addr:postcode": "89239-470",
        "addr:street": "Estrada Rio da Prata",
        "addr:suburb": "Pirabeiraba",
        "alt_name": "Posto de Saúde",
        "amenity": "clinic",
        "healthcare": "clinic",
        "name": "Unidade Básica de Saúde Rio da Prata - Adalberto Larsen",
        "phone": "+55 47 3428 0108",
        "id": "way/255975097"
      },
      "geometry": {
        "type": "Polygon",
        "coordinates": [
          [
            [
              -48.9644991,
              -26.1733373
            ],
            [
              -48.9645426,
              -26.1734795
            ],
            [
              -48.9644818,
              -26.1734945
            ],
            [
              -48.9643747,
              -26.1735208
            ],
            [
              -48.9643313,
              -26.1733785
            ],
            [
              -48.9644384,
              -26.1733522
            ],
            [
              -48.9644991,
              -26.1733373
            ]
          ]
        ]
      }
    },
    {
      "type": "Feature",
      "id": "way/256752182",
      "properties": {
        "timestamp": "2020-03-21T15:58:17Z",
        "version": 7,
        "changeset": 82462916,
        "access": "yes",
        "addr:city": "Joinville",
        "addr:postcode": "89230-765",
        "addr:street": "Rua Santa Gertrudes",
        "addr:suburb": "Itinga",
        "alt_name": "Posto de Saúde",
        "amenity": "clinic",
        "healthcare": "clinic",
        "name": "Unidade Básica de Saúde da Família - Itinga",
        "opening_hours": "Mo-Fr 08:00-17:00",
        "phone": "+55 47 3463 1212",
        "id": "way/256752182"
      },
      "geometry": {
        "type": "Polygon",
        "coordinates": [
          [
            [
              -48.821985,
              -26.3825942
            ],
            [
              -48.8221481,
              -26.3823758
            ],
            [
              -48.8222203,
              -26.3822779
            ],
            [
              -48.8224113,
              -26.3822808
            ],
            [
              -48.8224053,
              -26.3826005
            ],
            [
              -48.821985,
              -26.3825942
            ]
          ]
        ]
      }
    },
    {
      "type": "Feature",
      "id": "way/256752183",
      "properties": {
        "timestamp": "2020-03-21T16:01:35Z",
        "version": 6,
        "changeset": 82463009,
        "addr:city": "Joinville",
        "addr:country": "BR",
        "addr:housenumber": "100",
        "addr:postcode": "89233-675",
        "addr:street": "Rua Cineasta Leon Hirszman",
        "addr:suburb": "Itinga",
        "alt_name": "Posto de Saúde",
        "amenity": "clinic",
        "healthcare": "clinic",
        "name": "Unidade Básica de Saúde da Família - Itinga Continental",
        "opening_hours": "Mo-Fr 08:00-17:00",
        "phone": "+55 47 3465 5200",
        "id": "way/256752183"
      },
      "geometry": {
        "type": "Polygon",
        "coordinates": [
          [
            [
              -48.8261326,
              -26.3774282
            ],
            [
              -48.8261244,
              -26.3777317
            ],
            [
              -48.8259449,
              -26.3777278
            ],
            [
              -48.8259531,
              -26.3774243
            ],
            [
              -48.8261326,
              -26.3774282
            ]
          ]
        ]
      }
    },
    {
      "type": "Feature",
      "id": "way/256774869",
      "properties": {
        "timestamp": "2020-03-21T16:49:57Z",
        "version": 4,
        "changeset": 82464312,
        "addr:city": "Joinville",
        "addr:housenumber": "563",
        "addr:street": "Estrada Lagoinha",
        "addr:suburb": "Morro do Meio",
        "alt_name": "Posto de Saúde",
        "amenity": "clinic",
        "healthcare": "clinic",
        "name": "Unidade Básica de Saúde Bucal - Morro do Meio",
        "phone": "+55 47 3419 5449",
        "id": "way/256774869"
      },
      "geometry": {
        "type": "Polygon",
        "coordinates": [
          [
            [
              -48.9073596,
              -26.3327675
            ],
            [
              -48.9075063,
              -26.332894
            ],
            [
              -48.9072975,
              -26.3330786
            ],
            [
              -48.907148,
              -26.3329496
            ],
            [
              -48.9073596,
              -26.3327675
            ]
          ]
        ]
      }
    },
    {
      "type": "Feature",
      "id": "way/256774870",
      "properties": {
        "timestamp": "2020-03-21T16:35:58Z",
        "version": 4,
        "changeset": 82463897,
        "addr:city": "Joinville",
        "addr:housenumber": "165",
        "addr:postcode": "89215-115",
        "addr:street": "Rua Tancredo Neves",
        "addr:suburb": "Morro do Meio",
        "alt_name": "Posto de Saúde",
        "amenity": "clinic",
        "healthcare": "clinic",
        "name": "Unidade Básica de Saúde da Família - Lagoinha",
        "opening_hours": "Mo-Fr 08:00-17:00",
        "phone": "+55 47 3465 1912",
        "id": "way/256774870"
      },
      "geometry": {
        "type": "Polygon",
        "coordinates": [
          [
            [
              -48.9093261,
              -26.3239008
            ],
            [
              -48.9095505,
              -26.3240804
            ],
            [
              -48.9094516,
              -26.3241797
            ],
            [
              -48.9092272,
              -26.3240001
            ],
            [
              -48.9093261,
              -26.3239008
            ]
          ]
        ]
      }
    },
    {
      "type": "Feature",
      "id": "way/256796009",
      "properties": {
        "timestamp": "2022-07-03T00:27:30Z",
        "version": 4,
        "changeset": 123136539,
        "access": "yes",
        "addr:city": "Joinville",
        "addr:postcode": "89240-000",
        "addr:street": "Avenida Júpiter",
        "addr:suburb": "Jardim Paraíso",
        "alt_name": "Posto de Saúde",
        "amenity": "clinic",
        "brand": "Sistema Único de Saúde",
        "brand:short": "SUS",
        "brand:wikidata": "Q7531056",
        "brand:wikipedia": "pt:Sistema Único de Saúde",
        "healthcare": "clinic",
        "loc_name": "Posto de Saúde",
        "name": "Unidade Básica de Saúde da Família Jardim Paraíso I e II",
        "opening_hours": "Mo-Fr 08:00-17:00",
        "operator": "Prefeitura Municipal de Joinville",
        "operator:type": "public",
        "phone": "+55 47 3427 3185",
        "short_name": "UBS Jardim Paraíso I e II",
        "id": "way/256796009"
      },
      "geometry": {
        "type": "Polygon",
        "coordinates": [
          [
            [
              -48.8246605,
              -26.2117318
            ],
            [
              -48.8248607,
              -26.211522
            ],
            [
              -48.8252134,
              -26.2117862
            ],
            [
              -48.8250203,
              -26.2119983
            ],
            [
              -48.8246605,
              -26.2117318
            ]
          ]
        ]
      }
    },
    {
      "type": "Feature",
      "id": "way/256796010",
      "properties": {
        "timestamp": "2020-03-21T15:08:09Z",
        "version": 5,
        "changeset": 82461705,
        "access": "yes",
        "addr:city": "Joinville",
        "addr:housenumber": "7130",
        "addr:postcode": "89226-500",
        "addr:street": "Estrada Timbé",
        "addr:suburb": "Jardim Paraíso",
        "alt_name": "Posto de Saúde",
        "amenity": "clinic",
        "healthcare": "clinic",
        "name": "Unidade Básica de Saúde da Família - Jardim Paraíso III",
        "opening_hours": "Mo-Fr 08:00-17:00",
        "phone": "+55 47 3467 2348",
        "id": "way/256796010"
      },
      "geometry": {
        "type": "Polygon",
        "coordinates": [
          [
            [
              -48.8199496,
              -26.2192987
            ],
            [
              -48.8200556,
              -26.2194181
            ],
            [
              -48.8198077,
              -26.2195951
            ],
            [
              -48.8197017,
              -26.2194757
            ],
            [
              -48.8199496,
              -26.2192987
            ]
          ]
        ]
      }
    },
    {
      "type": "Feature",
      "id": "way/256796011",
      "properties": {
        "timestamp": "2021-11-03T22:49:19Z",
        "version": 4,
        "changeset": 113352096,
        "addr:city": "Joinville",
        "addr:postcode": "89226-500",
        "addr:street": "Estrada Timbé",
        "addr:suburb": "Jardim Paraíso",
        "alt_name": "Posto de Saúde",
        "amenity": "clinic",
        "building": "yes",
        "healthcare": "clinic",
        "name": "Unidade Básica de Saúde da Família - Jardim Paraíso IV - Canto do Rio",
        "opening_hours": "Mo-Fr 08:00-17:00",
        "phone": "+55 47 3418 8236",
        "id": "way/256796011"
      },
      "geometry": {
        "type": "Polygon",
        "coordinates": [
          [
            [
              -48.8087105,
              -26.2165308
            ],
            [
              -48.8087862,
              -26.2164514
            ],
            [
              -48.8089076,
              -26.2165455
            ],
            [
              -48.8087975,
              -26.2166609
            ],
            [
              -48.8086762,
              -26.2165667
            ],
            [
              -48.8087105,
              -26.2165308
            ]
          ]
        ]
      }
    },
    {
      "type": "Feature",
      "id": "way/256796012",
      "properties": {
        "timestamp": "2024-04-01T23:39:04Z",
        "version": 6,
        "changeset": 149456523,
        "access": "yes",
        "addr:city": "Joinville",
        "addr:housenumber": "1758",
        "addr:postcode": "89226-600",
        "addr:street": "Avenida Júpiter",
        "addr:suburb": "Jardim Paraíso",
        "alt_name": "Posto de Saúde",
        "amenity": "clinic",
        "healthcare": "clinic",
        "name": "Unidade Básica de Saúde da Família - Jardim Paraíso V e VI - Servidora Erliete Adir dos Santos",
        "opening_hours": "Mo-Fr 08:00-17:00",
        "phone": "+55 47 3467 0112",
        "id": "way/256796012"
      },
      "geometry": {
        "type": "Polygon",
        "coordinates": [
          [
            [
              -48.8297351,
              -26.205855
            ],
            [
              -48.82993,
              -26.2060055
            ],
            [
              -48.829843,
              -26.2061001
            ],
            [
              -48.829646,
              -26.2059477
            ],
            [
              -48.8297351,
              -26.205855
            ]
          ]
        ]
      }
    },
    {
      "type": "Feature",
      "id": "way/256922364",
      "properties": {
        "timestamp": "2021-12-04T10:36:57Z",
        "version": 6,
        "changeset": 114550329,
        "access": "yes",
        "addr:city": "Joinville",
        "addr:street": "Avenida Kurt Meinert",
        "addr:suburb": "Morro do Amaral",
        "amenity": "clinic",
        "building": "public",
        "healthcare": "clinic",
        "name": "USBF Morro do Amaral",
        "id": "way/256922364"
      },
      "geometry": {
        "type": "Polygon",
        "coordinates": [
          [
            [
              -48.7635096,
              -26.3024788
            ],
            [
              -48.763476,
              -26.3024566
            ],
            [
              -48.7634691,
              -26.3024648
            ],
            [
              -48.7634488,
              -26.3024515
            ],
            [
              -48.7634562,
              -26.3024433
            ],
            [
              -48.763447,
              -26.3024377
            ],
            [
              -48.7634731,
              -26.3024062
            ],
            [
              -48.7634591,
              -26.3023965
            ],
            [
              -48.763501,
              -26.3023448
            ],
            [
              -48.7635151,
              -26.302354
            ],
            [
              -48.7635265,
              -26.30234
            ],
            [
              -48.7635888,
              -26.3023811
            ],
            [
              -48.7635096,
              -26.3024788
            ]
          ]
        ]
      }
    },
    {
      "type": "Feature",
      "id": "way/256930828",
      "properties": {
        "timestamp": "2021-10-29T23:27:42Z",
        "version": 6,
        "changeset": 113144730,
        "access": "yes",
        "addr:city": "Joinville",
        "addr:housenumber": "884",
        "addr:postcode": "89231-795",
        "addr:street": "Rua Paulo Roberto Anastácio",
        "addr:suburb": "Paranaguamirim",
        "amenity": "clinic",
        "healthcare": "clinic",
        "name": "Unidade Básica de Saúde da Família Estêvão de Matos",
        "id": "way/256930828"
      },
      "geometry": {
        "type": "Polygon",
        "coordinates": [
          [
            [
              -48.7777667,
              -26.3525914
            ],
            [
              -48.7775941,
              -26.3527749
            ],
            [
              -48.7774986,
              -26.3527028
            ],
            [
              -48.7776711,
              -26.3525192
            ],
            [
              -48.7777667,
              -26.3525914
            ]
          ]
        ]
      }
    },
    {
      "type": "Feature",
      "id": "way/256930829",
      "properties": {
        "timestamp": "2020-04-13T21:54:20Z",
        "version": 6,
        "changeset": 83497870,
        "access": "yes",
        "addr:city": "Joinville",
        "addr:postcode": "89245-000",
        "addr:street": "Avenida Kurt Meinert",
        "addr:suburb": "Paranaguamirim",
        "alt_name": "Posto de Saúde",
        "amenity": "clinic",
        "building": "public",
        "healthcare": "clinic",
        "name": "Unidade Básica de Saúde da Família - Jardim Edilene",
        "opening_hours": "Mo-Fr 07:00-17:00",
        "phone": "+55 47 3463 7266",
        "id": "way/256930829"
      },
      "geometry": {
        "type": "Polygon",
        "coordinates": [
          [
            [
              -48.7770847,
              -26.3426731
            ],
            [
              -48.7772941,
              -26.3427309
            ],
            [
              -48.777233,
              -26.3429085
            ],
            [
              -48.7770236,
              -26.3428507
            ],
            [
              -48.7770847,
              -26.3426731
            ]
          ]
        ]
      }
    },
    {
      "type": "Feature",
      "id": "way/256930830",
      "properties": {
        "timestamp": "2020-12-15T04:42:06Z",
        "version": 5,
        "changeset": 95845235,
        "addr:city": "Joinville",
        "addr:postcode": "89230-290",
        "addr:street": "Rua Elizabeth Rech",
        "addr:suburb": "Paranaguamirim",
        "alt_name": "Posto de Saúde",
        "amenity": "clinic",
        "healthcare": "clinic",
        "name": "Unidade Básica de Saúde da Família - Paranaguamirim - Fátima Maria de Oliveira",
        "opening_hours": "Mo-Fr 07:00-17:00",
        "phone": "+55 47 3463 6589",
        "id": "way/256930830"
      },
      "geometry": {
        "type": "Polygon",
        "coordinates": [
          [
            [
              -48.7898886,
              -26.3447136
            ],
            [
              -48.7897159,
              -26.3449408
            ],
            [
              -48.7895275,
              -26.3448259
            ],
            [
              -48.7897001,
              -26.3445986
            ],
            [
              -48.7898886,
              -26.3447136
            ]
          ]
        ]
      }
    },
    {
      "type": "Feature",
      "id": "way/257717717",
      "properties": {
        "timestamp": "2021-01-08T03:52:43Z",
        "version": 10,
        "changeset": 97139234,
        "addr:city": "Joinville",
        "addr:country": "BR",
        "addr:housenumber": "2",
        "addr:postcode": "89211-425",
        "addr:street": "Rua Maravilha",
        "addr:suburb": "Floresta",
        "amenity": "clinic",
        "healthcare": "clinic",
        "name": "Unidade Básica de Saúde da Família Floresta - Leocádio Chagas dos Santos",
        "phone": "+55 47 3426 4941",
        "id": "way/257717717"
      },
      "geometry": {
        "type": "Polygon",
        "coordinates": [
          [
            [
              -48.8500518,
              -26.3329226
            ],
            [
              -48.8500529,
              -26.3329264
            ],
            [
              -48.8500528,
              -26.332931
            ],
            [
              -48.8500211,
              -26.3331361
            ],
            [
              -48.8500188,
              -26.3331494
            ],
            [
              -48.8496574,
              -26.3331473
            ],
            [
              -48.8494242,
              -26.3331456
            ],
            [
              -48.8494236,
              -26.3329569
            ],
            [
              -48.8494234,
              -26.3328959
            ],
            [
              -48.8494681,
              -26.332897
            ],
            [
              -48.8496578,
              -26.3329017
            ],
            [
              -48.8497413,
              -26.3329039
            ],
            [
              -48.8500358,
              -26.3329115
            ],
            [
              -48.8500402,
              -26.3329124
            ],
            [
              -48.8500434,
              -26.3329137
            ],
            [
              -48.8500468,
              -26.332916
            ],
            [
              -48.8500499,
              -26.3329192
            ],
            [
              -48.8500518,
              -26.3329226
            ]
          ]
        ]
      }
    },
    {
      "type": "Feature",
      "id": "way/259685150",
      "properties": {
        "timestamp": "2021-10-06T18:58:58Z",
        "version": 7,
        "changeset": 112183456,
        "addr:city": "Joinville",
        "addr:housenumber": "1118",
        "addr:postcode": "89230-700",
        "addr:street": "Avenida Alwino Hansen",
        "addr:suburb": "Adhemar Garcia",
        "alt_name": "SER Joinville",
        "amenity": "clinic",
        "healthcare": "clinic",
        "name": "Serviço Especializado em Reabilitação - SER",
        "phone": "+55 47 3489 9200",
        "id": "way/259685150"
      },
      "geometry": {
        "type": "Polygon",
        "coordinates": [
          [
            [
              -48.8034302,
              -26.316541
            ],
            [
              -48.8032852,
              -26.3167455
            ],
            [
              -48.8032581,
              -26.3168027
            ],
            [
              -48.8032291,
              -26.3168547
            ],
            [
              -48.8031189,
              -26.3171632
            ],
            [
              -48.8029991,
              -26.3171822
            ],
            [
              -48.8029643,
              -26.3171718
            ],
            [
              -48.8025447,
              -26.3164977
            ],
            [
              -48.8029759,
              -26.3162793
            ],
            [
              -48.8034302,
              -26.316541
            ]
          ]
        ]
      }
    },
    {
      "type": "Feature",
      "id": "way/259685158",
      "properties": {
        "timestamp": "2024-09-14T11:07:25Z",
        "version": 6,
        "changeset": 156606829,
        "addr:city": "Joinville",
        "addr:housenumber": "101",
        "addr:postcode": "89230-707",
        "addr:street": "Rua Vicente Alves Pereira",
        "addr:suburb": "Adhemar Garcia",
        "alt_name": "Posto de Saúde",
        "amenity": "clinic",
        "healthcare": "clinic",
        "healthcare:speciality": "general",
        "name": "Unidade Básica de Saúde da Família - Adhemar Garcia",
        "opening_hours": "Mo-Fr 07:00-19:00",
        "operator": "Sistema Único de Saúde",
        "phone": "+55 47 3429 5056",
        "short_name": "EACS",
        "id": "way/259685158"
      },
      "geometry": {
        "type": "Polygon",
        "coordinates": [
          [
            [
              -48.8051186,
              -26.3175102
            ],
            [
              -48.8049736,
              -26.3177511
            ],
            [
              -48.8048015,
              -26.3178377
            ],
            [
              -48.8045328,
              -26.3174062
            ],
            [
              -48.8047377,
              -26.3173005
            ],
            [
              -48.8051186,
              -26.3175102
            ]
          ]
        ]
      }
    },
    {
      "type": "Feature",
      "id": "way/261791777",
      "properties": {
        "timestamp": "2020-03-21T15:46:33Z",
        "version": 5,
        "changeset": 82462619,
        "addr:city": "Joinville",
        "addr:postcode": "89211-410",
        "addr:street": "Rua República do Peru",
        "addr:suburb": "Floresta",
        "alt_name": "Posto de Saúde",
        "amenity": "clinic",
        "building": "yes",
        "building:levels": "1",
        "healthcare": "clinic",
        "name": "Policlínica UBSF Sede Floresta",
        "opening_hours": "Mo-Fr 07:00-19:00",
        "operator": "Governo",
        "operator:type": "public",
        "phone": "+55 47 3426 4941",
        "id": "way/261791777"
      },
      "geometry": {
        "type": "Polygon",
        "coordinates": [
          [
            [
              -48.8496286,
              -26.3329703
            ],
            [
              -48.8496571,
              -26.3329705
            ],
            [
              -48.8496687,
              -26.3329706
            ],
            [
              -48.8496811,
              -26.3329707
            ],
            [
              -48.8497414,
              -26.3329712
            ],
            [
              -48.849741,
              -26.3330178
            ],
            [
              -48.8497601,
              -26.3330179
            ],
            [
              -48.8498597,
              -26.3330185
            ],
            [
              -48.8498601,
              -26.3329718
            ],
            [
              -48.8499761,
              -26.3329727
            ],
            [
              -48.8499745,
              -26.3331283
            ],
            [
              -48.8496571,
              -26.3331256
            ],
            [
              -48.8494657,
              -26.333124
            ],
            [
              -48.8494669,
              -26.3330155
            ],
            [
              -48.8496282,
              -26.3330168
            ],
            [
              -48.8496286,
              -26.3329703
            ]
          ]
        ]
      }
    },
    {
      "type": "Feature",
      "id": "way/264002796",
      "properties": {
        "timestamp": "2021-03-29T22:52:07Z",
        "version": 3,
        "changeset": 101943317,
        "addr:city": "Joinville",
        "addr:postcode": "89228-600",
        "addr:street": "Rua Sebastião S de Borba",
        "addr:suburb": "Espinheiros",
        "alt_name": "Posto de Saúde",
        "amenity": "clinic",
        "building": "yes",
        "healthcare": "clinic",
        "name": "Unidade Básica de Saúde da Família - Moinho dos Ventos",
        "opening_hours": "Mo-Fr 08:00-17:00",
        "phone": "+55 47 3434 6600",
        "id": "way/264002796"
      },
      "geometry": {
        "type": "Polygon",
        "coordinates": [
          [
            [
              -48.7865265,
              -26.2826622
            ],
            [
              -48.7863109,
              -26.2827791
            ],
            [
              -48.7862608,
              -26.282707
            ],
            [
              -48.7863327,
              -26.2826665
            ],
            [
              -48.7863235,
              -26.2826534
            ],
            [
              -48.7863856,
              -26.2826189
            ],
            [
              -48.7863791,
              -26.2826094
            ],
            [
              -48.7864597,
              -26.2825646
            ],
            [
              -48.7865265,
              -26.2826622
            ]
          ]
        ]
      }
    },
    {
      "type": "Feature",
      "id": "way/264357675",
      "properties": {
        "timestamp": "2021-07-25T20:19:53Z",
        "version": 4,
        "changeset": 108579717,
        "addr:city": "Joinville",
        "addr:housenumber": "289",
        "addr:postcode": "89228-750",
        "addr:street": "Rua Antônio Augusto do Livramento",
        "addr:suburb": "Espinheiros",
        "alt_name": "Posto de Saúde",
        "amenity": "clinic",
        "healthcare": "clinic",
        "name": "Unidade Básica de Saúde da Família da Ilha",
        "opening_hours": "Mo-Fr 07:00-17:00",
        "phone": "+55 47 3439 2471",
        "id": "way/264357675"
      },
      "geometry": {
        "type": "Polygon",
        "coordinates": [
          [
            [
              -48.774716,
              -26.2878817
            ],
            [
              -48.7747268,
              -26.2877238
            ],
            [
              -48.7747411,
              -26.2877246
            ],
            [
              -48.7747721,
              -26.2877263
            ],
            [
              -48.7749931,
              -26.2877385
            ],
            [
              -48.7749878,
              -26.2878163
            ],
            [
              -48.7749823,
              -26.2878964
            ],
            [
              -48.774716,
              -26.2878817
            ]
          ]
        ]
      }
    },
    {
      "type": "Feature",
      "id": "way/266749254",
      "properties": {
        "timestamp": "2022-02-23T12:00:33Z",
        "version": 5,
        "changeset": 117767288,
        "addr:city": "Joinville",
        "addr:housenumber": "93",
        "addr:postcode": "89219-635",
        "addr:street": "Rua Arnoldo Mathias Frederico Liermann",
        "addr:suburb": "Zona Industrial Norte",
        "alt_name": "Posto de Saúde",
        "amenity": "clinic",
        "building": "yes",
        "healthcare": "clinic",
        "name": "Unidade Básica de Saúde da Família Anaburgo",
        "opening_hours": "Mo-Fr 07:00-16:00",
        "phone": "+55 47 3455 2326",
        "id": "way/266749254"
      },
      "geometry": {
        "type": "Polygon",
        "coordinates": [
          [
            [
              -48.9258766,
              -26.2580112
            ],
            [
              -48.9258716,
              -26.2581767
            ],
            [
              -48.9258236,
              -26.258175
            ],
            [
              -48.9258231,
              -26.2581956
            ],
            [
              -48.9257502,
              -26.2581932
            ],
            [
              -48.9257513,
              -26.2581714
            ],
            [
              -48.9257427,
              -26.2581715
            ],
            [
              -48.9257499,
              -26.2580047
            ],
            [
              -48.9258766,
              -26.2580112
            ]
          ]
        ]
      }
    },
    {
      "type": "Feature",
      "id": "way/268204328",
      "properties": {
        "timestamp": "2021-01-08T03:46:15Z",
        "version": 4,
        "changeset": 97139003,
        "access": "yes",
        "addr:city": "Joinville",
        "addr:housenumber": "8436",
        "addr:postcode": "89237-000",
        "addr:street": "Rua XV de Novembro",
        "addr:suburb": "Vila Nova",
        "alt_name": "Posto de Saúde",
        "amenity": "clinic",
        "healthcare": "clinic",
        "name": "Unidade Básica de Saúde da Família Sede Vila Nova - Vereador Dorival Trapp",
        "opening_hours": "Mo-Fr 07:00-19:00",
        "phone": "+55 47 3439 2201",
        "short_name": "EACS",
        "id": "way/268204328"
      },
      "geometry": {
        "type": "Polygon",
        "coordinates": [
          [
            [
              -48.916594,
              -26.2868044
            ],
            [
              -48.9165752,
              -26.2871714
            ],
            [
              -48.916354,
              -26.2871623
            ],
            [
              -48.9163727,
              -26.2867953
            ],
            [
              -48.916594,
              -26.2868044
            ]
          ]
        ]
      }
    },
    {
      "type": "Feature",
      "id": "way/270657257",
      "properties": {
        "timestamp": "2020-03-21T18:39:46Z",
        "version": 4,
        "changeset": 82467201,
        "addr:city": "Joinville",
        "addr:housenumber": "118",
        "addr:postcode": "89227-310",
        "addr:street": "Rua Jorge Augusto Emílio Müller",
        "addr:suburb": "Iririú",
        "alt_name": "Posto de Saúde",
        "amenity": "clinic",
        "building": "yes",
        "building:levels": "2",
        "healthcare": "clinic",
        "name": "Unidade Básica de Saúde da Família - Leonardo Schlickmann",
        "opening_hours": "Mo-Fr 07:00-19:00",
        "phone": "+55 47 3437 7793",
        "id": "way/270657257"
      },
      "geometry": {
        "type": "Polygon",
        "coordinates": [
          [
            [
              -48.8252828,
              -26.2727115
            ],
            [
              -48.8254065,
              -26.2728104
            ],
            [
              -48.8252208,
              -26.2729971
            ],
            [
              -48.8250972,
              -26.2728983
            ],
            [
              -48.8252828,
              -26.2727115
            ]
          ]
        ]
      }
    },
    {
      "type": "Feature",
      "id": "way/274557655",
      "properties": {
        "timestamp": "2016-09-10T04:38:20Z",
        "version": 6,
        "changeset": 42052491,
        "addr:city": "Joinville",
        "addr:housenumber": "314",
        "addr:postcode": "89204-250",
        "addr:street": "Rua Blumenau",
        "addr:suburb": "Centro",
        "amenity": "clinic",
        "building": "commercial",
        "name": "Clínica Suzuki",
        "smoking": "no",
        "id": "way/274557655"
      },
      "geometry": {
        "type": "Polygon",
        "coordinates": [
          [
            [
              -48.8499217,
              -26.2975421
            ],
            [
              -48.849921,
              -26.2975345
            ],
            [
              -48.8499147,
              -26.2974706
            ],
            [
              -48.8503188,
              -26.2974388
            ],
            [
              -48.8503306,
              -26.2975587
            ],
            [
              -48.8501853,
              -26.2975701
            ],
            [
              -48.8501805,
              -26.2975217
            ],
            [
              -48.8499217,
              -26.2975421
            ]
          ]
        ]
      }
    },
    {
      "type": "Feature",
      "id": "way/274879800",
      "properties": {
        "timestamp": "2021-07-24T16:39:31Z",
        "version": 3,
        "changeset": 108539072,
        "addr:city": "Joinville",
        "addr:housenumber": "105",
        "addr:postcode": "89202-201",
        "addr:street": "Rua Rio do Sul",
        "addr:suburb": "Bucarein",
        "amenity": "clinic",
        "building": "yes",
        "building:levels": "4",
        "healthcare": "clinic",
        "healthcare:speciality": "otolaryngology",
        "name": "Otorrinos Clínica",
        "opening_hours": "Mo-Fr 07:00-12:00, 13:00-19:00",
        "phone": "+55 47 3433 3060",
        "id": "way/274879800"
      },
      "geometry": {
        "type": "Polygon",
        "coordinates": [
          [
            [
              -48.8446119,
              -26.3083465
            ],
            [
              -48.844601,
              -26.3086903
            ],
            [
              -48.8444707,
              -26.308687
            ],
            [
              -48.8444815,
              -26.3083432
            ],
            [
              -48.8446119,
              -26.3083465
            ]
          ]
        ]
      }
    },
    {
      "type": "Feature",
      "id": "way/274911324",
      "properties": {
        "timestamp": "2023-04-28T23:08:43Z",
        "version": 8,
        "changeset": 135486916,
        "access": "yes",
        "addr:city": "Joinville",
        "addr:postcode": "89213-430",
        "addr:street": "Rua Bom Retiro",
        "addr:suburb": "Nova Brasília",
        "alt_name": "Posto de Saúde",
        "amenity": "clinic",
        "brand": "Sistema Único de Saúde",
        "brand:short": "SUS",
        "brand:wikidata": "Q7531056",
        "brand:wikipedia": "pt:Sistema Único de Saúde",
        "building": "yes",
        "building:levels": "1",
        "healthcare": "clinic",
        "loc_name": "Posto de Saúde Elias Vicente",
        "name": "Unidade Básica de Saúde da Família Elias Vicente",
        "nohousenumber": "yes",
        "opening_hours": "Mo-Fr 08:00-17:00; Sa,Su,PH off",
        "operator": "Prefeitura Municipal de Joinville",
        "operator:type": "government",
        "phone": "+55 47 3454 9216",
        "ref:CNES": "2511304",
        "short_name": "UBSF Elias Vicente",
        "id": "way/274911324"
      },
      "geometry": {
        "type": "Polygon",
        "coordinates": [
          [
            [
              -48.8677484,
              -26.3315958
            ],
            [
              -48.8676986,
              -26.3317157
            ],
            [
              -48.867371,
              -26.3316064
            ],
            [
              -48.8674208,
              -26.3314866
            ],
            [
              -48.8677484,
              -26.3315958
            ]
          ]
        ]
      }
    },
    {
      "type": "Feature",
      "id": "way/275406145",
      "properties": {
        "timestamp": "2022-04-18T01:55:30Z",
        "version": 5,
        "changeset": 119835367,
        "access": "yes",
        "addr:city": "Joinville",
        "addr:housenumber": "874",
        "addr:postcode": "89210-146",
        "addr:street": "Rua Monsenhor Gercino",
        "addr:suburb": "Itaum",
        "amenity": "clinic",
        "name": "Unidade Básica de Saúde Itaum",
        "id": "way/275406145"
      },
      "geometry": {
        "type": "Polygon",
        "coordinates": [
          [
            [
              -48.8378956,
              -26.3270618
            ],
            [
              -48.8379424,
              -26.3270918
            ],
            [
              -48.8382674,
              -26.3272849
            ],
            [
              -48.8381968,
              -26.3273865
            ],
            [
              -48.8378757,
              -26.3272222
            ],
            [
              -48.8378765,
              -26.3272117
            ],
            [
              -48.8378956,
              -26.3270618
            ]
          ]
        ]
      }
    },
    {
      "type": "Feature",
      "id": "way/275824653",
      "properties": {
        "timestamp": "2020-03-21T14:30:11Z",
        "version": 6,
        "changeset": 82460865,
        "access": "yes",
        "addr:city": "Joinville",
        "addr:postcode": "89226-440",
        "addr:street": "Rua Lauro Schroeder",
        "addr:suburb": "Aventureiro",
        "alt_name": "Posto de Saúde",
        "amenity": "clinic",
        "healthcare": "clinic",
        "name": "Unidade Básica de Saúde da Família - Aventureiro II",
        "opening_hours": "Mo-Fr 07:00-17:00",
        "phone": "+55 47 3467 3044",
        "id": "way/275824653"
      },
      "geometry": {
        "type": "Polygon",
        "coordinates": [
          [
            [
              -48.8065592,
              -26.2394117
            ],
            [
              -48.8067688,
              -26.2395825
            ],
            [
              -48.806669,
              -26.2396764
            ],
            [
              -48.8066099,
              -26.239732
            ],
            [
              -48.8064769,
              -26.2398571
            ],
            [
              -48.806449,
              -26.2398554
            ],
            [
              -48.8064184,
              -26.2398604
            ],
            [
              -48.8063877,
              -26.2398721
            ],
            [
              -48.8063608,
              -26.2398904
            ],
            [
              -48.8063404,
              -26.2399162
            ],
            [
              -48.8063274,
              -26.2399554
            ],
            [
              -48.8063301,
              -26.2400062
            ],
            [
              -48.8061174,
              -26.2398287
            ],
            [
              -48.8065282,
              -26.2394414
            ],
            [
              -48.8065592,
              -26.2394117
            ]
          ]
        ]
      }
    },
    {
      "type": "Feature",
      "id": "way/275824655",
      "properties": {
        "timestamp": "2020-03-21T14:37:35Z",
        "version": 2,
        "changeset": 82461043,
        "addr:city": "Joinville",
        "addr:housenumber": "963",
        "addr:postcode": "89225-861",
        "addr:street": "Rua Maria Regina Klock Russi",
        "addr:suburb": "Aventureiro",
        "alt_name": "Posto de Saúde",
        "amenity": "clinic",
        "healthcare": "clinic",
        "name": "Unidade Básica de Saúde da Família Santa Bárbara",
        "opening_hours": "Mo-Fr 08:00-17:00",
        "phone": "+55 47 3418 8263",
        "id": "way/275824655"
      },
      "geometry": {
        "type": "Polygon",
        "coordinates": [
          [
            [
              -48.8005626,
              -26.2358924
            ],
            [
              -48.8003545,
              -26.2360891
            ],
            [
              -48.8002636,
              -26.2360116
            ],
            [
              -48.8004717,
              -26.2358149
            ],
            [
              -48.8005626,
              -26.2358924
            ]
          ]
        ]
      }
    },
    {
      "type": "Feature",
      "id": "way/276162181",
      "properties": {
        "timestamp": "2021-10-28T18:45:39Z",
        "version": 3,
        "changeset": 113094078,
        "addr:city": "Joinville",
        "addr:postcode": "89239-560",
        "addr:street": "Servidão Quatro de Abril",
        "addr:suburb": "Rio Bonito",
        "alt_name": "Posto de Saúde",
        "amenity": "clinic",
        "healthcare": "clinic",
        "name": "Unidade Básica de Saúde Canela - Zenaide Klem dos Santos",
        "opening_hours": "Mo-Fr 08:00-17:00",
        "phone": "+55 47 3437 1141",
        "id": "way/276162181"
      },
      "geometry": {
        "type": "Polygon",
        "coordinates": [
          [
            [
              -48.9153196,
              -26.1776598
            ],
            [
              -48.915472,
              -26.1776005
            ],
            [
              -48.9155572,
              -26.1777765
            ],
            [
              -48.9154048,
              -26.1778358
            ],
            [
              -48.9153196,
              -26.1776598
            ]
          ]
        ]
      }
    },
    {
      "type": "Feature",
      "id": "way/276664647",
      "properties": {
        "timestamp": "2023-04-21T22:46:01Z",
        "version": 13,
        "changeset": 135211722,
        "access": "yes",
        "addr:city": "Joinville",
        "addr:housenumber": "321",
        "addr:postcode": "89205-300",
        "addr:street": "Rua Prefeito Helmuth Fallgatter",
        "addr:suburb": "Boa Vista",
        "alt_name": "Posto de Atendimento Médico Boa Vista",
        "amenity": "clinic",
        "brand": "Sistema Único de Saúde",
        "brand:short": "SUS",
        "brand:wikidata": "Q7531056",
        "brand:wikipedia": "pt:Sistema Único de Saúde",
        "emergency": "yes",
        "healthcare": "clinic",
        "name": "Policlínica Boa Vista Ruthe Maria Pereira",
        "opening_hours": "Mo-Fr 07:00-19:00",
        "operator": "Prefeitura Muncipal de Joinville",
        "operator:type": "government",
        "phone": "+55 47 3417 1300;+55 47 3417 1304",
        "short_name": "Policlínica Boa Vista",
        "id": "way/276664647"
      },
      "geometry": {
        "type": "Polygon",
        "coordinates": [
          [
            [
              -48.8323588,
              -26.3065523
            ],
            [
              -48.8316077,
              -26.3064816
            ],
            [
              -48.8318865,
              -26.3060084
            ],
            [
              -48.8324326,
              -26.3060495
            ],
            [
              -48.8323708,
              -26.3064704
            ],
            [
              -48.8323588,
              -26.3065523
            ]
          ]
        ]
      }
    },
    {
      "type": "Feature",
      "id": "way/278467857",
      "properties": {
        "timestamp": "2020-03-21T16:05:20Z",
        "version": 2,
        "changeset": 82463100,
        "addr:city": "Joinville",
        "addr:postcode": "89233-000",
        "addr:street": "Rua João Gomes de Oliveira",
        "addr:suburb": "Santa Catarina",
        "alt_name": "Posto de Saúde",
        "amenity": "clinic",
        "barrier": "wall",
        "healthcare": "clinic",
        "name": "Unidade Básica de Saúde da Família - Km 4",
        "opening_hours": "Mo-Fr 08:00-17:00",
        "phone": "+55 47 3454 1073",
        "id": "way/278467857"
      },
      "geometry": {
        "type": "Polygon",
        "coordinates": [
          [
            [
              -48.8484363,
              -26.3572677
            ],
            [
              -48.8484473,
              -26.3574262
            ],
            [
              -48.8484535,
              -26.3575165
            ],
            [
              -48.8483773,
              -26.3575208
            ],
            [
              -48.8483685,
              -26.3575212
            ],
            [
              -48.8480857,
              -26.3575369
            ],
            [
              -48.8480685,
              -26.3572881
            ],
            [
              -48.8481416,
              -26.357284
            ],
            [
              -48.8482258,
              -26.3572794
            ],
            [
              -48.8484363,
              -26.3572677
            ]
          ]
        ]
      }
    },
    {
      "type": "Feature",
      "id": "way/278467920",
      "properties": {
        "timestamp": "2020-03-21T15:50:51Z",
        "version": 2,
        "changeset": 82462722,
        "addr:city": "Joinville",
        "addr:postcode": "89233-355",
        "addr:street": "Rua Cidade de Patos de Minas",
        "addr:suburb": "Profipo",
        "alt_name": "Posto de Saúde",
        "amenity": "clinic",
        "building": "yes",
        "building:levels": "1",
        "healthcare": "clinic",
        "name": "Unidade Básica de Saúde da Família - Profipo",
        "opening_hours": "Mo-Fr 08:00-17:00",
        "phone": "+55 47 3429 7306",
        "roof:orientation": "along",
        "roof:shape": "gabled",
        "id": "way/278467920"
      },
      "geometry": {
        "type": "Polygon",
        "coordinates": [
          [
            [
              -48.8412292,
              -26.3682479
            ],
            [
              -48.841277,
              -26.3682954
            ],
            [
              -48.8414404,
              -26.3684577
            ],
            [
              -48.8413755,
              -26.3685102
            ],
            [
              -48.8411643,
              -26.3683004
            ],
            [
              -48.8412292,
              -26.3682479
            ]
          ]
        ]
      }
    },
    {
      "type": "Feature",
      "id": "way/278759580",
      "properties": {
        "timestamp": "2020-03-30T14:02:51Z",
        "version": 4,
        "changeset": 82828032,
        "access": "yes",
        "addr:city": "Joinville",
        "addr:postcode": "89232-486",
        "addr:street": "Rua Boehmerwald",
        "addr:suburb": "Boehmerwald",
        "alt_name": "Posto de Saúde",
        "amenity": "clinic",
        "barrier": "wall",
        "healthcare": "clinic",
        "name": "Unidade Básica de Saúde da Família - Boehmerwaldt I",
        "opening_hours": "Mo-Fr 07:30-17:00",
        "phone": "+55 47 3454 8066",
        "id": "way/278759580"
      },
      "geometry": {
        "type": "Polygon",
        "coordinates": [
          [
            [
              -48.8232887,
              -26.3629834
            ],
            [
              -48.8232917,
              -26.3629723
            ],
            [
              -48.8232977,
              -26.3629613
            ],
            [
              -48.8233091,
              -26.362953
            ],
            [
              -48.8233238,
              -26.3629464
            ],
            [
              -48.8235267,
              -26.3629172
            ],
            [
              -48.8235419,
              -26.3630868
            ],
            [
              -48.8232996,
              -26.3631043
            ],
            [
              -48.8232887,
              -26.3629834
            ]
          ]
        ]
      }
    },
    {
      "type": "Feature",
      "id": "way/278759581",
      "properties": {
        "timestamp": "2023-12-09T02:10:25Z",
        "version": 5,
        "changeset": 144922626,
        "access": "yes",
        "addr:city": "Joinville",
        "addr:housenumber": "102",
        "addr:postcode": "89209-625",
        "addr:street": "Rua Diovana Maria Rodrigues",
        "addr:suburb": "Parque Guarani",
        "alt_name": "Posto de Saúde",
        "amenity": "clinic",
        "healthcare": "clinic",
        "name": "Unidade Básica de Saúde da Família Parque Guarani -Arvelina Cotta Rodrigues",
        "opening_hours": "Mo-Fr 07:00-19:00",
        "phone": "+55 47 3429 7304",
        "id": "way/278759581"
      },
      "geometry": {
        "type": "Polygon",
        "coordinates": [
          [
            [
              -48.8139612,
              -26.3625879
            ],
            [
              -48.8140641,
              -26.3625819
            ],
            [
              -48.8140693,
              -26.3626536
            ],
            [
              -48.8140825,
              -26.3628334
            ],
            [
              -48.8138853,
              -26.362845
            ],
            [
              -48.8137933,
              -26.3628504
            ],
            [
              -48.8137883,
              -26.3627822
            ],
            [
              -48.8137769,
              -26.3626269
            ],
            [
              -48.8137801,
              -26.3626159
            ],
            [
              -48.8137846,
              -26.3626076
            ],
            [
              -48.8137942,
              -26.3626011
            ],
            [
              -48.8138065,
              -26.3625966
            ],
            [
              -48.8139612,
              -26.3625879
            ]
          ]
        ]
      }
    },
    {
      "type": "Feature",
      "id": "way/349687557",
      "properties": {
        "timestamp": "2020-03-21T17:43:29Z",
        "version": 6,
        "changeset": 82465792,
        "access": "yes",
        "addr:city": "Joinville",
        "addr:housenumber": "2605",
        "addr:postcode": "89208-750",
        "addr:street": "Avenida Paulo Schroeder",
        "addr:suburb": "Petrópolis",
        "alt_name": "Posto de Saúde",
        "amenity": "clinic",
        "barrier": "wall",
        "healthcare": "clinic",
        "name": "Unidade Básica de Saúde - Edla Jordan",
        "opening_hours": "Mo-Fr 07:00-19:00",
        "phone": "+55 47 3436 6705",
        "short_name": "EACS",
        "id": "way/349687557"
      },
      "geometry": {
        "type": "Polygon",
        "coordinates": [
          [
            [
              -48.8320295,
              -26.3460767
            ],
            [
              -48.8319936,
              -26.346078
            ],
            [
              -48.8316237,
              -26.3460761
            ],
            [
              -48.8315769,
              -26.3460295
            ],
            [
              -48.8315578,
              -26.3459643
            ],
            [
              -48.8316063,
              -26.3458975
            ],
            [
              -48.8316081,
              -26.3458214
            ],
            [
              -48.8315699,
              -26.3457593
            ],
            [
              -48.8315769,
              -26.3456102
            ],
            [
              -48.8318617,
              -26.3456257
            ],
            [
              -48.8318832,
              -26.3456699
            ],
            [
              -48.8320172,
              -26.345711
            ],
            [
              -48.8320295,
              -26.3460767
            ]
          ]
        ]
      }
    },
    {
      "type": "Feature",
      "id": "way/360802269",
      "properties": {
        "timestamp": "2020-03-01T15:47:15Z",
        "version": 7,
        "changeset": 81647084,
        "access": "yes",
        "addr:city": "Joinville",
        "addr:housenumber": "262",
        "addr:postcode": "89226-205",
        "addr:street": "Rua Mafalda Laurindo",
        "addr:suburb": "Aventureiro",
        "alt_name": "UPA Leste",
        "amenity": "clinic",
        "emergency": "yes",
        "healthcare": "clinic",
        "name": "Unidade de Pronto Atendimento 24h Leste",
        "opening_hours": "24/7",
        "phone": "+55 47 3435 4221",
        "website": "https://www.joinville.sc.gov.br/institucional/ses/uue/paleste/",
        "id": "way/360802269"
      },
      "geometry": {
        "type": "Polygon",
        "coordinates": [
          [
            [
              -48.8166232,
              -26.2452567
            ],
            [
              -48.8167365,
              -26.2451391
            ],
            [
              -48.8168551,
              -26.245231
            ],
            [
              -48.8169322,
              -26.2451509
            ],
            [
              -48.8170337,
              -26.2452295
            ],
            [
              -48.8170013,
              -26.2452631
            ],
            [
              -48.8170087,
              -26.2452689
            ],
            [
              -48.817029,
              -26.2452477
            ],
            [
              -48.8172409,
              -26.2454115
            ],
            [
              -48.8171577,
              -26.2454981
            ],
            [
              -48.8170712,
              -26.2454312
            ],
            [
              -48.8170365,
              -26.2454673
            ],
            [
              -48.8171528,
              -26.2455573
            ],
            [
              -48.8169443,
              -26.2457742
            ],
            [
              -48.8166202,
              -26.2455236
            ],
            [
              -48.8166535,
              -26.2454889
            ],
            [
              -48.8166746,
              -26.2455052
            ],
            [
              -48.8167226,
              -26.2454553
            ],
            [
              -48.8167011,
              -26.2454386
            ],
            [
              -48.8167681,
              -26.2453689
            ],
            [
              -48.8166232,
              -26.2452567
            ]
          ]
        ]
      }
    },
    {
      "type": "Feature",
      "id": "way/377183265",
      "properties": {
        "timestamp": "2022-05-26T16:03:50Z",
        "version": 9,
        "changeset": 121534627,
        "addr:city": "Joinville",
        "addr:housenumber": "1316",
        "addr:postcode": "89204-322",
        "addr:street": "Rua Blumenau",
        "addr:suburb": "América",
        "alt_name": "Instituto de Ortopedia e Traumatologia",
        "amenity": "clinic",
        "building": "yes",
        "emergency": "no",
        "healthcare": "clinic",
        "internet_access": "wlan",
        "name": "IOT Joinville",
        "phone": "+55 47 3433 2020",
        "website": "https://www.iot.com.br/",
        "id": "way/377183265"
      },
      "geometry": {
        "type": "Polygon",
        "coordinates": [
          [
            [
              -48.8494311,
              -26.2882932
            ],
            [
              -48.8494089,
              -26.2879702
            ],
            [
              -48.8494873,
              -26.2879658
            ],
            [
              -48.8494866,
              -26.2879548
            ],
            [
              -48.8495298,
              -26.2879524
            ],
            [
              -48.8495304,
              -26.2879618
            ],
            [
              -48.8495418,
              -26.2879619
            ],
            [
              -48.8495584,
              -26.287965
            ],
            [
              -48.8495724,
              -26.287971
            ],
            [
              -48.8495905,
              -26.2879837
            ],
            [
              -48.8496042,
              -26.2880005
            ],
            [
              -48.8496092,
              -26.2880107
            ],
            [
              -48.8496123,
              -26.2880276
            ],
            [
              -48.8496178,
              -26.2880273
            ],
            [
              -48.8496223,
              -26.2880949
            ],
            [
              -48.8496113,
              -26.2880955
            ],
            [
              -48.8496206,
              -26.2882302
            ],
            [
              -48.8496289,
              -26.2882298
            ],
            [
              -48.8496319,
              -26.2882734
            ],
            [
              -48.8494757,
              -26.2882822
            ],
            [
              -48.8494763,
              -26.2882909
            ],
            [
              -48.8494739,
              -26.288291
            ],
            [
              -48.8494311,
              -26.2882932
            ]
          ]
        ]
      }
    },
    {
      "type": "Feature",
      "id": "way/479535965",
      "properties": {
        "timestamp": "2020-03-21T15:36:05Z",
        "version": 3,
        "changeset": 82462340,
        "addr:city": "Joinville",
        "addr:postcode": "89217-700",
        "addr:street": "Rua Walter Otto Monich",
        "addr:suburb": "Costa e Silva",
        "alt_name": "Posto de Saúde",
        "amenity": "clinic",
        "building": "yes",
        "healthcare": "clinic",
        "name": "Unidade Básica de Saúde da Família - Willy Schossland",
        "opening_hours": "Mo-Fr 08:00-17:30",
        "phone": "+55 47 3418 0407",
        "id": "way/479535965"
      },
      "geometry": {
        "type": "Polygon",
        "coordinates": [
          [
            [
              -48.8821867,
              -26.2821108
            ],
            [
              -48.8820438,
              -26.2821212
            ],
            [
              -48.8820377,
              -26.2820535
            ],
            [
              -48.8820472,
              -26.2820528
            ],
            [
              -48.8820341,
              -26.2819084
            ],
            [
              -48.8821161,
              -26.2819024
            ],
            [
              -48.8821193,
              -26.2819381
            ],
            [
              -48.8821522,
              -26.2819357
            ],
            [
              -48.8821594,
              -26.2820161
            ],
            [
              -48.8821781,
              -26.2820147
            ],
            [
              -48.8821867,
              -26.2821108
            ]
          ]
        ]
      }
    },
    {
      "type": "Feature",
      "id": "way/479803791",
      "properties": {
        "timestamp": "2020-09-02T05:29:33Z",
        "version": 3,
        "changeset": 90277338,
        "addr:housenumber": "200",
        "addr:street": "Alameda Rolf Colin",
        "addr:suburb": "América",
        "amenity": "clinic",
        "building": "commercial",
        "building:levels": "1",
        "healthcare": "clinic",
        "name": "Fono & Cia",
        "id": "way/479803791"
      },
      "geometry": {
        "type": "Polygon",
        "coordinates": [
          [
            [
              -48.8459042,
              -26.2930928
            ],
            [
              -48.8459177,
              -26.2930922
            ],
            [
              -48.8459106,
              -26.2929986
            ],
            [
              -48.846052,
              -26.2929906
            ],
            [
              -48.8460606,
              -26.2930874
            ],
            [
              -48.8459443,
              -26.2930943
            ],
            [
              -48.8459458,
              -26.2931144
            ],
            [
              -48.8459256,
              -26.2931156
            ],
            [
              -48.8459054,
              -26.2931167
            ],
            [
              -48.8459042,
              -26.2930928
            ]
          ]
        ]
      }
    },
    {
      "type": "Feature",
      "id": "way/481273011",
      "properties": {
        "timestamp": "2019-12-11T11:22:41Z",
        "version": 2,
        "changeset": 78257379,
        "addr:housenumber": "814",
        "addr:street": "Rua Orestes Guimarães",
        "addr:suburb": "América",
        "amenity": "clinic",
        "building": "yes",
        "building:levels": "4",
        "healthcare": "clinic",
        "name": "IdHera Medicina e Saúde",
        "id": "way/481273011"
      },
      "geometry": {
        "type": "Polygon",
        "coordinates": [
          [
            [
              -48.8453127,
              -26.2902073
            ],
            [
              -48.8453164,
              -26.2902725
            ],
            [
              -48.8453202,
              -26.2903383
            ],
            [
              -48.8450839,
              -26.2903491
            ],
            [
              -48.8450764,
              -26.2902182
            ],
            [
              -48.8453127,
              -26.2902073
            ]
          ]
        ]
      }
    },
    {
      "type": "Feature",
      "id": "way/516213677",
      "properties": {
        "timestamp": "2022-07-25T19:53:46Z",
        "version": 5,
        "changeset": 124067040,
        "access": "yes",
        "addr:city": "Joinville",
        "addr:postcode": "89202-400",
        "addr:street": "Rua Otávio Rosa Filho",
        "addr:suburb": "Bom Retiro",
        "amenity": "clinic",
        "building": "yes",
        "healthcare": "clinic",
        "loc_name": "Posto de Saúde Bom Retiro",
        "name": "Unidade Básica de Saúde da Família Bom Retiro - Aparecido Zem",
        "opening_hours": "Mo-Fr 07:00-19:00",
        "operator": "Prefeitura Municipal de Joinville",
        "operator:type": "public",
        "phone": "+55 47 3425 2580",
        "short_name": "EACS;UBS Bom Retiro",
        "id": "way/516213677"
      },
      "geometry": {
        "type": "Polygon",
        "coordinates": [
          [
            [
              -48.8449932,
              -26.2615345
            ],
            [
              -48.8447862,
              -26.2615111
            ],
            [
              -48.844784,
              -26.2615263
            ],
            [
              -48.8446709,
              -26.2615135
            ],
            [
              -48.844687,
              -26.2613994
            ],
            [
              -48.8447142,
              -26.2614024
            ],
            [
              -48.8447163,
              -26.2613877
            ],
            [
              -48.8447641,
              -26.2613931
            ],
            [
              -48.8447622,
              -26.2614072
            ],
            [
              -48.8450072,
              -26.2614349
            ],
            [
              -48.8449932,
              -26.2615345
            ]
          ]
        ]
      }
    },
    {
      "type": "Feature",
      "id": "way/689102645",
      "properties": {
        "timestamp": "2020-04-13T22:00:28Z",
        "version": 2,
        "changeset": 83497992,
        "addr:city": "Joinville",
        "addr:postcode": "89230-666",
        "addr:street": "Rua Cidade de Barretos",
        "addr:suburb": "Ulysses Guimarães",
        "alt_name": "Posto de Saúde",
        "amenity": "clinic",
        "building": "yes",
        "healthcare": "clinic",
        "name": "Unidade Básica de Saúde da Família - Ulysses Guimarães",
        "opening_hours": "Mo-Fr 08:00-19:00",
        "operator": "Jair Nunes",
        "operator:type": "government",
        "phone": "+55 47 3438 2626",
        "id": "way/689102645"
      },
      "geometry": {
        "type": "Polygon",
        "coordinates": [
          [
            [
              -48.7931877,
              -26.3262246
            ],
            [
              -48.7932661,
              -26.3261484
            ],
            [
              -48.7935276,
              -26.3263647
            ],
            [
              -48.7934552,
              -26.326435
            ],
            [
              -48.7933764,
              -26.3263699
            ],
            [
              -48.7933103,
              -26.3264342
            ],
            [
              -48.7932213,
              -26.3263606
            ],
            [
              -48.7932815,
              -26.3263021
            ],
            [
              -48.7931877,
              -26.3262246
            ]
          ]
        ]
      }
    },
    {
      "type": "Feature",
      "id": "way/690451706",
      "properties": {
        "timestamp": "2021-07-14T16:18:12Z",
        "version": 5,
        "changeset": 107991279,
        "addr:city": "Joinville",
        "addr:postcode": "89224-045",
        "addr:street": "Rua Willy Schossland",
        "addr:suburb": "Aventureiro",
        "alt_name": "Posto de Saúde",
        "amenity": "clinic",
        "healthcare": "clinic",
        "healthcare:speciality": "general",
        "name": "Unidade Básica de Saúde - Parque Joinville",
        "opening_hours": "Mo-Fr 07:00-19:00",
        "operator": "Jair Nunes",
        "phone": "+55 47 3472 1795",
        "short_name": "EACS",
        "id": "way/690451706"
      },
      "geometry": {
        "type": "Polygon",
        "coordinates": [
          [
            [
              -48.8080805,
              -26.254433
            ],
            [
              -48.8078495,
              -26.2546621
            ],
            [
              -48.8074264,
              -26.2543189
            ],
            [
              -48.8076574,
              -26.2540899
            ],
            [
              -48.8080805,
              -26.254433
            ]
          ]
        ]
      }
    },
    {
      "type": "Feature",
      "id": "way/724637825",
      "properties": {
        "timestamp": "2024-10-05T13:35:56Z",
        "version": 5,
        "changeset": 157501552,
        "addr:city": "Joinville",
        "addr:housenumber": "km 18",
        "addr:postcode": "89237-000",
        "addr:street": "Rodovia Rodolfo Jahn",
        "alt_name": "Posto de Saúde",
        "amenity": "clinic",
        "building": "yes",
        "healthcare": "clinic",
        "name": "Unidade Básica de Saúde da Família - Vila Nova Rural",
        "opening_hours": "Mo-Fr 08:00-17:00",
        "phone": "+55 47 3130 1900",
        "id": "way/724637825"
      },
      "geometry": {
        "type": "Polygon",
        "coordinates": [
          [
            [
              -48.9486585,
              -26.3500362
            ],
            [
              -48.9487384,
              -26.3501661
            ],
            [
              -48.9485647,
              -26.3502519
            ],
            [
              -48.9484849,
              -26.350122
            ],
            [
              -48.9486585,
              -26.3500362
            ]
          ]
        ]
      }
    },
    {
      "type": "Feature",
      "id": "way/743316378",
      "properties": {
        "timestamp": "2023-06-02T23:37:25Z",
        "version": 10,
        "changeset": 136886686,
        "access": "yes",
        "addr:city": "Joinville",
        "addr:housenumber": "335",
        "addr:postcode": "89235-400",
        "addr:street": "Rua Universidade",
        "addr:suburb": "Boehmerwald",
        "alt_name": "Posto de Saúde",
        "amenity": "clinic",
        "brand": "Sistema Único de Saúde",
        "brand:short": "SUS",
        "brand:wikidata": "Q7531056",
        "brand:wikipedia": "pt:Sistema Único de Saúde",
        "building": "yes",
        "contact:phone": "+55 47 3454-8066",
        "healthcare": "clinic",
        "loc_name": "Posto de Saúde Boehmerwald I",
        "name": "Unidade Básica de Saúde da Família Boehmerwald I - Padre Luiz Facchini",
        "opening_hours": "Mo-Fr 07:00-21:00; Sa,Su,PH off",
        "operator": "Prefeitura Municipal de Joinville",
        "operator:type": "government",
        "phone": "+55 47 3429 6269",
        "ref:CNES": "2511541",
        "short_name": "UBSF Boehmerwald I",
        "id": "way/743316378"
      },
      "geometry": {
        "type": "Polygon",
        "coordinates": [
          [
            [
              -48.8257782,
              -26.3673409
            ],
            [
              -48.8257873,
              -26.3674736
            ],
            [
              -48.8259211,
              -26.3674663
            ],
            [
              -48.8259277,
              -26.3675625
            ],
            [
              -48.8258628,
              -26.3675661
            ],
            [
              -48.8258641,
              -26.3675851
            ],
            [
              -48.8256853,
              -26.367595
            ],
            [
              -48.8256838,
              -26.3675731
            ],
            [
              -48.8253931,
              -26.3675892
            ],
            [
              -48.8253864,
              -26.3674918
            ],
            [
              -48.8256816,
              -26.3674755
            ],
            [
              -48.8256727,
              -26.3673467
            ],
            [
              -48.8257782,
              -26.3673409
            ]
          ]
        ]
      }
    },
    {
      "type": "Feature",
      "id": "way/743541867",
      "properties": {
        "timestamp": "2023-05-04T12:15:16Z",
        "version": 3,
        "changeset": 135698787,
        "access": "yes",
        "addr:city": "Joinville",
        "addr:postcode": "89215-176",
        "addr:street": "Rua Itapeva",
        "addr:suburb": "Morro do Meio",
        "alt_name": "Posto de Saúde",
        "amenity": "clinic",
        "brand": "Sistema Único de Saúde",
        "brand:short": "SUS",
        "brand:wikidata": "Q7531056",
        "brand:wikipedia": "pt:Sistema Único de Saúde",
        "building": "yes",
        "contact:phone": "+55 47 3436-3500",
        "healthcare": "clinic",
        "loc_name": "Posto de Saúde Morro do Meio",
        "name": "Unidade Básica de Saúde da Família Morro do Meio",
        "opening_hours": "Mo-Fr 07:00-19:00; Sa,Su,PH off",
        "operator": "Prefeitura Municipal de Joinville",
        "operator:type": "government",
        "phone": "+55 47 3436 3500",
        "ref:CNES": "2511495",
        "short_name": "UBS Morro do Meio",
        "id": "way/743541867"
      },
      "geometry": {
        "type": "Polygon",
        "coordinates": [
          [
            [
              -48.9048685,
              -26.3311374
            ],
            [
              -48.9047594,
              -26.3312367
            ],
            [
              -48.9047798,
              -26.3312548
            ],
            [
              -48.9047318,
              -26.3312985
            ],
            [
              -48.90467,
              -26.3313547
            ],
            [
              -48.9046496,
              -26.3313366
            ],
            [
              -48.9046057,
              -26.3313766
            ],
            [
              -48.9045239,
              -26.3313044
            ],
            [
              -48.904601,
              -26.3312342
            ],
            [
              -48.9045329,
              -26.331174
            ],
            [
              -48.9046174,
              -26.3310972
            ],
            [
              -48.9046855,
              -26.3311573
            ],
            [
              -48.9047867,
              -26.3310652
            ],
            [
              -48.9048685,
              -26.3311374
            ]
          ]
        ]
      }
    },
    {
      "type": "Feature",
      "id": "way/768406524",
      "properties": {
        "timestamp": "2022-02-28T08:19:06Z",
        "version": 3,
        "changeset": 117933585,
        "addr:housenumber": "813",
        "addr:street": "Rua Max Colin",
        "addr:suburb": "América",
        "amenity": "clinic",
        "building": "yes",
        "building:levels": "3",
        "contact:website": "http://www.grupoghanem.com.br",
        "healthcare": "laboratory",
        "healthcare:speciality": "biochemistry",
        "laboratory": "blood_check",
        "name": "Ghanem Laboratório e Saúde",
        "opening_hours": "Mo-Fr 06:00-19:00;Sa 06:30-14:30;Su 06:30-12:30",
        "id": "way/768406524"
      },
      "geometry": {
        "type": "Polygon",
        "coordinates": [
          [
            [
              -48.8505191,
              -26.2950383
            ],
            [
              -48.8504321,
              -26.2950404
            ],
            [
              -48.8504323,
              -26.2950319
            ],
            [
              -48.8503908,
              -26.2950326
            ],
            [
              -48.8503797,
              -26.2948805
            ],
            [
              -48.8503899,
              -26.2948805
            ],
            [
              -48.8503891,
              -26.2948344
            ],
            [
              -48.8504728,
              -26.294831
            ],
            [
              -48.8504731,
              -26.2948772
            ],
            [
              -48.8505052,
              -26.2948767
            ],
            [
              -48.8505191,
              -26.2950383
            ]
          ]
        ]
      }
    },
    {
      "type": "Feature",
      "id": "way/777491105",
      "properties": {
        "timestamp": "2022-04-03T21:19:43Z",
        "version": 4,
        "changeset": 119279090,
        "addr:city": "Joinville",
        "addr:postcode": "89214-215",
        "addr:street": "Rua Guaporé",
        "addr:suburb": "São Marcos",
        "alt_name": "Posto de Saúde",
        "amenity": "clinic",
        "building": "yes",
        "healthcare": "clinic",
        "loc_name": "Posto de Saúde São Marcos",
        "name": "Unidade Básica de Saúde da Família São Marcos",
        "opening_hours": "Mo-Fr 07:00-19:00",
        "operator": "Prefeitura Municipal de Joinville",
        "operator:type": "public",
        "phone": "+55 47 3438 0652",
        "short_name": "UBS São Marcos",
        "id": "way/777491105"
      },
      "geometry": {
        "type": "Polygon",
        "coordinates": [
          [
            [
              -48.8736903,
              -26.3204309
            ],
            [
              -48.8738035,
              -26.3204277
            ],
            [
              -48.8738081,
              -26.3205557
            ],
            [
              -48.8734687,
              -26.3205656
            ],
            [
              -48.8734643,
              -26.3204438
            ],
            [
              -48.8735719,
              -26.3204407
            ],
            [
              -48.8735683,
              -26.320341
            ],
            [
              -48.8736869,
              -26.3203375
            ],
            [
              -48.8736903,
              -26.3204309
            ]
          ]
        ]
      }
    },
    {
      "type": "Feature",
      "id": "way/777492964",
      "properties": {
        "timestamp": "2023-02-03T18:31:33Z",
        "version": 5,
        "changeset": 132053231,
        "access": "yes",
        "addr:city": "Joinville",
        "addr:housenumber": "75",
        "addr:postcode": "89228-272",
        "addr:street": "Rua Ponte Serrada",
        "addr:suburb": "Comasa",
        "alt_name": "Unidade Básica de Saúde da Família Comasa",
        "amenity": "clinic",
        "brand": "Sistema Único de Saúde",
        "brand:short": "SUS",
        "brand:wikidata": "Q7531056",
        "brand:wikipedia": "pt:Sistema Único de Saúde",
        "building": "yes",
        "healthcare": "clinic",
        "loc_name": "Posto de Saúde Vereador José Evaristo Heck",
        "name": "Unidade Básica de Saúde da Família Vereador José Evaristo Heck",
        "opening_hours": "Mo-Fr 07:00-19:00",
        "operator": "Prefeitura Municipal de Joinville",
        "operator:type": "government",
        "phone": "+55 47 3434 0360, +55 47 3434 3593",
        "short_name": "UBS Vereador José Evaristo Heck",
        "id": "way/777492964"
      },
      "geometry": {
        "type": "Polygon",
        "coordinates": [
          [
            [
              -48.8107029,
              -26.278072
            ],
            [
              -48.8106704,
              -26.2781116
            ],
            [
              -48.810904,
              -26.2782656
            ],
            [
              -48.8107552,
              -26.2784472
            ],
            [
              -48.8104699,
              -26.2782592
            ],
            [
              -48.8106512,
              -26.278038
            ],
            [
              -48.8107029,
              -26.278072
            ]
          ]
        ]
      }
    },
    {
      "type": "Feature",
      "id": "way/777504032",
      "properties": {
        "timestamp": "2021-09-12T04:26:26Z",
        "version": 3,
        "changeset": 111082312,
        "addr:city": "Joinville",
        "addr:housenumber": "110",
        "addr:postcode": "89221-300",
        "addr:street": "Rua Iririú",
        "addr:suburb": "Saguaçu",
        "alt_name": "Posto de Saúde",
        "amenity": "clinic",
        "building": "yes",
        "healthcare": "clinic",
        "name": "Unidade de Saúde Saguaçu",
        "operator": "Município de Joinville",
        "operator:type": "government",
        "phone": "+55 47 3473 6939",
        "id": "way/777504032"
      },
      "geometry": {
        "type": "Polygon",
        "coordinates": [
          [
            [
              -48.8400179,
              -26.2828185
            ],
            [
              -48.8398233,
              -26.2830703
            ],
            [
              -48.8397108,
              -26.2830004
            ],
            [
              -48.8399055,
              -26.2827486
            ],
            [
              -48.8400179,
              -26.2828185
            ]
          ]
        ]
      }
    },
    {
      "type": "Feature",
      "id": "way/781937231",
      "properties": {
        "timestamp": "2022-02-27T05:26:22Z",
        "version": 5,
        "changeset": 117897424,
        "addr:city": "Joinville",
        "addr:housenumber": "128",
        "addr:postcode": "89204-340",
        "addr:street": "Rua Tubarão",
        "addr:suburb": "América",
        "amenity": "clinic",
        "building": "yes",
        "emergency": "yes",
        "healthcare": "clinic",
        "healthcare:speciality": "psychiatry",
        "name": "Centro de Atenção Psicossocial",
        "opening_hours": "Mo-Fr 07:00-19:00; Sa,Su,PH off",
        "phone": "+55 47 3422 8526, +55 47 3423 0245",
        "id": "way/781937231"
      },
      "geometry": {
        "type": "Polygon",
        "coordinates": [
          [
            [
              -48.8503773,
              -26.2863289
            ],
            [
              -48.8503624,
              -26.2863284
            ],
            [
              -48.8503604,
              -26.2863785
            ],
            [
              -48.8503748,
              -26.286379
            ],
            [
              -48.8503735,
              -26.2864039
            ],
            [
              -48.8502318,
              -26.2863979
            ],
            [
              -48.8502409,
              -26.2862208
            ],
            [
              -48.8502799,
              -26.2862224
            ],
            [
              -48.8502833,
              -26.2861607
            ],
            [
              -48.8502946,
              -26.2861612
            ],
            [
              -48.8502966,
              -26.2861165
            ],
            [
              -48.8503056,
              -26.2861113
            ],
            [
              -48.8503725,
              -26.2861135
            ],
            [
              -48.8503705,
              -26.2861744
            ],
            [
              -48.8503849,
              -26.2861746
            ],
            [
              -48.8503773,
              -26.2863289
            ]
          ]
        ]
      }
    },
    {
      "type": "Feature",
      "id": "way/783317612",
      "properties": {
        "timestamp": "2020-03-21T14:26:38Z",
        "version": 1,
        "changeset": 82460789,
        "addr:city": "Joinville",
        "addr:postcode": "89225-160",
        "addr:street": "Rua Alino José Alípio",
        "addr:suburb": "Aventureiro",
        "alt_name": "Posto de Saúde",
        "amenity": "clinic",
        "building": "yes",
        "healthcare": "clinic",
        "name": "Unidade Básica de Saúde - Aventureiro I",
        "opening_hours": "Mo-Fr 07:00-19:00",
        "phone": "+55 47 3467 6046",
        "id": "way/783317612"
      },
      "geometry": {
        "type": "Polygon",
        "coordinates": [
          [
            [
              -48.8197176,
              -26.2551134
            ],
            [
              -48.8193581,
              -26.2548632
            ],
            [
              -48.8194037,
              -26.2548055
            ],
            [
              -48.8195539,
              -26.2547213
            ],
            [
              -48.8196344,
              -26.2548079
            ],
            [
              -48.8197176,
              -26.2551134
            ]
          ]
        ]
      }
    },
    {
      "type": "Feature",
      "id": "way/783321068",
      "properties": {
        "timestamp": "2024-09-19T00:04:47Z",
        "version": 3,
        "changeset": 156797252,
        "addr:city": "Joinville",
        "addr:postcode": "89225-206",
        "addr:street": "Rua Santa Luzia",
        "addr:suburb": "Aventureiro",
        "alt_name": "Posto de Saúde",
        "amenity": "clinic",
        "building": "yes",
        "healthcare": "clinic",
        "name": "Unidade Básica de Saúde da Família Aventureiro III - Antônio José Alecrim",
        "opening_hours": "Mo-Fr 07:00-17:00",
        "phone": "+55 47 3435 8486",
        "id": "way/783321068"
      },
      "geometry": {
        "type": "Polygon",
        "coordinates": [
          [
            [
              -48.8177167,
              -26.2444436
            ],
            [
              -48.8174952,
              -26.2446493
            ],
            [
              -48.8170458,
              -26.2442927
            ],
            [
              -48.8172652,
              -26.2441036
            ],
            [
              -48.817298,
              -26.244095
            ],
            [
              -48.8173343,
              -26.2440977
            ],
            [
              -48.8173634,
              -26.2441145
            ],
            [
              -48.8177167,
              -26.2444436
            ]
          ]
        ]
      }
    },
    {
      "type": "Feature",
      "id": "way/783322884",
      "properties": {
        "timestamp": "2021-10-10T05:18:00Z",
        "version": 2,
        "changeset": 112320898,
        "addr:city": "Joinville",
        "addr:housenumber": "1031",
        "addr:postcode": "89225-810",
        "addr:street": "Rua Dilma Virgilina Garcia",
        "addr:suburb": "Aventureiro",
        "alt_name": "Posto de Saúde",
        "amenity": "clinic",
        "building": "yes",
        "healthcare": "clinic",
        "name": "Unidade Básica de Saúde da Família - Rio do Ferro",
        "opening_hours": "Mo-Fr 08:00-17:00",
        "phone": "+55 47 3467 2061",
        "id": "way/783322884"
      },
      "geometry": {
        "type": "Polygon",
        "coordinates": [
          [
            [
              -48.8032473,
              -26.2428131
            ],
            [
              -48.8031964,
              -26.2428591
            ],
            [
              -48.8031901,
              -26.2428542
            ],
            [
              -48.8030533,
              -26.2429761
            ],
            [
              -48.8030438,
              -26.2429688
            ],
            [
              -48.8030313,
              -26.2429811
            ],
            [
              -48.8029688,
              -26.2429233
            ],
            [
              -48.802982,
              -26.2429118
            ],
            [
              -48.8029709,
              -26.242901
            ],
            [
              -48.8031582,
              -26.242736
            ],
            [
              -48.803215,
              -26.2427851
            ],
            [
              -48.8032473,
              -26.2428131
            ]
          ]
        ]
      }
    },
    {
      "type": "Feature",
      "id": "way/783323693",
      "properties": {
        "timestamp": "2020-09-27T21:46:44Z",
        "version": 2,
        "changeset": 91598587,
        "addr:city": "Joinville",
        "addr:postcode": "89223-600",
        "addr:street": "Rua Nossa Senhora de Fátima",
        "addr:suburb": "Vila Cubatão",
        "alt_name": "Posto de Saúde",
        "amenity": "clinic",
        "building": "yes",
        "healthcare": "clinic",
        "name": "Unidade Básica de Saúde da Família - Cubatão",
        "opening_hours": "Mo-Fr 07:30-16:30",
        "phone": "+55 47 3145 2450",
        "id": "way/783323693"
      },
      "geometry": {
        "type": "Polygon",
        "coordinates": [
          [
            [
              -48.801362,
              -26.2183781
            ],
            [
              -48.8012516,
              -26.2184649
            ],
            [
              -48.8010828,
              -26.218292
            ],
            [
              -48.8011932,
              -26.2182052
            ],
            [
              -48.801362,
              -26.2183781
            ]
          ]
        ]
      }
    },
    {
      "type": "Feature",
      "id": "way/783325951",
      "properties": {
        "timestamp": "2020-03-21T15:00:49Z",
        "version": 2,
        "changeset": 82461525,
        "addr:city": "Joinville",
        "addr:housenumber": "65",
        "addr:postcode": "89218-430",
        "addr:street": "Rua Comandante Telles de Mendonça",
        "addr:suburb": "Costa e Silva",
        "alt_name": "Posto de Saúde",
        "amenity": "clinic",
        "building": "yes",
        "healthcare": "clinic",
        "name": "Unidade Básica de Saúde - Costa e Silva",
        "opening_hours": "Mo-Fr 07:00-19:00",
        "phone": "+55 47 3437 1760",
        "short_name": "EACS",
        "id": "way/783325951"
      },
      "geometry": {
        "type": "Polygon",
        "coordinates": [
          [
            [
              -48.8723094,
              -26.2739136
            ],
            [
              -48.8723219,
              -26.2741144
            ],
            [
              -48.872043,
              -26.2741284
            ],
            [
              -48.8720305,
              -26.2739276
            ],
            [
              -48.8723094,
              -26.2739136
            ]
          ]
        ]
      }
    },
    {
      "type": "Feature",
      "id": "way/783363142",
      "properties": {
        "timestamp": "2020-08-13T23:32:44Z",
        "version": 2,
        "changeset": 89378727,
        "addr:city": "Joinville",
        "addr:housenumber": "505",
        "addr:postcode": "89245-000",
        "addr:street": "Rua Maria Marques Leandro",
        "addr:suburb": "Paranaguamirim",
        "alt_name": "Posto de Saúde",
        "amenity": "clinic",
        "building": "yes",
        "healthcare": "clinic",
        "name": "Unidade Básica de Saúde da Família - Estêvão de Matos",
        "opening_hours": "Mo-Fr 07:00-17:00",
        "phone": "+55 47 3463 9898",
        "id": "way/783363142"
      },
      "geometry": {
        "type": "Polygon",
        "coordinates": [
          [
            [
              -48.7736596,
              -26.346863
            ],
            [
              -48.7736255,
              -26.3469682
            ],
            [
              -48.7733835,
              -26.3469051
            ],
            [
              -48.7734177,
              -26.3467999
            ],
            [
              -48.7736596,
              -26.346863
            ]
          ]
        ]
      }
    },
    {
      "type": "Feature",
      "id": "way/783367752",
      "properties": {
        "timestamp": "2020-03-21T17:18:23Z",
        "version": 1,
        "changeset": 82465101,
        "addr:city": "Joinville",
        "addr:postcode": "89228-440",
        "addr:street": "Rua Agostinho dos Santos",
        "addr:suburb": "Comasa",
        "alt_name": "Posto de Saúde",
        "amenity": "clinic",
        "building": "yes",
        "healthcare": "clinic",
        "name": "Unidade Básica de Saúde da Família - CAIC Vila Paranaense",
        "opening_hours": "Mo-Fr 07:30-17:00",
        "phone": "+55 47 3434 0360",
        "id": "way/783367752"
      },
      "geometry": {
        "type": "Polygon",
        "coordinates": [
          [
            [
              -48.7940617,
              -26.2801985
            ],
            [
              -48.7940243,
              -26.2803607
            ],
            [
              -48.7935115,
              -26.2802658
            ],
            [
              -48.7935489,
              -26.2801036
            ],
            [
              -48.7940617,
              -26.2801985
            ]
          ]
        ]
      }
    },
    {
      "type": "Feature",
      "id": "way/783369434",
      "properties": {
        "timestamp": "2020-03-21T17:25:11Z",
        "version": 1,
        "changeset": 82465320,
        "addr:city": "Joinville",
        "addr:housenumber": "509",
        "addr:postcode": "89224-281",
        "addr:street": "Rua Janaúba",
        "addr:suburb": "Jardim Iririú",
        "alt_name": "Posto de Saúde",
        "amenity": "clinic",
        "building": "yes",
        "healthcare": "clinic",
        "name": "Unidade Básica de Saúde da Família - Dom Gregório",
        "opening_hours": "Mo-Fr 07:30-17:00",
        "phone": "+55 47 3435 5112",
        "id": "way/783369434"
      },
      "geometry": {
        "type": "Polygon",
        "coordinates": [
          [
            [
              -48.8037522,
              -26.2624476
            ],
            [
              -48.8036328,
              -26.2625782
            ],
            [
              -48.8035103,
              -26.2624881
            ],
            [
              -48.8036296,
              -26.2623575
            ],
            [
              -48.8037522,
              -26.2624476
            ]
          ]
        ]
      }
    },
    {
      "type": "Feature",
      "id": "way/783372162",
      "properties": {
        "timestamp": "2021-07-03T06:44:02Z",
        "version": 2,
        "changeset": 107341131,
        "addr:city": "Joinville",
        "addr:postcode": "89227-322",
        "addr:street": "Rua Canoas",
        "addr:suburb": "Jardim Iririú",
        "alt_name": "Posto de Saúde",
        "amenity": "clinic",
        "building": "yes",
        "healthcare": "clinic",
        "name": "Unidade Básica de Saúde - Jardim Iririú",
        "opening_hours": "Mo-Fr 07:00-19:00",
        "phone": "+55 47 3418 3163",
        "id": "way/783372162"
      },
      "geometry": {
        "type": "Polygon",
        "coordinates": [
          [
            [
              -48.8035073,
              -26.2676888
            ],
            [
              -48.8034285,
              -26.2676254
            ],
            [
              -48.8034502,
              -26.2676035
            ],
            [
              -48.8034041,
              -26.2675668
            ],
            [
              -48.8034584,
              -26.2675119
            ],
            [
              -48.8035045,
              -26.2675486
            ],
            [
              -48.8035253,
              -26.2675652
            ],
            [
              -48.8035358,
              -26.2675547
            ],
            [
              -48.8035729,
              -26.2675838
            ],
            [
              -48.8035631,
              -26.2675935
            ],
            [
              -48.8036232,
              -26.2676418
            ],
            [
              -48.8035506,
              -26.2677153
            ],
            [
              -48.803512,
              -26.2676843
            ],
            [
              -48.8035073,
              -26.2676888
            ]
          ]
        ]
      }
    },
    {
      "type": "Feature",
      "id": "way/783372972",
      "properties": {
        "timestamp": "2020-03-21T17:38:15Z",
        "version": 2,
        "changeset": 82465671,
        "addr:city": "Joinville",
        "addr:housenumber": "410",
        "addr:postcode": "89208-750",
        "addr:street": "Rua Almirante Protógenes Pereira",
        "addr:suburb": "Fátima",
        "alt_name": "Posto de Saúde",
        "amenity": "clinic",
        "building": "yes",
        "healthcare": "clinic",
        "name": "Unidade Básica de Saúde da Família - Fátima",
        "opening_hours": "Mo-Fr 07:00-19:00",
        "phone": "+55 47 3145 2411",
        "short_name": "EACS",
        "id": "way/783372972"
      },
      "geometry": {
        "type": "Polygon",
        "coordinates": [
          [
            [
              -48.8159821,
              -26.3230925
            ],
            [
              -48.8160973,
              -26.323407
            ],
            [
              -48.8159052,
              -26.3234636
            ],
            [
              -48.81579,
              -26.3231491
            ],
            [
              -48.8159821,
              -26.3230925
            ]
          ]
        ]
      }
    },
    {
      "type": "Feature",
      "id": "way/783374497",
      "properties": {
        "timestamp": "2021-11-06T17:42:35Z",
        "version": 3,
        "changeset": 113456255,
        "addr:city": "Joinville",
        "addr:housenumber": "548",
        "addr:postcode": "89207-180",
        "addr:street": "Rua Guanabara",
        "addr:suburb": "Guanabara",
        "alt_name": "Posto de Saúde",
        "amenity": "clinic",
        "building": "yes",
        "healthcare": "clinic",
        "name": "Unidade Básica de Saúde da Família - Itaum",
        "opening_hours": "Mo-Fr 07:00-19:00",
        "phone": "+55 47 3429 7601, +55 47 3429 6251",
        "short_name": "EACS",
        "id": "way/783374497"
      },
      "geometry": {
        "type": "Polygon",
        "coordinates": [
          [
            [
              -48.8334492,
              -26.3264412
            ],
            [
              -48.8332966,
              -26.3265601
            ],
            [
              -48.8331633,
              -26.3264201
            ],
            [
              -48.8331408,
              -26.3264382
            ],
            [
              -48.8330988,
              -26.3263919
            ],
            [
              -48.8331187,
              -26.326375
            ],
            [
              -48.8330303,
              -26.3262827
            ],
            [
              -48.8330091,
              -26.3262994
            ],
            [
              -48.8329669,
              -26.3262565
            ],
            [
              -48.8329872,
              -26.3262389
            ],
            [
              -48.8328986,
              -26.3261459
            ],
            [
              -48.8328769,
              -26.3261636
            ],
            [
              -48.8328318,
              -26.3261178
            ],
            [
              -48.8328526,
              -26.3261001
            ],
            [
              -48.8327176,
              -26.3259581
            ],
            [
              -48.8327009,
              -26.3259727
            ],
            [
              -48.8326662,
              -26.3259353
            ],
            [
              -48.8326836,
              -26.3259217
            ],
            [
              -48.8326608,
              -26.3258968
            ],
            [
              -48.8328133,
              -26.325778
            ],
            [
              -48.832878,
              -26.3258458
            ],
            [
              -48.8328956,
              -26.3258327
            ],
            [
              -48.8329271,
              -26.3258655
            ],
            [
              -48.8329118,
              -26.3258782
            ],
            [
              -48.8334492,
              -26.3264412
            ]
          ]
        ]
      }
    },
    {
      "type": "Feature",
      "id": "way/783632917",
      "properties": {
        "timestamp": "2020-12-15T05:00:18Z",
        "version": 2,
        "changeset": 95846032,
        "addr:city": "Joinville",
        "addr:housenumber": "241",
        "addr:postcode": "89237-208",
        "addr:street": "Rua Arthur Hille",
        "addr:suburb": "Vila Nova",
        "alt_name": "Posto de Saúde",
        "amenity": "clinic",
        "building": "yes",
        "healthcare": "clinic",
        "name": "Unidade Básica de Saúde da Família - Vila Nova I - Dagoberto José de Campos",
        "opening_hours": "Mo-Fr 07:00-17:00",
        "phone": "+55 47 3435 3956",
        "id": "way/783632917"
      },
      "geometry": {
        "type": "Polygon",
        "coordinates": [
          [
            [
              -48.8946117,
              -26.2807256
            ],
            [
              -48.8945577,
              -26.2807253
            ],
            [
              -48.8945574,
              -26.2807617
            ],
            [
              -48.894398,
              -26.2807606
            ],
            [
              -48.8943982,
              -26.2807318
            ],
            [
              -48.8942435,
              -26.2807308
            ],
            [
              -48.8942443,
              -26.2806368
            ],
            [
              -48.8943954,
              -26.2806378
            ],
            [
              -48.8943962,
              -26.2805326
            ],
            [
              -48.8945068,
              -26.2805334
            ],
            [
              -48.894506,
              -26.2806303
            ],
            [
              -48.8946125,
              -26.280631
            ],
            [
              -48.8946117,
              -26.2807256
            ]
          ]
        ]
      }
    },
    {
      "type": "Feature",
      "id": "way/783634543",
      "properties": {
        "timestamp": "2020-03-22T14:21:58Z",
        "version": 1,
        "changeset": 82484653,
        "addr:city": "Joinville",
        "addr:housenumber": "4035",
        "addr:postcode": "89220-002",
        "addr:street": "Rua Inambu",
        "addr:suburb": "Costa e Silva",
        "alt_name": "Posto de Saúde",
        "amenity": "clinic",
        "building": "yes",
        "healthcare": "clinic",
        "name": "Unidade Básica de Saúde da Família - Parque Douat",
        "opening_hours": "Mo-Fr 08:00-17:30",
        "phone": "+55 47 3437 5513",
        "id": "way/783634543"
      },
      "geometry": {
        "type": "Polygon",
        "coordinates": [
          [
            [
              -48.8907381,
              -26.2692037
            ],
            [
              -48.89061,
              -26.269265
            ],
            [
              -48.8906568,
              -26.2693435
            ],
            [
              -48.8905583,
              -26.2693907
            ],
            [
              -48.8905121,
              -26.2693131
            ],
            [
              -48.8904165,
              -26.269359
            ],
            [
              -48.8903538,
              -26.2692539
            ],
            [
              -48.890676,
              -26.2690994
            ],
            [
              -48.8907381,
              -26.2692037
            ]
          ]
        ]
      }
    },
    {
      "type": "Feature",
      "id": "way/784014007",
      "properties": {
        "timestamp": "2020-03-23T19:39:58Z",
        "version": 1,
        "changeset": 82538889,
        "addr:city": "Joinville",
        "addr:housenumber": "1170",
        "addr:street": "Avenida Getúlio Vargas",
        "addr:suburb": "Anita Garibaldi",
        "amenity": "clinic",
        "building": "yes",
        "government": "healthcare",
        "healthcare": "clinic",
        "healthcare:speciality": "general",
        "name": "Centro Saúde Agora",
        "opening_hours": "Mo-Fr 07:00-20:00",
        "operator:type": "private",
        "phone": "+55 47 3801 4969",
        "website": "https://centrosaudeagora.com.br",
        "id": "way/784014007"
      },
      "geometry": {
        "type": "Polygon",
        "coordinates": [
          [
            [
              -48.8456765,
              -26.3180888
            ],
            [
              -48.845673,
              -26.3182085
            ],
            [
              -48.8454098,
              -26.3182025
            ],
            [
              -48.8454121,
              -26.3181218
            ],
            [
              -48.8453292,
              -26.3181199
            ],
            [
              -48.8453303,
              -26.3180807
            ],
            [
              -48.8456765,
              -26.3180888
            ]
          ]
        ]
      }
    },
    {
      "type": "Feature",
      "id": "way/790723592",
      "properties": {
        "timestamp": "2024-06-08T15:11:55Z",
        "version": 3,
        "changeset": 152419069,
        "addr:city": "Joinville",
        "addr:housenumber": "2116",
        "addr:postcode": "89205-100",
        "addr:street": "Rua Albano Schmidt",
        "addr:suburb": "Boa Vista",
        "alt_name": "Posto de Saúde",
        "amenity": "clinic",
        "healthcare": "clinic",
        "name": "Unidade Básica de Saúde da Família - Bakhita",
        "opening_hours": "Mo-Fr 08:00-19:00",
        "phone": "+55 47 3432 2220",
        "id": "way/790723592"
      },
      "geometry": {
        "type": "Polygon",
        "coordinates": [
          [
            [
              -48.8190419,
              -26.2974758
            ],
            [
              -48.8190137,
              -26.2975129
            ],
            [
              -48.8186854,
              -26.2979286
            ],
            [
              -48.818516,
              -26.2977852
            ],
            [
              -48.818362,
              -26.2976548
            ],
            [
              -48.818366,
              -26.2976285
            ],
            [
              -48.8185849,
              -26.297458
            ],
            [
              -48.8188329,
              -26.2972631
            ],
            [
              -48.8190419,
              -26.2974758
            ]
          ]
        ]
      }
    },
    {
      "type": "Feature",
      "id": "way/796465882",
      "properties": {
        "timestamp": "2020-04-26T13:19:44Z",
        "version": 1,
        "changeset": 84142074,
        "addr:city": "Joinville",
        "addr:housenumber": "1156",
        "addr:postcode": "89201-602",
        "addr:street": "Rua XV de Novembro",
        "addr:suburb": "América",
        "amenity": "clinic",
        "building": "yes",
        "healthcare": "clinic",
        "name": "Instituto Balsini - Clínica do Ombro Joelho e Esporte",
        "phone": "+55 47 3433 3835",
        "website": "https://www.institutobalsini.com.br",
        "id": "way/796465882"
      },
      "geometry": {
        "type": "Polygon",
        "coordinates": [
          [
            [
              -48.8534947,
              -26.2985174
            ],
            [
              -48.8535123,
              -26.2987505
            ],
            [
              -48.8533379,
              -26.2987611
            ],
            [
              -48.8533202,
              -26.298528
            ],
            [
              -48.8534947,
              -26.2985174
            ]
          ]
        ]
      }
    },
    {
      "type": "Feature",
      "id": "way/806278775",
      "properties": {
        "timestamp": "2022-05-26T15:58:47Z",
        "version": 3,
        "changeset": 121534313,
        "addr:housenumber": "1776",
        "addr:street": "Rua XV de Novembro",
        "addr:suburb": "América",
        "amenity": "clinic",
        "name": "Instituto de Otfalmologia de Joinville",
        "short_name": "IOJ",
        "website": "https://www.ioj.com.br/",
        "id": "way/806278775"
      },
      "geometry": {
        "type": "Polygon",
        "coordinates": [
          [
            [
              -48.8595471,
              -26.2976289
            ],
            [
              -48.8595786,
              -26.2978309
            ],
            [
              -48.859609,
              -26.2980257
            ],
            [
              -48.8593072,
              -26.2981197
            ],
            [
              -48.859161,
              -26.2978179
            ],
            [
              -48.8593715,
              -26.2977326
            ],
            [
              -48.8593614,
              -26.2976522
            ],
            [
              -48.8595471,
              -26.2976289
            ]
          ]
        ]
      }
    },
    {
      "type": "Feature",
      "id": "way/1020509282",
      "properties": {
        "timestamp": "2023-04-17T22:12:56Z",
        "version": 3,
        "changeset": 135034366,
        "access": "yes",
        "addr:city": "Joinville",
        "addr:housenumber": "129",
        "addr:postcode": "89209-442",
        "addr:street": "Rua José Fernandes Dias",
        "addr:suburb": "João Costa",
        "alt_name": "UBSF João Costa",
        "amenity": "clinic",
        "brand": "Sistema Único de Saúde",
        "brand:short": "SUS",
        "brand:wikidata": "Q7531056",
        "brand:wikipedia": "pt:Sistema Único de Saúde",
        "building": "yes",
        "fixme": "confirmar localização",
        "healthcare": "clinic",
        "loc_name": "Posto de Saúde João Costa",
        "name": "Unidade Básica de Saúde da Família - Dagoberto Maia",
        "opening_hours": "Mo-Fr 07:00-19:00; Sa,Su,PH off",
        "operator": "Prefeitura Municipal de Joinville",
        "operator:type": "government",
        "ref:CNES": "0416940",
        "short_name": "UBSF Dagoberto Maia",
        "id": "way/1020509282"
      },
      "geometry": {
        "type": "Polygon",
        "coordinates": [
          [
            [
              -48.8191361,
              -26.3531907
            ],
            [
              -48.8191961,
              -26.3531289
            ],
            [
              -48.8192869,
              -26.3531996
            ],
            [
              -48.8192269,
              -26.3532614
            ],
            [
              -48.8191361,
              -26.3531907
            ]
          ]
        ]
      }
    },
    {
      "type": "Feature",
      "id": "way/1025605909",
      "properties": {
        "timestamp": "2024-07-27T23:46:23Z",
        "version": 2,
        "changeset": 154502668,
        "addr:city": "Joinville",
        "addr:housenumber": "469",
        "addr:postcode": "89223-620",
        "addr:street": "Rua Professor Eunaldo Verdi",
        "addr:suburb": "Jardim Sofia",
        "alt_name": "Posto de Saúde",
        "amenity": "clinic",
        "building": "yes",
        "healthcare": "clinic",
        "name": "Unidade Básica de Saúde da Família do Jardim Sofia - Karla Horta Torrens",
        "opening_hours": "Mo-Fr 08:00-17:00",
        "phone": "+55 47 3473 0870",
        "id": "way/1025605909"
      },
      "geometry": {
        "type": "Polygon",
        "coordinates": [
          [
            [
              -48.8324594,
              -26.2354583
            ],
            [
              -48.8323976,
              -26.2353765
            ],
            [
              -48.8325034,
              -26.2353116
            ],
            [
              -48.832565,
              -26.2353936
            ],
            [
              -48.8324594,
              -26.2354583
            ]
          ]
        ]
      }
    },
    {
      "type": "Feature",
      "id": "way/1351966036",
      "properties": {
        "timestamp": "2025-01-17T00:46:06Z",
        "version": 1,
        "changeset": 161438569,
        "addr:city": "Joinville",
        "addr:postcode": "89228-793",
        "addr:street": "Rua Bento José Flores",
        "addr:suburb": "Espinheiros",
        "amenity": "clinic",
        "building": "yes",
        "healthcare": "clinic",
        "name": "Unidade Básica de Saúde da Família da Ilha Fabaro Odilon Colombo",
        "operator": "Prefeitura Municipal de Joinville",
        "operator:type": "public",
        "id": "way/1351966036"
      },
      "geometry": {
        "type": "Polygon",
        "coordinates": [
          [
            [
              -48.7787075,
              -26.2854001
            ],
            [
              -48.77824,
              -26.2854057
            ],
            [
              -48.7782386,
              -26.2853115
            ],
            [
              -48.778349,
              -26.2853102
            ],
            [
              -48.7783478,
              -26.2852266
            ],
            [
              -48.7785702,
              -26.285224
            ],
            [
              -48.7785715,
              -26.2853076
            ],
            [
              -48.7787061,
              -26.285306
            ],
            [
              -48.7787075,
              -26.2854001
            ]
          ]
        ]
      }
    },
    {
      "type": "Feature",
      "id": "node/2616553333",
      "properties": {
        "timestamp": "2014-01-09T20:23:31Z",
        "version": 1,
        "changeset": 19907043,
        "amenity": "telephone",
        "id": "node/2616553333"
      },
      "geometry": {
        "type": "Point",
        "coordinates": [
          -48.8396032,
          -26.3160382
        ]
      }
    },
    {
      "type": "Feature",
      "id": "node/2625519085",
      "properties": {
        "timestamp": "2014-01-17T04:49:25Z",
        "version": 1,
        "changeset": 20045021,
        "amenity": "telephone",
        "payment:telephone_cards": "yes",
        "id": "node/2625519085"
      },
      "geometry": {
        "type": "Point",
        "coordinates": [
          -48.7770847,
          -26.3426731
        ]
      }
    },
    {
      "type": "Feature",
      "id": "node/2804930495",
      "properties": {
        "timestamp": "2014-04-20T21:47:37Z",
        "version": 1,
        "changeset": 21824090,
        "entrance": "yes",
        "id": "node/2804930495"
      },
      "geometry": {
        "type": "Point",
        "coordinates": [
          -48.806669,
          -26.2396764
        ]
      }
    },
    {
      "type": "Feature",
      "id": "node/2828334411",
      "properties": {
        "timestamp": "2014-05-01T06:57:12Z",
        "version": 1,
        "changeset": 22058182,
        "entrance": "yes",
        "id": "node/2828334411"
      },
      "geometry": {
        "type": "Point",
        "coordinates": [
          -48.841277,
          -26.3682954
        ]
      }
    },
    {
      "type": "Feature",
      "id": "node/2942800477",
      "properties": {
        "timestamp": "2014-07-07T23:45:55Z",
        "version": 2,
        "changeset": 24014517,
        "amenity": "clinic",
        "founder:wikipedia": "pt:Eunice Weaver",
        "name": "Sociedade Eunice Weaver",
        "id": "node/2942800477"
      },
      "geometry": {
        "type": "Point",
        "coordinates": [
          -48.8422058,
          -26.3049861
        ]
      }
    },
    {
      "type": "Feature",
      "id": "node/3555317038",
      "properties": {
        "timestamp": "2015-07-11T20:48:41Z",
        "version": 2,
        "changeset": 32570489,
        "barrier": "gate",
        "id": "node/3555317038"
      },
      "geometry": {
        "type": "Point",
        "coordinates": [
          -48.8319936,
          -26.346078
        ]
      }
    },
    {
      "type": "Feature",
      "id": "node/4564261130",
      "properties": {
        "timestamp": "2023-01-18T15:52:17Z",
        "version": 3,
        "changeset": 131428958,
        "amenity": "clinic",
        "healthcare": "clinic",
        "healthcare:speciality": "ophthalmology",
        "name": "Banco de Olhos Joinville",
        "phone": "+55 47 3433 4854;+55 47 3432 7307",
        "website": "https://www.bancodeolhosdejoinville.com.br",
        "id": "node/4564261130"
      },
      "geometry": {
        "type": "Point",
        "coordinates": [
          -48.8445883,
          -26.3054623
        ]
      }
    },
    {
      "type": "Feature",
      "id": "node/4742079307",
      "properties": {
        "timestamp": "2017-03-18T20:49:19Z",
        "version": 1,
        "changeset": 46966078,
        "entrance": "main",
        "id": "node/4742079307"
      },
      "geometry": {
        "type": "Point",
        "coordinates": [
          -48.8453164,
          -26.2902725
        ]
      }
    },
    {
      "type": "Feature",
      "id": "node/7154969824",
      "properties": {
        "timestamp": "2022-07-31T20:29:45Z",
        "version": 6,
        "changeset": 124317947,
        "amenity": "clinic",
        "contact:phone": "+55 47 3043-3050",
        "healthcare": "clinic",
        "healthcare:speciality": "gastroenterology",
        "name": "Instituto de Gastroenterologia e Endoscopia Digestiva",
        "short_name": "IGED",
        "id": "node/7154969824"
      },
      "geometry": {
        "type": "Point",
        "coordinates": [
          -48.8458264,
          -26.2933706
        ]
      }
    },
    {
      "type": "Feature",
      "id": "node/7160958208",
      "properties": {
        "timestamp": "2020-01-26T18:47:40Z",
        "version": 1,
        "changeset": 80106082,
        "amenity": "clinic",
        "contact:phone": "+55 47 3422-0504",
        "healthcare": "clinic",
        "healthcare:speciality": "physiatry",
        "name": "Acquativa Reabilitação e Condicionamento Aquático",
        "id": "node/7160958208"
      },
      "geometry": {
        "type": "Point",
        "coordinates": [
          -48.846273,
          -26.2914035
        ]
      }
    },
    {
      "type": "Feature",
      "id": "node/7315840204",
      "properties": {
        "timestamp": "2020-03-21T16:25:09Z",
        "version": 1,
        "changeset": 82463603,
        "addr:city": "Joinville",
        "addr:postcode": "89214-700",
        "addr:street": "Rua Jativoca",
        "addr:suburb": "Nova Brasília",
        "alt_name": "Posto de Saúde",
        "amenity": "clinic",
        "healthcare": "clinic",
        "name": "Unidade Básica de Saúde da Família - Jativoca",
        "opening_hours": "Mo-Fr 14:00-16:30",
        "phone": "+55 47 3454 1842",
        "id": "node/7315840204"
      },
      "geometry": {
        "type": "Point",
        "coordinates": [
          -48.877555,
          -26.3420946
        ]
      }
    },
    {
      "type": "Feature",
      "id": "node/7319645667",
      "properties": {
        "timestamp": "2022-10-14T03:01:31Z",
        "version": 2,
        "changeset": 127499232,
        "access": "yes",
        "addr:city": "Joinville",
        "addr:postcode": "89239-200",
        "addr:street": "Rua Doutor Carlos Heins Funke",
        "addr:suburb": "Pirabeiraba",
        "amenity": "clinic",
        "brand": "Sistema Único de Saúde",
        "brand:short": "SUS",
        "brand:wikidata": "Q7531056",
        "brand:wikipedia": "pt:Sistema Único de Saúde",
        "healthcare": "clinic",
        "loc_name": "Posto de Saúde Pirabeiraba",
        "name": "Unidade Básica de Saúde da Família Osmar Dalonso",
        "opening_hours": "Mo-Fr 08:00-17:00; Sa,Su,PH off",
        "operator": "Prefeitura Municipal de Joinville",
        "operator:type": "public",
        "phone": "+55 47 3424 0195",
        "short_name": "UBSF Osmar Dalonso",
        "id": "node/7319645667"
      },
      "geometry": {
        "type": "Point",
        "coordinates": [
          -48.9066821,
          -26.2030357
        ]
      }
    },
    {
      "type": "Feature",
      "id": "node/7347336451",
      "properties": {
        "timestamp": "2020-03-30T19:21:28Z",
        "version": 1,
        "changeset": 82840668,
        "addr:city": "Joinville",
        "addr:housenumber": "610",
        "addr:postcode": "89202-050",
        "addr:street": "Rua Doutor Plácido Gomes",
        "addr:suburb": "Anita Garibaldi",
        "alt_name": "Endoville",
        "amenity": "clinic",
        "healthcare": "clinic",
        "name": "Centro de Excelência em Endocrinologia e Diabetes",
        "opening_hours": "Mo-Fr 08:00-12:00, 14:00-19:00",
        "phone": "+55 47 3029 5258",
        "website": "https://www.endoville.com.br",
        "id": "node/7347336451"
      },
      "geometry": {
        "type": "Point",
        "coordinates": [
          -48.8491094,
          -26.3103379
        ]
      }
    },
    {
      "type": "Feature",
      "id": "node/8229853393",
      "properties": {
        "timestamp": "2020-12-15T04:52:29Z",
        "version": 1,
        "changeset": 95845662,
        "addr:city": "Joinville",
        "addr:postcode": "89227-322",
        "addr:street": "Rua Joaquim José Felipe",
        "addr:suburb": "Jardim Iririú",
        "amenity": "clinic",
        "healthcare": "clinic",
        "name": "Unidade Básica de Saúde da Família Dom Gregório - Francisco Martins de Oliveira",
        "id": "node/8229853393"
      },
      "geometry": {
        "type": "Point",
        "coordinates": [
          -48.8034151,
          -26.2663447
        ]
      }
    }
  ]
}
