{
  "type": "FeatureCollection",
  "features": [
    {
      "type": "Feature",
      "id": "way/255541759",
      "properties": {
        "timestamp": "2020-03-18T17:34:15Z",
        "version": 7,
        "changeset": 82357680,
        "addr:city": "Joinville",
        "addr:housenumber": "4027",
        "addr:postcode": "89233-000",
        "addr:street": "Rua Santa Catarina",
        "addr:suburb": "Santa Catarina",
        "alt_name": "CEI Célio Gomes de Oliveira",
        "amenity": "kindergarten",
        "name": "Centro de Educação Infantil - Célio Gomes de Oliveira",
        "opening_hours": "Mo-Fr 08:00-17:00",
        "phone": "+55 47 3426 6176",
        "id": "way/255541759"
      },
      "geometry": {
        "type": "Polygon",
        "coordinates": [
          [
            [
              -48.8456775,
              -26.3570629
            ],
            [
              -48.8458154,
              -26.3570779
            ],
            [
              -48.8460059,
              -26.3570985
            ],
            [
              -48.8459834,
              -26.3572075
            ],
            [
              -48.8459416,
              -26.3574135
            ],
            [
              -48.8453774,
              -26.3573382
            ],
            [
              -48.8456775,
              -26.3570629
            ]
          ]
        ]
      }
    },
    {
      "type": "Feature",
      "id": "way/256726578",
      "properties": {
        "timestamp": "2020-03-18T15:59:19Z",
        "version": 9,
        "changeset": 82354652,
        "addr:city": "Joinville",
        "addr:housenumber": "154",
        "addr:postcode": "89235-398",
        "addr:street": "Rua São Clemente",
        "addr:suburb": "Itinga",
        "alt_name": "CEI Deputado Pedro Paulo Hings Colin",
        "amenity": "kindergarten",
        "name": "Centro de Educação Infantil - Deputado Pedro Paulo Hings Colin",
        "opening_hours": "Mo-Fr 07:00-18:00",
        "operator": "Prefeitura de Joinville",
        "phone": "+55 47 3466-4312",
        "id": "way/256726578"
      },
      "geometry": {
        "type": "Polygon",
        "coordinates": [
          [
            [
              -48.8211168,
              -26.383164
            ],
            [
              -48.8207901,
              -26.3836378
            ],
            [
              -48.8206508,
              -26.3838397
            ],
            [
              -48.8201975,
              -26.3835842
            ],
            [
              -48.8205042,
              -26.3831578
            ],
            [
              -48.8211168,
              -26.383164
            ]
          ]
        ]
      }
    },
    {
      "type": "Feature",
      "id": "way/256765972",
      "properties": {
        "timestamp": "2022-01-28T17:13:08Z",
        "version": 5,
        "changeset": 116716145,
        "addr:city": "Joinville",
        "addr:housenumber": "817",
        "addr:postcode": "89215-110",
        "addr:street": "Rua do Campo",
        "addr:suburb": "Morro do Meio",
        "alt_name": "CEI Morro do Meio",
        "amenity": "kindergarten",
        "building": "yes",
        "name": "Centro de Educação Infantil - Morro do Meio",
        "opening_hours": "Mo-Fr 07:00-18:00",
        "phone": "+55 47 3454 0169",
        "id": "way/256765972"
      },
      "geometry": {
        "type": "Polygon",
        "coordinates": [
          [
            [
              -48.9052348,
              -26.3363601
            ],
            [
              -48.905208,
              -26.3363626
            ],
            [
              -48.9052115,
              -26.3363914
            ],
            [
              -48.905101,
              -26.3364002
            ],
            [
              -48.9050986,
              -26.3363762
            ],
            [
              -48.9050939,
              -26.3363767
            ],
            [
              -48.9050617,
              -26.336131
            ],
            [
              -48.9051937,
              -26.3361188
            ],
            [
              -48.9051944,
              -26.3361243
            ],
            [
              -48.9052051,
              -26.3361232
            ],
            [
              -48.9052107,
              -26.3361678
            ],
            [
              -48.9052018,
              -26.3361687
            ],
            [
              -48.905207,
              -26.33621
            ],
            [
              -48.9052013,
              -26.3362105
            ],
            [
              -48.9052132,
              -26.3363078
            ],
            [
              -48.9052281,
              -26.3363068
            ],
            [
              -48.9052348,
              -26.3363601
            ]
          ]
        ]
      }
    },
    {
      "type": "Feature",
      "id": "way/256796003",
      "properties": {
        "timestamp": "2020-03-18T16:13:31Z",
        "version": 4,
        "changeset": 82355133,
        "addr:city": "Joinville",
        "addr:housenumber": "50",
        "addr:postcode": "89226-634",
        "addr:street": "Rua Crater",
        "addr:suburb": "Jardim Paraíso",
        "alt_name": "CEI Bem-Me-Quer",
        "amenity": "kindergarten",
        "name": "Centro de Educação Infantil - Bem Me Quer",
        "opening_hours": "Mo-Fr 07:30-17:30",
        "phone": "+55 47 3427 3877",
        "id": "way/256796003"
      },
      "geometry": {
        "type": "Polygon",
        "coordinates": [
          [
            [
              -48.8295551,
              -26.2066281
            ],
            [
              -48.8304722,
              -26.2073252
            ],
            [
              -48.8302047,
              -26.2076051
            ],
            [
              -48.8292845,
              -26.2068823
            ],
            [
              -48.8295551,
              -26.2066281
            ]
          ]
        ]
      }
    },
    {
      "type": "Feature",
      "id": "way/256796004",
      "properties": {
        "timestamp": "2022-07-03T00:27:30Z",
        "version": 3,
        "changeset": 123136539,
        "access": "yes",
        "alt_name": "C.E.I Paraíso da Criança",
        "amenity": "kindergarten",
        "name": "Creche Paraíso da Criança",
        "official_name": "Centro de Educação Infantil Paraíso da Criança",
        "operator": "Prefeitura Municipal de Joinville",
        "operator:type": "public",
        "short_name": "CEI Paraíso da Criança",
        "id": "way/256796004"
      },
      "geometry": {
        "type": "Polygon",
        "coordinates": [
          [
            [
              -48.8243361,
              -26.2120719
            ],
            [
              -48.8246605,
              -26.2117318
            ],
            [
              -48.8250203,
              -26.2119983
            ],
            [
              -48.8247017,
              -26.2123432
            ],
            [
              -48.8243361,
              -26.2120719
            ]
          ]
        ]
      }
    },
    {
      "type": "Feature",
      "id": "way/256930821",
      "properties": {
        "timestamp": "2020-03-18T16:54:58Z",
        "version": 5,
        "changeset": 82356515,
        "addr:city": "Joinville",
        "addr:housenumber": "6793",
        "addr:postcode": "89231-595",
        "addr:street": "Rua Monsenhor Gercino",
        "addr:suburb": "Paranaguamirim",
        "alt_name": "CEI Alegria de Viver",
        "amenity": "kindergarten",
        "name": "Centro de Educação Infantil - Alegria de Viver",
        "opening_hours": "Mo-Fr 07:00-18:00",
        "phone": "+55 47 3463 5736",
        "id": "way/256930821"
      },
      "geometry": {
        "type": "Polygon",
        "coordinates": [
          [
            [
              -48.7918302,
              -26.3459202
            ],
            [
              -48.7909291,
              -26.3453592
            ],
            [
              -48.7912696,
              -26.344977
            ],
            [
              -48.7920125,
              -26.3457168
            ],
            [
              -48.7918302,
              -26.3459202
            ]
          ]
        ]
      }
    },
    {
      "type": "Feature",
      "id": "way/256930822",
      "properties": {
        "timestamp": "2020-03-18T17:09:42Z",
        "version": 5,
        "changeset": 82357011,
        "addr:city": "Joinville",
        "addr:housenumber": "357",
        "addr:postcode": "89231-750",
        "addr:street": "Rua Alfredo Wersdoerfer",
        "addr:suburb": "Paranaguamirim",
        "alt_name": "CEI Pao de Mel",
        "amenity": "kindergarten",
        "name": "Centro de Educação Infantil - Pão de Mel",
        "opening_hours": "Mo-Fr 07:00-18:00",
        "phone": "+55 47 3465 5684",
        "wheelchair": "limited",
        "id": "way/256930822"
      },
      "geometry": {
        "type": "Polygon",
        "coordinates": [
          [
            [
              -48.781272,
              -26.3464622
            ],
            [
              -48.781119,
              -26.3466993
            ],
            [
              -48.7808661,
              -26.347091
            ],
            [
              -48.7805359,
              -26.3470478
            ],
            [
              -48.780818,
              -26.3463389
            ],
            [
              -48.781272,
              -26.3464622
            ]
          ]
        ]
      }
    },
    {
      "type": "Feature",
      "id": "way/257155330",
      "properties": {
        "timestamp": "2020-03-21T16:39:53Z",
        "version": 6,
        "changeset": 82464002,
        "addr:city": "Joinville",
        "addr:housenumber": "85",
        "addr:postcode": "89214-153",
        "addr:street": "Rua Caxambu do Sul",
        "addr:suburb": "São Marcos",
        "alt_name": "CEI Mundo Azul",
        "amenity": "kindergarten",
        "name": "Centro de Educação Infantil - Mundo Azul",
        "opening_hours": "Mo-Fr 07:30-17:30",
        "phone": "+55 47 3438 0497",
        "id": "way/257155330"
      },
      "geometry": {
        "type": "Polygon",
        "coordinates": [
          [
            [
              -48.8750017,
              -26.3194187
            ],
            [
              -48.875003,
              -26.3194601
            ],
            [
              -48.8750104,
              -26.3197036
            ],
            [
              -48.8750118,
              -26.3197502
            ],
            [
              -48.8748719,
              -26.3197536
            ],
            [
              -48.8748774,
              -26.3199336
            ],
            [
              -48.8747485,
              -26.3199367
            ],
            [
              -48.8747449,
              -26.3198204
            ],
            [
              -48.8747444,
              -26.3198021
            ],
            [
              -48.8747328,
              -26.3194253
            ],
            [
              -48.8749601,
              -26.3194186
            ],
            [
              -48.8750017,
              -26.3194187
            ]
          ]
        ]
      }
    },
    {
      "type": "Feature",
      "id": "way/257158642",
      "properties": {
        "timestamp": "2020-03-18T13:30:50Z",
        "version": 4,
        "changeset": 82349584,
        "addr:city": "Joinville",
        "addr:housenumber": "30",
        "addr:postcode": "89230-620",
        "addr:street": "Rua Adolpho Wille Júnior",
        "addr:suburb": "Adhemar Garcia",
        "alt_name": "CEI Espaço da Criança",
        "amenity": "kindergarten",
        "name": "Centro de Educação Infantil Espaço da Criança",
        "opening_hours": "Mo-Fr 08:00-17:00",
        "phone": "+55 47 3426 4977",
        "id": "way/257158642"
      },
      "geometry": {
        "type": "Polygon",
        "coordinates": [
          [
            [
              -48.803241,
              -26.3291274
            ],
            [
              -48.8025677,
              -26.3283444
            ],
            [
              -48.802958,
              -26.3280748
            ],
            [
              -48.8036313,
              -26.3288578
            ],
            [
              -48.803241,
              -26.3291274
            ]
          ]
        ]
      }
    },
    {
      "type": "Feature",
      "id": "way/257844063",
      "properties": {
        "timestamp": "2020-03-18T15:16:22Z",
        "version": 6,
        "changeset": 82353473,
        "addr:city": "Joinville",
        "addr:housenumber": "148",
        "addr:postcode": "89210-050",
        "addr:street": "Rua Botafogo",
        "addr:suburb": "Floresta",
        "alt_name": "CEI Itaum",
        "amenity": "kindergarten",
        "barrier": "wall",
        "name": "Centro de Educação Infantil - Itaum",
        "opening_hours": "Mo-Fr 07:00-18:00",
        "phone": "+55 47 3465 0823",
        "id": "way/257844063"
      },
      "geometry": {
        "type": "Polygon",
        "coordinates": [
          [
            [
              -48.8442154,
              -26.3275421
            ],
            [
              -48.8442135,
              -26.3276172
            ],
            [
              -48.8442088,
              -26.3278032
            ],
            [
              -48.844206,
              -26.3279188
            ],
            [
              -48.8441189,
              -26.3279195
            ],
            [
              -48.8439315,
              -26.3279195
            ],
            [
              -48.8438655,
              -26.3279195
            ],
            [
              -48.8438671,
              -26.3278009
            ],
            [
              -48.8438692,
              -26.3276437
            ],
            [
              -48.8438707,
              -26.3275355
            ],
            [
              -48.844055,
              -26.327539
            ],
            [
              -48.844066,
              -26.3275392
            ],
            [
              -48.8440772,
              -26.3275395
            ],
            [
              -48.8442154,
              -26.3275421
            ]
          ]
        ]
      }
    },
    {
      "type": "Feature",
      "id": "way/258591473",
      "properties": {
        "timestamp": "2020-05-20T13:43:22Z",
        "version": 4,
        "changeset": 85503323,
        "addr:city": "Joinville",
        "addr:housenumber": "510",
        "addr:postcode": "89233-700",
        "addr:street": "Rua dos Esportistas",
        "addr:suburb": "Itinga",
        "amenity": "kindergarten",
        "building": "kindergarten",
        "building:levels": "2",
        "name": "Centro de Educação Infantil Vovó Juliana",
        "roof:orientation": "along",
        "roof:shape": "hipped",
        "id": "way/258591473"
      },
      "geometry": {
        "type": "Polygon",
        "coordinates": [
          [
            [
              -48.831458,
              -26.3790336
            ],
            [
              -48.8317978,
              -26.3790602
            ],
            [
              -48.831785,
              -26.3791915
            ],
            [
              -48.8314452,
              -26.3791649
            ],
            [
              -48.831458,
              -26.3790336
            ]
          ]
        ]
      }
    },
    {
      "type": "Feature",
      "id": "way/259685151",
      "properties": {
        "timestamp": "2016-12-06T00:13:27Z",
        "version": 3,
        "changeset": 44195899,
        "addr:city": "Joinville",
        "addr:postcode": "89230-629",
        "addr:street": "Avenida Alwino Hansen",
        "addr:suburb": "Adhemar Garcia",
        "amenity": "kindergarten",
        "name": "Centro de Educação Infantil Adhemar Garcia",
        "id": "way/259685151"
      },
      "geometry": {
        "type": "Polygon",
        "coordinates": [
          [
            [
              -48.8038266,
              -26.3151073
            ],
            [
              -48.8042075,
              -26.3153326
            ],
            [
              -48.8042133,
              -26.3153863
            ],
            [
              -48.8039214,
              -26.3158005
            ],
            [
              -48.8035037,
              -26.3155648
            ],
            [
              -48.8038266,
              -26.3151073
            ]
          ]
        ]
      }
    },
    {
      "type": "Feature",
      "id": "way/259685152",
      "properties": {
        "timestamp": "2020-03-18T16:25:38Z",
        "version": 2,
        "changeset": 82355550,
        "addr:city": "Joinville",
        "addr:housenumber": "2606",
        "addr:postcode": "89229-102",
        "addr:street": "Rua Fátima",
        "addr:suburb": "Fátima",
        "alt_name": "CEI Lírio do Campo",
        "amenity": "kindergarten",
        "name": "Centro de Educação Infantil - Lírio do Campo",
        "opening_hours": "Mo-Fr 07:30-17:30",
        "phone": "+55 47 3426 6283",
        "id": "way/259685152"
      },
      "geometry": {
        "type": "Polygon",
        "coordinates": [
          [
            [
              -48.8149771,
              -26.3175967
            ],
            [
              -48.8151632,
              -26.3180977
            ],
            [
              -48.8146384,
              -26.3182543
            ],
            [
              -48.8144523,
              -26.3177533
            ],
            [
              -48.8149771,
              -26.3175967
            ]
          ]
        ]
      }
    },
    {
      "type": "Feature",
      "id": "way/259685153",
      "properties": {
        "timestamp": "2020-03-18T16:20:28Z",
        "version": 5,
        "changeset": 82355363,
        "addr:city": "Joinville",
        "addr:housenumber": "240",
        "addr:postcode": "89230-040",
        "addr:street": "Rua Damázio Matias de Oliveira",
        "addr:suburb": "Jarivatuba",
        "alt_name": "CEI Fátima",
        "amenity": "kindergarten",
        "name": "Centro de Educação Infantil Municipal - Fátima",
        "opening_hours": "Mo-Fr 07:30-17:30",
        "phone": "+55 47 3426 3435",
        "id": "way/259685153"
      },
      "geometry": {
        "type": "Polygon",
        "coordinates": [
          [
            [
              -48.810878,
              -26.3316757
            ],
            [
              -48.810904,
              -26.3321744
            ],
            [
              -48.8107222,
              -26.3322161
            ],
            [
              -48.8105554,
              -26.331933
            ],
            [
              -48.810513,
              -26.3319465
            ],
            [
              -48.810379,
              -26.331748
            ],
            [
              -48.8103941,
              -26.3316414
            ],
            [
              -48.810878,
              -26.3316757
            ]
          ]
        ]
      }
    },
    {
      "type": "Feature",
      "id": "way/264002788",
      "properties": {
        "timestamp": "2020-03-18T14:57:28Z",
        "version": 5,
        "changeset": 82352893,
        "addr:city": "Joinville",
        "addr:housenumber": "25",
        "addr:postcode": "89228-793",
        "addr:street": "Rua Bento José Flores",
        "addr:suburb": "Espinheiros",
        "alt_name": "CEI Miraci Dereti",
        "amenity": "kindergarten",
        "name": "Centro de Educação Infantil - Miraci Dereti",
        "opening_hours": "Mo-Fr 07:30-17:30",
        "phone": "+55 47 3434 0825",
        "id": "way/264002788"
      },
      "geometry": {
        "type": "Polygon",
        "coordinates": [
          [
            [
              -48.7791489,
              -26.2850397
            ],
            [
              -48.7794491,
              -26.2854958
            ],
            [
              -48.7794649,
              -26.2855208
            ],
            [
              -48.779467,
              -26.2855414
            ],
            [
              -48.7794634,
              -26.2855607
            ],
            [
              -48.7794455,
              -26.2855799
            ],
            [
              -48.7793165,
              -26.2856564
            ],
            [
              -48.7791553,
              -26.2857393
            ],
            [
              -48.7790715,
              -26.2857643
            ],
            [
              -48.7786531,
              -26.285127
            ],
            [
              -48.7791489,
              -26.2850397
            ]
          ]
        ]
      }
    },
    {
      "type": "Feature",
      "id": "way/264002789",
      "properties": {
        "timestamp": "2016-09-21T05:49:07Z",
        "version": 2,
        "changeset": 42314510,
        "addr:city": "Joinville",
        "addr:housenumber": "528",
        "addr:postcode": "89228-770",
        "addr:street": "Rua Sophia Noack Pereira",
        "addr:suburb": "Espinheiros",
        "amenity": "kindergarten",
        "name": "Centro de Educação Infantil Oscar Antônio Geraldo Pereira",
        "id": "way/264002789"
      },
      "geometry": {
        "type": "Polygon",
        "coordinates": [
          [
            [
              -48.776411,
              -26.2843536
            ],
            [
              -48.776175,
              -26.2843556
            ],
            [
              -48.7761717,
              -26.2840535
            ],
            [
              -48.7764077,
              -26.2840514
            ],
            [
              -48.776411,
              -26.2843536
            ]
          ]
        ]
      }
    },
    {
      "type": "Feature",
      "id": "way/264380730",
      "properties": {
        "timestamp": "2020-03-18T15:22:29Z",
        "version": 4,
        "changeset": 82353630,
        "addr:city": "Joinville",
        "addr:housenumber": "152",
        "addr:postcode": "89209-015",
        "addr:street": "Rua Santa Izabel",
        "addr:suburb": "João Costa",
        "alt_name": "CEI Estrelinha Brilhante",
        "amenity": "kindergarten",
        "name": "Centro de Educação Infantil - Estrelinha Brilhante",
        "opening_hours": "Mo-Fr 07:30-17:30",
        "phone": "+55 47 3466 0778",
        "id": "way/264380730"
      },
      "geometry": {
        "type": "Polygon",
        "coordinates": [
          [
            [
              -48.8141957,
              -26.3412172
            ],
            [
              -48.8146049,
              -26.3415052
            ],
            [
              -48.8142393,
              -26.341922
            ],
            [
              -48.8138305,
              -26.3416345
            ],
            [
              -48.8141957,
              -26.3412172
            ]
          ]
        ]
      }
    },
    {
      "type": "Feature",
      "id": "way/264852368",
      "properties": {
        "timestamp": "2020-03-18T14:20:11Z",
        "version": 4,
        "changeset": 82351521,
        "addr:city": "Joinville",
        "addr:housenumber": "749",
        "addr:postcode": "89202-423",
        "addr:street": "Rua Coronel Procópio Gomes",
        "addr:suburb": "Bucarein",
        "alt_name": "CEI Espaço Encantado",
        "amenity": "kindergarten",
        "name": "Centro de Educação Infantil - Espaço Encantado",
        "opening_hours": "Mo-Fr 07:00-18:00",
        "phone": "+55 47 3423 1678",
        "id": "way/264852368"
      },
      "geometry": {
        "type": "Polygon",
        "coordinates": [
          [
            [
              -48.84061,
              -26.3121553
            ],
            [
              -48.8405922,
              -26.3124722
            ],
            [
              -48.8403043,
              -26.3124618
            ],
            [
              -48.8403064,
              -26.3124141
            ],
            [
              -48.8402027,
              -26.3124104
            ],
            [
              -48.8402099,
              -26.3122072
            ],
            [
              -48.8402961,
              -26.3121439
            ],
            [
              -48.84061,
              -26.3121553
            ]
          ]
        ]
      }
    },
    {
      "type": "Feature",
      "id": "way/266939352",
      "properties": {
        "timestamp": "2020-03-18T17:22:16Z",
        "version": 3,
        "changeset": 82357333,
        "addr:city": "Joinville",
        "addr:housenumber": "141",
        "addr:postcode": "89239-120",
        "addr:street": "Rua Pastor Georg Bürger",
        "addr:suburb": "Pirabeiraba",
        "alt_name": "CEI Cachinhos de Ouro",
        "amenity": "kindergarten",
        "name": "Centro de Educação Infantil - Cachinhos de Ouro",
        "opening_hours": "Mo-Fr 07:00-18:00",
        "phone": "+55 47 3424 0292",
        "id": "way/266939352"
      },
      "geometry": {
        "type": "Polygon",
        "coordinates": [
          [
            [
              -48.9095584,
              -26.2043631
            ],
            [
              -48.9098426,
              -26.2043768
            ],
            [
              -48.9099294,
              -26.2043738
            ],
            [
              -48.9099027,
              -26.2046481
            ],
            [
              -48.9100187,
              -26.2047885
            ],
            [
              -48.9099328,
              -26.2049159
            ],
            [
              -48.9094257,
              -26.2049067
            ],
            [
              -48.9095584,
              -26.2043631
            ]
          ]
        ]
      }
    },
    {
      "type": "Feature",
      "id": "way/268204318",
      "properties": {
        "timestamp": "2020-03-30T13:30:23Z",
        "version": 5,
        "changeset": 82826496,
        "addr:city": "Joinville",
        "addr:housenumber": "32",
        "addr:postcode": "89237-200",
        "addr:street": "Rua Santa Edviges",
        "addr:suburb": "Vila Nova",
        "amenity": "kindergarten",
        "name": "Centro de Educação Infantil - Raio de Sol",
        "opening_hours": "Mo-Fr 07:30-17:30",
        "phone": "+55 47 3434 0876",
        "id": "way/268204318"
      },
      "geometry": {
        "type": "Polygon",
        "coordinates": [
          [
            [
              -48.8988029,
              -26.2848071
            ],
            [
              -48.8988147,
              -26.284303
            ],
            [
              -48.8993397,
              -26.2843129
            ],
            [
              -48.8993267,
              -26.2848692
            ],
            [
              -48.8988666,
              -26.2848606
            ],
            [
              -48.8988365,
              -26.2848504
            ],
            [
              -48.8988123,
              -26.2848323
            ],
            [
              -48.8988029,
              -26.2848071
            ]
          ]
        ]
      }
    },
    {
      "type": "Feature",
      "id": "way/270767164",
      "properties": {
        "timestamp": "2020-03-18T15:30:29Z",
        "version": 2,
        "changeset": 82353834,
        "addr:city": "Joinville",
        "addr:housenumber": "34",
        "addr:postcode": "89227-315",
        "addr:street": "Rua Xaxim",
        "addr:suburb": "Iririú",
        "alt_name": "CEI Ivan Rodrigues",
        "amenity": "kindergarten",
        "name": "Centro de Educação Infantil - Ivan Rodrigues",
        "opening_hours": "Mo-Fr 07:00-18:00",
        "phone": "+55 47 3437 5119",
        "id": "way/270767164"
      },
      "geometry": {
        "type": "Polygon",
        "coordinates": [
          [
            [
              -48.8265109,
              -26.2704938
            ],
            [
              -48.8265893,
              -26.270749
            ],
            [
              -48.8266196,
              -26.270844
            ],
            [
              -48.8266169,
              -26.2708629
            ],
            [
              -48.8266063,
              -26.2708876
            ],
            [
              -48.8265851,
              -26.2709037
            ],
            [
              -48.8265532,
              -26.2709059
            ],
            [
              -48.8265297,
              -26.2709
            ],
            [
              -48.8264771,
              -26.2708532
            ],
            [
              -48.8262625,
              -26.2706621
            ],
            [
              -48.8265109,
              -26.2704938
            ]
          ]
        ]
      }
    },
    {
      "type": "Feature",
      "id": "way/273383266",
      "properties": {
        "timestamp": "2020-03-18T14:22:21Z",
        "version": 3,
        "changeset": 82351607,
        "addr:city": "Joinville",
        "addr:housenumber": "240",
        "addr:postcode": "89228-400",
        "addr:street": "Rua Vicente Celestino",
        "addr:suburb": "Comasa",
        "alt_name": "CEI Esperança",
        "amenity": "kindergarten",
        "name": "Centro de Educação Infantil - Esperança",
        "opening_hours": "Mo-Fr 07:30-17:30",
        "phone": "+55 47 3434 1779",
        "id": "way/273383266"
      },
      "geometry": {
        "type": "Polygon",
        "coordinates": [
          [
            [
              -48.8000537,
              -26.2815358
            ],
            [
              -48.8000573,
              -26.2815367
            ],
            [
              -48.8004985,
              -26.2818507
            ],
            [
              -48.8005023,
              -26.2818576
            ],
            [
              -48.8005012,
              -26.2818644
            ],
            [
              -48.8002003,
              -26.2821959
            ],
            [
              -48.7997531,
              -26.2818727
            ],
            [
              -48.8000503,
              -26.2815374
            ],
            [
              -48.8000537,
              -26.2815358
            ]
          ]
        ]
      }
    },
    {
      "type": "Feature",
      "id": "way/273590242",
      "properties": {
        "timestamp": "2014-04-11T21:28:14Z",
        "version": 1,
        "changeset": 21635487,
        "amenity": "kindergarten",
        "name": "Centro de Educação Infantil Espinheiros",
        "id": "way/273590242"
      },
      "geometry": {
        "type": "Polygon",
        "coordinates": [
          [
            [
              -48.7944489,
              -26.2798545
            ],
            [
              -48.7942878,
              -26.2800125
            ],
            [
              -48.7934219,
              -26.279836
            ],
            [
              -48.7935646,
              -26.2792902
            ],
            [
              -48.7936115,
              -26.2792451
            ],
            [
              -48.7936784,
              -26.2792451
            ],
            [
              -48.793732,
              -26.2792722
            ],
            [
              -48.7944489,
              -26.2798545
            ]
          ]
        ]
      }
    },
    {
      "type": "Feature",
      "id": "way/273845375",
      "properties": {
        "timestamp": "2014-04-24T06:23:19Z",
        "version": 2,
        "changeset": 21900829,
        "amenity": "kindergarten",
        "name": "Centro de Educação Infantil Professora Herondina da Silva Vieira",
        "id": "way/273845375"
      },
      "geometry": {
        "type": "Polygon",
        "coordinates": [
          [
            [
              -48.8537381,
              -26.3429288
            ],
            [
              -48.8537313,
              -26.3432325
            ],
            [
              -48.8533906,
              -26.3432256
            ],
            [
              -48.8531832,
              -26.3432219
            ],
            [
              -48.8529176,
              -26.3432179
            ],
            [
              -48.8527027,
              -26.343214
            ],
            [
              -48.8525446,
              -26.3432112
            ],
            [
              -48.8525216,
              -26.3431436
            ],
            [
              -48.8524691,
              -26.3429885
            ],
            [
              -48.8524662,
              -26.3429791
            ],
            [
              -48.8524633,
              -26.3429699
            ],
            [
              -48.8524272,
              -26.3428711
            ],
            [
              -48.8524135,
              -26.3428301
            ],
            [
              -48.852837,
              -26.3428444
            ],
            [
              -48.8528458,
              -26.3428852
            ],
            [
              -48.8528524,
              -26.342916
            ],
            [
              -48.85344,
              -26.3429266
            ],
            [
              -48.8534632,
              -26.3429501
            ],
            [
              -48.8535028,
              -26.3429619
            ],
            [
              -48.8535163,
              -26.3429659
            ],
            [
              -48.853571,
              -26.3429558
            ],
            [
              -48.8536128,
              -26.3429225
            ],
            [
              -48.8537381,
              -26.3429288
            ]
          ]
        ]
      }
    },
    {
      "type": "Feature",
      "id": "way/273845381",
      "properties": {
        "timestamp": "2020-03-18T15:13:38Z",
        "version": 3,
        "changeset": 82353391,
        "addr:city": "Joinville",
        "addr:housenumber": "352",
        "addr:postcode": "89212-215",
        "addr:street": "Rua Pedro Castro Breis",
        "addr:suburb": "Floresta",
        "alt_name": "CEI Herondina da Silva Vieira",
        "amenity": "kindergarten",
        "building:levels": "1",
        "name": "Centro de Educação Infantil - Herondina da Silva Vieira",
        "opening_hours": "Mo-Fr 07:00-18:00",
        "phone": "+55 47 3436 1588",
        "roof:orientation": "along",
        "roof:shape": "half-rounded",
        "id": "way/273845381"
      },
      "geometry": {
        "type": "Polygon",
        "coordinates": [
          [
            [
              -48.8533157,
              -26.3425166
            ],
            [
              -48.8533085,
              -26.3428356
            ],
            [
              -48.8530971,
              -26.3428318
            ],
            [
              -48.8531043,
              -26.3425128
            ],
            [
              -48.8533157,
              -26.3425166
            ]
          ]
        ]
      }
    },
    {
      "type": "Feature",
      "id": "way/274911315",
      "properties": {
        "timestamp": "2020-03-18T16:49:33Z",
        "version": 4,
        "changeset": 82356324,
        "addr:city": "Joinville",
        "addr:housenumber": "97",
        "addr:postcode": "89213-430",
        "addr:street": "Rua Bom Retiro",
        "addr:suburb": "Nova Brasília",
        "alt_name": "CEI Doce Infancia",
        "amenity": "kindergarten",
        "building": "kindergarten",
        "building:levels": "1",
        "name": "Centro de Educação Infantil - Doce Infância",
        "opening_hours": "Mo-Fr 07:00-18:00",
        "phone": "+55 47 3426 5860",
        "roof:orientation": "along",
        "roof:shape": "hipped",
        "id": "way/274911315"
      },
      "geometry": {
        "type": "Polygon",
        "coordinates": [
          [
            [
              -48.8672299,
              -26.3311934
            ],
            [
              -48.8672299,
              -26.3313198
            ],
            [
              -48.8671092,
              -26.3313198
            ],
            [
              -48.8671092,
              -26.3313926
            ],
            [
              -48.8669887,
              -26.3313926
            ],
            [
              -48.8669888,
              -26.3313197
            ],
            [
              -48.866893,
              -26.3313197
            ],
            [
              -48.866893,
              -26.3311933
            ],
            [
              -48.8672299,
              -26.3311934
            ]
          ]
        ]
      }
    },
    {
      "type": "Feature",
      "id": "way/275824648",
      "properties": {
        "timestamp": "2020-03-18T14:00:58Z",
        "version": 2,
        "changeset": 82350776,
        "addr:city": "Joinville",
        "addr:housenumber": "1499",
        "addr:postcode": "89226-220",
        "addr:street": "Rua São Januário",
        "addr:suburb": "Aventureiro",
        "alt_name": "CEI Namir Alfredo Zattar",
        "amenity": "kindergarten",
        "name": "Centro de Educação Infantil - Namir Alfredo Zattar",
        "opening_hours": "Mo-Fr 07:00-18:00",
        "phone": "+55 47 3435 7604",
        "id": "way/275824648"
      },
      "geometry": {
        "type": "Polygon",
        "coordinates": [
          [
            [
              -48.806717,
              -26.236931
            ],
            [
              -48.8077221,
              -26.2359936
            ],
            [
              -48.8079661,
              -26.2361682
            ],
            [
              -48.8069901,
              -26.2371038
            ],
            [
              -48.806717,
              -26.236931
            ]
          ]
        ]
      }
    },
    {
      "type": "Feature",
      "id": "way/276448986",
      "properties": {
        "timestamp": "2020-03-18T14:10:50Z",
        "version": 2,
        "changeset": 82351156,
        "addr:city": "Joinville",
        "addr:housenumber": "769",
        "addr:postcode": "89206-200",
        "addr:street": "Rua São Miguel",
        "addr:suburb": "Boa Vista",
        "alt_name": "CEI Pedacinho do Céu",
        "amenity": "kindergarten",
        "name": "Centro de Educação Infantil - Pedacinho do Céu",
        "opening_hours": "Mo-Fr 07:00-18:00",
        "phone": "+55 47 3434 2063",
        "id": "way/276448986"
      },
      "geometry": {
        "type": "Polygon",
        "coordinates": [
          [
            [
              -48.8145984,
              -26.3035973
            ],
            [
              -48.8145834,
              -26.3035967
            ],
            [
              -48.8145624,
              -26.3035919
            ],
            [
              -48.8143976,
              -26.3035157
            ],
            [
              -48.8143717,
              -26.3035037
            ],
            [
              -48.8142855,
              -26.3034638
            ],
            [
              -48.8142514,
              -26.303448
            ],
            [
              -48.8142616,
              -26.3034303
            ],
            [
              -48.8144298,
              -26.3031381
            ],
            [
              -48.8145906,
              -26.3032125
            ],
            [
              -48.8147853,
              -26.3033026
            ],
            [
              -48.8147361,
              -26.3033881
            ],
            [
              -48.8147158,
              -26.3034234
            ],
            [
              -48.8147065,
              -26.3034395
            ],
            [
              -48.8146252,
              -26.3035807
            ],
            [
              -48.8146127,
              -26.3035913
            ],
            [
              -48.8145984,
              -26.3035973
            ]
          ]
        ]
      }
    },
    {
      "type": "Feature",
      "id": "way/278467853",
      "properties": {
        "timestamp": "2021-11-09T16:58:54Z",
        "version": 4,
        "changeset": 113573975,
        "addr:city": "Joinville",
        "addr:housenumber": "105",
        "addr:postcode": "89233-395",
        "addr:street": "Rua Cidade de Mossoró",
        "addr:suburb": "Profipo",
        "alt_name": "CEI Pequeno Príncipe",
        "amenity": "kindergarten",
        "name": "Centro de Educação Infantil - Pequeno Príncipe",
        "opening_hours": "Mo-Fr 07:00-18:00",
        "phone": "+55 47 3465 6444",
        "id": "way/278467853"
      },
      "geometry": {
        "type": "Polygon",
        "coordinates": [
          [
            [
              -48.8412736,
              -26.3721088
            ],
            [
              -48.8412401,
              -26.3722206
            ],
            [
              -48.8412369,
              -26.372229
            ],
            [
              -48.84123,
              -26.3722345
            ],
            [
              -48.8412208,
              -26.3722363
            ],
            [
              -48.8412086,
              -26.372235
            ],
            [
              -48.8409409,
              -26.3721715
            ],
            [
              -48.8405794,
              -26.3720821
            ],
            [
              -48.8407102,
              -26.3716574
            ],
            [
              -48.8410738,
              -26.3717401
            ],
            [
              -48.8409816,
              -26.3720395
            ],
            [
              -48.8412736,
              -26.3721088
            ]
          ]
        ]
      }
    },
    {
      "type": "Feature",
      "id": "way/278726088",
      "properties": {
        "timestamp": "2022-11-22T07:51:36Z",
        "version": 3,
        "changeset": 129225790,
        "access": "yes",
        "addr:city": "Joinville",
        "addr:postcode": "89235-001",
        "addr:street": "Rua Adolfo da Veiga",
        "addr:suburb": "Boehmerwald",
        "alt_name": "C.E.I. Eliane Krüger",
        "amenity": "kindergarten",
        "barrier": "wall",
        "name": "Creche Eliane Krüger",
        "official_name": "Centro de Educação Infantil Eliane Krüger",
        "opening_hours": "Mo-Fr 07:00-18:00",
        "operator": "Prefeitura Municipal de Joinville",
        "operator:type": "government",
        "phone": "+55 47 3463 1134",
        "short_name": "CEI Eliane Krüger",
        "id": "way/278726088"
      },
      "geometry": {
        "type": "Polygon",
        "coordinates": [
          [
            [
              -48.8291696,
              -26.367278
            ],
            [
              -48.8292865,
              -26.3672709
            ],
            [
              -48.8296262,
              -26.3672575
            ],
            [
              -48.8296388,
              -26.3675033
            ],
            [
              -48.8296458,
              -26.3676166
            ],
            [
              -48.8294213,
              -26.3676278
            ],
            [
              -48.8293387,
              -26.3676299
            ],
            [
              -48.8289467,
              -26.3676453
            ],
            [
              -48.8289242,
              -26.3676421
            ],
            [
              -48.8289045,
              -26.3676292
            ],
            [
              -48.8289019,
              -26.3676121
            ],
            [
              -48.8289082,
              -26.3675934
            ],
            [
              -48.8290789,
              -26.3673921
            ],
            [
              -48.8291696,
              -26.367278
            ]
          ]
        ]
      }
    },
    {
      "type": "Feature",
      "id": "way/278759575",
      "properties": {
        "timestamp": "2014-05-02T04:11:34Z",
        "version": 1,
        "changeset": 22076477,
        "amenity": "kindergarten",
        "name": "Centro de Educação Infantil Parque Guarani",
        "id": "way/278759575"
      },
      "geometry": {
        "type": "Polygon",
        "coordinates": [
          [
            [
              -48.8125872,
              -26.3613725
            ],
            [
              -48.8127601,
              -26.3613612
            ],
            [
              -48.8128044,
              -26.3613584
            ],
            [
              -48.8131757,
              -26.3613343
            ],
            [
              -48.813209,
              -26.3617462
            ],
            [
              -48.8129272,
              -26.3617644
            ],
            [
              -48.8127003,
              -26.3617791
            ],
            [
              -48.8126205,
              -26.3617843
            ],
            [
              -48.812601,
              -26.3615435
            ],
            [
              -48.8125919,
              -26.3614302
            ],
            [
              -48.8125872,
              -26.3613725
            ]
          ]
        ]
      }
    },
    {
      "type": "Feature",
      "id": "way/360021512",
      "properties": {
        "timestamp": "2015-07-11T13:46:55Z",
        "version": 1,
        "changeset": 32564587,
        "amenity": "kindergarten",
        "id": "way/360021512"
      },
      "geometry": {
        "type": "Polygon",
        "coordinates": [
          [
            [
              -48.8326865,
              -26.3486932
            ],
            [
              -48.8326845,
              -26.3490054
            ],
            [
              -48.8325736,
              -26.3490048
            ],
            [
              -48.8325756,
              -26.3486926
            ],
            [
              -48.8326865,
              -26.3486932
            ]
          ]
        ]
      }
    },
    {
      "type": "Feature",
      "id": "way/444994708",
      "properties": {
        "timestamp": "2020-03-18T16:02:18Z",
        "version": 3,
        "changeset": 82354780,
        "addr:city": "Joinville",
        "addr:postcode": "89224-353",
        "addr:street": "Rua Augusto Schramm",
        "addr:suburb": "Jardim Iririú",
        "alt_name": "CEI Amandos Finder",
        "amenity": "kindergarten",
        "name": "Centro de Educação Infantil - Amandos Finder",
        "opening_hours": "Mo-Fr 07:00-18:00",
        "phone": "+55 47 3464 2906",
        "id": "way/444994708"
      },
      "geometry": {
        "type": "Polygon",
        "coordinates": [
          [
            [
              -48.8014785,
              -26.2643432
            ],
            [
              -48.8008267,
              -26.2650167
            ],
            [
              -48.8007838,
              -26.2650359
            ],
            [
              -48.8007302,
              -26.2650263
            ],
            [
              -48.8005531,
              -26.2648868
            ],
            [
              -48.8005344,
              -26.2648459
            ],
            [
              -48.8005478,
              -26.2647978
            ],
            [
              -48.8011835,
              -26.2641411
            ],
            [
              -48.8012344,
              -26.2641267
            ],
            [
              -48.8012854,
              -26.2641315
            ],
            [
              -48.8014705,
              -26.264271
            ],
            [
              -48.8014866,
              -26.2643095
            ],
            [
              -48.8014785,
              -26.2643432
            ]
          ]
        ]
      }
    },
    {
      "type": "Feature",
      "id": "way/448054856",
      "properties": {
        "timestamp": "2021-04-06T21:49:27Z",
        "version": 3,
        "changeset": 102433884,
        "addr:city": "Joinville",
        "addr:housenumber": "7",
        "addr:postcode": "89237-410",
        "addr:street": "Rua Alwin Pasold",
        "addr:suburb": "Vila Nova",
        "alt_name": "CEI Sigelfrid Poffo",
        "amenity": "kindergarten",
        "barrier": "wall",
        "name": "Centro de Educação Infantil - Sigelfrid Poffo",
        "opening_hours": "Mo-Fr 07:00-18:00",
        "phone": "+55 47 3439 0489",
        "id": "way/448054856"
      },
      "geometry": {
        "type": "Polygon",
        "coordinates": [
          [
            [
              -48.9034765,
              -26.2861928
            ],
            [
              -48.9029907,
              -26.2861989
            ],
            [
              -48.9030062,
              -26.2857583
            ],
            [
              -48.9030075,
              -26.2857215
            ],
            [
              -48.9030079,
              -26.2857075
            ],
            [
              -48.9030104,
              -26.2856368
            ],
            [
              -48.9030124,
              -26.2855802
            ],
            [
              -48.9032599,
              -26.28554
            ],
            [
              -48.903275,
              -26.2855426
            ],
            [
              -48.9032848,
              -26.2855488
            ],
            [
              -48.9032915,
              -26.2855579
            ],
            [
              -48.9032941,
              -26.2855688
            ],
            [
              -48.9032874,
              -26.2856584
            ],
            [
              -48.903479,
              -26.285627
            ],
            [
              -48.9034765,
              -26.2861928
            ]
          ]
        ]
      }
    },
    {
      "type": "Feature",
      "id": "way/448208844",
      "properties": {
        "timestamp": "2022-02-23T12:00:33Z",
        "version": 3,
        "changeset": 117767288,
        "addr:city": "Joinville",
        "addr:housenumber": "212",
        "addr:postcode": "89219-655",
        "addr:street": "Rua Ricardo Alberto Mebs",
        "addr:suburb": "Zona Industrial Norte",
        "alt_name": "CEI Arco Iris",
        "amenity": "kindergarten",
        "building": "yes",
        "name": "Centros de Educação Infantil - Arco-Íris",
        "phone": "+55 47 3434 4160",
        "id": "way/448208844"
      },
      "geometry": {
        "type": "Polygon",
        "coordinates": [
          [
            [
              -48.9251269,
              -26.2633392
            ],
            [
              -48.925131,
              -26.2632578
            ],
            [
              -48.9252304,
              -26.263262
            ],
            [
              -48.9252271,
              -26.2633599
            ],
            [
              -48.9251849,
              -26.2633587
            ],
            [
              -48.9251848,
              -26.2633661
            ],
            [
              -48.9251633,
              -26.2633652
            ],
            [
              -48.9251604,
              -26.2634278
            ],
            [
              -48.9251237,
              -26.2634264
            ],
            [
              -48.9251224,
              -26.2634264
            ],
            [
              -48.9251269,
              -26.2633392
            ]
          ]
        ]
      }
    },
    {
      "type": "Feature",
      "id": "way/479535957",
      "properties": {
        "timestamp": "2020-03-18T14:55:02Z",
        "version": 2,
        "changeset": 82352804,
        "addr:city": "Joinville",
        "addr:housenumber": "37",
        "addr:postcode": "89217-725",
        "addr:street": "Rua Roberto Hermann",
        "addr:suburb": "Costa e Silva",
        "alt_name": "CEI Pequena Sereia",
        "amenity": "kindergarten",
        "name": "Centro de Educação Infantil - Pequena Sereia",
        "opening_hours": "Mo-Fr 07:30-17:30",
        "phone": "+55 47 3473 7754",
        "id": "way/479535957"
      },
      "geometry": {
        "type": "Polygon",
        "coordinates": [
          [
            [
              -48.8821899,
              -26.282813
            ],
            [
              -48.8818704,
              -26.2828405
            ],
            [
              -48.8818564,
              -26.2827037
            ],
            [
              -48.881947,
              -26.2826969
            ],
            [
              -48.8819407,
              -26.282622
            ],
            [
              -48.8821724,
              -26.2826045
            ],
            [
              -48.8821899,
              -26.282813
            ]
          ]
        ]
      }
    },
    {
      "type": "Feature",
      "id": "way/480094224",
      "properties": {
        "timestamp": "2020-03-18T14:46:26Z",
        "version": 2,
        "changeset": 82352526,
        "addr:city": "Joinville",
        "addr:housenumber": "550",
        "addr:postcode": "89220-020",
        "addr:street": "Rua das Andorinhas",
        "addr:suburb": "Costa e Silva",
        "alt_name": "CEI Branca de Neve",
        "amenity": "kindergarten",
        "name": "Centro de Educação Infantil - Branca de Neve",
        "opening_hours": "Mo-Fr 07:30-17:30",
        "phone": "+55 47 3425 8932",
        "short_name": "CEI Branca de Neve",
        "id": "way/480094224"
      },
      "geometry": {
        "type": "Polygon",
        "coordinates": [
          [
            [
              -48.8736416,
              -26.2675703
            ],
            [
              -48.8738909,
              -26.2675771
            ],
            [
              -48.8738774,
              -26.2679655
            ],
            [
              -48.8738628,
              -26.2679888
            ],
            [
              -48.8738415,
              -26.2680029
            ],
            [
              -48.8738122,
              -26.2680063
            ],
            [
              -48.8732109,
              -26.2679739
            ],
            [
              -48.8732211,
              -26.2676734
            ],
            [
              -48.873638,
              -26.2676928
            ],
            [
              -48.8736416,
              -26.2675703
            ]
          ]
        ]
      }
    },
    {
      "type": "Feature",
      "id": "way/486717659",
      "properties": {
        "timestamp": "2017-04-15T12:16:07Z",
        "version": 2,
        "changeset": 47812150,
        "amenity": "kindergarten",
        "name": "Educaçao Infantil do SESC",
        "id": "way/486717659"
      },
      "geometry": {
        "type": "Polygon",
        "coordinates": [
          [
            [
              -48.8441098,
              -26.2883686
            ],
            [
              -48.8441267,
              -26.2887486
            ],
            [
              -48.8434005,
              -26.2887828
            ],
            [
              -48.8433976,
              -26.2885851
            ],
            [
              -48.8436344,
              -26.2885748
            ],
            [
              -48.843629,
              -26.2883915
            ],
            [
              -48.8441098,
              -26.2883686
            ]
          ]
        ]
      }
    },
    {
      "type": "Feature",
      "id": "way/513379362",
      "properties": {
        "timestamp": "2020-03-19T21:38:32Z",
        "version": 3,
        "changeset": 82407053,
        "addr:city": "Joinville",
        "addr:housenumber": "1647",
        "addr:postcode": "89222-365",
        "addr:street": "Rua Piratuba",
        "addr:suburb": "Bom Retiro",
        "alt_name": "CEI Grilo Falante",
        "amenity": "kindergarten",
        "building": "yes",
        "name": "Centro de Educação Infantil - Grilo Falante",
        "opening_hours": "Mo-Fr 07:00-19:00",
        "phone": "+55 47 3427 0613",
        "id": "way/513379362"
      },
      "geometry": {
        "type": "Polygon",
        "coordinates": [
          [
            [
              -48.8438523,
              -26.2666323
            ],
            [
              -48.8439769,
              -26.2666164
            ],
            [
              -48.8439891,
              -26.2666951
            ],
            [
              -48.8439933,
              -26.2666945
            ],
            [
              -48.8440075,
              -26.2667855
            ],
            [
              -48.8440052,
              -26.2667858
            ],
            [
              -48.8440163,
              -26.2668567
            ],
            [
              -48.8439418,
              -26.2668661
            ],
            [
              -48.8439463,
              -26.2668949
            ],
            [
              -48.8438993,
              -26.2669009
            ],
            [
              -48.8438949,
              -26.2668731
            ],
            [
              -48.8438908,
              -26.2668736
            ],
            [
              -48.8438791,
              -26.2667983
            ],
            [
              -48.8438813,
              -26.266798
            ],
            [
              -48.8438771,
              -26.2667712
            ],
            [
              -48.8438817,
              -26.2667706
            ],
            [
              -48.8438793,
              -26.2667565
            ],
            [
              -48.8438718,
              -26.2667574
            ],
            [
              -48.8438523,
              -26.2666323
            ]
          ]
        ]
      }
    },
    {
      "type": "Feature",
      "id": "way/515359573",
      "properties": {
        "timestamp": "2020-03-18T14:17:50Z",
        "version": 2,
        "changeset": 82351425,
        "addr:city": "Joinville",
        "addr:housenumber": "95",
        "addr:postcode": "89222-350",
        "addr:street": "Rua Caçapava",
        "addr:suburb": "Bom Retiro",
        "alt_name": "CEI Adolfo Artmann",
        "amenity": "kindergarten",
        "name": "Centro de Educação Infantil - Adolfo Artmann",
        "opening_hours": "Mo-Fr 07:30-17:30",
        "phone": "+55 47 3435 3941",
        "id": "way/515359573"
      },
      "geometry": {
        "type": "Polygon",
        "coordinates": [
          [
            [
              -48.8435725,
              -26.2644703
            ],
            [
              -48.8436763,
              -26.2644575
            ],
            [
              -48.843686,
              -26.2645127
            ],
            [
              -48.8437703,
              -26.2645028
            ],
            [
              -48.843779,
              -26.2645592
            ],
            [
              -48.8438101,
              -26.2645563
            ],
            [
              -48.8438185,
              -26.2646213
            ],
            [
              -48.8438088,
              -26.2646225
            ],
            [
              -48.8438119,
              -26.2646456
            ],
            [
              -48.8437517,
              -26.2646529
            ],
            [
              -48.8437499,
              -26.2646382
            ],
            [
              -48.8437188,
              -26.264642
            ],
            [
              -48.8437235,
              -26.2646722
            ],
            [
              -48.8437898,
              -26.2646648
            ],
            [
              -48.8438012,
              -26.2647359
            ],
            [
              -48.8436312,
              -26.2647552
            ],
            [
              -48.8436094,
              -26.2646066
            ],
            [
              -48.843594,
              -26.2646074
            ],
            [
              -48.8435935,
              -26.2646042
            ],
            [
              -48.8435725,
              -26.2644703
            ]
          ]
        ]
      }
    },
    {
      "type": "Feature",
      "id": "way/517352160",
      "properties": {
        "timestamp": "2020-03-19T21:33:27Z",
        "version": 3,
        "changeset": 82406957,
        "addr:city": "Joinville",
        "addr:housenumber": "1035",
        "addr:postcode": "89219-370",
        "addr:street": "Rua Vice-Prefeito Luiz Carlos Garcia",
        "addr:suburb": "Costa e Silva",
        "alt_name": "CEI Girassol",
        "amenity": "kindergarten",
        "name": "Centro de Educação Infantil - Girassol",
        "opening_hours": "Mo-Fr 07:30-17:30",
        "phone": "+55 47 3425 3559",
        "id": "way/517352160"
      },
      "geometry": {
        "type": "Polygon",
        "coordinates": [
          [
            [
              -48.8697307,
              -26.2689091
            ],
            [
              -48.8696942,
              -26.2689093
            ],
            [
              -48.869689,
              -26.2689455
            ],
            [
              -48.8696091,
              -26.2690088
            ],
            [
              -48.8695391,
              -26.2689404
            ],
            [
              -48.8695177,
              -26.2689518
            ],
            [
              -48.8695231,
              -26.268959
            ],
            [
              -48.8694618,
              -26.2690086
            ],
            [
              -48.8694209,
              -26.2689674
            ],
            [
              -48.8694412,
              -26.2689498
            ],
            [
              -48.8694074,
              -26.268915
            ],
            [
              -48.8694082,
              -26.26886
            ],
            [
              -48.8694619,
              -26.26886
            ],
            [
              -48.8694622,
              -26.2688393
            ],
            [
              -48.8694288,
              -26.2688081
            ],
            [
              -48.8694743,
              -26.2687716
            ],
            [
              -48.8695296,
              -26.268826
            ],
            [
              -48.8695212,
              -26.2688326
            ],
            [
              -48.8695412,
              -26.2688484
            ],
            [
              -48.8696222,
              -26.2687754
            ],
            [
              -48.8696927,
              -26.2688515
            ],
            [
              -48.8696941,
              -26.2688842
            ],
            [
              -48.8697311,
              -26.2688867
            ],
            [
              -48.8697307,
              -26.2689091
            ]
          ]
        ]
      }
    },
    {
      "type": "Feature",
      "id": "way/517391826",
      "properties": {
        "timestamp": "2020-04-27T12:40:39Z",
        "version": 2,
        "changeset": 84200126,
        "addr:city": "Joinville",
        "addr:housenumber": "518",
        "addr:postcode": "89218-430",
        "addr:street": "Rua Vereador Conrado de Mira",
        "addr:suburb": "Costa e Silva",
        "amenity": "kindergarten",
        "name": "Centro de Educação Infantil - Reino da Criança",
        "opening_hours": "Mo-Fr 07:00-18:30",
        "phone": "+55 47 3029 5999",
        "id": "way/517391826"
      },
      "geometry": {
        "type": "Polygon",
        "coordinates": [
          [
            [
              -48.8684712,
              -26.2696219
            ],
            [
              -48.8682787,
              -26.2696195
            ],
            [
              -48.8682802,
              -26.2695265
            ],
            [
              -48.8684727,
              -26.2695288
            ],
            [
              -48.8684712,
              -26.2696219
            ]
          ]
        ]
      }
    },
    {
      "type": "Feature",
      "id": "way/517745707",
      "properties": {
        "timestamp": "2020-03-18T14:43:39Z",
        "version": 2,
        "changeset": 82352436,
        "addr:city": "Joinville",
        "addr:housenumber": "650",
        "addr:postcode": "89220-001",
        "addr:street": "Rua Inambu",
        "addr:suburb": "Costa e Silva",
        "alt_name": "CEI Alzelir Teresinha Gonçalves Pacheco",
        "amenity": "kindergarten",
        "name": "Centro de Educação Infantil - Alzelir Teresinha Gonçalves Pacheco",
        "opening_hours": "Mo-Fr 07:00-18:00",
        "phone": "+55 47 3473 6753",
        "id": "way/517745707"
      },
      "geometry": {
        "type": "Polygon",
        "coordinates": [
          [
            [
              -48.8791497,
              -26.2729317
            ],
            [
              -48.8791442,
              -26.2730542
            ],
            [
              -48.8791632,
              -26.2730548
            ],
            [
              -48.8791592,
              -26.2731435
            ],
            [
              -48.8790167,
              -26.2731383
            ],
            [
              -48.8790206,
              -26.2730516
            ],
            [
              -48.8788602,
              -26.2730457
            ],
            [
              -48.8788658,
              -26.2729214
            ],
            [
              -48.8791497,
              -26.2729317
            ]
          ]
        ]
      }
    },
    {
      "type": "Feature",
      "id": "way/565371741",
      "properties": {
        "timestamp": "2020-03-19T13:19:05Z",
        "version": 2,
        "changeset": 82391795,
        "addr:city": "Joinville",
        "addr:housenumber": "175",
        "addr:postcode": "89227-440",
        "addr:street": "Rua Ricardo Karmann",
        "addr:suburb": "Iririú",
        "alt_name": "CEI Sementinha",
        "amenity": "kindergarten",
        "name": "Centro de Educação Infantil - Sementinha",
        "phone": "+55 47 3427 1617",
        "source": "https://www.joinville.sc.gov.br/institucional/cei-sementinha/",
        "id": "way/565371741"
      },
      "geometry": {
        "type": "Polygon",
        "coordinates": [
          [
            [
              -48.8137707,
              -26.2727915
            ],
            [
              -48.8138203,
              -26.2728468
            ],
            [
              -48.8134945,
              -26.2732424
            ],
            [
              -48.8128923,
              -26.2728143
            ],
            [
              -48.8137707,
              -26.2727915
            ]
          ]
        ]
      }
    },
    {
      "type": "Feature",
      "id": "way/700753025",
      "properties": {
        "timestamp": "2020-03-18T17:46:57Z",
        "version": 3,
        "changeset": 82358213,
        "addr:city": "Joinville",
        "addr:postcode": "89237-326",
        "addr:street": "Rua Laércio Beninca",
        "addr:suburb": "Vila Nova",
        "alt_name": "CEI Professora Salete Konecki",
        "amenity": "kindergarten",
        "name": "Centro de Educação Infantil - Professora Salete Konecki",
        "opening_hours": "Mo-Fr 07:30-17:30",
        "phone": "+55 47 3433 5487",
        "id": "way/700753025"
      },
      "geometry": {
        "type": "Polygon",
        "coordinates": [
          [
            [
              -48.903464,
              -26.3006904
            ],
            [
              -48.903421,
              -26.3014432
            ],
            [
              -48.9028602,
              -26.3014185
            ],
            [
              -48.9029,
              -26.3006382
            ],
            [
              -48.9032893,
              -26.3006739
            ],
            [
              -48.903464,
              -26.3006904
            ]
          ]
        ]
      }
    },
    {
      "type": "Feature",
      "id": "way/777714796",
      "properties": {
        "timestamp": "2020-12-15T05:02:12Z",
        "version": 3,
        "changeset": 95846129,
        "addr:city": "Joinville",
        "addr:housenumber": "449",
        "addr:postcode": "89237-505",
        "addr:street": "Rua Rolando Gurske",
        "addr:suburb": "Vila Nova",
        "alt_name": "CEI Bianca Carolina Pinheiro",
        "amenity": "kindergarten",
        "name": "Centro de Educação Infantil - Bianca Carolina Pinheiro",
        "opening_hours": "Mo-Fr 07:30-17:30",
        "phone": "+55 47 3434 4259",
        "id": "way/777714796"
      },
      "geometry": {
        "type": "Polygon",
        "coordinates": [
          [
            [
              -48.9034148,
              -26.2775739
            ],
            [
              -48.9034046,
              -26.2780216
            ],
            [
              -48.9032616,
              -26.2780189
            ],
            [
              -48.9032643,
              -26.2778982
            ],
            [
              -48.9030282,
              -26.277894
            ],
            [
              -48.9030354,
              -26.2775771
            ],
            [
              -48.9031092,
              -26.2775784
            ],
            [
              -48.9031116,
              -26.2774725
            ],
            [
              -48.9032721,
              -26.2774754
            ],
            [
              -48.9032699,
              -26.2775712
            ],
            [
              -48.9034148,
              -26.2775739
            ]
          ]
        ]
      }
    },
    {
      "type": "Feature",
      "id": "way/778078330",
      "properties": {
        "timestamp": "2020-03-18T17:19:58Z",
        "version": 2,
        "changeset": 82357265,
        "addr:city": "Joinville",
        "addr:postcode": "89209-655",
        "addr:street": "Rua Laranjal",
        "addr:suburb": "Parque Guarani",
        "alt_name": "CEI Zilda Arns Neumann",
        "amenity": "kindergarten",
        "email": "ceizan@joinville.sc.gov.br",
        "government": "public_service",
        "name": "Centro de Educação Infantil - Zilda Arns Neumann",
        "opening_hours": "Mo-Fr 07:00-18:00",
        "phone": "+55 47 3463 2257",
        "id": "way/778078330"
      },
      "geometry": {
        "type": "Polygon",
        "coordinates": [
          [
            [
              -48.8173178,
              -26.3577139
            ],
            [
              -48.8173594,
              -26.3582507
            ],
            [
              -48.8167222,
              -26.3582904
            ],
            [
              -48.8166806,
              -26.3577535
            ],
            [
              -48.8173178,
              -26.3577139
            ]
          ]
        ]
      }
    },
    {
      "type": "Feature",
      "id": "way/782401189",
      "properties": {
        "timestamp": "2020-03-19T21:34:03Z",
        "version": 2,
        "changeset": 82406972,
        "addr:city": "Joinville",
        "addr:postcode": "89225-501",
        "addr:street": "Rua Willy Schossland",
        "addr:suburb": "Aventureiro",
        "alt_name": "CEI Arte e Vida",
        "amenity": "kindergarten",
        "name": "Centro de Educação Infantil - Arte e Vida",
        "opening_hours": "Mo-Fr 07:00-18:00",
        "phone": "+55 47 3437 2834",
        "id": "way/782401189"
      },
      "geometry": {
        "type": "Polygon",
        "coordinates": [
          [
            [
              -48.8070716,
              -26.2537319
            ],
            [
              -48.80693,
              -26.2538811
            ],
            [
              -48.8067197,
              -26.2537206
            ],
            [
              -48.8068613,
              -26.2535714
            ],
            [
              -48.8070716,
              -26.2537319
            ]
          ]
        ]
      }
    },
    {
      "type": "Feature",
      "id": "way/782402460",
      "properties": {
        "timestamp": "2020-03-18T13:45:30Z",
        "version": 1,
        "changeset": 82350147,
        "addr:city": "Joinville",
        "addr:housenumber": "993",
        "addr:postcode": "89226-040",
        "addr:street": "Rua Pica-Pau",
        "addr:suburb": "Aventureiro",
        "alt_name": "CEI Aventuras de Criança",
        "amenity": "kindergarten",
        "name": "Centro de Educação Infantil - Aventuras de Criança",
        "opening_hours": "Mo-Fr 07:00-18:00",
        "phone": "+55 47 3467 5737",
        "id": "way/782402460"
      },
      "geometry": {
        "type": "Polygon",
        "coordinates": [
          [
            [
              -48.8125216,
              -26.2448779
            ],
            [
              -48.8124301,
              -26.2449687
            ],
            [
              -48.8121964,
              -26.2447792
            ],
            [
              -48.8122879,
              -26.2446884
            ],
            [
              -48.8125216,
              -26.2448779
            ]
          ]
        ]
      }
    },
    {
      "type": "Feature",
      "id": "way/782403201",
      "properties": {
        "timestamp": "2020-03-18T13:49:36Z",
        "version": 1,
        "changeset": 82350310,
        "addr:city": "Joinville",
        "addr:housenumber": "245",
        "addr:postcode": "89225-640",
        "addr:street": "Rua Alvino Boldt",
        "addr:suburb": "Aventureiro",
        "alt_name": "CEI Castelo Branco",
        "amenity": "kindergarten",
        "name": "Centro de Educação Infantil - Castelo Branco",
        "opening_hours": "Mo-Fr 07:00-18:00",
        "phone": "+55 47 3467 5850",
        "id": "way/782403201"
      },
      "geometry": {
        "type": "Polygon",
        "coordinates": [
          [
            [
              -48.815053,
              -26.2537644
            ],
            [
              -48.8149363,
              -26.2538798
            ],
            [
              -48.8148062,
              -26.2537741
            ],
            [
              -48.8149229,
              -26.2536586
            ],
            [
              -48.815053,
              -26.2537644
            ]
          ]
        ]
      }
    },
    {
      "type": "Feature",
      "id": "way/782405016",
      "properties": {
        "timestamp": "2020-03-18T13:55:52Z",
        "version": 1,
        "changeset": 82350573,
        "addr:city": "Joinville",
        "addr:postcode": "89225-206",
        "addr:street": "Rua Mafalda Laurindo",
        "addr:suburb": "Aventureiro",
        "alt_name": "CEI José Francisco Vieira",
        "amenity": "kindergarten",
        "name": "Centro de Educação Infantil - José Francisco Vieira",
        "opening_hours": "Mo-Fr 07:30-17:30",
        "phone": "+55 47 3425 5968",
        "id": "way/782405016"
      },
      "geometry": {
        "type": "Polygon",
        "coordinates": [
          [
            [
              -48.8176424,
              -26.2449218
            ],
            [
              -48.8174198,
              -26.2453596
            ],
            [
              -48.8167519,
              -26.2449507
            ],
            [
              -48.8171515,
              -26.2445874
            ],
            [
              -48.8176424,
              -26.2449218
            ]
          ]
        ]
      }
    },
    {
      "type": "Feature",
      "id": "way/782406776",
      "properties": {
        "timestamp": "2020-03-18T14:04:53Z",
        "version": 1,
        "changeset": 82350907,
        "addr:city": "Joinville",
        "addr:housenumber": "1074",
        "addr:postcode": "89225-765",
        "addr:street": "Rua Constâncio Visentainer",
        "addr:suburb": "Aventureiro",
        "alt_name": "CEI Odorico Fortunato",
        "amenity": "kindergarten",
        "name": "Centro de Educação Infantil - Odorico Fortunato",
        "opening_hours": "Mo-Fr 07:00-18:00",
        "phone": "+55 47 3467 9829",
        "id": "way/782406776"
      },
      "geometry": {
        "type": "Polygon",
        "coordinates": [
          [
            [
              -48.7962873,
              -26.2447253
            ],
            [
              -48.7960017,
              -26.2451375
            ],
            [
              -48.7955328,
              -26.2447142
            ],
            [
              -48.7959147,
              -26.2443855
            ],
            [
              -48.7962873,
              -26.2447253
            ]
          ]
        ]
      }
    },
    {
      "type": "Feature",
      "id": "way/782414224",
      "properties": {
        "timestamp": "2020-03-18T14:27:26Z",
        "version": 1,
        "changeset": 82351806,
        "addr:city": "Joinville",
        "addr:housenumber": "568",
        "addr:postcode": "89228-440",
        "addr:street": "Rua Agostinho dos Santos",
        "addr:suburb": "Comasa",
        "alt_name": "CEI Espinheiros",
        "amenity": "kindergarten",
        "name": "Centro de Educação Infantil - Espinheiros",
        "opening_hours": "Mo-Fr 07:00-18:00",
        "phone": "+55 47 3434 1466",
        "id": "way/782414224"
      },
      "geometry": {
        "type": "Polygon",
        "coordinates": [
          [
            [
              -48.7938842,
              -26.2804388
            ],
            [
              -48.7938455,
              -26.2806235
            ],
            [
              -48.7933631,
              -26.2805422
            ],
            [
              -48.7934018,
              -26.2803576
            ],
            [
              -48.7938842,
              -26.2804388
            ]
          ]
        ]
      }
    },
    {
      "type": "Feature",
      "id": "way/782415954",
      "properties": {
        "timestamp": "2020-03-18T14:35:47Z",
        "version": 1,
        "changeset": 82352150,
        "addr:city": "Joinville",
        "addr:housenumber": "1095",
        "addr:postcode": "89228-271",
        "addr:street": "Rua Ponte Serrada",
        "addr:suburb": "Comasa",
        "alt_name": "CEI Ponte Serrada",
        "amenity": "kindergarten",
        "name": "Centro de Educação Infantil - Ponte Serrada",
        "opening_hours": "Mo-Fr 07:30-17:30",
        "phone": "+55 47 3434 0648",
        "id": "way/782415954"
      },
      "geometry": {
        "type": "Polygon",
        "coordinates": [
          [
            [
              -48.8026322,
              -26.2728648
            ],
            [
              -48.8025032,
              -26.2730281
            ],
            [
              -48.8023919,
              -26.2729574
            ],
            [
              -48.8025209,
              -26.2727941
            ],
            [
              -48.8026322,
              -26.2728648
            ]
          ]
        ]
      }
    },
    {
      "type": "Feature",
      "id": "way/782419008",
      "properties": {
        "timestamp": "2020-03-18T14:52:01Z",
        "version": 1,
        "changeset": 82352691,
        "addr:city": "Joinville",
        "addr:postcode": "89220-878",
        "addr:street": "Rua Expedicionário Alfredo Bartz",
        "addr:suburb": "Costa e Silva",
        "alt_name": "CEI Professora Felícia Cardoso Vieira",
        "amenity": "kindergarten",
        "name": "Centro de Educação Infantil - Professora Felícia Cardoso Vieira",
        "opening_hours": "Mo-Fr 07:30-17:30",
        "phone": "+55 47 3437 3804",
        "id": "way/782419008"
      },
      "geometry": {
        "type": "Polygon",
        "coordinates": [
          [
            [
              -48.8896405,
              -26.2701618
            ],
            [
              -48.8896398,
              -26.270221
            ],
            [
              -48.8895911,
              -26.2702206
            ],
            [
              -48.8895902,
              -26.2702992
            ],
            [
              -48.8895255,
              -26.2702986
            ],
            [
              -48.8895271,
              -26.2701607
            ],
            [
              -48.8896405,
              -26.2701618
            ]
          ]
        ]
      }
    },
    {
      "type": "Feature",
      "id": "way/782421841",
      "properties": {
        "timestamp": "2020-03-18T15:05:33Z",
        "version": 1,
        "changeset": 82353159,
        "addr:city": "Joinville",
        "addr:housenumber": "1189",
        "addr:postcode": "89229-202",
        "addr:street": "Rua Miosótis",
        "addr:suburb": "Fátima",
        "alt_name": "CEI Miosótis",
        "amenity": "kindergarten",
        "name": "Centro de Educação Infantil - Miosótis",
        "opening_hours": "Mo-Fr 07:00-18:00",
        "phone": "+55 47 3426 6070",
        "id": "way/782421841"
      },
      "geometry": {
        "type": "Polygon",
        "coordinates": [
          [
            [
              -48.8155791,
              -26.3262456
            ],
            [
              -48.8155826,
              -26.3263808
            ],
            [
              -48.8153263,
              -26.3263862
            ],
            [
              -48.8153227,
              -26.326251
            ],
            [
              -48.8155791,
              -26.3262456
            ]
          ]
        ]
      }
    },
    {
      "type": "Feature",
      "id": "way/782423710",
      "properties": {
        "timestamp": "2020-03-18T15:08:54Z",
        "version": 1,
        "changeset": 82353265,
        "addr:city": "Joinville",
        "addr:housenumber": "2575",
        "addr:postcode": "89229-000",
        "addr:street": "Rua Guanabara",
        "addr:suburb": "Fátima",
        "alt_name": "CEI Pedro Ivo Figueiredo de Campos",
        "amenity": "kindergarten",
        "name": "Centro de Educação Infantil - Pedro Ivo Figueiredo de Campos",
        "opening_hours": "Mo-Fr 07:30-17:30",
        "phone": "+55 47 3426 6230",
        "id": "way/782423710"
      },
      "geometry": {
        "type": "Polygon",
        "coordinates": [
          [
            [
              -48.8172616,
              -26.3196881
            ],
            [
              -48.8172037,
              -26.3197056
            ],
            [
              -48.8172369,
              -26.3197942
            ],
            [
              -48.8170754,
              -26.319843
            ],
            [
              -48.81699,
              -26.3196159
            ],
            [
              -48.8172095,
              -26.3195496
            ],
            [
              -48.8172616,
              -26.3196881
            ]
          ]
        ]
      }
    },
    {
      "type": "Feature",
      "id": "way/782426374",
      "properties": {
        "timestamp": "2020-03-18T15:20:51Z",
        "version": 1,
        "changeset": 82353584,
        "addr:city": "Joinville",
        "addr:housenumber": "110",
        "addr:postcode": "89210-095",
        "addr:street": "Rua Voluntários da Pátria",
        "addr:suburb": "Itaum",
        "alt_name": "CEI Zé Carioca",
        "amenity": "kindergarten",
        "name": "Centro de Educação Infantil - Zé Carioca",
        "opening_hours": "Mo-Fr 07:30-17:30",
        "phone": "+55 47 3436 0128",
        "id": "way/782426374"
      },
      "geometry": {
        "type": "Polygon",
        "coordinates": [
          [
            [
              -48.8365784,
              -26.3305903
            ],
            [
              -48.836329,
              -26.3307718
            ],
            [
              -48.8361734,
              -26.3305999
            ],
            [
              -48.8364228,
              -26.3304185
            ],
            [
              -48.8365784,
              -26.3305903
            ]
          ]
        ]
      }
    },
    {
      "type": "Feature",
      "id": "way/782427641",
      "properties": {
        "timestamp": "2020-09-16T05:20:43Z",
        "version": 2,
        "changeset": 90959227,
        "addr:city": "Joinville",
        "addr:housenumber": "41",
        "addr:postcode": "89207-670",
        "addr:street": "Rua Vidal Ramos",
        "addr:suburb": "Guanabara",
        "alt_name": "CEI Luíza Maria Veiga",
        "amenity": "kindergarten",
        "name": "Centro de Educação Infantil - Luíza Maria Veiga",
        "opening_hours": "Mo-Fr 07:00-18:00",
        "phone": "+55 47 3426 6139",
        "id": "way/782427641"
      },
      "geometry": {
        "type": "Polygon",
        "coordinates": [
          [
            [
              -48.8302811,
              -26.3228891
            ],
            [
              -48.8301184,
              -26.3230631
            ],
            [
              -48.8300372,
              -26.3230021
            ],
            [
              -48.8301999,
              -26.3228281
            ],
            [
              -48.8302811,
              -26.3228891
            ]
          ]
        ]
      }
    },
    {
      "type": "Feature",
      "id": "way/782429624",
      "properties": {
        "timestamp": "2021-07-11T19:23:42Z",
        "version": 2,
        "changeset": 107795305,
        "addr:city": "Joinville",
        "addr:housenumber": "1010",
        "addr:postcode": "89227-473",
        "addr:street": "Rua Tuiuti",
        "addr:suburb": "Iririú",
        "alt_name": "CEI Mário Avancini",
        "amenity": "kindergarten",
        "building": "yes",
        "name": "Centro de Educação Infantil - Mário Avancini",
        "opening_hours": "Mo-Fr 07:30-17:30",
        "phone": "+55 47 3473 9893",
        "id": "way/782429624"
      },
      "geometry": {
        "type": "Polygon",
        "coordinates": [
          [
            [
              -48.8184689,
              -26.2624573
            ],
            [
              -48.8184893,
              -26.2624559
            ],
            [
              -48.8184722,
              -26.2622631
            ],
            [
              -48.8187782,
              -26.262241
            ],
            [
              -48.8187874,
              -26.2623443
            ],
            [
              -48.8188176,
              -26.2623421
            ],
            [
              -48.8188239,
              -26.2624111
            ],
            [
              -48.8187942,
              -26.2624134
            ],
            [
              -48.8187957,
              -26.2624298
            ],
            [
              -48.8188222,
              -26.2624279
            ],
            [
              -48.818823,
              -26.2624368
            ],
            [
              -48.8188352,
              -26.2625703
            ],
            [
              -48.8186966,
              -26.2625805
            ],
            [
              -48.8186977,
              -26.2625937
            ],
            [
              -48.8188359,
              -26.2625833
            ],
            [
              -48.8188518,
              -26.2627532
            ],
            [
              -48.818747,
              -26.2627595
            ],
            [
              -48.8187402,
              -26.262669
            ],
            [
              -48.8186701,
              -26.2626731
            ],
            [
              -48.8186873,
              -26.2628629
            ],
            [
              -48.8185792,
              -26.26287
            ],
            [
              -48.8185633,
              -26.262652
            ],
            [
              -48.8185453,
              -26.2626531
            ],
            [
              -48.8185424,
              -26.2626135
            ],
            [
              -48.8185597,
              -26.2626122
            ],
            [
              -48.8185595,
              -26.2626031
            ],
            [
              -48.8186428,
              -26.2625977
            ],
            [
              -48.8186419,
              -26.2625862
            ],
            [
              -48.8185013,
              -26.262595
            ],
            [
              -48.8184939,
              -26.2624987
            ],
            [
              -48.818473,
              -26.2625001
            ],
            [
              -48.8184744,
              -26.2624993
            ],
            [
              -48.8184654,
              -26.2624593
            ],
            [
              -48.8184671,
              -26.2624583
            ],
            [
              -48.8184671,
              -26.2624574
            ],
            [
              -48.8184689,
              -26.2624573
            ]
          ]
        ]
      }
    },
    {
      "type": "Feature",
      "id": "way/782431192",
      "properties": {
        "timestamp": "2020-03-18T15:40:51Z",
        "version": 1,
        "changeset": 82354125,
        "addr:city": "Joinville",
        "addr:housenumber": "136",
        "addr:postcode": "89210-485",
        "addr:street": "Rua Abelino Abdon Ferreira",
        "addr:suburb": "Itaum",
        "alt_name": "CEI Jorge Luiz Vanderwegen",
        "amenity": "kindergarten",
        "name": "Centro de Educação Infantil - Jorge Luiz Vanderwegen",
        "opening_hours": "Mo-Fr 07:00-18:00",
        "phone": "+55 47 3426 5774",
        "id": "way/782431192"
      },
      "geometry": {
        "type": "Polygon",
        "coordinates": [
          [
            [
              -48.8404247,
              -26.3387115
            ],
            [
              -48.8402564,
              -26.3388599
            ],
            [
              -48.8400935,
              -26.3387115
            ],
            [
              -48.8402618,
              -26.3385631
            ],
            [
              -48.8404247,
              -26.3387115
            ]
          ]
        ]
      }
    },
    {
      "type": "Feature",
      "id": "way/782431804",
      "properties": {
        "timestamp": "2022-01-13T10:24:52Z",
        "version": 2,
        "changeset": 116100297,
        "addr:city": "Joinville",
        "addr:housenumber": "265",
        "addr:postcode": "89208-323",
        "addr:street": "Rua Armazém",
        "addr:suburb": "Itaum",
        "alt_name": "CEI Juarez Machado",
        "amenity": "kindergarten",
        "name": "Centro de Educação Infantil - Juarez Machado",
        "opening_hours": "Mo-Fr 07:00-18:00",
        "phone": "+55 47 3426 6167",
        "id": "way/782431804"
      },
      "geometry": {
        "type": "Polygon",
        "coordinates": [
          [
            [
              -48.8329058,
              -26.3394991
            ],
            [
              -48.8325638,
              -26.3391404
            ],
            [
              -48.8323898,
              -26.3388604
            ],
            [
              -48.8325993,
              -26.3386871
            ],
            [
              -48.8328416,
              -26.33893
            ],
            [
              -48.8331524,
              -26.3392592
            ],
            [
              -48.8329235,
              -26.339484
            ],
            [
              -48.8329058,
              -26.3394991
            ]
          ]
        ]
      }
    },
    {
      "type": "Feature",
      "id": "way/782432747",
      "properties": {
        "timestamp": "2021-11-24T22:53:01Z",
        "version": 2,
        "changeset": 114199868,
        "addr:city": "Joinville",
        "addr:housenumber": "225",
        "addr:postcode": "89210-173",
        "addr:street": "Rua Arlindo Pereira de Macedo",
        "addr:suburb": "Itaum",
        "alt_name": "CEI Sol Nascente",
        "amenity": "kindergarten",
        "building": "yes",
        "name": "Centro de Educação Infantil - Sol Nascente",
        "opening_hours": "Mo-Fr 07:00-18:00",
        "phone": "+55 47 3426 4308",
        "id": "way/782432747"
      },
      "geometry": {
        "type": "Polygon",
        "coordinates": [
          [
            [
              -48.8323478,
              -26.3314807
            ],
            [
              -48.8320028,
              -26.3314134
            ],
            [
              -48.8320125,
              -26.3313734
            ],
            [
              -48.8319702,
              -26.3313652
            ],
            [
              -48.8319938,
              -26.3312665
            ],
            [
              -48.832035,
              -26.3312745
            ],
            [
              -48.8320335,
              -26.3312804
            ],
            [
              -48.8321353,
              -26.3313003
            ],
            [
              -48.8321726,
              -26.3311447
            ],
            [
              -48.8320748,
              -26.3311256
            ],
            [
              -48.8321014,
              -26.3310148
            ],
            [
              -48.832395,
              -26.331072
            ],
            [
              -48.8324204,
              -26.330966
            ],
            [
              -48.8323929,
              -26.3309608
            ],
            [
              -48.8324043,
              -26.3309134
            ],
            [
              -48.8325077,
              -26.3309335
            ],
            [
              -48.8324334,
              -26.3312436
            ],
            [
              -48.8324064,
              -26.3312383
            ],
            [
              -48.8323851,
              -26.3313273
            ],
            [
              -48.8324112,
              -26.3313323
            ],
            [
              -48.8324008,
              -26.3313758
            ],
            [
              -48.8323742,
              -26.3313706
            ],
            [
              -48.8323478,
              -26.3314807
            ]
          ]
        ]
      }
    },
    {
      "type": "Feature",
      "id": "way/782436291",
      "properties": {
        "timestamp": "2021-07-03T05:55:15Z",
        "version": 2,
        "changeset": 107340090,
        "addr:city": "Joinville",
        "addr:housenumber": "450",
        "addr:postcode": "89227-319",
        "addr:street": "Rua Canoas",
        "addr:suburb": "Jardim Iririú",
        "alt_name": "CEI Ciranda Cirandinha",
        "amenity": "kindergarten",
        "building": "yes",
        "name": "Centro de Educação Infantil - Ciranda Cirandinha",
        "opening_hours": "Mo-Fr 07:00-18:00",
        "phone": "+55 47 3437 3377",
        "id": "way/782436291"
      },
      "geometry": {
        "type": "Polygon",
        "coordinates": [
          [
            [
              -48.8046227,
              -26.269109
            ],
            [
              -48.8046566,
              -26.2690724
            ],
            [
              -48.804672,
              -26.2690845
            ],
            [
              -48.8047999,
              -26.2689486
            ],
            [
              -48.8049059,
              -26.2690311
            ],
            [
              -48.8048237,
              -26.2691195
            ],
            [
              -48.8048536,
              -26.2691424
            ],
            [
              -48.8047976,
              -26.269202
            ],
            [
              -48.8047921,
              -26.2691977
            ],
            [
              -48.8047671,
              -26.2692235
            ],
            [
              -48.8046227,
              -26.269109
            ]
          ]
        ]
      }
    },
    {
      "type": "Feature",
      "id": "way/782436863",
      "properties": {
        "timestamp": "2020-03-18T16:10:58Z",
        "version": 1,
        "changeset": 82355043,
        "addr:city": "Joinville",
        "addr:postcode": "89224-400",
        "addr:street": "Rua Papa João Paulo I",
        "addr:suburb": "Jardim Iririú",
        "alt_name": "CEI Professora Teresa Campregher Moreira",
        "amenity": "kindergarten",
        "name": "Centro de Educação Infantil - Professora Teresa Campregher Moreira",
        "opening_hours": "Mo-Fr 07:30-17:30",
        "phone": "+55 47 3437 5450",
        "id": "way/782436863"
      },
      "geometry": {
        "type": "Polygon",
        "coordinates": [
          [
            [
              -48.8097451,
              -26.2654425
            ],
            [
              -48.8091716,
              -26.2659956
            ],
            [
              -48.8086376,
              -26.2655502
            ],
            [
              -48.8092112,
              -26.2649972
            ],
            [
              -48.8097451,
              -26.2654425
            ]
          ]
        ]
      }
    },
    {
      "type": "Feature",
      "id": "way/782437673",
      "properties": {
        "timestamp": "2022-01-28T18:24:18Z",
        "version": 4,
        "changeset": 116718550,
        "addr:city": "Joinville",
        "addr:housenumber": "85",
        "addr:postcode": "89223-710",
        "addr:street": "Rua Cuba",
        "addr:suburb": "Jardim Sofia",
        "alt_name": "CEI Jardim Sofia",
        "amenity": "kindergarten",
        "name": "Centro de Educação Infantil - Jardim Sofia",
        "opening_hours": "Mo-Fr 07:00-18:00",
        "phone": "+55 47 3435-3446",
        "id": "way/782437673"
      },
      "geometry": {
        "type": "Polygon",
        "coordinates": [
          [
            [
              -48.8319512,
              -26.2375883
            ],
            [
              -48.83225,
              -26.2379895
            ],
            [
              -48.8317805,
              -26.2382709
            ],
            [
              -48.8314817,
              -26.2378697
            ],
            [
              -48.8319512,
              -26.2375883
            ]
          ]
        ]
      }
    },
    {
      "type": "Feature",
      "id": "way/782440320",
      "properties": {
        "timestamp": "2020-03-18T16:29:48Z",
        "version": 1,
        "changeset": 82355674,
        "addr:city": "Joinville",
        "addr:housenumber": "235",
        "addr:postcode": "89230-068",
        "addr:street": "Rua São Francisco do Sul",
        "addr:suburb": "Jarivatuba",
        "alt_name": "CEI Iraci Schmidlin",
        "amenity": "kindergarten",
        "name": "Centro de Educação Infantil - Iraci Schmidlin",
        "opening_hours": "Mo-Fr 07:00-18:00",
        "phone": "+55 47 3463 1253",
        "id": "way/782440320"
      },
      "geometry": {
        "type": "Polygon",
        "coordinates": [
          [
            [
              -48.8121281,
              -26.3362689
            ],
            [
              -48.8120689,
              -26.3363347
            ],
            [
              -48.8121656,
              -26.3364046
            ],
            [
              -48.8120361,
              -26.3365484
            ],
            [
              -48.8119155,
              -26.3364612
            ],
            [
              -48.8117487,
              -26.3366464
            ],
            [
              -48.8115944,
              -26.3365312
            ],
            [
              -48.8119481,
              -26.3361386
            ],
            [
              -48.8121281,
              -26.3362689
            ]
          ]
        ]
      }
    },
    {
      "type": "Feature",
      "id": "way/782442132",
      "properties": {
        "timestamp": "2020-03-18T16:36:33Z",
        "version": 1,
        "changeset": 82355909,
        "addr:city": "Joinville",
        "addr:postcode": "89230-280",
        "addr:street": "Rua Israel",
        "addr:suburb": "João Costa",
        "alt_name": "CEI Antonio Bruhmuller",
        "amenity": "kindergarten",
        "name": "Centro de Educação Infantil - Antônio Brühmüller",
        "opening_hours": "Mo-Fr 07:30-17:30",
        "phone": "+55 47 3436 9019",
        "id": "way/782442132"
      },
      "geometry": {
        "type": "Polygon",
        "coordinates": [
          [
            [
              -48.8021625,
              -26.3443771
            ],
            [
              -48.8020554,
              -26.3444901
            ],
            [
              -48.8019939,
              -26.3444433
            ],
            [
              -48.8019023,
              -26.34454
            ],
            [
              -48.8015249,
              -26.344253
            ],
            [
              -48.8015947,
              -26.3441793
            ],
            [
              -48.8016796,
              -26.344244
            ],
            [
              -48.8018491,
              -26.3440651
            ],
            [
              -48.8021112,
              -26.3442645
            ],
            [
              -48.8020707,
              -26.3443072
            ],
            [
              -48.8021625,
              -26.3443771
            ]
          ]
        ]
      }
    },
    {
      "type": "Feature",
      "id": "way/782442782",
      "properties": {
        "timestamp": "2020-03-18T16:41:25Z",
        "version": 1,
        "changeset": 82356056,
        "addr:city": "Joinville",
        "addr:housenumber": "1268",
        "addr:postcode": "89215-200",
        "addr:street": "Estrada Lagoinha",
        "addr:suburb": "Morro do Meio",
        "alt_name": "CEI Justina Rosa Fachini",
        "amenity": "kindergarten",
        "name": "Centro de Educação Infantil - Justina Rosa Fachini",
        "opening_hours": "Mo-Fr 07:00-18:00",
        "phone": "+55 47 3454 0733",
        "id": "way/782442782"
      },
      "geometry": {
        "type": "Polygon",
        "coordinates": [
          [
            [
              -48.9085638,
              -26.3279783
            ],
            [
              -48.9084359,
              -26.3282325
            ],
            [
              -48.9082843,
              -26.3281712
            ],
            [
              -48.9083257,
              -26.3280889
            ],
            [
              -48.9082492,
              -26.328058
            ],
            [
              -48.9083057,
              -26.3279458
            ],
            [
              -48.9083564,
              -26.3279663
            ],
            [
              -48.9083808,
              -26.327918
            ],
            [
              -48.9084165,
              -26.3279324
            ],
            [
              -48.9084524,
              -26.3278611
            ],
            [
              -48.9085345,
              -26.3278942
            ],
            [
              -48.9085043,
              -26.3279543
            ],
            [
              -48.9085638,
              -26.3279783
            ]
          ]
        ]
      }
    },
    {
      "type": "Feature",
      "id": "way/782445899",
      "properties": {
        "timestamp": "2020-03-18T16:53:08Z",
        "version": 1,
        "changeset": 82356446,
        "addr:city": "Joinville",
        "addr:housenumber": "63",
        "addr:postcode": "89231-318",
        "addr:street": "Rua das Azaléias",
        "addr:suburb": "Paranaguamirim",
        "alt_name": "CEI Abdon da Silveira",
        "amenity": "kindergarten",
        "name": "Centro de Educação Infantil - Abdon da Silveira",
        "opening_hours": "Mo-Fr 07:30-17:30",
        "phone": "+55 47 3438 7868",
        "id": "way/782445899"
      },
      "geometry": {
        "type": "Polygon",
        "coordinates": [
          [
            [
              -48.7941327,
              -26.3396872
            ],
            [
              -48.7936754,
              -26.340049
            ],
            [
              -48.79332,
              -26.3397052
            ],
            [
              -48.7935278,
              -26.3392846
            ],
            [
              -48.7941327,
              -26.3396872
            ]
          ]
        ]
      }
    },
    {
      "type": "Feature",
      "id": "way/782448667",
      "properties": {
        "timestamp": "2020-03-18T17:07:19Z",
        "version": 1,
        "changeset": 82356945,
        "addr:city": "Joinville",
        "addr:street": "Rua Vítor Bueno",
        "addr:suburb": "Paranaguamirim",
        "alt_name": "CEI Monteiro Lobato",
        "amenity": "kindergarten",
        "name": "Centro de Educação Infantil - Monteiro Lobato",
        "opening_hours": "Mo-Fr 07:00-18:00",
        "phone": "+55 47 3463 1896",
        "id": "way/782448667"
      },
      "geometry": {
        "type": "Polygon",
        "coordinates": [
          [
            [
              -48.7921601,
              -26.3571688
            ],
            [
              -48.7915203,
              -26.3578893
            ],
            [
              -48.7910697,
              -26.3575458
            ],
            [
              -48.7916896,
              -26.3571955
            ],
            [
              -48.7921601,
              -26.3571688
            ]
          ]
        ]
      }
    },
    {
      "type": "Feature",
      "id": "way/782450205",
      "properties": {
        "timestamp": "2020-09-22T04:54:45Z",
        "version": 2,
        "changeset": 91260831,
        "addr:city": "Joinville",
        "addr:postcode": "89209-550",
        "addr:street": "Rua Lourival Leite Palhares",
        "addr:suburb": "Parque Guarani",
        "alt_name": "CEI Silvia Regina Cavalheiro",
        "amenity": "kindergarten",
        "name": "Centro de Educação Infantil - Sílvia Regina Cavalheiro",
        "opening_hours": "Mo-Fr 07:00-18:00",
        "phone": "+55 47 3463 0606",
        "id": "way/782450205"
      },
      "geometry": {
        "type": "Polygon",
        "coordinates": [
          [
            [
              -48.8081887,
              -26.3596772
            ],
            [
              -48.8082853,
              -26.3607539
            ],
            [
              -48.8079098,
              -26.3607779
            ],
            [
              -48.8077542,
              -26.360379
            ],
            [
              -48.8076845,
              -26.3597204
            ],
            [
              -48.8081887,
              -26.3596772
            ]
          ]
        ]
      }
    },
    {
      "type": "Feature",
      "id": "way/782456160",
      "properties": {
        "timestamp": "2020-03-18T17:40:21Z",
        "version": 1,
        "changeset": 82357913,
        "addr:city": "Joinville",
        "addr:postcode": "89230-666",
        "addr:street": "Rua Cidade de Barretos",
        "addr:suburb": "Ulysses Guimarães",
        "alt_name": "CEI Maria Laura Cardoso Eleotério",
        "amenity": "kindergarten",
        "name": "Centro de Educação Infantil - Maria Laura Cardoso Eleotério",
        "opening_hours": "Mo-Fr 07:30-17:30",
        "phone": "+55 47 3463 0143",
        "id": "way/782456160"
      },
      "geometry": {
        "type": "Polygon",
        "coordinates": [
          [
            [
              -48.7929533,
              -26.3263737
            ],
            [
              -48.7931572,
              -26.3268401
            ],
            [
              -48.7921782,
              -26.3272584
            ],
            [
              -48.7922264,
              -26.3270468
            ],
            [
              -48.7929533,
              -26.3263737
            ]
          ]
        ]
      }
    },
    {
      "type": "Feature",
      "id": "way/785880432",
      "properties": {
        "timestamp": "2020-03-30T13:40:39Z",
        "version": 1,
        "changeset": 82826954,
        "addr:city": "Joinville",
        "addr:housenumber": "228",
        "addr:postcode": "89237-215",
        "addr:street": "Rua Alfredo Bachtold",
        "addr:suburb": "Vila Nova",
        "alt_name": "CEI Fazendo Eu Aprendo",
        "amenity": "kindergarten",
        "name": "Centro de Educação Infantil - Fazendo Eu Aprendo",
        "opening_hours": "Mo-Fr 06:30-19:00",
        "phone": "+55 47 3801 0015",
        "website": "https://www.ceifazendoeuaprendo.com.br",
        "id": "way/785880432"
      },
      "geometry": {
        "type": "Polygon",
        "coordinates": [
          [
            [
              -48.8995773,
              -26.2854038
            ],
            [
              -48.8995747,
              -26.2854847
            ],
            [
              -48.8995326,
              -26.2855162
            ],
            [
              -48.8994219,
              -26.2855134
            ],
            [
              -48.8994255,
              -26.2853999
            ],
            [
              -48.8995773,
              -26.2854038
            ]
          ]
        ]
      }
    },
    {
      "type": "Feature",
      "id": "way/787926557",
      "properties": {
        "timestamp": "2020-04-04T13:42:00Z",
        "version": 1,
        "changeset": 83071332,
        "addr:city": "Joinville",
        "addr:housenumber": "85",
        "addr:postcode": "89237-330",
        "addr:street": "Rua Graciliano Ramos",
        "addr:suburb": "Boa Vista",
        "alt_name": "CEI Arte e Sonho",
        "amenity": "kindergarten",
        "name": "Centro de Educação Infantil - Arte e Sonho",
        "phone": "+55 47 3439 4322",
        "id": "way/787926557"
      },
      "geometry": {
        "type": "Polygon",
        "coordinates": [
          [
            [
              -48.8288959,
              -26.3107801
            ],
            [
              -48.8287241,
              -26.3110226
            ],
            [
              -48.8285707,
              -26.3109106
            ],
            [
              -48.828776,
              -26.3106884
            ],
            [
              -48.8288959,
              -26.3107801
            ]
          ]
        ]
      }
    },
    {
      "type": "Feature",
      "id": "way/788903186",
      "properties": {
        "timestamp": "2023-07-04T01:37:33Z",
        "version": 5,
        "changeset": 138085264,
        "access": "yes",
        "addr:city": "Joinville",
        "addr:housenumber": "1623",
        "addr:postcode": "89227-301",
        "addr:street": "Rua Papa João XXIII",
        "addr:suburb": "Iririú",
        "alt_name": "C.E.I. Professora Zelândia Thomazi Bratti",
        "amenity": "kindergarten",
        "loc_name": "CEI Sesi",
        "name": "Creche Professora Zelândia Thomazi Bratti",
        "official_name": "Centro de Educação Infantil Professora Zelândia Thomazi Bratti",
        "operator": "Prefeitura Muncipal de Joinville",
        "operator:type": "government",
        "phone": "+55 47 3034 0770",
        "short_name": "CEI Profa. Zelândia Thomazi Bratti",
        "id": "way/788903186"
      },
      "geometry": {
        "type": "Polygon",
        "coordinates": [
          [
            [
              -48.8174258,
              -26.2815576
            ],
            [
              -48.8170104,
              -26.2820203
            ],
            [
              -48.816857,
              -26.2819095
            ],
            [
              -48.8172725,
              -26.2814469
            ],
            [
              -48.8174258,
              -26.2815576
            ]
          ]
        ]
      }
    },
    {
      "type": "Feature",
      "id": "way/789311833",
      "properties": {
        "timestamp": "2020-09-20T19:56:28Z",
        "version": 2,
        "changeset": 91187107,
        "addr:city": "Joinville",
        "addr:housenumber": "170",
        "addr:postcode": "89209-460",
        "addr:street": "Rua Amélia Valentina Fernandes Dias",
        "addr:suburb": "João Costa",
        "amenity": "kindergarten",
        "name": "Centro de Educação Infantil - São Paulo Apóstolo",
        "phone": "+55 47 3426 9046",
        "id": "way/789311833"
      },
      "geometry": {
        "type": "Polygon",
        "coordinates": [
          [
            [
              -48.8181906,
              -26.3531328
            ],
            [
              -48.8179413,
              -26.353389
            ],
            [
              -48.8176261,
              -26.3531427
            ],
            [
              -48.8178754,
              -26.3528865
            ],
            [
              -48.8181906,
              -26.3531328
            ]
          ]
        ]
      }
    },
    {
      "type": "Feature",
      "id": "way/789314021",
      "properties": {
        "timestamp": "2020-04-08T13:45:22Z",
        "version": 1,
        "changeset": 83257362,
        "addr:city": "Joinville",
        "addr:housenumber": "133",
        "addr:postcode": "89235-621",
        "addr:street": "Rua Cidade de Monte Castelo",
        "addr:suburb": "Parque Guarani",
        "amenity": "kindergarten",
        "name": "Centro de Educação Infantil - Castelinho Encantado",
        "phone": "+55 47 3438 1031",
        "id": "way/789314021"
      },
      "geometry": {
        "type": "Polygon",
        "coordinates": [
          [
            [
              -48.8098356,
              -26.3634977
            ],
            [
              -48.8098495,
              -26.3636555
            ],
            [
              -48.8095638,
              -26.3636758
            ],
            [
              -48.8095499,
              -26.3635179
            ],
            [
              -48.8098356,
              -26.3634977
            ]
          ]
        ]
      }
    },
    {
      "type": "Feature",
      "id": "way/789875427",
      "properties": {
        "timestamp": "2021-07-13T17:59:39Z",
        "version": 2,
        "changeset": 107927232,
        "addr:city": "Joinville",
        "addr:housenumber": "1728",
        "addr:postcode": "89224-031",
        "addr:street": "Rua Coronel Vieira",
        "addr:suburb": "Jardim Iririú",
        "amenity": "kindergarten",
        "building": "yes",
        "name": "Centro de Educação Infantil - Pequeninos de Jesus",
        "phone": "+55 47 3427 6475",
        "id": "way/789875427"
      },
      "geometry": {
        "type": "Polygon",
        "coordinates": [
          [
            [
              -48.8088062,
              -26.2612024
            ],
            [
              -48.8087871,
              -26.2611862
            ],
            [
              -48.8087965,
              -26.2611769
            ],
            [
              -48.8087853,
              -26.2611678
            ],
            [
              -48.8088048,
              -26.2611484
            ],
            [
              -48.8087671,
              -26.2611175
            ],
            [
              -48.8088665,
              -26.2610191
            ],
            [
              -48.8089421,
              -26.2610811
            ],
            [
              -48.808849,
              -26.2611755
            ],
            [
              -48.808861,
              -26.2611854
            ],
            [
              -48.8088886,
              -26.261158
            ],
            [
              -48.808911,
              -26.2611763
            ],
            [
              -48.8088493,
              -26.2612388
            ],
            [
              -48.8088062,
              -26.2612024
            ]
          ]
        ]
      }
    },
    {
      "type": "Feature",
      "id": "way/790740717",
      "properties": {
        "timestamp": "2023-03-06T21:08:49Z",
        "version": 2,
        "changeset": 133379796,
        "addr:city": "Joinville",
        "addr:housenumber": "905",
        "addr:postcode": "89204-360",
        "addr:street": "Rua Benjamin Constant",
        "addr:suburb": "América",
        "amenity": "kindergarten",
        "name": "Centro de Educação Infantil Kindergarten",
        "phone": "+55 47 3026 6918",
        "website": "https://www.ceikindergarten.com.br",
        "id": "way/790740717"
      },
      "geometry": {
        "type": "Polygon",
        "coordinates": [
          [
            [
              -48.8584985,
              -26.2846824
            ],
            [
              -48.8585186,
              -26.2849903
            ],
            [
              -48.8579592,
              -26.2849988
            ],
            [
              -48.857935,
              -26.2846608
            ],
            [
              -48.8584985,
              -26.2846824
            ]
          ]
        ]
      }
    },
    {
      "type": "Feature",
      "id": "way/792184273",
      "properties": {
        "timestamp": "2020-04-15T14:25:23Z",
        "version": 1,
        "changeset": 83597879,
        "addr:city": "Joinville",
        "addr:housenumber": "135",
        "addr:postcode": "89202-005",
        "addr:street": "Rua Concórdia",
        "addr:suburb": "Anita Garibaldi",
        "alt_name": "CEI Caracol",
        "amenity": "kindergarten",
        "name": "Centro de Educação Infantil - Caracol",
        "phone": "+55 47 3227 5208",
        "website": "https://www.ceicaracol.com.br",
        "id": "way/792184273"
      },
      "geometry": {
        "type": "Polygon",
        "coordinates": [
          [
            [
              -48.8540893,
              -26.3132255
            ],
            [
              -48.8539133,
              -26.3134046
            ],
            [
              -48.8537634,
              -26.3132863
            ],
            [
              -48.8539395,
              -26.3131072
            ],
            [
              -48.8540893,
              -26.3132255
            ]
          ]
        ]
      }
    },
    {
      "type": "Feature",
      "id": "way/792185559",
      "properties": {
        "timestamp": "2020-04-15T14:30:59Z",
        "version": 1,
        "changeset": 83598147,
        "addr:city": "Joinville",
        "addr:housenumber": "280",
        "addr:postcode": "89203-570",
        "addr:street": "Rua Pernambuco",
        "addr:suburb": "Anita Garibaldi",
        "alt_name": "CEI Curupira",
        "amenity": "kindergarten",
        "name": "Curupira Educação Bilíngue",
        "phone": "+55 47 3433 0200",
        "website": "https://www.escolacurupira.com.br",
        "id": "way/792185559"
      },
      "geometry": {
        "type": "Polygon",
        "coordinates": [
          [
            [
              -48.8521876,
              -26.3112984
            ],
            [
              -48.8520885,
              -26.3114049
            ],
            [
              -48.851982,
              -26.3113252
            ],
            [
              -48.852081,
              -26.3112187
            ],
            [
              -48.8521876,
              -26.3112984
            ]
          ]
        ]
      }
    },
    {
      "type": "Feature",
      "id": "way/794412409",
      "properties": {
        "timestamp": "2020-04-21T13:53:51Z",
        "version": 1,
        "changeset": 83885187,
        "addr:city": "Joinville",
        "addr:housenumber": "151",
        "addr:postcode": "89221-030",
        "addr:street": "Rua Biguaçu",
        "addr:suburb": "Saguaçu",
        "amenity": "kindergarten",
        "name": "Centro de Educação Infantil - Amigos da Natureza",
        "opening_hours": "Mo-Fr 07:00-18:00",
        "phone": "+55 47 3804 0350",
        "id": "way/794412409"
      },
      "geometry": {
        "type": "Polygon",
        "coordinates": [
          [
            [
              -48.8393265,
              -26.2930574
            ],
            [
              -48.8390708,
              -26.2931106
            ],
            [
              -48.8390001,
              -26.2928373
            ],
            [
              -48.8392558,
              -26.2927841
            ],
            [
              -48.8393265,
              -26.2930574
            ]
          ]
        ]
      }
    },
    {
      "type": "Feature",
      "id": "way/794415557",
      "properties": {
        "timestamp": "2020-09-26T01:55:47Z",
        "version": 2,
        "changeset": 91536096,
        "addr:city": "Joinville",
        "addr:housenumber": "87",
        "addr:postcode": "89221-040",
        "addr:street": "Rua Chapecó",
        "addr:suburb": "Saguaçu",
        "amenity": "kindergarten",
        "name": "Centro de Educação Infantil - Cia dos Sonhos",
        "opening_hours": "Mo-Fr 07:00-19:00",
        "phone": "+55 47 3433 5973",
        "id": "way/794415557"
      },
      "geometry": {
        "type": "Polygon",
        "coordinates": [
          [
            [
              -48.8404104,
              -26.293905
            ],
            [
              -48.8404545,
              -26.2940801
            ],
            [
              -48.8400086,
              -26.2941704
            ],
            [
              -48.8399645,
              -26.2939953
            ],
            [
              -48.8404104,
              -26.293905
            ]
          ]
        ]
      }
    },
    {
      "type": "Feature",
      "id": "way/796487888",
      "properties": {
        "timestamp": "2022-02-27T04:41:49Z",
        "version": 2,
        "changeset": 117897115,
        "addr:city": "Joinville",
        "addr:housenumber": "245",
        "addr:postcode": "89204-210",
        "addr:street": "Rua José de Alencar",
        "addr:suburb": "América",
        "amenity": "kindergarten",
        "building": "yes",
        "name": "Centro de Educação Infantil - Tia Lia",
        "phone": "+55 47 3227 7900",
        "id": "way/796487888"
      },
      "geometry": {
        "type": "Polygon",
        "coordinates": [
          [
            [
              -48.8519605,
              -26.2818669
            ],
            [
              -48.8518941,
              -26.2818623
            ],
            [
              -48.8518982,
              -26.2817676
            ],
            [
              -48.8518478,
              -26.2817661
            ],
            [
              -48.8518509,
              -26.2816828
            ],
            [
              -48.8518147,
              -26.2816819
            ],
            [
              -48.8518151,
              -26.2816234
            ],
            [
              -48.8519545,
              -26.2816269
            ],
            [
              -48.8519505,
              -26.2817576
            ],
            [
              -48.8519653,
              -26.2817574
            ],
            [
              -48.8519605,
              -26.2818669
            ]
          ]
        ]
      }
    },
    {
      "type": "Feature",
      "id": "way/862829606",
      "properties": {
        "timestamp": "2020-10-22T19:47:48Z",
        "version": 1,
        "changeset": 92916629,
        "addr:city": "Joinville",
        "addr:housenumber": "266",
        "addr:postcode": "89218-000",
        "addr:street": "Rua Presidente Prudente de Moraes",
        "addr:suburb": "Santo Antônio",
        "alt_name": "CEI ABC da Criança",
        "amenity": "kindergarten",
        "name": "Centro de Educação Infantil ABC da Criança",
        "opening_hours": "Mo-Fr 07:00-19:00",
        "phone": "+55 47 3425 9999",
        "id": "way/862829606"
      },
      "geometry": {
        "type": "Polygon",
        "coordinates": [
          [
            [
              -48.8528171,
              -26.2743909
            ],
            [
              -48.8528134,
              -26.2745437
            ],
            [
              -48.8527022,
              -26.2745415
            ],
            [
              -48.8527059,
              -26.2743887
            ],
            [
              -48.8528171,
              -26.2743909
            ]
          ]
        ]
      }
    },
    {
      "type": "Feature",
      "id": "way/877512976",
      "properties": {
        "timestamp": "2023-03-24T16:16:43Z",
        "version": 6,
        "changeset": 134075449,
        "access": "private",
        "addr:city": "Joinville",
        "addr:housenumber": "142",
        "addr:postcode": "89223-710",
        "addr:street": "Rua Cuba",
        "addr:suburb": "Jardim Sofia",
        "amenity": "kindergarten",
        "building": "school",
        "building:levels": "1",
        "email": "ceiquerubins@gmail.com",
        "name": "Centro de Educação Infantil Recanto dos Querubins",
        "phone": "+55 47 3467-0887",
        "ref:INEP": "42138370",
        "website": "https://ceiquerubins.wixsite.com/ceiquerubins",
        "id": "way/877512976"
      },
      "geometry": {
        "type": "Polygon",
        "coordinates": [
          [
            [
              -48.8308775,
              -26.2375959
            ],
            [
              -48.830868,
              -26.2375828
            ],
            [
              -48.8308026,
              -26.2376219
            ],
            [
              -48.8307468,
              -26.2375419
            ],
            [
              -48.830816,
              -26.2375025
            ],
            [
              -48.8308191,
              -26.2375073
            ],
            [
              -48.8309742,
              -26.2374173
            ],
            [
              -48.8309901,
              -26.2374404
            ],
            [
              -48.8310028,
              -26.2374588
            ],
            [
              -48.8310232,
              -26.2374884
            ],
            [
              -48.8309454,
              -26.2375338
            ],
            [
              -48.8309564,
              -26.2375501
            ],
            [
              -48.830932,
              -26.2375642
            ],
            [
              -48.8308775,
              -26.2375959
            ]
          ]
        ]
      }
    },
    {
      "type": "Feature",
      "id": "way/1084326325",
      "properties": {
        "timestamp": "2022-08-06T23:37:59Z",
        "version": 1,
        "changeset": 124580403,
        "access": "yes",
        "addr:city": "Joinville",
        "addr:housenumber": "111",
        "addr:postcode": "89234-140",
        "addr:street": "Rua das Tulipas",
        "addr:suburb": "Paranaguamirim",
        "alt_name": "C.E.I. Marilene dos Passos Santos",
        "amenity": "kindergarten",
        "name": "Creche Marilene dos Passos Santos",
        "official_name": "Centro de Educação Infantil Marilene dos Passos Santos",
        "opening_hours": "Mo-Fr 07:30-17:30",
        "operator": "Prefeitura Municipal de Joinville",
        "operator:type": "public",
        "phone": "+55 47 3426 1053",
        "ref:INEP": "42312264",
        "short_name": "CEI Marilene dos Passos Santos",
        "id": "way/1084326325"
      },
      "geometry": {
        "type": "Polygon",
        "coordinates": [
          [
            [
              -48.7704633,
              -26.3393755
            ],
            [
              -48.7703413,
              -26.3397858
            ],
            [
              -48.7693428,
              -26.3394986
            ],
            [
              -48.7694289,
              -26.3391461
            ],
            [
              -48.7704633,
              -26.3393755
            ]
          ]
        ]
      }
    },
    {
      "type": "Feature",
      "id": "node/2619777479",
      "properties": {
        "timestamp": "2020-03-19T13:20:47Z",
        "version": 4,
        "changeset": 82391856,
        "entrance": "yes",
        "id": "node/2619777479"
      },
      "geometry": {
        "type": "Point",
        "coordinates": [
          -48.8749601,
          -26.3194186
        ]
      }
    },
    {
      "type": "Feature",
      "id": "node/2625519164",
      "properties": {
        "timestamp": "2014-01-17T04:49:27Z",
        "version": 1,
        "changeset": 20045021,
        "amenity": "telephone",
        "payment:telephone_cards": "yes",
        "id": "node/2625519164"
      },
      "geometry": {
        "type": "Point",
        "coordinates": [
          -48.781119,
          -26.3466993
        ]
      }
    },
    {
      "type": "Feature",
      "id": "node/2786523085",
      "properties": {
        "timestamp": "2014-04-12T21:41:59Z",
        "version": 1,
        "changeset": 21654589,
        "entrance": "yes",
        "id": "node/2786523085"
      },
      "geometry": {
        "type": "Point",
        "coordinates": [
          -48.8525216,
          -26.3431436
        ]
      }
    },
    {
      "type": "Feature",
      "id": "node/2797955659",
      "properties": {
        "timestamp": "2014-04-18T05:51:29Z",
        "version": 1,
        "changeset": 21760561,
        "entrance": "yes",
        "id": "node/2797955659"
      },
      "geometry": {
        "type": "Point",
        "coordinates": [
          -48.844066,
          -26.3275392
        ]
      }
    },
    {
      "type": "Feature",
      "id": "node/2942775415",
      "properties": {
        "timestamp": "2017-03-28T02:51:56Z",
        "version": 3,
        "changeset": 47217308,
        "addr:street": "Rua Ataulfo Alves",
        "amenity": "kindergarten",
        "name": "Centro Educacional Infantil Criança Feliz",
        "id": "node/2942775415"
      },
      "geometry": {
        "type": "Point",
        "coordinates": [
          -48.8031371,
          -26.2737523
        ]
      }
    },
    {
      "type": "Feature",
      "id": "node/2942781801",
      "properties": {
        "timestamp": "2018-12-26T01:27:23Z",
        "version": 3,
        "changeset": 65771687,
        "amenity": "kindergarten",
        "name": "Centro de Educação Infantil Cantinho Feliz",
        "id": "node/2942781801"
      },
      "geometry": {
        "type": "Point",
        "coordinates": [
          -48.8550845,
          -26.3435962
        ]
      }
    },
    {
      "type": "Feature",
      "id": "node/2942782302",
      "properties": {
        "timestamp": "2020-04-18T11:55:58Z",
        "version": 7,
        "changeset": 83740507,
        "addr:city": "Joinville",
        "addr:housenumber": "1000",
        "addr:postcode": "89202-257",
        "addr:street": "Rua São Paulo",
        "addr:suburb": "Bucarein",
        "amenity": "kindergarten",
        "denomination": "roman_catholic",
        "name": "Centro Educacional - Conde Modesto Leal",
        "phone": "+55 47 3029 1010",
        "religion": "christian",
        "website": "https://www.condemodesto.com.br/",
        "id": "node/2942782302"
      },
      "geometry": {
        "type": "Point",
        "coordinates": [
          -48.8424419,
          -26.3155053
        ]
      }
    },
    {
      "type": "Feature",
      "id": "node/4351749399",
      "properties": {
        "timestamp": "2018-12-26T01:27:23Z",
        "version": 3,
        "changeset": 65771687,
        "addr:housenumber": "293",
        "addr:street": "Rua Marabá",
        "amenity": "kindergarten",
        "contact:facebook": "https://www.facebook.com/pages/Cei-Maria-Ofélia-De-Guimarães/",
        "name": "Centro Educacional Infantil Maria Ofélia Guimarães",
        "id": "node/4351749399"
      },
      "geometry": {
        "type": "Point",
        "coordinates": [
          -48.8446404,
          -26.3352198
        ]
      }
    },
    {
      "type": "Feature",
      "id": "node/7306291995",
      "properties": {
        "timestamp": "2020-03-18T15:55:39Z",
        "version": 1,
        "changeset": 82354553,
        "addr:city": "Joinville",
        "addr:housenumber": "510",
        "addr:postcode": "89233-700",
        "addr:street": "Rua dos Esportistas",
        "addr:suburb": "Itinga",
        "alt_name": "CEI Professora Juliana de Carvalho Vieira",
        "amenity": "kindergarten",
        "name": "Centro de Educação Infantil - Professora Juliana de Carvalho Vieira",
        "opening_hours": "Mo-Fr 07:00-18:00",
        "phone": "+55 47 3436 1635",
        "id": "node/7306291995"
      },
      "geometry": {
        "type": "Point",
        "coordinates": [
          -48.8309241,
          -26.3787855
        ]
      }
    },
    {
      "type": "Feature",
      "id": "node/8600501449",
      "properties": {
        "timestamp": "2021-04-06T21:49:27Z",
        "version": 1,
        "changeset": 102433884,
        "barrier": "gate",
        "id": "node/8600501449"
      },
      "geometry": {
        "type": "Point",
        "coordinates": [
          -48.9030104,
          -26.2856368
        ]
      }
    }
  ]
}
