{
  "type": "FeatureCollection",
  "features": [
    {
      "type": "Feature",
      "id": "relation/7127952",
      "properties": {
        "timestamp": "2017-04-02T10:29:49Z",
        "version": 2,
        "changeset": 47377476,
        "addr:housenumber": "441",
        "addr:street": "Rua Jaraguá",
        "addr:suburb": "América",
        "amenity": "veterinary",
        "building": "commercial",
        "name": "Cães e Gatos",
        "type": "multipolygon",
        "id": "relation/7127952"
      },
      "geometry": {
        "type": "Polygon",
        "coordinates": [
          [
            [
              -48.8541851,
              -26.2946635
            ],
            [
              -48.8544387,
              -26.2946453
            ],
            [
              -48.8544523,
              -26.2948337
            ],
            [
              -48.8541702,
              -26.2948511
            ],
            [
              -48.854164,
              -26.2947782
            ],
            [
              -48.8541909,
              -26.294777
            ],
            [
              -48.8541788,
              -26.2946639
            ],
            [
              -48.8541851,
              -26.2946635
            ]
          ],
          [
            [
              -48.8542915,
              -26.2946931
            ],
            [
              -48.8542948,
              -26.294767
            ],
            [
              -48.8543639,
              -26.2947646
            ],
            [
              -48.8543607,
              -26.2946906
            ],
            [
              -48.8542915,
              -26.2946931
            ]
          ]
        ]
      }
    },
    {
      "type": "Feature",
      "id": "way/259237695",
      "properties": {
        "timestamp": "2020-09-05T05:18:57Z",
        "version": 7,
        "changeset": 90439834,
        "addr:city": "Joinville",
        "addr:housenumber": "139",
        "addr:street": "Rua Joaquim André de Sá",
        "addr:suburb": "Bucarein",
        "amenity": "veterinary",
        "building": "yes",
        "description": "Há mais de 20 anos cuidado dos seus animais de estimação",
        "email": "clinivetjoinville@hotmail.com",
        "name": "Clinivet Clínica Veterinária",
        "phone": "+55 47 3455 3283;+55 47 9964 9385",
        "id": "way/259237695"
      },
      "geometry": {
        "type": "Polygon",
        "coordinates": [
          [
            [
              -48.8437647,
              -26.3203838
            ],
            [
              -48.843758,
              -26.3204752
            ],
            [
              -48.8435689,
              -26.3204642
            ],
            [
              -48.8435756,
              -26.3203728
            ],
            [
              -48.8437647,
              -26.3203838
            ]
          ]
        ]
      }
    },
    {
      "type": "Feature",
      "id": "node/4567619803",
      "properties": {
        "timestamp": "2017-03-20T10:39:43Z",
        "version": 2,
        "changeset": 47008477,
        "addr:housenumber": "365",
        "addr:street": "Rua Pedro Mayerle",
        "addr:suburb": "Anita Garibaldi",
        "amenity": "veterinary",
        "name": "Univet",
        "id": "node/4567619803"
      },
      "geometry": {
        "type": "Point",
        "coordinates": [
          -48.8498573,
          -26.3130405
        ]
      }
    },
    {
      "type": "Feature",
      "id": "node/4630689366",
      "properties": {
        "timestamp": "2022-04-22T05:01:42Z",
        "version": 3,
        "changeset": 120028226,
        "addr:city": "Joinville",
        "addr:housenumber": "333",
        "addr:postcode": "89207-299",
        "addr:street": "Rua Guanabara",
        "addr:suburb": "Guanabara",
        "amenity": "veterinary",
        "name": "Clini Health Clínica Veterinária",
        "id": "node/4630689366"
      },
      "geometry": {
        "type": "Point",
        "coordinates": [
          -48.8350589,
          -26.3247885
        ]
      }
    },
    {
      "type": "Feature",
      "id": "node/7159714363",
      "properties": {
        "timestamp": "2020-01-26T03:51:30Z",
        "version": 1,
        "changeset": 80088018,
        "addr:city": "Joinville",
        "addr:housenumber": "67",
        "addr:postcode": "89221-370",
        "addr:street": "Rua Mondaí",
        "addr:suburb": "Saguaçu",
        "amenity": "veterinary",
        "name": "Vet Call",
        "opening_hours": "Mo-Fr 07:30-19:00; Sa 08:00-13:00",
        "phone": "+55 47 3026 1156",
        "id": "node/7159714363"
      },
      "geometry": {
        "type": "Point",
        "coordinates": [
          -48.8431479,
          -26.2810084
        ]
      }
    },
    {
      "type": "Feature",
      "id": "node/7179035540",
      "properties": {
        "timestamp": "2020-02-02T13:45:12Z",
        "version": 1,
        "changeset": 80436031,
        "amenity": "veterinary",
        "name": "Vivavet",
        "id": "node/7179035540"
      },
      "geometry": {
        "type": "Point",
        "coordinates": [
          -48.8589437,
          -26.3033256
        ]
      }
    }
  ]
}
