{
  "type": "FeatureCollection",
  "features": [
    {
      "type": "Feature",
      "id": "way/487850176",
      "properties": {
        "timestamp": "2025-01-18T01:34:23Z",
        "version": 2,
        "changeset": 161475987,
        "addr:city": "Cachoeira de Pajeú",
        "addr:housenumber": "35",
        "addr:postcode": "39980-000",
        "addr:street": "Rua Alexandre Pereira",
        "addr:suburb": "Centro",
        "amenity": "school",
        "name": "Escola Estadual Barão do Rio Branco",
        "operator": "Secretaria de Estado de Educação de Minas Gerais",
        "operator:type": "government",
        "operator:wikidata": "Q61612780",
        "id": "way/487850176"
      },
      "geometry": {
        "type": "Polygon",
        "coordinates": [
          [
            [
              -41.4966498,
              -15.9677622
            ],
            [
              -41.4967869,
              -15.9684299
            ],
            [
              -41.4960748,
              -15.968498
            ],
            [
              -41.4959598,
              -15.9678516
            ],
            [
              -41.4966498,
              -15.9677622
            ]
          ]
        ]
      }
    },
    {
      "type": "Feature",
      "id": "way/616720898",
      "properties": {
        "timestamp": "2025-01-18T18:54:05Z",
        "version": 2,
        "changeset": 161502554,
        "addr:city": "Cachoeira de Pajeú",
        "addr:postcode": "39980-000",
        "addr:street": "Rua da Escola",
        "addr:suburb": "Tancredo Neves",
        "amenity": "school",
        "email": "escola.246328@educacao.mg.gov.br",
        "name": "Escola Estadual do Cariri",
        "source:name": "IBGE",
        "id": "way/616720898"
      },
      "geometry": {
        "type": "Polygon",
        "coordinates": [
          [
            [
              -41.4315041,
              -15.8712185
            ],
            [
              -41.4314667,
              -15.8711429
            ],
            [
              -41.4319843,
              -15.8709855
            ],
            [
              -41.4318247,
              -15.8713298
            ],
            [
              -41.4308137,
              -15.8717327
            ],
            [
              -41.4307747,
              -15.8715234
            ],
            [
              -41.4315041,
              -15.8712185
            ]
          ]
        ]
      }
    },
    {
      "type": "Feature",
      "id": "node/12512051372",
      "properties": {
        "timestamp": "2025-01-18T11:46:08Z",
        "version": 1,
        "changeset": 161488055,
        "addr:city": "Cachoeira de Pajeú",
        "addr:housenumber": "12",
        "addr:postcode": "39980-972",
        "addr:street": "Rua Pompílio de Almeida",
        "addr:suburb": "Águas Altas",
        "amenity": "school",
        "email": "escola.205613@educacao.mg.gov.br",
        "name": "Escola Estadual do Povoado de Águas Altas",
        "operator": "Secretaria de Estado de Educação de Minas Gerais",
        "operator:type": "government",
        "operator:wikidata": "Q61612780",
        "id": "node/12512051372"
      },
      "geometry": {
        "type": "Point",
        "coordinates": [
          -41.3965282,
          -15.9241099
        ]
      }
    },
    {
      "type": "Feature",
      "id": "node/12512074317",
      "properties": {
        "timestamp": "2025-01-18T11:46:08Z",
        "version": 1,
        "changeset": 161488055,
        "amenity": "school",
        "name": "Escola Municipal Pedro Nepomuceno",
        "operator": "Município de Cachoeira do Pajeú",
        "operator:type": "public",
        "id": "node/12512074317"
      },
      "geometry": {
        "type": "Point",
        "coordinates": [
          -41.442255,
          -15.8899684
        ]
      }
    },
    {
      "type": "Feature",
      "id": "node/12512074320",
      "properties": {
        "timestamp": "2025-01-18T11:46:08Z",
        "version": 1,
        "changeset": 161488055,
        "addr:city": "Cachoeira de Pajeú",
        "addr:housenumber": "68",
        "addr:postcode": "39980-000",
        "addr:street": "Praça Doutor Freire",
        "addr:suburb": "Centro",
        "amenity": "school",
        "name": "Escola Municipal Vital Brasil",
        "operator": "Município de Cachoeira do Pajeú",
        "operator:type": "public",
        "id": "node/12512074320"
      },
      "geometry": {
        "type": "Point",
        "coordinates": [
          -41.4959531,
          -15.964051
        ]
      }
    },
    {
      "type": "Feature",
      "id": "node/12512156334",
      "properties": {
        "timestamp": "2025-01-18T13:09:10Z",
        "version": 1,
        "changeset": 161490829,
        "addr:city": "Cachoeira do Pajeú",
        "addr:housenumber": "75",
        "addr:postcode": "39980-000",
        "addr:street": "Praça Horácio Machado",
        "addr:suburb": "Marcela",
        "amenity": "school",
        "name": "Escola Municipal Castelo Branco",
        "operator": "Município de Cachoeira do Pajeú",
        "operator:type": "public",
        "id": "node/12512156334"
      },
      "geometry": {
        "type": "Point",
        "coordinates": [
          -41.6260676,
          -16.0457401
        ]
      }
    },
    {
      "type": "Feature",
      "id": "node/12512760104",
      "properties": {
        "timestamp": "2025-01-18T18:54:05Z",
        "version": 1,
        "changeset": 161502554,
        "addr:city": "Cachoeira de Pajeú",
        "addr:housenumber": "436",
        "addr:postcode": "39980-000",
        "addr:street": "Rua Bahia",
        "addr:suburb": "Tancredo Neves",
        "amenity": "school",
        "name": "Escola Municipal Ermínia Brito",
        "operator": "Município de Cachoeira do Pajeú",
        "operator:type": "public",
        "id": "node/12512760104"
      },
      "geometry": {
        "type": "Point",
        "coordinates": [
          -41.4295602,
          -15.8688926
        ]
      }
    }
  ]
}
