{
  "type": "FeatureCollection",
  "features": [
    {
      "type": "Feature",
      "id": "way/477901392",
      "properties": {
        "timestamp": "2017-03-20T02:12:21Z",
        "version": 2,
        "changeset": 46998863,
        "addr:city": "Cerqueira César",
        "addr:housenumber": "71",
        "addr:postcode": "18760-000",
        "addr:street": "Rua Professor Solano de Abreu",
        "addr:suburb": "Centro",
        "amenity": "clinic",
        "building": "yes",
        "name": "Posto de Saúde Doutor Alexa Paulo Picanço",
        "opening_hours": "Mo-Fr 7:00-17:00",
        "phone": "+55 14 3714-3488",
        "wheelchair": "yes",
        "id": "way/477901392"
      },
      "geometry": {
        "type": "Polygon",
        "coordinates": [
          [
            [
              -49.1691264,
              -23.0328409
            ],
            [
              -49.169111,
              -23.0333825
            ],
            [
              -49.168846,
              -23.0333768
            ],
            [
              -49.1688799,
              -23.0328267
            ],
            [
              -49.1691264,
              -23.0328409
            ]
          ]
        ]
      }
    }
  ]
}
