{
  "type": "FeatureCollection",
  "features": [
    {
      "type": "Feature",
      "id": "way/476366102",
      "properties": {
        "timestamp": "2017-02-22T17:43:14Z",
        "version": 1,
        "changeset": 46314064,
        "addr:city": "Cerqueira César",
        "addr:postcode": "18760-000",
        "addr:street": "Via de Acesso Donato Francisco Sassi",
        "addr:suburb": "Macucão",
        "amenity": "college",
        "internet_access": "yes",
        "name": "Etec Prefeito José Esteves",
        "operator": "Centro Paula Souza",
        "website": "http://www.etecerqueira.com.br",
        "wheelchair": "yes",
        "id": "way/476366102"
      },
      "geometry": {
        "type": "Polygon",
        "coordinates": [
          [
            [
              -49.1688189,
              -23.0931671
            ],
            [
              -49.167642,
              -23.095504
            ],
            [
              -49.167119,
              -23.0956758
            ],
            [
              -49.1658487,
              -23.0959335
            ],
            [
              -49.1630281,
              -23.0952462
            ],
            [
              -49.1642236,
              -23.092033
            ],
            [
              -49.1688189,
              -23.0931671
            ]
          ]
        ]
      }
    }
  ]
}
