{
  "type": "FeatureCollection",
  "features": [
    {
      "type": "Feature",
      "id": "way/473801146",
      "properties": {
        "timestamp": "2018-09-17T16:13:21Z",
        "version": 2,
        "changeset": 62670167,
        "addr:city": "cerqueira césar",
        "addr:housenumber": "2",
        "addr:postcode": "1876000000",
        "addr:street": "Praça irmão Ferreira",
        "addr:suburb": "Centro",
        "amenity": "school",
        "name": "EMEF Avelino Pereira",
        "operator": "PM Cerqueira César",
        "id": "way/473801146"
      },
      "geometry": {
        "type": "Polygon",
        "coordinates": [
          [
            [
              -49.1676943,
              -23.0350077
            ],
            [
              -49.167666,
              -23.0355548
            ],
            [
              -49.1675578,
              -23.0355069
            ],
            [
              -49.1674217,
              -23.0355057
            ],
            [
              -49.1673617,
              -23.0350142
            ],
            [
              -49.1676943,
              -23.0350077
            ]
          ]
        ]
      }
    },
    {
      "type": "Feature",
      "id": "way/473818406",
      "properties": {
        "timestamp": "2018-06-21T19:57:59Z",
        "version": 2,
        "changeset": 60054825,
        "addr:city": "Cerqueira César",
        "addr:housenumber": "2",
        "addr:postcode": "18760000",
        "addr:street": "Praça Manoel Cortês Ruíz",
        "addr:suburb": "Vila Angélica",
        "amenity": "school",
        "description": "Escola Estadual de ensino Médio",
        "name": "E E José Leite Pinheiro",
        "operator": "Secretaria da Educação do Estado de São paulo",
        "phone": "(14) 3714-1272",
        "wheelchair": "yes",
        "id": "way/473818406"
      },
      "geometry": {
        "type": "Polygon",
        "coordinates": [
          [
            [
              -49.1638826,
              -23.0382849
            ],
            [
              -49.1641715,
              -23.038469
            ],
            [
              -49.163499,
              -23.0390649
            ],
            [
              -49.1633703,
              -23.0388428
            ],
            [
              -49.1631664,
              -23.0386552
            ],
            [
              -49.1634937,
              -23.0383689
            ],
            [
              -49.1636197,
              -23.0382405
            ],
            [
              -49.1637324,
              -23.0381442
            ],
            [
              -49.1638826,
              -23.0382849
            ]
          ]
        ]
      }
    },
    {
      "type": "Feature",
      "id": "way/475299881",
      "properties": {
        "timestamp": "2018-06-21T19:57:59Z",
        "version": 2,
        "changeset": 60054825,
        "addr:city": "Cerqueira César",
        "addr:postcode": "18760000",
        "addr:street": "R. Otaviano Píres",
        "addr:suburb": "Nossa Senhora de Fátima",
        "amenity": "school",
        "name": "EMEI Profª Marieta Rolim de Moura",
        "operator": "Prefeitura Municipal Cerqueira César",
        "phone": "(14) 3714-2381",
        "id": "way/475299881"
      },
      "geometry": {
        "type": "Polygon",
        "coordinates": [
          [
            [
              -49.1758551,
              -23.0334939
            ],
            [
              -49.1758658,
              -23.0337675
            ],
            [
              -49.1754588,
              -23.0337935
            ],
            [
              -49.1754446,
              -23.0336209
            ],
            [
              -49.1755012,
              -23.0335036
            ],
            [
              -49.175749,
              -23.0334841
            ],
            [
              -49.1758551,
              -23.0334939
            ]
          ]
        ]
      }
    },
    {
      "type": "Feature",
      "id": "way/475889687",
      "properties": {
        "timestamp": "2017-02-20T16:23:36Z",
        "version": 1,
        "changeset": 46248607,
        "addr:city": "Cerqueira César",
        "addr:housenumber": "320",
        "addr:postcode": "18760000",
        "addr:street": "Avenida São Paulo",
        "addr:suburb": "Jardim São Lucas",
        "amenity": "school",
        "name": "Escola Municipal Maria José Franca Nogueira",
        "operator": "Prefeitura Municipal de Cerqueira César",
        "phone": "(14) 3714-0305",
        "wheelchair": "yes",
        "id": "way/475889687"
      },
      "geometry": {
        "type": "Polygon",
        "coordinates": [
          [
            [
              -49.1574747,
              -23.03622
            ],
            [
              -49.1570438,
              -23.0366128
            ],
            [
              -49.156377,
              -23.035988
            ],
            [
              -49.156812,
              -23.0355877
            ],
            [
              -49.1574747,
              -23.03622
            ]
          ]
        ]
      }
    },
    {
      "type": "Feature",
      "id": "way/476365385",
      "properties": {
        "timestamp": "2018-06-21T19:58:00Z",
        "version": 2,
        "changeset": 60054825,
        "addr:city": "Cerqueira César",
        "addr:housenumber": "3",
        "addr:postcode": "18760-000",
        "addr:street": "Alameda das Tipuanas",
        "addr:suburb": "Jardim Primavera",
        "amenity": "school",
        "name": "E E Jardim Primavera",
        "operator": "Secretaria da Educação do Estado de São Paulo",
        "phone": "(14) 3714-2371",
        "wheelchair": "yes",
        "id": "way/476365385"
      },
      "geometry": {
        "type": "Polygon",
        "coordinates": [
          [
            [
              -49.1627834,
              -23.0223054
            ],
            [
              -49.1617641,
              -23.0213869
            ],
            [
              -49.1626914,
              -23.0198233
            ],
            [
              -49.1627834,
              -23.0223054
            ]
          ]
        ]
      }
    },
    {
      "type": "Feature",
      "id": "way/477877354",
      "properties": {
        "timestamp": "2017-08-03T00:50:14Z",
        "version": 2,
        "changeset": 50793881,
        "addr:city": "Cerqueira César",
        "addr:housenumber": "73",
        "addr:postcode": "18760-000",
        "addr:street": "Rua Antônio Máximo da Silva",
        "addr:suburb": "Chacara Moura Leite",
        "amenity": "school",
        "contact:facebook": "https://www.facebook.com/pages/CEC-Cooperativa-Educacional-Cerqueirense/",
        "contact:phone": "+55 14 3714-0223",
        "name": "CEC",
        "operator": "Cooperativa Educacional Cerqueirense",
        "wheelchair": "yes",
        "id": "way/477877354"
      },
      "geometry": {
        "type": "Polygon",
        "coordinates": [
          [
            [
              -49.1627895,
              -23.0343325
            ],
            [
              -49.1625318,
              -23.0340969
            ],
            [
              -49.1626152,
              -23.0340067
            ],
            [
              -49.1627278,
              -23.0338339
            ],
            [
              -49.1629183,
              -23.0336587
            ],
            [
              -49.1631543,
              -23.0338858
            ],
            [
              -49.1630202,
              -23.0340067
            ],
            [
              -49.1630953,
              -23.0340758
            ],
            [
              -49.1627895,
              -23.0343325
            ]
          ]
        ]
      }
    }
  ]
}
