{
  "type": "FeatureCollection",
  "features": [
    {
      "type": "Feature",
      "id": "node/2467673285",
      "properties": {
        "timestamp": "2024-09-17T09:34:21Z",
        "version": 11,
        "changeset": 156720959,
        "amenity": "bicycle_rental",
        "brand": "Bike Salvador",
        "brand:wikidata": "Q20052802",
        "capacity": "30",
        "name": "Estação Porto da Barra",
        "network": "Bike Salvador",
        "opening_hours": "Mo-Su 05:00-24:00",
        "operator": "Tembici",
        "payment:credit_cards": "yes",
        "phone": "+55 71 40039892",
        "ref": "02",
        "website": "https://bikeitau.com.br/salvador/",
        "id": "node/2467673285"
      },
      "geometry": {
        "type": "Point",
        "coordinates": [
          -38.5327936,
          -13.0035333
        ]
      }
    },
    {
      "type": "Feature",
      "id": "node/2467692504",
      "properties": {
        "timestamp": "2024-03-18T12:38:14Z",
        "version": 12,
        "changeset": 148814730,
        "amenity": "bicycle_rental",
        "brand": "Bike Salvador",
        "brand:wikidata": "Q20052802",
        "capacity": "19",
        "check_date": "2022-12-21",
        "name": "Campo Grande",
        "network": "Bike Salvador",
        "opening_hours": "Mo-Su 05:00-24:00",
        "operator": "Tembici",
        "payment:credit_cards": "yes",
        "phone": "+55 71 40039892",
        "ref": "21",
        "website": "https://bikeitau.com.br/salvador/",
        "id": "node/2467692504"
      },
      "geometry": {
        "type": "Point",
        "coordinates": [
          -38.520411,
          -12.9888072
        ]
      }
    },
    {
      "type": "Feature",
      "id": "node/2467692505",
      "properties": {
        "timestamp": "2023-09-23T01:18:51Z",
        "version": 11,
        "changeset": 141626000,
        "amenity": "bicycle_rental",
        "bicycle_rental": "docking_station",
        "brand": "BikeRio",
        "brand:wikidata": "Q28724",
        "capacity": "11",
        "name": "Praça Orungan",
        "network": "Bike Salvador",
        "opening_hours": "Mo-Su 05:00-24:00",
        "operator": "Tembici",
        "payment:credit_cards": "yes",
        "phone": "+55 71 40039892",
        "ref": "4",
        "website": "https://bikeitau.com.br/salvador/",
        "id": "node/2467692505"
      },
      "geometry": {
        "type": "Point",
        "coordinates": [
          -38.5184297,
          -13.008028
        ]
      }
    },
    {
      "type": "Feature",
      "id": "node/2467692506",
      "properties": {
        "timestamp": "2024-09-17T09:34:21Z",
        "version": 8,
        "changeset": 156720959,
        "amenity": "bicycle_rental",
        "bicycle_rental": "docking_station",
        "brand": "Bike Salvador",
        "brand:wikidata": "Q20052802",
        "capacity": "15",
        "name": "Pedra da Sereia",
        "network": "Bike Salvador",
        "opening_hours": "Mo-Su 05:00-24:00",
        "operator": "Tembici",
        "payment:credit_cards": "yes",
        "phone": "+55 71 40039892",
        "ref": "14",
        "website": "https://bikeitau.com.br/salvador/",
        "id": "node/2467692506"
      },
      "geometry": {
        "type": "Point",
        "coordinates": [
          -38.5015589,
          -13.011011
        ]
      }
    },
    {
      "type": "Feature",
      "id": "node/2467692507",
      "properties": {
        "timestamp": "2023-03-16T06:41:08Z",
        "version": 8,
        "changeset": 133735000,
        "amenity": "bicycle_rental",
        "capacity": "15",
        "check_date": "2022-12-21",
        "network": "Bike Salvador",
        "opening_hours": "Mo-Su 05:00-24:00",
        "payment:credit_cards": "yes",
        "phone": "+55 71 40039892",
        "ref": "13",
        "website": "https://bikeitau.com.br/salvador/",
        "id": "node/2467692507"
      },
      "geometry": {
        "type": "Point",
        "coordinates": [
          -38.515024,
          -12.983547
        ]
      }
    },
    {
      "type": "Feature",
      "id": "node/2518515269",
      "properties": {
        "timestamp": "2024-09-17T13:59:53Z",
        "version": 8,
        "changeset": 156731426,
        "amenity": "bicycle_rental",
        "brand": "Bike Salvador",
        "brand:wikidata": "Q20052802",
        "capacity": "22",
        "name": "Amaralina",
        "network": "Bike Salvador",
        "opening_hours": "Mo-Su 05:00-24:00",
        "operator": "Tembici",
        "payment:credit_cards": "yes",
        "phone": "+55 71 40039892",
        "ref": "11",
        "website": "https://bikeitau.com.br/salvador/",
        "id": "node/2518515269"
      },
      "geometry": {
        "type": "Point",
        "coordinates": [
          -38.4677714,
          -13.0120257
        ]
      }
    },
    {
      "type": "Feature",
      "id": "node/2518515270",
      "properties": {
        "timestamp": "2024-04-29T12:56:22Z",
        "version": 7,
        "changeset": 150662525,
        "amenity": "bicycle_rental",
        "brand": "Bike Salvador",
        "brand:wikidata": "Q20052802",
        "capacity": "15",
        "name": "Centenário",
        "network": "Bike Salvador",
        "opening_hours": "Mo-Su 05:00-24:00",
        "operator": "Tembici",
        "payment:credit_cards": "yes",
        "phone": "+55 71 40039892",
        "ref": "30",
        "website": "https://bikeitau.com.br/salvador/",
        "id": "node/2518515270"
      },
      "geometry": {
        "type": "Point",
        "coordinates": [
          -38.5231655,
          -13.0060004
        ]
      }
    },
    {
      "type": "Feature",
      "id": "node/2518515272",
      "properties": {
        "timestamp": "2024-01-05T01:28:39Z",
        "version": 8,
        "changeset": 145902650,
        "amenity": "bicycle_rental",
        "brand": "Bike Salvador",
        "brand:wikidata": "Q20052802",
        "capacity": "19",
        "name": "Estação Jardim de Alah",
        "network": "Bike Salvador",
        "opening_hours": "Mo-Su 05:00-24:00",
        "operator": "Tembici",
        "payment:credit_cards": "yes",
        "phone": "+55 71 40039892",
        "ref": "33",
        "website": "https://bikeitau.com.br/salvador/",
        "id": "node/2518515272"
      },
      "geometry": {
        "type": "Point",
        "coordinates": [
          -38.4403068,
          -12.9941444
        ]
      }
    },
    {
      "type": "Feature",
      "id": "node/2518515273",
      "properties": {
        "timestamp": "2024-09-17T09:34:21Z",
        "version": 12,
        "changeset": 156720959,
        "amenity": "bicycle_rental",
        "brand": "Bike Salvador",
        "brand:wikidata": "Q20052802",
        "capacity": "17",
        "name": "Largo da Mariquita",
        "network": "Bike Salvador",
        "opening_hours": "Mo-Su 05:00-24:00",
        "operator": "Tembici",
        "payment:credit_cards": "yes",
        "phone": "+55 71 40039892",
        "ref": "10",
        "website": "https://bikeitau.com.br/salvador/",
        "id": "node/2518515273"
      },
      "geometry": {
        "type": "Point",
        "coordinates": [
          -38.4881845,
          -13.0138261
        ]
      }
    },
    {
      "type": "Feature",
      "id": "node/2518515274",
      "properties": {
        "timestamp": "2024-03-18T12:38:14Z",
        "version": 9,
        "changeset": 148814730,
        "amenity": "bicycle_rental",
        "brand": "Bike Salvador",
        "brand:wikidata": "Q20052802",
        "capacity": "7",
        "name": "Hotel Bahia do Sol",
        "network": "Bike Salvador",
        "opening_hours": "Mo-Su 05:00-24:00",
        "operator": "Tembici",
        "payment:credit_cards": "yes",
        "phone": "+55 71 40039892",
        "ref": "32",
        "website": "https://bikeitau.com.br/salvador/",
        "id": "node/2518515274"
      },
      "geometry": {
        "type": "Point",
        "coordinates": [
          -38.525036,
          -12.9910114
        ]
      }
    },
    {
      "type": "Feature",
      "id": "node/2518515276",
      "properties": {
        "timestamp": "2024-09-17T09:34:21Z",
        "version": 12,
        "changeset": 156720959,
        "amenity": "bicycle_rental",
        "bicycle_rental": "docking_station",
        "brand": "Bike Salvador",
        "brand:wikidata": "Q20052802",
        "capacity": "15",
        "name": "Rua Professor Sabino Silva",
        "network": "Bike Salvador",
        "opening_hours": "Mo-Su 05:00-24:00",
        "operator": "Tembici",
        "payment:credit_cards": "yes",
        "phone": "+55 71 40039892",
        "ref": "5",
        "survey:date": "2023-06-08",
        "website": "https://bikeitau.com.br/salvador/",
        "id": "node/2518515276"
      },
      "geometry": {
        "type": "Point",
        "coordinates": [
          -38.5178499,
          -13.0049791
        ]
      }
    },
    {
      "type": "Feature",
      "id": "node/2518515278",
      "properties": {
        "timestamp": "2024-09-17T09:34:21Z",
        "version": 10,
        "changeset": 156720959,
        "amenity": "bicycle_rental",
        "brand": "Bike Salvador",
        "brand:wikidata": "Q20052802",
        "capacity": "11",
        "name": "Praça Carlos Batalha",
        "network": "Bike Salvador",
        "opening_hours": "Mo-Su 05:00-24:00",
        "operator": "Tembici",
        "payment:credit_cards": "yes",
        "phone": "+55 71 40039892",
        "ref": "9",
        "website": "https://bikeitau.com.br/salvador/",
        "id": "node/2518515278"
      },
      "geometry": {
        "type": "Point",
        "coordinates": [
          -38.4898661,
          -13.0102325
        ]
      }
    },
    {
      "type": "Feature",
      "id": "node/2518515280",
      "properties": {
        "timestamp": "2021-07-03T20:50:19Z",
        "version": 6,
        "changeset": 107368907,
        "amenity": "bicycle_rental",
        "capacity": "17",
        "name": "Patamares",
        "network": "Bike Salvador",
        "opening_hours": "Mo-Su 05:00-24:00",
        "operator": "tembici",
        "payment:credit_cards": "yes",
        "phone": "+55 71 40039892",
        "ref": "36",
        "website": "https://bikeitau.com.br/salvador/",
        "id": "node/2518515280"
      },
      "geometry": {
        "type": "Point",
        "coordinates": [
          -38.4054421,
          -12.9672278
        ]
      }
    },
    {
      "type": "Feature",
      "id": "node/2518515282",
      "properties": {
        "timestamp": "2024-01-26T18:00:12Z",
        "version": 9,
        "changeset": 146719820,
        "amenity": "bicycle_rental",
        "brand": "Bike Salvador",
        "brand:wikidata": "Q20052802",
        "capacity": "19",
        "fee": "yes",
        "name": "Estação BRT - Itaigara",
        "network": "Bike Salvador",
        "opening_hours": "Mo-Su 05:00-24:00",
        "operator": "Tembici",
        "payment:credit_cards": "yes",
        "phone": "+55 71 40039892",
        "ref": "59",
        "website": "https://bikeitau.com.br/salvador/",
        "id": "node/2518515282"
      },
      "geometry": {
        "type": "Point",
        "coordinates": [
          -38.4635014,
          -12.9972923
        ]
      }
    },
    {
      "type": "Feature",
      "id": "node/2628975088",
      "properties": {
        "timestamp": "2021-07-03T20:50:19Z",
        "version": 4,
        "changeset": 107368907,
        "amenity": "bicycle_rental",
        "capacity": "17",
        "name": "Piatã",
        "network": "Bike Salvador",
        "opening_hours": "Mo-Su 05:00-24:00",
        "operator": "tembici",
        "payment:credit_cards": "yes",
        "phone": "+55 71 40039892",
        "ref": "38",
        "website": "https://bikeitau.com.br/salvador/",
        "id": "node/2628975088"
      },
      "geometry": {
        "type": "Point",
        "coordinates": [
          -38.3791762,
          -12.9535977
        ]
      }
    },
    {
      "type": "Feature",
      "id": "node/2628975095",
      "properties": {
        "timestamp": "2024-09-20T01:16:44Z",
        "version": 8,
        "changeset": 156845597,
        "amenity": "bicycle_rental",
        "brand": "Bike Salvador",
        "brand:wikidata": "Q20052802",
        "capacity": "17",
        "name": "Praça do Fórum Rui Barbosa",
        "network": "Bike Salvador",
        "not:brand:wikidata": "Q28724",
        "opening_hours": "Mo-Su 05:00-24:00",
        "operator": "Tembici",
        "payment:credit_cards": "yes",
        "phone": "+55 71 40039892",
        "ref": "15",
        "website": "https://bikeitau.com.br/salvador/",
        "id": "node/2628975095"
      },
      "geometry": {
        "type": "Point",
        "coordinates": [
          -38.5079915,
          -12.9791306
        ]
      }
    },
    {
      "type": "Feature",
      "id": "node/3882337887",
      "properties": {
        "timestamp": "2023-12-20T02:49:34Z",
        "version": 9,
        "changeset": 145313547,
        "amenity": "bicycle_rental",
        "bicycle_rental": "docking_station",
        "brand": "Bike Salvador",
        "brand:wikidata": "Q20052802",
        "capacity": "19",
        "name": "Jardim dos Namorados",
        "network": "Bike Salvador",
        "opening_hours": "Mo-Su 05:00-24:00",
        "operator": "Tembici",
        "payment:credit_cards": "yes",
        "phone": "+55 71 40039892",
        "ref": "45",
        "website": "https://bikeitau.com.br/salvador/",
        "id": "node/3882337887"
      },
      "geometry": {
        "type": "Point",
        "coordinates": [
          -38.4515364,
          -13.0027275
        ]
      }
    },
    {
      "type": "Feature",
      "id": "node/3882337888",
      "properties": {
        "timestamp": "2023-12-20T02:49:34Z",
        "version": 8,
        "changeset": 145313547,
        "amenity": "bicycle_rental",
        "bicycle_rental": "docking_station",
        "brand": "Bike Salvador",
        "brand:wikidata": "Q20052802",
        "capacity": "15",
        "name": "Praça Marconi",
        "network": "Bike Salvador",
        "opening_hours": "Mo-Su 05:00-24:00",
        "operator": "Tembici",
        "payment:credit_cards": "yes",
        "phone": "+55 71 40039892",
        "ref": "12",
        "website": "https://bikeitau.com.br/salvador/",
        "id": "node/3882337888"
      },
      "geometry": {
        "type": "Point",
        "coordinates": [
          -38.4552904,
          -13.0027385
        ]
      }
    },
    {
      "type": "Feature",
      "id": "node/3884981915",
      "properties": {
        "timestamp": "2024-08-27T01:27:06Z",
        "version": 6,
        "changeset": 155807312,
        "amenity": "bicycle_rental",
        "brand": "Bike Salvador",
        "brand:wikidata": "Q20052802",
        "capacity": "11",
        "name": "Pituaçu",
        "network": "Bike Salvador",
        "opening_hours": "Mo-Su 05:00-24:00",
        "operator": "Tembici",
        "payment:credit_cards": "yes",
        "phone": "+55 71 40039892",
        "ref": "17",
        "website": "https://bikeitau.com.br/salvador/",
        "id": "node/3884981915"
      },
      "geometry": {
        "type": "Point",
        "coordinates": [
          -38.4101507,
          -12.9705465
        ]
      }
    },
    {
      "type": "Feature",
      "id": "node/3884981917",
      "properties": {
        "timestamp": "2024-09-01T09:53:58Z",
        "version": 10,
        "changeset": 156046384,
        "amenity": "bicycle_rental",
        "bicycle_rental": "docking_station",
        "brand": "Bike Salvador",
        "brand:wikidata": "Q20052802",
        "capacity": "11",
        "name": "Parque dos Ventos",
        "network": "Bike Salvador",
        "opening_hours": "Mo-Su 05:00-24:00",
        "operator": "Tembici",
        "payment:credit_cards": "yes",
        "phone": "+55 71 40039892",
        "ref": "16",
        "website": "https://bikeitau.com.br/salvador/",
        "id": "node/3884981917"
      },
      "geometry": {
        "type": "Point",
        "coordinates": [
          -38.4287541,
          -12.9818877
        ]
      }
    },
    {
      "type": "Feature",
      "id": "node/4306336777",
      "properties": {
        "timestamp": "2021-07-03T20:50:19Z",
        "version": 4,
        "changeset": 107368907,
        "amenity": "bicycle_rental",
        "capacity": "15",
        "name": "Estação UFBA Portão",
        "network": "Bike Salvador",
        "opening_hours": "Mo-Su 05:00-24:00",
        "operator": "tembici",
        "payment:credit_cards": "yes",
        "phone": "+55 71 40039892",
        "ref": "7",
        "website": "https://bikeitau.com.br/salvador/",
        "id": "node/4306336777"
      },
      "geometry": {
        "type": "Point",
        "coordinates": [
          -38.507081,
          -13.0023068
        ]
      }
    },
    {
      "type": "Feature",
      "id": "node/5602188123",
      "properties": {
        "timestamp": "2024-08-23T14:21:56Z",
        "version": 6,
        "changeset": 155655973,
        "amenity": "bicycle_rental",
        "bicycle_rental": "docking_station",
        "brand": "Bike Salvador",
        "brand:wikidata": "Q20052802",
        "capacity": "15",
        "name": "Quadras do Rio Vermelho",
        "network": "Bike Salvador",
        "opening_hours": "Mo-Su 05:00-24:00",
        "operator": "Tembici",
        "payment:credit_cards": "yes",
        "phone": "+55 71 40039892",
        "ref": "8",
        "website": "https://bikeitau.com.br/salvador/",
        "id": "node/5602188123"
      },
      "geometry": {
        "type": "Point",
        "coordinates": [
          -38.4938582,
          -13.0111828
        ]
      }
    },
    {
      "type": "Feature",
      "id": "node/5639671890",
      "properties": {
        "timestamp": "2024-07-25T17:03:35Z",
        "version": 6,
        "changeset": 154403982,
        "amenity": "bicycle_rental",
        "brand": "Bike Salvador",
        "brand:wikidata": "Q20052802",
        "capacity": "11",
        "name": "Ana Lúcia Magalhães",
        "network": "Bike Salvador",
        "opening_hours": "Mo-Su 05:00-24:00",
        "operator": "Tembici",
        "payment:credit_cards": "yes",
        "phone": "+55 71 40039892",
        "ref": "27",
        "website": "https://bikeitau.com.br/salvador/",
        "id": "node/5639671890"
      },
      "geometry": {
        "type": "Point",
        "coordinates": [
          -38.4609923,
          -12.9932637
        ]
      }
    },
    {
      "type": "Feature",
      "id": "node/5639671891",
      "properties": {
        "timestamp": "2021-07-03T20:50:19Z",
        "version": 3,
        "changeset": 107368907,
        "amenity": "bicycle_rental",
        "capacity": "11",
        "name": "Praça Clériston Andrade",
        "network": "Bike Salvador",
        "opening_hours": "Mo-Su 05:00-24:00",
        "operator": "tembici",
        "payment:credit_cards": "yes",
        "phone": "+55 71 40039892",
        "ref": "43",
        "website": "https://bikeitau.com.br/salvador/",
        "id": "node/5639671891"
      },
      "geometry": {
        "type": "Point",
        "coordinates": [
          -38.5040439,
          -13.0018502
        ]
      }
    },
    {
      "type": "Feature",
      "id": "node/5639672404",
      "properties": {
        "timestamp": "2024-09-20T01:16:44Z",
        "version": 4,
        "changeset": 156845597,
        "amenity": "bicycle_rental",
        "brand": "Bike Salvador",
        "brand:wikidata": "Q20052802",
        "capacity": "15",
        "name": "Praça Lord Cochrane",
        "network": "Bike Salvador",
        "opening_hours": "Mo-Su 05:00-24:00",
        "operator": "Tembici",
        "payment:credit_cards": "yes",
        "phone": "+55 71 40039892",
        "ref": "41",
        "website": "https://bikeitau.com.br/salvador/",
        "id": "node/5639672404"
      },
      "geometry": {
        "type": "Point",
        "coordinates": [
          -38.5077493,
          -12.9931734
        ]
      }
    },
    {
      "type": "Feature",
      "id": "node/5639672405",
      "properties": {
        "timestamp": "2024-03-18T12:38:14Z",
        "version": 4,
        "changeset": 148814730,
        "amenity": "bicycle_rental",
        "brand": "Bike Salvador",
        "brand:wikidata": "Q20052802",
        "capacity": "11",
        "name": "Largo da Graça",
        "network": "Bike Salvador",
        "opening_hours": "Mo-Su 05:00-24:00",
        "operator": "Tembici",
        "payment:credit_cards": "yes",
        "phone": "+55 71 40039892",
        "ref": "22",
        "website": "https://bikeitau.com.br/salvador/",
        "id": "node/5639672405"
      },
      "geometry": {
        "type": "Point",
        "coordinates": [
          -38.5237286,
          -12.9991375
        ]
      }
    },
    {
      "type": "Feature",
      "id": "node/5639672406",
      "properties": {
        "timestamp": "2023-12-20T02:49:34Z",
        "version": 6,
        "changeset": 145313547,
        "amenity": "bicycle_rental",
        "bicycle_rental": "docking_station",
        "brand": "Bike Salvador",
        "brand:wikidata": "Q20052802",
        "capacity": "17",
        "name": "Praça Aquarius",
        "network": "Bike Salvador",
        "opening_hours": "Mo-Su 05:00-24:00",
        "operator": "Tembici",
        "payment:credit_cards": "yes",
        "phone": "+55 71 40039892",
        "ref": "26",
        "website": "https://bikeitau.com.br/salvador/",
        "id": "node/5639672406"
      },
      "geometry": {
        "type": "Point",
        "coordinates": [
          -38.4524234,
          -12.9867797
        ]
      }
    },
    {
      "type": "Feature",
      "id": "node/5678466960",
      "properties": {
        "timestamp": "2021-07-03T20:50:19Z",
        "version": 3,
        "changeset": 107368907,
        "amenity": "bicycle_rental",
        "capacity": "15",
        "name": "Imbuí II",
        "network": "Bike Salvador",
        "opening_hours": "Mo-Su 05:00-24:00",
        "operator": "tembici",
        "payment:credit_cards": "yes",
        "phone": "+55 71 40039892",
        "ref": "40",
        "website": "https://bikeitau.com.br/salvador/",
        "id": "node/5678466960"
      },
      "geometry": {
        "type": "Point",
        "coordinates": [
          -38.4354107,
          -12.9693552
        ]
      }
    },
    {
      "type": "Feature",
      "id": "node/5678466961",
      "properties": {
        "timestamp": "2024-03-18T12:38:14Z",
        "version": 8,
        "changeset": 148814730,
        "amenity": "bicycle_rental",
        "bicycle_rental": "docking_station",
        "brand": "Bike Salvador",
        "brand:wikidata": "Q20052802",
        "capacity": "15",
        "name": "Largo da Vitória",
        "network": "Bike Salvador",
        "opening_hours": "Mo-Su 05:00-24:00",
        "operator": "Tembici",
        "payment:credit_cards": "yes",
        "phone": "+55 71 40039892",
        "ref": "28",
        "website": "https://bikeitau.com.br/salvador/",
        "id": "node/5678466961"
      },
      "geometry": {
        "type": "Point",
        "coordinates": [
          -38.5276124,
          -12.996257
        ]
      }
    },
    {
      "type": "Feature",
      "id": "node/5678466962",
      "properties": {
        "timestamp": "2024-01-05T01:28:39Z",
        "version": 6,
        "changeset": 145902650,
        "amenity": "bicycle_rental",
        "brand": "Bike Salvador",
        "brand:wikidata": "Q20052802",
        "capacity": "15",
        "fee": "yes",
        "name": "Boca do Rio",
        "network": "Bike Salvador",
        "opening_hours": "Mo-Su 05:00-24:00",
        "operator": "Tembici",
        "payment:credit_cards": "yes",
        "phone": "+55 71 40039892",
        "ref": "34",
        "website": "https://bikeitau.com.br/salvador/",
        "id": "node/5678466962"
      },
      "geometry": {
        "type": "Point",
        "coordinates": [
          -38.4203812,
          -12.9758747
        ]
      }
    },
    {
      "type": "Feature",
      "id": "node/5693401864",
      "properties": {
        "timestamp": "2024-09-01T09:54:30Z",
        "version": 6,
        "changeset": 156046384,
        "amenity": "bicycle_rental",
        "bicycle_rental": "docking_station",
        "brand": "Bike Salvador",
        "brand:wikidata": "Q20052802",
        "capacity": "19",
        "name": "Centro de Convenções",
        "network": "Bike Salvador",
        "opening_hours": "Mo-Su 05:00-24:00",
        "operator": "Tembici",
        "payment:credit_cards": "yes",
        "phone": "+55 71 40039892",
        "ref": "35",
        "website": "https://bikeitau.com.br/salvador/",
        "id": "node/5693401864"
      },
      "geometry": {
        "type": "Point",
        "coordinates": [
          -38.4336372,
          -12.9861599
        ]
      }
    },
    {
      "type": "Feature",
      "id": "node/5890687404",
      "properties": {
        "timestamp": "2024-09-17T09:34:21Z",
        "version": 6,
        "changeset": 156720959,
        "amenity": "bicycle_rental",
        "brand": "Bike Salvador",
        "brand:wikidata": "Q20052802",
        "capacity": "15",
        "name": "Fonte do Boi",
        "network": "Bike Salvador",
        "opening_hours": "Mo-Su 05:00-24:00",
        "operator": "Tembici",
        "payment:credit_cards": "yes",
        "phone": "+55 71 40039892",
        "ref": "31",
        "website": "https://bikeitau.com.br/salvador/",
        "id": "node/5890687404"
      },
      "geometry": {
        "type": "Point",
        "coordinates": [
          -38.4858069,
          -13.0137527
        ]
      }
    },
    {
      "type": "Feature",
      "id": "node/5890717520",
      "properties": {
        "timestamp": "2021-07-03T20:50:19Z",
        "version": 2,
        "changeset": 107368907,
        "amenity": "bicycle_rental",
        "capacity": "15",
        "name": "Jaguaribe",
        "network": "Bike Salvador",
        "opening_hours": "Mo-Su 05:00-24:00",
        "operator": "tembici",
        "payment:credit_cards": "yes",
        "phone": "+55 71 40039892",
        "ref": "37",
        "website": "https://bikeitau.com.br/salvador/",
        "id": "node/5890717520"
      },
      "geometry": {
        "type": "Point",
        "coordinates": [
          -38.3928394,
          -12.9591847
        ]
      }
    },
    {
      "type": "Feature",
      "id": "node/5890717932",
      "properties": {
        "timestamp": "2021-07-03T20:50:19Z",
        "version": 2,
        "changeset": 107368907,
        "amenity": "bicycle_rental",
        "capacity": "19",
        "name": "Itapuã",
        "network": "Bike Salvador",
        "opening_hours": "Mo-Su 05:00-24:00",
        "operator": "tembici",
        "payment:credit_cards": "yes",
        "phone": "+55 71 40039892",
        "ref": "39",
        "website": "https://bikeitau.com.br/salvador/",
        "id": "node/5890717932"
      },
      "geometry": {
        "type": "Point",
        "coordinates": [
          -38.3659101,
          -12.9502685
        ]
      }
    },
    {
      "type": "Feature",
      "id": "node/5890717933",
      "properties": {
        "timestamp": "2024-09-20T01:16:44Z",
        "version": 3,
        "changeset": 156845597,
        "amenity": "bicycle_rental",
        "brand": "Bike Salvador",
        "brand:wikidata": "Q20052802",
        "capacity": "11",
        "name": "Metrô Lapa",
        "network": "Bike Salvador",
        "opening_hours": "Mo-Su 05:00-24:00",
        "operator": "Tembici",
        "payment:credit_cards": "yes",
        "phone": "+55 71 40039892",
        "ref": "20",
        "website": "https://bikeitau.com.br/salvador/",
        "id": "node/5890717933"
      },
      "geometry": {
        "type": "Point",
        "coordinates": [
          -38.5119946,
          -12.9809496
        ]
      }
    },
    {
      "type": "Feature",
      "id": "node/5891175364",
      "properties": {
        "timestamp": "2024-09-17T09:34:21Z",
        "version": 4,
        "changeset": 156720959,
        "amenity": "bicycle_rental",
        "bicycle_rental": "docking_station",
        "brand": "Bike Salvador",
        "brand:wikidata": "Q20052802",
        "capacity": "15",
        "name": "Praça do Sol",
        "network": "Bike Salvador",
        "opening_hours": "Mo-Su 05:00-24:00",
        "operator": "Tembici",
        "payment:credit_cards": "yes",
        "phone": "+55 71 40039892",
        "ref": "29",
        "website": "https://bikeitau.com.br/salvador/",
        "id": "node/5891175364"
      },
      "geometry": {
        "type": "Point",
        "coordinates": [
          -38.5093439,
          -13.0106574
        ]
      }
    },
    {
      "type": "Feature",
      "id": "node/5891175365",
      "properties": {
        "timestamp": "2024-04-26T20:18:24Z",
        "version": 3,
        "changeset": 150556099,
        "amenity": "bicycle_rental",
        "brand": "Bike Salvador",
        "brand:wikidata": "Q20052802",
        "capacity": "15",
        "name": "Quartel de Amaralina",
        "network": "Bike Salvador",
        "opening_hours": "Mo-Su 05:00-24:00",
        "operator": "Tembici",
        "payment:credit_cards": "yes",
        "phone": "+55 71 40039892",
        "ref": "44",
        "website": "https://bikeitau.com.br/salvador/",
        "id": "node/5891175365"
      },
      "geometry": {
        "type": "Point",
        "coordinates": [
          -38.4780532,
          -13.0136104
        ]
      }
    },
    {
      "type": "Feature",
      "id": "node/5891175371",
      "properties": {
        "timestamp": "2021-07-03T20:50:19Z",
        "version": 2,
        "changeset": 107368907,
        "amenity": "bicycle_rental",
        "capacity": "11",
        "name": "Tamburugy",
        "network": "Bike Salvador",
        "opening_hours": "Mo-Su 05:00-24:00",
        "operator": "tembici",
        "payment:credit_cards": "yes",
        "phone": "+55 71 40039892",
        "ref": "49",
        "website": "https://bikeitau.com.br/salvador/",
        "id": "node/5891175371"
      },
      "geometry": {
        "type": "Point",
        "coordinates": [
          -38.4018731,
          -12.9591978
        ]
      }
    },
    {
      "type": "Feature",
      "id": "node/5891175372",
      "properties": {
        "timestamp": "2022-11-10T12:25:55Z",
        "version": 3,
        "changeset": 128731582,
        "amenity": "bicycle_rental",
        "capacity": "11",
        "name": "Farol de Itapuã",
        "network": "Bike Salvador",
        "opening_hours": "Mo-Su 05:00-24:00",
        "operator": "tembici",
        "payment:credit_cards": "yes",
        "phone": "+55 71 40039892",
        "ref": "50",
        "website": "https://bikeitau.com.br/salvador/",
        "id": "node/5891175372"
      },
      "geometry": {
        "type": "Point",
        "coordinates": [
          -38.3530337,
          -12.9560136
        ]
      }
    },
    {
      "type": "Feature",
      "id": "node/5891176106",
      "properties": {
        "timestamp": "2024-09-01T09:56:36Z",
        "version": 5,
        "changeset": 156046384,
        "amenity": "bicycle_rental",
        "bicycle_rental": "docking_station",
        "brand": "Bike Salvador",
        "brand:wikidata": "Q20052802",
        "capacity": "11",
        "name": "Magalhães Neto",
        "network": "Bike Salvador",
        "opening_hours": "Mo-Su 05:00-24:00",
        "operator": "Tembici",
        "payment:credit_cards": "yes",
        "phone": "+55 71 40039892",
        "ref": "48",
        "website": "https://bikeitau.com.br/salvador/",
        "id": "node/5891176106"
      },
      "geometry": {
        "type": "Point",
        "coordinates": [
          -38.450214,
          -12.9903267
        ]
      }
    },
    {
      "type": "Feature",
      "id": "node/6093739009",
      "properties": {
        "timestamp": "2021-07-03T20:50:19Z",
        "version": 3,
        "changeset": 107368907,
        "amenity": "bicycle_rental",
        "capacity": "11",
        "name": "CAB (Metrô Pituaçu)",
        "network": "Bike Salvador",
        "opening_hours": "Mo-Su 05:00-24:00",
        "operator": "tembici",
        "payment:credit_cards": "yes",
        "phone": "+55 71 40039892",
        "ref": "46",
        "website": "https://bikeitau.com.br/salvador/",
        "id": "node/6093739009"
      },
      "geometry": {
        "type": "Point",
        "coordinates": [
          -38.4219299,
          -12.944061
        ]
      }
    },
    {
      "type": "Feature",
      "id": "node/6093739010",
      "properties": {
        "timestamp": "2024-09-17T09:34:21Z",
        "version": 3,
        "changeset": 156720959,
        "amenity": "bicycle_rental",
        "brand": "Bike Salvador",
        "brand:wikidata": "Q20052802",
        "capacity": "11",
        "name": "Centenário II",
        "network": "Bike Salvador",
        "opening_hours": "Mo-Su 05:00-24:00",
        "operator": "Tembici",
        "payment:credit_cards": "yes",
        "phone": "+55 71 40039892",
        "ref": "42",
        "website": "https://bikeitau.com.br/salvador/",
        "id": "node/6093739010"
      },
      "geometry": {
        "type": "Point",
        "coordinates": [
          -38.5215342,
          -13.0024722
        ]
      }
    },
    {
      "type": "Feature",
      "id": "node/6093739011",
      "properties": {
        "timestamp": "2024-04-29T12:56:22Z",
        "version": 4,
        "changeset": 150662525,
        "amenity": "bicycle_rental",
        "bicycle_rental": "docking_station",
        "brand": "Bike Salvador",
        "brand:wikidata": "Q20052802",
        "capacity": "11",
        "name": "Barra - Professor Lemos Brito",
        "network": "Bike Salvador",
        "opening_hours": "Mo-Su 05:00-24:00",
        "operator": "Tembici",
        "payment:credit_cards": "yes",
        "phone": "+55 71 40039892",
        "ref": "3",
        "website": "https://bikeitau.com.br/salvador/",
        "id": "node/6093739011"
      },
      "geometry": {
        "type": "Point",
        "coordinates": [
          -38.5281099,
          -13.0095232
        ]
      }
    },
    {
      "type": "Feature",
      "id": "node/6570943966",
      "properties": {
        "timestamp": "2021-07-03T20:50:19Z",
        "version": 2,
        "changeset": 107368907,
        "amenity": "bicycle_rental",
        "capacity": "11",
        "name": "Paseo Itaigara",
        "network": "Bike Salvador",
        "opening_hours": "Mo-Su 05:00-24:00",
        "operator": "tembici",
        "payment:credit_cards": "yes",
        "phone": "+55 71 40039892",
        "ref": "25",
        "website": "https://bikeitau.com.br/salvador/",
        "id": "node/6570943966"
      },
      "geometry": {
        "type": "Point",
        "coordinates": [
          -38.47089,
          -12.9957936
        ]
      }
    },
    {
      "type": "Feature",
      "id": "node/6939828168",
      "properties": {
        "timestamp": "2024-09-17T12:28:18Z",
        "version": 5,
        "changeset": 156727962,
        "amenity": "bicycle_rental",
        "brand": "Bike Salvador",
        "brand:wikidata": "Q20052802",
        "capacity": "19",
        "name": "Estação Jardim de Alah",
        "network": "Bike Salvador",
        "opening_hours": "Mo-Su 05:00-24:00",
        "operator": "Tembici",
        "payment:credit_cards": "yes",
        "phone": "+55 71 40039892",
        "ref": "1",
        "website": "https://bikeitau.com.br/salvador/",
        "id": "node/6939828168"
      },
      "geometry": {
        "type": "Point",
        "coordinates": [
          -38.448562,
          -12.9978962
        ]
      }
    },
    {
      "type": "Feature",
      "id": "node/8891025902",
      "properties": {
        "timestamp": "2024-09-20T01:16:44Z",
        "version": 2,
        "changeset": 156845597,
        "amenity": "bicycle_rental",
        "brand": "Bike Salvador",
        "brand:wikidata": "Q20052802",
        "capacity": "11",
        "name": "Barris (Praça João Mangabeira)",
        "network": "Bike Salvador",
        "opening_hours": "Mo-Su 05:00-24:00",
        "operator": "Tembici",
        "payment:credit_cards": "yes",
        "phone": "+55 71 40039892",
        "ref": "47",
        "website": "https://bikeitau.com.br/salvador/",
        "id": "node/8891025902"
      },
      "geometry": {
        "type": "Point",
        "coordinates": [
          -38.5115875,
          -12.9881711
        ]
      }
    },
    {
      "type": "Feature",
      "id": "node/8891025903",
      "properties": {
        "timestamp": "2024-09-15T19:47:59Z",
        "version": 3,
        "changeset": 156661951,
        "amenity": "bicycle_rental",
        "bicycle_rental": "docking_station",
        "brand": "Bike Salvador",
        "brand:wikidata": "Q20052802",
        "capacity": "11",
        "name": "Avenida Sete",
        "network": "Bike Salvador",
        "opening_hours": "Mo-Su 05:00-24:00",
        "operator": "Tembici",
        "payment:credit_cards": "yes",
        "phone": "+55 71 40039892",
        "ref": "64",
        "website": "https://bikeitau.com.br/salvador/",
        "id": "node/8891025903"
      },
      "geometry": {
        "type": "Point",
        "coordinates": [
          -38.5197924,
          -12.9857274
        ]
      }
    },
    {
      "type": "Feature",
      "id": "node/8891025904",
      "properties": {
        "timestamp": "2024-09-17T13:59:53Z",
        "version": 3,
        "changeset": 156731426,
        "amenity": "bicycle_rental",
        "brand": "Bike Salvador",
        "brand:wikidata": "Q20052802",
        "capacity": "11",
        "name": "Orla Pituba",
        "network": "Bike Salvador",
        "opening_hours": "Mo-Su 05:00-24:00",
        "operator": "Tembici",
        "payment:credit_cards": "yes",
        "phone": "+55 71 40039892",
        "ref": "18",
        "website": "https://bikeitau.com.br/salvador/",
        "id": "node/8891025904"
      },
      "geometry": {
        "type": "Point",
        "coordinates": [
          -38.4655776,
          -13.0106789
        ]
      }
    },
    {
      "type": "Feature",
      "id": "node/8891025905",
      "properties": {
        "timestamp": "2023-12-20T02:53:53Z",
        "version": 3,
        "changeset": 145313609,
        "amenity": "bicycle_rental",
        "bicycle_rental": "docking_station",
        "brand": "Bike Salvador",
        "brand:wikidata": "Q20052802",
        "capacity": "15",
        "name": "Nossa Senhora da Luz",
        "network": "Bike Salvador",
        "opening_hours": "Mo-Su 05:00-24:00",
        "operator": "Tembici",
        "payment:credit_cards": "yes",
        "phone": "+55 71 40039892",
        "ref": "23",
        "website": "https://bikeitau.com.br/salvador/",
        "id": "node/8891025905"
      },
      "geometry": {
        "type": "Point",
        "coordinates": [
          -38.4571427,
          -13.005999
        ]
      }
    },
    {
      "type": "Feature",
      "id": "node/8891025906",
      "properties": {
        "timestamp": "2023-12-20T02:49:34Z",
        "version": 2,
        "changeset": 145313547,
        "amenity": "bicycle_rental",
        "brand": "Bike Salvador",
        "brand:wikidata": "Q20052802",
        "capacity": "15",
        "name": "Parquinho Jardim de Alah",
        "network": "Bike Salvador",
        "opening_hours": "Mo-Su 05:00-24:00",
        "operator": "Tembici",
        "payment:credit_cards": "yes",
        "phone": "+55 71 40039892",
        "ref": "63",
        "website": "https://bikeitau.com.br/salvador/",
        "id": "node/8891025906"
      },
      "geometry": {
        "type": "Point",
        "coordinates": [
          -38.443625,
          -12.9976648
        ]
      }
    },
    {
      "type": "Feature",
      "id": "node/9670973217",
      "properties": {
        "timestamp": "2023-03-18T00:49:59Z",
        "version": 2,
        "changeset": 133808447,
        "amenity": "bicycle_rental",
        "bicycle_rental": "shop",
        "name": "TurisBike Bahia",
        "shop": "rental",
        "survey:date": "2022-04-16",
        "id": "node/9670973217"
      },
      "geometry": {
        "type": "Point",
        "coordinates": [
          -38.5311393,
          -13.0096782
        ]
      }
    },
    {
      "type": "Feature",
      "id": "node/11528956346",
      "properties": {
        "timestamp": "2024-01-18T21:06:25Z",
        "version": 1,
        "changeset": 146420825,
        "amenity": "bicycle_rental",
        "brand": "Bike Salvador",
        "brand:wikidata": "Q20052802",
        "capacity": "15",
        "fee": "yes",
        "name": "BRT Pituba",
        "network": "Bike Salvador",
        "opening_hours": "Mo-Su 05:00-24:00",
        "operator": "Tembici",
        "payment:credit_cards": "yes",
        "phone": "+55 71 40039892",
        "ref": "58",
        "website": "https://bikeitau.com.br/salvador/",
        "id": "node/11528956346"
      },
      "geometry": {
        "type": "Point",
        "coordinates": [
          -38.4596337,
          -12.9997581
        ]
      }
    },
    {
      "type": "Feature",
      "id": "node/11528956347",
      "properties": {
        "timestamp": "2024-01-18T21:06:25Z",
        "version": 1,
        "changeset": 146420825,
        "amenity": "bicycle_rental",
        "brand": "Bike Salvador",
        "brand:wikidata": "Q20052802",
        "capacity": "11",
        "fee": "yes",
        "name": "Praça Belo Horizonte",
        "network": "Bike Salvador",
        "opening_hours": "Mo-Su 05:00-24:00",
        "operator": "Tembici",
        "payment:credit_cards": "yes",
        "phone": "+55 71 40039892",
        "ref": "57",
        "website": "https://bikeitau.com.br/salvador/",
        "id": "node/11528956347"
      },
      "geometry": {
        "type": "Point",
        "coordinates": [
          -38.459062,
          -13.0039161
        ]
      }
    },
    {
      "type": "Feature",
      "id": "node/11741219258",
      "properties": {
        "timestamp": "2024-03-18T12:38:14Z",
        "version": 1,
        "changeset": 148814730,
        "amenity": "bicycle_rental",
        "brand": "Bike Salvador",
        "brand:wikidata": "Q20052802",
        "capacity": "11",
        "check_date": "2022-12-21",
        "name": "Campo Grande II",
        "network": "Bike Salvador",
        "opening_hours": "Mo-Su 05:00-24:00",
        "operator": "Tembici",
        "payment:credit_cards": "yes",
        "phone": "+55 71 40039892",
        "ref": "52",
        "website": "https://bikeitau.com.br/salvador/",
        "id": "node/11741219258"
      },
      "geometry": {
        "type": "Point",
        "coordinates": [
          -38.5221592,
          -12.98833
        ]
      }
    },
    {
      "type": "Feature",
      "id": "node/12182188471",
      "properties": {
        "timestamp": "2024-09-17T13:59:53Z",
        "version": 1,
        "changeset": 156731426,
        "amenity": "bicycle_rental",
        "brand": "Bike Salvador",
        "brand:wikidata": "Q20052802",
        "capacity": "11",
        "fee": "yes",
        "name": "Pituba Manoel Dias",
        "network": "Bike Salvador",
        "opening_hours": "Mo-Su 05:00-24:00",
        "operator": "Tembici",
        "payment:credit_cards": "yes",
        "phone": "+55 71 40039892",
        "ref": "40",
        "website": "https://bikeitau.com.br/salvador/",
        "id": "node/12182188471"
      },
      "geometry": {
        "type": "Point",
        "coordinates": [
          -38.4620385,
          -13.0072261
        ]
      }
    }
  ]
}
