{
  "type": "FeatureCollection",
  "features": [
    {
      "type": "Feature",
      "id": "node/10759256720",
      "properties": {
        "timestamp": "2023-03-24T14:32:58Z",
        "version": 1,
        "changeset": 134071147,
        "addr:housenumber": "84",
        "addr:street": "Rua Miguel Fillus",
        "amenity": "social_facility",
        "name": "Centro de Referência de Assistência Social",
        "id": "node/10759256720"
      },
      "geometry": {
        "type": "Point",
        "coordinates": [
          -49.3855636,
          -25.3815818
        ]
      }
    },
    {
      "type": "Feature",
      "id": "node/10759256721",
      "properties": {
        "timestamp": "2024-01-16T12:55:23Z",
        "version": 2,
        "changeset": 146322841,
        "addr:housenumber": "18740",
        "addr:street": "Rodovia Gumercindo Boza",
        "amenity": "social_facility",
        "name": "Centro de Referência Especializado de Assistência Social",
        "id": "node/10759256721"
      },
      "geometry": {
        "type": "Point",
        "coordinates": [
          -49.4292702,
          -25.3707831
        ]
      }
    }
  ]
}
