{
  "type": "FeatureCollection",
  "features": [
    {
      "type": "Feature",
      "id": "way/480107672",
      "properties": {
        "timestamp": "2019-02-11T14:09:49Z",
        "version": 4,
        "changeset": 67101664,
        "addr:housenumber": "1955",
        "addr:street": "Rua Toribio Verissimo",
        "amenity": "arts_centre",
        "building": "yes",
        "name": "Centro de Tradições Gaúchas Querência da Serra",
        "id": "way/480107672"
      },
      "geometry": {
        "type": "Polygon",
        "coordinates": [
          [
            [
              -53.616451,
              -28.6454985
            ],
            [
              -53.6164479,
              -28.6458208
            ],
            [
              -53.6159785,
              -28.6458173
            ],
            [
              -53.6159816,
              -28.645495
            ],
            [
              -53.616451,
              -28.6454985
            ]
          ]
        ]
      }
    },
    {
      "type": "Feature",
      "id": "node/4598886501",
      "properties": {
        "timestamp": "2017-01-10T02:51:04Z",
        "version": 2,
        "changeset": 45041175,
        "addr:housenumber": "180",
        "addr:postcode": "98015-370",
        "addr:street": "Rua Coronel João de Deus",
        "addr:suburb": "Vila Militar",
        "amenity": "arts_centre",
        "name": "CTG Rodeio da Saudade",
        "phone": "+55 55 3324-3290",
        "id": "node/4598886501"
      },
      "geometry": {
        "type": "Point",
        "coordinates": [
          -53.6155534,
          -28.627673
        ]
      }
    },
    {
      "type": "Feature",
      "id": "node/9907528760",
      "properties": {
        "timestamp": "2022-07-24T13:10:54Z",
        "version": 2,
        "changeset": 124009294,
        "amenity": "arts_centre",
        "id": "node/9907528760"
      },
      "geometry": {
        "type": "Point",
        "coordinates": [
          -53.6149133,
          -28.645055
        ]
      }
    }
  ]
}
