{
  "type": "FeatureCollection",
  "features": [
    {
      "type": "Feature",
      "id": "way/498325076",
      "properties": {
        "timestamp": "2019-02-11T16:28:41Z",
        "version": 3,
        "changeset": 67101664,
        "addr:street": "Rua Doutor Wauthier",
        "amenity": "kindergarten",
        "building": "kindergarten",
        "name": "Escola Trem da Alegria",
        "id": "way/498325076"
      },
      "geometry": {
        "type": "Polygon",
        "coordinates": [
          [
            [
              -53.5998568,
              -28.6487012
            ],
            [
              -53.5998887,
              -28.6488789
            ],
            [
              -53.5998236,
              -28.6488879
            ],
            [
              -53.5997917,
              -28.6487102
            ],
            [
              -53.5998568,
              -28.6487012
            ]
          ]
        ]
      }
    },
    {
      "type": "Feature",
      "id": "way/500806925",
      "properties": {
        "timestamp": "2019-02-11T16:46:50Z",
        "version": 5,
        "changeset": 67101664,
        "addr:housenumber": "957",
        "addr:postcode": "98050-395",
        "addr:street": "Rua Borges do Canto",
        "addr:suburb": "Vila Dirceu",
        "amenity": "kindergarten",
        "building": "house",
        "distrito": "06",
        "name": "Escolinha Algodão Doce",
        "id": "way/500806925"
      },
      "geometry": {
        "type": "Polygon",
        "coordinates": [
          [
            [
              -53.5984373,
              -28.6522119
            ],
            [
              -53.5984387,
              -28.6522921
            ],
            [
              -53.5982857,
              -28.6522943
            ],
            [
              -53.5982842,
              -28.6522141
            ],
            [
              -53.5984373,
              -28.6522119
            ]
          ]
        ]
      }
    },
    {
      "type": "Feature",
      "id": "node/5079217939",
      "properties": {
        "timestamp": "2017-09-05T16:08:08Z",
        "version": 3,
        "changeset": 51755139,
        "addr:housenumber": "165",
        "addr:place": "Bairro São José",
        "addr:street": "Rua José Garibaldi",
        "amenity": "kindergarten",
        "name": "EMEI Iná Caino",
        "phone": "+55 55 3322-2038",
        "id": "node/5079217939"
      },
      "geometry": {
        "type": "Point",
        "coordinates": [
          -53.6192254,
          -28.6444342
        ]
      }
    }
  ]
}
