{
  "type": "FeatureCollection",
  "features": [
    {
      "type": "Feature",
      "id": "way/183594893",
      "properties": {
        "timestamp": "2024-12-07T19:25:15Z",
        "version": 7,
        "changeset": 160037405,
        "addr:city": "Pau dos Ferros",
        "addr:milestone": "Km 3",
        "addr:postcode": "59900-000",
        "addr:street": "Rua Manoel Alexandre",
        "addr:suburb": "Arizona",
        "amenity": "hospital",
        "emergency": "yes",
        "healthcare": "hospital",
        "name": "Hospital Regional Doutor Cleodon Carlos de Andrade",
        "nohousenumber": "yes",
        "opening_hours": "24/7",
        "phone": "+55 84 3351-9870",
        "website": "http://cnes2.datasus.gov.br",
        "id": "way/183594893"
      },
      "geometry": {
        "type": "Polygon",
        "coordinates": [
          [
            [
              -38.2052088,
              -6.1340483
            ],
            [
              -38.2046407,
              -6.1350162
            ],
            [
              -38.2040003,
              -6.1346446
            ],
            [
              -38.2040754,
              -6.1345167
            ],
            [
              -38.2035074,
              -6.1341872
            ],
            [
              -38.2040003,
              -6.1333472
            ],
            [
              -38.2052088,
              -6.1340483
            ]
          ]
        ]
      }
    }
  ]
}
