{
  "type": "FeatureCollection",
  "features": [
    {
      "type": "Feature",
      "id": "way/1161539647",
      "properties": {
        "timestamp": "2023-04-11T22:11:43Z",
        "version": 1,
        "changeset": 134792336,
        "addr:street": "Avenida Padre Santiago",
        "building": "yes",
        "government": "administrative",
        "name": "Centro Social Urbano",
        "office": "government",
        "id": "way/1161539647"
      },
      "geometry": {
        "type": "Polygon",
        "coordinates": [
          [
            [
              -49.0152219,
              -13.7156325
            ],
            [
              -49.0153501,
              -13.7158562
            ],
            [
              -49.0151986,
              -13.7159496
            ],
            [
              -49.0150732,
              -13.7157203
            ],
            [
              -49.0152219,
              -13.7156325
            ]
          ]
        ]
      }
    },
    {
      "type": "Feature",
      "id": "node/4363732389",
      "properties": {
        "timestamp": "2023-04-11T22:11:43Z",
        "version": 4,
        "changeset": 134792336,
        "addr:housenumber": "946",
        "addr:postcode": "76480-000",
        "addr:street": "Avenida Bernardo Say√£o",
        "email": "uol.santaterezadegoias@agrodefesa.go.gov.br",
        "government": "administrative",
        "name": "Agrodefesa",
        "name:pt": "AGRODEFESA",
        "office": "government",
        "opening_hours": "Mo-Fr 08:00-12:00, 14:00-18:00",
        "phone": "+55 62 3383 6484",
        "website": "https://www.agrodefesa.go.gov.br/",
        "id": "node/4363732389"
      },
      "geometry": {
        "type": "Point",
        "coordinates": [
          -49.0168276,
          -13.7135485
        ]
      }
    }
  ]
}
