{
  "type": "FeatureCollection",
  "features": [
    {
      "type": "Feature",
      "id": "node/10688344505",
      "properties": {
        "timestamp": "2023-04-01T20:52:00Z",
        "version": 2,
        "changeset": 134394980,
        "addr:housenumber": "207",
        "addr:postcode": "13900-000",
        "addr:street": "Avenida Bernardino de Campos",
        "amenity": "clinic",
        "healthcare": "clinic",
        "healthcare:speciality": "nephrology",
        "name": "CENAM Centro de Nefrologia de Amparo",
        "opening_hours": "Mo-Sa 06:00-21:00",
        "phone": "(19)3817-1379",
        "website": "https://cenamhemodialise.com.br",
        "id": "node/10688344505"
      },
      "geometry": {
        "type": "Point",
        "coordinates": [
          -46.7706753,
          -22.7080546
        ]
      }
    },
    {
      "type": "Feature",
      "id": "node/10688804505",
      "properties": {
        "timestamp": "2024-03-22T14:22:52Z",
        "version": 3,
        "changeset": 149016098,
        "addr:housenumber": "173",
        "addr:postcode": "13900-400",
        "addr:street": "Avenida Bernardino de Campos",
        "amenity": "clinic",
        "healthcare": "clinic",
        "name": "Instituto de Gastroenterologia de Amparo",
        "opening_hours": "Mo-Fr 08:00-17:00",
        "phone": "3808-1373, 3808-6153, 99649-0770",
        "id": "node/10688804505"
      },
      "geometry": {
        "type": "Point",
        "coordinates": [
          -46.7706254,
          -22.7065939
        ]
      }
    },
    {
      "type": "Feature",
      "id": "node/10688804506",
      "properties": {
        "timestamp": "2024-03-22T14:22:52Z",
        "version": 2,
        "changeset": 149016098,
        "addr:housenumber": "130",
        "addr:street": "Rua Doutor Vasco de Toledo",
        "amenity": "clinic",
        "healthcare": "clinic",
        "name": "Instituto Gastro Procto",
        "id": "node/10688804506"
      },
      "geometry": {
        "type": "Point",
        "coordinates": [
          -46.7703412,
          -22.7081392
        ]
      }
    },
    {
      "type": "Feature",
      "id": "node/10691171709",
      "properties": {
        "timestamp": "2024-03-22T14:22:52Z",
        "version": 3,
        "changeset": 149016098,
        "addr:housenumber": "1626",
        "addr:postcode": "13900-560",
        "addr:street": "Avenida Doutor Carlos Burgos",
        "amenity": "clinic",
        "healthcare": "clinic",
        "name": "Clinica CDE - Diagnóstico por Imagem",
        "opening_hours": "Mo-Fr 07:00-18:00",
        "phone": "(19)3737-0770",
        "website": "https://www.clinicacde.com.br/site/",
        "id": "node/10691171709"
      },
      "geometry": {
        "type": "Point",
        "coordinates": [
          -46.7689597,
          -22.698579
        ]
      }
    },
    {
      "type": "Feature",
      "id": "node/10797126318",
      "properties": {
        "timestamp": "2025-01-12T23:23:35Z",
        "version": 2,
        "changeset": 161290952,
        "addr:housenumber": "155",
        "addr:postcode": "13900-000",
        "addr:street": "Rua José Camargo Bichinho",
        "amenity": "clinic",
        "name": "UBS Saúde Centro",
        "id": "node/10797126318"
      },
      "geometry": {
        "type": "Point",
        "coordinates": [
          -46.7704438,
          -22.7002763
        ]
      }
    }
  ]
}
