{
  "type": "FeatureCollection",
  "features": [
    {
      "type": "Feature",
      "id": "way/1157104817",
      "properties": {
        "timestamp": "2023-03-31T05:57:17Z",
        "version": 4,
        "changeset": 134328205,
        "addr:street": "Praça Adelino Bevilacqua",
        "amenity": "community_centre",
        "building": "yes",
        "name": "Centro Paroquial João Paulo II",
        "id": "way/1157104817"
      },
      "geometry": {
        "type": "Polygon",
        "coordinates": [
          [
            [
              -46.7712388,
              -22.7120114
            ],
            [
              -46.7710157,
              -22.7117828
            ],
            [
              -46.7711817,
              -22.7116119
            ],
            [
              -46.7710436,
              -22.7114931
            ],
            [
              -46.7711839,
              -22.7113676
            ],
            [
              -46.7712796,
              -22.7114585
            ],
            [
              -46.7713315,
              -22.7113873
            ],
            [
              -46.7714379,
              -22.7113805
            ],
            [
              -46.7714553,
              -22.7118605
            ],
            [
              -46.7712388,
              -22.7120114
            ]
          ]
        ]
      }
    },
    {
      "type": "Feature",
      "id": "node/10685466705",
      "properties": {
        "timestamp": "2023-02-22T10:41:48Z",
        "version": 1,
        "changeset": 132872859,
        "addr:housenumber": "282",
        "addr:postcode": "13902-752",
        "addr:street": "Rua Vereador Pedro Piva",
        "amenity": "community_centre",
        "name": "Centro Terapêutico Nova Aliança",
        "opening_hours": "24/7",
        "phone": "(11)99770-2567",
        "website": "http://www.ctnovaalianca.com.br",
        "id": "node/10685466705"
      },
      "geometry": {
        "type": "Point",
        "coordinates": [
          -46.7426612,
          -22.6832282
        ]
      }
    },
    {
      "type": "Feature",
      "id": "node/10691910306",
      "properties": {
        "timestamp": "2023-02-24T21:30:43Z",
        "version": 1,
        "changeset": 132985657,
        "addr:housenumber": "131",
        "addr:postcode": "13900-150",
        "addr:street": "Rua Rodrigo Silva",
        "amenity": "community_centre",
        "name": "Sociedade São Vicente de Paulo - Conselho Central",
        "phone": "3808-1778",
        "id": "node/10691910306"
      },
      "geometry": {
        "type": "Point",
        "coordinates": [
          -46.7642958,
          -22.7008452
        ]
      }
    },
    {
      "type": "Feature",
      "id": "node/10694192406",
      "properties": {
        "timestamp": "2023-02-26T04:02:35Z",
        "version": 1,
        "changeset": 133028582,
        "addr:housenumber": "1015",
        "addr:postcode": "13900-560",
        "addr:street": "Avenida Prefeito Raul de Oliveira Fagundes",
        "amenity": "community_centre",
        "name": "Rotary Club de Amparo",
        "id": "node/10694192406"
      },
      "geometry": {
        "type": "Point",
        "coordinates": [
          -46.7768603,
          -22.7096524
        ]
      }
    }
  ]
}
