{
  "type": "FeatureCollection",
  "features": [
    {
      "type": "Feature",
      "id": "node/10688982605",
      "properties": {
        "timestamp": "2024-03-22T14:22:52Z",
        "version": 2,
        "changeset": 149016098,
        "addr:housenumber": "406",
        "addr:street": "Rua Doutor Vasco de Toledo",
        "amenity": "dentist",
        "healthcare": "dentist",
        "name": "Dentista - Luiz Zanarella",
        "id": "node/10688982605"
      },
      "geometry": {
        "type": "Point",
        "coordinates": [
          -46.7710476,
          -22.710099
        ]
      }
    },
    {
      "type": "Feature",
      "id": "node/10703026906",
      "properties": {
        "timestamp": "2023-03-01T22:39:41Z",
        "version": 1,
        "changeset": 133190345,
        "addr:housenumber": "57",
        "addr:street": "Rua Leonel Mantovani",
        "amenity": "dentist",
        "name": "Paulo Henrique Alahby",
        "name:pt": "Paulo Henrique Alahby - Dentista",
        "phone": "3807-4428",
        "id": "node/10703026906"
      },
      "geometry": {
        "type": "Point",
        "coordinates": [
          -46.8133643,
          -22.7105031
        ]
      }
    }
  ]
}
