{
  "type": "FeatureCollection",
  "features": [
    {
      "type": "Feature",
      "id": "node/6394757912",
      "properties": {
        "timestamp": "2022-04-20T16:42:04Z",
        "version": 2,
        "changeset": 119962731,
        "addr:city": "Amparo",
        "addr:housenumber": "369",
        "addr:postcode": "13904-060",
        "addr:street": "Avenida Fioravante Gerbi",
        "addr:suburb": "Ribeirão",
        "government": "tax",
        "name": "Receita Federal",
        "office": "government",
        "opening_hours": "Mo-Fr 08:30-12:30",
        "operator": "Ministério da Fazenda",
        "phone": "+55 (19) 3807-3510",
        "website": "http://www.receita.fazenda.gov.br/Aplicacoes/ATBHE/UnidadesAtendimento/Unidades/InformacoesDasUnidades.aspx?unidade=08018",
        "id": "node/6394757912"
      },
      "geometry": {
        "type": "Point",
        "coordinates": [
          -46.7748511,
          -22.7138265
        ]
      }
    },
    {
      "type": "Feature",
      "id": "node/10687272408",
      "properties": {
        "timestamp": "2023-02-23T01:26:24Z",
        "version": 1,
        "changeset": 132904853,
        "addr:housenumber": "91",
        "addr:street": "Rua Doutor Virgilio Paiva junior",
        "name": "DER Departamento de Estradas de Rodagem",
        "office": "government",
        "website": "http://www.der.sp.gov.br",
        "id": "node/10687272408"
      },
      "geometry": {
        "type": "Point",
        "coordinates": [
          -46.7552965,
          -22.6988394
        ]
      }
    }
  ]
}
