{
  "type": "FeatureCollection",
  "features": [
    {
      "type": "Feature",
      "id": "way/406075021",
      "properties": {
        "timestamp": "2024-03-22T14:22:52Z",
        "version": 5,
        "changeset": 149016098,
        "addr:city": "Amparo",
        "addr:housenumber": "32",
        "addr:street": "Rua Antônio Prado",
        "addr:suburb": "Centro",
        "building": "hotel",
        "building:levels": "5",
        "name": "Hotel Prado",
        "phone": "3807-2007",
        "tourism": "hotel",
        "website": "https://www.pradohotel.com.br/",
        "id": "way/406075021"
      },
      "geometry": {
        "type": "Polygon",
        "coordinates": [
          [
            [
              -46.7684237,
              -22.7064118
            ],
            [
              -46.7685048,
              -22.7066747
            ],
            [
              -46.7685229,
              -22.7066728
            ],
            [
              -46.7683521,
              -22.7067185
            ],
            [
              -46.7682701,
              -22.7064477
            ],
            [
              -46.7684237,
              -22.7064118
            ]
          ]
        ]
      }
    },
    {
      "type": "Feature",
      "id": "node/2534930163",
      "properties": {
        "timestamp": "2022-01-05T08:23:20Z",
        "version": 2,
        "changeset": 115785115,
        "name": "Grande Hotel Amparo",
        "tourism": "hotel",
        "id": "node/2534930163"
      },
      "geometry": {
        "type": "Point",
        "coordinates": [
          -46.7654527,
          -22.7011497
        ]
      }
    },
    {
      "type": "Feature",
      "id": "node/10682047305",
      "properties": {
        "timestamp": "2024-10-05T13:35:44Z",
        "version": 2,
        "changeset": 157501552,
        "addr:housenumber": "km 01",
        "addr:postcode": "13900-000",
        "addr:street": "Rodovia Professora María da Silva Valente",
        "name": "AFPESP - Amparo",
        "phone": "(19) 4040-4077",
        "tourism": "hotel",
        "website": "http://www.afpesp.org.br/unidades-de-lazer/circuito-das-aguas/amparo",
        "id": "node/10682047305"
      },
      "geometry": {
        "type": "Point",
        "coordinates": [
          -46.730427,
          -22.6864505
        ]
      }
    },
    {
      "type": "Feature",
      "id": "node/10778994920",
      "properties": {
        "timestamp": "2023-04-02T03:33:32Z",
        "version": 1,
        "changeset": 134400410,
        "addr:housenumber": "294",
        "addr:postcode": "13900-140",
        "addr:street": "Rua Condé Parnaíba",
        "internet_access": "wlan",
        "name": "Hotel Pousada Aconchego",
        "opening_hours": "24/7",
        "phone": "3808-5637",
        "tourism": "hotel",
        "id": "node/10778994920"
      },
      "geometry": {
        "type": "Point",
        "coordinates": [
          -46.7655692,
          -22.7007642
        ]
      }
    },
    {
      "type": "Feature",
      "id": "node/10992283210",
      "properties": {
        "timestamp": "2023-06-20T14:55:11Z",
        "version": 1,
        "changeset": 137567762,
        "addr:housenumber": "332",
        "addr:street": "Rua Doutor Washington Luiz",
        "name": "Hospedagem Stay Over Contry Side",
        "tourism": "hotel",
        "id": "node/10992283210"
      },
      "geometry": {
        "type": "Point",
        "coordinates": [
          -46.7622334,
          -22.7022655
        ]
      }
    },
    {
      "type": "Feature",
      "id": "node/11817878770",
      "properties": {
        "timestamp": "2024-04-15T05:47:11Z",
        "version": 1,
        "changeset": 150018530,
        "name": "Lake Vilas - Charm Hotel & Spa",
        "stars": "5",
        "tourism": "hotel",
        "id": "node/11817878770"
      },
      "geometry": {
        "type": "Point",
        "coordinates": [
          -46.8265433,
          -22.7934017
        ]
      }
    }
  ]
}
