{
  "type": "FeatureCollection",
  "features": [
    {
      "type": "Feature",
      "id": "node/10682184509",
      "properties": {
        "timestamp": "2024-03-22T14:22:52Z",
        "version": 2,
        "changeset": 149016098,
        "addr:housenumber": "187",
        "addr:postcode": "13904-025",
        "addr:street": "Rua Cabo João dos Santos",
        "amenity": "pharmacy",
        "healthcare": "pharmacy",
        "name": "Farmácia Ribeirão",
        "name:pt": "Farmácia Ribeirão loja 01",
        "opening_hours": "Mo-Fr 07:00-19:00; Sa 07:00-14:00",
        "phone": "3807-4534",
        "id": "node/10682184509"
      },
      "geometry": {
        "type": "Point",
        "coordinates": [
          -46.7699533,
          -22.7120012
        ]
      }
    },
    {
      "type": "Feature",
      "id": "node/10682184610",
      "properties": {
        "timestamp": "2023-03-31T00:58:48Z",
        "version": 2,
        "changeset": 134323837,
        "addr:housenumber": "12",
        "addr:postcode": "13900-415",
        "addr:street": "Praça Virgílio de Araújo",
        "amenity": "pharmacy",
        "healthcare": "pharmacy",
        "name": "Farmácia Ribeirão loja 02",
        "opening_hours": "Mo-Fr 07:00-19:00; Sa 07:00-14:00",
        "id": "node/10682184610"
      },
      "geometry": {
        "type": "Point",
        "coordinates": [
          -46.7709736,
          -22.710723
        ]
      }
    },
    {
      "type": "Feature",
      "id": "node/10686282205",
      "properties": {
        "timestamp": "2025-01-13T01:32:41Z",
        "version": 2,
        "changeset": 161292864,
        "addr:housenumber": "471",
        "addr:postcode": "13900-400",
        "addr:street": "Avenida Bernardino de Campos",
        "amenity": "pharmacy",
        "brand": "Droga Raia",
        "brand:wikidata": "Q10357101",
        "healthcare": "pharmacy",
        "name": "Droga Raia",
        "opening_hours": "Mo-Sa 07:00-23:00",
        "phone": "998793637",
        "id": "node/10686282205"
      },
      "geometry": {
        "type": "Point",
        "coordinates": [
          -46.7729589,
          -22.7083487
        ]
      }
    },
    {
      "type": "Feature",
      "id": "node/10686282406",
      "properties": {
        "timestamp": "2024-03-22T14:22:52Z",
        "version": 3,
        "changeset": 149016098,
        "addr:housenumber": "61",
        "addr:postcode": "13900-490",
        "addr:street": "Rua Ferrucio Guarizzo",
        "amenity": "pharmacy",
        "healthcare": "pharmacy",
        "name": "Farmácia de Manipulação Nova Hera",
        "opening_hours": "Mo-Fr 08:00-18:30; Sa 08:00-12:00",
        "phone": "3808-5766",
        "website": "https://www.farmacianovahera.com.br/",
        "id": "node/10686282406"
      },
      "geometry": {
        "type": "Point",
        "coordinates": [
          -46.7687008,
          -22.703596
        ]
      }
    },
    {
      "type": "Feature",
      "id": "node/10686400107",
      "properties": {
        "timestamp": "2024-03-22T14:22:52Z",
        "version": 2,
        "changeset": 149016098,
        "addr:street": "Rua Gustavo Vasconcelos",
        "amenity": "pharmacy",
        "healthcare": "pharmacy",
        "name": "Farmácia de Especialidades",
        "id": "node/10686400107"
      },
      "geometry": {
        "type": "Point",
        "coordinates": [
          -46.7706667,
          -22.7002696
        ]
      }
    },
    {
      "type": "Feature",
      "id": "node/10689042505",
      "properties": {
        "timestamp": "2024-03-22T14:22:52Z",
        "version": 2,
        "changeset": 149016098,
        "addr:housenumber": "176",
        "addr:postcode": "13900-400",
        "addr:street": "Avenida Bernardino de Campos",
        "amenity": "pharmacy",
        "healthcare": "pharmacy",
        "name": "Farmácia Unimed",
        "opening_hours": "Mo-Fr 08:00-22:00; Sa 09:00-15:00",
        "phone": "3808-7099",
        "website": "http://www.unimedamparo.coop.br/",
        "id": "node/10689042505"
      },
      "geometry": {
        "type": "Point",
        "coordinates": [
          -46.7707369,
          -22.7065668
        ]
      }
    }
  ]
}
