{
  "type": "FeatureCollection",
  "features": [
    {
      "type": "Feature",
      "id": "node/8737198413",
      "properties": {
        "timestamp": "2021-05-16T21:56:51Z",
        "version": 1,
        "changeset": 104786677,
        "amenity": "veterinary",
        "name": "UniVet",
        "id": "node/8737198413"
      },
      "geometry": {
        "type": "Point",
        "coordinates": [
          -46.7667103,
          -22.706087
        ]
      }
    },
    {
      "type": "Feature",
      "id": "node/8737198414",
      "properties": {
        "timestamp": "2021-05-16T21:56:51Z",
        "version": 1,
        "changeset": 104786677,
        "amenity": "veterinary",
        "name": "VetCare",
        "id": "node/8737198414"
      },
      "geometry": {
        "type": "Point",
        "coordinates": [
          -46.7610009,
          -22.7021305
        ]
      }
    },
    {
      "type": "Feature",
      "id": "node/10683468406",
      "properties": {
        "timestamp": "2024-03-22T14:22:52Z",
        "version": 2,
        "changeset": 149016098,
        "addr:housenumber": "160",
        "addr:postcode": "13900-377",
        "addr:street": "Rua Doutor Vasco de Toledo",
        "amenity": "veterinary",
        "name": "Clínica Veterinária Vet Pop 24 horas",
        "opening_hours": "24/7",
        "phone": "(19) 99655-5576",
        "id": "node/10683468406"
      },
      "geometry": {
        "type": "Point",
        "coordinates": [
          -46.7704022,
          -22.7082543
        ]
      }
    },
    {
      "type": "Feature",
      "id": "node/10683468705",
      "properties": {
        "timestamp": "2023-02-21T14:31:23Z",
        "version": 1,
        "changeset": 132839003,
        "addr:housenumber": "110",
        "addr:postcode": "13904-012",
        "addr:street": "Rua Doutor Laudo de Camargo",
        "amenity": "veterinary",
        "name": "Clínica Veterinária Vira Lata & Cia.",
        "opening_hours": "Mo-Fr 09:00-17:00; Sa 09:00-12:00",
        "phone": "3808-5657",
        "id": "node/10683468705"
      },
      "geometry": {
        "type": "Point",
        "coordinates": [
          -46.7770688,
          -22.710694
        ]
      }
    },
    {
      "type": "Feature",
      "id": "node/10688804705",
      "properties": {
        "timestamp": "2023-02-23T16:47:11Z",
        "version": 1,
        "changeset": 132935216,
        "addr:housenumber": "129",
        "addr:postcode": "13900-450",
        "addr:street": "Avenida Doutor Arruda",
        "amenity": "veterinary",
        "name": "Oftalmologia Veterinária Thaísa Fernandes",
        "phone": "(19)99845-5205",
        "id": "node/10688804705"
      },
      "geometry": {
        "type": "Point",
        "coordinates": [
          -46.7724125,
          -22.7084275
        ]
      }
    },
    {
      "type": "Feature",
      "id": "node/10695629506",
      "properties": {
        "timestamp": "2023-02-26T20:30:31Z",
        "version": 1,
        "changeset": 133058483,
        "addr:housenumber": "84",
        "addr:postcode": "13900-000",
        "addr:street": "Rua da Alegria",
        "amenity": "veterinary",
        "name": "Pronto Socorro Veterinário São Francisco",
        "opening_hours": "Mo-Fr 08:00-18:00; Sa 08:00-12:00",
        "phone": "3807-4990;3808-1933",
        "website": "https://pronto-socorro-veterinario-sao-francisco.negocio.site/?utm_source=gmb&utm_medium=referral",
        "id": "node/10695629506"
      },
      "geometry": {
        "type": "Point",
        "coordinates": [
          -46.7675502,
          -22.6984332
        ]
      }
    }
  ]
}
