{
  "type": "FeatureCollection",
  "features": [
    {
      "type": "Feature",
      "id": "way/973118306",
      "properties": {
        "timestamp": "2021-08-14T16:27:17Z",
        "version": 1,
        "changeset": 109676143,
        "addr:city": "Ijuí",
        "addr:postcode": "98700000",
        "addr:street": "Rua Francisco Berenhauser",
        "addr:suburb": "Penha",
        "amenity": "clinic",
        "building": "yes",
        "healthcare": "clinic",
        "name": "Unidade Básica de Saúde Penha",
        "id": "way/973118306"
      },
      "geometry": {
        "type": "Polygon",
        "coordinates": [
          [
            [
              -53.91468,
              -28.4019993
            ],
            [
              -53.9146824,
              -28.4022252
            ],
            [
              -53.9145049,
              -28.402217
            ],
            [
              -53.9145142,
              -28.4019952
            ],
            [
              -53.91468,
              -28.4019993
            ]
          ]
        ]
      }
    }
  ]
}
