{
  "type": "FeatureCollection",
  "features": [
    {
      "type": "Feature",
      "id": "way/492881092",
      "properties": {
        "timestamp": "2018-10-07T15:31:26Z",
        "version": 2,
        "changeset": 63282428,
        "addr:street": "Rua José Urbano de Carvalho",
        "amenity": "school",
        "contact:phone": "+55 33 34129092",
        "name": "Escola Estadual Major Lermino Pimenta",
        "id": "way/492881092"
      },
      "geometry": {
        "type": "Polygon",
        "coordinates": [
          [
            [
              -42.7280403,
              -18.4179745
            ],
            [
              -42.7282031,
              -18.4182621
            ],
            [
              -42.7275675,
              -18.418586
            ],
            [
              -42.7274047,
              -18.4182985
            ],
            [
              -42.7280403,
              -18.4179745
            ]
          ]
        ]
      }
    },
    {
      "type": "Feature",
      "id": "way/631388534",
      "properties": {
        "timestamp": "2022-10-30T11:58:17Z",
        "version": 2,
        "changeset": 128243184,
        "addr:city": "São João Evangelista",
        "addr:housenumber": "130",
        "addr:postcode": "39705-000",
        "addr:street": "Rua Durval Pimenta",
        "addr:suburb": "Centro",
        "amenity": "school",
        "contact:phone": "+55 33 34122828",
        "name": "Escola Estadual Josefina Pimenta",
        "operator": "Governo de Minas Gerais",
        "operator:type": "public",
        "id": "way/631388534"
      },
      "geometry": {
        "type": "Polygon",
        "coordinates": [
          [
            [
              -42.7690204,
              -18.5524027
            ],
            [
              -42.7692685,
              -18.5526214
            ],
            [
              -42.7697325,
              -18.5534529
            ],
            [
              -42.7690914,
              -18.5538394
            ],
            [
              -42.7687012,
              -18.5531757
            ],
            [
              -42.7690204,
              -18.5524027
            ]
          ]
        ]
      }
    },
    {
      "type": "Feature",
      "id": "way/631420432",
      "properties": {
        "timestamp": "2018-10-07T00:16:19Z",
        "version": 1,
        "changeset": 63268429,
        "amenity": "school",
        "name": "Escola Estadual Doutor Lúcio Vieira da Silva",
        "id": "way/631420432"
      },
      "geometry": {
        "type": "Polygon",
        "coordinates": [
          [
            [
              -42.8189939,
              -18.5367458
            ],
            [
              -42.8191549,
              -18.5369442
            ],
            [
              -42.8194284,
              -18.5370459
            ],
            [
              -42.8188545,
              -18.5379741
            ],
            [
              -42.8181061,
              -18.5373307
            ],
            [
              -42.8189939,
              -18.5367458
            ]
          ]
        ]
      }
    },
    {
      "type": "Feature",
      "id": "way/766557297",
      "properties": {
        "timestamp": "2022-11-01T13:12:21Z",
        "version": 2,
        "changeset": 128345322,
        "addr:city": "São João Evangelista",
        "addr:postcode": "39705-000",
        "addr:street": "Rua Doutor Nelson de Sena",
        "addr:suburb": "Centro",
        "amenity": "school",
        "name": "Escola Municipal Prefeito Alberto Pimenta",
        "id": "way/766557297"
      },
      "geometry": {
        "type": "Polygon",
        "coordinates": [
          [
            [
              -42.7676,
              -18.5467396
            ],
            [
              -42.7673814,
              -18.5470505
            ],
            [
              -42.7671946,
              -18.5469324
            ],
            [
              -42.7674132,
              -18.5466215
            ],
            [
              -42.7676,
              -18.5467396
            ]
          ]
        ]
      }
    },
    {
      "type": "Feature",
      "id": "node/3764118093",
      "properties": {
        "timestamp": "2022-11-01T18:25:57Z",
        "version": 6,
        "changeset": 128358933,
        "addr:city": "São João Evangelista",
        "addr:housenumber": "29",
        "addr:postcode": "39705-000",
        "addr:street": "Praça Santana",
        "addr:suburb": "Centro",
        "amenity": "school",
        "name": "Escola Estadual José Guimarães",
        "note:pt": "Não consta no Cadastro Estadual",
        "operator": "Governo de Minas Gerais",
        "operator:type": "public",
        "id": "node/3764118093"
      },
      "geometry": {
        "type": "Point",
        "coordinates": [
          -42.760569,
          -18.5418153
        ]
      }
    },
    {
      "type": "Feature",
      "id": "node/10143016924",
      "properties": {
        "timestamp": "2022-10-31T13:56:50Z",
        "version": 1,
        "changeset": 128300651,
        "addr:city": "São João Evangelista",
        "addr:postcode": "39704-000",
        "addr:suburb": "Ribeirão da Mesa",
        "amenity": "school",
        "name": "Escola Municipal Antonio Medina Cardoso",
        "operator": "Município de São João Evangelista",
        "operator:type": "public",
        "id": "node/10143016924"
      },
      "geometry": {
        "type": "Point",
        "coordinates": [
          -42.7241845,
          -18.6226057
        ]
      }
    },
    {
      "type": "Feature",
      "id": "node/10147263755",
      "properties": {
        "timestamp": "2022-11-01T12:25:40Z",
        "version": 1,
        "changeset": 128343287,
        "addr:city": "São João Evangelista",
        "addr:housenumber": "494",
        "addr:postcode": "39705-000",
        "addr:street": "Rua Coronel Antônio Borges do Amaral",
        "addr:suburb": "Centro",
        "amenity": "school",
        "contact:phone": "+55 33 34121203",
        "name": "Escola Estadual Monsenhor Pinheiro",
        "operator": "Governo de Minas Gerais",
        "operator:type": "public",
        "id": "node/10147263755"
      },
      "geometry": {
        "type": "Point",
        "coordinates": [
          -42.7664373,
          -18.5486073
        ]
      }
    },
    {
      "type": "Feature",
      "id": "node/10147962261",
      "properties": {
        "timestamp": "2022-11-01T19:26:46Z",
        "version": 2,
        "changeset": 128360814,
        "addr:city": "São João Evangelista",
        "addr:housenumber": "04",
        "addr:postcode": "39705-000",
        "addr:street": "Rua Astéria Ribeiro",
        "addr:suburb": "Engenho da Serra",
        "amenity": "school",
        "name": "Escola Municipal Maria De Lourdes Medina Bicalho",
        "id": "node/10147962261"
      },
      "geometry": {
        "type": "Point",
        "coordinates": [
          -42.7531644,
          -18.5405677
        ]
      }
    },
    {
      "type": "Feature",
      "id": "node/10167325901",
      "properties": {
        "timestamp": "2022-11-07T19:30:39Z",
        "version": 1,
        "changeset": 128611148,
        "addr:city": "São João Evangelista",
        "addr:postcode": "39705-000",
        "addr:street": "Praça São Geraldo",
        "addr:suburb": "São Geraldo do Baguari",
        "amenity": "school",
        "contact:phone": "+55 33 34126001",
        "name": "Escola Estadual Carmela Dutra",
        "operator": "Governo de Minas Gerais",
        "operator:type": "public",
        "source": "Cadastro Escolar MG",
        "id": "node/10167325901"
      },
      "geometry": {
        "type": "Point",
        "coordinates": [
          -42.7937098,
          -18.374072
        ]
      }
    }
  ]
}
