{
  "type": "FeatureCollection",
  "features": [
    {
      "type": "Feature",
      "id": "way/235272223",
      "properties": {
        "timestamp": "2019-05-05T00:16:28Z",
        "version": 2,
        "changeset": 69892163,
        "addr:city": "Beberibe",
        "addr:postcode": "62842-000",
        "addr:street": "Rua Manoel Francisco das Chagas",
        "addr:suburb": "Lagoa Funda",
        "amenity": "school",
        "name": "EMEF José Francisco das Chagas",
        "id": "way/235272223"
      },
      "geometry": {
        "type": "Polygon",
        "coordinates": [
          [
            [
              -38.0537545,
              -4.2820388
            ],
            [
              -38.0538373,
              -4.2823267
            ],
            [
              -38.0535361,
              -4.2824217
            ],
            [
              -38.0534453,
              -4.2821237
            ],
            [
              -38.0537545,
              -4.2820388
            ]
          ]
        ]
      }
    },
    {
      "type": "Feature",
      "id": "way/687873567",
      "properties": {
        "timestamp": "2019-05-05T00:16:26Z",
        "version": 1,
        "changeset": 69892163,
        "addr:city": "Beberibe",
        "addr:postcode": "62842-000",
        "addr:street": "Rua Moreira Rocha",
        "addr:suburb": "Sucatinga",
        "amenity": "school",
        "name": "EMEF Manoel de Lima",
        "id": "way/687873567"
      },
      "geometry": {
        "type": "Polygon",
        "coordinates": [
          [
            [
              -38.0542436,
              -4.2643584
            ],
            [
              -38.0544126,
              -4.2648833
            ],
            [
              -38.0539543,
              -4.2650293
            ],
            [
              -38.0537995,
              -4.2645094
            ],
            [
              -38.0542436,
              -4.2643584
            ]
          ]
        ]
      }
    },
    {
      "type": "Feature",
      "id": "way/1203677729",
      "properties": {
        "timestamp": "2023-08-30T17:21:18Z",
        "version": 1,
        "changeset": 140600411,
        "addr:city": "Beberibe",
        "addr:postcode": "62842-000",
        "addr:street": "Rua Carmosita Ferreira Cassiano",
        "addr:suburb": "Sucatinga",
        "amenity": "school",
        "email": "fcamoreira@escola.ce.gov.br",
        "name": "EEMTI Francisca Moreira de Souza",
        "operator": "Governo do Estado do Ceará",
        "operator:type": "government",
        "operator:wikidata": "Q96475319",
        "phone": "+55 (85) 3327-4990",
        "website": "leifcamoreira.blogspot.com",
        "wheelchair": "yes",
        "id": "way/1203677729"
      },
      "geometry": {
        "type": "Polygon",
        "coordinates": [
          [
            [
              -38.0523645,
              -4.2625864
            ],
            [
              -38.0526747,
              -4.2633821
            ],
            [
              -38.0520005,
              -4.2636295
            ],
            [
              -38.0519117,
              -4.2633757
            ],
            [
              -38.0517043,
              -4.2634492
            ],
            [
              -38.0515318,
              -4.2628674
            ],
            [
              -38.0523645,
              -4.2625864
            ]
          ]
        ]
      }
    },
    {
      "type": "Feature",
      "id": "way/1203754073",
      "properties": {
        "timestamp": "2023-08-30T17:41:20Z",
        "version": 1,
        "changeset": 140601195,
        "addr:city": "Beberibe",
        "addr:postcode": "60840-000",
        "addr:street": "Rua Osmar Peixoto",
        "addr:suburb": "Sítio Bom Jardim",
        "amenity": "school",
        "email": "eeeppedroqueiroz@escola.ce.gov.br",
        "name": "EEEP Pedro de Queiroz Lima",
        "operator": "Governo do Estado do Ceará",
        "operator:type": "government",
        "operator:wikidata": "Q96475319",
        "phone": "+55 (85) 3338-2321",
        "website": "eeeppedrodequeirozlima.blogspot.com",
        "id": "way/1203754073"
      },
      "geometry": {
        "type": "Polygon",
        "coordinates": [
          [
            [
              -38.1147884,
              -4.1861394
            ],
            [
              -38.1151515,
              -4.1876148
            ],
            [
              -38.1142451,
              -4.1876118
            ],
            [
              -38.1138789,
              -4.1861335
            ],
            [
              -38.1147884,
              -4.1861394
            ]
          ]
        ]
      }
    },
    {
      "type": "Feature",
      "id": "node/5101652944",
      "properties": {
        "timestamp": "2017-09-12T19:03:41Z",
        "version": 1,
        "changeset": 51983240,
        "amenity": "school",
        "id": "node/5101652944"
      },
      "geometry": {
        "type": "Point",
        "coordinates": [
          -38.1164625,
          -4.3569226
        ]
      }
    },
    {
      "type": "Feature",
      "id": "node/5101983414",
      "properties": {
        "timestamp": "2017-09-12T21:07:31Z",
        "version": 1,
        "changeset": 51987054,
        "amenity": "school",
        "id": "node/5101983414"
      },
      "geometry": {
        "type": "Point",
        "coordinates": [
          -37.9869717,
          -4.2964332
        ]
      }
    }
  ]
}
