{
  "type": "FeatureCollection",
  "features": [
    {
      "type": "Feature",
      "id": "node/10090285423",
      "properties": {
        "timestamp": "2022-10-10T18:05:39Z",
        "version": 1,
        "changeset": 127317509,
        "addr:city": "Divinolândia de Minas",
        "addr:housenumber": "59",
        "addr:postcode": "39735-000",
        "addr:street": "Rua Nossa Senhora do Carmo",
        "addr:suburb": "Centro",
        "amenity": "school",
        "email": "escola.42480@educacao.mg.gov.br",
        "name": "Escola Estadual Professor Carvalhais",
        "operator": "Secretaria de Educação do Estado de Minas Gerais",
        "operator:type": "public",
        "phone": "+55 33 3414 1268",
        "id": "node/10090285423"
      },
      "geometry": {
        "type": "Point",
        "coordinates": [
          -42.6165354,
          -18.8014478
        ]
      }
    },
    {
      "type": "Feature",
      "id": "node/10090285451",
      "properties": {
        "timestamp": "2022-10-10T18:05:39Z",
        "version": 1,
        "changeset": 127317509,
        "addr:city": "Divinolândia de Minas",
        "addr:housenumber": "120",
        "addr:postcode": "39735-000",
        "addr:street": "Rua Nossa Senhora do Carmo",
        "addr:suburb": "Centro",
        "amenity": "school",
        "email": "escolatitoalvespintojunior@gmail.com",
        "name": "Escola Municipal Tito Alves Pinto Junior",
        "operator": "Município de Divinilândia de Minas",
        "operator:type": "public",
        "id": "node/10090285451"
      },
      "geometry": {
        "type": "Point",
        "coordinates": [
          -42.6170334,
          -18.8008399
        ]
      }
    },
    {
      "type": "Feature",
      "id": "node/10090285459",
      "properties": {
        "timestamp": "2022-10-11T12:25:21Z",
        "version": 2,
        "changeset": 127357269,
        "addr:city": "Divinolândia de Minas",
        "addr:housenumber": "50",
        "addr:postcode": "39735-000",
        "addr:street": "Praça Professor Carvalhais",
        "addr:suburb": "Centro",
        "amenity": "school",
        "name": "Escola Municipal Rui Barbosa",
        "operator": "Município de Divinolândia de Minas",
        "operator:type": "public",
        "id": "node/10090285459"
      },
      "geometry": {
        "type": "Point",
        "coordinates": [
          -42.6151913,
          -18.8044752
        ]
      }
    },
    {
      "type": "Feature",
      "id": "node/10128039563",
      "properties": {
        "timestamp": "2022-10-25T12:26:21Z",
        "version": 1,
        "changeset": 128037910,
        "addr:city": "Divinolândia de Minas",
        "addr:postcode": "39735-000",
        "addr:street": "Rua Antônio Serafim Figueiredo",
        "addr:suburb": "Córrego Santa Cruz",
        "amenity": "school",
        "name": "Escola Municipal Monsenhor Domingos",
        "operator": "Município de Divinolândia de Minas",
        "operator:type": "public",
        "id": "node/10128039563"
      },
      "geometry": {
        "type": "Point",
        "coordinates": [
          -42.6159674,
          -18.7686407
        ]
      }
    },
    {
      "type": "Feature",
      "id": "node/10128051796",
      "properties": {
        "timestamp": "2022-10-25T12:26:21Z",
        "version": 1,
        "changeset": 128037910,
        "addr:city": "Divinolândia de Minas",
        "addr:postcode": "39735-000",
        "addr:suburb": "Santana do Barro",
        "amenity": "school",
        "name": "Escola Municipal Nossa Senhora do Carmo",
        "id": "node/10128051796"
      },
      "geometry": {
        "type": "Point",
        "coordinates": [
          -42.5200577,
          -18.7315053
        ]
      }
    }
  ]
}
