{
  "type": "FeatureCollection",
  "features": [
    {
      "type": "Feature",
      "id": "node/4145692579",
      "properties": {
        "timestamp": "2016-04-25T02:05:01Z",
        "version": 1,
        "changeset": 38845905,
        "addr:city": "Eldorado do Sul",
        "addr:postcode": "92990-000",
        "amenity": "university",
        "name": "Estação Experimental Agronômica",
        "operator": "UFRGS",
        "id": "node/4145692579"
      },
      "geometry": {
        "type": "Point",
        "coordinates": [
          -51.6759014,
          -30.1074271
        ]
      }
    },
    {
      "type": "Feature",
      "id": "node/11992195351",
      "properties": {
        "timestamp": "2024-06-19T14:13:02Z",
        "version": 1,
        "changeset": 152899745,
        "addr:housenumber": "319",
        "addr:street": "Rua Francisco Azevedo da Silva",
        "amenity": "university",
        "name": "UFPel Unidade Eldorado do Sul",
        "operator": "Universidade Federal de Pelotas Unidade Eldorado do Sul",
        "id": "node/11992195351"
      },
      "geometry": {
        "type": "Point",
        "coordinates": [
          -51.3098008,
          -29.9864447
        ]
      }
    }
  ]
}
