{
  "type": "FeatureCollection",
  "features": [
    {
      "type": "Feature",
      "id": "way/909114924",
      "properties": {
        "timestamp": "2021-02-23T22:29:19Z",
        "version": 3,
        "changeset": 99857831,
        "addr:housenumber": "40",
        "addr:postcode": "14150-000",
        "addr:street": "Rua Lindolfo Marques",
        "addr:suburb": "Jardim Dom Pedro I",
        "amenity": "clinic",
        "building": "yes",
        "healthcare": "clinic",
        "healthcare:speciality": "general;gynaecology;paediatrics",
        "name": "Unidade Básica de Saúde Dário José Rodrigues",
        "opening_hours": "Mo-Th 08:00-17:00; Fr-Su,PH off",
        "phone": "+55 16 3987 1593",
        "ref": "INEP-2027550",
        "id": "way/909114924"
      },
      "geometry": {
        "type": "Polygon",
        "coordinates": [
          [
            [
              -47.5921721,
              -21.2160804
            ],
            [
              -47.5922127,
              -21.2161735
            ],
            [
              -47.592137,
              -21.2161993
            ],
            [
              -47.5921518,
              -21.2162372
            ],
            [
              -47.5920742,
              -21.2162785
            ],
            [
              -47.5920649,
              -21.2162251
            ],
            [
              -47.591967,
              -21.216263
            ],
            [
              -47.591943,
              -21.2161597
            ],
            [
              -47.5920354,
              -21.2161321
            ],
            [
              -47.5920187,
              -21.2160908
            ],
            [
              -47.5920982,
              -21.2160563
            ],
            [
              -47.5921074,
              -21.2161063
            ],
            [
              -47.5921721,
              -21.2160804
            ]
          ]
        ]
      }
    },
    {
      "type": "Feature",
      "id": "way/909114926",
      "properties": {
        "timestamp": "2021-02-23T22:29:19Z",
        "version": 2,
        "changeset": 99857831,
        "addr:housenumber": "60",
        "addr:postcode": "14150-000",
        "addr:street": "Rua Lindolfo Marques",
        "addr:suburb": "Jardim Dom Pedro I",
        "amenity": "clinic",
        "building": "yes",
        "healthcare": "clinic",
        "name": "Ambulatório de Saúde Mental Deusdedith Mega",
        "opening_hours": "Mo-Th 08:00-17:00; Fr-Su,PH off",
        "phone": "+55 16 3987 8333",
        "id": "way/909114926"
      },
      "geometry": {
        "type": "Polygon",
        "coordinates": [
          [
            [
              -47.5919301,
              -21.2161976
            ],
            [
              -47.5919578,
              -21.216282
            ],
            [
              -47.5918839,
              -21.2162923
            ],
            [
              -47.5918968,
              -21.2163508
            ],
            [
              -47.5918007,
              -21.2163784
            ],
            [
              -47.5917933,
              -21.2163336
            ],
            [
              -47.5917268,
              -21.2163543
            ],
            [
              -47.5916899,
              -21.216282
            ],
            [
              -47.5919301,
              -21.2161976
            ]
          ]
        ]
      }
    },
    {
      "type": "Feature",
      "id": "way/910162350",
      "properties": {
        "timestamp": "2021-02-23T21:56:26Z",
        "version": 2,
        "changeset": 99856829,
        "addr:housenumber": "95",
        "addr:postcode": "14150-000",
        "addr:street": "Rua Doutor Tancredo de Almeida Neves",
        "addr:suburb": "Jardim Boa Vista",
        "amenity": "clinic",
        "building": "yes",
        "healthcare": "clinic",
        "name": "Policlíca Central de Serrana",
        "opening_hours": "Mo-Th 07:00-17:00; Fr´Su,PH off",
        "phone": "+55 16 3987 2399",
        "ref": "CNES-2056941",
        "id": "way/910162350"
      },
      "geometry": {
        "type": "Polygon",
        "coordinates": [
          [
            [
              -47.6039077,
              -21.2040191
            ],
            [
              -47.6039578,
              -21.2040974
            ],
            [
              -47.6034777,
              -21.2043639
            ],
            [
              -47.6034277,
              -21.2042855
            ],
            [
              -47.6039077,
              -21.2040191
            ]
          ]
        ]
      }
    }
  ]
}
