{
  "type": "FeatureCollection",
  "features": [
    {
      "type": "Feature",
      "id": "way/492809216",
      "properties": {
        "timestamp": "2017-05-11T15:18:35Z",
        "version": 1,
        "changeset": 48595975,
        "amenity": "school",
        "id": "way/492809216"
      },
      "geometry": {
        "type": "Polygon",
        "coordinates": [
          [
            [
              -41.809827,
              -18.0072243
            ],
            [
              -41.8095828,
              -18.0077436
            ],
            [
              -41.809202,
              -18.0075816
            ],
            [
              -41.8094462,
              -18.0070623
            ],
            [
              -41.809827,
              -18.0072243
            ]
          ]
        ]
      }
    },
    {
      "type": "Feature",
      "id": "way/624286974",
      "properties": {
        "timestamp": "2022-08-02T17:09:19Z",
        "version": 2,
        "changeset": 124401515,
        "addr:city": "Itambacuri",
        "addr:housenumber": "711",
        "addr:postcode": "39830-000",
        "addr:street": "Rua Governador Valadares",
        "addr:suburb": "Centro",
        "amenity": "school",
        "contact:phone": "+55 33 35111347",
        "name": "Escola Estadual Frei Gaspar de Módica",
        "operator": "Secretaria de Educação do Estado de Minas Gerais",
        "operator:type": "public",
        "phone": "+55 33 3511 1347",
        "id": "way/624286974"
      },
      "geometry": {
        "type": "Polygon",
        "coordinates": [
          [
            [
              -41.6778333,
              -18.0315009
            ],
            [
              -41.6775223,
              -18.0320307
            ],
            [
              -41.6770535,
              -18.0317819
            ],
            [
              -41.6773646,
              -18.0312521
            ],
            [
              -41.6778333,
              -18.0315009
            ]
          ]
        ]
      }
    },
    {
      "type": "Feature",
      "id": "way/1083275401",
      "properties": {
        "timestamp": "2022-08-02T17:09:19Z",
        "version": 1,
        "changeset": 124401515,
        "addr:city": "Itambacuri",
        "addr:housenumber": "195",
        "addr:postcode": "39830-000",
        "addr:street": "Rua Doutor  João Pinheiro",
        "addr:suburb": "Centro",
        "amenity": "school",
        "name": "Escola Estadual Doutor Tristão da Cunha",
        "operator": "Secretaria de Educação do Estado de Minas Gerais",
        "operator:type": "public",
        "phone": "+55 33 3511 1560",
        "id": "way/1083275401"
      },
      "geometry": {
        "type": "Polygon",
        "coordinates": [
          [
            [
              -41.6845172,
              -18.0356152
            ],
            [
              -41.6841783,
              -18.0357558
            ],
            [
              -41.6838563,
              -18.0350175
            ],
            [
              -41.6842137,
              -18.0348798
            ],
            [
              -41.6845172,
              -18.0356152
            ]
          ]
        ]
      }
    },
    {
      "type": "Feature",
      "id": "way/1083275402",
      "properties": {
        "timestamp": "2022-08-02T17:09:19Z",
        "version": 1,
        "changeset": 124401515,
        "addr:city": "Itambacuri",
        "addr:housenumber": "515",
        "addr:postcode": "39830-000",
        "addr:street": "Rua Professor Mendonça",
        "addr:suburb": "Nossa Senhora de Fátima",
        "amenity": "school",
        "name": "Escola Estadual Professora Milcia de Oliveira Abrantes",
        "operator": "Secretaria de Educação do Estado de Minas Gerais",
        "operator:type": "public",
        "phone": "+55 33 3511 1477",
        "id": "way/1083275402"
      },
      "geometry": {
        "type": "Polygon",
        "coordinates": [
          [
            [
              -41.6763316,
              -18.0372246
            ],
            [
              -41.6761516,
              -18.0372962
            ],
            [
              -41.6757746,
              -18.0364779
            ],
            [
              -41.6759789,
              -18.0363983
            ],
            [
              -41.6763316,
              -18.0372246
            ]
          ]
        ]
      }
    },
    {
      "type": "Feature",
      "id": "way/1083275403",
      "properties": {
        "timestamp": "2022-08-02T17:09:19Z",
        "version": 1,
        "changeset": 124401515,
        "addr:city": "Itambacuri",
        "addr:housenumber": "440",
        "addr:postcode": "39830-000",
        "addr:street": "Praça Tenente Lages",
        "addr:suburb": "Centro",
        "amenity": "school",
        "name": "Escola Estadual Carlos Prates",
        "operator": "Secretaria de Educação do Estado de Minas Gerais",
        "operator:type": "public",
        "phone": "+55 33 3511 1015",
        "id": "way/1083275403"
      },
      "geometry": {
        "type": "Polygon",
        "coordinates": [
          [
            [
              -41.6840898,
              -18.0379655
            ],
            [
              -41.6833868,
              -18.0383835
            ],
            [
              -41.6830673,
              -18.0378977
            ],
            [
              -41.6831045,
              -18.0378757
            ],
            [
              -41.6825269,
              -18.0369979
            ],
            [
              -41.6829184,
              -18.036765
            ],
            [
              -41.6834915,
              -18.0376361
            ],
            [
              -41.6837658,
              -18.0374729
            ],
            [
              -41.6840898,
              -18.0379655
            ]
          ]
        ]
      }
    },
    {
      "type": "Feature",
      "id": "way/1083275404",
      "properties": {
        "timestamp": "2022-08-02T17:09:19Z",
        "version": 1,
        "changeset": 124401515,
        "addr:city": "Itambacuri",
        "addr:housenumber": "194",
        "addr:postcode": "39830-000",
        "addr:street": "Travessa Santa Clara",
        "addr:suburb": "Centro",
        "amenity": "school",
        "name": "Escola Estadual Madre Serafina de Jesus",
        "operator": "Secretaria de Educação do Estado de Minas Gerais",
        "operator:type": "public",
        "phone": "+55 33 3511 1444",
        "id": "way/1083275404"
      },
      "geometry": {
        "type": "Polygon",
        "coordinates": [
          [
            [
              -41.680093,
              -18.0297523
            ],
            [
              -41.6800555,
              -18.0301655
            ],
            [
              -41.6796827,
              -18.0302394
            ],
            [
              -41.6798087,
              -18.0307572
            ],
            [
              -41.679173,
              -18.0306603
            ],
            [
              -41.6789772,
              -18.0307138
            ],
            [
              -41.6786688,
              -18.030747
            ],
            [
              -41.6783174,
              -18.0308618
            ],
            [
              -41.6780438,
              -18.0302088
            ],
            [
              -41.678025,
              -18.0299997
            ],
            [
              -41.6789585,
              -18.029737
            ],
            [
              -41.6791087,
              -18.0298671
            ],
            [
              -41.6798516,
              -18.0297701
            ],
            [
              -41.680093,
              -18.0297523
            ]
          ]
        ]
      }
    },
    {
      "type": "Feature",
      "id": "node/9930004334",
      "properties": {
        "timestamp": "2022-08-03T17:19:25Z",
        "version": 1,
        "changeset": 124446294,
        "addr:city": "Itambacuri",
        "addr:housenumber": "1454",
        "addr:postcode": "39830-000",
        "addr:street": "Rua Seráfica",
        "addr:suburb": "Centro",
        "amenity": "school",
        "name": "Escola Cooperativa Cepi",
        "operator": "Cooperativa Educacional de Professores de Itambacuri Limitada",
        "operator:type": "private",
        "id": "node/9930004334"
      },
      "geometry": {
        "type": "Point",
        "coordinates": [
          -41.6828376,
          -18.0328447
        ]
      }
    }
  ]
}
