{
  "type": "FeatureCollection",
  "features": [
    {
      "type": "Feature",
      "id": "way/556405620",
      "properties": {
        "timestamp": "2021-08-07T10:48:17Z",
        "version": 2,
        "changeset": 109304853,
        "addr:city": "Caruaru",
        "addr:housenumber": "862",
        "addr:street": "Rua São Gabriel",
        "addr:suburb": "Maurício de Nassau",
        "amenity": "clinic",
        "building": "public",
        "healthcare": "clinic",
        "name": "Clínica da Mulher",
        "operator": "Secretaria de Saúde de Caruaru",
        "operator:type": "public",
        "id": "way/556405620"
      },
      "geometry": {
        "type": "Polygon",
        "coordinates": [
          [
            [
              -35.9732342,
              -8.2730419
            ],
            [
              -35.9731219,
              -8.2733022
            ],
            [
              -35.9730025,
              -8.2732518
            ],
            [
              -35.973115,
              -8.2729909
            ],
            [
              -35.9732342,
              -8.2730419
            ]
          ]
        ]
      }
    },
    {
      "type": "Feature",
      "id": "way/671909548",
      "properties": {
        "timestamp": "2019-02-20T20:56:57Z",
        "version": 1,
        "changeset": 67407504,
        "amenity": "clinic",
        "building": "yes",
        "healthcare": "clinic",
        "name": "UPAE Caruaru",
        "id": "way/671909548"
      },
      "geometry": {
        "type": "Polygon",
        "coordinates": [
          [
            [
              -35.9642198,
              -8.3041457
            ],
            [
              -35.9641463,
              -8.3042289
            ],
            [
              -35.9640774,
              -8.304289
            ],
            [
              -35.9640655,
              -8.3042774
            ],
            [
              -35.9639468,
              -8.3041615
            ],
            [
              -35.9638999,
              -8.3041157
            ],
            [
              -35.9639256,
              -8.3040833
            ],
            [
              -35.9638579,
              -8.3040048
            ],
            [
              -35.9638275,
              -8.3040232
            ],
            [
              -35.9636711,
              -8.30385
            ],
            [
              -35.9638205,
              -8.3037137
            ],
            [
              -35.9642198,
              -8.3041457
            ]
          ]
        ]
      }
    },
    {
      "type": "Feature",
      "id": "way/683799824",
      "properties": {
        "timestamp": "2021-08-07T10:44:53Z",
        "version": 2,
        "changeset": 109304704,
        "addr:city": "Caruaru",
        "addr:street": "Rua dos Guararapes",
        "addr:suburb": "Nossa Senhora das Dores",
        "amenity": "clinic",
        "building": "public",
        "healthcare": "clinic",
        "name": "Centro de Saúde Amélia Pontes",
        "operator": "Secretaria de Saúde de Caruaru",
        "operator:type": "public",
        "id": "way/683799824"
      },
      "geometry": {
        "type": "Polygon",
        "coordinates": [
          [
            [
              -35.9677531,
              -8.2874805
            ],
            [
              -35.9677098,
              -8.2876399
            ],
            [
              -35.9675614,
              -8.2876004
            ],
            [
              -35.9676046,
              -8.2874411
            ],
            [
              -35.9677531,
              -8.2874805
            ]
          ]
        ]
      }
    },
    {
      "type": "Feature",
      "id": "way/696752216",
      "properties": {
        "timestamp": "2019-06-12T20:16:57Z",
        "version": 1,
        "changeset": 71193805,
        "amenity": "clinic",
        "building": "yes",
        "healthcare": "clinic",
        "name": "Posto de Saúde da Família - Demostenes Veras",
        "id": "way/696752216"
      },
      "geometry": {
        "type": "Polygon",
        "coordinates": [
          [
            [
              -36.0119043,
              -8.2675871
            ],
            [
              -36.0118999,
              -8.2676704
            ],
            [
              -36.0119615,
              -8.2676736
            ],
            [
              -36.0119562,
              -8.2677753
            ],
            [
              -36.0119045,
              -8.2677727
            ],
            [
              -36.011901,
              -8.2678395
            ],
            [
              -36.011777,
              -8.2678332
            ],
            [
              -36.0117901,
              -8.2675813
            ],
            [
              -36.0119043,
              -8.2675871
            ]
          ]
        ]
      }
    },
    {
      "type": "Feature",
      "id": "way/971111747",
      "properties": {
        "timestamp": "2021-08-07T10:15:22Z",
        "version": 2,
        "changeset": 109303527,
        "addr:city": "Caruaru",
        "addr:housenumber": "1248",
        "addr:street": "Avenida Leão Dourado",
        "addr:suburb": "Caiucá",
        "amenity": "clinic",
        "building": "public",
        "healthcare": "clinic",
        "name": "Ambulatório Multiprofissional Especializado",
        "operator": "Secretaria de Saúde de Caruaru",
        "operator:type": "public",
        "short_name": "AME",
        "id": "way/971111747"
      },
      "geometry": {
        "type": "Polygon",
        "coordinates": [
          [
            [
              -35.9924414,
              -8.2861125
            ],
            [
              -35.9924776,
              -8.2864589
            ],
            [
              -35.9922107,
              -8.2864862
            ],
            [
              -35.9921952,
              -8.2863376
            ],
            [
              -35.9922148,
              -8.2863356
            ],
            [
              -35.9921977,
              -8.2861716
            ],
            [
              -35.9924414,
              -8.2861125
            ]
          ]
        ]
      }
    },
    {
      "type": "Feature",
      "id": "node/7223634525",
      "properties": {
        "timestamp": "2020-09-28T16:38:56Z",
        "version": 2,
        "changeset": 91656283,
        "amenity": "clinic",
        "description": "SERVIÇOS OFERECIDOS:<br>1 – Acolhimento;<br>2 – Pré-natal e Puericultura;<br>3 – Consulta Médica e de Enfermagem;<br>4 – Consulta e Acompanhamento Odontológico;<br>5 – Procedimentos de Enfermagem (curativos, nebulização, sondagem);<br>6",
        "name": "UBS Morada Nova",
        "id": "node/7223634525"
      },
      "geometry": {
        "type": "Point",
        "coordinates": [
          -35.9263182,
          -8.2791849
        ]
      }
    },
    {
      "type": "Feature",
      "id": "node/8979050486",
      "properties": {
        "timestamp": "2021-08-04T06:35:19Z",
        "version": 3,
        "changeset": 109126818,
        "addr:city": "Caruaru",
        "addr:street": "Rua Marieta Cruz",
        "addr:suburb": "Bairro Agamenon",
        "amenity": "clinic",
        "fixme": "Verificar posição e se são dois postos",
        "healthcare": "clinic",
        "name": "Unidade de Saúde da Família Agamenon Magalhães I e Encanto da Serra",
        "operator": "Secretaria de Saúde de Caruaru",
        "operator:type": "public",
        "id": "node/8979050486"
      },
      "geometry": {
        "type": "Point",
        "coordinates": [
          -35.9739898,
          -8.3060106
        ]
      }
    },
    {
      "type": "Feature",
      "id": "node/8979066943",
      "properties": {
        "timestamp": "2021-08-04T06:35:19Z",
        "version": 2,
        "changeset": 109126818,
        "addr:city": "Caruaru",
        "addr:housenumber": "684",
        "addr:street": "Rua São Joaquim do Monte",
        "addr:suburb": "Caiucá",
        "amenity": "clinic",
        "fixme": "Confirmar posição",
        "healthcare": "clinic",
        "name": "Unidade de Saúde da Família Caiucá I",
        "operator": "Secretaria de Saúde de Caruaru",
        "operator:type": "public",
        "id": "node/8979066943"
      },
      "geometry": {
        "type": "Point",
        "coordinates": [
          -35.9910634,
          -8.285644
        ]
      }
    },
    {
      "type": "Feature",
      "id": "node/8979067168",
      "properties": {
        "timestamp": "2021-08-04T06:41:41Z",
        "version": 1,
        "changeset": 109127112,
        "addr:city": "Caruaru",
        "addr:housenumber": "88",
        "addr:street": "Avenida Doutor Oscar Laranjeira Neto",
        "addr:suburb": "Vila do Aeroporto",
        "amenity": "clinic",
        "fixme": "Confirmar posição",
        "healthcare": "clinic",
        "name": "Unidade de Saúde da Família Cajá",
        "operator": "Secretaria de Saúde de Caruaru",
        "operator:type": "public",
        "id": "node/8979067168"
      },
      "geometry": {
        "type": "Point",
        "coordinates": [
          -36.0044302,
          -8.2866924
        ]
      }
    },
    {
      "type": "Feature",
      "id": "node/8979094132",
      "properties": {
        "timestamp": "2021-08-04T06:35:19Z",
        "version": 1,
        "changeset": 109126818,
        "addr:city": "Caruaru",
        "addr:housenumber": "330",
        "addr:street": "Avenida Caiucá",
        "addr:suburb": "Caiucá",
        "amenity": "clinic",
        "fixme": "Confirmar posição",
        "healthcare": "clinic",
        "name": "Unidade de Saúde da Família Caiucá II",
        "operator": "Secretaria de Saúde de Caruaru",
        "operator:type": "public",
        "id": "node/8979094132"
      },
      "geometry": {
        "type": "Point",
        "coordinates": [
          -35.986446,
          -8.2852074
        ]
      }
    },
    {
      "type": "Feature",
      "id": "node/8979111469",
      "properties": {
        "timestamp": "2021-08-04T06:54:12Z",
        "version": 1,
        "changeset": 109127730,
        "addr:city": "Caruaru",
        "addr:housenumber": "561",
        "addr:street": "Rua São Nicolau de Mira",
        "addr:suburb": "João Mota",
        "amenity": "clinic",
        "fixme": "Confirmar posição",
        "healthcare": "clinic",
        "name": "Unidade de Saúde da Família CAIC",
        "operator": "Secretaria de Saúde de Caruaru",
        "operator:type": "public",
        "id": "node/8979111469"
      },
      "geometry": {
        "type": "Point",
        "coordinates": [
          -35.9894139,
          -8.2803993
        ]
      }
    },
    {
      "type": "Feature",
      "id": "node/8979152038",
      "properties": {
        "timestamp": "2021-08-04T07:05:36Z",
        "version": 1,
        "changeset": 109128288,
        "addr:city": "Caruaru",
        "addr:street": "Rua da União",
        "addr:suburb": "Centenário",
        "amenity": "clinic",
        "fixme": "Confirmar posição",
        "healthcare": "clinic",
        "name": "Unidade de Saúde da Família Centenário",
        "operator": "Secretaria de Saúde de Caruaru",
        "operator:type": "public",
        "id": "node/8979152038"
      },
      "geometry": {
        "type": "Point",
        "coordinates": [
          -35.9795474,
          -8.2829659
        ]
      }
    },
    {
      "type": "Feature",
      "id": "node/8979169217",
      "properties": {
        "timestamp": "2021-08-04T07:13:08Z",
        "version": 1,
        "changeset": 109128660,
        "addr:city": "Caruaru",
        "addr:housenumber": "290",
        "addr:street": "Rua Jurandir Galdino",
        "addr:suburb": "Cidade Jardim",
        "amenity": "clinic",
        "fixme": "Confirmar posição",
        "healthcare": "clinic",
        "name": "Unidade de Saúde da Família Cidade Jardim",
        "operator": "Secretaria de Saúde de Caruaru",
        "operator:type": "public",
        "id": "node/8979169217"
      },
      "geometry": {
        "type": "Point",
        "coordinates": [
          -35.9522116,
          -8.2782838
        ]
      }
    },
    {
      "type": "Feature",
      "id": "node/8979224657",
      "properties": {
        "timestamp": "2021-08-04T07:49:24Z",
        "version": 1,
        "changeset": 109130525,
        "addr:city": "Caruaru",
        "addr:housenumber": "222",
        "addr:street": "Rua Arquimedes de Oliveira",
        "addr:suburb": "Jardim Liberdade",
        "amenity": "clinic",
        "fixme": "Confirmar posição",
        "healthcare": "clinic",
        "name": "Unidade de Saúde da Família Jardim Liberdade",
        "operator": "Secretaria de Saúde de Caruaru",
        "operator:type": "public",
        "id": "node/8979224657"
      },
      "geometry": {
        "type": "Point",
        "coordinates": [
          -35.9837008,
          -8.2960736
        ]
      }
    },
    {
      "type": "Feature",
      "id": "node/8979285131",
      "properties": {
        "timestamp": "2021-08-04T08:06:45Z",
        "version": 1,
        "changeset": 109131415,
        "addr:city": "Caruaru",
        "addr:housenumber": "38",
        "addr:street": "Rua Professora Esmeralda Barros",
        "addr:suburb": "Jardim Panorama",
        "amenity": "clinic",
        "fixme": "Confirmar posição",
        "healthcare": "clinic",
        "name": "Unidade de Saúde da Família Jardim Panorama I",
        "operator": "Secretaria de Saúde de Caruaru",
        "operator:type": "public",
        "id": "node/8979285131"
      },
      "geometry": {
        "type": "Point",
        "coordinates": [
          -35.9869798,
          -8.267595
        ]
      }
    },
    {
      "type": "Feature",
      "id": "node/8979728280",
      "properties": {
        "timestamp": "2021-08-04T11:17:27Z",
        "version": 1,
        "changeset": 109141589,
        "addr:city": "Caruaru",
        "addr:housenumber": "273",
        "addr:street": "Rua Alexandrino Boa ventura",
        "addr:suburb": "José Carlos Oliveira",
        "amenity": "clinic",
        "fixme": "Confirmar posição",
        "healthcare": "clinic",
        "name": "Unidade de Saúde da Família José Carlos Oliveira I",
        "operator": "Secretaria de Saúde de Caruaru",
        "operator:type": "public",
        "id": "node/8979728280"
      },
      "geometry": {
        "type": "Point",
        "coordinates": [
          -36.0010721,
          -8.2789753
        ]
      }
    },
    {
      "type": "Feature",
      "id": "node/8979763229",
      "properties": {
        "timestamp": "2021-08-04T11:31:18Z",
        "version": 1,
        "changeset": 109142250,
        "addr:city": "Caruaru",
        "addr:housenumber": "205",
        "addr:street": "Rua Maestro Galdino",
        "addr:suburb": "Antônio Liberato",
        "amenity": "clinic",
        "fixme": "Confirmar posição",
        "healthcare": "clinic",
        "name": "Unidade de Saúde da Família José Liberato I",
        "operator": "Secretaria de Saúde de Caruaru",
        "operator:type": "public",
        "id": "node/8979763229"
      },
      "geometry": {
        "type": "Point",
        "coordinates": [
          -35.9413708,
          -8.2843946
        ]
      }
    },
    {
      "type": "Feature",
      "id": "node/8981648990",
      "properties": {
        "timestamp": "2021-08-05T03:35:37Z",
        "version": 1,
        "changeset": 109172127,
        "addr:city": "Caruaru",
        "addr:housenumber": "98",
        "addr:street": "Avenida Berna",
        "addr:suburb": "José Liberato",
        "amenity": "clinic",
        "fixme": "Confirmar posição",
        "healthcare": "clinic",
        "name": "Unidade de Saúde da Família José Liberato II",
        "operator": "Secretaria de Saúde de Caruaru",
        "operator:type": "public",
        "id": "node/8981648990"
      },
      "geometry": {
        "type": "Point",
        "coordinates": [
          -35.9441516,
          -8.2899451
        ]
      }
    },
    {
      "type": "Feature",
      "id": "node/8981730002",
      "properties": {
        "timestamp": "2021-08-05T03:40:51Z",
        "version": 1,
        "changeset": 109172315,
        "addr:city": "Caruaru",
        "addr:housenumber": "266",
        "addr:street": "Rua João José do Rêgo",
        "addr:suburb": "Nossa Senhora das Dores",
        "amenity": "clinic",
        "fixme": "Confirmar posição",
        "healthcare": "clinic",
        "name": "Unidade de Saúde da Família Morro São Francisco",
        "operator": "Secretaria de Saúde de Caruaru",
        "operator:type": "public",
        "id": "node/8981730002"
      },
      "geometry": {
        "type": "Point",
        "coordinates": [
          -35.9756843,
          -8.2870647
        ]
      }
    },
    {
      "type": "Feature",
      "id": "node/8981752524",
      "properties": {
        "timestamp": "2021-08-05T04:00:41Z",
        "version": 1,
        "changeset": 109173055,
        "addr:city": "Caruaru",
        "addr:housenumber": "11",
        "addr:street": "Rua Alcione de Albuquerque",
        "addr:suburb": "Sol Poente",
        "amenity": "clinic",
        "fixme": "Confirmar posição",
        "healthcare": "clinic",
        "name": "Unidade de Saúde da Família Padre Inácio",
        "operator": "Secretaria de Saúde de Caruaru",
        "operator:type": "public",
        "id": "node/8981752524"
      },
      "geometry": {
        "type": "Point",
        "coordinates": [
          -35.9998557,
          -8.2796687
        ]
      }
    },
    {
      "type": "Feature",
      "id": "node/8981757525",
      "properties": {
        "timestamp": "2021-08-05T04:06:12Z",
        "version": 1,
        "changeset": 109173238,
        "addr:city": "Caruaru",
        "addr:housenumber": "376",
        "addr:street": "Rua Major João Coelho",
        "addr:suburb": "Rendeiras",
        "amenity": "clinic",
        "fixme": "Confirmar posição",
        "healthcare": "clinic",
        "name": "Unidade de Saúde da Família Rendeiras",
        "operator": "Secretaria de Saúde de Caruaru",
        "operator:type": "public",
        "id": "node/8981757525"
      },
      "geometry": {
        "type": "Point",
        "coordinates": [
          -35.9335756,
          -8.2798512
        ]
      }
    },
    {
      "type": "Feature",
      "id": "node/8981771991",
      "properties": {
        "timestamp": "2021-08-05T04:37:33Z",
        "version": 1,
        "changeset": 109174486,
        "addr:city": "Caruaru",
        "addr:housenumber": "386",
        "addr:street": "Rua Alexandrino Alencar",
        "addr:suburb": "Salgado",
        "amenity": "clinic",
        "fixme": "Confirmar posição",
        "healthcare": "clinic",
        "name": "Unidade de Saúde da Família Salgado IV",
        "operator": "Secretaria de Saúde de Caruaru",
        "operator:type": "public",
        "id": "node/8981771991"
      },
      "geometry": {
        "type": "Point",
        "coordinates": [
          -35.9591237,
          -8.2756627
        ]
      }
    },
    {
      "type": "Feature",
      "id": "node/8981798412",
      "properties": {
        "timestamp": "2021-08-05T04:33:50Z",
        "version": 1,
        "changeset": 109174324,
        "addr:city": "Caruaru",
        "addr:street": "Rua Martins Francisco",
        "addr:suburb": "Salgado",
        "amenity": "clinic",
        "fixme": "Confirmar posição",
        "healthcare": "clinic",
        "name": "Unidade de Saúde da Família Salgado I e II",
        "operator": "Secretaria de Saúde de Caruaru",
        "operator:type": "public",
        "id": "node/8981798412"
      },
      "geometry": {
        "type": "Point",
        "coordinates": [
          -35.9564576,
          -8.2812075
        ]
      }
    },
    {
      "type": "Feature",
      "id": "node/8981798413",
      "properties": {
        "timestamp": "2021-08-05T04:35:51Z",
        "version": 1,
        "changeset": 109174415,
        "addr:city": "Caruaru",
        "addr:housenumber": "127",
        "addr:street": "Rua Senador Nilo Coelho",
        "addr:suburb": "Salgado",
        "amenity": "clinic",
        "fixme": "Confirmar posição",
        "healthcare": "clinic",
        "name": "Unidade de Saúde da Família Salgado III",
        "operator": "Secretaria de Saúde de Caruaru",
        "operator:type": "public",
        "id": "node/8981798413"
      },
      "geometry": {
        "type": "Point",
        "coordinates": [
          -35.9534964,
          -8.2692008
        ]
      }
    },
    {
      "type": "Feature",
      "id": "node/8981810493",
      "properties": {
        "timestamp": "2021-08-05T04:41:20Z",
        "version": 2,
        "changeset": 109174661,
        "addr:city": "Caruaru",
        "addr:housenumber": "5",
        "addr:street": "Rua Neco Lira",
        "addr:suburb": "Salgado",
        "amenity": "clinic",
        "fixme": "Confirmar posição",
        "healthcare": "clinic",
        "name": "Unidade de Saúde da Família Sinhazinha I e II",
        "operator": "Secretaria de Saúde de Caruaru",
        "operator:type": "public",
        "id": "node/8981810493"
      },
      "geometry": {
        "type": "Point",
        "coordinates": [
          -35.9642507,
          -8.279177
        ]
      }
    },
    {
      "type": "Feature",
      "id": "node/8982938581",
      "properties": {
        "timestamp": "2021-08-05T09:53:48Z",
        "version": 1,
        "changeset": 109191769,
        "addr:city": "Caruaru",
        "addr:street": "Rua Afrânio Cordeiro de Souza",
        "addr:suburb": "Maria Auxiliadora",
        "amenity": "clinic",
        "fixme": "Confirmar posição",
        "healthcare": "clinic",
        "name": "Unidade de Saúde da Família Maria Auxiliadora I e II",
        "operator": "Secretaria de Saúde de Caruaru",
        "operator:type": "public",
        "id": "node/8982938581"
      },
      "geometry": {
        "type": "Point",
        "coordinates": [
          -35.9960979,
          -8.2766143
        ]
      }
    },
    {
      "type": "Feature",
      "id": "node/8982938715",
      "properties": {
        "timestamp": "2021-08-05T09:57:57Z",
        "version": 1,
        "changeset": 109192000,
        "addr:city": "Caruaru",
        "addr:street": "Rua Presidente Artur Bernardes",
        "addr:suburb": "Salgado",
        "amenity": "clinic",
        "fixme": "Confirmar posição",
        "healthcare": "clinic",
        "name": "Unidade de Saúde da Família Escola Salgado I, II e III",
        "operator": "Secretaria de Saúde de Caruaru",
        "operator:type": "public",
        "id": "node/8982938715"
      },
      "geometry": {
        "type": "Point",
        "coordinates": [
          -35.9573883,
          -8.2721246
        ]
      }
    },
    {
      "type": "Feature",
      "id": "node/8982940377",
      "properties": {
        "timestamp": "2021-08-05T09:52:52Z",
        "version": 1,
        "changeset": 109191701,
        "addr:city": "Caruaru",
        "addr:street": "Rua João Cordeiro de Souza",
        "addr:suburb": "Vassoural",
        "amenity": "clinic",
        "fixme": "Confirmar posição",
        "healthcare": "clinic",
        "name": "Unidade de Saúde da Família Vassoural I, II e III",
        "operator": "Secretaria de Saúde de Caruaru",
        "operator:type": "public",
        "id": "node/8982940377"
      },
      "geometry": {
        "type": "Point",
        "coordinates": [
          -35.9695883,
          -8.2998942
        ]
      }
    },
    {
      "type": "Feature",
      "id": "node/8982953846",
      "properties": {
        "timestamp": "2021-08-05T09:59:31Z",
        "version": 1,
        "changeset": 109192077,
        "addr:city": "Caruaru",
        "addr:street": "Rua Deputado Osvaldo Rabelo",
        "addr:suburb": "Nova Caruaru",
        "amenity": "clinic",
        "fixme": "Confirmar posição",
        "healthcare": "clinic",
        "name": "Unidade de Saúde da Família Nova Caruaru",
        "operator": "Secretaria de Saúde de Caruaru",
        "operator:type": "public",
        "id": "node/8982953846"
      },
      "geometry": {
        "type": "Point",
        "coordinates": [
          -35.9772608,
          -8.2601375
        ]
      }
    },
    {
      "type": "Feature",
      "id": "node/8982959133",
      "properties": {
        "timestamp": "2021-08-05T10:04:59Z",
        "version": 1,
        "changeset": 109192384,
        "addr:city": "Caruaru",
        "addr:street": "Rua Arrojado de Lisboa",
        "addr:suburb": "Santa Rosa",
        "amenity": "clinic",
        "fixme": "Confirmar posição",
        "healthcare": "clinic",
        "name": "Unidade de Saúde da Família Santa Rosa I",
        "operator": "Secretaria de Saúde de Caruaru",
        "operator:type": "public",
        "id": "node/8982959133"
      },
      "geometry": {
        "type": "Point",
        "coordinates": [
          -35.9601054,
          -8.2982128
        ]
      }
    },
    {
      "type": "Feature",
      "id": "node/8982981434",
      "properties": {
        "timestamp": "2021-08-05T10:12:35Z",
        "version": 1,
        "changeset": 109192824,
        "addr:city": "Caruaru",
        "addr:street": "Rua Cabo",
        "addr:suburb": "COHAB I",
        "amenity": "clinic",
        "fixme": "Confirmar posição",
        "healthcare": "clinic",
        "name": "Centro de Saúde Boa Vista",
        "operator": "Secretaria de Saúde de Caruaru",
        "operator:type": "public",
        "id": "node/8982981434"
      },
      "geometry": {
        "type": "Point",
        "coordinates": [
          -35.9880647,
          -8.2756734
        ]
      }
    },
    {
      "type": "Feature",
      "id": "node/8983001540",
      "properties": {
        "timestamp": "2021-08-05T10:22:27Z",
        "version": 1,
        "changeset": 109193403,
        "addr:city": "Caruaru",
        "addr:housenumber": "267",
        "addr:street": "Rua Martins Afonso",
        "addr:suburb": "São Francisco",
        "amenity": "clinic",
        "fixme": "Confirmar posição",
        "healthcare": "clinic",
        "name": "Centro de Saúde Ana Rodrigues",
        "operator": "Secretaria de Saúde de Caruaru",
        "operator:type": "public",
        "id": "node/8983001540"
      },
      "geometry": {
        "type": "Point",
        "coordinates": [
          -35.9785234,
          -8.290908
        ]
      }
    },
    {
      "type": "Feature",
      "id": "node/8987622047",
      "properties": {
        "timestamp": "2021-08-07T10:38:49Z",
        "version": 1,
        "changeset": 109304480,
        "addr:city": "Caruaru",
        "addr:housenumber": "276",
        "addr:street": "Rua Martins Afonso",
        "addr:suburb": "São Francisco",
        "amenity": "clinic",
        "fixme": "Confirmar posição",
        "healthcare": "clinic",
        "name": "Unidade de Saúde Mental Infanto Juvenil",
        "operator": "Secretaria de Saúde de Caruaru",
        "operator:type": "public",
        "id": "node/8987622047"
      },
      "geometry": {
        "type": "Point",
        "coordinates": [
          -35.9789211,
          -8.2909564
        ]
      }
    }
  ]
}
