{
  "type": "FeatureCollection",
  "features": [
    {
      "type": "Feature",
      "id": "way/242396687",
      "properties": {
        "timestamp": "2023-10-16T03:01:44Z",
        "version": 6,
        "changeset": 142642096,
        "addr:city": "Cerquilho",
        "addr:housenumber": "200",
        "addr:postcode": "18520-000",
        "addr:street": "Rua Paulo Setúbal",
        "amenity": "hospital",
        "emergency": "yes",
        "healthcare": "hospital",
        "name": "Santa Casa de Misricórdia de Cerquilho",
        "phone": "+55 15 3384-8444",
        "start_date": "1982-06-05",
        "website": "https://www.santacasacerquilho.com.br/",
        "id": "way/242396687"
      },
      "geometry": {
        "type": "Polygon",
        "coordinates": [
          [
            [
              -47.7442846,
              -23.1710421
            ],
            [
              -47.7443597,
              -23.1716701
            ],
            [
              -47.7436516,
              -23.1717534
            ],
            [
              -47.7435724,
              -23.1711179
            ],
            [
              -47.7442846,
              -23.1710421
            ]
          ]
        ]
      }
    }
  ]
}
