{
  "type": "FeatureCollection",
  "features": [
    {
      "type": "Feature",
      "id": "node/7673842346",
      "properties": {
        "timestamp": "2021-02-22T02:12:45Z",
        "version": 3,
        "changeset": 99705879,
        "addr:city": "Cerquilho",
        "addr:housenumber": "23",
        "addr:postcode": "18520-000",
        "addr:street": "Rua do Ipê",
        "addr:suburb": "Centro",
        "amenity": "library",
        "contact:facebook": "https://pt-br.facebook.com/BibliotecaCerquilho/",
        "name": "Biblioteca Pública Municipal Guilherme de Almeida",
        "operator": "Prefeitura Municipal de Cerquilho",
        "operator:type": "public",
        "phone": "+55 15 3284 2701",
        "ref:sniic": "ES-2924",
        "website": "http://bibliotecas.cultura.gov.br/espaco/2924/",
        "wikidata": "Q89213511",
        "id": "node/7673842346"
      },
      "geometry": {
        "type": "Point",
        "coordinates": [
          -47.7438161,
          -23.1635281
        ]
      }
    }
  ]
}
