{
  "type": "FeatureCollection",
  "features": [
    {
      "type": "Feature",
      "id": "node/12195153920",
      "properties": {
        "timestamp": "2024-09-23T17:49:50Z",
        "version": 1,
        "changeset": 157007316,
        "addr:city": "Jacinto",
        "addr:postcode": "39930-000",
        "addr:street": "Avenida Prefeito Antônio Quaresma",
        "addr:suburb": "Centro",
        "amenity": "clinic",
        "healthcare": "clinic",
        "healthcare:speciality": "physiotherapy",
        "name": "Centro de Reabilitação José Alves de Souza",
        "operator": "Município de Jacinto",
        "operator:type": "public",
        "id": "node/12195153920"
      },
      "geometry": {
        "type": "Point",
        "coordinates": [
          -40.2939082,
          -16.1483644
        ]
      }
    },
    {
      "type": "Feature",
      "id": "node/12195153925",
      "properties": {
        "timestamp": "2024-09-23T17:49:50Z",
        "version": 1,
        "changeset": 157007316,
        "addr:city": "Jacinto",
        "addr:street": "Rua Estudante Lucas Dias Almeida",
        "amenity": "clinic",
        "healthcare": "clinic",
        "healthcare:speciality": "general",
        "name": "Unidade Básica de Saúde Vida Nova",
        "operator": "Município de Jacinto",
        "operator:type": "public",
        "id": "node/12195153925"
      },
      "geometry": {
        "type": "Point",
        "coordinates": [
          -40.2965182,
          -16.1475676
        ]
      }
    },
    {
      "type": "Feature",
      "id": "node/12195153926",
      "properties": {
        "timestamp": "2024-09-23T17:49:50Z",
        "version": 1,
        "changeset": 157007316,
        "addr:city": "Jacinto",
        "amenity": "clinic",
        "healthcare": "clinic",
        "healthcare:speciality": "psychiatry",
        "name": "Centro de Atenção Psicossocial",
        "operator": "Município de Jacinto",
        "operator:type": "public",
        "id": "node/12195153926"
      },
      "geometry": {
        "type": "Point",
        "coordinates": [
          -40.2963666,
          -16.1472764
        ]
      }
    }
  ]
}
