{
  "type": "FeatureCollection",
  "features": [
    {
      "type": "Feature",
      "id": "way/568603930",
      "properties": {
        "timestamp": "2018-03-11T03:52:20Z",
        "version": 1,
        "changeset": 57072579,
        "addr:city": "Mongaguá",
        "addr:country": "BR",
        "addr:housenumber": "3465",
        "addr:street": "Avenida São Paulo",
        "addr:suburb": "Vera Cruz",
        "amenity": "arts_centre",
        "building": "yes",
        "contact:phone": "+55 11 3507 5477",
        "name": "Centro Cultural Raul Cortez",
        "phone": "+55 13 3448 5832",
        "start_date": "1996",
        "tourism": "attraction",
        "website": "http://mongagua.sp.gov.br/1632/pontos-turisticos/centro-cultural-raul-cortez/",
        "id": "way/568603930"
      },
      "geometry": {
        "type": "Polygon",
        "coordinates": [
          [
            [
              -46.6366214,
              -24.1022527
            ],
            [
              -46.6360286,
              -24.1026616
            ],
            [
              -46.6359884,
              -24.1026175
            ],
            [
              -46.6360742,
              -24.1024608
            ],
            [
              -46.6365195,
              -24.1021327
            ],
            [
              -46.6365973,
              -24.102167
            ],
            [
              -46.6366214,
              -24.1022527
            ]
          ]
        ]
      }
    }
  ]
}
