{
  "type": "FeatureCollection",
  "features": [
    {
      "type": "Feature",
      "id": "node/9460542217",
      "properties": {
        "timestamp": "2024-09-23T04:27:46Z",
        "version": 3,
        "changeset": 156976054,
        "addr:postcode": "68710-000",
        "addr:street": "Rua Paraiso do Sol",
        "contact:instagram": "pousada_menescal",
        "email": "pousadas.menescal@gmail.com",
        "internet_access": "wlan",
        "name": "Pousada Menescal l",
        "phone": "+55 91 99211-4376",
        "tourism": "guest_house",
        "id": "node/9460542217"
      },
      "geometry": {
        "type": "Point",
        "coordinates": [
          -47.5408666,
          -0.6293196
        ]
      }
    },
    {
      "type": "Feature",
      "id": "node/9460542218",
      "properties": {
        "timestamp": "2022-01-30T15:36:09Z",
        "version": 1,
        "changeset": 116785390,
        "addr:street": "Avenida Beira Mar",
        "name": "pousada e restaurantes menescal",
        "tourism": "guest_house",
        "id": "node/9460542218"
      },
      "geometry": {
        "type": "Point",
        "coordinates": [
          -47.5394933,
          -0.6300572
        ]
      }
    },
    {
      "type": "Feature",
      "id": "node/9460542219",
      "properties": {
        "timestamp": "2024-09-23T04:29:14Z",
        "version": 3,
        "changeset": 156976076,
        "addr:postcode": "68710-000",
        "addr:street": "Avenida Beira Mar",
        "contact:instagram": "pousada_menescal",
        "email": "pousadas.menescal@gmail.com",
        "internet_access": "wlan",
        "name": "Pousada Menescal II",
        "phone": "+55 91 99211-4376",
        "tourism": "guest_house",
        "id": "node/9460542219"
      },
      "geometry": {
        "type": "Point",
        "coordinates": [
          -47.5394881,
          -0.630066
        ]
      }
    }
  ]
}
