{
  "type": "FeatureCollection",
  "features": [
    {
      "type": "Feature",
      "id": "way/546670520",
      "properties": {
        "timestamp": "2017-12-13T20:32:29Z",
        "version": 1,
        "changeset": 54606903,
        "amenity": "clinic",
        "building": "yes",
        "healthcare": "clinic",
        "id": "way/546670520"
      },
      "geometry": {
        "type": "Polygon",
        "coordinates": [
          [
            [
              -47.4791567,
              -5.5335961
            ],
            [
              -47.4792808,
              -5.5337784
            ],
            [
              -47.479002,
              -5.5339665
            ],
            [
              -47.4788779,
              -5.5337842
            ],
            [
              -47.4791567,
              -5.5335961
            ]
          ]
        ]
      }
    },
    {
      "type": "Feature",
      "id": "way/917144097",
      "properties": {
        "timestamp": "2022-04-16T22:55:02Z",
        "version": 2,
        "changeset": 119800700,
        "addr:city": "Imperatriz",
        "addr:street": "Rua Santo Antônio",
        "addr:suburb": "Olho d'Água dos Martins",
        "amenity": "clinic",
        "building": "yes",
        "healthcare": "clinic",
        "operator": "Prefeitura de Imperatriz",
        "operator:type": "public",
        "id": "way/917144097"
      },
      "geometry": {
        "type": "Polygon",
        "coordinates": [
          [
            [
              -47.5948396,
              -5.3360295
            ],
            [
              -47.5948085,
              -5.3361116
            ],
            [
              -47.5945991,
              -5.3360346
            ],
            [
              -47.5946369,
              -5.3359575
            ],
            [
              -47.5948396,
              -5.3360295
            ]
          ]
        ]
      }
    },
    {
      "type": "Feature",
      "id": "node/4197258231",
      "properties": {
        "timestamp": "2019-11-05T19:06:27Z",
        "version": 3,
        "changeset": 76664212,
        "addr:city": "Imperatriz",
        "addr:housenumber": "1292",
        "addr:postcode": "65900-630",
        "addr:street": "Rua João Lisboa",
        "addr:suburb": "Centro",
        "amenity": "clinic",
        "description": "Dra. Ana Paula dos Reis Milhomem Convênios atendidos: CVRD SUS UNIMED",
        "name": "Pronto Otorrino",
        "phone": "+55 99 3523-1831",
        "id": "node/4197258231"
      },
      "geometry": {
        "type": "Point",
        "coordinates": [
          -47.4755525,
          -5.5223767
        ]
      }
    },
    {
      "type": "Feature",
      "id": "node/4197258232",
      "properties": {
        "timestamp": "2020-08-31T12:06:31Z",
        "version": 3,
        "changeset": 90191226,
        "addr:city": "Imperatriz",
        "addr:housenumber": "1595",
        "addr:postcode": "65903-270",
        "addr:street": "Avenida Dorgival Pinheiro de Sousa",
        "addr:suburb": "Centro",
        "amenity": "clinic",
        "description": "Otorrinolaringologia oferecido pela CLÍNICA OTHOS.",
        "healthcare": "clinic",
        "name": "Clínica Othos",
        "phone": "+55 99 3524-1394",
        "id": "node/4197258232"
      },
      "geometry": {
        "type": "Point",
        "coordinates": [
          -47.4742651,
          -5.5221631
        ]
      }
    },
    {
      "type": "Feature",
      "id": "node/8461070041",
      "properties": {
        "timestamp": "2021-02-26T12:19:46Z",
        "version": 1,
        "changeset": 100050083,
        "addr:city": "Imperatriz",
        "addr:housenumber": "12",
        "addr:street": "Rua São João",
        "addr:suburb": "Nova Imperatriz",
        "amenity": "clinic",
        "healthcare": "clinic",
        "name": "Clínica Fernutri",
        "id": "node/8461070041"
      },
      "geometry": {
        "type": "Point",
        "coordinates": [
          -47.4889526,
          -5.5136729
        ]
      }
    }
  ]
}
