{
  "type": "FeatureCollection",
  "features": [
    {
      "type": "Feature",
      "id": "node/11033589421",
      "properties": {
        "timestamp": "2023-07-08T02:58:49Z",
        "version": 1,
        "changeset": 138249163,
        "addr:city": "Camaquã",
        "addr:housenumber": "687",
        "addr:street": "Avenida Presidente Vargas",
        "addr:suburb": "Centro",
        "amenity": "clinic",
        "currency:XBT": "yes",
        "healthcare": "clinic",
        "healthcare:speciality": "clínica_médica_de_exames",
        "name": "Laboratório Biodiagnóstico",
        "opening_hours": "Segunda a Sexta com Hora Marcada",
        "payment:lightning": "yes",
        "payment:lightning_contactless": "yes",
        "payment:onchain": "yes",
        "phone": "+555136715669",
        "survey:date": "2023-07-07",
        "website": "http://www.labbio.com.br/",
        "id": "node/11033589421"
      },
      "geometry": {
        "type": "Point",
        "coordinates": [
          -51.8146176,
          -30.8490078
        ]
      }
    },
    {
      "type": "Feature",
      "id": "node/11033605311",
      "properties": {
        "timestamp": "2023-07-08T02:50:04Z",
        "version": 1,
        "changeset": 138249103,
        "addr:city": "Camaquã",
        "addr:housenumber": "747",
        "addr:street": "Rua Sete de Setembro",
        "addr:suburb": "Centro",
        "amenity": "clinic",
        "currency:XBT": "yes",
        "healthcare": "clinic",
        "healthcare:speciality": "clínica_médica_de_exames",
        "name": "Clinica Dr Coreixas - Coreixas e Cia LTDA",
        "opening_hours": "Segunda a Sexta com Hora Marcada",
        "payment:lightning": "yes",
        "payment:lightning_contactless": "yes",
        "payment:onchain": "yes",
        "phone": "+555136712951",
        "survey:date": "2023-07-07",
        "id": "node/11033605311"
      },
      "geometry": {
        "type": "Point",
        "coordinates": [
          -51.8163819,
          -30.8490183
        ]
      }
    },
    {
      "type": "Feature",
      "id": "node/11033622345",
      "properties": {
        "timestamp": "2023-07-08T03:18:53Z",
        "version": 1,
        "changeset": 138249329,
        "addr:city": "Camaquã",
        "addr:housenumber": "806",
        "addr:street": "Rua Cristóvão Gomes de Andrade",
        "addr:suburb": "Centro",
        "amenity": "clinic",
        "currency:XBT": "yes",
        "healthcare": "clinic",
        "healthcare:speciality": "clínica_médica",
        "name": "Dr. Anselmo Boesche | CRM 17805 RS - RQE 9163 Médico clínico geral e cirurgião geral.",
        "opening_hours": "Segunda a Sexta com Hora Marcada",
        "payment:lightning": "yes",
        "payment:lightning_contactless": "yes",
        "payment:onchain": "yes",
        "phone": "+555136714852",
        "survey:date": "2023-07-07",
        "website": "https://www.facebook.com/medicacamaqua/posts/3232707396752466/",
        "id": "node/11033622345"
      },
      "geometry": {
        "type": "Point",
        "coordinates": [
          -51.8136078,
          -30.8486113
        ]
      }
    },
    {
      "type": "Feature",
      "id": "node/11033627278",
      "properties": {
        "timestamp": "2023-07-08T03:23:28Z",
        "version": 1,
        "changeset": 138249376,
        "addr:city": "Camaquã",
        "addr:housenumber": "1263",
        "addr:street": "Avenida Olavo Moraes",
        "addr:suburb": "Centro",
        "amenity": "clinic",
        "currency:XBT": "yes",
        "healthcare": "clinic",
        "healthcare:speciality": "clinica_odontologica",
        "name": "Dr. Geraldo barreto Telles",
        "opening_hours": "Mo-Fr",
        "payment:lightning": "yes",
        "payment:lightning_contactless": "yes",
        "payment:onchain": "yes",
        "phone": "+555136711570",
        "survey:date": "2023-07-07",
        "id": "node/11033627278"
      },
      "geometry": {
        "type": "Point",
        "coordinates": [
          -51.8062901,
          -30.851106
        ]
      }
    },
    {
      "type": "Feature",
      "id": "node/11994737541",
      "properties": {
        "timestamp": "2024-06-20T15:34:33Z",
        "version": 1,
        "changeset": 152952073,
        "addr:housenumber": "485",
        "addr:postcode": "96785-222",
        "addr:street": "Rua Bernardo Vieira Dias",
        "amenity": "clinic",
        "name": "Unidade Ambulatorial 03 de Camaquã",
        "operator:ref:vatin": "BR88696810000175",
        "phone": "+55 51 3671 4840",
        "ref:CNES": "2226464",
        "source": "DATASUS",
        "source:addr": "CNEFE 2022;extrapolation",
        "id": "node/11994737541"
      },
      "geometry": {
        "type": "Point",
        "coordinates": [
          -51.8042694,
          -30.8550508
        ]
      }
    }
  ]
}
