{
  "type": "FeatureCollection",
  "features": [
    {
      "type": "Feature",
      "id": "way/258518198",
      "properties": {
        "timestamp": "2019-10-24T10:37:33Z",
        "version": 7,
        "changeset": 76146306,
        "addr:city": "Camaquã",
        "addr:housenumber": "901",
        "addr:postcode": "96180-000",
        "addr:street": "Rua Ana Gonçalves da Silva",
        "addr:suburb": "Olaria",
        "amenity": "college",
        "description": "Instituto Federal de Educação, Ciência e Tecnologia Sul-rio-grandense (IFSul) - Campus Camaquã",
        "name": "IFSUL - Campus Camaquã",
        "phone": "+55 51 3671-7350",
        "toilets:wheelchair": "yes",
        "website": "http://www.camaqua.ifsul.edu.br/portal/",
        "wheelchair": "yes",
        "wikidata": "Q18479751",
        "wikipedia": "pt:Campus Camaquã do Instituto Federal Sul-rio-grandense",
        "id": "way/258518198"
      },
      "geometry": {
        "type": "Polygon",
        "coordinates": [
          [
            [
              -51.8019519,
              -30.8651907
            ],
            [
              -51.8007288,
              -30.8666159
            ],
            [
              -51.7995191,
              -30.865863
            ],
            [
              -51.8007583,
              -30.8644125
            ],
            [
              -51.8019519,
              -30.8651907
            ]
          ]
        ]
      }
    }
  ]
}
