{
  "type": "FeatureCollection",
  "features": [
    {
      "type": "Feature",
      "id": "node/3264607364",
      "properties": {
        "timestamp": "2025-04-02T21:37:34Z",
        "version": 3,
        "changeset": 164440629,
        "addr:city": "Nossa Senhora das Dores",
        "addr:housenumber": "250",
        "addr:postcode": "49600-000",
        "addr:street": "Praça Joel Nascimento",
        "addr:suburb": "Centro",
        "government": "education",
        "name": "DRE 05 Nossa Senhora das Dores",
        "office": "government",
        "id": "node/3264607364"
      },
      "geometry": {
        "type": "Point",
        "coordinates": [
          -37.1934884,
          -10.4885836
        ]
      }
    },
    {
      "type": "Feature",
      "id": "node/12723849165",
      "properties": {
        "timestamp": "2025-04-02T18:02:36Z",
        "version": 1,
        "changeset": 164433215,
        "addr:city": "Nossa Senhora das Dores",
        "addr:postcode": "49600-000",
        "addr:street": "Avenida Paulo Vasconcelos",
        "addr:suburb": "Centro",
        "email": "aps22001180@inss.gov.br",
        "government": "social_security",
        "name": "Agência da Previdência Social de Nossa Senhora das Dores",
        "office": "government",
        "operator": "Instituto Nacional do Seguro Social",
        "operator:short": "INSS",
        "operator:wikidata": "Q10302614",
        "id": "node/12723849165"
      },
      "geometry": {
        "type": "Point",
        "coordinates": [
          -37.1970082,
          -10.4997146
        ]
      }
    }
  ]
}
