{
  "type": "FeatureCollection",
  "features": [
    {
      "type": "Feature",
      "id": "way/292309302",
      "properties": {
        "timestamp": "2024-08-15T19:22:43Z",
        "version": 4,
        "changeset": 155298507,
        "addr:city": "Birigui",
        "addr:housenumber": "600",
        "addr:postcode": "16207-015",
        "addr:street": "Rua Ave Cristo",
        "amenity": "social_facility",
        "email": "contato@avecristo.com.br",
        "name": "Casa do Caminho Ave Cristo",
        "phone": "+55 18 3644 5090",
        "social_facility:for": "juvenile",
        "website": "http://www.avecristo.com.br/index.htm",
        "id": "way/292309302"
      },
      "geometry": {
        "type": "Polygon",
        "coordinates": [
          [
            [
              -50.3727189,
              -21.3017836
            ],
            [
              -50.3723271,
              -21.3027493
            ],
            [
              -50.3714747,
              -21.302509
            ],
            [
              -50.3722173,
              -21.3016105
            ],
            [
              -50.3727189,
              -21.3017836
            ]
          ]
        ]
      }
    }
  ]
}
