{
  "type": "FeatureCollection",
  "features": [
    {
      "type": "Feature",
      "id": "way/345799938",
      "properties": {
        "timestamp": "2024-08-08T18:23:55Z",
        "version": 5,
        "changeset": 154992365,
        "addr:city": "Birigui",
        "addr:housenumber": "709",
        "addr:postcode": "16201-407",
        "addr:street": "Rua Pedro Cavalo",
        "addr:suburb": "Portal da Pérola II",
        "amenity": "university",
        "name": "Instituto Federal - Campus Birigui",
        "operator": "Instituto Federal de Educação, Ciência e Tecnologia de São Paulo",
        "operator:type": "government",
        "phone": "+55 18 3643 1160",
        "short_name": "IFSP",
        "website": "https://bri.ifsp.edu.br/",
        "id": "way/345799938"
      },
      "geometry": {
        "type": "Polygon",
        "coordinates": [
          [
            [
              -50.3150769,
              -21.2472778
            ],
            [
              -50.316043,
              -21.2486605
            ],
            [
              -50.3130692,
              -21.2505703
            ],
            [
              -50.3129968,
              -21.250558
            ],
            [
              -50.3120127,
              -21.2491591
            ],
            [
              -50.3150769,
              -21.2472778
            ]
          ]
        ]
      }
    },
    {
      "type": "Feature",
      "id": "way/564444405",
      "properties": {
        "timestamp": "2024-08-22T13:46:41Z",
        "version": 5,
        "changeset": 155607053,
        "addr:housenumber": "4",
        "addr:street": "Rua Antônio Simões",
        "addr:suburb": "Centro",
        "amenity": "university",
        "name": "Faculdade de Ciências e Tecnologia de Birigui",
        "operator": "Fundação Municipal de Ensino de Birigui – FUMDEB",
        "operator:type": "private",
        "phone": "+55 18 3649 2200",
        "short_name": "FATEB",
        "source": "OSM note 93124",
        "start_date": "1988",
        "website": "https://www.fateb.br/",
        "id": "way/564444405"
      },
      "geometry": {
        "type": "Polygon",
        "coordinates": [
          [
            [
              -50.3390395,
              -21.2860434
            ],
            [
              -50.3395164,
              -21.2865278
            ],
            [
              -50.3398141,
              -21.2863528
            ],
            [
              -50.3399697,
              -21.2865178
            ],
            [
              -50.3392991,
              -21.2871001
            ],
            [
              -50.3386956,
              -21.2865653
            ],
            [
              -50.3386527,
              -21.2864903
            ],
            [
              -50.3386635,
              -21.2864053
            ],
            [
              -50.3390395,
              -21.2860434
            ]
          ]
        ]
      }
    },
    {
      "type": "Feature",
      "id": "way/1308025758",
      "properties": {
        "timestamp": "2024-08-15T20:49:39Z",
        "version": 2,
        "changeset": 155301377,
        "addr:housenumber": "133",
        "addr:postcode": "16204-142",
        "addr:street": "Rua João Scanhuela",
        "addr:suburb": "Jardim Capuano",
        "amenity": "university",
        "mobile": "+55 18 99725 1099",
        "name": "Faculdade Birigui",
        "operator": "Uniesp S.A",
        "operator:type": "private",
        "website": "https://uniesp.edu.br/sites/birigui/",
        "id": "way/1308025758"
      },
      "geometry": {
        "type": "Polygon",
        "coordinates": [
          [
            [
              -50.3556085,
              -21.305924
            ],
            [
              -50.3577648,
              -21.3060577
            ],
            [
              -50.3576214,
              -21.3072149
            ],
            [
              -50.3567195,
              -21.3071195
            ],
            [
              -50.3566416,
              -21.3077076
            ],
            [
              -50.35542,
              -21.307593
            ],
            [
              -50.3556085,
              -21.305924
            ]
          ]
        ]
      }
    }
  ]
}
