{
  "type": "FeatureCollection",
  "features": [
    {
      "type": "Feature",
      "id": "way/1033344229",
      "properties": {
        "timestamp": "2022-02-19T21:33:03Z",
        "version": 1,
        "changeset": 117620247,
        "amenity": "school",
        "name": "Colegio Agropecuario De Natividade",
        "id": "way/1033344229"
      },
      "geometry": {
        "type": "Polygon",
        "coordinates": [
          [
            [
              -47.7264882,
              -11.6981975
            ],
            [
              -47.7263923,
              -11.6979934
            ],
            [
              -47.7260505,
              -11.6978791
            ],
            [
              -47.7259547,
              -11.6965566
            ],
            [
              -47.7268883,
              -11.6963036
            ],
            [
              -47.7279262,
              -11.6961893
            ],
            [
              -47.7287974,
              -11.6963893
            ],
            [
              -47.7293601,
              -11.6968505
            ],
            [
              -47.7293351,
              -11.6973362
            ],
            [
              -47.7284431,
              -11.697426
            ],
            [
              -47.7281805,
              -11.6989036
            ],
            [
              -47.7269717,
              -11.6989934
            ],
            [
              -47.7264757,
              -11.6984954
            ],
            [
              -47.7264882,
              -11.6981975
            ]
          ]
        ]
      }
    },
    {
      "type": "Feature",
      "id": "way/1033345500",
      "properties": {
        "timestamp": "2022-02-19T21:39:48Z",
        "version": 1,
        "changeset": 117620406,
        "addr:city": "Natividade",
        "addr:housenumber": "251",
        "addr:postcode": "77370-000",
        "addr:street": "Avenida Sete de Setembro",
        "addr:suburb": "Centro",
        "amenity": "school",
        "name": "Esc Est Nossa Sra De Fatima - O Pelicano",
        "id": "way/1033345500"
      },
      "geometry": {
        "type": "Polygon",
        "coordinates": [
          [
            [
              -47.7254479,
              -11.7041842
            ],
            [
              -47.7255804,
              -11.7046572
            ],
            [
              -47.7252453,
              -11.7047472
            ],
            [
              -47.7251128,
              -11.7042742
            ],
            [
              -47.7254479,
              -11.7041842
            ]
          ]
        ]
      }
    },
    {
      "type": "Feature",
      "id": "way/1033346049",
      "properties": {
        "timestamp": "2022-02-19T21:41:45Z",
        "version": 1,
        "changeset": 117620458,
        "addr:city": "Natividade",
        "addr:postcode": "77370-000",
        "addr:street": "Rua 3",
        "addr:suburb": "Setor Nova Esperança",
        "amenity": "school",
        "name": "Escola Municipal Archcelina Pacini Vieira",
        "phone": "+55 63 3372 1559",
        "id": "way/1033346049"
      },
      "geometry": {
        "type": "Polygon",
        "coordinates": [
          [
            [
              -47.7298018,
              -11.7064645
            ],
            [
              -47.7298452,
              -11.7068745
            ],
            [
              -47.7294621,
              -11.7069135
            ],
            [
              -47.7294187,
              -11.7065033
            ],
            [
              -47.7298018,
              -11.7064645
            ]
          ]
        ]
      }
    },
    {
      "type": "Feature",
      "id": "way/1033346908",
      "properties": {
        "timestamp": "2025-01-11T15:27:03Z",
        "version": 2,
        "changeset": 161243473,
        "addr:city": "Natividade",
        "addr:housenumber": "21",
        "addr:postcode": "77370-000",
        "addr:street": "Rua A",
        "addr:suburb": "Centro",
        "amenity": "school",
        "building": "college",
        "name": "Col Est Dr Quintiliano Da Silva",
        "operator": "Governo Estadual",
        "operator:type": "government",
        "phone": "+55 63 3372 1364",
        "religion": "laico",
        "id": "way/1033346908"
      },
      "geometry": {
        "type": "Polygon",
        "coordinates": [
          [
            [
              -47.726646,
              -11.7100542
            ],
            [
              -47.7267315,
              -11.7106908
            ],
            [
              -47.7261679,
              -11.7107634
            ],
            [
              -47.7260825,
              -11.7101268
            ],
            [
              -47.726646,
              -11.7100542
            ]
          ]
        ]
      }
    },
    {
      "type": "Feature",
      "id": "way/1033347181",
      "properties": {
        "timestamp": "2022-02-19T21:50:04Z",
        "version": 1,
        "changeset": 117620649,
        "amenity": "school",
        "name": "Escola Especial Tia Coraci De Sena Fernandes",
        "id": "way/1033347181"
      },
      "geometry": {
        "type": "Polygon",
        "coordinates": [
          [
            [
              -47.7278696,
              -11.710971
            ],
            [
              -47.7279125,
              -11.711407
            ],
            [
              -47.7276523,
              -11.7114254
            ],
            [
              -47.7276148,
              -11.7109868
            ],
            [
              -47.7278696,
              -11.710971
            ]
          ]
        ]
      }
    },
    {
      "type": "Feature",
      "id": "node/9520517803",
      "properties": {
        "timestamp": "2022-02-19T21:30:24Z",
        "version": 1,
        "changeset": 117620173,
        "amenity": "school",
        "name": "Esc Mul Jacubinha I Sede",
        "id": "node/9520517803"
      },
      "geometry": {
        "type": "Point",
        "coordinates": [
          -47.5594081,
          -11.6774591
        ]
      }
    },
    {
      "type": "Feature",
      "id": "node/9520535708",
      "properties": {
        "timestamp": "2022-02-19T21:40:38Z",
        "version": 1,
        "changeset": 117620423,
        "addr:city": "Natividade",
        "addr:postcode": "77370-000",
        "addr:street": "Avenida Sete de Setembro",
        "addr:suburb": "Centro",
        "amenity": "school",
        "name": "Creche Pre Escola Tia Chiquinha",
        "phone": "+55 63 3372 1630",
        "id": "node/9520535708"
      },
      "geometry": {
        "type": "Point",
        "coordinates": [
          -47.7250211,
          -11.7050931
        ]
      }
    },
    {
      "type": "Feature",
      "id": "node/9520663344",
      "properties": {
        "timestamp": "2022-02-19T23:52:07Z",
        "version": 1,
        "changeset": 117622690,
        "addr:city": "Natividade",
        "addr:postcode": "77370-000",
        "addr:street": "Rua São João",
        "addr:suburb": "Príncipe",
        "amenity": "school",
        "name": "Esc Mul Josina Pereira Nunes",
        "phone": "+55 63 3372 1113",
        "id": "node/9520663344"
      },
      "geometry": {
        "type": "Point",
        "coordinates": [
          -47.6137255,
          -11.9388196
        ]
      }
    },
    {
      "type": "Feature",
      "id": "node/12509184068",
      "properties": {
        "timestamp": "2025-01-17T11:57:46Z",
        "version": 1,
        "changeset": 161452475,
        "addr:city": "Natividade",
        "addr:postcode": "77370-000",
        "addr:street": "Rua Major Veríssimo Teixeira da Mata",
        "addr:suburb": "Jardim Serrano",
        "amenity": "school",
        "name": "Esc Est Joaquim Lino Suarte",
        "phone": "+55 63 3372 1150",
        "id": "node/12509184068"
      },
      "geometry": {
        "type": "Point",
        "coordinates": [
          -47.720936,
          -11.6978471
        ]
      }
    }
  ]
}
