{
  "type": "FeatureCollection",
  "features": [
    {
      "type": "Feature",
      "id": "node/9293234979",
      "properties": {
        "timestamp": "2022-03-24T15:12:54Z",
        "version": 2,
        "changeset": 118869309,
        "addr:housenumber": "183",
        "addr:street": "Rua Francisco Roaque de Oliveira",
        "name": "Dormit√≥rio Recanto Do Sono",
        "phone": "+55 (88) 99202-5459",
        "tourism": "hotel",
        "id": "node/9293234979"
      },
      "geometry": {
        "type": "Point",
        "coordinates": [
          -38.3094448,
          -5.808236
        ]
      }
    },
    {
      "type": "Feature",
      "id": "node/9293246446",
      "properties": {
        "timestamp": "2022-03-24T15:12:54Z",
        "version": 2,
        "changeset": 118869309,
        "addr:street": "Avenida Raimundo Leandro Pinheiro",
        "name": "Pousada Beira Rio",
        "phone": "+55 (88) 99687-1091",
        "tourism": "hotel",
        "id": "node/9293246446"
      },
      "geometry": {
        "type": "Point",
        "coordinates": [
          -38.3082257,
          -5.8077762
        ]
      }
    },
    {
      "type": "Feature",
      "id": "node/9309112977",
      "properties": {
        "timestamp": "2022-03-24T15:12:54Z",
        "version": 2,
        "changeset": 118869309,
        "addr:housenumber": "275",
        "addr:street": "Avenida Augusta Clementina de Negreiro",
        "name": "Layanne Sales Beauty",
        "phone": "+55 (88) 99837-9881",
        "tourism": "hotel",
        "id": "node/9309112977"
      },
      "geometry": {
        "type": "Point",
        "coordinates": [
          -38.3123131,
          -5.7988124
        ]
      }
    },
    {
      "type": "Feature",
      "id": "node/9311000841",
      "properties": {
        "timestamp": "2021-12-04T18:19:42Z",
        "version": 1,
        "changeset": 114562689,
        "addr:street": "CE-138",
        "name": "Hotel aconchego",
        "tourism": "hotel",
        "id": "node/9311000841"
      },
      "geometry": {
        "type": "Point",
        "coordinates": [
          -38.3174362,
          -5.7906876
        ]
      }
    }
  ]
}
