{
  "type": "FeatureCollection",
  "features": [
    {
      "type": "Feature",
      "id": "node/10754382147",
      "properties": {
        "timestamp": "2023-03-22T20:00:05Z",
        "version": 1,
        "changeset": 133994962,
        "addr:city": "Nanuque",
        "addr:housenumber": "260",
        "addr:postcode": "39860-000",
        "addr:street": "Avenida Antônio Barroso",
        "addr:suburb": "Centro Industrial",
        "brand": "Residencial Flamboyant Boavista & Rodrigues Limitada",
        "name": "Pousada Casa Bella",
        "phone": "+55 33 3621 2358;+55 33 99928 5865",
        "tourism": "hotel",
        "id": "node/10754382147"
      },
      "geometry": {
        "type": "Point",
        "coordinates": [
          -40.3415007,
          -17.8367369
        ]
      }
    },
    {
      "type": "Feature",
      "id": "node/10761041655",
      "properties": {
        "timestamp": "2023-03-29T11:11:30Z",
        "version": 2,
        "changeset": 134257997,
        "addr:city": "Nanuque",
        "addr:housenumber": "175",
        "addr:postcode": "39860-000",
        "addr:street": "Rua São João del Rei",
        "addr:suburb": "Centro",
        "name": "Nanuque Panorama Hotel",
        "phone": "+55 33 3621 2024",
        "tourism": "hotel",
        "id": "node/10761041655"
      },
      "geometry": {
        "type": "Point",
        "coordinates": [
          -40.3493255,
          -17.8396792
        ]
      }
    },
    {
      "type": "Feature",
      "id": "node/10766081135",
      "properties": {
        "timestamp": "2023-03-27T11:41:49Z",
        "version": 1,
        "changeset": 134173595,
        "addr:city": "Nanuque",
        "addr:housenumber": "605",
        "addr:postcode": "39860-000",
        "addr:street": "Avenida Alves de Brito",
        "addr:suburb": "Novo Horizonte",
        "brand": "Luiza Hotel Limitada",
        "name": "Hotel Luiza",
        "phone": "+55 33 3621 2982",
        "tourism": "hotel",
        "id": "node/10766081135"
      },
      "geometry": {
        "type": "Point",
        "coordinates": [
          -40.3662335,
          -17.8299308
        ]
      }
    }
  ]
}
