{
  "type": "FeatureCollection",
  "features": [
    {
      "type": "Feature",
      "id": "node/10769844296",
      "properties": {
        "timestamp": "2023-03-29T01:14:04Z",
        "version": 1,
        "changeset": 134241175,
        "addr:city": "Nanuque",
        "addr:housenumber": "77",
        "addr:postcode": "39860-000",
        "addr:street": "Avenida Geraldo Romano",
        "addr:suburb": "Centro",
        "amenity": "pharmacy",
        "healthcare": "pharmacy",
        "name": "Drugstore e Farmácia Indiana",
        "operator": "Irmãos Mattar & Cia Limitada",
        "id": "node/10769844296"
      },
      "geometry": {
        "type": "Point",
        "coordinates": [
          -40.350308,
          -17.839134
        ]
      }
    },
    {
      "type": "Feature",
      "id": "node/10769844299",
      "properties": {
        "timestamp": "2023-03-29T01:14:04Z",
        "version": 1,
        "changeset": 134241175,
        "addr:city": "Nanuque",
        "addr:housenumber": "180",
        "addr:postcode": "39860-000",
        "addr:street": "Avenida Santos Dumont",
        "addr:suburb": "Centro",
        "amenity": "pharmacy",
        "healthcare": "pharmacy",
        "name": "Drugstore e Farmácia Indiana",
        "operator": "Irmãos Mattar & Cia Limitada",
        "id": "node/10769844299"
      },
      "geometry": {
        "type": "Point",
        "coordinates": [
          -40.3461732,
          -17.8416168
        ]
      }
    },
    {
      "type": "Feature",
      "id": "node/10769844302",
      "properties": {
        "timestamp": "2023-03-29T01:14:04Z",
        "version": 1,
        "changeset": 134241175,
        "addr:city": "Nanuque",
        "addr:housenumber": "55",
        "addr:postcode": "39860-000",
        "addr:street": "Avenida Geraldo Romano",
        "addr:suburb": "Centro",
        "amenity": "pharmacy",
        "healthcare": "pharmacy",
        "name": "Farmácia Preço Popular",
        "operator": "Britto Silveira Drogaria Limitada",
        "id": "node/10769844302"
      },
      "geometry": {
        "type": "Point",
        "coordinates": [
          -40.3500305,
          -17.8392344
        ]
      }
    }
  ]
}
