{
  "type": "FeatureCollection",
  "features": [
    {
      "type": "Feature",
      "id": "way/543286184",
      "properties": {
        "timestamp": "2017-11-28T12:22:58Z",
        "version": 1,
        "changeset": 54147467,
        "amenity": "clinic",
        "building": "yes",
        "healthcare": "clinic",
        "id": "way/543286184"
      },
      "geometry": {
        "type": "Polygon",
        "coordinates": [
          [
            [
              -37.4039585,
              -9.7801385
            ],
            [
              -37.404005,
              -9.780204
            ],
            [
              -37.4039364,
              -9.7802512
            ],
            [
              -37.40389,
              -9.7801857
            ],
            [
              -37.4039585,
              -9.7801385
            ]
          ]
        ]
      }
    },
    {
      "type": "Feature",
      "id": "node/12682496790",
      "properties": {
        "timestamp": "2025-03-20T00:32:24Z",
        "version": 1,
        "changeset": 163841021,
        "addr:city": "Porto da Folha",
        "addr:housenumber": "55",
        "addr:postcode": "49800-000",
        "addr:suburb": "Lagoa Salgada",
        "amenity": "clinic",
        "healthcare": "clinic",
        "healthcare:speciality": "general",
        "name": "Unidade de Saúde Antônio Ricardo",
        "operator": "Município de Porto da Folha",
        "id": "node/12682496790"
      },
      "geometry": {
        "type": "Point",
        "coordinates": [
          -37.2947596,
          -9.9142267
        ]
      }
    },
    {
      "type": "Feature",
      "id": "node/12684725783",
      "properties": {
        "timestamp": "2025-03-20T13:39:36Z",
        "version": 1,
        "changeset": 163863780,
        "access": "yes",
        "addr:city": "Porto da Folha",
        "addr:housenumber": "155",
        "addr:postcode": "49800-000",
        "addr:street": "Rua Augusto César Leite",
        "addr:suburb": "Centro",
        "amenity": "clinic",
        "emergency": "no",
        "healthcare": "clinic",
        "healthcare:speciality": "general",
        "name": "Clinica de Saude da Família Vereador Jones José de Santana",
        "opening_hours": "Mo-Fr 09:00-17:00",
        "operator": "Município de Porto da Folha",
        "operator:type": "public",
        "id": "node/12684725783"
      },
      "geometry": {
        "type": "Point",
        "coordinates": [
          -37.2757111,
          -9.9209955
        ]
      }
    },
    {
      "type": "Feature",
      "id": "node/12686790580",
      "properties": {
        "timestamp": "2025-03-21T10:37:32Z",
        "version": 1,
        "changeset": 163899082,
        "IBGE:COD_UNICO_ENDERECO": "646061",
        "addr:housenumber": "2280",
        "addr:postcode": "49800-000",
        "addr:street": "Rua da Quadra",
        "addr:suburb": "Linda França",
        "amenity": "clinic",
        "building": "yes",
        "healthcare": "yes",
        "name": "Unidade Básica de Saúde José Alves de Campos",
        "id": "node/12686790580"
      },
      "geometry": {
        "type": "Point",
        "coordinates": [
          -37.4802808,
          -9.9251022
        ]
      }
    }
  ]
}
