{
  "type": "FeatureCollection",
  "features": [
    {
      "type": "Feature",
      "id": "way/543286183",
      "properties": {
        "timestamp": "2023-09-05T07:09:09Z",
        "version": 2,
        "changeset": 140835043,
        "amenity": "school",
        "id": "way/543286183"
      },
      "geometry": {
        "type": "Polygon",
        "coordinates": [
          [
            [
              -37.4050637,
              -9.7800194
            ],
            [
              -37.405122,
              -9.7800794
            ],
            [
              -37.405077,
              -9.7801702
            ],
            [
              -37.4050993,
              -9.780215
            ],
            [
              -37.405059,
              -9.7802471
            ],
            [
              -37.4050243,
              -9.7801666
            ],
            [
              -37.4049647,
              -9.7800939
            ],
            [
              -37.4049046,
              -9.7800589
            ],
            [
              -37.4049288,
              -9.780014
            ],
            [
              -37.4049738,
              -9.780034
            ],
            [
              -37.4050637,
              -9.7800194
            ]
          ]
        ]
      }
    },
    {
      "type": "Feature",
      "id": "way/543286186",
      "properties": {
        "timestamp": "2023-09-05T07:09:09Z",
        "version": 2,
        "changeset": 140835043,
        "amenity": "school",
        "id": "way/543286186"
      },
      "geometry": {
        "type": "Polygon",
        "coordinates": [
          [
            [
              -37.4065552,
              -9.7776971
            ],
            [
              -37.4065976,
              -9.7777484
            ],
            [
              -37.406579,
              -9.7777633
            ],
            [
              -37.4066209,
              -9.777814
            ],
            [
              -37.4065935,
              -9.777836
            ],
            [
              -37.4066046,
              -9.7778493
            ],
            [
              -37.4065322,
              -9.7779074
            ],
            [
              -37.4064908,
              -9.7778573
            ],
            [
              -37.406438,
              -9.7778997
            ],
            [
              -37.406384,
              -9.7778344
            ],
            [
              -37.4065552,
              -9.7776971
            ]
          ]
        ]
      }
    },
    {
      "type": "Feature",
      "id": "way/543299471",
      "properties": {
        "timestamp": "2025-03-21T10:37:32Z",
        "version": 3,
        "changeset": 163899082,
        "amenity": "school",
        "name": "Escola Municipal Raquel Rodrigues Bernardino",
        "id": "way/543299471"
      },
      "geometry": {
        "type": "Polygon",
        "coordinates": [
          [
            [
              -37.4808787,
              -9.9248776
            ],
            [
              -37.4808001,
              -9.9250501
            ],
            [
              -37.4806482,
              -9.9253906
            ],
            [
              -37.4803515,
              -9.9252609
            ],
            [
              -37.480504,
              -9.9249192
            ],
            [
              -37.4805826,
              -9.9247468
            ],
            [
              -37.4808787,
              -9.9248776
            ]
          ]
        ]
      }
    },
    {
      "type": "Feature",
      "id": "node/3849702898",
      "properties": {
        "timestamp": "2025-03-20T13:39:36Z",
        "version": 3,
        "changeset": 163863780,
        "addr:city": "Porto da Folha",
        "addr:housenumber": "1744",
        "addr:postcode": "49800-000",
        "addr:street": "Rua Major João Gonçalves",
        "addr:suburb": "Centro",
        "amenity": "school",
        "name": "Colégio Estadual Governador Lourival Baptista",
        "operator": "Secretaria de Educação do Estado de Sergipe",
        "operator:type": "public",
        "id": "node/3849702898"
      },
      "geometry": {
        "type": "Point",
        "coordinates": [
          -37.2734449,
          -9.9203222
        ]
      }
    },
    {
      "type": "Feature",
      "id": "node/3849702901",
      "properties": {
        "timestamp": "2025-03-20T13:39:36Z",
        "version": 2,
        "changeset": 163863780,
        "addr:city": "Porto da Folha",
        "addr:housenumber": "1486",
        "addr:postcode": "49800-000",
        "addr:street": "Avenida Minervino Farias Lima",
        "addr:suburb": "Centro",
        "amenity": "school",
        "name": "Escola Estadual Coronel Maynard Gomes",
        "operator": "Secretaria de Educação do Estado de Sergipe",
        "operator:type": "public",
        "id": "node/3849702901"
      },
      "geometry": {
        "type": "Point",
        "coordinates": [
          -37.2760587,
          -9.919667
        ]
      }
    },
    {
      "type": "Feature",
      "id": "node/3849702902",
      "properties": {
        "timestamp": "2023-09-26T04:07:12Z",
        "version": 2,
        "changeset": 141755072,
        "amenity": "school",
        "name": "Escola Municial Tomaz Bermudes",
        "id": "node/3849702902"
      },
      "geometry": {
        "type": "Point",
        "coordinates": [
          -37.2693306,
          -9.9203551
        ]
      }
    },
    {
      "type": "Feature",
      "id": "node/3849702903",
      "properties": {
        "timestamp": "2025-03-20T13:39:36Z",
        "version": 3,
        "changeset": 163863780,
        "addr:city": "Porto da Folha",
        "addr:housenumber": "164",
        "addr:postcode": "49800-000",
        "addr:street": "Rua Coronel João Fernando de Brito",
        "addr:suburb": "Centro",
        "amenity": "school",
        "name": "Escola Municipal Manoel Rodrigues Velho",
        "operator": "Município de Porto da Folha",
        "operator:type": "public",
        "id": "node/3849702903"
      },
      "geometry": {
        "type": "Point",
        "coordinates": [
          -37.2850021,
          -9.914021
        ]
      }
    },
    {
      "type": "Feature",
      "id": "node/12677296943",
      "properties": {
        "timestamp": "2025-03-18T19:14:37Z",
        "version": 1,
        "changeset": 163789040,
        "addr:city": "Porto da Folha",
        "addr:postcode": "49800-000",
        "addr:suburb": "Projeto de Assentamento José Unaldo de Oliveira",
        "amenity": "school",
        "name": "Escola Municipal José Unaldo de Oliveira",
        "id": "node/12677296943"
      },
      "geometry": {
        "type": "Point",
        "coordinates": [
          -37.2964848,
          -9.8330957
        ]
      }
    },
    {
      "type": "Feature",
      "id": "node/12685348515",
      "properties": {
        "timestamp": "2025-03-20T18:29:36Z",
        "version": 1,
        "changeset": 163875950,
        "addr:city": "Porto da Folha",
        "addr:postcode": "49800-000",
        "addr:street": "Rua Principal",
        "addr:suburb": "Niterói",
        "amenity": "school",
        "name": "Escola Municipal Professora Estela Rodrigues Lima de Sá",
        "operator": "Município de Porto da Folha",
        "operator:type": "public",
        "id": "node/12685348515"
      },
      "geometry": {
        "type": "Point",
        "coordinates": [
          -37.4340729,
          -9.7634456
        ]
      }
    },
    {
      "type": "Feature",
      "id": "node/12685348524",
      "properties": {
        "timestamp": "2025-03-20T18:29:36Z",
        "version": 1,
        "changeset": 163875950,
        "addr:city": "Porto da Folha",
        "addr:housenumber": "2",
        "addr:postcode": "49800-000",
        "addr:street": "Praça da Matriz",
        "addr:suburb": "Centro",
        "amenity": "school",
        "name": "Escola Municipal Professor José Francisco da Silva",
        "operator": "Município de Porto da Folha",
        "operator:type": "public",
        "id": "node/12685348524"
      },
      "geometry": {
        "type": "Point",
        "coordinates": [
          -37.4307219,
          -9.9806557
        ]
      }
    },
    {
      "type": "Feature",
      "id": "node/12685348537",
      "properties": {
        "timestamp": "2025-03-20T18:29:36Z",
        "version": 1,
        "changeset": 163875950,
        "addr:city": "Porto da Folha",
        "addr:district": "Lagoa do Rancho",
        "addr:housenumber": "76",
        "addr:postcode": "49800-000",
        "addr:street": "Avenida João Américo",
        "addr:suburb": "Centro",
        "amenity": "school",
        "name": "Colégio Estadual Professora Clemência da Silva",
        "operator": "Secretaria de Educação do Estado de Sergipe",
        "operator:type": "public",
        "id": "node/12685348537"
      },
      "geometry": {
        "type": "Point",
        "coordinates": [
          -37.4331101,
          -9.983407
        ]
      }
    },
    {
      "type": "Feature",
      "id": "node/12685348558",
      "properties": {
        "timestamp": "2025-03-20T18:29:36Z",
        "version": 1,
        "changeset": 163875950,
        "addr:city": "Porto da Folha",
        "addr:postcode": "49800-000",
        "addr:suburb": "Campinas",
        "amenity": "school",
        "name": "Escola Municipal Tibúrcio Lúcio Pó",
        "operator": "Município de Porto da Folha",
        "operator:type": "public",
        "id": "node/12685348558"
      },
      "geometry": {
        "type": "Point",
        "coordinates": [
          -37.5202491,
          -9.998338
        ]
      }
    },
    {
      "type": "Feature",
      "id": "node/12685355977",
      "properties": {
        "timestamp": "2025-03-20T18:29:36Z",
        "version": 1,
        "changeset": 163875950,
        "addr:city": "Porto da Folha",
        "addr:postcode": "49800-000",
        "addr:suburb": "Esperança",
        "amenity": "school",
        "name": "Escola Municipal José de Oliveira Rezende",
        "operator": "Município de Porto da Folha",
        "operator:type": "public",
        "id": "node/12685355977"
      },
      "geometry": {
        "type": "Point",
        "coordinates": [
          -37.4739134,
          -9.8597937
        ]
      }
    },
    {
      "type": "Feature",
      "id": "node/12688759110",
      "properties": {
        "timestamp": "2025-03-21T22:27:46Z",
        "version": 1,
        "changeset": 163926790,
        "addr:city": "Porto da Folha",
        "addr:postcode": "49800-000",
        "addr:suburb": "Jericó",
        "amenity": "school",
        "name": "Escola Municipal Pedro Bernardino da Silva",
        "operator": "Município de Porto da Folha",
        "operator:type": "public",
        "id": "node/12688759110"
      },
      "geometry": {
        "type": "Point",
        "coordinates": [
          -37.386927,
          -9.9261266
        ]
      }
    }
  ]
}
