{
  "type": "FeatureCollection",
  "features": [
    {
      "type": "Feature",
      "id": "node/12600486242",
      "properties": {
        "timestamp": "2025-02-21T12:08:55Z",
        "version": 2,
        "changeset": 162777631,
        "IBGE:COD_UNICO_ENDERECO": "191103709;25987378",
        "addr:housenumber": "1556;33",
        "addr:postcode": "48540-000",
        "addr:street": "Rua Principal",
        "addr:suburb": "Brancos",
        "amenity": "clinic",
        "building": "yes",
        "description": "CNEFE 2022 Posto Médico",
        "healthcare": "yes",
        "id": "node/12600486242"
      },
      "geometry": {
        "type": "Point",
        "coordinates": [
          -38.4460302,
          -10.0916536
        ]
      }
    },
    {
      "type": "Feature",
      "id": "node/12600487745",
      "properties": {
        "timestamp": "2025-02-19T11:18:27Z",
        "version": 1,
        "changeset": 162696354,
        "IBGE:COD_UNICO_ENDERECO": "25987604",
        "addr:housenumber": "34",
        "addr:postcode": "48540-000",
        "addr:street": "Estrada Para O Baixão do Félix",
        "addr:suburb": "Viração",
        "amenity": "clinic",
        "building": "yes",
        "fixme": "Confirmar nome",
        "healthcare": "yes",
        "name": "Posto de Saúde",
        "id": "node/12600487745"
      },
      "geometry": {
        "type": "Point",
        "coordinates": [
          -38.4667879,
          -10.2644339
        ]
      }
    },
    {
      "type": "Feature",
      "id": "node/12600488800",
      "properties": {
        "timestamp": "2025-02-19T11:18:30Z",
        "version": 1,
        "changeset": 162696354,
        "IBGE:COD_UNICO_ENDERECO": "26910550",
        "addr:housenumber": "68",
        "addr:postcode": "48540-000",
        "addr:street": "Rua Principal",
        "addr:suburb": "Alvorada",
        "amenity": "clinic",
        "building": "yes",
        "description": "CNEFE 2022 Posto Médico",
        "healthcare": "yes",
        "id": "node/12600488800"
      },
      "geometry": {
        "type": "Point",
        "coordinates": [
          -38.274643,
          -10.1678919
        ]
      }
    },
    {
      "type": "Feature",
      "id": "node/12600489728",
      "properties": {
        "timestamp": "2025-02-19T11:18:33Z",
        "version": 1,
        "changeset": 162696354,
        "IBGE:COD_UNICO_ENDERECO": "26910343",
        "addr:housenumber": "4",
        "addr:postcode": "48540-000",
        "addr:street": "Rua da Igreja",
        "addr:suburb": "Malhada Vermelha",
        "amenity": "clinic",
        "building": "yes",
        "fixme": "Verificar coordenadas",
        "healthcare": "yes",
        "name": "Unidade de Saúde da Família",
        "note": "Sem dados para mover para dentro da quadra 0500-0037P-8-2",
        "id": "node/12600489728"
      },
      "geometry": {
        "type": "Point",
        "coordinates": [
          -38.3197102,
          -9.9100377
        ]
      }
    },
    {
      "type": "Feature",
      "id": "node/12600490298",
      "properties": {
        "timestamp": "2025-02-19T11:18:33Z",
        "version": 1,
        "changeset": 162696354,
        "IBGE:COD_UNICO_ENDERECO": "24325620",
        "addr:housenumber": "19",
        "addr:postcode": "48540-000",
        "addr:street": "Fazenda Baixa da Volta",
        "addr:suburb": "Baixa da Volta",
        "amenity": "clinic",
        "building": "yes",
        "fixme": "Confirmar nome;Verificar coordenadas",
        "healthcare": "yes",
        "name": "Posto de Saúde",
        "note": "Sem setor ou quadra no bayface do IBGE 0500-0117P-0-2",
        "id": "node/12600490298"
      },
      "geometry": {
        "type": "Point",
        "coordinates": [
          -38.48605,
          -10.310686
        ]
      }
    }
  ]
}
