{
  "type": "FeatureCollection",
  "features": [
    {
      "type": "Feature",
      "id": "node/12600487334",
      "properties": {
        "timestamp": "2025-02-23T20:45:41Z",
        "version": 2,
        "changeset": 162868258,
        "IBGE:COD_UNICO_ENDERECO": "191094452",
        "addr:housenumber": "20",
        "addr:postcode": "48540-000",
        "addr:street": "Estrada Baixa do Olho d'Água",
        "addr:suburb": "Baixa do Olho d'Água",
        "amenity": "community_centre",
        "building": "civic",
        "man_made": "works",
        "name": "Casa de Farinha Comunitária",
        "product": "cassava_flour",
        "id": "node/12600487334"
      },
      "geometry": {
        "type": "Point",
        "coordinates": [
          -38.428941,
          -9.977729
        ]
      }
    },
    {
      "type": "Feature",
      "id": "node/12600489873",
      "properties": {
        "timestamp": "2025-02-19T11:18:33Z",
        "version": 1,
        "changeset": 162696354,
        "IBGE:COD_UNICO_ENDERECO": "25987437",
        "addr:housenumber": "4",
        "addr:postcode": "48540-000",
        "addr:street": "Povoado Casinhas",
        "addr:suburb": "Casinhas",
        "addr:unit": "Armazém",
        "amenity": "community_centre",
        "building": "civic",
        "fixme": "Verificar coordenadas",
        "name": "Associação Comunitária Povoado Casinhas",
        "note": "Sem dados para mover para dentro da quadra 0500-0064P-2-1",
        "office": "association",
        "id": "node/12600489873"
      },
      "geometry": {
        "type": "Point",
        "coordinates": [
          -38.398483,
          -10.2553006
        ]
      }
    },
    {
      "type": "Feature",
      "id": "node/12600491177",
      "properties": {
        "timestamp": "2025-02-19T18:45:38Z",
        "version": 2,
        "changeset": 162713316,
        "IBGE:COD_UNICO_ENDERECO": "223396174",
        "addr:housenumber": "320 A",
        "addr:postcode": "48540-000",
        "addr:street": "Estrada Feira Nova",
        "addr:suburb": "Feira Nova",
        "amenity": "community_centre",
        "building": "civic",
        "description": "CNEFE 2022 Associação Comunitária",
        "office": "association",
        "id": "node/12600491177"
      },
      "geometry": {
        "type": "Point",
        "coordinates": [
          -38.2335733,
          -10.1815785
        ]
      }
    },
    {
      "type": "Feature",
      "id": "node/12600491283",
      "properties": {
        "timestamp": "2025-02-19T11:18:36Z",
        "version": 1,
        "changeset": 162696354,
        "IBGE:COD_UNICO_ENDERECO": "191284478",
        "addr:housenumber": "18",
        "addr:postcode": "48540-000",
        "addr:street": "Povoado Baixão das Casinhas",
        "addr:suburb": "Baixão de Baixo",
        "amenity": "community_centre",
        "building": "civic",
        "fixme": "Verificar coordenadas",
        "man_made": "works",
        "name": "Casa de Farinha Ass Comunitária Pov Casinhas",
        "note": "Sem setor ou quadra no bayface do IBGE 0500-0113P-0-154",
        "product": "cassava_flour",
        "id": "node/12600491283"
      },
      "geometry": {
        "type": "Point",
        "coordinates": [
          -38.405675,
          -10.259557
        ]
      }
    }
  ]
}
