{
  "type": "FeatureCollection",
  "features": [
    {
      "type": "Feature",
      "id": "node/1751871479",
      "properties": {
        "timestamp": "2025-02-18T23:16:12Z",
        "version": 4,
        "changeset": 162680665,
        "addr:city": "Jeremoabo",
        "addr:housenumber": "13",
        "addr:postcode": "48540-000",
        "addr:street": "Rua Professora Antônia Meireles",
        "addr:suburb": "Centro",
        "government": "social_services",
        "name": "Secretária Municipal de Assistência Social",
        "office": "government",
        "id": "node/1751871479"
      },
      "geometry": {
        "type": "Point",
        "coordinates": [
          -38.3459976,
          -10.0765788
        ]
      }
    },
    {
      "type": "Feature",
      "id": "node/12587609849",
      "properties": {
        "timestamp": "2025-02-14T13:39:15Z",
        "version": 1,
        "changeset": 162503851,
        "addr:city": "Jeremoabo",
        "addr:housenumber": "18",
        "addr:postcode": "48540-000",
        "addr:street": "Praça Raimundo Jardim Carvalho",
        "addr:suburb": "Centro",
        "government": "education",
        "name": "Secretaria Municpal de Educação",
        "office": "government",
        "id": "node/12587609849"
      },
      "geometry": {
        "type": "Point",
        "coordinates": [
          -38.3490612,
          -10.0744561
        ]
      }
    },
    {
      "type": "Feature",
      "id": "node/12587981690",
      "properties": {
        "timestamp": "2025-02-14T17:08:05Z",
        "version": 1,
        "changeset": 162511094,
        "addr:city": "Jeremoabo",
        "addr:postcode": "48540-000",
        "addr:street": "Avenida José Gonçalves de Sá",
        "addr:suburb": "Centro",
        "government": "healthcare",
        "name": "Secretaria Municipal de Saúde",
        "office": "government",
        "id": "node/12587981690"
      },
      "geometry": {
        "type": "Point",
        "coordinates": [
          -38.3501621,
          -10.0709561
        ]
      }
    },
    {
      "type": "Feature",
      "id": "node/12600489498",
      "properties": {
        "timestamp": "2025-02-19T11:18:30Z",
        "version": 1,
        "changeset": 162696354,
        "IBGE:COD_UNICO_ENDERECO": "26901240",
        "addr:housenumber": "136",
        "addr:postcode": "48540-000",
        "addr:street": "Avenida Doutor José Gonçalves de Sá",
        "addr:suburb": "Centro",
        "building": "yes",
        "government": "healthcare",
        "name": "Sectetaria Municipal de Saúde",
        "office": "government",
        "id": "node/12600489498"
      },
      "geometry": {
        "type": "Point",
        "coordinates": [
          -38.3501532,
          -10.0709339
        ]
      }
    },
    {
      "type": "Feature",
      "id": "node/12600491456",
      "properties": {
        "timestamp": "2025-02-19T11:18:36Z",
        "version": 1,
        "changeset": 162696354,
        "IBGE:COD_UNICO_ENDERECO": "191296720",
        "addr:housenumber": "10 A",
        "addr:postcode": "48540-000",
        "addr:street": "Praça Prefeito Abelardo Sousa Santana",
        "addr:suburb": "Centro",
        "building": "yes",
        "government": "statistics",
        "name": "Posto de Coleta IBGE",
        "office": "government",
        "id": "node/12600491456"
      },
      "geometry": {
        "type": "Point",
        "coordinates": [
          -38.3476229,
          -10.0768118
        ]
      }
    }
  ]
}
