{
  "type": "FeatureCollection",
  "features": [
    {
      "type": "Feature",
      "id": "node/11285102469",
      "properties": {
        "timestamp": "2023-10-23T23:32:42Z",
        "version": 1,
        "changeset": 143040874,
        "name": "Pousada São Pedro",
        "tourism": "guest_house",
        "id": "node/11285102469"
      },
      "geometry": {
        "type": "Point",
        "coordinates": [
          -38.3501892,
          -10.0671094
        ]
      }
    },
    {
      "type": "Feature",
      "id": "node/12600486954",
      "properties": {
        "timestamp": "2025-02-19T11:18:24Z",
        "version": 1,
        "changeset": 162696354,
        "IBGE:COD_UNICO_ENDERECO": "25988471",
        "addr:housenumber": "15",
        "addr:postcode": "48540-000",
        "addr:street": "Continuação da Rua da Unidade de Saúde da",
        "addr:suburb": "Água Branca",
        "building": "yes",
        "fixme": "Verificar coordenadas",
        "name": "Pousada Aconchego",
        "note": "Fora da área de projeção da face 1000-0003P-15-2",
        "tourism": "guest_house",
        "id": "node/12600486954"
      },
      "geometry": {
        "type": "Point",
        "coordinates": [
          -38.601618,
          -10.005634
        ]
      }
    },
    {
      "type": "Feature",
      "id": "node/12600487082",
      "properties": {
        "timestamp": "2025-02-19T11:18:24Z",
        "version": 1,
        "changeset": 162696354,
        "IBGE:COD_UNICO_ENDERECO": "191297646",
        "addr:housenumber": "27",
        "addr:postcode": "48540-000",
        "addr:street": "Avenida Recife",
        "addr:suburb": "Centro",
        "building": "yes",
        "name": "Pousada da Soraia",
        "tourism": "guest_house",
        "id": "node/12600487082"
      },
      "geometry": {
        "type": "Point",
        "coordinates": [
          -38.3443136,
          -10.0789927
        ]
      }
    },
    {
      "type": "Feature",
      "id": "node/12600488175",
      "properties": {
        "timestamp": "2025-02-19T11:18:27Z",
        "version": 1,
        "changeset": 162696354,
        "IBGE:COD_UNICO_ENDERECO": "220781164",
        "addr:housenumber": "276",
        "addr:postcode": "48540-000",
        "addr:street": "Avenida Recife",
        "addr:suburb": "Centro",
        "building": "yes",
        "name": "Pousada Rodrigão",
        "tourism": "guest_house",
        "id": "node/12600488175"
      },
      "geometry": {
        "type": "Point",
        "coordinates": [
          -38.340044,
          -10.0815729
        ]
      }
    },
    {
      "type": "Feature",
      "id": "node/12600488942",
      "properties": {
        "timestamp": "2025-02-19T11:18:30Z",
        "version": 1,
        "changeset": 162696354,
        "IBGE:COD_UNICO_ENDERECO": "25985676",
        "addr:housenumber": "20",
        "addr:postcode": "48540-000",
        "addr:street": "Rua da Alegria",
        "addr:suburb": "Centro",
        "building": "yes",
        "name": "Pousada Cajueiro",
        "tourism": "guest_house",
        "id": "node/12600488942"
      },
      "geometry": {
        "type": "Point",
        "coordinates": [
          -38.3514786,
          -10.071045
        ]
      }
    },
    {
      "type": "Feature",
      "id": "node/12600489051",
      "properties": {
        "timestamp": "2025-02-19T11:18:30Z",
        "version": 1,
        "changeset": 162696354,
        "IBGE:COD_UNICO_ENDERECO": "26902523",
        "addr:housenumber": "13 Sobrado",
        "addr:postcode": "48540-000",
        "addr:street": "Avenida Recife",
        "addr:suburb": "Centro",
        "building": "yes",
        "name": "Pousada Nordeste",
        "tourism": "guest_house",
        "id": "node/12600489051"
      },
      "geometry": {
        "type": "Point",
        "coordinates": [
          -38.3444743,
          -10.0785176
        ]
      }
    },
    {
      "type": "Feature",
      "id": "node/12600490264",
      "properties": {
        "timestamp": "2025-02-19T11:18:33Z",
        "version": 1,
        "changeset": 162696354,
        "IBGE:COD_UNICO_ENDERECO": "191277812",
        "addr:housenumber": "13",
        "addr:postcode": "48540-000",
        "addr:street": "Rua João José da Silva",
        "addr:suburb": "José Nolasco",
        "building": "yes",
        "name": "Pousada 24 Hs",
        "tourism": "guest_house",
        "id": "node/12600490264"
      },
      "geometry": {
        "type": "Point",
        "coordinates": [
          -38.3226346,
          -10.0901131
        ]
      }
    }
  ]
}
