{
  "type": "FeatureCollection",
  "features": [
    {
      "type": "Feature",
      "id": "node/1750573043",
      "properties": {
        "timestamp": "2025-02-13T23:11:24Z",
        "version": 3,
        "changeset": 162484314,
        "amenity": "pharmacy",
        "healthcare": "pharmacy",
        "name": "João Paulo II",
        "id": "node/1750573043"
      },
      "geometry": {
        "type": "Point",
        "coordinates": [
          -38.3476273,
          -10.0762363
        ]
      }
    },
    {
      "type": "Feature",
      "id": "node/1751854096",
      "properties": {
        "timestamp": "2025-02-14T13:39:15Z",
        "version": 4,
        "changeset": 162503851,
        "amenity": "pharmacy",
        "healthcare": "pharmacy",
        "name": "Jerefarma",
        "id": "node/1751854096"
      },
      "geometry": {
        "type": "Point",
        "coordinates": [
          -38.3483788,
          -10.0734725
        ]
      }
    },
    {
      "type": "Feature",
      "id": "node/12600485944",
      "properties": {
        "timestamp": "2025-02-19T11:18:21Z",
        "version": 1,
        "changeset": 162696354,
        "IBGE:COD_UNICO_ENDERECO": "26903738",
        "addr:housenumber": "210",
        "addr:postcode": "48540-000",
        "addr:street": "Praça Coronel Antônio Lourenço de Carvalho",
        "addr:suburb": "Centro",
        "amenity": "pharmacy",
        "building": "yes",
        "name": "Farmácia Far Melhor",
        "id": "node/12600485944"
      },
      "geometry": {
        "type": "Point",
        "coordinates": [
          -38.3488058,
          -10.0734461
        ]
      }
    },
    {
      "type": "Feature",
      "id": "node/12600486594",
      "properties": {
        "timestamp": "2025-02-19T11:18:24Z",
        "version": 1,
        "changeset": 162696354,
        "IBGE:COD_UNICO_ENDERECO": "26901166",
        "addr:housenumber": "353 Térreo",
        "addr:postcode": "48540-000",
        "addr:street": "Rua Duque de Caxias",
        "addr:suburb": "Centro",
        "amenity": "pharmacy",
        "building": "yes",
        "name": "Farmácia São José",
        "id": "node/12600486594"
      },
      "geometry": {
        "type": "Point",
        "coordinates": [
          -38.3489533,
          -10.0723589
        ]
      }
    },
    {
      "type": "Feature",
      "id": "node/12600488511",
      "properties": {
        "timestamp": "2025-02-19T11:18:27Z",
        "version": 1,
        "changeset": 162696354,
        "IBGE:COD_UNICO_ENDERECO": "26903702",
        "addr:housenumber": "386",
        "addr:postcode": "48540-000",
        "addr:street": "Praça Vereador José Almeida",
        "addr:suburb": "Centro",
        "amenity": "pharmacy",
        "building": "yes",
        "description": "CNEFE 2022 Farmácia",
        "id": "node/12600488511"
      },
      "geometry": {
        "type": "Point",
        "coordinates": [
          -38.3470738,
          -10.0757971
        ]
      }
    },
    {
      "type": "Feature",
      "id": "node/12600488691",
      "properties": {
        "timestamp": "2025-02-19T18:45:38Z",
        "version": 2,
        "changeset": 162713316,
        "IBGE:COD_UNICO_ENDERECO": "191529253",
        "addr:housenumber": "20 A",
        "addr:postcode": "48540-000",
        "addr:street": "Rua do Mercado",
        "addr:suburb": "Riacho São José",
        "addr:unit": "Térreo 1",
        "amenity": "pharmacy",
        "building": "yes",
        "description": "CNEFE 2022 Farmácia",
        "healthcare": "yes",
        "id": "node/12600488691"
      },
      "geometry": {
        "type": "Point",
        "coordinates": [
          -38.1988063,
          -10.183756
        ]
      }
    },
    {
      "type": "Feature",
      "id": "node/12600491226",
      "properties": {
        "timestamp": "2025-02-19T11:18:36Z",
        "version": 1,
        "changeset": 162696354,
        "IBGE:COD_UNICO_ENDERECO": "26901184",
        "addr:housenumber": "45",
        "addr:postcode": "48540-000",
        "addr:street": "Rua Duque de Caxias",
        "addr:suburb": "Centro",
        "amenity": "pharmacy",
        "building": "yes",
        "name": "Farmácia do Povo",
        "id": "node/12600491226"
      },
      "geometry": {
        "type": "Point",
        "coordinates": [
          -38.3484385,
          -10.0729291
        ]
      }
    }
  ]
}
