{
  "type": "FeatureCollection",
  "features": [
    {
      "type": "Feature",
      "id": "way/209294150",
      "properties": {
        "timestamp": "2025-02-14T13:39:15Z",
        "version": 3,
        "changeset": 162503851,
        "addr:city": "Jeremoabo",
        "addr:postcode": "48540-000",
        "addr:street": "Praça da Matriz",
        "addr:suburb": "Centro",
        "amenity": "school",
        "name": "Escola Municipal Doutor Carvalho de Sá",
        "operator": "Município de Jeremoabo",
        "operator:type": "public",
        "id": "way/209294150"
      },
      "geometry": {
        "type": "Polygon",
        "coordinates": [
          [
            [
              -38.3475687,
              -10.0754641
            ],
            [
              -38.3476286,
              -10.0754428
            ],
            [
              -38.3476687,
              -10.0755522
            ],
            [
              -38.3475244,
              -10.0756034
            ],
            [
              -38.3473538,
              -10.0751374
            ],
            [
              -38.3474138,
              -10.0751162
            ],
            [
              -38.3474069,
              -10.0750975
            ],
            [
              -38.347487,
              -10.075069
            ],
            [
              -38.347538,
              -10.0752083
            ],
            [
              -38.3474822,
              -10.0752281
            ],
            [
              -38.3475687,
              -10.0754641
            ]
          ]
        ]
      }
    },
    {
      "type": "Feature",
      "id": "way/542657897",
      "properties": {
        "timestamp": "2017-11-24T21:18:59Z",
        "version": 1,
        "changeset": 54060064,
        "amenity": "school",
        "id": "way/542657897"
      },
      "geometry": {
        "type": "Polygon",
        "coordinates": [
          [
            [
              -38.422902,
              -10.290421
            ],
            [
              -38.4228453,
              -10.2905804
            ],
            [
              -38.4227145,
              -10.2905355
            ],
            [
              -38.4227712,
              -10.290376
            ],
            [
              -38.422902,
              -10.290421
            ]
          ]
        ]
      }
    },
    {
      "type": "Feature",
      "id": "way/542730581",
      "properties": {
        "timestamp": "2017-11-25T11:03:30Z",
        "version": 1,
        "changeset": 54069314,
        "amenity": "school",
        "id": "way/542730581"
      },
      "geometry": {
        "type": "Polygon",
        "coordinates": [
          [
            [
              -38.904255,
              -9.872587
            ],
            [
              -38.9044421,
              -9.8729021
            ],
            [
              -38.9042645,
              -9.8730044
            ],
            [
              -38.9040774,
              -9.8726894
            ],
            [
              -38.904255,
              -9.872587
            ]
          ]
        ]
      }
    },
    {
      "type": "Feature",
      "id": "way/542817516",
      "properties": {
        "timestamp": "2017-11-25T19:33:14Z",
        "version": 1,
        "changeset": 54080363,
        "amenity": "school",
        "id": "way/542817516"
      },
      "geometry": {
        "type": "Polygon",
        "coordinates": [
          [
            [
              -38.5990513,
              -10.0081222
            ],
            [
              -38.5991771,
              -10.0083317
            ],
            [
              -38.5989307,
              -10.0084752
            ],
            [
              -38.5988049,
              -10.0082657
            ],
            [
              -38.5990513,
              -10.0081222
            ]
          ]
        ]
      }
    },
    {
      "type": "Feature",
      "id": "way/542939146",
      "properties": {
        "timestamp": "2017-11-26T15:55:48Z",
        "version": 1,
        "changeset": 54098494,
        "amenity": "school",
        "id": "way/542939146"
      },
      "geometry": {
        "type": "Polygon",
        "coordinates": [
          [
            [
              -38.1982713,
              -10.1831045
            ],
            [
              -38.1981182,
              -10.1833696
            ],
            [
              -38.1978767,
              -10.1832345
            ],
            [
              -38.1979752,
              -10.183064
            ],
            [
              -38.1980403,
              -10.1831004
            ],
            [
              -38.198095,
              -10.1830058
            ],
            [
              -38.1982713,
              -10.1831045
            ]
          ]
        ]
      }
    },
    {
      "type": "Feature",
      "id": "way/1359890035",
      "properties": {
        "timestamp": "2025-02-14T17:08:05Z",
        "version": 1,
        "changeset": 162511094,
        "addr:city": "Jeremoabo",
        "addr:postcode": "48540-000",
        "addr:street": "Avenida José Gonçalves de Sá",
        "addr:suburb": "Centro",
        "amenity": "school",
        "building": "yes",
        "building:levels": "2",
        "name": "Escolas Reunidas Coronel João Sá",
        "id": "way/1359890035"
      },
      "geometry": {
        "type": "Polygon",
        "coordinates": [
          [
            [
              -38.3509805,
              -10.070522
            ],
            [
              -38.3509337,
              -10.0705985
            ],
            [
              -38.3508147,
              -10.0705278
            ],
            [
              -38.3508551,
              -10.0704619
            ],
            [
              -38.350876,
              -10.0704743
            ],
            [
              -38.3509032,
              -10.07043
            ],
            [
              -38.350876,
              -10.0704139
            ],
            [
              -38.3509123,
              -10.0703547
            ],
            [
              -38.3510223,
              -10.0704202
            ],
            [
              -38.3510405,
              -10.0703906
            ],
            [
              -38.3511233,
              -10.0704398
            ],
            [
              -38.3509948,
              -10.0706491
            ],
            [
              -38.3509492,
              -10.070622
            ],
            [
              -38.3510025,
              -10.0705351
            ],
            [
              -38.3509805,
              -10.070522
            ]
          ]
        ]
      }
    },
    {
      "type": "Feature",
      "id": "way/1359890045",
      "properties": {
        "timestamp": "2025-02-14T17:08:05Z",
        "version": 1,
        "changeset": 162511094,
        "addr:city": "Jeremoabo",
        "addr:postcode": "48540-000",
        "addr:street": "Avenida Recife",
        "addr:suburb": "Centro",
        "amenity": "school",
        "name": "Escola Municipal Evaristo Cardoso Varjão",
        "operator": "Município de Jeremoabo",
        "operator:type": "public",
        "id": "way/1359890045"
      },
      "geometry": {
        "type": "Polygon",
        "coordinates": [
          [
            [
              -38.3429942,
              -10.0797119
            ],
            [
              -38.3423674,
              -10.0800537
            ],
            [
              -38.3420396,
              -10.0794659
            ],
            [
              -38.3426634,
              -10.0791219
            ],
            [
              -38.3427423,
              -10.0792635
            ],
            [
              -38.3427779,
              -10.0793257
            ],
            [
              -38.3428908,
              -10.0795363
            ],
            [
              -38.3429942,
              -10.0797119
            ]
          ]
        ]
      }
    },
    {
      "type": "Feature",
      "id": "way/1359890047",
      "properties": {
        "timestamp": "2025-02-14T17:08:05Z",
        "version": 1,
        "changeset": 162511094,
        "IBGE:COD_UNICO_ENDERECO": "191277176",
        "addr:housenumber": "10",
        "addr:postcode": "48540-000",
        "addr:street": "Praça Fiel Nolasco",
        "addr:suburb": "José Nolasco",
        "amenity": "school",
        "name": "Escola Municipal José Nolasco de Carvalho",
        "id": "way/1359890047"
      },
      "geometry": {
        "type": "Polygon",
        "coordinates": [
          [
            [
              -38.3244872,
              -10.0907455
            ],
            [
              -38.3243538,
              -10.090895
            ],
            [
              -38.3243194,
              -10.0909333
            ],
            [
              -38.3241971,
              -10.0910865
            ],
            [
              -38.3239201,
              -10.0908472
            ],
            [
              -38.324217,
              -10.0905129
            ],
            [
              -38.3244872,
              -10.0907455
            ]
          ]
        ]
      }
    },
    {
      "type": "Feature",
      "id": "node/1751022070",
      "properties": {
        "timestamp": "2025-02-14T01:02:06Z",
        "version": 3,
        "changeset": 162485859,
        "addr:city": "Jeremoabo",
        "addr:housenumber": "1",
        "addr:postcode": "48540-000",
        "addr:street": "Rua do Colégio",
        "addr:suburb": "Centro",
        "amenity": "school",
        "name": "Colégio Municipal São João Batista",
        "operator": "Município de Jeremoabo",
        "operator:type": "public",
        "id": "node/1751022070"
      },
      "geometry": {
        "type": "Point",
        "coordinates": [
          -38.3528758,
          -10.0678147
        ]
      }
    },
    {
      "type": "Feature",
      "id": "node/12585580866",
      "properties": {
        "timestamp": "2025-02-14T01:02:06Z",
        "version": 2,
        "changeset": 162485859,
        "IBGE:COD_UNICO_ENDERECO": "25985689",
        "addr:city": "Jeremoabo",
        "addr:housenumber": "37",
        "addr:postcode": "48540-000",
        "addr:street": "Travessa Pará",
        "addr:suburb": "Centro",
        "amenity": "school",
        "building": "yes",
        "email": "colegioideal29@gmail.com",
        "name": "Colégio Ideal",
        "operator": "Colégio Ideal",
        "operator:type": "private",
        "phone": "+55 75 3203 2583",
        "id": "node/12585580866"
      },
      "geometry": {
        "type": "Point",
        "coordinates": [
          -38.3512813,
          -10.0718954
        ]
      }
    },
    {
      "type": "Feature",
      "id": "node/12585580867",
      "properties": {
        "timestamp": "2025-02-13T23:11:24Z",
        "version": 2,
        "changeset": 162484314,
        "IBGE:COD_UNICO_ENDERECO": "25986357",
        "addr:city": "Jeremoabo",
        "addr:housenumber": "1",
        "addr:postcode": "48540-000",
        "addr:street": "Rua da Escola Municipal João Paulo II",
        "addr:suburb": "João Paulo II",
        "amenity": "school",
        "building": "yes",
        "name": "Escola Municipal João Paulo II",
        "id": "node/12585580867"
      },
      "geometry": {
        "type": "Point",
        "coordinates": [
          -38.3526983,
          -10.0778096
        ]
      }
    },
    {
      "type": "Feature",
      "id": "node/12586206194",
      "properties": {
        "timestamp": "2025-02-14T01:02:06Z",
        "version": 1,
        "changeset": 162485859,
        "addr:city": "Jeremoabo",
        "addr:housenumber": "2",
        "addr:postcode": "48540-000",
        "addr:street": "Avenida Recife",
        "addr:suburb": "Centro",
        "amenity": "school",
        "name": "Colégio Estadual José Lourenço de Carvalho",
        "operator": "Secretaria de Educação do Estado da Bahia",
        "operator:type": "public",
        "id": "node/12586206194"
      },
      "geometry": {
        "type": "Point",
        "coordinates": [
          -38.3419724,
          -10.0805609
        ]
      }
    },
    {
      "type": "Feature",
      "id": "node/12587609840",
      "properties": {
        "timestamp": "2025-02-14T13:39:15Z",
        "version": 1,
        "changeset": 162503851,
        "addr:city": "Jeremoabo",
        "addr:postcode": "48540-000",
        "addr:street": "Rua Delmiro Gouveia",
        "addr:suburb": "Centro",
        "amenity": "school",
        "name": "Colégio Leonardo da Vinci",
        "operator": "Andrade Goncalves e Santos Ensino Fundamental Ltda",
        "operator:type": "private",
        "phone": "+55 75 3203 1599",
        "id": "node/12587609840"
      },
      "geometry": {
        "type": "Point",
        "coordinates": [
          -38.3502411,
          -10.0676921
        ]
      }
    },
    {
      "type": "Feature",
      "id": "node/12588054231",
      "properties": {
        "timestamp": "2025-02-14T17:40:47Z",
        "version": 1,
        "changeset": 162512142,
        "addr:city": "Jeremoabo",
        "addr:postcode": "48540-000",
        "addr:suburb": "Espinheiro",
        "amenity": "school",
        "name": "Escola Municipal Marivaldo Pereira",
        "id": "node/12588054231"
      },
      "geometry": {
        "type": "Point",
        "coordinates": [
          -38.3100352,
          -10.0572876
        ]
      }
    }
  ]
}
