{
  "type": "FeatureCollection",
  "features": [
    {
      "type": "Feature",
      "id": "way/636740791",
      "properties": {
        "timestamp": "2018-10-22T05:04:55Z",
        "version": 1,
        "changeset": 63744865,
        "addr:city": "Colina",
        "addr:postcode": "14770-000",
        "addr:street": "Avenida 6",
        "addr:suburb": "Jardim Henrique Ernesto Paro",
        "amenity": "community_centre",
        "building": "yes",
        "id": "way/636740791"
      },
      "geometry": {
        "type": "Polygon",
        "coordinates": [
          [
            [
              -48.5286542,
              -20.7230223
            ],
            [
              -48.5285756,
              -20.7230621
            ],
            [
              -48.5284532,
              -20.7228508
            ],
            [
              -48.5285318,
              -20.722811
            ],
            [
              -48.5286542,
              -20.7230223
            ]
          ]
        ]
      }
    }
  ]
}
