{
  "type": "FeatureCollection",
  "features": [
    {
      "type": "Feature",
      "id": "way/716825871",
      "properties": {
        "timestamp": "2023-02-11T21:58:38Z",
        "version": 4,
        "changeset": 132423987,
        "addr:city": "Carolina",
        "addr:postcode": "65980000",
        "addr:street": "funciona provisoriamente no Centro de Ensino Sertão Maranhense, Praça do Estudante",
        "addr:suburb": "Centro",
        "amenity": "college",
        "campus": "Carolina",
        "name": "Instituto Federal de Educação, Ciência e Tecnologia do Maranhão",
        "operator": "#IFES",
        "website": "https://carolina.ifma.edu.br/",
        "id": "way/716825871"
      },
      "geometry": {
        "type": "Polygon",
        "coordinates": [
          [
            [
              -47.4755845,
              -7.3301658
            ],
            [
              -47.4760395,
              -7.3301994
            ],
            [
              -47.4759132,
              -7.3308616
            ],
            [
              -47.475623,
              -7.3307799
            ],
            [
              -47.4753296,
              -7.330609
            ],
            [
              -47.4755845,
              -7.3301658
            ]
          ]
        ]
      }
    }
  ]
}
