{
  "type": "FeatureCollection",
  "features": [
    {
      "type": "Feature",
      "id": "node/9024768179",
      "properties": {
        "timestamp": "2025-02-28T10:50:12Z",
        "version": 2,
        "changeset": 163046642,
        "amenity": "community_centre",
        "id": "node/9024768179"
      },
      "geometry": {
        "type": "Point",
        "coordinates": [
          -52.5241353,
          -25.8566238
        ]
      }
    },
    {
      "type": "Feature",
      "id": "node/12625431343",
      "properties": {
        "timestamp": "2025-02-28T10:50:12Z",
        "version": 1,
        "changeset": 163046642,
        "addr:city": "Chopinzinho",
        "addr:housenumber": "4367",
        "addr:street": "Rua João Bordinhão",
        "addr:suburb": "Centro",
        "amenity": "community_centre",
        "name": "Associação Chopinzinhense de Vovôs",
        "id": "node/12625431343"
      },
      "geometry": {
        "type": "Point",
        "coordinates": [
          -52.5364662,
          -25.8534337
        ]
      }
    }
  ]
}
