{
  "type": "FeatureCollection",
  "features": [
    {
      "type": "Feature",
      "id": "node/12569390642",
      "properties": {
        "timestamp": "2025-02-08T20:19:45Z",
        "version": 1,
        "changeset": 162293384,
        "addr:city": "Chopinzinho",
        "addr:housenumber": "4619",
        "addr:street": "Avenida XV de Novembro",
        "addr:suburb": "Centro",
        "amenity": "pharmacy",
        "healthcare": "pharmacy",
        "name": "Master Farma",
        "id": "node/12569390642"
      },
      "geometry": {
        "type": "Point",
        "coordinates": [
          -52.5347064,
          -25.8564003
        ]
      }
    },
    {
      "type": "Feature",
      "id": "node/12569390643",
      "properties": {
        "timestamp": "2025-02-28T10:50:12Z",
        "version": 2,
        "changeset": 163046642,
        "addr:city": "Chopinzinho",
        "addr:housenumber": "4123",
        "addr:street": "Rua Washington Luiz",
        "addr:suburb": "Centro",
        "amenity": "pharmacy",
        "healthcare": "pharmacy",
        "name": "Piva Farma",
        "id": "node/12569390643"
      },
      "geometry": {
        "type": "Point",
        "coordinates": [
          -52.534543,
          -25.8553696
        ]
      }
    },
    {
      "type": "Feature",
      "id": "node/12569390644",
      "properties": {
        "timestamp": "2025-02-28T10:50:12Z",
        "version": 2,
        "changeset": 163046642,
        "addr:city": "Chopinzinho",
        "addr:housenumber": "4534",
        "addr:street": "Avenida 14 de Dezembro",
        "addr:suburb": "Centro",
        "amenity": "pharmacy",
        "healthcare": "pharmacy",
        "name": "Pan Farma",
        "id": "node/12569390644"
      },
      "geometry": {
        "type": "Point",
        "coordinates": [
          -52.5339136,
          -25.854957
        ]
      }
    },
    {
      "type": "Feature",
      "id": "node/12569390645",
      "properties": {
        "timestamp": "2025-02-28T10:50:12Z",
        "version": 2,
        "changeset": 163046642,
        "addr:city": "Chopinzinho",
        "addr:housenumber": "4512",
        "addr:street": "Avenida XV de Novembro",
        "addr:suburb": "Centro",
        "amenity": "pharmacy",
        "healthcare": "pharmacy",
        "name": "Mari Farma",
        "id": "node/12569390645"
      },
      "geometry": {
        "type": "Point",
        "coordinates": [
          -52.5336304,
          -25.8559855
        ]
      }
    },
    {
      "type": "Feature",
      "id": "node/12569390646",
      "properties": {
        "timestamp": "2025-02-28T10:50:12Z",
        "version": 2,
        "changeset": 163046642,
        "addr:city": "Chopinzinho",
        "addr:housenumber": "4073",
        "addr:street": "Rua Presidente Dutra",
        "addr:suburb": "Centro",
        "amenity": "pharmacy",
        "healthcare": "pharmacy",
        "name": "Farmácias Brava",
        "id": "node/12569390646"
      },
      "geometry": {
        "type": "Point",
        "coordinates": [
          -52.5327224,
          -25.8557466
        ]
      }
    },
    {
      "type": "Feature",
      "id": "node/12569390647",
      "properties": {
        "timestamp": "2025-02-08T20:19:45Z",
        "version": 1,
        "changeset": 162293384,
        "addr:city": "Chopinzinho",
        "addr:housenumber": "4421",
        "addr:street": "Avenida XV de Novembro",
        "addr:suburb": "Centro",
        "amenity": "pharmacy",
        "healthcare": "pharmacy",
        "name": "Farmácias Brasil Poupa Lar",
        "id": "node/12569390647"
      },
      "geometry": {
        "type": "Point",
        "coordinates": [
          -52.5327425,
          -25.8564721
        ]
      }
    },
    {
      "type": "Feature",
      "id": "node/12569390648",
      "properties": {
        "timestamp": "2025-02-08T20:19:45Z",
        "version": 1,
        "changeset": 162293384,
        "addr:city": "Chopinzinho",
        "addr:housenumber": "4257",
        "addr:street": "Avenida XV de Novembro",
        "addr:suburb": "Centro",
        "amenity": "pharmacy",
        "healthcare": "pharmacy",
        "name": "Farmácias Mais Saúde",
        "id": "node/12569390648"
      },
      "geometry": {
        "type": "Point",
        "coordinates": [
          -52.5310691,
          -25.856173
        ]
      }
    },
    {
      "type": "Feature",
      "id": "node/12569390649",
      "properties": {
        "timestamp": "2025-02-08T20:19:45Z",
        "version": 1,
        "changeset": 162293384,
        "addr:city": "Chopinzinho",
        "addr:housenumber": "4189",
        "addr:street": "Avenida XV de Novembro",
        "addr:suburb": "Centro",
        "amenity": "pharmacy",
        "healthcare": "pharmacy",
        "name": "Drogamais",
        "id": "node/12569390649"
      },
      "geometry": {
        "type": "Point",
        "coordinates": [
          -52.5305237,
          -25.8561366
        ]
      }
    },
    {
      "type": "Feature",
      "id": "node/12569390650",
      "properties": {
        "timestamp": "2025-02-28T10:50:12Z",
        "version": 2,
        "changeset": 163046642,
        "addr:city": "Chopinzinho",
        "addr:housenumber": "3999",
        "addr:street": "Avenida XV de Novembro",
        "addr:suburb": "Centro",
        "amenity": "pharmacy",
        "healthcare": "pharmacy",
        "name": "Hiperfarma",
        "id": "node/12569390650"
      },
      "geometry": {
        "type": "Point",
        "coordinates": [
          -52.5285397,
          -25.8561544
        ]
      }
    },
    {
      "type": "Feature",
      "id": "node/12569390651",
      "properties": {
        "timestamp": "2025-02-28T10:50:12Z",
        "version": 2,
        "changeset": 163046642,
        "addr:city": "Chopinzinho",
        "addr:housenumber": "3836",
        "addr:street": "Avenida XV de Novembro",
        "addr:suburb": "Centro",
        "amenity": "pharmacy",
        "healthcare": "pharmacy",
        "name": "Drogarias Farmagnus",
        "id": "node/12569390651"
      },
      "geometry": {
        "type": "Point",
        "coordinates": [
          -52.5267075,
          -25.8555982
        ]
      }
    }
  ]
}
