{
  "type": "FeatureCollection",
  "features": [
    {
      "type": "Feature",
      "id": "way/451258422",
      "properties": {
        "timestamp": "2020-04-11T14:11:13Z",
        "version": 6,
        "changeset": 83400127,
        "addr:city": "Cabo de Santo Agostinho",
        "addr:housenumber": "558",
        "addr:postcode": "54510-360",
        "addr:street": "Avenida Historiador Pereira da Costa",
        "addr:suburb": "Centro",
        "amenity": "doctors",
        "building": "yes",
        "healthcare": "doctor",
        "name": "Centro MÃ©dico do Cabo Unimed",
        "phone": "+55 81 3521 5460",
        "source": "http://www.unimedrecife.com.br/unidades.php?pg=VFdwclBRPT0=",
        "website": "https://www.unimedrecife.com.br/",
        "id": "way/451258422"
      },
      "geometry": {
        "type": "Polygon",
        "coordinates": [
          [
            [
              -35.0333626,
              -8.2830266
            ],
            [
              -35.0335552,
              -8.2828308
            ],
            [
              -35.0336116,
              -8.282851
            ],
            [
              -35.033742,
              -8.2829766
            ],
            [
              -35.033575,
              -8.2831463
            ],
            [
              -35.0335179,
              -8.2831762
            ],
            [
              -35.0333626,
              -8.2830266
            ]
          ]
        ]
      }
    }
  ]
}
