{
  "type": "FeatureCollection",
  "features": [
    {
      "type": "Feature",
      "id": "way/616122281",
      "properties": {
        "timestamp": "2020-11-18T10:39:41Z",
        "version": 2,
        "changeset": 94353081,
        "addr:city": "Monte Azul",
        "addr:housenumber": "864",
        "addr:postcode": "39.500-000",
        "addr:street": "Avenida Presidente Raul Soares",
        "addr:suburb": "Pernambuco",
        "amenity": "doctors",
        "building": "yes",
        "healthcare": "doctor",
        "healthcare:speciality": "orthopaedics",
        "name": "iMedic",
        "opening_hours": "Mo-Fr 08:00-17:00",
        "id": "way/616122281"
      },
      "geometry": {
        "type": "Polygon",
        "coordinates": [
          [
            [
              -42.8632889,
              -15.1518251
            ],
            [
              -42.8632259,
              -15.1516104
            ],
            [
              -42.8633186,
              -15.1515899
            ],
            [
              -42.8633842,
              -15.1517874
            ],
            [
              -42.8632889,
              -15.1518251
            ]
          ]
        ]
      }
    }
  ]
}
