{
  "type": "FeatureCollection",
  "features": [
    {
      "type": "Feature",
      "id": "way/989909143",
      "properties": {
        "timestamp": "2023-08-02T20:14:59Z",
        "version": 2,
        "changeset": 139363230,
        "addr:city": "Feijó",
        "addr:postcode": "69960-000",
        "addr:street": "Travessa Diamantino Macedo",
        "addr:suburb": "Cidade Nova",
        "amenity": "school",
        "building": "yes",
        "grades": "1-3 Médio",
        "name": "José Gurgel Rabello",
        "id": "way/989909143"
      },
      "geometry": {
        "type": "Polygon",
        "coordinates": [
          [
            [
              -70.3508525,
              -8.1666338
            ],
            [
              -70.3498449,
              -8.1666881
            ],
            [
              -70.3497516,
              -8.1657016
            ],
            [
              -70.3507399,
              -8.1655467
            ],
            [
              -70.3508525,
              -8.1666338
            ]
          ]
        ]
      }
    }
  ]
}
