{
  "type": "FeatureCollection",
  "features": [
    {
      "type": "Feature",
      "id": "way/436316677",
      "properties": {
        "timestamp": "2021-04-03T12:08:02Z",
        "version": 6,
        "changeset": 102233440,
        "addr:city": "Mogi Guaçu",
        "addr:housenumber": "152",
        "addr:street": "Rua Jose Colombo",
        "addr:suburb": "Morro do Ouro",
        "building": "yes",
        "government": "register_office",
        "name": "2º Tabelião de Notas e de Protesto de Letras e Títulos de Mogi Guaçu",
        "office": "government",
        "opening_hours": "Mo-Fr 08:30-17:00; Su,PH off",
        "phone": "+55 19 3861 1362",
        "id": "way/436316677"
      },
      "geometry": {
        "type": "Polygon",
        "coordinates": [
          [
            [
              -46.945184,
              -22.3682196
            ],
            [
              -46.945338,
              -22.3682929
            ],
            [
              -46.9452926,
              -22.3683746
            ],
            [
              -46.9451385,
              -22.3683013
            ],
            [
              -46.945184,
              -22.3682196
            ]
          ]
        ]
      }
    },
    {
      "type": "Feature",
      "id": "way/436316720",
      "properties": {
        "timestamp": "2019-09-09T01:28:55Z",
        "version": 5,
        "changeset": 74239421,
        "addr:city": "Mogi Guaçu",
        "addr:housenumber": "125",
        "addr:postcode": "13840-061",
        "addr:street": "Rua Henrique Coppi",
        "addr:suburb": "Morro do Ouro",
        "building": "yes",
        "government": "register_office",
        "name": "Oficial de Registro de Imóveis, Titulos e Documentos e Civil de Pessoa Jurídica de Mogi Guaçu",
        "office": "government",
        "opening_hours": "Mo-Fr 09:00-16:00; PH off",
        "phone": "(19) 3818-2305",
        "id": "way/436316720"
      },
      "geometry": {
        "type": "Polygon",
        "coordinates": [
          [
            [
              -46.943924,
              -22.3680882
            ],
            [
              -46.9437006,
              -22.3680434
            ],
            [
              -46.9437114,
              -22.3679699
            ],
            [
              -46.9439436,
              -22.3680222
            ],
            [
              -46.943924,
              -22.3680882
            ]
          ]
        ]
      }
    },
    {
      "type": "Feature",
      "id": "way/552014586",
      "properties": {
        "timestamp": "2019-01-14T18:02:53Z",
        "version": 3,
        "changeset": 66309836,
        "addr:city": "Mogi Guaçu",
        "addr:housenumber": "620",
        "addr:postcode": "13840-060",
        "addr:street": "Av. Marechal Castelo Branco",
        "addr:suburb": "Morro do Ouro",
        "building": "yes",
        "government": "register_office",
        "name": "Cartório Registro Civil Mogi Guaçu",
        "office": "government",
        "opening_hours": "Mo-Fr 09:00-16:00",
        "phone": "(19) 3361-1223",
        "id": "way/552014586"
      },
      "geometry": {
        "type": "Polygon",
        "coordinates": [
          [
            [
              -46.9435659,
              -22.3704981
            ],
            [
              -46.943537,
              -22.3704408
            ],
            [
              -46.9437661,
              -22.3703425
            ],
            [
              -46.9438012,
              -22.3703952
            ],
            [
              -46.9435659,
              -22.3704981
            ]
          ]
        ]
      }
    },
    {
      "type": "Feature",
      "id": "way/945547149",
      "properties": {
        "timestamp": "2021-05-21T16:52:29Z",
        "version": 1,
        "changeset": 105101727,
        "addr:housenumber": "91",
        "addr:street": "Rua Doutor Sílvio de Camargo",
        "building": "public",
        "government": "tax",
        "name": "Posto Fiscal de Mogi Guaçu",
        "office": "government",
        "operator": "Secretaria da Fazenda do Estado de São Paulo",
        "id": "way/945547149"
      },
      "geometry": {
        "type": "Polygon",
        "coordinates": [
          [
            [
              -46.9407472,
              -22.3470069
            ],
            [
              -46.9406913,
              -22.3472906
            ],
            [
              -46.9405193,
              -22.3472616
            ],
            [
              -46.9405751,
              -22.3469779
            ],
            [
              -46.9407472,
              -22.3470069
            ]
          ]
        ]
      }
    },
    {
      "type": "Feature",
      "id": "way/945547151",
      "properties": {
        "timestamp": "2021-05-21T16:52:29Z",
        "version": 1,
        "changeset": 105101727,
        "addr:housenumber": "31",
        "addr:street": "Rua Doutor Sílvio de Camargo",
        "building": "public",
        "government": "tax",
        "name": "Agência da Receita Federal em Mogi Guaçu",
        "office": "government",
        "operator": "Secretaria da Receita Federal do Brasil",
        "short_name": "ARF em Mogi Guaçu",
        "wheelchair": "yes",
        "id": "way/945547151"
      },
      "geometry": {
        "type": "Polygon",
        "coordinates": [
          [
            [
              -46.9410656,
              -22.347166
            ],
            [
              -46.9410256,
              -22.347357
            ],
            [
              -46.9407896,
              -22.3473147
            ],
            [
              -46.9408296,
              -22.3471236
            ],
            [
              -46.9410656,
              -22.347166
            ]
          ]
        ]
      }
    },
    {
      "type": "Feature",
      "id": "node/9051627249",
      "properties": {
        "timestamp": "2022-05-23T17:48:08Z",
        "version": 2,
        "changeset": 121382996,
        "addr:city": "Mogi Guaçu",
        "addr:housenumber": "210",
        "addr:postcode": "13840-065",
        "addr:street": "Rua José Colombo",
        "addr:suburb": "Morro do Ouro",
        "alt_name": "CROSP;CROSP Mogi Guaçu;CROSP-Delegacia Seccional de Mogi Guaçu",
        "government": "government",
        "name": "Conselho Regional de Odontologia do Estado de São Paulo - Seccional Mogi Guaçu",
        "office": "government",
        "phone": "+55 (19) 38912586",
        "website": "https://www.crosp.org.br/",
        "id": "node/9051627249"
      },
      "geometry": {
        "type": "Point",
        "coordinates": [
          -46.945015,
          -22.3686559
        ]
      }
    }
  ]
}
