{
  "type": "FeatureCollection",
  "features": [
    {
      "type": "Feature",
      "id": "way/560365693",
      "properties": {
        "timestamp": "2019-02-03T15:21:06Z",
        "version": 2,
        "changeset": 66878732,
        "addr:city": "Mogi Gua√ßu",
        "addr:housenumber": "3765",
        "addr:street": "Avenida dos Trabalhadores",
        "addr:suburb": "Jardim Almira",
        "amenity": "veterinary",
        "building": "yes",
        "email": "contato@petvetcenter.com.br",
        "name": "Pet Vet Center",
        "opening_hours": "Mo-Fr 08:00-18:00",
        "website": "https://www.petvetcenter.com.br/",
        "id": "way/560365693"
      },
      "geometry": {
        "type": "Polygon",
        "coordinates": [
          [
            [
              -46.9367267,
              -22.355925
            ],
            [
              -46.9365765,
              -22.3554859
            ],
            [
              -46.9369574,
              -22.3553619
            ],
            [
              -46.9369896,
              -22.3554785
            ],
            [
              -46.9367267,
              -22.355925
            ]
          ]
        ]
      }
    }
  ]
}
