{
  "type": "FeatureCollection",
  "features": [
    {
      "type": "Feature",
      "id": "way/206458093",
      "properties": {
        "timestamp": "2023-09-26T15:16:55Z",
        "version": 6,
        "changeset": 141779436,
        "addr:city": "Paulínia",
        "addr:housenumber": "230",
        "addr:postcode": "13145-700",
        "addr:street": "Avenida Duque de Caxias",
        "addr:suburb": "João Aranha",
        "alt_name": "Posto de Saúde Aristóteles Costa",
        "amenity": "clinic",
        "building": "yes",
        "healthcare": "clinic",
        "healthcare:speciality": "general",
        "name": "UBS Aristóteles Costa",
        "opening_hours": "Mo-Fr 08:00-17:00",
        "operator": "Prefeitura Municipal de paulínia",
        "operator:type": "government",
        "phone": "+55-19-39333245",
        "short_name": "UBS",
        "id": "way/206458093"
      },
      "geometry": {
        "type": "Polygon",
        "coordinates": [
          [
            [
              -47.1763037,
              -22.7330083
            ],
            [
              -47.1762103,
              -22.7331366
            ],
            [
              -47.1760524,
              -22.7333468
            ],
            [
              -47.1759481,
              -22.7332811
            ],
            [
              -47.176103,
              -22.733072
            ],
            [
              -47.1761321,
              -22.7330882
            ],
            [
              -47.1762254,
              -22.7329599
            ],
            [
              -47.1763037,
              -22.7330083
            ]
          ]
        ]
      }
    },
    {
      "type": "Feature",
      "id": "way/209217468",
      "properties": {
        "timestamp": "2023-07-30T13:27:44Z",
        "version": 5,
        "changeset": 139209874,
        "addr:city": "Paulínia",
        "addr:housenumber": "100",
        "addr:postcode": "13145-816",
        "addr:street": "Avenida Regina Basseto Bordignon",
        "addr:suburb": "São José",
        "amenity": "clinic",
        "building": "yes",
        "emergency": "no",
        "healthcare": "clinic",
        "healthcare:speciality": "general",
        "name": "Unidade Básica de Saúde do São José Luís Cândido Canella Sanches",
        "opening_hours": "24/7",
        "operator": "Prefeitura Municipal de Paulínia",
        "operator:type": "public",
        "id": "way/209217468"
      },
      "geometry": {
        "type": "Polygon",
        "coordinates": [
          [
            [
              -47.1747685,
              -22.7217103
            ],
            [
              -47.1748678,
              -22.721793
            ],
            [
              -47.1749429,
              -22.7218116
            ],
            [
              -47.1750971,
              -22.7217934
            ],
            [
              -47.1751482,
              -22.7219959
            ],
            [
              -47.1749792,
              -22.7220182
            ],
            [
              -47.1749227,
              -22.7220606
            ],
            [
              -47.1748585,
              -22.7222012
            ],
            [
              -47.1746817,
              -22.7221498
            ],
            [
              -47.1747242,
              -22.7220284
            ],
            [
              -47.1747215,
              -22.721969
            ],
            [
              -47.1746143,
              -22.7218256
            ],
            [
              -47.1747685,
              -22.7217103
            ]
          ]
        ]
      }
    },
    {
      "type": "Feature",
      "id": "way/515018531",
      "properties": {
        "timestamp": "2024-01-30T15:02:42Z",
        "version": 8,
        "changeset": 146867654,
        "addr:city": "Paulínia",
        "addr:housenumber": "444",
        "addr:postcode": "13140-141",
        "addr:street": "Rua Presidente Costa e Silva",
        "addr:suburb": "Nova Paulínia",
        "alt_name": "Unidade Básica de Saúde do Centro",
        "amenity": "clinic",
        "building": "yes",
        "description": "DECRETO Nº 595, DE 27 DE NOVEMBRO DE 1972. Art. 1º Fica denominado Centro de Saúde Escola Governador Laudo Natel, o Centro de Saúde Escola, situado neste Município.",
        "healthcare": "clinic",
        "healthcare:speciality": "general;vaccination;paediatrics;gynaecology",
        "name": "UBS Centro - Governador Laudo Natel",
        "opening_hours": "Mo-Fr 07:00-19:00; Sa 07:00-12:00; Su,PH off",
        "operator": "Secretaria Municipal de Saúde",
        "operator:type": "government",
        "phone": "+55-19-38741311",
        "ref": "CNES-2056887",
        "short_name": "UBS",
        "source": "CNES;http://leismunicipa.is/rqdpo",
        "id": "way/515018531"
      },
      "geometry": {
        "type": "Polygon",
        "coordinates": [
          [
            [
              -47.1509697,
              -22.7694694
            ],
            [
              -47.1507929,
              -22.7698901
            ],
            [
              -47.1506469,
              -22.7698281
            ],
            [
              -47.1507671,
              -22.7695599
            ],
            [
              -47.1507273,
              -22.7695351
            ],
            [
              -47.1506268,
              -22.7697489
            ],
            [
              -47.1504231,
              -22.7696709
            ],
            [
              -47.1504806,
              -22.7695386
            ],
            [
              -47.150448,
              -22.7695182
            ],
            [
              -47.1503755,
              -22.7696505
            ],
            [
              -47.1502424,
              -22.7696166
            ],
            [
              -47.1503342,
              -22.7693944
            ],
            [
              -47.1504159,
              -22.7692316
            ],
            [
              -47.1505429,
              -22.7692747
            ],
            [
              -47.1504694,
              -22.7694507
            ],
            [
              -47.1505062,
              -22.7694603
            ],
            [
              -47.1505945,
              -22.7692727
            ],
            [
              -47.1507896,
              -22.7693396
            ],
            [
              -47.1507724,
              -22.7693925
            ],
            [
              -47.1509697,
              -22.7694694
            ]
          ]
        ]
      }
    },
    {
      "type": "Feature",
      "id": "way/853465778",
      "properties": {
        "timestamp": "2022-05-01T00:41:09Z",
        "version": 2,
        "changeset": 120403253,
        "addr:city": "Paulínia",
        "addr:housenumber": "105",
        "addr:postcode": "13142-208",
        "addr:street": "Rua Shirlei Ramos Maia de Souza",
        "addr:suburb": "Parque Bom Retiro",
        "amenity": "clinic",
        "healthcare": "clinic",
        "healthcare:speciality": "general;paediatrics;vaccination;gynaecology",
        "loc_name": "UBS Cooperlotes",
        "name": "Unidade Básica de Saúde Carlos Fabiano Ferrari",
        "opening_hours": "Mo-Fr 07:00-17:00; Sa,Su,PH off",
        "operator": "Secretaria Municipal da Saúde",
        "operator:type": "government",
        "phone": "+55 19 3884 1307",
        "ref": "CNES-3495957",
        "source": "CNES",
        "id": "way/853465778"
      },
      "geometry": {
        "type": "Polygon",
        "coordinates": [
          [
            [
              -47.1879238,
              -22.7860934
            ],
            [
              -47.1873858,
              -22.7863324
            ],
            [
              -47.1871735,
              -22.7858935
            ],
            [
              -47.1876813,
              -22.7856341
            ],
            [
              -47.1879238,
              -22.7860934
            ]
          ]
        ]
      }
    },
    {
      "type": "Feature",
      "id": "way/867821574",
      "properties": {
        "timestamp": "2024-04-17T19:23:04Z",
        "version": 7,
        "changeset": 150145679,
        "addr:city": "Paulínia",
        "addr:housenumber": "1598",
        "addr:postcode": "13145-256",
        "addr:street": "Avenida João Aranha",
        "addr:suburb": "Alto de Pinheiros",
        "alt_name": "Posto de Saúde Edith Pavlu Gatte",
        "amenity": "clinic",
        "building:part": "yes",
        "contact:phone": "+55 19 3874 5673",
        "healthcare": "clinic",
        "healthcare:speciality": "general;paediatrics;ginecologia;vaccination",
        "name": "UBS Planalto - Edithe Pavlu Gatte",
        "opening_hours": "Mo-Fr 08:00-17:00; PH off",
        "operator": "Secretaria Municipal de Saúde",
        "operator:type": "government",
        "phone": "+55 19 3874 2003",
        "ref:CNES": "2056879",
        "short_name": "UBS Planalto",
        "source": "CNES",
        "id": "way/867821574"
      },
      "geometry": {
        "type": "Polygon",
        "coordinates": [
          [
            [
              -47.173893,
              -22.7516218
            ],
            [
              -47.1741461,
              -22.7516077
            ],
            [
              -47.1741504,
              -22.7516733
            ],
            [
              -47.1742259,
              -22.7516691
            ],
            [
              -47.1742308,
              -22.7517433
            ],
            [
              -47.1742851,
              -22.7517361
            ],
            [
              -47.1742717,
              -22.7518022
            ],
            [
              -47.1742984,
              -22.7519519
            ],
            [
              -47.1741059,
              -22.7519699
            ],
            [
              -47.174102,
              -22.7518931
            ],
            [
              -47.1740078,
              -22.7518983
            ],
            [
              -47.1740028,
              -22.7518223
            ],
            [
              -47.1739065,
              -22.7518276
            ],
            [
              -47.173893,
              -22.7516218
            ]
          ]
        ]
      }
    },
    {
      "type": "Feature",
      "id": "way/898456453",
      "properties": {
        "timestamp": "2024-04-17T17:56:24Z",
        "version": 4,
        "changeset": 150142840,
        "addr:city": "Paulínia",
        "addr:housenumber": "550",
        "addr:postcode": "13145-584",
        "addr:street": "Rua Sebastião Mattar",
        "addr:suburb": "Saltinho",
        "alt_name": "Unidade Básica de Saúde Osvaldo Mirone",
        "amenity": "clinic",
        "building": "yes",
        "healthcare": "clinic",
        "name": "UBS Jardim Amélia - Osvaldo Mirone",
        "opening_hours": "Mo-Fr 08:00-17:00",
        "operator": "Prefeitura Municipal de Paulínia",
        "operator:type": "government",
        "phone": "+55-19-38443719;+55-19-3844-5495",
        "short_name": "UBS",
        "id": "way/898456453"
      },
      "geometry": {
        "type": "Polygon",
        "coordinates": [
          [
            [
              -47.1875354,
              -22.7353364
            ],
            [
              -47.1878665,
              -22.7357313
            ],
            [
              -47.1875541,
              -22.7359523
            ],
            [
              -47.1874401,
              -22.7358195
            ],
            [
              -47.1874035,
              -22.7357768
            ],
            [
              -47.1873206,
              -22.7355862
            ],
            [
              -47.1873183,
              -22.7355593
            ],
            [
              -47.1873206,
              -22.7355388
            ],
            [
              -47.1873253,
              -22.7355281
            ],
            [
              -47.1873311,
              -22.7355195
            ],
            [
              -47.187351,
              -22.7354947
            ],
            [
              -47.1874175,
              -22.7354107
            ],
            [
              -47.1874759,
              -22.7353482
            ],
            [
              -47.1875027,
              -22.7353256
            ],
            [
              -47.1875354,
              -22.7353364
            ]
          ]
        ]
      }
    },
    {
      "type": "Feature",
      "id": "way/905137782",
      "properties": {
        "timestamp": "2023-01-18T17:40:02Z",
        "version": 4,
        "changeset": 131432331,
        "addr:city": "Paulínia",
        "addr:housenumber": "1092",
        "addr:postcode": "13142-340",
        "addr:street": "Avenida Antônio Baptista Piva",
        "addr:suburb": "Jardim Monte Alegre I",
        "amenity": "clinic",
        "healthcare": "clinic",
        "healthcare:speciality": "general;paediatrics;vaccination;gynaecology",
        "loc_name": "UBS Vila Monte Alegre",
        "name": "Unidade Básica de Saúde Vereador Gentil Canhestro de Oliveira",
        "opening_hours": "Mo-Fr 07:00-19:00; Sa 07:00-12:00; Su,PH off",
        "operator": "Prefeitura Municipal de Paulínia",
        "operator:type": "government",
        "operator:wikidata": "Q40706",
        "phone": "+55-19-38843562",
        "ref": "CNES-2065819",
        "short_name": "UBS Vereador Gentil Canhestro de Oliveira",
        "source": "CNES",
        "id": "way/905137782"
      },
      "geometry": {
        "type": "Polygon",
        "coordinates": [
          [
            [
              -47.1708734,
              -22.7758817
            ],
            [
              -47.1709149,
              -22.7762861
            ],
            [
              -47.1704308,
              -22.7763528
            ],
            [
              -47.1704617,
              -22.7759361
            ],
            [
              -47.1708734,
              -22.7758817
            ]
          ]
        ]
      }
    },
    {
      "type": "Feature",
      "id": "way/908088409",
      "properties": {
        "timestamp": "2023-09-19T17:22:07Z",
        "version": 6,
        "changeset": 141478891,
        "addr:city": "Paulínia",
        "addr:housenumber": "310",
        "addr:postcode": "13148-218",
        "addr:street": "Avenida Alexandre Cazellato",
        "addr:suburb": "Betel",
        "amenity": "clinic",
        "building": "yes",
        "contact:phone": "+55 19 3888 2511",
        "healthcare": "clinic",
        "healthcare:speciality": "general;paediatrics;vaccination;ginecologia",
        "name": "Unidade Básica de Saúde Janaína Coelho Cipolli do Nascimento",
        "opening_hours": "Mo-Fr 07:00-17:00; Sa,Su,PH off",
        "operator": "Prefeitura Municipal de Paulínia",
        "operator:type": "government",
        "phone": "+55 19 3884 7311",
        "ref:CNES": "3495906",
        "short_name": "UBS Betel",
        "source": "CNES",
        "id": "way/908088409"
      },
      "geometry": {
        "type": "Polygon",
        "coordinates": [
          [
            [
              -47.1165813,
              -22.8056123
            ],
            [
              -47.1167508,
              -22.805733
            ],
            [
              -47.1165797,
              -22.8059572
            ],
            [
              -47.1164136,
              -22.8058394
            ],
            [
              -47.1165813,
              -22.8056123
            ]
          ]
        ]
      }
    },
    {
      "type": "Feature",
      "id": "way/908092067",
      "properties": {
        "timestamp": "2024-04-18T13:54:45Z",
        "version": 3,
        "changeset": 150176711,
        "addr:city": "Paulínia",
        "addr:housenumber": "398",
        "addr:postcode": "13144-722",
        "addr:street": "Rua Nelson Perini",
        "addr:suburb": "Balneário Tropical",
        "alt_name": "Unidade Básica de Saúde Benedito Miguel de Matos",
        "amenity": "clinic",
        "building": "yes",
        "healthcare": "clinic",
        "name": "UBS Parque da Represa - Benedito Miguel de Matos",
        "opening_hours": "Mo-Sa 08:00-20:00",
        "operator": "Prefeitura Municipal de Paulínia",
        "operator:type": "government",
        "short_name": "UBS",
        "id": "way/908092067"
      },
      "geometry": {
        "type": "Polygon",
        "coordinates": [
          [
            [
              -47.1852807,
              -22.7565013
            ],
            [
              -47.1856205,
              -22.7563269
            ],
            [
              -47.1857244,
              -22.756469
            ],
            [
              -47.1853776,
              -22.7566639
            ],
            [
              -47.1852807,
              -22.7565013
            ]
          ]
        ]
      }
    },
    {
      "type": "Feature",
      "id": "way/973579855",
      "properties": {
        "timestamp": "2023-01-18T17:40:02Z",
        "version": 2,
        "changeset": 131432331,
        "addr:city": "Paulínia",
        "addr:housenumber": "158",
        "addr:street": "Rua Izolino Clemente Duarte",
        "addr:suburb": "Jardim América",
        "alt_name": "Unidade Básica de Saúde Centro II",
        "amenity": "clinic",
        "building": "yes",
        "healthcare": "clinic",
        "name": "UBS Centro II",
        "opening_hours": "Mo-Fr 07:00-17:00",
        "phone": "+55-19-38332102",
        "short_name": "UBS",
        "id": "way/973579855"
      },
      "geometry": {
        "type": "Polygon",
        "coordinates": [
          [
            [
              -47.1454861,
              -22.7761262
            ],
            [
              -47.1454399,
              -22.7762285
            ],
            [
              -47.1453906,
              -22.7763265
            ],
            [
              -47.1451025,
              -22.7762143
            ],
            [
              -47.1452011,
              -22.7760154
            ],
            [
              -47.1454861,
              -22.7761262
            ]
          ]
        ]
      }
    },
    {
      "type": "Feature",
      "id": "way/990063145",
      "properties": {
        "timestamp": "2024-03-04T22:16:12Z",
        "version": 4,
        "changeset": 148227440,
        "addr:city": "Paulínia",
        "addr:housenumber": "100",
        "addr:postcode": "13145-816",
        "addr:street": "Avenida Regina Basseto Bordignon",
        "addr:suburb": "São José",
        "amenity": "clinic",
        "building": "yes",
        "emergency": "no",
        "healthcare": "clinic",
        "healthcare:speciality": "general",
        "name": "Pronto Atendimento do São José (PA São José)",
        "opening_hours": "24/7",
        "operator": "Prefeitura Municipal de Paulínia",
        "operator:type": "public",
        "phone": "+55-19-38444403;+55-19-39332436",
        "id": "way/990063145"
      },
      "geometry": {
        "type": "Polygon",
        "coordinates": [
          [
            [
              -47.1748637,
              -22.7216301
            ],
            [
              -47.1748047,
              -22.7215658
            ],
            [
              -47.1749082,
              -22.7214575
            ],
            [
              -47.1750088,
              -22.7215454
            ],
            [
              -47.1751292,
              -22.7215188
            ],
            [
              -47.175161,
              -22.7216622
            ],
            [
              -47.1749859,
              -22.7216891
            ],
            [
              -47.1748637,
              -22.7216301
            ]
          ]
        ]
      }
    },
    {
      "type": "Feature",
      "id": "way/1133251162",
      "properties": {
        "timestamp": "2023-01-18T17:40:02Z",
        "version": 1,
        "changeset": 131432331,
        "addr:city": "Paulínia",
        "addr:housenumber": "311",
        "addr:street": "Avenida dos Pioneiros",
        "addr:suburb": "Santa Terezinha",
        "alt_name": "Centro De Atenção Psicossocial",
        "amenity": "clinic",
        "building": "yes",
        "healthcare": "clinic",
        "name": "CAPS II",
        "phone": "+55-19-39333008",
        "short_name": "CAPS",
        "social_facility:for": "mental_health",
        "id": "way/1133251162"
      },
      "geometry": {
        "type": "Polygon",
        "coordinates": [
          [
            [
              -47.1398178,
              -22.7810727
            ],
            [
              -47.1394811,
              -22.7818373
            ],
            [
              -47.1392649,
              -22.7817563
            ],
            [
              -47.1396015,
              -22.7809918
            ],
            [
              -47.1398178,
              -22.7810727
            ]
          ]
        ]
      }
    },
    {
      "type": "Feature",
      "id": "way/1133251163",
      "properties": {
        "timestamp": "2023-01-18T17:40:02Z",
        "version": 1,
        "changeset": 131432331,
        "addr:city": "Paulínia",
        "addr:housenumber": "500",
        "addr:street": "Avenida Presidente Getúlio Vargas",
        "addr:suburb": "Vila Bressane",
        "alt_name": "Centro De Atenção Psicossocial Álcool e Drogas",
        "amenity": "clinic",
        "building": "yes",
        "healthcare": "clinic",
        "name": "CAPS AD",
        "phone": "+55-19-38744239",
        "short_name": "CAPS",
        "social_facility:for": "drug_addicted",
        "id": "way/1133251163"
      },
      "geometry": {
        "type": "Polygon",
        "coordinates": [
          [
            [
              -47.1537773,
              -22.769857
            ],
            [
              -47.1537421,
              -22.7699527
            ],
            [
              -47.1534129,
              -22.7698497
            ],
            [
              -47.1534481,
              -22.769754
            ],
            [
              -47.1537773,
              -22.769857
            ]
          ]
        ]
      }
    },
    {
      "type": "Feature",
      "id": "way/1133251164",
      "properties": {
        "timestamp": "2023-01-18T17:40:02Z",
        "version": 1,
        "changeset": 131432331,
        "addr:city": "Paulínia",
        "addr:housenumber": "43",
        "addr:street": "Rua Brigadeiro Faria Lima",
        "addr:suburb": "Jardim dos Calegaris",
        "alt_name": "Centro De Atenção Psicossocial Infantojuvenil",
        "amenity": "clinic",
        "building": "yes",
        "healthcare": "clinic",
        "name": "CAPS IJ",
        "phone": "+55-19-38447133",
        "short_name": "CAPS IJ",
        "social_facility:for": "mental_health;child",
        "id": "way/1133251164"
      },
      "geometry": {
        "type": "Polygon",
        "coordinates": [
          [
            [
              -47.1528688,
              -22.7595959
            ],
            [
              -47.1530385,
              -22.7598007
            ],
            [
              -47.1528863,
              -22.7599079
            ],
            [
              -47.1527167,
              -22.7597031
            ],
            [
              -47.1528688,
              -22.7595959
            ]
          ]
        ]
      }
    },
    {
      "type": "Feature",
      "id": "way/1133251165",
      "properties": {
        "timestamp": "2023-01-18T17:40:02Z",
        "version": 1,
        "changeset": 131432331,
        "addr:city": "Paulínia",
        "addr:housenumber": "365",
        "addr:street": "Rua Presidente Costa e Silva",
        "addr:suburb": "Nova Paulínia",
        "amenity": "clinic",
        "building": "yes",
        "healthcare": "clinic",
        "name": "Centro de Testagem e Aconselhamento",
        "operator": "Prefeitura Municipal de Paulínia",
        "operator:type": "public",
        "phone": "+55-19-38742056",
        "short_name": "CTA",
        "id": "way/1133251165"
      },
      "geometry": {
        "type": "Polygon",
        "coordinates": [
          [
            [
              -47.150395,
              -22.7685359
            ],
            [
              -47.1503582,
              -22.7686162
            ],
            [
              -47.1501825,
              -22.7685553
            ],
            [
              -47.150217,
              -22.7684706
            ],
            [
              -47.150395,
              -22.7685359
            ]
          ]
        ]
      }
    },
    {
      "type": "Feature",
      "id": "way/1167970021",
      "properties": {
        "timestamp": "2023-05-02T13:45:33Z",
        "version": 1,
        "changeset": 135617683,
        "addr:city": "Paulínia",
        "addr:housenumber": "393",
        "addr:postcode": "13140-287",
        "addr:street": "Avenida Nove de Julho",
        "addr:suburb": "Nova Paulínia",
        "amenity": "clinic",
        "building": "house",
        "healthcare": "clinic",
        "healthcare:speciality": "physiatry",
        "name": "Unidade Municipal de Fisioterapia Maria da Glória Ferri",
        "opening_hours": "Mo-Sa 08:00-20:00",
        "operator": "Prefeitura Municipal de Paulínia",
        "operator:type": "government",
        "phone": "+55 (19) 3833-2799",
        "id": "way/1167970021"
      },
      "geometry": {
        "type": "Polygon",
        "coordinates": [
          [
            [
              -47.1495536,
              -22.7681118
            ],
            [
              -47.1498057,
              -22.7682033
            ],
            [
              -47.1497655,
              -22.7683035
            ],
            [
              -47.149512,
              -22.7682095
            ],
            [
              -47.1495536,
              -22.7681118
            ]
          ]
        ]
      }
    },
    {
      "type": "Feature",
      "id": "way/1225645419",
      "properties": {
        "timestamp": "2023-11-21T13:01:40Z",
        "version": 1,
        "changeset": 144286467,
        "addr:city": "Paulínia",
        "addr:housenumber": "458",
        "addr:postcode": "13144-709",
        "addr:street": "Rua Beatriz Viana Ferrigo",
        "addr:suburb": "Nova Veneza",
        "amenity": "clinic",
        "building": "yes",
        "description": "LEI Nº 4.382, DE 06 DE NOVEMBRO DE 2023. (Projeto de Lei nº 195/2023 de autoria do Executivo). “DENOMINA ORLANDO COELHO A UNIDADE BÁSICA DE SAÚDE (UBS) LOCALIZADA NO BAIRRO NOVA VENEZA NO MUNICÍPIO DE PAULÍNIA”.",
        "healthcare": "clinic",
        "name": "U.B.S. Orlando Coelho",
        "opening_hours": "Mo-Fr 08:00-17:00",
        "operator": "Prefeitura Municipal de Paulínia",
        "operator:type": "government",
        "source": "chrome-extension://efaidnbmnnnibpcajpcglclefindmkaj/http://www.paulinia.sp.gov.br/uploads/semanarios/2173.pdf",
        "id": "way/1225645419"
      },
      "geometry": {
        "type": "Polygon",
        "coordinates": [
          [
            [
              -47.1921224,
              -22.7545733
            ],
            [
              -47.1922771,
              -22.7548106
            ],
            [
              -47.1915739,
              -22.7552077
            ],
            [
              -47.1914129,
              -22.7549641
            ],
            [
              -47.1921224,
              -22.7545733
            ]
          ]
        ]
      }
    },
    {
      "type": "Feature",
      "id": "node/9216448395",
      "properties": {
        "timestamp": "2023-11-05T00:35:13Z",
        "version": 2,
        "changeset": 143634672,
        "addr:housenumber": "772",
        "amenity": "clinic",
        "healthcare": "clinic",
        "name": "Concept",
        "id": "node/9216448395"
      },
      "geometry": {
        "type": "Point",
        "coordinates": [
          -47.1714931,
          -22.7467633
        ]
      }
    }
  ]
}
