{
  "type": "FeatureCollection",
  "features": [
    {
      "type": "Feature",
      "id": "way/141158241",
      "properties": {
        "timestamp": "2020-12-13T17:08:50Z",
        "version": 7,
        "changeset": 95763469,
        "addr:street": "Avenida Presidente Getúlio Vargas",
        "building": "government",
        "building:levels": "2",
        "name": "Antiga Agência do Banco do Brasil",
        "office": "government",
        "roof:colour": "salmon",
        "roof:material": "roof_tiles",
        "roof:shape": "hipped",
        "source": "Bing;DigitalGlobe Stantard",
        "id": "way/141158241"
      },
      "geometry": {
        "type": "Polygon",
        "coordinates": [
          [
            [
              -45.2571247,
              -21.6991037
            ],
            [
              -45.257007,
              -21.6990691
            ],
            [
              -45.2570699,
              -21.6988841
            ],
            [
              -45.2571877,
              -21.6989187
            ],
            [
              -45.2571247,
              -21.6991037
            ]
          ]
        ]
      }
    },
    {
      "type": "Feature",
      "id": "way/143719425",
      "properties": {
        "timestamp": "2023-11-24T20:38:23Z",
        "version": 8,
        "changeset": 144420997,
        "addr:housenumber": "176",
        "addr:street": "Avenida Sete de Setembro",
        "building": "office",
        "building:colour": "khaki",
        "building:levels": "1",
        "check_date": "2023-11-24",
        "name": "Emater",
        "office": "government",
        "operator": "Prefeitura de Três Corações",
        "roof:colour": "grey",
        "roof:shape": "flat",
        "source": "survey;OSM Note 1200805",
        "id": "way/143719425"
      },
      "geometry": {
        "type": "Polygon",
        "coordinates": [
          [
            [
              -45.2589096,
              -21.6971179
            ],
            [
              -45.2588895,
              -21.6971154
            ],
            [
              -45.2588801,
              -21.6972462
            ],
            [
              -45.2587859,
              -21.6972406
            ],
            [
              -45.2588377,
              -21.6967917
            ],
            [
              -45.2589405,
              -21.6968013
            ],
            [
              -45.2589096,
              -21.6971179
            ]
          ]
        ]
      }
    },
    {
      "type": "Feature",
      "id": "way/441717990",
      "properties": {
        "timestamp": "2019-05-23T15:30:08Z",
        "version": 2,
        "changeset": 70556304,
        "addr:city": "Três Corações",
        "addr:housenumber": "202",
        "addr:postcode": "37410000",
        "addr:street": "Rua Edson Arantes do Nascimento",
        "addr:suburb": "Centro",
        "building": "yes",
        "government": "administrative",
        "name": "Ministerio do Trabalho",
        "office": "government",
        "roof:colour": "salmon",
        "roof:material": "roof_tiles",
        "roof:shape": "hipped",
        "source": "Bing;gps;streetlevel imagery",
        "id": "way/441717990"
      },
      "geometry": {
        "type": "Polygon",
        "coordinates": [
          [
            [
              -45.2565787,
              -21.6950278
            ],
            [
              -45.2565042,
              -21.6950081
            ],
            [
              -45.2565377,
              -21.6948984
            ],
            [
              -45.2566123,
              -21.6949181
            ],
            [
              -45.2565787,
              -21.6950278
            ]
          ]
        ]
      }
    },
    {
      "type": "Feature",
      "id": "way/441723102",
      "properties": {
        "timestamp": "2020-03-24T14:04:06Z",
        "version": 5,
        "changeset": 82574467,
        "addr:housenumber": "251",
        "addr:street": "Rua dos Escoteiros",
        "building": "office",
        "building:levels": "2",
        "government": "yes",
        "name": "Secretaria Municipal de Meio Ambiente",
        "office": "government",
        "roof:colour": "brown",
        "roof:material": "roof_tiles",
        "roof:shape": "hipped",
        "source": "Bing",
        "id": "way/441723102"
      },
      "geometry": {
        "type": "Polygon",
        "coordinates": [
          [
            [
              -45.2650153,
              -21.6951172
            ],
            [
              -45.2651675,
              -21.6952027
            ],
            [
              -45.2650837,
              -21.6953315
            ],
            [
              -45.2649314,
              -21.695246
            ],
            [
              -45.2650153,
              -21.6951172
            ]
          ]
        ]
      }
    },
    {
      "type": "Feature",
      "id": "node/4368876543",
      "properties": {
        "timestamp": "2016-08-27T03:28:37Z",
        "version": 1,
        "changeset": 41727187,
        "amenity": "social_facility",
        "name": "Conselho Tutelar",
        "office": "government",
        "operator": "Prefeitura de Três Corações",
        "id": "node/4368876543"
      },
      "geometry": {
        "type": "Point",
        "coordinates": [
          -45.2594517,
          -21.6943101
        ]
      }
    },
    {
      "type": "Feature",
      "id": "node/5226771021",
      "properties": {
        "timestamp": "2021-12-10T17:50:55Z",
        "version": 4,
        "changeset": 114793812,
        "name": "Junta de Serviço Militar",
        "office": "government",
        "opening_hours": "Mo-Fr 08:00-17:00",
        "wheelchair": "no",
        "id": "node/5226771021"
      },
      "geometry": {
        "type": "Point",
        "coordinates": [
          -45.2567377,
          -21.697523
        ]
      }
    },
    {
      "type": "Feature",
      "id": "node/7702714825",
      "properties": {
        "timestamp": "2023-01-05T17:04:13Z",
        "version": 8,
        "changeset": 130915987,
        "addr:city": "Três Corações",
        "addr:housenumber": "143",
        "addr:postcode": "37410-109",
        "addr:street": "Avenida Julião Arbex",
        "addr:suburb": "Centro",
        "air_conditioning": "no",
        "alt_name": "SESMT",
        "check_date:opening_hours": "2023-01-05",
        "government": "administrative",
        "level": "1-2",
        "name": "Serviço de Segurança e Medicina do Trabalho",
        "office": "government",
        "opening_hours": "Mo-Fr 07:00-18:00",
        "phone": "+55 35 3691-1157",
        "wheelchair": "limited",
        "id": "node/7702714825"
      },
      "geometry": {
        "type": "Point",
        "coordinates": [
          -45.2553181,
          -21.6963639
        ]
      }
    },
    {
      "type": "Feature",
      "id": "node/10632464694",
      "properties": {
        "timestamp": "2023-04-24T21:35:02Z",
        "version": 2,
        "changeset": 135319687,
        "government": "public_service",
        "name": "Cartório de Registro das Pessoas Naturais",
        "office": "government",
        "opening_hours": "Mo-Fr 09:00-12:00,13:00-17:00; Sa-Su closed; PH closed",
        "id": "node/10632464694"
      },
      "geometry": {
        "type": "Point",
        "coordinates": [
          -45.2640562,
          -21.6956469
        ]
      }
    },
    {
      "type": "Feature",
      "id": "node/10801658263",
      "properties": {
        "timestamp": "2023-04-11T13:10:03Z",
        "version": 1,
        "changeset": 134773590,
        "addr:city": "Três Corações",
        "addr:country": "BR",
        "addr:housenumber": "1048",
        "addr:postcode": "37410-770",
        "addr:street": "Avenida Deputado Renato Azeredo",
        "addr:suburb": "Nossa Senhora Aparecida",
        "government": "public_service",
        "mapillary": "3904580636262818",
        "name": "UAI Três Corações/MG - Unidade de Atendimento Integrado",
        "office": "government",
        "opening_hours": "Mo-Fr 08:00-17:00",
        "phone": "+55 35 3239-7500",
        "short_name": "UAI Três Corações",
        "website": "https://www.mg.gov.br/instituicao_unidade/uai-tres-coracoes-unidade-de-atendimento-integrado",
        "wikidata": "Q117536537",
        "id": "node/10801658263"
      },
      "geometry": {
        "type": "Point",
        "coordinates": [
          -45.2655487,
          -21.6818071
        ]
      }
    }
  ]
}
