{
  "type": "FeatureCollection",
  "features": [
    {
      "type": "Feature",
      "id": "node/4222406098",
      "properties": {
        "timestamp": "2021-01-20T21:52:11Z",
        "version": 3,
        "changeset": 97862446,
        "addr:housenumber": "383",
        "addr:street": "Rua Conde de Porto Alegre",
        "amenity": "dentist",
        "healthcare": "dentist",
        "name": "Clínica Resmini",
        "phone": "+55 53 3230-6894",
        "id": "node/4222406098"
      },
      "geometry": {
        "type": "Point",
        "coordinates": [
          -52.0964876,
          -32.0338799
        ]
      }
    },
    {
      "type": "Feature",
      "id": "node/6873516282",
      "properties": {
        "timestamp": "2019-10-24T03:15:59Z",
        "version": 3,
        "changeset": 76130344,
        "addr:housenumber": "278",
        "addr:street": "Avenida Major Carlos Pinto",
        "amenity": "dentist",
        "description": "Dentista, Periodontia, Implante & Harmonização Orofacial",
        "healthcare": "dentist",
        "name": "Consultório Dr. Felipe Ortiz",
        "phone": "+55 53 99969-6958",
        "id": "node/6873516282"
      },
      "geometry": {
        "type": "Point",
        "coordinates": [
          -52.1069165,
          -32.0344784
        ]
      }
    }
  ]
}
