{
  "type": "FeatureCollection",
  "features": [
    {
      "type": "Feature",
      "id": "node/6642492579",
      "properties": {
        "timestamp": "2020-04-14T13:23:10Z",
        "version": 2,
        "changeset": 83537505,
        "addr:city": "Santana do Livramento",
        "addr:housenumber": "1491",
        "addr:street": "Rua dos Andradas",
        "addr:suburb": "Centro",
        "name": "Bicicletaria Silva",
        "payment:cash": "yes",
        "payment:credit_cards": "yes",
        "payment:debit_cards": "yes",
        "phone": "+55-55-3243-4452",
        "service:bicycle:Bicycle_Sales_and_Service": "yes",
        "service:bicycle:bicycle": "yes",
        "service:bicycle:cleaning": "yes",
        "service:bicycle:parts": "yes",
        "service:bicycle:repair": "yes",
        "service:bicycle:retail": "yes",
        "service:bicycle:sales": "yes",
        "shop": "bicycle",
        "id": "node/6642492579"
      },
      "geometry": {
        "type": "Point",
        "coordinates": [
          -55.5261768,
          -30.8847932
        ]
      }
    },
    {
      "type": "Feature",
      "id": "node/7401961531",
      "properties": {
        "timestamp": "2021-06-13T16:28:01Z",
        "version": 2,
        "changeset": 106289421,
        "addr:city": "Sant'Ana do Livramento",
        "addr:housenumber": "169",
        "addr:street": "Avenida Presidente Jo√£o Belchior Goulart",
        "addr:suburb": "Centro",
        "name": "Bicicletaria Italiano",
        "payment:cash": "yes",
        "payment:credit_cards": "yes",
        "payment:debit_cards": "yes",
        "phone": "+55 55 3242-3866",
        "service:bicycle:Bicycle_Sales_and_Service": "yes",
        "service:bicycle:bicycle": "yes",
        "service:bicycle:cleaning": "yes",
        "service:bicycle:clothing": "yes",
        "service:bicycle:mtb": "yes",
        "service:bicycle:parts": "yes",
        "service:bicycle:repair": "yes",
        "service:bicycle:sales": "yes",
        "shop": "bicycle",
        "id": "node/7401961531"
      },
      "geometry": {
        "type": "Point",
        "coordinates": [
          -55.5327226,
          -30.8966357
        ]
      }
    }
  ]
}
