{
  "type": "FeatureCollection",
  "features": [
    {
      "type": "Feature",
      "id": "way/305076920",
      "properties": {
        "timestamp": "2019-05-23T14:07:36Z",
        "version": 7,
        "changeset": 70553764,
        "addr:city": "Mogi das Cruzes",
        "addr:housenumber": "340",
        "addr:postcode": "08740-150",
        "addr:street": "Rua Padre Álvaro Quinones Zuniga",
        "addr:suburb": "Brás Cubas",
        "amenity": "clinic",
        "emergency": "no",
        "healthcare": "clinic",
        "healthcare:speciality": "general;paediatrics;gynaecology",
        "name": "Unidade Básica de Saúde Brás Cubas",
        "opening_hours": "Mo-Fr 07:30-17:00",
        "phone": "+55 11 4727 5842",
        "short_name": "UBS Brás Cubas",
        "id": "way/305076920"
      },
      "geometry": {
        "type": "Polygon",
        "coordinates": [
          [
            [
              -46.2202691,
              -23.5390491
            ],
            [
              -46.220081,
              -23.5393763
            ],
            [
              -46.219847,
              -23.5392751
            ],
            [
              -46.2199441,
              -23.5389537
            ],
            [
              -46.2199972,
              -23.5389296
            ],
            [
              -46.2201468,
              -23.538994
            ],
            [
              -46.2202691,
              -23.5390491
            ]
          ]
        ]
      }
    },
    {
      "type": "Feature",
      "id": "way/453850891",
      "properties": {
        "timestamp": "2022-08-24T14:58:06Z",
        "version": 6,
        "changeset": 125320361,
        "addr:city": "Mogi das Cruzes",
        "addr:housenumber": "310",
        "addr:street": "Avenida Ricieri José Marcatto",
        "addr:suburb": "Vila Suíssa",
        "amenity": "clinic",
        "building": "yes",
        "healthcare": "clinic",
        "name": "UBS Vila Suissa",
        "opening_hours": "Mo-Fr 07:30-22:00",
        "phone": "+55 11  4761 6678",
        "website": "https://www.mogidascruzes.sp.gov.br/unidade-e-equipamento/0/unidade-basica-de-saude-vila-suissa",
        "id": "way/453850891"
      },
      "geometry": {
        "type": "Polygon",
        "coordinates": [
          [
            [
              -46.1589373,
              -23.5036079
            ],
            [
              -46.1588058,
              -23.5035977
            ],
            [
              -46.1587999,
              -23.5036899
            ],
            [
              -46.1586875,
              -23.5036835
            ],
            [
              -46.1587155,
              -23.5033417
            ],
            [
              -46.1587625,
              -23.5033442
            ],
            [
              -46.1587659,
              -23.5033249
            ],
            [
              -46.1589067,
              -23.5033338
            ],
            [
              -46.1589018,
              -23.503353
            ],
            [
              -46.158952,
              -23.5033556
            ],
            [
              -46.1589373,
              -23.5036079
            ]
          ]
        ]
      }
    },
    {
      "type": "Feature",
      "id": "way/454070789",
      "properties": {
        "timestamp": "2023-02-27T21:42:12Z",
        "version": 6,
        "changeset": 133105108,
        "addr:city": "Mogi das Cruzes",
        "addr:housenumber": "53",
        "addr:street": "Rua Aloísio de Azevedo",
        "addr:suburb": "Jardim das Bandeiras",
        "amenity": "clinic",
        "building": "yes",
        "email": "saude@pmmc.com.br",
        "healthcare": "clinic",
        "healthcare:speciality": "general;paediatrics;ginecologia;vaccination",
        "name": "Unidade Básica de Saúde Vila Nova Aparecida",
        "opening_hours": "Mo-Fr 07:30-17:00; Sa,Su,PH off",
        "phone": "+55 11 4739 3170",
        "ref": "CNES-5856620",
        "source": "CNES",
        "id": "way/454070789"
      },
      "geometry": {
        "type": "Polygon",
        "coordinates": [
          [
            [
              -46.145625,
              -23.5208681
            ],
            [
              -46.1459114,
              -23.5205806
            ],
            [
              -46.1459907,
              -23.520648
            ],
            [
              -46.1458895,
              -23.5207472
            ],
            [
              -46.1459115,
              -23.5207673
            ],
            [
              -46.145854,
              -23.5208236
            ],
            [
              -46.1458358,
              -23.5208075
            ],
            [
              -46.1457027,
              -23.5209315
            ],
            [
              -46.145625,
              -23.5208681
            ]
          ]
        ]
      }
    },
    {
      "type": "Feature",
      "id": "way/496538404",
      "properties": {
        "timestamp": "2022-04-07T13:14:20Z",
        "version": 2,
        "changeset": 119429940,
        "addr:city": "Mogi das Cruzes",
        "addr:housenumber": "3255",
        "addr:street": "Rua Um",
        "addr:suburb": "Conjunto Toyama",
        "amenity": "clinic",
        "building": "yes",
        "email": "saude@pmmc.com.br",
        "healthcare": "clinic",
        "opening_hours": "Mo-Fr 08:00-17:00",
        "phone": "+55 11 4796 1182",
        "id": "way/496538404"
      },
      "geometry": {
        "type": "Polygon",
        "coordinates": [
          [
            [
              -46.1610814,
              -23.5295116
            ],
            [
              -46.161135,
              -23.5295804
            ],
            [
              -46.1610707,
              -23.5296272
            ],
            [
              -46.1611002,
              -23.5296591
            ],
            [
              -46.1610492,
              -23.5296911
            ],
            [
              -46.1610251,
              -23.529669
            ],
            [
              -46.160907,
              -23.5297526
            ],
            [
              -46.16084,
              -23.5296763
            ],
            [
              -46.1610814,
              -23.5295116
            ]
          ]
        ]
      }
    },
    {
      "type": "Feature",
      "id": "way/496545611",
      "properties": {
        "timestamp": "2023-03-03T19:01:18Z",
        "version": 4,
        "changeset": 133266724,
        "addr:city": "Mogi das Cruzes",
        "addr:housenumber": "1745",
        "addr:postcode": "08750-770",
        "addr:street": "Rua Vereador Nito Sona",
        "addr:suburb": "Jundiapeba",
        "amenity": "clinic",
        "building": "yes",
        "email": "saude@pmmc.com.br",
        "emergency": "yes",
        "healthcare": "clinic",
        "healthcare:speciality": "general",
        "name": "Unidade Básica de Saúde Judiapeba",
        "opening_hours": "24/7",
        "operator": "Secretaria da Saúde de Mogi das Cruzes",
        "operator:type": "government",
        "ref": "CNES-2864533",
        "source": "CNES",
        "id": "way/496545611"
      },
      "geometry": {
        "type": "Polygon",
        "coordinates": [
          [
            [
              -46.2559969,
              -23.5475874
            ],
            [
              -46.2560411,
              -23.5478468
            ],
            [
              -46.2558289,
              -23.5478763
            ],
            [
              -46.2557883,
              -23.5476395
            ],
            [
              -46.2558316,
              -23.5476319
            ],
            [
              -46.2558321,
              -23.5476052
            ],
            [
              -46.2559969,
              -23.5475874
            ]
          ]
        ]
      }
    },
    {
      "type": "Feature",
      "id": "way/496788057",
      "properties": {
        "timestamp": "2017-06-22T06:00:22Z",
        "version": 2,
        "changeset": 49736083,
        "addr:city": "Mogi das Cruzes",
        "addr:housenumber": "90",
        "addr:postcode": "08790-420",
        "addr:street": "Rua Thiago Silvestre Furtado",
        "addr:suburb": "Biritiba Ussú",
        "amenity": "clinic",
        "building": "yes",
        "name": "Unidade Básica de Saúde - Biritiba Ussu",
        "opening_hours": "Mo-Fr 07:30-17:00",
        "phone": "+55 11 4792 1055",
        "id": "way/496788057"
      },
      "geometry": {
        "type": "Polygon",
        "coordinates": [
          [
            [
              -46.121713,
              -23.6387967
            ],
            [
              -46.1217935,
              -23.6389614
            ],
            [
              -46.1212785,
              -23.638841
            ],
            [
              -46.1213053,
              -23.6386985
            ],
            [
              -46.121713,
              -23.6387967
            ]
          ]
        ]
      }
    },
    {
      "type": "Feature",
      "id": "way/496801157",
      "properties": {
        "timestamp": "2023-11-15T12:17:39Z",
        "version": 7,
        "changeset": 144049262,
        "addr:city": "Mogi das Cruzes",
        "addr:housenumber": "1181",
        "addr:postcode": "08743-140",
        "addr:street": "Rua Kazumo Sumizono",
        "addr:suburb": "Jardim Santa Tereza",
        "alt_name": "UBS  Santa Tereza",
        "amenity": "clinic",
        "building": "yes",
        "healthcare": "clinic",
        "healthcare:speciality": "general;paediatrics;gynaecology",
        "name": "Unidade Básica de Saúde  Santa Tereza",
        "opening_hours": "off",
        "phone": "+55 11 4727 2959",
        "website": "https://www.mogidascruzes.sp.gov.br/unidade-e-equipamento/0/unidade-basica-de-saude-santa-tereza",
        "id": "way/496801157"
      },
      "geometry": {
        "type": "Polygon",
        "coordinates": [
          [
            [
              -46.221029,
              -23.5556936
            ],
            [
              -46.2210482,
              -23.5558435
            ],
            [
              -46.2208331,
              -23.555879
            ],
            [
              -46.2208136,
              -23.5557892
            ],
            [
              -46.2207877,
              -23.5557866
            ],
            [
              -46.2207835,
              -23.5557386
            ],
            [
              -46.221029,
              -23.5556936
            ]
          ]
        ]
      }
    },
    {
      "type": "Feature",
      "id": "way/497009909",
      "properties": {
        "timestamp": "2023-06-26T02:35:31Z",
        "version": 3,
        "changeset": 137771227,
        "addr:city": "Mogi das Cruzes",
        "addr:housenumber": "90",
        "addr:street": "Rua Francisco Rodrigues Mathias",
        "addr:suburb": "Sabaúna",
        "amenity": "clinic",
        "building": "yes",
        "healthcare": "clinic",
        "name": "Unidade Básica de Saúde - Sabaúna",
        "opening_hours": "Mo-Fr 07:30 -17:00",
        "phone": "+55 11 4761 9144",
        "id": "way/497009909"
      },
      "geometry": {
        "type": "Polygon",
        "coordinates": [
          [
            [
              -46.0873729,
              -23.4801654
            ],
            [
              -46.0872897,
              -23.4801408
            ],
            [
              -46.0873137,
              -23.4800998
            ],
            [
              -46.0872428,
              -23.4800732
            ],
            [
              -46.0872817,
              -23.4799908
            ],
            [
              -46.0874238,
              -23.4800424
            ],
            [
              -46.0873729,
              -23.4801654
            ]
          ]
        ]
      }
    },
    {
      "type": "Feature",
      "id": "way/497944252",
      "properties": {
        "timestamp": "2020-03-26T23:06:40Z",
        "version": 4,
        "changeset": 82685638,
        "addr:city": "Mogi das Cruzes",
        "addr:housenumber": "262",
        "addr:postcode": "08770-120",
        "addr:street": "Rua Aprígio de Oliveira",
        "addr:suburb": "Mineração",
        "amenity": "clinic",
        "building": "yes",
        "healthcare": "clinic",
        "healthcare:speciality": "general;paediatrics;gynaecology",
        "name": "Unidade Básica de Saúde Mineração",
        "opening_hours": "Mo-Fr 07:30-17:00",
        "phone": "+55 11 4790 3694",
        "id": "way/497944252"
      },
      "geometry": {
        "type": "Polygon",
        "coordinates": [
          [
            [
              -46.2072126,
              -23.5204427
            ],
            [
              -46.207104,
              -23.5206382
            ],
            [
              -46.2069954,
              -23.5205854
            ],
            [
              -46.2070946,
              -23.520396
            ],
            [
              -46.2072126,
              -23.5204427
            ]
          ]
        ]
      }
    },
    {
      "type": "Feature",
      "id": "way/497944641",
      "properties": {
        "timestamp": "2023-03-01T15:28:09Z",
        "version": 4,
        "changeset": 133176853,
        "addr:city": "Mogi das Cruzes",
        "addr:housenumber": "313",
        "addr:street": "Rua Engenheiro Eugênio Motta",
        "addr:suburb": "Jardim Santista",
        "amenity": "clinic",
        "building": "yes",
        "healthcare": "clinic",
        "name": "Ambulatório Médico de Especialidades",
        "website": "https://www.mogidascruzes.sp.gov.br/unidade-e-equipamento/saude/ambulatorio-medico-de-especialidades",
        "id": "way/497944641"
      },
      "geometry": {
        "type": "Polygon",
        "coordinates": [
          [
            [
              -46.2014943,
              -23.5281957
            ],
            [
              -46.201468,
              -23.5282721
            ],
            [
              -46.2015177,
              -23.5282941
            ],
            [
              -46.2014956,
              -23.5283359
            ],
            [
              -46.2013963,
              -23.5283151
            ],
            [
              -46.201386,
              -23.5283373
            ],
            [
              -46.2014921,
              -23.5283651
            ],
            [
              -46.2014619,
              -23.5284595
            ],
            [
              -46.2011479,
              -23.5284026
            ],
            [
              -46.2011246,
              -23.5284477
            ],
            [
              -46.2014559,
              -23.5285265
            ],
            [
              -46.2014306,
              -23.5285928
            ],
            [
              -46.2009888,
              -23.5284805
            ],
            [
              -46.2010488,
              -23.5282534
            ],
            [
              -46.2012905,
              -23.5283095
            ],
            [
              -46.201306,
              -23.5282552
            ],
            [
              -46.2010603,
              -23.5281946
            ],
            [
              -46.2010963,
              -23.5280819
            ],
            [
              -46.2014943,
              -23.5281957
            ]
          ]
        ]
      }
    },
    {
      "type": "Feature",
      "id": "way/497964023",
      "properties": {
        "timestamp": "2023-06-26T02:35:31Z",
        "version": 3,
        "changeset": 137771227,
        "addr:city": "Mogi das Cruzes",
        "addr:housenumber": "200",
        "addr:street": "Rua Joaquim Cardoso",
        "addr:suburb": "Vila da Prata",
        "amenity": "clinic",
        "building": "yes",
        "healthcare": "clinic",
        "name": "Unidade Básica de Saúde - Vila da Prata",
        "opening_hours": "Mo-Fr 07:30-17:00",
        "phone": "+55 11  4796 7037",
        "website": "https://www.mogidascruzes.sp.gov.br/unidade-e-equipamento/saude/unidade-basica-de-saude-vila-da-prata",
        "id": "way/497964023"
      },
      "geometry": {
        "type": "Polygon",
        "coordinates": [
          [
            [
              -46.1834346,
              -23.5559737
            ],
            [
              -46.1833971,
              -23.5560376
            ],
            [
              -46.1831289,
              -23.5560917
            ],
            [
              -46.1832335,
              -23.5558975
            ],
            [
              -46.1834346,
              -23.5559737
            ]
          ]
        ]
      }
    },
    {
      "type": "Feature",
      "id": "way/498126308",
      "properties": {
        "timestamp": "2022-02-11T17:44:40Z",
        "version": 2,
        "changeset": 117297080,
        "addr:city": "Mogis das Cruzes",
        "addr:housenumber": "80",
        "addr:street": "Avenida Lothar Waldemar Hohene",
        "addr:suburb": "Ponte Grande",
        "amenity": "clinic",
        "building": "yes",
        "healthcare": "clinic",
        "healthcare:speciality": "general;paediatrics;vaccination;gynaecology",
        "name": "Unidade Básica de Saúde Ponte Grande",
        "opening_hours": "Mo-Fr 07:30-17:00; Sa,Su,PH",
        "phone": "+55 11 4790 1412",
        "id": "way/498126308"
      },
      "geometry": {
        "type": "Polygon",
        "coordinates": [
          [
            [
              -46.2044632,
              -23.5109632
            ],
            [
              -46.2045464,
              -23.5110296
            ],
            [
              -46.204423,
              -23.5111477
            ],
            [
              -46.2044042,
              -23.511128
            ],
            [
              -46.2043613,
              -23.5111575
            ],
            [
              -46.2043345,
              -23.511128
            ],
            [
              -46.2043747,
              -23.5110985
            ],
            [
              -46.2043559,
              -23.5110665
            ],
            [
              -46.2044632,
              -23.5109632
            ]
          ]
        ]
      }
    },
    {
      "type": "Feature",
      "id": "way/500294940",
      "properties": {
        "timestamp": "2022-05-16T22:35:59Z",
        "version": 5,
        "changeset": 121072199,
        "addr:city": "Mogi das Cruzes",
        "addr:housenumber": "135",
        "addr:postcode": "08765-180",
        "addr:street": "Rua  Avelino Nunes de Souza",
        "addr:suburb": "Taiaçupeba",
        "amenity": "clinic",
        "building": "yes",
        "email": "saude@pmmc.com.br",
        "healthcare": "clinic",
        "healthcare:speciality": "general;paediatrics;vaccination;gynaecology;dentistry",
        "name": "Unidade Básica de Saúde Taiaçupeba",
        "opening_hours": "Mo-Fr 07:30-17:00; Sa,Su,PH off",
        "phone": "+55 11 4724 0121",
        "ref": "CNES-2773716",
        "source": "CNES",
        "website": "https://www.mogidascruzes.sp.gov.br/unidade-e-equipamento/0/unidade-basica-de-saude-taiacupeba",
        "id": "way/500294940"
      },
      "geometry": {
        "type": "Polygon",
        "coordinates": [
          [
            [
              -46.1832405,
              -23.6802288
            ],
            [
              -46.183152,
              -23.6803615
            ],
            [
              -46.1830313,
              -23.6803074
            ],
            [
              -46.1831332,
              -23.6801698
            ],
            [
              -46.1832405,
              -23.6802288
            ]
          ]
        ]
      }
    },
    {
      "type": "Feature",
      "id": "way/500579213",
      "properties": {
        "timestamp": "2023-06-26T02:35:31Z",
        "version": 6,
        "changeset": 137771227,
        "addr:city": "Mogi das Cruzes",
        "addr:housenumber": "168",
        "addr:street": "Rua Aratimbó",
        "addr:suburb": "Jardim Layr",
        "amenity": "clinic",
        "building": "yes",
        "healthcare": "clinic",
        "healthcare:speciality": "general;paediatrics;gynaecology;maternity",
        "name": "Unidade de Saúde da Família - Jardim Layr",
        "opening_hours": "Mo-Fr 08:00-17:00; PH off",
        "phone": "+55 11 4727 1644",
        "website": "https://www.mogidascruzes.sp.gov.br/unidade-e-equipamento/0/unidade-de-saude-da-familia-jardim-layr",
        "id": "way/500579213"
      },
      "geometry": {
        "type": "Polygon",
        "coordinates": [
          [
            [
              -46.2194381,
              -23.5656919
            ],
            [
              -46.2195861,
              -23.565894
            ],
            [
              -46.2194533,
              -23.5659723
            ],
            [
              -46.21928,
              -23.5657506
            ],
            [
              -46.219346,
              -23.565699
            ],
            [
              -46.2193704,
              -23.5657335
            ],
            [
              -46.2194381,
              -23.5656919
            ]
          ]
        ]
      }
    },
    {
      "type": "Feature",
      "id": "way/501512433",
      "properties": {
        "timestamp": "2023-11-13T23:47:20Z",
        "version": 4,
        "changeset": 143990232,
        "addr:city": "Mogi das Cruzes",
        "addr:housenumber": "59",
        "addr:postcode": "08763-240",
        "addr:street": "Rua São Simão",
        "addr:suburb": "Conjunto Santo Angelo",
        "amenity": "clinic",
        "email": "saude@pmmc.com.br",
        "healthcare": "clinic",
        "healthcare:speciality": "general;paediatrics;gynaecology;vaccination",
        "name": "Unidade Básica de Saúde Santo Ângelo",
        "opening_hours": "Mo-Fr 07:30-17:00",
        "operator": "Secretaria Municipal de Saúde",
        "operator:type": "private",
        "phone": "+55 11 4727 6778",
        "ref:CNES": "2773686",
        "source": "CNES",
        "website": "https://www.mogidascruzes.sp.gov.br/unidade-e-equipamento/0/unidade-basica-de-saude-santo-angelo",
        "id": "way/501512433"
      },
      "geometry": {
        "type": "Polygon",
        "coordinates": [
          [
            [
              -46.2312666,
              -23.5845038
            ],
            [
              -46.2310266,
              -23.5845013
            ],
            [
              -46.2310185,
              -23.584285
            ],
            [
              -46.231091,
              -23.5842727
            ],
            [
              -46.231099,
              -23.5842334
            ],
            [
              -46.2312063,
              -23.5842334
            ],
            [
              -46.2312412,
              -23.5842506
            ],
            [
              -46.2312626,
              -23.5842973
            ],
            [
              -46.2312666,
              -23.5845038
            ]
          ]
        ]
      }
    },
    {
      "type": "Feature",
      "id": "way/501513717",
      "properties": {
        "timestamp": "2020-06-09T23:27:46Z",
        "version": 4,
        "changeset": 86429729,
        "addr:city": "Mogi das Cruzes",
        "addr:housenumber": "393",
        "addr:street": "Avenida João de Souza Franco",
        "addr:suburb": "Vila Nova Jundiapeba",
        "amenity": "clinic",
        "healthcare": "clinic",
        "name": "Programa de Agentes Comunitários de Saúde",
        "opening_hours": "Mo-Fr 08:00-17:00",
        "id": "way/501513717"
      },
      "geometry": {
        "type": "Polygon",
        "coordinates": [
          [
            [
              -46.2463386,
              -23.5471902
            ],
            [
              -46.2463761,
              -23.5473354
            ],
            [
              -46.2460194,
              -23.5473919
            ],
            [
              -46.2459818,
              -23.5472469
            ],
            [
              -46.2463386,
              -23.5471902
            ]
          ]
        ]
      }
    },
    {
      "type": "Feature",
      "id": "way/501514400",
      "properties": {
        "timestamp": "2022-01-30T13:30:58Z",
        "version": 5,
        "changeset": 116780135,
        "addr:city": "Mogi das Cruzes",
        "addr:housenumber": "601",
        "addr:postcode": "08750-267",
        "addr:street": "Rua Dolores de Aquino",
        "addr:suburb": "Vila Nova Jundiapeba",
        "amenity": "clinic",
        "healthcare": "clinic",
        "healthcare:speciality": "general;gynaecology;paediatrics;vaccination",
        "name": "Unidade Básica de Saúde Nova Jundiapeba",
        "opening_hours": "Mo-Fr 07:30-17:00; Sa,Su,PH off",
        "phone": "+55 11 4729 4008",
        "ref": "CNES-2773767",
        "source": "CNES",
        "id": "way/501514400"
      },
      "geometry": {
        "type": "Polygon",
        "coordinates": [
          [
            [
              -46.2463667,
              -23.547176
            ],
            [
              -46.2459993,
              -23.5472252
            ],
            [
              -46.2459591,
              -23.5470162
            ],
            [
              -46.2462085,
              -23.546962
            ],
            [
              -46.2462353,
              -23.5469202
            ],
            [
              -46.2463051,
              -23.5469153
            ],
            [
              -46.2463667,
              -23.547176
            ]
          ]
        ]
      }
    },
    {
      "type": "Feature",
      "id": "way/605343864",
      "properties": {
        "timestamp": "2018-07-05T16:38:48Z",
        "version": 2,
        "changeset": 60442045,
        "addr:city": "Mogi das Cruzes",
        "addr:street": "Rua Professora Lucinda Bastos",
        "addr:suburb": "Jundiapeba",
        "amenity": "clinic",
        "building": "yes",
        "healthcare": "clinic",
        "healthcare:speciality": "cardiology;gastroenterology;endocrinology;urology;vasectomy",
        "name": "Unidade Clinica Ambulatorial Doutor Arthur Domingos Fais",
        "start_date": "2012",
        "id": "way/605343864"
      },
      "geometry": {
        "type": "Polygon",
        "coordinates": [
          [
            [
              -46.2565592,
              -23.5481628
            ],
            [
              -46.25654,
              -23.5482689
            ],
            [
              -46.2558475,
              -23.5482161
            ],
            [
              -46.2558636,
              -23.5481095
            ],
            [
              -46.2565592,
              -23.5481628
            ]
          ]
        ]
      }
    },
    {
      "type": "Feature",
      "id": "way/607191540",
      "properties": {
        "timestamp": "2023-03-05T15:04:24Z",
        "version": 3,
        "changeset": 133328722,
        "addr:city": "Mogi das Cruzes",
        "addr:housenumber": "540",
        "addr:postcode": "08766-500",
        "addr:street": "Rodovia Dom Paulo Rolim Loureiro",
        "addr:suburb": "Vila Moraes",
        "amenity": "clinic",
        "healthcare": "clinic",
        "healthcare:speciality": "general;paediatrics;vaccination;ginecologia",
        "name": "Unidade Básica de Saúde Vila Moraes",
        "opening_hours": "Mo-Fr 07:30-17:00; Su,Sa, PH off",
        "operator": "Secretaria de Saúde",
        "operator:type": "government",
        "phone": "+55 11 4796 7018",
        "ref": "CNES-2773740",
        "short_name": "UBS Vila Moraes",
        "source": "CNES",
        "id": "way/607191540"
      },
      "geometry": {
        "type": "Polygon",
        "coordinates": [
          [
            [
              -46.1796039,
              -23.5814033
            ],
            [
              -46.1795344,
              -23.5816462
            ],
            [
              -46.1791697,
              -23.5815454
            ],
            [
              -46.1792448,
              -23.5813291
            ],
            [
              -46.1796039,
              -23.5814033
            ]
          ]
        ]
      }
    },
    {
      "type": "Feature",
      "id": "way/610327739",
      "properties": {
        "timestamp": "2019-01-04T15:30:44Z",
        "version": 2,
        "changeset": 66025231,
        "addr:city": "Mogi das Cruzes",
        "addr:housenumber": "205",
        "addr:street": "Rua Coronel Souza Franco",
        "addr:suburb": "Parque Monte Líbano",
        "amenity": "clinic",
        "building": "yes",
        "healthcare": "clinic",
        "healthcare:speciality": "psychiatry",
        "name": "Ambulatório Municipal de Saúde Mental",
        "phone": "+55 11 4735 2243",
        "source": "http://www.mogidascruzes.sp.gov.br/unidade-e-equipamento/todos-os-assuntos/ambulatorio-municipal-de-saude-mental",
        "id": "way/610327739"
      },
      "geometry": {
        "type": "Polygon",
        "coordinates": [
          [
            [
              -46.1839164,
              -23.5213545
            ],
            [
              -46.1839029,
              -23.5214548
            ],
            [
              -46.1839014,
              -23.5214853
            ],
            [
              -46.1838322,
              -23.521479
            ],
            [
              -46.1838324,
              -23.5214489
            ],
            [
              -46.1836717,
              -23.5214355
            ],
            [
              -46.1836717,
              -23.5213297
            ],
            [
              -46.1839164,
              -23.5213545
            ]
          ]
        ]
      }
    },
    {
      "type": "Feature",
      "id": "way/618356493",
      "properties": {
        "timestamp": "2018-08-20T21:40:04Z",
        "version": 1,
        "changeset": 61837082,
        "addr:city": "Mogi das Cruzes",
        "addr:housenumber": "313",
        "addr:street": "Rua Frei Bonifácio Harink",
        "addr:suburb": "Botujuru",
        "amenity": "clinic",
        "building": "yes",
        "healthcare": "clinic",
        "healthcare:speciality": "general;paediatrics;gynaecology",
        "name": "Unidade Básica de Saúde - Botujuru",
        "opening_hours": "Mo-Fr 07:30-17:00; PH off",
        "phone": "+55 11  4761 6337",
        "source": "http://mogidascruzes.sp.gov.br/unidade-e-equipamento/0/unidade-basica-de-saude-botujuru",
        "id": "way/618356493"
      },
      "geometry": {
        "type": "Polygon",
        "coordinates": [
          [
            [
              -46.1322574,
              -23.4854383
            ],
            [
              -46.1323245,
              -23.4856474
            ],
            [
              -46.1321958,
              -23.4856818
            ],
            [
              -46.1321314,
              -23.4854678
            ],
            [
              -46.1322574,
              -23.4854383
            ]
          ]
        ]
      }
    },
    {
      "type": "Feature",
      "id": "way/619586020",
      "properties": {
        "timestamp": "2023-11-15T13:12:32Z",
        "version": 5,
        "changeset": 144051324,
        "addr:city": "Mogi das Cruzes",
        "addr:housenumber": "700",
        "addr:postcode": "08730-440",
        "addr:street": "Rua Capitão Joaquim de Mello Freire",
        "addr:suburb": "Alto do Ipiranga",
        "amenity": "clinic",
        "email": "saude@pmmc.com.br",
        "healthcare": "clinic",
        "healthcare:speciality": "general;paediatrics;gynaecology;vaccination",
        "name": "Unidade Básica de Saúde Alto do Ipiranga",
        "opening_hours": "Mo-Fr 07:30-17:00; Sa,Su,PH off",
        "operator": "Secretaria Municipal de Saúde",
        "operator:type": "government",
        "phone": "+55 11 4735 1314",
        "ref:CNES": "9066977",
        "short_name": "UBS Alto do Ipiranga",
        "source": "CNES",
        "id": "way/619586020"
      },
      "geometry": {
        "type": "Polygon",
        "coordinates": [
          [
            [
              -46.2062108,
              -23.5368758
            ],
            [
              -46.2060686,
              -23.5374512
            ],
            [
              -46.2059131,
              -23.5374266
            ],
            [
              -46.2058004,
              -23.5373996
            ],
            [
              -46.2057816,
              -23.5373725
            ],
            [
              -46.2059426,
              -23.536684
            ],
            [
              -46.2062108,
              -23.5368758
            ]
          ]
        ]
      }
    },
    {
      "type": "Feature",
      "id": "way/619593895",
      "properties": {
        "timestamp": "2018-08-25T01:49:42Z",
        "version": 1,
        "changeset": 61974823,
        "addr:city": "Mogi das Cruzes",
        "addr:housenumber": "876",
        "addr:street": "Rua Ipiranga",
        "addr:suburb": "Jardim Santista",
        "amenity": "clinic",
        "building": "yes",
        "healthcare": "clinic",
        "name": "Unidade Avançada Hospital Ipiranga",
        "id": "way/619593895"
      },
      "geometry": {
        "type": "Polygon",
        "coordinates": [
          [
            [
              -46.1988911,
              -23.5285873
            ],
            [
              -46.1988451,
              -23.5287409
            ],
            [
              -46.198817,
              -23.5287377
            ],
            [
              -46.1988283,
              -23.5287087
            ],
            [
              -46.1987356,
              -23.5286955
            ],
            [
              -46.1987758,
              -23.5285603
            ],
            [
              -46.1988911,
              -23.5285873
            ]
          ]
        ]
      }
    },
    {
      "type": "Feature",
      "id": "way/646822632",
      "properties": {
        "timestamp": "2018-11-20T11:33:24Z",
        "version": 1,
        "changeset": 64692953,
        "amenity": "clinic",
        "building": "yes",
        "healthcare": "clinic",
        "name": "IMOT",
        "id": "way/646822632"
      },
      "geometry": {
        "type": "Polygon",
        "coordinates": [
          [
            [
              -46.1845029,
              -23.5224021
            ],
            [
              -46.18452,
              -23.5221176
            ],
            [
              -46.1847147,
              -23.522133
            ],
            [
              -46.1847022,
              -23.5222846
            ],
            [
              -46.184688,
              -23.5222851
            ],
            [
              -46.184688,
              -23.5224175
            ],
            [
              -46.1846364,
              -23.5224155
            ],
            [
              -46.1846333,
              -23.5224055
            ],
            [
              -46.1845796,
              -23.5224046
            ],
            [
              -46.1845795,
              -23.5224096
            ],
            [
              -46.1845029,
              -23.5224021
            ]
          ]
        ]
      }
    },
    {
      "type": "Feature",
      "id": "way/821621008",
      "properties": {
        "timestamp": "2023-07-20T14:44:16Z",
        "version": 5,
        "changeset": 138768926,
        "addr:housenumber": "420",
        "addr:postcode": "08762-480",
        "addr:street": "Rua Europa",
        "addr:suburb": "Jardim Aeroporto II",
        "amenity": "clinic",
        "building": "yes",
        "healthcare": "clinic",
        "healthcare:speciality": "general;paediatrics;vaccination;ginecologia",
        "name": "Unidade de Saúde da Família Jardim Aeroporto II / Santos Dumont",
        "opening_hours": "Mo-Fr 08:00-17:00; Sa ,Su,PH off",
        "phone": "+55 11 4723-2339",
        "ref:CNES": "3003965",
        "source": "CNES",
        "id": "way/821621008"
      },
      "geometry": {
        "type": "Polygon",
        "coordinates": [
          [
            [
              -46.2211812,
              -23.5745363
            ],
            [
              -46.2210166,
              -23.5746795
            ],
            [
              -46.2210592,
              -23.5747143
            ],
            [
              -46.2210386,
              -23.5747295
            ],
            [
              -46.2210138,
              -23.5747137
            ],
            [
              -46.2209704,
              -23.5747499
            ],
            [
              -46.2209477,
              -23.5747414
            ],
            [
              -46.2209334,
              -23.5747348
            ],
            [
              -46.2209223,
              -23.5747227
            ],
            [
              -46.2209234,
              -23.574711
            ],
            [
              -46.220935,
              -23.5746951
            ],
            [
              -46.2207464,
              -23.5745258
            ],
            [
              -46.2208288,
              -23.5744585
            ],
            [
              -46.2209909,
              -23.5746005
            ],
            [
              -46.2210211,
              -23.5745813
            ],
            [
              -46.2210022,
              -23.5745559
            ],
            [
              -46.2210977,
              -23.5744609
            ],
            [
              -46.2211812,
              -23.5745363
            ]
          ]
        ]
      }
    },
    {
      "type": "Feature",
      "id": "way/1018583731",
      "properties": {
        "timestamp": "2023-09-07T23:06:26Z",
        "version": 3,
        "changeset": 140961337,
        "addr:housenumber": "621",
        "addr:postcode": "08772-000",
        "addr:street": "Avenida Celeste",
        "addr:suburb": "Jardim Margarida",
        "amenity": "clinic",
        "healthcare": "clinic",
        "name": "USF Jardim Margarida",
        "opening_hours": "Mo-Fr 07:30-17:00; Sa,Su,PH off",
        "operator:ref:vatin": "BR46523270000188",
        "phone": "+55 11 4647 7474",
        "ref": "CNES-3342204",
        "ref:CNES": "3342204",
        "source": "CNES",
        "id": "way/1018583731"
      },
      "geometry": {
        "type": "Polygon",
        "coordinates": [
          [
            [
              -46.2856245,
              -23.4848541
            ],
            [
              -46.2858544,
              -23.4848646
            ],
            [
              -46.2857801,
              -23.4850366
            ],
            [
              -46.2855949,
              -23.4849614
            ],
            [
              -46.2856245,
              -23.4848541
            ]
          ]
        ]
      }
    },
    {
      "type": "Feature",
      "id": "way/1019814861",
      "properties": {
        "timestamp": "2022-01-09T21:37:54Z",
        "version": 1,
        "changeset": 115958707,
        "addr:housenumber": "1590",
        "addr:street": "Rua Ipiranga",
        "amenity": "clinic",
        "building": "yes",
        "healthcare": "clinic",
        "name": "Central Medicina Diagnótica",
        "id": "way/1019814861"
      },
      "geometry": {
        "type": "Polygon",
        "coordinates": [
          [
            [
              -46.205685,
              -23.5297115
            ],
            [
              -46.205667,
              -23.5297791
            ],
            [
              -46.2055681,
              -23.5297626
            ],
            [
              -46.2055825,
              -23.5296851
            ],
            [
              -46.205685,
              -23.5297115
            ]
          ]
        ]
      }
    },
    {
      "type": "Feature",
      "id": "way/1025272264",
      "properties": {
        "timestamp": "2022-01-27T16:49:21Z",
        "version": 1,
        "changeset": 116674450,
        "addr:postcode": "08745-000",
        "addr:street": "Rua José Galdino de Castro",
        "addr:suburb": "Vila Jundiaí",
        "amenity": "clinic",
        "building": "yes",
        "healthcare": "clinic",
        "healthcare:speciality": "general;paediatrics;vaccination;gynaecology",
        "name": "Unidade Básica de Saúde Vila Jundiaí",
        "opening_hours": "Mo-Fr 07:30-17:00; Sa,Su,PH off",
        "operator": "Prefeitura Municipal de Mogi das Cruzes",
        "operator:type": "government",
        "ref": "CNES-2773732",
        "source": "CNES",
        "id": "way/1025272264"
      },
      "geometry": {
        "type": "Polygon",
        "coordinates": [
          [
            [
              -46.2372776,
              -23.5442351
            ],
            [
              -46.237235,
              -23.5443434
            ],
            [
              -46.237013,
              -23.5442669
            ],
            [
              -46.2370508,
              -23.5441759
            ],
            [
              -46.2372776,
              -23.5442351
            ]
          ]
        ]
      }
    },
    {
      "type": "Feature",
      "id": "way/1078693019",
      "properties": {
        "timestamp": "2023-06-07T02:45:06Z",
        "version": 2,
        "changeset": 137036863,
        "addr:housenumber": "2650",
        "addr:postcode": "08790-420",
        "addr:street": "Rua Coronel Cardoso Siqueira",
        "addr:suburb": "Vila Nova União",
        "amenity": "clinic",
        "healthcare": "clinic",
        "name": "Unidade de Saúde da Família Nova União",
        "opening_hours": "Mo-Fr 07:30-17:00; Sa,Su,PH off",
        "operator": "Secretaria Municipal da Saúde",
        "operator:ref:vatin": "BR46523270000188",
        "operator:type": "government",
        "ref": "CNES-2861844",
        "ref:CNES": "2861844",
        "source": "CNES",
        "id": "way/1078693019"
      },
      "geometry": {
        "type": "Polygon",
        "coordinates": [
          [
            [
              -46.1727443,
              -23.5348486
            ],
            [
              -46.1728683,
              -23.5351152
            ],
            [
              -46.1719846,
              -23.5354302
            ],
            [
              -46.1717543,
              -23.535308
            ],
            [
              -46.1717094,
              -23.5352564
            ],
            [
              -46.1722084,
              -23.5350865
            ],
            [
              -46.1724179,
              -23.5350159
            ],
            [
              -46.1727443,
              -23.5348486
            ]
          ]
        ]
      }
    },
    {
      "type": "Feature",
      "id": "node/4892327062",
      "properties": {
        "timestamp": "2023-06-07T02:45:06Z",
        "version": 4,
        "changeset": 137036863,
        "addr:city": "Mogi das Cruzes",
        "addr:housenumber": "1094",
        "addr:postcode": "08780-120",
        "addr:street": "Rua Coronel Souza Franco",
        "addr:suburb": "Centro",
        "amenity": "clinic",
        "healthcare": "clinic",
        "name": "Mãe Mogiana",
        "opening_hours": "Mo-Fr 07:00-18:00",
        "operator:ref:vatin": "BR46523270000188",
        "phone": "+55 11  4796 1474",
        "ref:CNES": "6028748",
        "website": "https://www.mogidascruzes.sp.gov.br/unidade-e-equipamento/saude/mae-mogiana",
        "id": "node/4892327062"
      },
      "geometry": {
        "type": "Point",
        "coordinates": [
          -46.1867368,
          -23.5218945
        ]
      }
    },
    {
      "type": "Feature",
      "id": "node/4923111931",
      "properties": {
        "timestamp": "2020-06-24T22:30:37Z",
        "version": 2,
        "changeset": 87105953,
        "addr:city": "Mogi das Cruzes",
        "addr:housenumber": "22",
        "addr:postcode": "08753-000",
        "addr:street": "Rua Hugo Torre",
        "addr:suburb": "Jardim Nove de Julho",
        "amenity": "clinic",
        "healthcare": "clinic",
        "name": "Unidade de Saúde da Família - Jardim Nove de Julho",
        "opening_hours": "Mo-Fr 08:00-17:00",
        "phone": "+55 11  4721 7402",
        "id": "node/4923111931"
      },
      "geometry": {
        "type": "Point",
        "coordinates": [
          -46.2530399,
          -23.6114199
        ]
      }
    },
    {
      "type": "Feature",
      "id": "node/4923140127",
      "properties": {
        "timestamp": "2022-05-16T22:41:15Z",
        "version": 6,
        "changeset": 121072349,
        "addr:city": "Mogi das Cruzes",
        "addr:housenumber": "353",
        "addr:street": "Rua Antônio Rezende de Lima",
        "addr:suburb": "Quatinga",
        "amenity": "clinic",
        "healthcare": "clinic",
        "healthcare:speciality": "general;paediatrics;gynaecology",
        "name": "Unidade Básica de Saúde - Quatinga",
        "opening_hours": "Mo-Fr 07:30-16:30",
        "phone": "+55 11  4722 1081",
        "website": "https://www.mogidascruzes.sp.gov.br/unidade-e-equipamento/0/unidade-basica-de-saude-quatinga",
        "id": "node/4923140127"
      },
      "geometry": {
        "type": "Point",
        "coordinates": [
          -46.2419408,
          -23.6976711
        ]
      }
    },
    {
      "type": "Feature",
      "id": "node/6182413155",
      "properties": {
        "timestamp": "2019-01-03T23:37:49Z",
        "version": 1,
        "changeset": 66005130,
        "amenity": "clinic",
        "healthcare": "clinic",
        "name": "CTCor",
        "id": "node/6182413155"
      },
      "geometry": {
        "type": "Point",
        "coordinates": [
          -46.1991055,
          -23.5279597
        ]
      }
    },
    {
      "type": "Feature",
      "id": "node/6182429178",
      "properties": {
        "timestamp": "2023-06-07T02:45:06Z",
        "version": 3,
        "changeset": 137036863,
        "addr:housenumber": "330",
        "addr:postcode": "08710-610",
        "addr:street": "Rua Santana",
        "amenity": "clinic",
        "contact:facebook": "https://www.facebook.com/Iofem/about",
        "email": "iofem@uol.com.br",
        "healthcare": "clinic",
        "name": "IOFEM - Instituto Oftalmológico Edson Miyake",
        "opening_hours": "Mo-Fr 08:00-18:00; Sa,Su,PH off",
        "phone": "+55 11 4724 9833",
        "ref:CNES": "3273806",
        "ref:vatin": "BR03845759000163",
        "id": "node/6182429178"
      },
      "geometry": {
        "type": "Point",
        "coordinates": [
          -46.1985315,
          -23.5278611
        ]
      }
    },
    {
      "type": "Feature",
      "id": "node/6182429179",
      "properties": {
        "timestamp": "2023-06-07T02:45:06Z",
        "version": 3,
        "changeset": 137036863,
        "addr:housenumber": "49",
        "addr:postcode": "086730-150",
        "addr:street": "Rua Antônio Meyer",
        "addr:suburb": "Jardim Santista",
        "amenity": "clinic",
        "contact:phone": "+55 11 4727 1502",
        "email": "institutodrakellylemos@outlook.com",
        "healthcare": "clinic",
        "healthcare:speciality": "dermatology;otolaryngology;nutricionista;ginecologia;endocrinology;nutrologia",
        "name": "Instituto Dra. Kelly Lemos",
        "phone": "+55 11 4727 1514",
        "ref:CNES": "9656065",
        "ref:vatin": "BR25079907000119",
        "website": "http://institutodrakellylemos.com.br/",
        "id": "node/6182429179"
      },
      "geometry": {
        "type": "Point",
        "coordinates": [
          -46.1989014,
          -23.5281808
        ]
      }
    },
    {
      "type": "Feature",
      "id": "node/6182429181",
      "properties": {
        "timestamp": "2019-01-04T14:00:28Z",
        "version": 2,
        "changeset": 66022553,
        "amenity": "clinic",
        "healthcare": "clinic",
        "name": "Flama",
        "id": "node/6182429181"
      },
      "geometry": {
        "type": "Point",
        "coordinates": [
          -46.1991031,
          -23.5281986
        ]
      }
    },
    {
      "type": "Feature",
      "id": "node/6183843607",
      "properties": {
        "timestamp": "2019-01-04T14:00:27Z",
        "version": 1,
        "changeset": 66022553,
        "amenity": "clinic",
        "healthcare": "clinic",
        "name": "Spazio",
        "id": "node/6183843607"
      },
      "geometry": {
        "type": "Point",
        "coordinates": [
          -46.1995755,
          -23.5282524
        ]
      }
    },
    {
      "type": "Feature",
      "id": "node/6183843610",
      "properties": {
        "timestamp": "2023-06-07T02:45:06Z",
        "version": 3,
        "changeset": 137036863,
        "addr:housenumber": "200",
        "addr:postcode": "08730-150",
        "amenity": "clinic",
        "healthcare": "clinic",
        "name": "IOMC - Instituto de Olhos",
        "ref:CNES": "3164829",
        "ref:vatin": "BR74501016000114",
        "id": "node/6183843610"
      },
      "geometry": {
        "type": "Point",
        "coordinates": [
          -46.2003238,
          -23.5282489
        ]
      }
    },
    {
      "type": "Feature",
      "id": "node/6183843611",
      "properties": {
        "timestamp": "2023-06-07T02:45:06Z",
        "version": 3,
        "changeset": 137036863,
        "addr:housenumber": "191",
        "addr:postcode": "08730-150",
        "addr:street": "Rua Antônio Meyer",
        "addr:suburb": "Centro",
        "amenity": "clinic",
        "email": "contato@urosinstituto.com.br",
        "healthcare": "clinic",
        "healthcare:speciality": "urology",
        "name": "UROS - Instituto de Urologia",
        "opening_hours": "Mo-Fr 08:00-18:00; Sa,Su,PH off",
        "phone": "+55 11 4735 3353",
        "ref:CNES": "5999200",
        "ref:vatin": "BR06273632000105",
        "website": "https://urosinstituto.com.br/",
        "id": "node/6183843611"
      },
      "geometry": {
        "type": "Point",
        "coordinates": [
          -46.2002487,
          -23.5284294
        ]
      }
    },
    {
      "type": "Feature",
      "id": "node/6183843614",
      "properties": {
        "timestamp": "2019-01-04T14:00:27Z",
        "version": 1,
        "changeset": 66022553,
        "amenity": "clinic",
        "healthcare": "clinic",
        "name": "Vessato",
        "id": "node/6183843614"
      },
      "geometry": {
        "type": "Point",
        "coordinates": [
          -46.2010319,
          -23.5286704
        ]
      }
    },
    {
      "type": "Feature",
      "id": "node/6183843617",
      "properties": {
        "timestamp": "2023-06-07T02:45:06Z",
        "version": 2,
        "changeset": 137036863,
        "addr:housenumber": "49",
        "addr:postcode": "08710-610",
        "addr:street": "Rua Santana",
        "amenity": "clinic",
        "healthcare": "clinic",
        "name": "Clinica Anhembi",
        "ref:CNES": "2773198",
        "ref:vatin": "BR44287977000107",
        "id": "node/6183843617"
      },
      "geometry": {
        "type": "Point",
        "coordinates": [
          -46.1988641,
          -23.5252863
        ]
      }
    },
    {
      "type": "Feature",
      "id": "node/6183843625",
      "properties": {
        "timestamp": "2023-06-07T02:45:06Z",
        "version": 2,
        "changeset": 137036863,
        "addr:housenumber": "158",
        "addr:postcode": "08710-610",
        "addr:street": "Rua Santana",
        "amenity": "clinic",
        "healthcare": "clinic",
        "name": "CTCor Diagnóstica",
        "ref:CNES": "9496815",
        "ref:vatin": "BR28546534000137",
        "id": "node/6183843625"
      },
      "geometry": {
        "type": "Point",
        "coordinates": [
          -46.1989349,
          -23.5264134
        ]
      }
    },
    {
      "type": "Feature",
      "id": "node/6183843627",
      "properties": {
        "timestamp": "2023-06-07T02:45:06Z",
        "version": 2,
        "changeset": 137036863,
        "addr:postcode": "08710-610",
        "amenity": "clinic",
        "healthcare": "clinic",
        "name": "Anhembi",
        "id": "node/6183843627"
      },
      "geometry": {
        "type": "Point",
        "coordinates": [
          -46.1987192,
          -23.527275
        ]
      }
    },
    {
      "type": "Feature",
      "id": "node/6183843629",
      "properties": {
        "timestamp": "2023-03-01T15:28:09Z",
        "version": 2,
        "changeset": 133176853,
        "addr:housenumber": "145",
        "addr:postcode": "08710-610",
        "addr:street": "Rua Santana",
        "amenity": "clinic",
        "branch": "Unidade Mogi",
        "email": "comercial@cemeap.com.br",
        "healthcare": "clinic",
        "name": "CEMEAP",
        "phone": "+55 11 4735 8512",
        "id": "node/6183843629"
      },
      "geometry": {
        "type": "Point",
        "coordinates": [
          -46.1986854,
          -23.527429
        ]
      }
    },
    {
      "type": "Feature",
      "id": "node/6183908362",
      "properties": {
        "timestamp": "2019-01-04T14:23:44Z",
        "version": 1,
        "changeset": 66023260,
        "amenity": "clinic",
        "healthcare": "clinic",
        "name": "Bonelli",
        "id": "node/6183908362"
      },
      "geometry": {
        "type": "Point",
        "coordinates": [
          -46.201019,
          -23.5241726
        ]
      }
    },
    {
      "type": "Feature",
      "id": "node/6183939464",
      "properties": {
        "timestamp": "2019-01-04T14:36:19Z",
        "version": 1,
        "changeset": 66023633,
        "amenity": "clinic",
        "healthcare": "clinic",
        "name": "Vida + Vida",
        "id": "node/6183939464"
      },
      "geometry": {
        "type": "Point",
        "coordinates": [
          -46.1976108,
          -23.5246938
        ]
      }
    },
    {
      "type": "Feature",
      "id": "node/8830385483",
      "properties": {
        "timestamp": "2023-06-07T02:45:06Z",
        "version": 2,
        "changeset": 137036863,
        "addr:city": "Mogi das Cruzes",
        "addr:housenumber": "154",
        "addr:postcode": "08780-570",
        "addr:street": "Avenida São Paulo",
        "addr:suburb": "Socorro",
        "amenity": "clinic",
        "healthcare": "clinic",
        "name": "Clínica São Paulo",
        "ref:CNES": "3977528",
        "ref:vatin": "BR54786405000126",
        "id": "node/8830385483"
      },
      "geometry": {
        "type": "Point",
        "coordinates": [
          -46.1764978,
          -23.5180557
        ]
      }
    }
  ]
}
