{
  "type": "FeatureCollection",
  "features": [
    {
      "type": "Feature",
      "id": "way/613135887",
      "properties": {
        "timestamp": "2022-01-30T18:33:14Z",
        "version": 3,
        "changeset": 116792044,
        "addr:city": "Mogi das Cruzes",
        "addr:housenumber": "353",
        "addr:postcode": "08780-070",
        "addr:street": "Rua Dom Antônio Cândido de Alvarenga",
        "addr:suburb": "Centro",
        "amenity": "college",
        "name": "Escola Senai Nami Jafet",
        "operator": "Serviço Nacional da Indústria",
        "operator:type": "public",
        "phone": "+55 11 4728 3900",
        "ref": "INEP-35147886",
        "source": "CADMEC 2017",
        "website": "https://mogidascruzes.sp.senai.br/",
        "id": "way/613135887"
      },
      "geometry": {
        "type": "Polygon",
        "coordinates": [
          [
            [
              -46.1858916,
              -23.5226361
            ],
            [
              -46.185889,
              -23.5234993
            ],
            [
              -46.1850548,
              -23.5234476
            ],
            [
              -46.1851057,
              -23.5226287
            ],
            [
              -46.1851621,
              -23.5226041
            ],
            [
              -46.1858916,
              -23.5226361
            ]
          ]
        ]
      }
    },
    {
      "type": "Feature",
      "id": "way/613144069",
      "properties": {
        "timestamp": "2022-01-09T00:39:13Z",
        "version": 2,
        "changeset": 115928187,
        "addr:city": "Mogi das Cruzes",
        "addr:housenumber": "30",
        "addr:postcode": "08715-130",
        "addr:street": "Rua Adriano Francisco Sagaldi",
        "addr:suburb": "Vila Sud Menuci",
        "amenity": "college",
        "contact:phone": "+55 11 4799 7021",
        "email": "e015acad@cps.sp.gov.br",
        "name": "Escola Técnica Estadual Presidente Vargas",
        "operator": "Centro Paula Souza",
        "operator:type": "government",
        "phone": "+55 11 4799 1511",
        "ref": "INEP-35006609",
        "source": "CADMEC 2017",
        "id": "way/613144069"
      },
      "geometry": {
        "type": "Polygon",
        "coordinates": [
          [
            [
              -46.1847608,
              -23.5235297
            ],
            [
              -46.1848493,
              -23.5250176
            ],
            [
              -46.1847259,
              -23.525052
            ],
            [
              -46.1846374,
              -23.5251036
            ],
            [
              -46.1844295,
              -23.5251098
            ],
            [
              -46.1844168,
              -23.5251596
            ],
            [
              -46.1843182,
              -23.5251749
            ],
            [
              -46.1842485,
              -23.5234953
            ],
            [
              -46.1847608,
              -23.5235297
            ]
          ]
        ]
      }
    }
  ]
}
