{
  "type": "FeatureCollection",
  "features": [
    {
      "type": "Feature",
      "id": "way/1078514542",
      "properties": {
        "timestamp": "2022-07-14T13:44:58Z",
        "version": 1,
        "changeset": 123611267,
        "addr:housenumber": "1256",
        "addr:postcode": "08795-020",
        "addr:street": "Rua Coronel Cardoso Siqueira",
        "addr:suburb": "Vila Oliveira",
        "amenity": "dentist",
        "building": "yes",
        "contact:mobile": "+55 11 93384 4250",
        "healthcare": "dentist",
        "name": "Odonto Company",
        "opening_hours": "mogidascruzes-vilaoliveira@odontocompany.com",
        "phone": "+55 11 2566 6677",
        "website": "https://odontocompany.com/mogidascruzesvilaoliveira",
        "id": "way/1078514542"
      },
      "geometry": {
        "type": "Polygon",
        "coordinates": [
          [
            [
              -46.1815371,
              -23.5281463
            ],
            [
              -46.1816631,
              -23.5282618
            ],
            [
              -46.1816081,
              -23.5283164
            ],
            [
              -46.1814821,
              -23.5282198
            ],
            [
              -46.1815371,
              -23.5281463
            ]
          ]
        ]
      }
    },
    {
      "type": "Feature",
      "id": "node/6183843628",
      "properties": {
        "timestamp": "2019-01-04T14:00:27Z",
        "version": 1,
        "changeset": 66022553,
        "amenity": "dentist",
        "healthcare": "dentist",
        "name": "Coife Odonto",
        "id": "node/6183843628"
      },
      "geometry": {
        "type": "Point",
        "coordinates": [
          -46.1986461,
          -23.5275519
        ]
      }
    },
    {
      "type": "Feature",
      "id": "node/6183939465",
      "properties": {
        "timestamp": "2019-01-04T14:36:19Z",
        "version": 1,
        "changeset": 66023633,
        "amenity": "dentist",
        "healthcare": "dentist",
        "name": "Centro Odontol처gico do Povo",
        "id": "node/6183939465"
      },
      "geometry": {
        "type": "Point",
        "coordinates": [
          -46.1976616,
          -23.5244813
        ]
      }
    },
    {
      "type": "Feature",
      "id": "node/6760498675",
      "properties": {
        "timestamp": "2019-08-30T20:34:18Z",
        "version": 1,
        "changeset": 73937197,
        "amenity": "dentist",
        "healthcare": "dentist",
        "name": "Clinica Geral Odontol처gica",
        "id": "node/6760498675"
      },
      "geometry": {
        "type": "Point",
        "coordinates": [
          -46.219936,
          -23.5574711
        ]
      }
    },
    {
      "type": "Feature",
      "id": "node/9394498961",
      "properties": {
        "timestamp": "2022-01-05T14:12:43Z",
        "version": 1,
        "changeset": 115799591,
        "addr:door": "36",
        "addr:housenumber": "100",
        "addr:postcode": "08771-200",
        "addr:street": "Avenida Presidente General Dutra",
        "addr:suburb": "Cidade Parquel창ndia",
        "amenity": "dentist",
        "contact:phone": "+55 11 4722 6547",
        "email": "eloisaalberto@hotmail.com",
        "healthcare": "dentist",
        "name": "Aru찾 Odontologia",
        "phone": "+55 11 3488 3626",
        "id": "node/9394498961"
      },
      "geometry": {
        "type": "Point",
        "coordinates": [
          -46.2512261,
          -23.467482
        ]
      }
    }
  ]
}
