{
  "type": "FeatureCollection",
  "features": [
    {
      "type": "Feature",
      "id": "way/456659572",
      "properties": {
        "timestamp": "2020-06-18T20:17:04Z",
        "version": 4,
        "changeset": 86841483,
        "addr:city": "Mogi das Cruzes",
        "addr:housenumber": "400",
        "addr:postcode": "08830-000",
        "addr:street": "Avenida João XXIII",
        "addr:suburb": "Socorro",
        "amenity": "social_facility",
        "email": "abomoras.mogi@gmail.com",
        "name": "ABOMORAS - Associação Beneficente Onde Moras",
        "phone": "+55 11 4796 7904",
        "social_facility": "shelter",
        "social_facility:for": "drug_addicted",
        "social_facility:for_1": "migrant",
        "id": "way/456659572"
      },
      "geometry": {
        "type": "Polygon",
        "coordinates": [
          [
            [
              -46.1683722,
              -23.5154732
            ],
            [
              -46.1688328,
              -23.515628
            ],
            [
              -46.1684355,
              -23.5159699
            ],
            [
              -46.1681785,
              -23.5158575
            ],
            [
              -46.1683722,
              -23.5154732
            ]
          ]
        ]
      }
    },
    {
      "type": "Feature",
      "id": "way/498964962",
      "properties": {
        "timestamp": "2022-05-16T22:27:22Z",
        "version": 3,
        "changeset": 121071897,
        "addr:city": "Mogi das Cruzes",
        "addr:housenumber": "1175",
        "addr:street": "Avenida Aurora Ariza Meloni",
        "addr:suburb": "Vila Nova União",
        "amenity": "social_facility",
        "building": "yes",
        "email": "crasnovauniao.semas@pmmc.com.br",
        "name": "CRAS Vila Nova União",
        "opening_hours": "Mo-Fr 08:00-17:00",
        "phone": "+55 11 4726 7741",
        "phone_1": "+55 11 4725 7605",
        "website": "https://www.mogidascruzes.sp.gov.br/unidade-e-equipamento/todos-os-assuntos/cras-vila-nova-uniao",
        "wheelchair": "limited",
        "id": "way/498964962"
      },
      "geometry": {
        "type": "Polygon",
        "coordinates": [
          [
            [
              -46.1688916,
              -23.5320847
            ],
            [
              -46.1686957,
              -23.532146
            ],
            [
              -46.1686531,
              -23.5320336
            ],
            [
              -46.1688192,
              -23.5319568
            ],
            [
              -46.1688916,
              -23.5320847
            ]
          ]
        ]
      }
    },
    {
      "type": "Feature",
      "id": "way/501455002",
      "properties": {
        "timestamp": "2023-02-02T18:14:31Z",
        "version": 5,
        "changeset": 132013964,
        "addr:city": "Mogi das Cruzes",
        "addr:housenumber": "1225",
        "addr:postcode": "08750-590",
        "addr:street": "Rua Cecília da Rocha",
        "addr:suburb": "Jundiapeba",
        "alt_name": "Centro de Referência de Assistência Social Jundiapeba II",
        "amenity": "social_facility",
        "email": "crasjundiapeba2@pmmc.com.br",
        "name": "CRAS Jundiapeba II",
        "opening_hours": "Mo-Fr 08:00-17:00",
        "phone": "+55 11 4799- 2374",
        "social_facility": "outreach",
        "social_facility:for": "underprivileged",
        "website": "https://www.mogidascruzes.sp.gov.br/unidade-e-equipamento/0/cras-jundiapeba-ii",
        "wheelchair": "limited",
        "id": "way/501455002"
      },
      "geometry": {
        "type": "Polygon",
        "coordinates": [
          [
            [
              -46.2567687,
              -23.5547307
            ],
            [
              -46.2562886,
              -23.5547848
            ],
            [
              -46.2562564,
              -23.5546791
            ],
            [
              -46.2567392,
              -23.5546078
            ],
            [
              -46.2567687,
              -23.5547307
            ]
          ]
        ]
      }
    },
    {
      "type": "Feature",
      "id": "way/865107425",
      "properties": {
        "timestamp": "2023-02-01T18:33:06Z",
        "version": 2,
        "changeset": 131973673,
        "addr:city": "Mogi das Cruzes",
        "addr:housenumber": "496",
        "addr:postcode": "08773-020",
        "addr:street": "Avenida José Benedito Braga",
        "alt_name": "Centro de Referência Especializado para População em Situação de Rua de Mogi das Cruzes",
        "amenity": "social_facility",
        "building": "yes",
        "contact:phone": "+55 11 4790 1244",
        "contact:website": "http://www.mogidascruzes.sp.gov.br/unidade-e-equipamento/todos-os-assuntos/centro-pop",
        "description": "Serviço Especializado para Pessoa em Situação de Rua",
        "email": "centropop.semas@pmmc.com.br",
        "name": "Centro POP de Mogi das Cruzes",
        "opening_hours": "Mo-Fr 08:00-17:00; PH off",
        "phone": "+55 11 4796 3862",
        "social_facility": "outreach",
        "social_facility:for": "homeless",
        "id": "way/865107425"
      },
      "geometry": {
        "type": "Polygon",
        "coordinates": [
          [
            [
              -46.196762,
              -23.516104
            ],
            [
              -46.1967271,
              -23.5162687
            ],
            [
              -46.1966225,
              -23.5162589
            ],
            [
              -46.1966547,
              -23.5160966
            ],
            [
              -46.196762,
              -23.516104
            ]
          ]
        ]
      }
    },
    {
      "type": "Feature",
      "id": "way/1078510080",
      "properties": {
        "timestamp": "2022-07-14T13:27:56Z",
        "version": 1,
        "changeset": 123610543,
        "addr:housenumber": "822",
        "addr:street": "Rua Olegário Paiva",
        "addr:suburb": "Centro",
        "amenity": "social_facility",
        "contact:mobile": "+55 11 94765 9670",
        "email": "contato@apasaltotiete.org.br",
        "name": "APAS Alto Tiete",
        "phone": "+55 11 3907 7638",
        "website": "https://www.apasaltotiete.org.br/",
        "id": "way/1078510080"
      },
      "geometry": {
        "type": "Polygon",
        "coordinates": [
          [
            [
              -46.1873418,
              -23.5244689
            ],
            [
              -46.1873435,
              -23.52455
            ],
            [
              -46.1873251,
              -23.5245546
            ],
            [
              -46.1873201,
              -23.5245837
            ],
            [
              -46.1871715,
              -23.5246158
            ],
            [
              -46.1871849,
              -23.5244995
            ],
            [
              -46.1873418,
              -23.5244689
            ]
          ]
        ]
      }
    },
    {
      "type": "Feature",
      "id": "way/1078693022",
      "properties": {
        "timestamp": "2022-07-15T02:52:53Z",
        "version": 1,
        "changeset": 123630947,
        "addr:street": "Rua Joaquim de Mello Freire Júnior \"Zozó\"",
        "amenity": "social_facility",
        "name": "Centro Familiar Maria Medianeira",
        "id": "way/1078693022"
      },
      "geometry": {
        "type": "Polygon",
        "coordinates": [
          [
            [
              -46.1714269,
              -23.5329421
            ],
            [
              -46.1715839,
              -23.53349
            ],
            [
              -46.1710313,
              -23.5336416
            ],
            [
              -46.1708626,
              -23.5331089
            ],
            [
              -46.1708643,
              -23.5330813
            ],
            [
              -46.170886,
              -23.5330569
            ],
            [
              -46.1714269,
              -23.5329421
            ]
          ]
        ]
      }
    },
    {
      "type": "Feature",
      "id": "way/1222988856",
      "properties": {
        "timestamp": "2023-11-12T17:10:32Z",
        "version": 1,
        "changeset": 143941431,
        "addr:housenumber": "2919",
        "addr:street": "Avenida Japão",
        "amenity": "social_facility",
        "name": "Centro de Referência de Assist~encia Social Vila Brasileira",
        "short_name": "CRAS Vila Brasileira",
        "id": "way/1222988856"
      },
      "geometry": {
        "type": "Polygon",
        "coordinates": [
          [
            [
              -46.207539,
              -23.5531505
            ],
            [
              -46.2076082,
              -23.5531922
            ],
            [
              -46.2075014,
              -23.5533245
            ],
            [
              -46.2074441,
              -23.5532882
            ],
            [
              -46.207539,
              -23.5531505
            ]
          ]
        ]
      }
    },
    {
      "type": "Feature",
      "id": "node/4921350014",
      "properties": {
        "timestamp": "2023-02-02T18:14:31Z",
        "version": 6,
        "changeset": 132013964,
        "addr:city": "Mogi das Cruzes",
        "addr:housenumber": "2096",
        "addr:street": "Rua Dolores de Aquino",
        "addr:suburb": "Jundiapeba",
        "alt_name": "Centro de Referência de Assistência Social Jundiapeba I",
        "amenity": "social_facility",
        "contact:phone": "+55 11 4722 4077",
        "email": "crasjundiapeba.semas@pmmc.com.br",
        "name": "CRAS Jundiapeba I",
        "opening_hours": "Mo-Fr 08:00-17:00; Sa,Su,PH off",
        "phone": "+55 11 4727 2062",
        "social_facility": "outreach",
        "social_facility:for": "underprivileged",
        "website": "https://www.mogidascruzes.sp.gov.br/unidade-e-equipamento/0/cras-jundiapeba-i",
        "id": "node/4921350014"
      },
      "geometry": {
        "type": "Point",
        "coordinates": [
          -46.2600097,
          -23.5445642
        ]
      }
    },
    {
      "type": "Feature",
      "id": "node/5303591237",
      "properties": {
        "timestamp": "2017-12-25T19:14:04Z",
        "version": 1,
        "changeset": 54913909,
        "addr:city": "Mogi das Cruzes",
        "addr:housenumber": "2312",
        "addr:postcode": "08840-150",
        "addr:street": "Rua Independência",
        "addr:suburb": "Vila São Paulo",
        "amenity": "social_facility",
        "name": "Casa de Repouso para Idosos Shalon",
        "social_facility": "nursing_home",
        "social_facility:for": "senior",
        "wheelchair": "yes",
        "id": "node/5303591237"
      },
      "geometry": {
        "type": "Point",
        "coordinates": [
          -46.128494,
          -23.4760351
        ]
      }
    }
  ]
}
