{
  "type": "FeatureCollection",
  "features": [
    {
      "type": "Feature",
      "id": "node/9008579538",
      "properties": {
        "timestamp": "2022-09-11T14:48:59Z",
        "version": 3,
        "changeset": 126052311,
        "addr:city": "Grão-Pará",
        "addr:postcode": "88090-000",
        "addr:street": "Estrada Geral",
        "addr:suburb": "Serra Furada",
        "email": "serrafurada@ima.sc.gov.br",
        "government": "environment",
        "name": "Parque Estadual da Serra Furada - Sede Norte",
        "name:en": "Serra Furada State Park",
        "office": "government",
        "website": "https://www.ima.sc.gov.br/index.php/biodiversidade/unidades-de-conservacao/parque-estadual-da-serra-furada",
        "id": "node/9008579538"
      },
      "geometry": {
        "type": "Point",
        "coordinates": [
          -49.3855592,
          -28.145201
        ]
      }
    },
    {
      "type": "Feature",
      "id": "node/9008579539",
      "properties": {
        "timestamp": "2023-01-21T15:42:25Z",
        "version": 3,
        "changeset": 131545356,
        "addr:city": "Grão-Pará",
        "addr:postcode": "88090-000",
        "addr:street": "Estrada Geral",
        "addr:suburb": "Chapadão",
        "email": "serrafurada@ima.sc.gov.br",
        "government": "environment",
        "name": "Parque Estadual da Serra Furada - Sede sul",
        "nohousenumber": "yes",
        "office": "government",
        "website": "https://www.ima.sc.gov.br/index.php/biodiversidade/unidades-de-conservacao/parque-estadual-da-serra-furada",
        "id": "node/9008579539"
      },
      "geometry": {
        "type": "Point",
        "coordinates": [
          -49.3927344,
          -28.1918686
        ]
      }
    }
  ]
}
