{
  "type": "FeatureCollection",
  "features": [
    {
      "type": "Feature",
      "id": "way/1032069353",
      "properties": {
        "timestamp": "2022-02-16T17:45:00Z",
        "version": 1,
        "changeset": 117487097,
        "addr:city": "Cariri do Tocantins",
        "addr:postcode": "77453-000",
        "addr:street": "Rua Julieta Zeferino de Oliveira",
        "addr:suburb": "Centro",
        "amenity": "school",
        "name": "Colegio Estadual Tarso Dutra",
        "id": "way/1032069353"
      },
      "geometry": {
        "type": "Polygon",
        "coordinates": [
          [
            [
              -49.1629587,
              -11.8899029
            ],
            [
              -49.1632484,
              -11.8907245
            ],
            [
              -49.1629641,
              -11.8908295
            ],
            [
              -49.1626503,
              -11.8900132
            ],
            [
              -49.1629587,
              -11.8899029
            ]
          ]
        ]
      }
    },
    {
      "type": "Feature",
      "id": "way/1032070608",
      "properties": {
        "timestamp": "2022-02-16T17:49:01Z",
        "version": 1,
        "changeset": 117487276,
        "addr:city": "Cariri do Tocantins",
        "addr:postcode": "77453-000",
        "addr:street": "Avenida Castelo Branco",
        "addr:suburb": "Centro",
        "amenity": "school",
        "name": "Escola Municipal Divina Ribeiro Borges",
        "phone": "+55 63 3383 1158",
        "id": "way/1032070608"
      },
      "geometry": {
        "type": "Polygon",
        "coordinates": [
          [
            [
              -49.1626503,
              -11.8900132
            ],
            [
              -49.1629641,
              -11.8908295
            ],
            [
              -49.1626395,
              -11.8909292
            ],
            [
              -49.1624732,
              -11.8900814
            ],
            [
              -49.1626503,
              -11.8900132
            ]
          ]
        ]
      }
    }
  ]
}
