{
  "type": "FeatureCollection",
  "features": [
    {
      "type": "Feature",
      "id": "way/465928139",
      "properties": {
        "timestamp": "2017-01-14T18:18:18Z",
        "version": 1,
        "changeset": 45166671,
        "addr:city": "Pitangueiras",
        "addr:housenumber": "95",
        "addr:state": "SP",
        "addr:street": "Rua Benedita Maggio Piazentini",
        "addr:suburb": "Conjunto Habitacional Pedro de Felício",
        "amenity": "kindergarten",
        "name": "Creche Marcelo Gomes da Silva",
        "operator": "Prefeitura Municipal",
        "phone": "+55 16 3952 1646",
        "wheelchair": "yes",
        "id": "way/465928139"
      },
      "geometry": {
        "type": "Polygon",
        "coordinates": [
          [
            [
              -48.203906,
              -21.0080236
            ],
            [
              -48.2033763,
              -21.0079886
            ],
            [
              -48.2033817,
              -21.0076455
            ],
            [
              -48.2039181,
              -21.0076806
            ],
            [
              -48.203906,
              -21.0080236
            ]
          ]
        ]
      }
    },
    {
      "type": "Feature",
      "id": "way/465928140",
      "properties": {
        "timestamp": "2017-01-14T18:18:18Z",
        "version": 1,
        "changeset": 45166671,
        "addr:city": "Pitangueiras",
        "addr:housenumber": "98",
        "addr:state": "SP",
        "addr:street": "Rua João Melloni",
        "addr:suburb": "Jardim Bela Vista",
        "amenity": "kindergarten",
        "name": "Creche Rejane e Patrícia Cristina Paro",
        "operator": "Prefeitura Municipal",
        "phone": "+55 16 3952 3795",
        "wheelchair": "yes",
        "id": "way/465928140"
      },
      "geometry": {
        "type": "Polygon",
        "coordinates": [
          [
            [
              -48.2269039,
              -21.0211857
            ],
            [
              -48.226477,
              -21.0213677
            ],
            [
              -48.2263743,
              -21.0211579
            ],
            [
              -48.2268012,
              -21.0209758
            ],
            [
              -48.2269039,
              -21.0211857
            ]
          ]
        ]
      }
    },
    {
      "type": "Feature",
      "id": "way/823249777",
      "properties": {
        "timestamp": "2020-07-05T21:07:21Z",
        "version": 1,
        "changeset": 87566579,
        "addr:city": "Pitangueiras",
        "addr:housenumber": "406",
        "addr:street": "Rua Iguaçu",
        "addr:suburb": "Jardim Brasília",
        "amenity": "kindergarten",
        "name": "Creche Maria Preciosa",
        "operator": "Prefeitura Municipal",
        "id": "way/823249777"
      },
      "geometry": {
        "type": "Polygon",
        "coordinates": [
          [
            [
              -48.2166901,
              -21.0138213
            ],
            [
              -48.2163656,
              -21.0142269
            ],
            [
              -48.2160705,
              -21.0140366
            ],
            [
              -48.2163589,
              -21.0136235
            ],
            [
              -48.2166901,
              -21.0138213
            ]
          ]
        ]
      }
    }
  ]
}
