{
  "type": "FeatureCollection",
  "features": [
    {
      "type": "Feature",
      "id": "node/3388095793",
      "properties": {
        "timestamp": "2019-12-17T16:38:00Z",
        "version": 2,
        "changeset": 78536912,
        "addr:street": "Avenida Independência",
        "amenity": "pharmacy",
        "dispensing": "yes",
        "drive_through": "no",
        "healthcare": "pharmacy",
        "name": "Drogal",
        "id": "node/3388095793"
      },
      "geometry": {
        "type": "Point",
        "coordinates": [
          -47.634083,
          -22.7253815
        ]
      }
    },
    {
      "type": "Feature",
      "id": "node/4168492311",
      "properties": {
        "timestamp": "2020-03-15T00:49:35Z",
        "version": 5,
        "changeset": 82206836,
        "amenity": "pharmacy",
        "healthcare": "pharmacy",
        "id": "node/4168492311"
      },
      "geometry": {
        "type": "Point",
        "coordinates": [
          -47.6368822,
          -22.726644
        ]
      }
    },
    {
      "type": "Feature",
      "id": "node/6379870086",
      "properties": {
        "timestamp": "2020-12-31T22:09:35Z",
        "version": 2,
        "changeset": 96752464,
        "addr:city": "Piracicaba",
        "addr:housenumber": "220",
        "addr:postcode": "13412-248",
        "addr:street": "Avenida Luiz Ralf Benatti",
        "addr:suburb": "Vila Industrial",
        "amenity": "pharmacy",
        "dispensing": "no",
        "drive_through": "no",
        "healthcare": "pharmacy",
        "name": "Farmácia Drogal",
        "id": "node/6379870086"
      },
      "geometry": {
        "type": "Point",
        "coordinates": [
          -47.6650604,
          -22.6841783
        ]
      }
    },
    {
      "type": "Feature",
      "id": "node/6384893481",
      "properties": {
        "timestamp": "2019-04-05T06:02:02Z",
        "version": 1,
        "changeset": 68908581,
        "addr:street": "Rua Brigadeiro Eduardo Gomes",
        "addr:suburb": "Vila Sonia",
        "amenity": "pharmacy",
        "dispensing": "yes",
        "healthcare": "pharmacy",
        "name": "FarmaVip",
        "id": "node/6384893481"
      },
      "geometry": {
        "type": "Point",
        "coordinates": [
          -47.6935198,
          -22.6711429
        ]
      }
    }
  ]
}
