{
  "type": "FeatureCollection",
  "features": [
    {
      "type": "Feature",
      "id": "way/670822825",
      "properties": {
        "timestamp": "2021-10-03T14:42:23Z",
        "version": 2,
        "changeset": 112036457,
        "addr:housenumber": "1536",
        "addr:postcode": "07985-300",
        "addr:street": "Avenida Ouro Preto",
        "addr:suburb": "Jardim Alegria",
        "amenity": "clinic",
        "building": "yes",
        "healthcare": "clinic",
        "healthcare:speciality": "general",
        "loc_name": "UBS Alegria",
        "name": "Unidade da Saúde da Família Doutor Walfrido Tiburcio",
        "opening_hours": "Mo-Fr 07:00-16:00; Sa,Su,PH off",
        "phone": "+55 11 4488 2900",
        "ref": "VNES-2083779",
        "id": "way/670822825"
      },
      "geometry": {
        "type": "Polygon",
        "coordinates": [
          [
            [
              -46.7103393,
              -23.2851149
            ],
            [
              -46.7103045,
              -23.2852134
            ],
            [
              -46.7101784,
              -23.285174
            ],
            [
              -46.7101677,
              -23.2851937
            ],
            [
              -46.7101006,
              -23.285174
            ],
            [
              -46.7099978,
              -23.2851488
            ],
            [
              -46.710112,
              -23.2850534
            ],
            [
              -46.7103393,
              -23.2851149
            ]
          ]
        ]
      }
    },
    {
      "type": "Feature",
      "id": "way/672184944",
      "properties": {
        "timestamp": "2019-02-21T23:21:39Z",
        "version": 1,
        "changeset": 67446848,
        "addr:housenumber": "289",
        "addr:street": "Rua Adail Jarbas Duclos",
        "amenity": "clinic",
        "building": "yes",
        "healthcare": "clinic",
        "healthcare:speciality": "general",
        "name": "Unidade Saúde da Família Casa Grande",
        "id": "way/672184944"
      },
      "geometry": {
        "type": "Polygon",
        "coordinates": [
          [
            [
              -46.7418316,
              -23.2958588
            ],
            [
              -46.7418573,
              -23.2958739
            ],
            [
              -46.7418159,
              -23.2959334
            ],
            [
              -46.7417828,
              -23.2959245
            ],
            [
              -46.7416026,
              -23.2958138
            ],
            [
              -46.7416508,
              -23.2957477
            ],
            [
              -46.7418316,
              -23.2958588
            ]
          ]
        ]
      }
    },
    {
      "type": "Feature",
      "id": "way/819655261",
      "properties": {
        "timestamp": "2023-04-02T15:41:44Z",
        "version": 4,
        "changeset": 134419707,
        "addr:city": "Francisco Morato",
        "addr:housenumber": "151",
        "addr:street": "Rua Haway",
        "addr:suburb": "Jardim Vassouras I",
        "amenity": "clinic",
        "building": "yes",
        "healthcare": "clinic",
        "name": "Centro de Referência da Mulher",
        "id": "way/819655261"
      },
      "geometry": {
        "type": "Polygon",
        "coordinates": [
          [
            [
              -46.7286549,
              -23.2801346
            ],
            [
              -46.7285514,
              -23.2801328
            ],
            [
              -46.7285442,
              -23.2799511
            ],
            [
              -46.7286541,
              -23.279951
            ],
            [
              -46.7286549,
              -23.2801346
            ]
          ]
        ]
      }
    },
    {
      "type": "Feature",
      "id": "way/862877434",
      "properties": {
        "timestamp": "2023-06-18T16:32:47Z",
        "version": 2,
        "changeset": 137485185,
        "addr:housenumber": "229",
        "addr:postcode": "07941-040",
        "addr:street": "Rua Guanabara",
        "addr:suburb": "Parque 120",
        "alt_name": "Unidade da Saúde da Família Parque 120",
        "amenity": "clinic",
        "building": "yes",
        "healthcare": "clinic",
        "healthcare:speciality": "general",
        "name": "Unidade da Saúde da Família Doutor Rams Maluly",
        "opening_hours": "Mo-Fr 07:00-16:00; Sa,Su,PH off",
        "operator": "Serviço de Assistência Médica de Francisco Morato",
        "phone": "+55 11 4488 3300",
        "ref:CNES": "2083701",
        "short_name": "USF Parque 120",
        "source": "CNES",
        "id": "way/862877434"
      },
      "geometry": {
        "type": "Polygon",
        "coordinates": [
          [
            [
              -46.7447559,
              -23.2640826
            ],
            [
              -46.7445035,
              -23.2641722
            ],
            [
              -46.7444787,
              -23.2641537
            ],
            [
              -46.7444214,
              -23.2640228
            ],
            [
              -46.7447063,
              -23.2639247
            ],
            [
              -46.7447559,
              -23.2640826
            ]
          ]
        ]
      }
    },
    {
      "type": "Feature",
      "id": "way/992767703",
      "properties": {
        "timestamp": "2023-06-27T14:35:05Z",
        "version": 2,
        "changeset": 137838627,
        "addr:housenumber": "258",
        "addr:postcode": "07912-150",
        "addr:street": "Rua Donald Savazoni",
        "addr:suburb": "Parque Água Vermelha",
        "amenity": "clinic",
        "building": "yes",
        "healthcare": "clinic",
        "healthcare:speciality": "general",
        "name": "Unidade de Saúde da Família do Água Vermelha",
        "opening_hours": "Mo-Fr 07:00-16:00; Sa Su,PH off",
        "phone": "+55 11 4489 5684",
        "ref:CNES": "2083795",
        "short_name": "USF do Água Vermelha",
        "source": "CNES",
        "id": "way/992767703"
      },
      "geometry": {
        "type": "Polygon",
        "coordinates": [
          [
            [
              -46.7584974,
              -23.2882146
            ],
            [
              -46.7584917,
              -23.2882883
            ],
            [
              -46.7584204,
              -23.2882765
            ],
            [
              -46.7584144,
              -23.2882897
            ],
            [
              -46.7582306,
              -23.2882677
            ],
            [
              -46.7582432,
              -23.2881627
            ],
            [
              -46.7584127,
              -23.2881852
            ],
            [
              -46.7584055,
              -23.2881938
            ],
            [
              -46.7584974,
              -23.2882146
            ]
          ]
        ]
      }
    },
    {
      "type": "Feature",
      "id": "way/996640962",
      "properties": {
        "timestamp": "2021-10-26T14:08:27Z",
        "version": 1,
        "changeset": 112996332,
        "addr:housenumber": "36",
        "addr:postcode": "07990-050",
        "addr:street": "Rua dos Cravos",
        "addr:suburb": "Belém Capela",
        "amenity": "clinic",
        "building": "yes",
        "healthcare": "clinic",
        "name": "AmorSaúde",
        "opening_hours": "Mo-Fr 08:00-18:00; Sa 07:00-13:00; Su,PH off",
        "phone": "+55 11 4489 9160",
        "website": "https://amorsaude.com.br/clinica/francisco-morato-sp/",
        "id": "way/996640962"
      },
      "geometry": {
        "type": "Polygon",
        "coordinates": [
          [
            [
              -46.7404937,
              -23.2788752
            ],
            [
              -46.7405747,
              -23.2789555
            ],
            [
              -46.7404112,
              -23.2791088
            ],
            [
              -46.7404241,
              -23.2791311
            ],
            [
              -46.7403901,
              -23.2791579
            ],
            [
              -46.7402708,
              -23.2790604
            ],
            [
              -46.7402936,
              -23.2790124
            ],
            [
              -46.7403334,
              -23.2790314
            ],
            [
              -46.7404937,
              -23.2788752
            ]
          ]
        ]
      }
    },
    {
      "type": "Feature",
      "id": "way/1033538070",
      "properties": {
        "timestamp": "2022-02-20T15:07:20Z",
        "version": 1,
        "changeset": 117642696,
        "addr:housenumber": "210",
        "addr:street": "Rua Vinte e Um de Março",
        "addr:suburb": "Belém Estação",
        "amenity": "clinic",
        "building": "yes",
        "email": "contato@clinicamedicameudoutor.com.br",
        "healthcare": "clinic",
        "healthcare:speciality": "psychiatry;general;orthopaedics;gynaecology;cardiology;paediatrics;acupuncture;laboratory_tests;nutritionist;endocrilogist",
        "name": "Clínica Médica Meu Doutor",
        "opening_hours": "Mo-Fr 08:00-17:00; Sa,Su,PH off",
        "phone": "+55 11 4489 5205",
        "website": "http://www.clinicamedicameudoutor.com.br/",
        "id": "way/1033538070"
      },
      "geometry": {
        "type": "Polygon",
        "coordinates": [
          [
            [
              -46.7457364,
              -23.2815462
            ],
            [
              -46.7456919,
              -23.2816457
            ],
            [
              -46.7456265,
              -23.2816219
            ],
            [
              -46.7456723,
              -23.2815209
            ],
            [
              -46.7457364,
              -23.2815462
            ]
          ]
        ]
      }
    },
    {
      "type": "Feature",
      "id": "way/1033545299",
      "properties": {
        "timestamp": "2022-02-20T15:32:33Z",
        "version": 1,
        "changeset": 117643624,
        "addr:street": "Rua Vereador Pedro Bueno de Oliveira",
        "addr:suburb": "Centro",
        "amenity": "clinic",
        "building": "yes",
        "healthcare": "clinic",
        "healthcare:speciality": "rpg;acupuncture;pilates;physiotherapy;psychology;speech_therapy",
        "name": "Clínica PilatesFisio+",
        "id": "way/1033545299"
      },
      "geometry": {
        "type": "Polygon",
        "coordinates": [
          [
            [
              -46.7453705,
              -23.2823568
            ],
            [
              -46.7453155,
              -23.282441
            ],
            [
              -46.7452377,
              -23.2824136
            ],
            [
              -46.7452904,
              -23.2823274
            ],
            [
              -46.7453705,
              -23.2823568
            ]
          ]
        ]
      }
    },
    {
      "type": "Feature",
      "id": "way/1184663017",
      "properties": {
        "timestamp": "2023-06-24T16:27:48Z",
        "version": 1,
        "changeset": 137727692,
        "addr:housenumber": "58",
        "addr:postcode": "07910-210",
        "addr:street": "Rua João Mendes Junior",
        "addr:suburb": "Jardim Professor Francisco Morato",
        "amenity": "clinic",
        "healthcare": "clinic",
        "healthcare:speciality": "general",
        "name": "Unidade de Saúde da Família Terezinha Marques da Silva",
        "opening_hours": "Mo-Fr 07:00-16:00; Sa,SU,PH off",
        "operator": "Serviço de Assistência Médica de Francisco Morato - SAME",
        "operator:type": "private_non_profit",
        "phone": "+55 11 4608 2963",
        "ref:CNES": "2083698",
        "source": "CNES;http://www.saude.franciscomorato.sp.gov.br/site/index/unidade/11",
        "id": "way/1184663017"
      },
      "geometry": {
        "type": "Polygon",
        "coordinates": [
          [
            [
              -46.7442292,
              -23.2796743
            ],
            [
              -46.7441901,
              -23.2798314
            ],
            [
              -46.743954,
              -23.2797835
            ],
            [
              -46.7439914,
              -23.2796295
            ],
            [
              -46.7442292,
              -23.2796743
            ]
          ]
        ]
      }
    },
    {
      "type": "Feature",
      "id": "node/11018649735",
      "properties": {
        "timestamp": "2023-07-01T20:11:43Z",
        "version": 2,
        "changeset": 138004726,
        "addr:housenumber": "118",
        "addr:postcode": "07990-040",
        "addr:street": "Rua das Camélias",
        "addr:suburb": "Belém Capela",
        "amenity": "clinic",
        "contact:phone": "+55 11 4444 9965",
        "healthcare": "clinic",
        "healthcare:speciality": "hemodiálise",
        "name": "Imon - Instituto Moratense de Nefrologia",
        "opening_hours": "Mo-Sa 06:00-21:40; Su,PH off",
        "operator": "Instituto Moratense de Nefrologia",
        "operator:type": "private",
        "phone": "+55 11 48841 1023",
        "ref:CNES": "9716351",
        "id": "node/11018649735"
      },
      "geometry": {
        "type": "Point",
        "coordinates": [
          -46.7413493,
          -23.2768269
        ]
      }
    }
  ]
}
