{
  "type": "FeatureCollection",
  "features": [
    {
      "type": "Feature",
      "id": "way/989245002",
      "properties": {
        "timestamp": "2021-10-03T23:32:34Z",
        "version": 1,
        "changeset": 112051703,
        "addr:housenumber": "485",
        "addr:postcode": "07952-130",
        "addr:street": "Rua Odálio Barbosa do Nascimento",
        "addr:suburb": "Jardim Vassouras I",
        "amenity": "kindergarten",
        "email": "educacao@franciscomorato.sp.gov.br",
        "name": "Escola Municipal Almeida Júnior",
        "phone": "+55 11 4489 1284",
        "preschool": "yes",
        "ref": "INEP-35249646",
        "source": "CADMEC 2017;INEP",
        "id": "way/989245002"
      },
      "geometry": {
        "type": "Polygon",
        "coordinates": [
          [
            [
              -46.7288765,
              -23.2717894
            ],
            [
              -46.7289094,
              -23.2718554
            ],
            [
              -46.728784,
              -23.2719121
            ],
            [
              -46.728745,
              -23.2718385
            ],
            [
              -46.7288765,
              -23.2717894
            ]
          ]
        ]
      }
    },
    {
      "type": "Feature",
      "id": "way/989250412",
      "properties": {
        "timestamp": "2021-10-04T00:32:23Z",
        "version": 1,
        "changeset": 112052443,
        "addr:housenumber": "951",
        "addr:postcode": "07914-060",
        "addr:street": "Rua Olavo Bilac",
        "addr:suburb": "Jardim Magalhães",
        "amenity": "kindergarten",
        "email": "em.vereadoramado@franciscomorato.sp.gov.br",
        "name": "Escola Municipal Vereador Amado Pinto de Santana",
        "phone": "+55 11 4489 4447",
        "preschool": "yes",
        "ref": "INEP-35246724",
        "source": "CADMEC 2017;INEP",
        "id": "way/989250412"
      },
      "geometry": {
        "type": "Polygon",
        "coordinates": [
          [
            [
              -46.7559012,
              -23.2805536
            ],
            [
              -46.755928,
              -23.28063
            ],
            [
              -46.7557161,
              -23.2806867
            ],
            [
              -46.7556866,
              -23.2805955
            ],
            [
              -46.7559012,
              -23.2805536
            ]
          ]
        ]
      }
    },
    {
      "type": "Feature",
      "id": "way/995649049",
      "properties": {
        "timestamp": "2021-10-22T18:18:59Z",
        "version": 1,
        "changeset": 112850896,
        "addr:housenumber": "157",
        "addr:street": "Rua Peri",
        "addr:suburb": "Centro",
        "amenity": "kindergarten",
        "name": "Escola Infantil Menino jesus",
        "phone": "+55 11 4608 8396",
        "preschool": "yes",
        "id": "way/995649049"
      },
      "geometry": {
        "type": "Polygon",
        "coordinates": [
          [
            [
              -46.743292,
              -23.287494
            ],
            [
              -46.7431666,
              -23.2876488
            ],
            [
              -46.7428829,
              -23.2874506
            ],
            [
              -46.7430063,
              -23.2873033
            ],
            [
              -46.743292,
              -23.287494
            ]
          ]
        ]
      }
    },
    {
      "type": "Feature",
      "id": "node/9942997625",
      "properties": {
        "timestamp": "2022-08-09T16:24:21Z",
        "version": 1,
        "changeset": 124693792,
        "addr:housenumber": "648",
        "amenity": "kindergarten",
        "name": "Escola Municipal João Guimarães Rosa",
        "phone": "44892452",
        "id": "node/9942997625"
      },
      "geometry": {
        "type": "Point",
        "coordinates": [
          -46.749578,
          -23.2802436
        ]
      }
    }
  ]
}
