{
  "type": "FeatureCollection",
  "features": [
    {
      "type": "Feature",
      "id": "node/9472257749",
      "properties": {
        "timestamp": "2022-02-03T18:31:55Z",
        "version": 1,
        "changeset": 116976029,
        "addr:city": "Passagem Franca do Piauí",
        "addr:postcode": "64395-000",
        "addr:street": "Rua José Dutra Area Leão",
        "addr:suburb": "Centro",
        "amenity": "school",
        "name": "Escola Municipal Abdias Francisco Dos Santos",
        "id": "node/9472257749"
      },
      "geometry": {
        "type": "Point",
        "coordinates": [
          -42.4407341,
          -5.8603341
        ]
      }
    },
    {
      "type": "Feature",
      "id": "node/9472272681",
      "properties": {
        "timestamp": "2022-02-03T18:30:45Z",
        "version": 1,
        "changeset": 116975987,
        "addr:city": "Passagem Franca do Piauí",
        "addr:postcode": "64395-000",
        "addr:street": "Avenida Costa e Silva",
        "addr:suburb": "Centro",
        "amenity": "school",
        "name": "Escola Municipal Atila Lira",
        "id": "node/9472272681"
      },
      "geometry": {
        "type": "Point",
        "coordinates": [
          -42.4382959,
          -5.8575485
        ]
      }
    },
    {
      "type": "Feature",
      "id": "node/9472272682",
      "properties": {
        "timestamp": "2022-02-03T18:30:45Z",
        "version": 1,
        "changeset": 116975987,
        "addr:city": "Passagem Franca do Piauí",
        "addr:postcode": "64395-000",
        "addr:street": "Avenida Costa e Silva",
        "addr:suburb": "Centro",
        "amenity": "school",
        "name": "Creche Municipal Tia Anita",
        "id": "node/9472272682"
      },
      "geometry": {
        "type": "Point",
        "coordinates": [
          -42.4380143,
          -5.8576232
        ]
      }
    },
    {
      "type": "Feature",
      "id": "node/9472276243",
      "properties": {
        "timestamp": "2022-02-03T18:29:02Z",
        "version": 1,
        "changeset": 116975927,
        "amenity": "school",
        "name": "Escola Municipal Sagrado Coracao De Maria",
        "phone": "+55 86 3283 1110",
        "id": "node/9472276243"
      },
      "geometry": {
        "type": "Point",
        "coordinates": [
          -42.4224655,
          -5.8765725
        ]
      }
    },
    {
      "type": "Feature",
      "id": "node/9472291639",
      "properties": {
        "timestamp": "2022-02-03T18:29:53Z",
        "version": 1,
        "changeset": 116975960,
        "addr:city": "Passagem Franca do Piauí",
        "addr:housenumber": "756",
        "addr:postcode": "64395-000",
        "addr:street": "Avenida Costa e Silva",
        "addr:suburb": "Centro",
        "amenity": "school",
        "name": "U E Ditador Costa e Silva",
        "id": "node/9472291639"
      },
      "geometry": {
        "type": "Point",
        "coordinates": [
          -42.4385293,
          -5.8582396
        ]
      }
    },
    {
      "type": "Feature",
      "id": "node/9472291640",
      "properties": {
        "timestamp": "2022-02-03T18:31:30Z",
        "version": 1,
        "changeset": 116976015,
        "addr:city": "Passagem Franca do Piauí",
        "addr:housenumber": "860",
        "addr:postcode": "64395-000",
        "addr:street": "Rua Joel Rodrigues Pessoa",
        "addr:suburb": "Centro",
        "amenity": "school",
        "name": "Escola De Educacao Especial Pedro Bento",
        "id": "node/9472291640"
      },
      "geometry": {
        "type": "Point",
        "coordinates": [
          -42.4410211,
          -5.859603
        ]
      }
    },
    {
      "type": "Feature",
      "id": "node/9491025043",
      "properties": {
        "timestamp": "2022-02-08T23:14:49Z",
        "version": 1,
        "changeset": 117180081,
        "amenity": "school",
        "name": "Escola Municipal Manoel Placido",
        "id": "node/9491025043"
      },
      "geometry": {
        "type": "Point",
        "coordinates": [
          -42.4817799,
          -5.6606447
        ]
      }
    }
  ]
}
