{
  "type": "FeatureCollection",
  "features": [
    {
      "type": "Feature",
      "id": "way/1026830795",
      "properties": {
        "timestamp": "2022-02-01T20:42:16Z",
        "version": 1,
        "changeset": 116884690,
        "addr:city": "Vera Mendes",
        "addr:housenumber": "50",
        "addr:postcode": "64568-000",
        "addr:street": "Rua José Antônio da Vera",
        "addr:suburb": "Centro",
        "amenity": "school",
        "name": "Escola Municipal Jose Antonio Da Vera",
        "id": "way/1026830795"
      },
      "geometry": {
        "type": "Polygon",
        "coordinates": [
          [
            [
              -41.4833808,
              -7.6049903
            ],
            [
              -41.4833808,
              -7.605167
            ],
            [
              -41.4830039,
              -7.605106
            ],
            [
              -41.4830368,
              -7.6049418
            ],
            [
              -41.4833808,
              -7.6049903
            ]
          ]
        ]
      }
    },
    {
      "type": "Feature",
      "id": "way/1026830899",
      "properties": {
        "timestamp": "2022-02-01T20:42:49Z",
        "version": 1,
        "changeset": 116884719,
        "addr:city": "Vera Mendes",
        "addr:postcode": "64568-000",
        "addr:street": "Avenida Vereador José Mendes",
        "addr:suburb": "Centro",
        "amenity": "school",
        "name": "U E Joao Antonio Da Vera",
        "id": "way/1026830899"
      },
      "geometry": {
        "type": "Polygon",
        "coordinates": [
          [
            [
              -41.481707,
              -7.603516
            ],
            [
              -41.4816795,
              -7.6036878
            ],
            [
              -41.4814596,
              -7.6036511
            ],
            [
              -41.481499,
              -7.6034746
            ],
            [
              -41.481707,
              -7.603516
            ]
          ]
        ]
      }
    },
    {
      "type": "Feature",
      "id": "way/1026831377",
      "properties": {
        "timestamp": "2022-02-01T20:44:43Z",
        "version": 1,
        "changeset": 116884804,
        "addr:city": "Vera Mendes",
        "addr:housenumber": "269",
        "addr:postcode": "64568-000",
        "addr:suburb": "Centro",
        "amenity": "school",
        "name": "Ginasio Municipal Jose De Andrade Maia",
        "phone": "+55 89 3458 0078",
        "id": "way/1026831377"
      },
      "geometry": {
        "type": "Polygon",
        "coordinates": [
          [
            [
              -41.4798581,
              -7.6037262
            ],
            [
              -41.479808,
              -7.6039905
            ],
            [
              -41.4795607,
              -7.6039473
            ],
            [
              -41.4796186,
              -7.6036788
            ],
            [
              -41.4798581,
              -7.6037262
            ]
          ]
        ]
      }
    },
    {
      "type": "Feature",
      "id": "way/1026831608",
      "properties": {
        "timestamp": "2022-02-01T20:45:45Z",
        "version": 1,
        "changeset": 116884856,
        "amenity": "school",
        "name": "Escola Municipal Luis Jose De Sousa",
        "phone": "+55 89 3458 0078",
        "id": "way/1026831608"
      },
      "geometry": {
        "type": "Polygon",
        "coordinates": [
          [
            [
              -41.5683836,
              -7.547582
            ],
            [
              -41.5682545,
              -7.5477815
            ],
            [
              -41.5680928,
              -7.5476788
            ],
            [
              -41.5682219,
              -7.5474792
            ],
            [
              -41.5683836,
              -7.547582
            ]
          ]
        ]
      }
    },
    {
      "type": "Feature",
      "id": "way/1376564297",
      "properties": {
        "timestamp": "2025-04-10T20:48:43Z",
        "version": 1,
        "changeset": 164787337,
        "addr:city": "Vera Mendes",
        "amenity": "school",
        "id": "way/1376564297"
      },
      "geometry": {
        "type": "Polygon",
        "coordinates": [
          [
            [
              -41.4832908,
              -7.6058848
            ],
            [
              -41.48329,
              -7.6060992
            ],
            [
              -41.4830639,
              -7.6060951
            ],
            [
              -41.4830688,
              -7.6060186
            ],
            [
              -41.4830461,
              -7.6060186
            ],
            [
              -41.4830469,
              -7.6058783
            ],
            [
              -41.4832908,
              -7.6058848
            ]
          ]
        ]
      }
    },
    {
      "type": "Feature",
      "id": "node/6286851094",
      "properties": {
        "timestamp": "2022-02-01T20:41:37Z",
        "version": 2,
        "changeset": 116884660,
        "addr:city": "Vera Mendes",
        "addr:housenumber": "45",
        "addr:postcode": "64568-000",
        "addr:street": "Rua Rafael José da Vera",
        "addr:suburb": "Centro",
        "amenity": "school",
        "name": "Escola Municipal Maria Victoria",
        "id": "node/6286851094"
      },
      "geometry": {
        "type": "Point",
        "coordinates": [
          -41.4831519,
          -7.6060426
        ]
      }
    },
    {
      "type": "Feature",
      "id": "node/9467061000",
      "properties": {
        "timestamp": "2022-02-01T20:40:25Z",
        "version": 1,
        "changeset": 116884589,
        "amenity": "school",
        "name": "Escola Municipal Manoel Rodrigues Da Costa",
        "phone": "+55 89 3458 0078",
        "id": "node/9467061000"
      },
      "geometry": {
        "type": "Point",
        "coordinates": [
          -41.5082587,
          -7.6412186
        ]
      }
    },
    {
      "type": "Feature",
      "id": "node/9467065152",
      "properties": {
        "timestamp": "2022-02-01T20:43:38Z",
        "version": 1,
        "changeset": 116884755,
        "addr:city": "Vera Mendes",
        "addr:housenumber": "185",
        "addr:postcode": "64568-000",
        "addr:street": "Avenida Vereador José Mendes",
        "addr:suburb": "Centro",
        "amenity": "school",
        "name": "Escola Municipal Professor Joao Veras",
        "phone": "+55 89 3458 0078",
        "id": "node/9467065152"
      },
      "geometry": {
        "type": "Point",
        "coordinates": [
          -41.4811979,
          -7.6037841
        ]
      }
    }
  ]
}
