{
  "type": "FeatureCollection",
  "features": [
    {
      "type": "Feature",
      "id": "node/1671951925",
      "properties": {
        "timestamp": "2017-02-19T22:38:51Z",
        "version": 6,
        "changeset": 46228694,
        "amenity": "bicycle_rental",
        "name": "Casa Amarela",
        "id": "node/1671951925"
      },
      "geometry": {
        "type": "Point",
        "coordinates": [
          -37.9620867,
          -12.4920563
        ]
      }
    },
    {
      "type": "Feature",
      "id": "node/11917815340",
      "properties": {
        "timestamp": "2025-04-04T15:00:09Z",
        "version": 3,
        "changeset": 164513745,
        "addr:city": "Mata de São João",
        "addr:postcode": "48280-000",
        "addr:street": "Alameda do Sol",
        "addr:suburb": "Praia do Forte",
        "amenity": "bicycle_rental",
        "check_date": "2025-04-04",
        "check_date:currency:XBT": "2024-05-10",
        "currency:XBT": "yes",
        "description": "Tour na Vila, Passeios e Eventos.\nBicitáxi, Ecotáxi, Cicloriquixá.",
        "name": "Everton (BICITÁXI)",
        "opening_hours": "Seg-Dom 08:00H-19:00H",
        "payment:lightning": "yes",
        "payment:lightning_contactless": "yes",
        "payment:onchain": "yes",
        "phone": "71991081383",
        "survey:date": "2024-05-10",
        "id": "node/11917815340"
      },
      "geometry": {
        "type": "Point",
        "coordinates": [
          -38.0089155,
          -12.5773224
        ]
      }
    }
  ]
}
