{
  "type": "FeatureCollection",
  "features": [
    {
      "type": "Feature",
      "id": "node/4093297034",
      "properties": {
        "timestamp": "2024-04-08T14:11:22Z",
        "version": 5,
        "changeset": 149737631,
        "amenity": "hospital",
        "emergency": "yes",
        "healthcare": "hospital",
        "name": "Unidade de Pronto Atendimento",
        "opening_hours": "24/7",
        "survey:date": "2023-04-23",
        "id": "node/4093297034"
      },
      "geometry": {
        "type": "Point",
        "coordinates": [
          -38.0054917,
          -12.5764125
        ]
      }
    },
    {
      "type": "Feature",
      "id": "node/5586036169",
      "properties": {
        "timestamp": "2019-05-09T18:32:19Z",
        "version": 2,
        "changeset": 70085523,
        "addr:city": "Mata de São João",
        "addr:street": "Rua Murilo Moreira",
        "addr:suburb": "Centro",
        "amenity": "hospital",
        "healthcare": "hospital",
        "name": "Hospital Municipal Dr. Eurico Goulart de Freitas",
        "phone": "+55 71 3635-1458",
        "id": "node/5586036169"
      },
      "geometry": {
        "type": "Point",
        "coordinates": [
          -38.2973339,
          -12.5279835
        ]
      }
    }
  ]
}
