{
  "type": "FeatureCollection",
  "features": [
    {
      "type": "Feature",
      "id": "node/5284265241",
      "properties": {
        "timestamp": "2018-10-30T03:20:16Z",
        "version": 2,
        "changeset": 63997522,
        "addr:city": "Paudalho",
        "addr:postcode": "55825-000",
        "addr:street": "Avenida Pacheco Leite Filho",
        "addr:suburb": "centro",
        "amenity": "pharmacy",
        "healthcare": "pharmacy",
        "name": "Farmacia Confiança",
        "id": "node/5284265241"
      },
      "geometry": {
        "type": "Point",
        "coordinates": [
          -35.1764282,
          -7.8976806
        ]
      }
    },
    {
      "type": "Feature",
      "id": "node/5284477244",
      "properties": {
        "timestamp": "2018-10-30T03:20:18Z",
        "version": 2,
        "changeset": 63997522,
        "addr:city": "Paudalho",
        "addr:postcode": "55825-000",
        "addr:street": "Avenida Pacheco Leite Filho",
        "addr:suburb": "centro",
        "amenity": "pharmacy",
        "healthcare": "pharmacy",
        "name": "Farmacia São João",
        "id": "node/5284477244"
      },
      "geometry": {
        "type": "Point",
        "coordinates": [
          -35.1764821,
          -7.8969829
        ]
      }
    }
  ]
}
