{
  "type": "FeatureCollection",
  "features": [
    {
      "type": "Feature",
      "id": "way/1017213533",
      "properties": {
        "timestamp": "2021-12-31T19:01:36Z",
        "version": 1,
        "changeset": 115620033,
        "addr:city": "Mucurici",
        "addr:postcode": "29880-000",
        "addr:street": "Rua Coronel Vidilino de Lima",
        "addr:suburb": "Centro",
        "building": "yes",
        "government": "register_office",
        "name": "Cartório de Registro Civil de Mucurici",
        "office": "government",
        "id": "way/1017213533"
      },
      "geometry": {
        "type": "Polygon",
        "coordinates": [
          [
            [
              -40.5166471,
              -18.0941148
            ],
            [
              -40.5165377,
              -18.0941829
            ],
            [
              -40.5165,
              -18.0941492
            ],
            [
              -40.5165747,
              -18.0940453
            ],
            [
              -40.5166386,
              -18.0940819
            ],
            [
              -40.5166471,
              -18.0941148
            ]
          ]
        ]
      }
    },
    {
      "type": "Feature",
      "id": "way/1017213555",
      "properties": {
        "timestamp": "2021-12-31T19:01:36Z",
        "version": 1,
        "changeset": 115620033,
        "addr:city": "Mucurici",
        "addr:postcode": "29880-000",
        "addr:street": "Rua Presidente Kennedy",
        "addr:suburb": "Centro",
        "building": "yes",
        "government": "prosecutor",
        "name": "Ministério Público Estado do Espírito Santo em Mucurici",
        "office": "government",
        "phone": "+55 27 3751 1114",
        "id": "way/1017213555"
      },
      "geometry": {
        "type": "Polygon",
        "coordinates": [
          [
            [
              -40.5195238,
              -18.0951432
            ],
            [
              -40.5194498,
              -18.0952779
            ],
            [
              -40.519419,
              -18.0952662
            ],
            [
              -40.5194067,
              -18.095234
            ],
            [
              -40.519436,
              -18.0951754
            ],
            [
              -40.5194051,
              -18.0951652
            ],
            [
              -40.5194375,
              -18.0951007
            ],
            [
              -40.5195238,
              -18.0951432
            ]
          ]
        ]
      }
    }
  ]
}
