{
  "type": "FeatureCollection",
  "features": [
    {
      "type": "Feature",
      "id": "way/1017979658",
      "properties": {
        "timestamp": "2022-01-03T22:03:16Z",
        "version": 1,
        "changeset": 115730205,
        "IJSN:administra": "Estadual",
        "IJSN:classeCnae": "Fundamental e Médio",
        "addr:city": "Mucurici",
        "addr:housenumber": "6",
        "addr:postcode": "29880-000",
        "addr:street": "Rua Rouxinol",
        "addr:suburb": "Planalto",
        "alt_name": "Escola Estadual de Ensino Fundamental e Médio",
        "amenity": "school",
        "building": "yes",
        "building:levels": "2",
        "contact:phone": "(27) 3751-1207",
        "name": "Escola Estadual de Ensino Fundamental e Médio de Mucurici",
        "operator": "Secretaria de Estado da Educação",
        "operator:type": "government",
        "source": "IJSN",
        "id": "way/1017979658"
      },
      "geometry": {
        "type": "Polygon",
        "coordinates": [
          [
            [
              -40.5218551,
              -18.0963235
            ],
            [
              -40.5216729,
              -18.096633
            ],
            [
              -40.5214941,
              -18.0965421
            ],
            [
              -40.521687,
              -18.0962377
            ],
            [
              -40.5218551,
              -18.0963235
            ]
          ]
        ]
      }
    },
    {
      "type": "Feature",
      "id": "node/3057095909",
      "properties": {
        "timestamp": "2021-03-06T20:24:54Z",
        "version": 4,
        "changeset": 100551790,
        "IJSN:administra": "Municipal",
        "IJSN:classeCnae": "Fundamental",
        "addr:city": "Mucurici",
        "addr:postcode": "29880-000",
        "addr:street": "Rua Presidente Castelo Branco",
        "addr:suburb": "Planalto",
        "alt_name": "Escola Municipal de Ensino Fundamental",
        "amenity": "school",
        "contact:phone": "+55 27 3751-1358",
        "name": "EMEF Professor José Sarmento Roque",
        "source": "IJSN",
        "wheelchair": "yes",
        "id": "node/3057095909"
      },
      "geometry": {
        "type": "Point",
        "coordinates": [
          -40.5206683,
          -18.0951258
        ]
      }
    },
    {
      "type": "Feature",
      "id": "node/4024904886",
      "properties": {
        "timestamp": "2016-02-25T01:59:47Z",
        "version": 1,
        "changeset": 37426154,
        "IJSN:administra": "Estadual",
        "IJSN:classeCnae": "Médio",
        "addr:city": "Mucurici",
        "addr:housenumber": "15",
        "addr:postcode": "29884-000",
        "addr:street": "Rua Itabunas",
        "addr:suburb": "Centro",
        "alt_name": "Escola Estadual de Ensino Médio",
        "amenity": "school",
        "contact:phone": "(27) 3751-3298",
        "name": "EEEM de Itabaiana",
        "source": "IJSN",
        "id": "node/4024904886"
      },
      "geometry": {
        "type": "Point",
        "coordinates": [
          -40.5527057,
          -17.9376995
        ]
      }
    },
    {
      "type": "Feature",
      "id": "node/4024905276",
      "properties": {
        "timestamp": "2016-02-25T02:00:17Z",
        "version": 1,
        "changeset": 37426154,
        "IJSN:administra": "Municipal",
        "IJSN:classeCnae": "Fundamental",
        "addr:city": "Mucurici",
        "addr:housenumber": "195",
        "addr:postcode": "29880-000",
        "addr:street": "Rua José Senilde Souza Lisboa",
        "addr:suburb": "Centro",
        "alt_name": "Escola Municipal de Ensino Fundamental",
        "amenity": "school",
        "contact:phone": "(27) 3751-3204",
        "name": "EMEF Beijamim Mendes de Souza",
        "source": "IJSN",
        "id": "node/4024905276"
      },
      "geometry": {
        "type": "Point",
        "coordinates": [
          -40.5478814,
          -17.939209
        ]
      }
    },
    {
      "type": "Feature",
      "id": "node/4024906176",
      "properties": {
        "timestamp": "2023-05-09T12:14:28Z",
        "version": 2,
        "changeset": 135893210,
        "IJSN:administra": "Municipal",
        "IJSN:classeCnae": "Infantil e Fundamental",
        "addr:city": "Mucurici",
        "addr:postcode": "29880-000",
        "addr:street": "Rua Marta Barbosa",
        "addr:suburb": "Comunidade Água Boa",
        "alt_name": "Escola Municipal Pluridocente de Ensino Fundamental",
        "amenity": "school",
        "contact:phone": "+55 27 3751 4025",
        "name": "EMPEF Água Boa",
        "source": "IJSN",
        "id": "node/4024906176"
      },
      "geometry": {
        "type": "Point",
        "coordinates": [
          -40.3967317,
          -17.9817187
        ]
      }
    },
    {
      "type": "Feature",
      "id": "node/4024906672",
      "properties": {
        "timestamp": "2016-02-25T02:02:24Z",
        "version": 1,
        "changeset": 37426154,
        "IJSN:administra": "Municipal",
        "IJSN:classeCnae": "Infantil e Fundamental",
        "addr:city": "Mucurici",
        "addr:postcode": "29880-000",
        "addr:suburb": "Comunidade Senhor da Luz",
        "alt_name": "Escola Municipal Pluridocente de Ensino Fundamental",
        "amenity": "school",
        "contact:phone": "(27) 3751-5003",
        "name": "EP Verino Sossai",
        "source": "IJSN",
        "id": "node/4024906672"
      },
      "geometry": {
        "type": "Point",
        "coordinates": [
          -40.6361778,
          -18.0300894
        ]
      }
    }
  ]
}
