{
  "type": "FeatureCollection",
  "features": [
    {
      "type": "Feature",
      "id": "way/1253655873",
      "properties": {
        "timestamp": "2024-02-22T15:58:06Z",
        "version": 1,
        "changeset": 147779368,
        "amenity": "school",
        "name": "EMEF Missionários Combonianos",
        "operator": "Prefeitura Municipal",
        "operator:type": "public",
        "id": "way/1253655873"
      },
      "geometry": {
        "type": "Polygon",
        "coordinates": [
          [
            [
              -40.3843056,
              -19.7516881
            ],
            [
              -40.3841734,
              -19.7516702
            ],
            [
              -40.384177,
              -19.7514694
            ],
            [
              -40.3841595,
              -19.751303
            ],
            [
              -40.3842486,
              -19.7511991
            ],
            [
              -40.3844993,
              -19.7511324
            ],
            [
              -40.3845424,
              -19.7512775
            ],
            [
              -40.384595,
              -19.7515155
            ],
            [
              -40.3845307,
              -19.7517156
            ],
            [
              -40.3843056,
              -19.7516881
            ]
          ]
        ]
      }
    },
    {
      "type": "Feature",
      "id": "way/1253655874",
      "properties": {
        "timestamp": "2024-02-22T15:58:06Z",
        "version": 1,
        "changeset": 147779368,
        "amenity": "school",
        "name": "EMEF Missionários Combonianos",
        "id": "way/1253655874"
      },
      "geometry": {
        "type": "Polygon",
        "coordinates": [
          [
            [
              -40.3845333,
              -19.7514226
            ],
            [
              -40.384572,
              -19.7514719
            ],
            [
              -40.3845857,
              -19.7515142
            ],
            [
              -40.3845202,
              -19.7517027
            ],
            [
              -40.3842987,
              -19.7516628
            ],
            [
              -40.3843773,
              -19.7514015
            ],
            [
              -40.3845333,
              -19.7514226
            ]
          ]
        ]
      }
    },
    {
      "type": "Feature",
      "id": "node/3281238013",
      "properties": {
        "timestamp": "2015-01-10T23:04:11Z",
        "version": 1,
        "changeset": 28052073,
        "amenity": "school",
        "id": "node/3281238013"
      },
      "geometry": {
        "type": "Point",
        "coordinates": [
          -40.3600265,
          -19.729356
        ]
      }
    },
    {
      "type": "Feature",
      "id": "node/3281238014",
      "properties": {
        "timestamp": "2019-07-11T17:33:19Z",
        "version": 3,
        "changeset": 72146221,
        "IJSN:administra": "Municipal",
        "IJSN:classeCnae": "Infantil e Fundamental",
        "addr:city": "João Neiva",
        "addr:housenumber": "13",
        "addr:postcode": "29680-000",
        "addr:street": "Avenida José Rebuzzi Sarcinelli",
        "addr:suburb": "Cristal",
        "alt_name": "Escola Municipal de Ensino Infantil e Fundamental",
        "amenity": "school",
        "contact:phone": "+55 27 3258-1480",
        "name": "EMEIF José Rebuzzi Sarcinelli",
        "source": "IJSN",
        "id": "node/3281238014"
      },
      "geometry": {
        "type": "Point",
        "coordinates": [
          -40.3609964,
          -19.7301932
        ]
      }
    },
    {
      "type": "Feature",
      "id": "node/4024903385",
      "properties": {
        "timestamp": "2018-01-01T23:47:50Z",
        "version": 4,
        "changeset": 55088883,
        "IJSN:administra": "Privada",
        "IJSN:classeCnae": "Infantil e Fundamental",
        "addr:city": "João Neiva",
        "addr:housenumber": "30",
        "addr:postcode": "29680-000",
        "addr:street": "Praça Nossa Senhora do Líbano",
        "addr:suburb": "Centro",
        "alt_name": "Centro Educacional",
        "amenity": "school",
        "contact:phone": "(27) 3258-1198",
        "name": "Escola Casa do Estudante",
        "source": "IJSN",
        "id": "node/4024903385"
      },
      "geometry": {
        "type": "Point",
        "coordinates": [
          -40.3848612,
          -19.7565311
        ]
      }
    },
    {
      "type": "Feature",
      "id": "node/4024904815",
      "properties": {
        "timestamp": "2018-01-01T23:47:50Z",
        "version": 3,
        "changeset": 55088883,
        "IJSN:administra": "Estadual",
        "IJSN:classeCnae": "Fundamental e Médio",
        "addr:city": "João Neiva",
        "addr:housenumber": "97",
        "addr:postcode": "29680-000",
        "addr:street": "Rua Lúcia Cometti",
        "addr:suburb": "Centro",
        "alt_name": "Escola Estadual de Ensino Fundamental e Médio",
        "amenity": "school",
        "contact:phone": "(27) 3258-1116",
        "name": "EEEFM João Neiva",
        "source": "IJSN",
        "id": "node/4024904815"
      },
      "geometry": {
        "type": "Point",
        "coordinates": [
          -40.3820572,
          -19.7569958
        ]
      }
    },
    {
      "type": "Feature",
      "id": "node/4024905275",
      "properties": {
        "timestamp": "2018-05-25T13:06:40Z",
        "version": 4,
        "changeset": 59270790,
        "IJSN:administra": "Municipal",
        "IJSN:classeCnae": "Fundamental",
        "addr:city": "João Neiva",
        "addr:housenumber": "60",
        "addr:postcode": "29680-000",
        "addr:street": "Rua Negri Orestes",
        "addr:suburb": "Centro",
        "alt_name": "Escola Municipal de Ensino Fundamental",
        "amenity": "school",
        "contact:phone": "(27) 3258-2333",
        "name": "EMEF Barão de Monjardim",
        "source": "IJSN",
        "id": "node/4024905275"
      },
      "geometry": {
        "type": "Point",
        "coordinates": [
          -40.3849003,
          -19.7571061
        ]
      }
    },
    {
      "type": "Feature",
      "id": "node/4024905617",
      "properties": {
        "timestamp": "2016-02-25T02:00:41Z",
        "version": 1,
        "changeset": 37426154,
        "IJSN:administra": "Municipal",
        "IJSN:classeCnae": "Fundamental",
        "addr:city": "João Neiva",
        "addr:postcode": "29680-000",
        "addr:street": "Rua Tabelião Alfredo Almeida",
        "addr:suburb": "Santa Luzia",
        "alt_name": "Escola Municipal de Ensino Fundamental",
        "amenity": "school",
        "contact:phone": "(27) 3258-2351",
        "name": "EMEF Missionários Combonianos",
        "source": "IJSN",
        "id": "node/4024905617"
      },
      "geometry": {
        "type": "Point",
        "coordinates": [
          -40.3844539,
          -19.7515189
        ]
      }
    },
    {
      "type": "Feature",
      "id": "node/4024905653",
      "properties": {
        "timestamp": "2018-01-01T23:47:51Z",
        "version": 3,
        "changeset": 55088883,
        "IJSN:administra": "Municipal",
        "IJSN:classeCnae": "Fundamental",
        "addr:city": "João Neiva",
        "addr:housenumber": "216",
        "addr:postcode": "29680-000",
        "addr:street": "Rua Paulo Zeni",
        "addr:suburb": "Vila Nova de Baixo",
        "alt_name": "Escola Municipal de Ensino Fundamental",
        "amenity": "school",
        "contact:phone": "(27) 3258-3126",
        "name": "EMEF Pedro Nolasco",
        "source": "IJSN",
        "id": "node/4024905653"
      },
      "geometry": {
        "type": "Point",
        "coordinates": [
          -40.3855632,
          -19.7599904
        ]
      }
    },
    {
      "type": "Feature",
      "id": "node/4024905678",
      "properties": {
        "timestamp": "2018-01-01T23:47:51Z",
        "version": 3,
        "changeset": 55088883,
        "IJSN:administra": "Municipal",
        "IJSN:classeCnae": "Fundamental",
        "addr:city": "João Neiva",
        "addr:housenumber": "398",
        "addr:postcode": "29680-000",
        "addr:street": "Rua Negri Orestes",
        "addr:suburb": "Centro",
        "alt_name": "Escola Municipal de Ensino Fundamental",
        "amenity": "school",
        "contact:phone": "(27) 3258-1155",
        "name": "EMEF Professora Maria Oliria Sarcinelli Campagnaro",
        "source": "IJSN",
        "id": "node/4024905678"
      },
      "geometry": {
        "type": "Point",
        "coordinates": [
          -40.3819728,
          -19.7566459
        ]
      }
    },
    {
      "type": "Feature",
      "id": "node/4024905965",
      "properties": {
        "timestamp": "2018-01-01T23:47:51Z",
        "version": 3,
        "changeset": 55088883,
        "IJSN:administra": "Municipal",
        "IJSN:classeCnae": "Infantil e Fundamental",
        "addr:city": "João Neiva",
        "addr:housenumber": "290",
        "addr:postcode": "29680-000",
        "addr:street": "Rua Marcos Chaves",
        "addr:suburb": "Cohab",
        "alt_name": "Escola Municipal de Ensino Infantil e Fundamental",
        "amenity": "school",
        "contact:phone": "(27) 3258-1009",
        "name": "EMEIF Doutor Orlindo Francisco Borges",
        "source": "IJSN",
        "id": "node/4024905965"
      },
      "geometry": {
        "type": "Point",
        "coordinates": [
          -40.377322,
          -19.75569
        ]
      }
    },
    {
      "type": "Feature",
      "id": "node/4024905966",
      "properties": {
        "timestamp": "2016-02-25T02:01:22Z",
        "version": 1,
        "changeset": 37426154,
        "IJSN:administra": "Municipal",
        "IJSN:classeCnae": "Infantil e Fundamental",
        "addr:city": "João Neiva",
        "addr:postcode": "29680-000",
        "addr:street": "Rua Felipe Raizer",
        "addr:suburb": "Acioli",
        "alt_name": "Escola Municipal de Ensino Infantil e Fundamental",
        "amenity": "school",
        "contact:phone": "(27) 3278-1136",
        "name": "EMEIF Guilherme Baptista",
        "source": "IJSN",
        "id": "node/4024905966"
      },
      "geometry": {
        "type": "Point",
        "coordinates": [
          -40.4646748,
          -19.657511
        ]
      }
    },
    {
      "type": "Feature",
      "id": "node/4024906191",
      "properties": {
        "timestamp": "2016-02-25T02:01:42Z",
        "version": 1,
        "changeset": 37426154,
        "IJSN:administra": "Municipal",
        "IJSN:classeCnae": "Infantil e Fundamental",
        "addr:city": "João Neiva",
        "addr:postcode": "29680-000",
        "addr:suburb": "Comunidade Barra do Triunfo",
        "alt_name": "Escola Municipal Pluridocente de Ensino Infantil e Fundamental",
        "amenity": "school",
        "contact:phone": "(27) 3278-3190",
        "name": "EMPEIF Barra do Triunfo",
        "source": "IJSN",
        "id": "node/4024906191"
      },
      "geometry": {
        "type": "Point",
        "coordinates": [
          -40.5018906,
          -19.6972574
        ]
      }
    },
    {
      "type": "Feature",
      "id": "node/4024906192",
      "properties": {
        "timestamp": "2016-02-25T02:01:42Z",
        "version": 1,
        "changeset": 37426154,
        "IJSN:administra": "Municipal",
        "IJSN:classeCnae": "Infantil e Fundamental",
        "addr:city": "João Neiva",
        "addr:postcode": "29680-000",
        "addr:street": "Rua Corbiniano Nestor Pereira",
        "addr:suburb": "Centro",
        "alt_name": "Escola Municipal Pluridocente de Ensino Infantil e Fundamental",
        "amenity": "school",
        "contact:phone": "(27) 3258-5161",
        "name": "EMPEIF Cavalinho",
        "source": "IJSN",
        "id": "node/4024906192"
      },
      "geometry": {
        "type": "Point",
        "coordinates": [
          -40.3908681,
          -19.6889166
        ]
      }
    },
    {
      "type": "Feature",
      "id": "node/4024906193",
      "properties": {
        "timestamp": "2016-02-25T02:01:42Z",
        "version": 1,
        "changeset": 37426154,
        "IJSN:administra": "Municipal",
        "IJSN:classeCnae": "Infantil e Fundamental",
        "addr:city": "João Neiva",
        "addr:housenumber": "42",
        "addr:postcode": "29680-000",
        "addr:street": "Rua Ivair Rodrigues Pires",
        "addr:suburb": "Santo Afonso",
        "alt_name": "Escola Municipal Pluridocente de Ensino Infantil e Fundamental",
        "amenity": "school",
        "contact:phone": "(27) 3258-1697",
        "name": "EMPEIF Santo Afonso",
        "source": "IJSN",
        "id": "node/4024906193"
      },
      "geometry": {
        "type": "Point",
        "coordinates": [
          -40.3740166,
          -19.7324856
        ]
      }
    }
  ]
}
