{
  "type": "FeatureCollection",
  "features": [
    {
      "type": "Feature",
      "id": "way/627048202",
      "properties": {
        "timestamp": "2022-06-06T22:18:59Z",
        "version": 4,
        "changeset": 122045162,
        "addr:city": "Caratinga",
        "addr:housenumber": "84",
        "addr:street": "Rua Antônio Cimini",
        "addr:suburb": "Santa Zita",
        "building": "hotel",
        "name": "Go Inn Caratinga",
        "phone": "+55 33 4003-4672",
        "tourism": "hotel",
        "id": "way/627048202"
      },
      "geometry": {
        "type": "Polygon",
        "coordinates": [
          [
            [
              -42.1350364,
              -19.7888518
            ],
            [
              -42.1352013,
              -19.7888155
            ],
            [
              -42.135444,
              -19.7889026
            ],
            [
              -42.1354579,
              -19.7890307
            ],
            [
              -42.1350953,
              -19.7891005
            ],
            [
              -42.1350364,
              -19.7888518
            ]
          ]
        ]
      }
    },
    {
      "type": "Feature",
      "id": "node/6534981188",
      "properties": {
        "timestamp": "2019-06-10T01:40:28Z",
        "version": 2,
        "changeset": 71084479,
        "addr:housenumber": "2663",
        "addr:postcode": "35300571",
        "addr:street": "Av. Presidente Tancredo Neves, Caratinga MG",
        "email": "hotelzacariascaratinga@gmail.com",
        "internet_access": "wlan",
        "name": "Hotel Zacarias",
        "opening_hours": "24/7",
        "operator": "Fábio",
        "phone": "+55 033 3322-1299",
        "tourism": "hotel",
        "id": "node/6534981188"
      },
      "geometry": {
        "type": "Point",
        "coordinates": [
          -42.1318858,
          -19.7688347
        ]
      }
    }
  ]
}
