{
  "type": "FeatureCollection",
  "features": [
    {
      "type": "Feature",
      "id": "node/5318683575",
      "properties": {
        "timestamp": "2022-07-28T19:32:57Z",
        "version": 3,
        "changeset": 124200810,
        "addr:city": "Caratinga",
        "addr:housenumber": "43",
        "addr:street": "Rua Raul Soares",
        "addr:suburb": "Centro",
        "amenity": "pharmacy",
        "healthcare": "pharmacy",
        "name": "Centralfarma",
        "phone": "+55 33 3322 7100",
        "id": "node/5318683575"
      },
      "geometry": {
        "type": "Point",
        "coordinates": [
          -42.1422524,
          -19.7887881
        ]
      }
    },
    {
      "type": "Feature",
      "id": "node/5318683576",
      "properties": {
        "timestamp": "2022-07-17T13:35:00Z",
        "version": 6,
        "changeset": 123721517,
        "addr:city": "Caratinga",
        "addr:housenumber": "9",
        "addr:street": "Rua Raul Soares",
        "addr:suburb": "Centro",
        "amenity": "pharmacy",
        "healthcare": "pharmacy",
        "name": "Farmácia Indiana",
        "opening_hours": "Mo-Su 07:00-23:59",
        "phone": "+55 33 3321 5000",
        "id": "node/5318683576"
      },
      "geometry": {
        "type": "Point",
        "coordinates": [
          -42.1418673,
          -19.7887283
        ]
      }
    },
    {
      "type": "Feature",
      "id": "node/5318683577",
      "properties": {
        "timestamp": "2019-10-04T13:34:22Z",
        "version": 2,
        "changeset": 75286177,
        "addr:city": "Caratinga",
        "addr:housenumber": "86",
        "addr:postcode": "35300-028",
        "addr:street": "Rua Miguel de Castro",
        "addr:suburb": "Centro",
        "amenity": "pharmacy",
        "healthcare": "pharmacy",
        "name": "Farmácia Indiana",
        "id": "node/5318683577"
      },
      "geometry": {
        "type": "Point",
        "coordinates": [
          -42.1403889,
          -19.788834
        ]
      }
    },
    {
      "type": "Feature",
      "id": "node/5318683578",
      "properties": {
        "timestamp": "2018-04-28T13:47:52Z",
        "version": 5,
        "changeset": 58504563,
        "addr:city": "Caratinga",
        "addr:housenumber": "90",
        "addr:street": "Avenida Olegário Maciel",
        "addr:suburb": "Centro",
        "amenity": "pharmacy",
        "drive_through": "no",
        "healthcare": "pharmacy",
        "name": "Drogarias Pacheco",
        "opening_hours": "Mo-Su 07:00-23:00",
        "id": "node/5318683578"
      },
      "geometry": {
        "type": "Point",
        "coordinates": [
          -42.1418031,
          -19.78706
        ]
      }
    },
    {
      "type": "Feature",
      "id": "node/5362462390",
      "properties": {
        "timestamp": "2018-10-07T22:55:49Z",
        "version": 6,
        "changeset": 63291697,
        "addr:street": "Rua Capitão Paiva",
        "amenity": "pharmacy",
        "healthcare": "pharmacy",
        "name": "Plena",
        "id": "node/5362462390"
      },
      "geometry": {
        "type": "Point",
        "coordinates": [
          -42.1460173,
          -19.7893766
        ]
      }
    },
    {
      "type": "Feature",
      "id": "node/5363254496",
      "properties": {
        "timestamp": "2018-01-31T18:39:57Z",
        "version": 3,
        "changeset": 55942322,
        "addr:postcode": "35300-036",
        "amenity": "pharmacy",
        "healthcare": "pharmacy",
        "name": "Drogaria Líder",
        "id": "node/5363254496"
      },
      "geometry": {
        "type": "Point",
        "coordinates": [
          -42.1391761,
          -19.7909582
        ]
      }
    },
    {
      "type": "Feature",
      "id": "node/5380220575",
      "properties": {
        "timestamp": "2018-11-17T01:59:36Z",
        "version": 3,
        "changeset": 64587364,
        "addr:city": "Caratinga",
        "addr:housenumber": "659",
        "addr:street": "Rua Princesa Isabel",
        "addr:suburb": "Santo Antônio",
        "amenity": "pharmacy",
        "drive_through": "no",
        "healthcare": "pharmacy",
        "name": "Drogaria Lida",
        "phone": "+55 33 3321-1448",
        "id": "node/5380220575"
      },
      "geometry": {
        "type": "Point",
        "coordinates": [
          -42.1515197,
          -19.7923099
        ]
      }
    },
    {
      "type": "Feature",
      "id": "node/5468019051",
      "properties": {
        "timestamp": "2018-04-25T20:01:09Z",
        "version": 2,
        "changeset": 58420313,
        "addr:city": "Caratinga",
        "addr:postcode": "35300-020",
        "addr:street": "Rua Raul Soares",
        "addr:suburb": "Centro",
        "amenity": "pharmacy",
        "dispensing": "yes",
        "healthcare": "pharmacy",
        "name": "Drogacenter",
        "id": "node/5468019051"
      },
      "geometry": {
        "type": "Point",
        "coordinates": [
          -42.1425134,
          -19.7886506
        ]
      }
    }
  ]
}
