{
  "type": "FeatureCollection",
  "features": [
    {
      "type": "Feature",
      "id": "way/555996504",
      "properties": {
        "timestamp": "2018-09-30T00:22:46Z",
        "version": 2,
        "changeset": 63051170,
        "addr:city": "Maceió",
        "addr:housenumber": "1381",
        "addr:postcode": "57017230",
        "addr:street": "Rua General Hermes",
        "addr:suburb": "Bom Parto",
        "amenity": "arts_centre",
        "building": "house",
        "description": "Associação dos violeiros e trovadores de Alagoas.",
        "name": "Associação dos Violeiros e Tocadores de Alagoas",
        "opening_hours": "Mo-Fr 08:00-17:00",
        "id": "way/555996504"
      },
      "geometry": {
        "type": "Polygon",
        "coordinates": [
          [
            [
              -35.7434004,
              -9.6477882
            ],
            [
              -35.7433894,
              -9.6478167
            ],
            [
              -35.7432249,
              -9.6477506
            ],
            [
              -35.743234,
              -9.6477245
            ],
            [
              -35.7434004,
              -9.6477882
            ]
          ]
        ]
      }
    },
    {
      "type": "Feature",
      "id": "way/741047840",
      "properties": {
        "timestamp": "2019-11-01T17:30:17Z",
        "version": 1,
        "changeset": 76508122,
        "addr:city": "Maceió",
        "addr:housenumber": "157",
        "addr:postcode": "57022-180",
        "addr:street": "Rua Sá e Albuquerque",
        "addr:suburb": "Jaraguá",
        "amenity": "arts_centre",
        "building": "yes",
        "name": "IPHAN",
        "website": "http://portal.iphan.gov.br",
        "id": "way/741047840"
      },
      "geometry": {
        "type": "Polygon",
        "coordinates": [
          [
            [
              -35.7214843,
              -9.6731243
            ],
            [
              -35.7216855,
              -9.673394
            ],
            [
              -35.7214762,
              -9.6735341
            ],
            [
              -35.7212643,
              -9.6733173
            ],
            [
              -35.7214843,
              -9.6731243
            ]
          ]
        ]
      }
    },
    {
      "type": "Feature",
      "id": "node/5363625657",
      "properties": {
        "timestamp": "2018-10-29T15:30:47Z",
        "version": 3,
        "changeset": 63982098,
        "addr:city": "Maceió",
        "addr:housenumber": "1381",
        "addr:postcode": "57017230",
        "addr:street": "Rua General Hermes",
        "addr:suburb": "Bom Parto",
        "amenity": "arts_centre",
        "description": "Associação dos violeiros e tovadores Alagoas, dedicada aos músicos de Alagoas",
        "name": "Associação dos Violeiros e Tocadores de Alagoas",
        "opening_hours": "Mo-Sa 08:00-18:00",
        "id": "node/5363625657"
      },
      "geometry": {
        "type": "Point",
        "coordinates": [
          -35.7433125,
          -9.6477707
        ]
      }
    }
  ]
}
