{
  "type": "FeatureCollection",
  "features": [
    {
      "type": "Feature",
      "id": "way/1032963466",
      "properties": {
        "timestamp": "2022-02-18T17:51:09Z",
        "version": 1,
        "changeset": 117575798,
        "addr:city": "Alvorada",
        "addr:postcode": "77480-000",
        "addr:street": "Rua Dois",
        "addr:suburb": "Setor Alvoradinha",
        "amenity": "school",
        "name": "Centro Municipal De Educacao Infantil Liomar De Souza Barros",
        "phone": "+55 63 3353 1971",
        "id": "way/1032963466"
      },
      "geometry": {
        "type": "Polygon",
        "coordinates": [
          [
            [
              -49.1198557,
              -12.4703652
            ],
            [
              -49.1199413,
              -12.4706287
            ],
            [
              -49.1194781,
              -12.4707404
            ],
            [
              -49.1193915,
              -12.4704769
            ],
            [
              -49.1198557,
              -12.4703652
            ]
          ]
        ]
      }
    },
    {
      "type": "Feature",
      "id": "way/1032963980",
      "properties": {
        "timestamp": "2022-02-18T17:53:49Z",
        "version": 1,
        "changeset": 117575915,
        "addr:city": "Alvorada",
        "addr:postcode": "77480-000",
        "addr:street": "Avenida Industrial",
        "addr:suburb": "Setor Santa Angela",
        "amenity": "school",
        "name": "Creche Municipal Arco-Iris",
        "phone": "+55 63 3353 2087",
        "id": "way/1032963980"
      },
      "geometry": {
        "type": "Polygon",
        "coordinates": [
          [
            [
              -49.1233731,
              -12.4741879
            ],
            [
              -49.1236303,
              -12.4749665
            ],
            [
              -49.1235889,
              -12.47498
            ],
            [
              -49.1230072,
              -12.4748367
            ],
            [
              -49.1228588,
              -12.4743581
            ],
            [
              -49.1233731,
              -12.4741879
            ]
          ]
        ]
      }
    },
    {
      "type": "Feature",
      "id": "way/1032963981",
      "properties": {
        "timestamp": "2022-02-18T17:53:49Z",
        "version": 1,
        "changeset": 117575915,
        "addr:city": "Alvorada",
        "addr:postcode": "77480-000",
        "addr:street": "Avenida Adelino Pinheiro de Queiros",
        "addr:suburb": "Centro",
        "amenity": "school",
        "name": "Escola Municipal Professora Filomena Rocha Soares",
        "phone": "+55 63 3353 1973",
        "id": "way/1032963981"
      },
      "geometry": {
        "type": "Polygon",
        "coordinates": [
          [
            [
              -49.1241031,
              -12.4767489
            ],
            [
              -49.1239331,
              -12.4770524
            ],
            [
              -49.1237476,
              -12.4769533
            ],
            [
              -49.1236037,
              -12.4772102
            ],
            [
              -49.123243,
              -12.4770176
            ],
            [
              -49.1235571,
              -12.4764571
            ],
            [
              -49.1241031,
              -12.4767489
            ]
          ]
        ]
      }
    },
    {
      "type": "Feature",
      "id": "way/1032964500",
      "properties": {
        "timestamp": "2022-02-18T17:56:08Z",
        "version": 1,
        "changeset": 117576014,
        "addr:city": "Alvorada",
        "addr:housenumber": "08",
        "addr:postcode": "77480-000",
        "addr:street": "Rua Getúlio Vargas",
        "addr:suburb": "Centro",
        "amenity": "school",
        "name": "Colegio Estadual De Alvorada",
        "id": "way/1032964500"
      },
      "geometry": {
        "type": "Polygon",
        "coordinates": [
          [
            [
              -49.1245781,
              -12.4790148
            ],
            [
              -49.1241473,
              -12.4797705
            ],
            [
              -49.1240143,
              -12.4796982
            ],
            [
              -49.1241257,
              -12.4795028
            ],
            [
              -49.1240774,
              -12.4793745
            ],
            [
              -49.1237644,
              -12.4792044
            ],
            [
              -49.1240393,
              -12.478722
            ],
            [
              -49.1245781,
              -12.4790148
            ]
          ]
        ]
      }
    },
    {
      "type": "Feature",
      "id": "way/1032965022",
      "properties": {
        "timestamp": "2022-02-18T17:58:23Z",
        "version": 1,
        "changeset": 117576126,
        "addr:city": "Alvorada",
        "addr:housenumber": "2001",
        "addr:postcode": "77480-000",
        "addr:street": "Avenida Maranhão",
        "addr:suburb": "Centro",
        "amenity": "school",
        "name": "Escola Estadual Ana Maria De Jesus",
        "phone": "+55 63 3353 1630",
        "id": "way/1032965022"
      },
      "geometry": {
        "type": "Polygon",
        "coordinates": [
          [
            [
              -49.1288491,
              -12.4797595
            ],
            [
              -49.1286586,
              -12.480113
            ],
            [
              -49.1283743,
              -12.4799585
            ],
            [
              -49.128554,
              -12.4796181
            ],
            [
              -49.1288491,
              -12.4797595
            ]
          ]
        ]
      }
    },
    {
      "type": "Feature",
      "id": "way/1032965143",
      "properties": {
        "timestamp": "2022-02-18T17:59:22Z",
        "version": 1,
        "changeset": 117576175,
        "addr:city": "Alvorada",
        "addr:postcode": "77480-000",
        "addr:street": "Avenida Minas Gerais",
        "addr:suburb": "Vila Mutirão",
        "amenity": "school",
        "name": "Escola Municipal Geraldo Oliveira Costa",
        "phone": "+55 63 3353 1979",
        "id": "way/1032965143"
      },
      "geometry": {
        "type": "Polygon",
        "coordinates": [
          [
            [
              -49.1309197,
              -12.4812863
            ],
            [
              -49.1307534,
              -12.4817446
            ],
            [
              -49.1302545,
              -12.48159
            ],
            [
              -49.130445,
              -12.481082
            ],
            [
              -49.1309197,
              -12.4812863
            ]
          ]
        ]
      }
    },
    {
      "type": "Feature",
      "id": "way/1033233504",
      "properties": {
        "timestamp": "2022-02-19T14:45:24Z",
        "version": 1,
        "changeset": 117607001,
        "addr:city": "Alvorada",
        "addr:postcode": "77480-000",
        "addr:street": "Avenida Rui Barbosa",
        "addr:suburb": "Centro",
        "amenity": "school",
        "name": "Colegio Militar Do Estado Do Tocantins - Adjulio Balthazar",
        "phone": "+55 63 3353 1615",
        "id": "way/1033233504"
      },
      "geometry": {
        "type": "Polygon",
        "coordinates": [
          [
            [
              -49.1250756,
              -12.4838089
            ],
            [
              -49.1246404,
              -12.4845709
            ],
            [
              -49.1240691,
              -12.4842598
            ],
            [
              -49.1245041,
              -12.4834979
            ],
            [
              -49.1250756,
              -12.4838089
            ]
          ]
        ]
      }
    },
    {
      "type": "Feature",
      "id": "way/1033314551",
      "properties": {
        "timestamp": "2022-02-19T18:43:03Z",
        "version": 1,
        "changeset": 117615525,
        "addr:city": "Alvorada",
        "addr:postcode": "77480-000",
        "addr:street": "Avenida Goiás",
        "addr:suburb": "Santa Angela",
        "amenity": "school",
        "name": "Escola Municipal De Alvorada",
        "phone": "+55 63 3353 2482",
        "id": "way/1033314551"
      },
      "geometry": {
        "type": "Polygon",
        "coordinates": [
          [
            [
              -49.1259908,
              -12.4727313
            ],
            [
              -49.1261332,
              -12.4731777
            ],
            [
              -49.1261095,
              -12.473217
            ],
            [
              -49.1257513,
              -12.4733282
            ],
            [
              -49.1255819,
              -12.4728077
            ],
            [
              -49.1259351,
              -12.4726981
            ],
            [
              -49.1259908,
              -12.4727313
            ]
          ]
        ]
      }
    },
    {
      "type": "Feature",
      "id": "node/9517217891",
      "properties": {
        "timestamp": "2022-02-18T17:57:25Z",
        "version": 1,
        "changeset": 117576084,
        "addr:city": "Alvorada",
        "addr:housenumber": "200",
        "addr:postcode": "77480-000",
        "addr:street": "Rua Getúlio Vargas",
        "addr:suburb": "Centro",
        "amenity": "school",
        "name": "Colegio Jean Piaget",
        "phone": "+55 63 3353 1551",
        "id": "node/9517217891"
      },
      "geometry": {
        "type": "Point",
        "coordinates": [
          -49.1265558,
          -12.4801104
        ]
      }
    },
    {
      "type": "Feature",
      "id": "node/9520259369",
      "properties": {
        "timestamp": "2022-02-19T18:40:36Z",
        "version": 1,
        "changeset": 117615463,
        "addr:city": "Alvorada",
        "addr:housenumber": "420",
        "addr:postcode": "77480-000",
        "addr:street": "Avenida JK",
        "addr:suburb": "Centro",
        "amenity": "school",
        "name": "Associacao De Apoio A Escola Especial Raio De Luz",
        "phone": "+55 63 3353 1560",
        "id": "node/9520259369"
      },
      "geometry": {
        "type": "Point",
        "coordinates": [
          -49.1226102,
          -12.4841119
        ]
      }
    }
  ]
}
