{
  "type": "FeatureCollection",
  "features": [
    {
      "type": "Feature",
      "id": "way/1333455049",
      "properties": {
        "timestamp": "2024-11-13T11:52:39Z",
        "version": 2,
        "changeset": 159087565,
        "addr:city": "Caicó",
        "addr:housenumber": "134",
        "addr:postcode": "59300000",
        "addr:street": "Rua Padre João Maria",
        "addr:suburb": "Centro",
        "amenity": "arts_centre",
        "building": "yes",
        "name": "Casa de Cultura Popular de Caicó",
        "wheelchair": "yes",
        "id": "way/1333455049"
      },
      "geometry": {
        "type": "Polygon",
        "coordinates": [
          [
            [
              -37.0922839,
              -6.4580767
            ],
            [
              -37.0923529,
              -6.4581923
            ],
            [
              -37.0922472,
              -6.4582547
            ],
            [
              -37.0921781,
              -6.4581392
            ],
            [
              -37.0922839,
              -6.4580767
            ]
          ]
        ]
      }
    }
  ]
}
