{
  "type": "FeatureCollection",
  "features": [
    {
      "type": "Feature",
      "id": "way/1333463551",
      "properties": {
        "timestamp": "2024-11-13T11:52:39Z",
        "version": 1,
        "changeset": 159087565,
        "addr:city": "Caicó",
        "addr:housenumber": "50",
        "addr:street": "Rua Padre João Maria",
        "addr:suburb": "Centro",
        "amenity": "doctors",
        "building": "yes",
        "healthcare": "doctor",
        "healthcare:speciality": "orthodontics;radiology",
        "name": "Cliniodonto",
        "id": "way/1333463551"
      },
      "geometry": {
        "type": "Polygon",
        "coordinates": [
          [
            [
              -37.0927691,
              -6.457579
            ],
            [
              -37.0929347,
              -6.4578092
            ],
            [
              -37.0929077,
              -6.4578285
            ],
            [
              -37.092742,
              -6.4575982
            ],
            [
              -37.0927691,
              -6.457579
            ]
          ]
        ]
      }
    }
  ]
}
