{
  "type": "FeatureCollection",
  "features": [
    {
      "type": "Feature",
      "id": "node/4367694592",
      "properties": {
        "timestamp": "2024-08-15T14:03:35Z",
        "version": 4,
        "changeset": 155284713,
        "addr:housenumber": "908",
        "addr:postcode": "69301-410",
        "addr:street": "Avenida Capitão Júlio Bezerra",
        "name": "Mercadão das Bicicletas & Motos",
        "name:pt": "Mercado das Bicicletas e Motos",
        "opening_hours": "Mo-Fr 08:00-18:00; Sa 08:00-12:00",
        "phone": "+559532240565",
        "shop": "bicycle",
        "id": "node/4367694592"
      },
      "geometry": {
        "type": "Point",
        "coordinates": [
          -60.6704792,
          2.8299996
        ]
      }
    },
    {
      "type": "Feature",
      "id": "node/4712489790",
      "properties": {
        "timestamp": "2022-03-15T14:58:08Z",
        "version": 4,
        "changeset": 118515166,
        "addr:street": "Rua Armando Nogueira",
        "name": "PP Peças",
        "opening_hours": "Mo-Su 08:00-18:00",
        "phone": "+559536261912",
        "shop": "bicycle",
        "id": "node/4712489790"
      },
      "geometry": {
        "type": "Point",
        "coordinates": [
          -60.7191875,
          2.8142426
        ]
      }
    },
    {
      "type": "Feature",
      "id": "node/8920408670",
      "properties": {
        "timestamp": "2021-07-14T19:47:26Z",
        "version": 1,
        "changeset": 107999334,
        "name": "Over Bike",
        "shop": "bicycle",
        "id": "node/8920408670"
      },
      "geometry": {
        "type": "Point",
        "coordinates": [
          -60.6859348,
          2.8155474
        ]
      }
    },
    {
      "type": "Feature",
      "id": "node/10827230130",
      "properties": {
        "timestamp": "2023-04-20T13:40:32Z",
        "version": 1,
        "changeset": 135151029,
        "name": "Paradise Bike Shop",
        "shop": "bicycle",
        "id": "node/10827230130"
      },
      "geometry": {
        "type": "Point",
        "coordinates": [
          -60.6713448,
          2.8260499
        ]
      }
    },
    {
      "type": "Feature",
      "id": "node/10949376690",
      "properties": {
        "timestamp": "2023-06-03T19:37:23Z",
        "version": 1,
        "changeset": 136913825,
        "addr:street": "Rua Manoel Felipe",
        "name": "WL Bike Shop",
        "shop": "bicycle",
        "id": "node/10949376690"
      },
      "geometry": {
        "type": "Point",
        "coordinates": [
          -60.7245567,
          2.8114003
        ]
      }
    },
    {
      "type": "Feature",
      "id": "node/12549696464",
      "properties": {
        "timestamp": "2025-02-01T20:29:29Z",
        "version": 1,
        "changeset": 162025201,
        "name": "Israel Bike Peças",
        "shop": "bicycle",
        "id": "node/12549696464"
      },
      "geometry": {
        "type": "Point",
        "coordinates": [
          -60.7261071,
          2.8298428
        ]
      }
    }
  ]
}
