{
  "type": "FeatureCollection",
  "features": [
    {
      "type": "Feature",
      "id": "way/581662139",
      "properties": {
        "timestamp": "2018-04-19T18:39:24Z",
        "version": 1,
        "changeset": 58241713,
        "addr:city": "Itajubá",
        "addr:housenumber": "154",
        "addr:postcode": "37504-364",
        "addr:street": "Rua Estados Unidos",
        "addr:suburb": "Das Nações",
        "building": "yes",
        "building:levels": "2",
        "government": "administrative",
        "name": "Laboratório Nacional de Astrofísica LNA",
        "office": "government",
        "opening_hours": "Mo-Fr 08:00-17:00",
        "id": "way/581662139"
      },
      "geometry": {
        "type": "Polygon",
        "coordinates": [
          [
            [
              -45.4910663,
              -22.4314162
            ],
            [
              -45.4910904,
              -22.4313992
            ],
            [
              -45.4910691,
              -22.4313762
            ],
            [
              -45.4909564,
              -22.4314549
            ],
            [
              -45.4908565,
              -22.4313153
            ],
            [
              -45.4910739,
              -22.4311707
            ],
            [
              -45.4910874,
              -22.4310859
            ],
            [
              -45.4910239,
              -22.4309602
            ],
            [
              -45.4912851,
              -22.4307745
            ],
            [
              -45.4913731,
              -22.4309196
            ],
            [
              -45.4911188,
              -22.4310875
            ],
            [
              -45.4911166,
              -22.4311456
            ],
            [
              -45.4912024,
              -22.431274
            ],
            [
              -45.4911118,
              -22.4313543
            ],
            [
              -45.4911577,
              -22.4314038
            ],
            [
              -45.4910982,
              -22.4314535
            ],
            [
              -45.4910663,
              -22.4314162
            ]
          ]
        ]
      }
    },
    {
      "type": "Feature",
      "id": "way/1196389118",
      "properties": {
        "timestamp": "2025-02-26T01:58:14Z",
        "version": 2,
        "changeset": 162954883,
        "addr:city": "Itajubá",
        "addr:housenumber": "931",
        "addr:postcode": "37501-150",
        "addr:street": "Avenida Doutor Henriqueto Cardinali",
        "addr:suburb": "Varginha",
        "building": "yes",
        "government": "cadaster",
        "name": "Amasp",
        "office": "government",
        "opening_hours": "Mo-Fr 08:00-17:00",
        "phone": "+55 35 3622-4211",
        "website": "https://www.amaspaltosapucai.com.br/",
        "id": "way/1196389118"
      },
      "geometry": {
        "type": "Polygon",
        "coordinates": [
          [
            [
              -45.4413008,
              -22.4266479
            ],
            [
              -45.4409817,
              -22.4264098
            ],
            [
              -45.4411211,
              -22.4262735
            ],
            [
              -45.4414162,
              -22.4265264
            ],
            [
              -45.4413008,
              -22.4266479
            ]
          ]
        ]
      }
    },
    {
      "type": "Feature",
      "id": "node/4402620781",
      "properties": {
        "timestamp": "2018-04-19T18:39:24Z",
        "version": 3,
        "changeset": 58241713,
        "addr:city": "Itajubá",
        "addr:housenumber": "154",
        "addr:postcode": "37504-364",
        "addr:street": "Rua Estados Unidos",
        "addr:suburb": "Das Nações",
        "government": "administrative",
        "name": "Laboratório Nacional de Astrofísica LNA",
        "office": "government",
        "opening_hours": "8:00-17:00",
        "id": "node/4402620781"
      },
      "geometry": {
        "type": "Point",
        "coordinates": [
          -45.4911118,
          -22.4313543
        ]
      }
    },
    {
      "type": "Feature",
      "id": "node/5653337105",
      "properties": {
        "timestamp": "2018-05-31T08:46:04Z",
        "version": 1,
        "changeset": 59421743,
        "name": "CIRETRAN",
        "office": "government",
        "id": "node/5653337105"
      },
      "geometry": {
        "type": "Point",
        "coordinates": [
          -45.4496618,
          -22.4241035
        ]
      }
    },
    {
      "type": "Feature",
      "id": "node/11378803006",
      "properties": {
        "timestamp": "2023-11-27T02:57:22Z",
        "version": 1,
        "changeset": 144490875,
        "government": "register_office",
        "name": "TRE-MG Tribunal Regional Eleitoral de Minas Gerais",
        "office": "government",
        "id": "node/11378803006"
      },
      "geometry": {
        "type": "Point",
        "coordinates": [
          -45.4545913,
          -22.4221779
        ]
      }
    }
  ]
}
