{
  "type": "FeatureCollection",
  "features": [
    {
      "type": "Feature",
      "id": "node/10809093305",
      "properties": {
        "timestamp": "2023-04-13T19:19:05Z",
        "version": 1,
        "changeset": 134876094,
        "addr:postcode": "68300000",
        "addr:street": "Rua Francisco Lima",
        "amenity": "community_centre",
        "internet_access": "wlan",
        "name": "Centro de referencia de assistÃªncia social - CRAS",
        "opening_hours": "Mo-Fr 08:00-12:00, 13:00-18:00",
        "id": "node/10809093305"
      },
      "geometry": {
        "type": "Point",
        "coordinates": [
          -51.645318,
          -1.4062809
        ]
      }
    },
    {
      "type": "Feature",
      "id": "node/10809098805",
      "properties": {
        "timestamp": "2023-04-13T19:24:07Z",
        "version": 1,
        "changeset": 134876289,
        "addr:postcode": "68300000",
        "addr:street": "Rua Francisco Lima",
        "amenity": "community_centre",
        "name": "CRAS - Centro de referencia",
        "name:pt": "CRAS - Centro de referencia da assistencia social",
        "opening_hours": "Mo-Fr 08:00-12:00, 13:00-18:00",
        "id": "node/10809098805"
      },
      "geometry": {
        "type": "Point",
        "coordinates": [
          -51.6452871,
          -1.4062254
        ]
      }
    }
  ]
}
