{
  "type": "FeatureCollection",
  "features": [
    {
      "type": "Feature",
      "id": "relation/5847385",
      "properties": {
        "timestamp": "2020-08-13T18:53:25Z",
        "version": 3,
        "changeset": 89371309,
        "addr:housenumber": "1086",
        "addr:street": "Avenida Amadeu Bizelli",
        "building": "yes",
        "government": "register_office",
        "name": "Primeiro Cartório de Notas",
        "office": "government",
        "phone": "+55 17 3442-2108",
        "type": "multipolygon",
        "id": "relation/5847385"
      },
      "geometry": {
        "type": "Polygon",
        "coordinates": [
          [
            [
              -50.2480019,
              -20.281702
            ],
            [
              -50.248023,
              -20.281737
            ],
            [
              -50.2478856,
              -20.2818094
            ],
            [
              -50.2478615,
              -20.2817755
            ],
            [
              -50.2479201,
              -20.2817448
            ],
            [
              -50.2480019,
              -20.281702
            ]
          ]
        ]
      }
    },
    {
      "type": "Feature",
      "id": "way/388921016",
      "properties": {
        "timestamp": "2019-09-09T01:39:13Z",
        "version": 2,
        "changeset": 74239494,
        "addr:housenumber": "2304",
        "addr:street": "Avenida Líbero de Almeida Silvares",
        "building": "yes",
        "government": "register_office",
        "name": "Cartório Eleitoral",
        "office": "government",
        "source": "survey",
        "id": "way/388921016"
      },
      "geometry": {
        "type": "Polygon",
        "coordinates": [
          [
            [
              -50.2459434,
              -20.2847001
            ],
            [
              -50.2458866,
              -20.2847266
            ],
            [
              -50.2458382,
              -20.2846352
            ],
            [
              -50.245895,
              -20.2846087
            ],
            [
              -50.2459434,
              -20.2847001
            ]
          ]
        ]
      }
    },
    {
      "type": "Feature",
      "id": "way/389562145",
      "properties": {
        "timestamp": "2021-09-12T19:52:25Z",
        "version": 5,
        "changeset": 111110830,
        "addr:city": "Fernandópolis",
        "addr:housenumber": "320",
        "addr:postcode": "15600-000",
        "addr:street": "Rua Espírito Santo",
        "addr:suburb": "Jardim Santa Rita",
        "building": "public",
        "government": "legislative",
        "name": "Câmara Municipal",
        "office": "government",
        "opening_hours": "Mo-Fr 13:00-19:00",
        "phone": "+55 17 3442-1288",
        "id": "way/389562145"
      },
      "geometry": {
        "type": "Polygon",
        "coordinates": [
          [
            [
              -50.2547973,
              -20.2754655
            ],
            [
              -50.254636,
              -20.275624
            ],
            [
              -50.2546645,
              -20.2756495
            ],
            [
              -50.2545497,
              -20.2757622
            ],
            [
              -50.2545362,
              -20.2757501
            ],
            [
              -50.2544492,
              -20.2758357
            ],
            [
              -50.2543361,
              -20.2757344
            ],
            [
              -50.254445,
              -20.2756274
            ],
            [
              -50.2543829,
              -20.2755718
            ],
            [
              -50.2544143,
              -20.2755409
            ],
            [
              -50.2544763,
              -20.2755965
            ],
            [
              -50.254699,
              -20.2753775
            ],
            [
              -50.2547973,
              -20.2754655
            ]
          ]
        ]
      }
    },
    {
      "type": "Feature",
      "id": "way/389895763",
      "properties": {
        "timestamp": "2020-05-15T22:35:36Z",
        "version": 4,
        "changeset": 85283711,
        "addr:housenumber": "1488",
        "addr:street": "Rua Rio de Janeiro",
        "building": "yes",
        "government": "social_security",
        "name": "Previdência Social",
        "office": "government",
        "id": "way/389895763"
      },
      "geometry": {
        "type": "Polygon",
        "coordinates": [
          [
            [
              -50.2524711,
              -20.2789608
            ],
            [
              -50.2525374,
              -20.2790748
            ],
            [
              -50.2523853,
              -20.2791526
            ],
            [
              -50.252319,
              -20.2790385
            ],
            [
              -50.2524711,
              -20.2789608
            ]
          ]
        ]
      }
    },
    {
      "type": "Feature",
      "id": "way/390490940",
      "properties": {
        "timestamp": "2020-05-15T22:35:36Z",
        "version": 3,
        "changeset": 85283711,
        "addr:housenumber": "1015",
        "addr:street": "Avenida dos Arnaldos",
        "building": "yes",
        "government": "administrative",
        "name": "Casa da Agricultura",
        "office": "government",
        "id": "way/390490940"
      },
      "geometry": {
        "type": "Polygon",
        "coordinates": [
          [
            [
              -50.2506642,
              -20.2810979
            ],
            [
              -50.2507805,
              -20.2812981
            ],
            [
              -50.2505702,
              -20.2814055
            ],
            [
              -50.2504539,
              -20.2812054
            ],
            [
              -50.2506642,
              -20.2810979
            ]
          ]
        ]
      }
    },
    {
      "type": "Feature",
      "id": "way/390618705",
      "properties": {
        "timestamp": "2019-09-09T01:31:36Z",
        "version": 3,
        "changeset": 74239437,
        "addr:housenumber": "1755",
        "addr:street": "Rua Rio de Janeiro",
        "building": "office",
        "government": "register_office",
        "name": "Cartório de Registro de Imóveis",
        "office": "government",
        "phone": "+55 17 3442-5838",
        "id": "way/390618705"
      },
      "geometry": {
        "type": "Polygon",
        "coordinates": [
          [
            [
              -50.2502335,
              -20.2799391
            ],
            [
              -50.250209,
              -20.2799343
            ],
            [
              -50.2501275,
              -20.279793
            ],
            [
              -50.2502411,
              -20.2797353
            ],
            [
              -50.2503303,
              -20.27989
            ],
            [
              -50.2502335,
              -20.2799391
            ]
          ]
        ]
      }
    },
    {
      "type": "Feature",
      "id": "way/390618706",
      "properties": {
        "timestamp": "2020-08-13T18:53:25Z",
        "version": 3,
        "changeset": 89371309,
        "addr:housenumber": "1097",
        "addr:street": "Avenida Amadeu Bizelli",
        "building": "yes",
        "government": "register_office",
        "name": "Segundo Cartório de Notas",
        "office": "government",
        "phone": "+55 17 3465-6500",
        "id": "way/390618706"
      },
      "geometry": {
        "type": "Polygon",
        "coordinates": [
          [
            [
              -50.2477861,
              -20.2818869
            ],
            [
              -50.2478223,
              -20.2819445
            ],
            [
              -50.2477138,
              -20.2820044
            ],
            [
              -50.2476776,
              -20.2819468
            ],
            [
              -50.2477861,
              -20.2818869
            ]
          ]
        ]
      }
    },
    {
      "type": "Feature",
      "id": "way/390653225",
      "properties": {
        "timestamp": "2019-09-09T01:35:38Z",
        "version": 2,
        "changeset": 74239467,
        "addr:housenumber": "913",
        "addr:street": "Avenida Milton Terra Verdi",
        "building": "yes",
        "government": "register_office",
        "name": "Cartório de Registro Civil",
        "office": "government",
        "phone": "+55 17 3462 2545",
        "id": "way/390653225"
      },
      "geometry": {
        "type": "Polygon",
        "coordinates": [
          [
            [
              -50.248102,
              -20.2805307
            ],
            [
              -50.2481149,
              -20.2805529
            ],
            [
              -50.2481249,
              -20.2805478
            ],
            [
              -50.2481475,
              -20.2805867
            ],
            [
              -50.2481243,
              -20.2805986
            ],
            [
              -50.2481378,
              -20.2806218
            ],
            [
              -50.2480113,
              -20.2806866
            ],
            [
              -50.2479622,
              -20.2806023
            ],
            [
              -50.248102,
              -20.2805307
            ]
          ]
        ]
      }
    },
    {
      "type": "Feature",
      "id": "way/391074210",
      "properties": {
        "timestamp": "2020-05-15T22:35:36Z",
        "version": 3,
        "changeset": 85283711,
        "addr:housenumber": "910",
        "addr:street": "Avenida Eurípedes José Ferreira",
        "building": "yes",
        "government": "tax",
        "level": "0",
        "name": "Receita Federal",
        "office": "government",
        "opening_hours": "8:00 - 12:00",
        "id": "way/391074210"
      },
      "geometry": {
        "type": "Polygon",
        "coordinates": [
          [
            [
              -50.2544789,
              -20.2829097
            ],
            [
              -50.2545323,
              -20.2830087
            ],
            [
              -50.2543415,
              -20.2830994
            ],
            [
              -50.2542881,
              -20.2830003
            ],
            [
              -50.2544789,
              -20.2829097
            ]
          ]
        ]
      }
    },
    {
      "type": "Feature",
      "id": "way/440103191",
      "properties": {
        "timestamp": "2019-12-27T01:41:10Z",
        "version": 4,
        "changeset": 78902987,
        "addr:city": "Fernandópolis",
        "addr:housenumber": "930",
        "addr:postcode": "15600-000",
        "addr:state": "SP",
        "addr:street": "Avenida da Saudade",
        "addr:suburb": "Jardim Planalto",
        "building": "public",
        "government": "administrative",
        "name": "Escritório dos Cemitérios",
        "office": "government",
        "operator": "Prefeitura Municipal",
        "phone": "+55 17 3442-2800",
        "id": "way/440103191"
      },
      "geometry": {
        "type": "Polygon",
        "coordinates": [
          [
            [
              -50.2419259,
              -20.2949708
            ],
            [
              -50.2420229,
              -20.2949728
            ],
            [
              -50.2420219,
              -20.2950164
            ],
            [
              -50.2420682,
              -20.2950173
            ],
            [
              -50.2420666,
              -20.2950845
            ],
            [
              -50.2419232,
              -20.2950815
            ],
            [
              -50.2419259,
              -20.2949708
            ]
          ]
        ]
      }
    },
    {
      "type": "Feature",
      "id": "way/554087836",
      "properties": {
        "timestamp": "2020-05-15T22:35:36Z",
        "version": 2,
        "changeset": 85283711,
        "addr:city": "Fernandópolis",
        "addr:housenumber": "2705",
        "addr:street": "Avenida Líbero de Almeida Silvares",
        "building": "yes",
        "government": "administrative",
        "name": "Poupatempo",
        "office": "government",
        "operator": "Governo do Estado de São Paulo",
        "id": "way/554087836"
      },
      "geometry": {
        "type": "Polygon",
        "coordinates": [
          [
            [
              -50.2420939,
              -20.2846008
            ],
            [
              -50.2421227,
              -20.2846063
            ],
            [
              -50.2421941,
              -20.2843372
            ],
            [
              -50.2423104,
              -20.2843648
            ],
            [
              -50.2421911,
              -20.2848075
            ],
            [
              -50.2420473,
              -20.2847735
            ],
            [
              -50.2420939,
              -20.2846008
            ]
          ]
        ]
      }
    },
    {
      "type": "Feature",
      "id": "way/390618704",
      "properties": {
        "timestamp": "2019-09-09T01:31:07Z",
        "version": 2,
        "changeset": 74239434,
        "addr:housenumber": "1755",
        "addr:street": "Rua Rio de Janeiro",
        "government": "register_office",
        "name": "Cartório de Registro de Imóveis",
        "office": "government",
        "phone": "+55 17 3442 5838",
        "id": "way/390618704"
      },
      "geometry": {
        "type": "LineString",
        "coordinates": [
          [
            -50.2502335,
            -20.2799391
          ],
          [
            -50.250209,
            -20.2799343
          ]
        ]
      }
    },
    {
      "type": "Feature",
      "id": "node/3925712759",
      "properties": {
        "timestamp": "2020-05-15T22:35:36Z",
        "version": 3,
        "changeset": 85283711,
        "addr:housenumber": "933",
        "addr:postcode": "15607-022",
        "addr:street": "Rua Amapá",
        "government": "education",
        "name": "Diretoria de Ensino",
        "office": "government",
        "phone": "+55 17 3463 8000",
        "id": "node/3925712759"
      },
      "geometry": {
        "type": "Point",
        "coordinates": [
          -50.2463375,
          -20.2788467
        ]
      }
    },
    {
      "type": "Feature",
      "id": "node/9049047728",
      "properties": {
        "timestamp": "2021-08-30T19:38:13Z",
        "version": 1,
        "changeset": 110477648,
        "addr:city": "Fernandópolis",
        "addr:housenumber": "1726",
        "addr:postcode": "15600-000",
        "addr:street": "Rua São Paulo",
        "addr:suburb": "Centro",
        "alt_name": "crosp;CROSP;crosp fernandopólis;CROSP Fernandópolis",
        "government": "administrative",
        "name": "Conselho Regional de Odontologia do Estado de São Paulo- Seccional de Fernandópolis",
        "office": "government",
        "phone": "+55 17 34632143",
        "source": "http://www.crosp.org.br/",
        "website": "http://www.crosp.org.br/",
        "id": "node/9049047728"
      },
      "geometry": {
        "type": "Point",
        "coordinates": [
          -50.2500639,
          -20.2814178
        ]
      }
    }
  ]
}
