{
  "type": "FeatureCollection",
  "features": [
    {
      "type": "Feature",
      "id": "way/1299506087",
      "properties": {
        "timestamp": "2024-07-06T12:41:22Z",
        "version": 1,
        "changeset": 153622436,
        "addr:city": "Fernandópolis",
        "addr:housenumber": "680",
        "addr:postcode": "15608-060",
        "addr:street": "Av. Litério Grecco",
        "addr:suburb": "Vila Sao Francisco",
        "building": "yes",
        "name": "Transamerica Executive Fernandópolis",
        "phone": "+551733481940",
        "tourism": "hotel",
        "website": "https://www.letsatlantica.com.br/hotel/transamerica-executive-fernandopolis",
        "id": "way/1299506087"
      },
      "geometry": {
        "type": "Polygon",
        "coordinates": [
          [
            [
              -50.2346524,
              -20.2721522
            ],
            [
              -50.2346438,
              -20.2725287
            ],
            [
              -50.2344936,
              -20.2725313
            ],
            [
              -50.2344958,
              -20.2721482
            ],
            [
              -50.2346524,
              -20.2721522
            ]
          ]
        ]
      }
    },
    {
      "type": "Feature",
      "id": "node/3836351941",
      "properties": {
        "timestamp": "2015-12-23T01:08:06Z",
        "version": 2,
        "changeset": 36116925,
        "addr:city": "Fernandópolis",
        "addr:housenumber": "78",
        "addr:street": "Avenida Litério Grecco",
        "name": "Serata Hotel",
        "phone": "+55 17 3465 5200",
        "tourism": "hotel",
        "id": "node/3836351941"
      },
      "geometry": {
        "type": "Point",
        "coordinates": [
          -50.2264829,
          -20.2750435
        ]
      }
    },
    {
      "type": "Feature",
      "id": "node/3869712906",
      "properties": {
        "timestamp": "2016-02-13T18:59:49Z",
        "version": 2,
        "changeset": 37192724,
        "addr:place": "Rodovia Prefeito João Carlos Estuqui, km 2",
        "leisure": "water_park",
        "name": "Água Viva Thermas Clube Hotel",
        "phone": "+55 17 3465 0400",
        "tourism": "hotel",
        "id": "node/3869712906"
      },
      "geometry": {
        "type": "Point",
        "coordinates": [
          -50.2072331,
          -20.2714859
        ]
      }
    },
    {
      "type": "Feature",
      "id": "node/3917577441",
      "properties": {
        "timestamp": "2016-01-25T23:08:32Z",
        "version": 2,
        "changeset": 36807348,
        "addr:housenumber": "2014",
        "addr:street": "Rua Brasil",
        "name": "Sotam Hotel",
        "phone": "+55 17 3442 6209",
        "tourism": "hotel",
        "id": "node/3917577441"
      },
      "geometry": {
        "type": "Point",
        "coordinates": [
          -50.2481632,
          -20.2833465
        ]
      }
    },
    {
      "type": "Feature",
      "id": "node/3927279658",
      "properties": {
        "timestamp": "2016-01-04T16:10:35Z",
        "version": 1,
        "changeset": 36362979,
        "addr:housenumber": "405",
        "addr:street": "Rua Espírito Santo",
        "name": "Solar Plaza Hotel",
        "phone": "+55 17 3442 5233",
        "tourism": "hotel",
        "id": "node/3927279658"
      },
      "geometry": {
        "type": "Point",
        "coordinates": [
          -50.2539065,
          -20.2761318
        ]
      }
    }
  ]
}
