{
  "type": "FeatureCollection",
  "features": [
    {
      "type": "Feature",
      "id": "node/3898736226",
      "properties": {
        "timestamp": "2016-01-06T15:13:35Z",
        "version": 2,
        "changeset": 36405640,
        "addr:housenumber": "370",
        "addr:street": "Avenida Eurípedes José Ferreira",
        "amenity": "pharmacy",
        "name": "Drogaria Total",
        "phone": "+55 17 3442 6637",
        "id": "node/3898736226"
      },
      "geometry": {
        "type": "Point",
        "coordinates": [
          -50.2517369,
          -20.2786674
        ]
      }
    },
    {
      "type": "Feature",
      "id": "node/3904978061",
      "properties": {
        "timestamp": "2022-10-18T20:01:41Z",
        "version": 3,
        "changeset": 127745761,
        "addr:housenumber": "1904",
        "addr:street": "Rua Brasil",
        "amenity": "pharmacy",
        "brand": "Droga Raia",
        "healthcare": "pharmacy",
        "name": "Droga Raia",
        "operator:wikidata": "Q10357101",
        "phone": "+55 17 3463-2729",
        "id": "node/3904978061"
      },
      "geometry": {
        "type": "Point",
        "coordinates": [
          -50.249149,
          -20.282804
        ]
      }
    },
    {
      "type": "Feature",
      "id": "node/3937826794",
      "properties": {
        "timestamp": "2022-10-18T20:01:41Z",
        "version": 2,
        "changeset": 127745761,
        "addr:housenumber": "1122",
        "addr:street": "Avenida Amadeu Bizelli",
        "amenity": "pharmacy",
        "healthcare": "pharmacy",
        "name": "Drogacity",
        "phone": "+55 17 3442 1686",
        "id": "node/3937826794"
      },
      "geometry": {
        "type": "Point",
        "coordinates": [
          -50.2480771,
          -20.2820567
        ]
      }
    },
    {
      "type": "Feature",
      "id": "node/3962186471",
      "properties": {
        "timestamp": "2022-10-18T20:01:41Z",
        "version": 2,
        "changeset": 127745761,
        "addr:housenumber": "1993",
        "addr:street": "Rua Brasil",
        "amenity": "pharmacy",
        "healthcare": "pharmacy",
        "name": "Drogaria Central",
        "phone": "+55 17 3442 4499",
        "id": "node/3962186471"
      },
      "geometry": {
        "type": "Point",
        "coordinates": [
          -50.2483112,
          -20.2830712
        ]
      }
    },
    {
      "type": "Feature",
      "id": "node/3978307810",
      "properties": {
        "timestamp": "2022-10-18T20:01:41Z",
        "version": 2,
        "changeset": 127745761,
        "addr:housenumber": "1994",
        "addr:street": "Rua São Paulo",
        "amenity": "pharmacy",
        "healthcare": "pharmacy",
        "name": "Drogaria Central 2",
        "phone": "+55 17 3442 5144",
        "id": "node/3978307810"
      },
      "geometry": {
        "type": "Point",
        "coordinates": [
          -50.2476883,
          -20.2824936
        ]
      }
    },
    {
      "type": "Feature",
      "id": "node/6935893680",
      "properties": {
        "timestamp": "2020-08-13T18:53:25Z",
        "version": 2,
        "changeset": 89371309,
        "amenity": "pharmacy",
        "brand": "Droga Raia",
        "id": "node/6935893680"
      },
      "geometry": {
        "type": "Point",
        "coordinates": [
          -50.2573469,
          -20.2917348
        ]
      }
    }
  ]
}
