{
  "type": "FeatureCollection",
  "features": [
    {
      "type": "Feature",
      "id": "way/1089104383",
      "properties": {
        "timestamp": "2022-08-25T15:20:08Z",
        "version": 1,
        "changeset": 125367256,
        "addr:city": "Cascavel",
        "addr:housenumber": "s/n",
        "addr:postcode": "62850-000",
        "addr:street": "Estrada para Praia de Balbino",
        "addr:suburb": "Balbino",
        "amenity": "clinic",
        "building": "yes",
        "healthcare": "clinic",
        "name": "UBSF - Balbino",
        "id": "way/1089104383"
      },
      "geometry": {
        "type": "Polygon",
        "coordinates": [
          [
            [
              -38.2204341,
              -4.0246558
            ],
            [
              -38.2205829,
              -4.024799
            ],
            [
              -38.2204944,
              -4.0248873
            ],
            [
              -38.2203683,
              -4.0247401
            ],
            [
              -38.2204341,
              -4.0246558
            ]
          ]
        ]
      }
    }
  ]
}
