{
  "type": "FeatureCollection",
  "features": [
    {
      "type": "Feature",
      "id": "node/6454914491",
      "properties": {
        "timestamp": "2024-07-02T18:58:09Z",
        "version": 5,
        "changeset": 153472272,
        "addr:city": "Passo de Torres",
        "addr:housenumber": "876",
        "addr:postcode": "88980-000",
        "addr:street": "Rua José Hespanhol",
        "addr:suburb": "Centro",
        "amenity": "pharmacy",
        "dispensing": "yes",
        "drive_through": "no",
        "email": "farmaciadatati@gmail.com",
        "healthcare": "pharmacy",
        "name": "Farmácia Sagrada Família",
        "opening_hours": "08:00-22:00",
        "phone": "+55 48 3548 0982",
        "website": "https://farmaciadatati.com.br/",
        "id": "node/6454914491"
      },
      "geometry": {
        "type": "Point",
        "coordinates": [
          -49.7281585,
          -29.3227071
        ]
      }
    },
    {
      "type": "Feature",
      "id": "node/6482509943",
      "properties": {
        "timestamp": "2019-05-18T15:24:08Z",
        "version": 1,
        "changeset": 70389822,
        "addr:city": "Passo de Torres",
        "addr:housenumber": "930",
        "addr:postcode": "88980-000",
        "addr:street": "Rua Beira Rio",
        "addr:suburb": "Centro",
        "amenity": "pharmacy",
        "dispensing": "yes",
        "drive_through": "no",
        "healthcare": "pharmacy",
        "name": "Farmácia Pharmavita",
        "id": "node/6482509943"
      },
      "geometry": {
        "type": "Point",
        "coordinates": [
          -49.7236906,
          -29.325959
        ]
      }
    },
    {
      "type": "Feature",
      "id": "node/6482509944",
      "properties": {
        "timestamp": "2019-05-18T15:24:08Z",
        "version": 1,
        "changeset": 70389822,
        "amenity": "pharmacy",
        "dispensing": "yes",
        "healthcare": "pharmacy",
        "name": "Farmácia Farma Rio",
        "id": "node/6482509944"
      },
      "geometry": {
        "type": "Point",
        "coordinates": [
          -49.7213436,
          -29.325655
        ]
      }
    },
    {
      "type": "Feature",
      "id": "node/6482509945",
      "properties": {
        "timestamp": "2022-09-04T21:34:57Z",
        "version": 2,
        "changeset": 125789172,
        "amenity": "pharmacy",
        "dispensing": "yes",
        "healthcare": "pharmacy",
        "name": "Farmácia Popular Farma",
        "id": "node/6482509945"
      },
      "geometry": {
        "type": "Point",
        "coordinates": [
          -49.7226637,
          -29.3237835
        ]
      }
    },
    {
      "type": "Feature",
      "id": "node/6486855810",
      "properties": {
        "timestamp": "2024-04-09T11:51:51Z",
        "version": 2,
        "changeset": 149773994,
        "amenity": "pharmacy",
        "dispensing": "yes",
        "healthcare": "pharmacy",
        "name": "Farmácia Farma Passo",
        "id": "node/6486855810"
      },
      "geometry": {
        "type": "Point",
        "coordinates": [
          -49.7231434,
          -29.3219854
        ]
      }
    }
  ]
}
