{
  "type": "FeatureCollection",
  "features": [
    {
      "type": "Feature",
      "id": "way/317114842",
      "properties": {
        "timestamp": "2014-12-13T17:35:39Z",
        "version": 1,
        "changeset": 27447251,
        "addr:street": "Rua Jos√© de Tassis",
        "building": "yes",
        "name": "Hotel Espettos",
        "tourism": "hotel",
        "id": "way/317114842"
      },
      "geometry": {
        "type": "Polygon",
        "coordinates": [
          [
            [
              -41.9560884,
              -18.8706472
            ],
            [
              -41.9561877,
              -18.8705864
            ],
            [
              -41.9562588,
              -18.8706904
            ],
            [
              -41.9561596,
              -18.8707512
            ],
            [
              -41.9560884,
              -18.8706472
            ]
          ]
        ]
      }
    },
    {
      "type": "Feature",
      "id": "node/2558391209",
      "properties": {
        "timestamp": "2023-10-16T20:31:09Z",
        "version": 4,
        "changeset": 142683225,
        "addr:city": "Governador Valadares",
        "addr:housenumber": "3170",
        "addr:postcode": "35010-172",
        "addr:street": "Rua Sete de Setembro",
        "addr:suburb": "centro",
        "internet_access": "yes",
        "internet_access:fee": "customers",
        "name": "Hotel Oitis",
        "phone": "+55 33 3271-7525",
        "tourism": "hotel",
        "id": "node/2558391209"
      },
      "geometry": {
        "type": "Point",
        "coordinates": [
          -41.9508398,
          -18.8546152
        ]
      }
    },
    {
      "type": "Feature",
      "id": "node/4701781314",
      "properties": {
        "timestamp": "2017-02-23T16:44:50Z",
        "version": 1,
        "changeset": 46343418,
        "name": "Hotel San Diego Valadares",
        "tourism": "hotel",
        "id": "node/4701781314"
      },
      "geometry": {
        "type": "Point",
        "coordinates": [
          -41.9522641,
          -18.8565699
        ]
      }
    },
    {
      "type": "Feature",
      "id": "node/6844834838",
      "properties": {
        "timestamp": "2023-05-09T12:09:34Z",
        "version": 3,
        "changeset": 135893032,
        "addr:city": "Governador Valadares",
        "addr:postcode": "35054-060",
        "addr:street": "Rodovia Santos Dumont",
        "addr:suburb": "Planalto",
        "name": "Hotel Planalto",
        "tourism": "hotel",
        "id": "node/6844834838"
      },
      "geometry": {
        "type": "Point",
        "coordinates": [
          -41.9889261,
          -18.8328962
        ]
      }
    },
    {
      "type": "Feature",
      "id": "node/6847749031",
      "properties": {
        "timestamp": "2019-10-03T13:58:32Z",
        "version": 1,
        "changeset": 75236821,
        "tourism": "hotel",
        "id": "node/6847749031"
      },
      "geometry": {
        "type": "Point",
        "coordinates": [
          -42.0539944,
          -18.9379431
        ]
      }
    }
  ]
}
