{
  "type": "FeatureCollection",
  "features": [
    {
      "type": "Feature",
      "id": "way/956589591",
      "properties": {
        "timestamp": "2024-11-18T19:33:23Z",
        "version": 4,
        "changeset": 159297295,
        "addr:city": "Corumbá de Goiás",
        "addr:postcode": "72960-000",
        "addr:street": "Avenida Professor Francisco Bruno",
        "addr:suburb": "Alto da Boa Vista",
        "amenity": "clinic",
        "building": "yes",
        "contact:mobile": "+55 62 98312 0501",
        "contact:whatsapp": "https://wa.me/5562983120501",
        "email": "marcelotqueiroz@hotmail.com",
        "healthcare": "clinic",
        "healthcare:speciality": "blood_check",
        "mobile": "+55 62 98312 0501",
        "name": "Laboratório Santa Clara",
        "opening_hours": "Mo-Fr 07:00-11:00; Mo-Fr 13:00-17:00",
        "operator": "Laboratorio Santa Clara LTDA",
        "operator:type": "private",
        "phone": "+55 62 3338 1187",
        "id": "way/956589591"
      },
      "geometry": {
        "type": "Polygon",
        "coordinates": [
          [
            [
              -48.8186879,
              -15.9291739
            ],
            [
              -48.8186749,
              -15.9292811
            ],
            [
              -48.8186144,
              -15.9292743
            ],
            [
              -48.8186274,
              -15.9291671
            ],
            [
              -48.8186879,
              -15.9291739
            ]
          ]
        ]
      }
    },
    {
      "type": "Feature",
      "id": "way/956593856",
      "properties": {
        "timestamp": "2025-01-07T14:12:17Z",
        "version": 4,
        "changeset": 161097213,
        "abbr_name": "UBS Mário Curado",
        "addr:city": "Corumbá de Goiás",
        "addr:postcode": "72960-000",
        "addr:street": "Rua 3",
        "addr:suburb": "9 de Julho",
        "amenity": "clinic",
        "building": "yes",
        "healthcare": "clinic",
        "healthcare:speciality": "general",
        "name": "Unidade Básica de Saúde Mário Curado",
        "opening_hours": "Mo-Fr 07:00-11:00, 13:00-16:00",
        "operator": "Secretária de Saúde da Prefeitura de Corumbá de Goiás",
        "operator:type": "public",
        "phone": "+55 62 3338 1439",
        "website": "https://corumbadegoias.go.gov.br/estrutura-organizacional/?id=5",
        "id": "way/956593856"
      },
      "geometry": {
        "type": "Polygon",
        "coordinates": [
          [
            [
              -48.8068481,
              -15.9184121
            ],
            [
              -48.8070354,
              -15.9184606
            ],
            [
              -48.8069864,
              -15.9186354
            ],
            [
              -48.8067991,
              -15.9185869
            ],
            [
              -48.8068481,
              -15.9184121
            ]
          ]
        ]
      }
    },
    {
      "type": "Feature",
      "id": "way/1010739294",
      "properties": {
        "timestamp": "2025-02-17T16:58:18Z",
        "version": 3,
        "changeset": 162622939,
        "addr:city": "Corumbá de Goiás",
        "addr:postcode": "72960-000",
        "addr:street": "Rua Praça Major João Mendes",
        "addr:suburb": "Centro",
        "amenity": "clinic",
        "building": "yes",
        "contact:mobile": "+55 62 98412 1128",
        "contact:whatsapp": "https://wa.me/5562984121128",
        "healthcare": "clinic",
        "healthcare:speciality": "general;dentistry",
        "name": "Integrar Life: Odontologia e Medicina",
        "operator": "P S SILVA CONSULTORIOS INTEGRADOS LTDA",
        "operator:type": "private",
        "owner": "Paulo dos Santos da Silva;Andréia Cassia da Silva",
        "phone": "+55 62 3338 1128;+55 62 3338 1904",
        "ref:vatin": "BR28695167000133(CNPJ)",
        "id": "way/1010739294"
      },
      "geometry": {
        "type": "Polygon",
        "coordinates": [
          [
            [
              -48.809894,
              -15.92598
            ],
            [
              -48.8098347,
              -15.9260678
            ],
            [
              -48.8097952,
              -15.9260432
            ],
            [
              -48.8098545,
              -15.9259553
            ],
            [
              -48.809894,
              -15.92598
            ]
          ]
        ]
      }
    },
    {
      "type": "Feature",
      "id": "way/1013620655",
      "properties": {
        "timestamp": "2021-12-20T02:53:10Z",
        "version": 1,
        "changeset": 115144563,
        "amenity": "clinic",
        "building": "yes",
        "healthcare": "clinic",
        "id": "way/1013620655"
      },
      "geometry": {
        "type": "Polygon",
        "coordinates": [
          [
            [
              -48.503077,
              -15.8802945
            ],
            [
              -48.5030987,
              -15.8803649
            ],
            [
              -48.5029955,
              -15.8803943
            ],
            [
              -48.5029739,
              -15.8803239
            ],
            [
              -48.503077,
              -15.8802945
            ]
          ]
        ]
      }
    },
    {
      "type": "Feature",
      "id": "node/8853016039",
      "properties": {
        "timestamp": "2025-01-07T14:12:17Z",
        "version": 7,
        "changeset": 161097213,
        "abbr_name": "UBS Antônio Marmo Ferreira Santana",
        "addr:city": "Corumbá de Goiás",
        "addr:housenumber": "9",
        "addr:postcode": "72960-000",
        "addr:street": "Avenida Professor Francisco Bruno",
        "addr:suburb": "Alto da Boa Vista",
        "alt_name": "UBS Alto da Boa Vista",
        "amenity": "clinic",
        "contact:mobile": "+55 62 99841 2962",
        "contact:whatsapp": "https://wa.me/556298412962",
        "healthcare": "clinic",
        "healthcare:speciality": "general",
        "internet_access": "wlan",
        "internet_access:password": "Saude@321",
        "internet_access:ssid": "UBS Antônio Marmo",
        "name": "Unidade Básica de Saúde Antônio Marmo Ferreira Santana",
        "opening_hours": "Mo-Fr 07:00-11:00, 13:00-16:00",
        "operator": "Secretária de Saúde da Prefeitura de Corumbá de Goiás",
        "operator:type": "government",
        "phone": "+55 62 3338 1939",
        "phone:mobile": "+55 62 99841 2962",
        "website": "https://corumbadegoias.go.gov.br/estrutura-organizacional/?id=49",
        "id": "node/8853016039"
      },
      "geometry": {
        "type": "Point",
        "coordinates": [
          -48.8193788,
          -15.9290761
        ]
      }
    },
    {
      "type": "Feature",
      "id": "node/12219308002",
      "properties": {
        "timestamp": "2025-01-07T14:11:05Z",
        "version": 3,
        "changeset": 161097155,
        "addr:city": "Corumbá de Goiás",
        "addr:postcode": "72960-000",
        "addr:street": "Rua 1",
        "addr:suburb": "Alto da Boa Vista",
        "amenity": "clinic",
        "contact:whatsapp": "https://wa.me/556296140975",
        "healthcare": "clinic",
        "healthcare:speciality": "cardiology;endocrinology;physiotherapy;paediatrics;dermatology;orthopaedics;orthopedics;gynaecology;psychiatry",
        "mobile": "+55 62 99614 0975",
        "name": "Centro de Especialidades Valdete de Jesus Alves dos Santos",
        "opening_hours": "Mo-Fr 07:00-11:00, 13:00-16:00",
        "operator": "Secretária de Saúde da Prefeitura de Corumbá de Goiás",
        "operator:type": "government",
        "phone": "+55 62 99614 0975",
        "id": "node/12219308002"
      },
      "geometry": {
        "type": "Point",
        "coordinates": [
          -48.8193048,
          -15.9288059
        ]
      }
    },
    {
      "type": "Feature",
      "id": "node/12305032368",
      "properties": {
        "timestamp": "2024-11-04T11:17:56Z",
        "version": 2,
        "changeset": 158735735,
        "addr:city": "Corumbá de Goiás",
        "addr:postcode": "72960-000",
        "addr:street": "Avenida Professor Francisco Bruno",
        "addr:suburb": "Centro",
        "amenity": "clinic",
        "contact:whatsapp": "+5562982063225",
        "healthcare": "clinic",
        "healthcare:speciality": "dermatology;plastic_surgery",
        "mobile": "+55 62 98206 3225; +55 62 99396 4614",
        "name": "Dra. Ana Flávia de Oliveira Leal",
        "phone": "+55 62 98206 3225; +55 62 99396 4614",
        "id": "node/12305032368"
      },
      "geometry": {
        "type": "Point",
        "coordinates": [
          -48.8106414,
          -15.9266875
        ]
      }
    },
    {
      "type": "Feature",
      "id": "node/12351975096",
      "properties": {
        "timestamp": "2024-11-18T19:42:49Z",
        "version": 1,
        "changeset": 159297694,
        "addr:city": "Corumbá de Goiás",
        "addr:postcode": "72960-000",
        "addr:street": "Avenida Professor Francisco Bruno",
        "addr:suburb": "Alto da Boa Vista",
        "amenity": "clinic",
        "building": "yes",
        "contact:whatsapp": "+55 62 99984 7411",
        "healthcare": "clinic",
        "mobile": "+55 99984 7411",
        "name": "Centro de Análises Clínicas Pasteur",
        "name_1": "Laboratório Pasteur",
        "name_2": "Pasteur",
        "phone": "+55 62 3338 1196",
        "type": "site",
        "website": "http://cacpasteur.com.br/posto-coleta",
        "id": "node/12351975096"
      },
      "geometry": {
        "type": "Point",
        "coordinates": [
          -48.8127213,
          -15.9278774
        ]
      }
    },
    {
      "type": "Feature",
      "id": "node/12367826932",
      "properties": {
        "timestamp": "2024-11-27T11:07:12Z",
        "version": 2,
        "changeset": 159653910,
        "addr:city": "Corumbá de Goiás",
        "addr:postcode": "72960-000",
        "addr:street": "Travessa Dona Altina Magalhães",
        "addr:suburb": "Centro",
        "alt_name": "CEMA",
        "alt_name_1": "QualityMed Hospitalar",
        "amenity": "clinic",
        "healthcare": "clinic",
        "name": "Centro Médico CEMA",
        "operator": "C & M GERENCIA E ASSISTENCIA HOSPITAR LTDA;QUALITYMED HOSPITALAR LTDA;;VALTER PIO PEREIRA;ALBA VALERIA MAMEDE ELEUTERIO PIO PEREIRA",
        "operator:type": "private_for_profit",
        "payment:cash": "yes",
        "payment:credit_cards": "yes",
        "payment:pix": "yes",
        "phone": "+55 62 3338 1244",
        "ref:vatin": "BR01489504000180(CNPJ);BR02414329000124(CNPJ)",
        "website": "https://cemasaude.com.br",
        "id": "node/12367826932"
      },
      "geometry": {
        "type": "Point",
        "coordinates": [
          -48.8057543,
          -15.9272505
        ]
      }
    },
    {
      "type": "Feature",
      "id": "node/12596382028",
      "properties": {
        "timestamp": "2025-02-17T19:02:36Z",
        "version": 1,
        "changeset": 162630072,
        "addr:city": "Corumbá de Goiás",
        "addr:postcode": "72960-000",
        "addr:street": "Avenida Brasília",
        "addr:suburb": "9 de Julho",
        "amenity": "clinic",
        "contact:mobile": "+55 62 99976 1926",
        "email": "administracao@corumbadegoias.go.gov.br",
        "healthcare": "centre",
        "name": "Secretaria Municipal de Saúde",
        "opening_hours": "Mo-Fr 07:00-11:00, 13:00-16:00",
        "operator": "Prefeitura de Corumbá de Goiás",
        "phone": "+55 62 3338 1939",
        "website": "https://corumbadegoias.go.gov.br/estrutura-organizacional/?id=5",
        "id": "node/12596382028"
      },
      "geometry": {
        "type": "Point",
        "coordinates": [
          -48.8049402,
          -15.9193783
        ]
      }
    }
  ]
}
