{
  "type": "FeatureCollection",
  "features": [
    {
      "type": "Feature",
      "id": "way/642194002",
      "properties": {
        "timestamp": "2024-11-04T18:35:26Z",
        "version": 3,
        "changeset": 158752558,
        "addr:city": "Corumbá de Goiás",
        "addr:housenumber": "333",
        "addr:postcode": "72960-000",
        "addr:street": "Avenida Roberto Müller",
        "addr:suburb": "Centro",
        "alt_name": "Pio Pereira Odontologia",
        "amenity": "dentist",
        "building": "yes",
        "contact:instagram": "https://instagram.com/piopereiraodonto",
        "contact:mobile": "+55 62 99686 5432",
        "contact:mobile_1": "+55 62 99995 2939",
        "contact:phone": "+55 62 3338 1132",
        "contact:whatsapp": "https://wa.me/5562996865432",
        "contact:whatsapp_1": "https://wa.me/5562999952939",
        "healthcare": "dentist",
        "healthcare:speciality": "dentistry;surgery;general",
        "mobile": "+55 62 99686 5432",
        "name": "Clínica Odontológica Pio Pereira",
        "operator": "Pio Pereira Odontologia LTDA",
        "ref:vatin": "BR21840930000123(CNPJ)",
        "id": "way/642194002"
      },
      "geometry": {
        "type": "Polygon",
        "coordinates": [
          [
            [
              -48.8054462,
              -15.9281915
            ],
            [
              -48.8055797,
              -15.9282112
            ],
            [
              -48.8055601,
              -15.9283336
            ],
            [
              -48.8054266,
              -15.9283138
            ],
            [
              -48.8054462,
              -15.9281915
            ]
          ]
        ]
      }
    },
    {
      "type": "Feature",
      "id": "node/12305032367",
      "properties": {
        "timestamp": "2024-11-01T18:58:41Z",
        "version": 1,
        "changeset": 158632569,
        "addr:city": "Corumbá de Goiás",
        "addr:postcode": "72960-000",
        "addr:street": "Avenida Professor Francisco Bruno",
        "addr:suburb": "Centro",
        "amenity": "dentist",
        "contact:whatsapp": "https://wa.me/5562992344954",
        "healthcare": "dentist",
        "healthcare:speciality": "dentist",
        "mobile": "+55 62 99234 4954",
        "name": "Oral Medic: clínica médica, odontológica & estética",
        "phone": "+55 62 99234 4954",
        "id": "node/12305032367"
      },
      "geometry": {
        "type": "Point",
        "coordinates": [
          -48.8106748,
          -15.9267004
        ]
      }
    }
  ]
}
