{
  "type": "FeatureCollection",
  "features": [
    {
      "type": "Feature",
      "id": "way/1010739294",
      "properties": {
        "timestamp": "2021-12-09T17:40:45Z",
        "version": 1,
        "changeset": 114753782,
        "addr:city": "Corumbá de Goiás",
        "addr:postcode": "72960-000",
        "addr:street": "Rua Praça Major João Mendes",
        "addr:suburb": "Centro",
        "amenity": "doctors",
        "building": "yes",
        "contact:mobile": "+55 62 98412-1128",
        "contact:whatsapp": "+55 62 98412-1128",
        "healthcare": "doctor",
        "healthcare:speciality": "general",
        "name": "Integrar Life",
        "operator": "Integrar Life",
        "phone": "+55 62 3338-1128",
        "id": "way/1010739294"
      },
      "geometry": {
        "type": "Polygon",
        "coordinates": [
          [
            [
              -48.809894,
              -15.92598
            ],
            [
              -48.8098347,
              -15.9260678
            ],
            [
              -48.8097952,
              -15.9260432
            ],
            [
              -48.8098545,
              -15.9259553
            ],
            [
              -48.809894,
              -15.92598
            ]
          ]
        ]
      }
    }
  ]
}
