{
  "type": "FeatureCollection",
  "features": [
    {
      "type": "Feature",
      "id": "way/629249541",
      "properties": {
        "timestamp": "2022-05-25T01:18:47Z",
        "version": 4,
        "changeset": 121450390,
        "addr:city": "Corumbá de Goiás",
        "addr:postcode": "72960-000",
        "addr:street": "Praça Waldemar Gomes Teles",
        "addr:suburb": "Centro",
        "building": "yes",
        "contact:email": "camaracorumba@gmail.com",
        "contact:phone": "+55 62 3338-1246",
        "government": "legislative",
        "name": "Câmara Municipal de Corumbá de Goiás",
        "office": "government",
        "website": "https://www.corumbadegoias.go.leg.br/",
        "id": "way/629249541"
      },
      "geometry": {
        "type": "Polygon",
        "coordinates": [
          [
            [
              -48.8078063,
              -15.9251662
            ],
            [
              -48.8077905,
              -15.9253535
            ],
            [
              -48.8077371,
              -15.925363
            ],
            [
              -48.8076877,
              -15.9253545
            ],
            [
              -48.8077025,
              -15.9252195
            ],
            [
              -48.8076689,
              -15.9252138
            ],
            [
              -48.8076798,
              -15.9251558
            ],
            [
              -48.8078063,
              -15.9251662
            ]
          ]
        ]
      }
    },
    {
      "type": "Feature",
      "id": "node/7315824227",
      "properties": {
        "timestamp": "2023-08-04T08:07:17Z",
        "version": 2,
        "changeset": 139428485,
        "addr:city": "Corumbá de Goiás",
        "addr:postcode": "72960-000",
        "addr:street": "Praça da Matriz",
        "addr:suburb": "Centro",
        "government": "education",
        "name": "Secretaria Municipal de Educação e Cultura",
        "office": "government",
        "phone": "+55 62 3338 1934",
        "website": "https://corumbadegoias.go.gov.br/estrutura-organizacional/?id=4",
        "id": "node/7315824227"
      },
      "geometry": {
        "type": "Point",
        "coordinates": [
          -48.8073429,
          -15.9248948
        ]
      }
    },
    {
      "type": "Feature",
      "id": "node/10128256517",
      "properties": {
        "timestamp": "2022-10-25T14:20:56Z",
        "version": 1,
        "changeset": 128042860,
        "addr:city": "Corumbá de Goiás",
        "addr:postcode": "72960-000",
        "addr:street": "Rua 14 de Julho",
        "addr:suburb": "Alto da Boa Vista",
        "contact:mobile": "+55 62 99537 1971",
        "government": "public_service",
        "name": "Secretaria de Infraestrutura e Obras",
        "office": "government",
        "opening_hours": "Mo-Fr 07:00-11:00,13:00-16:00",
        "website": "https://corumbadegoias.go.gov.br/estrutura-organizacional/?id=7",
        "id": "node/10128256517"
      },
      "geometry": {
        "type": "Point",
        "coordinates": [
          -48.8197658,
          -15.9288132
        ]
      }
    }
  ]
}
