{
  "type": "FeatureCollection",
  "features": [
    {
      "type": "Feature",
      "id": "way/415598743",
      "properties": {
        "timestamp": "2021-08-16T17:06:08Z",
        "version": 3,
        "changeset": 109763125,
        "amenity": "clinic",
        "building": "house",
        "healthcare": "clinic",
        "id": "way/415598743"
      },
      "geometry": {
        "type": "Polygon",
        "coordinates": [
          [
            [
              -48.9682539,
              -16.2833028
            ],
            [
              -48.9683699,
              -16.2833574
            ],
            [
              -48.9682539,
              -16.2836032
            ],
            [
              -48.9681247,
              -16.2835486
            ],
            [
              -48.9681423,
              -16.2835213
            ],
            [
              -48.9680919,
              -16.2835066
            ],
            [
              -48.9681773,
              -16.2833196
            ],
            [
              -48.968232,
              -16.2833406
            ],
            [
              -48.9682539,
              -16.2833028
            ]
          ]
        ]
      }
    },
    {
      "type": "Feature",
      "id": "way/663335585",
      "properties": {
        "timestamp": "2022-05-25T01:23:14Z",
        "version": 3,
        "changeset": 121450514,
        "addr:city": "Anápolis",
        "addr:housenumber": "235",
        "addr:postcode": "75080-410",
        "addr:street": "Avenida Fayad Hanna",
        "addr:suburb": "Bairro Cidade Jardim",
        "amenity": "clinic",
        "building": "yes",
        "contact:mobile": "+55 62 99215 2242",
        "contact:phone": "+55 62 3310 5600",
        "healthcare": "clinic",
        "name": "Hospital Oftamológico de Anápolis",
        "name_1": "HOA",
        "website": "https://hoa.med.br/",
        "id": "way/663335585"
      },
      "geometry": {
        "type": "Polygon",
        "coordinates": [
          [
            [
              -48.9484845,
              -16.3211533
            ],
            [
              -48.9486437,
              -16.3216374
            ],
            [
              -48.9483402,
              -16.3215842
            ],
            [
              -48.9482244,
              -16.321232
            ],
            [
              -48.9484845,
              -16.3211533
            ]
          ]
        ]
      }
    },
    {
      "type": "Feature",
      "id": "way/682128364",
      "properties": {
        "timestamp": "2022-04-16T22:55:02Z",
        "version": 2,
        "changeset": 119800700,
        "addr:city": "Anápolis",
        "addr:street": "Avenida dos Pirineus",
        "addr:suburb": "Parque dos Pirineus",
        "amenity": "clinic",
        "building": "yes",
        "healthcare": "clinic",
        "id": "way/682128364"
      },
      "geometry": {
        "type": "Polygon",
        "coordinates": [
          [
            [
              -48.9552615,
              -16.2790911
            ],
            [
              -48.9555659,
              -16.2791039
            ],
            [
              -48.9555538,
              -16.2795918
            ],
            [
              -48.9552682,
              -16.2795854
            ],
            [
              -48.9552615,
              -16.2790911
            ]
          ]
        ]
      }
    },
    {
      "type": "Feature",
      "id": "way/802468666",
      "properties": {
        "timestamp": "2021-08-16T17:09:43Z",
        "version": 2,
        "changeset": 109763281,
        "addr:housenumber": "262",
        "addr:postcode": "75110-580",
        "addr:street": "Avenida Pinheiro Chagas",
        "amenity": "clinic",
        "healthcare": "clinic",
        "name": "Fisioesporte",
        "opening_hours": "Mo-Fr 07:00-18:00",
        "phone": "+55 (62) 3943-2008",
        "website": "https://www.facebook.com/pages/Fisioesporte-Cl%C3%ADnica-de-Fisioterapia/210363175655071",
        "id": "way/802468666"
      },
      "geometry": {
        "type": "Polygon",
        "coordinates": [
          [
            [
              -48.9464367,
              -16.334431
            ],
            [
              -48.9465252,
              -16.3346617
            ],
            [
              -48.9464014,
              -16.3347054
            ],
            [
              -48.9463592,
              -16.3345954
            ],
            [
              -48.9463129,
              -16.3344747
            ],
            [
              -48.9464367,
              -16.334431
            ]
          ]
        ]
      }
    },
    {
      "type": "Feature",
      "id": "way/818406212",
      "properties": {
        "timestamp": "2020-06-22T10:11:32Z",
        "version": 1,
        "changeset": 86973244,
        "amenity": "clinic",
        "name": "Ultramed",
        "id": "way/818406212"
      },
      "geometry": {
        "type": "Polygon",
        "coordinates": [
          [
            [
              -48.94815,
              -16.3183395
            ],
            [
              -48.9482331,
              -16.3185428
            ],
            [
              -48.9482372,
              -16.3185634
            ],
            [
              -48.9482345,
              -16.3185789
            ],
            [
              -48.9482264,
              -16.3185898
            ],
            [
              -48.9482157,
              -16.3185988
            ],
            [
              -48.9480843,
              -16.3186542
            ],
            [
              -48.947983,
              -16.3183961
            ],
            [
              -48.94815,
              -16.3183395
            ]
          ]
        ]
      }
    },
    {
      "type": "Feature",
      "id": "way/1080556576",
      "properties": {
        "timestamp": "2022-12-30T17:26:52Z",
        "version": 3,
        "changeset": 130696396,
        "abbr_name": "CRA",
        "addr:city": "Anápolis",
        "addr:housenumber": "172",
        "addr:street": "Rua Desembargador Jaime",
        "addr:suburb": "Setor Central",
        "amenity": "clinic",
        "building": "yes",
        "contact:mobile": "+55 62 99653 2992",
        "contact:phone": "+55 62 3333-3400",
        "contact:whatsapp": "+55 62 9653-2992",
        "email": "contato@cra.med.br",
        "healthcare": "clinic",
        "healthcare:speciality": "radiology",
        "name": "Clínica Radiológica de Anápolis",
        "opening_hours": "Mo-Fr 06:30-18:00; Sa 07:00-11:00",
        "operator": "Clínica Radiológica de Anápolis",
        "operator:abbr": "CRA",
        "operator:type": "private",
        "phone": "+55 62 3333-3400",
        "website": "https://cra.med.br/",
        "id": "way/1080556576"
      },
      "geometry": {
        "type": "Polygon",
        "coordinates": [
          [
            [
              -48.9535559,
              -16.3258253
            ],
            [
              -48.9535673,
              -16.3260223
            ],
            [
              -48.9533307,
              -16.326036
            ],
            [
              -48.9533207,
              -16.3258363
            ],
            [
              -48.9535559,
              -16.3258253
            ]
          ]
        ]
      }
    },
    {
      "type": "Feature",
      "id": "way/1080557517",
      "properties": {
        "timestamp": "2022-07-22T14:17:53Z",
        "version": 2,
        "changeset": 123942129,
        "abbr": "CRA",
        "addr:city": "Anápolis",
        "addr:housenumber": "890",
        "addr:street": "Avenida Santos Dumont",
        "addr:suburb": "Bairro Jundiaí",
        "amenity": "clinic",
        "building": "yes",
        "contact:phone": "+55 62 3333-3400",
        "contact:whatsapp": "+55 62 9653-2992",
        "email": "contato@cra.med.br",
        "healthcare": "clinic",
        "healthcare:speciality": "radiology",
        "name": "Clínica Radiológica de Anápolis",
        "opening_hours": "Mo-Fr 06:30-18:00; Sa 07:00-11:30",
        "operator": "Clínica Radiológica de Anápolis",
        "operator:abbr": "CRA",
        "operator:type": "private",
        "phone": "+55 62 3333-3400",
        "website": "https://cra.med.br/",
        "id": "way/1080557517"
      },
      "geometry": {
        "type": "Polygon",
        "coordinates": [
          [
            [
              -48.9404451,
              -16.3295224
            ],
            [
              -48.9405285,
              -16.3297344
            ],
            [
              -48.9404561,
              -16.3297606
            ],
            [
              -48.9403726,
              -16.3295487
            ],
            [
              -48.9404451,
              -16.3295224
            ]
          ]
        ]
      }
    },
    {
      "type": "Feature",
      "id": "way/1082413898",
      "properties": {
        "timestamp": "2022-07-29T21:32:21Z",
        "version": 3,
        "changeset": 124248812,
        "addr:city": "Anápolis",
        "addr:housenumber": "890",
        "addr:postcode": "75113-185",
        "addr:street": "Avenida Santos Dumont",
        "addr:suburb": "Bairro Jundiaí",
        "alt_name": "Pulmonale Clínica do Aparelho Respiratório",
        "alt_name_1": "Pulmonale",
        "amenity": "clinic",
        "building": "yes",
        "contact:email": "clinicapulmonale@gmail.com",
        "contact:instagram": "https://www.instagram.com/clinicapulmonale",
        "contact:mobile": "+55 62 99918-3020",
        "contact:website": "https://linktr.ee/clinicapulmonale",
        "contact:whatsapp": "+55 62 99918-3020",
        "healthcare": "clinic",
        "healthcare:speciality": "pulmonology",
        "name": "Clínica Pulmonale",
        "opening_hours": "Mo-Fr 08:00-18:00",
        "operator": "Clínica Pulmonale",
        "operator:type": "private",
        "id": "way/1082413898"
      },
      "geometry": {
        "type": "Polygon",
        "coordinates": [
          [
            [
              -48.9405447,
              -16.3295278
            ],
            [
              -48.9406138,
              -16.3297058
            ],
            [
              -48.9405376,
              -16.329733
            ],
            [
              -48.9404685,
              -16.3295551
            ],
            [
              -48.9405447,
              -16.3295278
            ]
          ]
        ]
      }
    },
    {
      "type": "Feature",
      "id": "node/3709296838",
      "properties": {
        "timestamp": "2015-08-22T14:18:07Z",
        "version": 1,
        "changeset": 33506215,
        "amenity": "clinic",
        "name": "Gastromed",
        "id": "node/3709296838"
      },
      "geometry": {
        "type": "Point",
        "coordinates": [
          -48.9473964,
          -16.3160142
        ]
      }
    },
    {
      "type": "Feature",
      "id": "node/4349885613",
      "properties": {
        "timestamp": "2024-12-18T19:45:27Z",
        "version": 8,
        "changeset": 160366413,
        "addr:city": "Anápolis",
        "addr:housenumber": "917",
        "addr:postcode": "75020-010",
        "addr:street": "Avenida Senador José Lourenço Dias",
        "addr:suburb": "Centro",
        "alt_name": "Clínica Jamous",
        "amenity": "clinic",
        "contact:email": "ouvidoria@clinicajamous.com.br",
        "contact:facebook": "https://www.facebook.com/centromedicojamous",
        "contact:instagram": "https://www.instagram.com/centromedicojamous",
        "contact:mobile": "+55 62 9669 9337",
        "contact:whatsapp": "https://wa.me/556299699337",
        "healthcare": "clinic",
        "healthcare:speciality": "general;paediatrics;endocrinology;cardiology;plastic_surgery;surgery;neurology;radiology;gastroenterology;psychiatry;dermatology",
        "name": "Centro Médico Jamous",
        "opening_hours": "Mo-Fr 07:00-17:00; Sa 07:00-12:00",
        "operator": "JAMOUS CENTRO DIAGNOSTICO LTDA",
        "operator:type": "private",
        "owner": "Karen Fayad Gemus Diniz;Maria Adla Fayad Gemus;Samir Fayad Gemus;Samuel Fayad Gemus;Antonio Jorge Auad Gemus",
        "phone": "+55 62 3937 5151",
        "ref:vatin": "BR10459913000124(CNPJ);BR25134453000131(CNPJ)",
        "website": "https://www.clinicajamous.com.br/",
        "id": "node/4349885613"
      },
      "geometry": {
        "type": "Point",
        "coordinates": [
          -48.9508441,
          -16.3268594
        ]
      }
    },
    {
      "type": "Feature",
      "id": "node/4401054692",
      "properties": {
        "timestamp": "2021-08-16T17:09:43Z",
        "version": 2,
        "changeset": 109763281,
        "amenity": "clinic",
        "healthcare": "clinic",
        "name": "pulmonale clínica do aparelho respiratório",
        "name:pt": "pulmonale clínica do aparelho respiratório",
        "id": "node/4401054692"
      },
      "geometry": {
        "type": "Point",
        "coordinates": [
          -48.9538525,
          -16.3301733
        ]
      }
    },
    {
      "type": "Feature",
      "id": "node/4417942294",
      "properties": {
        "timestamp": "2016-09-25T18:31:58Z",
        "version": 1,
        "changeset": 42429310,
        "amenity": "clinic",
        "name": "polisaude jaiara",
        "name:pt": "polisaude jaiara",
        "id": "node/4417942294"
      },
      "geometry": {
        "type": "Point",
        "coordinates": [
          -48.9686779,
          -16.2926786
        ]
      }
    },
    {
      "type": "Feature",
      "id": "node/6259383431",
      "properties": {
        "timestamp": "2022-11-13T19:38:10Z",
        "version": 3,
        "changeset": 128860483,
        "amenity": "clinic",
        "healthcare": "clinic",
        "name": "Banco de Leite Humano",
        "id": "node/6259383431"
      },
      "geometry": {
        "type": "Point",
        "coordinates": [
          -48.974224,
          -16.3468813
        ]
      }
    },
    {
      "type": "Feature",
      "id": "node/6387924278",
      "properties": {
        "timestamp": "2019-04-06T17:04:35Z",
        "version": 1,
        "changeset": 68957015,
        "addr:city": "Anápolis",
        "addr:street": "Avenida dos Pirineus",
        "addr:suburb": "Parque dos Pirineus",
        "amenity": "clinic",
        "healthcare": "clinic",
        "name": "Posto de Saúde",
        "id": "node/6387924278"
      },
      "geometry": {
        "type": "Point",
        "coordinates": [
          -48.9554196,
          -16.279334
        ]
      }
    },
    {
      "type": "Feature",
      "id": "node/12250361946",
      "properties": {
        "timestamp": "2024-10-14T12:09:21Z",
        "version": 1,
        "changeset": 157874140,
        "addr:city": "Anápolis",
        "addr:housenumber": "3790",
        "addr:postcode": "75083-440",
        "addr:street": "Avenida Brasil Norte",
        "addr:suburb": "Cidade Universitária",
        "amenity": "clinic",
        "contact:mobile": "+55 62 98304 0190",
        "contact:whatsapp": "https://wa.me/5562983040190",
        "healthcare": "clinic",
        "healthcare:speciality": "cardiology",
        "mobile": "+55 62 98304 0190",
        "name": "CardioCor Clínica Cardiológica",
        "opening_hours": "Mo-Fr 07:30-17:00",
        "id": "node/12250361946"
      },
      "geometry": {
        "type": "Point",
        "coordinates": [
          -48.9417662,
          -16.2964194
        ]
      }
    },
    {
      "type": "Feature",
      "id": "node/12427546701",
      "properties": {
        "timestamp": "2024-12-18T18:42:39Z",
        "version": 2,
        "changeset": 160364193,
        "abbr_name": "INNA",
        "addr:city": "Anápolis",
        "addr:housenumber": "22",
        "addr:postcode": "75020-040",
        "addr:street": "Rua Desembargador Jaime",
        "addr:suburb": "Setor Central",
        "amenity": "clinic",
        "healthcare": "clinic",
        "healthcare:speciality": "neurology;neurosurgery",
        "name": "Instituto de Neurologia e Neurocirurgia de Anápolis (INNA)",
        "operator": "INSTITUTO DE NEUROLOGIA E NEUROCIRURGIA DE ANAPOLIS LTDA",
        "operator:type": "private",
        "owner": "Wolney Ronaldo Abrahao Silva;Daniella Abrahao Silva Xavier",
        "phone": "+55 62 3324 0471",
        "ref:vatin": "BR16679410000140(CNPJ)",
        "id": "node/12427546701"
      },
      "geometry": {
        "type": "Point",
        "coordinates": [
          -48.9532669,
          -16.3246071
        ]
      }
    },
    {
      "type": "Feature",
      "id": "node/12431605486",
      "properties": {
        "timestamp": "2024-12-18T19:42:42Z",
        "version": 1,
        "changeset": 160366321,
        "addr:city": "Anápolis",
        "addr:housenumber": "917",
        "addr:postcode": "75020-010",
        "addr:street": "Avenida Senador José Lourenço Dias",
        "addr:suburb": "Centro",
        "amenity": "clinic",
        "contact:whatsapp": "https://wa.me/5562982382783",
        "healthcare": "clinic",
        "healthcare:speciality": "neonatology",
        "level": "2",
        "mobile": "+55 62 98238 2783",
        "name": "Neuroclin: Doutora Neurologista Geovanna da Costa Ferreira Gemus (CRM: 14619-GO)",
        "operator": "Geovanna da Costa Ferreira Gemus",
        "operator:type": "private",
        "website": "https://clinicajamous.com.br/preparo-de-exames/",
        "id": "node/12431605486"
      },
      "geometry": {
        "type": "Point",
        "coordinates": [
          -48.9508173,
          -16.3268718
        ]
      }
    },
    {
      "type": "Feature",
      "id": "node/12465523851",
      "properties": {
        "timestamp": "2024-12-31T15:34:01Z",
        "version": 1,
        "changeset": 160838134,
        "addr:city": "Anápolis",
        "addr:housenumber": "1077",
        "addr:postcode": "75020-010",
        "addr:street": "Avenida Senador José Lourenço Dias",
        "addr:suburb": "Centro",
        "amenity": "clinic",
        "contact:instagram": "https://www.instagram.com/clinicacardioimagem",
        "contact:whatsapp": "https://wa.me/5562992762606",
        "email": "cardioimagem.anps@hotmail.com",
        "healthcare": "clinic",
        "healthcare:speciality": "cardiology;neurology",
        "mobile": "+55 62 99276 2606",
        "name": "Clínica Cardioimagem",
        "opening_hours": "Mo-Su 08:00-18:00",
        "operator": "F.G.A. SERVICOS MEDICOS LTDA",
        "operator:type": "private",
        "owner": "Francis Gonçalves de Azevedo;Adam Gonçalves de Azevedo",
        "phone": "+55 62 3701 4020",
        "ref:vatin": "BR20551471000103(CNPJ)",
        "id": "node/12465523851"
      },
      "geometry": {
        "type": "Point",
        "coordinates": [
          -48.9511335,
          -16.3283362
        ]
      }
    }
  ]
}
