{
  "type": "FeatureCollection",
  "features": [
    {
      "type": "Feature",
      "id": "node/9598108585",
      "properties": {
        "timestamp": "2022-03-22T19:41:59Z",
        "version": 1,
        "changeset": 118792080,
        "addr:city": "Abre Campo",
        "addr:housenumber": "131",
        "addr:postcode": "35365000",
        "addr:street": "Avenida Raul Soares",
        "addr:suburb": "Centro",
        "name": "Hotel Avenida",
        "tourism": "hotel",
        "id": "node/9598108585"
      },
      "geometry": {
        "type": "Point",
        "coordinates": [
          -42.4766328,
          -20.3004787
        ]
      }
    },
    {
      "type": "Feature",
      "id": "node/9598108586",
      "properties": {
        "timestamp": "2022-03-22T19:41:59Z",
        "version": 1,
        "changeset": 118792080,
        "addr:city": "Abre Campo",
        "addr:housenumber": "29",
        "addr:postcode": "35365000",
        "addr:street": "Rua Professora Yolanda Brandão",
        "name": "Hotel São Jorge",
        "tourism": "hotel",
        "id": "node/9598108586"
      },
      "geometry": {
        "type": "Point",
        "coordinates": [
          -42.4776552,
          -20.2957754
        ]
      }
    },
    {
      "type": "Feature",
      "id": "node/9598108587",
      "properties": {
        "timestamp": "2022-03-25T01:38:20Z",
        "version": 2,
        "changeset": 118888743,
        "addr:city": "Abre Campo",
        "addr:postcode": "35365000",
        "addr:street": "BR 262, km 96",
        "name": "Hotel Cotochés",
        "tourism": "hotel",
        "id": "node/9598108587"
      },
      "geometry": {
        "type": "Point",
        "coordinates": [
          -42.476615,
          -20.2962654
        ]
      }
    }
  ]
}
