{
  "type": "FeatureCollection",
  "features": [
    {
      "type": "Feature",
      "id": "way/581441235",
      "properties": {
        "timestamp": "2021-02-14T19:49:14Z",
        "version": 4,
        "changeset": 99264663,
        "addr:city": "Camaragibe",
        "addr:housenumber": "26",
        "addr:postcode": "54777-200",
        "addr:street": "Rua Alterosa",
        "addr:suburb": "João Paulo II",
        "amenity": "community_centre",
        "building": "yes",
        "name": "Associação de Moradores Gleba",
        "opening_hours:signed": "no",
        "id": "way/581441235"
      },
      "geometry": {
        "type": "Polygon",
        "coordinates": [
          [
            [
              -35.0041263,
              -8.0129142
            ],
            [
              -35.0042107,
              -8.0130373
            ],
            [
              -35.0041128,
              -8.0130985
            ],
            [
              -35.0040766,
              -8.0130388
            ],
            [
              -35.0039923,
              -8.0130835
            ],
            [
              -35.0039569,
              -8.0130161
            ],
            [
              -35.0041263,
              -8.0129142
            ]
          ]
        ]
      }
    },
    {
      "type": "Feature",
      "id": "way/825050215",
      "properties": {
        "timestamp": "2020-07-10T22:36:48Z",
        "version": 1,
        "changeset": 87838969,
        "addr:city": "Camaragibe",
        "addr:street": "Rua Água Marinha",
        "addr:suburb": "vale das pedreiras",
        "amenity": "community_centre",
        "area": "yes",
        "building": "yes",
        "name": "Associação dos Moradores do Vale das Pedreiras - AMOVAP",
        "id": "way/825050215"
      },
      "geometry": {
        "type": "Polygon",
        "coordinates": [
          [
            [
              -34.9669604,
              -8.0068027
            ],
            [
              -34.9670394,
              -8.0069456
            ],
            [
              -34.9668874,
              -8.0070281
            ],
            [
              -34.9668083,
              -8.0068852
            ],
            [
              -34.9669604,
              -8.0068027
            ]
          ]
        ]
      }
    },
    {
      "type": "Feature",
      "id": "way/859096903",
      "properties": {
        "timestamp": "2020-10-15T01:10:35Z",
        "version": 1,
        "changeset": 92497532,
        "addr:city": "Camaragibe",
        "addr:street": "Avenida Doutor Belmino Correia",
        "addr:suburb": "Estação Nova",
        "amenity": "community_centre",
        "building": "yes",
        "name": "Associação dos Criadores de Pássaros de Camaragibe",
        "id": "way/859096903"
      },
      "geometry": {
        "type": "Polygon",
        "coordinates": [
          [
            [
              -35.004363,
              -8.0202971
            ],
            [
              -35.0043986,
              -8.0203396
            ],
            [
              -35.0043639,
              -8.0203681
            ],
            [
              -35.0043283,
              -8.0203256
            ],
            [
              -35.004363,
              -8.0202971
            ]
          ]
        ]
      }
    },
    {
      "type": "Feature",
      "id": "way/901164192",
      "properties": {
        "timestamp": "2021-01-28T11:51:31Z",
        "version": 1,
        "changeset": 98294176,
        "addr:city": "Camaragibe",
        "addr:street": "Avenida Márcia de Windsor",
        "addr:suburb": "João Paulo II",
        "amenity": "community_centre",
        "building": "yes",
        "name": "Associação das Mulheres de João Paulo II",
        "id": "way/901164192"
      },
      "geometry": {
        "type": "Polygon",
        "coordinates": [
          [
            [
              -34.9995321,
              -8.0079154
            ],
            [
              -34.9995567,
              -8.0079732
            ],
            [
              -34.9993515,
              -8.0080589
            ],
            [
              -34.9993269,
              -8.0080012
            ],
            [
              -34.9995321,
              -8.0079154
            ]
          ]
        ]
      }
    }
  ]
}
