{
  "type": "FeatureCollection",
  "features": [
    {
      "type": "Feature",
      "id": "node/8747288021",
      "properties": {
        "timestamp": "2021-05-19T19:57:09Z",
        "version": 1,
        "changeset": 104982589,
        "amenity": "dentist",
        "healthcare": "dentist",
        "name": "Ricardo Odonto",
        "id": "node/8747288021"
      },
      "geometry": {
        "type": "Point",
        "coordinates": [
          -34.9895624,
          -8.0219489
        ]
      }
    },
    {
      "type": "Feature",
      "id": "node/9348936495",
      "properties": {
        "timestamp": "2021-12-18T16:19:34Z",
        "version": 1,
        "changeset": 115101855,
        "addr:city": "Camaragibe",
        "addr:housenumber": "332",
        "addr:street": "Avenida Ersina Lapenda",
        "addr:suburb": "Timbi",
        "amenity": "dentist",
        "healthcare": "dentist",
        "name": "Nildo Pr√≥tese",
        "phone": "+55 81 98785-8775;+55 81 99944-0187",
        "id": "node/9348936495"
      },
      "geometry": {
        "type": "Point",
        "coordinates": [
          -34.9911711,
          -8.019497
        ]
      }
    },
    {
      "type": "Feature",
      "id": "node/9383626971",
      "properties": {
        "timestamp": "2022-01-01T13:57:23Z",
        "version": 1,
        "changeset": 115637176,
        "addr:city": "Camaragibe",
        "addr:street": "Avenida Doutor Belmino Correia",
        "addr:suburb": "Bairro Novo do Carmelo",
        "amenity": "dentist",
        "healthcare": "dentist",
        "level": "0;1",
        "name": "Sorridents",
        "id": "node/9383626971"
      },
      "geometry": {
        "type": "Point",
        "coordinates": [
          -34.9847166,
          -8.0209671
        ]
      }
    }
  ]
}
