{
  "type": "FeatureCollection",
  "features": [
    {
      "type": "Feature",
      "id": "way/782463107",
      "properties": {
        "timestamp": "2020-03-18T18:09:39Z",
        "version": 1,
        "changeset": 82359033,
        "addr:city": "Paulicéia",
        "addr:housenumber": "364",
        "addr:postcode": "17990000",
        "addr:street": "Conde Augusto Chericatti",
        "addr:suburb": "Centro",
        "amenity": "community_centre",
        "building": "yes",
        "name": "Centro Comunitário de Paulicéia",
        "opening_hours": "sunrise-sunset",
        "id": "way/782463107"
      },
      "geometry": {
        "type": "Polygon",
        "coordinates": [
          [
            [
              -51.8335907,
              -21.3160259
            ],
            [
              -51.8336888,
              -21.3162652
            ],
            [
              -51.8334739,
              -21.3163391
            ],
            [
              -51.8333899,
              -21.3160868
            ],
            [
              -51.8335907,
              -21.3160259
            ]
          ]
        ]
      }
    }
  ]
}
