{
  "type": "FeatureCollection",
  "features": [
    {
      "type": "Feature",
      "id": "way/1336604686",
      "properties": {
        "timestamp": "2024-11-21T19:43:01Z",
        "version": 1,
        "changeset": 159432376,
        "addr:city": "Ouro Verde",
        "addr:housenumber": "10",
        "addr:street": "Rua Pará",
        "addr:suburb": "Nova Esperança",
        "amenity": "school",
        "grades": "0-6",
        "name": "Creche Escola Municipal Carrossel",
        "operator": "Prefeitura Municipal de Ouro Verde",
        "operator:type": "public",
        "id": "way/1336604686"
      },
      "geometry": {
        "type": "Polygon",
        "coordinates": [
          [
            [
              -51.6959538,
              -21.4959418
            ],
            [
              -51.6959761,
              -21.4964742
            ],
            [
              -51.6955543,
              -21.4964779
            ],
            [
              -51.695531,
              -21.4959455
            ],
            [
              -51.6959538,
              -21.4959418
            ]
          ]
        ]
      }
    }
  ]
}
