{
  "type": "FeatureCollection",
  "features": [
    {
      "type": "Feature",
      "id": "way/853362622",
      "properties": {
        "timestamp": "2020-09-30T15:51:00Z",
        "version": 1,
        "changeset": 91777979,
        "addr:city": "Santa Rita",
        "addr:postcode": "58304400",
        "addr:street": "Avenida Senador Marcondes Gadelha",
        "addr:suburb": "Lerolândia",
        "amenity": "clinic",
        "building": "yes",
        "healthcare": "clinic",
        "healthcare:speciality": "general",
        "name": "Posto de Saúde Familiar",
        "wheelchair": "limited",
        "id": "way/853362622"
      },
      "geometry": {
        "type": "Polygon",
        "coordinates": [
          [
            [
              -34.9840644,
              -6.9780129
            ],
            [
              -34.9838135,
              -6.9782574
            ],
            [
              -34.9837147,
              -6.9781488
            ],
            [
              -34.9839534,
              -6.9779141
            ],
            [
              -34.9840644,
              -6.9780129
            ]
          ]
        ]
      }
    },
    {
      "type": "Feature",
      "id": "way/1076433289",
      "properties": {
        "timestamp": "2022-07-06T21:06:42Z",
        "version": 1,
        "changeset": 123293443,
        "addr:city": "Santa Rita",
        "addr:street": "Rua Lucena",
        "addr:suburb": "Munícipios",
        "amenity": "clinic",
        "building": "yes",
        "healthcare": "clinic",
        "healthcare:speciality": "orthopaedics",
        "name": "CER - Centro de Reabilitação",
        "opening_hours": "Mo-Fr 08:00-17:00",
        "operator": "Secretaria Municipal de Saúde",
        "operator:type": "public",
        "id": "way/1076433289"
      },
      "geometry": {
        "type": "Polygon",
        "coordinates": [
          [
            [
              -34.9697141,
              -7.1529647
            ],
            [
              -34.9697141,
              -7.1533257
            ],
            [
              -34.9694864,
              -7.1533418
            ],
            [
              -34.9694803,
              -7.1529586
            ],
            [
              -34.9696084,
              -7.1529606
            ],
            [
              -34.9697141,
              -7.1529647
            ]
          ]
        ]
      }
    }
  ]
}
