{
  "type": "FeatureCollection",
  "features": [
    {
      "type": "Feature",
      "id": "way/1077430396",
      "properties": {
        "timestamp": "2022-07-10T13:14:38Z",
        "version": 1,
        "changeset": 123431983,
        "addr:city": "Santa Rita",
        "addr:postcode": "58304400",
        "addr:street": "Rua Sobral Pinto",
        "addr:suburb": "Lerol√¢ndia",
        "amenity": "pharmacy",
        "building": "yes",
        "building:levels": "1",
        "dispensing": "yes",
        "healthcare": "pharmacy",
        "height": "10",
        "opening_hours": "Mo-Sa 08:00-20:00",
        "payment:cash": "yes",
        "payment:credit_cards": "yes",
        "payment:debit_cards": "yes",
        "id": "way/1077430396"
      },
      "geometry": {
        "type": "Polygon",
        "coordinates": [
          [
            [
              -34.9838823,
              -6.9775383
            ],
            [
              -34.9839396,
              -6.9775913
            ],
            [
              -34.9839148,
              -6.9776178
            ],
            [
              -34.9838575,
              -6.9775648
            ],
            [
              -34.9838823,
              -6.9775383
            ]
          ]
        ]
      }
    }
  ]
}
