{
  "type": "FeatureCollection",
  "features": [
    {
      "type": "Feature",
      "id": "node/3466645959",
      "properties": {
        "timestamp": "2023-08-07T12:44:35Z",
        "version": 7,
        "changeset": 139563347,
        "addr:city": "Raul Soares",
        "addr:housenumber": "16",
        "addr:street": "Praça Doutor Durval Grossi",
        "addr:suburb": "Centro",
        "government": "legislative",
        "name": "Câmara Municipal de Raul Soares",
        "office": "government",
        "phone": "+55 33 3351 2090",
        "id": "node/3466645959"
      },
      "geometry": {
        "type": "Point",
        "coordinates": [
          -42.4527713,
          -20.10098
        ]
      }
    },
    {
      "type": "Feature",
      "id": "node/3470491042",
      "properties": {
        "timestamp": "2022-07-28T19:39:49Z",
        "version": 3,
        "changeset": 124201028,
        "addr:street": "Rua Antônio Vieira dos Santos - Centro",
        "government": "social_security",
        "name": "Agência do INSS",
        "office": "government",
        "operator": "Instituto Nacional do Seguro Social",
        "operator:short": "INSS",
        "operator:wikidata": "Q10302614",
        "id": "node/3470491042"
      },
      "geometry": {
        "type": "Point",
        "coordinates": [
          -42.4556515,
          -20.1038508
        ]
      }
    },
    {
      "type": "Feature",
      "id": "node/3470507044",
      "properties": {
        "timestamp": "2023-08-06T01:53:45Z",
        "version": 5,
        "changeset": 139500155,
        "addr:housenumber": "343",
        "addr:street": "Rual Camilo de Moura",
        "fixme": "precisa do ddd 3351-1955",
        "government": "register_office",
        "name": "Cartório",
        "office": "government",
        "id": "node/3470507044"
      },
      "geometry": {
        "type": "Point",
        "coordinates": [
          -42.4527118,
          -20.100647
        ]
      }
    }
  ]
}
