{
  "type": "FeatureCollection",
  "features": [
    {
      "type": "Feature",
      "id": "node/3470485582",
      "properties": {
        "timestamp": "2023-08-17T01:46:53Z",
        "version": 4,
        "changeset": 139990149,
        "addr:city": "Raul Soares",
        "addr:housenumber": "12",
        "addr:street": "Praça Antônio Olimpio Sobrinho",
        "name": "Hotel Santo Antônio",
        "phone": "+55 33 3351 1146",
        "tourism": "hotel",
        "id": "node/3470485582"
      },
      "geometry": {
        "type": "Point",
        "coordinates": [
          -42.457332,
          -20.1058287
        ]
      }
    },
    {
      "type": "Feature",
      "id": "node/3476478945",
      "properties": {
        "timestamp": "2023-08-06T01:53:45Z",
        "version": 3,
        "changeset": 139500155,
        "addr:housenumber": "56",
        "addr:street": "Avenida Prefeito Wilson Damião",
        "addr:suburb": "Centro",
        "name": "Hotel Cecília",
        "tourism": "hotel",
        "id": "node/3476478945"
      },
      "geometry": {
        "type": "Point",
        "coordinates": [
          -42.4536057,
          -20.1012487
        ]
      }
    }
  ]
}
