{
  "type": "FeatureCollection",
  "features": [
    {
      "type": "Feature",
      "id": "way/921763200",
      "properties": {
        "timestamp": "2024-10-05T13:35:56Z",
        "version": 3,
        "changeset": 157501552,
        "addr:housenumber": "km 15",
        "addr:postcode": "12270-000",
        "addr:street": "Rodovia dos Tamoios",
        "addr:suburb": "Varadouro",
        "alt_name": "EMEF Doutor João Leite Vilhena",
        "amenity": "school",
        "email": "drjoao.edu@jambeiro.sp.gov.br",
        "name": "Escola Municipal de Ensino Fundamental Doutor João Leite Vilhena",
        "phone": "+55 12 9627 8074",
        "ref": "INEP-35216800",
        "source": "CADMEC 2017;INEP",
        "id": "way/921763200"
      },
      "geometry": {
        "type": "Polygon",
        "coordinates": [
          [
            [
              -45.7885368,
              -23.2920089
            ],
            [
              -45.7883222,
              -23.292275
            ],
            [
              -45.7876302,
              -23.2915876
            ],
            [
              -45.7878045,
              -23.2914102
            ],
            [
              -45.7885368,
              -23.2920089
            ]
          ]
        ]
      }
    },
    {
      "type": "Feature",
      "id": "way/921778382",
      "properties": {
        "timestamp": "2021-03-24T16:54:12Z",
        "version": 2,
        "changeset": 101662783,
        "addr:housenumber": "267",
        "addr:postcode": "12270-000",
        "addr:street": "Rua Coronel Batista",
        "addr:suburb": "Centro",
        "amenity": "school",
        "email": "molimpia.edu.jambeiro@uol.com",
        "name": "Escola Municipal de Ensino Fundamental Professora Maria Olímpia Vieira",
        "phone": "+55 12 3978 1624",
        "source": "CADMEC 2017;INEP",
        "id": "way/921778382"
      },
      "geometry": {
        "type": "Polygon",
        "coordinates": [
          [
            [
              -45.692251,
              -23.2575776
            ],
            [
              -45.691618,
              -23.2578043
            ],
            [
              -45.6914721,
              -23.2573838
            ],
            [
              -45.6920471,
              -23.2571488
            ],
            [
              -45.692251,
              -23.2575776
            ]
          ]
        ]
      }
    },
    {
      "type": "Feature",
      "id": "way/921892247",
      "properties": {
        "timestamp": "2021-03-25T01:15:49Z",
        "version": 1,
        "changeset": 101679743,
        "addr:housenumber": "222",
        "addr:postcode": "12270-000",
        "addr:street": "Rua  Major Gurgel",
        "addr:suburb": "Centro",
        "amenity": "school",
        "name": "Escola Estadual Coronel Joaquim Franco de Almeida",
        "operator": "Secretaria da Educação do Estado de São Paulo",
        "operator:type": "government",
        "phone": "+55 12 3978 1170",
        "ref": "INEP-35013699",
        "source": "CADMEC 2017;INEP",
        "id": "way/921892247"
      },
      "geometry": {
        "type": "Polygon",
        "coordinates": [
          [
            [
              -45.6937741,
              -23.2541349
            ],
            [
              -45.6938641,
              -23.2543693
            ],
            [
              -45.6930545,
              -23.254648
            ],
            [
              -45.6930921,
              -23.2541637
            ],
            [
              -45.6937741,
              -23.2541349
            ]
          ]
        ]
      }
    }
  ]
}
