{
  "type": "FeatureCollection",
  "features": [
    {
      "type": "Feature",
      "id": "way/1034150913",
      "properties": {
        "timestamp": "2022-02-22T12:22:59Z",
        "version": 1,
        "changeset": 117725166,
        "addr:city": "Caseara",
        "addr:housenumber": "770",
        "addr:postcode": "77680-000",
        "addr:street": "Avenida Brasil",
        "addr:suburb": "Centro",
        "amenity": "school",
        "name": "Colegio Estadual Trajano De Almeida",
        "phone": "+55 63 3379 1247",
        "id": "way/1034150913"
      },
      "geometry": {
        "type": "Polygon",
        "coordinates": [
          [
            [
              -49.9547745,
              -9.2752324
            ],
            [
              -49.954234,
              -9.275735
            ],
            [
              -49.9537797,
              -9.2752591
            ],
            [
              -49.9543201,
              -9.2747564
            ],
            [
              -49.9547745,
              -9.2752324
            ]
          ]
        ]
      }
    },
    {
      "type": "Feature",
      "id": "way/1034160694",
      "properties": {
        "timestamp": "2022-02-22T12:46:42Z",
        "version": 1,
        "changeset": 117726075,
        "addr:city": "Caseara",
        "addr:street": "Avenida Adelaide Vasconcelos",
        "addr:suburb": "Centro",
        "amenity": "school",
        "name": "Creche Municipal Crianca Feliz",
        "id": "way/1034160694"
      },
      "geometry": {
        "type": "Polygon",
        "coordinates": [
          [
            [
              -49.9581695,
              -9.2757703
            ],
            [
              -49.9579971,
              -9.2760344
            ],
            [
              -49.9577488,
              -9.2758732
            ],
            [
              -49.9579418,
              -9.2755697
            ],
            [
              -49.9581695,
              -9.2757703
            ]
          ]
        ]
      }
    },
    {
      "type": "Feature",
      "id": "way/1034160696",
      "properties": {
        "timestamp": "2022-02-22T12:46:42Z",
        "version": 1,
        "changeset": 117726075,
        "addr:city": "Caseara",
        "addr:postcode": "77680-000",
        "addr:street": "Avenida Bar√£o do Rio Branco",
        "addr:suburb": "Centro",
        "amenity": "school",
        "name": "Escola Municipal Branca De Neve",
        "id": "way/1034160696"
      },
      "geometry": {
        "type": "Polygon",
        "coordinates": [
          [
            [
              -49.9599502,
              -9.2734984
            ],
            [
              -49.9597156,
              -9.2737213
            ],
            [
              -49.9594969,
              -9.2734971
            ],
            [
              -49.9597315,
              -9.2732742
            ],
            [
              -49.9599502,
              -9.2734984
            ]
          ]
        ]
      }
    },
    {
      "type": "Feature",
      "id": "way/1034160697",
      "properties": {
        "timestamp": "2022-02-22T12:46:42Z",
        "version": 1,
        "changeset": 117726075,
        "addr:city": "Caseara",
        "addr:housenumber": "331",
        "addr:postcode": "77680-000",
        "addr:street": "Rua Carajas",
        "addr:suburb": "Centro",
        "amenity": "school",
        "name": "Esc Est Jose Alves De Assis",
        "phone": "+55 63 3379 1213",
        "id": "way/1034160697"
      },
      "geometry": {
        "type": "Polygon",
        "coordinates": [
          [
            [
              -49.9613391,
              -9.2708983
            ],
            [
              -49.9613336,
              -9.2709608
            ],
            [
              -49.9607138,
              -9.2715351
            ],
            [
              -49.960645,
              -9.2715132
            ],
            [
              -49.959986,
              -9.2707845
            ],
            [
              -49.9599912,
              -9.2707147
            ],
            [
              -49.9606005,
              -9.2701747
            ],
            [
              -49.960654,
              -9.2701645
            ],
            [
              -49.9613391,
              -9.2708983
            ]
          ]
        ]
      }
    },
    {
      "type": "Feature",
      "id": "way/1034160821",
      "properties": {
        "timestamp": "2022-02-22T12:47:29Z",
        "version": 1,
        "changeset": 117726102,
        "addr:city": "Caseara",
        "addr:postcode": "77680-000",
        "addr:street": "Rua Carlos Ribeiro",
        "addr:suburb": "Centro",
        "amenity": "school",
        "name": "Escola Municipal Aristeu Camargo",
        "id": "way/1034160821"
      },
      "geometry": {
        "type": "Polygon",
        "coordinates": [
          [
            [
              -49.9586265,
              -9.2687388
            ],
            [
              -49.9583646,
              -9.2689797
            ],
            [
              -49.9581218,
              -9.2687226
            ],
            [
              -49.9583837,
              -9.2684817
            ],
            [
              -49.9586265,
              -9.2687388
            ]
          ]
        ]
      }
    }
  ]
}
