{
  "type": "FeatureCollection",
  "features": [
    {
      "type": "Feature",
      "id": "way/200813798",
      "properties": {
        "timestamp": "2020-03-13T15:31:26Z",
        "version": 3,
        "changeset": 82170351,
        "addr:city": "Erechim",
        "addr:country": "BR",
        "addr:housenumber": "387",
        "addr:postcode": "99700-000",
        "addr:street": "Rua Aratiba",
        "building": "yes",
        "email": "alphaville@st.com.br",
        "internet_access": "wlan",
        "internet_access:fee": "no",
        "name": "Alphaville Hotel",
        "phone": "+55 54 3519-3776",
        "stars": "4",
        "tourism": "hotel",
        "website": "http://www.alphavillehotelerechim.com.br",
        "id": "way/200813798"
      },
      "geometry": {
        "type": "Polygon",
        "coordinates": [
          [
            [
              -52.2767851,
              -27.6329687
            ],
            [
              -52.27685,
              -27.6329005
            ],
            [
              -52.2768287,
              -27.6328795
            ],
            [
              -52.2768582,
              -27.6328154
            ],
            [
              -52.2767779,
              -27.6327846
            ],
            [
              -52.2767917,
              -27.6327232
            ],
            [
              -52.2769682,
              -27.6327955
            ],
            [
              -52.2768738,
              -27.632998
            ],
            [
              -52.2767851,
              -27.6329687
            ]
          ]
        ]
      }
    },
    {
      "type": "Feature",
      "id": "way/200813799",
      "properties": {
        "timestamp": "2022-05-07T19:17:41Z",
        "version": 7,
        "changeset": 120679852,
        "addr:city": "Erechim",
        "addr:country": "BR",
        "addr:housenumber": "365",
        "addr:postcode": "99700-018",
        "addr:street": "Rua Aratiba",
        "addr:suburb": "Centro",
        "building": "hotel",
        "email": "atendimento@hayer.com.br",
        "internet_access": "yes",
        "internet_access:fee": "no",
        "name": "Hayer Hotel",
        "phone": "+55 54 2106-5470",
        "stars": "3",
        "tourism": "hotel",
        "website": "https://www.hayer.com.br/",
        "id": "way/200813799"
      },
      "geometry": {
        "type": "Polygon",
        "coordinates": [
          [
            [
              -52.2762422,
              -27.6331891
            ],
            [
              -52.2763032,
              -27.6330661
            ],
            [
              -52.276758,
              -27.6332432
            ],
            [
              -52.276697,
              -27.6333662
            ],
            [
              -52.2762422,
              -27.6331891
            ]
          ]
        ]
      }
    },
    {
      "type": "Feature",
      "id": "way/630309765",
      "properties": {
        "timestamp": "2018-10-03T17:32:54Z",
        "version": 1,
        "changeset": 63168491,
        "addr:city": "Erechim",
        "brand": "Blue Open Hotel",
        "building": "yes",
        "internet_access": "wlan",
        "name": "Blue Open Hotel",
        "operator": "Blue Open Hotel",
        "tourism": "hotel",
        "id": "way/630309765"
      },
      "geometry": {
        "type": "Polygon",
        "coordinates": [
          [
            [
              -52.279041,
              -27.6343672
            ],
            [
              -52.278986,
              -27.6344836
            ],
            [
              -52.2785796,
              -27.6343363
            ],
            [
              -52.2786386,
              -27.634221
            ],
            [
              -52.279041,
              -27.6343672
            ]
          ]
        ]
      }
    },
    {
      "type": "Feature",
      "id": "node/5305261929",
      "properties": {
        "timestamp": "2017-12-26T20:02:49Z",
        "version": 1,
        "changeset": 54938629,
        "addr:street": "Rua Sergipe",
        "name": "Pallis",
        "tourism": "hotel",
        "id": "node/5305261929"
      },
      "geometry": {
        "type": "Point",
        "coordinates": [
          -52.2646033,
          -27.647298
        ]
      }
    },
    {
      "type": "Feature",
      "id": "node/5859960086",
      "properties": {
        "timestamp": "2018-08-27T02:14:07Z",
        "version": 1,
        "changeset": 62019858,
        "name": "Pousada Veneza",
        "tourism": "hotel",
        "id": "node/5859960086"
      },
      "geometry": {
        "type": "Point",
        "coordinates": [
          -52.2698107,
          -27.6408838
        ]
      }
    },
    {
      "type": "Feature",
      "id": "node/10832756904",
      "properties": {
        "timestamp": "2023-04-22T21:07:09Z",
        "version": 1,
        "changeset": 135243604,
        "check_date": "2023-04-22",
        "name": "Vivendas",
        "phone": "+55 54 3522-4100",
        "tourism": "hotel",
        "id": "node/10832756904"
      },
      "geometry": {
        "type": "Point",
        "coordinates": [
          -52.2935788,
          -27.6564112
        ]
      }
    }
  ]
}
