{
  "type": "FeatureCollection",
  "features": [
    {
      "type": "Feature",
      "id": "way/702492784",
      "properties": {
        "timestamp": "2019-07-08T15:51:05Z",
        "version": 1,
        "changeset": 72020750,
        "addr:city": "Barroso",
        "addr:postcode": "36212000",
        "addr:street": "Rua Ladislau Magalh√£es",
        "addr:suburb": "Centro",
        "amenity": "library",
        "building": "yes",
        "id": "way/702492784"
      },
      "geometry": {
        "type": "Polygon",
        "coordinates": [
          [
            [
              -43.977336,
              -21.1886364
            ],
            [
              -43.9773926,
              -21.1887915
            ],
            [
              -43.9773148,
              -21.1888278
            ],
            [
              -43.9772546,
              -21.1886628
            ],
            [
              -43.977336,
              -21.1886364
            ]
          ]
        ]
      }
    }
  ]
}
