{
  "type": "FeatureCollection",
  "features": [
    {
      "type": "Feature",
      "id": "way/231272248",
      "properties": {
        "timestamp": "2013-07-25T22:39:57Z",
        "version": 1,
        "changeset": 17095289,
        "building": "yes",
        "email": "pousada@recantodacanastra.com.br",
        "name": "Pousada Recanto da Canastra",
        "phone": "+55-37-3433-2048",
        "source": "High Res Bing",
        "tourism": "guest_house",
        "website": "http://www.recantodacanastra.com.br/",
        "id": "way/231272248"
      },
      "geometry": {
        "type": "Polygon",
        "coordinates": [
          [
            [
              -46.4855144,
              -20.357342
            ],
            [
              -46.4856899,
              -20.3573789
            ],
            [
              -46.4856693,
              -20.357465
            ],
            [
              -46.4855851,
              -20.3574473
            ],
            [
              -46.4855631,
              -20.3575397
            ],
            [
              -46.4854717,
              -20.3575205
            ],
            [
              -46.4855144,
              -20.357342
            ]
          ]
        ]
      }
    },
    {
      "type": "Feature",
      "id": "node/2396834866",
      "properties": {
        "timestamp": "2022-05-23T17:50:58Z",
        "version": 2,
        "changeset": 121383184,
        "name": "Pousada da Serra",
        "source": "High Res Bing",
        "tourism": "guest_house",
        "website": "https://www.serradacanastra.com.br/pousadas/pousadadaserra.html",
        "id": "node/2396834866"
      },
      "geometry": {
        "type": "Point",
        "coordinates": [
          -46.6630397,
          -20.1470599
        ]
      }
    },
    {
      "type": "Feature",
      "id": "node/4986095022",
      "properties": {
        "timestamp": "2017-07-22T04:42:42Z",
        "version": 1,
        "changeset": 50473838,
        "addr:housenumber": "322 e 334",
        "addr:postcode": "37928000",
        "addr:street": "Rua Antônio Aguiar e Souza",
        "email": "horaciodumont@gmail.com",
        "internet_access": "wlan",
        "name": "Casa do Chef - Serra Canastra",
        "opening_hours": "24/7",
        "tourism": "guest_house",
        "id": "node/4986095022"
      },
      "geometry": {
        "type": "Point",
        "coordinates": [
          -46.663085,
          -20.1453231
        ]
      }
    },
    {
      "type": "Feature",
      "id": "node/5168865626",
      "properties": {
        "timestamp": "2017-10-23T01:53:37Z",
        "version": 2,
        "changeset": 53165776,
        "addr:city": "São Roque De Minas",
        "addr:housenumber": "126",
        "addr:postcode": "37928-000",
        "addr:street": "Rua Servus Dei de Freitas",
        "name": "Pousada Fazenda",
        "tourism": "guest_house",
        "id": "node/5168865626"
      },
      "geometry": {
        "type": "Point",
        "coordinates": [
          -46.3652194,
          -20.243791
        ]
      }
    },
    {
      "type": "Feature",
      "id": "node/6634490710",
      "properties": {
        "timestamp": "2019-07-21T00:22:13Z",
        "version": 1,
        "changeset": 72471954,
        "addr:city": "São Roque de Minas",
        "addr:street": "Rua Servus Dei de Freitas",
        "guest_house": "hostel",
        "internet_access": "yes",
        "name": "Hostel Travessias",
        "rooms": "7",
        "tourism": "guest_house",
        "id": "node/6634490710"
      },
      "geometry": {
        "type": "Point",
        "coordinates": [
          -46.3642033,
          -20.2436457
        ]
      }
    }
  ]
}
