{
  "type": "FeatureCollection",
  "features": [
    {
      "type": "Feature",
      "id": "way/425003237",
      "properties": {
        "timestamp": "2016-06-14T21:59:49Z",
        "version": 1,
        "changeset": 40027619,
        "addr:city": "São João Batista da Serra da Canastra",
        "addr:housenumber": "156",
        "addr:postcode": "37928000",
        "addr:street": "Rua João Mamede",
        "addr:suburb": "Centroa",
        "building": "yes",
        "description": "Casa Vila Canastra é uma casa de aluguel para finais de semana (34) 98818-6366",
        "name": "Casa Vila Canastra",
        "operator": "Willian dos Reis Silva",
        "smoking": "yes",
        "tourism": "hotel",
        "id": "way/425003237"
      },
      "geometry": {
        "type": "Polygon",
        "coordinates": [
          [
            [
              -46.6611429,
              -20.144118
            ],
            [
              -46.6613678,
              -20.1440145
            ],
            [
              -46.6614188,
              -20.1441122
            ],
            [
              -46.6611938,
              -20.1442157
            ],
            [
              -46.6611429,
              -20.144118
            ]
          ]
        ]
      }
    },
    {
      "type": "Feature",
      "id": "way/425102446",
      "properties": {
        "timestamp": "2016-06-15T13:12:39Z",
        "version": 2,
        "changeset": 40038417,
        "addr:city": "São João Batista da Serra da Canastra",
        "addr:housenumber": "146",
        "addr:postcode": "37928000",
        "addr:street": "Rua João Mamede",
        "addr:suburb": "Centro",
        "building": "yes",
        "name": "Pousada Vila Canastra",
        "operator": "Willian dos Reis Silva",
        "tourism": "hotel",
        "id": "way/425102446"
      },
      "geometry": {
        "type": "Polygon",
        "coordinates": [
          [
            [
              -46.6611255,
              -20.1443282
            ],
            [
              -46.6612079,
              -20.1444724
            ],
            [
              -46.6609278,
              -20.1445763
            ],
            [
              -46.6608606,
              -20.144434
            ],
            [
              -46.6611255,
              -20.1443282
            ]
          ]
        ]
      }
    },
    {
      "type": "Feature",
      "id": "way/776314722",
      "properties": {
        "timestamp": "2020-02-25T18:54:12Z",
        "version": 1,
        "changeset": 81469323,
        "building": "yes",
        "name": "Águas de São Francisco",
        "tourism": "hotel",
        "id": "way/776314722"
      },
      "geometry": {
        "type": "Polygon",
        "coordinates": [
          [
            [
              -46.4699289,
              -20.3197577
            ],
            [
              -46.4698937,
              -20.319866
            ],
            [
              -46.4698011,
              -20.3198396
            ],
            [
              -46.4698362,
              -20.3197312
            ],
            [
              -46.4699289,
              -20.3197577
            ]
          ]
        ]
      }
    },
    {
      "type": "Feature",
      "id": "node/9718116615",
      "properties": {
        "timestamp": "2022-05-05T13:35:29Z",
        "version": 1,
        "changeset": 120589851,
        "name": "Pousada e Camping Chalé da Mata",
        "tourism": "hotel",
        "id": "node/9718116615"
      },
      "geometry": {
        "type": "Point",
        "coordinates": [
          -46.3603095,
          -20.2637905
        ]
      }
    }
  ]
}
