{
  "type": "FeatureCollection",
  "features": [
    {
      "type": "Feature",
      "id": "node/4829710188",
      "properties": {
        "timestamp": "2023-08-09T05:37:03Z",
        "version": 4,
        "changeset": 139640089,
        "addr:city": "Governador Celso Ramos",
        "addr:housenumber": "203",
        "addr:postcode": "88190-000",
        "addr:street": "Avenida Nossa Senhora dos Navegantes",
        "addr:suburb": "Armação da Piedade",
        "name": "Pousada Soeli",
        "phone": "+55 48 3262-9001",
        "tourism": "guest_house",
        "id": "node/4829710188"
      },
      "geometry": {
        "type": "Point",
        "coordinates": [
          -48.533953,
          -27.37927
        ]
      }
    },
    {
      "type": "Feature",
      "id": "node/4829710190",
      "properties": {
        "timestamp": "2023-08-09T05:37:03Z",
        "version": 4,
        "changeset": 139640089,
        "addr:city": "Governador Celso Ramos",
        "addr:housenumber": "213",
        "addr:postcode": "88190-000",
        "addr:street": "Avenida Nossa Senhora dos Navegantes",
        "addr:suburb": "Armação da Piedade",
        "name": "Residencial Maremansa",
        "tourism": "guest_house",
        "id": "node/4829710190"
      },
      "geometry": {
        "type": "Point",
        "coordinates": [
          -48.5340938,
          -27.3792528
        ]
      }
    }
  ]
}
