{
  "type": "FeatureCollection",
  "features": [
    {
      "type": "Feature",
      "id": "node/10863898515",
      "properties": {
        "timestamp": "2023-05-03T01:02:09Z",
        "version": 1,
        "changeset": 135637558,
        "addr:city": "Itabela",
        "addr:housenumber": "247",
        "addr:postcode": "45848-000",
        "addr:street": "Avenida Manoel Ribeiro Carneiro",
        "addr:suburb": "Centro",
        "name": "Hotel e Restaurante Cara√≠va",
        "phone": "+55 73 3270 2007",
        "tourism": "hotel",
        "id": "node/10863898515"
      },
      "geometry": {
        "type": "Point",
        "coordinates": [
          -39.5585756,
          -16.5722402
        ]
      }
    },
    {
      "type": "Feature",
      "id": "node/10863898516",
      "properties": {
        "timestamp": "2023-05-03T01:02:09Z",
        "version": 1,
        "changeset": 135637558,
        "addr:city": "Itabela",
        "addr:housenumber": "25",
        "addr:postcode": "45848-000",
        "addr:street": "Rua Jovelino Costa",
        "addr:suburb": "Centro",
        "name": "Pousada Garnier",
        "phone": "+55 73 3270 2011",
        "tourism": "hotel",
        "id": "node/10863898516"
      },
      "geometry": {
        "type": "Point",
        "coordinates": [
          -39.5580701,
          -16.5720139
        ]
      }
    }
  ]
}
