{
  "type": "FeatureCollection",
  "features": [
    {
      "type": "Feature",
      "id": "way/495205693",
      "properties": {
        "timestamp": "2023-05-02T00:58:25Z",
        "version": 2,
        "changeset": 135595407,
        "addr:city": "Itabela",
        "addr:postcode": "45848-000",
        "addr:street": "Praça da Bandeira",
        "amenity": "school",
        "name": "Colégio Manoel Ribeiro Carneiro",
        "id": "way/495205693"
      },
      "geometry": {
        "type": "Polygon",
        "coordinates": [
          [
            [
              -39.4337799,
              -16.7200659
            ],
            [
              -39.4337753,
              -16.7204088
            ],
            [
              -39.4334725,
              -16.720405
            ],
            [
              -39.4334771,
              -16.7200621
            ],
            [
              -39.4337799,
              -16.7200659
            ]
          ]
        ]
      }
    },
    {
      "type": "Feature",
      "id": "way/1168233530",
      "properties": {
        "timestamp": "2023-05-03T10:24:03Z",
        "version": 1,
        "changeset": 135653153,
        "addr:city": "Itabela",
        "addr:postcode": "45848-000",
        "addr:street": "Avenida Guaratinga",
        "addr:suburb": "Jaqueira",
        "amenity": "school",
        "name": "Escola Municipal Abdias Martins Pereira",
        "operator": "Município de Itabela",
        "operator:type": "public",
        "phone": "+55 73 98120 3104",
        "id": "way/1168233530"
      },
      "geometry": {
        "type": "Polygon",
        "coordinates": [
          [
            [
              -39.6008119,
              -16.578266
            ],
            [
              -39.600626,
              -16.5785931
            ],
            [
              -39.6003426,
              -16.5784763
            ],
            [
              -39.6003579,
              -16.5782281
            ],
            [
              -39.6008119,
              -16.578266
            ]
          ]
        ]
      }
    },
    {
      "type": "Feature",
      "id": "node/10853379897",
      "properties": {
        "timestamp": "2023-04-29T11:29:51Z",
        "version": 2,
        "changeset": 135500382,
        "addr:city": "Itabela",
        "addr:postcode": "45848-000",
        "addr:street": "Rua Doutor Hélio Brito Costa",
        "addr:suburb": "Centro",
        "amenity": "school",
        "name": "Colégio Estadual Antônio Carlos Magalhães",
        "operator": "Governo do Estado da Bahia",
        "operator:type": "public",
        "phone": "+55 73 3270 2346",
        "id": "node/10853379897"
      },
      "geometry": {
        "type": "Point",
        "coordinates": [
          -39.5616937,
          -16.5757758
        ]
      }
    },
    {
      "type": "Feature",
      "id": "node/10853967046",
      "properties": {
        "timestamp": "2023-10-25T10:11:01Z",
        "version": 2,
        "changeset": 143106961,
        "addr:city": "Itabela",
        "addr:postcode": "45848-000",
        "addr:street": "Rua Jovelino Costa",
        "addr:suburb": "Centro",
        "amenity": "school",
        "name": "Colégio Municipal de Itabela",
        "operator": "Município de Itabela",
        "phone": "+55 73 3270 2555",
        "id": "node/10853967046"
      },
      "geometry": {
        "type": "Point",
        "coordinates": [
          -39.5573275,
          -16.5726642
        ]
      }
    },
    {
      "type": "Feature",
      "id": "node/10855781694",
      "properties": {
        "timestamp": "2023-05-03T02:05:46Z",
        "version": 2,
        "changeset": 135638481,
        "addr:city": "Itabela",
        "addr:postcode": "45848-000",
        "addr:street": "Avenida Carlos Drumond de Andrade",
        "addr:suburb": "Ouro Verde",
        "amenity": "school",
        "email": "silvaniaecc@hotmail.com",
        "name": "Colégio Municipal Luiz Eduardo Magalhães",
        "operator": "Município de Itabela",
        "phone": "+55 73 3270 2666",
        "id": "node/10855781694"
      },
      "geometry": {
        "type": "Point",
        "coordinates": [
          -39.5754121,
          -16.575292
        ]
      }
    },
    {
      "type": "Feature",
      "id": "node/10855831738",
      "properties": {
        "timestamp": "2023-04-29T12:01:28Z",
        "version": 1,
        "changeset": 135501249,
        "addr:city": "Itabela",
        "addr:postcode": "45848-000",
        "addr:street": "Rua Castro Alves",
        "addr:suburb": "Centro",
        "amenity": "school",
        "name": "Escola Maria D'ajuda Silva Vieira",
        "operator": "Município de Itabela",
        "operator:type": "public",
        "phone": "+55 73 99821 6790",
        "id": "node/10855831738"
      },
      "geometry": {
        "type": "Point",
        "coordinates": [
          -39.5635169,
          -16.5750936
        ]
      }
    },
    {
      "type": "Feature",
      "id": "node/10861445725",
      "properties": {
        "timestamp": "2023-05-02T00:58:25Z",
        "version": 1,
        "changeset": 135595407,
        "addr:city": "Itabela",
        "addr:district": "São João do Monte",
        "addr:postcode": "45848-000",
        "addr:street": "Praça São João",
        "amenity": "school",
        "name": "Colégio Municipal Carlos Alberto de Souza Parracho",
        "operator": "Município de Itabela",
        "operator:type": "public",
        "id": "node/10861445725"
      },
      "geometry": {
        "type": "Point",
        "coordinates": [
          -39.4897371,
          -16.8379215
        ]
      }
    },
    {
      "type": "Feature",
      "id": "node/10861460469",
      "properties": {
        "timestamp": "2023-05-02T00:58:25Z",
        "version": 1,
        "changeset": 135595407,
        "addr:city": "Itabela",
        "addr:postcode": "45848-000",
        "addr:street": "Rua da Imel",
        "amenity": "school",
        "name": "Escola Municipal Professora Emilia Monteiro Rodrigues",
        "operator": "Município de Itabela",
        "operator:type": "public",
        "id": "node/10861460469"
      },
      "geometry": {
        "type": "Point",
        "coordinates": [
          -39.4397666,
          -16.7188147
        ]
      }
    },
    {
      "type": "Feature",
      "id": "node/10863914376",
      "properties": {
        "timestamp": "2023-05-03T10:24:03Z",
        "version": 2,
        "changeset": 135653153,
        "addr:city": "Itabela",
        "addr:postcode": "45848-000",
        "addr:street": "Rua Carlos Chagas",
        "addr:suburb": "Bandeirante",
        "amenity": "school",
        "email": "escola.lucioferreira@hotmail.com",
        "name": "Escola Municipal Lúcio Ferreira da Silva",
        "operator": "Município de Itabela",
        "operator:type": "public",
        "phone": "+55 73 8138 2554",
        "id": "node/10863914376"
      },
      "geometry": {
        "type": "Point",
        "coordinates": [
          -39.55155,
          -16.5824275
        ]
      }
    },
    {
      "type": "Feature",
      "id": "node/10863914377",
      "properties": {
        "timestamp": "2023-05-03T02:05:46Z",
        "version": 1,
        "changeset": 135638481,
        "addr:city": "Itabela",
        "addr:housenumber": "271",
        "addr:postcode": "45848-000",
        "addr:street": "Avenida Porto Seguro",
        "addr:suburb": "Centro",
        "amenity": "school",
        "name": "Escola Municipal Archimedes Ernesto da Silva",
        "operator": "Município de Itabela",
        "phone": "+55 73 3270 2577",
        "id": "node/10863914377"
      },
      "geometry": {
        "type": "Point",
        "coordinates": [
          -39.55367,
          -16.5749335
        ]
      }
    },
    {
      "type": "Feature",
      "id": "node/10863914378",
      "properties": {
        "timestamp": "2023-05-03T02:05:46Z",
        "version": 1,
        "changeset": 135638481,
        "addr:city": "Itabela",
        "addr:postcode": "45848-000",
        "addr:street": "Rua São José do Panorama",
        "amenity": "school",
        "name": "Colégio Municipal de Itabela",
        "id": "node/10863914378"
      },
      "geometry": {
        "type": "Point",
        "coordinates": [
          -39.5502867,
          -16.5756345
        ]
      }
    },
    {
      "type": "Feature",
      "id": "node/10863914379",
      "properties": {
        "timestamp": "2023-05-24T21:45:39Z",
        "version": 2,
        "changeset": 136518749,
        "addr:city": "Itabela",
        "addr:housenumber": "273",
        "addr:postcode": "45848-000",
        "addr:street": "Rua Pero Vaz de Caminha",
        "addr:suburb": "Bandeirante",
        "amenity": "school",
        "email": "augusto_g_costa@yahoo.com",
        "name": "Escola Municipal Augusto Gonçalves Costa",
        "operator": "Município de Itabela",
        "id": "node/10863914379"
      },
      "geometry": {
        "type": "Point",
        "coordinates": [
          -39.5511644,
          -16.5777202
        ]
      }
    },
    {
      "type": "Feature",
      "id": "node/10863914380",
      "properties": {
        "timestamp": "2023-05-03T10:24:03Z",
        "version": 2,
        "changeset": 135653153,
        "addr:city": "Itabela",
        "addr:postcode": "45848-000",
        "addr:street": "Rua Carlos Chagas",
        "addr:suburb": "Bandeirante",
        "amenity": "school",
        "email": "patty.mmr@hotmail.com",
        "name": "Escola Municipal João Batista de Oliveira",
        "operator": "Município de Itabela",
        "operator:type": "public",
        "phone": "+55 73",
        "id": "node/10863914380"
      },
      "geometry": {
        "type": "Point",
        "coordinates": [
          -39.5519988,
          -16.5823381
        ]
      }
    },
    {
      "type": "Feature",
      "id": "node/10864538210",
      "properties": {
        "timestamp": "2023-05-03T10:24:03Z",
        "version": 1,
        "changeset": 135653153,
        "amenity": "school",
        "id": "node/10864538210"
      },
      "geometry": {
        "type": "Point",
        "coordinates": [
          -39.56266,
          -16.5789738
        ]
      }
    }
  ]
}
