{
  "type": "FeatureCollection",
  "features": [
    {
      "type": "Feature",
      "id": "way/1125881422",
      "properties": {
        "timestamp": "2022-12-30T17:28:19Z",
        "version": 1,
        "changeset": 130696447,
        "addr:city": "Goioerê",
        "addr:housenumber": "s/nº",
        "addr:postcode": "87360-000",
        "addr:street": "Rua Professora Maria Helena Barbosa",
        "addr:suburb": "Jardim Universitário",
        "amenity": "kindergarten",
        "name": "Centro Municipal de Educação Infantil Mundo Encantado",
        "phone": "+55 44 3522-7882",
        "id": "way/1125881422"
      },
      "geometry": {
        "type": "Polygon",
        "coordinates": [
          [
            [
              -53.0539323,
              -24.1894233
            ],
            [
              -53.0537508,
              -24.188987
            ],
            [
              -53.0540059,
              -24.1888987
            ],
            [
              -53.0541874,
              -24.189335
            ],
            [
              -53.0539323,
              -24.1894233
            ]
          ]
        ]
      }
    }
  ]
}
