{
  "type": "FeatureCollection",
  "features": [
    {
      "type": "Feature",
      "id": "way/881132655",
      "properties": {
        "timestamp": "2023-06-09T06:27:04Z",
        "version": 2,
        "changeset": 137121349,
        "addr:city": "Goioerê",
        "addr:housenumber": "1133",
        "addr:postcode": "87360-000",
        "addr:street": "Avenida Brasília",
        "addr:suburb": "Jardim Colina Verde",
        "amenity": "school",
        "name": "Colégio Mundo Mágico da Criança",
        "id": "way/881132655"
      },
      "geometry": {
        "type": "Polygon",
        "coordinates": [
          [
            [
              -53.0220355,
              -24.1935867
            ],
            [
              -53.0215168,
              -24.1931185
            ],
            [
              -53.0219351,
              -24.1927329
            ],
            [
              -53.0224538,
              -24.193201
            ],
            [
              -53.0220355,
              -24.1935867
            ]
          ]
        ]
      }
    },
    {
      "type": "Feature",
      "id": "way/1125487787",
      "properties": {
        "timestamp": "2022-12-28T20:32:56Z",
        "version": 1,
        "changeset": 130617651,
        "addr:city": "Goioerê",
        "addr:postcode": "87360-000",
        "addr:street": "Rua das Garças",
        "addr:suburb": "Distrito Industrial",
        "amenity": "school",
        "name": "Escola Municipal Ladislau Schicorski",
        "id": "way/1125487787"
      },
      "geometry": {
        "type": "Polygon",
        "coordinates": [
          [
            [
              -53.0404093,
              -24.1896456
            ],
            [
              -53.039939,
              -24.18931
            ],
            [
              -53.0397765,
              -24.1890521
            ],
            [
              -53.039753,
              -24.1889379
            ],
            [
              -53.0400981,
              -24.1885352
            ],
            [
              -53.040882,
              -24.1890942
            ],
            [
              -53.0404093,
              -24.1896456
            ]
          ]
        ]
      }
    },
    {
      "type": "Feature",
      "id": "way/1125699544",
      "properties": {
        "timestamp": "2022-12-29T19:46:52Z",
        "version": 1,
        "changeset": 130660647,
        "addr:city": "Goioerê",
        "addr:housenumber": "s/nº",
        "addr:postcode": "87360-000",
        "addr:street": "Rua Professor Jorge Luiz Godoy",
        "addr:suburb": "Jardim Universitário",
        "amenity": "school",
        "name": "Escola Estadual Jardim Universitário",
        "phone": "+55 44 3522-3470",
        "id": "way/1125699544"
      },
      "geometry": {
        "type": "Polygon",
        "coordinates": [
          [
            [
              -53.0531363,
              -24.1901703
            ],
            [
              -53.0527949,
              -24.1893194
            ],
            [
              -53.0536403,
              -24.1890372
            ],
            [
              -53.0536439,
              -24.189047
            ],
            [
              -53.0537511,
              -24.1893124
            ],
            [
              -53.0539816,
              -24.1898882
            ],
            [
              -53.0531363,
              -24.1901703
            ]
          ]
        ]
      }
    },
    {
      "type": "Feature",
      "id": "way/1153079136",
      "properties": {
        "timestamp": "2023-03-17T07:03:19Z",
        "version": 2,
        "changeset": 133775617,
        "addr:city": "Goioerê",
        "addr:housenumber": "565",
        "addr:postcode": "87360-000",
        "addr:street": "Rua Andirá",
        "addr:suburb": "Jardim Curitiba",
        "amenity": "school",
        "name": "Escola Municipal Cívico-Militar Monteiro Lobato",
        "id": "way/1153079136"
      },
      "geometry": {
        "type": "Polygon",
        "coordinates": [
          [
            [
              -53.0206529,
              -24.1767736
            ],
            [
              -53.0199977,
              -24.1770183
            ],
            [
              -53.0196978,
              -24.1763498
            ],
            [
              -53.0203531,
              -24.1761052
            ],
            [
              -53.0206529,
              -24.1767736
            ]
          ]
        ]
      }
    },
    {
      "type": "Feature",
      "id": "way/1153630643",
      "properties": {
        "timestamp": "2023-03-12T03:07:35Z",
        "version": 1,
        "changeset": 133573014,
        "addr:city": "Goioerê",
        "addr:housenumber": "1135",
        "addr:postcode": "87360-000",
        "addr:street": "Rua Doutor Rosalvo Gonçalves de Melo Leitão",
        "amenity": "school",
        "name": "Colégio Estadual Antônio Lacerda Braga",
        "id": "way/1153630643"
      },
      "geometry": {
        "type": "Polygon",
        "coordinates": [
          [
            [
              -53.0135943,
              -24.1828467
            ],
            [
              -53.0126001,
              -24.1807092
            ],
            [
              -53.0142214,
              -24.1800816
            ],
            [
              -53.0152158,
              -24.182219
            ],
            [
              -53.0135943,
              -24.1828467
            ]
          ]
        ]
      }
    }
  ]
}
