{
  "type": "FeatureCollection",
  "features": [
    {
      "type": "Feature",
      "id": "way/239537160",
      "properties": {
        "timestamp": "2018-01-06T17:57:42Z",
        "version": 7,
        "changeset": 55217752,
        "addr:city": "Hortolândia",
        "addr:country": "BR",
        "addr:housenumber": "755",
        "addr:postcode": "13184-213",
        "addr:street": "Rua Antonia Mancini Pinelli",
        "addr:suburb": "Vila São Francisco",
        "amenity": "school",
        "name": "Escola SESI de Hortolândia",
        "operator": "SESI",
        "phone": "+55 19 3819 3056",
        "id": "way/239537160"
      },
      "geometry": {
        "type": "Polygon",
        "coordinates": [
          [
            [
              -47.2199693,
              -22.8666717
            ],
            [
              -47.2194543,
              -22.8680161
            ],
            [
              -47.2194306,
              -22.8681523
            ],
            [
              -47.2192679,
              -22.8681435
            ],
            [
              -47.2187452,
              -22.8681464
            ],
            [
              -47.2186872,
              -22.866647
            ],
            [
              -47.2190207,
              -22.8666534
            ],
            [
              -47.219557,
              -22.8666638
            ],
            [
              -47.2196748,
              -22.866666
            ],
            [
              -47.2199693,
              -22.8666717
            ]
          ]
        ]
      }
    },
    {
      "type": "Feature",
      "id": "way/239539050",
      "properties": {
        "timestamp": "2017-09-18T01:43:40Z",
        "version": 4,
        "changeset": 52129921,
        "addr:city": "Hortolânia",
        "addr:country": "BR",
        "addr:housenumber": "29",
        "addr:postcode": "13183-150",
        "addr:street": "Rua Edna Aparecida Bampa Fonseca",
        "addr:suburb": "Vila Real",
        "amenity": "school",
        "contact:phone": "+55 19 3865 1284",
        "email": "e039858a@educacao.sp.gov.br",
        "name": "Escola Estadual Professora Liomar Freitas Camara",
        "operator": "Secretaria da Educação do Estado de São Paulo",
        "phone": "+55 19 3897 3933",
        "id": "way/239539050"
      },
      "geometry": {
        "type": "Polygon",
        "coordinates": [
          [
            [
              -47.216696,
              -22.8532882
            ],
            [
              -47.2170059,
              -22.8535947
            ],
            [
              -47.2168826,
              -22.8538315
            ],
            [
              -47.216878,
              -22.8542937
            ],
            [
              -47.2162262,
              -22.8543177
            ],
            [
              -47.2162519,
              -22.8536775
            ],
            [
              -47.216696,
              -22.8532882
            ]
          ]
        ]
      }
    },
    {
      "type": "Feature",
      "id": "way/239758720",
      "properties": {
        "timestamp": "2017-12-25T01:52:19Z",
        "version": 4,
        "changeset": 54898819,
        "addr:city": "Hortolândia",
        "addr:country": "BR",
        "addr:housenumber": "665",
        "addr:postcode": "13183-080",
        "addr:street": "Rua Ernesto Bergamasco",
        "addr:suburb": "Vila São Pedro",
        "amenity": "school",
        "building": "yes",
        "email": "e045559a@educacao.sp.gov.br",
        "name": "Escola Estadual Professora Maria Rita de Araújo Costa",
        "operator": "Secretaria da Educação do Estado de São Paulo",
        "phone": "+55 11 3865 2572",
        "id": "way/239758720"
      },
      "geometry": {
        "type": "Polygon",
        "coordinates": [
          [
            [
              -47.2200885,
              -22.8536825
            ],
            [
              -47.2205928,
              -22.8544142
            ],
            [
              -47.2201154,
              -22.8545822
            ],
            [
              -47.2196433,
              -22.8539742
            ],
            [
              -47.2200885,
              -22.8536825
            ]
          ]
        ]
      }
    },
    {
      "type": "Feature",
      "id": "way/330618574",
      "properties": {
        "timestamp": "2017-10-01T14:07:28Z",
        "version": 2,
        "changeset": 52537765,
        "addr:city": "Hortolândia",
        "addr:country": "BR",
        "addr:housenumber": "131",
        "addr:postcode": "13184-862",
        "addr:street": "Rua Angra dos Reis",
        "addr:suburb": "Jardim Nova Europa",
        "amenity": "school",
        "contact:phone": "+55 19 3819 1569",
        "email": "e462019a@educacao.sp.gov.br",
        "name": "Escola Estadual Professora Maria Cristina de Souza Lobo",
        "operator": "Secretaria da Educação do Estado de São Paulo",
        "phone": "+55 19 3819 1645",
        "id": "way/330618574"
      },
      "geometry": {
        "type": "Polygon",
        "coordinates": [
          [
            [
              -47.1776994,
              -22.8673555
            ],
            [
              -47.1777618,
              -22.8678012
            ],
            [
              -47.1775007,
              -22.8678464
            ],
            [
              -47.1774806,
              -22.8677595
            ],
            [
              -47.1774054,
              -22.8677483
            ],
            [
              -47.1773597,
              -22.8675088
            ],
            [
              -47.17744,
              -22.8674757
            ],
            [
              -47.1774174,
              -22.8673989
            ],
            [
              -47.1776994,
              -22.8673555
            ]
          ]
        ]
      }
    },
    {
      "type": "Feature",
      "id": "way/485433708",
      "properties": {
        "timestamp": "2018-02-19T01:25:18Z",
        "version": 6,
        "changeset": 56477053,
        "addr:city": "Hortolândia",
        "addr:housenumber": "78",
        "addr:street": "Rua Gisele França Gomes",
        "addr:suburb": "Jardim Minda",
        "amenity": "school",
        "name": "Escola Municipal de Educação Infantil Jardim Minda",
        "id": "way/485433708"
      },
      "geometry": {
        "type": "Polygon",
        "coordinates": [
          [
            [
              -47.1996448,
              -22.8631869
            ],
            [
              -47.1996844,
              -22.8631985
            ],
            [
              -47.1997056,
              -22.8632215
            ],
            [
              -47.1997274,
              -22.8635131
            ],
            [
              -47.1997893,
              -22.864114
            ],
            [
              -47.199526,
              -22.8641762
            ],
            [
              -47.1993646,
              -22.8637244
            ],
            [
              -47.1993138,
              -22.8635756
            ],
            [
              -47.1992921,
              -22.8635085
            ],
            [
              -47.1992827,
              -22.8634443
            ],
            [
              -47.1992871,
              -22.8634091
            ],
            [
              -47.1993008,
              -22.863374
            ],
            [
              -47.1996448,
              -22.8631869
            ]
          ]
        ]
      }
    },
    {
      "type": "Feature",
      "id": "way/485433830",
      "properties": {
        "timestamp": "2023-03-23T00:26:58Z",
        "version": 6,
        "changeset": 134000773,
        "addr:city": "Hortolândia",
        "addr:housenumber": "350",
        "addr:postcode": "13186-369",
        "addr:street": "Rua da Corruira",
        "addr:suburb": "Jardim Boa Esperança",
        "amenity": "school",
        "barrier": "wall",
        "contact:phone": "+55 19 3909 6800",
        "email": "emefprimavera@hortolandia.sp.gov.br",
        "name": "Escola Municipal de Ensino Fundamental Jardim Primavera",
        "phone": "+55 19 3819 2444",
        "ref": "INEP-35104152",
        "religion": "none",
        "short_name": "EMEF Jardim Primavera",
        "source": "CADMEC 2017;INEP",
        "id": "way/485433830"
      },
      "geometry": {
        "type": "Polygon",
        "coordinates": [
          [
            [
              -47.1962952,
              -22.8524829
            ],
            [
              -47.19626,
              -22.8524991
            ],
            [
              -47.1961881,
              -22.8525277
            ],
            [
              -47.1959213,
              -22.8521568
            ],
            [
              -47.1959084,
              -22.8520968
            ],
            [
              -47.1959454,
              -22.852051
            ],
            [
              -47.1968476,
              -22.8514933
            ],
            [
              -47.1969301,
              -22.8514956
            ],
            [
              -47.1969761,
              -22.8515082
            ],
            [
              -47.19701,
              -22.8515749
            ],
            [
              -47.1970232,
              -22.8516009
            ],
            [
              -47.1970364,
              -22.8516269
            ],
            [
              -47.1971625,
              -22.8518753
            ],
            [
              -47.1971718,
              -22.8519094
            ],
            [
              -47.1971614,
              -22.8519456
            ],
            [
              -47.1962952,
              -22.8524829
            ]
          ]
        ]
      }
    },
    {
      "type": "Feature",
      "id": "way/495564104",
      "properties": {
        "timestamp": "2023-11-11T15:07:20Z",
        "version": 4,
        "changeset": 143903600,
        "addr:city": "Hortolândia",
        "addr:country": "BR",
        "addr:housenumber": "174",
        "addr:postcode": "13184-680",
        "addr:street": "Rua Valdevino Isodoro Marciano",
        "addr:suburb": "Jardim Minda",
        "amenity": "school",
        "contact:phone": "+55 19 3865 2574",
        "email": "e048276a@educacao.sp.gov.br",
        "name": "Escola Estadual Maristela Carolina Mellin",
        "operator": "Secretaria da Educação do Estado de São Paulo",
        "operator:type": "government",
        "phone": "+55 19 3897 1415",
        "religion": "none",
        "id": "way/495564104"
      },
      "geometry": {
        "type": "Polygon",
        "coordinates": [
          [
            [
              -47.2021973,
              -22.8639123
            ],
            [
              -47.2019426,
              -22.863633
            ],
            [
              -47.2019399,
              -22.8635687
            ],
            [
              -47.2019748,
              -22.8635341
            ],
            [
              -47.2030047,
              -22.8631708
            ],
            [
              -47.2032005,
              -22.8635638
            ],
            [
              -47.2021973,
              -22.8639123
            ]
          ]
        ]
      }
    },
    {
      "type": "Feature",
      "id": "way/527114195",
      "properties": {
        "timestamp": "2022-02-21T22:20:10Z",
        "version": 2,
        "changeset": 117702808,
        "addr:city": "Hortolândia",
        "addr:country": "BR",
        "addr:housenumber": "333",
        "addr:postcode": "13186-051",
        "addr:street": "Rua Pico do Itatiaia",
        "addr:suburb": "Jardim Everest",
        "amenity": "school",
        "contact:phone": "+55 19 3897 3727",
        "email": "e917552a@educacao.sp.gov.br",
        "name": "Escola Estadual Professora Hedy Madalena Bocchi",
        "operator": "Secretaria da Educação do Estado de São Paulo",
        "operator:type": "government",
        "phone": "+55 19 3897 5935",
        "ref": "INEP-35917552",
        "religion": "none",
        "source": "CADMEC 2017;INEP",
        "id": "way/527114195"
      },
      "geometry": {
        "type": "Polygon",
        "coordinates": [
          [
            [
              -47.2035437,
              -22.8782852
            ],
            [
              -47.2036188,
              -22.8782754
            ],
            [
              -47.2036671,
              -22.8783297
            ],
            [
              -47.20371,
              -22.878824
            ],
            [
              -47.202326,
              -22.8792045
            ],
            [
              -47.2022187,
              -22.8788437
            ],
            [
              -47.2035437,
              -22.8782852
            ]
          ]
        ]
      }
    },
    {
      "type": "Feature",
      "id": "way/528118231",
      "properties": {
        "timestamp": "2022-02-22T03:32:46Z",
        "version": 2,
        "changeset": 117707703,
        "addr:city": "Hortolândia",
        "addr:country": "BR",
        "addr:housenumber": "55",
        "addr:postcode": "13186-400",
        "addr:street": "Rua Luiz da Costa Camargo",
        "addr:suburb": "Jardim Santa Clara do Lago",
        "amenity": "school",
        "email": "e048240a@educacao.sp.gov.br",
        "name": "Escola Estadual Jardim Santa Clara do Lago",
        "operator": "Secretaria da Educação do Estado de São Paulo",
        "operator:type": "government",
        "phone": "+55 19 3887 1167",
        "ref": "INEP-35048240",
        "religion": "none",
        "source": "CADMEC 2017",
        "id": "way/528118231"
      },
      "geometry": {
        "type": "Polygon",
        "coordinates": [
          [
            [
              -47.1996978,
              -22.8848525
            ],
            [
              -47.1995154,
              -22.8852676
            ],
            [
              -47.1984312,
              -22.8855293
            ],
            [
              -47.1983714,
              -22.8855433
            ],
            [
              -47.1983245,
              -22.8855296
            ],
            [
              -47.1983015,
              -22.8853173
            ],
            [
              -47.1983086,
              -22.8852439
            ],
            [
              -47.1983406,
              -22.8851836
            ],
            [
              -47.1996978,
              -22.8848525
            ]
          ]
        ]
      }
    },
    {
      "type": "Feature",
      "id": "way/529200003",
      "properties": {
        "timestamp": "2017-12-18T22:49:29Z",
        "version": 3,
        "changeset": 54744465,
        "addr:city": "Hortolândia",
        "addr:country": "BR",
        "addr:housenumber": "255",
        "addr:postcode": "13188-022",
        "addr:street": "Rua Oswald de Andrade",
        "addr:suburb": "Jardim Amanda",
        "amenity": "school",
        "contact:phone": "+55 19 3909 9070",
        "email": "e909610a@educacao.sp.gov.br",
        "name": "Escola Estadual Professor Elízeo Marson",
        "operator": "Secretaria da Educação do Estado de São Paulo",
        "phone": "+55 19 3909 9000",
        "id": "way/529200003"
      },
      "geometry": {
        "type": "Polygon",
        "coordinates": [
          [
            [
              -47.2354484,
              -22.8998657
            ],
            [
              -47.2354927,
              -22.8999052
            ],
            [
              -47.2355195,
              -22.899941
            ],
            [
              -47.2354417,
              -22.9008626
            ],
            [
              -47.2352888,
              -22.9011603
            ],
            [
              -47.2349321,
              -22.9010973
            ],
            [
              -47.235023,
              -22.8999964
            ],
            [
              -47.2350359,
              -22.8999094
            ],
            [
              -47.2350595,
              -22.8998545
            ],
            [
              -47.2354484,
              -22.8998657
            ]
          ]
        ]
      }
    },
    {
      "type": "Feature",
      "id": "way/529235423",
      "properties": {
        "timestamp": "2017-10-01T17:15:10Z",
        "version": 1,
        "changeset": 52542645,
        "addr:city": "Hortolândia",
        "addr:country": "BR",
        "addr:postcode": "13188-252",
        "addr:street": "Avenida Brasil",
        "addr:suburb": "Jardim Amanda II",
        "amenity": "school",
        "email": "e924131a@educacao.sp.gov.br",
        "name": "Escola Estadual Professor Euzébio Antônio Rodrigues",
        "operator": "Secretaria da Educação do Estado de São Paulo",
        "phone": "+55 19 3897 1243",
        "id": "way/529235423"
      },
      "geometry": {
        "type": "Polygon",
        "coordinates": [
          [
            [
              -47.2477154,
              -22.9054132
            ],
            [
              -47.2475464,
              -22.906189
            ],
            [
              -47.2474579,
              -22.9063373
            ],
            [
              -47.2468249,
              -22.9060754
            ],
            [
              -47.2472487,
              -22.9052848
            ],
            [
              -47.2473184,
              -22.9052502
            ],
            [
              -47.2474069,
              -22.9052749
            ],
            [
              -47.2477154,
              -22.9054132
            ]
          ]
        ]
      }
    },
    {
      "type": "Feature",
      "id": "way/529295521",
      "properties": {
        "timestamp": "2017-10-02T01:54:40Z",
        "version": 1,
        "changeset": 52550855,
        "addr:city": "Hortolândia",
        "addr:country": "BR",
        "addr:housenumber": "499",
        "addr:postcode": "13186-534",
        "addr:street": "Rua Turmalina",
        "addr:suburb": "Jardim Santa Esmeralda",
        "amenity": "school",
        "contact:phone": "+55 19 3887 2329",
        "email": "e039861a@educacao.sp.gov.br",
        "name": "Escola Estadual Yasuo Sasaki",
        "phone": "+55 19 3887 1569",
        "id": "way/529295521"
      },
      "geometry": {
        "type": "Polygon",
        "coordinates": [
          [
            [
              -47.1922755,
              -22.9072317
            ],
            [
              -47.1918879,
              -22.9071205
            ],
            [
              -47.1922594,
              -22.905858
            ],
            [
              -47.1926778,
              -22.9059864
            ],
            [
              -47.1922755,
              -22.9072317
            ]
          ]
        ]
      }
    },
    {
      "type": "Feature",
      "id": "way/529589476",
      "properties": {
        "timestamp": "2018-11-13T19:51:47Z",
        "version": 3,
        "changeset": 64455848,
        "addr:city": "Hortolândia",
        "addr:country": "BR",
        "addr:housenumber": "202",
        "addr:postcode": "13186-501",
        "addr:street": "Rua José Alves Pereira",
        "addr:suburb": "Residencial São Luis",
        "amenity": "school",
        "email": "e909592a@educacao.sp.gov.br",
        "name": "Escola Estadual Professor José Claret Dionísio",
        "operator": "Secretaria da Educação do Estado de São Paulo",
        "phone": "+55 19 3887 2563",
        "id": "way/529589476"
      },
      "geometry": {
        "type": "Polygon",
        "coordinates": [
          [
            [
              -47.1970769,
              -22.8966974
            ],
            [
              -47.196763,
              -22.8970359
            ],
            [
              -47.1960174,
              -22.8965936
            ],
            [
              -47.1964653,
              -22.8960599
            ],
            [
              -47.1966987,
              -22.8962008
            ],
            [
              -47.1970903,
              -22.8966604
            ],
            [
              -47.1970769,
              -22.8966974
            ]
          ]
        ]
      }
    },
    {
      "type": "Feature",
      "id": "way/530132793",
      "properties": {
        "timestamp": "2018-01-14T19:52:48Z",
        "version": 2,
        "changeset": 55441428,
        "addr:city": "Hortolândia",
        "addr:country": "BR",
        "addr:housenumber": "228",
        "addr:postcode": "13183-590",
        "addr:street": "Rua Waldomiro Carlos da Silva",
        "addr:suburb": "Jardim Nova Hortolândia",
        "amenity": "school",
        "contact:phone": "+55 19 3897 1447",
        "email": "e047806a@educacao.sp.gov.br",
        "name": "Escola Estadual Professora Raquel Saes Melhado da Silva",
        "operator": "Secretaria da Educação do Estado de São Paulo",
        "phone": "+55 19 3865 2571",
        "id": "way/530132793"
      },
      "geometry": {
        "type": "Polygon",
        "coordinates": [
          [
            [
              -47.207692,
              -22.8584068
            ],
            [
              -47.2070322,
              -22.8591037
            ],
            [
              -47.2066634,
              -22.8587021
            ],
            [
              -47.2066594,
              -22.8586613
            ],
            [
              -47.2070268,
              -22.8580681
            ],
            [
              -47.2071877,
              -22.8580903
            ],
            [
              -47.207692,
              -22.8584068
            ]
          ]
        ]
      }
    },
    {
      "type": "Feature",
      "id": "way/531154432",
      "properties": {
        "timestamp": "2022-02-21T23:19:51Z",
        "version": 3,
        "changeset": 117704505,
        "addr:city": "Hortolândia",
        "addr:country": "BR",
        "addr:housenumber": "355",
        "addr:postcode": "13185-153",
        "addr:street": "Avenida Osvaldo de Souza",
        "addr:suburb": "Jardim Novo Ângulo",
        "amenity": "school",
        "contact:phone": "+55 19 3887 1311",
        "email": "e048264a@educacao.sp.gov.br",
        "name": "Escola Estadual Professora Maria Antonieta Garnero La Fortezza",
        "operator": "Secretaria da Educação do Estado de São Paulo",
        "operator:type": "government",
        "phone": "+55 19 3887 2955",
        "religion": "none",
        "source": "CADMEC 2017;INEP",
        "id": "way/531154432"
      },
      "geometry": {
        "type": "Polygon",
        "coordinates": [
          [
            [
              -47.1762404,
              -22.8826857
            ],
            [
              -47.1767044,
              -22.8836889
            ],
            [
              -47.1760393,
              -22.8839286
            ],
            [
              -47.1756021,
              -22.8828982
            ],
            [
              -47.1762404,
              -22.8826857
            ]
          ]
        ]
      }
    },
    {
      "type": "Feature",
      "id": "way/531313499",
      "properties": {
        "timestamp": "2017-10-09T20:13:00Z",
        "version": 2,
        "changeset": 52771300,
        "addr:city": "Hortolândia",
        "addr:country": "BR",
        "addr:postcode": "13188-054",
        "addr:street": "Rua Dante de Oliveira",
        "addr:suburb": "Jardim Amanda",
        "amenity": "school",
        "contact:phone": "+55 19 3819 1227",
        "email": "e462342a@educacao.sp.gov.br",
        "name": "Escola Estadual Priscila Fernandes das Rocha",
        "operator": "Secretaria da Educação do Estado de São Paulo",
        "phone": "+55 19 3865 1382",
        "id": "way/531313499"
      },
      "geometry": {
        "type": "Polygon",
        "coordinates": [
          [
            [
              -47.2378556,
              -22.8880147
            ],
            [
              -47.237873,
              -22.8880357
            ],
            [
              -47.2378636,
              -22.8880666
            ],
            [
              -47.2376477,
              -22.8884595
            ],
            [
              -47.2376303,
              -22.8884879
            ],
            [
              -47.2376101,
              -22.8885064
            ],
            [
              -47.2375903,
              -22.8885132
            ],
            [
              -47.2375619,
              -22.8885176
            ],
            [
              -47.2363964,
              -22.8883903
            ],
            [
              -47.2364367,
              -22.8880913
            ],
            [
              -47.236501,
              -22.8880369
            ],
            [
              -47.2365037,
              -22.8879109
            ],
            [
              -47.2378556,
              -22.8880147
            ]
          ]
        ]
      }
    },
    {
      "type": "Feature",
      "id": "way/531328031",
      "properties": {
        "timestamp": "2022-02-21T21:49:03Z",
        "version": 2,
        "changeset": 117702084,
        "addr:city": "Hortolândia",
        "addr:housenumber": "130",
        "addr:postcode": "13187-176",
        "addr:street": "Rua Thereza Souza Gonçalves",
        "addr:suburb": "Adventista Campineiro",
        "amenity": "school",
        "contact:phone": "+55 19 3909 0616",
        "email": "e070294a@educacao.sp.gov.br",
        "name": "Escola Estadual Jonatas Davi Visel dos Santos",
        "operator": "Secretaria da Educação do Estado de São Paulo",
        "operator:type": "government",
        "phone": "+55 19 3909 0505",
        "ref": "INEP-35070294",
        "religion": "none",
        "source": "CADMEC 2017",
        "id": "way/531328031"
      },
      "geometry": {
        "type": "Polygon",
        "coordinates": [
          [
            [
              -47.2196745,
              -22.8905999
            ],
            [
              -47.2191139,
              -22.8907457
            ],
            [
              -47.2189315,
              -22.8901255
            ],
            [
              -47.2193633,
              -22.8899945
            ],
            [
              -47.2194009,
              -22.8899896
            ],
            [
              -47.2194519,
              -22.8900118
            ],
            [
              -47.2196745,
              -22.8905999
            ]
          ]
        ]
      }
    },
    {
      "type": "Feature",
      "id": "way/531334956",
      "properties": {
        "timestamp": "2022-02-21T22:11:42Z",
        "version": 2,
        "changeset": 117702603,
        "addr:city": "Hortolândia",
        "addr:country": "BR",
        "addr:housenumber": "201",
        "addr:postcode": "13185-320",
        "addr:street": "Rua Guido Rosolem",
        "addr:suburb": "Jardim Rosolem",
        "amenity": "school",
        "contact:phone": "+55 19 3887 5777",
        "email": "e017255a@educacao.sp.gov.br",
        "name": "Escola Estadual Guido Rosolem",
        "operator": "Secretaria da Educação do Estado de São Paulo",
        "operator:type": "government",
        "phone": "+55 19 3887 1546",
        "ref": "INEP-35017255",
        "religion": "none",
        "source": "CADMEC 2017;INEP",
        "id": "way/531334956"
      },
      "geometry": {
        "type": "Polygon",
        "coordinates": [
          [
            [
              -47.1765291,
              -22.8949993
            ],
            [
              -47.1757888,
              -22.894767
            ],
            [
              -47.175762,
              -22.8947287
            ],
            [
              -47.1757727,
              -22.894688
            ],
            [
              -47.1760463,
              -22.8941938
            ],
            [
              -47.1766042,
              -22.8943519
            ],
            [
              -47.1767276,
              -22.8941444
            ],
            [
              -47.1768993,
              -22.8941938
            ],
            [
              -47.1766364,
              -22.8948646
            ],
            [
              -47.1766042,
              -22.8949591
            ],
            [
              -47.1765667,
              -22.894994
            ],
            [
              -47.1765291,
              -22.8949993
            ]
          ]
        ]
      }
    },
    {
      "type": "Feature",
      "id": "way/531344901",
      "properties": {
        "timestamp": "2022-02-21T22:23:13Z",
        "version": 2,
        "changeset": 117702890,
        "addr:city": "Hortolândia",
        "addr:country": "BR",
        "addr:housenumber": "179",
        "addr:postcode": "13185-012",
        "addr:street": "Rua Osório Cândido da Silva",
        "addr:suburb": "Jardim Sumarezinho",
        "amenity": "school",
        "contact:phone": "+55 19 3887 4992",
        "email": "e036468a@educacao.sp.gov.br",
        "name": "Escola Estadual Doutor Honorino Fabri",
        "operator": "Secretaria da Educação do Estado de São Paulo",
        "operator:type": "government",
        "phone": "+55 19 3887 1680",
        "ref": "INEP-35036468",
        "religion": "none",
        "source": "CADMEC 2017;INEP",
        "id": "way/531344901"
      },
      "geometry": {
        "type": "Polygon",
        "coordinates": [
          [
            [
              -47.1797827,
              -22.8919524
            ],
            [
              -47.1793026,
              -22.8917967
            ],
            [
              -47.1795869,
              -22.8911666
            ],
            [
              -47.1800349,
              -22.8913198
            ],
            [
              -47.1797827,
              -22.8919524
            ]
          ]
        ]
      }
    },
    {
      "type": "Feature",
      "id": "way/531358264",
      "properties": {
        "timestamp": "2017-10-10T00:37:12Z",
        "version": 1,
        "changeset": 52775789,
        "addr:city": "Hortolândia",
        "addr:country": "BR",
        "addr:housenumber": "150",
        "addr:postcode": "13183-723",
        "addr:street": "Rua Rio Mississipi",
        "addr:suburb": "Parque Orestes Ongaro",
        "amenity": "school",
        "email": "e919378a@educacao.sp.gov.br",
        "name": "Escola Estadual Recreio Alvorada",
        "operator": "Secretaria da Educação do Estado de São Paulo",
        "phone": "+55 19 3909 6767",
        "id": "way/531358264"
      },
      "geometry": {
        "type": "Polygon",
        "coordinates": [
          [
            [
              -47.2251828,
              -22.8413623
            ],
            [
              -47.2242896,
              -22.8413697
            ],
            [
              -47.2242681,
              -22.8413227
            ],
            [
              -47.2249655,
              -22.8407147
            ],
            [
              -47.2250031,
              -22.8407072
            ],
            [
              -47.2250728,
              -22.8407147
            ],
            [
              -47.2251103,
              -22.8407394
            ],
            [
              -47.2252284,
              -22.8412585
            ],
            [
              -47.2252391,
              -22.8413252
            ],
            [
              -47.2251828,
              -22.8413623
            ]
          ]
        ]
      }
    },
    {
      "type": "Feature",
      "id": "way/531837883",
      "properties": {
        "timestamp": "2017-11-26T20:11:07Z",
        "version": 2,
        "changeset": 54104365,
        "addr:city": "Hortolândia",
        "addr:country": "BR",
        "addr:housenumber": "110",
        "addr:postcode": "13187-112",
        "addr:street": "Rua Catulo da Paixão Cearense",
        "addr:suburb": "Jardim São Bento",
        "amenity": "school",
        "contact:phone": "+55 19 3887 1770",
        "email": "e907595a@educacao.sp.gov.br",
        "name": "Escola Estadual Paulo Camilo de Camargo",
        "operator": "Secretaria da Educação do Estado de São Paulo",
        "phone": "+55 19 3909 1718",
        "id": "way/531837883"
      },
      "geometry": {
        "type": "Polygon",
        "coordinates": [
          [
            [
              -47.2110325,
              -22.9053297
            ],
            [
              -47.2105765,
              -22.9060215
            ],
            [
              -47.2103056,
              -22.9058572
            ],
            [
              -47.2101366,
              -22.9057225
            ],
            [
              -47.2103941,
              -22.9051024
            ],
            [
              -47.2110325,
              -22.9053297
            ]
          ]
        ]
      }
    },
    {
      "type": "Feature",
      "id": "way/531838759",
      "properties": {
        "timestamp": "2017-10-12T00:07:04Z",
        "version": 1,
        "changeset": 52845597,
        "addr:city": "Hortolândia",
        "addr:country": "BR",
        "addr:housenumber": "100",
        "addr:postcode": "13188-242",
        "addr:street": "Rua Visconde do Rio Branco",
        "addr:suburb": "Jardim Amanda II",
        "amenity": "school",
        "email": "e917540a@educacao.sp.gov.br",
        "name": "Escola Estadual Professora Conceição Aparecida Terza Gomes Cardinales",
        "operator": "Secretaria da Educação do Estado de São Paulo",
        "phone": "+55 19 3865 2592",
        "id": "way/531838759"
      },
      "geometry": {
        "type": "Polygon",
        "coordinates": [
          [
            [
              -47.2425296,
              -22.8980284
            ],
            [
              -47.2423606,
              -22.8983694
            ],
            [
              -47.2413696,
              -22.8979394
            ],
            [
              -47.2413306,
              -22.8979159
            ],
            [
              -47.2413119,
              -22.8978814
            ],
            [
              -47.2413079,
              -22.897853
            ],
            [
              -47.2414621,
              -22.897549
            ],
            [
              -47.2425296,
              -22.8980284
            ]
          ]
        ]
      }
    },
    {
      "type": "Feature",
      "id": "way/533283564",
      "properties": {
        "timestamp": "2022-02-13T23:10:18Z",
        "version": 3,
        "changeset": 117372224,
        "addr:city": "Hortolândia",
        "addr:country": "BR",
        "addr:housenumber": "450",
        "addr:postcode": "13183-693",
        "addr:street": "Rua Primavera",
        "addr:suburb": "Parque do Horto",
        "amenity": "school",
        "contact:phone": "+55 19 3819 1455",
        "email": "e917965a@educacao.sp.gov.br",
        "name": "Escola Estadual Professor Antônio Zanluchi",
        "operator": "Secretaria da Educação do Estado de São Paulo",
        "operator:type": "government",
        "phone": "+55 19 3897 1446",
        "ref": "INEP-35917965",
        "religion": "none",
        "source": "CADMEC 2017;INEP",
        "id": "way/533283564"
      },
      "geometry": {
        "type": "Polygon",
        "coordinates": [
          [
            [
              -47.2057808,
              -22.8487445
            ],
            [
              -47.2048903,
              -22.8489126
            ],
            [
              -47.204319,
              -22.8479486
            ],
            [
              -47.2048956,
              -22.8476718
            ],
            [
              -47.2052068,
              -22.8482501
            ],
            [
              -47.2053087,
              -22.8483416
            ],
            [
              -47.2054884,
              -22.8483416
            ],
            [
              -47.2055099,
              -22.8483811
            ],
            [
              -47.2055394,
              -22.8483762
            ],
            [
              -47.2057808,
              -22.8487445
            ]
          ]
        ]
      }
    },
    {
      "type": "Feature",
      "id": "way/533504735",
      "properties": {
        "timestamp": "2017-10-19T03:43:13Z",
        "version": 1,
        "changeset": 53056949,
        "addr:city": "Hortolândia",
        "addr:country": "BR",
        "addr:housenumber": "400",
        "addr:postcode": "13183-363",
        "addr:street": "Rua do Canário",
        "addr:suburb": "Jardim Boa Esperança",
        "amenity": "school",
        "contact:phone": "+55 19 3909 9033",
        "email": "emefboaesperanca@hortolandia.sp.gov.br",
        "name": "Escola Municipal de Educação Fundamental José Roque de Moura",
        "phone": "+55 19 3909 9050",
        "id": "way/533504735"
      },
      "geometry": {
        "type": "Polygon",
        "coordinates": [
          [
            [
              -47.2005499,
              -22.8530568
            ],
            [
              -47.2012392,
              -22.8538478
            ],
            [
              -47.2013304,
              -22.8547326
            ],
            [
              -47.2013291,
              -22.8548476
            ],
            [
              -47.2012587,
              -22.8548754
            ],
            [
              -47.2011882,
              -22.8548834
            ],
            [
              -47.2000108,
              -22.8534523
            ],
            [
              -47.2001636,
              -22.8533534
            ],
            [
              -47.2002066,
              -22.8533534
            ],
            [
              -47.2002468,
              -22.8533287
            ],
            [
              -47.2002414,
              -22.8532694
            ],
            [
              -47.2005499,
              -22.8530568
            ]
          ]
        ]
      }
    },
    {
      "type": "Feature",
      "id": "way/1031030170",
      "properties": {
        "timestamp": "2022-02-13T22:57:15Z",
        "version": 1,
        "changeset": 117371999,
        "amenity": "school",
        "id": "way/1031030170"
      },
      "geometry": {
        "type": "Polygon",
        "coordinates": [
          [
            [
              -47.2025939,
              -22.8485144
            ],
            [
              -47.2024651,
              -22.8488605
            ],
            [
              -47.2017597,
              -22.8488432
            ],
            [
              -47.2017731,
              -22.8484946
            ],
            [
              -47.2025939,
              -22.8485144
            ]
          ]
        ]
      }
    },
    {
      "type": "Feature",
      "id": "way/1031032047",
      "properties": {
        "timestamp": "2022-02-13T23:18:01Z",
        "version": 1,
        "changeset": 117372400,
        "addr:housenumber": "228",
        "addr:postcode": "13183-370",
        "addr:street": "Rua Izadia Fabricio da Silva",
        "addr:suburb": "Jardim Nossa Senhora Auxiliadora",
        "amenity": "school",
        "contact:phone": "+55 19 3897 1985",
        "email": "Emeiauxiliadora@hortolandia.sp.gov.br",
        "name": "Escola Estadual Jardim Nossa Senhora Auxiliadora",
        "operator": "Secretaria da Educação do Estado de São Paulo",
        "operator:type": "government",
        "phone": "+55 19 3865 0200",
        "ref": "INEP-35271810",
        "religion": "none",
        "source": "CADMEC 2017;INEP",
        "id": "way/1031032047"
      },
      "geometry": {
        "type": "Polygon",
        "coordinates": [
          [
            [
              -47.2079027,
              -22.8497622
            ],
            [
              -47.2080416,
              -22.8500127
            ],
            [
              -47.2077776,
              -22.8504037
            ],
            [
              -47.2076251,
              -22.8503262
            ],
            [
              -47.2076837,
              -22.8502415
            ],
            [
              -47.2077541,
              -22.8498541
            ],
            [
              -47.2077502,
              -22.8497748
            ],
            [
              -47.207803,
              -22.849746
            ],
            [
              -47.2078539,
              -22.8497334
            ],
            [
              -47.2079027,
              -22.8497622
            ]
          ]
        ]
      }
    },
    {
      "type": "Feature",
      "id": "way/1034005459",
      "properties": {
        "timestamp": "2022-02-22T00:18:41Z",
        "version": 2,
        "changeset": 117705483,
        "addr:housenumber": "848",
        "addr:postcode": "13185-848",
        "addr:street": "Rua Benedita Teodoro da Silva",
        "addr:suburb": "Jardim Santiago",
        "amenity": "school",
        "name": "Escola Estadual Jardim Aline",
        "operator": "Secretaria da Educação do Estado de São Paulo",
        "operator:type": "government",
        "phone": "+55 19 3809 1726",
        "ref": "INEP-35580824",
        "religion": "none",
        "source": "CADMEC 2017;INEP",
        "id": "way/1034005459"
      },
      "geometry": {
        "type": "Polygon",
        "coordinates": [
          [
            [
              -47.1615552,
              -22.861711
            ],
            [
              -47.162105,
              -22.8612736
            ],
            [
              -47.162569,
              -22.8617481
            ],
            [
              -47.1619414,
              -22.8622399
            ],
            [
              -47.1615552,
              -22.861711
            ]
          ]
        ]
      }
    },
    {
      "type": "Feature",
      "id": "way/1034009609",
      "properties": {
        "timestamp": "2022-02-22T00:47:45Z",
        "version": 2,
        "changeset": 117705920,
        "addr:housenumber": "500",
        "addr:postcode": "13185-000",
        "addr:street": "Rua Salvador",
        "addr:suburb": "Jardim Santiago",
        "amenity": "school",
        "email": "emefsantiago@hortolandia.sp.gov.br",
        "name": "Escola Municipal de Educação Fundamental Dayla Cristina Souza de Amorim",
        "old_name": "EMEF Jardim Santiago",
        "phone": "+55 19 3845 2260",
        "ref": "INEP-35227808",
        "religion": "none",
        "source": "CADMEC 2017;INEP",
        "id": "way/1034009609"
      },
      "geometry": {
        "type": "Polygon",
        "coordinates": [
          [
            [
              -47.163292,
              -22.8603456
            ],
            [
              -47.1637668,
              -22.8607905
            ],
            [
              -47.163233,
              -22.8612576
            ],
            [
              -47.1631103,
              -22.8612989
            ],
            [
              -47.1626644,
              -22.8608201
            ],
            [
              -47.163292,
              -22.8603456
            ]
          ]
        ]
      }
    },
    {
      "type": "Feature",
      "id": "node/10754802630",
      "properties": {
        "timestamp": "2023-03-23T00:26:58Z",
        "version": 1,
        "changeset": 134000773,
        "entrance": "main",
        "id": "node/10754802630"
      },
      "geometry": {
        "type": "Point",
        "coordinates": [
          -47.1970232,
          -22.8516009
        ]
      }
    }
  ]
}
