{
  "type": "FeatureCollection",
  "features": [
    {
      "type": "Feature",
      "id": "node/10022382503",
      "properties": {
        "timestamp": "2022-09-13T19:08:08Z",
        "version": 1,
        "changeset": 126148276,
        "addr:city": "Airituba",
        "addr:postcode": "29470-000",
        "addr:street": "Rua Virgilio Moreira da Cunha",
        "addr:suburb": "Airituba",
        "amenity": "clinic",
        "healthcare": "clinic",
        "healthcare:speciality": "general",
        "name": "Unidade Básica de Saúde Airituba",
        "operator": "Município de São José do Calçado",
        "operator:type": "public",
        "id": "node/10022382503"
      },
      "geometry": {
        "type": "Point",
        "coordinates": [
          -41.6878552,
          -20.9444605
        ]
      }
    },
    {
      "type": "Feature",
      "id": "node/10025008948",
      "properties": {
        "timestamp": "2022-09-14T17:57:46Z",
        "version": 1,
        "changeset": 126192995,
        "addr:city": "São José do Calçado",
        "addr:postcode": "29470-000",
        "addr:street": "Rua Romão Batista",
        "addr:suburb": "Centro",
        "amenity": "clinic",
        "healthcare": "clinic",
        "healthcare:speciality": "general",
        "name": "Unidade Básica de Saúde de São José do Calçado",
        "operator": "Município de São José do Calçado",
        "operator:type": "public",
        "phone": "+55 28 3556 1394",
        "id": "node/10025008948"
      },
      "geometry": {
        "type": "Point",
        "coordinates": [
          -41.6518183,
          -21.0282711
        ]
      }
    }
  ]
}
