{
  "type": "FeatureCollection",
  "features": [
    {
      "type": "Feature",
      "id": "node/10025008954",
      "properties": {
        "timestamp": "2022-09-14T17:57:46Z",
        "version": 1,
        "changeset": 126192995,
        "addr:city": "São José do Calçado",
        "addr:housenumber": "01",
        "addr:postcode": "29470-000",
        "addr:street": "Praça Governador Bley",
        "addr:suburb": "Centro",
        "amenity": "pharmacy",
        "dispensing": "yes",
        "healthcare": "pharmacy",
        "name": "Drogaria Medina",
        "operator": "Drogaria Medina Limitada",
        "id": "node/10025008954"
      },
      "geometry": {
        "type": "Point",
        "coordinates": [
          -41.6539524,
          -21.0263974
        ]
      }
    },
    {
      "type": "Feature",
      "id": "node/10026822726",
      "properties": {
        "timestamp": "2022-09-15T12:02:13Z",
        "version": 1,
        "changeset": 126221700,
        "addr:city": "São José do Calçado",
        "addr:postcode": "29470-000",
        "addr:street": "Rua Dona Francisa Teixeira",
        "addr:suburb": "Centro",
        "amenity": "pharmacy",
        "dispensing": "yes",
        "healthcare": "pharmacy",
        "name": "Drogamix",
        "operator": "Locatel & Rezende Drogaria Limitada",
        "id": "node/10026822726"
      },
      "geometry": {
        "type": "Point",
        "coordinates": [
          -41.656147,
          -21.0277264
        ]
      }
    },
    {
      "type": "Feature",
      "id": "node/10026822727",
      "properties": {
        "timestamp": "2022-09-15T12:02:13Z",
        "version": 1,
        "changeset": 126221700,
        "addr:city": "São José do Calçado",
        "addr:housenumber": "80",
        "addr:postcode": "29470-000",
        "addr:street": "Praça Theofilo Lobo",
        "addr:suburb": "Centro",
        "amenity": "pharmacy",
        "dispensing": "yes",
        "healthcare": "pharmacy",
        "name": "Drogaria Boa Saúde",
        "operator": "Drogaria Boa Saúde de São José do Calçado Eireli",
        "id": "node/10026822727"
      },
      "geometry": {
        "type": "Point",
        "coordinates": [
          -41.655101,
          -21.0274949
        ]
      }
    },
    {
      "type": "Feature",
      "id": "node/10026822728",
      "properties": {
        "timestamp": "2022-09-15T12:02:13Z",
        "version": 1,
        "changeset": 126221700,
        "addr:city": "São José do Calçado",
        "addr:housenumber": "121",
        "addr:postcode": "29470-000",
        "addr:street": "Rua Doutor José Fernandes Medina",
        "addr:suburb": "Centro",
        "amenity": "pharmacy",
        "dispensing": "yes",
        "healthcare": "pharmacy",
        "name": "Drogaria Calçadense",
        "operator": "Drogaria Calçadense Limitada",
        "id": "node/10026822728"
      },
      "geometry": {
        "type": "Point",
        "coordinates": [
          -41.6546136,
          -21.0238751
        ]
      }
    },
    {
      "type": "Feature",
      "id": "node/10026822743",
      "properties": {
        "timestamp": "2022-09-15T12:02:13Z",
        "version": 1,
        "changeset": 126221700,
        "addr:city": "São José do Calçado",
        "addr:housenumber": "05",
        "addr:postcode": "29470-000",
        "addr:street": "Rua Francisco Nunes de Moraes",
        "addr:suburb": "Centro",
        "amenity": "pharmacy",
        "dispensing": "yes",
        "healthcare": "pharmacy",
        "name": "Drogaria Farmari",
        "operator": "Drogaria Farmari Limitada",
        "id": "node/10026822743"
      },
      "geometry": {
        "type": "Point",
        "coordinates": [
          -41.654872,
          -21.0274323
        ]
      }
    },
    {
      "type": "Feature",
      "id": "node/10026822745",
      "properties": {
        "timestamp": "2022-09-15T12:02:13Z",
        "version": 1,
        "changeset": 126221700,
        "addr:city": "São José do Calçado",
        "addr:housenumber": "45",
        "addr:postcode": "29470-000",
        "addr:street": "Rua Doutor Nildo Tavares Jorge",
        "addr:suburb": "Arthur Virgilio Lôbo",
        "amenity": "pharmacy",
        "dispensing": "yes",
        "healthcare": "pharmacy",
        "name": "Drogaria Popular",
        "operator": "Drogaria Popular Limitada",
        "id": "node/10026822745"
      },
      "geometry": {
        "type": "Point",
        "coordinates": [
          -41.6549603,
          -21.027903
        ]
      }
    }
  ]
}
