{
  "type": "FeatureCollection",
  "features": [
    {
      "type": "Feature",
      "id": "way/1094099913",
      "properties": {
        "timestamp": "2022-09-13T10:43:16Z",
        "version": 1,
        "changeset": 126126843,
        "addr:city": "São José do Calçado",
        "addr:country": "BR",
        "addr:place": "Comunidade Oriente",
        "addr:postcode": "29470-000",
        "addr:state": "ES",
        "alt_name": "Escola Municipal",
        "amenity": "school",
        "building": "yes",
        "building:levels": "1",
        "contact:phone": "(28) 3556-0201",
        "name": "EM Boa Esperança",
        "source": "IJSN;microsoft/BuildingFootprints",
        "id": "way/1094099913"
      },
      "geometry": {
        "type": "Polygon",
        "coordinates": [
          [
            [
              -41.5870461,
              -20.9074571
            ],
            [
              -41.5869843,
              -20.9074303
            ],
            [
              -41.5870274,
              -20.9073438
            ],
            [
              -41.5870892,
              -20.9073706
            ],
            [
              -41.5870461,
              -20.9074571
            ]
          ]
        ]
      }
    },
    {
      "type": "Feature",
      "id": "way/1094892794",
      "properties": {
        "timestamp": "2022-09-15T14:15:00Z",
        "version": 1,
        "changeset": 126226718,
        "addr:city": "São José do Calçado",
        "addr:country": "BR",
        "addr:housenumber": "146",
        "addr:place": "Centro",
        "addr:postcode": "29470-000",
        "addr:state": "ES",
        "addr:street": "Avenida Rui Barbosa",
        "addr:suburb": "Centro",
        "alt_name": "Escola Estadual de Ensino Fundamental e Médio",
        "amenity": "school",
        "contact:phone": "(28) 3556-0000 / 3556-1662",
        "name": "EEEFM Mercês Garcia Vieira",
        "operator": "Secretaria de Educação do Estado do Espírito Santo",
        "source": "IJSN",
        "id": "way/1094892794"
      },
      "geometry": {
        "type": "Polygon",
        "coordinates": [
          [
            [
              -41.6571224,
              -21.0248736
            ],
            [
              -41.657097,
              -21.0249637
            ],
            [
              -41.6570112,
              -21.0252421
            ],
            [
              -41.6565392,
              -21.0251367
            ],
            [
              -41.6562123,
              -21.0250638
            ],
            [
              -41.6560429,
              -21.0250267
            ],
            [
              -41.6560957,
              -21.024804
            ],
            [
              -41.6561848,
              -21.0244325
            ],
            [
              -41.6566831,
              -21.0245821
            ],
            [
              -41.656917,
              -21.024734
            ],
            [
              -41.6571224,
              -21.0248736
            ]
          ]
        ]
      }
    },
    {
      "type": "Feature",
      "id": "node/3618580970",
      "properties": {
        "timestamp": "2016-03-09T19:11:45Z",
        "version": 2,
        "changeset": 37716865,
        "addr:city": "São José do Calçado",
        "addr:country": "BR",
        "addr:housenumber": "126",
        "addr:place": "Centro",
        "addr:postcode": "29470-000",
        "addr:state": "ES",
        "addr:street": "Rua Manoel Ferreira Marques",
        "alt_name": "Centro Educacional",
        "amenity": "school",
        "contact:phone": "(28) 3556-1201",
        "name": "CE Céu Azul",
        "source": "IJSN",
        "id": "node/3618580970"
      },
      "geometry": {
        "type": "Point",
        "coordinates": [
          -41.6528294,
          -21.0252706
        ]
      }
    },
    {
      "type": "Feature",
      "id": "node/3618580977",
      "properties": {
        "timestamp": "2024-06-25T14:13:33Z",
        "version": 4,
        "changeset": 153159662,
        "addr:city": "São José do Calçado",
        "addr:country": "BR",
        "addr:place": "Comunidade Pavão",
        "addr:postcode": "29475-000",
        "addr:state": "ES",
        "alt_name": "Escola Municipal",
        "amenity": "school",
        "name": "EM Adelino Ferreira Tatagiba",
        "source": "IJSN",
        "id": "node/3618580977"
      },
      "geometry": {
        "type": "Point",
        "coordinates": [
          -41.6232294,
          -20.9051581
        ]
      }
    },
    {
      "type": "Feature",
      "id": "node/3618580978",
      "properties": {
        "timestamp": "2022-09-08T21:29:35Z",
        "version": 3,
        "changeset": 125958643,
        "addr:city": "São José do Calçado",
        "addr:country": "BR",
        "addr:place": "Distrito Jacá",
        "addr:postcode": "29470-000",
        "addr:state": "ES",
        "addr:street": "Praça Maria Rosa",
        "addr:suburb": "Divino Espírito Santo",
        "alt_name": "Escola Municipal",
        "amenity": "school",
        "contact:phone": "(28) 9902-6494",
        "name": "EM Anito Gomes Teixeira",
        "source": "IJSN",
        "id": "node/3618580978"
      },
      "geometry": {
        "type": "Point",
        "coordinates": [
          -41.6077796,
          -21.004356
        ]
      }
    },
    {
      "type": "Feature",
      "id": "node/3618580979",
      "properties": {
        "timestamp": "2016-03-09T19:12:35Z",
        "version": 2,
        "changeset": 37716865,
        "addr:city": "São José do Calçado",
        "addr:country": "BR",
        "addr:place": "Comunidade Pontões",
        "addr:postcode": "29470-000",
        "addr:state": "ES",
        "alt_name": "Escola Municipal",
        "amenity": "school",
        "name": "EM Areal",
        "source": "IJSN",
        "id": "node/3618580979"
      },
      "geometry": {
        "type": "Point",
        "coordinates": [
          -41.5929478,
          -20.9711429
        ]
      }
    },
    {
      "type": "Feature",
      "id": "node/3618580980",
      "properties": {
        "timestamp": "2020-02-16T12:43:42Z",
        "version": 3,
        "changeset": 81070136,
        "addr:city": "São José do Calçado",
        "addr:country": "BR",
        "addr:place": "Comunidade Pedra do Padre",
        "addr:postcode": "29470-000",
        "addr:state": "ES",
        "alt_name": "Escola Municipal",
        "amenity": "school",
        "name": "EM Berto Padre",
        "source": "IJSN",
        "id": "node/3618580980"
      },
      "geometry": {
        "type": "Point",
        "coordinates": [
          -41.6245238,
          -20.8810841
        ]
      }
    },
    {
      "type": "Feature",
      "id": "node/3618580982",
      "properties": {
        "timestamp": "2016-03-09T19:12:36Z",
        "version": 2,
        "changeset": 37716865,
        "addr:city": "São José do Calçado",
        "addr:country": "BR",
        "addr:place": "Comunidade Alto Calçado",
        "addr:postcode": "29475-000",
        "addr:state": "ES",
        "addr:street": "Rua Ascendino Nunes de Carvalho",
        "alt_name": "Escola Municipal",
        "amenity": "school",
        "contact:phone": "(28) 3556-5110 / 3556-5132",
        "name": "EM Ercílio Cordeiro",
        "source": "IJSN",
        "id": "node/3618580982"
      },
      "geometry": {
        "type": "Point",
        "coordinates": [
          -41.6218831,
          -20.9465912
        ]
      }
    },
    {
      "type": "Feature",
      "id": "node/3618580983",
      "properties": {
        "timestamp": "2016-03-09T19:12:36Z",
        "version": 2,
        "changeset": 37716865,
        "addr:city": "São José do Calçado",
        "addr:country": "BR",
        "addr:place": "Comunidade Pedra do Padre",
        "addr:postcode": "29470-000",
        "addr:state": "ES",
        "alt_name": "Escola Municipal",
        "amenity": "school",
        "name": "EM José Borges de Almeida",
        "source": "IJSN",
        "id": "node/3618580983"
      },
      "geometry": {
        "type": "Point",
        "coordinates": [
          -41.6356851,
          -20.8796317
        ]
      }
    },
    {
      "type": "Feature",
      "id": "node/3618580984",
      "properties": {
        "timestamp": "2016-03-09T19:12:36Z",
        "version": 2,
        "changeset": 37716865,
        "addr:city": "São José do Calçado",
        "addr:country": "BR",
        "addr:place": "Fazenda Estrela",
        "addr:postcode": "29470-000",
        "addr:state": "ES",
        "alt_name": "Escola Municipal",
        "amenity": "school",
        "name": "EM José Nunes de Rezende",
        "source": "IJSN",
        "id": "node/3618580984"
      },
      "geometry": {
        "type": "Point",
        "coordinates": [
          -41.6083967,
          -20.9356618
        ]
      }
    },
    {
      "type": "Feature",
      "id": "node/3618580985",
      "properties": {
        "timestamp": "2016-03-09T19:12:37Z",
        "version": 2,
        "changeset": 37716865,
        "addr:city": "São José do Calçado",
        "addr:country": "BR",
        "addr:place": "Pedro Ideraldo de Almeida Lima",
        "addr:postcode": "29470-000",
        "addr:state": "ES",
        "addr:street": "Rua Joaquim de Aquino Chavier",
        "alt_name": "Escola Municipal",
        "amenity": "school",
        "contact:phone": "(28) 3556-2105",
        "name": "EM José do Deco",
        "source": "IJSN",
        "id": "node/3618580985"
      },
      "geometry": {
        "type": "Point",
        "coordinates": [
          -41.6580058,
          -21.0266457
        ]
      }
    },
    {
      "type": "Feature",
      "id": "node/3618580986",
      "properties": {
        "timestamp": "2022-09-14T17:57:46Z",
        "version": 3,
        "changeset": 126192995,
        "addr:city": "São José do Calçado",
        "addr:country": "BR",
        "addr:place": "Centro",
        "addr:postcode": "29470-000",
        "addr:state": "ES",
        "addr:street": "Praça Governador Bley",
        "addr:suburb": "Centro",
        "alt_name": "Escola Municipal",
        "amenity": "school",
        "contact:phone": "(28) 3556-2199",
        "name": "EM Manoel Franco",
        "operator": "Município de São José do Calçado",
        "operator:type": "public",
        "source": "IJSN",
        "id": "node/3618580986"
      },
      "geometry": {
        "type": "Point",
        "coordinates": [
          -41.6532551,
          -21.0267788
        ]
      }
    },
    {
      "type": "Feature",
      "id": "node/3618580987",
      "properties": {
        "timestamp": "2016-03-09T19:12:37Z",
        "version": 2,
        "changeset": 37716865,
        "addr:city": "São José do Calçado",
        "addr:country": "BR",
        "addr:place": "Maria José Pimentel",
        "addr:postcode": "29470-000",
        "addr:state": "ES",
        "addr:street": "Rua Joaquim Moraes",
        "alt_name": "Escola Municipal",
        "amenity": "school",
        "name": "EM Moacyr Teixeira Garcia",
        "source": "IJSN",
        "id": "node/3618580987"
      },
      "geometry": {
        "type": "Point",
        "coordinates": [
          -41.6532308,
          -21.0402661
        ]
      }
    },
    {
      "type": "Feature",
      "id": "node/3618580988",
      "properties": {
        "timestamp": "2016-03-09T19:12:37Z",
        "version": 2,
        "changeset": 37716865,
        "addr:city": "São José do Calçado",
        "addr:country": "BR",
        "addr:place": "Comunidade Fazenda Velha",
        "addr:postcode": "29470-000",
        "addr:state": "ES",
        "alt_name": "Escola Municipal",
        "amenity": "school",
        "contact:phone": "(28) 3556-0201",
        "name": "EM Quatro Irmãos",
        "source": "IJSN",
        "id": "node/3618580988"
      },
      "geometry": {
        "type": "Point",
        "coordinates": [
          -41.6649663,
          -21.0680859
        ]
      }
    },
    {
      "type": "Feature",
      "id": "node/3618580989",
      "properties": {
        "timestamp": "2016-03-09T19:12:37Z",
        "version": 2,
        "changeset": 37716865,
        "addr:city": "São José do Calçado",
        "addr:country": "BR",
        "addr:place": "Comunidade Airituba",
        "addr:postcode": "29477-000",
        "addr:state": "ES",
        "addr:street": "Rua Virgílio Moreira da Cunha",
        "alt_name": "Escola Municipal",
        "amenity": "school",
        "contact:phone": "(28) 3556-4024",
        "name": "EM Umbelina Machado da Silva",
        "source": "IJSN",
        "id": "node/3618580989"
      },
      "geometry": {
        "type": "Point",
        "coordinates": [
          -41.6875217,
          -20.9456099
        ]
      }
    },
    {
      "type": "Feature",
      "id": "node/10027514736",
      "properties": {
        "timestamp": "2022-09-15T14:15:00Z",
        "version": 1,
        "changeset": 126226718,
        "entrance": "main",
        "id": "node/10027514736"
      },
      "geometry": {
        "type": "Point",
        "coordinates": [
          -41.6565392,
          -21.0251367
        ]
      }
    }
  ]
}
