{
  "type": "FeatureCollection",
  "features": [
    {
      "type": "Feature",
      "id": "way/350274352",
      "properties": {
        "timestamp": "2021-10-01T01:34:19Z",
        "version": 5,
        "changeset": 111940521,
        "addr:housenumber": "531",
        "addr:postcode": "46400-000",
        "addr:street": "Avenida Santana",
        "addr:suburb": "Centro",
        "amenity": "clinic",
        "building": "yes",
        "contact:instagram": "https://www.instagram.com/policlinicaprovida.cte/",
        "contact:whatsapp": "https://l.instagram.com/?u=http%3A%2F%2Fbit.ly%2FWHTASapp&e=ATNYqn5gC0xXDaxnJ6Lj0s39qOLKJ6Ju8qNbSwRQy7N0ZiuEjUVREDUenhGg2DYsf1FdCOEY4Tg9yZw4wfStww&s=1",
        "emergency": "no",
        "name": "Policlínica Provida",
        "phone": "+55 77 3454 3665",
        "wheelchair": "yes",
        "id": "way/350274352"
      },
      "geometry": {
        "type": "Polygon",
        "coordinates": [
          [
            [
              -42.492223,
              -14.0688732
            ],
            [
              -42.4923757,
              -14.0689277
            ],
            [
              -42.4923208,
              -14.0690622
            ],
            [
              -42.4922326,
              -14.0690267
            ],
            [
              -42.4922588,
              -14.0689577
            ],
            [
              -42.4921991,
              -14.0689364
            ],
            [
              -42.492223,
              -14.0688732
            ]
          ]
        ]
      }
    },
    {
      "type": "Feature",
      "id": "way/351732144",
      "properties": {
        "timestamp": "2024-02-21T02:14:33Z",
        "version": 6,
        "changeset": 147714494,
        "access": "yes",
        "addr:city": "Caetité",
        "addr:postcode": "46400-000",
        "addr:street": "Rua Paraiba",
        "addr:suburb": "Nossa Senhora da Paz",
        "alt_name": "Centro de Saude José Silveira Rocha",
        "amenity": "clinic",
        "healthcare": "clinic",
        "name": "Unidade de Saúde da Família José Silveira Rocha",
        "opening_hours": "Mo-Fr 07:00-12:00,14:00-17:00; Su off; PH off",
        "operator": "Prefeitura Municipal de Caetité",
        "operator:type": "public",
        "source": "Plano de Desenvolvimento do Município de Caetité",
        "id": "way/351732144"
      },
      "geometry": {
        "type": "Polygon",
        "coordinates": [
          [
            [
              -42.4863848,
              -14.0534875
            ],
            [
              -42.4861794,
              -14.0539768
            ],
            [
              -42.4860617,
              -14.053879
            ],
            [
              -42.4862548,
              -14.0534354
            ],
            [
              -42.4863848,
              -14.0534875
            ]
          ]
        ]
      }
    },
    {
      "type": "Feature",
      "id": "way/351751087",
      "properties": {
        "timestamp": "2024-02-21T02:09:25Z",
        "version": 6,
        "changeset": 147714411,
        "access": "yes",
        "addr:city": "Caetité",
        "addr:postcode": "46400-000",
        "addr:street": "Avenida Prefeito Olimar Oliveira Rodrigues",
        "addr:suburb": "Ovídio Teixeira",
        "amenity": "clinic",
        "contact:phone": "+55 77 3454 3898",
        "healthcare": "clinic",
        "name": "Centro de Saúde Doutor. Woquiton Fernandes Teixeira",
        "opening_hours": "Mo-Fr 07:00-17:00; Su off; PH off",
        "operator": "Prefeitura Municipal de Caetité",
        "operator:type": "public",
        "source": "Plano de Desenvolvimento do Município de Caetité",
        "id": "way/351751087"
      },
      "geometry": {
        "type": "Polygon",
        "coordinates": [
          [
            [
              -42.4842384,
              -14.0540092
            ],
            [
              -42.4838704,
              -14.0539619
            ],
            [
              -42.4839477,
              -14.05339
            ],
            [
              -42.4841266,
              -14.0534551
            ],
            [
              -42.4841936,
              -14.0534787
            ],
            [
              -42.4842688,
              -14.0535221
            ],
            [
              -42.4842993,
              -14.0535517
            ],
            [
              -42.4842384,
              -14.0540092
            ]
          ]
        ]
      }
    },
    {
      "type": "Feature",
      "id": "way/389802916",
      "properties": {
        "timestamp": "2024-02-21T02:22:46Z",
        "version": 4,
        "changeset": 147714630,
        "addr:city": "Caetité",
        "addr:postcode": "46400-000",
        "addr:street": "Rua 12 de Outubro",
        "addr:suburb": "Ovídio Teixeira",
        "amenity": "clinic",
        "building": "yes",
        "healthcare": "clinic",
        "name": "Unidade de Saúde da Família Luciene Abreu Lopes",
        "opening_hours": "Mo-Fr 07:00-12:00,13:00-17:00; Sa-Su off, PH off",
        "operator": "Secretaria Municipal de Saúde",
        "operator:type": "public",
        "source": "Projeto de Decreto Legislativo n° 804 de 20 de outubro de 2016",
        "id": "way/389802916"
      },
      "geometry": {
        "type": "Polygon",
        "coordinates": [
          [
            [
              -42.4793498,
              -14.0678937
            ],
            [
              -42.4793251,
              -14.0680656
            ],
            [
              -42.4791112,
              -14.0680056
            ],
            [
              -42.478997,
              -14.0679715
            ],
            [
              -42.4790185,
              -14.067837
            ],
            [
              -42.4793498,
              -14.0678937
            ]
          ]
        ]
      }
    },
    {
      "type": "Feature",
      "id": "way/391742898",
      "properties": {
        "timestamp": "2024-02-21T02:33:24Z",
        "version": 4,
        "changeset": 147714761,
        "addr:city": "Caetité",
        "addr:postcode": "46400-000",
        "addr:street": "Rua São Cristóvão",
        "addr:suburb": "Ovídio Teixeira",
        "amenity": "clinic",
        "building": "yes",
        "healthcare": "clinic",
        "name": "Unidade de Saúde da Família Doutor Clarismundo Pontes",
        "opening_hours": "Mo-Fr 07:00-13:30; Sa-Su off, PH off",
        "operator": "Secretaria Municipal de Saude",
        "operator:type": "public",
        "source": "Projeto de Decreto Legislativo n° 752 de 08 de agosto de 2014;Survey",
        "id": "way/391742898"
      },
      "geometry": {
        "type": "Polygon",
        "coordinates": [
          [
            [
              -42.4772218,
              -14.058991
            ],
            [
              -42.4774238,
              -14.0588616
            ],
            [
              -42.4775629,
              -14.0590547
            ],
            [
              -42.4773651,
              -14.0591828
            ],
            [
              -42.4772218,
              -14.058991
            ]
          ]
        ]
      }
    },
    {
      "type": "Feature",
      "id": "way/983858629",
      "properties": {
        "timestamp": "2021-09-16T10:19:19Z",
        "version": 1,
        "changeset": 111283833,
        "amenity": "clinic",
        "healthcare": "clinic",
        "healthcare:speciality": "general",
        "level": "1",
        "id": "way/983858629"
      },
      "geometry": {
        "type": "Polygon",
        "coordinates": [
          [
            [
              -42.4608897,
              -13.9719095
            ],
            [
              -42.4608149,
              -13.9719511
            ],
            [
              -42.4607783,
              -13.9718892
            ],
            [
              -42.4607293,
              -13.9719164
            ],
            [
              -42.4606956,
              -13.9718593
            ],
            [
              -42.4607465,
              -13.971831
            ],
            [
              -42.4607114,
              -13.9717716
            ],
            [
              -42.4607829,
              -13.9717318
            ],
            [
              -42.4608215,
              -13.971797
            ],
            [
              -42.4608897,
              -13.9719095
            ]
          ]
        ]
      }
    },
    {
      "type": "Feature",
      "id": "node/3569415900",
      "properties": {
        "timestamp": "2024-05-25T14:05:57Z",
        "version": 2,
        "changeset": 151813473,
        "amenity": "clinic",
        "healthcare": "clinic",
        "name": "Bellus Corpus",
        "id": "node/3569415900"
      },
      "geometry": {
        "type": "Point",
        "coordinates": [
          -42.4881983,
          -14.0709277
        ]
      }
    },
    {
      "type": "Feature",
      "id": "node/3643202854",
      "properties": {
        "timestamp": "2019-08-12T14:28:41Z",
        "version": 4,
        "changeset": 73271585,
        "addr:city": "Caetité",
        "addr:postcode": "46400-000",
        "addr:street": "Avenida Santana",
        "addr:suburb": "Centro",
        "amenity": "clinic",
        "name": "Santos Olhos Oftalmologia",
        "id": "node/3643202854"
      },
      "geometry": {
        "type": "Point",
        "coordinates": [
          -42.4921824,
          -14.0687188
        ]
      }
    },
    {
      "type": "Feature",
      "id": "node/3786919943",
      "properties": {
        "timestamp": "2024-05-15T13:39:01Z",
        "version": 3,
        "changeset": 151361908,
        "addr:city": "Caetité",
        "addr:postcode": "46400-000",
        "addr:street": "Rua Barão de Caetité",
        "addr:suburb": "Centro",
        "amenity": "clinic",
        "healthcare": "clinic",
        "name": "Clínica Genese",
        "phone": "+55 77 3454 3037",
        "id": "node/3786919943"
      },
      "geometry": {
        "type": "Point",
        "coordinates": [
          -42.489787,
          -14.0700459
        ]
      }
    },
    {
      "type": "Feature",
      "id": "node/3786927867",
      "properties": {
        "timestamp": "2021-10-24T01:35:28Z",
        "version": 4,
        "changeset": 112891186,
        "addr:city": "Caetité",
        "addr:housenumber": "234",
        "addr:postcode": "46400-000",
        "addr:street": "Rua Barão de Caetité",
        "addr:suburb": "Centro",
        "amenity": "clinic",
        "description": "Centro médico de gestão ocupacional",
        "healthcare": "clinic",
        "name": "Salutar",
        "phone": "+55 77 3454 2810",
        "id": "node/3786927867"
      },
      "geometry": {
        "type": "Point",
        "coordinates": [
          -42.4881119,
          -14.0696814
        ]
      }
    },
    {
      "type": "Feature",
      "id": "node/3786927869",
      "properties": {
        "timestamp": "2024-01-08T11:09:45Z",
        "version": 6,
        "changeset": 146024451,
        "addr:city": "Caetité",
        "addr:housenumber": "197",
        "addr:postcode": "46400-000",
        "addr:street": "Rua Barão de Caetité",
        "addr:suburb": "Centro",
        "amenity": "clinic",
        "contact:mobile": "+55 77 99121-6060",
        "email": "prof_viniciuslima@hotmail.com",
        "healthcare": "clinic",
        "name": "Vinicius Lima Fisioterapia e Osteopatia",
        "phone": "+55 77 3454-2830",
        "id": "node/3786927869"
      },
      "geometry": {
        "type": "Point",
        "coordinates": [
          -42.4877413,
          -14.0697974
        ]
      }
    },
    {
      "type": "Feature",
      "id": "node/3786927872",
      "properties": {
        "timestamp": "2023-09-17T14:11:01Z",
        "version": 7,
        "changeset": 141383698,
        "addr:city": "Caetité",
        "addr:postcode": "46400-000",
        "addr:street": "Rua Barão de Caetité",
        "addr:suburb": "Centro",
        "amenity": "clinic",
        "healthcare": "clinic",
        "name": "Centro de Reabilitação Saúde Oliveira",
        "id": "node/3786927872"
      },
      "geometry": {
        "type": "Point",
        "coordinates": [
          -42.4867235,
          -14.069636
        ]
      }
    },
    {
      "type": "Feature",
      "id": "node/3810577117",
      "properties": {
        "timestamp": "2020-02-13T13:18:51Z",
        "version": 2,
        "changeset": 80959623,
        "addr:city": "Caetité",
        "addr:housenumber": "12",
        "addr:postcode": "46400-000",
        "addr:street": "Rua Juracir Magalhães",
        "addr:suburb": "Centro",
        "amenity": "clinic",
        "name": "Clínica Médica Sandiego",
        "phone": "+55 77 9 9804 1716",
        "shop": "beauty",
        "id": "node/3810577117"
      },
      "geometry": {
        "type": "Point",
        "coordinates": [
          -42.4889237,
          -14.0673759
        ]
      }
    },
    {
      "type": "Feature",
      "id": "node/3900612558",
      "properties": {
        "timestamp": "2022-04-21T19:05:18Z",
        "version": 3,
        "changeset": 120015692,
        "addr:city": "Caetité",
        "addr:postcode": "46400-000",
        "addr:street": "Travessa Prof. Anísio Teixeira",
        "addr:suburb": "Centro",
        "amenity": "clinic",
        "mobile": "+55 77 9 9955 1492",
        "name": "Soares Clínica Estética Integrada",
        "survey:date": "2015-12-15",
        "id": "node/3900612558"
      },
      "geometry": {
        "type": "Point",
        "coordinates": [
          -42.4874043,
          -14.0684554
        ]
      }
    },
    {
      "type": "Feature",
      "id": "node/3949957855",
      "properties": {
        "timestamp": "2016-01-16T13:43:54Z",
        "version": 1,
        "changeset": 36615205,
        "amenity": "clinic",
        "id": "node/3949957855"
      },
      "geometry": {
        "type": "Point",
        "coordinates": [
          -42.4796905,
          -14.0627382
        ]
      }
    },
    {
      "type": "Feature",
      "id": "node/4358048180",
      "properties": {
        "timestamp": "2021-10-24T01:35:28Z",
        "version": 2,
        "changeset": 112891186,
        "addr:city": "Caetité",
        "addr:postcode": "46400-000",
        "addr:street": "Rua Barão de Caetité",
        "addr:suburb": "Centro",
        "amenity": "clinic",
        "healthcare": "clinic",
        "name": "Clínica São Francisco",
        "id": "node/4358048180"
      },
      "geometry": {
        "type": "Point",
        "coordinates": [
          -42.4906705,
          -14.0703733
        ]
      }
    },
    {
      "type": "Feature",
      "id": "node/4411799571",
      "properties": {
        "timestamp": "2016-09-21T16:14:15Z",
        "version": 1,
        "changeset": 42327901,
        "amenity": "clinic",
        "id": "node/4411799571"
      },
      "geometry": {
        "type": "Point",
        "coordinates": [
          -42.3674796,
          -13.7277154
        ]
      }
    },
    {
      "type": "Feature",
      "id": "node/4476126247",
      "properties": {
        "timestamp": "2024-02-21T02:19:23Z",
        "version": 6,
        "changeset": 147714581,
        "addr:city": "Caetité",
        "addr:housenumber": "299",
        "addr:postcode": "46400-000",
        "addr:street": "Rua Rui Barbosa",
        "addr:suburb": "Centro",
        "alt_name": "Centro de Saúde Doutora Lara Fernandes de Carvalho Costa",
        "amenity": "clinic",
        "healthcare": "clinic",
        "name": "Centro de Saúde Especial III Dra. Laura Fernandes de Carvalho Costa",
        "opening_hours": "Mo-Fr 07:00-17:00; Sa 07:00-12:00; Su off; PH off",
        "operator": "Secretaria Municipal de Saude",
        "operator:type": "public",
        "short_name": "CAE III",
        "source": "Projeto de Decreto Legislativo n° 745 de 02 de junho de 2014",
        "id": "node/4476126247"
      },
      "geometry": {
        "type": "Point",
        "coordinates": [
          -42.4886725,
          -14.0681091
        ]
      }
    },
    {
      "type": "Feature",
      "id": "node/4476126257",
      "properties": {
        "timestamp": "2022-09-16T18:36:47Z",
        "version": 3,
        "changeset": 126274732,
        "addr:city": "Caetité",
        "addr:housenumber": "235",
        "addr:postcode": "46400-000",
        "addr:street": "Rua Rui Barbosa",
        "addr:suburb": "Centro",
        "amenity": "clinic",
        "contact:phone": "+55 77 3454 2753",
        "healthcare": "clinic",
        "name": "Medlab",
        "id": "node/4476126257"
      },
      "geometry": {
        "type": "Point",
        "coordinates": [
          -42.4881185,
          -14.0682519
        ]
      }
    },
    {
      "type": "Feature",
      "id": "node/4495014829",
      "properties": {
        "timestamp": "2023-09-17T14:11:01Z",
        "version": 3,
        "changeset": 141383698,
        "addr:city": "Caetité",
        "addr:housenumber": "122",
        "addr:postcode": "46400-000",
        "addr:street": "Rua Clovis Moreira da Cunha",
        "addr:suburb": "Centro",
        "alt_name": "Fábia Chaves Fisioterapia e Pilates",
        "amenity": "clinic",
        "name": "Centro de saúde Chaves",
        "phone": "+55 77 99993-1600",
        "id": "node/4495014829"
      },
      "geometry": {
        "type": "Point",
        "coordinates": [
          -42.4921335,
          -14.0667956
        ]
      }
    },
    {
      "type": "Feature",
      "id": "node/4495015052",
      "properties": {
        "timestamp": "2022-12-04T00:09:22Z",
        "version": 3,
        "changeset": 129692075,
        "amenity": "clinic",
        "healthcare": "clinic",
        "healthcare:speciality": "radiology",
        "name": "RadioPlus 3D",
        "id": "node/4495015052"
      },
      "geometry": {
        "type": "Point",
        "coordinates": [
          -42.4889492,
          -14.069123
        ]
      }
    },
    {
      "type": "Feature",
      "id": "node/4498821343",
      "properties": {
        "timestamp": "2024-02-23T00:57:33Z",
        "version": 2,
        "changeset": 147793897,
        "amenity": "clinic",
        "healthcare": "clinic",
        "name": "Posto de Saúde Familiar Divaldo Ferreira Pinto",
        "operator": "Secretaria municipal de Saúde",
        "operator:type": "public",
        "source": "Decreto Legislativo Nº 703 de 29 de junho de 2012.",
        "id": "node/4498821343"
      },
      "geometry": {
        "type": "Point",
        "coordinates": [
          -42.4383442,
          -14.1469795
        ]
      }
    },
    {
      "type": "Feature",
      "id": "node/4516437658",
      "properties": {
        "timestamp": "2016-11-23T03:42:02Z",
        "version": 1,
        "changeset": 43885872,
        "addr:city": "Caetité",
        "addr:housenumber": "23",
        "addr:postcode": "46400-000",
        "addr:street": "Rua Carlos Gomes",
        "addr:suburb": "Centro",
        "amenity": "clinic",
        "name": "CORE Centro de Ortopedia e Reabilitação",
        "phone": "+55 77 3454 1152",
        "id": "node/4516437658"
      },
      "geometry": {
        "type": "Point",
        "coordinates": [
          -42.4867838,
          -14.0679468
        ]
      }
    },
    {
      "type": "Feature",
      "id": "node/4594330573",
      "properties": {
        "timestamp": "2023-08-03T16:26:49Z",
        "version": 3,
        "changeset": 139402553,
        "amenity": "clinic",
        "email": "rapel.caetite@hotmail.com",
        "healthcare": "clinic",
        "healthcare:speciality": "occupational",
        "level": "2",
        "name": "Clínica Rapel",
        "phone": "+55 77 3454-3030",
        "id": "node/4594330573"
      },
      "geometry": {
        "type": "Point",
        "coordinates": [
          -42.4896981,
          -14.0652687
        ]
      }
    },
    {
      "type": "Feature",
      "id": "node/4759954083",
      "properties": {
        "timestamp": "2017-03-28T15:35:46Z",
        "version": 1,
        "changeset": 47233061,
        "amenity": "clinic",
        "name": "Programa Saúde da Família Vereador Cezar Ladeia",
        "id": "node/4759954083"
      },
      "geometry": {
        "type": "Point",
        "coordinates": [
          -42.7180356,
          -14.0240515
        ]
      }
    },
    {
      "type": "Feature",
      "id": "node/5054739627",
      "properties": {
        "timestamp": "2021-10-02T23:17:23Z",
        "version": 4,
        "changeset": 112017530,
        "addr:city": "Caetité",
        "addr:housenumber": "210",
        "addr:postcode": "46400-000",
        "addr:street": "Rua Helena Lima Santos",
        "addr:suburb": "Centro",
        "amenity": "clinic",
        "contact:instagram": "https://www.instagram.com/ergocenterfisio/",
        "email": "ergocenterfisio@gmail.com",
        "name": "Ergocenter Fisioterapia",
        "phone": "+55 77 3454-1306",
        "id": "node/5054739627"
      },
      "geometry": {
        "type": "Point",
        "coordinates": [
          -42.4864825,
          -14.0670772
        ]
      }
    },
    {
      "type": "Feature",
      "id": "node/5489102452",
      "properties": {
        "timestamp": "2022-01-07T01:59:14Z",
        "version": 3,
        "changeset": 115859165,
        "addr:city": "Caetité",
        "addr:country": "BR",
        "addr:postcode": "46400-000",
        "addr:street": "Rua Quintino Bocaiuva",
        "addr:suburb": "Centro",
        "amenity": "clinic",
        "contact:phone": "+55 77 9 9841 6382",
        "healthcare": "clinic",
        "name": "Átomo",
        "phone": "+55 77 3454 3445",
        "id": "node/5489102452"
      },
      "geometry": {
        "type": "Point",
        "coordinates": [
          -42.4917282,
          -14.0694117
        ]
      }
    },
    {
      "type": "Feature",
      "id": "node/6616414841",
      "properties": {
        "timestamp": "2024-11-17T15:07:32Z",
        "version": 4,
        "changeset": 159246808,
        "addr:city": "Caetité",
        "addr:postcode": "46400-000",
        "addr:street": "Avenida Prefeito Dácio Oliveira",
        "amenity": "clinic",
        "healthcare": "clinic",
        "mobile": "+5577998115757",
        "name": "Habilitran",
        "id": "node/6616414841"
      },
      "geometry": {
        "type": "Point",
        "coordinates": [
          -42.4905132,
          -14.0647076
        ]
      }
    },
    {
      "type": "Feature",
      "id": "node/7208480290",
      "properties": {
        "timestamp": "2021-10-24T01:35:28Z",
        "version": 2,
        "changeset": 112891186,
        "addr:city": "Caetité",
        "addr:postcode": "46400-000",
        "addr:street": "Rua Barão de Caetité",
        "addr:suburb": "Centro",
        "amenity": "clinic",
        "healthcare": "clinic",
        "name": "YAMA Policlínica",
        "id": "node/7208480290"
      },
      "geometry": {
        "type": "Point",
        "coordinates": [
          -42.4862237,
          -14.0694539
        ]
      }
    },
    {
      "type": "Feature",
      "id": "node/7208480291",
      "properties": {
        "timestamp": "2020-02-13T13:18:51Z",
        "version": 1,
        "changeset": 80959623,
        "addr:city": "Caetité",
        "addr:housenumber": "409",
        "addr:postcode": "46400-000",
        "addr:street": "Rua Helena Lima Santos",
        "addr:suburb": "Centro",
        "amenity": "clinic",
        "name": "Clínica Especializada Lapidare",
        "id": "node/7208480291"
      },
      "geometry": {
        "type": "Point",
        "coordinates": [
          -42.4874903,
          -14.066313
        ]
      }
    },
    {
      "type": "Feature",
      "id": "node/7208480292",
      "properties": {
        "timestamp": "2020-02-13T13:18:51Z",
        "version": 1,
        "changeset": 80959623,
        "addr:city": "Caetité",
        "addr:housenumber": "416",
        "addr:postcode": "46400-000",
        "addr:street": "Rua Helena Lima Santos",
        "addr:suburb": "Centro",
        "amenity": "clinic",
        "name": "Mariza Malheiros Pilates e Fisioterapia",
        "phone": "+55 77 9 9994 4961",
        "id": "node/7208480292"
      },
      "geometry": {
        "type": "Point",
        "coordinates": [
          -42.4880124,
          -14.0660791
        ]
      }
    },
    {
      "type": "Feature",
      "id": "node/7248569273",
      "properties": {
        "timestamp": "2023-09-17T14:11:01Z",
        "version": 2,
        "changeset": 141383698,
        "addr:city": "Caetité",
        "addr:housenumber": "46",
        "addr:postcode": "46400-000",
        "addr:street": "Rua Clovis Moreira da Cunha",
        "addr:suburb": "Centro",
        "amenity": "clinic",
        "healthcare": "clinic",
        "healthcare:speciality": "dermatology",
        "name": "Capelli Clínica de Dermatologia e Especialidades",
        "id": "node/7248569273"
      },
      "geometry": {
        "type": "Point",
        "coordinates": [
          -42.4924189,
          -14.0680295
        ]
      }
    },
    {
      "type": "Feature",
      "id": "node/8162912539",
      "properties": {
        "timestamp": "2024-06-14T20:49:37Z",
        "version": 3,
        "changeset": 152698064,
        "addr:city": "Caetité",
        "addr:housenumber": "60",
        "addr:postcode": "46400-000",
        "addr:street": "Rua Quintino Bocaiuva",
        "addr:suburb": "Centro",
        "amenity": "clinic",
        "check_date": "2024-06-14",
        "healthcare": "clinic",
        "name": "Clínica Implant Face",
        "phone": "+55 77 9 9865 8346",
        "id": "node/8162912539"
      },
      "geometry": {
        "type": "Point",
        "coordinates": [
          -42.4912374,
          -14.0697297
        ]
      }
    },
    {
      "type": "Feature",
      "id": "node/8272096114",
      "properties": {
        "timestamp": "2022-02-07T02:01:08Z",
        "version": 3,
        "changeset": 117099469,
        "amenity": "clinic",
        "healthcare": "clinic",
        "name": "Espaço Cuidar Fisioterapira e Estética",
        "id": "node/8272096114"
      },
      "geometry": {
        "type": "Point",
        "coordinates": [
          -42.4842468,
          -14.0626655
        ]
      }
    },
    {
      "type": "Feature",
      "id": "node/9143452440",
      "properties": {
        "timestamp": "2021-10-04T01:25:31Z",
        "version": 1,
        "changeset": 112053024,
        "addr:city": "Caetité",
        "addr:housenumber": "204",
        "addr:postcode": "46400-000",
        "addr:street": "Rua 12 de Outubro",
        "addr:suburb": "Ovídio Teixeira",
        "amenity": "clinic",
        "name": "Centro Municipal de Sintomáticos Respiratórios",
        "id": "node/9143452440"
      },
      "geometry": {
        "type": "Point",
        "coordinates": [
          -42.4791594,
          -14.067941
        ]
      }
    },
    {
      "type": "Feature",
      "id": "node/9419314611",
      "properties": {
        "timestamp": "2023-07-28T15:38:56Z",
        "version": 3,
        "changeset": 139141410,
        "addr:city": "Caetité",
        "addr:housenumber": "134",
        "addr:postcode": "46400-000",
        "addr:street": "Rua Juracy Magalhães",
        "addr:suburb": "Centro",
        "amenity": "clinic",
        "contact:whatsapp": "https://api.whatsapp.com/message/U75LDXIQ63DJM1?autoload=1&app_absent=0",
        "healthcare": "clinic",
        "name": "Ultramedrafáh Imagens",
        "id": "node/9419314611"
      },
      "geometry": {
        "type": "Point",
        "coordinates": [
          -42.4901129,
          -14.0670925
        ]
      }
    },
    {
      "type": "Feature",
      "id": "node/9482222686",
      "properties": {
        "timestamp": "2024-05-25T14:05:57Z",
        "version": 2,
        "changeset": 151813473,
        "addr:city": "Caetité",
        "addr:housenumber": "2",
        "addr:postcode": "46400-000",
        "addr:street": "Rua Deputado Paulo Jakson Vilasboas",
        "addr:suburb": "Centro",
        "amenity": "clinic",
        "contact:instagram": "https://www.instagram.com/nutriderme.derma/",
        "contact:mobile": "+55 77 9 9200 0776",
        "contact:phone": "+55 77 3454 3730",
        "healthcare": "clinic",
        "healthcare:speciality": "dermatology",
        "name": "Nutriderme",
        "id": "node/9482222686"
      },
      "geometry": {
        "type": "Point",
        "coordinates": [
          -42.4882286,
          -14.0709681
        ]
      }
    },
    {
      "type": "Feature",
      "id": "node/9485007941",
      "properties": {
        "timestamp": "2022-02-07T02:01:08Z",
        "version": 1,
        "changeset": 117099469,
        "addr:city": "Caetité",
        "addr:postcode": "46400-000",
        "addr:street": "Rua Ladeira da Saudade",
        "amenity": "clinic",
        "healthcare": "clinic",
        "name": "Movimente Fisioterapia e Pilates",
        "id": "node/9485007941"
      },
      "geometry": {
        "type": "Point",
        "coordinates": [
          -42.4852272,
          -14.0647089
        ]
      }
    },
    {
      "type": "Feature",
      "id": "node/9573739907",
      "properties": {
        "timestamp": "2022-08-18T10:16:22Z",
        "version": 2,
        "changeset": 125054409,
        "addr:city": "Caetité",
        "addr:country": "BR",
        "addr:housenumber": "78",
        "addr:postcode": "46400-000",
        "addr:street": "Avenida Santana",
        "addr:suburb": "Centro",
        "amenity": "clinic",
        "healthcare": "clinic",
        "mobile": "+55 77 9 9826 8399",
        "name": "Centro Médico Baleeiro",
        "operator": "Dr. joão Guilherme Vieira;Dra. Lorena Vieira",
        "id": "node/9573739907"
      },
      "geometry": {
        "type": "Point",
        "coordinates": [
          -42.4866241,
          -14.0689755
        ]
      }
    },
    {
      "type": "Feature",
      "id": "node/9807573210",
      "properties": {
        "timestamp": "2022-06-10T00:34:45Z",
        "version": 1,
        "changeset": 122187069,
        "addr:city": "Caetité",
        "addr:postcode": "46400-000",
        "addr:street": "Rua Helena Lima Santos",
        "addr:suburb": "Centro",
        "amenity": "clinic",
        "healthcare": "clinic",
        "mobile": "+5577999445710",
        "name": "Clínica do Trânsito de Caetité",
        "id": "node/9807573210"
      },
      "geometry": {
        "type": "Point",
        "coordinates": [
          -42.4866409,
          -14.0670658
        ]
      }
    },
    {
      "type": "Feature",
      "id": "node/10206901153",
      "properties": {
        "timestamp": "2023-06-01T14:10:18Z",
        "version": 2,
        "changeset": 136832988,
        "amenity": "clinic",
        "healthcare": "clinic",
        "name": "Examine Diagnóstico e Saúde",
        "id": "node/10206901153"
      },
      "geometry": {
        "type": "Point",
        "coordinates": [
          -42.4880754,
          -14.0696633
        ]
      }
    },
    {
      "type": "Feature",
      "id": "node/10236467327",
      "properties": {
        "timestamp": "2022-12-04T00:09:22Z",
        "version": 1,
        "changeset": 129692075,
        "amenity": "clinic",
        "healthcare": "clinic",
        "healthcare:speciality": "psychology",
        "id": "node/10236467327"
      },
      "geometry": {
        "type": "Point",
        "coordinates": [
          -42.4890163,
          -14.0691118
        ]
      }
    },
    {
      "type": "Feature",
      "id": "node/10236467333",
      "properties": {
        "timestamp": "2024-05-03T23:18:50Z",
        "version": 2,
        "changeset": 150858976,
        "addr:city": "Caetité",
        "addr:housenumber": "470",
        "addr:postcode": "46400-000",
        "addr:street": "Avenida Santana",
        "addr:suburb": "Centro",
        "amenity": "clinic",
        "contact:instagram": "https://www.instagram.com/clinicadeolhosesperanca?igsh=MWYxbDVjdmZocjdncA==",
        "contact:whatsapp": "https://api.whatsapp.com/message/UPADJZIPLPUNM1?autoload=1&app_absent=0",
        "healthcare": "clinic",
        "healthcare:speciality": "ophthalmology",
        "name": "Clínica de Olhos Esperança",
        "id": "node/10236467333"
      },
      "geometry": {
        "type": "Point",
        "coordinates": [
          -42.4901855,
          -14.0688331
        ]
      }
    },
    {
      "type": "Feature",
      "id": "node/11197736883",
      "properties": {
        "timestamp": "2023-09-17T14:11:01Z",
        "version": 1,
        "changeset": 141383698,
        "amenity": "clinic",
        "contact:mobile": "+55 77 99186-8705;+55 77 99843-9304",
        "healthcare": "clinic",
        "name": "Fabiana Aparecida Chaves Pinto Psicóloga",
        "id": "node/11197736883"
      },
      "geometry": {
        "type": "Point",
        "coordinates": [
          -42.4921264,
          -14.0667797
        ]
      }
    },
    {
      "type": "Feature",
      "id": "node/11197736892",
      "properties": {
        "timestamp": "2023-09-17T14:11:01Z",
        "version": 1,
        "changeset": 141383698,
        "amenity": "clinic",
        "healthcare": "clinic",
        "name": "MedLab",
        "id": "node/11197736892"
      },
      "geometry": {
        "type": "Point",
        "coordinates": [
          -42.4896702,
          -14.0677228
        ]
      }
    },
    {
      "type": "Feature",
      "id": "node/11504785034",
      "properties": {
        "timestamp": "2024-01-10T01:26:04Z",
        "version": 1,
        "changeset": 146086213,
        "amenity": "clinic",
        "name": "Unidade de Saúde da Família Deoclides Fernandes",
        "operator": "secretaria Municipal de Saúde de Caetité",
        "operator:type": "public",
        "id": "node/11504785034"
      },
      "geometry": {
        "type": "Point",
        "coordinates": [
          -42.5261138,
          -14.2641978
        ]
      }
    },
    {
      "type": "Feature",
      "id": "node/12344641778",
      "properties": {
        "timestamp": "2024-12-31T12:47:17Z",
        "version": 2,
        "changeset": 160831175,
        "addr:housenumber": "131",
        "addr:street": "Rua Dom Alberto Guimarães Resende",
        "amenity": "clinic",
        "contact:instagram": "https://www.instagram.com/cecom_oficial?igsh=cmhsYjZwcXQzcjJn",
        "contact:whatsapp": "https://api.whatsapp.com/message/OK4HK46N3GJYB1?autoload=1&app_absent=0&fbclid=PAY2xjawGkgqBleHRuA2FlbQIxMAABpktSu3LWLtmKISIQ_NqKVNYLxJsBn2j6HbvrwpXd-8c0Wu_x7UfC0zboyA_aem_nqQOpeourttDrWEeEUWrtA",
        "healthcare": "clinic",
        "healthcare:speciality": "oncology",
        "name": "Centro Oncológico e Multiprofissional",
        "opening_hours": "Mo-Fr 07:00-18:00; Sa 08:00-12:00; PH off; Su off",
        "short_name": "CECOM",
        "id": "node/12344641778"
      },
      "geometry": {
        "type": "Point",
        "coordinates": [
          -42.4885299,
          -14.0651265
        ]
      }
    }
  ]
}
