{
  "type": "FeatureCollection",
  "features": [
    {
      "type": "Feature",
      "id": "node/3584546819",
      "properties": {
        "timestamp": "2022-11-21T01:10:15Z",
        "version": 6,
        "changeset": 129174638,
        "addr:city": "Caetité",
        "addr:housenumber": "421",
        "addr:postcode": "46400-000",
        "addr:street": "Avenida Santana",
        "addr:suburb": "Centro",
        "amenity": "dentist",
        "email": "orthofaceodontologia@gmail.com",
        "healthcare": "dentist",
        "level": "1",
        "name": "Ortho Face",
        "phone": "+55 77 99133-4771",
        "phone_1": "+55 77 9 8127 7280",
        "phone_2": "+55 77 9 9802 7523",
        "phone_3": "+55 77 9 8871 7197",
        "id": "node/3584546819"
      },
      "geometry": {
        "type": "Point",
        "coordinates": [
          -42.4903434,
          -14.0689737
        ]
      }
    },
    {
      "type": "Feature",
      "id": "node/3584546839",
      "properties": {
        "timestamp": "2016-11-27T02:46:06Z",
        "version": 4,
        "changeset": 43975957,
        "addr:door": "03",
        "addr:housenumber": "70",
        "addr:postcode": "46400-000",
        "addr:street": "Travessa Rui Barbosa",
        "amenity": "dentist",
        "email": "murilodentista@hotmail.com",
        "level": "2",
        "name": "Clínica Odontológica Dr. Murilo Correia",
        "phone": "+55 77 3454 4396",
        "phone_1": "+55 77 9 9961 0186",
        "phone_2": "+55 77 9 9125 1488",
        "id": "node/3584546839"
      },
      "geometry": {
        "type": "Point",
        "coordinates": [
          -42.489949,
          -14.0685687
        ]
      }
    },
    {
      "type": "Feature",
      "id": "node/3778531852",
      "properties": {
        "timestamp": "2022-02-15T19:48:03Z",
        "version": 3,
        "changeset": 117449293,
        "addr:city": "Caetité",
        "addr:postcode": "46400-000",
        "addr:street": "Rua Marcelino dos Santos",
        "addr:suburb": "Centro",
        "amenity": "dentist",
        "healthcare": "dentist",
        "name": "Viene Clínica Odontologica",
        "id": "node/3778531852"
      },
      "geometry": {
        "type": "Point",
        "coordinates": [
          -42.4886535,
          -14.0664754
        ]
      }
    },
    {
      "type": "Feature",
      "id": "node/3786927864",
      "properties": {
        "timestamp": "2024-06-14T20:48:14Z",
        "version": 6,
        "changeset": 152698049,
        "addr:city": "Caetité",
        "addr:housenumber": "120",
        "addr:postcode": "46400-000",
        "addr:street": "Rua Quintino Bocaiuva",
        "addr:suburb": "Centro",
        "amenity": "dentist",
        "level": "2",
        "name": "Plena Odontologia Especializada",
        "opening_hours": "Mo-Fr 08:00-18:00; Sa 08:00-14:00; Su,PH off",
        "operator": "Dra. Larissa de Andrade Carele",
        "phone": "+55 77 3454-1022",
        "id": "node/3786927864"
      },
      "geometry": {
        "type": "Point",
        "coordinates": [
          -42.4913888,
          -14.0701864
        ]
      }
    },
    {
      "type": "Feature",
      "id": "node/3786967645",
      "properties": {
        "timestamp": "2022-04-17T17:59:51Z",
        "version": 3,
        "changeset": 119826640,
        "addr:city": "Caetité",
        "addr:housenumber": "25",
        "addr:postcode": "46400-000",
        "addr:street": "Rua Cônego Bastos",
        "addr:suburb": "Centro",
        "amenity": "dentist",
        "healthcare": "dentist",
        "name": "Laboratorial de Próteses Sorriso Para Todos",
        "phone": "+55 77 9193 5766",
        "id": "node/3786967645"
      },
      "geometry": {
        "type": "Point",
        "coordinates": [
          -42.483146,
          -14.0683157
        ]
      }
    },
    {
      "type": "Feature",
      "id": "node/3825513654",
      "properties": {
        "timestamp": "2022-11-03T00:56:25Z",
        "version": 2,
        "changeset": 128415034,
        "addr:city": "Caetité",
        "addr:postcode": "46400-000",
        "addr:street": "Avenida Prefeito Olimar Oliveira Rodrigues",
        "addr:suburb": "Alto Buenos Aires",
        "amenity": "dentist",
        "healthcare": "dentist",
        "level": "1",
        "name": "Fernandes Melo Consultório Odontológico",
        "id": "node/3825513654"
      },
      "geometry": {
        "type": "Point",
        "coordinates": [
          -42.4839168,
          -14.0591187
        ]
      }
    },
    {
      "type": "Feature",
      "id": "node/3825514272",
      "properties": {
        "timestamp": "2022-09-07T20:20:48Z",
        "version": 5,
        "changeset": 125916934,
        "addr:city": "Caetité",
        "addr:housenumber": "90",
        "addr:postcode": "46400-000",
        "addr:street": "Avenida Prefeito Olimar Oliveira Rodrigues",
        "addr:suburb": "Alto Buenos Aires",
        "amenity": "dentist",
        "contact:instagram": "https://www.instagram.com/clinios_cte/",
        "contact:whatsapp": "https://l.instagram.com/?u=https%3A%2F%2Fapi.whatsapp.com%2Fsend%3Fphone%3D5577999201551&e=ATMV0iAUMwee7RiprNRoy2en96DpHbz3cpIoSgBwBy83J35yn6DGW0lxn4Kv89OYVEg0tP-TTI_k2ylFq1z9WA&s=1",
        "healthcare": "dentist",
        "mobile": "+55 77 99920-1551",
        "name": "Clinios",
        "official_name": "Clínica Integrada de Odontologia e Saúde",
        "phone": "+55 77 34543-8535",
        "id": "node/3825514272"
      },
      "geometry": {
        "type": "Point",
        "coordinates": [
          -42.4841689,
          -14.0614893
        ]
      }
    },
    {
      "type": "Feature",
      "id": "node/3834795807",
      "properties": {
        "timestamp": "2021-10-02T01:28:34Z",
        "version": 3,
        "changeset": 111986193,
        "addr:city": "Caetité",
        "addr:housenumber": "210",
        "addr:postcode": "46400-000",
        "addr:street": "Avenida Luís Gomes",
        "addr:suburb": "Ovídio Teixeira",
        "amenity": "dentist",
        "contact:instagram": "https://www.instagram.com/odontoprimecte/",
        "contact:whatsapp": "https://l.instagram.com/?u=https%3A%2F%2Fwa.me%2F5577997022089&e=ATNdVB4X2eSELkLJnOWTFZAqDomHt7ieX3JhSTzwYMRX9Gh6Hu-B1y12O8bycZtcy_lqQ_LrEijV9P0go-L9bg&s=1",
        "mobile": "+55 77 9 9702 2089",
        "name": "Odonto Prime",
        "id": "node/3834795807"
      },
      "geometry": {
        "type": "Point",
        "coordinates": [
          -42.483631,
          -14.0607431
        ]
      }
    },
    {
      "type": "Feature",
      "id": "node/3866124583",
      "properties": {
        "timestamp": "2019-08-12T14:28:41Z",
        "version": 3,
        "changeset": 73271585,
        "addr:city": "Caetité",
        "addr:housenumber": "330",
        "addr:postcode": "46400-000",
        "addr:street": "Rua Rui Barbosa",
        "addr:suburb": "Centro",
        "amenity": "dentist",
        "name": "Vida Clínica Odontomédica",
        "phone": "+55 77 3454 3449",
        "id": "node/3866124583"
      },
      "geometry": {
        "type": "Point",
        "coordinates": [
          -42.4888226,
          -14.067933
        ]
      }
    },
    {
      "type": "Feature",
      "id": "node/3944495928",
      "properties": {
        "timestamp": "2022-09-16T18:36:47Z",
        "version": 4,
        "changeset": 126274732,
        "addr:city": "Caetité",
        "addr:housenumber": "255",
        "addr:postcode": "46400-000",
        "addr:street": "Rua Rui Barbosa",
        "addr:suburb": "Centro",
        "amenity": "dentist",
        "contact:facebook": "https://www.facebook.com/groups/melhoresdoano2020/permalink/1753701951457709/",
        "contact:instagram": "https://www.instagram.com/sorrisosaudeclinica/",
        "contact:mobile": "+55 77 99839 3018",
        "healthcare": "dentist",
        "name": "Odonto Face",
        "phone": "+55 77 3454 3430",
        "survey:date": "2016-01-13",
        "id": "node/3944495928"
      },
      "geometry": {
        "type": "Point",
        "coordinates": [
          -42.4882163,
          -14.0682298
        ]
      }
    },
    {
      "type": "Feature",
      "id": "node/4011232988",
      "properties": {
        "timestamp": "2023-03-24T11:31:02Z",
        "version": 3,
        "changeset": 134063333,
        "amenity": "dentist",
        "contact:whatsapp": "api.whatsapp.com/send?phone=5577998522007",
        "healthcare": "dentist",
        "level": "1",
        "name": "Clínica Completa",
        "old_name": "OrthoDentes",
        "phone": "+55 77 9 985 2007",
        "survey:date": "2016-02-14",
        "id": "node/4011232988"
      },
      "geometry": {
        "type": "Point",
        "coordinates": [
          -42.490835,
          -14.0678594
        ]
      }
    },
    {
      "type": "Feature",
      "id": "node/4381160722",
      "properties": {
        "timestamp": "2022-09-17T17:10:59Z",
        "version": 3,
        "changeset": 126306955,
        "addr:city": "Caetité",
        "addr:floor": "1",
        "addr:housenumber": "266",
        "addr:postcode": "46400-000",
        "addr:street": "Avenida Santana",
        "addr:suburb": "Centro",
        "amenity": "dentist",
        "contact:instagram": "https://www.instagram.com/orthosortodontiacte/",
        "healthcare": "dentist",
        "level": "2",
        "name": "Orthos",
        "phone": "+55 77 3454 2573",
        "id": "node/4381160722"
      },
      "geometry": {
        "type": "Point",
        "coordinates": [
          -42.4883203,
          -14.0689097
        ]
      }
    },
    {
      "type": "Feature",
      "id": "node/4381160724",
      "properties": {
        "timestamp": "2022-08-18T10:16:22Z",
        "version": 2,
        "changeset": 125054409,
        "addr:city": "Caetité",
        "addr:country": "BR",
        "addr:housenumber": "117",
        "addr:postcode": "46400-000",
        "addr:street": "Avenida Santana",
        "addr:suburb": "Centro",
        "amenity": "dentist",
        "healthcare": "dentist",
        "name": "RC Odontologia",
        "phone": "+55 77 3454 3527",
        "id": "node/4381160724"
      },
      "geometry": {
        "type": "Point",
        "coordinates": [
          -42.4869331,
          -14.0689615
        ]
      }
    },
    {
      "type": "Feature",
      "id": "node/4382464326",
      "properties": {
        "timestamp": "2019-06-10T13:33:31Z",
        "version": 2,
        "changeset": 71103074,
        "addr:city": "Caetité",
        "addr:postcode": "46400-000",
        "addr:street": "Avenida Prefeito Olimar Oliveira Rodrigues",
        "addr:suburb": "Ovídio Teixeira",
        "amenity": "dentist",
        "name": "Clínica Sorriso",
        "phone": "+55 77 9 9969 2914",
        "phone_1": "+55 77 3452 2947",
        "id": "node/4382464326"
      },
      "geometry": {
        "type": "Point",
        "coordinates": [
          -42.4840447,
          -14.0610673
        ]
      }
    },
    {
      "type": "Feature",
      "id": "node/4382464329",
      "properties": {
        "timestamp": "2016-09-03T17:48:25Z",
        "version": 1,
        "changeset": 41893519,
        "addr:city": "Caetité",
        "addr:housenumber": "59",
        "addr:postcode": "46400-000",
        "addr:street": "Rua Cônego Bastos",
        "addr:suburb": "Centro",
        "amenity": "dentist",
        "name": "Orthoplus",
        "phone": "+55 77 3454 3786",
        "id": "node/4382464329"
      },
      "geometry": {
        "type": "Point",
        "coordinates": [
          -42.4828954,
          -14.0681423
        ]
      }
    },
    {
      "type": "Feature",
      "id": "node/4495014830",
      "properties": {
        "timestamp": "2020-12-01T15:59:01Z",
        "version": 5,
        "changeset": 95103354,
        "addr:city": "Caetité",
        "addr:housenumber": "138",
        "addr:postcode": "46400-000",
        "addr:street": "Rua Clovis Moreira da Cunha",
        "addr:suburb": "Centro",
        "amenity": "dentist",
        "email": "odontomedicacte@gmail.com",
        "name": "Clínica Odonto médica",
        "opening_hours": "Mo-Fr 08:00-18:00; Sa 08:00-14:00",
        "phone": "+55 77 3454 4211",
        "phone_1": "+55 77 9 9999 7481",
        "wheelchair": "yes",
        "id": "node/4495014830"
      },
      "geometry": {
        "type": "Point",
        "coordinates": [
          -42.4920342,
          -14.0667865
        ]
      }
    },
    {
      "type": "Feature",
      "id": "node/4516437656",
      "properties": {
        "timestamp": "2016-11-27T03:48:42Z",
        "version": 2,
        "changeset": 43976376,
        "addr:city": "Caetité",
        "addr:housenumber": "81 B",
        "addr:postcode": "46400-000",
        "addr:street": "Rua Juvenal Lacerda",
        "addr:suburb": "Centro",
        "amenity": "dentist",
        "email": "co.sempre@yahoo.com.br",
        "name": "Sempre Consultório Odontológico",
        "phone": "+55 77 3454 1082",
        "phone_1": "+55 77 9 9924 5570",
        "id": "node/4516437656"
      },
      "geometry": {
        "type": "Point",
        "coordinates": [
          -42.487298,
          -14.0673621
        ]
      }
    },
    {
      "type": "Feature",
      "id": "node/4516437674",
      "properties": {
        "timestamp": "2022-09-17T22:42:39Z",
        "version": 3,
        "changeset": 126314470,
        "addr:city": "Caetité",
        "addr:housenumber": "47",
        "addr:postcode": "46400-000",
        "addr:street": "Travessa Rui Barbosa",
        "addr:suburb": "Centro",
        "amenity": "dentist",
        "healthcare": "dentist",
        "level": "2",
        "name": "Consultório Odontológico Dra. Maria de Loudes",
        "phone": "+55 77 3454 1641",
        "id": "node/4516437674"
      },
      "geometry": {
        "type": "Point",
        "coordinates": [
          -42.4897868,
          -14.0682679
        ]
      }
    },
    {
      "type": "Feature",
      "id": "node/4543674214",
      "properties": {
        "timestamp": "2023-09-17T14:11:01Z",
        "version": 3,
        "changeset": 141383698,
        "addr:city": "Caetité",
        "addr:postcode": "46400-000",
        "addr:street": "Rua Marcelino dos Santos",
        "addr:suburb": "Centro",
        "amenity": "dentist",
        "contact:mobile": "+55 77 99863-3370",
        "level": "1",
        "name": "Doutor Daniel C. Aguiar",
        "phone": "+55 77 3454-3870",
        "id": "node/4543674214"
      },
      "geometry": {
        "type": "Point",
        "coordinates": [
          -42.4896909,
          -14.066193
        ]
      }
    },
    {
      "type": "Feature",
      "id": "node/7198873167",
      "properties": {
        "timestamp": "2020-03-19T14:35:28Z",
        "version": 2,
        "changeset": 82394719,
        "addr:city": "Caetité",
        "addr:postcode": "46400-000",
        "addr:street": "Rua Novo Horizonte",
        "addr:suburb": "Centro",
        "amenity": "dentist",
        "healthcare": "dentist",
        "name": "Prodente Clínica Odontológica",
        "phone": "+55 77 3454 4095",
        "id": "node/7198873167"
      },
      "geometry": {
        "type": "Point",
        "coordinates": [
          -42.4912515,
          -14.0665822
        ]
      }
    },
    {
      "type": "Feature",
      "id": "node/7942453868",
      "properties": {
        "timestamp": "2024-10-29T10:01:20Z",
        "version": 4,
        "changeset": 158490103,
        "addr:city": "Caetité",
        "addr:postcode": "46400-000",
        "addr:street": "Rua Juracy Magalhães",
        "addr:suburb": "Centro",
        "amenity": "dentist",
        "contact:instagram": "https://www.instagram.com/centraldosorrisocaetite/",
        "contact:whatsapp": "https://api.whatsapp.com/send/?phone=5577999203742&text&type=phone_number&app_absent=0",
        "healthcare": "dentist",
        "level": "1",
        "name": "Central do Sorriso",
        "official_name": "Clínica Odontológica Central do Sorriso",
        "opening_hours": "Mo-Fr 08:00-18:00; Sa 08:00-12:00; Su closed; PH closed",
        "wheelchair": "no",
        "id": "node/7942453868"
      },
      "geometry": {
        "type": "Point",
        "coordinates": [
          -42.4901869,
          -14.0670688
        ]
      }
    },
    {
      "type": "Feature",
      "id": "node/9161669438",
      "properties": {
        "timestamp": "2022-09-16T18:36:47Z",
        "version": 4,
        "changeset": 126274732,
        "addr:city": "Caetité",
        "addr:housenumber": "225",
        "addr:postcode": "46400-000",
        "addr:street": "Rua Rui Barbosa",
        "addr:suburb": "Centro",
        "amenity": "dentist",
        "contact:instagram": "3",
        "healthcare": "dentist",
        "name": "Doutor Iure Guerreiro",
        "id": "node/9161669438"
      },
      "geometry": {
        "type": "Point",
        "coordinates": [
          -42.4881947,
          -14.068234
        ]
      }
    },
    {
      "type": "Feature",
      "id": "node/9265394816",
      "properties": {
        "timestamp": "2022-09-16T18:36:47Z",
        "version": 2,
        "changeset": 126274732,
        "addr:city": "Caetité",
        "addr:postcode": "46400-000",
        "addr:street": "Rua Rui Barbosa",
        "addr:suburb": "Centro",
        "amenity": "dentist",
        "contact:instagram": "https://www.instagram.com/sorrisosaudeclinica/",
        "contact:phone": "+55 77 3454 2098",
        "healthcare": "dentist",
        "level": "0",
        "name": "Sorriso Saúde",
        "operator": "Iure Guerreiro",
        "id": "node/9265394816"
      },
      "geometry": {
        "type": "Point",
        "coordinates": [
          -42.4881993,
          -14.0682621
        ]
      }
    },
    {
      "type": "Feature",
      "id": "node/9509049059",
      "properties": {
        "timestamp": "2023-07-31T16:07:08Z",
        "version": 2,
        "changeset": 139261293,
        "amenity": "dentist",
        "healthcare": "dentist",
        "name": "Consultório Volte a Sorrir",
        "id": "node/9509049059"
      },
      "geometry": {
        "type": "Point",
        "coordinates": [
          -42.4900009,
          -14.0664307
        ]
      }
    },
    {
      "type": "Feature",
      "id": "node/9610626222",
      "properties": {
        "timestamp": "2022-03-27T11:08:23Z",
        "version": 1,
        "changeset": 118976688,
        "addr:housenumber": "19",
        "addr:street": "Travessa Palestina 2",
        "amenity": "dentist",
        "name": "MM Clínica Odontológica",
        "phone": "+557734541279",
        "id": "node/9610626222"
      },
      "geometry": {
        "type": "Point",
        "coordinates": [
          -42.4908104,
          -14.0653629
        ]
      }
    },
    {
      "type": "Feature",
      "id": "node/9683538512",
      "properties": {
        "timestamp": "2022-04-21T19:05:18Z",
        "version": 1,
        "changeset": 120015692,
        "amenity": "dentist",
        "healthcare": "dentist",
        "name": "Consultório Odontológico Dra. Fernanda Fernandes",
        "id": "node/9683538512"
      },
      "geometry": {
        "type": "Point",
        "coordinates": [
          -42.4872851,
          -14.0683775
        ]
      }
    },
    {
      "type": "Feature",
      "id": "node/9823938168",
      "properties": {
        "timestamp": "2023-03-29T16:33:32Z",
        "version": 2,
        "changeset": 134270540,
        "addr:city": "Caetité",
        "addr:housenumber": "55",
        "addr:street": "Rua Rui Barbosa",
        "addr:suburb": "Centro",
        "amenity": "dentist",
        "healthcare": "dentist",
        "mobile": "+55 77 9 9959 5355",
        "name": "Laboratório Vila",
        "id": "node/9823938168"
      },
      "geometry": {
        "type": "Point",
        "coordinates": [
          -42.4863088,
          -14.0681453
        ]
      }
    },
    {
      "type": "Feature",
      "id": "node/10007332671",
      "properties": {
        "timestamp": "2024-10-29T10:01:20Z",
        "version": 2,
        "changeset": 158490103,
        "addr:city": "Caetité",
        "addr:housenumber": "87",
        "addr:postcode": "46400-000",
        "addr:street": "Avenida Woquiton Fernandes Teixeira",
        "addr:suburb": "Centro",
        "amenity": "dentist",
        "contact:instagram": "https://www.instagram.com/artodonto_caetite/",
        "contact:mobile": "+55 77 99845-6343",
        "healthcare": "dentist",
        "level": "1",
        "name": "Art Odonto",
        "id": "node/10007332671"
      },
      "geometry": {
        "type": "Point",
        "coordinates": [
          -42.4904349,
          -14.0679126
        ]
      }
    },
    {
      "type": "Feature",
      "id": "node/11999368998",
      "properties": {
        "timestamp": "2024-06-21T17:46:39Z",
        "version": 1,
        "changeset": 153003113,
        "addr:city": "Caetité",
        "addr:housenumber": "185",
        "addr:postcode": "46400-000",
        "addr:street": "Rua Novo Horizonte",
        "addr:suburb": "Baraúna",
        "amenity": "dentist",
        "contact:mobile": "+55 77 9 9801 3127",
        "healthcare": "dentist",
        "healthcare:speciality": "radiology",
        "level": "1",
        "name": "Radiodonto",
        "id": "node/11999368998"
      },
      "geometry": {
        "type": "Point",
        "coordinates": [
          -42.4931244,
          -14.0661427
        ]
      }
    },
    {
      "type": "Feature",
      "id": "node/12326818077",
      "properties": {
        "timestamp": "2024-11-09T14:06:57Z",
        "version": 1,
        "changeset": 158935581,
        "amenity": "dentist",
        "contact:instagram": "https://www.instagram.com/megavidaodontologiaesaude?igsh=MXVqMWt0NnRteDFqNQ==",
        "contact:mobile": "+55 77 99984-2928",
        "contact:whatsapp": "https://api.whatsapp.com/send/?phone=557799842928&text&type=phone_number&app_absent=0&fbclid=PAY2xjawGcSKdleHRuA2FlbQIxMAABpik05vuxhABhZqrF3llGG8yxRATQ3n7sgYcl5PdjvJPS_5xQxa0HkGAAaw_aem__HsFUFw-eGcrLmzfBVc9Tg",
        "healthcare": "dentist",
        "level": "1",
        "name": "Mega Vida Odontologia e Saúde",
        "opening_hours": "Mo-Fr 08:00-12:00; Mo-Fr 14:00-18:00; Su closed; PH closed; Sa 08:00-12:00",
        "wheelchair": "no",
        "id": "node/12326818077"
      },
      "geometry": {
        "type": "Point",
        "coordinates": [
          -42.4883839,
          -14.0688243
        ]
      }
    }
  ]
}
