{
  "type": "FeatureCollection",
  "features": [
    {
      "type": "Feature",
      "id": "node/3567233140",
      "properties": {
        "timestamp": "2020-10-30T19:26:23Z",
        "version": 4,
        "changeset": 93307194,
        "addr:postcode": "46400-000",
        "addr:street": "Rua Clemente Tanajura",
        "amenity": "doctors",
        "healthcare:speciality": "ophthalmology",
        "name": "Oftalmo Diagnostico",
        "note": "Clínica e cirurgia de olhos",
        "phone": "+55 77 99901-0201",
        "id": "node/3567233140"
      },
      "geometry": {
        "type": "Point",
        "coordinates": [
          -42.4924913,
          -14.0693229
        ]
      }
    },
    {
      "type": "Feature",
      "id": "node/3646811873",
      "properties": {
        "timestamp": "2025-01-02T11:55:12Z",
        "version": 4,
        "changeset": 160903615,
        "addr:city": "Caetité",
        "addr:housenumber": "43",
        "addr:postcode": "46400-000",
        "addr:street": "Rua Getulio Vargas",
        "addr:suburb": "Centro",
        "amenity": "doctors",
        "healthcare": "doctor",
        "name": "Clinica Previna",
        "id": "node/3646811873"
      },
      "geometry": {
        "type": "Point",
        "coordinates": [
          -42.4914108,
          -14.0693781
        ]
      }
    },
    {
      "type": "Feature",
      "id": "node/3652055808",
      "properties": {
        "timestamp": "2017-08-10T22:32:36Z",
        "version": 3,
        "changeset": 51016724,
        "addr:city": "Caetité",
        "addr:housenumber": "72",
        "addr:postcode": "46400-000",
        "addr:street": "Rua Professor Alfredo José da Silva",
        "addr:suburb": "Centro",
        "amenity": "doctors",
        "email": "clinicavitalle@live.com",
        "name": "Clínica Vitalle",
        "phone": "+55 77 3454 3011",
        "phone_1": "+55 77 9 9854 3011",
        "id": "node/3652055808"
      },
      "geometry": {
        "type": "Point",
        "coordinates": [
          -42.4929141,
          -14.0706791
        ]
      }
    },
    {
      "type": "Feature",
      "id": "node/3652055809",
      "properties": {
        "timestamp": "2018-03-28T15:01:48Z",
        "version": 4,
        "changeset": 57604339,
        "addr:city": "Caetité",
        "addr:housenumber": "103",
        "addr:postcode": "46400-000",
        "addr:street": "Rua Professor Alfredo José da Silva",
        "addr:suburb": "Centro",
        "amenity": "doctors",
        "contact:phone": "+55 77 9 9944 0520",
        "name": "Studio Fisio",
        "phone": "+55 77 9 9130 5510",
        "id": "node/3652055809"
      },
      "geometry": {
        "type": "Point",
        "coordinates": [
          -42.4929295,
          -14.0708638
        ]
      }
    },
    {
      "type": "Feature",
      "id": "node/3786927891",
      "properties": {
        "timestamp": "2017-05-11T21:57:14Z",
        "version": 2,
        "changeset": 48606051,
        "addr:city": "Caetité",
        "addr:housenumber": "207",
        "addr:postcode": "46400-000",
        "addr:street": "Praça Rodrigues Lima",
        "addr:suburb": "Observatório",
        "amenity": "doctors",
        "name": "Centro Psicológico",
        "id": "node/3786927891"
      },
      "geometry": {
        "type": "Point",
        "coordinates": [
          -42.4849127,
          -14.0709986
        ]
      }
    },
    {
      "type": "Feature",
      "id": "node/4011232950",
      "properties": {
        "timestamp": "2025-01-02T11:55:12Z",
        "version": 4,
        "changeset": 160903615,
        "addr:city": "Caetité",
        "addr:housenumber": "43",
        "addr:postcode": "46400-000",
        "addr:street": "Rua Getulio Vargas",
        "addr:suburb": "Centro",
        "amenity": "doctors",
        "healthcare": "doctor",
        "name": "Previna Fisioterapia e Odontologia",
        "survey:date": "2016-02-14",
        "id": "node/4011232950"
      },
      "geometry": {
        "type": "Point",
        "coordinates": [
          -42.4913492,
          -14.0693309
        ]
      }
    },
    {
      "type": "Feature",
      "id": "node/4011233696",
      "properties": {
        "timestamp": "2021-08-19T17:30:02Z",
        "version": 2,
        "changeset": 109946301,
        "amenity": "doctors",
        "healthcare": "doctor",
        "name": "Odontopediatra Dra. Cecília Marta valente",
        "survey:date": "2016-02-14",
        "id": "node/4011233696"
      },
      "geometry": {
        "type": "Point",
        "coordinates": [
          -42.491695,
          -14.0697429
        ]
      }
    },
    {
      "type": "Feature",
      "id": "node/4381160715",
      "properties": {
        "timestamp": "2022-11-21T01:10:15Z",
        "version": 2,
        "changeset": 129174638,
        "amenity": "doctors",
        "healthcare": "doctor",
        "level": "1",
        "name": "Dr. Thiago Alcântara Ortorrino Caetité",
        "phone": "+55 77 3454 2728",
        "id": "node/4381160715"
      },
      "geometry": {
        "type": "Point",
        "coordinates": [
          -42.4899807,
          -14.0689909
        ]
      }
    },
    {
      "type": "Feature",
      "id": "node/5054739621",
      "properties": {
        "timestamp": "2021-08-19T17:30:02Z",
        "version": 3,
        "changeset": 109946301,
        "alt_name": "Serviços Médicos Especializados",
        "amenity": "doctors",
        "description": "Cirurgia geral; Coloproctologia; Doenças funcionais do aparelho digestivo; Cirurgia plástica",
        "email": "clinicadrpaulogodim@gmail.com",
        "healthcare": "doctor",
        "name": "Dr. Paulo Sérgio Gondim Castro",
        "phone": "+55 77 3454 2553",
        "phone_1": "+55 77 9 9981 3700",
        "short_name": "SME",
        "wheelchair": "yes",
        "id": "node/5054739621"
      },
      "geometry": {
        "type": "Point",
        "coordinates": [
          -42.4917094,
          -14.0693798
        ]
      }
    },
    {
      "type": "Feature",
      "id": "node/5054739622",
      "properties": {
        "timestamp": "2021-08-19T17:30:02Z",
        "version": 3,
        "changeset": 109946301,
        "amenity": "doctors",
        "description": "Especialista em ginecologia, obstetrícia e artroscopia e cirurgia do joelho; Ultra-sonografia; Medicina esportiva; Ortopedia e traumatologia",
        "email": "romulonevescastro@bol.com.br",
        "healthcare": "doctor",
        "name": "Dr. Rômulo Neves Castro",
        "phone": "+55 77 3454-2226",
        "phone_1": "+55 77 3454 1811",
        "wheelchair": "yes",
        "id": "node/5054739622"
      },
      "geometry": {
        "type": "Point",
        "coordinates": [
          -42.4917953,
          -14.0694474
        ]
      }
    },
    {
      "type": "Feature",
      "id": "node/5511761238",
      "properties": {
        "timestamp": "2022-02-07T02:01:08Z",
        "version": 2,
        "changeset": 117099469,
        "addr:city": "Caetité",
        "addr:housenumber": "635",
        "addr:postcode": "46400-000",
        "addr:street": "Avenida Contorno",
        "addr:suburb": "São José",
        "amenity": "doctors",
        "contact:phone": "+55 77 9 9935 2114; +55 77 9 9951 8785",
        "name": "Espaço Equilíbrio",
        "phone": "+55 77 9 9804 1515",
        "phone_1": "+55 77 9 9141 9545",
        "id": "node/5511761238"
      },
      "geometry": {
        "type": "Point",
        "coordinates": [
          -42.4942347,
          -14.0699912
        ]
      }
    },
    {
      "type": "Feature",
      "id": "node/6703297823",
      "properties": {
        "timestamp": "2021-08-19T17:30:02Z",
        "version": 2,
        "changeset": 109946301,
        "amenity": "doctors",
        "healthcare": "doctor",
        "name": "Dr. Osny R. Araújo",
        "phone": "+55 77 3454 1949",
        "id": "node/6703297823"
      },
      "geometry": {
        "type": "Point",
        "coordinates": [
          -42.4922352,
          -14.0698299
        ]
      }
    },
    {
      "type": "Feature",
      "id": "node/8176546689",
      "properties": {
        "timestamp": "2020-11-29T15:38:40Z",
        "version": 1,
        "changeset": 94988366,
        "amenity": "doctors",
        "contact:phone": "+55 77 9 9988 6595",
        "healthcare:speciality": "ophthalmology",
        "name": "Dr. Antônio Carlos da S. Silva",
        "phone": "+55 77 3454 3979",
        "id": "node/8176546689"
      },
      "geometry": {
        "type": "Point",
        "coordinates": [
          -42.4921826,
          -14.0686931
        ]
      }
    },
    {
      "type": "Feature",
      "id": "node/9485007949",
      "properties": {
        "timestamp": "2022-02-07T02:01:08Z",
        "version": 1,
        "changeset": 117099469,
        "amenity": "doctors",
        "email": "paulasilvacte@gmail.com",
        "mobile": "+55 77 9 9913 4292",
        "name": "Ana Paula Fisioterapeuta",
        "id": "node/9485007949"
      },
      "geometry": {
        "type": "Point",
        "coordinates": [
          -42.484219,
          -14.0626756
        ]
      }
    },
    {
      "type": "Feature",
      "id": "node/9996149317",
      "properties": {
        "timestamp": "2022-09-03T00:31:09Z",
        "version": 1,
        "changeset": 125719563,
        "amenity": "doctors",
        "contact:mobile": "+55 77 9 9148 5370",
        "healthcare:counselling": "nutrition",
        "name": "Jardel Dourado Nutricionista",
        "id": "node/9996149317"
      },
      "geometry": {
        "type": "Point",
        "coordinates": [
          -42.4854183,
          -14.0698764
        ]
      }
    },
    {
      "type": "Feature",
      "id": "node/10227922454",
      "properties": {
        "timestamp": "2024-11-19T18:57:48Z",
        "version": 2,
        "changeset": 159338282,
        "addr:housenumber": "120",
        "addr:street": "Rua da Chácara",
        "amenity": "doctors",
        "contact:mobile": "+5577981161348",
        "healthcare": "doctor",
        "level": "1",
        "name": "Doutor Igor Mendes Consultório Médico",
        "id": "node/10227922454"
      },
      "geometry": {
        "type": "Point",
        "coordinates": [
          -42.4899773,
          -14.0633147
        ]
      }
    }
  ]
}
