{
  "type": "FeatureCollection",
  "features": [
    {
      "type": "Feature",
      "id": "way/348813261",
      "properties": {
        "timestamp": "2024-01-10T01:26:04Z",
        "version": 5,
        "changeset": 146086213,
        "addr:postcode": "46400-000",
        "addr:street": "Travessa Santa Terezinha",
        "addr:suburb": "Alto do Cristo",
        "alt_name": "Demutran",
        "government": "administrative",
        "name": "Departamento Municipal de Trânsito",
        "office": "government",
        "id": "way/348813261"
      },
      "geometry": {
        "type": "Polygon",
        "coordinates": [
          [
            [
              -42.4895899,
              -14.0750674
            ],
            [
              -42.489515,
              -14.0749632
            ],
            [
              -42.489473,
              -14.0749178
            ],
            [
              -42.4893249,
              -14.0747804
            ],
            [
              -42.489328,
              -14.0747252
            ],
            [
              -42.4896869,
              -14.0745713
            ],
            [
              -42.4897347,
              -14.0745996
            ],
            [
              -42.4898964,
              -14.0749194
            ],
            [
              -42.4895899,
              -14.0750674
            ]
          ]
        ]
      }
    },
    {
      "type": "Feature",
      "id": "way/1028506275",
      "properties": {
        "timestamp": "2022-12-04T12:49:14Z",
        "version": 2,
        "changeset": 129703645,
        "addr:city": "Caetité",
        "addr:housenumber": "10",
        "addr:postcode": "46400-000",
        "addr:street": "Praça Rodrigues Lima",
        "addr:suburb": "Centro",
        "contact:facebook": "https://www.facebook.com/camaracaetite/",
        "government": "legislative",
        "name": "Câmara Municipal de Vereadores",
        "office": "government",
        "id": "way/1028506275"
      },
      "geometry": {
        "type": "Polygon",
        "coordinates": [
          [
            [
              -42.4846152,
              -14.0702189
            ],
            [
              -42.484594,
              -14.0702837
            ],
            [
              -42.4845218,
              -14.0704764
            ],
            [
              -42.4844959,
              -14.0704705
            ],
            [
              -42.4844537,
              -14.0704608
            ],
            [
              -42.484332,
              -14.0704328
            ],
            [
              -42.4842289,
              -14.0704211
            ],
            [
              -42.4842153,
              -14.0704195
            ],
            [
              -42.4841753,
              -14.0701655
            ],
            [
              -42.484233,
              -14.0701694
            ],
            [
              -42.4842303,
              -14.0701837
            ],
            [
              -42.4846152,
              -14.0702189
            ]
          ]
        ]
      }
    },
    {
      "type": "Feature",
      "id": "node/3559637794",
      "properties": {
        "timestamp": "2024-06-15T11:37:11Z",
        "version": 9,
        "changeset": 152716601,
        "addr:city": "Caetité",
        "addr:housenumber": "8",
        "addr:postcode": "46400-000",
        "addr:street": "Rua Cônego Bastos",
        "addr:suburb": "Centro",
        "check_date": "2024-06-15",
        "government": "culture",
        "name": "Secretaria Municipal de Cultura, Esporte, Lazer e Turismo",
        "office": "government",
        "opening_hours": "Mo-Fr 07:30-12:00,13:30-17:00; PH off; SH off",
        "operator": "Doriedson de Brito Almeida",
        "wheelchair": "no",
        "id": "node/3559637794"
      },
      "geometry": {
        "type": "Point",
        "coordinates": [
          -42.4840632,
          -14.0688937
        ]
      }
    },
    {
      "type": "Feature",
      "id": "node/3567516067",
      "properties": {
        "timestamp": "2015-06-03T02:53:00Z",
        "version": 1,
        "changeset": 31681730,
        "office": "government",
        "id": "node/3567516067"
      },
      "geometry": {
        "type": "Point",
        "coordinates": [
          -42.4924398,
          -14.0681001
        ]
      }
    },
    {
      "type": "Feature",
      "id": "node/3638081868",
      "properties": {
        "timestamp": "2024-10-29T10:01:20Z",
        "version": 3,
        "changeset": 158490103,
        "addr:city": "Caetité",
        "addr:postcode": "46400-000",
        "addr:street": "Avenida Woquiton Fernandes Teixeira",
        "addr:suburb": "Centro",
        "government": "social_services",
        "name": "Companhia de Desenvolvimento e Ação Regional - CAR",
        "office": "government",
        "wheelchair": "no",
        "id": "node/3638081868"
      },
      "geometry": {
        "type": "Point",
        "coordinates": [
          -42.4904384,
          -14.0684198
        ]
      }
    },
    {
      "type": "Feature",
      "id": "node/3778532057",
      "properties": {
        "timestamp": "2023-07-26T21:42:09Z",
        "version": 4,
        "changeset": 139058914,
        "addr:city": "Caetité",
        "addr:housenumber": "115",
        "addr:postcode": "46400-000",
        "addr:street": "Rua Marcelino dos Santos",
        "addr:suburb": "Centro",
        "contact:phone": "+55 77 9 9117 6207",
        "email": "registrocivilcaetite@gmail.com",
        "government": "register_office",
        "name": "Oficio de Registro Cívil das Pessoas Naturais de Caetité",
        "office": "government",
        "opening_hours": "Mo-Fr 07:30-13:30",
        "id": "node/3778532057"
      },
      "geometry": {
        "type": "Point",
        "coordinates": [
          -42.4890261,
          -14.0664076
        ]
      }
    },
    {
      "type": "Feature",
      "id": "node/3786927892",
      "properties": {
        "timestamp": "2015-10-15T00:56:24Z",
        "version": 1,
        "changeset": 34644989,
        "addr:city": "Caetité",
        "addr:postcode": "46400-000",
        "addr:street": "Praça Rodrigues Lima",
        "addr:suburb": "Observatório",
        "local_ref": "Superintendência Regional de Caetité",
        "name": "EBDA - Empresa Baiana de Desenvolvimento Agrícola",
        "office": "government",
        "id": "node/3786927892"
      },
      "geometry": {
        "type": "Point",
        "coordinates": [
          -42.4848197,
          -14.0714603
        ]
      }
    },
    {
      "type": "Feature",
      "id": "node/3786927901",
      "properties": {
        "timestamp": "2021-03-21T15:53:14Z",
        "version": 4,
        "changeset": 101445795,
        "addr:city": "Caetité",
        "addr:housenumber": "12",
        "addr:postcode": "46400-000",
        "addr:street": "Praça Pompeu F. da Cunha",
        "addr:suburb": "Centro",
        "email": "registrodeimoveiscte@hotmail.com",
        "government": "register_office",
        "mobile": "+55 77 99971-1225",
        "name": "Cartório de Registro de Imóveis, Hipotecas, Títulos e Documentos e das Pessoas Jurídicas de Caetité-BA",
        "office": "government",
        "opening_hours": "Mo-Fr 08:00-15:00",
        "operator": "Dalva Flora da Conceição Pereira",
        "phone": "+55 77 3454-2922",
        "id": "node/3786927901"
      },
      "geometry": {
        "type": "Point",
        "coordinates": [
          -42.4816845,
          -14.0683073
        ]
      }
    },
    {
      "type": "Feature",
      "id": "node/3786927998",
      "properties": {
        "timestamp": "2021-03-21T15:53:14Z",
        "version": 3,
        "changeset": 101445795,
        "addr:city": "Caetité",
        "addr:postcode": "46400-000",
        "addr:street": "Rua 12 de Outubro",
        "addr:suburb": "Ovídio Teixeira",
        "government": "public_service",
        "name": "Ponto Cidadão",
        "office": "government",
        "opening_hours": "Mo-Fr 07:00-13:00",
        "id": "node/3786927998"
      },
      "geometry": {
        "type": "Point",
        "coordinates": [
          -42.4813129,
          -14.0680525
        ]
      }
    },
    {
      "type": "Feature",
      "id": "node/3786967654",
      "properties": {
        "timestamp": "2022-04-17T17:59:51Z",
        "version": 2,
        "changeset": 119826640,
        "addr:city": "Caetité",
        "addr:postcode": "46400-000",
        "addr:street": "Praça da Catedral",
        "addr:suburb": "Centro",
        "government": "public_service",
        "name": "Centro Integrado de Apoio ao Cidadão",
        "office": "government",
        "id": "node/3786967654"
      },
      "geometry": {
        "type": "Point",
        "coordinates": [
          -42.4847379,
          -14.0687784
        ]
      }
    },
    {
      "type": "Feature",
      "id": "node/3900609024",
      "properties": {
        "timestamp": "2022-08-18T10:36:13Z",
        "version": 4,
        "changeset": 125055305,
        "addr:city": "Caetité",
        "addr:housenumber": "71",
        "addr:postcode": "46400-000",
        "addr:street": "Travessa Professor Anísio Teixeira",
        "addr:suburb": "Centro",
        "contact:mobile": "+55 77 9 9833 8038",
        "contact:phone": "+55 77 3454 2170",
        "name": "Camara de Dirigetes Logistas de Caetite",
        "office": "government",
        "phone": "+55 77 3454 1924",
        "short_name": "CDL",
        "survey:date": "2015-12-15",
        "website": "https://cdlcaetite.com.br/",
        "id": "node/3900609024"
      },
      "geometry": {
        "type": "Point",
        "coordinates": [
          -42.4874743,
          -14.0684959
        ]
      }
    },
    {
      "type": "Feature",
      "id": "node/4476126261",
      "properties": {
        "timestamp": "2016-11-02T02:37:07Z",
        "version": 1,
        "changeset": 43341686,
        "addr:city": "Caetité",
        "addr:postcode": "46400-000",
        "addr:street": "Rua Rui Barbosa",
        "addr:suburb": "Centro",
        "name": "Previdência Social",
        "office": "government",
        "id": "node/4476126261"
      },
      "geometry": {
        "type": "Point",
        "coordinates": [
          -42.4878348,
          -14.0681919
        ]
      }
    },
    {
      "type": "Feature",
      "id": "node/4476126264",
      "properties": {
        "timestamp": "2022-01-23T02:10:29Z",
        "version": 2,
        "changeset": 116486031,
        "addr:city": "Caetité",
        "addr:housenumber": "273",
        "addr:postcode": "46400-000",
        "addr:street": "Rua Rui Barbosa",
        "addr:suburb": "Centro",
        "name": "24º Dires Caetité",
        "office": "government",
        "id": "node/4476126264"
      },
      "geometry": {
        "type": "Point",
        "coordinates": [
          -42.4884507,
          -14.0681636
        ]
      }
    },
    {
      "type": "Feature",
      "id": "node/4543674221",
      "properties": {
        "timestamp": "2024-06-13T14:16:27Z",
        "version": 3,
        "changeset": 152636309,
        "addr:city": "Caetité",
        "addr:housenumber": "31",
        "addr:postcode": "46400-000",
        "addr:street": "Rua Quintino Bocaiuva",
        "addr:suburb": "Centro",
        "alt_name": "7ª Inspetoria de Controle Externo",
        "check_date": "2024-06-13",
        "name": "Tribunal de Contas dos Municípios",
        "office": "government",
        "short_name": "TCM",
        "id": "node/4543674221"
      },
      "geometry": {
        "type": "Point",
        "coordinates": [
          -42.4908416,
          -14.0691993
        ]
      }
    },
    {
      "type": "Feature",
      "id": "node/5824197165",
      "properties": {
        "timestamp": "2021-11-02T21:11:37Z",
        "version": 4,
        "changeset": 113302925,
        "addr:city": "Caetité",
        "addr:postcode": "46400-000",
        "addr:street": "Avenida Professora Marlene Cerqueira de Oliveira",
        "addr:suburb": "Prisco Viana",
        "contact:phone": "+55 77 3454-8067",
        "email": "servicospublicos@caetite.ba.gov.br",
        "name": "Secretaria Municipal de Serviços Públicos",
        "office": "government",
        "opening_hours": "Mo-Fr 07:30-12:00,13:30-17:00; PH off; SH off",
        "operator": "Rodrigo Júnior Lima Gondim",
        "phone": "+55 77 3454-8066",
        "website": "http://www.caetite.ba.gov.br/secretarias/secretaria-de-servicos-publicos/",
        "wheelchair": "yes",
        "id": "node/5824197165"
      },
      "geometry": {
        "type": "Point",
        "coordinates": [
          -42.471571,
          -14.054606
        ]
      }
    },
    {
      "type": "Feature",
      "id": "node/7198994881",
      "properties": {
        "timestamp": "2021-11-02T21:11:37Z",
        "version": 3,
        "changeset": 113302925,
        "addr:city": "Caetité",
        "addr:postcode": "46400-000",
        "addr:street": "Avenida Professora Marlene Cerqueira de Oliveira",
        "addr:suburb": "Prisco Viana",
        "email": "educacao@caetite.ba.gov.br",
        "government": "education",
        "name": "Secretaria Municipal de Educação",
        "office": "government",
        "opening_hours": "Mo-Fr 07:30-12:00,13:30-17:00; PH off; SH off",
        "operator": "Iamara Junqueira Sousa Carvalho",
        "phone": "+55 77 3454-4114",
        "website": "http://www.caetite.ba.gov.br/secretarias/secretaria-de-educacao/",
        "wheelchair": "yes",
        "id": "node/7198994881"
      },
      "geometry": {
        "type": "Point",
        "coordinates": [
          -42.4710283,
          -14.0543698
        ]
      }
    },
    {
      "type": "Feature",
      "id": "node/7223130797",
      "properties": {
        "timestamp": "2024-06-18T14:59:23Z",
        "version": 3,
        "changeset": 152853426,
        "addr:city": "Caetité",
        "addr:housenumber": "216",
        "addr:postcode": "46400-000",
        "addr:street": "Praça Clarismundo Pontes",
        "addr:suburb": "Barauna",
        "government": "healthcare",
        "level": "1",
        "name": "Unidade Municipal de Controle de Endemias",
        "office": "government",
        "id": "node/7223130797"
      },
      "geometry": {
        "type": "Point",
        "coordinates": [
          -42.493371,
          -14.0669542
        ]
      }
    },
    {
      "type": "Feature",
      "id": "node/7424033651",
      "properties": {
        "timestamp": "2023-09-17T14:11:01Z",
        "version": 3,
        "changeset": 141383698,
        "addr:city": "Caetité",
        "addr:postcode": "46400-000",
        "addr:street": "Rua dos Maçons",
        "addr:suburb": "Centro",
        "contact:phone": "+55 77 3454-2304",
        "government": "register_office",
        "level": "0",
        "name": "Tabelionato de Notas e Protestos de Caetité",
        "office": "government",
        "opening_hours": "Mo-Fr 08:30-15:30",
        "operator": "Adriano Apolinário Macedo Gonçalves",
        "phone": "+55 77 99946-7887;+55 77 99920-3350",
        "id": "node/7424033651"
      },
      "geometry": {
        "type": "Point",
        "coordinates": [
          -42.4925969,
          -14.0665861
        ]
      }
    },
    {
      "type": "Feature",
      "id": "node/8042894019",
      "properties": {
        "timestamp": "2021-11-02T21:11:37Z",
        "version": 3,
        "changeset": 113302925,
        "addr:city": "Caetité",
        "addr:postcode": "46400-000",
        "addr:street": "Avenida Professora Marlene Cerqueira de Oliveira",
        "addr:suburb": "Prisco Viana",
        "name": "Secretaria Municipal de Desenvolvimento Social",
        "office": "government",
        "opening_hours": "Mo-Fr 07:30-12:00,13:30-17:00; PH off; SH off",
        "wheelchair": "yes",
        "id": "node/8042894019"
      },
      "geometry": {
        "type": "Point",
        "coordinates": [
          -42.4720529,
          -14.0532952
        ]
      }
    },
    {
      "type": "Feature",
      "id": "node/8042894020",
      "properties": {
        "timestamp": "2021-11-02T21:11:37Z",
        "version": 4,
        "changeset": 113302925,
        "addr:city": "Caetité",
        "addr:postcode": "46400-000",
        "addr:street": "Avenida Professora Marlene Cerqueira de Oliveira",
        "addr:suburb": "Prisco Viana",
        "government": "healthcare",
        "name": "Secretaria Municipal de Saúde",
        "office": "government",
        "opening_hours": "Mo-Fr 07:30-12:00,13:30-17:00; PH off; SH off",
        "wheelchair": "yes",
        "id": "node/8042894020"
      },
      "geometry": {
        "type": "Point",
        "coordinates": [
          -42.4714829,
          -14.0531014
        ]
      }
    },
    {
      "type": "Feature",
      "id": "node/8042894021",
      "properties": {
        "timestamp": "2022-01-23T02:10:29Z",
        "version": 4,
        "changeset": 116486031,
        "addr:city": "Caetité",
        "addr:postcode": "46400-000",
        "addr:street": "Avenida Professora Marlene Cerqueira de Oliveira",
        "addr:suburb": "Prisco Viana",
        "name": "Gerência de Tributos",
        "office": "government",
        "opening_hours": "Mo-Fr 07:30-12:00,13:30-17:00; PH off; SH off",
        "wheelchair": "yes",
        "id": "node/8042894021"
      },
      "geometry": {
        "type": "Point",
        "coordinates": [
          -42.4717914,
          -14.0539222
        ]
      }
    },
    {
      "type": "Feature",
      "id": "node/8042894023",
      "properties": {
        "timestamp": "2021-03-10T21:11:46Z",
        "version": 2,
        "changeset": 100801864,
        "addr:city": "Caetité",
        "addr:postcode": "46400-000",
        "addr:street": "Avenida Professora Marlene Cerqueira de Oliveira",
        "addr:suburb": "Prisco Viana",
        "name": "Núcleo Regional de Educação 13 - Território de Identidade do Sertão Produtivo",
        "office": "government",
        "survey:date": "2020-24-10",
        "id": "node/8042894023"
      },
      "geometry": {
        "type": "Point",
        "coordinates": [
          -42.4706876,
          -14.0540979
        ]
      }
    },
    {
      "type": "Feature",
      "id": "node/8144428608",
      "properties": {
        "timestamp": "2021-11-02T21:11:37Z",
        "version": 3,
        "changeset": 113302925,
        "addr:city": "Caetité",
        "addr:postcode": "46400-000",
        "addr:street": "Avenida Professora Marlene Cerqueira de Oliveira",
        "addr:suburb": "Prisco Viana",
        "contact:phone": "+55 77 3454-8050",
        "email": "desenvolvimentosocial@caetite.ba.gov.br",
        "government": "social_services",
        "name": "Secretaria de Desenvolvimento Social",
        "office": "government",
        "opening_hours": "Mo-Fr 07:30-12:00,13:30-17:00; PH off; SH off",
        "operator": "Mara Rebouças de Azevedo",
        "phone": "+55 77 3454-8051",
        "website": "https://caetite.ba.gov.br/secretarias/secretaria-de-desenvolvimento-social/",
        "wheelchair": "yes",
        "id": "node/8144428608"
      },
      "geometry": {
        "type": "Point",
        "coordinates": [
          -42.4716733,
          -14.0545923
        ]
      }
    },
    {
      "type": "Feature",
      "id": "node/8144428609",
      "properties": {
        "timestamp": "2021-11-02T21:11:37Z",
        "version": 4,
        "changeset": 113302925,
        "addr:city": "Caetité",
        "addr:postcode": "46400-000",
        "addr:street": "Avenida Professora Marlene Cerqueira de Oliveira",
        "addr:suburb": "Prisco Viana",
        "contact:phone": "+55 77 3454-5766",
        "email": "recursoshidricos@caetite.ba.gov.br",
        "name": "Secretaria de Recursos Hídricos",
        "office": "government",
        "opening_hours": "Mo-Fr 07:30-12:00,13:30-17:00; PH off; SH off",
        "operator": "Paulo Humberto Vilasboas Ledo",
        "website": "https://caetite.ba.gov.br/secretarias/secretaria-de-recursos-hidricos/",
        "wheelchair": "yes",
        "id": "node/8144428609"
      },
      "geometry": {
        "type": "Point",
        "coordinates": [
          -42.4717458,
          -14.0546092
        ]
      }
    },
    {
      "type": "Feature",
      "id": "node/8144428610",
      "properties": {
        "timestamp": "2021-11-02T21:11:37Z",
        "version": 3,
        "changeset": 113302925,
        "addr:city": "Caetité",
        "addr:postcode": "46400-000",
        "addr:street": "Avenida Professora Marlene Cerqueira de Oliveira",
        "addr:suburb": "Prisco Viana",
        "contact:phone": "+55 77 3454-5766",
        "email": "meioambiente@caetite.ba.gov.br",
        "name": "Secretaria Municipal de Meio Ambiente e Limpeza Pública",
        "office": "government",
        "opening_hours": "Mo-Fr 07:30-12:00,13:30-17:00; PH off; SH off",
        "website": "https://caetite.ba.gov.br/secretarias/secretaria-de-meio-ambiente-e-limpeza-publica/",
        "wheelchair": "yes",
        "id": "node/8144428610"
      },
      "geometry": {
        "type": "Point",
        "coordinates": [
          -42.4714601,
          -14.0545259
        ]
      }
    },
    {
      "type": "Feature",
      "id": "node/9143452423",
      "properties": {
        "timestamp": "2021-10-04T01:25:31Z",
        "version": 1,
        "changeset": 112053024,
        "government": "transportation",
        "name": "Detran",
        "office": "government",
        "id": "node/9143452423"
      },
      "geometry": {
        "type": "Point",
        "coordinates": [
          -42.4925282,
          -14.0720693
        ]
      }
    },
    {
      "type": "Feature",
      "id": "node/9143452441",
      "properties": {
        "timestamp": "2021-11-02T21:11:37Z",
        "version": 2,
        "changeset": 113302925,
        "addr:city": "Caetité",
        "addr:postcode": "46400-000",
        "addr:street": "Avenida Professora Marlene Cerqueira de Oliveira",
        "addr:suburb": "Prisco Viana",
        "name": "Diretoria de Apoio ao Fomento Municipal",
        "office": "government",
        "opening_hours": "Mo-Fr 07:30-12:00,13:30-17:00; PH off; SH off",
        "short_name": "DIFAN",
        "wheelchair": "yes",
        "id": "node/9143452441"
      },
      "geometry": {
        "type": "Point",
        "coordinates": [
          -42.4710819,
          -14.0529609
        ]
      }
    },
    {
      "type": "Feature",
      "id": "node/9143452442",
      "properties": {
        "timestamp": "2021-11-02T21:11:37Z",
        "version": 2,
        "changeset": 113302925,
        "addr:city": "Caetité",
        "addr:postcode": "46400-000",
        "addr:street": "Avenida Professora Marlene Cerqueira de Oliveira",
        "addr:suburb": "Prisco Viana",
        "name": "Secretaria de Agricultura",
        "office": "government",
        "opening_hours": "Mo-Fr 07:30-12:00,13:30-17:00; PH off; SH off",
        "wheelchair": "yes",
        "id": "node/9143452442"
      },
      "geometry": {
        "type": "Point",
        "coordinates": [
          -42.4715399,
          -14.0545272
        ]
      }
    },
    {
      "type": "Feature",
      "id": "node/9368770976",
      "properties": {
        "timestamp": "2024-11-17T18:39:40Z",
        "version": 3,
        "changeset": 159254836,
        "addr:city": "Caetité",
        "addr:housenumber": "294",
        "addr:postcode": "46400-000",
        "addr:street": "Rua da Chácara",
        "addr:suburb": "Chacara",
        "alt_name": "CDS Alto Sertão",
        "contact:facebook": "https://www.facebook.com/consorcio.altosertao.7/",
        "contact:instagram": "https://www.instagram.com/p/Bnt1SMeBtlA/",
        "government": "yes",
        "name": "Consórcio de Desenvolvimento do Alto Sertão",
        "office": "government",
        "phone": "+55 77 3454 3994",
        "website": "https://www.cdsaltosertao.ba.gov.br/",
        "id": "node/9368770976"
      },
      "geometry": {
        "type": "Point",
        "coordinates": [
          -42.4896462,
          -14.0643538
        ]
      }
    },
    {
      "type": "Feature",
      "id": "node/9441125214",
      "properties": {
        "timestamp": "2022-01-23T02:10:29Z",
        "version": 1,
        "changeset": 116486031,
        "addr:city": "Caetité",
        "addr:postcode": "46400-000",
        "addr:street": "Avenida Professora Marlene Cerqueira de Oliveira",
        "addr:suburb": "Prisco Viana",
        "name": "Centro Regional de Saúde do Trabalhador de Caetité",
        "office": "government",
        "short_name": "Cerest",
        "survey:date": "2020-10-23",
        "id": "node/9441125214"
      },
      "geometry": {
        "type": "Point",
        "coordinates": [
          -42.471039,
          -14.0530819
        ]
      }
    },
    {
      "type": "Feature",
      "id": "node/10237800678",
      "properties": {
        "timestamp": "2022-12-04T12:49:14Z",
        "version": 1,
        "changeset": 129703645,
        "contact:facebook": "https://www.facebook.com/Adab.bahia/",
        "contact:instagram": "https://www.instagram.com/adab_bahia/",
        "contact:phone": "+55 77 3454 2223",
        "contact:twitter": "https://twitter.com/AdabBahia",
        "contact:website": "http://www.adab.ba.gov.br/",
        "contact:youtube": "https://www.youtube.com/user/TVAdab",
        "government": "agency",
        "level": "1",
        "name": "Agência de Defesa Agropecuária da Bahia",
        "office": "government",
        "phone": "0800 284-0011",
        "short_name": "ADAB",
        "website": "http://www.adab.ba.gov.br/",
        "id": "node/10237800678"
      },
      "geometry": {
        "type": "Point",
        "coordinates": [
          -42.4848599,
          -14.0715116
        ]
      }
    },
    {
      "type": "Feature",
      "id": "node/10237800679",
      "properties": {
        "timestamp": "2022-12-04T12:49:14Z",
        "version": 1,
        "changeset": 129703645,
        "contact:facebook": "https://www.facebook.com/carbahia/",
        "contact:flickr": "https://www.flickr.com/photos/ascomcar",
        "contact:instagram": "https://www.instagram.com/sdrbahia/",
        "contact:phone": "+55 77 3454 2022",
        "government": "social_security",
        "level": "1",
        "name": "Companhia de Desenvolvimento e Ação Regional",
        "office": "government",
        "short_name": "CAR",
        "website": "http://www.car.ba.gov.br/",
        "id": "node/10237800679"
      },
      "geometry": {
        "type": "Point",
        "coordinates": [
          -42.4848727,
          -14.0714357
        ]
      }
    },
    {
      "type": "Feature",
      "id": "node/10237800680",
      "properties": {
        "timestamp": "2022-12-04T12:49:14Z",
        "version": 1,
        "changeset": 129703645,
        "contact:phone": "+55 77 3454 3738",
        "government": "environment",
        "level": "0",
        "name": "Instituto do Meio Ambiente e Recursos Hídricos",
        "office": "government",
        "short_name": "Inema",
        "website": "http://www.inema.ba.gov.br/",
        "id": "node/10237800680"
      },
      "geometry": {
        "type": "Point",
        "coordinates": [
          -42.4849486,
          -14.0714436
        ]
      }
    },
    {
      "type": "Feature",
      "id": "node/10237800681",
      "properties": {
        "timestamp": "2022-12-04T12:49:14Z",
        "version": 1,
        "changeset": 129703645,
        "contact:facebook": "https://www.facebook.com/bahiapesca",
        "contact:instagram": "https://www.instagram.com/bahiapesca/",
        "contact:twitter": "https://twitter.com/BahiaPescaSA",
        "contact:youtube": "https://www.youtube.com/user/BahiaPescaSA",
        "government": "office",
        "level": "1",
        "name": "Bahia Pesca",
        "office": "government",
        "website": "http://www.bahiapesca.ba.gov.br/",
        "id": "node/10237800681"
      },
      "geometry": {
        "type": "Point",
        "coordinates": [
          -42.4849089,
          -14.0715263
        ]
      }
    },
    {
      "type": "Feature",
      "id": "node/10237800682",
      "properties": {
        "timestamp": "2022-12-04T12:49:14Z",
        "version": 1,
        "changeset": 129703645,
        "government": "agency",
        "level": "0",
        "name": "Superintendência Baiana de Assistência Técnica e Extensão Rural",
        "office": "government",
        "short_name": "Bahiater",
        "website": "http://www.bahiater.sdr.ba.gov.br/",
        "id": "node/10237800682"
      },
      "geometry": {
        "type": "Point",
        "coordinates": [
          -42.4850269,
          -14.0714844
        ]
      }
    },
    {
      "type": "Feature",
      "id": "node/11734746061",
      "properties": {
        "timestamp": "2024-03-15T17:35:15Z",
        "version": 1,
        "changeset": 148700382,
        "addr:city": "Caetité",
        "addr:postcode": "46400-000",
        "addr:street": "Rua Rui Barbosa",
        "addr:suburb": "Centro",
        "government": "education",
        "name": "Núcleo Educacional de Avaliação e formação de Caetité",
        "office": "government",
        "id": "node/11734746061"
      },
      "geometry": {
        "type": "Point",
        "coordinates": [
          -42.4870789,
          -14.0683422
        ]
      }
    },
    {
      "type": "Feature",
      "id": "node/11999368997",
      "properties": {
        "timestamp": "2024-06-21T17:46:39Z",
        "version": 1,
        "changeset": 153003113,
        "addr:city": "Caetité",
        "addr:housenumber": "114",
        "addr:postcode": "46400-000",
        "addr:street": "Rua XXIII",
        "addr:suburb": "São vicente",
        "contact:email": "conselhotutelarcte2010@hotmail.com",
        "contact:mobile": "+55 77  99909 1904",
        "government": "social_services",
        "name": "Conselho Tutelar de Caetité",
        "office": "government",
        "id": "node/11999368997"
      },
      "geometry": {
        "type": "Point",
        "coordinates": [
          -42.4932449,
          -14.0732875
        ]
      }
    }
  ]
}
