{
  "type": "FeatureCollection",
  "features": [
    {
      "type": "Feature",
      "id": "node/3786919940",
      "properties": {
        "timestamp": "2024-06-03T12:11:38Z",
        "version": 6,
        "changeset": 152197888,
        "addr:city": "Caetité",
        "addr:housenumber": "435",
        "addr:postcode": "46400-000",
        "addr:street": "Rua Barão de Caetité",
        "addr:suburb": "Centro",
        "building": "apartments",
        "contact:mobile": "+55 77 9 9962 8228",
        "name": "Pensão Dona Nena",
        "phone": "+55 77 3454 1996",
        "tourism": "guest_house",
        "id": "node/3786919940"
      },
      "geometry": {
        "type": "Point",
        "coordinates": [
          -42.4901069,
          -14.0701478
        ]
      }
    },
    {
      "type": "Feature",
      "id": "node/3884267228",
      "properties": {
        "timestamp": "2022-01-23T13:06:58Z",
        "version": 4,
        "changeset": 116498397,
        "addr:city": "Caetité",
        "addr:postcode": "46400-000",
        "addr:street": "Avenida Prefeito Dácio Oliveira",
        "addr:suburb": "Chacara",
        "level": "2",
        "name": "Pousada do Baiano",
        "phone": "+55 77 9 9140 6586",
        "tourism": "guest_house",
        "id": "node/3884267228"
      },
      "geometry": {
        "type": "Point",
        "coordinates": [
          -42.4902048,
          -14.0646558
        ]
      }
    },
    {
      "type": "Feature",
      "id": "node/3884267242",
      "properties": {
        "timestamp": "2017-03-21T18:07:44Z",
        "version": 2,
        "changeset": 47047205,
        "addr:city": "Caetité",
        "addr:postcode": "46400-000",
        "addr:street": "Avenida Prefeito Dácio Oliveira",
        "addr:suburb": "Centro",
        "name": "Pousada São José",
        "tourism": "guest_house",
        "id": "node/3884267242"
      },
      "geometry": {
        "type": "Point",
        "coordinates": [
          -42.491228,
          -14.0646792
        ]
      }
    },
    {
      "type": "Feature",
      "id": "node/4515618709",
      "properties": {
        "timestamp": "2021-01-14T11:04:33Z",
        "version": 2,
        "changeset": 97491275,
        "addr:city": "Caetité",
        "addr:postcode": "46400-000",
        "addr:street": "Praça Tancredo Neves",
        "addr:suburb": "Ovídio Teixeira",
        "name": "Pousada Eucalipto",
        "phone": "+55 77 9 9865 8943",
        "tourism": "guest_house",
        "wheelchair": "no",
        "id": "node/4515618709"
      },
      "geometry": {
        "type": "Point",
        "coordinates": [
          -42.484539,
          -14.0658728
        ]
      }
    },
    {
      "type": "Feature",
      "id": "node/8322164557",
      "properties": {
        "timestamp": "2021-01-14T19:49:38Z",
        "version": 1,
        "changeset": 97513779,
        "name": "Pousada Mulungu",
        "tourism": "guest_house",
        "id": "node/8322164557"
      },
      "geometry": {
        "type": "Point",
        "coordinates": [
          -42.4843937,
          -14.0656436
        ]
      }
    }
  ]
}
