{
  "type": "FeatureCollection",
  "features": [
    {
      "type": "Feature",
      "id": "way/377239507",
      "properties": {
        "timestamp": "2024-06-28T09:27:30Z",
        "version": 6,
        "changeset": 153283172,
        "addr:city": "Caetité",
        "addr:housenumber": "10",
        "addr:postcode": "46400-000",
        "addr:street": "Rua 2 de Julho",
        "addr:suburb": "Centro",
        "building": "apartments",
        "building:levels": "2",
        "check_date": "2024-06-28",
        "name": "Caetité Palace Hotel",
        "roof:levels": "1",
        "roof:shape": "gabled",
        "tourism": "hotel",
        "wheelchair": "limited",
        "id": "way/377239507"
      },
      "geometry": {
        "type": "Polygon",
        "coordinates": [
          [
            [
              -42.4848217,
              -14.0660447
            ],
            [
              -42.4849911,
              -14.0661018
            ],
            [
              -42.4849756,
              -14.0661479
            ],
            [
              -42.4849548,
              -14.0662095
            ],
            [
              -42.4847956,
              -14.0661558
            ],
            [
              -42.4847854,
              -14.0661524
            ],
            [
              -42.4848217,
              -14.0660447
            ]
          ]
        ]
      }
    },
    {
      "type": "Feature",
      "id": "node/3125762958",
      "properties": {
        "timestamp": "2023-05-29T16:46:28Z",
        "version": 7,
        "changeset": 136709135,
        "addr:city": "Caetité",
        "addr:housenumber": "170 A",
        "addr:postcode": "46400-000",
        "addr:street": "Avenida Prefeito Dácio Oliveira",
        "addr:suburb": "Centro",
        "contact:mobile": "+55 77 9 9104 0899",
        "internet_access": "yes",
        "mobile": "+55 77 9 9938 0554",
        "name": "Hotel Alto Sertão",
        "phone": "+55 77 3454-2968",
        "tourism": "hotel",
        "website": "https://www.hotelaltosertao.com.br/",
        "id": "node/3125762958"
      },
      "geometry": {
        "type": "Point",
        "coordinates": [
          -42.4878084,
          -14.0647263
        ]
      }
    },
    {
      "type": "Feature",
      "id": "node/3560075113",
      "properties": {
        "timestamp": "2015-12-09T04:14:05Z",
        "version": 5,
        "changeset": 35838711,
        "addr:city": "Caetité",
        "addr:housenumber": "1101",
        "addr:postcode": "46400-000",
        "addr:street": "Avenida Prefeito Dácio Oliveira",
        "addr:suburb": "Rancho Alegre",
        "name": "Hotel Palace Rancho Alegre",
        "smoking": "no",
        "tourism": "hotel",
        "id": "node/3560075113"
      },
      "geometry": {
        "type": "Point",
        "coordinates": [
          -42.4973607,
          -14.0629117
        ]
      }
    },
    {
      "type": "Feature",
      "id": "node/3579538120",
      "properties": {
        "timestamp": "2021-01-14T11:05:30Z",
        "version": 4,
        "changeset": 97491275,
        "addr:city": "Caetité",
        "addr:housenumber": "248",
        "addr:postcode": "46400-000",
        "addr:street": "Rua 2 de Julho",
        "addr:suburb": "Centro",
        "name": "Hotel Bahia",
        "phone": "+55 77 3454 1709",
        "tourism": "hotel",
        "wheelchair": "no",
        "id": "node/3579538120"
      },
      "geometry": {
        "type": "Point",
        "coordinates": [
          -42.4850338,
          -14.0655546
        ]
      }
    },
    {
      "type": "Feature",
      "id": "node/3579568350",
      "properties": {
        "timestamp": "2024-06-15T11:36:26Z",
        "version": 3,
        "changeset": 152716601,
        "addr:city": "Caetité",
        "addr:housenumber": "129",
        "addr:postcode": "46400-000",
        "addr:street": "Praça da Catedral",
        "addr:suburb": "Centro",
        "check_date": "2024-06-15",
        "name": "Hotel Vila Nova do Principe",
        "tourism": "hotel",
        "id": "node/3579568350"
      },
      "geometry": {
        "type": "Point",
        "coordinates": [
          -42.4848045,
          -14.0696124
        ]
      }
    },
    {
      "type": "Feature",
      "id": "node/3654464080",
      "properties": {
        "timestamp": "2016-01-06T18:25:13Z",
        "version": 3,
        "changeset": 36409950,
        "addr:city": "Caetité",
        "addr:postcode": "46400-000",
        "addr:street": "BR-430",
        "name": "Hotel Pousada Alto das Colinas",
        "phone": "+55 77 3454 4204",
        "smoking": "no",
        "tourism": "hotel",
        "website": "http://www.hotelpousadaaltodascolinas.com.br/#!inicio/mainPage",
        "id": "node/3654464080"
      },
      "geometry": {
        "type": "Point",
        "coordinates": [
          -42.5110234,
          -14.0481397
        ]
      }
    },
    {
      "type": "Feature",
      "id": "node/3672355275",
      "properties": {
        "timestamp": "2021-01-14T11:04:42Z",
        "version": 2,
        "changeset": 97491275,
        "addr:city": "Caetité",
        "addr:postcode": "46400-000",
        "addr:street": "Praça Tancredo Neves",
        "addr:suburb": "Ovídio Teixeira",
        "name": "Hotel Via Brasil",
        "tourism": "hotel",
        "wheelchair": "no",
        "id": "node/3672355275"
      },
      "geometry": {
        "type": "Point",
        "coordinates": [
          -42.4845922,
          -14.0659873
        ]
      }
    },
    {
      "type": "Feature",
      "id": "node/3772558107",
      "properties": {
        "timestamp": "2022-02-25T17:15:21Z",
        "version": 3,
        "changeset": 117856718,
        "addr:city": "Caetité",
        "addr:housenumber": "349",
        "addr:postcode": "46400-000",
        "addr:street": "Praça da Catedral",
        "addr:suburb": "Centro",
        "email": "hotelsquare.caetite@gmail.com",
        "fax": "+55 77 3454 2266",
        "internet_access": "yes",
        "internet_access:fee": "no",
        "name": "Hotel Square",
        "payment:credit_cards": "no",
        "phone": "+55 77 3454 2266",
        "rooms": "19",
        "smoking": "no",
        "tourism": "hotel",
        "website": "www.hotelsquarecaetite.com.br",
        "wheelchair": "no",
        "id": "node/3772558107"
      },
      "geometry": {
        "type": "Point",
        "coordinates": [
          -42.4859466,
          -14.0688133
        ]
      }
    },
    {
      "type": "Feature",
      "id": "node/3775967370",
      "properties": {
        "timestamp": "2017-09-11T13:17:05Z",
        "version": 3,
        "changeset": 51941183,
        "addr:city": "Caetité",
        "addr:housenumber": "235",
        "addr:postcode": "46400-000",
        "addr:street": "Rua José Joaquim Oliveira",
        "addr:suburb": "Chacara",
        "email": "hotelportodosol.ba@gmail.com",
        "internet_access": "yes",
        "name": "Hotel Porto do Sol",
        "phone": "+55 77 3454 3000",
        "rooms": "30",
        "smoking": "no",
        "stars": "3",
        "tourism": "hotel",
        "website": "www.portodosolhotel.com.br",
        "id": "node/3775967370"
      },
      "geometry": {
        "type": "Point",
        "coordinates": [
          -42.4914302,
          -14.0628812
        ]
      }
    },
    {
      "type": "Feature",
      "id": "node/3825514302",
      "properties": {
        "timestamp": "2015-11-08T22:49:03Z",
        "version": 1,
        "changeset": 35180694,
        "addr:city": "Caetité",
        "addr:housenumber": "216",
        "addr:postcode": "46400-000",
        "addr:street": "Avenida Waldick Soriano",
        "addr:suburb": "Centro",
        "name": "Hotel Pousada Caetité",
        "tourism": "hotel",
        "id": "node/3825514302"
      },
      "geometry": {
        "type": "Point",
        "coordinates": [
          -42.4854001,
          -14.0649177
        ]
      }
    },
    {
      "type": "Feature",
      "id": "node/3825514306",
      "properties": {
        "timestamp": "2023-05-29T17:10:17Z",
        "version": 3,
        "changeset": 136709956,
        "addr:city": "Caetité",
        "addr:housenumber": "264",
        "addr:street": "Rua 2 de Julho",
        "addr:suburb": "Centro",
        "name": "Hotel Nossa Senhora Aparecida",
        "tourism": "hotel",
        "wheelchair": "limited",
        "id": "node/3825514306"
      },
      "geometry": {
        "type": "Point",
        "coordinates": [
          -42.4850077,
          -14.0656325
        ]
      }
    },
    {
      "type": "Feature",
      "id": "node/3832060099",
      "properties": {
        "timestamp": "2015-11-12T03:23:38Z",
        "version": 1,
        "changeset": 35253442,
        "addr:city": "Caetité",
        "addr:postcode": "46400-000",
        "addr:street": "Avenida Waldick Soriano",
        "addr:suburb": "Ovídio Teixeira",
        "name": "Hotel Opção",
        "tourism": "hotel",
        "id": "node/3832060099"
      },
      "geometry": {
        "type": "Point",
        "coordinates": [
          -42.482878,
          -14.0656058
        ]
      }
    },
    {
      "type": "Feature",
      "id": "node/4382464327",
      "properties": {
        "timestamp": "2020-12-03T13:53:43Z",
        "version": 2,
        "changeset": 95230808,
        "addr:city": "Caetité",
        "addr:housenumber": "204",
        "addr:postcode": "46400-000",
        "addr:street": "Rua 12 de Outubro",
        "name": "Hotel Le Parc",
        "tourism": "hotel",
        "wheelchair": "yes",
        "id": "node/4382464327"
      },
      "geometry": {
        "type": "Point",
        "coordinates": [
          -42.4795882,
          -14.068275
        ]
      }
    },
    {
      "type": "Feature",
      "id": "node/9711709801",
      "properties": {
        "timestamp": "2022-06-26T16:11:57Z",
        "version": 2,
        "changeset": 122873320,
        "name": "Hotel Opção",
        "tourism": "hotel",
        "id": "node/9711709801"
      },
      "geometry": {
        "type": "Point",
        "coordinates": [
          -42.452991,
          -14.0823519
        ]
      }
    },
    {
      "type": "Feature",
      "id": "node/9830583061",
      "properties": {
        "timestamp": "2022-06-19T09:32:55Z",
        "version": 1,
        "changeset": 122572326,
        "name": "Hotel Salvaterre",
        "tourism": "hotel",
        "id": "node/9830583061"
      },
      "geometry": {
        "type": "Point",
        "coordinates": [
          -42.521272,
          -14.062931
        ]
      }
    },
    {
      "type": "Feature",
      "id": "node/11196633750",
      "properties": {
        "timestamp": "2023-09-16T21:35:41Z",
        "version": 1,
        "changeset": 141359631,
        "addr:city": "Caetité",
        "addr:housenumber": "114",
        "addr:postcode": "46400-000",
        "addr:street": "Rua Osvaldo de Melo",
        "addr:suburb": "Ovídio Teixeira",
        "contact:instagram": "https://www.instagram.com/hoteldalu1/",
        "contact:mobile": "+55 77 9 9908 9204",
        "contact:whatsapp": "https://api.whatsapp.com/send/?phone=5577999089204&text&type=phone_number&app_absent=0",
        "name": "Hotel Dalu",
        "tourism": "hotel",
        "id": "node/11196633750"
      },
      "geometry": {
        "type": "Point",
        "coordinates": [
          -42.4797969,
          -14.0667108
        ]
      }
    }
  ]
}
