{
  "type": "FeatureCollection",
  "features": [
    {
      "type": "Feature",
      "id": "node/3559637795",
      "properties": {
        "timestamp": "2016-02-28T20:03:12Z",
        "version": 2,
        "changeset": 37507267,
        "amenity": "library",
        "name": "Biblioteca Pública Anísio Teixeira",
        "id": "node/3559637795"
      },
      "geometry": {
        "type": "Point",
        "coordinates": [
          -42.4846854,
          -14.0689041
        ]
      }
    },
    {
      "type": "Feature",
      "id": "node/3884267213",
      "properties": {
        "timestamp": "2020-11-26T21:51:24Z",
        "version": 3,
        "changeset": 94860768,
        "amenity": "library",
        "check_date:opening_hours": "2020-11-24",
        "name": "Biblioteca Prof. Maria Belma Gumes Fernandes",
        "opening_hours": "Mo-Fr 07:30-22:00; Sa 08:00-12:00",
        "operator": "Departamento de Ciências Humanas - DCH VI",
        "wheelchair": "limited",
        "id": "node/3884267213"
      },
      "geometry": {
        "type": "Point",
        "coordinates": [
          -42.494315,
          -14.0688129
        ]
      }
    },
    {
      "type": "Feature",
      "id": "node/4429539854",
      "properties": {
        "timestamp": "2016-10-03T20:31:04Z",
        "version": 1,
        "changeset": 42614858,
        "addr:city": "Caetité",
        "addr:postcode": "46400-000",
        "addr:street": "Rua Almerinda de Brito",
        "addr:suburb": "Alto Buenos Aires",
        "amenity": "library",
        "name": "Biblioteca Municipal Cezar Zama",
        "id": "node/4429539854"
      },
      "geometry": {
        "type": "Point",
        "coordinates": [
          -42.4852197,
          -14.059471
        ]
      }
    }
  ]
}
