{
  "type": "FeatureCollection",
  "features": [
    {
      "type": "Feature",
      "id": "node/3548024445",
      "properties": {
        "timestamp": "2024-06-13T14:18:06Z",
        "version": 5,
        "changeset": 152636309,
        "addr:city": "Caetité",
        "addr:housenumber": "521",
        "addr:postcode": "46400-000",
        "addr:street": "Avenida Santana",
        "addr:suburb": "Centro",
        "amenity": "pharmacy",
        "check_date": "2024-06-13",
        "name": "Farmácia União",
        "id": "node/3548024445"
      },
      "geometry": {
        "type": "Point",
        "coordinates": [
          -42.4907144,
          -14.0689627
        ]
      }
    },
    {
      "type": "Feature",
      "id": "node/3584546829",
      "properties": {
        "timestamp": "2016-02-28T20:03:12Z",
        "version": 3,
        "changeset": 37507267,
        "addr:city": "Caetité",
        "addr:postcode": "46400-000",
        "addr:street": "Avenida Santana",
        "addr:suburb": "Centro",
        "amenity": "pharmacy",
        "name": "Farmácia Caetité",
        "id": "node/3584546829"
      },
      "geometry": {
        "type": "Point",
        "coordinates": [
          -42.4884744,
          -14.0690281
        ]
      }
    },
    {
      "type": "Feature",
      "id": "node/3584546850",
      "properties": {
        "timestamp": "2016-02-17T15:16:49Z",
        "version": 3,
        "changeset": 37269251,
        "addr:city": "Caetité",
        "addr:housenumber": "488",
        "addr:postcode": "46400-000",
        "addr:street": "Rua Rui Barbosa",
        "addr:suburb": "Centro",
        "amenity": "pharmacy",
        "name": "Farmácia Teixeira",
        "id": "node/3584546850"
      },
      "geometry": {
        "type": "Point",
        "coordinates": [
          -42.4903557,
          -14.0675362
        ]
      }
    },
    {
      "type": "Feature",
      "id": "node/3643202857",
      "properties": {
        "timestamp": "2017-03-13T23:31:10Z",
        "version": 2,
        "changeset": 46826638,
        "addr:city": "Caetité",
        "addr:housenumber": "614",
        "addr:postcode": "46400-000",
        "addr:street": "Avenida Santana",
        "addr:suburb": "Centro",
        "amenity": "pharmacy",
        "name": "Farmácia Sertaneja",
        "id": "node/3643202857"
      },
      "geometry": {
        "type": "Point",
        "coordinates": [
          -42.4914438,
          -14.0688174
        ]
      }
    },
    {
      "type": "Feature",
      "id": "node/3646817800",
      "properties": {
        "timestamp": "2024-10-29T10:01:20Z",
        "version": 6,
        "changeset": 158490103,
        "addr:city": "Caetité",
        "addr:housenumber": "12",
        "addr:postcode": "46400-000",
        "addr:street": "Avenida Woquiton Fernandes Teixeira",
        "addr:suburb": "Centro",
        "amenity": "pharmacy",
        "check_date": "2023-01-10",
        "contact:mobile": "+55 77 99993-1177",
        "healthcare": "pharmacy",
        "level": "0",
        "name": "Farmácia Sana",
        "opening_hours": "Mo-Fr 07:00-19:00; Sa 07:00-14:00; Su closed; PH closed",
        "phone": "+55 77 3454-3957",
        "id": "node/3646817800"
      },
      "geometry": {
        "type": "Point",
        "coordinates": [
          -42.49021,
          -14.0669622
        ]
      }
    },
    {
      "type": "Feature",
      "id": "node/3652055804",
      "properties": {
        "timestamp": "2015-11-08T22:49:06Z",
        "version": 2,
        "changeset": 35180694,
        "addr:city": "Caetité",
        "addr:postcode": "46400-000",
        "addr:street": "Avenida Prefeito Olimar Oliveira Rodrigues",
        "addr:suburb": "Ovídio Teixeira",
        "amenity": "pharmacy",
        "name": "Farmácia Sertaneja",
        "id": "node/3652055804"
      },
      "geometry": {
        "type": "Point",
        "coordinates": [
          -42.4838602,
          -14.0598096
        ]
      }
    },
    {
      "type": "Feature",
      "id": "node/3674267128",
      "properties": {
        "timestamp": "2023-08-10T20:27:46Z",
        "version": 5,
        "changeset": 139723075,
        "addr:city": "Caetité",
        "addr:housenumber": "305",
        "addr:postcode": "46400-000",
        "addr:street": "Avenida Prefeito Dácio Oliveira",
        "addr:suburb": "Centro",
        "amenity": "pharmacy",
        "brand": "Drograrias Ultra Popular",
        "contact:instagram": "https://www.instagram.com/ultrapopularcaetite/",
        "contact:website": "https://www.drogariasultrapopular.com.br/",
        "dispensing": "yes",
        "healthcare": "pharmacy",
        "name": "Drogarias Ultra Popular",
        "opening_hours": "Mo-Fr 07:00-22:00; Sa 07:00-21:00; Su 07:00-20:00",
        "id": "node/3674267128"
      },
      "geometry": {
        "type": "Point",
        "coordinates": [
          -42.4885497,
          -14.0649782
        ]
      }
    },
    {
      "type": "Feature",
      "id": "node/3674267130",
      "properties": {
        "timestamp": "2022-09-07T20:20:48Z",
        "version": 4,
        "changeset": 125916934,
        "addr:city": "Caetité",
        "addr:housenumber": "135",
        "addr:postcode": "46400-000",
        "addr:street": "Avenida Prefeito Dácio Oliveira",
        "addr:suburb": "Centro",
        "amenity": "pharmacy",
        "healthcare": "pharmacy",
        "name": "Farmácia Ultra Econômica",
        "phone": "+55 77 3454 3652",
        "id": "node/3674267130"
      },
      "geometry": {
        "type": "Point",
        "coordinates": [
          -42.4883767,
          -14.0649794
        ]
      }
    },
    {
      "type": "Feature",
      "id": "node/3772558081",
      "properties": {
        "timestamp": "2023-07-26T21:42:09Z",
        "version": 4,
        "changeset": 139058914,
        "addr:city": "Caetité",
        "addr:housenumber": "175",
        "addr:postcode": "46400-000",
        "addr:street": "Avenida Santana",
        "addr:suburb": "Centro",
        "amenity": "pharmacy",
        "contact:website": "https://www.paguemenos.com.br/",
        "healthcare": "pharmacy",
        "name": "Farmácia Paque Menos",
        "id": "node/3772558081"
      },
      "geometry": {
        "type": "Point",
        "coordinates": [
          -42.4906431,
          -14.0687719
        ]
      }
    },
    {
      "type": "Feature",
      "id": "node/3786927875",
      "properties": {
        "timestamp": "2024-03-15T18:53:26Z",
        "version": 4,
        "changeset": 148703402,
        "addr:city": "Caetité",
        "addr:postcode": "46400-000",
        "addr:street": "Praça da Catedral",
        "addr:suburb": "Centro",
        "amenity": "pharmacy",
        "healthcare": "pharmacy",
        "name": "Grambel Drogarias",
        "id": "node/3786927875"
      },
      "geometry": {
        "type": "Point",
        "coordinates": [
          -42.4855671,
          -14.0694935
        ]
      }
    },
    {
      "type": "Feature",
      "id": "node/3786969488",
      "properties": {
        "timestamp": "2022-09-17T17:10:59Z",
        "version": 2,
        "changeset": 126306955,
        "addr:city": "Caetité",
        "addr:housenumber": "328",
        "addr:postcode": "46400-000",
        "addr:street": "Avenida Santana",
        "addr:suburb": "Centro",
        "amenity": "pharmacy",
        "healthcare": "pharmacy",
        "name": "Farmácia de produtos naturais",
        "id": "node/3786969488"
      },
      "geometry": {
        "type": "Point",
        "coordinates": [
          -42.4889865,
          -14.0688991
        ]
      }
    },
    {
      "type": "Feature",
      "id": "node/3810577136",
      "properties": {
        "timestamp": "2022-11-20T21:40:11Z",
        "version": 2,
        "changeset": 129170990,
        "addr:city": "Caetité",
        "addr:housenumber": "433",
        "addr:postcode": "46400-000",
        "addr:street": "Rua Rui Barbosa",
        "addr:suburb": "Centro",
        "amenity": "pharmacy",
        "healthcare": "pharmacy",
        "name": "Farmacia e perfumaria toda Hora",
        "id": "node/3810577136"
      },
      "geometry": {
        "type": "Point",
        "coordinates": [
          -42.4898442,
          -14.0678376
        ]
      }
    },
    {
      "type": "Feature",
      "id": "node/3825514264",
      "properties": {
        "timestamp": "2016-09-03T17:48:29Z",
        "version": 2,
        "changeset": 41893519,
        "addr:city": "Caetité",
        "addr:housenumber": "130",
        "addr:postcode": "46400-000",
        "addr:street": "Avenida Prefeito Olimar Oliveira Rodrigues",
        "addr:suburb": "Alto Buenos Aires",
        "amenity": "pharmacy",
        "name": "Farmácias Zuza",
        "id": "node/3825514264"
      },
      "geometry": {
        "type": "Point",
        "coordinates": [
          -42.4840238,
          -14.0611288
        ]
      }
    },
    {
      "type": "Feature",
      "id": "node/3872281978",
      "properties": {
        "timestamp": "2018-04-26T13:41:51Z",
        "version": 2,
        "changeset": 58444425,
        "addr:city": "Caetité",
        "addr:housenumber": "360",
        "addr:postcode": "46400-000",
        "addr:street": "Avenida Luis Bento",
        "addr:suburb": "Ovídio Teixeira",
        "amenity": "pharmacy",
        "name": "Farmácia do Povo",
        "phone": "+55 77 3454 3511",
        "id": "node/3872281978"
      },
      "geometry": {
        "type": "Point",
        "coordinates": [
          -42.4804889,
          -14.0573466
        ]
      }
    },
    {
      "type": "Feature",
      "id": "node/3872282028",
      "properties": {
        "timestamp": "2020-07-23T12:39:48Z",
        "version": 5,
        "changeset": 88404575,
        "addr:city": "Caetité",
        "addr:housenumber": "155",
        "addr:postcode": "46400-000",
        "addr:street": "Avenida Luis Bento",
        "addr:suburb": "Ovídio Teixiera",
        "amenity": "pharmacy",
        "contact:phone": "+55 77 9 9900 5172",
        "healthcare": "pharmacy",
        "name": "Farmácia Frota Farma",
        "operator": "negocios",
        "survey:date": "2015-12-01",
        "id": "node/3872282028"
      },
      "geometry": {
        "type": "Point",
        "coordinates": [
          -42.4822946,
          -14.058072
        ]
      }
    },
    {
      "type": "Feature",
      "id": "node/3872282029",
      "properties": {
        "timestamp": "2024-07-01T09:22:35Z",
        "version": 3,
        "changeset": 153402427,
        "addr:city": "Caetité",
        "addr:housenumber": "305",
        "addr:postcode": "46400-000",
        "addr:street": "Avenida Luis Bento",
        "addr:suburb": "Ovídio Teixeira",
        "amenity": "pharmacy",
        "name": "Drogaria NetPharma",
        "survey:date": "2015-12-01",
        "id": "node/3872282029"
      },
      "geometry": {
        "type": "Point",
        "coordinates": [
          -42.4809901,
          -14.0574646
        ]
      }
    },
    {
      "type": "Feature",
      "id": "node/3872282037",
      "properties": {
        "timestamp": "2018-04-26T13:41:53Z",
        "version": 2,
        "changeset": 58444425,
        "addr:city": "Caetité",
        "addr:postcode": "46400-000",
        "addr:street": "Avenida Luis Bento",
        "addr:suburb": "Ovídio Teixeira",
        "amenity": "pharmacy",
        "name": "Drograria Netepharma",
        "phone": "+55 77 3454 4508",
        "id": "node/3872282037"
      },
      "geometry": {
        "type": "Point",
        "coordinates": [
          -42.4806052,
          -14.0574116
        ]
      }
    },
    {
      "type": "Feature",
      "id": "node/4031794817",
      "properties": {
        "timestamp": "2022-02-21T21:49:52Z",
        "version": 2,
        "changeset": 117702101,
        "addr:city": "Caetité",
        "addr:postcode": "46400-000",
        "addr:street": "Avenida Santana",
        "addr:suburb": "Centro",
        "amenity": "pharmacy",
        "name": "Farmácia e Perfumaria Nívia",
        "survey:date": "2016-02-26",
        "id": "node/4031794817"
      },
      "geometry": {
        "type": "Point",
        "coordinates": [
          -42.4901254,
          -14.0689619
        ]
      }
    },
    {
      "type": "Feature",
      "id": "node/4594330499",
      "properties": {
        "timestamp": "2020-02-09T22:28:22Z",
        "version": 2,
        "changeset": 80766251,
        "addr:street": "Praça do Mercado",
        "amenity": "pharmacy",
        "name": "Farmácia Gomes",
        "phone": "+55 77 3454 3537",
        "id": "node/4594330499"
      },
      "geometry": {
        "type": "Point",
        "coordinates": [
          -42.4908719,
          -14.0667338
        ]
      }
    },
    {
      "type": "Feature",
      "id": "node/4594330569",
      "properties": {
        "timestamp": "2024-10-29T10:01:20Z",
        "version": 5,
        "changeset": 158490103,
        "addr:city": "Caetité",
        "addr:postcode": "46400-000",
        "addr:street": "Avenida Woquiton Fernandes Teixeira",
        "addr:suburb": "Centro",
        "amenity": "pharmacy",
        "name": "Hiper Popular Drograrias",
        "id": "node/4594330569"
      },
      "geometry": {
        "type": "Point",
        "coordinates": [
          -42.4898013,
          -14.0655278
        ]
      }
    },
    {
      "type": "Feature",
      "id": "node/6414421438",
      "properties": {
        "timestamp": "2022-09-17T17:10:59Z",
        "version": 2,
        "changeset": 126306955,
        "addr:city": "Caetité",
        "addr:postcode": "46400-000",
        "addr:street": "Rua Rui Barbosa",
        "addr:suburb": "Centro",
        "amenity": "pharmacy",
        "healthcare": "pharmacy",
        "name": "Farmácia Básica",
        "operator": "Secretaria Municipal de Saúde",
        "wheelchair": "yes",
        "id": "node/6414421438"
      },
      "geometry": {
        "type": "Point",
        "coordinates": [
          -42.488806,
          -14.068222
        ]
      }
    },
    {
      "type": "Feature",
      "id": "node/7721026209",
      "properties": {
        "timestamp": "2020-07-16T12:33:09Z",
        "version": 1,
        "changeset": 88089057,
        "amenity": "pharmacy",
        "dispensing": "yes",
        "healthcare": "pharmacy",
        "name": "Farmácia FrotaFarma",
        "id": "node/7721026209"
      },
      "geometry": {
        "type": "Point",
        "coordinates": [
          -42.3894364,
          -13.8411505
        ]
      }
    },
    {
      "type": "Feature",
      "id": "node/7761505546",
      "properties": {
        "timestamp": "2024-10-29T10:01:20Z",
        "version": 4,
        "changeset": 158490103,
        "addr:city": "Caetité",
        "addr:housenumber": "32",
        "addr:street": "Avenida Woquiton Fernandes Teixeira",
        "addr:suburb": "Centro",
        "amenity": "pharmacy",
        "check_date": "2023-01-10",
        "healthcare": "pharmacy",
        "level": "0",
        "name": "Farmácia Inova",
        "id": "node/7761505546"
      },
      "geometry": {
        "type": "Point",
        "coordinates": [
          -42.4901716,
          -14.066824
        ]
      }
    },
    {
      "type": "Feature",
      "id": "node/9015112511",
      "properties": {
        "timestamp": "2024-10-29T10:01:20Z",
        "version": 3,
        "changeset": 158490103,
        "addr:city": "Caetité",
        "addr:housenumber": "20",
        "addr:postcode": "46400-000",
        "addr:street": "Avenida Woquiton Fernandes Teixeira",
        "addr:suburb": "Centro",
        "amenity": "pharmacy",
        "dispensing": "yes",
        "healthcare": "pharmacy",
        "name": "Farmácia Zuza",
        "phone": "+55 77 3454-2961",
        "id": "node/9015112511"
      },
      "geometry": {
        "type": "Point",
        "coordinates": [
          -42.4900988,
          -14.0666329
        ]
      }
    },
    {
      "type": "Feature",
      "id": "node/9015324884",
      "properties": {
        "timestamp": "2021-08-17T20:26:44Z",
        "version": 1,
        "changeset": 109832712,
        "addr:city": "Caetité",
        "addr:housenumber": "182",
        "addr:postcode": "46400-000",
        "addr:street": "Rua Novo Horizonte",
        "amenity": "pharmacy",
        "dispensing": "yes",
        "healthcare": "pharmacy",
        "name": "Farmácia Preço Justo",
        "id": "node/9015324884"
      },
      "geometry": {
        "type": "Point",
        "coordinates": [
          -42.4929101,
          -14.0660284
        ]
      }
    },
    {
      "type": "Feature",
      "id": "node/9383263009",
      "properties": {
        "timestamp": "2022-01-02T09:07:21Z",
        "version": 2,
        "changeset": 115661105,
        "addr:city": "Caetité",
        "addr:housenumber": "155",
        "addr:postcode": "46400000",
        "addr:street": "Rua Rui Barbosa",
        "addr:suburb": "Centro",
        "amenity": "pharmacy",
        "contact:instagram": "https://instagram.com/pharmaciavivamais?utm_medium=copy_link",
        "mobile": "+55 77 991611189",
        "name": "Pharmacia Viva Mais Saúde",
        "operator": "José Littor Oliveira",
        "id": "node/9383263009"
      },
      "geometry": {
        "type": "Point",
        "coordinates": [
          -42.4874204,
          -14.0683688
        ]
      }
    },
    {
      "type": "Feature",
      "id": "node/9509049060",
      "properties": {
        "timestamp": "2023-09-17T14:11:01Z",
        "version": 3,
        "changeset": 141383698,
        "addr:city": "Caetité",
        "addr:housenumber": "14",
        "addr:postcode": "46400-000",
        "addr:street": "Rua Reverendo Jaime Wright",
        "addr:suburb": "Centro",
        "alt_name": "Farmácia de Manipulação Artmagistral",
        "amenity": "pharmacy",
        "contact:phone": "+55 77 3454-1560;+55 77 99820-2501",
        "dispensing": "yes",
        "drive_through": "no",
        "healthcare": "pharmacy",
        "name": "ArtMagistral",
        "phone": "+55 77 3454-2786",
        "id": "node/9509049060"
      },
      "geometry": {
        "type": "Point",
        "coordinates": [
          -42.4898446,
          -14.0666297
        ]
      }
    },
    {
      "type": "Feature",
      "id": "node/10690441183",
      "properties": {
        "timestamp": "2024-10-29T10:01:20Z",
        "version": 3,
        "changeset": 158490103,
        "addr:housenumber": "161",
        "addr:street": "Avenida Woquiton Fernandes Teixeira",
        "amenity": "pharmacy",
        "contact:instagram": "precobaixo_caetite",
        "contact:mobile": "+55 77 99846-7087",
        "contact:website": "https://linktr.ee/precobaixo_caetite",
        "contact:whatsapp": "557798467087",
        "name": "Preço Baixo Farmácias",
        "id": "node/10690441183"
      },
      "geometry": {
        "type": "Point",
        "coordinates": [
          -42.4906364,
          -14.068555
        ]
      }
    }
  ]
}
