{
  "type": "FeatureCollection",
  "features": [
    {
      "type": "Feature",
      "id": "node/3786927898",
      "properties": {
        "timestamp": "2024-05-15T19:30:18Z",
        "version": 6,
        "changeset": 151378278,
        "addr:city": "Caetité",
        "addr:housenumber": "24",
        "addr:postcode": "46400-000",
        "addr:street": "Rua Professor Antônio Meireles",
        "addr:suburb": "Centro",
        "amenity": "social_facility",
        "contact:email": "crasrural@caetite.ba.gov.br",
        "contact:facebook": "https://www.facebook.com/cras.rural.9",
        "contact:instagram": "https://www.instagram.com/cras.ruralcaetite/",
        "loc_name": "CRAS Casa das Famílias",
        "name": "CRAS Rural",
        "official_name": "Centro de Referência de Assistência Social Rural de Caetité",
        "short_name": "CRAS Rural de Caetité",
        "social_facility": "outreach",
        "social_facility:for": "underprivileged",
        "id": "node/3786927898"
      },
      "geometry": {
        "type": "Point",
        "coordinates": [
          -42.4836948,
          -14.0690447
        ]
      }
    },
    {
      "type": "Feature",
      "id": "node/8544472678",
      "properties": {
        "timestamp": "2023-01-26T18:48:52Z",
        "version": 2,
        "changeset": 131743966,
        "addr:housenumber": "52",
        "addr:street": "Praça Rodrigues Lima",
        "alt_name": "Centro de Referência Especializado de Assistência Social Santo Antônio",
        "amenity": "social_facility",
        "name": "CREAS Santo Antônio",
        "social_facility": "outreach",
        "social_facility:for": "underprivileged;abused;victim",
        "id": "node/8544472678"
      },
      "geometry": {
        "type": "Point",
        "coordinates": [
          -42.4843493,
          -14.0711794
        ]
      }
    },
    {
      "type": "Feature",
      "id": "node/9441166426",
      "properties": {
        "timestamp": "2022-01-23T02:10:29Z",
        "version": 1,
        "changeset": 116486031,
        "addr:city": "Caetité",
        "addr:postcode": "46400-000",
        "addr:street": "Travessa Casimiro de Abreu",
        "addr:suburb": "Ovídio Teixeira",
        "amenity": "social_facility",
        "contact:instagram": "https://www.instagram.com/ong.casarao/",
        "name": "Casarão",
        "social_facility": "outreach",
        "id": "node/9441166426"
      },
      "geometry": {
        "type": "Point",
        "coordinates": [
          -42.4812381,
          -14.0654017
        ]
      }
    },
    {
      "type": "Feature",
      "id": "node/10236467338",
      "properties": {
        "timestamp": "2022-12-04T00:09:22Z",
        "version": 1,
        "changeset": 129692075,
        "addr:city": "Caetité",
        "addr:housenumber": "87",
        "addr:postcode": "46400-000",
        "addr:street": "Rua Dom José Terceiro",
        "addr:suburb": "Centro",
        "amenity": "social_facility",
        "name": "Instituto Dom Alberto Resende",
        "id": "node/10236467338"
      },
      "geometry": {
        "type": "Point",
        "coordinates": [
          -42.488592,
          -14.0706707
        ]
      }
    },
    {
      "type": "Feature",
      "id": "node/11734746059",
      "properties": {
        "timestamp": "2024-03-15T17:35:15Z",
        "version": 1,
        "changeset": 148700382,
        "addr:city": "Caetité",
        "addr:postcode": "46400-000",
        "addr:street": "Avenida Dom Manoel Raimundo de Melo",
        "addr:suburb": "Centro",
        "amenity": "social_facility",
        "name": "APAE - Associação de Pais e Amigos dos Excepcionais de Caetité",
        "id": "node/11734746059"
      },
      "geometry": {
        "type": "Point",
        "coordinates": [
          -42.4928033,
          -14.0723428
        ]
      }
    },
    {
      "type": "Feature",
      "id": "node/11907851378",
      "properties": {
        "timestamp": "2024-05-15T19:30:18Z",
        "version": 1,
        "changeset": 151378278,
        "addr:city": "Caetité",
        "addr:housenumber": "145",
        "addr:postcode": "46400-000",
        "addr:street": "Avenida Nilo Peçanha",
        "addr:suburb": "Alto Buenos Aires",
        "amenity": "social_facility",
        "contact:email": "crasurbano@caetite.ba.gov.br",
        "contact:facebook": "https://www.facebook.com/crasurbano.caetite/",
        "contact:instagram": "https://www.instagram.com/crasurbano.caetite/",
        "loc_name": "CRAS Urbano I",
        "name": "CRAS Urbano",
        "official_name": "Centro de Referência de Assistência Social Urbano de Caetité",
        "short_name": "CRAS Urbano I",
        "social_facility": "outreach",
        "social_facility:for": "underprivileged",
        "id": "node/11907851378"
      },
      "geometry": {
        "type": "Point",
        "coordinates": [
          -42.4866068,
          -14.0570337
        ]
      }
    },
    {
      "type": "Feature",
      "id": "node/11907851379",
      "properties": {
        "timestamp": "2024-05-15T19:30:18Z",
        "version": 1,
        "changeset": 151378278,
        "addr:city": "Caetité",
        "addr:housenumber": "80",
        "addr:postcode": "46400-000",
        "addr:street": "Avenida Divino Espirito Santo",
        "addr:suburb": "Alto do Cristo",
        "amenity": "social_facility",
        "loc_name": "CRAS Urbano II",
        "name": "CRAS Urbano II",
        "official_name": "Centro de Referência de Assistência Social Urbano de Caetité",
        "short_name": "CRAS Urbano II",
        "social_facility": "outreach",
        "social_facility:for": "underprivileged",
        "id": "node/11907851379"
      },
      "geometry": {
        "type": "Point",
        "coordinates": [
          -42.4905416,
          -14.0748421
        ]
      }
    }
  ]
}
