{
  "type": "FeatureCollection",
  "features": [
    {
      "type": "Feature",
      "id": "way/716828726",
      "properties": {
        "timestamp": "2019-08-31T15:07:53Z",
        "version": 2,
        "changeset": 73951594,
        "amenity": "college",
        "campus": "Caxias",
        "name": "Instituto Federal de Educação, Ciência e Tecnologia do Maranhão",
        "operator": "#IFES",
        "website": "https://caxias.ifma.edu.br/",
        "id": "way/716828726"
      },
      "geometry": {
        "type": "Polygon",
        "coordinates": [
          [
            [
              -43.3442999,
              -4.818668
            ],
            [
              -43.3440247,
              -4.8205624
            ],
            [
              -43.3438508,
              -4.8217596
            ],
            [
              -43.3433895,
              -4.8232053
            ],
            [
              -43.3413167,
              -4.8227922
            ],
            [
              -43.3416323,
              -4.8216043
            ],
            [
              -43.3423265,
              -4.8198714
            ],
            [
              -43.3429997,
              -4.8184459
            ],
            [
              -43.3442999,
              -4.818668
            ]
          ]
        ]
      }
    },
    {
      "type": "Feature",
      "id": "node/8434410310",
      "properties": {
        "timestamp": "2021-02-18T10:09:52Z",
        "version": 1,
        "changeset": 99513089,
        "addr:city": "Caxias",
        "addr:postcode": "65605-305",
        "addr:street": "Rua Gonçalves Dias",
        "amenity": "college",
        "name": "Senai- Centro de Educação Profissional e Tecnologica de Caxias",
        "phone": "+55 99 3521 4198",
        "id": "node/8434410310"
      },
      "geometry": {
        "type": "Point",
        "coordinates": [
          -43.3457918,
          -4.8726597
        ]
      }
    },
    {
      "type": "Feature",
      "id": "node/8435789489",
      "properties": {
        "timestamp": "2021-02-18T19:39:32Z",
        "version": 1,
        "changeset": 99545518,
        "addr:city": "Caxias",
        "addr:housenumber": "637",
        "addr:postcode": "65607-110",
        "addr:street": "Travessa São Benito",
        "addr:suburb": "Centro",
        "amenity": "college",
        "name": "Centro de Educação Profissional Nossa Senhora das Graças",
        "phone": "+55 99 3521 4153",
        "id": "node/8435789489"
      },
      "geometry": {
        "type": "Point",
        "coordinates": [
          -43.3613081,
          -4.8585982
        ]
      }
    }
  ]
}
