{
  "type": "FeatureCollection",
  "features": [
    {
      "type": "Feature",
      "id": "way/386175778",
      "properties": {
        "timestamp": "2022-12-21T10:43:52Z",
        "version": 2,
        "changeset": 130326092,
        "addr:city": "Caxias",
        "addr:postcode": "65608-240",
        "addr:street": "Rua da Sulina",
        "addr:suburb": "Tamarineiro",
        "amenity": "school",
        "barrier": "wall",
        "name": "UIM Jose Belmiro De Paiva",
        "id": "way/386175778"
      },
      "geometry": {
        "type": "Polygon",
        "coordinates": [
          [
            [
              -43.3786551,
              -4.8607477
            ],
            [
              -43.3784303,
              -4.8612259
            ],
            [
              -43.3783725,
              -4.8610818
            ],
            [
              -43.3782239,
              -4.8606521
            ],
            [
              -43.3784172,
              -4.860656
            ],
            [
              -43.3786551,
              -4.8607477
            ]
          ]
        ]
      }
    },
    {
      "type": "Feature",
      "id": "way/386175779",
      "properties": {
        "timestamp": "2022-12-23T03:17:10Z",
        "version": 2,
        "changeset": 130399253,
        "addr:city": "Caxias",
        "addr:postcode": "65603-610",
        "addr:street": "MA-349",
        "amenity": "school",
        "barrier": "wall",
        "name": "UEM Engenheiro Jadihel Carvalho",
        "phone": "+55 99 3421 0853",
        "id": "way/386175779"
      },
      "geometry": {
        "type": "Polygon",
        "coordinates": [
          [
            [
              -43.3436195,
              -4.8335504
            ],
            [
              -43.3433434,
              -4.8336801
            ],
            [
              -43.3430792,
              -4.8338058
            ],
            [
              -43.3429398,
              -4.8338648
            ],
            [
              -43.3427492,
              -4.8334809
            ],
            [
              -43.3434486,
              -4.8331757
            ],
            [
              -43.3436195,
              -4.8335504
            ]
          ]
        ]
      }
    },
    {
      "type": "Feature",
      "id": "way/386175782",
      "properties": {
        "timestamp": "2021-02-18T19:45:07Z",
        "version": 2,
        "changeset": 99545725,
        "addr:city": "Caxias",
        "addr:housenumber": "697",
        "addr:postcode": "65608-230",
        "addr:street": "Rua dos Tamarineiros",
        "addr:suburb": "Tamarineiro",
        "amenity": "school",
        "building": "school",
        "name": "UEM Marcelo Thadeu",
        "phone": "+55 99 3521 5914",
        "id": "way/386175782"
      },
      "geometry": {
        "type": "Polygon",
        "coordinates": [
          [
            [
              -43.3768381,
              -4.8625388
            ],
            [
              -43.3768223,
              -4.8626056
            ],
            [
              -43.3766895,
              -4.8626528
            ],
            [
              -43.3766014,
              -4.8626371
            ],
            [
              -43.3765896,
              -4.8627026
            ],
            [
              -43.3764608,
              -4.8626908
            ],
            [
              -43.3764857,
              -4.8624891
            ],
            [
              -43.3768381,
              -4.8625388
            ]
          ]
        ]
      }
    },
    {
      "type": "Feature",
      "id": "way/414251114",
      "properties": {
        "timestamp": "2021-02-18T16:29:24Z",
        "version": 4,
        "changeset": 99537116,
        "addr:city": "Caxias",
        "addr:housenumber": "1327",
        "addr:postcode": "65604-210",
        "addr:street": "Rua Costa e Silva",
        "addr:suburb": "Castelo Branco",
        "amenity": "school",
        "name": "Colegio Municipal Antonio Rodrigues Bayma",
        "id": "way/414251114"
      },
      "geometry": {
        "type": "Polygon",
        "coordinates": [
          [
            [
              -43.3477271,
              -4.8649963
            ],
            [
              -43.3485416,
              -4.864985
            ],
            [
              -43.3485602,
              -4.8654307
            ],
            [
              -43.3477626,
              -4.8654782
            ],
            [
              -43.3477271,
              -4.8649963
            ]
          ]
        ]
      }
    },
    {
      "type": "Feature",
      "id": "way/414251115",
      "properties": {
        "timestamp": "2021-02-18T18:22:31Z",
        "version": 2,
        "changeset": 99542491,
        "addr:city": "Caxias",
        "addr:postcode": "65604-090",
        "addr:street": "Rua General Sampaio",
        "addr:suburb": "Morro do Alecrim",
        "amenity": "school",
        "name": "Escola Inacio Passarinho",
        "id": "way/414251115"
      },
      "geometry": {
        "type": "Polygon",
        "coordinates": [
          [
            [
              -43.3545257,
              -4.866464
            ],
            [
              -43.3548851,
              -4.867957
            ],
            [
              -43.3542727,
              -4.8675998
            ],
            [
              -43.3537267,
              -4.8673924
            ],
            [
              -43.3535794,
              -4.8666451
            ],
            [
              -43.3545257,
              -4.866464
            ]
          ]
        ]
      }
    },
    {
      "type": "Feature",
      "id": "way/414253965",
      "properties": {
        "timestamp": "2023-01-30T00:41:55Z",
        "version": 4,
        "changeset": 131859363,
        "addr:city": "Caxias",
        "addr:postcode": "65604-080",
        "addr:street": "Rua Professora Ana Corrêa",
        "addr:suburb": "Centro",
        "amenity": "school",
        "name": "Unidade Integrada Duque De Caxias",
        "id": "way/414253965"
      },
      "geometry": {
        "type": "Polygon",
        "coordinates": [
          [
            [
              -43.3562194,
              -4.8609977
            ],
            [
              -43.3562093,
              -4.8612112
            ],
            [
              -43.356188,
              -4.8613576
            ],
            [
              -43.3559492,
              -4.8613332
            ],
            [
              -43.3557491,
              -4.8613083
            ],
            [
              -43.3555352,
              -4.8612817
            ],
            [
              -43.3555557,
              -4.8610036
            ],
            [
              -43.3562194,
              -4.8609977
            ]
          ]
        ]
      }
    },
    {
      "type": "Feature",
      "id": "way/682139091",
      "properties": {
        "timestamp": "2021-02-18T10:22:33Z",
        "version": 3,
        "changeset": 99514142,
        "addr:city": "Caxias",
        "addr:postcode": "65604-060",
        "addr:street": "Rua Aarão Reis",
        "addr:suburb": "Centro",
        "amenity": "school",
        "name": "Centro de Ensino  Cónego Anderson Guimarães Júnior",
        "phone": "+55 99 3521 2971",
        "id": "way/682139091"
      },
      "geometry": {
        "type": "Polygon",
        "coordinates": [
          [
            [
              -43.3519591,
              -4.8662409
            ],
            [
              -43.3522273,
              -4.866428
            ],
            [
              -43.352415,
              -4.866567
            ],
            [
              -43.3521897,
              -4.8668823
            ],
            [
              -43.3517284,
              -4.8665536
            ],
            [
              -43.3519591,
              -4.8662409
            ]
          ]
        ]
      }
    },
    {
      "type": "Feature",
      "id": "way/728930543",
      "properties": {
        "timestamp": "2021-02-18T18:59:48Z",
        "version": 3,
        "changeset": 99543936,
        "addr:city": "Caxias",
        "addr:postcode": "65604-180",
        "addr:street": "Travessa Bela Vista",
        "addr:suburb": "Castelo Branco",
        "amenity": "school",
        "name": "Unidade Integrada Municipal João Lobo",
        "phone": "+55 99 3521 6201",
        "id": "way/728930543"
      },
      "geometry": {
        "type": "Polygon",
        "coordinates": [
          [
            [
              -43.3500654,
              -4.8634851
            ],
            [
              -43.3502181,
              -4.8639401
            ],
            [
              -43.3494514,
              -4.8641732
            ],
            [
              -43.3494476,
              -4.863705
            ],
            [
              -43.3500654,
              -4.8634851
            ]
          ]
        ]
      }
    },
    {
      "type": "Feature",
      "id": "way/728930544",
      "properties": {
        "timestamp": "2021-02-18T09:44:07Z",
        "version": 2,
        "changeset": 99511125,
        "addr:city": "Caxias",
        "addr:postcode": "65600-360",
        "addr:street": "Rua Santa Cruz",
        "addr:suburb": "Castelo Branco",
        "amenity": "school",
        "name": "Unidade Escolar Municipal Ruy Frazão Soares",
        "id": "way/728930544"
      },
      "geometry": {
        "type": "Polygon",
        "coordinates": [
          [
            [
              -43.3466722,
              -4.863847
            ],
            [
              -43.3467356,
              -4.8647357
            ],
            [
              -43.3461758,
              -4.8647753
            ],
            [
              -43.3461125,
              -4.8638866
            ],
            [
              -43.3466722,
              -4.863847
            ]
          ]
        ]
      }
    },
    {
      "type": "Feature",
      "id": "way/728930547",
      "properties": {
        "timestamp": "2021-02-18T19:27:19Z",
        "version": 2,
        "changeset": 99545029,
        "addr:city": "Caxias",
        "addr:postcode": "65604-160",
        "addr:street": "Rua Bela Vista",
        "addr:suburb": "Castelo Branco",
        "amenity": "school",
        "name": "Unidade Integrada Nossa Senhora Dos Remedios",
        "phone": "+55 99 3421 0760",
        "id": "way/728930547"
      },
      "geometry": {
        "type": "Polygon",
        "coordinates": [
          [
            [
              -43.3497949,
              -4.8641883
            ],
            [
              -43.3497225,
              -4.8647956
            ],
            [
              -43.3494283,
              -4.8647909
            ],
            [
              -43.3494461,
              -4.8642928
            ],
            [
              -43.3497949,
              -4.8641883
            ]
          ]
        ]
      }
    },
    {
      "type": "Feature",
      "id": "way/898003070",
      "properties": {
        "timestamp": "2021-02-18T15:57:27Z",
        "version": 3,
        "changeset": 99535627,
        "addr:city": "Caxias",
        "addr:postcode": "65604-040",
        "addr:street": "Praça Coronel João Castelo",
        "addr:suburb": "Centro",
        "amenity": "school",
        "name": "Centro de Ensino Thales Ribeiro Gonçalves",
        "phone": "+55 99 3521 5802",
        "id": "way/898003070"
      },
      "geometry": {
        "type": "Polygon",
        "coordinates": [
          [
            [
              -43.3576735,
              -4.8628954
            ],
            [
              -43.3574073,
              -4.8632176
            ],
            [
              -43.3573796,
              -4.8632275
            ],
            [
              -43.3573528,
              -4.8632186
            ],
            [
              -43.3572962,
              -4.8631741
            ],
            [
              -43.3572307,
              -4.8630782
            ],
            [
              -43.3572267,
              -4.8630534
            ],
            [
              -43.357485,
              -4.8627408
            ],
            [
              -43.3576735,
              -4.8628954
            ]
          ]
        ]
      }
    },
    {
      "type": "Feature",
      "id": "way/899297775",
      "properties": {
        "timestamp": "2021-01-23T21:41:27Z",
        "version": 1,
        "changeset": 98036988,
        "addr:city": "maranhão",
        "addr:postcode": "65609-899",
        "addr:street": "area rural de caxias",
        "addr:suburb": "caxias",
        "amenity": "school",
        "name": "Ue Mul Conselheiro Sinval",
        "phone": "+55 99 9 8833.0871",
        "id": "way/899297775"
      },
      "geometry": {
        "type": "Polygon",
        "coordinates": [
          [
            [
              -43.0230189,
              -4.7486322
            ],
            [
              -43.0230189,
              -4.7487044
            ],
            [
              -43.0228648,
              -4.7487044
            ],
            [
              -43.0228756,
              -4.7486291
            ],
            [
              -43.0230189,
              -4.7486322
            ]
          ]
        ]
      }
    },
    {
      "type": "Feature",
      "id": "way/899297946",
      "properties": {
        "timestamp": "2024-12-07T18:56:10Z",
        "version": 2,
        "changeset": 160036667,
        "addr:city": "Maranhão",
        "addr:postcode": "65609-899",
        "addr:street": "Povoado alecrim",
        "addr:suburb": "caxias",
        "amenity": "school",
        "name": "Uim Jose Goncalves Costa",
        "nohousenumber": "yes",
        "phone": "+55 99 3422-9038",
        "id": "way/899297946"
      },
      "geometry": {
        "type": "Polygon",
        "coordinates": [
          [
            [
              -43.0488217,
              -4.7570315
            ],
            [
              -43.0488431,
              -4.7571304
            ],
            [
              -43.0485052,
              -4.7571651
            ],
            [
              -43.0485025,
              -4.7570662
            ],
            [
              -43.0488217,
              -4.7570315
            ]
          ]
        ]
      }
    },
    {
      "type": "Feature",
      "id": "way/899337366",
      "properties": {
        "timestamp": "2021-01-24T00:43:17Z",
        "version": 1,
        "changeset": 98040703,
        "addr:city": "Maranhão",
        "addr:postcode": "65609-899",
        "addr:street": "area rural de caxias",
        "addr:suburb": "Caxias",
        "amenity": "school",
        "name": "Uem Benedito Luis Evangelista",
        "id": "way/899337366"
      },
      "geometry": {
        "type": "Polygon",
        "coordinates": [
          [
            [
              -43.0448806,
              -4.7702737
            ],
            [
              -43.0448339,
              -4.7703831
            ],
            [
              -43.0447729,
              -4.7703628
            ],
            [
              -43.0448217,
              -4.7702433
            ],
            [
              -43.0448806,
              -4.7702737
            ]
          ]
        ]
      }
    },
    {
      "type": "Feature",
      "id": "way/899337517",
      "properties": {
        "timestamp": "2024-12-07T18:56:10Z",
        "version": 2,
        "changeset": 160036667,
        "addr:city": "Maranhão",
        "addr:postcode": "65602-080",
        "addr:street": "Povoado sao domingos",
        "addr:suburb": "Caxias",
        "amenity": "school",
        "name": "Em Sao Domingos",
        "nohousenumber": "yes",
        "phone": "+55 99 3421-7078",
        "id": "way/899337517"
      },
      "geometry": {
        "type": "Polygon",
        "coordinates": [
          [
            [
              -43.0230659,
              -4.5277014
            ],
            [
              -43.0229565,
              -4.527643
            ],
            [
              -43.0229812,
              -4.527597
            ],
            [
              -43.023089,
              -4.5276553
            ],
            [
              -43.0230659,
              -4.5277014
            ]
          ]
        ]
      }
    },
    {
      "type": "Feature",
      "id": "way/908228805",
      "properties": {
        "timestamp": "2021-02-17T22:54:39Z",
        "version": 1,
        "changeset": 99480679,
        "addr:city": "Caxias",
        "addr:postcode": "65609-899",
        "addr:street": "Estrada da Canabrava",
        "amenity": "school",
        "name": "UEM Professora Inez Evangelista Guimaraes",
        "id": "way/908228805"
      },
      "geometry": {
        "type": "Polygon",
        "coordinates": [
          [
            [
              -43.0862207,
              -4.7433579
            ],
            [
              -43.0870288,
              -4.7430198
            ],
            [
              -43.0873858,
              -4.743867
            ],
            [
              -43.0865776,
              -4.7442052
            ],
            [
              -43.0862207,
              -4.7433579
            ]
          ]
        ]
      }
    },
    {
      "type": "Feature",
      "id": "way/908229641",
      "properties": {
        "timestamp": "2021-02-17T23:03:20Z",
        "version": 1,
        "changeset": 99480898,
        "addr:city": "Caxias",
        "addr:postcode": "65609-899",
        "addr:street": "Avenida Nossa Senhora de Nazaré",
        "amenity": "school",
        "name": "Unidade Integrada Municipal Nossa Senhora de Nazaré",
        "id": "way/908229641"
      },
      "geometry": {
        "type": "Polygon",
        "coordinates": [
          [
            [
              -42.9939263,
              -4.8399478
            ],
            [
              -42.9943727,
              -4.8398621
            ],
            [
              -42.9944855,
              -4.8404453
            ],
            [
              -42.9940391,
              -4.840531
            ],
            [
              -42.9939263,
              -4.8399478
            ]
          ]
        ]
      }
    },
    {
      "type": "Feature",
      "id": "way/908234383",
      "properties": {
        "timestamp": "2021-02-17T23:29:50Z",
        "version": 1,
        "changeset": 99481442,
        "addr:city": "Caxias",
        "addr:postcode": "65606-340",
        "addr:street": "Rua Vinte e Um de Abril",
        "addr:suburb": "Volta Redonda",
        "amenity": "school",
        "name": "UI Mul Filomena Machado Teixeira",
        "phone": "+55 99 3421 0777",
        "id": "way/908234383"
      },
      "geometry": {
        "type": "Polygon",
        "coordinates": [
          [
            [
              -43.3535272,
              -4.876395
            ],
            [
              -43.3533605,
              -4.8769043
            ],
            [
              -43.3529188,
              -4.8767619
            ],
            [
              -43.3531392,
              -4.8762654
            ],
            [
              -43.3535272,
              -4.876395
            ]
          ]
        ]
      }
    },
    {
      "type": "Feature",
      "id": "way/908237091",
      "properties": {
        "timestamp": "2021-02-17T23:48:32Z",
        "version": 1,
        "changeset": 99481770,
        "addr:city": "Caxias",
        "addr:postcode": "65609-040",
        "addr:street": "Rua do Belém",
        "addr:suburb": "Campo de Bélem",
        "amenity": "school",
        "name": "Centro de Ensino Cezar Marques",
        "phone": "+55 99 3521 6704",
        "id": "way/908237091"
      },
      "geometry": {
        "type": "Polygon",
        "coordinates": [
          [
            [
              -43.3692676,
              -4.8732361
            ],
            [
              -43.3690846,
              -4.8741074
            ],
            [
              -43.3686341,
              -4.8740135
            ],
            [
              -43.3688173,
              -4.8731422
            ],
            [
              -43.3692676,
              -4.8732361
            ]
          ]
        ]
      }
    },
    {
      "type": "Feature",
      "id": "way/908346218",
      "properties": {
        "timestamp": "2021-02-18T09:59:11Z",
        "version": 1,
        "changeset": 99512292,
        "addr:city": "Caxias",
        "addr:postcode": "65600-970",
        "addr:street": "Travessa São José",
        "addr:suburb": "Bacuri",
        "amenity": "school",
        "name": "Escola Municipal São Raimundo",
        "id": "way/908346218"
      },
      "geometry": {
        "type": "Polygon",
        "coordinates": [
          [
            [
              -43.3368683,
              -4.8418031
            ],
            [
              -43.3368222,
              -4.8424705
            ],
            [
              -43.3359524,
              -4.8422029
            ],
            [
              -43.3359838,
              -4.8416295
            ],
            [
              -43.3368683,
              -4.8418031
            ]
          ]
        ]
      }
    },
    {
      "type": "Feature",
      "id": "way/908347106",
      "properties": {
        "timestamp": "2021-02-18T10:02:47Z",
        "version": 1,
        "changeset": 99512551,
        "addr:city": "Caxias",
        "addr:postcode": "65602-820",
        "addr:street": "Rua Rio de Janeiro",
        "addr:suburb": "Seriema",
        "amenity": "school",
        "name": "Centro de Educação Infantil Elza de Sousa Fonseca",
        "id": "way/908347106"
      },
      "geometry": {
        "type": "Polygon",
        "coordinates": [
          [
            [
              -43.3554281,
              -4.8491684
            ],
            [
              -43.356011,
              -4.8489338
            ],
            [
              -43.3559957,
              -4.8495399
            ],
            [
              -43.3555337,
              -4.8496249
            ],
            [
              -43.3554281,
              -4.8491684
            ]
          ]
        ]
      }
    },
    {
      "type": "Feature",
      "id": "way/908347565",
      "properties": {
        "timestamp": "2021-02-18T10:05:15Z",
        "version": 1,
        "changeset": 99512736,
        "addr:city": "Caxias",
        "addr:postcode": "65604-620",
        "addr:street": "Avenida Dois",
        "addr:suburb": "Cohab",
        "amenity": "school",
        "name": "Colegio Militar Tiradentes IV",
        "id": "way/908347565"
      },
      "geometry": {
        "type": "Polygon",
        "coordinates": [
          [
            [
              -43.3401482,
              -4.8704523
            ],
            [
              -43.3407098,
              -4.871685
            ],
            [
              -43.3399554,
              -4.8721225
            ],
            [
              -43.3393724,
              -4.8707935
            ],
            [
              -43.3401482,
              -4.8704523
            ]
          ]
        ]
      }
    },
    {
      "type": "Feature",
      "id": "way/908399018",
      "properties": {
        "timestamp": "2021-02-18T12:39:12Z",
        "version": 2,
        "changeset": 99524781,
        "addr:city": "Caxias",
        "addr:postcode": "65602-310",
        "addr:street": "Avenida Santos Dumont",
        "addr:suburb": "Centro",
        "amenity": "school",
        "name": "Em Antenor Gomes Viana Junior",
        "id": "way/908399018"
      },
      "geometry": {
        "type": "Polygon",
        "coordinates": [
          [
            [
              -43.3503764,
              -4.8443239
            ],
            [
              -43.349836,
              -4.8448006
            ],
            [
              -43.3496041,
              -4.844522
            ],
            [
              -43.3500752,
              -4.8441042
            ],
            [
              -43.3503764,
              -4.8443239
            ]
          ]
        ]
      }
    },
    {
      "type": "Feature",
      "id": "way/908400784",
      "properties": {
        "timestamp": "2021-02-18T12:47:44Z",
        "version": 1,
        "changeset": 99525384,
        "addr:city": "Caxias",
        "addr:postcode": "65604-520",
        "addr:street": "Avenida Quinze de Novembro",
        "addr:suburb": "Teso Duro",
        "amenity": "school",
        "name": "Unidade Integrada Municipal Professor Arlindo Fernandes de Oliveira",
        "id": "way/908400784"
      },
      "geometry": {
        "type": "Polygon",
        "coordinates": [
          [
            [
              -43.3387825,
              -4.8357973
            ],
            [
              -43.3391138,
              -4.835558
            ],
            [
              -43.3396177,
              -4.8362504
            ],
            [
              -43.3392862,
              -4.8364898
            ],
            [
              -43.3387825,
              -4.8357973
            ]
          ]
        ]
      }
    },
    {
      "type": "Feature",
      "id": "way/908403478",
      "properties": {
        "timestamp": "2021-02-18T13:00:19Z",
        "version": 1,
        "changeset": 99526210,
        "amenity": "school",
        "name": "Unidade Integrada Izaura Costa",
        "id": "way/908403478"
      },
      "geometry": {
        "type": "Polygon",
        "coordinates": [
          [
            [
              -43.3730202,
              -4.8708521
            ],
            [
              -43.3732779,
              -4.8713606
            ],
            [
              -43.3734114,
              -4.8716598
            ],
            [
              -43.3731412,
              -4.8714686
            ],
            [
              -43.3727107,
              -4.8711018
            ],
            [
              -43.3730202,
              -4.8708521
            ]
          ]
        ]
      }
    },
    {
      "type": "Feature",
      "id": "way/908458805",
      "properties": {
        "timestamp": "2021-02-18T16:06:47Z",
        "version": 1,
        "changeset": 99536071,
        "addr:city": "Caxias",
        "addr:postcode": "65604-525",
        "addr:street": "Avenida Quinze de Novembro",
        "addr:suburb": "Teso Duro",
        "amenity": "school",
        "name": "CEI Professora Maria Benedita Pereira da Silva",
        "id": "way/908458805"
      },
      "geometry": {
        "type": "Polygon",
        "coordinates": [
          [
            [
              -43.3384829,
              -4.8344616
            ],
            [
              -43.3389506,
              -4.8341092
            ],
            [
              -43.339194,
              -4.8344298
            ],
            [
              -43.3387265,
              -4.8347824
            ],
            [
              -43.3384829,
              -4.8344616
            ]
          ]
        ]
      }
    },
    {
      "type": "Feature",
      "id": "way/908459910",
      "properties": {
        "timestamp": "2021-02-18T16:12:43Z",
        "version": 1,
        "changeset": 99536360,
        "amenity": "school",
        "id": "way/908459910"
      },
      "geometry": {
        "type": "Polygon",
        "coordinates": [
          [
            [
              -43.3504444,
              -4.8765754
            ],
            [
              -43.3505971,
              -4.8769644
            ],
            [
              -43.3505308,
              -4.8772451
            ],
            [
              -43.3505127,
              -4.8772583
            ],
            [
              -43.3504946,
              -4.8772638
            ],
            [
              -43.3498474,
              -4.877037
            ],
            [
              -43.3498296,
              -4.8765028
            ],
            [
              -43.3504444,
              -4.8765754
            ]
          ]
        ]
      }
    },
    {
      "type": "Feature",
      "id": "way/908463438",
      "properties": {
        "timestamp": "2021-02-18T16:26:52Z",
        "version": 1,
        "changeset": 99537006,
        "amenity": "school",
        "name": "Centro de Ensino Cristovão Colombo",
        "id": "way/908463438"
      },
      "geometry": {
        "type": "Polygon",
        "coordinates": [
          [
            [
              -43.3615317,
              -4.8438546
            ],
            [
              -43.3619341,
              -4.8437874
            ],
            [
              -43.3620566,
              -4.8443171
            ],
            [
              -43.361643,
              -4.8443798
            ],
            [
              -43.3615317,
              -4.8438546
            ]
          ]
        ]
      }
    },
    {
      "type": "Feature",
      "id": "way/908471678",
      "properties": {
        "timestamp": "2021-02-18T16:59:02Z",
        "version": 1,
        "changeset": 99538605,
        "addr:city": "Caxias",
        "addr:housenumber": "1032",
        "addr:postcode": "65605-550",
        "addr:street": "Rua Santa Inês",
        "addr:suburb": "Vila Lobão",
        "amenity": "school",
        "name": "Creche Materno Infantil Vila Lobão",
        "id": "way/908471678"
      },
      "geometry": {
        "type": "Polygon",
        "coordinates": [
          [
            [
              -43.3461544,
              -4.8788935
            ],
            [
              -43.3459558,
              -4.8792129
            ],
            [
              -43.3454496,
              -4.8790407
            ],
            [
              -43.3455271,
              -4.8788316
            ],
            [
              -43.3455827,
              -4.878854
            ],
            [
              -43.345631,
              -4.8787351
            ],
            [
              -43.3461544,
              -4.8788935
            ]
          ]
        ]
      }
    },
    {
      "type": "Feature",
      "id": "way/908491634",
      "properties": {
        "timestamp": "2021-02-18T18:18:26Z",
        "version": 1,
        "changeset": 99542316,
        "addr:city": "Caxias",
        "addr:postcode": "65609-8993",
        "amenity": "school",
        "name": "UEM Zeferino Borges da Cunha",
        "id": "way/908491634"
      },
      "geometry": {
        "type": "Polygon",
        "coordinates": [
          [
            [
              -43.1679565,
              -5.0261662
            ],
            [
              -43.1679316,
              -5.026616
            ],
            [
              -43.1673494,
              -5.026584
            ],
            [
              -43.167368,
              -5.0262465
            ],
            [
              -43.1674659,
              -5.0261392
            ],
            [
              -43.1679565,
              -5.0261662
            ]
          ]
        ]
      }
    },
    {
      "type": "Feature",
      "id": "way/908498415",
      "properties": {
        "timestamp": "2021-02-18T18:40:26Z",
        "version": 1,
        "changeset": 99543236,
        "addr:city": "Caxias",
        "addr:postcode": "65604-770",
        "addr:street": "Rua Treze de Maio",
        "addr:suburb": "José Castro",
        "amenity": "school",
        "name": "Centro de Educação Infantil Vereador Catule",
        "id": "way/908498415"
      },
      "geometry": {
        "type": "Polygon",
        "coordinates": [
          [
            [
              -43.3395231,
              -4.8607026
            ],
            [
              -43.3398906,
              -4.860625
            ],
            [
              -43.3399828,
              -4.8612826
            ],
            [
              -43.3396413,
              -4.8613113
            ],
            [
              -43.3395231,
              -4.8607026
            ]
          ]
        ]
      }
    },
    {
      "type": "Feature",
      "id": "way/908498655",
      "properties": {
        "timestamp": "2021-02-18T18:41:56Z",
        "version": 1,
        "changeset": 99543293,
        "addr:city": "Caxias",
        "addr:postcode": "65609-410",
        "amenity": "school",
        "name": "Centro Educa Mais Aluisio Azevedo",
        "id": "way/908498655"
      },
      "geometry": {
        "type": "Polygon",
        "coordinates": [
          [
            [
              -43.3636067,
              -4.879916
            ],
            [
              -43.3637864,
              -4.8811947
            ],
            [
              -43.3626438,
              -4.8813539
            ],
            [
              -43.3624645,
              -4.8800751
            ],
            [
              -43.3636067,
              -4.879916
            ]
          ]
        ]
      }
    },
    {
      "type": "Feature",
      "id": "way/908499852",
      "properties": {
        "timestamp": "2021-02-18T18:47:08Z",
        "version": 1,
        "changeset": 99543450,
        "addr:city": "Caxias",
        "addr:postcode": "65609-899",
        "amenity": "school",
        "name": "Uem Nova Esperança",
        "id": "way/908499852"
      },
      "geometry": {
        "type": "Polygon",
        "coordinates": [
          [
            [
              -42.9526394,
              -4.7127016
            ],
            [
              -42.9524305,
              -4.7129556
            ],
            [
              -42.952218,
              -4.7127819
            ],
            [
              -42.9524269,
              -4.712528
            ],
            [
              -42.9526394,
              -4.7127016
            ]
          ]
        ]
      }
    },
    {
      "type": "Feature",
      "id": "way/908506264",
      "properties": {
        "timestamp": "2021-02-18T19:14:52Z",
        "version": 1,
        "changeset": 99544530,
        "amenity": "school",
        "name": "Cei Marcelo Dino",
        "id": "way/908506264"
      },
      "geometry": {
        "type": "Polygon",
        "coordinates": [
          [
            [
              -43.3698073,
              -4.8580949
            ],
            [
              -43.3704837,
              -4.8578352
            ],
            [
              -43.3706054,
              -4.85815
            ],
            [
              -43.3699291,
              -4.8584098
            ],
            [
              -43.3698073,
              -4.8580949
            ]
          ]
        ]
      }
    },
    {
      "type": "Feature",
      "id": "way/908507415",
      "properties": {
        "timestamp": "2021-02-18T19:19:55Z",
        "version": 1,
        "changeset": 99544740,
        "addr:city": "Caxias",
        "addr:postcode": "65609-899",
        "amenity": "school",
        "name": "EM Trabalhosa",
        "id": "way/908507415"
      },
      "geometry": {
        "type": "Polygon",
        "coordinates": [
          [
            [
              -43.5167676,
              -5.1885498
            ],
            [
              -43.5165862,
              -5.1890478
            ],
            [
              -43.5162007,
              -5.1889085
            ],
            [
              -43.5163822,
              -5.1884105
            ],
            [
              -43.5167676,
              -5.1885498
            ]
          ]
        ]
      }
    },
    {
      "type": "Feature",
      "id": "way/908508234",
      "properties": {
        "timestamp": "2021-02-18T19:23:33Z",
        "version": 1,
        "changeset": 99544884,
        "addr:city": "Caxias",
        "addr:postcode": "65602-310",
        "addr:street": "Avenida Santos Dumont",
        "addr:suburb": "Centro",
        "amenity": "school",
        "name": "Centro De Ensino Santos Dumont",
        "phone": "+55 99 3521 5946",
        "id": "way/908508234"
      },
      "geometry": {
        "type": "Polygon",
        "coordinates": [
          [
            [
              -43.3564397,
              -4.8478598
            ],
            [
              -43.3563227,
              -4.848446
            ],
            [
              -43.3560676,
              -4.8484249
            ],
            [
              -43.3560765,
              -4.8478488
            ],
            [
              -43.3564397,
              -4.8478598
            ]
          ]
        ]
      }
    },
    {
      "type": "Feature",
      "id": "way/908509419",
      "properties": {
        "timestamp": "2021-02-18T19:28:22Z",
        "version": 1,
        "changeset": 99545078,
        "addr:city": "Caxias",
        "addr:postcode": "65609-899",
        "amenity": "school",
        "name": "Centro De Ensino Professora Maria Do Carmo Bezerra Paiva",
        "id": "way/908509419"
      },
      "geometry": {
        "type": "Polygon",
        "coordinates": [
          [
            [
              -43.4162277,
              -5.0659065
            ],
            [
              -43.4170673,
              -5.0655966
            ],
            [
              -43.4173868,
              -5.0664553
            ],
            [
              -43.4165472,
              -5.0667653
            ],
            [
              -43.4162277,
              -5.0659065
            ]
          ]
        ]
      }
    },
    {
      "type": "Feature",
      "id": "way/908510170",
      "properties": {
        "timestamp": "2021-02-18T19:30:16Z",
        "version": 1,
        "changeset": 99545169,
        "addr:city": "Caxias",
        "addr:postcode": "65609-899",
        "amenity": "school",
        "name": "UEM Santa Lucia",
        "phone": "+55 99 3422 9079",
        "id": "way/908510170"
      },
      "geometry": {
        "type": "Polygon",
        "coordinates": [
          [
            [
              -42.9214978,
              -4.842264
            ],
            [
              -42.921681,
              -4.8424656
            ],
            [
              -42.921346,
              -4.8427422
            ],
            [
              -42.9211552,
              -4.8425344
            ],
            [
              -42.9214978,
              -4.842264
            ]
          ]
        ]
      }
    },
    {
      "type": "Feature",
      "id": "way/908521387",
      "properties": {
        "timestamp": "2021-02-18T20:02:09Z",
        "version": 1,
        "changeset": 99546392,
        "addr:city": "Caxias",
        "addr:postcode": "65606-730",
        "addr:street": "Avenida Volta Redonda",
        "addr:suburb": "Volta Redonda",
        "amenity": "school",
        "name": "Unidade Integrada Municipal Deborah Pereira",
        "id": "way/908521387"
      },
      "geometry": {
        "type": "Polygon",
        "coordinates": [
          [
            [
              -43.3445641,
              -4.8795782
            ],
            [
              -43.3444219,
              -4.8801958
            ],
            [
              -43.3437201,
              -4.8800354
            ],
            [
              -43.3438623,
              -4.8794178
            ],
            [
              -43.3445641,
              -4.8795782
            ]
          ]
        ]
      }
    },
    {
      "type": "Feature",
      "id": "way/908522543",
      "properties": {
        "timestamp": "2021-02-18T20:06:40Z",
        "version": 1,
        "changeset": 99546572,
        "addr:city": "Caxias",
        "addr:postcode": "65602-080",
        "amenity": "school",
        "name": "EM  Dom Cosme Bento das Chagas",
        "id": "way/908522543"
      },
      "geometry": {
        "type": "Polygon",
        "coordinates": [
          [
            [
              -43.3613154,
              -4.9135782
            ],
            [
              -43.3613141,
              -4.914027
            ],
            [
              -43.3608612,
              -4.9140257
            ],
            [
              -43.3608624,
              -4.9135769
            ],
            [
              -43.3613154,
              -4.9135782
            ]
          ]
        ]
      }
    },
    {
      "type": "Feature",
      "id": "node/8345588332",
      "properties": {
        "timestamp": "2021-01-21T14:33:56Z",
        "version": 1,
        "changeset": 97912309,
        "amenity": "school",
        "name": "Centro De Ensino Thales Ribeiro Gonçalves - Anexo V - Cabeceira De São Pedro",
        "id": "node/8345588332"
      },
      "geometry": {
        "type": "Point",
        "coordinates": [
          -43.5352542,
          -5.051774
        ]
      }
    },
    {
      "type": "Feature",
      "id": "node/8345611072",
      "properties": {
        "timestamp": "2021-01-21T14:43:59Z",
        "version": 1,
        "changeset": 97912778,
        "addr:city": "Caxias",
        "addr:district": "Distrito 1",
        "amenity": "school",
        "name": "EM Associacao Olho D'agua do Raposo",
        "phone": "+55 99 9 9951 6980",
        "id": "node/8345611072"
      },
      "geometry": {
        "type": "Point",
        "coordinates": [
          -43.4323856,
          -5.1534786
        ]
      }
    },
    {
      "type": "Feature",
      "id": "node/8345615783",
      "properties": {
        "timestamp": "2021-01-21T14:50:43Z",
        "version": 1,
        "changeset": 97913089,
        "addr:city": "Caxias",
        "addr:postcode": "65606-730",
        "addr:street": "Avenida Volta Redonda",
        "amenity": "school",
        "name": "Escolinha Tia Joana",
        "id": "node/8345615783"
      },
      "geometry": {
        "type": "Point",
        "coordinates": [
          -43.3498252,
          -4.8812257
        ]
      }
    },
    {
      "type": "Feature",
      "id": "node/8345618270",
      "properties": {
        "timestamp": "2021-01-21T14:55:24Z",
        "version": 1,
        "changeset": 97913289,
        "addr:city": "Caxias",
        "addr:district": "2° Distrito",
        "addr:postcode": "65608-010",
        "amenity": "school",
        "name": "UE Mul Salustriano Costa Lobo",
        "phone": "+55 99 9 9651 9989",
        "id": "node/8345618270"
      },
      "geometry": {
        "type": "Point",
        "coordinates": [
          -43.2039016,
          -4.6678555
        ]
      }
    },
    {
      "type": "Feature",
      "id": "node/8345618693",
      "properties": {
        "timestamp": "2021-01-21T14:50:43Z",
        "version": 2,
        "changeset": 97913089,
        "addr:city": "Caxias",
        "addr:housenumber": "1263",
        "addr:postcode": "65606-730",
        "addr:street": "Avenida Volta Redonda",
        "amenity": "school",
        "name": "Centro De Educacao Infantil Volta Redonda",
        "id": "node/8345618693"
      },
      "geometry": {
        "type": "Point",
        "coordinates": [
          -43.3500639,
          -4.8812104
        ]
      }
    },
    {
      "type": "Feature",
      "id": "node/8345637776",
      "properties": {
        "timestamp": "2021-01-21T14:58:43Z",
        "version": 1,
        "changeset": 97913458,
        "addr:city": "Caxias",
        "addr:postcode": "65608-145",
        "addr:street": "Rua Quatro",
        "amenity": "school",
        "name": "Centro de Educaçao Infantil Santa Terezinha",
        "id": "node/8345637776"
      },
      "geometry": {
        "type": "Point",
        "coordinates": [
          -43.3892249,
          -4.8735082
        ]
      }
    },
    {
      "type": "Feature",
      "id": "node/8345646827",
      "properties": {
        "timestamp": "2021-01-21T15:01:20Z",
        "version": 1,
        "changeset": 97913559,
        "addr:city": "Caxias",
        "addr:postcode": "65602-310",
        "addr:street": "Avenida Santos Dumont",
        "amenity": "school",
        "name": "Unidade Integrada Professora Raimunda Barbosa Gonçalves Dias",
        "id": "node/8345646827"
      },
      "geometry": {
        "type": "Point",
        "coordinates": [
          -43.3587295,
          -4.8544436
        ]
      }
    },
    {
      "type": "Feature",
      "id": "node/8345648481",
      "properties": {
        "timestamp": "2021-01-21T15:04:35Z",
        "version": 1,
        "changeset": 97913705,
        "addr:city": "Caxias",
        "addr:district": "Primeiro Distrito",
        "addr:postcode": "65608-010",
        "amenity": "school",
        "name": "Jose e Maria",
        "phone": "+55 99 9 8806 0025",
        "id": "node/8345648481"
      },
      "geometry": {
        "type": "Point",
        "coordinates": [
          -43.3907416,
          -5.0665371
        ]
      }
    },
    {
      "type": "Feature",
      "id": "node/8345654007",
      "properties": {
        "timestamp": "2021-01-21T15:11:39Z",
        "version": 1,
        "changeset": 97914027,
        "addr:city": "Caxias",
        "addr:postcode": "65607-723",
        "addr:street": "Avenida José Gracy",
        "addr:suburb": "Luiza Queiroz",
        "amenity": "school",
        "name": "UIM Professora Marinalva Soares Guimarães",
        "id": "node/8345654007"
      },
      "geometry": {
        "type": "Point",
        "coordinates": [
          -43.3438884,
          -4.9036468
        ]
      }
    },
    {
      "type": "Feature",
      "id": "node/8345658428",
      "properties": {
        "timestamp": "2021-01-21T15:07:55Z",
        "version": 1,
        "changeset": 97913870,
        "addr:city": "Caxias",
        "addr:postcode": "65609-899",
        "amenity": "school",
        "name": "UE Mul Ezer Vilanova",
        "phone": "+55 99 9 9631 0712",
        "id": "node/8345658428"
      },
      "geometry": {
        "type": "Point",
        "coordinates": [
          -43.3940582,
          -5.0221942
        ]
      }
    },
    {
      "type": "Feature",
      "id": "node/8353463779",
      "properties": {
        "timestamp": "2021-01-23T00:51:34Z",
        "version": 1,
        "changeset": 98001440,
        "addr:city": "Caxias",
        "addr:postcode": "65607-775",
        "addr:street": "MA-034",
        "addr:suburb": "Fumo Verde",
        "amenity": "school",
        "name": "UIM Jacira Goncalves Vila Nova",
        "id": "node/8353463779"
      },
      "geometry": {
        "type": "Point",
        "coordinates": [
          -43.350821,
          -4.9192788
        ]
      }
    },
    {
      "type": "Feature",
      "id": "node/8353484791",
      "properties": {
        "timestamp": "2021-01-23T00:42:23Z",
        "version": 1,
        "changeset": 98001313,
        "addr:city": "Caxias",
        "addr:postcode": "65600-010",
        "addr:street": "Povoado buriti do Sangue",
        "amenity": "school",
        "name": "UEM Vereador Catule",
        "id": "node/8353484791"
      },
      "geometry": {
        "type": "Point",
        "coordinates": [
          -43.2450067,
          -4.9064101
        ]
      }
    },
    {
      "type": "Feature",
      "id": "node/8353512920",
      "properties": {
        "timestamp": "2021-01-23T00:44:34Z",
        "version": 1,
        "changeset": 98001349,
        "addr:city": "Caxias",
        "addr:postcode": "65602-350",
        "addr:street": "Rua Sesóstre Pereira",
        "addr:suburb": "Seriema",
        "amenity": "school",
        "name": "UIM Acrisio Cruz",
        "phone": "+55 99 3521 2813",
        "id": "node/8353512920"
      },
      "geometry": {
        "type": "Point",
        "coordinates": [
          -43.3570472,
          -4.8508332
        ]
      }
    },
    {
      "type": "Feature",
      "id": "node/8353516924",
      "properties": {
        "timestamp": "2021-01-23T00:46:22Z",
        "version": 1,
        "changeset": 98001366,
        "addr:city": "Caxias",
        "addr:postcode": "65602-310",
        "addr:street": "Avenida Santos Dumont",
        "addr:suburb": "Seriema",
        "amenity": "school",
        "name": "UE Mul Santos Dumon",
        "id": "node/8353516924"
      },
      "geometry": {
        "type": "Point",
        "coordinates": [
          -43.3558181,
          -4.8479543
        ]
      }
    },
    {
      "type": "Feature",
      "id": "node/8353528797",
      "properties": {
        "timestamp": "2021-01-23T00:48:48Z",
        "version": 1,
        "changeset": 98001404,
        "addr:city": "Povoado Brejinho",
        "addr:postcode": "65609-899",
        "amenity": "school",
        "name": "Centro de Educação Infantil Brejinho",
        "id": "node/8353528797"
      },
      "geometry": {
        "type": "Point",
        "coordinates": [
          -43.137123,
          -4.9523489
        ]
      }
    },
    {
      "type": "Feature",
      "id": "node/8355709072",
      "properties": {
        "timestamp": "2021-01-23T20:46:05Z",
        "version": 1,
        "changeset": 98035543,
        "addr:city": "Caxias",
        "addr:postcode": "65609-660",
        "addr:street": "Rua Professor Francisco Medeiros",
        "addr:suburb": "Ponte",
        "amenity": "school",
        "name": "Centro de Educação Infantil Prefeito Aluizio Lobo",
        "id": "node/8355709072"
      },
      "geometry": {
        "type": "Point",
        "coordinates": [
          -43.3767097,
          -4.8847844
        ]
      }
    },
    {
      "type": "Feature",
      "id": "node/8355710786",
      "properties": {
        "timestamp": "2021-01-23T20:27:29Z",
        "version": 1,
        "changeset": 98035090,
        "addr:city": "Caxias",
        "addr:housenumber": "268",
        "addr:postcode": "65609-380",
        "addr:street": "Rua Santa Rita",
        "addr:suburb": "Ponte",
        "amenity": "school",
        "name": "IEMA - Instituto Estadual de Educacao Ciência e Tecnologia",
        "id": "node/8355710786"
      },
      "geometry": {
        "type": "Point",
        "coordinates": [
          -43.3631544,
          -4.8768224
        ]
      }
    },
    {
      "type": "Feature",
      "id": "node/8355711222",
      "properties": {
        "timestamp": "2021-01-23T20:24:59Z",
        "version": 1,
        "changeset": 98035031,
        "addr:city": "Caxias",
        "addr:postcode": "65609-899",
        "amenity": "school",
        "name": "UEM Antônio Costa",
        "phone": "+55 99 9 8803 7148",
        "id": "node/8355711222"
      },
      "geometry": {
        "type": "Point",
        "coordinates": [
          -43.3417969,
          -5.0945032
        ]
      }
    },
    {
      "type": "Feature",
      "id": "node/8355725576",
      "properties": {
        "timestamp": "2021-01-23T20:37:29Z",
        "version": 1,
        "changeset": 98035342,
        "addr:city": "Caxias",
        "addr:postcode": "65609-480",
        "addr:street": "Rua São José",
        "addr:suburb": "Ponte",
        "amenity": "school",
        "name": "Unidade Integrada Professora Rita de Cassia Azevedo",
        "id": "node/8355725576"
      },
      "geometry": {
        "type": "Point",
        "coordinates": [
          -43.3701567,
          -4.8830517
        ]
      }
    },
    {
      "type": "Feature",
      "id": "node/8355731957",
      "properties": {
        "timestamp": "2021-01-23T20:29:26Z",
        "version": 1,
        "changeset": 98035134,
        "addr:city": "Caxias",
        "addr:postcode": "65609-899",
        "amenity": "school",
        "name": "UEM Milena",
        "phone": "+55 99 3422 7042",
        "id": "node/8355731957"
      },
      "geometry": {
        "type": "Point",
        "coordinates": [
          -43.1185336,
          -4.8580298
        ]
      }
    },
    {
      "type": "Feature",
      "id": "node/8355733244",
      "properties": {
        "timestamp": "2021-01-23T20:31:33Z",
        "version": 1,
        "changeset": 98035183,
        "addr:city": "Caxias",
        "addr:housenumber": "1054",
        "addr:postcode": "65608-010",
        "addr:street": "Rua São Francisco",
        "addr:suburb": "São Francisco",
        "amenity": "school",
        "name": "Unidade Escolar Municipal São Francisco",
        "id": "node/8355733244"
      },
      "geometry": {
        "type": "Point",
        "coordinates": [
          -43.3458231,
          -4.8479329
        ]
      }
    },
    {
      "type": "Feature",
      "id": "node/8355734065",
      "properties": {
        "timestamp": "2021-01-23T20:39:24Z",
        "version": 1,
        "changeset": 98035386,
        "addr:city": "Caxias",
        "addr:postcode": "65609-899",
        "amenity": "school",
        "name": "EM Aluizio Lobo",
        "id": "node/8355734065"
      },
      "geometry": {
        "type": "Point",
        "coordinates": [
          -43.0136973,
          -4.4845129
        ]
      }
    },
    {
      "type": "Feature",
      "id": "node/8355741560",
      "properties": {
        "timestamp": "2021-01-23T20:34:58Z",
        "version": 1,
        "changeset": 98035281,
        "addr:city": "Caxias",
        "addr:housenumber": "898",
        "addr:postcode": "65606-250",
        "addr:street": "Rua do Fio",
        "addr:suburb": "Cangalheiro",
        "amenity": "school",
        "name": "EC São Francisco De Assis",
        "id": "node/8355741560"
      },
      "geometry": {
        "type": "Point",
        "coordinates": [
          -43.3583192,
          -4.8708787
        ]
      }
    },
    {
      "type": "Feature",
      "id": "node/8355741561",
      "properties": {
        "timestamp": "2021-01-23T20:38:28Z",
        "version": 1,
        "changeset": 98035366,
        "addr:city": "Caxias",
        "addr:postcode": "65609-899",
        "amenity": "school",
        "name": "UEM Apolonio Facundes De Sousa",
        "id": "node/8355741561"
      },
      "geometry": {
        "type": "Point",
        "coordinates": [
          -43.2665593,
          -5.1531712
        ]
      }
    },
    {
      "type": "Feature",
      "id": "node/8355743649",
      "properties": {
        "timestamp": "2021-01-23T20:36:19Z",
        "version": 1,
        "changeset": 98035316,
        "addr:city": "Caxias",
        "addr:postcode": "65609-899",
        "amenity": "school",
        "name": "UE Torquato Evangelista De Sousa",
        "id": "node/8355743649"
      },
      "geometry": {
        "type": "Point",
        "coordinates": [
          -43.7811385,
          -5.2745008
        ]
      }
    },
    {
      "type": "Feature",
      "id": "node/8405747800",
      "properties": {
        "timestamp": "2021-02-08T17:59:00Z",
        "version": 1,
        "changeset": 98924355,
        "addr:city": "Caxias",
        "addr:postcode": "65606-600",
        "amenity": "school",
        "name": "Unidade Escolar Municipal Francisco Dias Brandão",
        "phone": "+55 99 3421 4077",
        "id": "node/8405747800"
      },
      "geometry": {
        "type": "Point",
        "coordinates": [
          -43.3529875,
          -4.9097485
        ]
      }
    },
    {
      "type": "Feature",
      "id": "node/8405753317",
      "properties": {
        "timestamp": "2021-02-08T17:49:19Z",
        "version": 1,
        "changeset": 98923962,
        "addr:city": "Caxias",
        "addr:postcode": "65609-899",
        "addr:suburb": "Segundo Distrito",
        "amenity": "school",
        "name": "Em Armando Veras",
        "phone": "+55 99 9 8857 8381",
        "id": "node/8405753317"
      },
      "geometry": {
        "type": "Point",
        "coordinates": [
          -43.074458,
          -4.5699322
        ]
      }
    },
    {
      "type": "Feature",
      "id": "node/8405760639",
      "properties": {
        "timestamp": "2021-02-08T18:10:50Z",
        "version": 1,
        "changeset": 98924854,
        "addr:city": "Caxias",
        "addr:postcode": "65609-899",
        "amenity": "school",
        "name": "EM Raimundo Angelo de Araujo",
        "id": "node/8405760639"
      },
      "geometry": {
        "type": "Point",
        "coordinates": [
          -43.491534,
          -4.8078875
        ]
      }
    },
    {
      "type": "Feature",
      "id": "node/8405760740",
      "properties": {
        "timestamp": "2021-02-08T17:55:30Z",
        "version": 1,
        "changeset": 98924193,
        "addr:city": "Caxias",
        "addr:postcode": "65609-899",
        "amenity": "school",
        "name": "EM Nilo Pecanha",
        "phone": "+55 99 99474 4604",
        "id": "node/8405760740"
      },
      "geometry": {
        "type": "Point",
        "coordinates": [
          -42.9534249,
          -4.784437
        ]
      }
    },
    {
      "type": "Feature",
      "id": "node/8405761698",
      "properties": {
        "timestamp": "2021-02-08T17:54:05Z",
        "version": 1,
        "changeset": 98924143,
        "addr:city": "Boca da Mata",
        "addr:postcode": "65609-899",
        "addr:street": "Estrada da Canabrava",
        "amenity": "school",
        "name": "UEM Domingos da Silva",
        "id": "node/8405761698"
      },
      "geometry": {
        "type": "Point",
        "coordinates": [
          -43.0693992,
          -4.7439898
        ]
      }
    },
    {
      "type": "Feature",
      "id": "node/8405762287",
      "properties": {
        "timestamp": "2021-02-08T17:52:33Z",
        "version": 1,
        "changeset": 98924086,
        "addr:city": "Caxias",
        "addr:postcode": "65608-010",
        "addr:suburb": "Primeiro Distrito",
        "amenity": "school",
        "name": "UEM Ana Almeida",
        "phone": "+55 99 9 9991 4768",
        "id": "node/8405762287"
      },
      "geometry": {
        "type": "Point",
        "coordinates": [
          -43.2000459,
          -5.0538432
        ]
      }
    },
    {
      "type": "Feature",
      "id": "node/8405762649",
      "properties": {
        "timestamp": "2021-02-08T18:00:22Z",
        "version": 1,
        "changeset": 98924425,
        "addr:city": "Caxias",
        "addr:postcode": "65609-899",
        "addr:street": "Estrada da Canabrava",
        "amenity": "school",
        "name": "Centro De Ensino Thales Ribeiro Goncalves - Anexo Iv - Barro Vermelho",
        "phone": "+55 99 3521 6417",
        "id": "node/8405762649"
      },
      "geometry": {
        "type": "Point",
        "coordinates": [
          -43.0858024,
          -4.7449624
        ]
      }
    },
    {
      "type": "Feature",
      "id": "node/8405773806",
      "properties": {
        "timestamp": "2021-02-08T18:04:58Z",
        "version": 1,
        "changeset": 98924605,
        "addr:city": "Caxias",
        "addr:postcode": "65607-640",
        "addr:street": "Avenida Valter Brito",
        "amenity": "school",
        "name": "Unidade Integrada Municipal Leoncio Alves De Araujo",
        "id": "node/8405773806"
      },
      "geometry": {
        "type": "Point",
        "coordinates": [
          -43.3693078,
          -4.8718944
        ]
      }
    },
    {
      "type": "Feature",
      "id": "node/8405774978",
      "properties": {
        "timestamp": "2021-02-08T18:09:40Z",
        "version": 1,
        "changeset": 98924803,
        "addr:city": "Caxias",
        "addr:housenumber": "1014",
        "addr:postcode": "65609-110",
        "addr:street": "Rua Aniceto Cruz",
        "amenity": "school",
        "name": "Centro de Educação Infantil Rosina",
        "phone": "+55 99 3521 5880",
        "id": "node/8405774978"
      },
      "geometry": {
        "type": "Point",
        "coordinates": [
          -43.3668409,
          -4.8710934
        ]
      }
    },
    {
      "type": "Feature",
      "id": "node/8405784748",
      "properties": {
        "timestamp": "2021-02-08T18:12:09Z",
        "version": 1,
        "changeset": 98924910,
        "addr:city": "Caxias",
        "addr:postcode": "65609-899",
        "amenity": "school",
        "name": "UEM Rio Preto",
        "id": "node/8405784748"
      },
      "geometry": {
        "type": "Point",
        "coordinates": [
          -43.4167537,
          -5.0669889
        ]
      }
    },
    {
      "type": "Feature",
      "id": "node/8405787647",
      "properties": {
        "timestamp": "2021-02-08T18:07:11Z",
        "version": 1,
        "changeset": 98924681,
        "addr:city": "Caxias",
        "addr:housenumber": "805",
        "addr:postcode": "65608-010",
        "addr:street": "Rua Libanio Lobo",
        "amenity": "school",
        "name": "Fundação Educacional Coelho Neto",
        "phone": "+55 99 3521 3910",
        "id": "node/8405787647"
      },
      "geometry": {
        "type": "Point",
        "coordinates": [
          -43.3630111,
          -4.8596357
        ]
      }
    },
    {
      "type": "Feature",
      "id": "node/8433177315",
      "properties": {
        "timestamp": "2022-10-10T06:46:26Z",
        "version": 2,
        "changeset": 127282649,
        "addr:city": "Caxias",
        "addr:housenumber": "447",
        "addr:postcode": "65608-050",
        "addr:street": "Rua Siqueira Campos",
        "addr:suburb": "Centro",
        "amenity": "school",
        "name": "UE Monsenhor Gilberto Barbosa",
        "phone": "+55 99 3521 5930",
        "id": "node/8433177315"
      },
      "geometry": {
        "type": "Point",
        "coordinates": [
          -43.3627684,
          -4.8576542
        ]
      }
    },
    {
      "type": "Feature",
      "id": "node/8433192401",
      "properties": {
        "timestamp": "2021-02-17T23:04:16Z",
        "version": 1,
        "changeset": 99480913,
        "addr:city": "Caxias",
        "addr:postcode": "65609-899",
        "amenity": "school",
        "name": "UIM João Santino Torres",
        "id": "node/8433192401"
      },
      "geometry": {
        "type": "Point",
        "coordinates": [
          -43.5353327,
          -5.0518167
        ]
      }
    },
    {
      "type": "Feature",
      "id": "node/8433197872",
      "properties": {
        "timestamp": "2021-02-17T22:55:51Z",
        "version": 1,
        "changeset": 99480713,
        "addr:city": "Caxias",
        "addr:postcode": "65609-899",
        "amenity": "school",
        "name": "UIM Luis Falcão",
        "id": "node/8433197872"
      },
      "geometry": {
        "type": "Point",
        "coordinates": [
          -43.2445806,
          -4.9301782
        ]
      }
    },
    {
      "type": "Feature",
      "id": "node/8433197873",
      "properties": {
        "timestamp": "2021-02-17T22:56:49Z",
        "version": 1,
        "changeset": 99480728,
        "addr:city": "Caxias",
        "addr:postcode": "65609-899",
        "amenity": "school",
        "name": "EM São Raimundo",
        "id": "node/8433197873"
      },
      "geometry": {
        "type": "Point",
        "coordinates": [
          -43.4816552,
          -4.7913678
        ]
      }
    },
    {
      "type": "Feature",
      "id": "node/8433209137",
      "properties": {
        "timestamp": "2021-02-17T22:51:27Z",
        "version": 1,
        "changeset": 99480606,
        "addr:city": "Caxias",
        "addr:postcode": "65609-899",
        "addr:street": "Estarada da Canabrava",
        "amenity": "school",
        "name": "EM Pedro Gaido",
        "id": "node/8433209137"
      },
      "geometry": {
        "type": "Point",
        "coordinates": [
          -43.0309979,
          -4.6730411
        ]
      }
    },
    {
      "type": "Feature",
      "id": "node/8433214000",
      "properties": {
        "timestamp": "2021-02-17T23:00:59Z",
        "version": 1,
        "changeset": 99480855,
        "addr:city": "Caxias",
        "addr:postcode": "65609-899",
        "amenity": "school",
        "name": "UE Mul Nilton Nogueira",
        "id": "node/8433214000"
      },
      "geometry": {
        "type": "Point",
        "coordinates": [
          -43.5146735,
          -4.8208316
        ]
      }
    },
    {
      "type": "Feature",
      "id": "node/8433219586",
      "properties": {
        "timestamp": "2021-02-17T23:00:08Z",
        "version": 1,
        "changeset": 99480842,
        "amenity": "school",
        "name": "Unidade Integrada Municipal Coelho Neto",
        "id": "node/8433219586"
      },
      "geometry": {
        "type": "Point",
        "coordinates": [
          -43.3499003,
          -4.8534306
        ]
      }
    },
    {
      "type": "Feature",
      "id": "node/8433221823",
      "properties": {
        "timestamp": "2021-02-17T22:47:50Z",
        "version": 1,
        "changeset": 99480508,
        "addr:city": "Caxias",
        "addr:postcode": "65609-899",
        "amenity": "school",
        "name": "Ue M Cristo E Vida",
        "id": "node/8433221823"
      },
      "geometry": {
        "type": "Point",
        "coordinates": [
          -43.3837243,
          -4.7860926
        ]
      }
    },
    {
      "type": "Feature",
      "id": "node/8433224764",
      "properties": {
        "timestamp": "2021-02-17T22:50:34Z",
        "version": 1,
        "changeset": 99480575,
        "addr:city": "Caxias",
        "addr:postcode": "65609-899",
        "amenity": "school",
        "name": "EM Roseana Sarney",
        "id": "node/8433224764"
      },
      "geometry": {
        "type": "Point",
        "coordinates": [
          -43.4502738,
          -5.1508976
        ]
      }
    },
    {
      "type": "Feature",
      "id": "node/8433226348",
      "properties": {
        "timestamp": "2021-02-17T23:30:38Z",
        "version": 1,
        "changeset": 99481457,
        "addr:city": "Caxias",
        "addr:postcode": "65600-010",
        "amenity": "school",
        "name": "UEM Maria Alice Cavalcante",
        "id": "node/8433226348"
      },
      "geometry": {
        "type": "Point",
        "coordinates": [
          -43.431774,
          -5.0543402
        ]
      }
    },
    {
      "type": "Feature",
      "id": "node/8433232304",
      "properties": {
        "timestamp": "2021-02-17T22:52:18Z",
        "version": 1,
        "changeset": 99480628,
        "addr:city": "Caxias",
        "addr:postcode": "65609-899",
        "amenity": "school",
        "name": "UI Mul Sinha Castelo",
        "id": "node/8433232304"
      },
      "geometry": {
        "type": "Point",
        "coordinates": [
          -43.0995021,
          -4.8770054
        ]
      }
    },
    {
      "type": "Feature",
      "id": "node/8433266945",
      "properties": {
        "timestamp": "2021-02-17T23:35:49Z",
        "version": 1,
        "changeset": 99481540,
        "addr:city": "Caxias",
        "addr:housenumber": "3067",
        "addr:postcode": "65600-440",
        "addr:street": "Rua Saturnino Belo",
        "addr:suburb": "São Francisco",
        "amenity": "school",
        "name": "Escola Comunitaria Sebastiana Costa",
        "id": "node/8433266945"
      },
      "geometry": {
        "type": "Point",
        "coordinates": [
          -43.3473659,
          -4.8523762
        ]
      }
    },
    {
      "type": "Feature",
      "id": "node/8433279672",
      "properties": {
        "timestamp": "2021-02-17T23:26:16Z",
        "version": 1,
        "changeset": 99481377,
        "addr:city": "Caxias",
        "addr:postcode": "65609-899",
        "amenity": "school",
        "name": "UE Mul Jose Pereira Das Neves",
        "id": "node/8433279672"
      },
      "geometry": {
        "type": "Point",
        "coordinates": [
          -43.2454676,
          -5.0219403
        ]
      }
    },
    {
      "type": "Feature",
      "id": "node/8433284628",
      "properties": {
        "timestamp": "2021-02-17T23:53:55Z",
        "version": 1,
        "changeset": 99481856,
        "addr:city": "Caxias",
        "addr:postcode": "65608-160",
        "addr:street": "Rua São Pedro",
        "addr:suburb": "Centro",
        "amenity": "school",
        "name": "UI Mul Paulo Marinho",
        "phone": "+55 99 3521 6248",
        "id": "node/8433284628"
      },
      "geometry": {
        "type": "Point",
        "coordinates": [
          -43.3678963,
          -4.8634021
        ]
      }
    },
    {
      "type": "Feature",
      "id": "node/8433300734",
      "properties": {
        "timestamp": "2021-02-17T23:38:17Z",
        "version": 1,
        "changeset": 99481584,
        "addr:city": "Caxias",
        "addr:postcode": "65609-899",
        "amenity": "school",
        "name": "UEM Maria Medeiros",
        "phone": "+55 99 3521 2588",
        "id": "node/8433300734"
      },
      "geometry": {
        "type": "Point",
        "coordinates": [
          -42.9874557,
          -4.7971811
        ]
      }
    },
    {
      "type": "Feature",
      "id": "node/8433302366",
      "properties": {
        "timestamp": "2021-02-17T23:39:41Z",
        "version": 1,
        "changeset": 99481624,
        "addr:city": "Caxias",
        "addr:housenumber": "829",
        "addr:postcode": "65606-290",
        "addr:street": "Rua Espírito Santo",
        "addr:suburb": "Cangalheiro",
        "amenity": "school",
        "name": "Escola Comunitaria Marilene Medeiros",
        "id": "node/8433302366"
      },
      "geometry": {
        "type": "Point",
        "coordinates": [
          -43.3564417,
          -4.8727168
        ]
      }
    },
    {
      "type": "Feature",
      "id": "node/8433303734",
      "properties": {
        "timestamp": "2021-02-17T23:45:02Z",
        "version": 1,
        "changeset": 99481712,
        "addr:city": "Caxias",
        "addr:postcode": "65602-240",
        "amenity": "school",
        "name": "EM Valdeci Reis",
        "id": "node/8433303734"
      },
      "geometry": {
        "type": "Point",
        "coordinates": [
          -43.0691328,
          -4.6089069
        ]
      }
    },
    {
      "type": "Feature",
      "id": "node/8433306068",
      "properties": {
        "timestamp": "2021-02-17T23:44:18Z",
        "version": 1,
        "changeset": 99481702,
        "addr:city": "Caxias",
        "addr:postcode": "65609-899",
        "amenity": "school",
        "name": "UIM Flora Alves De Andrade",
        "id": "node/8433306068"
      },
      "geometry": {
        "type": "Point",
        "coordinates": [
          -43.4167464,
          -5.0670695
        ]
      }
    },
    {
      "type": "Feature",
      "id": "node/8433307794",
      "properties": {
        "timestamp": "2021-02-17T23:32:18Z",
        "version": 1,
        "changeset": 99481483,
        "addr:city": "Caxias",
        "addr:postcode": "65606-535",
        "addr:street": "Beco da Usina",
        "amenity": "school",
        "name": "UEM Lourdes Feitosa",
        "id": "node/8433307794"
      },
      "geometry": {
        "type": "Point",
        "coordinates": [
          -43.3603685,
          -4.8726528
        ]
      }
    },
    {
      "type": "Feature",
      "id": "node/8433325522",
      "properties": {
        "timestamp": "2021-02-17T23:46:05Z",
        "version": 1,
        "changeset": 99481734,
        "addr:city": "Caxias",
        "addr:postcode": "65609-899",
        "amenity": "school",
        "name": "Centro de Educaçao Infantil Engenho D'agua",
        "id": "node/8433325522"
      },
      "geometry": {
        "type": "Point",
        "coordinates": [
          -43.0940269,
          -4.8763703
        ]
      }
    },
    {
      "type": "Feature",
      "id": "node/8433333918",
      "properties": {
        "timestamp": "2021-02-17T23:52:35Z",
        "version": 1,
        "changeset": 99481832,
        "addr:city": "Caxias",
        "addr:postcode": "65606-730",
        "addr:street": "Avenida Volta Redonda",
        "addr:suburb": "Volta Redonda",
        "amenity": "school",
        "name": "Unidade Integrada Municipal Antonio Edson",
        "id": "node/8433333918"
      },
      "geometry": {
        "type": "Point",
        "coordinates": [
          -43.351304,
          -4.8814178
        ]
      }
    },
    {
      "type": "Feature",
      "id": "node/8433338968",
      "properties": {
        "timestamp": "2021-02-17T23:56:47Z",
        "version": 1,
        "changeset": 99481913,
        "addr:city": "Caxias",
        "addr:postcode": "65608-010",
        "amenity": "school",
        "name": "UE São José",
        "id": "node/8433338968"
      },
      "geometry": {
        "type": "Point",
        "coordinates": [
          -43.2815896,
          -4.9148674
        ]
      }
    },
    {
      "type": "Feature",
      "id": "node/8434364528",
      "properties": {
        "timestamp": "2021-02-18T09:45:04Z",
        "version": 1,
        "changeset": 99511213,
        "addr:city": "Caxias",
        "addr:postcode": "65608-010",
        "amenity": "school",
        "name": "UE Municipal Araim",
        "id": "node/8434364528"
      },
      "geometry": {
        "type": "Point",
        "coordinates": [
          -43.5610838,
          -4.8803703
        ]
      }
    },
    {
      "type": "Feature",
      "id": "node/8434370565",
      "properties": {
        "timestamp": "2021-02-18T19:05:19Z",
        "version": 2,
        "changeset": 99544161,
        "addr:city": "Caxias",
        "addr:postcode": "65602-000",
        "addr:street": "Avenida Vila Arias",
        "addr:suburb": "Seriema",
        "amenity": "school",
        "name": "Centro De Educação Infantil Vila Arias",
        "id": "node/8434370565"
      },
      "geometry": {
        "type": "Point",
        "coordinates": [
          -43.3604139,
          -4.8444846
        ]
      }
    },
    {
      "type": "Feature",
      "id": "node/8434370567",
      "properties": {
        "timestamp": "2021-02-18T09:47:26Z",
        "version": 1,
        "changeset": 99511404,
        "addr:city": "Caxias",
        "addr:postcode": "65609-899",
        "amenity": "school",
        "name": "UE Mul Benedito Elias",
        "id": "node/8434370567"
      },
      "geometry": {
        "type": "Point",
        "coordinates": [
          -43.3161895,
          -5.0872478
        ]
      }
    },
    {
      "type": "Feature",
      "id": "node/8434397310",
      "properties": {
        "timestamp": "2021-02-18T09:48:23Z",
        "version": 1,
        "changeset": 99511469,
        "addr:city": "Caxias",
        "addr:postcode": "65609-899",
        "amenity": "school",
        "name": "EM Rita dos Santos Queiroz",
        "id": "node/8434397310"
      },
      "geometry": {
        "type": "Point",
        "coordinates": [
          -43.5075068,
          -4.8811127
        ]
      }
    },
    {
      "type": "Feature",
      "id": "node/8434402929",
      "properties": {
        "timestamp": "2021-02-18T09:50:07Z",
        "version": 1,
        "changeset": 99511603,
        "addr:city": "Caxias",
        "addr:postcode": "65609-899",
        "amenity": "school",
        "name": "UE Mul João Rodrigues de Lima",
        "id": "node/8434402929"
      },
      "geometry": {
        "type": "Point",
        "coordinates": [
          -43.55924,
          -5.051047
        ]
      }
    },
    {
      "type": "Feature",
      "id": "node/8434406456",
      "properties": {
        "timestamp": "2021-02-18T09:51:06Z",
        "version": 1,
        "changeset": 99511682,
        "addr:city": "Caxias",
        "addr:postcode": "65609-899",
        "amenity": "school",
        "name": "UEM Vereador Fabio Gentil",
        "id": "node/8434406456"
      },
      "geometry": {
        "type": "Point",
        "coordinates": [
          -43.4175166,
          -4.8678591
        ]
      }
    },
    {
      "type": "Feature",
      "id": "node/8434409092",
      "properties": {
        "timestamp": "2021-02-18T10:00:19Z",
        "version": 1,
        "changeset": 99512373,
        "addr:city": "Caxias",
        "addr:postcode": "65606-010",
        "addr:street": "Rua Nova",
        "addr:suburb": "Itapecuruzinho",
        "amenity": "school",
        "name": "Unidade Integrada Municipal Marly Sarney Costa",
        "id": "node/8434409092"
      },
      "geometry": {
        "type": "Point",
        "coordinates": [
          -43.3542351,
          -4.8998706
        ]
      }
    },
    {
      "type": "Feature",
      "id": "node/8434418719",
      "properties": {
        "timestamp": "2021-02-18T09:57:08Z",
        "version": 1,
        "changeset": 99512143,
        "addr:city": "Caxias",
        "addr:postcode": "65609-899",
        "amenity": "school",
        "name": "UEM Jardim",
        "id": "node/8434418719"
      },
      "geometry": {
        "type": "Point",
        "coordinates": [
          -42.9778491,
          -4.5952881
        ]
      }
    },
    {
      "type": "Feature",
      "id": "node/8434420981",
      "properties": {
        "timestamp": "2021-02-18T10:06:33Z",
        "version": 1,
        "changeset": 99512837,
        "addr:city": "Caxias",
        "addr:housenumber": "3145",
        "addr:postcode": "65600-450",
        "addr:street": "Rua Aluísio Lobo",
        "addr:suburb": "São Francisco",
        "amenity": "school",
        "name": "EC Nossa Senhora das Graças",
        "id": "node/8434420981"
      },
      "geometry": {
        "type": "Point",
        "coordinates": [
          -43.3476307,
          -4.8508715
        ]
      }
    },
    {
      "type": "Feature",
      "id": "node/8434450039",
      "properties": {
        "timestamp": "2021-02-18T10:08:12Z",
        "version": 1,
        "changeset": 99512971,
        "addr:city": "Caxias",
        "addr:postcode": "65605-305",
        "addr:street": "Rua Gonçalves Dias",
        "amenity": "school",
        "name": "Escola Raimundo Costa Sobrinho",
        "phone": "+55 99 3521 4445",
        "id": "node/8434450039"
      },
      "geometry": {
        "type": "Point",
        "coordinates": [
          -43.3455426,
          -4.8727929
        ]
      }
    },
    {
      "type": "Feature",
      "id": "node/8434474240",
      "properties": {
        "timestamp": "2021-02-18T10:16:16Z",
        "version": 1,
        "changeset": 99513639,
        "addr:city": "Caxias",
        "addr:postcode": "65606-530",
        "addr:street": "Rua Senador Clodomir Cardoso",
        "addr:suburb": "Cangalheiro",
        "amenity": "school",
        "name": "Centro de Educação Infantil Lucrecia Carneiro",
        "id": "node/8434474240"
      },
      "geometry": {
        "type": "Point",
        "coordinates": [
          -43.3597572,
          -4.8710827
        ]
      }
    },
    {
      "type": "Feature",
      "id": "node/8434487073",
      "properties": {
        "timestamp": "2021-02-18T10:20:47Z",
        "version": 1,
        "changeset": 99513983,
        "addr:city": "Caxias",
        "addr:postcode": "65606-250",
        "addr:street": "Rua do Fio",
        "addr:suburb": "Cangalheiro",
        "amenity": "school",
        "name": "Unidade Integrada Doutor Achiles Cruz",
        "phone": "+55 99 3521 6057",
        "id": "node/8434487073"
      },
      "geometry": {
        "type": "Point",
        "coordinates": [
          -43.3584866,
          -4.8700671
        ]
      }
    },
    {
      "type": "Feature",
      "id": "node/8434488826",
      "properties": {
        "timestamp": "2021-02-18T10:19:19Z",
        "version": 1,
        "changeset": 99513858,
        "addr:city": "Caxias",
        "addr:postcode": "65609-899",
        "amenity": "school",
        "name": "UIM Coronel Gervasio Costa",
        "id": "node/8434488826"
      },
      "geometry": {
        "type": "Point",
        "coordinates": [
          -42.9879827,
          -4.697832
        ]
      }
    },
    {
      "type": "Feature",
      "id": "node/8434494641",
      "properties": {
        "timestamp": "2021-02-18T10:21:43Z",
        "version": 1,
        "changeset": 99514067,
        "addr:city": "Caxias",
        "addr:postcode": "65608-010",
        "amenity": "school",
        "name": "UE Mul Mario Assuncao",
        "phone": "+55 99 9 8824 2742",
        "id": "node/8434494641"
      },
      "geometry": {
        "type": "Point",
        "coordinates": [
          -43.3423336,
          -5.0666039
        ]
      }
    },
    {
      "type": "Feature",
      "id": "node/8434496150",
      "properties": {
        "timestamp": "2021-02-18T10:23:48Z",
        "version": 1,
        "changeset": 99514225,
        "addr:city": "Caxias",
        "addr:housenumber": "508",
        "addr:postcode": "65608-050",
        "addr:street": "Rua Siqueira Campos",
        "addr:suburb": "Centro",
        "amenity": "school",
        "name": "Colegio Santo Antonio",
        "phone": "+55 99 3521 5442",
        "id": "node/8434496150"
      },
      "geometry": {
        "type": "Point",
        "coordinates": [
          -43.3629309,
          -4.8584234
        ]
      }
    },
    {
      "type": "Feature",
      "id": "node/8434503492",
      "properties": {
        "timestamp": "2021-02-18T10:24:31Z",
        "version": 1,
        "changeset": 99514283,
        "addr:city": "Caxias",
        "addr:postcode": "65602-080",
        "amenity": "school",
        "name": "UEM Aniceto Cruz",
        "id": "node/8434503492"
      },
      "geometry": {
        "type": "Point",
        "coordinates": [
          -43.1669395,
          -4.7761269
        ]
      }
    },
    {
      "type": "Feature",
      "id": "node/8434820773",
      "properties": {
        "timestamp": "2021-02-18T12:37:01Z",
        "version": 1,
        "changeset": 99524621,
        "addr:city": "Caxias",
        "addr:postcode": "65609-899",
        "amenity": "school",
        "name": "Unidade Escola Municipal Santa Rita",
        "id": "node/8434820773"
      },
      "geometry": {
        "type": "Point",
        "coordinates": [
          -43.8099469,
          -5.2894244
        ]
      }
    },
    {
      "type": "Feature",
      "id": "node/8434829842",
      "properties": {
        "timestamp": "2021-02-18T12:31:39Z",
        "version": 1,
        "changeset": 99524243,
        "addr:city": "Caxias",
        "addr:postcode": "65609-270",
        "addr:street": "Rua Rodrigo Otávio",
        "addr:suburb": "Ponte",
        "amenity": "school",
        "name": "Unidade Integrada Deputado Alexandre Costa",
        "phone": "+55 99 3421 0324",
        "id": "node/8434829842"
      },
      "geometry": {
        "type": "Point",
        "coordinates": [
          -43.3665524,
          -4.86925
        ]
      }
    },
    {
      "type": "Feature",
      "id": "node/8434838612",
      "properties": {
        "timestamp": "2021-02-18T12:36:18Z",
        "version": 1,
        "changeset": 99524577,
        "addr:city": "Caxias",
        "addr:postcode": "65600-010",
        "amenity": "school",
        "name": "UE Mul São Roque",
        "phone": "+55 99 3521 7088",
        "id": "node/8434838612"
      },
      "geometry": {
        "type": "Point",
        "coordinates": [
          -43.3964619,
          -5.2047421
        ]
      }
    },
    {
      "type": "Feature",
      "id": "node/8434844247",
      "properties": {
        "timestamp": "2021-02-18T12:32:37Z",
        "version": 1,
        "changeset": 99524308,
        "addr:city": "Caxias",
        "addr:postcode": "65609-899",
        "amenity": "school",
        "name": "Unidade Integrada Municipal Gentil Frazão",
        "id": "node/8434844247"
      },
      "geometry": {
        "type": "Point",
        "coordinates": [
          -43.6520009,
          -4.7575942
        ]
      }
    },
    {
      "type": "Feature",
      "id": "node/8434845355",
      "properties": {
        "timestamp": "2021-02-18T12:40:48Z",
        "version": 1,
        "changeset": 99524888,
        "addr:city": "Caxias",
        "addr:housenumber": "527",
        "addr:postcode": "65600-160",
        "addr:street": "Avenida Central",
        "addr:suburb": "Centro",
        "amenity": "school",
        "name": "Unidade Integrada Presidente John Kennedy",
        "phone": "+55 99 3521 6585",
        "id": "node/8434845355"
      },
      "geometry": {
        "type": "Point",
        "coordinates": [
          -43.3515189,
          -4.8574684
        ]
      }
    },
    {
      "type": "Feature",
      "id": "node/8434847909",
      "properties": {
        "timestamp": "2021-02-18T12:56:55Z",
        "version": 1,
        "changeset": 99525997,
        "addr:city": "Caxias",
        "addr:housenumber": "230",
        "addr:postcode": "65607-305",
        "addr:street": "Rua do Caldeirão",
        "addr:suburb": "Caldeirões",
        "amenity": "school",
        "name": "UI Mul Helio de Sousa Queiroz",
        "id": "node/8434847909"
      },
      "geometry": {
        "type": "Point",
        "coordinates": [
          -43.3705675,
          -4.8576332
        ]
      }
    },
    {
      "type": "Feature",
      "id": "node/8434853083",
      "properties": {
        "timestamp": "2021-02-18T12:35:06Z",
        "version": 1,
        "changeset": 99524487,
        "addr:city": "Caxias",
        "addr:postcode": "65604-890",
        "addr:street": "Avenida Alvorada",
        "addr:suburb": "Mutirão",
        "amenity": "school",
        "name": "Unidade Integrada Municipal Guiomar Cruz Assunção",
        "id": "node/8434853083"
      },
      "geometry": {
        "type": "Point",
        "coordinates": [
          -43.3354628,
          -4.8597101
        ]
      }
    },
    {
      "type": "Feature",
      "id": "node/8434854618",
      "properties": {
        "timestamp": "2021-02-18T12:33:46Z",
        "version": 1,
        "changeset": 99524404,
        "addr:city": "Caxias",
        "addr:postcode": "65600-010",
        "amenity": "school",
        "name": "UE Mul São Raimundo",
        "id": "node/8434854618"
      },
      "geometry": {
        "type": "Point",
        "coordinates": [
          -43.0826383,
          -4.4941295
        ]
      }
    },
    {
      "type": "Feature",
      "id": "node/8434854926",
      "properties": {
        "timestamp": "2021-02-18T12:41:33Z",
        "version": 1,
        "changeset": 99524944,
        "addr:city": "Caxias",
        "addr:postcode": "65609-899",
        "amenity": "school",
        "name": "UEM São Pedro",
        "id": "node/8434854926"
      },
      "geometry": {
        "type": "Point",
        "coordinates": [
          -43.475578,
          -5.0937067
        ]
      }
    },
    {
      "type": "Feature",
      "id": "node/8434859351",
      "properties": {
        "timestamp": "2021-02-18T12:43:31Z",
        "version": 1,
        "changeset": 99525063,
        "addr:city": "Caxias",
        "addr:postcode": "65609-899",
        "amenity": "school",
        "name": "EM Adelino Nonato Lima",
        "id": "node/8434859351"
      },
      "geometry": {
        "type": "Point",
        "coordinates": [
          -43.2943731,
          -4.6971646
        ]
      }
    },
    {
      "type": "Feature",
      "id": "node/8434862036",
      "properties": {
        "timestamp": "2021-02-18T12:37:54Z",
        "version": 1,
        "changeset": 99524682,
        "addr:city": "Caxias",
        "addr:postcode": "65609-899",
        "addr:street": "Estrada da Canabrava",
        "amenity": "school",
        "name": "UEM  Eduvirgem Gonçalves Costa",
        "id": "node/8434862036"
      },
      "geometry": {
        "type": "Point",
        "coordinates": [
          -43.0412109,
          -4.7255672
        ]
      }
    },
    {
      "type": "Feature",
      "id": "node/8434864985",
      "properties": {
        "timestamp": "2021-02-18T12:49:41Z",
        "version": 1,
        "changeset": 99525524,
        "addr:city": "Caxias",
        "addr:housenumber": "1899",
        "addr:postcode": "65607-440",
        "addr:street": "Rua São José",
        "addr:suburb": "Trezidela",
        "amenity": "school",
        "name": "Centro de Ensino Dias Carneiro",
        "phone": "+55 99 3521 4820",
        "id": "node/8434864985"
      },
      "geometry": {
        "type": "Point",
        "coordinates": [
          -43.3711797,
          -4.8666227
        ]
      }
    },
    {
      "type": "Feature",
      "id": "node/8434872488",
      "properties": {
        "timestamp": "2021-02-18T12:52:22Z",
        "version": 1,
        "changeset": 99525688,
        "addr:city": "Caxias",
        "addr:postcode": "65609-899",
        "amenity": "school",
        "name": "UIM Renato Vila Nova",
        "phone": "+55 99 3521 1159",
        "id": "node/8434872488"
      },
      "geometry": {
        "type": "Point",
        "coordinates": [
          -43.2777343,
          -5.089649
        ]
      }
    },
    {
      "type": "Feature",
      "id": "node/8434886624",
      "properties": {
        "timestamp": "2021-02-18T12:53:13Z",
        "version": 1,
        "changeset": 99525758,
        "addr:city": "Caxias",
        "addr:postcode": "65609-899",
        "amenity": "school",
        "name": "UEM José Pinheiro",
        "id": "node/8434886624"
      },
      "geometry": {
        "type": "Point",
        "coordinates": [
          -43.2918297,
          -5.020824
        ]
      }
    },
    {
      "type": "Feature",
      "id": "node/8434887912",
      "properties": {
        "timestamp": "2021-02-18T12:54:01Z",
        "version": 1,
        "changeset": 99525812,
        "addr:city": "Caxias",
        "addr:postcode": "65609-899",
        "amenity": "school",
        "name": "UIM Alderico Machado",
        "id": "node/8434887912"
      },
      "geometry": {
        "type": "Point",
        "coordinates": [
          -42.9141895,
          -4.4299177
        ]
      }
    },
    {
      "type": "Feature",
      "id": "node/8434899731",
      "properties": {
        "timestamp": "2021-02-18T12:58:12Z",
        "version": 1,
        "changeset": 99526069,
        "addr:city": "Caxias",
        "addr:postcode": "65609-899",
        "amenity": "school",
        "name": "UE Mul Benedito Pereira de Almeida",
        "phone": "+55 99 3521 2588",
        "id": "node/8434899731"
      },
      "geometry": {
        "type": "Point",
        "coordinates": [
          -43.4148655,
          -5.1884018
        ]
      }
    },
    {
      "type": "Feature",
      "id": "node/8435288552",
      "properties": {
        "timestamp": "2021-02-18T15:53:36Z",
        "version": 1,
        "changeset": 99535375,
        "addr:city": "Caxias",
        "addr:postcode": "65609-899",
        "amenity": "school",
        "name": "UE São José",
        "id": "node/8435288552"
      },
      "geometry": {
        "type": "Point",
        "coordinates": [
          -43.4816661,
          -5.0045067
        ]
      }
    },
    {
      "type": "Feature",
      "id": "node/8435295765",
      "properties": {
        "timestamp": "2021-02-18T16:02:46Z",
        "version": 1,
        "changeset": 99535887,
        "addr:city": "Caxias",
        "addr:postcode": "65609-899",
        "amenity": "school",
        "name": "UEM Fause Simão",
        "id": "node/8435295765"
      },
      "geometry": {
        "type": "Point",
        "coordinates": [
          -43.0111809,
          -4.6809782
        ]
      }
    },
    {
      "type": "Feature",
      "id": "node/8435296814",
      "properties": {
        "timestamp": "2021-02-18T16:00:40Z",
        "version": 1,
        "changeset": 99535794,
        "addr:city": "Caxias",
        "addr:postcode": "65608-010",
        "amenity": "school",
        "name": "Ue Mul São Francisco",
        "phone": "+55 99 3521 5526",
        "id": "node/8435296814"
      },
      "geometry": {
        "type": "Point",
        "coordinates": [
          -43.2315208,
          -4.9780032
        ]
      }
    },
    {
      "type": "Feature",
      "id": "node/8435300270",
      "properties": {
        "timestamp": "2021-02-18T16:08:13Z",
        "version": 1,
        "changeset": 99536141,
        "addr:city": "Caxias",
        "addr:postcode": "65609-899",
        "amenity": "school",
        "name": "EM Santa Joana",
        "id": "node/8435300270"
      },
      "geometry": {
        "type": "Point",
        "coordinates": [
          -43.4811945,
          -4.9739875
        ]
      }
    },
    {
      "type": "Feature",
      "id": "node/8435304474",
      "properties": {
        "timestamp": "2021-02-18T15:52:32Z",
        "version": 1,
        "changeset": 99535316,
        "addr:city": "Caxias",
        "addr:housenumber": "1466",
        "addr:postcode": "65609-460",
        "addr:street": "Travessa do Parnazio",
        "addr:suburb": "Ponte",
        "amenity": "school",
        "name": "Fundação José Castro",
        "id": "node/8435304474"
      },
      "geometry": {
        "type": "Point",
        "coordinates": [
          -43.367785,
          -4.8795523
        ]
      }
    },
    {
      "type": "Feature",
      "id": "node/8435312287",
      "properties": {
        "timestamp": "2021-02-18T15:54:40Z",
        "version": 1,
        "changeset": 99535443,
        "addr:city": "Caxias",
        "addr:postcode": "65609-899",
        "amenity": "school",
        "name": "UEM José Dias de Moura",
        "id": "node/8435312287"
      },
      "geometry": {
        "type": "Point",
        "coordinates": [
          -43.1922515,
          -4.7448801
        ]
      }
    },
    {
      "type": "Feature",
      "id": "node/8435318840",
      "properties": {
        "timestamp": "2021-02-18T15:59:35Z",
        "version": 1,
        "changeset": 99535754,
        "addr:city": "Caxias",
        "addr:housenumber": "03",
        "addr:postcode": "65602-000",
        "addr:suburb": "centro",
        "amenity": "school",
        "name": "Colegio São José",
        "phone": "+55 99 3521 3944",
        "id": "node/8435318840"
      },
      "geometry": {
        "type": "Point",
        "coordinates": [
          -43.362992,
          -4.8626611
        ]
      }
    },
    {
      "type": "Feature",
      "id": "node/8435320042",
      "properties": {
        "timestamp": "2021-02-18T16:07:27Z",
        "version": 1,
        "changeset": 99536107,
        "addr:city": "Caxias",
        "addr:postcode": "65609-899",
        "amenity": "school",
        "name": "Em Maria Dalva Fernandes Reis",
        "id": "node/8435320042"
      },
      "geometry": {
        "type": "Point",
        "coordinates": [
          -43.0568878,
          -4.8747558
        ]
      }
    },
    {
      "type": "Feature",
      "id": "node/8435322362",
      "properties": {
        "timestamp": "2021-02-18T16:04:05Z",
        "version": 1,
        "changeset": 99535942,
        "addr:city": "Caxias",
        "addr:postcode": "65602-840",
        "addr:street": "Rua Santa Maria",
        "addr:suburb": "Centro",
        "amenity": "school",
        "name": "UIM Santa Catarina Labore",
        "phone": "+55 99 3521 6090",
        "id": "node/8435322362"
      },
      "geometry": {
        "type": "Point",
        "coordinates": [
          -43.3450056,
          -4.8559006
        ]
      }
    },
    {
      "type": "Feature",
      "id": "node/8435329058",
      "properties": {
        "timestamp": "2021-02-18T16:09:37Z",
        "version": 1,
        "changeset": 99536214,
        "addr:city": "Caxias",
        "addr:postcode": "65609-899",
        "amenity": "school",
        "name": "Centro de Educação Infantil Nazaré do Bruno",
        "phone": "+55 99 3422 9108",
        "id": "node/8435329058"
      },
      "geometry": {
        "type": "Point",
        "coordinates": [
          -42.9999897,
          -4.8382577
        ]
      }
    },
    {
      "type": "Feature",
      "id": "node/8435337688",
      "properties": {
        "timestamp": "2021-02-18T16:31:26Z",
        "version": 1,
        "changeset": 99537229,
        "addr:city": "Caxias",
        "addr:postcode": "65609-899",
        "amenity": "school",
        "name": "UEM Pai João Lobo",
        "id": "node/8435337688"
      },
      "geometry": {
        "type": "Point",
        "coordinates": [
          -43.4779388,
          -4.8412536
        ]
      }
    },
    {
      "type": "Feature",
      "id": "node/8435338360",
      "properties": {
        "timestamp": "2021-02-18T16:22:11Z",
        "version": 1,
        "changeset": 99536818,
        "addr:city": "Caxias",
        "addr:postcode": "65602-000",
        "addr:suburb": "Brejinho",
        "amenity": "school",
        "name": "Unidade Integrada Municipal Governador Pedro Neiva de Santana",
        "id": "node/8435338360"
      },
      "geometry": {
        "type": "Point",
        "coordinates": [
          -43.1324892,
          -4.9541317
        ]
      }
    },
    {
      "type": "Feature",
      "id": "node/8435345458",
      "properties": {
        "timestamp": "2021-02-18T16:11:24Z",
        "version": 1,
        "changeset": 99536303,
        "addr:city": "Caxias",
        "addr:housenumber": "232",
        "addr:postcode": "65606-620",
        "addr:street": "Rua Riachuelo",
        "addr:suburb": "Centro",
        "amenity": "school",
        "name": "Escola Adventista de Caxias",
        "phone": "+55 99 3521 2188",
        "religion": "christian",
        "id": "node/8435345458"
      },
      "geometry": {
        "type": "Point",
        "coordinates": [
          -43.3613772,
          -4.865207
        ]
      }
    },
    {
      "type": "Feature",
      "id": "node/8435351010",
      "properties": {
        "timestamp": "2021-02-18T16:15:36Z",
        "version": 1,
        "changeset": 99536498,
        "addr:city": "Caxias",
        "addr:postcode": "65609-899",
        "amenity": "school",
        "name": "EM São Francisco",
        "id": "node/8435351010"
      },
      "geometry": {
        "type": "Point",
        "coordinates": [
          -43.7535186,
          -4.7608114
        ]
      }
    },
    {
      "type": "Feature",
      "id": "node/8435361486",
      "properties": {
        "timestamp": "2021-02-18T16:14:39Z",
        "version": 1,
        "changeset": 99536453,
        "addr:city": "Caxias",
        "addr:postcode": "65609-899",
        "amenity": "school",
        "name": "UE Mul Dom Luis Marelim",
        "id": "node/8435361486"
      },
      "geometry": {
        "type": "Point",
        "coordinates": [
          -43.164035,
          -4.9363416
        ]
      }
    },
    {
      "type": "Feature",
      "id": "node/8435371666",
      "properties": {
        "timestamp": "2021-02-18T16:16:28Z",
        "version": 1,
        "changeset": 99536537,
        "addr:city": "Caxias",
        "addr:postcode": "65609-899",
        "amenity": "school",
        "name": "UEM Enedino Araujo",
        "id": "node/8435371666"
      },
      "geometry": {
        "type": "Point",
        "coordinates": [
          -43.0244129,
          -4.8396011
        ]
      }
    },
    {
      "type": "Feature",
      "id": "node/8435372654",
      "properties": {
        "timestamp": "2021-02-18T16:32:29Z",
        "version": 1,
        "changeset": 99537284,
        "addr:city": "Caxias",
        "addr:postcode": "65609-899",
        "amenity": "school",
        "name": "UEM São Francisco",
        "id": "node/8435372654"
      },
      "geometry": {
        "type": "Point",
        "coordinates": [
          -43.097853,
          -4.7487844
        ]
      }
    },
    {
      "type": "Feature",
      "id": "node/8435372920",
      "properties": {
        "timestamp": "2021-02-18T16:18:53Z",
        "version": 1,
        "changeset": 99536661,
        "addr:city": "Caxias",
        "addr:postcode": "65604-020",
        "addr:street": "Rua Benedito Leite",
        "addr:suburb": "Centro",
        "amenity": "school",
        "name": "Escola Castro Alves e Ji Moranguinho",
        "id": "node/8435372920"
      },
      "geometry": {
        "type": "Point",
        "coordinates": [
          -43.3573247,
          -4.8614637
        ]
      }
    },
    {
      "type": "Feature",
      "id": "node/8435386673",
      "properties": {
        "timestamp": "2021-02-18T17:00:38Z",
        "version": 1,
        "changeset": 99538685,
        "addr:city": "Caxias",
        "addr:postcode": "65609-899",
        "amenity": "school",
        "name": "EM São João",
        "id": "node/8435386673"
      },
      "geometry": {
        "type": "Point",
        "coordinates": [
          -43.0328491,
          -4.7855591
        ]
      }
    },
    {
      "type": "Feature",
      "id": "node/8435387432",
      "properties": {
        "timestamp": "2021-02-18T16:30:21Z",
        "version": 1,
        "changeset": 99537164,
        "addr:city": "Caxias",
        "addr:postcode": "65609-899",
        "amenity": "school",
        "name": "UE Mul Santa Terezinha",
        "id": "node/8435387432"
      },
      "geometry": {
        "type": "Point",
        "coordinates": [
          -43.4931562,
          -4.9232411
        ]
      }
    },
    {
      "type": "Feature",
      "id": "node/8435396329",
      "properties": {
        "timestamp": "2021-02-18T16:33:25Z",
        "version": 1,
        "changeset": 99537336,
        "addr:city": "Caxias",
        "addr:postcode": "65609-899",
        "amenity": "school",
        "name": "UEM Jeronimo Castro",
        "id": "node/8435396329"
      },
      "geometry": {
        "type": "Point",
        "coordinates": [
          -43.2797206,
          -4.8898381
        ]
      }
    },
    {
      "type": "Feature",
      "id": "node/8435440722",
      "properties": {
        "timestamp": "2021-02-18T17:01:47Z",
        "version": 1,
        "changeset": 99538734,
        "addr:city": "Caxias",
        "addr:postcode": "65609-899",
        "amenity": "school",
        "name": "Em São Jeronimo",
        "phone": "+55 99 3521 0585",
        "id": "node/8435440722"
      },
      "geometry": {
        "type": "Point",
        "coordinates": [
          -43.8120586,
          -4.7696802
        ]
      }
    },
    {
      "type": "Feature",
      "id": "node/8435579497",
      "properties": {
        "timestamp": "2021-02-18T18:08:42Z",
        "version": 1,
        "changeset": 99541870,
        "addr:city": "Caxias",
        "addr:postcode": "65609-899",
        "amenity": "school",
        "name": "UEM Marechal Deodoro",
        "id": "node/8435579497"
      },
      "geometry": {
        "type": "Point",
        "coordinates": [
          -43.3262713,
          -4.8226185
        ]
      }
    },
    {
      "type": "Feature",
      "id": "node/8435601272",
      "properties": {
        "timestamp": "2023-01-30T00:41:55Z",
        "version": 2,
        "changeset": 131859363,
        "addr:city": "Caxias",
        "addr:housenumber": "1428",
        "addr:postcode": "65600-280",
        "addr:street": "Rua Santa Luzia",
        "addr:suburb": "Castelo Branco",
        "amenity": "school",
        "name": "Escola Vitoria",
        "id": "node/8435601272"
      },
      "geometry": {
        "type": "Point",
        "coordinates": [
          -43.3557491,
          -4.8613083
        ]
      }
    },
    {
      "type": "Feature",
      "id": "node/8435606266",
      "properties": {
        "timestamp": "2021-02-18T18:11:44Z",
        "version": 2,
        "changeset": 99542026,
        "addr:city": "Caxias",
        "addr:housenumber": "662",
        "addr:postcode": "65602-420",
        "addr:street": "Rua Rio de Janeiro",
        "addr:suburb": "Sierema",
        "amenity": "school",
        "name": "Ceesp Profa Valquiria A F De Oliveira - Apae De Caxias",
        "phone": "+55 99 3421 3130",
        "id": "node/8435606266"
      },
      "geometry": {
        "type": "Point",
        "coordinates": [
          -43.3533735,
          -4.8502759
        ]
      }
    },
    {
      "type": "Feature",
      "id": "node/8435609277",
      "properties": {
        "timestamp": "2021-02-18T18:12:31Z",
        "version": 1,
        "changeset": 99542051,
        "addr:city": "Caxias",
        "addr:postcode": "65608-010",
        "amenity": "school",
        "name": "UEM Raimundo Nonato Amorim",
        "id": "node/8435609277"
      },
      "geometry": {
        "type": "Point",
        "coordinates": [
          -43.0757519,
          -4.8197999
        ]
      }
    },
    {
      "type": "Feature",
      "id": "node/8435610483",
      "properties": {
        "timestamp": "2021-02-18T18:07:54Z",
        "version": 1,
        "changeset": 99541820,
        "addr:city": "Caxias",
        "addr:postcode": "65603-060",
        "addr:street": "Rua Cinco",
        "addr:suburb": "Seriema",
        "amenity": "school",
        "name": "Educandario São Marcos",
        "phone": "+55 99 3421 7953",
        "id": "node/8435610483"
      },
      "geometry": {
        "type": "Point",
        "coordinates": [
          -43.3571403,
          -4.8498267
        ]
      }
    },
    {
      "type": "Feature",
      "id": "node/8435612172",
      "properties": {
        "timestamp": "2021-02-18T18:29:12Z",
        "version": 1,
        "changeset": 99542789,
        "addr:city": "Caxias",
        "addr:postcode": "65608-050",
        "addr:street": "Rua Siqueira Campos",
        "addr:suburb": "Centro",
        "amenity": "school",
        "name": "EC Cruzeiro Do Sul VI",
        "id": "node/8435612172"
      },
      "geometry": {
        "type": "Point",
        "coordinates": [
          -43.3627176,
          -4.8588362
        ]
      }
    },
    {
      "type": "Feature",
      "id": "node/8435612379",
      "properties": {
        "timestamp": "2021-02-18T18:32:14Z",
        "version": 1,
        "changeset": 99542916,
        "addr:city": "Caxias",
        "addr:housenumber": "1656",
        "addr:postcode": "65604-120",
        "addr:street": "Rua Bom Jesus dos Passos",
        "addr:suburb": "Castelo Branco",
        "amenity": "school",
        "name": "Unidade Integrada Professora Suely Reis",
        "id": "node/8435612379"
      },
      "geometry": {
        "type": "Point",
        "coordinates": [
          -43.3523341,
          -4.8615667
        ]
      }
    },
    {
      "type": "Feature",
      "id": "node/8435615662",
      "properties": {
        "timestamp": "2021-02-18T18:26:41Z",
        "version": 1,
        "changeset": 99542679,
        "addr:city": "Caxias",
        "addr:postcode": "65609-899",
        "amenity": "school",
        "name": "EM Cristino Cruz",
        "phone": "+55 99 3521 2588",
        "id": "node/8435615662"
      },
      "geometry": {
        "type": "Point",
        "coordinates": [
          -43.1168475,
          -4.8943069
        ]
      }
    },
    {
      "type": "Feature",
      "id": "node/8435619283",
      "properties": {
        "timestamp": "2021-02-18T18:14:28Z",
        "version": 1,
        "changeset": 99542128,
        "addr:city": "Caxias",
        "addr:postcode": "65602-310",
        "addr:street": "Avenida Santos Dumont",
        "amenity": "school",
        "name": "CEi Isabel Dolores Leao Brito",
        "id": "node/8435619283"
      },
      "geometry": {
        "type": "Point",
        "coordinates": [
          -43.3502862,
          -4.8443241
        ]
      }
    },
    {
      "type": "Feature",
      "id": "node/8435620693",
      "properties": {
        "timestamp": "2021-02-18T18:31:25Z",
        "version": 1,
        "changeset": 99542883,
        "addr:city": "Caxias",
        "addr:postcode": "65609-899",
        "amenity": "school",
        "name": "EM Severino Dias Carneiro",
        "id": "node/8435620693"
      },
      "geometry": {
        "type": "Point",
        "coordinates": [
          -43.0528983,
          -4.9027146
        ]
      }
    },
    {
      "type": "Feature",
      "id": "node/8435621418",
      "properties": {
        "timestamp": "2021-02-18T18:13:21Z",
        "version": 1,
        "changeset": 99542089,
        "addr:city": "Caxias",
        "addr:postcode": "65609-899",
        "amenity": "school",
        "name": "UEM Antônio Machado",
        "id": "node/8435621418"
      },
      "geometry": {
        "type": "Point",
        "coordinates": [
          -43.383849,
          -4.7040677
        ]
      }
    },
    {
      "type": "Feature",
      "id": "node/8435625082",
      "properties": {
        "timestamp": "2021-02-18T18:19:09Z",
        "version": 1,
        "changeset": 99542351,
        "addr:city": "Caxias",
        "addr:postcode": "65609-899",
        "amenity": "school",
        "name": "UEM Leocadio dos Santos",
        "id": "node/8435625082"
      },
      "geometry": {
        "type": "Point",
        "coordinates": [
          -43.4211421,
          -5.0105875
        ]
      }
    },
    {
      "type": "Feature",
      "id": "node/8435628900",
      "properties": {
        "timestamp": "2021-02-18T18:34:31Z",
        "version": 1,
        "changeset": 99543007,
        "addr:city": "Caxias",
        "addr:postcode": "65609-899",
        "amenity": "school",
        "name": "UEM Jacinto Leoncio Da Silva",
        "phone": "+55 99 3521 6329",
        "id": "node/8435628900"
      },
      "geometry": {
        "type": "Point",
        "coordinates": [
          -43.241604,
          -4.9442387
        ]
      }
    },
    {
      "type": "Feature",
      "id": "node/8435629523",
      "properties": {
        "timestamp": "2021-02-18T18:20:28Z",
        "version": 1,
        "changeset": 99542414,
        "addr:city": "Caxias",
        "addr:housenumber": "917",
        "addr:postcode": "65606-020",
        "addr:street": "Rua Aarão Reis",
        "addr:suburb": "Centro",
        "amenity": "school",
        "name": "Centro de Ensino Gonçalves Dias",
        "id": "node/8435629523"
      },
      "geometry": {
        "type": "Point",
        "coordinates": [
          -43.3583073,
          -4.8639248
        ]
      }
    },
    {
      "type": "Feature",
      "id": "node/8435637570",
      "properties": {
        "timestamp": "2021-02-18T18:23:21Z",
        "version": 1,
        "changeset": 99542528,
        "addr:city": "Caxias",
        "addr:postcode": "65609-899",
        "amenity": "school",
        "name": "UEM Emir Salazar Magalhães",
        "id": "node/8435637570"
      },
      "geometry": {
        "type": "Point",
        "coordinates": [
          -42.8845117,
          -4.5929381
        ]
      }
    },
    {
      "type": "Feature",
      "id": "node/8435638049",
      "properties": {
        "timestamp": "2021-02-18T18:32:48Z",
        "version": 1,
        "changeset": 99542937,
        "addr:city": "Caxias",
        "addr:postcode": "65602-000",
        "amenity": "school",
        "name": "Centro De Ensino Thales Ribeiro Goncalves - Anexo Ii - Brejinho",
        "id": "node/8435638049"
      },
      "geometry": {
        "type": "Point",
        "coordinates": [
          -43.1324355,
          -4.9540061
        ]
      }
    },
    {
      "type": "Feature",
      "id": "node/8435643461",
      "properties": {
        "timestamp": "2021-02-18T18:25:33Z",
        "version": 1,
        "changeset": 99542629,
        "addr:city": "Caxias",
        "addr:postcode": "65609-899",
        "amenity": "school",
        "name": "UEM Enedino Araujo",
        "id": "node/8435643461"
      },
      "geometry": {
        "type": "Point",
        "coordinates": [
          -42.9371339,
          -4.8206767
        ]
      }
    },
    {
      "type": "Feature",
      "id": "node/8435645408",
      "properties": {
        "timestamp": "2021-02-18T18:36:43Z",
        "version": 1,
        "changeset": 99543080,
        "addr:city": "Caxias",
        "addr:housenumber": "600",
        "addr:postcode": "65606-070",
        "addr:street": "Rua 1 de Agosto",
        "addr:suburb": "Centro",
        "amenity": "school",
        "name": "Unidade Integrada João Lisboa",
        "id": "node/8435645408"
      },
      "geometry": {
        "type": "Point",
        "coordinates": [
          -43.360853,
          -4.864737
        ]
      }
    },
    {
      "type": "Feature",
      "id": "node/8435648271",
      "properties": {
        "timestamp": "2021-02-18T18:30:34Z",
        "version": 1,
        "changeset": 99542852,
        "addr:city": "Caxias",
        "addr:postcode": "65609-899",
        "amenity": "school",
        "name": "UEM N°47",
        "id": "node/8435648271"
      },
      "geometry": {
        "type": "Point",
        "coordinates": [
          -43.0815813,
          -4.5320069
        ]
      }
    },
    {
      "type": "Feature",
      "id": "node/8435653383",
      "properties": {
        "timestamp": "2021-02-18T18:33:35Z",
        "version": 1,
        "changeset": 99542967,
        "addr:city": "Caxias",
        "addr:postcode": "65609-899",
        "amenity": "school",
        "name": "Em Raimundo Cosme",
        "id": "node/8435653383"
      },
      "geometry": {
        "type": "Point",
        "coordinates": [
          -42.9878532,
          -4.5382925
        ]
      }
    },
    {
      "type": "Feature",
      "id": "node/8435653506",
      "properties": {
        "timestamp": "2021-02-18T18:29:51Z",
        "version": 1,
        "changeset": 99542818,
        "addr:city": "Caxias",
        "addr:postcode": "65609-899",
        "amenity": "school",
        "name": "UEM Regina Medeiros",
        "id": "node/8435653506"
      },
      "geometry": {
        "type": "Point",
        "coordinates": [
          -43.4140227,
          -4.9224128
        ]
      }
    },
    {
      "type": "Feature",
      "id": "node/8435656669",
      "properties": {
        "timestamp": "2021-02-18T18:44:44Z",
        "version": 1,
        "changeset": 99543371,
        "addr:city": "Caxias",
        "addr:postcode": "65604-840",
        "addr:street": "Rua Vicente Paula",
        "addr:suburb": "Mutirão",
        "amenity": "school",
        "name": "Unidade Integrada Municipal Raimundo Nunes Da Silva",
        "phone": "+55\t99 3521 6539",
        "id": "node/8435656669"
      },
      "geometry": {
        "type": "Point",
        "coordinates": [
          -43.3374986,
          -4.8633963
        ]
      }
    },
    {
      "type": "Feature",
      "id": "node/8435656798",
      "properties": {
        "timestamp": "2021-02-18T18:43:25Z",
        "version": 1,
        "changeset": 99543330,
        "addr:city": "Caxias",
        "addr:housenumber": "1285",
        "addr:postcode": "65602-620",
        "addr:street": "Rua do Matadouro",
        "addr:suburb": "Matadouro Novo",
        "amenity": "school",
        "name": "Escola Comunitaria Educandario Eva Silva Magalhaes",
        "id": "node/8435656798"
      },
      "geometry": {
        "type": "Point",
        "coordinates": [
          -43.363558,
          -4.8420985
        ]
      }
    },
    {
      "type": "Feature",
      "id": "node/8435657545",
      "properties": {
        "timestamp": "2021-02-18T18:27:27Z",
        "version": 1,
        "changeset": 99542709,
        "addr:city": "Caxias",
        "addr:postcode": "65609-899",
        "amenity": "school",
        "name": "UIM Cristino Gonçalves",
        "id": "node/8435657545"
      },
      "geometry": {
        "type": "Point",
        "coordinates": [
          -43.265934,
          -5.1531034
        ]
      }
    },
    {
      "type": "Feature",
      "id": "node/8435662209",
      "properties": {
        "timestamp": "2021-02-18T18:28:10Z",
        "version": 1,
        "changeset": 99542731,
        "addr:city": "Caxias",
        "addr:postcode": "65609-899",
        "amenity": "school",
        "name": "UEM Zeca Fraga",
        "id": "node/8435662209"
      },
      "geometry": {
        "type": "Point",
        "coordinates": [
          -43.5915567,
          -5.1103746
        ]
      }
    },
    {
      "type": "Feature",
      "id": "node/8435679989",
      "properties": {
        "timestamp": "2021-02-18T18:37:44Z",
        "version": 1,
        "changeset": 99543124,
        "addr:city": "Caxias",
        "addr:postcode": "65609-899",
        "amenity": "school",
        "name": "EM São Gonçalo",
        "id": "node/8435679989"
      },
      "geometry": {
        "type": "Point",
        "coordinates": [
          -43.0497509,
          -4.837503
        ]
      }
    },
    {
      "type": "Feature",
      "id": "node/8435690579",
      "properties": {
        "timestamp": "2021-02-18T18:46:19Z",
        "version": 1,
        "changeset": 99543426,
        "addr:city": "Caxias",
        "addr:housenumber": "1339",
        "addr:postcode": "65606-530",
        "addr:street": "Rua Senador Clodomir Cardoso",
        "addr:suburb": "Cangalheiro",
        "amenity": "school",
        "name": "Centro De Ensino Odolfo Medeiros",
        "phone": "+55 99352 16254",
        "id": "node/8435690579"
      },
      "geometry": {
        "type": "Point",
        "coordinates": [
          -43.3583621,
          -4.8725093
        ]
      }
    },
    {
      "type": "Feature",
      "id": "node/8435691078",
      "properties": {
        "timestamp": "2021-02-18T19:03:35Z",
        "version": 1,
        "changeset": 99544084,
        "addr:city": "Caxias",
        "addr:housenumber": "104",
        "addr:postcode": "65602-060",
        "addr:street": "Rua Rio Branco",
        "addr:suburb": "Centro",
        "amenity": "school",
        "name": "Instituto Salmus De Ensino",
        "phone": "+55 99 3421 3429",
        "id": "node/8435691078"
      },
      "geometry": {
        "type": "Point",
        "coordinates": [
          -43.361008,
          -4.8604719
        ]
      }
    },
    {
      "type": "Feature",
      "id": "node/8435702871",
      "properties": {
        "timestamp": "2021-02-18T18:48:16Z",
        "version": 1,
        "changeset": 99543490,
        "addr:city": "Caxias",
        "addr:postcode": "65608-010",
        "amenity": "school",
        "name": "UEM Santa Terezinha",
        "id": "node/8435702871"
      },
      "geometry": {
        "type": "Point",
        "coordinates": [
          -43.2577832,
          -5.171897
        ]
      }
    },
    {
      "type": "Feature",
      "id": "node/8435703773",
      "properties": {
        "timestamp": "2021-02-18T18:52:54Z",
        "version": 1,
        "changeset": 99543676,
        "addr:city": "Caxias",
        "addr:postcode": "65609-899",
        "amenity": "school",
        "name": "UEM São Francisco",
        "id": "node/8435703773"
      },
      "geometry": {
        "type": "Point",
        "coordinates": [
          -43.2760195,
          -4.7907769
        ]
      }
    },
    {
      "type": "Feature",
      "id": "node/8435706860",
      "properties": {
        "timestamp": "2021-02-18T18:54:26Z",
        "version": 1,
        "changeset": 99543738,
        "amenity": "school",
        "name": "UIM Joaquim Francisco de Sousa",
        "id": "node/8435706860"
      },
      "geometry": {
        "type": "Point",
        "coordinates": [
          -43.361782,
          -4.8579459
        ]
      }
    },
    {
      "type": "Feature",
      "id": "node/8435713817",
      "properties": {
        "timestamp": "2021-02-18T18:51:25Z",
        "version": 1,
        "changeset": 99543610,
        "addr:city": "Caxias",
        "addr:postcode": "65608-010",
        "amenity": "school",
        "name": "EM Jenipapeiro",
        "id": "node/8435713817"
      },
      "geometry": {
        "type": "Point",
        "coordinates": [
          -43.0030034,
          -4.9118053
        ]
      }
    },
    {
      "type": "Feature",
      "id": "node/8435713822",
      "properties": {
        "timestamp": "2021-02-18T19:01:52Z",
        "version": 1,
        "changeset": 99544019,
        "addr:city": "Caxias",
        "addr:postcode": "65602-030",
        "addr:street": "Rua Senandor Costa Rodrigues",
        "addr:suburb": "Centro",
        "amenity": "school",
        "name": "Educandario Cristo Rei",
        "phone": "+55 99 3521 4028",
        "id": "node/8435713822"
      },
      "geometry": {
        "type": "Point",
        "coordinates": [
          -43.3624453,
          -4.8600912
        ]
      }
    },
    {
      "type": "Feature",
      "id": "node/8435717150",
      "properties": {
        "timestamp": "2021-02-18T18:55:06Z",
        "version": 1,
        "changeset": 99543761,
        "addr:city": "Caxias",
        "addr:postcode": "65609-899",
        "amenity": "school",
        "name": "UEM Alto Alegre",
        "id": "node/8435717150"
      },
      "geometry": {
        "type": "Point",
        "coordinates": [
          -43.1063306,
          -5.0019316
        ]
      }
    },
    {
      "type": "Feature",
      "id": "node/8435720455",
      "properties": {
        "timestamp": "2021-02-18T19:05:19Z",
        "version": 1,
        "changeset": 99544161,
        "addr:city": "Caxias",
        "addr:postcode": "65603-215",
        "addr:street": "Terceira Travessa Vila Arias",
        "addr:suburb": "Seriema",
        "amenity": "school",
        "name": "Ue Municipal Uniao Dos Moradores",
        "id": "node/8435720455"
      },
      "geometry": {
        "type": "Point",
        "coordinates": [
          -43.3603154,
          -4.8441326
        ]
      }
    },
    {
      "type": "Feature",
      "id": "node/8435728438",
      "properties": {
        "timestamp": "2021-02-18T19:00:45Z",
        "version": 1,
        "changeset": 99543969,
        "addr:city": "Caxias",
        "addr:postcode": "65609-899",
        "amenity": "school",
        "name": "UEM São José",
        "id": "node/8435728438"
      },
      "geometry": {
        "type": "Point",
        "coordinates": [
          -43.5119742,
          -5.0299076
        ]
      }
    },
    {
      "type": "Feature",
      "id": "node/8435733195",
      "properties": {
        "timestamp": "2021-02-18T19:09:45Z",
        "version": 1,
        "changeset": 99544368,
        "addr:city": "Caxias",
        "addr:postcode": "65609-899",
        "amenity": "school",
        "name": "UEM Leoncio Magno",
        "id": "node/8435733195"
      },
      "geometry": {
        "type": "Point",
        "coordinates": [
          -43.0603003,
          -4.5571107
        ]
      }
    },
    {
      "type": "Feature",
      "id": "node/8435737333",
      "properties": {
        "timestamp": "2021-02-18T19:06:05Z",
        "version": 1,
        "changeset": 99544187,
        "addr:city": "Caxias",
        "addr:postcode": "65609-899",
        "amenity": "school",
        "name": "UEM São Francisco",
        "id": "node/8435737333"
      },
      "geometry": {
        "type": "Point",
        "coordinates": [
          -43.4567726,
          -4.9890449
        ]
      }
    },
    {
      "type": "Feature",
      "id": "node/8435737896",
      "properties": {
        "timestamp": "2021-02-18T19:07:46Z",
        "version": 1,
        "changeset": 99544273,
        "addr:city": "Caxias",
        "addr:postcode": "65609-899",
        "amenity": "school",
        "name": "Unidade Integrada Municipal São Raimundo",
        "id": "node/8435737896"
      },
      "geometry": {
        "type": "Point",
        "coordinates": [
          -43.5066473,
          -4.9493287
        ]
      }
    },
    {
      "type": "Feature",
      "id": "node/8435739060",
      "properties": {
        "timestamp": "2021-02-18T19:08:36Z",
        "version": 1,
        "changeset": 99544314,
        "addr:city": "Caxias",
        "addr:postcode": "65607-305",
        "addr:street": "Rua do Caldeirão",
        "addr:suburb": "Caldeirões",
        "amenity": "school",
        "name": "Ue Mul Jovem Thales Ribeiro Goncalves",
        "phone": "+55\t99 3521 4476",
        "id": "node/8435739060"
      },
      "geometry": {
        "type": "Point",
        "coordinates": [
          -43.3705083,
          -4.8573093
        ]
      }
    },
    {
      "type": "Feature",
      "id": "node/8435746512",
      "properties": {
        "timestamp": "2021-02-18T19:34:31Z",
        "version": 2,
        "changeset": 99545349,
        "addr:city": "Caxias",
        "addr:housenumber": "270",
        "addr:postcode": "65606-620",
        "addr:street": "Rua Riachuelo",
        "addr:suburb": "Centro",
        "amenity": "school",
        "name": "Escola Arca De Noe",
        "phone": "+55 99 3521 4229",
        "id": "node/8435746512"
      },
      "geometry": {
        "type": "Point",
        "coordinates": [
          -43.3613894,
          -4.8648982
        ]
      }
    },
    {
      "type": "Feature",
      "id": "node/8435746537",
      "properties": {
        "timestamp": "2021-02-18T19:18:51Z",
        "version": 1,
        "changeset": 99544705,
        "addr:city": "Caxias",
        "addr:postcode": "65608-440",
        "addr:street": "Rua São Francisco",
        "addr:suburb": "Pirajá",
        "amenity": "school",
        "name": "UIM Professora Magnolia Herminia Araujo",
        "id": "node/8435746537"
      },
      "geometry": {
        "type": "Point",
        "coordinates": [
          -43.3909142,
          -4.86932
        ]
      }
    },
    {
      "type": "Feature",
      "id": "node/8435755030",
      "properties": {
        "timestamp": "2021-10-02T19:08:48Z",
        "version": 2,
        "changeset": 112012729,
        "addr:city": "Caxias",
        "addr:postcode": "65600-010",
        "amenity": "school",
        "name": "UEM Deusuita Coutinho Brito",
        "id": "node/8435755030"
      },
      "geometry": {
        "type": "Point",
        "coordinates": [
          -43.430448,
          -5.1081266
        ]
      }
    },
    {
      "type": "Feature",
      "id": "node/8435763270",
      "properties": {
        "timestamp": "2021-02-18T19:24:33Z",
        "version": 1,
        "changeset": 99544919,
        "addr:city": "Caxias",
        "addr:postcode": "65608-010",
        "amenity": "school",
        "name": "UEM Santo Antônio",
        "id": "node/8435763270"
      },
      "geometry": {
        "type": "Point",
        "coordinates": [
          -43.1321546,
          -4.9140246
        ]
      }
    },
    {
      "type": "Feature",
      "id": "node/8435765534",
      "properties": {
        "timestamp": "2021-02-18T19:16:54Z",
        "version": 1,
        "changeset": 99544606,
        "addr:city": "Caxias",
        "addr:housenumber": "230",
        "addr:postcode": "65609-380",
        "addr:street": "Rua Santa Rita",
        "addr:suburb": "Ponte",
        "amenity": "school",
        "name": "Escola Comunitaria Tia Edna",
        "phone": "+55 99 3521 5704",
        "id": "node/8435765534"
      },
      "geometry": {
        "type": "Point",
        "coordinates": [
          -43.3628864,
          -4.8768569
        ]
      }
    },
    {
      "type": "Feature",
      "id": "node/8435765630",
      "properties": {
        "timestamp": "2021-02-18T19:35:41Z",
        "version": 1,
        "changeset": 99545395,
        "addr:city": "Caxias",
        "addr:postcode": "65608-010",
        "amenity": "school",
        "name": "UEM Matilde da Conceição",
        "phone": "+55 99 3521 1511",
        "id": "node/8435765630"
      },
      "geometry": {
        "type": "Point",
        "coordinates": [
          -43.519633,
          -4.8969084
        ]
      }
    },
    {
      "type": "Feature",
      "id": "node/8435771631",
      "properties": {
        "timestamp": "2021-02-18T19:21:04Z",
        "version": 1,
        "changeset": 99544784,
        "addr:city": "Caxias",
        "addr:housenumber": "316C",
        "addr:postcode": "65602-310",
        "addr:street": "Avenida Santos Dumont",
        "addr:suburb": "Centro",
        "amenity": "school",
        "name": "Instituto Educacional Maciel",
        "id": "node/8435771631"
      },
      "geometry": {
        "type": "Point",
        "coordinates": [
          -43.3587422,
          -4.8547486
        ]
      }
    },
    {
      "type": "Feature",
      "id": "node/8435771632",
      "properties": {
        "timestamp": "2021-02-18T19:25:29Z",
        "version": 1,
        "changeset": 99544951,
        "addr:city": "Caxias",
        "addr:postcode": "65609-899",
        "amenity": "school",
        "name": "Uem Eliziario Vieira Do Nascimento",
        "id": "node/8435771632"
      },
      "geometry": {
        "type": "Point",
        "coordinates": [
          -43.0836119,
          -4.7673439
        ]
      }
    },
    {
      "type": "Feature",
      "id": "node/8435772141",
      "properties": {
        "timestamp": "2021-02-18T19:32:16Z",
        "version": 1,
        "changeset": 99545261,
        "addr:city": "Caxias",
        "addr:postcode": "65609-899",
        "amenity": "school",
        "name": "UEM Luiza de Sousa Queiroz",
        "phone": "+55\t99 3521 2588",
        "id": "node/8435772141"
      },
      "geometry": {
        "type": "Point",
        "coordinates": [
          -42.9150111,
          -4.6437832
        ]
      }
    },
    {
      "type": "Feature",
      "id": "node/8435773349",
      "properties": {
        "timestamp": "2021-02-18T19:36:45Z",
        "version": 1,
        "changeset": 99545427,
        "addr:city": "Caxias",
        "addr:postcode": "65609-899",
        "amenity": "school",
        "name": "UEM Nossa Senhora da Conceição",
        "id": "node/8435773349"
      },
      "geometry": {
        "type": "Point",
        "coordinates": [
          -43.3165289,
          -4.84576
        ]
      }
    },
    {
      "type": "Feature",
      "id": "node/8435781032",
      "properties": {
        "timestamp": "2021-02-18T19:45:52Z",
        "version": 1,
        "changeset": 99545756,
        "addr:city": "Caxias",
        "addr:postcode": "65609-899",
        "amenity": "school",
        "name": "EM São José",
        "id": "node/8435781032"
      },
      "geometry": {
        "type": "Point",
        "coordinates": [
          -43.1587336,
          -4.5907174
        ]
      }
    },
    {
      "type": "Feature",
      "id": "node/8435781043",
      "properties": {
        "timestamp": "2021-02-18T20:07:24Z",
        "version": 1,
        "changeset": 99546602,
        "addr:city": "Caxias",
        "addr:postcode": "65609-899",
        "amenity": "school",
        "name": "Unidade Integrada Municipal Maria Marques Coura",
        "id": "node/8435781043"
      },
      "geometry": {
        "type": "Point",
        "coordinates": [
          -43.4507531,
          -5.2215887
        ]
      }
    },
    {
      "type": "Feature",
      "id": "node/8435785389",
      "properties": {
        "timestamp": "2021-02-18T19:42:25Z",
        "version": 1,
        "changeset": 99545619,
        "addr:city": "Caxias",
        "addr:postcode": "65609-899",
        "amenity": "school",
        "name": "UEM Eglantina Vila Nova",
        "id": "node/8435785389"
      },
      "geometry": {
        "type": "Point",
        "coordinates": [
          -43.3873184,
          -4.986876
        ]
      }
    },
    {
      "type": "Feature",
      "id": "node/8435788054",
      "properties": {
        "timestamp": "2021-02-18T19:48:39Z",
        "version": 1,
        "changeset": 99545853,
        "addr:city": "Caxias",
        "addr:housenumber": "670",
        "addr:postcode": "65600-110",
        "addr:street": "Rua Coronel Manoel Gonçalves",
        "addr:suburb": "Centro",
        "amenity": "school",
        "name": "Centro De Ensino Eugenio Barros",
        "id": "node/8435788054"
      },
      "geometry": {
        "type": "Point",
        "coordinates": [
          -43.3574333,
          -4.8596512
        ]
      }
    },
    {
      "type": "Feature",
      "id": "node/8435788254",
      "properties": {
        "timestamp": "2021-02-18T19:46:58Z",
        "version": 1,
        "changeset": 99545792,
        "addr:city": "Caxias",
        "addr:postcode": "65609-899",
        "amenity": "school",
        "name": "EM São Francisco de Assis",
        "id": "node/8435788254"
      },
      "geometry": {
        "type": "Point",
        "coordinates": [
          -43.101159,
          -4.7838289
        ]
      }
    },
    {
      "type": "Feature",
      "id": "node/8435794261",
      "properties": {
        "timestamp": "2021-02-18T19:40:59Z",
        "version": 1,
        "changeset": 99545573,
        "addr:city": "Caxias",
        "addr:postcode": "65608-010",
        "amenity": "school",
        "name": "UEM São José",
        "id": "node/8435794261"
      },
      "geometry": {
        "type": "Point",
        "coordinates": [
          -43.3504538,
          -4.6920949
        ]
      }
    },
    {
      "type": "Feature",
      "id": "node/8435797204",
      "properties": {
        "timestamp": "2021-02-18T19:41:41Z",
        "version": 1,
        "changeset": 99545599,
        "addr:city": "Caxias",
        "addr:postcode": "65602-080",
        "amenity": "school",
        "name": "UEM São Francisco",
        "id": "node/8435797204"
      },
      "geometry": {
        "type": "Point",
        "coordinates": [
          -43.1690454,
          -4.7426926
        ]
      }
    },
    {
      "type": "Feature",
      "id": "node/8435797251",
      "properties": {
        "timestamp": "2021-02-18T19:40:12Z",
        "version": 1,
        "changeset": 99545553,
        "addr:city": "Caxias",
        "addr:postcode": "65608-010",
        "amenity": "school",
        "name": "EM Francisco Procopio",
        "id": "node/8435797251"
      },
      "geometry": {
        "type": "Point",
        "coordinates": [
          -43.4577958,
          -5.2634464
        ]
      }
    },
    {
      "type": "Feature",
      "id": "node/8435804484",
      "properties": {
        "timestamp": "2021-02-18T19:43:27Z",
        "version": 1,
        "changeset": 99545661,
        "addr:city": "Caxias",
        "addr:postcode": "65609-899",
        "amenity": "school",
        "name": "UEM Ernane Barros",
        "id": "node/8435804484"
      },
      "geometry": {
        "type": "Point",
        "coordinates": [
          -43.3293248,
          -4.9287392
        ]
      }
    },
    {
      "type": "Feature",
      "id": "node/8435817409",
      "properties": {
        "timestamp": "2021-02-18T19:50:49Z",
        "version": 1,
        "changeset": 99545934,
        "addr:city": "Caxias",
        "addr:postcode": "65609-899",
        "amenity": "school",
        "name": "UEM Antônio Rodrigues",
        "id": "node/8435817409"
      },
      "geometry": {
        "type": "Point",
        "coordinates": [
          -43.4836183,
          -5.2370995
        ]
      }
    },
    {
      "type": "Feature",
      "id": "node/8435836829",
      "properties": {
        "timestamp": "2021-02-18T19:52:17Z",
        "version": 1,
        "changeset": 99545992,
        "addr:city": "Caxias",
        "addr:postcode": "65609-899",
        "amenity": "school",
        "name": "UEM Gumercindo Aparicio Teixeira",
        "id": "node/8435836829"
      },
      "geometry": {
        "type": "Point",
        "coordinates": [
          -43.4621693,
          -4.9365592
        ]
      }
    },
    {
      "type": "Feature",
      "id": "node/8435840222",
      "properties": {
        "timestamp": "2021-02-18T19:47:38Z",
        "version": 1,
        "changeset": 99545808,
        "addr:city": "Caxias",
        "addr:postcode": "65609-899",
        "amenity": "school",
        "name": "UE José Dias Vieira",
        "id": "node/8435840222"
      },
      "geometry": {
        "type": "Point",
        "coordinates": [
          -43.6055541,
          -5.1945759
        ]
      }
    },
    {
      "type": "Feature",
      "id": "node/8435848943",
      "properties": {
        "timestamp": "2021-02-18T20:03:09Z",
        "version": 1,
        "changeset": 99546442,
        "addr:city": "Caxias",
        "addr:postcode": "65609-899",
        "amenity": "school",
        "name": "UEM Santa Terezinha",
        "id": "node/8435848943"
      },
      "geometry": {
        "type": "Point",
        "coordinates": [
          -43.7195308,
          -5.3074379
        ]
      }
    },
    {
      "type": "Feature",
      "id": "node/8435851492",
      "properties": {
        "timestamp": "2021-02-18T19:51:24Z",
        "version": 1,
        "changeset": 99545955,
        "amenity": "school",
        "name": "Centro Educacional Turma Da Monica E Colegio Batista Araujo",
        "id": "node/8435851492"
      },
      "geometry": {
        "type": "Point",
        "coordinates": [
          -43.3420531,
          -4.8693294
        ]
      }
    },
    {
      "type": "Feature",
      "id": "node/8435858376",
      "properties": {
        "timestamp": "2021-02-18T20:10:40Z",
        "version": 1,
        "changeset": 99546742,
        "addr:city": "Caxias",
        "addr:postcode": "65609-899",
        "amenity": "school",
        "name": "UEM Cleonice Medeiros",
        "id": "node/8435858376"
      },
      "geometry": {
        "type": "Point",
        "coordinates": [
          -42.9946943,
          -4.8738765
        ]
      }
    },
    {
      "type": "Feature",
      "id": "node/8435872211",
      "properties": {
        "timestamp": "2021-02-18T20:05:26Z",
        "version": 1,
        "changeset": 99546525,
        "addr:city": "Caxias",
        "addr:postcode": "65609-899",
        "amenity": "school",
        "name": "UEM Nestor Ferreira Duarte",
        "id": "node/8435872211"
      },
      "geometry": {
        "type": "Point",
        "coordinates": [
          -43.4685489,
          -5.0607381
        ]
      }
    },
    {
      "type": "Feature",
      "id": "node/8435872245",
      "properties": {
        "timestamp": "2021-02-18T20:09:20Z",
        "version": 1,
        "changeset": 99546688,
        "addr:city": "Caxias",
        "addr:postcode": "65609-899",
        "amenity": "school",
        "name": "UEM Helio Queiroz",
        "id": "node/8435872245"
      },
      "geometry": {
        "type": "Point",
        "coordinates": [
          -42.9188259,
          -4.9000001
        ]
      }
    },
    {
      "type": "Feature",
      "id": "node/8435875365",
      "properties": {
        "timestamp": "2021-02-18T20:04:34Z",
        "version": 1,
        "changeset": 99546493,
        "addr:city": "Caxias",
        "addr:postcode": "65609-899",
        "amenity": "school",
        "name": "Centro de Educação Infantil Isabel Lira de Andrade",
        "id": "node/8435875365"
      },
      "geometry": {
        "type": "Point",
        "coordinates": [
          -43.5336156,
          -5.0521924
        ]
      }
    },
    {
      "type": "Feature",
      "id": "node/8435875370",
      "properties": {
        "timestamp": "2021-02-18T20:14:14Z",
        "version": 1,
        "changeset": 99546883,
        "addr:city": "Caxias",
        "addr:postcode": "65609-899",
        "amenity": "school",
        "name": "Unidade Escolar Municipal Vicente Bruno",
        "phone": "+55 99 3422 9013",
        "id": "node/8435875370"
      },
      "geometry": {
        "type": "Point",
        "coordinates": [
          -42.9971896,
          -4.8386732
        ]
      }
    },
    {
      "type": "Feature",
      "id": "node/8435876563",
      "properties": {
        "timestamp": "2021-02-18T20:14:43Z",
        "version": 1,
        "changeset": 99546898,
        "amenity": "school",
        "name": "Ue Mul Santo Antonio",
        "id": "node/8435876563"
      },
      "geometry": {
        "type": "Point",
        "coordinates": [
          -43.3510738,
          -4.659882
        ]
      }
    },
    {
      "type": "Feature",
      "id": "node/8435887845",
      "properties": {
        "timestamp": "2021-02-18T20:10:00Z",
        "version": 1,
        "changeset": 99546721,
        "amenity": "school",
        "name": "i Mul Edson Lobao",
        "id": "node/8435887845"
      },
      "geometry": {
        "type": "Point",
        "coordinates": [
          -43.3680869,
          -4.8852734
        ]
      }
    },
    {
      "type": "Feature",
      "id": "node/8435891144",
      "properties": {
        "timestamp": "2021-02-18T20:19:21Z",
        "version": 1,
        "changeset": 99547075,
        "amenity": "school",
        "name": "Em Jose Ivo De Sousa",
        "id": "node/8435891144"
      },
      "geometry": {
        "type": "Point",
        "coordinates": [
          -43.7316548,
          -5.2934826
        ]
      }
    },
    {
      "type": "Feature",
      "id": "node/8435891145",
      "properties": {
        "timestamp": "2021-02-18T20:19:56Z",
        "version": 1,
        "changeset": 99547106,
        "addr:city": "Caxias",
        "addr:postcode": "65608-010",
        "amenity": "school",
        "name": "UEM Santa Rita",
        "id": "node/8435891145"
      },
      "geometry": {
        "type": "Point",
        "coordinates": [
          -43.5733436,
          -4.7900359
        ]
      }
    },
    {
      "type": "Feature",
      "id": "node/8435892231",
      "properties": {
        "timestamp": "2021-02-18T20:12:07Z",
        "version": 1,
        "changeset": 99546803,
        "addr:city": "Caxias",
        "addr:postcode": "65609-899",
        "amenity": "school",
        "name": "Unidade Integrada Municipal Antonio Rosa de Lima",
        "id": "node/8435892231"
      },
      "geometry": {
        "type": "Point",
        "coordinates": [
          -43.3130045,
          -4.6833525
        ]
      }
    },
    {
      "type": "Feature",
      "id": "node/8435894180",
      "properties": {
        "timestamp": "2021-02-18T20:16:17Z",
        "version": 1,
        "changeset": 99546954,
        "addr:city": "Caxias",
        "addr:housenumber": "328A",
        "addr:postcode": "65602-310",
        "addr:street": "Avenida Santos Dumont",
        "addr:suburb": "Centro",
        "amenity": "school",
        "name": "Jardim de Infancia Gentilzinho",
        "id": "node/8435894180"
      },
      "geometry": {
        "type": "Point",
        "coordinates": [
          -43.3577971,
          -4.8528872
        ]
      }
    },
    {
      "type": "Feature",
      "id": "node/8435894684",
      "properties": {
        "timestamp": "2021-02-18T20:22:17Z",
        "version": 1,
        "changeset": 99547201,
        "amenity": "school",
        "name": "Centro De Educacao Infantil Vila Paraiso",
        "id": "node/8435894684"
      },
      "geometry": {
        "type": "Point",
        "coordinates": [
          -43.3265737,
          -4.8943952
        ]
      }
    },
    {
      "type": "Feature",
      "id": "node/8435896491",
      "properties": {
        "timestamp": "2021-02-18T20:11:13Z",
        "version": 1,
        "changeset": 99546766,
        "addr:city": "Caxias",
        "addr:postcode": "65609-899",
        "amenity": "school",
        "name": "UEM Santa Luzia",
        "id": "node/8435896491"
      },
      "geometry": {
        "type": "Point",
        "coordinates": [
          -43.4040816,
          -4.7499721
        ]
      }
    },
    {
      "type": "Feature",
      "id": "node/8435902682",
      "properties": {
        "timestamp": "2021-02-18T20:18:45Z",
        "version": 1,
        "changeset": 99547041,
        "addr:city": "Caxias",
        "addr:postcode": "65605-501",
        "addr:street": "Rua Parnarama",
        "addr:suburb": "Vila Lobão",
        "amenity": "school",
        "name": "CEI Maria das Neves Coutinho Mãe Preta",
        "id": "node/8435902682"
      },
      "geometry": {
        "type": "Point",
        "coordinates": [
          -43.3455715,
          -4.8787123
        ]
      }
    },
    {
      "type": "Feature",
      "id": "node/8435903131",
      "properties": {
        "timestamp": "2021-02-18T20:13:06Z",
        "version": 1,
        "changeset": 99546838,
        "addr:city": "Caxias",
        "addr:postcode": "65609-899",
        "amenity": "school",
        "name": "UEM São Francisco de Assis",
        "id": "node/8435903131"
      },
      "geometry": {
        "type": "Point",
        "coordinates": [
          -43.3000749,
          -5.0434292
        ]
      }
    },
    {
      "type": "Feature",
      "id": "node/8435905250",
      "properties": {
        "timestamp": "2021-02-18T20:20:59Z",
        "version": 1,
        "changeset": 99547143,
        "addr:city": "Caxias",
        "addr:postcode": "65609-410",
        "addr:street": "Avenida Francisco Castro",
        "addr:suburb": "Ponte",
        "amenity": "school",
        "name": "UIM José Castro",
        "id": "node/8435905250"
      },
      "geometry": {
        "type": "Point",
        "coordinates": [
          -43.3641787,
          -4.881953
        ]
      }
    },
    {
      "type": "Feature",
      "id": "node/8435908286",
      "properties": {
        "timestamp": "2021-02-18T20:17:15Z",
        "version": 1,
        "changeset": 99546987,
        "addr:city": "Caxias",
        "addr:postcode": "65609-899",
        "amenity": "school",
        "name": "UEM João da Cruz Nunes de Almeida",
        "id": "node/8435908286"
      },
      "geometry": {
        "type": "Point",
        "coordinates": [
          -43.4397235,
          -5.1629679
        ]
      }
    },
    {
      "type": "Feature",
      "id": "node/9136108338",
      "properties": {
        "timestamp": "2021-09-30T19:53:26Z",
        "version": 1,
        "changeset": 111933360,
        "amenity": "school",
        "name": "Uem Edson Cardoso Dos Santos",
        "id": "node/9136108338"
      },
      "geometry": {
        "type": "Point",
        "coordinates": [
          -43.5670185,
          -5.0122701
        ]
      }
    },
    {
      "type": "Feature",
      "id": "node/9165896626",
      "properties": {
        "timestamp": "2021-10-11T21:05:26Z",
        "version": 1,
        "changeset": 112392402,
        "amenity": "school",
        "name": "Em Sao Zacarias",
        "id": "node/9165896626"
      },
      "geometry": {
        "type": "Point",
        "coordinates": [
          -43.7731914,
          -5.240354
        ]
      }
    }
  ]
}
