{
  "type": "FeatureCollection",
  "features": [
    {
      "type": "Feature",
      "id": "node/11976714055",
      "properties": {
        "timestamp": "2024-06-13T13:56:22Z",
        "version": 2,
        "changeset": 152635523,
        "addr:city": "Ervália",
        "addr:housenumber": "74",
        "addr:postcode": "36555-000",
        "addr:street": "Rua Andrade e Irmãos",
        "addr:suburb": "Centro",
        "government": "agriculture",
        "name": "Empresa de Assistência Técnica e Extensão Rural do Estado de Minas Gerais - Emater",
        "office": "government",
        "opening_hours": "Mo-Fr 09:00-17:00",
        "phone": "+55 32 3554 1321",
        "website": "https://www.mg.gov.br/instituicao_unidade/escritorio-local-594",
        "id": "node/11976714055"
      },
      "geometry": {
        "type": "Point",
        "coordinates": [
          -42.6562814,
          -20.8366235
        ]
      }
    },
    {
      "type": "Feature",
      "id": "node/11976714057",
      "properties": {
        "timestamp": "2024-06-12T23:46:38Z",
        "version": 1,
        "changeset": 152608601,
        "addr:city": "Ervália",
        "addr:housenumber": "85",
        "addr:postcode": "36555-000",
        "addr:street": "Rua Andrade e Irmãos",
        "addr:suburb": "Centro",
        "government": "social_services",
        "name": "Defensoria Pública do Estado de Minas Gerais em Ervália",
        "office": "government",
        "id": "node/11976714057"
      },
      "geometry": {
        "type": "Point",
        "coordinates": [
          -42.6564751,
          -20.8361178
        ]
      }
    },
    {
      "type": "Feature",
      "id": "node/11992605005",
      "properties": {
        "timestamp": "2024-06-19T19:30:00Z",
        "version": 1,
        "changeset": 152911981,
        "addr:city": "Ervália",
        "addr:housenumber": "50",
        "addr:postcode": "36555-000",
        "addr:street": "Rua Nossa Senhora Aparecida",
        "addr:suburb": "Centro",
        "government": "education",
        "name": "Secretaria Municipal de Educação",
        "office": "government",
        "id": "node/11992605005"
      },
      "geometry": {
        "type": "Point",
        "coordinates": [
          -42.6577682,
          -20.8402194
        ]
      }
    },
    {
      "type": "Feature",
      "id": "node/11992605006",
      "properties": {
        "timestamp": "2024-06-19T19:30:00Z",
        "version": 1,
        "changeset": 152911981,
        "addr:city": "Ervália",
        "addr:housenumber": "50",
        "addr:postcode": "36555-000",
        "addr:street": "Rua Nossa Senhora Aparecida",
        "addr:suburb": "Centro",
        "government": "administrative",
        "name": "Secretaria Municipal de Planejamento e Gestão",
        "office": "government",
        "id": "node/11992605006"
      },
      "geometry": {
        "type": "Point",
        "coordinates": [
          -42.6577646,
          -20.8402792
        ]
      }
    },
    {
      "type": "Feature",
      "id": "node/11992605007",
      "properties": {
        "timestamp": "2024-06-19T19:30:00Z",
        "version": 1,
        "changeset": 152911981,
        "addr:city": "Ervália",
        "addr:housenumber": "50",
        "addr:postcode": "36555-000",
        "addr:street": "Rua Nossa Senhora Aparecida",
        "addr:suburb": "Centro",
        "government": "finance",
        "name": "Secretaria Municipal de Fazenda",
        "office": "government",
        "id": "node/11992605007"
      },
      "geometry": {
        "type": "Point",
        "coordinates": [
          -42.6577663,
          -20.8403576
        ]
      }
    }
  ]
}
