{
  "type": "FeatureCollection",
  "features": [
    {
      "type": "Feature",
      "id": "way/302620857",
      "properties": {
        "timestamp": "2024-06-14T14:43:22Z",
        "version": 3,
        "changeset": 152682870,
        "addr:city": "Ervália",
        "addr:housenumber": "110",
        "addr:postcode": "36555-000",
        "addr:street": "Rua Gabriel Singulano",
        "addr:suburb": "Centro",
        "amenity": "school",
        "building": "yes",
        "level": "4",
        "name": "Colégio Educar",
        "operator": "Colégio Educar de Ervália Limitada",
        "operator:type": "private",
        "phone": "+55 32 3554 1144",
        "id": "way/302620857"
      },
      "geometry": {
        "type": "Polygon",
        "coordinates": [
          [
            [
              -42.6547424,
              -20.8382807
            ],
            [
              -42.6548706,
              -20.838227
            ],
            [
              -42.6549728,
              -20.8384401
            ],
            [
              -42.6548447,
              -20.8384938
            ],
            [
              -42.6547424,
              -20.8382807
            ]
          ]
        ]
      }
    },
    {
      "type": "Feature",
      "id": "way/1291912991",
      "properties": {
        "timestamp": "2024-06-12T22:11:11Z",
        "version": 1,
        "changeset": 152606991,
        "addr:city": "Ervália",
        "addr:postcode": "36555-000",
        "addr:street": "Rua Sagrado Coração de Jesus",
        "addr:suburb": "Centro",
        "amenity": "school",
        "name": "Escola Municipal Professora Vivica Rocha",
        "id": "way/1291912991"
      },
      "geometry": {
        "type": "Polygon",
        "coordinates": [
          [
            [
              -42.6578897,
              -20.8374515
            ],
            [
              -42.657945,
              -20.8376368
            ],
            [
              -42.6578246,
              -20.8379543
            ],
            [
              -42.6573914,
              -20.837908
            ],
            [
              -42.6573164,
              -20.8375045
            ],
            [
              -42.6578897,
              -20.8374515
            ]
          ]
        ]
      }
    },
    {
      "type": "Feature",
      "id": "way/1291967954",
      "properties": {
        "timestamp": "2024-06-13T02:47:34Z",
        "version": 1,
        "changeset": 152610916,
        "addr:city": "Ervália",
        "addr:housenumber": "248",
        "addr:postcode": "36555-000",
        "addr:street": "Rua Nossa Senhora Aparecida",
        "addr:suburb": "Centro",
        "amenity": "school",
        "email": "escolairany@yahoo.com.br",
        "name": "Escola Municipal Irany Silva Mattos",
        "operator": "Secretaria Municipal de Educação de Ervália",
        "operator:type": "public",
        "phone": "+55 32 3554 1473",
        "id": "way/1291967954"
      },
      "geometry": {
        "type": "Polygon",
        "coordinates": [
          [
            [
              -42.6586139,
              -20.8425644
            ],
            [
              -42.6580703,
              -20.842616
            ],
            [
              -42.6580434,
              -20.8424493
            ],
            [
              -42.6583548,
              -20.8424202
            ],
            [
              -42.6583449,
              -20.8423289
            ],
            [
              -42.6580264,
              -20.8423593
            ],
            [
              -42.6580204,
              -20.8423289
            ],
            [
              -42.658015,
              -20.8423011
            ],
            [
              -42.6585813,
              -20.8422495
            ],
            [
              -42.6586139,
              -20.8425644
            ]
          ]
        ]
      }
    },
    {
      "type": "Feature",
      "id": "way/1291967958",
      "properties": {
        "timestamp": "2024-06-13T02:47:34Z",
        "version": 1,
        "changeset": 152610916,
        "addr:city": "Ervália",
        "addr:housenumber": "15",
        "addr:postcode": "36555-000",
        "addr:street": "Praça Doutor Edgard Vasconcelos Barros",
        "addr:suburb": "São Pedro",
        "amenity": "school",
        "email": "escola.180891@educacao.mg.gov.br",
        "name": "Escola Estadual Professor David Procópio",
        "operator": "Secretaria de Educação do Estado de Minas Gerais",
        "operator:type": "public",
        "phone": "+55 32 3554 1169",
        "id": "way/1291967958"
      },
      "geometry": {
        "type": "Polygon",
        "coordinates": [
          [
            [
              -42.6547084,
              -20.8452473
            ],
            [
              -42.6551341,
              -20.8457843
            ],
            [
              -42.6545487,
              -20.8461895
            ],
            [
              -42.6544069,
              -20.8460106
            ],
            [
              -42.6542818,
              -20.8458523
            ],
            [
              -42.6541254,
              -20.8456533
            ],
            [
              -42.6543382,
              -20.8455073
            ],
            [
              -42.654491,
              -20.8453978
            ],
            [
              -42.6547084,
              -20.8452473
            ]
          ]
        ]
      }
    },
    {
      "type": "Feature",
      "id": "way/1291967967",
      "properties": {
        "timestamp": "2024-06-13T02:47:34Z",
        "version": 1,
        "changeset": 152610916,
        "addr:city": "Ervália",
        "addr:housenumber": "20",
        "addr:postcode": "36555-000",
        "addr:street": "Rua Doutor Normando Ferreira Esteves",
        "addr:suburb": "Centro",
        "amenity": "school",
        "email": "escola.180912@educacao.mg.gov.br",
        "name": "Escola Estadual Monsenhor Rodolfo",
        "operator": "Secretaria de Educação do Estado de Minas Gerais",
        "operator:type": "public",
        "phone": "+55 32 3554 1175",
        "id": "way/1291967967"
      },
      "geometry": {
        "type": "Polygon",
        "coordinates": [
          [
            [
              -42.6571125,
              -20.8431638
            ],
            [
              -42.6571591,
              -20.843456
            ],
            [
              -42.6571797,
              -20.8435856
            ],
            [
              -42.6566075,
              -20.8436264
            ],
            [
              -42.656532,
              -20.8432731
            ],
            [
              -42.6565263,
              -20.8432423
            ],
            [
              -42.6569488,
              -20.8431845
            ],
            [
              -42.6571125,
              -20.8431638
            ]
          ]
        ]
      }
    },
    {
      "type": "Feature",
      "id": "way/1293247831",
      "properties": {
        "timestamp": "2024-06-17T19:31:23Z",
        "version": 1,
        "changeset": 152817067,
        "addr:city": "Ervália",
        "addr:street": "Rua Principal",
        "addr:suburb": "Careço",
        "amenity": "school",
        "email": "escola.180904@educacao.mg.gov.br",
        "name": "Escola Estadual Dom Francisco Das Chagas",
        "operator": "Secretaria de Educação do Estado de Minas Gerais",
        "operator:type": "public",
        "id": "way/1293247831"
      },
      "geometry": {
        "type": "Polygon",
        "coordinates": [
          [
            [
              -42.5391685,
              -20.8432889
            ],
            [
              -42.5391417,
              -20.8436198
            ],
            [
              -42.5388359,
              -20.8436624
            ],
            [
              -42.5387903,
              -20.8433391
            ],
            [
              -42.5391685,
              -20.8432889
            ]
          ]
        ]
      }
    },
    {
      "type": "Feature",
      "id": "way/1293503561",
      "properties": {
        "timestamp": "2024-06-18T19:29:16Z",
        "version": 1,
        "changeset": 152863558,
        "addr:city": "Ervália",
        "addr:postcode": "36555-000",
        "amenity": "school",
        "email": "efasb@hotmail.com",
        "name": "Escola Família Agrícola Serra do Brigadeiro",
        "phone": "+55 32 3554 4008",
        "id": "way/1293503561"
      },
      "geometry": {
        "type": "Polygon",
        "coordinates": [
          [
            [
              -42.5176808,
              -20.781323
            ],
            [
              -42.516979,
              -20.7823728
            ],
            [
              -42.5166401,
              -20.782152
            ],
            [
              -42.5168455,
              -20.7818223
            ],
            [
              -42.5170475,
              -20.781435
            ],
            [
              -42.5171673,
              -20.7809837
            ],
            [
              -42.5176808,
              -20.781323
            ]
          ]
        ]
      }
    },
    {
      "type": "Feature",
      "id": "way/1293729146",
      "properties": {
        "timestamp": "2024-06-19T19:30:00Z",
        "version": 1,
        "changeset": 152911981,
        "addr:city": "Ervália",
        "addr:housenumber": "325",
        "addr:postcode": "36555-000",
        "addr:street": "Rua Engenheiro Jose Batista da Silva Filho",
        "addr:suburb": "São Pedro",
        "amenity": "school",
        "name": "Centro Municipal de Educação Infantil Celia Frederico Vieira",
        "operator": "Município de Ervália",
        "operator:type": "public",
        "phone": "+55 32 3554 1020",
        "id": "way/1293729146"
      },
      "geometry": {
        "type": "Polygon",
        "coordinates": [
          [
            [
              -42.6521433,
              -20.8477503
            ],
            [
              -42.651842,
              -20.8482285
            ],
            [
              -42.6515168,
              -20.8480462
            ],
            [
              -42.6518043,
              -20.8475903
            ],
            [
              -42.6521433,
              -20.8477503
            ]
          ]
        ]
      }
    },
    {
      "type": "Feature",
      "id": "node/4117842511",
      "properties": {
        "timestamp": "2024-06-18T19:29:16Z",
        "version": 3,
        "changeset": 152863558,
        "addr:city": "Ervália",
        "addr:postcode": "36555-000",
        "addr:suburb": "Dom Viçoso",
        "amenity": "school",
        "email": "pmemg@yahoo.com.br",
        "name": "Escola Municipal Dom Viçoso",
        "phone": "+55 32 3554 2504",
        "source": "IBGE",
        "id": "node/4117842511"
      },
      "geometry": {
        "type": "Point",
        "coordinates": [
          -42.511939,
          -20.7809575
        ]
      }
    },
    {
      "type": "Feature",
      "id": "node/4128655572",
      "properties": {
        "timestamp": "2016-04-17T20:10:31Z",
        "version": 1,
        "changeset": 38651067,
        "amenity": "school",
        "source": "Bing;IBGE",
        "id": "node/4128655572"
      },
      "geometry": {
        "type": "Point",
        "coordinates": [
          -42.6012757,
          -20.9565329
        ]
      }
    },
    {
      "type": "Feature",
      "id": "node/4364793465",
      "properties": {
        "timestamp": "2016-08-24T13:22:37Z",
        "version": 1,
        "changeset": 41663399,
        "amenity": "school",
        "name": "Grupo do São João",
        "id": "node/4364793465"
      },
      "geometry": {
        "type": "Point",
        "coordinates": [
          -42.6304747,
          -20.7679005
        ]
      }
    },
    {
      "type": "Feature",
      "id": "node/4629644534",
      "properties": {
        "timestamp": "2024-06-18T14:06:02Z",
        "version": 2,
        "changeset": 152850787,
        "amenity": "school",
        "name": "Grupo Escolar",
        "id": "node/4629644534"
      },
      "geometry": {
        "type": "Point",
        "coordinates": [
          -42.5692823,
          -20.8082773
        ]
      }
    },
    {
      "type": "Feature",
      "id": "node/11977298180",
      "properties": {
        "timestamp": "2024-06-13T02:47:34Z",
        "version": 1,
        "changeset": 152610916,
        "entrance": "yes",
        "id": "node/11977298180"
      },
      "geometry": {
        "type": "Point",
        "coordinates": [
          -42.6580204,
          -20.8423289
        ]
      }
    },
    {
      "type": "Feature",
      "id": "node/11981004657",
      "properties": {
        "timestamp": "2024-06-14T14:43:22Z",
        "version": 1,
        "changeset": 152682870,
        "addr:city": "Ervália",
        "addr:housenumber": "12",
        "addr:postcode": "36555-000",
        "addr:street": "Rua Barão do Rio Branco",
        "addr:suburb": "Centro",
        "amenity": "school",
        "name": "Colégio Cener",
        "operator": "Sociedade Educacional Cener Limitda",
        "operator:type": "private",
        "phone": "+55 32 3554 1411",
        "id": "node/11981004657"
      },
      "geometry": {
        "type": "Point",
        "coordinates": [
          -42.6568825,
          -20.8403688
        ]
      }
    }
  ]
}
