{
  "type": "FeatureCollection",
  "features": [
    {
      "type": "Feature",
      "id": "way/1156071031",
      "properties": {
        "timestamp": "2023-03-21T14:48:16Z",
        "version": 1,
        "changeset": 133944057,
        "addr:city": "Rio de Janeiro",
        "addr:housenumber": "60",
        "addr:postcode": "22640-040",
        "addr:street": "Rua Helios Seelinger",
        "addr:suburb": "Barra da Tijuca",
        "building": "yes",
        "name": "S2 Bike Shop",
        "opening_hours": "Mo-Fr 09:00-18:00; Sa 09:00-14:00",
        "phone": "+55 21 3439-6594",
        "shop": "bicycle",
        "website": "https://s2-bike-shop-rio.negocio.site/",
        "id": "way/1156071031"
      },
      "geometry": {
        "type": "Polygon",
        "coordinates": [
          [
            [
              -43.3133191,
              -23.0056253
            ],
            [
              -43.313375,
              -23.0056104
            ],
            [
              -43.3133888,
              -23.0056246
            ],
            [
              -43.3135429,
              -23.0055834
            ],
            [
              -43.3135645,
              -23.0056742
            ],
            [
              -43.3133613,
              -23.0057511
            ],
            [
              -43.3133191,
              -23.0056253
            ]
          ]
        ]
      }
    },
    {
      "type": "Feature",
      "id": "way/1286365479",
      "properties": {
        "timestamp": "2024-05-24T18:45:31Z",
        "version": 1,
        "changeset": 151784433,
        "building": "yes",
        "shop": "bicycle",
        "id": "way/1286365479"
      },
      "geometry": {
        "type": "Polygon",
        "coordinates": [
          [
            [
              -43.4653546,
              -22.8725901
            ],
            [
              -43.4653527,
              -22.8726944
            ],
            [
              -43.4650536,
              -22.8726927
            ],
            [
              -43.4650563,
              -22.8725805
            ],
            [
              -43.4653546,
              -22.8725901
            ]
          ]
        ]
      }
    },
    {
      "type": "Feature",
      "id": "node/346244655",
      "properties": {
        "timestamp": "2024-04-07T21:05:00Z",
        "version": 7,
        "changeset": 149710014,
        "addr:city": "Rio de Janeiro",
        "addr:housenumber": "197A",
        "addr:postcode": "22240-004",
        "addr:street": "Rua das Laranjeiras",
        "addr:suburb": "Laranjeiras",
        "name": "Fietsrio",
        "shop": "bicycle",
        "id": "node/346244655"
      },
      "geometry": {
        "type": "Point",
        "coordinates": [
          -43.1855483,
          -22.9335147
        ]
      }
    },
    {
      "type": "Feature",
      "id": "node/412310720",
      "properties": {
        "timestamp": "2009-05-28T22:34:34Z",
        "version": 1,
        "changeset": 1346979,
        "amenity": "bicycle_rental",
        "name": "Cicle Calle",
        "shop": "bicycle",
        "id": "node/412310720"
      },
      "geometry": {
        "type": "Point",
        "coordinates": [
          -43.1905681,
          -22.9867153
        ]
      }
    },
    {
      "type": "Feature",
      "id": "node/412310721",
      "properties": {
        "timestamp": "2023-11-22T01:29:28Z",
        "version": 6,
        "changeset": 144307696,
        "addr:housenumber": "4240 - Loja H",
        "addr:postcode": "22070-900",
        "addr:street": "Avenida Atlântica",
        "name": "3 Shop",
        "phone": "+55-21-88928588",
        "phone:2": "+55-21-2247-1443",
        "shop": "bicycle",
        "source": "survey",
        "website": "https://www.3shopbr.com/",
        "id": "node/412310721"
      },
      "geometry": {
        "type": "Point",
        "coordinates": [
          -43.1890382,
          -22.9863049
        ]
      }
    },
    {
      "type": "Feature",
      "id": "node/431013624",
      "properties": {
        "timestamp": "2023-05-25T12:06:27Z",
        "version": 7,
        "changeset": 136541071,
        "addr:city": "Rio de Janeiro",
        "addr:country": "BR",
        "addr:housenumber": "116A",
        "addr:postcode": "22211-200",
        "addr:street": "Rua Pedro Américo",
        "name": "Salas Bikes",
        "opening_hours": "Mo-Fr 08:00-19:00; Sa 08:00-14:00",
        "phone": "+55-21-22452835",
        "service:bicycle:cleaning": "yes",
        "service:bicycle:pump": "yes",
        "service:bicycle:repair": "yes",
        "service:bicycle:retail": "yes",
        "service:bicycle:second_hand": "yes",
        "shop": "bicycle",
        "website": "http://www.salasbikes.com.br/",
        "id": "node/431013624"
      },
      "geometry": {
        "type": "Point",
        "coordinates": [
          -43.1784138,
          -22.9240914
        ]
      }
    },
    {
      "type": "Feature",
      "id": "node/454457664",
      "properties": {
        "timestamp": "2013-03-15T14:06:07Z",
        "version": 5,
        "changeset": 15373829,
        "addr:housenumber": "330",
        "addr:street": "Avenida Prado Júnior",
        "name": "Ciclovia Zona Sul",
        "phone": "+55-21-22755299",
        "shop": "bicycle",
        "id": "node/454457664"
      },
      "geometry": {
        "type": "Point",
        "coordinates": [
          -43.1754878,
          -22.9622393
        ]
      }
    },
    {
      "type": "Feature",
      "id": "node/810378142",
      "properties": {
        "timestamp": "2022-05-27T08:38:43Z",
        "version": 5,
        "changeset": 121562628,
        "addr:city": "Rio de Janeiro",
        "addr:country": "BR",
        "addr:housenumber": "58 - Loja A",
        "addr:street": "Rua das Laranjeiras",
        "name": "Bike & Lazer",
        "phone": "+55-21-22857941",
        "shop": "bicycle",
        "source": "survey",
        "website": "https://bikeelazer.com.br/",
        "id": "node/810378142"
      },
      "geometry": {
        "type": "Point",
        "coordinates": [
          -43.1811167,
          -22.9318904
        ]
      }
    },
    {
      "type": "Feature",
      "id": "node/932343268",
      "properties": {
        "timestamp": "2022-01-30T23:55:25Z",
        "version": 3,
        "changeset": 116800455,
        "addr:housenumber": "336",
        "addr:street": "Rua das Laranjeiras",
        "name": "Nova Bike Dourado",
        "phone": "+55-21-30641720; +55-21-35026960",
        "shop": "bicycle",
        "source": "survey",
        "id": "node/932343268"
      },
      "geometry": {
        "type": "Point",
        "coordinates": [
          -43.18984,
          -22.9353024
        ]
      }
    },
    {
      "type": "Feature",
      "id": "node/1265049941",
      "properties": {
        "timestamp": "2011-04-29T15:05:06Z",
        "version": 1,
        "changeset": 8004223,
        "addr:housenumber": "174",
        "addr:street": "Rua General Polidoro",
        "name": "Special Adventure",
        "phone": "+55-21-22663002",
        "shop": "bicycle",
        "website": "http://www.specialadventure.com.br/",
        "id": "node/1265049941"
      },
      "geometry": {
        "type": "Point",
        "coordinates": [
          -43.1859976,
          -22.9561303
        ]
      }
    },
    {
      "type": "Feature",
      "id": "node/1345399049",
      "properties": {
        "timestamp": "2011-07-01T01:00:09Z",
        "version": 1,
        "changeset": 8594847,
        "shop": "bicycle",
        "id": "node/1345399049"
      },
      "geometry": {
        "type": "Point",
        "coordinates": [
          -43.2236715,
          -22.9811715
        ]
      }
    },
    {
      "type": "Feature",
      "id": "node/1377668188",
      "properties": {
        "timestamp": "2021-12-10T09:24:07Z",
        "version": 2,
        "changeset": 114776397,
        "addr:city": "Rio de Janeiro",
        "addr:housenumber": "361",
        "addr:street": "Rua Assunção",
        "addr:suburb": "Botafogo",
        "name": "Bicicletaria Celção",
        "phone": "+55 21 91130094",
        "shop": "bicycle",
        "id": "node/1377668188"
      },
      "geometry": {
        "type": "Point",
        "coordinates": [
          -43.1868311,
          -22.9465753
        ]
      }
    },
    {
      "type": "Feature",
      "id": "node/1515291448",
      "properties": {
        "timestamp": "2023-01-19T12:14:02Z",
        "version": 5,
        "changeset": 131464027,
        "addr:housenumber": "135 - Loja B",
        "addr:postcode": "22410-002",
        "addr:street": "Rua Visconde de Pirajá",
        "name": "Bike & Lazer",
        "phone": "+55 21 2521 2686",
        "shop": "bicycle",
        "source": "survey",
        "website": "https://www.bikeelazer.com.br/",
        "id": "node/1515291448"
      },
      "geometry": {
        "type": "Point",
        "coordinates": [
          -43.1994932,
          -22.9847181
        ]
      }
    },
    {
      "type": "Feature",
      "id": "node/1583808949",
      "properties": {
        "timestamp": "2012-04-04T22:52:18Z",
        "version": 2,
        "changeset": 11183335,
        "addr:housenumber": "325 loja J",
        "addr:street": "Rua Von Martius",
        "name": "CycloPonto",
        "phone": "+55-21-25405787",
        "shop": "bicycle",
        "id": "node/1583808949"
      },
      "geometry": {
        "type": "Point",
        "coordinates": [
          -43.222715,
          -22.9646023
        ]
      }
    },
    {
      "type": "Feature",
      "id": "node/1611096007",
      "properties": {
        "timestamp": "2012-01-29T21:50:30Z",
        "version": 1,
        "changeset": 10534788,
        "name": "Cicle Esporte Vista Alegre",
        "shop": "bicycle",
        "id": "node/1611096007"
      },
      "geometry": {
        "type": "Point",
        "coordinates": [
          -43.3153795,
          -22.8265773
        ]
      }
    },
    {
      "type": "Feature",
      "id": "node/1622794819",
      "properties": {
        "timestamp": "2012-02-07T23:15:18Z",
        "version": 1,
        "changeset": 10618272,
        "name": "Real Bike",
        "phone": "+55-21-22655097",
        "service:bicycle:cleaning": "yes",
        "service:bicycle:pump": "yes",
        "service:bicycle:rental": "yes",
        "service:bicycle:repair": "yes",
        "service:bicycle:retail": "yes",
        "service:bicycle:second_hand": "yes",
        "shop": "bicycle",
        "id": "node/1622794819"
      },
      "geometry": {
        "type": "Point",
        "coordinates": [
          -43.1788449,
          -22.9243518
        ]
      }
    },
    {
      "type": "Feature",
      "id": "node/1788105646",
      "properties": {
        "timestamp": "2012-11-27T15:21:55Z",
        "version": 3,
        "changeset": 14060260,
        "addr:housenumber": "1",
        "addr:street": "Rua Alberto Ribeiro",
        "name": "Robson Bike",
        "shop": "bicycle",
        "source": "survey",
        "id": "node/1788105646"
      },
      "geometry": {
        "type": "Point",
        "coordinates": [
          -43.2258912,
          -22.965256
        ]
      }
    },
    {
      "type": "Feature",
      "id": "node/1814202907",
      "properties": {
        "timestamp": "2019-07-22T20:45:18Z",
        "version": 2,
        "changeset": 72531162,
        "name": "Bicicletas Flamengo",
        "shop": "bicycle",
        "id": "node/1814202907"
      },
      "geometry": {
        "type": "Point",
        "coordinates": [
          -43.1770551,
          -22.9398956
        ]
      }
    },
    {
      "type": "Feature",
      "id": "node/1976977463",
      "properties": {
        "timestamp": "2012-10-21T19:14:52Z",
        "version": 1,
        "changeset": 13584538,
        "addr:housenumber": "697 Lojas A, B e C",
        "addr:street": "Avenida Italianos",
        "name": "Casa São João Batista Bicicletas",
        "shop": "bicycle",
        "id": "node/1976977463"
      },
      "geometry": {
        "type": "Point",
        "coordinates": [
          -43.350045,
          -22.8474361
        ]
      }
    },
    {
      "type": "Feature",
      "id": "node/1977835680",
      "properties": {
        "timestamp": "2022-05-27T08:38:51Z",
        "version": 2,
        "changeset": 121562635,
        "addr:housenumber": "4 Loja 2",
        "addr:street": "Rua Almirante Cochrane",
        "name": "Cicle Copa Sul",
        "opening_hours": "Mo-Fr 09:00-18:30; Sa 09:00-13:30",
        "phone": "+55-21-22348155",
        "shop": "bicycle",
        "website": "https://www.angelfire.com/bc2/copasul/",
        "id": "node/1977835680"
      },
      "geometry": {
        "type": "Point",
        "coordinates": [
          -43.2247548,
          -22.9182443
        ]
      }
    },
    {
      "type": "Feature",
      "id": "node/1990989779",
      "properties": {
        "timestamp": "2013-01-16T23:32:32Z",
        "version": 2,
        "changeset": 14678953,
        "addr:housenumber": "20C",
        "addr:street": "Rua Francisco Otaviano",
        "name": "Velô eBike",
        "shop": "bicycle",
        "id": "node/1990989779"
      },
      "geometry": {
        "type": "Point",
        "coordinates": [
          -43.1891922,
          -22.9864096
        ]
      }
    },
    {
      "type": "Feature",
      "id": "node/2001272690",
      "properties": {
        "timestamp": "2012-11-07T13:36:00Z",
        "version": 1,
        "changeset": 13785435,
        "addr:housenumber": "2 - Anexo",
        "addr:street": "Rua Xavier dos Pássaros",
        "name": "Melo's Cycle",
        "phone": "+55-21-39799838",
        "shop": "bicycle",
        "website": "http://www.meloscicles.com.br/",
        "id": "node/2001272690"
      },
      "geometry": {
        "type": "Point",
        "coordinates": [
          -43.3046082,
          -22.8958312
        ]
      }
    },
    {
      "type": "Feature",
      "id": "node/2001277758",
      "properties": {
        "timestamp": "2012-11-07T13:43:21Z",
        "version": 1,
        "changeset": 13785521,
        "addr:housenumber": "96 - Loja A",
        "addr:street": "Rua Adolfo Bergamini",
        "name": "Melo's Cicle",
        "phone": "+55-21-39799841",
        "shop": "bicycle",
        "website": "http://www.meloscicles.com.br",
        "id": "node/2001277758"
      },
      "geometry": {
        "type": "Point",
        "coordinates": [
          -43.2954935,
          -22.897708
        ]
      }
    },
    {
      "type": "Feature",
      "id": "node/2001328842",
      "properties": {
        "timestamp": "2015-07-05T12:15:48Z",
        "version": 2,
        "changeset": 32424402,
        "addr:housenumber": "40",
        "addr:street": "Avenida Genaro de Carvalho",
        "name": "CicloPonto",
        "phone": "+55-21-24875182",
        "shop": "bicycle",
        "id": "node/2001328842"
      },
      "geometry": {
        "type": "Point",
        "coordinates": [
          -43.4465819,
          -23.0132383
        ]
      }
    },
    {
      "type": "Feature",
      "id": "node/2001355396",
      "properties": {
        "timestamp": "2014-09-17T02:03:07Z",
        "version": 2,
        "changeset": 25491651,
        "addr:housenumber": "127",
        "addr:street": "Praia das Pitangueiras",
        "name": "Ciclista da Ilha",
        "shop": "bicycle",
        "id": "node/2001355396"
      },
      "geometry": {
        "type": "Point",
        "coordinates": [
          -43.1755695,
          -22.819058
        ]
      }
    },
    {
      "type": "Feature",
      "id": "node/2001358678",
      "properties": {
        "timestamp": "2015-10-23T13:04:51Z",
        "version": 2,
        "changeset": 34820466,
        "addr:housenumber": "91",
        "addr:street": "Rua Jaime Perdigão",
        "name": "Cicle Zidan",
        "phone": "+55-21-33535470",
        "shop": "bicycle",
        "website": "http://www.zidan.com.br/",
        "id": "node/2001358678"
      },
      "geometry": {
        "type": "Point",
        "coordinates": [
          -43.193511,
          -22.7976394
        ]
      }
    },
    {
      "type": "Feature",
      "id": "node/2001375625",
      "properties": {
        "timestamp": "2019-03-19T01:04:27Z",
        "version": 2,
        "changeset": 68277328,
        "addr:housenumber": "622",
        "addr:street": "Estrada da Cacuia",
        "name": "Star Bike",
        "shop": "bicycle",
        "website": "https://www.starbike.com.br/",
        "id": "node/2001375625"
      },
      "geometry": {
        "type": "Point",
        "coordinates": [
          -43.1858747,
          -22.8109786
        ]
      }
    },
    {
      "type": "Feature",
      "id": "node/2014546050",
      "properties": {
        "timestamp": "2020-01-05T16:34:32Z",
        "version": 3,
        "changeset": 79217026,
        "addr:city": "Rio de Janeiro",
        "addr:housenumber": "10 loja A",
        "addr:postcode": "22460-290",
        "addr:street": "Rua Marquês de Sabará",
        "addr:suburb": "Jardim Botânico",
        "name": "Intense Bike",
        "phone": "+55-21-38752620",
        "shop": "bicycle",
        "source": "survey",
        "website": "http://intensebike.com.br",
        "id": "node/2014546050"
      },
      "geometry": {
        "type": "Point",
        "coordinates": [
          -43.2316135,
          -22.9666306
        ]
      }
    },
    {
      "type": "Feature",
      "id": "node/2029084284",
      "properties": {
        "timestamp": "2012-11-23T23:05:18Z",
        "version": 1,
        "changeset": 14006530,
        "addr:housenumber": "245",
        "addr:postcode": "20541-100",
        "addr:street": "Rua Maxwell",
        "name": "Centro Ciclismo Boulevard",
        "phone": "+55-21-25717999",
        "shop": "bicycle",
        "source": "survey",
        "id": "node/2029084284"
      },
      "geometry": {
        "type": "Point",
        "coordinates": [
          -43.2435124,
          -22.9202966
        ]
      }
    },
    {
      "type": "Feature",
      "id": "node/2031562977",
      "properties": {
        "timestamp": "2022-05-27T08:40:47Z",
        "version": 4,
        "changeset": 121562746,
        "addr:city": "Rio de Janeiro",
        "addr:housenumber": "55",
        "addr:postcode": "22080-040",
        "addr:street": "Rua Francisco Otaviano",
        "addr:suburb": "Copacabana",
        "name": "Fietsrio",
        "phone": "+55 21 2247-0018",
        "shop": "bicycle",
        "source": "survey",
        "website": "https://www.fietsrio.com.br/",
        "id": "node/2031562977"
      },
      "geometry": {
        "type": "Point",
        "coordinates": [
          -43.1903683,
          -22.9870276
        ]
      }
    },
    {
      "type": "Feature",
      "id": "node/2031586130",
      "properties": {
        "timestamp": "2012-11-25T11:05:20Z",
        "version": 1,
        "changeset": 14026345,
        "addr:housenumber": "55",
        "addr:postcode": "22081-025",
        "addr:street": "Rua Júlio de Castilhos",
        "name": "Cicle Eletrodomésticos Copa Sul",
        "phone": "+55-21-25211449",
        "shop": "bicycle",
        "source": "survey",
        "id": "node/2031586130"
      },
      "geometry": {
        "type": "Point",
        "coordinates": [
          -43.191885,
          -22.984417
        ]
      }
    },
    {
      "type": "Feature",
      "id": "node/2031591084",
      "properties": {
        "timestamp": "2013-05-24T15:16:00Z",
        "version": 2,
        "changeset": 16267198,
        "addr:housenumber": "120",
        "addr:postcode": "22031-070",
        "addr:street": "Rua Siqueira Campos",
        "name": "Bicicletas Copacabana",
        "phone": "+55-21-22553176",
        "shop": "bicycle",
        "source": "survey",
        "id": "node/2031591084"
      },
      "geometry": {
        "type": "Point",
        "coordinates": [
          -43.1869933,
          -22.9663504
        ]
      }
    },
    {
      "type": "Feature",
      "id": "node/2031595294",
      "properties": {
        "timestamp": "2012-11-25T11:09:50Z",
        "version": 1,
        "changeset": 14026438,
        "addr:housenumber": "44 - Loja B",
        "addr:street": "Rua Humaitá",
        "name": "Branco Bike",
        "phone": "+55-21-25270047",
        "shop": "bicycle",
        "source": "survey",
        "id": "node/2031595294"
      },
      "geometry": {
        "type": "Point",
        "coordinates": [
          -43.197931,
          -22.9551081
        ]
      }
    },
    {
      "type": "Feature",
      "id": "node/2036693872",
      "properties": {
        "timestamp": "2012-11-27T17:14:27Z",
        "version": 1,
        "changeset": 14061523,
        "addr:housenumber": "70",
        "addr:street": "Rua José Vicente",
        "name": "Bicicletas Carioca",
        "shop": "bicycle",
        "source": "survey",
        "website": "https://www.facebook.com/bicicletas.carioca",
        "id": "node/2036693872"
      },
      "geometry": {
        "type": "Point",
        "coordinates": [
          -43.2574466,
          -22.9214261
        ]
      }
    },
    {
      "type": "Feature",
      "id": "node/2038253919",
      "properties": {
        "timestamp": "2012-11-28T14:28:16Z",
        "version": 1,
        "changeset": 14073077,
        "name": "Norte Bike",
        "shop": "bicycle",
        "id": "node/2038253919"
      },
      "geometry": {
        "type": "Point",
        "coordinates": [
          -43.3100848,
          -22.8820912
        ]
      }
    },
    {
      "type": "Feature",
      "id": "node/2044814270",
      "properties": {
        "timestamp": "2019-03-19T05:47:59Z",
        "version": 2,
        "changeset": 68281748,
        "addr:housenumber": "719 Loja 2",
        "addr:street": "Rua Jardim Botânico",
        "name": "Special Bike",
        "phone": "+55-21-21430181",
        "shop": "bicycle",
        "source": "survey",
        "website": "https://www.specialbikebotafogo.com.br/loja/company.php",
        "id": "node/2044814270"
      },
      "geometry": {
        "type": "Point",
        "coordinates": [
          -43.2188711,
          -22.9660839
        ]
      }
    },
    {
      "type": "Feature",
      "id": "node/2093245171",
      "properties": {
        "timestamp": "2016-01-18T00:49:49Z",
        "version": 2,
        "changeset": 36646156,
        "addr:city": "Rio de Janeiro",
        "addr:door": "Loja I",
        "addr:housenumber": "35",
        "addr:street": "Rua Barão do Flamengo",
        "addr:suburb": "Flamengo",
        "name": "Free Bike",
        "phone": "+55 21 2225-6077",
        "shop": "bicycle",
        "id": "node/2093245171"
      },
      "geometry": {
        "type": "Point",
        "coordinates": [
          -43.17608,
          -22.9331576
        ]
      }
    },
    {
      "type": "Feature",
      "id": "node/2093285905",
      "properties": {
        "timestamp": "2013-01-03T11:59:14Z",
        "version": 1,
        "changeset": 14511413,
        "addr:housenumber": "S/N - Box 44",
        "addr:street": "Rua Nelson Mandela",
        "name": "SOS Bike",
        "phone": "+55-21-22265093",
        "shop": "bicycle",
        "source": "survey",
        "id": "node/2093285905"
      },
      "geometry": {
        "type": "Point",
        "coordinates": [
          -43.1840261,
          -22.9500828
        ]
      }
    },
    {
      "type": "Feature",
      "id": "node/2098740176",
      "properties": {
        "timestamp": "2023-10-20T04:07:35Z",
        "version": 2,
        "changeset": 142848113,
        "addr:housenumber": "13-A",
        "addr:street": "Rua André Cavalcanti",
        "addr:suburb": "Centro",
        "name": "Eliel Bike",
        "opening_hours": "Mo-Fr 09:00-18:00; Sa 09:00-14:30",
        "phone": "+55-21-2221-6088",
        "phone:2": "+55-21-3904-1946",
        "phone:3": "+55-21-7682-9015",
        "shop": "bicycle",
        "id": "node/2098740176"
      },
      "geometry": {
        "type": "Point",
        "coordinates": [
          -43.1867319,
          -22.9138303
        ]
      }
    },
    {
      "type": "Feature",
      "id": "node/2098757695",
      "properties": {
        "timestamp": "2013-01-06T20:15:23Z",
        "version": 1,
        "changeset": 14555015,
        "addr:housenumber": "71",
        "addr:street": "Rua Riachuelo",
        "name": "Bicicletas da Lapa",
        "phone": "+55-21-2224-0428",
        "shop": "bicycle",
        "id": "node/2098757695"
      },
      "geometry": {
        "type": "Point",
        "coordinates": [
          -43.1826025,
          -22.9142565
        ]
      }
    },
    {
      "type": "Feature",
      "id": "node/2102071525",
      "properties": {
        "timestamp": "2016-09-14T10:52:08Z",
        "version": 2,
        "changeset": 42146442,
        "addr:city": "Rio de Janeiro",
        "addr:housenumber": "18E",
        "addr:street": "Rua Visconde da Graça",
        "addr:suburb": "Jardim Botânico",
        "name": "Speed Bikes",
        "phone": "+55 21 2294-9246",
        "shop": "bicycle",
        "id": "node/2102071525"
      },
      "geometry": {
        "type": "Point",
        "coordinates": [
          -43.2176662,
          -22.9639313
        ]
      }
    },
    {
      "type": "Feature",
      "id": "node/2107879383",
      "properties": {
        "timestamp": "2019-03-19T05:54:54Z",
        "version": 4,
        "changeset": 68281884,
        "addr:housenumber": "1741",
        "addr:street": "Avenida Brás de Pina",
        "name": "Star Bike",
        "opening_hours": "Mo-Fr 08:00-18:00; Sa 08:00-16:00",
        "phone": "+55-21-3013-9594",
        "phone:2": "+55-21-3013-8155",
        "shop": "bicycle",
        "website": "https://www.starbike.com.br/",
        "id": "node/2107879383"
      },
      "geometry": {
        "type": "Point",
        "coordinates": [
          -43.3152462,
          -22.8374929
        ]
      }
    },
    {
      "type": "Feature",
      "id": "node/2111111289",
      "properties": {
        "timestamp": "2013-01-14T18:34:47Z",
        "version": 1,
        "changeset": 14651698,
        "addr:housenumber": "3962",
        "addr:postcode": "22611-020",
        "addr:street": "Estrada do Joá",
        "name": "Renato Estrella Bicicletas Simples Ltda",
        "phone": "+55-21-3298-5364",
        "shop": "bicycle",
        "website": "www.renatoestrella.com.br",
        "id": "node/2111111289"
      },
      "geometry": {
        "type": "Point",
        "coordinates": [
          -43.2962175,
          -23.0098537
        ]
      }
    },
    {
      "type": "Feature",
      "id": "node/2111253716",
      "properties": {
        "timestamp": "2014-04-26T16:11:50Z",
        "version": 2,
        "changeset": 21957668,
        "addr:housenumber": "30",
        "addr:street": "Rua Rocha Pombo",
        "name": "Mini Bike",
        "phone": "+55 21 2258-9177;+55 21 8185-8715",
        "shop": "bicycle",
        "id": "node/2111253716"
      },
      "geometry": {
        "type": "Point",
        "coordinates": [
          -43.2432552,
          -22.9252945
        ]
      }
    },
    {
      "type": "Feature",
      "id": "node/2115080943",
      "properties": {
        "timestamp": "2024-01-17T15:36:21Z",
        "version": 3,
        "changeset": 146370386,
        "addr:housenumber": "201",
        "addr:postcode": "20510-400",
        "addr:street": "Rua Guaxupé",
        "name": "Road Cycle",
        "opening_hours": "Mo-Fr 09:00-18:00; Sa 09:00-12:00",
        "phone": "+552125714972",
        "service:bicycle:pump": "yes",
        "shop": "bicycle",
        "source": "survey",
        "id": "node/2115080943"
      },
      "geometry": {
        "type": "Point",
        "coordinates": [
          -43.2412063,
          -22.9319346
        ]
      }
    },
    {
      "type": "Feature",
      "id": "node/2222862479",
      "properties": {
        "timestamp": "2013-03-25T17:47:29Z",
        "version": 1,
        "changeset": 15494364,
        "addr:housenumber": "167A",
        "addr:street": "Estrada do Colégio",
        "opening_hours": "Mo-Fr 09:00-16:30",
        "shop": "bicycle",
        "source": "survey",
        "id": "node/2222862479"
      },
      "geometry": {
        "type": "Point",
        "coordinates": [
          -43.3336691,
          -22.8388964
        ]
      }
    },
    {
      "type": "Feature",
      "id": "node/2302028049",
      "properties": {
        "timestamp": "2013-05-13T01:44:15Z",
        "version": 1,
        "changeset": 16104819,
        "addr:housenumber": "160 Loja A",
        "addr:street": "Rua Heitor Carrilho",
        "name": "Radical Bike",
        "shop": "bicycle",
        "id": "node/2302028049"
      },
      "geometry": {
        "type": "Point",
        "coordinates": [
          -43.1995782,
          -22.9137846
        ]
      }
    },
    {
      "type": "Feature",
      "id": "node/2318497671",
      "properties": {
        "timestamp": "2013-05-24T15:36:01Z",
        "version": 1,
        "changeset": 16267480,
        "name": "BikeTech",
        "shop": "bicycle",
        "source": "survey",
        "id": "node/2318497671"
      },
      "geometry": {
        "type": "Point",
        "coordinates": [
          -43.2237245,
          -22.9826926
        ]
      }
    },
    {
      "type": "Feature",
      "id": "node/2322537087",
      "properties": {
        "timestamp": "2013-05-27T22:18:33Z",
        "version": 1,
        "changeset": 16316796,
        "shop": "bicycle",
        "source": "survey",
        "id": "node/2322537087"
      },
      "geometry": {
        "type": "Point",
        "coordinates": [
          -43.1961276,
          -22.956894
        ]
      }
    },
    {
      "type": "Feature",
      "id": "node/2356511301",
      "properties": {
        "timestamp": "2022-03-17T13:19:40Z",
        "version": 3,
        "changeset": 118593806,
        "addr:housenumber": "60",
        "addr:street": "Rua Senador Camará",
        "name": "Marrafa's Bike Sport",
        "opening_hours": "Mo-Fr 08:00-18:30; Sa 08:00-14:00",
        "phone": "+55-21-33175841",
        "shop": "bicycle",
        "source": "survey",
        "id": "node/2356511301"
      },
      "geometry": {
        "type": "Point",
        "coordinates": [
          -43.6854089,
          -22.9147505
        ]
      }
    },
    {
      "type": "Feature",
      "id": "node/2356515681",
      "properties": {
        "timestamp": "2014-08-07T19:43:36Z",
        "version": 2,
        "changeset": 24602567,
        "addr:housenumber": "37",
        "addr:street": "Avenida Isabel",
        "name": "Bike & Cia.",
        "opening_hours": "Mo-Fr 08:00-19:00; Sa 08:00-15:00",
        "phone": "+55-21-33950268",
        "shop": "bicycle",
        "source": "survey",
        "id": "node/2356515681"
      },
      "geometry": {
        "type": "Point",
        "coordinates": [
          -43.6820451,
          -22.9201425
        ]
      }
    },
    {
      "type": "Feature",
      "id": "node/2356787344",
      "properties": {
        "timestamp": "2013-06-23T03:17:40Z",
        "version": 1,
        "changeset": 16663884,
        "addr:housenumber": "408",
        "addr:street": "Rua Capitão Rezende",
        "phone": "+55-21-25016417",
        "shop": "bicycle",
        "source": "survey",
        "id": "node/2356787344"
      },
      "geometry": {
        "type": "Point",
        "coordinates": [
          -43.2725506,
          -22.8963386
        ]
      }
    },
    {
      "type": "Feature",
      "id": "node/2356787663",
      "properties": {
        "timestamp": "2013-06-23T03:22:44Z",
        "version": 1,
        "changeset": 16663897,
        "addr:housenumber": "151",
        "addr:street": "Rua Vinte e Quatro de Maio",
        "name": "Junior Bicicletas",
        "phone": "+55-21-78798697; +55-21-86807732",
        "shop": "bicycle",
        "source": "survey",
        "id": "node/2356787663"
      },
      "geometry": {
        "type": "Point",
        "coordinates": [
          -43.2490273,
          -22.9013596
        ]
      }
    },
    {
      "type": "Feature",
      "id": "node/2356799729",
      "properties": {
        "timestamp": "2013-06-23T04:33:16Z",
        "version": 1,
        "changeset": 16664101,
        "addr:street": "Rua Petrocochino",
        "name": "Aline Vila Bike",
        "phone": "+55-21-22588066",
        "shop": "bicycle",
        "source": "survey",
        "id": "node/2356799729"
      },
      "geometry": {
        "type": "Point",
        "coordinates": [
          -43.2541988,
          -22.9162327
        ]
      }
    },
    {
      "type": "Feature",
      "id": "node/2384504584",
      "properties": {
        "timestamp": "2013-07-14T16:52:50Z",
        "version": 1,
        "changeset": 16951631,
        "addr:city": "Rio de Janeiro",
        "addr:housenumber": "35",
        "addr:street": "Rua Barão de São Félix",
        "name": "Theo Bike",
        "phone": "+55-21-22030642",
        "shop": "bicycle",
        "source": "survey",
        "id": "node/2384504584"
      },
      "geometry": {
        "type": "Point",
        "coordinates": [
          -43.1885461,
          -22.8993832
        ]
      }
    },
    {
      "type": "Feature",
      "id": "node/2385461815",
      "properties": {
        "timestamp": "2013-07-15T15:02:34Z",
        "version": 1,
        "changeset": 16963460,
        "addr:housenumber": "386",
        "addr:street": "Estrada Coronel Vieira",
        "name": "Bike Eli & Leo",
        "phone": "+55-21-33516347",
        "shop": "bicycle",
        "source": "survey",
        "id": "node/2385461815"
      },
      "geometry": {
        "type": "Point",
        "coordinates": [
          -43.319605,
          -22.8475419
        ]
      }
    },
    {
      "type": "Feature",
      "id": "node/2414047280",
      "properties": {
        "timestamp": "2013-08-11T00:54:19Z",
        "version": 1,
        "changeset": 17298046,
        "name": "TriCiclo - Casa Nuvem - Ciclo Courier",
        "shop": "bicycle",
        "source": "survey",
        "id": "node/2414047280"
      },
      "geometry": {
        "type": "Point",
        "coordinates": [
          -43.1770883,
          -22.9154717
        ]
      }
    },
    {
      "type": "Feature",
      "id": "node/2430528585",
      "properties": {
        "timestamp": "2013-08-24T21:31:39Z",
        "version": 1,
        "changeset": 17490938,
        "addr:city": "Rio de Janeiro",
        "addr:housenumber": "160",
        "addr:street": "Rua General Belegarde",
        "name": "Pedivela Bikes",
        "opening_hours": "Mo 13:00-19:00; Tu-Fr 08:00-18:00; Sa 08:00-17:00",
        "phone": "+55-21-30454699",
        "shop": "bicycle",
        "source": "survey",
        "website": "http://www.pedivelabikes.com.br/",
        "id": "node/2430528585"
      },
      "geometry": {
        "type": "Point",
        "coordinates": [
          -43.2725019,
          -22.9082606
        ]
      }
    },
    {
      "type": "Feature",
      "id": "node/2430615262",
      "properties": {
        "timestamp": "2013-08-25T00:13:23Z",
        "version": 1,
        "changeset": 17492153,
        "addr:city": "Rio de Janeiro",
        "addr:housename": "Loja B",
        "addr:housenumber": "9",
        "addr:street": "Rua Minduri",
        "name": "CL Bike",
        "phone": "+55-21-32418162",
        "shop": "bicycle",
        "source": "survey",
        "id": "node/2430615262"
      },
      "geometry": {
        "type": "Point",
        "coordinates": [
          -43.3026708,
          -22.8347649
        ]
      }
    },
    {
      "type": "Feature",
      "id": "node/2439413057",
      "properties": {
        "timestamp": "2013-08-30T17:24:17Z",
        "version": 1,
        "changeset": 17592848,
        "addr:housename": "Loja B",
        "addr:housenumber": "264",
        "addr:street": "Rua Siqueira Campos",
        "name": "Bike Zen",
        "phone": "+55-21-22366557",
        "shop": "bicycle",
        "source": "survey",
        "id": "node/2439413057"
      },
      "geometry": {
        "type": "Point",
        "coordinates": [
          -43.1907034,
          -22.9639797
        ]
      }
    },
    {
      "type": "Feature",
      "id": "node/2524487694",
      "properties": {
        "timestamp": "2013-11-08T17:14:45Z",
        "version": 1,
        "changeset": 18785884,
        "addr:city": "Rio de Janeiro",
        "addr:housenumber": "299 Loja E",
        "addr:street": "Avenida Paulo de Frontin",
        "name": "Bicicletaria AVC",
        "phone": "+55-21-22935143",
        "shop": "bicycle",
        "source": "survey",
        "id": "node/2524487694"
      },
      "geometry": {
        "type": "Point",
        "coordinates": [
          -43.209731,
          -22.918981
        ]
      }
    },
    {
      "type": "Feature",
      "id": "node/2524532275",
      "properties": {
        "timestamp": "2013-11-08T18:14:55Z",
        "version": 1,
        "changeset": 18786937,
        "addr:city": "Rio de Janeiro",
        "addr:housenumber": "1243 Loja A",
        "addr:street": "Rua Barão do Bom Retiro",
        "name": "Fenix Bike",
        "phone": "+55-21-32777579",
        "shop": "bicycle",
        "source": "survey",
        "id": "node/2524532275"
      },
      "geometry": {
        "type": "Point",
        "coordinates": [
          -43.2639869,
          -22.913558
        ]
      }
    },
    {
      "type": "Feature",
      "id": "node/2524536905",
      "properties": {
        "timestamp": "2016-04-21T16:22:18Z",
        "version": 4,
        "changeset": 38756142,
        "addr:city": "Rio de Janeiro",
        "addr:housenumber": "156 Loja A",
        "addr:street": "Rua Aristides Lobo",
        "name": "João Bosco Aparecido",
        "phone": "+55-21-81154468",
        "shop": "bicycle",
        "source": "survey",
        "wheelchair": "yes",
        "id": "node/2524536905"
      },
      "geometry": {
        "type": "Point",
        "coordinates": [
          -43.2089235,
          -22.9213814
        ]
      }
    },
    {
      "type": "Feature",
      "id": "node/2583529464",
      "properties": {
        "timestamp": "2024-08-07T20:17:33Z",
        "version": 3,
        "changeset": 154952460,
        "addr:housenumber": "398",
        "addr:street": "Rua Barão de Mesquita",
        "check_date:opening_hours": "2024-08-07",
        "name": "Cicle Tijuca",
        "opening_hours:signed": "no",
        "service:bicycle:pump": "no",
        "shop": "bicycle",
        "source": "survey",
        "id": "node/2583529464"
      },
      "geometry": {
        "type": "Point",
        "coordinates": [
          -43.2383113,
          -22.9239455
        ]
      }
    },
    {
      "type": "Feature",
      "id": "node/2621647808",
      "properties": {
        "timestamp": "2014-04-12T17:56:22Z",
        "version": 2,
        "changeset": 21650795,
        "addr:city": "Rio de Janeiro",
        "addr:housenumber": "49",
        "addr:postcode": "21250-520",
        "addr:street": "Rua Capitão Cruz",
        "name": "Edson Bike",
        "phone": "+55-21-31375111",
        "shop": "bicycle",
        "source": "survey",
        "id": "node/2621647808"
      },
      "geometry": {
        "type": "Point",
        "coordinates": [
          -43.3043614,
          -22.8226723
        ]
      }
    },
    {
      "type": "Feature",
      "id": "node/2643930697",
      "properties": {
        "timestamp": "2014-01-30T14:26:56Z",
        "version": 1,
        "changeset": 20284460,
        "addr:city": "Rio de Janeiro",
        "addr:housenumber": "597",
        "addr:street": "Rua Angaí",
        "addr:suburb": "Vila Kosmos",
        "name": "Bazar Bike Carioca",
        "phone": "+55-21-24818463",
        "shop": "bicycle",
        "id": "node/2643930697"
      },
      "geometry": {
        "type": "Point",
        "coordinates": [
          -43.3113507,
          -22.8518377
        ]
      }
    },
    {
      "type": "Feature",
      "id": "node/2684462117",
      "properties": {
        "timestamp": "2015-07-04T21:48:16Z",
        "version": 2,
        "changeset": 32415270,
        "name": "Bike Show",
        "shop": "bicycle",
        "id": "node/2684462117"
      },
      "geometry": {
        "type": "Point",
        "coordinates": [
          -43.4734974,
          -23.0166113
        ]
      }
    },
    {
      "type": "Feature",
      "id": "node/2888535715",
      "properties": {
        "timestamp": "2021-02-22T02:12:45Z",
        "version": 3,
        "changeset": 99705879,
        "addr:city": "Rio de Janeiro",
        "addr:housenumber": "410",
        "addr:street": "Estrada da Barra da Tijuca",
        "addr:suburb": "Barra da TIjuca",
        "contact:facebook": "http://facebook.com/renatoestrella",
        "email": "contato@renatoestrella.com.br",
        "name": "Specialized Concept Store",
        "opening_hours": "Mo-Fr 09:00-18:00; Sa 09:00-17:00",
        "phone": "+55 21 24910272",
        "shop": "bicycle",
        "website": "http://renatoestrella.com.br/default-concept.asp",
        "id": "node/2888535715"
      },
      "geometry": {
        "type": "Point",
        "coordinates": [
          -43.3010484,
          -23.0083874
        ]
      }
    },
    {
      "type": "Feature",
      "id": "node/2906248250",
      "properties": {
        "timestamp": "2014-06-08T19:49:47Z",
        "version": 1,
        "changeset": 22816572,
        "addr:city": "Rio de Janeiro",
        "addr:housenumber": "1490",
        "addr:postcode": "21715-321",
        "addr:street": "Avenida de Santa Cruz",
        "name": "H.E. Bicicletas e Motos",
        "phone": "+55-21-33313551",
        "shop": "bicycle",
        "website": "https://www.facebook.com/hebicicletasemotos/info",
        "id": "node/2906248250"
      },
      "geometry": {
        "type": "Point",
        "coordinates": [
          -43.4375968,
          -22.8778802
        ]
      }
    },
    {
      "type": "Feature",
      "id": "node/2906257369",
      "properties": {
        "timestamp": "2014-06-08T19:56:18Z",
        "version": 1,
        "changeset": 22816665,
        "addr:city": "Rio de Janeiro",
        "addr:housenumber": "1347 Loja C",
        "addr:street": "Rua do Imperador",
        "name": "Bike Show Adventure",
        "phone": "+55-21-33365551",
        "shop": "bicycle",
        "website": "http://bikeshowadventure.com.br/",
        "id": "node/2906257369"
      },
      "geometry": {
        "type": "Point",
        "coordinates": [
          -43.436489,
          -22.8782706
        ]
      }
    },
    {
      "type": "Feature",
      "id": "node/2913164190",
      "properties": {
        "timestamp": "2014-06-12T19:10:55Z",
        "version": 2,
        "changeset": 22895192,
        "addr:city": "Rio de Janeiro",
        "addr:housenumber": "63",
        "addr:street": "Rua Bento Lisboa",
        "name": "Karona Bike",
        "phone": "+55-21-22257330;+55-21-22257331",
        "shop": "bicycle",
        "website": "http://www.karonabike.com.br",
        "id": "node/2913164190"
      },
      "geometry": {
        "type": "Point",
        "coordinates": [
          -43.1791231,
          -22.9264595
        ]
      }
    },
    {
      "type": "Feature",
      "id": "node/2926858614",
      "properties": {
        "timestamp": "2022-05-27T08:31:37Z",
        "version": 2,
        "changeset": 121562214,
        "addr:city": "Rio de Janeiro",
        "addr:housenumber": "440 Loja A",
        "addr:postcode": "22081-030",
        "addr:street": "Avenida Rainha Elizabeth da Bélgica",
        "name": "Barcellos Sports Ipanema",
        "shop": "bicycle",
        "start_date": "20140606",
        "website": "https://www.barcellossports.com.br/",
        "id": "node/2926858614"
      },
      "geometry": {
        "type": "Point",
        "coordinates": [
          -43.1938462,
          -22.9855898
        ]
      }
    },
    {
      "type": "Feature",
      "id": "node/2936286847",
      "properties": {
        "timestamp": "2014-08-30T03:01:55Z",
        "version": 4,
        "changeset": 25109638,
        "addr:city": "Rio de Janeiro",
        "addr:country": "BR",
        "addr:housenumber": "413",
        "addr:postcode": "22720-400",
        "addr:street": "Avenida dos Mananciais",
        "fixme": "confirmar se o nome é esse mesmo",
        "name": "Bike Mananciais",
        "service:bicycle:repair": "yes",
        "service:bicycle:retail": "yes",
        "shop": "bicycle",
        "id": "node/2936286847"
      },
      "geometry": {
        "type": "Point",
        "coordinates": [
          -43.3819767,
          -22.9169077
        ]
      }
    },
    {
      "type": "Feature",
      "id": "node/2938856492",
      "properties": {
        "timestamp": "2019-03-19T05:40:18Z",
        "version": 4,
        "changeset": 68281595,
        "addr:city": "Rio de Janeiro",
        "addr:housenumber": "6700 Bloco 1 Loja 108",
        "addr:postcode": "22793-080",
        "addr:street": "Avenida das Américas",
        "addr:suburb": "Barra da Tijuca",
        "name": "Voight Sports",
        "opening_hours": "Mo-Fr 09:00-18:00; Sa 09:00-16:00",
        "phone": "+55 21 3139-5001",
        "shop": "bicycle",
        "website": "https://voight.com.br/",
        "id": "node/2938856492"
      },
      "geometry": {
        "type": "Point",
        "coordinates": [
          -43.379036,
          -22.999528
        ]
      }
    },
    {
      "type": "Feature",
      "id": "node/3093559578",
      "properties": {
        "timestamp": "2014-09-24T06:13:11Z",
        "version": 1,
        "changeset": 25638486,
        "addr:city": "Rio de Janeiro",
        "addr:housenumber": "29",
        "addr:street": "Travessa Oliveira",
        "addr:suburb": "Rocinha",
        "name": "Rocinha Bike's",
        "phone": "+55-21-981172855",
        "shop": "bicycle",
        "id": "node/3093559578"
      },
      "geometry": {
        "type": "Point",
        "coordinates": [
          -43.2506993,
          -22.9914538
        ]
      }
    },
    {
      "type": "Feature",
      "id": "node/3215756176",
      "properties": {
        "timestamp": "2015-02-02T00:54:48Z",
        "version": 2,
        "changeset": 28559190,
        "name": "Bike Tech",
        "shop": "bicycle",
        "id": "node/3215756176"
      },
      "geometry": {
        "type": "Point",
        "coordinates": [
          -43.4883306,
          -23.0217862
        ]
      }
    },
    {
      "type": "Feature",
      "id": "node/3220749233",
      "properties": {
        "timestamp": "2014-12-21T22:50:56Z",
        "version": 2,
        "changeset": 27620091,
        "addr:city": "Rio de Janeiro",
        "addr:housenumber": "1773",
        "addr:street": "Rua Sul América",
        "addr:suburb": "Bangu",
        "name": "Tudilene Bike Bangu",
        "phone": "+552134645492",
        "shop": "bicycle",
        "id": "node/3220749233"
      },
      "geometry": {
        "type": "Point",
        "coordinates": [
          -43.4644316,
          -22.8734166
        ]
      }
    },
    {
      "type": "Feature",
      "id": "node/3220749234",
      "properties": {
        "timestamp": "2014-12-05T20:48:09Z",
        "version": 1,
        "changeset": 27274180,
        "addr:city": "Rio de Janeiro",
        "addr:housenumber": "71",
        "addr:postcode": "21870-140",
        "addr:street": "Rua Sabogi",
        "addr:suburb": "Bangu",
        "name": "Bicicletas Machado",
        "phone": "+55 21 3331-0795",
        "shop": "bicycle",
        "id": "node/3220749234"
      },
      "geometry": {
        "type": "Point",
        "coordinates": [
          -43.462774,
          -22.8744842
        ]
      }
    },
    {
      "type": "Feature",
      "id": "node/3220749235",
      "properties": {
        "timestamp": "2014-12-05T20:48:09Z",
        "version": 1,
        "changeset": 27274180,
        "addr:city": "Rio de Janeiro",
        "addr:housenumber": "20",
        "addr:street": "Avenida Ribeiro Dantas",
        "addr:suburb": "Bangu",
        "name": "Cabral Adevance",
        "phone": "+55 21 99563-3076",
        "shop": "bicycle",
        "id": "node/3220749235"
      },
      "geometry": {
        "type": "Point",
        "coordinates": [
          -43.4621517,
          -22.8748846
        ]
      }
    },
    {
      "type": "Feature",
      "id": "node/3220749236",
      "properties": {
        "timestamp": "2014-12-05T20:48:09Z",
        "version": 1,
        "changeset": 27274180,
        "addr:city": "Rio de Janeiro",
        "addr:housenumber": "1488",
        "addr:street": "Rua Coronel Tamarindo",
        "addr:suburb": "Bangu",
        "name": "GB Bicicletas",
        "phone": "+55 21 2161-3154",
        "shop": "bicycle",
        "id": "node/3220749236"
      },
      "geometry": {
        "type": "Point",
        "coordinates": [
          -43.4618299,
          -22.8749982
        ]
      }
    },
    {
      "type": "Feature",
      "id": "node/3235110038",
      "properties": {
        "timestamp": "2018-07-24T03:16:00Z",
        "version": 2,
        "changeset": 61003996,
        "name": "Boys Bike",
        "shop": "bicycle",
        "id": "node/3235110038"
      },
      "geometry": {
        "type": "Point",
        "coordinates": [
          -43.4815983,
          -23.0253255
        ]
      }
    },
    {
      "type": "Feature",
      "id": "node/3247029648",
      "properties": {
        "timestamp": "2014-12-21T22:50:54Z",
        "version": 1,
        "changeset": 27620091,
        "name": "Arlindo Bike",
        "shop": "bicycle",
        "id": "node/3247029648"
      },
      "geometry": {
        "type": "Point",
        "coordinates": [
          -43.4631078,
          -22.8702506
        ]
      }
    },
    {
      "type": "Feature",
      "id": "node/3251106613",
      "properties": {
        "timestamp": "2015-06-30T04:24:31Z",
        "version": 2,
        "changeset": 32299058,
        "addr:city": "Rio de Janeiro",
        "addr:housenumber": "45",
        "addr:postcode": "22621-200",
        "addr:street": "Avenida Olegário Maciel",
        "addr:suburb": "Barra da Tijuca",
        "name": "CycloPonto",
        "phone": "+55 21 3153-3365",
        "shop": "bicycle",
        "id": "node/3251106613"
      },
      "geometry": {
        "type": "Point",
        "coordinates": [
          -43.3057107,
          -23.0143266
        ]
      }
    },
    {
      "type": "Feature",
      "id": "node/3301346393",
      "properties": {
        "timestamp": "2015-01-20T21:03:52Z",
        "version": 1,
        "changeset": 28294194,
        "addr:city": "Rio de Janeiro",
        "addr:housenumber": "112",
        "addr:street": "Rua Amaral Costa",
        "addr:suburb": "Campo Grande",
        "name": "Bike Show Adventure",
        "phone": "+55-21-24131775",
        "shop": "bicycle",
        "website": "http://www.bikeshowadventure.com.br",
        "id": "node/3301346393"
      },
      "geometry": {
        "type": "Point",
        "coordinates": [
          -43.5611208,
          -22.9055365
        ]
      }
    },
    {
      "type": "Feature",
      "id": "node/3301346404",
      "properties": {
        "timestamp": "2015-01-20T21:11:02Z",
        "version": 2,
        "changeset": 28294367,
        "addr:city": "Rio de Janeiro",
        "addr:housenumber": "70",
        "addr:street": "Rua Ferreira Borges",
        "addr:suburb": "Campo Grande",
        "name": "A Nova Bicicleta",
        "phone": "+55-21-24135446",
        "shop": "bicycle",
        "website": "http://novabicicleta.com.br/",
        "id": "node/3301346404"
      },
      "geometry": {
        "type": "Point",
        "coordinates": [
          -43.5566449,
          -22.9019249
        ]
      }
    },
    {
      "type": "Feature",
      "id": "node/3301346411",
      "properties": {
        "timestamp": "2015-01-20T21:03:53Z",
        "version": 1,
        "changeset": 28294194,
        "addr:city": "Rio de Janeiro",
        "addr:housenumber": "107",
        "addr:street": "Rua Aurélio de Figueiredo",
        "addr:suburb": "Campo Grande",
        "name": "Marrafa's",
        "shop": "bicycle",
        "id": "node/3301346411"
      },
      "geometry": {
        "type": "Point",
        "coordinates": [
          -43.556543,
          -22.9045191
        ]
      }
    },
    {
      "type": "Feature",
      "id": "node/3301415874",
      "properties": {
        "timestamp": "2015-01-20T21:29:07Z",
        "version": 1,
        "changeset": 28294743,
        "addr:city": "Rio de Janeiro",
        "addr:housenumber": "365",
        "addr:street": "Estrada dos Bandeirantes",
        "addr:suburb": "Taquara",
        "name": "Bike Show Adventure",
        "phone": "+55-21-34329984",
        "shop": "bicycle",
        "website": "http://www.bikeshowadventure.com.br/",
        "id": "node/3301415874"
      },
      "geometry": {
        "type": "Point",
        "coordinates": [
          -43.3733967,
          -22.9267141
        ]
      }
    },
    {
      "type": "Feature",
      "id": "node/3301821799",
      "properties": {
        "timestamp": "2015-01-21T04:50:03Z",
        "version": 1,
        "changeset": 28299744,
        "addr:city": "Rio de Janeiro",
        "addr:housenumber": "1298",
        "addr:postcode": "23080-000",
        "addr:street": "Rua Campo Grande",
        "addr:suburb": "Campo Grande",
        "name": "Bozó Bicicletas",
        "phone": "+55-21-33948665",
        "shop": "bicycle",
        "id": "node/3301821799"
      },
      "geometry": {
        "type": "Point",
        "coordinates": [
          -43.5621756,
          -22.9021917
        ]
      }
    },
    {
      "type": "Feature",
      "id": "node/3322433217",
      "properties": {
        "timestamp": "2015-01-31T03:49:52Z",
        "version": 1,
        "changeset": 28516556,
        "addr:city": "Rio de Janeiro",
        "addr:housenumber": "61",
        "addr:street": "Rua Lopes de Moura",
        "addr:suburb": "Santa Cruz",
        "name": "Bike & Lar",
        "phone": "+55 21 31569029",
        "shop": "bicycle",
        "id": "node/3322433217"
      },
      "geometry": {
        "type": "Point",
        "coordinates": [
          -43.6839904,
          -22.9181807
        ]
      }
    },
    {
      "type": "Feature",
      "id": "node/3324212448",
      "properties": {
        "timestamp": "2015-01-31T22:21:24Z",
        "version": 1,
        "changeset": 28534404,
        "addr:housenumber": "2840",
        "addr:street": "Avenida João XXIII",
        "name": "Bike & Cia.",
        "phone": "+55 21 33655153",
        "shop": "bicycle",
        "id": "node/3324212448"
      },
      "geometry": {
        "type": "Point",
        "coordinates": [
          -43.7124211,
          -22.9044612
        ]
      }
    },
    {
      "type": "Feature",
      "id": "node/3393182326",
      "properties": {
        "timestamp": "2015-03-10T22:16:38Z",
        "version": 1,
        "changeset": 29394615,
        "addr:city": "Rio de Janeiro",
        "addr:housenumber": "111",
        "addr:street": "Rua Vinícius de Moraes",
        "addr:suburb": "Ipanema",
        "name": "Renato Estrela",
        "phone": "+55 21 2523-4677",
        "shop": "bicycle",
        "website": "http://renatoestrela.com.br/",
        "id": "node/3393182326"
      },
      "geometry": {
        "type": "Point",
        "coordinates": [
          -43.2029803,
          -22.9838741
        ]
      }
    },
    {
      "type": "Feature",
      "id": "node/3393204843",
      "properties": {
        "timestamp": "2015-03-10T22:37:35Z",
        "version": 1,
        "changeset": 29394895,
        "addr:city": "Rio de Janeiro",
        "addr:housenumber": "1292",
        "addr:street": "Rua Conde de Agrolongo",
        "addr:suburb": "Penha",
        "name": "Conde Bikes",
        "phone": "+55 21 2209-4716",
        "shop": "bicycle",
        "id": "node/3393204843"
      },
      "geometry": {
        "type": "Point",
        "coordinates": [
          -43.279761,
          -22.8382544
        ]
      }
    },
    {
      "type": "Feature",
      "id": "node/3465668963",
      "properties": {
        "timestamp": "2015-04-19T16:29:45Z",
        "version": 1,
        "changeset": 30333546,
        "addr:city": "Rio de Janeiro",
        "addr:housenumber": "855",
        "addr:postcode": "22.776-070",
        "addr:room": "109",
        "addr:street": "Avenida dos Flamboyants",
        "addr:suburb": "Barra da Tijuca",
        "name": "Península Bike",
        "phone": "+55 21 2408-4694",
        "shop": "bicycle",
        "website": "http://www.peninsulabike.com.br/",
        "id": "node/3465668963"
      },
      "geometry": {
        "type": "Point",
        "coordinates": [
          -43.3512823,
          -22.989568
        ]
      }
    },
    {
      "type": "Feature",
      "id": "node/3465755586",
      "properties": {
        "timestamp": "2015-04-19T17:27:57Z",
        "version": 1,
        "changeset": 30336096,
        "addr:city": "Rio de Janeiro",
        "addr:housenumber": "1332",
        "addr:postcode": "22770-334",
        "addr:room": "Loja A",
        "addr:street": "Estrada Marechal Miguel Salazar Mendes de Morais",
        "addr:suburb": "Cidade de Deus",
        "name": "Ponto Certo Bike",
        "shop": "bicycle",
        "id": "node/3465755586"
      },
      "geometry": {
        "type": "Point",
        "coordinates": [
          -43.3640623,
          -22.945301
        ]
      }
    },
    {
      "type": "Feature",
      "id": "node/3465853199",
      "properties": {
        "timestamp": "2015-04-19T18:08:37Z",
        "version": 1,
        "changeset": 30337313,
        "addr:city": "Rio de Janeiro",
        "addr:housenumber": "3460",
        "addr:street": "Estrada dos Bandeirantes",
        "name": "Rápido-fom Bike",
        "phone": "+55 21 2426-4243",
        "shop": "bicycle",
        "id": "node/3465853199"
      },
      "geometry": {
        "type": "Point",
        "coordinates": [
          -43.3748909,
          -22.9517373
        ]
      }
    },
    {
      "type": "Feature",
      "id": "node/3466186116",
      "properties": {
        "timestamp": "2015-04-19T20:29:11Z",
        "version": 1,
        "changeset": 30340923,
        "addr:city": "Rio de Janeiro",
        "addr:housenumber": "355",
        "addr:street": "Rua Cerqueira Daltro",
        "addr:suburb": "Cascadura",
        "name": "Oficina das Bikes",
        "opening_hours": "Mo-Fr 09:00-18:00;Sa 09:00-12:00",
        "phone": "+55 21 4107-5559",
        "shop": "bicycle",
        "website": "https://www.facebook.com/Oficinadasbikesrj",
        "id": "node/3466186116"
      },
      "geometry": {
        "type": "Point",
        "coordinates": [
          -43.3224124,
          -22.8797443
        ]
      }
    },
    {
      "type": "Feature",
      "id": "node/3484044486",
      "properties": {
        "timestamp": "2017-01-31T00:12:51Z",
        "version": 2,
        "changeset": 45669406,
        "name": "Planet Bike",
        "service:bicycle:parts": "yes",
        "service:bicycle:pump": "yes",
        "service:bicycle:repair": "yes",
        "service:bicycle:tools": "yes",
        "shop": "bicycle",
        "id": "node/3484044486"
      },
      "geometry": {
        "type": "Point",
        "coordinates": [
          -43.4823403,
          -23.0235698
        ]
      }
    },
    {
      "type": "Feature",
      "id": "node/3541683751",
      "properties": {
        "timestamp": "2015-05-24T14:25:44Z",
        "version": 1,
        "changeset": 31420988,
        "addr:city": "Rio de Janeiro",
        "addr:housenumber": "1088",
        "addr:street": "Avenida Geremário Dantas",
        "addr:suburb": "Freguesia",
        "name": "CTM Bike",
        "phone": "+55 21 2425-0637",
        "shop": "bicycle",
        "id": "node/3541683751"
      },
      "geometry": {
        "type": "Point",
        "coordinates": [
          -43.3515129,
          -22.9367518
        ]
      }
    },
    {
      "type": "Feature",
      "id": "node/3626152230",
      "properties": {
        "timestamp": "2015-06-30T04:43:27Z",
        "version": 1,
        "changeset": 32299182,
        "addr:city": "Rio de Janeiro",
        "addr:housenumber": "189",
        "addr:postcode": "22735-015",
        "addr:street": "Avenida Geremário Dantas",
        "addr:suburb": "Tanque",
        "name": "Bike Sport",
        "phone": "+55 21 2425-1912",
        "shop": "bicycle",
        "id": "node/3626152230"
      },
      "geometry": {
        "type": "Point",
        "coordinates": [
          -43.3600386,
          -22.9206053
        ]
      }
    },
    {
      "type": "Feature",
      "id": "node/3626214654",
      "properties": {
        "timestamp": "2015-06-30T05:41:09Z",
        "version": 1,
        "changeset": 32299699,
        "addr:city": "Rio de Janeiro",
        "addr:housenumber": "600",
        "addr:postcode": "23087-285",
        "addr:room": "Loja B",
        "addr:street": "Estrada do Mendanha",
        "addr:suburb": "Campo Grande",
        "name": "West Bike",
        "phone": "+55 21 2412-9146",
        "shop": "bicycle",
        "id": "node/3626214654"
      },
      "geometry": {
        "type": "Point",
        "coordinates": [
          -43.5566779,
          -22.8844732
        ]
      }
    },
    {
      "type": "Feature",
      "id": "node/3782844522",
      "properties": {
        "timestamp": "2015-10-12T04:24:21Z",
        "version": 2,
        "changeset": 34582113,
        "addr:city": "Rio de Janeiro",
        "addr:housenumber": "13933",
        "addr:street": "Estrada dos Bandeirantes",
        "addr:suburb": "Vargem Pequena",
        "name": "Vargem Bike",
        "phone": "+55 21 7706-9915",
        "shop": "bicycle",
        "id": "node/3782844522"
      },
      "geometry": {
        "type": "Point",
        "coordinates": [
          -43.458484,
          -22.9861192
        ]
      }
    },
    {
      "type": "Feature",
      "id": "node/3782867181",
      "properties": {
        "timestamp": "2022-05-27T08:41:10Z",
        "version": 2,
        "changeset": 121562769,
        "addr:city": "Rio de Janeiro",
        "addr:housenumber": "16061",
        "addr:street": "Estrada dos Bandeirantes",
        "addr:suburb": "Vargem Pequena",
        "name": "Oficina do Camelo",
        "phone": "+55 21 2442-4260",
        "shop": "bicycle",
        "website": "https://www.oficinadocamelo.com.br/",
        "id": "node/3782867181"
      },
      "geometry": {
        "type": "Point",
        "coordinates": [
          -43.4652096,
          -22.9826597
        ]
      }
    },
    {
      "type": "Feature",
      "id": "node/3874035862",
      "properties": {
        "timestamp": "2015-12-02T23:13:15Z",
        "version": 1,
        "changeset": 35717248,
        "addr:city": "Rio de Janeiro",
        "addr:housenumber": "952",
        "addr:postcode": "20960-005",
        "addr:street": "Rua Ana Neri",
        "addr:suburb": "São Francisco Xavier",
        "name": "Rio Bike Shop",
        "phone": "+55 21 976881670",
        "shop": "bicycle",
        "id": "node/3874035862"
      },
      "geometry": {
        "type": "Point",
        "coordinates": [
          -43.2450384,
          -22.8999132
        ]
      }
    },
    {
      "type": "Feature",
      "id": "node/3952877521",
      "properties": {
        "timestamp": "2020-11-27T21:39:52Z",
        "version": 2,
        "changeset": 94915018,
        "addr:city": "Rio de Janeiro",
        "addr:housenumber": "752",
        "addr:street": "Rua Barata Ribeiro",
        "addr:suburb": "Copacabana",
        "name": "Modern Bike",
        "opening_hours": "Mo-Fr 09:30-19:30; Sa 09:30-15:30",
        "phone": "+55 21 2255-3131",
        "shop": "bicycle",
        "website": "http://modernbike.com.br",
        "id": "node/3952877521"
      },
      "geometry": {
        "type": "Point",
        "coordinates": [
          -43.192264,
          -22.9754418
        ]
      }
    },
    {
      "type": "Feature",
      "id": "node/3952906806",
      "properties": {
        "timestamp": "2019-03-19T05:44:09Z",
        "version": 2,
        "changeset": 68281674,
        "addr:city": "Rio de Janeiro",
        "addr:housenumber": "815",
        "addr:street": "Rua Conde de Bonfim",
        "addr:suburb": "Tijuca",
        "name": "Black Tulip",
        "phone": "+55 21 99844-3056",
        "shop": "bicycle",
        "website": "https://blacktulip.com.br/",
        "id": "node/3952906806"
      },
      "geometry": {
        "type": "Point",
        "coordinates": [
          -43.2433964,
          -22.9353758
        ]
      }
    },
    {
      "type": "Feature",
      "id": "node/4159891595",
      "properties": {
        "timestamp": "2023-10-21T23:42:07Z",
        "version": 2,
        "changeset": 142943588,
        "addr:city": "Rio de Janeiro",
        "addr:housenumber": "53",
        "addr:postcode": "20230-180",
        "addr:street": "Rua Carlos de Carvalho",
        "addr:suburb": "Centro",
        "name": "Standbike",
        "phone": "+55 21 2220-5007",
        "shop": "bicycle",
        "website": "https://standbike.com.br/",
        "id": "node/4159891595"
      },
      "geometry": {
        "type": "Point",
        "coordinates": [
          -43.1888715,
          -22.911449
        ]
      }
    },
    {
      "type": "Feature",
      "id": "node/4370504653",
      "properties": {
        "timestamp": "2016-08-28T01:31:31Z",
        "version": 1,
        "changeset": 41746702,
        "name": "Guto Bicicletas",
        "shop": "bicycle",
        "id": "node/4370504653"
      },
      "geometry": {
        "type": "Point",
        "coordinates": [
          -43.564702,
          -22.9125448
        ]
      }
    },
    {
      "type": "Feature",
      "id": "node/4471366888",
      "properties": {
        "timestamp": "2016-10-30T13:24:05Z",
        "version": 1,
        "changeset": 43283627,
        "addr:city": "Rio de Janeiro",
        "addr:door": "Loja F",
        "addr:housenumber": "12",
        "addr:street": "Rua Hipólito da Costa",
        "addr:suburb": "Vila Isabel",
        "name": "Bike G12",
        "phone": "+55 21 2568-3161",
        "shop": "bicycle",
        "id": "node/4471366888"
      },
      "geometry": {
        "type": "Point",
        "coordinates": [
          -43.2402268,
          -22.9144974
        ]
      }
    },
    {
      "type": "Feature",
      "id": "node/4780013228",
      "properties": {
        "timestamp": "2017-04-06T21:45:40Z",
        "version": 1,
        "changeset": 47522057,
        "name": "Lou Bikes",
        "shop": "bicycle",
        "id": "node/4780013228"
      },
      "geometry": {
        "type": "Point",
        "coordinates": [
          -43.446868,
          -22.9926084
        ]
      }
    },
    {
      "type": "Feature",
      "id": "node/4853978678",
      "properties": {
        "timestamp": "2017-05-14T17:47:10Z",
        "version": 1,
        "changeset": 48679604,
        "name": "Zaca Bikes",
        "shop": "bicycle",
        "id": "node/4853978678"
      },
      "geometry": {
        "type": "Point",
        "coordinates": [
          -43.4976345,
          -23.0299496
        ]
      }
    },
    {
      "type": "Feature",
      "id": "node/6022498612",
      "properties": {
        "timestamp": "2018-10-29T14:34:47Z",
        "version": 1,
        "changeset": 63980298,
        "name": "Moto Bike Mania",
        "shop": "bicycle",
        "id": "node/6022498612"
      },
      "geometry": {
        "type": "Point",
        "coordinates": [
          -43.2510517,
          -22.9891005
        ]
      }
    },
    {
      "type": "Feature",
      "id": "node/6137643617",
      "properties": {
        "timestamp": "2018-12-14T16:42:34Z",
        "version": 1,
        "changeset": 65479252,
        "addr:city": "Rio de Janeiro",
        "addr:housenumber": "128",
        "addr:street": "Rua Saint Roman",
        "addr:suburb": "Copacabana",
        "name": "Flash Bikes",
        "phone": "+55 21 41027893",
        "shop": "bicycle",
        "id": "node/6137643617"
      },
      "geometry": {
        "type": "Point",
        "coordinates": [
          -43.1949743,
          -22.9809947
        ]
      }
    },
    {
      "type": "Feature",
      "id": "node/6898683785",
      "properties": {
        "timestamp": "2019-10-19T18:14:56Z",
        "version": 1,
        "changeset": 75936549,
        "addr:street": "Rua Ipiguã",
        "internet_access": "wlan",
        "name": "Meu casa",
        "shop": "bicycle",
        "id": "node/6898683785"
      },
      "geometry": {
        "type": "Point",
        "coordinates": [
          -43.6106148,
          -22.890454
        ]
      }
    },
    {
      "type": "Feature",
      "id": "node/9652973930",
      "properties": {
        "timestamp": "2022-04-09T00:25:14Z",
        "version": 1,
        "changeset": 119488694,
        "addr:city": "Rio de Janeiro",
        "addr:housenumber": "1175",
        "addr:street": "Estrada Coronel Pedro Corrêa",
        "addr:suburb": "Jacarepaguá",
        "air_conditioning": "yes",
        "name": "Life Bike",
        "opening_hours": "Mo-Fr 09:00-18:00",
        "payment:cash": "yes",
        "payment:credit_cards": "yes",
        "service:bicycle:Bicycle_Sales_and_Service": "yes",
        "service:bicycle:parts": "yes",
        "service:bicycle:repair": "yes",
        "shop": "bicycle",
        "id": "node/9652973930"
      },
      "geometry": {
        "type": "Point",
        "coordinates": [
          -43.3898785,
          -22.9698338
        ]
      }
    },
    {
      "type": "Feature",
      "id": "node/10570715528",
      "properties": {
        "timestamp": "2023-01-20T15:33:25Z",
        "version": 1,
        "changeset": 131513048,
        "addr:city": "Rio de Janeiro",
        "addr:housenumber": "79",
        "addr:street": "Rua Barão da Torre",
        "addr:suburb": "Ipanema",
        "addr:unit": "Loja B",
        "name": "Ipanema Bike",
        "phone": "+55 21 998 754 836",
        "shop": "bicycle",
        "id": "node/10570715528"
      },
      "geometry": {
        "type": "Point",
        "coordinates": [
          -43.1987701,
          -22.9835975
        ]
      }
    },
    {
      "type": "Feature",
      "id": "node/11931391299",
      "properties": {
        "timestamp": "2024-05-24T18:45:31Z",
        "version": 1,
        "changeset": 151784433,
        "shop": "bicycle",
        "id": "node/11931391299"
      },
      "geometry": {
        "type": "Point",
        "coordinates": [
          -43.4651315,
          -22.8726357
        ]
      }
    },
    {
      "type": "Feature",
      "id": "node/12043994743",
      "properties": {
        "timestamp": "2024-07-09T18:06:41Z",
        "version": 1,
        "changeset": 153755031,
        "shop": "bicycle",
        "id": "node/12043994743"
      },
      "geometry": {
        "type": "Point",
        "coordinates": [
          -43.3317197,
          -22.8306347
        ]
      }
    },
    {
      "type": "Feature",
      "id": "node/12247569857",
      "properties": {
        "timestamp": "2024-10-13T04:40:49Z",
        "version": 1,
        "changeset": 157819349,
        "name": "Gotrix",
        "note": "e-bycicle",
        "shop": "bicycle",
        "id": "node/12247569857"
      },
      "geometry": {
        "type": "Point",
        "coordinates": [
          -43.4713984,
          -23.0307202
        ]
      }
    }
  ]
}
