{
  "type": "FeatureCollection",
  "features": [
    {
      "type": "Feature",
      "id": "way/253974264",
      "properties": {
        "timestamp": "2021-07-12T16:38:46Z",
        "version": 6,
        "changeset": 107852236,
        "amenity": "dentist",
        "building": "yes",
        "healthcare": "dentist",
        "name": "Odontoclínica do Complexo Santos Dumont",
        "short_name": "OASD",
        "id": "way/253974264"
      },
      "geometry": {
        "type": "Polygon",
        "coordinates": [
          [
            [
              -43.1683096,
              -22.9063687
            ],
            [
              -43.1682011,
              -22.9064062
            ],
            [
              -43.1681162,
              -22.9061959
            ],
            [
              -43.1682195,
              -22.9061596
            ],
            [
              -43.1683096,
              -22.9063687
            ]
          ]
        ]
      }
    },
    {
      "type": "Feature",
      "id": "way/429924825",
      "properties": {
        "timestamp": "2019-06-09T21:51:33Z",
        "version": 3,
        "changeset": 71081983,
        "amenity": "dentist",
        "building": "yes",
        "ele": "153.98",
        "healthcare": "dentist",
        "height": "4.94",
        "id": "way/429924825"
      },
      "geometry": {
        "type": "Polygon",
        "coordinates": [
          [
            [
              -43.2429007,
              -22.9858748
            ],
            [
              -43.2429394,
              -22.9858233
            ],
            [
              -43.2429643,
              -22.9858403
            ],
            [
              -43.2429259,
              -22.9858912
            ],
            [
              -43.2429007,
              -22.9858748
            ]
          ]
        ]
      }
    },
    {
      "type": "Feature",
      "id": "way/1009161146",
      "properties": {
        "timestamp": "2021-12-04T20:32:02Z",
        "version": 1,
        "changeset": 114565644,
        "amenity": "dentist",
        "building": "yes",
        "healthcare": "dentist",
        "name": "4ª Odontoclínica Militar Ten Cel Grey Caetano Coimbra",
        "id": "way/1009161146"
      },
      "geometry": {
        "type": "Polygon",
        "coordinates": [
          [
            [
              -43.2098069,
              -22.9311292
            ],
            [
              -43.2098027,
              -22.9309477
            ],
            [
              -43.209873,
              -22.9309464
            ],
            [
              -43.2098759,
              -22.9310734
            ],
            [
              -43.209838,
              -22.9310977
            ],
            [
              -43.2098387,
              -22.9311286
            ],
            [
              -43.2098069,
              -22.9311292
            ]
          ]
        ]
      }
    },
    {
      "type": "Feature",
      "id": "way/1009320719",
      "properties": {
        "timestamp": "2021-12-05T15:42:51Z",
        "version": 2,
        "changeset": 114586413,
        "amenity": "dentist",
        "building": "yes",
        "healthcare": "dentist",
        "name": "Odontoclínica Militar Major Paulo Corrêa Cardoso",
        "id": "way/1009320719"
      },
      "geometry": {
        "type": "Polygon",
        "coordinates": [
          [
            [
              -43.382002,
              -22.8475203
            ],
            [
              -43.3821119,
              -22.8473787
            ],
            [
              -43.3822942,
              -22.8474989
            ],
            [
              -43.3821844,
              -22.8476405
            ],
            [
              -43.382002,
              -22.8475203
            ]
          ]
        ]
      }
    },
    {
      "type": "Feature",
      "id": "way/1083520803",
      "properties": {
        "timestamp": "2024-07-21T14:54:13Z",
        "version": 2,
        "changeset": 154223115,
        "addr:city": "Rio de Janeiro",
        "addr:housenumber": "3",
        "addr:street": "Rua do Bispo",
        "addr:suburb": "Rio Comprido",
        "amenity": "dentist",
        "building": "yes",
        "healthcare": "dentist",
        "name": "Diga X",
        "id": "way/1083520803"
      },
      "geometry": {
        "type": "Polygon",
        "coordinates": [
          [
            [
              -43.2098551,
              -22.9249035
            ],
            [
              -43.2098359,
              -22.9249006
            ],
            [
              -43.2098359,
              -22.9249286
            ],
            [
              -43.2097621,
              -22.9249271
            ],
            [
              -43.2097557,
              -22.9248917
            ],
            [
              -43.2097557,
              -22.9248725
            ],
            [
              -43.2097797,
              -22.9248533
            ],
            [
              -43.2098006,
              -22.9248444
            ],
            [
              -43.2098647,
              -22.9248548
            ],
            [
              -43.2098551,
              -22.9249035
            ]
          ]
        ]
      }
    },
    {
      "type": "Feature",
      "id": "way/1278682896",
      "properties": {
        "timestamp": "2024-05-01T04:52:11Z",
        "version": 1,
        "changeset": 150733591,
        "amenity": "dentist",
        "building": "yes",
        "healthcare": "dentist",
        "id": "way/1278682896"
      },
      "geometry": {
        "type": "Polygon",
        "coordinates": [
          [
            [
              -43.2178862,
              -22.9203497
            ],
            [
              -43.2178526,
              -22.9204202
            ],
            [
              -43.2176843,
              -22.9203529
            ],
            [
              -43.2177191,
              -22.9202821
            ],
            [
              -43.2178862,
              -22.9203497
            ]
          ]
        ]
      }
    },
    {
      "type": "Feature",
      "id": "way/1327116492",
      "properties": {
        "timestamp": "2024-10-21T22:32:47Z",
        "version": 1,
        "changeset": 158189819,
        "addr:city": "Rio de Janeiro",
        "addr:housenumber": "93",
        "addr:street": "Rua Marechal Bittencourt",
        "addr:suburb": "Riachuelo",
        "amenity": "dentist",
        "building": "commercial",
        "healthcare": "dentist",
        "healthcare:speciality": "dental_oral_maxillo_facial_surgery",
        "name": "Cirurgiã Dentista Dra. Adelina Curzio",
        "operator": "Dra. Adelina Curzio",
        "id": "way/1327116492"
      },
      "geometry": {
        "type": "Polygon",
        "coordinates": [
          [
            [
              -43.2560634,
              -22.9037117
            ],
            [
              -43.2560549,
              -22.9038094
            ],
            [
              -43.2557205,
              -22.9037845
            ],
            [
              -43.2557312,
              -22.9036853
            ],
            [
              -43.2560634,
              -22.9037117
            ]
          ]
        ]
      }
    },
    {
      "type": "Feature",
      "id": "way/1369799071",
      "properties": {
        "timestamp": "2025-03-20T23:04:35Z",
        "version": 1,
        "changeset": 163883657,
        "amenity": "dentist",
        "building": "yes",
        "healthcare": "dentist",
        "id": "way/1369799071"
      },
      "geometry": {
        "type": "Polygon",
        "coordinates": [
          [
            [
              -43.23424,
              -22.9263035
            ],
            [
              -43.2341255,
              -22.9263669
            ],
            [
              -43.2340732,
              -22.9262965
            ],
            [
              -43.234197,
              -22.9262446
            ],
            [
              -43.23424,
              -22.9263035
            ]
          ]
        ]
      }
    },
    {
      "type": "Feature",
      "id": "node/340463777",
      "properties": {
        "timestamp": "2009-02-04T20:35:27Z",
        "version": 2,
        "changeset": 130009,
        "amenity": "dentist",
        "created_by": "Potlatch 0.10f",
        "id": "node/340463777"
      },
      "geometry": {
        "type": "Point",
        "coordinates": [
          -43.177166,
          -22.9243375
        ]
      }
    },
    {
      "type": "Feature",
      "id": "node/340465078",
      "properties": {
        "timestamp": "2025-04-06T15:26:25Z",
        "version": 6,
        "changeset": 164596862,
        "addr:postcode": "22220-000",
        "addr:street": "Rua do Catete",
        "amenity": "dentist",
        "wheelchair": "no",
        "id": "node/340465078"
      },
      "geometry": {
        "type": "Point",
        "coordinates": [
          -43.1768924,
          -22.9248317
        ]
      }
    },
    {
      "type": "Feature",
      "id": "node/340465220",
      "properties": {
        "timestamp": "2025-04-06T15:21:40Z",
        "version": 5,
        "changeset": 164596631,
        "addr:postcode": "22220-000",
        "addr:street": "Rua do Catete",
        "amenity": "dentist",
        "created_by": "Potlatch 0.10f",
        "wheelchair": "no",
        "id": "node/340465220"
      },
      "geometry": {
        "type": "Point",
        "coordinates": [
          -43.176754,
          -22.925381
        ]
      }
    },
    {
      "type": "Feature",
      "id": "node/431013519",
      "properties": {
        "timestamp": "2022-07-13T21:05:36Z",
        "version": 3,
        "changeset": 123581235,
        "addr:housenumber": "17",
        "addr:street": "Rua das Laranjeiras",
        "amenity": "dentist",
        "healthcare": "dentist",
        "id": "node/431013519"
      },
      "geometry": {
        "type": "Point",
        "coordinates": [
          -43.1800133,
          -22.9317714
        ]
      }
    },
    {
      "type": "Feature",
      "id": "node/431750198",
      "properties": {
        "timestamp": "2022-07-13T22:25:27Z",
        "version": 4,
        "changeset": 123583090,
        "addr:housenumber": "64",
        "addr:street": "Rua do Catete",
        "amenity": "dentist",
        "healthcare": "dentist",
        "id": "node/431750198"
      },
      "geometry": {
        "type": "Point",
        "coordinates": [
          -43.1774721,
          -22.9233902
        ]
      }
    },
    {
      "type": "Feature",
      "id": "node/452657796",
      "properties": {
        "timestamp": "2025-04-06T13:26:47Z",
        "version": 2,
        "changeset": 164591214,
        "addr:housenumber": "204",
        "addr:street": "Rua do Catete",
        "amenity": "dentist",
        "wheelchair": "no",
        "id": "node/452657796"
      },
      "geometry": {
        "type": "Point",
        "coordinates": [
          -43.177037,
          -22.9278141
        ]
      }
    },
    {
      "type": "Feature",
      "id": "node/452657799",
      "properties": {
        "timestamp": "2025-04-05T15:03:55Z",
        "version": 2,
        "changeset": 164555902,
        "addr:housenumber": "202",
        "addr:street": "Rua do Catete",
        "amenity": "dentist",
        "wheelchair": "no",
        "id": "node/452657799"
      },
      "geometry": {
        "type": "Point",
        "coordinates": [
          -43.1770206,
          -22.9277623
        ]
      }
    },
    {
      "type": "Feature",
      "id": "node/452657825",
      "properties": {
        "timestamp": "2025-04-05T14:51:21Z",
        "version": 5,
        "changeset": 164555297,
        "amenity": "dentist",
        "healthcare": "dentist",
        "wheelchair": "no",
        "id": "node/452657825"
      },
      "geometry": {
        "type": "Point",
        "coordinates": [
          -43.1768274,
          -22.927121
        ]
      }
    },
    {
      "type": "Feature",
      "id": "node/506849957",
      "properties": {
        "timestamp": "2019-06-09T21:48:34Z",
        "version": 4,
        "changeset": 71081942,
        "addr:housenumber": "51",
        "addr:street": "Rua Barata Ribeiro",
        "amenity": "dentist",
        "healthcare": "dentist",
        "name": "Túlio Régis Salomão & Gilberto Ranchini",
        "id": "node/506849957"
      },
      "geometry": {
        "type": "Point",
        "coordinates": [
          -43.1769923,
          -22.96314
        ]
      }
    },
    {
      "type": "Feature",
      "id": "node/634187629",
      "properties": {
        "timestamp": "2010-12-22T12:16:39Z",
        "version": 2,
        "changeset": 6735015,
        "amenity": "dentist",
        "id": "node/634187629"
      },
      "geometry": {
        "type": "Point",
        "coordinates": [
          -43.2433893,
          -22.917316
        ]
      }
    },
    {
      "type": "Feature",
      "id": "node/704970796",
      "properties": {
        "timestamp": "2025-04-06T15:25:38Z",
        "version": 3,
        "changeset": 164596826,
        "addr:city": "Rio de Janeiro",
        "addr:country": "BR",
        "addr:housenumber": "115A",
        "addr:postcode": "22221-000",
        "addr:street": "Rua Silveira Martins",
        "amenity": "dentist",
        "healthcare": "dentist",
        "name": "CJI Dentistas",
        "source": "survey",
        "wheelchair": "no",
        "id": "node/704970796"
      },
      "geometry": {
        "type": "Point",
        "coordinates": [
          -43.1769646,
          -22.9258706
        ]
      }
    },
    {
      "type": "Feature",
      "id": "node/819284885",
      "properties": {
        "timestamp": "2024-07-21T14:57:39Z",
        "version": 4,
        "changeset": 154223259,
        "addr:city": "Rio de Janeiro",
        "addr:housenumber": "3",
        "addr:street": "Rua do Bispo",
        "addr:suburb": "Rio Comprido",
        "amenity": "dentist",
        "healthcare": "dentist",
        "healthcare:speciality": "orthodontics",
        "name": "Diga X",
        "id": "node/819284885"
      },
      "geometry": {
        "type": "Point",
        "coordinates": [
          -43.2098041,
          -22.9248909
        ]
      }
    },
    {
      "type": "Feature",
      "id": "node/1752004533",
      "properties": {
        "timestamp": "2012-05-14T03:34:04Z",
        "version": 1,
        "changeset": 11592187,
        "amenity": "dentist",
        "name": "Apelbaum Odontologia Integrada",
        "id": "node/1752004533"
      },
      "geometry": {
        "type": "Point",
        "coordinates": [
          -43.2184325,
          -22.9137065
        ]
      }
    },
    {
      "type": "Feature",
      "id": "node/1963006975",
      "properties": {
        "timestamp": "2022-10-13T13:18:45Z",
        "version": 2,
        "changeset": 127470598,
        "addr:city": "Rio de Janeiro",
        "addr:country": "BR",
        "addr:housenumber": "100 Lojas 119 e 120",
        "addr:street": "Rua Nelson Mandela",
        "amenity": "dentist",
        "healthcare": "dentist",
        "name": "CER",
        "id": "node/1963006975"
      },
      "geometry": {
        "type": "Point",
        "coordinates": [
          -43.1847927,
          -22.9505833
        ]
      }
    },
    {
      "type": "Feature",
      "id": "node/1963047337",
      "properties": {
        "timestamp": "2022-10-13T13:18:45Z",
        "version": 2,
        "changeset": 127470598,
        "addr:city": "Rio de Janeiro",
        "addr:country": "BR",
        "addr:housenumber": "100 Loja 104",
        "addr:street": "Rua Nelson Mandela",
        "amenity": "dentist",
        "healthcare": "dentist",
        "name": "Odontoplus",
        "id": "node/1963047337"
      },
      "geometry": {
        "type": "Point",
        "coordinates": [
          -43.1849754,
          -22.9498175
        ]
      }
    },
    {
      "type": "Feature",
      "id": "node/2087925623",
      "properties": {
        "timestamp": "2021-03-11T23:33:22Z",
        "version": 3,
        "changeset": 100868531,
        "amenity": "dentist",
        "healthcare": "dentist",
        "healthcare:speciality": "orthodontics",
        "name": "Dra. Fatima Lamoglia S. Pinna",
        "source": "survey",
        "id": "node/2087925623"
      },
      "geometry": {
        "type": "Point",
        "coordinates": [
          -43.3077921,
          -22.8424843
        ]
      }
    },
    {
      "type": "Feature",
      "id": "node/2102042912",
      "properties": {
        "timestamp": "2019-06-09T21:38:32Z",
        "version": 2,
        "changeset": 71081802,
        "amenity": "dentist",
        "healthcare": "dentist",
        "name": "Marcos Teixeira",
        "phone": "+55-21-22593976",
        "source": "survey",
        "id": "node/2102042912"
      },
      "geometry": {
        "type": "Point",
        "coordinates": [
          -43.2165479,
          -22.9640022
        ]
      }
    },
    {
      "type": "Feature",
      "id": "node/2170178917",
      "properties": {
        "timestamp": "2019-06-09T21:48:34Z",
        "version": 2,
        "changeset": 71081942,
        "addr:housenumber": "13",
        "addr:street": "Rua Barata Ribeiro",
        "amenity": "dentist",
        "healthcare": "dentist",
        "name": "Centro Odontológico São José",
        "id": "node/2170178917"
      },
      "geometry": {
        "type": "Point",
        "coordinates": [
          -43.1760607,
          -22.9625093
        ]
      }
    },
    {
      "type": "Feature",
      "id": "node/2938856455",
      "properties": {
        "timestamp": "2016-07-13T19:51:32Z",
        "version": 2,
        "changeset": 40722995,
        "addr:housenumber": "6700 Bl 2 Sala 211",
        "addr:place": "3325-8627",
        "addr:street": "Avenida das Américas",
        "amenity": "dentist",
        "name": "Clínica Odontológica",
        "id": "node/2938856455"
      },
      "geometry": {
        "type": "Point",
        "coordinates": [
          -43.3805027,
          -22.999711
        ]
      }
    },
    {
      "type": "Feature",
      "id": "node/2971562950",
      "properties": {
        "timestamp": "2021-02-28T16:55:28Z",
        "version": 3,
        "changeset": 100146486,
        "addr:city": "Rio de Janeiro",
        "addr:country": "BR",
        "addr:housenumber": "1770",
        "addr:postcode": "22720-011",
        "addr:street": "Estrada do Rio Grande",
        "amenity": "dentist",
        "email": "soidentistas@gmail.com",
        "healthcare": "dentist",
        "name": "SOI Dentistas",
        "phone": "+55 21 2440-6664",
        "website": "http://leonardosoi.wix.com/1",
        "id": "node/2971562950"
      },
      "geometry": {
        "type": "Point",
        "coordinates": [
          -43.3873666,
          -22.9192309
        ]
      }
    },
    {
      "type": "Feature",
      "id": "node/2979176051",
      "properties": {
        "timestamp": "2014-07-25T12:51:50Z",
        "version": 1,
        "changeset": 24349026,
        "addr:city": "Rio de Janeiro",
        "addr:housename": "Sala 202",
        "addr:housenumber": "64",
        "addr:postcode": "22720-000",
        "addr:street": "Rua Salinópolis",
        "amenity": "dentist",
        "name": "Clean Bucal",
        "opening_hours": "Mo-Fr 09:00-19:00",
        "phone": "+55 21 2440-0380",
        "id": "node/2979176051"
      },
      "geometry": {
        "type": "Point",
        "coordinates": [
          -43.3862514,
          -22.9184728
        ]
      }
    },
    {
      "type": "Feature",
      "id": "node/3378906484",
      "properties": {
        "timestamp": "2015-03-02T00:27:54Z",
        "version": 1,
        "changeset": 29189145,
        "addr:city": "Rio de Janeiro",
        "addr:street": "Avenida Guiomar Novaes",
        "addr:suburb": "Recreio dos Bandeirantes",
        "amenity": "dentist",
        "level": "1",
        "name": "Dentistas",
        "id": "node/3378906484"
      },
      "geometry": {
        "type": "Point",
        "coordinates": [
          -43.4814372,
          -23.0249554
        ]
      }
    },
    {
      "type": "Feature",
      "id": "node/4642854096",
      "properties": {
        "timestamp": "2017-01-29T20:53:51Z",
        "version": 1,
        "changeset": 45632105,
        "amenity": "dentist",
        "name": "Odonto Pediatria",
        "id": "node/4642854096"
      },
      "geometry": {
        "type": "Point",
        "coordinates": [
          -43.4753365,
          -23.0172331
        ]
      }
    },
    {
      "type": "Feature",
      "id": "node/4696380720",
      "properties": {
        "timestamp": "2017-02-20T23:14:37Z",
        "version": 1,
        "changeset": 46259159,
        "amenity": "dentist",
        "emergency": "yes",
        "name": "Tod Toe",
        "id": "node/4696380720"
      },
      "geometry": {
        "type": "Point",
        "coordinates": [
          -43.4718839,
          -23.0162693
        ]
      }
    },
    {
      "type": "Feature",
      "id": "node/4696380725",
      "properties": {
        "timestamp": "2017-02-20T23:14:37Z",
        "version": 1,
        "changeset": 46259159,
        "amenity": "dentist",
        "name": "Planeta Dente",
        "id": "node/4696380725"
      },
      "geometry": {
        "type": "Point",
        "coordinates": [
          -43.469301,
          -23.0156238
        ]
      }
    },
    {
      "type": "Feature",
      "id": "node/4726293399",
      "properties": {
        "timestamp": "2024-10-24T14:35:23Z",
        "version": 2,
        "changeset": 158300098,
        "amenity": "dentist",
        "healthcare": "dentist",
        "name": "Evident Odontologia",
        "id": "node/4726293399"
      },
      "geometry": {
        "type": "Point",
        "coordinates": [
          -43.4707233,
          -23.0160265
        ]
      }
    },
    {
      "type": "Feature",
      "id": "node/4726293405",
      "properties": {
        "timestamp": "2017-05-04T17:28:28Z",
        "version": 2,
        "changeset": 48400926,
        "addr:city": "Rio de Janeiro",
        "addr:door": "310",
        "addr:housenumber": "1825",
        "addr:street": "Estrada Benvindo de Novaes",
        "addr:suburb": "Recreio dos Bandeirantes",
        "amenity": "dentist",
        "level": "2",
        "name": "Primer",
        "id": "node/4726293405"
      },
      "geometry": {
        "type": "Point",
        "coordinates": [
          -43.4643953,
          -23.0147503
        ]
      }
    },
    {
      "type": "Feature",
      "id": "node/4727764692",
      "properties": {
        "timestamp": "2017-03-10T13:53:30Z",
        "version": 1,
        "changeset": 46739303,
        "amenity": "dentist",
        "id": "node/4727764692"
      },
      "geometry": {
        "type": "Point",
        "coordinates": [
          -43.4823385,
          -23.0238528
        ]
      }
    },
    {
      "type": "Feature",
      "id": "node/4741914673",
      "properties": {
        "timestamp": "2017-03-18T18:57:33Z",
        "version": 1,
        "changeset": 46963909,
        "amenity": "dentist",
        "level": "1",
        "id": "node/4741914673"
      },
      "geometry": {
        "type": "Point",
        "coordinates": [
          -43.4132777,
          -22.9697581
        ]
      }
    },
    {
      "type": "Feature",
      "id": "node/4741914679",
      "properties": {
        "timestamp": "2018-12-09T01:26:01Z",
        "version": 2,
        "changeset": 65304672,
        "addr:unit": "309",
        "amenity": "dentist",
        "healthcare": "dentist",
        "level": "2",
        "name": "Doutora Ilda Pereira",
        "id": "node/4741914679"
      },
      "geometry": {
        "type": "Point",
        "coordinates": [
          -43.4132314,
          -22.9697359
        ]
      }
    },
    {
      "type": "Feature",
      "id": "node/4741914684",
      "properties": {
        "timestamp": "2018-12-09T01:26:00Z",
        "version": 2,
        "changeset": 65304672,
        "addr:unit": "323",
        "amenity": "dentist",
        "level": "2",
        "name": "GS Odontologia",
        "id": "node/4741914684"
      },
      "geometry": {
        "type": "Point",
        "coordinates": [
          -43.4132549,
          -22.9699915
        ]
      }
    },
    {
      "type": "Feature",
      "id": "node/4825431922",
      "properties": {
        "timestamp": "2017-04-29T15:20:00Z",
        "version": 1,
        "changeset": 48258522,
        "amenity": "dentist",
        "level": "1",
        "name": "MH Odontologia",
        "id": "node/4825431922"
      },
      "geometry": {
        "type": "Point",
        "coordinates": [
          -43.4816572,
          -23.0251821
        ]
      }
    },
    {
      "type": "Feature",
      "id": "node/5084679435",
      "properties": {
        "timestamp": "2022-12-24T13:46:30Z",
        "version": 3,
        "changeset": 130457038,
        "addr:city": "Rio de Janeiro",
        "addr:housenumber": "143 - Sobrado",
        "addr:postcode": "20231-031",
        "addr:street": "Avenida Henrique Valadares",
        "addr:suburb": "Centro",
        "amenity": "dentist",
        "healthcare": "dentist",
        "name": "Dental Consult Saúde e Estética",
        "id": "node/5084679435"
      },
      "geometry": {
        "type": "Point",
        "coordinates": [
          -43.1904323,
          -22.9129247
        ]
      }
    },
    {
      "type": "Feature",
      "id": "node/5188558220",
      "properties": {
        "timestamp": "2017-10-25T12:53:39Z",
        "version": 1,
        "changeset": 53235102,
        "amenity": "dentist",
        "healthcare": "dentist",
        "name": "Dentistas",
        "id": "node/5188558220"
      },
      "geometry": {
        "type": "Point",
        "coordinates": [
          -43.4132153,
          -22.9687639
        ]
      }
    },
    {
      "type": "Feature",
      "id": "node/5188560421",
      "properties": {
        "timestamp": "2017-11-01T01:55:02Z",
        "version": 2,
        "changeset": 53412497,
        "amenity": "dentist",
        "healthcare": "dentist",
        "name": "Odontosister",
        "id": "node/5188560421"
      },
      "geometry": {
        "type": "Point",
        "coordinates": [
          -43.4132086,
          -22.9686916
        ]
      }
    },
    {
      "type": "Feature",
      "id": "node/5903616876",
      "properties": {
        "timestamp": "2018-09-13T10:42:36Z",
        "version": 1,
        "changeset": 62547572,
        "amenity": "dentist",
        "healthcare": "dentist",
        "level": "1",
        "name": "Sorriso Odontologia",
        "id": "node/5903616876"
      },
      "geometry": {
        "type": "Point",
        "coordinates": [
          -43.3853331,
          -22.9713386
        ]
      }
    },
    {
      "type": "Feature",
      "id": "node/5907441379",
      "properties": {
        "timestamp": "2018-09-15T02:22:17Z",
        "version": 1,
        "changeset": 62599609,
        "amenity": "dentist",
        "healthcare": "dentist",
        "level": "1",
        "operator": "Dra. Monica Cruz dos Santos",
        "id": "node/5907441379"
      },
      "geometry": {
        "type": "Point",
        "coordinates": [
          -43.4633486,
          -22.9820081
        ]
      }
    },
    {
      "type": "Feature",
      "id": "node/5907441389",
      "properties": {
        "timestamp": "2018-09-15T02:22:18Z",
        "version": 1,
        "changeset": 62599609,
        "amenity": "dentist",
        "healthcare": "dentist",
        "level": "1",
        "name": "OdontoVida",
        "id": "node/5907441389"
      },
      "geometry": {
        "type": "Point",
        "coordinates": [
          -43.4637066,
          -22.9816451
        ]
      }
    },
    {
      "type": "Feature",
      "id": "node/5907441391",
      "properties": {
        "timestamp": "2018-09-15T02:22:18Z",
        "version": 1,
        "changeset": 62599609,
        "amenity": "dentist",
        "healthcare": "dentist",
        "name": "C. Odontológico Vargem Pequena",
        "id": "node/5907441391"
      },
      "geometry": {
        "type": "Point",
        "coordinates": [
          -43.4639735,
          -22.9821525
        ]
      }
    },
    {
      "type": "Feature",
      "id": "node/5907441394",
      "properties": {
        "timestamp": "2018-09-15T02:22:18Z",
        "version": 1,
        "changeset": 62599609,
        "amenity": "dentist",
        "healthcare": "dentist",
        "level": "1",
        "operator": "Dra. Alexandra B. de Almeida",
        "id": "node/5907441394"
      },
      "geometry": {
        "type": "Point",
        "coordinates": [
          -43.4637965,
          -22.9817328
        ]
      }
    },
    {
      "type": "Feature",
      "id": "node/6308704265",
      "properties": {
        "timestamp": "2019-03-01T01:12:53Z",
        "version": 2,
        "changeset": 67669361,
        "amenity": "dentist",
        "healthcare": "dentist",
        "name": "Jaime G. Dias",
        "id": "node/6308704265"
      },
      "geometry": {
        "type": "Point",
        "coordinates": [
          -43.3459114,
          -22.8933762
        ]
      }
    },
    {
      "type": "Feature",
      "id": "node/6309440194",
      "properties": {
        "timestamp": "2019-03-01T01:12:52Z",
        "version": 1,
        "changeset": 67669361,
        "amenity": "dentist",
        "healthcare": "dentist",
        "id": "node/6309440194"
      },
      "geometry": {
        "type": "Point",
        "coordinates": [
          -43.3452811,
          -22.8879255
        ]
      }
    },
    {
      "type": "Feature",
      "id": "node/6460842077",
      "properties": {
        "timestamp": "2019-05-09T04:22:52Z",
        "version": 1,
        "changeset": 70057828,
        "amenity": "dentist",
        "healthcare": "dentist",
        "id": "node/6460842077"
      },
      "geometry": {
        "type": "Point",
        "coordinates": [
          -43.2501094,
          -22.9163852
        ]
      }
    },
    {
      "type": "Feature",
      "id": "node/6597233262",
      "properties": {
        "timestamp": "2019-07-08T17:56:53Z",
        "version": 1,
        "changeset": 72025112,
        "amenity": "dentist",
        "healthcare": "dentist",
        "name": "Arte Dental",
        "id": "node/6597233262"
      },
      "geometry": {
        "type": "Point",
        "coordinates": [
          -43.178052,
          -22.9384785
        ]
      }
    },
    {
      "type": "Feature",
      "id": "node/8077932857",
      "properties": {
        "timestamp": "2022-10-13T13:38:01Z",
        "version": 3,
        "changeset": 127471409,
        "addr:postcode": "22240-004",
        "amenity": "dentist",
        "healthcare": "dentist",
        "id": "node/8077932857"
      },
      "geometry": {
        "type": "Point",
        "coordinates": [
          -43.1892455,
          -22.9356299
        ]
      }
    },
    {
      "type": "Feature",
      "id": "node/8488888309",
      "properties": {
        "timestamp": "2021-03-08T13:33:38Z",
        "version": 2,
        "changeset": 100641495,
        "amenity": "dentist",
        "healthcare": "dentist",
        "name": "DentVila",
        "id": "node/8488888309"
      },
      "geometry": {
        "type": "Point",
        "coordinates": [
          -43.3105305,
          -22.840052
        ]
      }
    },
    {
      "type": "Feature",
      "id": "node/8499653633",
      "properties": {
        "timestamp": "2021-03-18T19:38:30Z",
        "version": 2,
        "changeset": 101282485,
        "addr:city": "Rio de Janeiro",
        "addr:housenumber": "960B",
        "addr:postcode": "21211-006",
        "addr:street": "Avenida Meriti",
        "addr:suburb": "Vila da Penha",
        "amenity": "dentist",
        "contact:instagram": "https://www.instagram.com/orthopride/",
        "contact:whatsapp": "+55 21 99491 1756",
        "facebook": "https://www.facebook.com/redeorthopride/timeline",
        "healthcare": "dentist",
        "healthcare:speciality": "orthodontics",
        "name": "OrthoPride",
        "phone": "+55 21 3556 3706",
        "website": "https://orthopride.com.br/",
        "id": "node/8499653633"
      },
      "geometry": {
        "type": "Point",
        "coordinates": [
          -43.3100347,
          -22.8490836
        ]
      }
    },
    {
      "type": "Feature",
      "id": "node/8517742809",
      "properties": {
        "timestamp": "2021-03-16T02:05:45Z",
        "version": 2,
        "changeset": 101081414,
        "addr:city": "Rio de Janeiro",
        "addr:housenumber": "1434B",
        "addr:state": "Rio de Janeiro",
        "addr:street": "Avenida Brás de Pina",
        "addr:suburb": "Vila da Penha",
        "amenity": "dentist",
        "contact:whatsapp": "+55 21 99444 3284",
        "healthcare": "dentist",
        "name": "Odontologia Micheli Bragantini",
        "phone": "+55 21 2482 0596;+55 21 3282 2052",
        "id": "node/8517742809"
      },
      "geometry": {
        "type": "Point",
        "coordinates": [
          -43.3093686,
          -22.8398548
        ]
      }
    },
    {
      "type": "Feature",
      "id": "node/8524152994",
      "properties": {
        "timestamp": "2021-03-17T02:03:02Z",
        "version": 2,
        "changeset": 101150443,
        "addr:city": "Rio de Janeiro",
        "addr:housenumber": "1145A",
        "addr:street": "Avenida Meriti",
        "addr:suburb": "Vila da Penha",
        "amenity": "dentist",
        "contact:instagram": "https://www.instagram.com/classidentrj/",
        "facebook": "https://facebook.com/classidentodontologia",
        "healthcare": "dentist",
        "healthcare:speciality": "dentist;orthodontics",
        "name": "Classident",
        "phone": "+55 21 3391 4207;+55 21 99228 4219",
        "website": "https://classident.com.br",
        "id": "node/8524152994"
      },
      "geometry": {
        "type": "Point",
        "coordinates": [
          -43.3110026,
          -22.848144
        ]
      }
    },
    {
      "type": "Feature",
      "id": "node/8524165836",
      "properties": {
        "timestamp": "2021-04-07T03:18:05Z",
        "version": 2,
        "changeset": 102440508,
        "addr:city": "Rio de Janeiro",
        "addr:street": "Avenida Meriti",
        "addr:suburb": "Vila da Penha",
        "amenity": "dentist",
        "healthcare": "dentist",
        "name": "Odontologia Manzier",
        "id": "node/8524165836"
      },
      "geometry": {
        "type": "Point",
        "coordinates": [
          -43.3134258,
          -22.8428184
        ]
      }
    },
    {
      "type": "Feature",
      "id": "node/8528086734",
      "properties": {
        "timestamp": "2021-04-10T21:57:14Z",
        "version": 3,
        "changeset": 102716892,
        "addr:city": "Rio de Janeiro",
        "addr:housenumber": "2080",
        "addr:street": "Avenida Meriti",
        "addr:suburb": "Vila da Penha",
        "amenity": "dentist",
        "healthcare": "dentist",
        "name": "Figueiredo Filho",
        "id": "node/8528086734"
      },
      "geometry": {
        "type": "Point",
        "coordinates": [
          -43.3131472,
          -22.8409919
        ]
      }
    },
    {
      "type": "Feature",
      "id": "node/8553597529",
      "properties": {
        "timestamp": "2021-04-10T21:51:12Z",
        "version": 2,
        "changeset": 102716767,
        "addr:city": "Rio de Janeiro",
        "addr:housenumber": "774",
        "addr:street": "Rua Oliveira Belo",
        "addr:suburb": "Vila da Penha",
        "amenity": "dentist",
        "healthcare": "dentist",
        "name": "Vinícius Sá de Oliveira",
        "id": "node/8553597529"
      },
      "geometry": {
        "type": "Point",
        "coordinates": [
          -43.308841,
          -22.8437877
        ]
      }
    },
    {
      "type": "Feature",
      "id": "node/8774802764",
      "properties": {
        "timestamp": "2021-05-28T01:34:38Z",
        "version": 1,
        "changeset": 105455247,
        "addr:city": "Rio de Janeiro",
        "addr:housenumber": "Bloco 21 sala 315",
        "addr:postcode": "22640-100",
        "addr:street": "Avenida das Américas, 500",
        "amenity": "dentist",
        "email": "dradaniela@meodentista.com.br",
        "healthcare": "dentist",
        "healthcare:speciality": "dentist;implantology;orthodontics;surgery;dental_oral_maxillo_facial_surgery;general;emergency",
        "name": "Dra. Daniela Botti Meodentista",
        "opening_hours": "Mo-Sa 09:00-19:00",
        "operator": "Dra. Daniela Bottio",
        "phone": "55-21-996926413",
        "website": "https://linktr.ee/dradanielabotti",
        "id": "node/8774802764"
      },
      "geometry": {
        "type": "Point",
        "coordinates": [
          -43.3183257,
          -23.0031533
        ]
      }
    },
    {
      "type": "Feature",
      "id": "node/9153590821",
      "properties": {
        "timestamp": "2021-10-07T03:06:37Z",
        "version": 1,
        "changeset": 112193350,
        "addr:city": "Rio de Janeiro",
        "addr:housenumber": "19.005",
        "addr:postcode": "22790-703",
        "addr:street": "Avenida das Américas",
        "addr:suburb": "Recreio dos Bandeirantes",
        "amenity": "dentist",
        "healthcare": "dentist",
        "healthcare:speciality": "orthodontics;dentist",
        "name": "Bettinna La Salvia Ortodontia",
        "id": "node/9153590821"
      },
      "geometry": {
        "type": "Point",
        "coordinates": [
          -43.486424,
          -23.0199047
        ]
      }
    },
    {
      "type": "Feature",
      "id": "node/9611775455",
      "properties": {
        "timestamp": "2022-03-27T22:34:54Z",
        "version": 1,
        "changeset": 118998039,
        "addr:city": "Rio de Janeiro",
        "addr:housenumber": "364B",
        "addr:street": "Rua General Glicério",
        "addr:suburb": "Laranjeiras",
        "amenity": "dentist",
        "healthcare": "dentist",
        "name": "Centro Odontológico Laranjeiras - COL",
        "id": "node/9611775455"
      },
      "geometry": {
        "type": "Point",
        "coordinates": [
          -43.1918755,
          -22.9419117
        ]
      }
    },
    {
      "type": "Feature",
      "id": "node/10228232231",
      "properties": {
        "timestamp": "2024-06-21T21:44:47Z",
        "version": 2,
        "changeset": 153009891,
        "addr:city": "Rio de Janeiro",
        "addr:housenumber": "373",
        "addr:postcode": "20541-371",
        "addr:street": "Rua Barão de São Francisco",
        "addr:suburb": "Vila Isabel",
        "addr:unit": "318",
        "amenity": "dentist",
        "check_date:currency:XBT": "2022-11-30",
        "currency:XBT": "yes",
        "email": "victorasc@icloud.com",
        "healthcare": "dentist",
        "name": "Consultório Dr. Victor Augusto",
        "payment:lightning": "yes",
        "payment:lightning_contactless": "no",
        "payment:onchain": "yes",
        "phone": "+55 21 97132 2028",
        "website": "https://www.drvitoraugusto.com",
        "id": "node/10228232231"
      },
      "geometry": {
        "type": "Point",
        "coordinates": [
          -43.251499,
          -22.9171861
        ]
      }
    },
    {
      "type": "Feature",
      "id": "node/10825133030",
      "properties": {
        "timestamp": "2023-04-19T20:03:05Z",
        "version": 1,
        "changeset": 135120111,
        "addr:city": "Rio de Janeiro",
        "addr:housenumber": "35",
        "addr:postcode": "20031-040",
        "addr:street": "Rua Evaristo da Veiga",
        "addr:suburb": "Centro",
        "amenity": "dentist",
        "healthcare": "dentist",
        "name": "ASFODONTO",
        "id": "node/10825133030"
      },
      "geometry": {
        "type": "Point",
        "coordinates": [
          -43.177508,
          -22.9106979
        ]
      }
    },
    {
      "type": "Feature",
      "id": "node/11006029929",
      "properties": {
        "timestamp": "2023-06-25T18:04:03Z",
        "version": 1,
        "changeset": 137762311,
        "amenity": "dentist",
        "healthcare": "dentist",
        "healthcare:speciality": "orthodontics",
        "name": "Odonto Company",
        "id": "node/11006029929"
      },
      "geometry": {
        "type": "Point",
        "coordinates": [
          -43.2421957,
          -22.9335855
        ]
      }
    },
    {
      "type": "Feature",
      "id": "node/11746560413",
      "properties": {
        "timestamp": "2024-12-28T15:59:52Z",
        "version": 2,
        "changeset": 160719708,
        "addr:city": "Rio de Janeiro",
        "addr:housenumber": "3333",
        "addr:postcode": "22631-003",
        "addr:street": "Avenida das Américas",
        "addr:suburb": "Barra da Tijuca",
        "amenity": "dentist",
        "check_date": "2024-12-28",
        "contact:email": "mailpaulo@gmail.com",
        "currency:XBT": "yes",
        "description": "Sala 1514",
        "healthcare": "dentist",
        "name": "Dr Paulo R A Castro",
        "opening_hours": "Mo-Fr 09:30-17:30",
        "payment:lightning": "yes",
        "payment:lightning_contactless": "no",
        "payment:onchain": "yes",
        "phone": "+55 21 9590 40238",
        "website": "https://www.odontomicroscopia.com.br/",
        "id": "node/11746560413"
      },
      "geometry": {
        "type": "Point",
        "coordinates": [
          -43.3476286,
          -23.0009268
        ]
      }
    },
    {
      "type": "Feature",
      "id": "node/11833066374",
      "properties": {
        "timestamp": "2024-04-20T14:21:57Z",
        "version": 1,
        "changeset": 150265614,
        "addr:city": "Rio de Janeiro",
        "addr:postcode": "21221-490",
        "addr:street": "Rua Tejupa",
        "addr:suburb": "Vila da Penha",
        "amenity": "dentist",
        "healthcare": "dentist",
        "name": "Dentistas Construindo Sorrisos",
        "id": "node/11833066374"
      },
      "geometry": {
        "type": "Point",
        "coordinates": [
          -43.3157994,
          -22.8411806
        ]
      }
    },
    {
      "type": "Feature",
      "id": "node/11928291343",
      "properties": {
        "timestamp": "2024-05-23T12:56:08Z",
        "version": 1,
        "changeset": 151722383,
        "amenity": "dentist",
        "healthcare": "dentist",
        "id": "node/11928291343"
      },
      "geometry": {
        "type": "Point",
        "coordinates": [
          -43.3360592,
          -22.8768174
        ]
      }
    },
    {
      "type": "Feature",
      "id": "node/11929399814",
      "properties": {
        "timestamp": "2024-05-23T20:40:53Z",
        "version": 1,
        "changeset": 151742695,
        "amenity": "dentist",
        "healthcare": "dentist",
        "id": "node/11929399814"
      },
      "geometry": {
        "type": "Point",
        "coordinates": [
          -43.2798418,
          -22.8408114
        ]
      }
    },
    {
      "type": "Feature",
      "id": "node/11929399832",
      "properties": {
        "timestamp": "2024-05-23T20:40:53Z",
        "version": 1,
        "changeset": 151742695,
        "amenity": "dentist",
        "healthcare": "dentist",
        "id": "node/11929399832"
      },
      "geometry": {
        "type": "Point",
        "coordinates": [
          -43.2791647,
          -22.8408075
        ]
      }
    },
    {
      "type": "Feature",
      "id": "node/11929399851",
      "properties": {
        "timestamp": "2024-05-23T20:40:53Z",
        "version": 1,
        "changeset": 151742695,
        "amenity": "dentist",
        "healthcare": "dentist",
        "healthcare:speciality": "orthodontics",
        "id": "node/11929399851"
      },
      "geometry": {
        "type": "Point",
        "coordinates": [
          -43.2775953,
          -22.8415651
        ]
      }
    },
    {
      "type": "Feature",
      "id": "node/11930874316",
      "properties": {
        "timestamp": "2024-05-24T14:59:40Z",
        "version": 1,
        "changeset": 151774929,
        "amenity": "dentist",
        "healthcare": "dentist",
        "id": "node/11930874316"
      },
      "geometry": {
        "type": "Point",
        "coordinates": [
          -43.3736282,
          -22.9236267
        ]
      }
    },
    {
      "type": "Feature",
      "id": "node/11930884616",
      "properties": {
        "timestamp": "2024-05-24T14:59:40Z",
        "version": 1,
        "changeset": 151774929,
        "amenity": "dentist",
        "healthcare": "dentist",
        "id": "node/11930884616"
      },
      "geometry": {
        "type": "Point",
        "coordinates": [
          -43.3734301,
          -22.922441
        ]
      }
    },
    {
      "type": "Feature",
      "id": "node/12448626566",
      "properties": {
        "timestamp": "2024-12-24T12:57:43Z",
        "version": 1,
        "changeset": 160574804,
        "amenity": "dentist",
        "healthcare": "dentist",
        "id": "node/12448626566"
      },
      "geometry": {
        "type": "Point",
        "coordinates": [
          -43.2809154,
          -22.8721364
        ]
      }
    },
    {
      "type": "Feature",
      "id": "node/12448626567",
      "properties": {
        "timestamp": "2024-12-24T12:57:43Z",
        "version": 1,
        "changeset": 160574804,
        "amenity": "dentist",
        "healthcare": "dentist",
        "id": "node/12448626567"
      },
      "geometry": {
        "type": "Point",
        "coordinates": [
          -43.2813016,
          -22.8722031
        ]
      }
    },
    {
      "type": "Feature",
      "id": "node/12453514605",
      "properties": {
        "timestamp": "2024-12-26T18:16:03Z",
        "version": 1,
        "changeset": 160648593,
        "amenity": "dentist",
        "healthcare": "dentist",
        "id": "node/12453514605"
      },
      "geometry": {
        "type": "Point",
        "coordinates": [
          -43.2515919,
          -22.8946884
        ]
      }
    },
    {
      "type": "Feature",
      "id": "node/12453514626",
      "properties": {
        "timestamp": "2024-12-26T18:16:03Z",
        "version": 1,
        "changeset": 160648593,
        "amenity": "dentist",
        "healthcare": "dentist",
        "id": "node/12453514626"
      },
      "geometry": {
        "type": "Point",
        "coordinates": [
          -43.2561999,
          -22.8945302
        ]
      }
    },
    {
      "type": "Feature",
      "id": "node/12453587505",
      "properties": {
        "timestamp": "2024-12-26T19:09:47Z",
        "version": 1,
        "changeset": 160650130,
        "amenity": "dentist",
        "healthcare": "dentist",
        "id": "node/12453587505"
      },
      "geometry": {
        "type": "Point",
        "coordinates": [
          -43.2634732,
          -22.8780122
        ]
      }
    },
    {
      "type": "Feature",
      "id": "node/12471712823",
      "properties": {
        "timestamp": "2025-02-06T08:21:01Z",
        "version": 2,
        "changeset": 162196713,
        "addr:city": "Rio de Janeiro",
        "addr:housenumber": "350 \"bloco 1\"",
        "addr:postcode": "23040-150",
        "addr:street": "Estrada da Cachamorra",
        "addr:suburb": "Campo Grande",
        "amenity": "dentist",
        "contact:phone": "+5521991292218",
        "currency:XBT": "yes",
        "healthcare": "dentist",
        "healthcare:speciality": "orthodontics",
        "name": "Dr Pedro Benac",
        "payment:lightning": "yes",
        "payment:lightning_contactless": "no",
        "id": "node/12471712823"
      },
      "geometry": {
        "type": "Point",
        "coordinates": [
          -43.5513056,
          -22.9170531
        ]
      }
    },
    {
      "type": "Feature",
      "id": "node/12650709691",
      "properties": {
        "timestamp": "2025-03-10T20:53:57Z",
        "version": 1,
        "changeset": 163459910,
        "amenity": "dentist",
        "healthcare": "dentist",
        "name": "Prodente Serviços Odontológicos",
        "id": "node/12650709691"
      },
      "geometry": {
        "type": "Point",
        "coordinates": [
          -43.3373668,
          -22.8826289
        ]
      }
    },
    {
      "type": "Feature",
      "id": "node/12685897271",
      "properties": {
        "timestamp": "2025-03-20T23:04:35Z",
        "version": 1,
        "changeset": 163883657,
        "addr:city": "Rio de Janeiro",
        "addr:housenumber": "13",
        "addr:postcode": "20520130",
        "addr:street": "Rua Camaragibe",
        "addr:suburb": "Tijuca",
        "amenity": "dentist",
        "healthcare": "dentist",
        "healthcare:speciality": "orthodontics;endodontia;implantodontista;clínico_geral",
        "level": "térreo",
        "mobile": "+55 21 98855-2005",
        "name": "Tijuca Odontologia",
        "opening_hours": "Mo-Su 09:00-18:00",
        "id": "node/12685897271"
      },
      "geometry": {
        "type": "Point",
        "coordinates": [
          -43.2342167,
          -22.9262421
        ]
      }
    },
    {
      "type": "Feature",
      "id": "node/12730170521",
      "properties": {
        "timestamp": "2025-04-05T01:58:06Z",
        "version": 1,
        "changeset": 164533331,
        "addr:city": "Rio de Janeiro",
        "addr:housenumber": "101 Sala 203",
        "addr:postcode": "22790-340",
        "addr:street": "Rua Prudente de Morais Neto",
        "addr:suburb": "Recreio dos Bandeirantes",
        "amenity": "dentist",
        "healthcare": "dentist",
        "healthcare:speciality": "dentist;dentistry;especialista_em_prótese_dentária;odontologia;saúde",
        "name": "HB OdontoCare",
        "id": "node/12730170521"
      },
      "geometry": {
        "type": "Point",
        "coordinates": [
          -43.4585008,
          -23.0175718
        ]
      }
    }
  ]
}
