{
  "type": "FeatureCollection",
  "features": [
    {
      "type": "Feature",
      "id": "node/1483285473",
      "properties": {
        "timestamp": "2011-10-28T08:07:06Z",
        "version": 1,
        "changeset": 9674338,
        "tourism": "guest_house",
        "id": "node/1483285473"
      },
      "geometry": {
        "type": "Point",
        "coordinates": [
          -43.2053891,
          -22.9153714
        ]
      }
    },
    {
      "type": "Feature",
      "id": "node/1683223356",
      "properties": {
        "timestamp": "2012-03-20T13:16:18Z",
        "version": 1,
        "changeset": 11041206,
        "name": "Casa Cool Beans",
        "tourism": "guest_house",
        "id": "node/1683223356"
      },
      "geometry": {
        "type": "Point",
        "coordinates": [
          -43.1891549,
          -22.9229105
        ]
      }
    },
    {
      "type": "Feature",
      "id": "node/2804540062",
      "properties": {
        "timestamp": "2014-04-20T19:14:06Z",
        "version": 1,
        "changeset": 21821573,
        "name": "Lagoa Guest House",
        "tourism": "guest_house",
        "id": "node/2804540062"
      },
      "geometry": {
        "type": "Point",
        "coordinates": [
          -43.2035222,
          -22.960001
        ]
      }
    },
    {
      "type": "Feature",
      "id": "node/4085635104",
      "properties": {
        "timestamp": "2019-03-18T18:40:00Z",
        "version": 2,
        "changeset": 68268900,
        "addr:city": "Rio de Janeiro",
        "addr:housenumber": "84",
        "addr:postcode": "22420-010",
        "addr:street": "Rua Gomes Carneiro",
        "addr:suburb": "Ipanema",
        "description": "El mejor punto de la zona sur, a 5 minutos caminando de las playas de Copacabana y Arpoador; y apenas a 250 m. de la playa de Ipanema.",
        "name": "Apartamentos Gomes Carneiro 84",
        "operator": "Apartamentos Gomes Carneiro 84",
        "phone": "+55 21 9727822145",
        "smoking": "no",
        "tourism": "guest_house",
        "website": "https://www.gomescarneiro84.com/",
        "id": "node/4085635104"
      },
      "geometry": {
        "type": "Point",
        "coordinates": [
          -43.1957089,
          -22.9852913
        ]
      }
    },
    {
      "type": "Feature",
      "id": "node/4179573389",
      "properties": {
        "timestamp": "2016-09-04T15:07:17Z",
        "version": 2,
        "changeset": 41909746,
        "addr:housenumber": "110",
        "addr:street": "Rua Pompeu Loureiro",
        "internet_access": "wlan",
        "name": "e hostel",
        "tourism": "guest_house",
        "id": "node/4179573389"
      },
      "geometry": {
        "type": "Point",
        "coordinates": [
          -43.1931755,
          -22.974854
        ]
      }
    },
    {
      "type": "Feature",
      "id": "node/4224258790",
      "properties": {
        "timestamp": "2016-06-03T19:25:27Z",
        "version": 1,
        "changeset": 39786218,
        "addr:housenumber": "4600",
        "addr:street": "Avenida Lúcio Costa",
        "name": "Condominio Waterways",
        "tourism": "guest_house",
        "id": "node/4224258790"
      },
      "geometry": {
        "type": "Point",
        "coordinates": [
          -43.3492888,
          -23.0100597
        ]
      }
    },
    {
      "type": "Feature",
      "id": "node/4232903391",
      "properties": {
        "timestamp": "2016-06-09T00:04:35Z",
        "version": 1,
        "changeset": 39896722,
        "addr:housenumber": "173",
        "addr:street": "alcides bezerra",
        "tourism": "guest_house",
        "id": "node/4232903391"
      },
      "geometry": {
        "type": "Point",
        "coordinates": [
          -43.4289333,
          -22.8890351
        ]
      }
    },
    {
      "type": "Feature",
      "id": "node/4252575896",
      "properties": {
        "timestamp": "2016-06-19T11:55:18Z",
        "version": 1,
        "changeset": 40134197,
        "addr:housenumber": "91",
        "addr:street": "Avenida Professor Maurice Assuf",
        "internet_access": "wlan",
        "name": "Casa de christina",
        "operator": "Gustavo",
        "tourism": "guest_house",
        "id": "node/4252575896"
      },
      "geometry": {
        "type": "Point",
        "coordinates": [
          -43.3299175,
          -22.9975476
        ]
      }
    },
    {
      "type": "Feature",
      "id": "node/4258489891",
      "properties": {
        "timestamp": "2016-10-29T01:38:45Z",
        "version": 2,
        "changeset": 43258664,
        "addr:housenumber": "297",
        "addr:postcode": "20730-400",
        "addr:street": "Rua Dionísio Fernandes",
        "internet_access": "wlan",
        "name": "Humberto",
        "operator": "Vivo",
        "tourism": "guest_house",
        "id": "node/4258489891"
      },
      "geometry": {
        "type": "Point",
        "coordinates": [
          -43.3011273,
          -22.9075801
        ]
      }
    },
    {
      "type": "Feature",
      "id": "node/4336270907",
      "properties": {
        "timestamp": "2016-08-05T01:15:16Z",
        "version": 1,
        "changeset": 41250346,
        "name": "Favoni's House",
        "tourism": "guest_house",
        "id": "node/4336270907"
      },
      "geometry": {
        "type": "Point",
        "coordinates": [
          -43.4402279,
          -23.0042624
        ]
      }
    },
    {
      "type": "Feature",
      "id": "node/4380677789",
      "properties": {
        "timestamp": "2024-02-22T21:32:57Z",
        "version": 2,
        "changeset": 147790467,
        "addr:housenumber": "931",
        "addr:street": "Rua Navarro",
        "name:es": "johnson",
        "tourism": "guest_house",
        "id": "node/4380677789"
      },
      "geometry": {
        "type": "Point",
        "coordinates": [
          -43.1927962,
          -22.9241617
        ]
      }
    },
    {
      "type": "Feature",
      "id": "node/4433388331",
      "properties": {
        "timestamp": "2021-11-02T19:51:01Z",
        "version": 2,
        "changeset": 113299973,
        "addr:housenumber": "50",
        "addr:street": "Rua São Manuel",
        "internet_access": "yes",
        "internet_access:fee": "no",
        "name": "Casa do Abacateiro",
        "smoking": "no",
        "tourism": "guest_house",
        "wheelchair": "no",
        "id": "node/4433388331"
      },
      "geometry": {
        "type": "Point",
        "coordinates": [
          -43.1827569,
          -22.9535026
        ]
      }
    },
    {
      "type": "Feature",
      "id": "node/4485017924",
      "properties": {
        "timestamp": "2016-11-06T07:17:31Z",
        "version": 5,
        "changeset": 43435691,
        "name": "Studio Botafogo 506",
        "source": "survey",
        "tourism": "guest_house",
        "id": "node/4485017924"
      },
      "geometry": {
        "type": "Point",
        "coordinates": [
          -43.1853998,
          -22.9496939
        ]
      }
    },
    {
      "type": "Feature",
      "id": "node/4699272290",
      "properties": {
        "timestamp": "2017-02-22T14:41:25Z",
        "version": 1,
        "changeset": 46309294,
        "addr:housenumber": "15",
        "addr:street": "Rua Ministro Viveiros de Castro",
        "name:es": "Apartamento en copacabana",
        "tourism": "guest_house",
        "id": "node/4699272290"
      },
      "geometry": {
        "type": "Point",
        "coordinates": [
          -43.1747205,
          -22.9632271
        ]
      }
    },
    {
      "type": "Feature",
      "id": "node/4731508224",
      "properties": {
        "timestamp": "2017-03-13T03:49:50Z",
        "version": 1,
        "changeset": 46801059,
        "addr:street": "Rua Boituva",
        "phone": "25805553",
        "tourism": "guest_house",
        "id": "node/4731508224"
      },
      "geometry": {
        "type": "Point",
        "coordinates": [
          -43.2326933,
          -22.8886653
        ]
      }
    },
    {
      "type": "Feature",
      "id": "node/4934855123",
      "properties": {
        "timestamp": "2017-06-25T04:32:29Z",
        "version": 1,
        "changeset": 49805879,
        "addr:housenumber": "687",
        "addr:street": "Rua Iguaba Grande",
        "name": "Apartamento iguaba grande",
        "name:pt": "Apartamento iguaba grande",
        "tourism": "guest_house",
        "id": "node/4934855123"
      },
      "geometry": {
        "type": "Point",
        "coordinates": [
          -43.3713599,
          -22.8173229
        ]
      }
    },
    {
      "type": "Feature",
      "id": "node/4947142222",
      "properties": {
        "timestamp": "2022-12-30T19:08:15Z",
        "version": 2,
        "changeset": 130699737,
        "name": "Airbnb",
        "name:pt": "Airbnb",
        "tourism": "guest_house",
        "id": "node/4947142222"
      },
      "geometry": {
        "type": "Point",
        "coordinates": [
          -43.1865096,
          -22.921695
        ]
      }
    },
    {
      "type": "Feature",
      "id": "node/5534715228",
      "properties": {
        "timestamp": "2018-04-06T22:00:04Z",
        "version": 1,
        "changeset": 57879301,
        "addr:housenumber": "7 531",
        "addr:street": "Avenida Princesa Isabel",
        "name:es": "Depto airbnb",
        "tourism": "guest_house",
        "id": "node/5534715228"
      },
      "geometry": {
        "type": "Point",
        "coordinates": [
          -43.1739588,
          -22.9643818
        ]
      }
    },
    {
      "type": "Feature",
      "id": "node/9243378017",
      "properties": {
        "timestamp": "2021-11-11T12:21:14Z",
        "version": 1,
        "changeset": 113650059,
        "tourism": "guest_house",
        "id": "node/9243378017"
      },
      "geometry": {
        "type": "Point",
        "coordinates": [
          -43.2282024,
          -22.985012
        ]
      }
    },
    {
      "type": "Feature",
      "id": "node/9545707717",
      "properties": {
        "timestamp": "2022-02-28T19:02:38Z",
        "version": 1,
        "changeset": 117955694,
        "addr:housenumber": "6",
        "addr:street": "Rua Silva Teles",
        "name": "nádia",
        "tourism": "guest_house",
        "id": "node/9545707717"
      },
      "geometry": {
        "type": "Point",
        "coordinates": [
          -43.2420403,
          -22.9239835
        ]
      }
    },
    {
      "type": "Feature",
      "id": "node/9930545717",
      "properties": {
        "timestamp": "2022-08-04T00:23:19Z",
        "version": 1,
        "changeset": 124457103,
        "addr:housenumber": "8",
        "addr:postcode": "21931270",
        "addr:street": "Rua Henrique Barbosa de Amorim",
        "name:fr": "Domicile parents Iris",
        "tourism": "guest_house",
        "id": "node/9930545717"
      },
      "geometry": {
        "type": "Point",
        "coordinates": [
          -43.2018966,
          -22.8075025
        ]
      }
    },
    {
      "type": "Feature",
      "id": "node/10204132217",
      "properties": {
        "timestamp": "2022-11-20T15:49:15Z",
        "version": 1,
        "changeset": 129161083,
        "addr:housenumber": "293",
        "addr:street": "Rua da Lapa",
        "name": "rbnb",
        "tourism": "guest_house",
        "id": "node/10204132217"
      },
      "geometry": {
        "type": "Point",
        "coordinates": [
          -43.1769045,
          -22.9170633
        ]
      }
    }
  ]
}
