{
  "type": "FeatureCollection",
  "features": [
    {
      "type": "Feature",
      "id": "way/1038343262",
      "properties": {
        "timestamp": "2022-03-08T19:39:10Z",
        "version": 1,
        "changeset": 118250190,
        "addr:street": "Rodovia Edval Lemos",
        "building": "yes",
        "government": "social_security",
        "name": "Instituto Nacional do Seguro Social - INSS",
        "office": "government",
        "opening_hours": "Mo-Fr 07:00-13:00",
        "operator": "Instituto Nacional do Seguro Social",
        "operator:short": "INSS",
        "operator:wikidata": "Q10302614",
        "operator:wikipedia": "pt:Instituto Nacional do Seguro Social",
        "id": "way/1038343262"
      },
      "geometry": {
        "type": "Polygon",
        "coordinates": [
          [
            [
              -35.9042609,
              -9.7213838
            ],
            [
              -35.9042747,
              -9.7213937
            ],
            [
              -35.904228,
              -9.7214568
            ],
            [
              -35.9040085,
              -9.721299
            ],
            [
              -35.9040523,
              -9.7212398
            ],
            [
              -35.9041038,
              -9.7212768
            ],
            [
              -35.904128,
              -9.7212441
            ],
            [
              -35.9042822,
              -9.721355
            ],
            [
              -35.9042609,
              -9.7213838
            ]
          ]
        ]
      }
    },
    {
      "type": "Feature",
      "id": "node/12169889509",
      "properties": {
        "timestamp": "2024-09-11T12:12:50Z",
        "version": 1,
        "changeset": 156480839,
        "addr:city": "Marechal Deodoro",
        "addr:housenumber": "151",
        "addr:postcode": "57160000",
        "addr:street": "Rua Doutor Ladislau Neto",
        "addr:suburb": "Centro",
        "government": "register_office",
        "name": "Cartório de Imóveis de Marechal Deodoro",
        "office": "government",
        "opening_hours": "08:00-12:00 e 14:00-17:00",
        "operator": "Tabelião",
        "phone": "8232631951",
        "wheelchair": "yes",
        "id": "node/12169889509"
      },
      "geometry": {
        "type": "Point",
        "coordinates": [
          -35.8951517,
          -9.7175511
        ]
      }
    }
  ]
}
