{
  "type": "FeatureCollection",
  "features": [
    {
      "type": "Feature",
      "id": "way/554925736",
      "properties": {
        "timestamp": "2018-01-22T16:07:55Z",
        "version": 1,
        "changeset": 55659086,
        "addr:city": "Canan√©ia",
        "addr:housenumber": "155",
        "addr:street": "Rua Paulo Porphirio Paiva",
        "addr:suburb": "Bairro Rocio",
        "amenity": "community_centre",
        "building": "yes",
        "id": "way/554925736"
      },
      "geometry": {
        "type": "Polygon",
        "coordinates": [
          [
            [
              -47.928639,
              -25.0081923
            ],
            [
              -47.9291982,
              -25.0083767
            ],
            [
              -47.9290955,
              -25.0086349
            ],
            [
              -47.9285363,
              -25.0084488
            ],
            [
              -47.928639,
              -25.0081923
            ]
          ]
        ]
      }
    }
  ]
}
