{
  "type": "FeatureCollection",
  "features": [
    {
      "type": "Feature",
      "id": "way/293578400",
      "properties": {
        "timestamp": "2022-12-16T18:21:59Z",
        "version": 3,
        "changeset": 130166298,
        "access": "yes",
        "addr:postcode": "49580-000",
        "addr:street": "Rodovia BR-235",
        "addr:suburb": "Centro",
        "amenity": "clinic",
        "building": "yes",
        "healthcare": "clinic",
        "healthcare:speciality": "general",
        "name": "Clínica de Saúde da Família Doutor Christtianno Oliveira de Almeida",
        "opening_hours": "24/7",
        "operator": "Secretaria da Saúde",
        "operator:type": "government",
        "phone": "+55 79 99665 2370",
        "id": "way/293578400"
      },
      "geometry": {
        "type": "Polygon",
        "coordinates": [
          [
            [
              -37.3124484,
              -10.7604092
            ],
            [
              -37.3121917,
              -10.7605797
            ],
            [
              -37.3120598,
              -10.7603881
            ],
            [
              -37.3123359,
              -10.7602047
            ],
            [
              -37.3124678,
              -10.7603963
            ],
            [
              -37.3124484,
              -10.7604092
            ]
          ]
        ]
      }
    }
  ]
}
