{
  "type": "FeatureCollection",
  "features": [
    {
      "type": "Feature",
      "id": "way/386064775",
      "properties": {
        "timestamp": "2015-12-15T21:01:21Z",
        "version": 1,
        "changeset": 35975771,
        "addr:city": "Orlândia",
        "addr:housenumber": "151",
        "addr:postcode": "14620-000",
        "addr:street": "Avenida Dois",
        "addr:suburb": "Centro",
        "building": "yes",
        "name": "Secretaria Municipal de Cultura",
        "office": "government",
        "phone": "+55 16 3820 8153",
        "id": "way/386064775"
      },
      "geometry": {
        "type": "Polygon",
        "coordinates": [
          [
            [
              -47.8829782,
              -20.7234378
            ],
            [
              -47.8829655,
              -20.723545
            ],
            [
              -47.8828395,
              -20.723532
            ],
            [
              -47.8828521,
              -20.7234248
            ],
            [
              -47.8829782,
              -20.7234378
            ]
          ]
        ]
      }
    },
    {
      "type": "Feature",
      "id": "way/459421766",
      "properties": {
        "timestamp": "2016-12-13T17:54:09Z",
        "version": 1,
        "changeset": 44378095,
        "addr:city": "Orlândia",
        "addr:housenumber": "15",
        "addr:postcode": "14620-000",
        "addr:street": "Rua Um",
        "addr:suburb": "Centro",
        "building": "yes",
        "name": "Secretaria Municipal de Desenvolvimento Social",
        "office": "government",
        "id": "way/459421766"
      },
      "geometry": {
        "type": "Polygon",
        "coordinates": [
          [
            [
              -47.8821166,
              -20.7220156
            ],
            [
              -47.882011,
              -20.7220066
            ],
            [
              -47.882016,
              -20.7219562
            ],
            [
              -47.8819003,
              -20.7219463
            ],
            [
              -47.8819116,
              -20.7218315
            ],
            [
              -47.8821327,
              -20.7218504
            ],
            [
              -47.8821166,
              -20.7220156
            ]
          ]
        ]
      }
    },
    {
      "type": "Feature",
      "id": "node/4552846883",
      "properties": {
        "timestamp": "2016-12-13T19:28:44Z",
        "version": 1,
        "changeset": 44380583,
        "addr:city": "Orlândia",
        "addr:housenumber": "16",
        "addr:postcode": "14620-000",
        "addr:street": "Rua Um",
        "addr:suburb": "Centro",
        "name": "Conselho Tutelar",
        "office": "government",
        "phone": "+55 16 3820 8201",
        "id": "node/4552846883"
      },
      "geometry": {
        "type": "Point",
        "coordinates": [
          -47.8820926,
          -20.7216193
        ]
      }
    },
    {
      "type": "Feature",
      "id": "node/4552846884",
      "properties": {
        "timestamp": "2016-12-13T19:28:44Z",
        "version": 1,
        "changeset": 44380583,
        "addr:city": "Orlândia",
        "addr:housenumber": "367",
        "addr:postcode": "14620-000",
        "addr:street": "Avenida do Café",
        "addr:suburb": "Centro",
        "name": "Núcleo de Gestão Assistencial 32",
        "office": "government",
        "phone": "+55 16 3820 8216",
        "id": "node/4552846884"
      },
      "geometry": {
        "type": "Point",
        "coordinates": [
          -47.8819694,
          -20.7213485
        ]
      }
    },
    {
      "type": "Feature",
      "id": "node/4557291203",
      "properties": {
        "timestamp": "2016-12-16T14:49:26Z",
        "version": 1,
        "changeset": 44449463,
        "addr:city": "Orlândia",
        "addr:housenumber": "340",
        "addr:postcode": "14620-000",
        "addr:street": "Rua Dez",
        "addr:suburb": "Centro",
        "name": "Secretaria de Desenvolvimento Econômico e Turismo",
        "office": "government",
        "id": "node/4557291203"
      },
      "geometry": {
        "type": "Point",
        "coordinates": [
          -47.886166,
          -20.7164961
        ]
      }
    }
  ]
}
