{
  "type": "FeatureCollection",
  "features": [
    {
      "type": "Feature",
      "id": "way/459856128",
      "properties": {
        "timestamp": "2016-12-16T02:34:29Z",
        "version": 2,
        "changeset": 44436991,
        "addr:city": "Orlândia",
        "addr:postcode": "14620-000",
        "addr:street": "Avenida Cinco",
        "amenity": "social_facility",
        "area": "yes",
        "barrier": "wall",
        "name": "Projeto Ipê",
        "phone": "+55 16 3820 8206",
        "social_facility:for": "juvenile",
        "id": "way/459856128"
      },
      "geometry": {
        "type": "Polygon",
        "coordinates": [
          [
            [
              -47.8850612,
              -20.7296293
            ],
            [
              -47.8851459,
              -20.7287115
            ],
            [
              -47.8858468,
              -20.7288095
            ],
            [
              -47.8857698,
              -20.7293685
            ],
            [
              -47.8850612,
              -20.7296293
            ]
          ]
        ]
      }
    },
    {
      "type": "Feature",
      "id": "way/460041049",
      "properties": {
        "timestamp": "2016-12-16T14:49:27Z",
        "version": 1,
        "changeset": 44449463,
        "addr:city": "Orlândia",
        "addr:housenumber": "1065",
        "addr:postcode": "14620-000",
        "addr:street": "Avenida Dez",
        "addr:suburb": "Centro",
        "amenity": "social_facility",
        "building": "yes",
        "name": "Projeto Raio de Sol",
        "operator": "Prefeitura Municipal de Orlândia",
        "phone": "+55 16 3820 8080",
        "social_facility:for": "child",
        "id": "way/460041049"
      },
      "geometry": {
        "type": "Polygon",
        "coordinates": [
          [
            [
              -47.8915048,
              -20.7160666
            ],
            [
              -47.8914944,
              -20.7161526
            ],
            [
              -47.8915267,
              -20.716156
            ],
            [
              -47.8915179,
              -20.7162289
            ],
            [
              -47.8913128,
              -20.7162073
            ],
            [
              -47.8913319,
              -20.7160483
            ],
            [
              -47.8915048,
              -20.7160666
            ]
          ]
        ]
      }
    },
    {
      "type": "Feature",
      "id": "way/460041050",
      "properties": {
        "timestamp": "2016-12-16T14:49:27Z",
        "version": 1,
        "changeset": 44449463,
        "addr:city": "Orlândia",
        "addr:housenumber": "913",
        "addr:postcode": "14620-000",
        "addr:street": "Rua Doze",
        "addr:suburb": "Centro",
        "amenity": "social_facility",
        "building": "yes",
        "name": "Grupo Alma",
        "social_facility:for": "diseased",
        "id": "way/460041050"
      },
      "geometry": {
        "type": "Polygon",
        "coordinates": [
          [
            [
              -47.8917152,
              -20.7159155
            ],
            [
              -47.8916822,
              -20.7162602
            ],
            [
              -47.8915861,
              -20.7162522
            ],
            [
              -47.8916191,
              -20.7159075
            ],
            [
              -47.8917152,
              -20.7159155
            ]
          ]
        ]
      }
    }
  ]
}
