{
  "type": "FeatureCollection",
  "features": [
    {
      "type": "Feature",
      "id": "way/621583642",
      "properties": {
        "timestamp": "2020-05-25T14:21:10Z",
        "version": 6,
        "changeset": 85721097,
        "amenity": "clinic",
        "barrier": "wall",
        "healthcare": "clinic",
        "healthcare:speciality": "general;paediatrics;dentistry",
        "height": "2",
        "level": "0",
        "material": "masonry",
        "name": "Posto de Saúde Joaquim Raimundo Ferreira",
        "opening_hours": "Mo-Fr 08:00-17:00",
        "operator": "Prefeitura Municipal de Seropédica",
        "operator:type": "public",
        "wheelchair": "limited",
        "id": "way/621583642"
      },
      "geometry": {
        "type": "Polygon",
        "coordinates": [
          [
            [
              -43.634752,
              -22.821932
            ],
            [
              -43.634759,
              -22.8219855
            ],
            [
              -43.6347674,
              -22.8220493
            ],
            [
              -43.6346026,
              -22.8220677
            ],
            [
              -43.6345986,
              -22.8220389
            ],
            [
              -43.6345892,
              -22.8219634
            ],
            [
              -43.6345872,
              -22.8219504
            ],
            [
              -43.6346746,
              -22.8219406
            ],
            [
              -43.634752,
              -22.821932
            ]
          ]
        ]
      }
    },
    {
      "type": "Feature",
      "id": "way/621588067",
      "properties": {
        "timestamp": "2020-05-24T23:13:10Z",
        "version": 3,
        "changeset": 85697045,
        "addr:city": "Seropédica",
        "addr:street": "Rua Arodolfo Ferreira do Oliveira",
        "addr:suburb": "Jardins",
        "amenity": "clinic",
        "building": "yes",
        "healthcare": "clinic",
        "healthcare:speciality": "psychiatry;dermatology;paediatrics;cardiology",
        "name": "Centro Municipal de Especialidades Médicas",
        "opening_hours": "Mo-Fr 07:00-17:00,Sa 07:00-12:00",
        "operator": "Prefeitura Municipal de Seropédica",
        "operator:type": "public",
        "id": "way/621588067"
      },
      "geometry": {
        "type": "Polygon",
        "coordinates": [
          [
            [
              -43.6394917,
              -22.8038296
            ],
            [
              -43.6395813,
              -22.8039343
            ],
            [
              -43.6395279,
              -22.8039732
            ],
            [
              -43.6395138,
              -22.8039577
            ],
            [
              -43.6393654,
              -22.8040664
            ],
            [
              -43.6393768,
              -22.8040834
            ],
            [
              -43.6393063,
              -22.804134
            ],
            [
              -43.6392872,
              -22.8041115
            ],
            [
              -43.6392473,
              -22.804111
            ],
            [
              -43.6392208,
              -22.8040803
            ],
            [
              -43.6392298,
              -22.8040437
            ],
            [
              -43.639215,
              -22.8040261
            ],
            [
              -43.6392882,
              -22.8039734
            ],
            [
              -43.6393024,
              -22.8039902
            ],
            [
              -43.639457,
              -22.803879
            ],
            [
              -43.6394444,
              -22.8038641
            ],
            [
              -43.6394917,
              -22.8038296
            ]
          ]
        ]
      }
    },
    {
      "type": "Feature",
      "id": "way/623957262",
      "properties": {
        "timestamp": "2020-05-24T23:13:10Z",
        "version": 5,
        "changeset": 85697045,
        "addr:city": "Seropédica",
        "addr:street": "Rua Joao Augusto",
        "addr:suburb": "Jardins",
        "amenity": "clinic",
        "healthcare": "clinic",
        "name": "Posto de Saúde Silvio José Cristino",
        "opening_hours": "24/7",
        "operator": "Prefeitura Municipal de Seropédica",
        "operator:type": "public",
        "id": "way/623957262"
      },
      "geometry": {
        "type": "Polygon",
        "coordinates": [
          [
            [
              -43.6366109,
              -22.8051479
            ],
            [
              -43.6364038,
              -22.8053017
            ],
            [
              -43.636101,
              -22.804963
            ],
            [
              -43.636332,
              -22.8048198
            ],
            [
              -43.6366109,
              -22.8051479
            ]
          ]
        ]
      }
    },
    {
      "type": "Feature",
      "id": "way/804790555",
      "properties": {
        "timestamp": "2020-05-24T23:13:11Z",
        "version": 2,
        "changeset": 85697045,
        "addr:city": "Seropédica",
        "addr:postcode": "23898-024",
        "addr:street": "Rua Niterói",
        "addr:suburb": "Campo Lindo",
        "amenity": "clinic",
        "building": "yes",
        "healthcare": "clinic",
        "name": "Clínica da Família no Campo Lindo",
        "opening_hours": "Mo-Fr 08:00-17:00",
        "operator": "Prefeitura Municipal de Seropédica",
        "operator:type": "public",
        "id": "way/804790555"
      },
      "geometry": {
        "type": "Polygon",
        "coordinates": [
          [
            [
              -43.6466248,
              -22.8033736
            ],
            [
              -43.6464849,
              -22.8035516
            ],
            [
              -43.6461676,
              -22.8033283
            ],
            [
              -43.64631,
              -22.8031527
            ],
            [
              -43.6466248,
              -22.8033736
            ]
          ]
        ]
      }
    },
    {
      "type": "Feature",
      "id": "way/804790557",
      "properties": {
        "timestamp": "2020-05-24T23:13:11Z",
        "version": 2,
        "changeset": 85697045,
        "addr:city": "Seropédica",
        "addr:postcode": "23898-081",
        "addr:street": "Rua Rita Batista",
        "addr:suburb": "Campo Lindo",
        "amenity": "clinic",
        "building": "yes",
        "healthcare": "clinic",
        "name": "Unidade de Saúde da Família Sebastião José Soares",
        "opening_hours": "Mo-Fr 08:00-17:00",
        "operator": "Prefeitura Municipal de Seropédica",
        "operator:type": "public",
        "id": "way/804790557"
      },
      "geometry": {
        "type": "Polygon",
        "coordinates": [
          [
            [
              -43.6530794,
              -22.8246168
            ],
            [
              -43.6532355,
              -22.8247875
            ],
            [
              -43.6530597,
              -22.824919
            ],
            [
              -43.6529078,
              -22.8247418
            ],
            [
              -43.6530794,
              -22.8246168
            ]
          ]
        ]
      }
    },
    {
      "type": "Feature",
      "id": "way/804944148",
      "properties": {
        "timestamp": "2020-05-17T16:11:14Z",
        "version": 1,
        "changeset": 85340241,
        "addr:city": "Seropédica",
        "addr:street": "Rua UO",
        "addr:suburb": "UFRRJ",
        "amenity": "clinic",
        "building": "yes",
        "healthcare": "clinic",
        "name": "Divisão de Saúde da UFRRJ",
        "opening_hours": "24/7",
        "operator": "Universidade Federal Rural do Rio de Janeiro",
        "operator:type": "public",
        "id": "way/804944148"
      },
      "geometry": {
        "type": "Polygon",
        "coordinates": [
          [
            [
              -43.6894931,
              -22.7670277
            ],
            [
              -43.6892443,
              -22.7672434
            ],
            [
              -43.689156,
              -22.7671568
            ],
            [
              -43.6894048,
              -22.7669411
            ],
            [
              -43.6894931,
              -22.7670277
            ]
          ]
        ]
      }
    },
    {
      "type": "Feature",
      "id": "way/804975731",
      "properties": {
        "timestamp": "2020-05-17T17:51:19Z",
        "version": 1,
        "changeset": 85343357,
        "addr:city": "Seropédica",
        "addr:housenumber": "947",
        "addr:postcode": "23895-265",
        "addr:street": "Avenida Ministro Fernando Costa",
        "addr:suburb": "Fazenda Caxias",
        "amenity": "clinic",
        "building": "yes",
        "healthcare": "clinic",
        "name": "Instituto Médico Seropédica",
        "opening_hours": "Mo-Su 07:00-19:00",
        "id": "way/804975731"
      },
      "geometry": {
        "type": "Polygon",
        "coordinates": [
          [
            [
              -43.7056442,
              -22.7416558
            ],
            [
              -43.7054369,
              -22.7415039
            ],
            [
              -43.7055192,
              -22.7414085
            ],
            [
              -43.7057264,
              -22.7415604
            ],
            [
              -43.7056442,
              -22.7416558
            ]
          ]
        ]
      }
    },
    {
      "type": "Feature",
      "id": "way/804975737",
      "properties": {
        "timestamp": "2020-05-24T23:13:11Z",
        "version": 3,
        "changeset": 85697045,
        "addr:city": "Seropédica",
        "addr:housenumber": "971",
        "addr:postcode": "23898-500",
        "addr:street": "Estrada de Piranema",
        "addr:suburb": "Piranema",
        "amenity": "clinic",
        "building": "yes",
        "healthcare": "clinic",
        "name": "Unidade de Saúde da Família Piranema",
        "opening_hours": "Mo-Fr 08:00-17:00",
        "operator": "Prefeitura Municipal de Seropédica",
        "operator:type": "public",
        "id": "way/804975737"
      },
      "geometry": {
        "type": "Polygon",
        "coordinates": [
          [
            [
              -43.7131033,
              -22.8357432
            ],
            [
              -43.7129871,
              -22.8357493
            ],
            [
              -43.7129739,
              -22.8355355
            ],
            [
              -43.7128409,
              -22.8355424
            ],
            [
              -43.7128424,
              -22.8355657
            ],
            [
              -43.7127669,
              -22.8355697
            ],
            [
              -43.7127588,
              -22.8354391
            ],
            [
              -43.7128966,
              -22.8354319
            ],
            [
              -43.7128993,
              -22.8354756
            ],
            [
              -43.7130862,
              -22.8354658
            ],
            [
              -43.7131033,
              -22.8357432
            ]
          ]
        ]
      }
    },
    {
      "type": "Feature",
      "id": "way/805009433",
      "properties": {
        "timestamp": "2020-05-24T23:13:11Z",
        "version": 2,
        "changeset": 85697045,
        "amenity": "clinic",
        "building": "yes",
        "healthcare": "clinic",
        "name": "Unidade de Saúde da Família Alcides Telles da Conceição",
        "opening_hours": "Mo-Fr 08:00-17:00",
        "operator": "Prefeitura Municipal de Seropédica",
        "operator:type": "public",
        "id": "way/805009433"
      },
      "geometry": {
        "type": "Polygon",
        "coordinates": [
          [
            [
              -43.6611206,
              -22.7721753
            ],
            [
              -43.6612126,
              -22.7722569
            ],
            [
              -43.6611511,
              -22.7723159
            ],
            [
              -43.6610591,
              -22.7722343
            ],
            [
              -43.6611206,
              -22.7721753
            ]
          ]
        ]
      }
    },
    {
      "type": "Feature",
      "id": "way/805054408",
      "properties": {
        "timestamp": "2020-05-24T23:13:11Z",
        "version": 2,
        "changeset": 85697045,
        "addr:city": "Seropédica",
        "addr:postcode": "23891-665",
        "addr:street": "Rua do Canal",
        "addr:suburb": "Jardim Maracanã",
        "amenity": "clinic",
        "building": "yes",
        "emergency": "no",
        "healthcare": "clinic",
        "name": "Unidade de Saúde da Família Julia Pereira dos Santos",
        "opening_hours": "Mo-Fr 08:00-17:00",
        "operator": "Prefeitura Municipal de Seropédica",
        "operator:type": "public",
        "id": "way/805054408"
      },
      "geometry": {
        "type": "Polygon",
        "coordinates": [
          [
            [
              -43.6518594,
              -22.734898
            ],
            [
              -43.6519318,
              -22.7349923
            ],
            [
              -43.6518293,
              -22.7350593
            ],
            [
              -43.6517759,
              -22.7349898
            ],
            [
              -43.6518439,
              -22.7349454
            ],
            [
              -43.6518249,
              -22.7349206
            ],
            [
              -43.6518594,
              -22.734898
            ]
          ]
        ]
      }
    },
    {
      "type": "Feature",
      "id": "way/805054409",
      "properties": {
        "timestamp": "2020-05-24T23:13:11Z",
        "version": 2,
        "changeset": 85697045,
        "addr:city": "Seropédica",
        "addr:postcode": "23897-470",
        "addr:street": "Rua Manoel Matos",
        "addr:suburb": "Parque Jacimar",
        "amenity": "clinic",
        "building": "yes",
        "healthcare": "clinic",
        "name": "Unidade de Saúde da Família Manoel Mendes",
        "opening_hours": "Mo-Fr 08:00-17:00",
        "operator": "Prefeitura Municipal de Seropédica",
        "operator:type": "public",
        "id": "way/805054409"
      },
      "geometry": {
        "type": "Polygon",
        "coordinates": [
          [
            [
              -43.6524056,
              -22.7937104
            ],
            [
              -43.6523514,
              -22.7937821
            ],
            [
              -43.652234,
              -22.7937067
            ],
            [
              -43.6522882,
              -22.793635
            ],
            [
              -43.6524056,
              -22.7937104
            ]
          ]
        ]
      }
    },
    {
      "type": "Feature",
      "id": "way/805054410",
      "properties": {
        "timestamp": "2020-06-25T02:24:47Z",
        "version": 3,
        "changeset": 87109218,
        "addr:city": "Seropédica",
        "addr:housenumber": "08",
        "addr:postcode": "23899-006",
        "addr:street": "Estrada do Cortume",
        "addr:suburb": "Canto do Rio",
        "amenity": "clinic",
        "building": "yes",
        "name": "Unidade de Saúda da Família Maria Antônia de Brito",
        "opening_hours": "Mo-Fr 08:00-17:00",
        "operator": "Prefeitura Municipal de Seropédica",
        "operator:type": "public",
        "id": "way/805054410"
      },
      "geometry": {
        "type": "Polygon",
        "coordinates": [
          [
            [
              -43.6739132,
              -22.857335
            ],
            [
              -43.6738791,
              -22.8573413
            ],
            [
              -43.673887,
              -22.8573779
            ],
            [
              -43.6737473,
              -22.8574037
            ],
            [
              -43.673727,
              -22.8573103
            ],
            [
              -43.6739009,
              -22.8572783
            ],
            [
              -43.6739132,
              -22.857335
            ]
          ]
        ]
      }
    },
    {
      "type": "Feature",
      "id": "way/805054411",
      "properties": {
        "timestamp": "2020-05-24T23:13:11Z",
        "version": 2,
        "changeset": 85697045,
        "addr:city": "Seropédica",
        "addr:postcode": "23891-645",
        "addr:street": "Rua A",
        "addr:suburb": "Santa Alice",
        "amenity": "clinic",
        "building": "yes",
        "healthcare": "clinic",
        "name": "Unidade de Saúde da Família Mario Soares de Oliveira",
        "opening_hours": "Mo-Fr 08:00-17:00",
        "operator": "Prefeitura Municipal de Seropédica",
        "operator:type": "public",
        "id": "way/805054411"
      },
      "geometry": {
        "type": "Polygon",
        "coordinates": [
          [
            [
              -43.6529198,
              -22.7092026
            ],
            [
              -43.6529469,
              -22.709334
            ],
            [
              -43.6528432,
              -22.7093522
            ],
            [
              -43.6528161,
              -22.7092208
            ],
            [
              -43.6529198,
              -22.7092026
            ]
          ]
        ]
      }
    },
    {
      "type": "Feature",
      "id": "way/805054412",
      "properties": {
        "timestamp": "2020-05-24T23:13:11Z",
        "version": 2,
        "changeset": 85697045,
        "addr:city": "Seropédica",
        "addr:postcode": "23894-450",
        "addr:street": "Avenida Sebastião Ferreira da Silva",
        "addr:suburb": "Boa Esperança",
        "amenity": "clinic",
        "building": "yes",
        "healthcare": "clinic",
        "name": "Unidade de Saúde da Família Onofre Ferreira Mendes",
        "opening_hours": "Mo-Fr 08:00-17:00",
        "operator": "Prefeitura Municipal de Seropédica",
        "operator:type": "public",
        "id": "way/805054412"
      },
      "geometry": {
        "type": "Polygon",
        "coordinates": [
          [
            [
              -43.6995559,
              -22.7377148
            ],
            [
              -43.699666,
              -22.7378083
            ],
            [
              -43.6995949,
              -22.7378795
            ],
            [
              -43.6994848,
              -22.737786
            ],
            [
              -43.6995559,
              -22.7377148
            ]
          ]
        ]
      }
    },
    {
      "type": "Feature",
      "id": "way/805054413",
      "properties": {
        "timestamp": "2020-05-24T23:13:11Z",
        "version": 2,
        "changeset": 85697045,
        "addr:city": "Seropédica",
        "addr:housenumber": "32",
        "addr:postcode": "23890-076",
        "addr:street": "Rua Pedro Paulo Campos",
        "addr:suburb": "Jardins",
        "amenity": "clinic",
        "building": "yes",
        "healthcare": "clinic",
        "name": "Unidade de Saúde da Família Oza",
        "opening_hours": "Mo-Fr 08:00-17:00",
        "operator": "Prefeitura Municipal de Seropédica",
        "operator:type": "public",
        "id": "way/805054413"
      },
      "geometry": {
        "type": "Polygon",
        "coordinates": [
          [
            [
              -43.6410222,
              -22.8001183
            ],
            [
              -43.6410863,
              -22.8001743
            ],
            [
              -43.6409416,
              -22.8003149
            ],
            [
              -43.6408776,
              -22.8002589
            ],
            [
              -43.6410222,
              -22.8001183
            ]
          ]
        ]
      }
    },
    {
      "type": "Feature",
      "id": "way/805110407",
      "properties": {
        "timestamp": "2020-05-24T23:13:11Z",
        "version": 3,
        "changeset": 85697045,
        "addr:city": "Seropédica",
        "addr:postcode": "23894-170",
        "addr:street": "Avenida Bento Rodrigues Noia",
        "addr:suburb": "Boa Esperança",
        "amenity": "clinic",
        "building": "yes",
        "healthcare": "clinic",
        "name": "Unidade de Saúde da Família Pedro de Carvalho",
        "opening_hours": "Mo-Fr 08:00-17:00",
        "operator": "Prefeitura Municipal de Seropédica",
        "operator:type": "public",
        "id": "way/805110407"
      },
      "geometry": {
        "type": "Polygon",
        "coordinates": [
          [
            [
              -43.686786,
              -22.7436116
            ],
            [
              -43.6866619,
              -22.7437127
            ],
            [
              -43.6865964,
              -22.7436531
            ],
            [
              -43.6865912,
              -22.7436479
            ],
            [
              -43.6865884,
              -22.7436416
            ],
            [
              -43.6865856,
              -22.7436323
            ],
            [
              -43.6865851,
              -22.7436226
            ],
            [
              -43.6865888,
              -22.7436139
            ],
            [
              -43.6865967,
              -22.7436062
            ],
            [
              -43.6866985,
              -22.7435215
            ],
            [
              -43.686786,
              -22.7436116
            ]
          ]
        ]
      }
    },
    {
      "type": "Feature",
      "id": "way/805110411",
      "properties": {
        "timestamp": "2020-05-24T23:13:11Z",
        "version": 2,
        "changeset": 85697045,
        "amenity": "clinic",
        "building": "yes",
        "healthcare": "clinic",
        "name": "Unidade de Saúde da Família Santa Sofia",
        "opening_hours": "Mo-Fr 08:00-17:00",
        "operator": "Prefeitura Municipal de Seropédica",
        "operator:type": "public",
        "id": "way/805110411"
      },
      "geometry": {
        "type": "Polygon",
        "coordinates": [
          [
            [
              -43.732722,
              -22.7241194
            ],
            [
              -43.7327528,
              -22.7241986
            ],
            [
              -43.7326059,
              -22.7242472
            ],
            [
              -43.7325751,
              -22.7241679
            ],
            [
              -43.732722,
              -22.7241194
            ]
          ]
        ]
      }
    },
    {
      "type": "Feature",
      "id": "way/805110412",
      "properties": {
        "timestamp": "2020-05-24T23:13:11Z",
        "version": 2,
        "changeset": 85697045,
        "addr:city": "Seropédica",
        "addr:street": "Rua G",
        "addr:suburb": "São Miguel",
        "amenity": "clinic",
        "building": "yes",
        "healthcare": "clinic",
        "name": "Unidade de Saúde da Família São Miguel",
        "opening_hours": "Mo-Fr 08:00-17:00",
        "operator": "Prefeitura Municipal de Seropédica",
        "operator:type": "public",
        "id": "way/805110412"
      },
      "geometry": {
        "type": "Polygon",
        "coordinates": [
          [
            [
              -43.7192748,
              -22.7129766
            ],
            [
              -43.7192067,
              -22.7129861
            ],
            [
              -43.7191904,
              -22.7128868
            ],
            [
              -43.7192585,
              -22.7128773
            ],
            [
              -43.7192748,
              -22.7129766
            ]
          ]
        ]
      }
    },
    {
      "type": "Feature",
      "id": "way/805110413",
      "properties": {
        "timestamp": "2020-05-24T23:13:11Z",
        "version": 2,
        "changeset": 85697045,
        "addr:city": "Seropédica",
        "addr:housenumber": "15",
        "addr:postcode": "23895-530",
        "addr:street": "Estrada da Fonte Limpa",
        "addr:suburb": "Fazenda Caxias",
        "amenity": "clinic",
        "building": "yes",
        "healthcare": "clinic",
        "name": "Unidade de Saúde da Família Waldemar Marques de Moura",
        "opening_hours": "Mo-Fr 08:00-17:00",
        "operator": "Prefeitura Municipal de Seropédica",
        "operator:type": "public",
        "id": "way/805110413"
      },
      "geometry": {
        "type": "Polygon",
        "coordinates": [
          [
            [
              -43.7302894,
              -22.7382162
            ],
            [
              -43.7302012,
              -22.7383308
            ],
            [
              -43.7301236,
              -22.73828
            ],
            [
              -43.7302119,
              -22.7381654
            ],
            [
              -43.7302894,
              -22.7382162
            ]
          ]
        ]
      }
    },
    {
      "type": "Feature",
      "id": "node/5261114721",
      "properties": {
        "timestamp": "2020-05-24T23:13:10Z",
        "version": 3,
        "changeset": 85697045,
        "addr:city": "Seropédica",
        "addr:housenumber": "18",
        "addr:postcode": "23895-295",
        "addr:street": "Rua Maria Lourenço",
        "addr:suburb": "Fazenda Caxias",
        "amenity": "clinic",
        "healthcare": "clinic",
        "name": "Unidade de Saúde da Família Fazenda Caxias I",
        "opening_hours": "Mo-Fr 08:00-17:00",
        "operator": "Prefeitura Municipal de Seropédica",
        "operator:type": "public",
        "id": "node/5261114721"
      },
      "geometry": {
        "type": "Point",
        "coordinates": [
          -43.705316,
          -22.7428093
        ]
      }
    },
    {
      "type": "Feature",
      "id": "node/7556383738",
      "properties": {
        "timestamp": "2020-05-25T14:21:10Z",
        "version": 1,
        "changeset": 85721097,
        "barrier": "gate",
        "foot": "yes",
        "id": "node/7556383738"
      },
      "geometry": {
        "type": "Point",
        "coordinates": [
          -43.634759,
          -22.8219855
        ]
      }
    },
    {
      "type": "Feature",
      "id": "node/12026615243",
      "properties": {
        "timestamp": "2024-07-01T19:00:38Z",
        "version": 1,
        "changeset": 153425494,
        "addr:city": "Seropédica",
        "addr:postcode": "23895-010",
        "addr:street": "Estrada João Ferreira",
        "addr:suburb": "UFRRJ",
        "amenity": "clinic",
        "healthcare": "clinic",
        "name": "Unidade de Saúde da Família Jovino Evaristo Carreiro",
        "opening_hours": "Mo-Fr 08:00-17:00",
        "operator": "Prefeitura Municipal de Seropédica",
        "operator:type": "public",
        "id": "node/12026615243"
      },
      "geometry": {
        "type": "Point",
        "coordinates": [
          -43.707016,
          -22.7575192
        ]
      }
    }
  ]
}
