{
  "type": "FeatureCollection",
  "features": [
    {
      "type": "Feature",
      "id": "node/2799774660",
      "properties": {
        "timestamp": "2014-04-18T20:39:54Z",
        "version": 1,
        "changeset": 21776936,
        "addr:city": "Porto Rico",
        "name": "Porto do Sol",
        "tourism": "hotel",
        "id": "node/2799774660"
      },
      "geometry": {
        "type": "Point",
        "coordinates": [
          -53.2613644,
          -22.7674342
        ]
      }
    },
    {
      "type": "Feature",
      "id": "node/2799803519",
      "properties": {
        "timestamp": "2014-04-18T20:59:00Z",
        "version": 2,
        "changeset": 21777339,
        "addr:city": "Porto Rico",
        "addr:street": "Avenida Celso Romão de Oliveira",
        "name": "Parati",
        "tourism": "hotel",
        "id": "node/2799803519"
      },
      "geometry": {
        "type": "Point",
        "coordinates": [
          -53.2687865,
          -22.7712131
        ]
      }
    },
    {
      "type": "Feature",
      "id": "node/2799835596",
      "properties": {
        "timestamp": "2014-04-18T21:00:20Z",
        "version": 1,
        "changeset": 21777373,
        "addr:city": "Porto Rico",
        "addr:street": "Rua Iguaçu",
        "name": "Colombo",
        "tourism": "hotel",
        "id": "node/2799835596"
      },
      "geometry": {
        "type": "Point",
        "coordinates": [
          -53.2694195,
          -22.7711538
        ]
      }
    }
  ]
}
