{
  "type": "FeatureCollection",
  "features": [
    {
      "type": "Feature",
      "id": "node/9861028567",
      "properties": {
        "timestamp": "2022-07-02T14:55:50Z",
        "version": 2,
        "changeset": 123123063,
        "addr:city": "Mendes Pimentel",
        "addr:housenumber": "49",
        "addr:postcode": "35270-000",
        "addr:street": "Avenida Mateus Moulin",
        "addr:suburb": "Centro",
        "amenity": "pharmacy",
        "dispensing": "yes",
        "healthcare": "pharmacy",
        "name": "Drogaria Barbosa",
        "id": "node/9861028567"
      },
      "geometry": {
        "type": "Point",
        "coordinates": [
          -41.4035716,
          -18.6588542
        ]
      }
    },
    {
      "type": "Feature",
      "id": "node/9861028569",
      "properties": {
        "timestamp": "2022-07-02T14:55:50Z",
        "version": 2,
        "changeset": 123123063,
        "addr:city": "Mendes Pimentel",
        "addr:housenumber": "39",
        "addr:postcode": "35270-000",
        "addr:street": "Avenida Mateus Moulin",
        "addr:suburb": "Centro",
        "amenity": "pharmacy",
        "dispensing": "yes",
        "healthcare": "pharmacy",
        "name": "Farmácia Fidélis",
        "id": "node/9861028569"
      },
      "geometry": {
        "type": "Point",
        "coordinates": [
          -41.4030872,
          -18.658384
        ]
      }
    }
  ]
}
