{
  "type": "FeatureCollection",
  "features": [
    {
      "type": "Feature",
      "id": "node/4097890144",
      "properties": {
        "timestamp": "2016-04-04T18:20:35Z",
        "version": 1,
        "changeset": 38297835,
        "addr:housenumber": "498",
        "addr:postcode": "66025-610",
        "addr:street": "Travessa dos Tupinambás",
        "addr:suburb": "Jurunas",
        "name": "Ciclo Verão",
        "repair": "yes",
        "service:bicycle:retail": "no",
        "shop": "bicycle",
        "source": "survey",
        "source:addr": "Cadastro Técnico Multifinalitário de Belém",
        "id": "node/4097890144"
      },
      "geometry": {
        "type": "Point",
        "coordinates": [
          -48.490662,
          -1.4642669
        ]
      }
    },
    {
      "type": "Feature",
      "id": "node/4097890145",
      "properties": {
        "timestamp": "2016-04-04T18:20:35Z",
        "version": 1,
        "changeset": 38297835,
        "addr:housenumber": "1390",
        "addr:postcode": "66035-045",
        "addr:street": "Travessa Padre Eutíquio",
        "addr:suburb": "Batista Campos",
        "name": "Ciclor Bike Shop",
        "shop": "bicycle",
        "source:addr": "Cadastro Técnico Multifinalitário de Belém",
        "id": "node/4097890145"
      },
      "geometry": {
        "type": "Point",
        "coordinates": [
          -48.4923429,
          -1.4594353
        ]
      }
    },
    {
      "type": "Feature",
      "id": "node/8433363266",
      "properties": {
        "timestamp": "2021-02-18T00:22:10Z",
        "version": 1,
        "changeset": 99482342,
        "addr:city": "Belém",
        "addr:housenumber": "24",
        "addr:street": "Rua Veiga Cabral",
        "addr:suburb": "Cidade-Velha",
        "name": "Nilbike",
        "phone": "+55 91 987021181",
        "service:bicycle:Bicycle_Sales_and_Service": "yes",
        "service:bicycle:parts": "yes",
        "service:bicycle:repair": "yes",
        "service:bicycle:retail": "yes",
        "shop": "bicycle",
        "website": "https://instagram.com/nilbikeloja",
        "id": "node/8433363266"
      },
      "geometry": {
        "type": "Point",
        "coordinates": [
          -48.502148,
          -1.4662239
        ]
      }
    },
    {
      "type": "Feature",
      "id": "node/8481184110",
      "properties": {
        "timestamp": "2021-03-02T23:32:42Z",
        "version": 1,
        "changeset": 100308114,
        "addr:city": "Belém",
        "addr:housenumber": "588",
        "addr:street": "Travessa dos Apinagés",
        "addr:suburb": "Batista Campos",
        "name": "Camarão Moto Bike",
        "operator": "Valéria",
        "phone": "+55 91 98222-3928",
        "service:bicycle:Bicycle_Sales_and_Service": "yes",
        "service:bicycle:repair": "yes",
        "service:bicycle:retail": "yes",
        "shop": "bicycle",
        "website": "https://www.facebook.com/luciacscernipedrosa.pedrosa",
        "id": "node/8481184110"
      },
      "geometry": {
        "type": "Point",
        "coordinates": [
          -48.4844462,
          -1.4672281
        ]
      }
    },
    {
      "type": "Feature",
      "id": "node/8484047541",
      "properties": {
        "timestamp": "2022-05-23T16:23:46Z",
        "version": 2,
        "changeset": 121378909,
        "addr:city": "Belém",
        "addr:housenumber": "27",
        "addr:street": "Avenida João Paulo II",
        "addr:suburb": "Curió Utinga",
        "name": "Amazônia Bike",
        "operator": "Tassya Brasil",
        "phone": "+55 91988856095",
        "service:bicycle:Bicycle_Sales_and_Service": "yes",
        "service:bicycle:repair": "yes",
        "service:bicycle:retail": "yes",
        "shop": "bicycle",
        "website": "https://amazoniabike.com.br/",
        "id": "node/8484047541"
      },
      "geometry": {
        "type": "Point",
        "coordinates": [
          -48.4430332,
          -1.4190781
        ]
      }
    },
    {
      "type": "Feature",
      "id": "node/8484266410",
      "properties": {
        "timestamp": "2021-03-04T01:11:44Z",
        "version": 1,
        "changeset": 100379979,
        "addr:city": "Belém",
        "addr:housenumber": "1181",
        "addr:street": "Travessa Mauriti",
        "addr:suburb": "Pedreira",
        "name": "Katy Bike",
        "opening_hours": "Mo-Sa 08:00-18:00",
        "phone": "+55 91 98353-2677",
        "service:bicycle:repair": "yes",
        "service:bicycle:retail": "yes",
        "shop": "bicycle",
        "website": "https://www.facebook.com/katybikebelem/",
        "id": "node/8484266410"
      },
      "geometry": {
        "type": "Point",
        "coordinates": [
          -48.4750009,
          -1.4262295
        ]
      }
    },
    {
      "type": "Feature",
      "id": "node/8484266411",
      "properties": {
        "timestamp": "2021-03-04T01:11:44Z",
        "version": 1,
        "changeset": 100379979,
        "addr:housenumber": "1098",
        "addr:street": "Travessa Mauriti",
        "addr:suburb": "Pedreira",
        "name": "Motobyke Varejo e Atacado",
        "phone": "+55 91 3264-8907",
        "service:bicycle:bike": "yes",
        "service:bicycle:repair": "yes",
        "service:bicycle:retail": "yes",
        "shop": "bicycle",
        "website": "https://www.facebook.com/bike.gama.3",
        "id": "node/8484266411"
      },
      "geometry": {
        "type": "Point",
        "coordinates": [
          -48.4731081,
          -1.427515
        ]
      }
    },
    {
      "type": "Feature",
      "id": "node/8484266412",
      "properties": {
        "timestamp": "2023-11-19T08:25:21Z",
        "version": 2,
        "changeset": 144199154,
        "addr:housenumber": "1822 Sala8",
        "addr:street": "Travessa Mauriti",
        "addr:suburb": "Pedreira",
        "name": "Bikerunpa",
        "phone": "+55 91 98217-2658",
        "service:bicycle:clothing": "yes",
        "service:bicycle:parts": "yes",
        "shop": "bicycle",
        "website": "https://www.bikerunpa.com.br/",
        "id": "node/8484266412"
      },
      "geometry": {
        "type": "Point",
        "coordinates": [
          -48.4677889,
          -1.4310885
        ]
      }
    },
    {
      "type": "Feature",
      "id": "node/8484267303",
      "properties": {
        "timestamp": "2021-03-04T01:29:52Z",
        "version": 1,
        "changeset": 100380312,
        "addr:city": "Belém",
        "addr:housenumber": "640A",
        "addr:street": "Avenida Rodolfo Chermont",
        "addr:suburb": "Marambaia",
        "name": "Jr. Bike",
        "opening_hours:covid19": "Mo-Sa 09:00-18:00",
        "payment:cash": "yes",
        "payment:credit_cards": "yes",
        "phone": "+55 91 3038-1547",
        "service:bicycle:Bicycle_Sales_and_Service": "yes",
        "service:bicycle:parts": "yes",
        "service:bicycle:repair": "yes",
        "service:bicycle:tools": "yes",
        "shop": "bicycle",
        "website": "https://www.facebook.com/profile.php?id=100010738290931",
        "id": "node/8484267303"
      },
      "geometry": {
        "type": "Point",
        "coordinates": [
          -48.4531647,
          -1.4035644
        ]
      }
    },
    {
      "type": "Feature",
      "id": "node/8484291941",
      "properties": {
        "timestamp": "2021-03-04T01:36:46Z",
        "version": 1,
        "changeset": 100380465,
        "addr:housenumber": "2698",
        "addr:street": "Avenida Gentil Bittencourt",
        "addr:suburb": "São Brás",
        "name": "Loja Bikemania",
        "opening_hours": "Mo-Sa 08:00-18:00",
        "phone": "+55 91 9632-4631;3249-0646;3229-0067;8036-7344",
        "service:bicycle:cleaning": "yes",
        "service:bicycle:parts": "yes",
        "service:bicycle:repair": "yes",
        "service:bicycle:retail": "yes",
        "shop": "bicycle",
        "website": "https://www.facebook.com/bikemania123/",
        "id": "node/8484291941"
      },
      "geometry": {
        "type": "Point",
        "coordinates": [
          -48.4686758,
          -1.4545299
        ]
      }
    },
    {
      "type": "Feature",
      "id": "node/8484291942",
      "properties": {
        "timestamp": "2021-04-04T05:38:58Z",
        "version": 2,
        "changeset": 102257633,
        "addr:street": "Avenida Visconde de Inhaúma",
        "addr:suburb": "Marco",
        "name": "AD Ciclo",
        "opening_hours": "Mo-Sa 08:00-18:00",
        "service:bicycle:bike": "yes",
        "service:bicycle:cleaning": "yes",
        "service:bicycle:parts": "yes",
        "service:bicycle:repair": "yes",
        "service:bicycle:retail": "yes",
        "shop": "bicycle",
        "website": "https://instagram.com/adciclo",
        "id": "node/8484291942"
      },
      "geometry": {
        "type": "Point",
        "coordinates": [
          -48.4644187,
          -1.4277758
        ]
      }
    },
    {
      "type": "Feature",
      "id": "node/8484325065",
      "properties": {
        "timestamp": "2021-03-04T02:00:02Z",
        "version": 1,
        "changeset": 100380996,
        "addr:housenumber": "2015",
        "addr:street": "Travessa da Estrella",
        "addr:suburb": "Pedreira",
        "name": "Loja Ciclobike",
        "opening_hours": "Mo-Sa 08:00-18:00",
        "phone": "+55 91 3266-5560;98111-2564",
        "service:bicycle:cleaning": "yes",
        "service:bicycle:parts": "yes",
        "service:bicycle:repair": "yes",
        "service:bicycle:retail": "yes",
        "shop": "bicycle",
        "id": "node/8484325065"
      },
      "geometry": {
        "type": "Point",
        "coordinates": [
          -48.4684472,
          -1.432102
        ]
      }
    },
    {
      "type": "Feature",
      "id": "node/8484327983",
      "properties": {
        "timestamp": "2021-03-04T02:04:29Z",
        "version": 1,
        "changeset": 100381113,
        "addr:street": "Rua Doutor Lopo de Castro",
        "name": "Ponto da Bike",
        "phone": "+55 91 3227-4904",
        "service:bicycle:retail": "yes",
        "shop": "bicycle",
        "id": "node/8484327983"
      },
      "geometry": {
        "type": "Point",
        "coordinates": [
          -48.4881928,
          -1.2984256
        ]
      }
    },
    {
      "type": "Feature",
      "id": "node/8484327984",
      "properties": {
        "timestamp": "2021-03-04T02:04:29Z",
        "version": 1,
        "changeset": 100381113,
        "addr:housenumber": "891",
        "addr:street": "Rodovia Augusto Montenegro",
        "email": "camaraomotobike@gmail.com",
        "name": "Camarão Moto Bike",
        "phone": "+55 91 3253-7280",
        "service:bicycle:parts": "yes",
        "service:bicycle:repair": "yes",
        "service:bicycle:retail": "yes",
        "shop": "bicycle",
        "website": "https://www.camaraomotobike.com.br/",
        "id": "node/8484327984"
      },
      "geometry": {
        "type": "Point",
        "coordinates": [
          -48.4704645,
          -1.3005431
        ]
      }
    },
    {
      "type": "Feature",
      "id": "node/9307500844",
      "properties": {
        "timestamp": "2021-12-02T23:17:00Z",
        "version": 1,
        "changeset": 114501683,
        "addr:city": "Belém",
        "addr:housenumber": "1049",
        "addr:street": "Travessa Bom Jardim",
        "addr:suburb": "Jurunas",
        "name": "Montaciclo Peças e Bikes",
        "operator": "Ferdinando",
        "payment:cash": "yes",
        "payment:credit_cards": "yes",
        "payment:debit_cards": "yes",
        "phone": "+55 91 999841832",
        "service:bicycle:repair": "yes",
        "service:bicycle:sales": "yes",
        "service:bicycle:service": "yes",
        "service:bicycle:tools": "yes",
        "shop": "bicycle",
        "id": "node/9307500844"
      },
      "geometry": {
        "type": "Point",
        "coordinates": [
          -48.4951183,
          -1.4676571
        ]
      }
    },
    {
      "type": "Feature",
      "id": "node/12395863329",
      "properties": {
        "timestamp": "2024-12-04T12:43:17Z",
        "version": 1,
        "changeset": 159917532,
        "check_date": "2024-12-04",
        "name": "O Ponto do Ciclista",
        "shop": "bicycle",
        "id": "node/12395863329"
      },
      "geometry": {
        "type": "Point",
        "coordinates": [
          -48.4524972,
          -1.4287403
        ]
      }
    }
  ]
}
