{
  "type": "FeatureCollection",
  "features": [
    {
      "type": "Feature",
      "id": "node/4373106840",
      "properties": {
        "timestamp": "2016-08-29T03:55:42Z",
        "version": 1,
        "changeset": 41768252,
        "amenity": "doctors",
        "healthcare": "doctor",
        "healthcare:speciality": "plastic_surgery",
        "name": "Doutor Mario Faial",
        "id": "node/4373106840"
      },
      "geometry": {
        "type": "Point",
        "coordinates": [
          -48.4935976,
          -1.4505509
        ]
      }
    },
    {
      "type": "Feature",
      "id": "node/4378265806",
      "properties": {
        "timestamp": "2016-09-01T02:08:44Z",
        "version": 1,
        "changeset": 41839402,
        "addr:housenumber": "2060",
        "addr:postcode": "66033-720",
        "addr:street": "Travessa Padre Eutíquio",
        "addr:suburb": "Batista Campos",
        "amenity": "doctors",
        "healthcare": "doctor",
        "healthcare:speciality": "gynaecology",
        "name": "Maria Ilva Gonçalves",
        "id": "node/4378265806"
      },
      "geometry": {
        "type": "Point",
        "coordinates": [
          -48.4873118,
          -1.4632682
        ]
      }
    },
    {
      "type": "Feature",
      "id": "node/4392561725",
      "properties": {
        "timestamp": "2024-11-05T01:19:41Z",
        "version": 2,
        "changeset": 158761517,
        "amenity": "doctors",
        "check_date": "2024-11-04",
        "healthcare": "doctor",
        "healthcare:speciality": "plastic_surgery",
        "name": "Álvaro Gomes",
        "id": "node/4392561725"
      },
      "geometry": {
        "type": "Point",
        "coordinates": [
          -48.4944846,
          -1.4560716
        ]
      }
    },
    {
      "type": "Feature",
      "id": "node/5265022922",
      "properties": {
        "timestamp": "2017-12-05T02:57:28Z",
        "version": 1,
        "changeset": 54351727,
        "amenity": "doctors",
        "name": "consultas médicas",
        "id": "node/5265022922"
      },
      "geometry": {
        "type": "Point",
        "coordinates": [
          -48.4657226,
          -1.4478012
        ]
      }
    },
    {
      "type": "Feature",
      "id": "node/10042573320",
      "properties": {
        "timestamp": "2022-09-21T12:42:49Z",
        "version": 1,
        "changeset": 126464216,
        "addr:city": "Belém",
        "addr:housenumber": "1279",
        "addr:state": "Pará",
        "addr:street": "Rua Diogo Móia",
        "amenity": "doctors",
        "ele:ellipsoid": "1.034",
        "healthcare": "doctor",
        "name": "Clinisa - Clínicas Integradas De Saúde",
        "opening_hours": "Mo-Fr 09:00-12:00,13:00-18:00; PH closed",
        "id": "node/10042573320"
      },
      "geometry": {
        "type": "Point",
        "coordinates": [
          -48.4778938,
          -1.4413925
        ]
      }
    },
    {
      "type": "Feature",
      "id": "node/10686908719",
      "properties": {
        "timestamp": "2023-02-22T21:05:35Z",
        "version": 1,
        "changeset": 132899913,
        "amenity": "doctors",
        "healthcare": "doctor",
        "healthcare:speciality": "paediatrics;gynaecology",
        "name": "Centro de Atenção à saúde da Mulher e da Criança (CASMUC)",
        "opening_hours": "07:00 - 16:00",
        "operator": "Faculdade de Medicina UFPA",
        "wheelchair": "yes",
        "id": "node/10686908719"
      },
      "geometry": {
        "type": "Point",
        "coordinates": [
          -48.4459145,
          -1.4694783
        ]
      }
    },
    {
      "type": "Feature",
      "id": "node/12089387567",
      "properties": {
        "timestamp": "2024-08-02T18:37:03Z",
        "version": 1,
        "changeset": 154749114,
        "addr:city": "Belém - PA",
        "addr:housenumber": "1306",
        "addr:postcode": "66810-000",
        "addr:street": "Rua Doutor Lopo de Castro",
        "addr:suburb": "Campina de Icoaraci",
        "amenity": "doctors",
        "check_date": "2024-08-02",
        "currency:XBT": "yes",
        "healthcare": "doctor",
        "name": "Ami saúde",
        "opening_hours": "Mo-Fr 07:00-17:00",
        "payment:lightning": "yes",
        "payment:lightning_contactless": "yes",
        "payment:onchain": "yes",
        "phone": "+55 91 98764 1260",
        "id": "node/12089387567"
      },
      "geometry": {
        "type": "Point",
        "coordinates": [
          -48.4776093,
          -1.2980679
        ]
      }
    }
  ]
}
