{
  "type": "FeatureCollection",
  "features": [
    {
      "type": "Feature",
      "id": "node/4119778864",
      "properties": {
        "timestamp": "2023-11-21T22:55:14Z",
        "version": 4,
        "changeset": 144305485,
        "addr:city": "Belém",
        "addr:housenumber": "2010",
        "addr:street": "Avenida Lomas Valentinas",
        "addr:suburb": "Marco",
        "name": "Edificio Teacher House",
        "tourism": "guest_house",
        "id": "node/4119778864"
      },
      "geometry": {
        "type": "Point",
        "coordinates": [
          -48.455866,
          -1.4333729
        ]
      }
    },
    {
      "type": "Feature",
      "id": "node/4194436689",
      "properties": {
        "timestamp": "2023-11-22T10:20:50Z",
        "version": 2,
        "changeset": 144319834,
        "addr:city": "Belém",
        "addr:housenumber": "921",
        "addr:street": "Travessa dos Tupinambás",
        "addr:suburb": "Batista Campos",
        "tourism": "guest_house",
        "id": "node/4194436689"
      },
      "geometry": {
        "type": "Point",
        "coordinates": [
          -48.4872923,
          -1.4661227
        ]
      }
    },
    {
      "type": "Feature",
      "id": "node/4664171190",
      "properties": {
        "timestamp": "2023-11-22T00:40:43Z",
        "version": 2,
        "changeset": 144307064,
        "addr:city": "Belém",
        "addr:housenumber": "120",
        "addr:street": "Rua dos Mundurucus",
        "addr:suburb": "Guamá",
        "name": "Home",
        "name:pt": "Home",
        "tourism": "guest_house",
        "id": "node/4664171190"
      },
      "geometry": {
        "type": "Point",
        "coordinates": [
          -48.4637241,
          -1.4572691
        ]
      }
    },
    {
      "type": "Feature",
      "id": "node/8340191917",
      "properties": {
        "timestamp": "2021-01-19T22:35:41Z",
        "version": 1,
        "changeset": 97795203,
        "name": "Refúgio Maluco Beleza",
        "tourism": "guest_house",
        "id": "node/8340191917"
      },
      "geometry": {
        "type": "Point",
        "coordinates": [
          -48.5625341,
          -1.2436399
        ]
      }
    },
    {
      "type": "Feature",
      "id": "node/8340191918",
      "properties": {
        "timestamp": "2021-01-19T22:35:45Z",
        "version": 1,
        "changeset": 97795203,
        "name": "Pico Da Ilha",
        "tourism": "guest_house",
        "id": "node/8340191918"
      },
      "geometry": {
        "type": "Point",
        "coordinates": [
          -48.5649786,
          -1.2472224
        ]
      }
    },
    {
      "type": "Feature",
      "id": "node/8340191919",
      "properties": {
        "timestamp": "2023-11-25T19:20:26Z",
        "version": 2,
        "changeset": 144451245,
        "addr:city": "Belém",
        "addr:postcode": "66810-000",
        "addr:street": "Rua do Farol",
        "name": "Pousada e Restaurante Tubarão",
        "phone": "+ 55 91 9 8604-2763",
        "tourism": "guest_house",
        "id": "node/8340191919"
      },
      "geometry": {
        "type": "Point",
        "coordinates": [
          -48.5597603,
          -1.2713869
        ]
      }
    },
    {
      "type": "Feature",
      "id": "node/12407411725",
      "properties": {
        "timestamp": "2024-12-09T16:08:10Z",
        "version": 1,
        "changeset": 160098123,
        "name": "Aldeia, Pousada e Restaurante",
        "tourism": "guest_house",
        "id": "node/12407411725"
      },
      "geometry": {
        "type": "Point",
        "coordinates": [
          -48.56398,
          -1.2457745
        ]
      }
    },
    {
      "type": "Feature",
      "id": "node/12407481318",
      "properties": {
        "timestamp": "2024-12-09T16:08:10Z",
        "version": 1,
        "changeset": 160098123,
        "name": "Hanayra Professor, Pousada e Restaurante",
        "tourism": "guest_house",
        "id": "node/12407481318"
      },
      "geometry": {
        "type": "Point",
        "coordinates": [
          -48.5632297,
          -1.2446395
        ]
      }
    },
    {
      "type": "Feature",
      "id": "node/12413733202",
      "properties": {
        "timestamp": "2024-12-11T20:29:56Z",
        "version": 1,
        "changeset": 160184291,
        "name": "Pousada Grão",
        "tourism": "guest_house",
        "id": "node/12413733202"
      },
      "geometry": {
        "type": "Point",
        "coordinates": [
          -48.529062,
          -1.2125072
        ]
      }
    }
  ]
}
