{
  "type": "FeatureCollection",
  "features": [
    {
      "type": "Feature",
      "id": "relation/6172176",
      "properties": {
        "timestamp": "2024-11-17T23:59:42Z",
        "version": 3,
        "changeset": 159263454,
        "addr:housenumber": "834",
        "addr:postcode": "66020-290",
        "addr:street": "Rua Doutor Assis",
        "building": "yes",
        "internet_access": "wlan",
        "internet_access:fee": "no",
        "name": "Atrium Quinta de Pedras",
        "tourism": "hotel",
        "type": "multipolygon",
        "wikidata": "Q111413591",
        "id": "relation/6172176"
      },
      "geometry": {
        "type": "Polygon",
        "coordinates": [
          [
            [
              -48.504229,
              -1.4629868
            ],
            [
              -48.5047382,
              -1.4631241
            ],
            [
              -48.5047167,
              -1.4632038
            ],
            [
              -48.5044948,
              -1.4631439
            ],
            [
              -48.5044497,
              -1.4633109
            ],
            [
              -48.5047056,
              -1.46338
            ],
            [
              -48.5047706,
              -1.4631395
            ],
            [
              -48.5048908,
              -1.463172
            ],
            [
              -48.5048259,
              -1.4634124
            ],
            [
              -48.5048701,
              -1.4634244
            ],
            [
              -48.5048425,
              -1.4635265
            ],
            [
              -48.5047322,
              -1.4634967
            ],
            [
              -48.5041982,
              -1.4633527
            ],
            [
              -48.5041349,
              -1.4633356
            ],
            [
              -48.504229,
              -1.4629868
            ]
          ],
          [
            [
              -48.5043916,
              -1.4632953
            ],
            [
              -48.5044367,
              -1.4631283
            ],
            [
              -48.5043447,
              -1.4631035
            ],
            [
              -48.5042996,
              -1.4632704
            ],
            [
              -48.5043916,
              -1.4632953
            ]
          ]
        ]
      }
    },
    {
      "type": "Feature",
      "id": "way/274894416",
      "properties": {
        "timestamp": "2022-09-25T04:07:52Z",
        "version": 2,
        "changeset": 126601992,
        "building": "yes",
        "name": "Gold Mar",
        "tourism": "hotel",
        "id": "way/274894416"
      },
      "geometry": {
        "type": "Polygon",
        "coordinates": [
          [
            [
              -48.4919177,
              -1.4314816
            ],
            [
              -48.493102,
              -1.4311438
            ],
            [
              -48.4931653,
              -1.4313656
            ],
            [
              -48.49248,
              -1.4315612
            ],
            [
              -48.4919811,
              -1.4317036
            ],
            [
              -48.4919177,
              -1.4314816
            ]
          ]
        ]
      }
    },
    {
      "type": "Feature",
      "id": "way/420067281",
      "properties": {
        "timestamp": "2016-05-22T16:46:07Z",
        "version": 1,
        "changeset": 39490912,
        "building": "yes",
        "name": "Hotel Farol",
        "tourism": "hotel",
        "id": "way/420067281"
      },
      "geometry": {
        "type": "Polygon",
        "coordinates": [
          [
            [
              -48.4665825,
              -1.134323
            ],
            [
              -48.4666412,
              -1.1343756
            ],
            [
              -48.4666737,
              -1.1344232
            ],
            [
              -48.4666831,
              -1.1344611
            ],
            [
              -48.4666902,
              -1.134504
            ],
            [
              -48.4666831,
              -1.1345398
            ],
            [
              -48.4666687,
              -1.1345794
            ],
            [
              -48.4666274,
              -1.1346253
            ],
            [
              -48.4665551,
              -1.1346595
            ],
            [
              -48.4665121,
              -1.1345804
            ],
            [
              -48.4665456,
              -1.1345663
            ],
            [
              -48.4665684,
              -1.1345509
            ],
            [
              -48.4665785,
              -1.1345315
            ],
            [
              -48.4665872,
              -1.1345053
            ],
            [
              -48.4665855,
              -1.1344614
            ],
            [
              -48.4665731,
              -1.1344369
            ],
            [
              -48.4665235,
              -1.1343947
            ],
            [
              -48.4665825,
              -1.134323
            ]
          ]
        ]
      }
    },
    {
      "type": "Feature",
      "id": "way/1225796449",
      "properties": {
        "timestamp": "2024-11-03T18:55:21Z",
        "version": 2,
        "changeset": 158712543,
        "addr:city": "Belém",
        "addr:housenumber": "4804",
        "addr:postcode": "66075-150",
        "addr:street": "Avenida Bernardo Sayão",
        "addr:suburb": "Guamá",
        "air_conditioning": "yes",
        "building": "yes",
        "email": "reservas@beirariohotel.com.br",
        "internet_access": "yes",
        "name": "Beira Rio Hotel",
        "phone": "+55 91 4008-9000",
        "tourism": "hotel",
        "website": "https://beirariohotel.com.br/",
        "id": "way/1225796449"
      },
      "geometry": {
        "type": "Polygon",
        "coordinates": [
          [
            [
              -48.4647397,
              -1.4754383
            ],
            [
              -48.464843,
              -1.4759506
            ],
            [
              -48.4646491,
              -1.4759944
            ],
            [
              -48.4646094,
              -1.4757637
            ],
            [
              -48.4641111,
              -1.4758487
            ],
            [
              -48.4640672,
              -1.4755331
            ],
            [
              -48.4647397,
              -1.4754383
            ]
          ]
        ]
      }
    },
    {
      "type": "Feature",
      "id": "way/1225856903",
      "properties": {
        "timestamp": "2023-11-22T09:58:21Z",
        "version": 2,
        "changeset": 144319082,
        "addr:city": "Belém",
        "addr:postcode": "66620-600",
        "addr:street": "Beira Rio Ilha Do Combu",
        "building": "yes",
        "name": "Olaria Hostel",
        "phone": "+55 91 9 8433-6086",
        "tourism": "hotel",
        "website": "https://olaria-river-hostel-belem.belemhotelsweb.com/pt/",
        "id": "way/1225856903"
      },
      "geometry": {
        "type": "Polygon",
        "coordinates": [
          [
            [
              -48.4646124,
              -1.4897939
            ],
            [
              -48.4646131,
              -1.4898626
            ],
            [
              -48.4645246,
              -1.489864
            ],
            [
              -48.4645267,
              -1.4897968
            ],
            [
              -48.4646124,
              -1.4897939
            ]
          ]
        ]
      }
    },
    {
      "type": "Feature",
      "id": "way/1258399697",
      "properties": {
        "timestamp": "2024-03-15T22:48:11Z",
        "version": 2,
        "changeset": 148711338,
        "addr:city": "Belém",
        "addr:housenumber": "300",
        "addr:street": "Avenida 16 de Novembro",
        "addr:suburb": "Cidade Velha",
        "building": "yes",
        "building:levels": "3",
        "name": "Hotel de Trânsito de Oficiais",
        "note": "Antiga Estação Ferroviária",
        "phone": "+559132235082",
        "tourism": "hotel",
        "id": "way/1258399697"
      },
      "geometry": {
        "type": "Polygon",
        "coordinates": [
          [
            [
              -48.4999546,
              -1.4585416
            ],
            [
              -48.4997449,
              -1.4588038
            ],
            [
              -48.4996538,
              -1.458731
            ],
            [
              -48.4998636,
              -1.4584688
            ],
            [
              -48.4999546,
              -1.4585416
            ]
          ]
        ]
      }
    },
    {
      "type": "Feature",
      "id": "node/379790719",
      "properties": {
        "timestamp": "2024-11-18T00:02:39Z",
        "version": 4,
        "changeset": 159263502,
        "addr:housenumber": "2927",
        "addr:postcode": "66060-232",
        "addr:street": "Avenida Governador José Malcher",
        "email": "reservas@hotelsagres.com",
        "name": "Hotel Sagres",
        "phone": "+55 91 4005-0005",
        "source": "survey",
        "stars": "4",
        "tourism": "hotel",
        "website": "https://www.hotelsagres.com/",
        "wikidata": "Q111413596",
        "id": "node/379790719"
      },
      "geometry": {
        "type": "Point",
        "coordinates": [
          -48.4677556,
          -1.4481815
        ]
      }
    },
    {
      "type": "Feature",
      "id": "node/518611821",
      "properties": {
        "timestamp": "2023-11-21T23:13:43Z",
        "version": 3,
        "changeset": 144305821,
        "addr:city": "Belém",
        "addr:housenumber": "63",
        "addr:postcode": "66090-520",
        "addr:street": "Primeira Travessa de Queluz",
        "addr:suburb": "São Bras",
        "name": "Hotel Danúbio",
        "phone": "+55 91 3228-2670",
        "tourism": "hotel",
        "id": "node/518611821"
      },
      "geometry": {
        "type": "Point",
        "coordinates": [
          -48.4651975,
          -1.4486694
        ]
      }
    },
    {
      "type": "Feature",
      "id": "node/767884230",
      "properties": {
        "timestamp": "2024-11-10T14:57:34Z",
        "version": 4,
        "changeset": 158970794,
        "addr:city": "Belém",
        "addr:housenumber": "718",
        "addr:postcode": "66017-000",
        "addr:street": "Avenida Presidente Vargas",
        "addr:suburb": "Campina",
        "contact:phone": "+55 91 3321-2121",
        "email": "reservas@hotelgraopara.com.br",
        "internet_access": "yes",
        "internet_access:fee": "no",
        "name": "Hotel Grão Pará",
        "phone": "+55 91 9 8454-8112",
        "tourism": "hotel",
        "website": "https://hotelgraopara.com.br",
        "wikidata": "Q111413593",
        "id": "node/767884230"
      },
      "geometry": {
        "type": "Point",
        "coordinates": [
          -48.4952718,
          -1.4528271
        ]
      }
    },
    {
      "type": "Feature",
      "id": "node/1746671819",
      "properties": {
        "timestamp": "2023-11-25T18:59:00Z",
        "version": 4,
        "changeset": 144450772,
        "addr:city": "Belém",
        "addr:housenumber": "656",
        "addr:postcode": "66015-180",
        "addr:street": "Travessa Padre Prudêncio",
        "addr:suburb": "Campina",
        "description": "100,00 R. incl. breakfast, wifi, clean & good, sustainable tourism project, situated in the centre",
        "name": "Eco Pousada Miriti",
        "phone": "+55 91 3252 2218",
        "tourism": "hotel",
        "id": "node/1746671819"
      },
      "geometry": {
        "type": "Point",
        "coordinates": [
          -48.4955119,
          -1.4550514
        ]
      }
    },
    {
      "type": "Feature",
      "id": "node/1746676875",
      "properties": {
        "timestamp": "2023-11-25T12:00:59Z",
        "version": 4,
        "changeset": 144438754,
        "addr:city": "Belém",
        "addr:housenumber": "236",
        "addr:postcode": "66053-360",
        "addr:street": "Rua Henrique Gurjão",
        "addr:suburb": "Nazaré",
        "description": "117 / 128 R. incl. breakfast, Wi-fi, clean & good, restaurant, near Praça da República",
        "internet_access": "yes",
        "internet_access:fee": "customers",
        "name": "Hotel Le Massilia",
        "phone": "+55 91 3222-2834",
        "phone_1": "+55 91 3224-7147",
        "tourism": "hotel",
        "website": "https://le-massilia.belemhotelsweb.com/pt/",
        "id": "node/1746676875"
      },
      "geometry": {
        "type": "Point",
        "coordinates": [
          -48.4919502,
          -1.4505232
        ]
      }
    },
    {
      "type": "Feature",
      "id": "node/1914105196",
      "properties": {
        "timestamp": "2016-04-02T04:44:34Z",
        "version": 2,
        "changeset": 38242321,
        "source": "GDAL 1.9.1",
        "tourism": "hotel",
        "id": "node/1914105196"
      },
      "geometry": {
        "type": "Point",
        "coordinates": [
          -48.499657,
          -1.452167
        ]
      }
    },
    {
      "type": "Feature",
      "id": "node/2012679214",
      "properties": {
        "timestamp": "2024-12-01T21:16:29Z",
        "version": 4,
        "changeset": 159820536,
        "addr:city": "Belém",
        "addr:housenumber": "569",
        "addr:postcode": "66077-580,",
        "addr:street": "Travessa Rui Barbosa",
        "addr:suburb": "Nazaré",
        "brand": "Ibis Styles",
        "brand:wikidata": "Q3147425",
        "check_date": "2024-12-01",
        "email": "hb1z9-re@accor.com",
        "internet_access": "yes",
        "internet_access:fee": "customers",
        "name": "ibis Styles Belém Nazaré",
        "payment:cash": "yes",
        "payment:credit_cards": "yes",
        "payment:debit_cards": "yes",
        "phone": "+55 91 3321-7177",
        "tourism": "hotel",
        "website": "https://all.accor.com/hotel/B1Z9/index.pt-br.shtml?utm_campaign=seo+maps&utm_medium=seo+maps&utm_source=google+Maps",
        "wheelchair": "yes",
        "id": "node/2012679214"
      },
      "geometry": {
        "type": "Point",
        "coordinates": [
          -48.4879126,
          -1.4520999
        ]
      }
    },
    {
      "type": "Feature",
      "id": "node/2024723621",
      "properties": {
        "timestamp": "2024-11-03T20:55:27Z",
        "version": 7,
        "changeset": 158717010,
        "addr:postcode": "66017-904",
        "addr:street": "Avenida Presidente Vargas",
        "addr:suburb": "Campina",
        "air_conditioning": "yes",
        "contact:phone": "+55 91 4006-7000",
        "contact:website": "www.princesabelem.com.br",
        "email": "reservas@princesabelem.com.br",
        "internet_access": "wlan",
        "internet_access:fee": "no",
        "name": "Hotel Princesa Louçã",
        "phone": "+55 91 4006-7571",
        "tourism": "hotel",
        "id": "node/2024723621"
      },
      "geometry": {
        "type": "Point",
        "coordinates": [
          -48.4944406,
          -1.4534752
        ]
      }
    },
    {
      "type": "Feature",
      "id": "node/2424334503",
      "properties": {
        "timestamp": "2023-11-19T00:00:14Z",
        "version": 4,
        "changeset": 144193039,
        "name": "Hotel Ibis Belém Aeroporto",
        "tourism": "hotel",
        "id": "node/2424334503"
      },
      "geometry": {
        "type": "Point",
        "coordinates": [
          -48.471691,
          -1.4021222
        ]
      }
    },
    {
      "type": "Feature",
      "id": "node/2713494367",
      "properties": {
        "timestamp": "2024-07-13T07:54:23Z",
        "version": 4,
        "changeset": 153882147,
        "addr:city": "Belém",
        "addr:housenumber": "612",
        "addr:postcode": "66035-405",
        "addr:street": "Avenida Comandante Brás de Aguiar",
        "addr:suburb": "Nazaré",
        "email": "reservas@belemsofthotel.com.br",
        "internet_access": "yes",
        "internet_access:fee": "customers",
        "name": "Belém Soft Hotel",
        "phone": "+55 91 9912-8065",
        "phone_1": "+55 91 3323-3400",
        "tourism": "hotel",
        "website": "https://www.belemsofthotel.com.br/",
        "id": "node/2713494367"
      },
      "geometry": {
        "type": "Point",
        "coordinates": [
          -48.4863346,
          -1.454587
        ]
      }
    },
    {
      "type": "Feature",
      "id": "node/2713494368",
      "properties": {
        "timestamp": "2023-11-25T13:27:58Z",
        "version": 2,
        "changeset": 144441058,
        "addr:city": "Belém",
        "addr:housenumber": "485",
        "addr:postcode": "66017-010",
        "addr:street": "Rua Aristides Lobo",
        "addr:suburb": "Campina",
        "name": "Hotel Ferrador",
        "tourism": "hotel",
        "website": "https://ferrador-belem.belemhotelsweb.com/pt/",
        "id": "node/2713494368"
      },
      "geometry": {
        "type": "Point",
        "coordinates": [
          -48.4958973,
          -1.4509531
        ]
      }
    },
    {
      "type": "Feature",
      "id": "node/2713494369",
      "properties": {
        "timestamp": "2023-11-22T00:22:18Z",
        "version": 3,
        "changeset": 144306797,
        "addr:city": "Belém",
        "addr:housenumber": "2953",
        "addr:postcode": "66060-232",
        "addr:street": "Avenida Governador José Malcher",
        "addr:suburb": "São Brás",
        "name": "Hotel Ipê",
        "tourism": "hotel",
        "id": "node/2713494369"
      },
      "geometry": {
        "type": "Point",
        "coordinates": [
          -48.4673224,
          -1.448134
        ]
      }
    },
    {
      "type": "Feature",
      "id": "node/2713494370",
      "properties": {
        "timestamp": "2023-11-25T18:42:50Z",
        "version": 4,
        "changeset": 144450303,
        "addr:city": "Belém",
        "addr:housenumber": "404",
        "addr:postcode": "66017-000",
        "addr:street": "Avenida Presidente Vargas",
        "addr:suburb": "Campina",
        "name": "Hotel Avenida",
        "phone": "+55 91 9 8811-2202",
        "tourism": "hotel",
        "id": "node/2713494370"
      },
      "geometry": {
        "type": "Point",
        "coordinates": [
          -48.4966403,
          -1.4510447
        ]
      }
    },
    {
      "type": "Feature",
      "id": "node/2713494371",
      "properties": {
        "timestamp": "2023-11-25T12:26:38Z",
        "version": 2,
        "changeset": 144439470,
        "addr:city": "Belém",
        "addr:housenumber": "100",
        "addr:postcode": "66017-110",
        "addr:street": "Rua Férreira Cantão",
        "addr:suburb": "Campina",
        "name": "Hotel Zoghbi",
        "phone": "+55 91 3230-2000",
        "tourism": "hotel",
        "website": "https://zoghbi-all-suites-hotel.hoteis-nortedobrasil.com/pt/",
        "id": "node/2713494371"
      },
      "geometry": {
        "type": "Point",
        "coordinates": [
          -48.4955122,
          -1.4538853
        ]
      }
    },
    {
      "type": "Feature",
      "id": "node/2713494372",
      "properties": {
        "timestamp": "2014-03-12T05:47:05Z",
        "version": 1,
        "changeset": 21057874,
        "name": "Itaóca Belém Hotel",
        "tourism": "hotel",
        "id": "node/2713494372"
      },
      "geometry": {
        "type": "Point",
        "coordinates": [
          -48.4978893,
          -1.448767
        ]
      }
    },
    {
      "type": "Feature",
      "id": "node/3075242679",
      "properties": {
        "timestamp": "2023-11-18T23:52:05Z",
        "version": 3,
        "changeset": 144192929,
        "addr:city": "Belém",
        "addr:housenumber": "1777",
        "addr:postcode": "66123-370",
        "addr:street": "Avenida Júlio César",
        "addr:suburb": "Val de Cães",
        "email": "reservasbel@hotelvilarica.com.br",
        "name": "Hotel Vila Rica Belém",
        "phone": "+55 91 99102-9001",
        "tourism": "hotel",
        "website": "https://www.hoteisvilarica.com.br/",
        "id": "node/3075242679"
      },
      "geometry": {
        "type": "Point",
        "coordinates": [
          -48.4716239,
          -1.4026289
        ]
      }
    },
    {
      "type": "Feature",
      "id": "node/3585994621",
      "properties": {
        "timestamp": "2024-02-19T14:23:59Z",
        "version": 5,
        "changeset": 147652710,
        "addr:city": "Belém",
        "addr:street": "Travessa Primeira de Queluz",
        "addr:suburb": "São Bras",
        "bench": "no",
        "highway": "bus_stop",
        "name": "Hotel Panorama",
        "shelter": "yes",
        "source": "survey",
        "tourism": "hotel",
        "id": "node/3585994621"
      },
      "geometry": {
        "type": "Point",
        "coordinates": [
          -48.4640854,
          -1.4450068
        ]
      }
    },
    {
      "type": "Feature",
      "id": "node/3601734675",
      "properties": {
        "timestamp": "2023-11-25T19:02:59Z",
        "version": 2,
        "changeset": 144450872,
        "addr:city": "Belém",
        "addr:housenumber": "15",
        "addr:postcode": "66020-250",
        "addr:street": "Rua Doutor Malcher",
        "addr:suburb": "Cidade Velha",
        "name": "Hotel Portas da Amazônia",
        "phone": "+ 55 91 3222-9952",
        "tourism": "hotel",
        "id": "node/3601734675"
      },
      "geometry": {
        "type": "Point",
        "coordinates": [
          -48.5044148,
          -1.4557687
        ]
      }
    },
    {
      "type": "Feature",
      "id": "node/4840679229",
      "properties": {
        "timestamp": "2022-07-13T13:41:45Z",
        "version": 2,
        "changeset": 123566385,
        "email": "hotelamazonia@globo.com",
        "internet_access": "wlan",
        "name:en": "Hotel amazonia",
        "phone": "+55 91 3222 8456",
        "tourism": "hotel",
        "id": "node/4840679229"
      },
      "geometry": {
        "type": "Point",
        "coordinates": [
          -48.496057,
          -1.4504812
        ]
      }
    },
    {
      "type": "Feature",
      "id": "node/6301265024",
      "properties": {
        "timestamp": "2023-11-22T11:16:16Z",
        "version": 4,
        "changeset": 144321755,
        "addr:city": "Belém",
        "addr:housenumber": "321",
        "addr:postcode": "66035-385",
        "addr:street": "Avenida Comandante Bras de Aguiar",
        "addr:suburb": "Nazaré",
        "brand": "Radisson",
        "brand:wikidata": "Q1751979",
        "email": "radisson.belem@atlanticahotels.com.br",
        "fax": "+55 91 3205-1370",
        "internet_access": "yes",
        "name": "Radisson Hotel Maiorana Belém",
        "payment:credit_cards": "yes",
        "payment:debit_cards": "yes",
        "phone": "+55 91 3205-1399",
        "tourism": "hotel",
        "website": "https://www.radissonhotels.com/en-us/hotels/radisson-belem-maiorana",
        "id": "node/6301265024"
      },
      "geometry": {
        "type": "Point",
        "coordinates": [
          -48.4877217,
          -1.4548835
        ]
      }
    },
    {
      "type": "Feature",
      "id": "node/12308273795",
      "properties": {
        "timestamp": "2024-11-02T22:19:23Z",
        "version": 2,
        "changeset": 158679113,
        "addr:street": "Avenida Gentil Bittencourt",
        "air_conditioning": "yes",
        "internet_access": "wlan",
        "internet_access:fee": "no",
        "name": "Ibis styles Belém do Pará",
        "operator": "Accor",
        "tourism": "hotel",
        "id": "node/12308273795"
      },
      "geometry": {
        "type": "Point",
        "coordinates": [
          -48.4914275,
          -1.4574256
        ]
      }
    },
    {
      "type": "Feature",
      "id": "node/12321420638",
      "properties": {
        "timestamp": "2024-11-17T15:55:33Z",
        "version": 3,
        "changeset": 159248823,
        "addr:street": "Travessa Presidente Pernambuco",
        "brand": "Ibis styles",
        "contact:email": "hb1z6-re@accor.com",
        "contact:phone": "+55 91 3342-2121",
        "name": "Ibis styles Belém Batista Campos",
        "operator": "Accor",
        "tourism": "hotel",
        "website": "https://all.accor.com/hotel/B1Z6/index.fr.shtml",
        "wikidata": "Q111413592",
        "id": "node/12321420638"
      },
      "geometry": {
        "type": "Point",
        "coordinates": [
          -48.4938213,
          -1.4567385
        ]
      }
    },
    {
      "type": "Feature",
      "id": "node/12372672670",
      "properties": {
        "timestamp": "2024-11-25T01:19:38Z",
        "version": 1,
        "changeset": 159554308,
        "name": "Machado's Plaza Hotel",
        "tourism": "hotel",
        "id": "node/12372672670"
      },
      "geometry": {
        "type": "Point",
        "coordinates": [
          -48.4920492,
          -1.4505758
        ]
      }
    },
    {
      "type": "Feature",
      "id": "node/12385217015",
      "properties": {
        "timestamp": "2024-11-30T13:36:48Z",
        "version": 2,
        "changeset": 159774204,
        "addr:housenumber": "532",
        "addr:street": "Rua Senador Manoel Barata",
        "check_date": "2024-11-30",
        "contact:website": "https://andradehoteis.com.br",
        "name": "Andrade Docas",
        "payment:cash": "yes",
        "payment:credit_cards": "yes",
        "payment:debit_cards": "yes",
        "tourism": "hotel",
        "wheelchair": "yes",
        "id": "node/12385217015"
      },
      "geometry": {
        "type": "Point",
        "coordinates": [
          -48.4988395,
          -1.451882
        ]
      }
    },
    {
      "type": "Feature",
      "id": "node/12388810226",
      "properties": {
        "timestamp": "2024-12-01T19:45:04Z",
        "version": 1,
        "changeset": 159818144,
        "name": "Ibis budget Belem",
        "operator": "Ibis",
        "tourism": "hotel",
        "id": "node/12388810226"
      },
      "geometry": {
        "type": "Point",
        "coordinates": [
          -48.469152,
          -1.4489343
        ]
      }
    }
  ]
}
