{
  "type": "FeatureCollection",
  "features": [
    {
      "type": "Feature",
      "id": "node/5764330953",
      "properties": {
        "timestamp": "2018-07-16T18:27:32Z",
        "version": 1,
        "changeset": 60773018,
        "addr:housenumber": "37",
        "addr:street": "passagem Canaã, número 37 - Bairro: Castanheiras",
        "amenity": "nursing_home",
        "name": "casa da Bisa Rita",
        "id": "node/5764330953"
      },
      "geometry": {
        "type": "Point",
        "coordinates": [
          -48.4325506,
          -1.4066913
        ]
      }
    },
    {
      "type": "Feature",
      "id": "node/5792149959",
      "properties": {
        "timestamp": "2023-11-11T14:27:48Z",
        "version": 2,
        "changeset": 143901830,
        "addr:housenumber": "1144",
        "addr:postcode": "66055-030",
        "addr:street": "Travessa Almirante Wandenkolk",
        "amenity": "nursing_home",
        "name": "Casa da Sogra",
        "name:en": "Português",
        "id": "node/5792149959"
      },
      "geometry": {
        "type": "Point",
        "coordinates": [
          -48.485956,
          -1.4464523
        ]
      }
    },
    {
      "type": "Feature",
      "id": "node/8138643017",
      "properties": {
        "timestamp": "2024-09-19T21:04:39Z",
        "version": 2,
        "changeset": 156840567,
        "addr:city": "Belém",
        "addr:housenumber": "28",
        "addr:postcode": "66615370",
        "addr:street": "Passagem Carlos Magno",
        "addr:suburb": "Marambaia",
        "amenity": "nursing_home",
        "name": "MINHA CASA",
        "social_facility": "group_home",
        "id": "node/8138643017"
      },
      "geometry": {
        "type": "Point",
        "coordinates": [
          -48.4633904,
          -1.4022844
        ]
      }
    }
  ]
}
