{
  "type": "FeatureCollection",
  "features": [
    {
      "type": "Feature",
      "id": "node/5049890221",
      "properties": {
        "timestamp": "2020-08-14T05:45:41Z",
        "version": 3,
        "changeset": 89387733,
        "amenity": "doctors",
        "healthcare": "doctor",
        "name": "Unimed Regional de Campo Mourão",
        "name:pt": "Unimeds Regional de Campo Mourão",
        "id": "node/5049890221"
      },
      "geometry": {
        "type": "Point",
        "coordinates": [
          -52.3742292,
          -24.0443581
        ]
      }
    },
    {
      "type": "Feature",
      "id": "node/5049890422",
      "properties": {
        "timestamp": "2020-08-14T05:45:41Z",
        "version": 2,
        "changeset": 89387733,
        "amenity": "doctors",
        "healthcare": "doctor",
        "id": "node/5049890422"
      },
      "geometry": {
        "type": "Point",
        "coordinates": [
          -52.3838747,
          -24.0455162
        ]
      }
    },
    {
      "type": "Feature",
      "id": "node/12557177201",
      "properties": {
        "timestamp": "2025-02-04T18:39:29Z",
        "version": 1,
        "changeset": 162137871,
        "addr:housenumber": "150",
        "addr:postcode": "87308-360",
        "addr:street": "Rua Manoel Silvério Pereira",
        "amenity": "doctors",
        "name": "Unidade de Saúde Jardim Alvorada",
        "opening_hours": "Su-Th 07:30-16:30",
        "phone": "044 3525-8243",
        "id": "node/12557177201"
      },
      "geometry": {
        "type": "Point",
        "coordinates": [
          -52.3698539,
          -24.0235448
        ]
      }
    }
  ]
}
