{
  "type": "FeatureCollection",
  "features": [
    {
      "type": "Feature",
      "id": "way/1025001209",
      "properties": {
        "timestamp": "2022-01-26T20:45:35Z",
        "version": 1,
        "changeset": 116638463,
        "addr:city": "Antônio Almeida",
        "addr:housenumber": "131",
        "addr:postcode": "64855-000",
        "addr:street": "São João Clímaco",
        "addr:suburb": "Centro",
        "amenity": "school",
        "name": "U E Frutuoso Silva",
        "id": "way/1025001209"
      },
      "geometry": {
        "type": "Polygon",
        "coordinates": [
          [
            [
              -44.1964453,
              -7.2188133
            ],
            [
              -44.1964259,
              -7.2191622
            ],
            [
              -44.1960825,
              -7.2191485
            ],
            [
              -44.1961033,
              -7.2187982
            ],
            [
              -44.1964453,
              -7.2188133
            ]
          ]
        ]
      }
    },
    {
      "type": "Feature",
      "id": "way/1025001646",
      "properties": {
        "timestamp": "2022-01-26T20:48:41Z",
        "version": 1,
        "changeset": 116638533,
        "addr:city": "Antônio Almeida",
        "addr:postcode": "64855-000",
        "addr:suburb": "Centro",
        "amenity": "school",
        "name": "Unidade Escolar Luiz Martins De Araujo",
        "id": "way/1025001646"
      },
      "geometry": {
        "type": "Polygon",
        "coordinates": [
          [
            [
              -44.1986022,
              -7.2203841
            ],
            [
              -44.198502,
              -7.2207767
            ],
            [
              -44.1981467,
              -7.2206874
            ],
            [
              -44.198247,
              -7.2202948
            ],
            [
              -44.1986022,
              -7.2203841
            ]
          ]
        ]
      }
    },
    {
      "type": "Feature",
      "id": "node/9021426592",
      "properties": {
        "timestamp": "2021-08-20T00:04:21Z",
        "version": 1,
        "changeset": 109957651,
        "addr:city": "Antônio Almeida",
        "addr:postcode": "64855-000",
        "addr:street": "Rua Presidente Dutra",
        "addr:suburb": "Centro",
        "amenity": "school",
        "name": "Creche Apolonia Costa De Carvalho",
        "phone": "+55 89 9 9419 5916",
        "id": "node/9021426592"
      },
      "geometry": {
        "type": "Point",
        "coordinates": [
          -44.1960748,
          -7.2208316
        ]
      }
    },
    {
      "type": "Feature",
      "id": "node/9451147108",
      "properties": {
        "timestamp": "2022-01-26T20:42:24Z",
        "version": 1,
        "changeset": 116638345,
        "amenity": "school",
        "name": "Unid Esc Santa Ana",
        "id": "node/9451147108"
      },
      "geometry": {
        "type": "Point",
        "coordinates": [
          -44.3365945,
          -7.2215806
        ]
      }
    },
    {
      "type": "Feature",
      "id": "node/9451148704",
      "properties": {
        "timestamp": "2022-01-26T20:47:49Z",
        "version": 1,
        "changeset": 116638514,
        "addr:city": "Antônio Almeida",
        "addr:housenumber": "00",
        "addr:postcode": "64855-000",
        "addr:street": "Rua Raimundo Neiva",
        "addr:suburb": "Centro",
        "amenity": "school",
        "name": "Unid Esc Luis Ferreira",
        "id": "node/9451148704"
      },
      "geometry": {
        "type": "Point",
        "coordinates": [
          -44.1977687,
          -7.2205402
        ]
      }
    },
    {
      "type": "Feature",
      "id": "node/9451188545",
      "properties": {
        "timestamp": "2022-01-26T20:44:44Z",
        "version": 1,
        "changeset": 116638428,
        "amenity": "school",
        "name": "Unid Esc 31 De Marco",
        "id": "node/9451188545"
      },
      "geometry": {
        "type": "Point",
        "coordinates": [
          -44.2440958,
          -7.1032735
        ]
      }
    },
    {
      "type": "Feature",
      "id": "node/9451192103",
      "properties": {
        "timestamp": "2022-01-26T20:52:05Z",
        "version": 1,
        "changeset": 116638638,
        "addr:city": "Antônio Almeida",
        "addr:postcode": "64855-000",
        "addr:street": "Rua Horácio Ribeiro",
        "addr:suburb": "Ouro Preto",
        "amenity": "school",
        "name": "Unid Escolar Municipal Teresa Alves Da Costa Albuquerque",
        "id": "node/9451192103"
      },
      "geometry": {
        "type": "Point",
        "coordinates": [
          -44.1948827,
          -7.2220303
        ]
      }
    }
  ]
}
