{
  "type": "FeatureCollection",
  "features": [
    {
      "type": "Feature",
      "id": "node/12128185911",
      "properties": {
        "timestamp": "2024-08-25T11:38:59Z",
        "version": 5,
        "changeset": 155732735,
        "addr:city": "Encantado",
        "addr:housenumber": "1850",
        "addr:postcode": "95960-000",
        "addr:street": "Linha Cedro",
        "addr:suburb": "Linha Cedro",
        "brand": "Refúgio Galli",
        "currency:XBT": "yes",
        "email": "galli.refugio@gmail.com",
        "internet_access": "yes",
        "internet_access:fee": "no",
        "name": "Refúgio Galli",
        "payment:credit_cards": "yes",
        "payment:lightning": "yes",
        "phone": "+55 51 99941 7337",
        "rooms": "3",
        "survey:date": "2024-08-24",
        "tourism": "hotel",
        "website": "https://hotels.cloudbeds.com/reservas/mgIisE",
        "id": "node/12128185911"
      },
      "geometry": {
        "type": "Point",
        "coordinates": [
          -51.9212538,
          -29.2574736
        ]
      }
    }
  ]
}
