{
  "type": "FeatureCollection",
  "features": [
    {
      "type": "Feature",
      "id": "way/714528395",
      "properties": {
        "timestamp": "2019-11-14T03:53:54Z",
        "version": 2,
        "changeset": 77047650,
        "access": "permissive",
        "addr:city": "Belém de São Francisco",
        "addr:postcode": "56440-000",
        "addr:street": "CESVASF",
        "addr:suburb": "Alto do Encanto",
        "amenity": "library",
        "building": "yes",
        "internet_access": "yes",
        "internet_access:fee": "no",
        "name": "Biblioteca Manoel João Pires",
        "operator": "CESVASF",
        "id": "way/714528395"
      },
      "geometry": {
        "type": "Polygon",
        "coordinates": [
          [
            [
              -38.9548029,
              -8.7674429
            ],
            [
              -38.9548008,
              -8.7675402
            ],
            [
              -38.9545446,
              -8.767535
            ],
            [
              -38.9545466,
              -8.7674376
            ],
            [
              -38.9548029,
              -8.7674429
            ]
          ]
        ]
      }
    }
  ]
}
