{
  "type": "FeatureCollection",
  "features": [
    {
      "type": "Feature",
      "id": "way/714524898",
      "properties": {
        "timestamp": "2024-07-12T03:02:15Z",
        "version": 4,
        "changeset": 153835424,
        "addr:city": "Belém de São Francisco",
        "addr:postcode": "56440-000",
        "addr:street": "Alto do Encanto",
        "addr:suburb": "Alto do Encanto",
        "amenity": "university",
        "contact:mobile": "+55 87 99991 3117",
        "internet_access": "yes",
        "internet_access:fee": "no",
        "name": "Centro de Ensino Superior do Vale do São Francisco",
        "operator": "Autarquia Belemita de Cultura, Desportos e Educação",
        "operator:type": "government",
        "phone": "+55 87 3876 1246",
        "short_name": "CESVASF",
        "website": "https://www.cesvasf.com.br/",
        "id": "way/714524898"
      },
      "geometry": {
        "type": "Polygon",
        "coordinates": [
          [
            [
              -38.9557856,
              -8.7682367
            ],
            [
              -38.9539374,
              -8.768048
            ],
            [
              -38.9540581,
              -8.7666469
            ],
            [
              -38.9559657,
              -8.7668196
            ],
            [
              -38.9557856,
              -8.7682367
            ]
          ]
        ]
      }
    }
  ]
}
