{
  "type": "FeatureCollection",
  "features": [
    {
      "type": "Feature",
      "id": "node/7901001560",
      "properties": {
        "timestamp": "2020-09-13T01:44:06Z",
        "version": 1,
        "changeset": 90808185,
        "addr:city": "Aramina",
        "addr:housenumber": "1479",
        "addr:street": "Avenida Antônia Rios Quércia",
        "addr:suburb": "Centro",
        "amenity": "school",
        "name": "Emef Oswaldo Campos",
        "operator": "Prefeitura Municipal",
        "phone": "+55 16 3752-7021",
        "wheelchair": "yes",
        "id": "node/7901001560"
      },
      "geometry": {
        "type": "Point",
        "coordinates": [
          -47.7948645,
          -20.0842687
        ]
      }
    },
    {
      "type": "Feature",
      "id": "node/7901001561",
      "properties": {
        "timestamp": "2020-09-13T01:44:06Z",
        "version": 1,
        "changeset": 90808185,
        "addr:city": "Aramina",
        "addr:housenumber": "633",
        "addr:street": "Rua Afonso Garcia da Silveira",
        "addr:suburb": "Centro",
        "amenity": "school",
        "name": "Escola Estadual Fábio José de Araújo",
        "phone": "+55 17 3752-1116",
        "wheelchair": "yes",
        "id": "node/7901001561"
      },
      "geometry": {
        "type": "Point",
        "coordinates": [
          -47.7875635,
          -20.0848657
        ]
      }
    }
  ]
}
