{
  "type": "FeatureCollection",
  "features": [
    {
      "type": "Feature",
      "id": "way/493361254",
      "properties": {
        "timestamp": "2023-04-24T05:46:15Z",
        "version": 2,
        "changeset": 135285149,
        "addr:city": "Erval Seco",
        "addr:housenumber": "620",
        "addr:postcode": "98390-000",
        "addr:street": "Albino Wagner",
        "addr:suburb": "Centro",
        "amenity": "hospital",
        "fax": "+55 55 3748 1211",
        "healthcare": "hospital",
        "name": "Hospital Caridade de Erval Seco",
        "phone": "+55 55 3748 1219",
        "ref:CNES": "2257807",
        "ref:vatin": "BR88216999000151",
        "source": "IBGE;DATASUS",
        "id": "way/493361254"
      },
      "geometry": {
        "type": "Polygon",
        "coordinates": [
          [
            [
              -53.5118719,
              -27.5495363
            ],
            [
              -53.511529,
              -27.5494589
            ],
            [
              -53.5116344,
              -27.5490918
            ],
            [
              -53.5119773,
              -27.5491692
            ],
            [
              -53.5118719,
              -27.5495363
            ]
          ]
        ]
      }
    }
  ]
}
