{
  "type": "FeatureCollection",
  "features": [
    {
      "type": "Feature",
      "id": "node/5785172838",
      "properties": {
        "timestamp": "2024-01-03T12:33:32Z",
        "version": 2,
        "changeset": 145837763,
        "addr:city": "Felisburgo",
        "addr:housenumber": "157",
        "addr:postcode": "39895-000",
        "addr:street": "Avenida Presidente Medici",
        "addr:suburb": "Centro",
        "amenity": "school",
        "name": "Escola Estadual Tranquilino Pinto Coelho",
        "operator": "Secretaria de Estado da Educação de Minas Gerais",
        "operator:type": "public",
        "id": "node/5785172838"
      },
      "geometry": {
        "type": "Point",
        "coordinates": [
          -40.7608666,
          -16.6384167
        ]
      }
    },
    {
      "type": "Feature",
      "id": "node/5785172839",
      "properties": {
        "timestamp": "2024-01-03T12:33:32Z",
        "version": 2,
        "changeset": 145837763,
        "addr:city": "Felisburgo",
        "addr:housenumber": "188",
        "addr:postcode": "39895-000",
        "addr:street": "Avenida Brasil",
        "addr:suburb": "Centro",
        "amenity": "school",
        "name": "Escola Municipal Euplinia Magalhães Barbosa",
        "operator": "Município de Felisburgo",
        "operator:type": "public",
        "id": "node/5785172839"
      },
      "geometry": {
        "type": "Point",
        "coordinates": [
          -40.7657979,
          -16.6389532
        ]
      }
    },
    {
      "type": "Feature",
      "id": "node/11482603441",
      "properties": {
        "timestamp": "2024-01-03T12:33:32Z",
        "version": 1,
        "changeset": 145837763,
        "addr:city": "Felisburgo",
        "addr:housenumber": "510",
        "addr:postcode": "39895-000",
        "addr:street": "Rua Santos Alves Magalhães",
        "addr:suburb": "Centro",
        "amenity": "school",
        "name": "Escola Estadual de Felisburgo",
        "operator": "Secretaria de Estado da Educação de Minas Gerais",
        "operator:type": "public",
        "id": "node/11482603441"
      },
      "geometry": {
        "type": "Point",
        "coordinates": [
          -40.7596709,
          -16.6423029
        ]
      }
    },
    {
      "type": "Feature",
      "id": "node/11482603442",
      "properties": {
        "timestamp": "2024-01-03T12:33:32Z",
        "version": 1,
        "changeset": 145837763,
        "addr:city": "Felisburgo",
        "addr:housenumber": "505",
        "addr:postcode": "39895-000",
        "addr:street": "Avenida Brasil",
        "addr:suburb": "Centro",
        "amenity": "school",
        "name": "Pré Escola Municipal Periquitinho Verde",
        "operator": "Município de Felisburgo",
        "operator:type": "public",
        "id": "node/11482603442"
      },
      "geometry": {
        "type": "Point",
        "coordinates": [
          -40.7629515,
          -16.6390592
        ]
      }
    },
    {
      "type": "Feature",
      "id": "node/11482603460",
      "properties": {
        "timestamp": "2024-01-03T12:33:32Z",
        "version": 1,
        "changeset": 145837763,
        "addr:city": "Felisburgo",
        "addr:housenumber": "231",
        "addr:postcode": "39895-000",
        "addr:street": "Rua Minas Gerais",
        "addr:suburb": "Centro",
        "amenity": "school",
        "name": "Centro Municipal de Educação Infantil Maira Maria de Souza e Souza",
        "operator": "Município de Felisburgo",
        "operator:type": "public",
        "id": "node/11482603460"
      },
      "geometry": {
        "type": "Point",
        "coordinates": [
          -40.7579126,
          -16.6425397
        ]
      }
    }
  ]
}
