{
  "type": "FeatureCollection",
  "features": [
    {
      "type": "Feature",
      "id": "way/1088484735",
      "properties": {
        "timestamp": "2022-08-23T14:27:07Z",
        "version": 1,
        "changeset": 125274777,
        "addr:city": "Carangola",
        "addr:housenumber": "243",
        "addr:postcode": "36800-000",
        "addr:street": "Avenida Doutor Olimpio Teixeira",
        "addr:suburb": "Centro",
        "amenity": "school",
        "name": "Escola Servita Regina Pacis",
        "operator": "Associacao Civil das Servas de Maria do Brasil",
        "phone": "+55 32 3741 1203",
        "id": "way/1088484735"
      },
      "geometry": {
        "type": "Polygon",
        "coordinates": [
          [
            [
              -42.0260907,
              -20.7380511
            ],
            [
              -42.0257226,
              -20.7382688
            ],
            [
              -42.0251727,
              -20.738408
            ],
            [
              -42.0248871,
              -20.7374585
            ],
            [
              -42.0254409,
              -20.737155
            ],
            [
              -42.0260907,
              -20.7380511
            ]
          ]
        ]
      }
    },
    {
      "type": "Feature",
      "id": "way/1088484769",
      "properties": {
        "timestamp": "2022-08-23T14:27:07Z",
        "version": 1,
        "changeset": 125274777,
        "addr:city": "Carangola",
        "addr:postcode": "36800-000",
        "addr:street": "Praça Governador Valadares",
        "addr:suburb": "Centro",
        "amenity": "school",
        "name": "Centro Municipal de Educação Lelena de Oliveira",
        "id": "way/1088484769"
      },
      "geometry": {
        "type": "Polygon",
        "coordinates": [
          [
            [
              -42.0352645,
              -20.7299857
            ],
            [
              -42.0347764,
              -20.7305991
            ],
            [
              -42.0345309,
              -20.7304134
            ],
            [
              -42.0350634,
              -20.7297763
            ],
            [
              -42.0352645,
              -20.7299857
            ]
          ]
        ]
      }
    },
    {
      "type": "Feature",
      "id": "way/1088484771",
      "properties": {
        "timestamp": "2022-08-23T14:27:07Z",
        "version": 1,
        "changeset": 125274777,
        "addr:city": "Carangola",
        "addr:housenumber": "01",
        "addr:postcode": "36800-000",
        "addr:street": "Praça José Toledo Lanzarotti",
        "addr:suburb": "Santo Onofre",
        "amenity": "school",
        "name": "Escola Estadual do Bairro Santo Onofre",
        "operator": "Secretaria de Educação do Estado de Minas Gerais",
        "phone": "+55 32 3741 1285",
        "id": "way/1088484771"
      },
      "geometry": {
        "type": "Polygon",
        "coordinates": [
          [
            [
              -42.0361269,
              -20.727861
            ],
            [
              -42.0360933,
              -20.7279036
            ],
            [
              -42.0356789,
              -20.7279299
            ],
            [
              -42.0355864,
              -20.7273153
            ],
            [
              -42.0360853,
              -20.7273178
            ],
            [
              -42.0361269,
              -20.727861
            ]
          ]
        ]
      }
    },
    {
      "type": "Feature",
      "id": "way/1088484775",
      "properties": {
        "timestamp": "2022-08-23T14:27:07Z",
        "version": 1,
        "changeset": 125274777,
        "addr:city": "Carangola",
        "addr:housenumber": "300",
        "addr:postcode": "36800-000",
        "addr:street": "Rua Altivo Bibiano de Souza",
        "addr:suburb": "Santo Onofre",
        "amenity": "school",
        "name": "Escola Estadual Emilia Esteves Marques",
        "operator": "Secretaria de Educação do Estado de Minas Gerais",
        "phone": "+55 32 3741 3393",
        "id": "way/1088484775"
      },
      "geometry": {
        "type": "Polygon",
        "coordinates": [
          [
            [
              -42.0345336,
              -20.7279199
            ],
            [
              -42.034193,
              -20.7281181
            ],
            [
              -42.0332757,
              -20.7276189
            ],
            [
              -42.0327634,
              -20.7272978
            ],
            [
              -42.0326078,
              -20.7270996
            ],
            [
              -42.0326695,
              -20.7269014
            ],
            [
              -42.0329994,
              -20.726633
            ],
            [
              -42.0338631,
              -20.7262567
            ],
            [
              -42.0340133,
              -20.7263244
            ],
            [
              -42.0339221,
              -20.7266255
            ],
            [
              -42.0339221,
              -20.7268412
            ],
            [
              -42.0340106,
              -20.7271322
            ],
            [
              -42.0342547,
              -20.7275311
            ],
            [
              -42.0345336,
              -20.7279199
            ]
          ]
        ]
      }
    },
    {
      "type": "Feature",
      "id": "way/1088535495",
      "properties": {
        "timestamp": "2022-10-09T22:06:26Z",
        "version": 2,
        "changeset": 127270154,
        "addr:city": "Carangola",
        "addr:housenumber": "252",
        "addr:postcode": "36800-000",
        "addr:street": "Rua Duque de Mesquita",
        "addr:suburb": "Centro",
        "amenity": "school",
        "name": "Escola Estadual Melo Viana",
        "operator": "Secretaria de Educação do Estado de Minas Gerais",
        "operator:type": "public",
        "phone": "+55 32 3741 2182",
        "id": "way/1088535495"
      },
      "geometry": {
        "type": "Polygon",
        "coordinates": [
          [
            [
              -42.0304454,
              -20.7315217
            ],
            [
              -42.0299924,
              -20.7318318
            ],
            [
              -42.0299257,
              -20.7317462
            ],
            [
              -42.0298017,
              -20.731587
            ],
            [
              -42.0295978,
              -20.7313251
            ],
            [
              -42.0300507,
              -20.7310019
            ],
            [
              -42.0304454,
              -20.7315217
            ]
          ]
        ]
      }
    },
    {
      "type": "Feature",
      "id": "way/1088547274",
      "properties": {
        "timestamp": "2022-08-23T19:29:01Z",
        "version": 1,
        "changeset": 125286286,
        "addr:city": "Carangola",
        "addr:postcode": "36800-000",
        "addr:street": "Rua Divino",
        "addr:suburb": "Centro",
        "amenity": "school",
        "email": "escola.96938@educacao.mg.gov.br",
        "name": "Escola Estadual João Belo de Oliveira",
        "operator": "Secretaria de Educação do Estado de Minas Gerais",
        "operator:type": "public",
        "phone": "+55 32 3741 2464",
        "id": "way/1088547274"
      },
      "geometry": {
        "type": "Polygon",
        "coordinates": [
          [
            [
              -42.028079,
              -20.7317142
            ],
            [
              -42.027734,
              -20.7320081
            ],
            [
              -42.0268743,
              -20.7324865
            ],
            [
              -42.0262212,
              -20.7321436
            ],
            [
              -42.0264892,
              -20.7312388
            ],
            [
              -42.0275799,
              -20.7308901
            ],
            [
              -42.0280605,
              -20.7315932
            ],
            [
              -42.028079,
              -20.7317142
            ]
          ]
        ]
      }
    },
    {
      "type": "Feature",
      "id": "way/1088547275",
      "properties": {
        "timestamp": "2022-08-23T19:29:01Z",
        "version": 1,
        "changeset": 125286286,
        "addr:city": "Carangola",
        "addr:postcode": "36800-000",
        "addr:street": "Praça Nascimento Leal",
        "addr:suburb": "Alvorada",
        "amenity": "school",
        "email": "escola.97039@educacao.mg.gov.br",
        "name": "Escola Estadual Nascimento Leal",
        "operator": "Secretaria de Educação do Estado de Minas Gerais",
        "operator:type": "public",
        "phone": "+55 32 3741 3062",
        "id": "way/1088547275"
      },
      "geometry": {
        "type": "Polygon",
        "coordinates": [
          [
            [
              -42.1443663,
              -20.7271694
            ],
            [
              -42.144109,
              -20.7276146
            ],
            [
              -42.1436222,
              -20.7274201
            ],
            [
              -42.1437639,
              -20.7272054
            ],
            [
              -42.1437085,
              -20.7270959
            ],
            [
              -42.1437978,
              -20.726923
            ],
            [
              -42.1443663,
              -20.7271694
            ]
          ]
        ]
      }
    },
    {
      "type": "Feature",
      "id": "way/1088547276",
      "properties": {
        "timestamp": "2022-08-23T19:29:01Z",
        "version": 1,
        "changeset": 125286286,
        "addr:city": "Carangola",
        "addr:postcode": "36800-000",
        "addr:street": "Rua B",
        "addr:suburb": "Ponte Alta de Minas",
        "amenity": "school",
        "email": "escola.97241@educacao.mg.gov.br",
        "name": "Escola Estadual Pedro de Oliveira",
        "operator": "Secretaria de Educação do Estado de Minas Gerais",
        "operator:type": "public",
        "phone": "+55 32 3549 0081",
        "id": "way/1088547276"
      },
      "geometry": {
        "type": "Polygon",
        "coordinates": [
          [
            [
              -42.2176756,
              -20.7064649
            ],
            [
              -42.2173675,
              -20.7069087
            ],
            [
              -42.2169855,
              -20.7066176
            ],
            [
              -42.2167667,
              -20.706609
            ],
            [
              -42.2167143,
              -20.7065946
            ],
            [
              -42.216625,
              -20.7063439
            ],
            [
              -42.217004,
              -20.706194
            ],
            [
              -42.2170745,
              -20.7060199
            ],
            [
              -42.2176756,
              -20.7064649
            ]
          ]
        ]
      }
    },
    {
      "type": "Feature",
      "id": "way/1088547277",
      "properties": {
        "timestamp": "2022-08-23T19:29:01Z",
        "version": 1,
        "changeset": 125286286,
        "addr:city": "Carangola",
        "addr:housenumber": "585",
        "addr:postcode": "36800-000",
        "addr:street": "Avenida Doutor Waldemiro Soares",
        "addr:suburb": "Coroado",
        "amenity": "school",
        "email": "escola.96890@educacao.mg.gov.br",
        "name": "Escola Estadual Doutor Jonas de Faria Castro",
        "operator": "Secretaria de Educação do Estado de Minas Gerais",
        "operator:type": "public",
        "phone": "+55 32 3741 5294",
        "id": "way/1088547277"
      },
      "geometry": {
        "type": "Polygon",
        "coordinates": [
          [
            [
              -42.0187169,
              -20.7330776
            ],
            [
              -42.0185413,
              -20.7340313
            ],
            [
              -42.0182147,
              -20.7339939
            ],
            [
              -42.0183102,
              -20.7330459
            ],
            [
              -42.0187169,
              -20.7330776
            ]
          ]
        ]
      }
    },
    {
      "type": "Feature",
      "id": "way/1088547280",
      "properties": {
        "timestamp": "2022-08-23T19:29:01Z",
        "version": 1,
        "changeset": 125286286,
        "addr:city": "Carangola",
        "addr:housenumber": "62",
        "addr:postcode": "36800-000",
        "addr:street": "Rua Quintino Bocaiuva",
        "addr:suburb": "Centro",
        "amenity": "school",
        "email": "escola.96920@educacao.mg.gov.br",
        "name": "Escola Estadual Benedito Valadares",
        "operator": "Secretaria de Educação do Estado de Minas Gerais",
        "operator:type": "public",
        "phone": "+55 32 3741 2280",
        "id": "way/1088547280"
      },
      "geometry": {
        "type": "Polygon",
        "coordinates": [
          [
            [
              -42.0302316,
              -20.7359206
            ],
            [
              -42.0297805,
              -20.736519
            ],
            [
              -42.0294614,
              -20.736306
            ],
            [
              -42.0299206,
              -20.7357123
            ],
            [
              -42.0302316,
              -20.7359206
            ]
          ]
        ]
      }
    },
    {
      "type": "Feature",
      "id": "way/1088547281",
      "properties": {
        "timestamp": "2022-08-23T19:29:01Z",
        "version": 1,
        "changeset": 125286286,
        "addr:city": "Carangola",
        "addr:housenumber": "382",
        "addr:postcode": "36800-000",
        "addr:street": "Rua Abilio Coimbra",
        "addr:suburb": "Triângulo",
        "amenity": "school",
        "email": "escola.96997@educacao.mg.gov.br",
        "name": "Escola Estadual Professor Augusto Amarante",
        "operator": "Secretaria de Educação do Estado de Minas Gerais",
        "operator:type": "public",
        "phone": "+55 32 3741 5009",
        "id": "way/1088547281"
      },
      "geometry": {
        "type": "Polygon",
        "coordinates": [
          [
            [
              -42.0331962,
              -20.7401276
            ],
            [
              -42.0329548,
              -20.7403759
            ],
            [
              -42.0326182,
              -20.7400414
            ],
            [
              -42.0328583,
              -20.7398166
            ],
            [
              -42.0331962,
              -20.7401276
            ]
          ]
        ]
      }
    }
  ]
}
