{
  "type": "FeatureCollection",
  "features": [
    {
      "type": "Feature",
      "id": "node/11253651722",
      "properties": {
        "timestamp": "2023-10-10T19:07:57Z",
        "version": 1,
        "changeset": 142408026,
        "addr:city": "Mascote",
        "addr:postcode": "45870-000",
        "addr:street": "Travessa Camacan",
        "addr:suburb": "Centro",
        "amenity": "clinic",
        "healthcare": "clinic",
        "healthcare:speciality": "general",
        "name": "Centro de Saúde Faustino Lima",
        "operator": "Município de Mascote",
        "operator:type": "public",
        "id": "node/11253651722"
      },
      "geometry": {
        "type": "Point",
        "coordinates": [
          -39.3025183,
          -15.5642865
        ]
      }
    },
    {
      "type": "Feature",
      "id": "node/11257499986",
      "properties": {
        "timestamp": "2023-10-12T12:42:32Z",
        "version": 1,
        "changeset": 142478285,
        "addr:city": "Mascote",
        "addr:postcode": "45870-000",
        "addr:street": "Rua Marechal Castelo Branco",
        "addr:suburb": "Centro",
        "amenity": "clinic",
        "healthcare": "clinic",
        "healthcare:speciality": "general",
        "name": "Unidade Básica de Saúde",
        "id": "node/11257499986"
      },
      "geometry": {
        "type": "Point",
        "coordinates": [
          -39.435583,
          -15.6107293
        ]
      }
    }
  ]
}
