{
  "type": "FeatureCollection",
  "features": [
    {
      "type": "Feature",
      "id": "way/1214623942",
      "properties": {
        "timestamp": "2023-10-10T18:56:53Z",
        "version": 1,
        "changeset": 142407681,
        "addr:city": "Mascote",
        "addr:housenumber": "270",
        "addr:postcode": "45870-000",
        "addr:street": "Praça Luiz Viana Filho",
        "addr:suburb": "Centro",
        "amenity": "school",
        "name": "Centro Educacional de Mascote",
        "operator": "Município de Mascote",
        "operator:type": "public",
        "id": "way/1214623942"
      },
      "geometry": {
        "type": "Polygon",
        "coordinates": [
          [
            [
              -39.3024518,
              -15.5650948
            ],
            [
              -39.302335,
              -15.5651957
            ],
            [
              -39.3020938,
              -15.5649065
            ],
            [
              -39.3020898,
              -15.5648654
            ],
            [
              -39.3020999,
              -15.5648223
            ],
            [
              -39.3021338,
              -15.5647798
            ],
            [
              -39.3022707,
              -15.5648599
            ],
            [
              -39.3024518,
              -15.5650948
            ]
          ]
        ]
      }
    },
    {
      "type": "Feature",
      "id": "way/1214623943",
      "properties": {
        "timestamp": "2023-10-10T18:56:53Z",
        "version": 1,
        "changeset": 142407681,
        "addr:city": "Mascote",
        "addr:postcode": "45870-000",
        "addr:street": "Rua Inácio Tosta Filho",
        "addr:suburb": "Centro",
        "amenity": "school",
        "name": "Colégio Estadual Carolina Severiano Ribeiro",
        "operator": "Estado da Bahia",
        "operator:type": "public",
        "id": "way/1214623943"
      },
      "geometry": {
        "type": "Polygon",
        "coordinates": [
          [
            [
              -39.3023082,
              -15.5645452
            ],
            [
              -39.3028474,
              -15.5651625
            ],
            [
              -39.3026133,
              -15.5652694
            ],
            [
              -39.3025147,
              -15.5653644
            ],
            [
              -39.302335,
              -15.5651957
            ],
            [
              -39.3024518,
              -15.5650948
            ],
            [
              -39.3022707,
              -15.5648599
            ],
            [
              -39.3021338,
              -15.5647798
            ],
            [
              -39.3023082,
              -15.5645452
            ]
          ]
        ]
      }
    },
    {
      "type": "Feature",
      "id": "node/11256466463",
      "properties": {
        "timestamp": "2023-10-19T11:08:41Z",
        "version": 2,
        "changeset": 142808944,
        "addr:city": "Mascote",
        "addr:district": "Teixeira do Progresso",
        "addr:postcode": "45870000",
        "addr:street": "Praça Edmundo de Castro",
        "amenity": "school",
        "name": "Escola Municipal Xisto Barreto",
        "id": "node/11256466463"
      },
      "geometry": {
        "type": "Point",
        "coordinates": [
          -39.4597124,
          -15.7248482
        ]
      }
    },
    {
      "type": "Feature",
      "id": "node/11256466464",
      "properties": {
        "timestamp": "2023-10-12T01:10:43Z",
        "version": 1,
        "changeset": 142456625,
        "amenity": "school",
        "name": "Escola Municipal Manoel Santos Andrade",
        "id": "node/11256466464"
      },
      "geometry": {
        "type": "Point",
        "coordinates": [
          -39.436557,
          -15.6167719
        ]
      }
    },
    {
      "type": "Feature",
      "id": "node/11256466465",
      "properties": {
        "timestamp": "2023-10-12T12:42:32Z",
        "version": 2,
        "changeset": 142478285,
        "addr:city": "Mascote",
        "addr:district": "São João do Paraíso",
        "addr:postcode": "45870-000",
        "addr:street": "Rua Marechal Castelo Branco",
        "addr:suburb": "Centro",
        "amenity": "school",
        "name": "Centro Educacional Castro Alves",
        "id": "node/11256466465"
      },
      "geometry": {
        "type": "Point",
        "coordinates": [
          -39.4357497,
          -15.6108952
        ]
      }
    },
    {
      "type": "Feature",
      "id": "node/11256466466",
      "properties": {
        "timestamp": "2023-10-12T12:42:32Z",
        "version": 3,
        "changeset": 142478285,
        "addr:city": "Mascote",
        "addr:district": "São João do Paraíso",
        "addr:postcode": "45870-000",
        "addr:street": "Rua Marechal Castelo Branco",
        "addr:suburb": "Centro",
        "amenity": "school",
        "name": "Creche Maria José da Silva Chausse",
        "id": "node/11256466466"
      },
      "geometry": {
        "type": "Point",
        "coordinates": [
          -39.4357584,
          -15.6103065
        ]
      }
    },
    {
      "type": "Feature",
      "id": "node/11257499984",
      "properties": {
        "timestamp": "2023-10-12T12:42:32Z",
        "version": 1,
        "changeset": 142478285,
        "addr:city": "Mascote",
        "addr:district": "São João do Paraíso",
        "addr:housenumber": "520",
        "addr:postcode": "45870-000",
        "addr:street": "Rua Samuel Luna",
        "addr:suburb": "Centro",
        "amenity": "school",
        "name": "Escola Adventista de São João do Paraíso",
        "operator": "Escola Adventista de São João do Paraíso",
        "operator:type": "private",
        "id": "node/11257499984"
      },
      "geometry": {
        "type": "Point",
        "coordinates": [
          -39.4351514,
          -15.6115993
        ]
      }
    },
    {
      "type": "Feature",
      "id": "node/11257499988",
      "properties": {
        "timestamp": "2023-10-12T12:42:32Z",
        "version": 1,
        "changeset": 142478285,
        "amenity": "school",
        "id": "node/11257499988"
      },
      "geometry": {
        "type": "Point",
        "coordinates": [
          -39.4329994,
          -15.6110326
        ]
      }
    }
  ]
}
