{
  "type": "FeatureCollection",
  "features": [
    {
      "type": "Feature",
      "id": "way/656714967",
      "properties": {
        "timestamp": "2018-12-21T11:57:42Z",
        "version": 1,
        "changeset": 65666589,
        "addr:city": "Coremas",
        "addr:postcode": "58770-000",
        "addr:suburb": "Cruz da Tereza",
        "amenity": "clinic",
        "building": "yes",
        "healthcare": "clinic",
        "name": "UBS - Cruz da Tereza",
        "id": "way/656714967"
      },
      "geometry": {
        "type": "Polygon",
        "coordinates": [
          [
            [
              -37.9174509,
              -7.0222248
            ],
            [
              -37.9175337,
              -7.0222339
            ],
            [
              -37.9175279,
              -7.0222859
            ],
            [
              -37.9176092,
              -7.0222948
            ],
            [
              -37.9175952,
              -7.0224201
            ],
            [
              -37.9175133,
              -7.0224111
            ],
            [
              -37.9175107,
              -7.0224343
            ],
            [
              -37.9174273,
              -7.0224252
            ],
            [
              -37.9174299,
              -7.0224016
            ],
            [
              -37.917351,
              -7.0223929
            ],
            [
              -37.9173649,
              -7.0222677
            ],
            [
              -37.9174451,
              -7.0222765
            ],
            [
              -37.9174509,
              -7.0222248
            ]
          ]
        ]
      }
    },
    {
      "type": "Feature",
      "id": "node/5384066690",
      "properties": {
        "timestamp": "2018-11-26T15:31:11Z",
        "version": 2,
        "changeset": 64901963,
        "addr:city": "Coremas",
        "addr:postcode": "58770-000",
        "addr:street": "Rua Santa Rita",
        "addr:suburb": "Centro",
        "amenity": "clinic",
        "healthcare": "clinic",
        "healthcare:speciality": "clinic",
        "name": "Posto de Saúde Antônio Lopes Filho",
        "id": "node/5384066690"
      },
      "geometry": {
        "type": "Point",
        "coordinates": [
          -37.9452596,
          -7.0191264
        ]
      }
    },
    {
      "type": "Feature",
      "id": "node/6098996509",
      "properties": {
        "timestamp": "2020-05-12T18:27:08Z",
        "version": 2,
        "changeset": 85101016,
        "addr:city": "Coremas",
        "addr:postcode": "58770-000",
        "addr:street": "Rua Raimundo Bernado",
        "addr:suburb": "Centro",
        "amenity": "clinic",
        "fax": "+55 83 9 9608-8880",
        "healthcare": "clinic",
        "healthcare:speciality": "general",
        "name": "Unidade Básica de Saúde do Pombalzinho",
        "id": "node/6098996509"
      },
      "geometry": {
        "type": "Point",
        "coordinates": [
          -37.9468452,
          -7.0161408
        ]
      }
    },
    {
      "type": "Feature",
      "id": "node/6110865948",
      "properties": {
        "timestamp": "2020-05-12T00:18:06Z",
        "version": 2,
        "changeset": 85050659,
        "addr:city": "Coremas",
        "addr:postcode": "58770-000",
        "addr:street": "Avenida Locutor Valderedo Romão de Oliveira",
        "addr:suburb": "Cabo Branco",
        "amenity": "clinic",
        "healthcare": "clinic",
        "name": "Unidade Básica de Saúde do Cabo Branco",
        "phone": "+55 83 3433-1435",
        "id": "node/6110865948"
      },
      "geometry": {
        "type": "Point",
        "coordinates": [
          -37.942305,
          -7.0237308
        ]
      }
    },
    {
      "type": "Feature",
      "id": "node/6237954465",
      "properties": {
        "timestamp": "2021-03-29T13:34:01Z",
        "version": 4,
        "changeset": 101920987,
        "addr:city": "Coremas",
        "addr:postcode": "58770-000",
        "addr:street": "Rua Projetada",
        "addr:suburb": "Geraldo Virgulino",
        "amenity": "clinic",
        "healthcare": "clinic",
        "name": "UBS Maria Daguia Silva",
        "id": "node/6237954465"
      },
      "geometry": {
        "type": "Point",
        "coordinates": [
          -37.9389395,
          -7.0198672
        ]
      }
    }
  ]
}
