{
  "type": "FeatureCollection",
  "features": [
    {
      "type": "Feature",
      "id": "way/644404615",
      "properties": {
        "timestamp": "2018-11-17T14:25:12Z",
        "version": 2,
        "changeset": 64597366,
        "addr:city": "Coremas",
        "addr:postcode": "58770000",
        "addr:street": "Rua João Fernandes de Lima",
        "addr:suburb": "Pombalzinho",
        "building": "yes",
        "building:levels": "2",
        "government": "yes",
        "name": "Fórum Nobel Vita",
        "office": "government",
        "id": "way/644404615"
      },
      "geometry": {
        "type": "Polygon",
        "coordinates": [
          [
            [
              -37.9430385,
              -7.0143122
            ],
            [
              -37.9433758,
              -7.0143489
            ],
            [
              -37.943345,
              -7.0146226
            ],
            [
              -37.9430138,
              -7.0145813
            ],
            [
              -37.9430385,
              -7.0143122
            ]
          ]
        ]
      }
    },
    {
      "type": "Feature",
      "id": "way/655937897",
      "properties": {
        "timestamp": "2021-10-28T12:04:30Z",
        "version": 2,
        "changeset": 113079900,
        "addr:city": "Coremas",
        "addr:postcode": "58770-000",
        "addr:street": "Rua João Fernandes de Lima",
        "addr:suburb": "Pombalzinho",
        "building": "yes",
        "government": "government",
        "name": "Tribunal Regional Eleitoral Cartório Regional Eleitoral 52ª Zona",
        "office": "government",
        "id": "way/655937897"
      },
      "geometry": {
        "type": "Polygon",
        "coordinates": [
          [
            [
              -37.9439322,
              -7.0144538
            ],
            [
              -37.9439185,
              -7.0146033
            ],
            [
              -37.9438355,
              -7.0145959
            ],
            [
              -37.9438504,
              -7.0144464
            ],
            [
              -37.9439322,
              -7.0144538
            ]
          ]
        ]
      }
    },
    {
      "type": "Feature",
      "id": "node/6152596396",
      "properties": {
        "timestamp": "2018-12-21T22:18:09Z",
        "version": 1,
        "changeset": 65681686,
        "addr:city": "Coremas",
        "addr:postcode": "58770-000",
        "government": "register_office",
        "name": "Cartório Severino Lucas",
        "office": "government",
        "id": "node/6152596396"
      },
      "geometry": {
        "type": "Point",
        "coordinates": [
          -37.9401314,
          -7.019621
        ]
      }
    },
    {
      "type": "Feature",
      "id": "node/6237954464",
      "properties": {
        "timestamp": "2019-12-06T12:43:47Z",
        "version": 3,
        "changeset": 78050884,
        "addr:city": "Coremas",
        "addr:postcode": "58770-000",
        "addr:street": "Rua Caminho de Dentro",
        "addr:suburb": "Colinas de Santa Rita de Cássia",
        "government": "traffic_department",
        "name": "DETRAN Departamento Estadual de Trânsito",
        "office": "government",
        "operator": "DETRAN-PB",
        "phone": "+55 83 34331430",
        "smoking": "separated",
        "id": "node/6237954464"
      },
      "geometry": {
        "type": "Point",
        "coordinates": [
          -37.9438981,
          -7.0182557
        ]
      }
    }
  ]
}
