{
  "type": "FeatureCollection",
  "features": [
    {
      "type": "Feature",
      "id": "way/651544852",
      "properties": {
        "timestamp": "2021-11-05T13:04:26Z",
        "version": 4,
        "changeset": 113408524,
        "building": "yes",
        "tourism": "hotel",
        "id": "way/651544852"
      },
      "geometry": {
        "type": "Polygon",
        "coordinates": [
          [
            [
              -37.9423817,
              -7.0243446
            ],
            [
              -37.9426391,
              -7.0242568
            ],
            [
              -37.9426448,
              -7.0242734
            ],
            [
              -37.9427685,
              -7.0242313
            ],
            [
              -37.942786,
              -7.024282
            ],
            [
              -37.9427908,
              -7.0242949
            ],
            [
              -37.9427993,
              -7.0243178
            ],
            [
              -37.9427705,
              -7.0243273
            ],
            [
              -37.9424369,
              -7.0244416
            ],
            [
              -37.9424175,
              -7.0244482
            ],
            [
              -37.9423817,
              -7.0243446
            ]
          ]
        ]
      }
    },
    {
      "type": "Feature",
      "id": "node/5487994135",
      "properties": {
        "timestamp": "2021-11-05T13:04:26Z",
        "version": 6,
        "changeset": 113408524,
        "addr:city": "Coremas",
        "addr:postcode": "58770-000",
        "addr:street": "Avenida Locutor Valderedo Romão de Oliveira",
        "addr:suburb": "Cabo Branco",
        "air_conditioning": "yes",
        "ele": "5",
        "guest_house": "hostel",
        "internet_access": "yes",
        "internet_access:fee": "no",
        "level": "3",
        "name": "Pousada Pôr do Sol",
        "phone": "+55 83 3433-1458",
        "rooms": "30",
        "source": "IBGE;aerial imagery",
        "tourism": "hotel",
        "wheelchair": "yes",
        "id": "node/5487994135"
      },
      "geometry": {
        "type": "Point",
        "coordinates": [
          -37.9425626,
          -7.024353
        ]
      }
    },
    {
      "type": "Feature",
      "id": "node/6093848483",
      "properties": {
        "timestamp": "2020-05-12T01:09:33Z",
        "version": 2,
        "changeset": 85051474,
        "addr:city": "Coremas",
        "addr:postcode": "58770-000",
        "addr:street": "Avenida Getúlio Vargas",
        "addr:suburb": "Centro",
        "fax": "+55 83 9 9999-0247",
        "internet_access": "yes",
        "name": "Pousada e Restaurante Aconchego",
        "smoking": "no",
        "stars": "4",
        "tourism": "hotel",
        "id": "node/6093848483"
      },
      "geometry": {
        "type": "Point",
        "coordinates": [
          -37.9453145,
          -7.0185829
        ]
      }
    },
    {
      "type": "Feature",
      "id": "node/6100844062",
      "properties": {
        "timestamp": "2019-02-23T13:02:00Z",
        "version": 2,
        "changeset": 67493293,
        "addr:city": "Coremas",
        "addr:postcode": "58770-000",
        "addr:street": "Avenida Capitão Antônio Leite",
        "addr:suburb": "Centro",
        "fax": "+55 83 999643700",
        "internet_access": "yes",
        "name": "Pousada Vitória",
        "tourism": "hotel",
        "id": "node/6100844062"
      },
      "geometry": {
        "type": "Point",
        "coordinates": [
          -37.9469019,
          -7.0176799
        ]
      }
    },
    {
      "type": "Feature",
      "id": "node/7149312784",
      "properties": {
        "timestamp": "2020-05-12T19:43:19Z",
        "version": 2,
        "changeset": 85103603,
        "addr:city": "Coremas",
        "addr:postcode": "58770-000",
        "addr:street": "Rua Capitão Antônio Leite",
        "addr:suburb": "Centro",
        "air_conditioning": "yes",
        "internet_access": "yes",
        "internet_access:ssid": "Pousada União",
        "name": "Pousada União - Coremas",
        "phone": "+55 83 9 9904-7678",
        "rooms": "3",
        "tourism": "hotel",
        "website": "pousadauniaocoremas.com.br",
        "wheelchair": "yes",
        "id": "node/7149312784"
      },
      "geometry": {
        "type": "Point",
        "coordinates": [
          -37.9471175,
          -7.0181081
        ]
      }
    }
  ]
}
