{
  "type": "FeatureCollection",
  "features": [
    {
      "type": "Feature",
      "id": "way/558109907",
      "properties": {
        "timestamp": "2021-10-28T12:10:35Z",
        "version": 5,
        "changeset": 113080121,
        "addr:city": "Coremas",
        "addr:housenumber": "114",
        "addr:postcode": "58770-000",
        "addr:street": "Avenida Getúlio Vargas",
        "addr:suburb": "Centro",
        "amenity": "school",
        "fax": "(83) 99802-3847",
        "internet_access": "wlan",
        "level": "2",
        "name": "Colégio e Cursos Santa Rita de Cássia",
        "polling_station": "yes",
        "wheelchair": "yes",
        "id": "way/558109907"
      },
      "geometry": {
        "type": "Polygon",
        "coordinates": [
          [
            [
              -37.9438308,
              -7.0187332
            ],
            [
              -37.9439996,
              -7.0190521
            ],
            [
              -37.9437926,
              -7.0191602
            ],
            [
              -37.9436236,
              -7.0188412
            ],
            [
              -37.9438308,
              -7.0187332
            ]
          ]
        ]
      }
    },
    {
      "type": "Feature",
      "id": "way/558109908",
      "properties": {
        "timestamp": "2021-10-28T12:10:35Z",
        "version": 8,
        "changeset": 113080121,
        "addr:city": "Coremas",
        "addr:postcode": "58770-000",
        "addr:street": "Rua José Peregrino de Araújo",
        "addr:suburb": "Centro",
        "amenity": "school",
        "barrier": "wall",
        "grades": "7-12",
        "name": "Escola Cônego Bernado",
        "polling_station": "yes",
        "wheelchair": "yes",
        "id": "way/558109908"
      },
      "geometry": {
        "type": "Polygon",
        "coordinates": [
          [
            [
              -37.9441351,
              -7.0185744
            ],
            [
              -37.9443045,
              -7.018892
            ],
            [
              -37.9439996,
              -7.0190521
            ],
            [
              -37.9438308,
              -7.0187332
            ],
            [
              -37.9441351,
              -7.0185744
            ]
          ]
        ]
      }
    },
    {
      "type": "Feature",
      "id": "way/644020613",
      "properties": {
        "timestamp": "2023-07-19T12:59:02Z",
        "version": 7,
        "changeset": 138716577,
        "addr:city": "Coremas",
        "addr:postcode": "58770000",
        "addr:street": "Rua Benildo Faustino da Silva",
        "addr:suburb": "Centro",
        "amenity": "school",
        "internet_access": "yes",
        "level": "2",
        "name": "ECIT Adv. Nobel Vita",
        "operator": "Governo do Estado da Paraíba",
        "operator:type": "government",
        "operator:wikidata": "Q96476089",
        "source": "IBGE",
        "id": "way/644020613"
      },
      "geometry": {
        "type": "Polygon",
        "coordinates": [
          [
            [
              -37.9411117,
              -7.0183383
            ],
            [
              -37.94113,
              -7.0186366
            ],
            [
              -37.9411485,
              -7.0188799
            ],
            [
              -37.9404269,
              -7.0189282
            ],
            [
              -37.9403968,
              -7.018384
            ],
            [
              -37.9411117,
              -7.0183383
            ]
          ]
        ]
      }
    },
    {
      "type": "Feature",
      "id": "way/644379855",
      "properties": {
        "timestamp": "2023-07-19T12:59:02Z",
        "version": 4,
        "changeset": 138716577,
        "addr:city": "Coremas",
        "addr:postcode": "58770000",
        "addr:street": "Rua Raimundo Luiz",
        "addr:suburb": "Pombalzinho",
        "amenity": "school",
        "name": "Escola Estadual Min. Carlos Luiz de Araújo",
        "operator": "Governo do Estado da Paraíba",
        "operator:type": "government",
        "operator:wikidata": "Q96476089",
        "id": "way/644379855"
      },
      "geometry": {
        "type": "Polygon",
        "coordinates": [
          [
            [
              -37.9432793,
              -7.014657
            ],
            [
              -37.9432146,
              -7.0151861
            ],
            [
              -37.9425183,
              -7.0151096
            ],
            [
              -37.9425768,
              -7.0145745
            ],
            [
              -37.9432793,
              -7.014657
            ]
          ]
        ]
      }
    },
    {
      "type": "Feature",
      "id": "way/644391521",
      "properties": {
        "timestamp": "2018-12-20T13:06:51Z",
        "version": 2,
        "changeset": 65639807,
        "addr:city": "Coremas",
        "addr:postcode": "58770000",
        "addr:street": "Rua Padre Guilherme",
        "addr:suburb": "Cabo Branco",
        "amenity": "school",
        "name": "Escola Antônia Maria da Conceição",
        "id": "way/644391521"
      },
      "geometry": {
        "type": "Polygon",
        "coordinates": [
          [
            [
              -37.9379204,
              -7.023416
            ],
            [
              -37.9382799,
              -7.023396
            ],
            [
              -37.9382891,
              -7.0235623
            ],
            [
              -37.9382949,
              -7.0236527
            ],
            [
              -37.9379806,
              -7.0236722
            ],
            [
              -37.9379861,
              -7.0237631
            ],
            [
              -37.9379416,
              -7.0237658
            ],
            [
              -37.9379204,
              -7.023416
            ]
          ]
        ]
      }
    },
    {
      "type": "Feature",
      "id": "way/647445380",
      "properties": {
        "timestamp": "2019-02-17T14:29:20Z",
        "version": 2,
        "changeset": 67281147,
        "addr:city": "Coremas",
        "addr:postcode": "58770-000",
        "addr:street": "Rua Alexandrina Soares de Sousa",
        "addr:suburb": "DNOCS",
        "amenity": "school",
        "id": "way/647445380"
      },
      "geometry": {
        "type": "Polygon",
        "coordinates": [
          [
            [
              -37.9544493,
              -7.0206949
            ],
            [
              -37.9544565,
              -7.0210499
            ],
            [
              -37.954426,
              -7.0211049
            ],
            [
              -37.9541335,
              -7.0211107
            ],
            [
              -37.9541252,
              -7.0207014
            ],
            [
              -37.9544493,
              -7.0206949
            ]
          ]
        ]
      }
    },
    {
      "type": "Feature",
      "id": "way/649681903",
      "properties": {
        "timestamp": "2020-07-05T12:07:11Z",
        "version": 2,
        "changeset": 87553482,
        "addr:city": "Coremas",
        "addr:postcode": "58770-000",
        "addr:street": "Rua Maria Barbosa",
        "addr:suburb": "Cureminha",
        "amenity": "school",
        "name": "Escola Branca de Neve",
        "id": "way/649681903"
      },
      "geometry": {
        "type": "Polygon",
        "coordinates": [
          [
            [
              -37.9466263,
              -7.0193149
            ],
            [
              -37.9466709,
              -7.0193986
            ],
            [
              -37.9466564,
              -7.0194032
            ],
            [
              -37.9464996,
              -7.0194888
            ],
            [
              -37.9464547,
              -7.019405
            ],
            [
              -37.9466212,
              -7.0193176
            ],
            [
              -37.9466263,
              -7.0193149
            ]
          ]
        ]
      }
    },
    {
      "type": "Feature",
      "id": "way/664141262",
      "properties": {
        "timestamp": "2019-01-17T14:02:13Z",
        "version": 1,
        "changeset": 66397026,
        "amenity": "school",
        "id": "way/664141262"
      },
      "geometry": {
        "type": "Polygon",
        "coordinates": [
          [
            [
              -37.9901731,
              -7.0170166
            ],
            [
              -37.9901456,
              -7.0171845
            ],
            [
              -37.9899651,
              -7.0171553
            ],
            [
              -37.9899927,
              -7.0169874
            ],
            [
              -37.9901731,
              -7.0170166
            ]
          ]
        ]
      }
    },
    {
      "type": "Feature",
      "id": "way/819441244",
      "properties": {
        "timestamp": "2020-06-27T14:59:42Z",
        "version": 2,
        "changeset": 87228611,
        "addr:city": "Coremas",
        "addr:postcode": "58770-000",
        "addr:street": "Rua José Virgulino Silva",
        "addr:suburb": "Nova Coremas",
        "amenity": "school",
        "name": "Creche Municipal Ana Ferreira",
        "operator": "Prefeitura de Coremas",
        "operator:type": "public",
        "id": "way/819441244"
      },
      "geometry": {
        "type": "Polygon",
        "coordinates": [
          [
            [
              -37.9186773,
              -7.0198833
            ],
            [
              -37.9186677,
              -7.0203976
            ],
            [
              -37.9182839,
              -7.0203905
            ],
            [
              -37.9182936,
              -7.0198762
            ],
            [
              -37.9186773,
              -7.0198833
            ]
          ]
        ]
      }
    },
    {
      "type": "Feature",
      "id": "node/6080283811",
      "properties": {
        "timestamp": "2018-11-21T16:37:30Z",
        "version": 1,
        "changeset": 64748132,
        "addr:city": "Coremas",
        "addr:postcode": "58770-000",
        "addr:street": "Rua Alexandrina Soares de Sousa",
        "addr:suburb": "DNOCS",
        "amenity": "school",
        "name": "Escola Flórito Nitão de Diniz",
        "id": "node/6080283811"
      },
      "geometry": {
        "type": "Point",
        "coordinates": [
          -37.9543101,
          -7.0208992
        ]
      }
    },
    {
      "type": "Feature",
      "id": "node/6093018003",
      "properties": {
        "timestamp": "2020-05-12T00:54:38Z",
        "version": 3,
        "changeset": 85051221,
        "addr:city": "Coremas",
        "addr:postcode": "58770-000",
        "addr:street": "Rua José Garrido de Lacerda",
        "addr:suburb": "Centro",
        "amenity": "school",
        "fax": "+55 83 3433-1287",
        "name": "Instituto Educacional A Esperança Do Amanhã",
        "id": "node/6093018003"
      },
      "geometry": {
        "type": "Point",
        "coordinates": [
          -37.9414961,
          -7.018437
        ]
      }
    },
    {
      "type": "Feature",
      "id": "node/6299744484",
      "properties": {
        "timestamp": "2019-02-24T19:59:38Z",
        "version": 1,
        "changeset": 67527382,
        "addr:city": "Coremas",
        "addr:postcode": "58770-000",
        "addr:street": "Rua São Pedro",
        "addr:suburb": "Cabo Branco",
        "amenity": "school",
        "name": "Creche Municipal Sinhá Nunes",
        "id": "node/6299744484"
      },
      "geometry": {
        "type": "Point",
        "coordinates": [
          -37.9360957,
          -7.0211296
        ]
      }
    }
  ]
}
