{
  "type": "FeatureCollection",
  "features": [
    {
      "type": "Feature",
      "id": "node/7030462878",
      "properties": {
        "timestamp": "2019-12-07T01:26:03Z",
        "version": 2,
        "changeset": 78076703,
        "addr:city": "Santa Rosa do Piau√≠",
        "addr:postcode": "64518000",
        "addr:street": "Travessa Berlenga",
        "addr:suburb": "Berlenga",
        "brewery": "various;yes",
        "min_age": "0",
        "name": "Hotel Sousa",
        "outdoor_seating": "yes",
        "tourism": "hotel",
        "id": "node/7030462878"
      },
      "geometry": {
        "type": "Point",
        "coordinates": [
          -42.2772221,
          -6.8054071
        ]
      }
    },
    {
      "type": "Feature",
      "id": "node/7039684876",
      "properties": {
        "timestamp": "2019-12-07T01:26:03Z",
        "version": 1,
        "changeset": 78076703,
        "addr:street": "Avenida Tancredo Neves",
        "internet_access": "wlan",
        "name": "Hotal Santa Rosa",
        "tourism": "hotel",
        "id": "node/7039684876"
      },
      "geometry": {
        "type": "Point",
        "coordinates": [
          -42.2825631,
          -6.8010576
        ]
      }
    }
  ]
}
