{
  "type": "FeatureCollection",
  "features": [
    {
      "type": "Feature",
      "id": "way/1028713130",
      "properties": {
        "timestamp": "2022-02-06T18:09:25Z",
        "version": 2,
        "changeset": 117089702,
        "addr:city": "Santa Rosa do Piauí",
        "addr:housenumber": "304",
        "addr:postcode": "64518000",
        "addr:street": "Rua do Estudante",
        "addr:suburb": "Centro",
        "amenity": "school",
        "description": "Centro de ensino público voltado para alunos do ensino médio.",
        "name": "U.E. Dom Edilberto Dinkelborg",
        "phone": "+55 89 3428 1336",
        "id": "way/1028713130"
      },
      "geometry": {
        "type": "Polygon",
        "coordinates": [
          [
            [
              -42.2804452,
              -6.7979241
            ],
            [
              -42.280405,
              -6.7985526
            ],
            [
              -42.2797908,
              -6.7984407
            ],
            [
              -42.2798793,
              -6.7978921
            ],
            [
              -42.2804452,
              -6.7979241
            ]
          ]
        ]
      }
    },
    {
      "type": "Feature",
      "id": "node/6582728684",
      "properties": {
        "timestamp": "2022-02-06T18:09:25Z",
        "version": 2,
        "changeset": 117089702,
        "addr:city": "Santa Rosa do Piauí",
        "addr:housenumber": "75",
        "addr:postcode": "64518000",
        "addr:street": "Rua São Francisco",
        "addr:suburb": "Centro",
        "amenity": "school",
        "description": "Unidade Escolar Francisco José dos Santos, local de ensino de crianças e jovens.",
        "name": "U.E. Francisco José dos Santos",
        "id": "node/6582728684"
      },
      "geometry": {
        "type": "Point",
        "coordinates": [
          -42.2798588,
          -6.7991101
        ]
      }
    },
    {
      "type": "Feature",
      "id": "node/6584118825",
      "properties": {
        "timestamp": "2022-02-06T18:10:48Z",
        "version": 4,
        "changeset": 117089763,
        "addr:city": "Santa Rosa do Piauí",
        "addr:postcode": "64518-000",
        "addr:street": "Rua da Cooperativa",
        "addr:suburb": "Fazenda",
        "amenity": "school",
        "denomination": "catholic",
        "description": "Escola",
        "name": "Anexo Francisco José dos Santos",
        "religion": "christian",
        "id": "node/6584118825"
      },
      "geometry": {
        "type": "Point",
        "coordinates": [
          -42.2869232,
          -6.7951449
        ]
      }
    },
    {
      "type": "Feature",
      "id": "node/9484029356",
      "properties": {
        "timestamp": "2022-02-06T18:11:33Z",
        "version": 1,
        "changeset": 117089797,
        "addr:city": "Santa Rosa do Piauí",
        "addr:postcode": "64518-000",
        "addr:street": "Rua José Muniz",
        "addr:suburb": "Pé da Serra",
        "amenity": "school",
        "name": "Creche Municipal Tia Bidu",
        "id": "node/9484029356"
      },
      "geometry": {
        "type": "Point",
        "coordinates": [
          -42.2847717,
          -6.7920726
        ]
      }
    },
    {
      "type": "Feature",
      "id": "node/9484030701",
      "properties": {
        "timestamp": "2022-02-06T18:07:11Z",
        "version": 1,
        "changeset": 117089619,
        "addr:city": "Santa Rosa do Piauí",
        "addr:postcode": "64518-000",
        "addr:street": "Rua Expedito Cruz",
        "amenity": "school",
        "name": "Esc Mun Novo Horizonte",
        "id": "node/9484030701"
      },
      "geometry": {
        "type": "Point",
        "coordinates": [
          -42.2750111,
          -6.7968134
        ]
      }
    },
    {
      "type": "Feature",
      "id": "node/9484061028",
      "properties": {
        "timestamp": "2022-02-06T18:06:22Z",
        "version": 1,
        "changeset": 117089576,
        "amenity": "school",
        "name": "Esc Mul Sao Jose",
        "id": "node/9484061028"
      },
      "geometry": {
        "type": "Point",
        "coordinates": [
          -42.2233893,
          -6.8321336
        ]
      }
    },
    {
      "type": "Feature",
      "id": "node/9484080219",
      "properties": {
        "timestamp": "2022-02-06T18:10:48Z",
        "version": 1,
        "changeset": 117089763,
        "addr:city": "Santa Rosa do Piauí",
        "addr:postcode": "64518-000",
        "addr:street": "Rua da Cooperativa",
        "addr:suburb": "Fazenda",
        "amenity": "school",
        "name": "Unidade Escolar Juarez Tapety",
        "id": "node/9484080219"
      },
      "geometry": {
        "type": "Point",
        "coordinates": [
          -42.2871561,
          -6.7950609
        ]
      }
    }
  ]
}
