{
  "type": "FeatureCollection",
  "features": [
    {
      "type": "Feature",
      "id": "way/1204945767",
      "properties": {
        "timestamp": "2023-09-04T15:38:14Z",
        "version": 1,
        "changeset": 140811918,
        "addr:housenumber": "535/438",
        "amenity": "pharmacy",
        "building": "house",
        "healthcare": "pharmacy",
        "id": "way/1204945767"
      },
      "geometry": {
        "type": "Polygon",
        "coordinates": [
          [
            [
              -46.9745846,
              -23.031841
            ],
            [
              -46.9746054,
              -23.0318537
            ],
            [
              -46.9745315,
              -23.0319558
            ],
            [
              -46.9744714,
              -23.0319246
            ],
            [
              -46.9745467,
              -23.0318204
            ],
            [
              -46.9745846,
              -23.031841
            ]
          ]
        ]
      }
    },
    {
      "type": "Feature",
      "id": "way/1205520373",
      "properties": {
        "timestamp": "2023-09-06T15:58:14Z",
        "version": 1,
        "changeset": 140901724,
        "addr:housenumber": "10",
        "amenity": "pharmacy",
        "building": "yes",
        "healthcare": "pharmacy",
        "id": "way/1205520373"
      },
      "geometry": {
        "type": "Polygon",
        "coordinates": [
          [
            [
              -46.9742774,
              -23.0288742
            ],
            [
              -46.9743889,
              -23.0289491
            ],
            [
              -46.9742314,
              -23.0291494
            ],
            [
              -46.9741199,
              -23.0290794
            ],
            [
              -46.9742774,
              -23.0288742
            ]
          ]
        ]
      }
    },
    {
      "type": "Feature",
      "id": "way/1217888417",
      "properties": {
        "timestamp": "2023-10-23T20:54:00Z",
        "version": 1,
        "changeset": 143035745,
        "addr:housenumber": "288",
        "amenity": "pharmacy",
        "building": "yes",
        "healthcare": "pharmacy",
        "id": "way/1217888417"
      },
      "geometry": {
        "type": "Polygon",
        "coordinates": [
          [
            [
              -46.9778242,
              -23.0265079
            ],
            [
              -46.9778494,
              -23.0267002
            ],
            [
              -46.9777223,
              -23.0267192
            ],
            [
              -46.9776976,
              -23.0265257
            ],
            [
              -46.9778242,
              -23.0265079
            ]
          ]
        ]
      }
    },
    {
      "type": "Feature",
      "id": "way/1287520920",
      "properties": {
        "timestamp": "2024-05-28T22:52:18Z",
        "version": 1,
        "changeset": 151965690,
        "addr:city": "Vinhedo",
        "addr:housenumber": "1500",
        "addr:postcode": "13283-040",
        "addr:street": "Avenida Otávio Tasca",
        "addr:suburb": "Vila João XXIII",
        "amenity": "pharmacy",
        "brand": "Drogasil",
        "brand:wikidata": "Q5308185",
        "building": "yes",
        "dispensing": "yes",
        "drive_through": "no",
        "healthcare": "pharmacy",
        "name": "Drogasil",
        "opening_hours": "Mo-Su 07:00-23:00",
        "phone": "+55 (19) 97128-5249",
        "website": "https://www.drogasil.com.br/",
        "wheelchair": "yes",
        "id": "way/1287520920"
      },
      "geometry": {
        "type": "Polygon",
        "coordinates": [
          [
            [
              -46.9808613,
              -23.0218181
            ],
            [
              -46.980863,
              -23.0218787
            ],
            [
              -46.9808298,
              -23.0219142
            ],
            [
              -46.9806214,
              -23.021919
            ],
            [
              -46.9806188,
              -23.0218237
            ],
            [
              -46.9808613,
              -23.0218181
            ]
          ]
        ]
      }
    },
    {
      "type": "Feature",
      "id": "way/1307890767",
      "properties": {
        "timestamp": "2024-08-15T04:35:05Z",
        "version": 1,
        "changeset": 155265935,
        "addr:city": "Vinhedo",
        "addr:housenumber": "299",
        "addr:street": "Avenida dos Imigrantes",
        "addr:suburb": "Jardim Junco",
        "amenity": "pharmacy",
        "brand": "Drogaria São Paulo",
        "brand:wikidata": "Q5308184",
        "building": "yes",
        "dispensing": "yes",
        "healthcare": "pharmacy",
        "name": "Drogaria São Paulo",
        "opening_hours": "24/7",
        "phone": "+55 19 97108 3710",
        "id": "way/1307890767"
      },
      "geometry": {
        "type": "Polygon",
        "coordinates": [
          [
            [
              -46.9829875,
              -23.0361963
            ],
            [
              -46.9828497,
              -23.0363053
            ],
            [
              -46.9827277,
              -23.0361748
            ],
            [
              -46.9828655,
              -23.0360658
            ],
            [
              -46.9829875,
              -23.0361963
            ]
          ]
        ]
      }
    },
    {
      "type": "Feature",
      "id": "way/1308868537",
      "properties": {
        "timestamp": "2024-08-19T18:02:48Z",
        "version": 1,
        "changeset": 155474285,
        "addr:city": "Vinhedo",
        "addr:housenumber": "1680",
        "addr:postcode": "13289-190",
        "addr:street": "Rua Manoel Matheus",
        "addr:suburb": "Santa Rosa",
        "amenity": "pharmacy",
        "brand": "Drogasil",
        "brand:wikidata": "Q5308185",
        "building": "yes",
        "dispensing": "yes",
        "drive_through": "no",
        "healthcare": "pharmacy",
        "name": "Drogasil",
        "opening_hours": "Mo-Su 07:00-23:00",
        "phone": "+55 19 3826 6781",
        "website": "https://www.drogasil.com.br/",
        "wheelchair": "yes",
        "id": "way/1308868537"
      },
      "geometry": {
        "type": "Polygon",
        "coordinates": [
          [
            [
              -46.9839249,
              -23.0385694
            ],
            [
              -46.9838164,
              -23.038617
            ],
            [
              -46.9837196,
              -23.0385171
            ],
            [
              -46.9837981,
              -23.0384541
            ],
            [
              -46.9839249,
              -23.0385694
            ]
          ]
        ]
      }
    },
    {
      "type": "Feature",
      "id": "way/1309187184",
      "properties": {
        "timestamp": "2024-08-21T03:31:40Z",
        "version": 1,
        "changeset": 155536068,
        "addr:city": "Vinhedo",
        "addr:housenumber": "1686",
        "addr:postcode": "13280-000",
        "addr:street": "Avenida Presidente Castelo Branco",
        "addr:suburb": "Jardim São Matheus",
        "amenity": "pharmacy",
        "building": "yes",
        "drive_through": "no",
        "healthcare": "pharmacy",
        "name": "Drogaria São Matheus",
        "opening_hours": "Mo-Fr 08:00-19:00; Sa 08:00-13:00",
        "phone": "+55 19 3876 5859",
        "id": "way/1309187184"
      },
      "geometry": {
        "type": "Polygon",
        "coordinates": [
          [
            [
              -46.983511,
              -23.0124013
            ],
            [
              -46.983444,
              -23.0123904
            ],
            [
              -46.9834627,
              -23.0122927
            ],
            [
              -46.9835298,
              -23.0123036
            ],
            [
              -46.983511,
              -23.0124013
            ]
          ]
        ]
      }
    },
    {
      "type": "Feature",
      "id": "node/11940706519",
      "properties": {
        "timestamp": "2024-06-23T02:22:25Z",
        "version": 2,
        "changeset": 153050796,
        "amenity": "pharmacy",
        "healthcare": "pharmacy",
        "name": "Drogarias Maestra",
        "opening_hours": "Mo-Fr 07:00-21:00; Sa 08:00-20:00; Su 08:00-13:00",
        "phone": "+55 19 3876 6161",
        "shop": "chemist",
        "website": "https://maestravinhedo.com.br/",
        "id": "node/11940706519"
      },
      "geometry": {
        "type": "Point",
        "coordinates": [
          -46.9792371,
          -23.0144225
        ]
      }
    },
    {
      "type": "Feature",
      "id": "node/11950552923",
      "properties": {
        "timestamp": "2024-06-01T17:56:33Z",
        "version": 1,
        "changeset": 152133188,
        "amenity": "pharmacy",
        "brand": "Droga Raia",
        "brand:wikidata": "Q10357101",
        "drive_through": "no",
        "healthcare": "pharmacy",
        "name": "Droga Raia",
        "opening_hours": "24/7",
        "phone": "+55 (19) 99757-6502",
        "id": "node/11950552923"
      },
      "geometry": {
        "type": "Point",
        "coordinates": [
          -46.9860128,
          -23.0358656
        ]
      }
    }
  ]
}
