{
  "type": "FeatureCollection",
  "features": [
    {
      "type": "Feature",
      "id": "way/974989229",
      "properties": {
        "timestamp": "2021-08-20T12:42:05Z",
        "version": 1,
        "changeset": 109986924,
        "addr:city": "Alcântara",
        "addr:postcode": "65250-000",
        "amenity": "school",
        "name": "EM - Ver Manoel Domingos Pereira",
        "phone": "+55 98 9 8552 3221",
        "id": "way/974989229"
      },
      "geometry": {
        "type": "Polygon",
        "coordinates": [
          [
            [
              -44.6658533,
              -2.5486499
            ],
            [
              -44.6656189,
              -2.5487731
            ],
            [
              -44.6654068,
              -2.5483703
            ],
            [
              -44.6656411,
              -2.5482471
            ],
            [
              -44.6658533,
              -2.5486499
            ]
          ]
        ]
      }
    },
    {
      "type": "Feature",
      "id": "way/974990514",
      "properties": {
        "timestamp": "2021-08-20T12:47:32Z",
        "version": 1,
        "changeset": 109987174,
        "addr:city": "Alcântara",
        "addr:postcode": "65250-000",
        "amenity": "school",
        "name": "Escola Municipal Monteiro Lobato",
        "phone": "+55 98 9 9220 3742",
        "id": "way/974990514"
      },
      "geometry": {
        "type": "Polygon",
        "coordinates": [
          [
            [
              -44.608402,
              -2.4253745
            ],
            [
              -44.6083774,
              -2.4255545
            ],
            [
              -44.6081978,
              -2.4255299
            ],
            [
              -44.6082225,
              -2.4253499
            ],
            [
              -44.608402,
              -2.4253745
            ]
          ]
        ]
      }
    },
    {
      "type": "Feature",
      "id": "way/974995721",
      "properties": {
        "timestamp": "2021-08-20T13:16:42Z",
        "version": 1,
        "changeset": 109988635,
        "addr:city": "Alcântara",
        "addr:postcode": "65250-000",
        "amenity": "school",
        "name": "EM João Batista Amorim",
        "phone": "+55 98 9 9202 8051",
        "id": "way/974995721"
      },
      "geometry": {
        "type": "Polygon",
        "coordinates": [
          [
            [
              -44.5565548,
              -2.2115889
            ],
            [
              -44.5565222,
              -2.2118539
            ],
            [
              -44.5560754,
              -2.2117989
            ],
            [
              -44.5561081,
              -2.2115339
            ],
            [
              -44.5565548,
              -2.2115889
            ]
          ]
        ]
      }
    },
    {
      "type": "Feature",
      "id": "way/974999948",
      "properties": {
        "timestamp": "2021-08-20T13:35:29Z",
        "version": 1,
        "changeset": 109989413,
        "addr:city": "Alcântara",
        "addr:postcode": "65250-000",
        "amenity": "school",
        "name": "EM Apolinario Antonio Ribeiro",
        "phone": "+55 98 9 9109 8686",
        "id": "way/974999948"
      },
      "geometry": {
        "type": "Polygon",
        "coordinates": [
          [
            [
              -44.4072496,
              -2.3857722
            ],
            [
              -44.4072463,
              -2.3863348
            ],
            [
              -44.4071429,
              -2.3863654
            ],
            [
              -44.4071462,
              -2.3857717
            ],
            [
              -44.4072496,
              -2.3857722
            ]
          ]
        ]
      }
    },
    {
      "type": "Feature",
      "id": "way/975000085",
      "properties": {
        "timestamp": "2021-08-20T13:37:54Z",
        "version": 1,
        "changeset": 109989494,
        "addr:city": "Alcântara",
        "addr:postcode": "65250-000",
        "amenity": "school",
        "name": "EM Jose Goulart Vasconcelos",
        "phone": "+55 98 9 9151 4974",
        "id": "way/975000085"
      },
      "geometry": {
        "type": "Polygon",
        "coordinates": [
          [
            [
              -44.5945373,
              -2.302582
            ],
            [
              -44.5943528,
              -2.3027883
            ],
            [
              -44.5940098,
              -2.3024822
            ],
            [
              -44.5941943,
              -2.3022758
            ],
            [
              -44.5945373,
              -2.302582
            ]
          ]
        ]
      }
    },
    {
      "type": "Feature",
      "id": "way/975009130",
      "properties": {
        "timestamp": "2021-08-20T14:20:45Z",
        "version": 1,
        "changeset": 109991430,
        "addr:city": "Alcântara",
        "addr:postcode": "65250-000",
        "amenity": "school",
        "name": "EM Chapeuzinho Vermelho",
        "phone": "+55 98 9 8991 7005",
        "id": "way/975009130"
      },
      "geometry": {
        "type": "Polygon",
        "coordinates": [
          [
            [
              -44.4929805,
              -2.3258244
            ],
            [
              -44.4927396,
              -2.3259502
            ],
            [
              -44.4925347,
              -2.3255583
            ],
            [
              -44.4927756,
              -2.3254326
            ],
            [
              -44.4929805,
              -2.3258244
            ]
          ]
        ]
      }
    },
    {
      "type": "Feature",
      "id": "way/975009470",
      "properties": {
        "timestamp": "2021-08-20T14:23:03Z",
        "version": 1,
        "changeset": 109991509,
        "addr:city": "Alcântara",
        "addr:postcode": "65250-000",
        "amenity": "school",
        "name": "Em Marcial Ramalho Marques II",
        "phone": "+55 98 3337 7011",
        "id": "way/975009470"
      },
      "geometry": {
        "type": "Polygon",
        "coordinates": [
          [
            [
              -44.606843,
              -2.3653122
            ],
            [
              -44.6070298,
              -2.365216
            ],
            [
              -44.6071205,
              -2.3653916
            ],
            [
              -44.6069337,
              -2.3654879
            ],
            [
              -44.606843,
              -2.3653122
            ]
          ]
        ]
      }
    },
    {
      "type": "Feature",
      "id": "way/975009596",
      "properties": {
        "timestamp": "2021-08-20T14:24:19Z",
        "version": 1,
        "changeset": 109991553,
        "addr:city": "Alcântara",
        "addr:postcode": "65250-000",
        "amenity": "school",
        "name": "EM Santa Tereza",
        "phone": "+55 98 9 8444 4017",
        "id": "way/975009596"
      },
      "geometry": {
        "type": "Polygon",
        "coordinates": [
          [
            [
              -44.4915777,
              -2.3742383
            ],
            [
              -44.4914513,
              -2.3744475
            ],
            [
              -44.4912091,
              -2.3743014
            ],
            [
              -44.4913355,
              -2.3740922
            ],
            [
              -44.4915777,
              -2.3742383
            ]
          ]
        ]
      }
    },
    {
      "type": "Feature",
      "id": "way/975011186",
      "properties": {
        "timestamp": "2021-08-20T14:33:12Z",
        "version": 1,
        "changeset": 109991979,
        "addr:city": "Alcântara",
        "addr:postcode": "65250-000",
        "amenity": "school",
        "name": "EM - Doutor Facure",
        "phone": "+55 98 3016 0031",
        "id": "way/975011186"
      },
      "geometry": {
        "type": "Polygon",
        "coordinates": [
          [
            [
              -44.4804336,
              -2.2225119
            ],
            [
              -44.4801073,
              -2.222743
            ],
            [
              -44.4798605,
              -2.2223895
            ],
            [
              -44.4801298,
              -2.2221549
            ],
            [
              -44.4804336,
              -2.2225119
            ]
          ]
        ]
      }
    },
    {
      "type": "Feature",
      "id": "way/975012310",
      "properties": {
        "timestamp": "2021-08-20T14:36:33Z",
        "version": 1,
        "changeset": 109992113,
        "addr:city": "Alcântara",
        "addr:postcode": "65250-000",
        "addr:street": "Rodovia MA 106",
        "amenity": "school",
        "name": "CETI - Professor Aquiles Batista Vieira",
        "phone": "+55 98 9 9141 9643",
        "id": "way/975012310"
      },
      "geometry": {
        "type": "Polygon",
        "coordinates": [
          [
            [
              -44.4089393,
              -2.3939649
            ],
            [
              -44.4091066,
              -2.3945853
            ],
            [
              -44.4082055,
              -2.3948253
            ],
            [
              -44.4080217,
              -2.3941966
            ],
            [
              -44.4089393,
              -2.3939649
            ]
          ]
        ]
      }
    },
    {
      "type": "Feature",
      "id": "way/975013352",
      "properties": {
        "timestamp": "2021-08-20T14:41:41Z",
        "version": 1,
        "changeset": 109992304,
        "addr:city": "Alcântara",
        "addr:postcode": "65250-000",
        "amenity": "school",
        "name": "EM - São Marcos",
        "phone": "+55 98 9 9170 0514",
        "id": "way/975013352"
      },
      "geometry": {
        "type": "Polygon",
        "coordinates": [
          [
            [
              -44.6433745,
              -2.3914028
            ],
            [
              -44.6435696,
              -2.3913477
            ],
            [
              -44.6436259,
              -2.3915467
            ],
            [
              -44.6434308,
              -2.3916018
            ],
            [
              -44.6433745,
              -2.3914028
            ]
          ]
        ]
      }
    },
    {
      "type": "Feature",
      "id": "way/1036440814",
      "properties": {
        "timestamp": "2022-03-02T04:05:00Z",
        "version": 1,
        "changeset": 118002221,
        "addr:city": "Alcântara",
        "addr:housenumber": "181",
        "addr:postcode": "65250-000",
        "addr:street": "Rua Grande",
        "addr:suburb": "Centro",
        "amenity": "school",
        "name": "E. M. Inácio de Viveiros Raposo",
        "operator": "Prefeitura de Alcântara",
        "operator:type": "public",
        "id": "way/1036440814"
      },
      "geometry": {
        "type": "Polygon",
        "coordinates": [
          [
            [
              -44.4157642,
              -2.4070846
            ],
            [
              -44.4160599,
              -2.406717
            ],
            [
              -44.4162369,
              -2.4068845
            ],
            [
              -44.4159621,
              -2.4072277
            ],
            [
              -44.4157642,
              -2.4070846
            ]
          ]
        ]
      }
    },
    {
      "type": "Feature",
      "id": "node/7140939686",
      "properties": {
        "timestamp": "2022-03-02T04:05:00Z",
        "version": 3,
        "changeset": 118002221,
        "addr:city": "Alcântara",
        "addr:housenumber": "181",
        "addr:postcode": "65250-000",
        "addr:street": "Rua de Baixo",
        "addr:suburb": "Centro",
        "amenity": "school",
        "name": "E. M. Inácio de Viveiros Raposo",
        "operator": "Prefeitura de Alcântara",
        "operator:type": "public",
        "id": "node/7140939686"
      },
      "geometry": {
        "type": "Point",
        "coordinates": [
          -44.4158751,
          -2.4071395
        ]
      }
    },
    {
      "type": "Feature",
      "id": "node/7140939687",
      "properties": {
        "timestamp": "2020-01-18T11:59:49Z",
        "version": 1,
        "changeset": 79728896,
        "addr:postcode": "65250-000",
        "amenity": "school",
        "name": "EM - Doutor Odilon Soares",
        "id": "node/7140939687"
      },
      "geometry": {
        "type": "Point",
        "coordinates": [
          -44.6423463,
          -2.3057733
        ]
      }
    },
    {
      "type": "Feature",
      "id": "node/7140939688",
      "properties": {
        "timestamp": "2021-08-20T13:53:07Z",
        "version": 2,
        "changeset": 109990142,
        "addr:city": "Alcântara",
        "addr:postcode": "65250-000",
        "amenity": "school",
        "name": "EM - Professora Rosita Cerveira Marques",
        "id": "node/7140939688"
      },
      "geometry": {
        "type": "Point",
        "coordinates": [
          -44.5148063,
          -2.4828546
        ]
      }
    },
    {
      "type": "Feature",
      "id": "node/7140939689",
      "properties": {
        "timestamp": "2021-08-20T13:01:46Z",
        "version": 2,
        "changeset": 109987908,
        "addr:city": "Alcântara",
        "addr:postcode": "65250-000",
        "amenity": "school",
        "name": "EM - Duque de Caxias",
        "phone": "+55 98 9 9141 9643",
        "id": "node/7140939689"
      },
      "geometry": {
        "type": "Point",
        "coordinates": [
          -44.6474837,
          -2.43883
        ]
      }
    },
    {
      "type": "Feature",
      "id": "node/7140949286",
      "properties": {
        "timestamp": "2021-08-20T13:36:16Z",
        "version": 2,
        "changeset": 109989445,
        "addr:city": "Alcântara",
        "addr:postcode": "65250-000",
        "amenity": "school",
        "name": "EM - Coração de Jesus",
        "phone": "+55 98 9 9170 7019",
        "id": "node/7140949286"
      },
      "geometry": {
        "type": "Point",
        "coordinates": [
          -44.4908199,
          -2.4917316
        ]
      }
    },
    {
      "type": "Feature",
      "id": "node/7140949288",
      "properties": {
        "timestamp": "2020-01-18T11:59:50Z",
        "version": 1,
        "changeset": 79728896,
        "addr:postcode": "65250-000",
        "amenity": "school",
        "name": "EM - Dom Pedro II",
        "id": "node/7140949288"
      },
      "geometry": {
        "type": "Point",
        "coordinates": [
          -44.5565297,
          -2.4901674
        ]
      }
    },
    {
      "type": "Feature",
      "id": "node/7140949290",
      "properties": {
        "timestamp": "2021-08-20T14:44:35Z",
        "version": 2,
        "changeset": 109992439,
        "addr:city": "Alcântara",
        "addr:postcode": "65250-000",
        "amenity": "school",
        "name": "EM - Santa Terezinha",
        "id": "node/7140949290"
      },
      "geometry": {
        "type": "Point",
        "coordinates": [
          -44.5797215,
          -2.2313745
        ]
      }
    },
    {
      "type": "Feature",
      "id": "node/7140949291",
      "properties": {
        "timestamp": "2020-01-18T11:59:53Z",
        "version": 1,
        "changeset": 79728896,
        "addr:postcode": "65250-000",
        "amenity": "school",
        "name": "EM - Vereador Raimundo Júlio Monteiro I",
        "phone": "+55 98 3337 7109",
        "id": "node/7140949291"
      },
      "geometry": {
        "type": "Point",
        "coordinates": [
          -44.5913767,
          -2.5350833
        ]
      }
    },
    {
      "type": "Feature",
      "id": "node/7140949292",
      "properties": {
        "timestamp": "2020-01-18T11:59:54Z",
        "version": 1,
        "changeset": 79728896,
        "addr:postcode": "65250-000",
        "amenity": "school",
        "name": "EM - Deputado Américo de Sousa",
        "phone": "+55 98 3016 0031",
        "id": "node/7140949292"
      },
      "geometry": {
        "type": "Point",
        "coordinates": [
          -44.49352,
          -2.279635
        ]
      }
    },
    {
      "type": "Feature",
      "id": "node/7140949293",
      "properties": {
        "timestamp": "2020-01-18T11:59:55Z",
        "version": 1,
        "changeset": 79728896,
        "addr:postcode": "65250-000",
        "amenity": "school",
        "name": "EM - Deputado Saboia",
        "id": "node/7140949293"
      },
      "geometry": {
        "type": "Point",
        "coordinates": [
          -44.4135262,
          -2.3687125
        ]
      }
    },
    {
      "type": "Feature",
      "id": "node/7140949294",
      "properties": {
        "timestamp": "2020-01-18T11:59:57Z",
        "version": 1,
        "changeset": 79728896,
        "addr:postcode": "65250-000",
        "amenity": "school",
        "name": "EM - Doutor Silva Maia",
        "id": "node/7140949294"
      },
      "geometry": {
        "type": "Point",
        "coordinates": [
          -44.6348187,
          -2.3263209
        ]
      }
    },
    {
      "type": "Feature",
      "id": "node/7140949295",
      "properties": {
        "timestamp": "2021-08-20T12:59:42Z",
        "version": 2,
        "changeset": 109987819,
        "addr:city": "Alcântara",
        "addr:postcode": "65250-000",
        "amenity": "school",
        "name": "EM - Eurico Ribeiro",
        "phone": "+55 98 3337 7011",
        "id": "node/7140949295"
      },
      "geometry": {
        "type": "Point",
        "coordinates": [
          -44.58244,
          -2.3887241
        ]
      }
    },
    {
      "type": "Feature",
      "id": "node/7140949385",
      "properties": {
        "timestamp": "2021-08-20T12:43:02Z",
        "version": 2,
        "changeset": 109986967,
        "addr:city": "Alcântara",
        "addr:postcode": "65250-000",
        "amenity": "school",
        "name": "EM - Assis Chateu Briand",
        "phone": "+55 98 9 9202 8051",
        "id": "node/7140949385"
      },
      "geometry": {
        "type": "Point",
        "coordinates": [
          -44.5533802,
          -2.2150073
        ]
      }
    },
    {
      "type": "Feature",
      "id": "node/7140949386",
      "properties": {
        "timestamp": "2021-08-20T12:46:17Z",
        "version": 2,
        "changeset": 109987117,
        "addr:city": "Alcântara",
        "addr:postcode": "65250-000",
        "amenity": "school",
        "name": "EM - Marechal Castelo Branco I",
        "phone": "+55 98 3337 8029",
        "id": "node/7140949386"
      },
      "geometry": {
        "type": "Point",
        "coordinates": [
          -44.6456076,
          -2.5405599
        ]
      }
    },
    {
      "type": "Feature",
      "id": "node/7140949387",
      "properties": {
        "timestamp": "2020-01-18T11:59:52Z",
        "version": 1,
        "changeset": 79728896,
        "addr:postcode": "65250-000",
        "amenity": "school",
        "name": "EM - Vereador Manoel Pereira",
        "id": "node/7140949387"
      },
      "geometry": {
        "type": "Point",
        "coordinates": [
          -44.6816991,
          -2.5545867
        ]
      }
    },
    {
      "type": "Feature",
      "id": "node/7140949388",
      "properties": {
        "timestamp": "2021-08-20T14:05:14Z",
        "version": 2,
        "changeset": 109990674,
        "addr:city": "Alcântara",
        "addr:postcode": "65250-000",
        "amenity": "school",
        "name": "EM - Barão de Grajau",
        "phone": "+55 98 9 9155 7620",
        "id": "node/7140949388"
      },
      "geometry": {
        "type": "Point",
        "coordinates": [
          -44.4602817,
          -2.3801233
        ]
      }
    },
    {
      "type": "Feature",
      "id": "node/7140949685",
      "properties": {
        "timestamp": "2021-08-20T13:51:44Z",
        "version": 2,
        "changeset": 109990078,
        "addr:city": "Alcântara",
        "addr:postcode": "65250-000",
        "amenity": "school",
        "name": "EM - Doutor Benedito Leite",
        "phone": "+55 98 9 8300 3607",
        "id": "node/7140949685"
      },
      "geometry": {
        "type": "Point",
        "coordinates": [
          -44.4441127,
          -2.1827365
        ]
      }
    },
    {
      "type": "Feature",
      "id": "node/7140949686",
      "properties": {
        "timestamp": "2020-08-18T11:44:54Z",
        "version": 2,
        "changeset": 89572819,
        "addr:postcode": "65250-000",
        "amenity": "school",
        "name": "EM - Doutor João Leite",
        "id": "node/7140949686"
      },
      "geometry": {
        "type": "Point",
        "coordinates": [
          -44.5332975,
          -2.2664761
        ]
      }
    },
    {
      "type": "Feature",
      "id": "node/7141016485",
      "properties": {
        "timestamp": "2020-01-18T12:46:40Z",
        "version": 1,
        "changeset": 79729881,
        "addr:postcode": "65250-000",
        "amenity": "school",
        "name": "EM - Governador José Sarney",
        "id": "node/7141016485"
      },
      "geometry": {
        "type": "Point",
        "coordinates": [
          -44.5168035,
          -2.1612969
        ]
      }
    },
    {
      "type": "Feature",
      "id": "node/7141016486",
      "properties": {
        "timestamp": "2021-08-20T14:18:28Z",
        "version": 2,
        "changeset": 109991327,
        "addr:city": "Alcântara",
        "addr:postcode": "65250-000",
        "amenity": "school",
        "name": "EM - Governador Newton de Barros Bello",
        "phone": "+55 98 3337 8010",
        "id": "node/7141016486"
      },
      "geometry": {
        "type": "Point",
        "coordinates": [
          -44.6825438,
          -2.4985975
        ]
      }
    },
    {
      "type": "Feature",
      "id": "node/7141016487",
      "properties": {
        "timestamp": "2021-08-20T13:38:54Z",
        "version": 2,
        "changeset": 109989537,
        "addr:city": "Alcântara",
        "addr:postcode": "65250-000",
        "amenity": "school",
        "name": "EM - Jerónimo Viveiros",
        "phone": "+55 98 3337 7109",
        "id": "node/7141016487"
      },
      "geometry": {
        "type": "Point",
        "coordinates": [
          -44.6019618,
          -2.5464744
        ]
      }
    },
    {
      "type": "Feature",
      "id": "node/7141016488",
      "properties": {
        "timestamp": "2021-08-20T14:08:04Z",
        "version": 2,
        "changeset": 109990810,
        "addr:city": "Alcântara",
        "addr:postcode": "65250-000",
        "amenity": "school",
        "name": "EM - José Bonifácio",
        "phone": "+55 98 9 9170 0514",
        "id": "node/7141016488"
      },
      "geometry": {
        "type": "Point",
        "coordinates": [
          -44.6045221,
          -2.3913442
        ]
      }
    },
    {
      "type": "Feature",
      "id": "node/7141016489",
      "properties": {
        "timestamp": "2020-01-18T12:46:43Z",
        "version": 1,
        "changeset": 79729881,
        "addr:postcode": "65250-000",
        "amenity": "school",
        "name": "EM - Malalael Moraes",
        "id": "node/7141016489"
      },
      "geometry": {
        "type": "Point",
        "coordinates": [
          -44.6158225,
          -2.4873662
        ]
      }
    },
    {
      "type": "Feature",
      "id": "node/9022796190",
      "properties": {
        "timestamp": "2021-08-20T12:58:46Z",
        "version": 1,
        "changeset": 109987760,
        "addr:city": "Alcântara",
        "addr:postcode": "65250-000",
        "amenity": "school",
        "name": "EM Nova Esperança",
        "phone": "+55 98 9 9170 0514",
        "id": "node/9022796190"
      },
      "geometry": {
        "type": "Point",
        "coordinates": [
          -44.6293539,
          -2.4730833
        ]
      }
    },
    {
      "type": "Feature",
      "id": "node/9022814837",
      "properties": {
        "timestamp": "2021-08-20T12:53:40Z",
        "version": 1,
        "changeset": 109987495,
        "addr:city": "Alcântara",
        "addr:postcode": "65250-000",
        "amenity": "school",
        "name": "EM Senador Archer",
        "phone": "+55 98 9 9222 3117",
        "id": "node/9022814837"
      },
      "geometry": {
        "type": "Point",
        "coordinates": [
          -44.4967594,
          -2.3425947
        ]
      }
    },
    {
      "type": "Feature",
      "id": "node/9022897391",
      "properties": {
        "timestamp": "2021-08-20T13:44:36Z",
        "version": 1,
        "changeset": 109989757,
        "addr:city": "Alcântara",
        "addr:postcode": "65250-000",
        "amenity": "school",
        "name": "Em Benoni Costa Ferreira",
        "phone": "+55 98 9 8429 7394",
        "id": "node/9022897391"
      },
      "geometry": {
        "type": "Point",
        "coordinates": [
          -44.5946153,
          -2.5309273
        ]
      }
    },
    {
      "type": "Feature",
      "id": "node/9022902121",
      "properties": {
        "timestamp": "2021-08-20T13:49:51Z",
        "version": 1,
        "changeset": 109989997,
        "addr:city": "Alcântara",
        "addr:postcode": "65250-000",
        "addr:suburb": "Oitiua",
        "amenity": "school",
        "name": "Jardim de Infancia Ver Mamedio Pereira",
        "phone": "+55 98 9 9194 9272",
        "id": "node/9022902121"
      },
      "geometry": {
        "type": "Point",
        "coordinates": [
          -44.6467653,
          -2.4362831
        ]
      }
    },
    {
      "type": "Feature",
      "id": "node/9022928854",
      "properties": {
        "timestamp": "2021-08-20T14:00:38Z",
        "version": 1,
        "changeset": 109990468,
        "addr:city": "Alcântara",
        "addr:postcode": "65250-000",
        "amenity": "school",
        "name": "EM Zumbi dos Palmares",
        "phone": "+55 98 9 9151 4974",
        "id": "node/9022928854"
      },
      "geometry": {
        "type": "Point",
        "coordinates": [
          -44.5484414,
          -2.3105074
        ]
      }
    },
    {
      "type": "Feature",
      "id": "node/9022968518",
      "properties": {
        "timestamp": "2021-08-20T14:25:19Z",
        "version": 1,
        "changeset": 109991599,
        "addr:city": "Alcântara",
        "addr:postcode": "65250-000",
        "amenity": "school",
        "name": "EM Doutora Naisa Araujo Leite",
        "phone": "+55 98 9 9166 9837",
        "id": "node/9022968518"
      },
      "geometry": {
        "type": "Point",
        "coordinates": [
          -44.6014479,
          -2.4120251
        ]
      }
    },
    {
      "type": "Feature",
      "id": "node/9022971459",
      "properties": {
        "timestamp": "2021-08-20T14:44:12Z",
        "version": 1,
        "changeset": 109992422,
        "addr:city": "Alcântara",
        "addr:postcode": "65250-000",
        "amenity": "school",
        "name": "EM Vereador Joaquim Ribeiro",
        "id": "node/9022971459"
      },
      "geometry": {
        "type": "Point",
        "coordinates": [
          -44.5975182,
          -2.3058256
        ]
      }
    },
    {
      "type": "Feature",
      "id": "node/9022974183",
      "properties": {
        "timestamp": "2021-08-20T14:46:22Z",
        "version": 1,
        "changeset": 109992511,
        "addr:city": "Alcântara",
        "addr:postcode": "65250-000",
        "amenity": "school",
        "name": "EM Deputado Saboia",
        "id": "node/9022974183"
      },
      "geometry": {
        "type": "Point",
        "coordinates": [
          -44.4801436,
          -2.3318573
        ]
      }
    },
    {
      "type": "Feature",
      "id": "node/9022982053",
      "properties": {
        "timestamp": "2021-08-20T14:43:18Z",
        "version": 1,
        "changeset": 109992374,
        "addr:city": "Alcântara",
        "addr:postcode": "65250-000",
        "addr:street": "Avenida Principal",
        "addr:suburb": "Caravelas",
        "amenity": "school",
        "name": "Centro Educacional Mundo Encantado",
        "id": "node/9022982053"
      },
      "geometry": {
        "type": "Point",
        "coordinates": [
          -44.4099812,
          -2.4019649
        ]
      }
    },
    {
      "type": "Feature",
      "id": "node/9022993583",
      "properties": {
        "timestamp": "2021-08-20T14:40:54Z",
        "version": 1,
        "changeset": 109992273,
        "addr:city": "Alcântara",
        "addr:postcode": "65250-000",
        "amenity": "school",
        "name": "Centro de Educação Quilombola Izidoro Augusto de Souza",
        "phone": "+55 98 9 9133 0914",
        "id": "node/9022993583"
      },
      "geometry": {
        "type": "Point",
        "coordinates": [
          -44.606996,
          -2.5012489
        ]
      }
    }
  ]
}
