{
  "type": "FeatureCollection",
  "features": [
    {
      "type": "Feature",
      "id": "way/469256120",
      "properties": {
        "timestamp": "2022-04-16T22:55:02Z",
        "version": 4,
        "changeset": 119800700,
        "addr:city": "Lajeado",
        "addr:suburb": "Olarias",
        "amenity": "clinic",
        "building": "yes",
        "healthcare": "clinic",
        "id": "way/469256120"
      },
      "geometry": {
        "type": "Polygon",
        "coordinates": [
          [
            [
              -51.9934557,
              -29.4336279
            ],
            [
              -51.9933531,
              -29.4336381
            ],
            [
              -51.993333,
              -29.4334851
            ],
            [
              -51.9934356,
              -29.4334749
            ],
            [
              -51.9934557,
              -29.4336279
            ]
          ]
        ]
      }
    },
    {
      "type": "Feature",
      "id": "way/544594806",
      "properties": {
        "timestamp": "2018-01-11T00:07:52Z",
        "version": 2,
        "changeset": 55338126,
        "amenity": "clinic",
        "building": "yes",
        "healthcare": "clinic",
        "name": "Centro Clínico Univates - Prédio 22",
        "id": "way/544594806"
      },
      "geometry": {
        "type": "Polygon",
        "coordinates": [
          [
            [
              -51.9472918,
              -29.4488843
            ],
            [
              -51.9468801,
              -29.4488671
            ],
            [
              -51.9468753,
              -29.4491656
            ],
            [
              -51.9466954,
              -29.449159
            ],
            [
              -51.9467097,
              -29.4487023
            ],
            [
              -51.9472907,
              -29.4487238
            ],
            [
              -51.9472918,
              -29.4488843
            ]
          ]
        ]
      }
    },
    {
      "type": "Feature",
      "id": "way/546795536",
      "properties": {
        "timestamp": "2020-04-10T03:07:26Z",
        "version": 3,
        "changeset": 83333822,
        "amenity": "clinic",
        "building": "yes",
        "name": "Posto de Saúde Municipal",
        "id": "way/546795536"
      },
      "geometry": {
        "type": "Polygon",
        "coordinates": [
          [
            [
              -51.9806947,
              -29.4800791
            ],
            [
              -51.9808396,
              -29.480058
            ],
            [
              -51.9808817,
              -29.4802766
            ],
            [
              -51.9807368,
              -29.4802977
            ],
            [
              -51.9806947,
              -29.4800791
            ]
          ]
        ]
      }
    },
    {
      "type": "Feature",
      "id": "way/1143716571",
      "properties": {
        "timestamp": "2023-02-10T21:15:30Z",
        "version": 1,
        "changeset": 132381776,
        "addr:city": "Lajeado",
        "addr:country": "BR",
        "addr:housenumber": "1968",
        "addr:state": "Rio Grande do Sul",
        "addr:street": "Avenida Benjamin Constant",
        "addr:suburb": "Florestal",
        "amenity": "clinic",
        "building": "yes",
        "contact:whatsapp": "+55 51 998708023",
        "mobile": "+55 51 99870-8023",
        "name": "VidaCard",
        "phone": "+55 51 4064-0799",
        "id": "way/1143716571"
      },
      "geometry": {
        "type": "Polygon",
        "coordinates": [
          [
            [
              -51.9732859,
              -29.4569278
            ],
            [
              -51.9733125,
              -29.4572256
            ],
            [
              -51.9732689,
              -29.457228
            ],
            [
              -51.9732302,
              -29.4572305
            ],
            [
              -51.9732121,
              -29.4570257
            ],
            [
              -51.9732859,
              -29.4569278
            ]
          ]
        ]
      }
    },
    {
      "type": "Feature",
      "id": "node/10869903607",
      "properties": {
        "timestamp": "2023-05-05T04:15:38Z",
        "version": 1,
        "changeset": 135723483,
        "addr:city": "Lajeado",
        "addr:country": "BR",
        "addr:housenumber": "1312",
        "addr:postcode": "95905-028",
        "addr:state": "Rio Grande do Sul",
        "addr:street": "Rua João Sebastiany",
        "addr:suburb": "Montanha",
        "amenity": "clinic",
        "contact:phone": "+55 (51) 3982-1138",
        "name": "ESF Montanha",
        "official_name": "Estratégia de Saúde da Família Montanha",
        "ref:CNES": "2251353",
        "id": "node/10869903607"
      },
      "geometry": {
        "type": "Point",
        "coordinates": [
          -51.9869453,
          -29.4561867
        ]
      }
    },
    {
      "type": "Feature",
      "id": "node/11967746422",
      "properties": {
        "timestamp": "2024-06-09T22:27:22Z",
        "version": 1,
        "changeset": 152473045,
        "addr:city": "Lajeado",
        "addr:housenumber": "360",
        "addr:postcode": "95900052",
        "addr:street": "Rua Germano Berner",
        "addr:suburb": "Centro",
        "air_conditioning": "yes",
        "amenity": "clinic",
        "healthcare": "clinic",
        "healthcare:speciality": "urology;plastic_surgery;geriatrics",
        "name": "Clínica Tostes",
        "wheelchair": "yes",
        "id": "node/11967746422"
      },
      "geometry": {
        "type": "Point",
        "coordinates": [
          -51.9703222,
          -29.458945
        ]
      }
    }
  ]
}
