{
  "type": "FeatureCollection",
  "features": [
    {
      "type": "Feature",
      "id": "way/279675891",
      "properties": {
        "timestamp": "2023-10-25T06:02:21Z",
        "version": 4,
        "changeset": 143095770,
        "addr:city": "Lajeado",
        "addr:housenumber": "536",
        "addr:postcode": "95900-000",
        "addr:street": "Avenida Senador Alberto Pasqualini",
        "building": "hotel",
        "name": "Hotel Mariani",
        "phone": "+55 51 3710-1128",
        "tourism": "hotel",
        "website": "https://www.hotelmariani.com.br/",
        "id": "way/279675891"
      },
      "geometry": {
        "type": "Polygon",
        "coordinates": [
          [
            [
              -51.9676937,
              -29.4559778
            ],
            [
              -51.9677026,
              -29.4560685
            ],
            [
              -51.9675729,
              -29.4560781
            ],
            [
              -51.9675762,
              -29.4561121
            ],
            [
              -51.9675424,
              -29.4561146
            ],
            [
              -51.9675468,
              -29.4561598
            ],
            [
              -51.9676055,
              -29.4561554
            ],
            [
              -51.9676089,
              -29.4561909
            ],
            [
              -51.9674214,
              -29.4562048
            ],
            [
              -51.9674014,
              -29.4559995
            ],
            [
              -51.9676937,
              -29.4559778
            ]
          ]
        ]
      }
    },
    {
      "type": "Feature",
      "id": "node/1803523087",
      "properties": {
        "timestamp": "2023-10-25T06:02:46Z",
        "version": 4,
        "changeset": 143095788,
        "addr:city": "Lajeado",
        "addr:housenumber": "165",
        "addr:street": "Rua Donga Menezes",
        "email": "reservas@hotelvaller.com.br",
        "phone": "+55 51 3714-1413",
        "tourism": "hotel",
        "website": "https://www.hotelvaller.com.br/",
        "id": "node/1803523087"
      },
      "geometry": {
        "type": "Point",
        "coordinates": [
          -51.9809218,
          -29.446039
        ]
      }
    },
    {
      "type": "Feature",
      "id": "node/1854335159",
      "properties": {
        "timestamp": "2012-08-06T14:22:05Z",
        "version": 1,
        "changeset": 12633285,
        "tourism": "hotel",
        "id": "node/1854335159"
      },
      "geometry": {
        "type": "Point",
        "coordinates": [
          -51.9704265,
          -29.4545866
        ]
      }
    },
    {
      "type": "Feature",
      "id": "node/1854335161",
      "properties": {
        "timestamp": "2016-09-27T14:37:06Z",
        "version": 3,
        "changeset": 42471889,
        "name": "Weiand Turis Hotel",
        "phone": "+55 51 3714-8500",
        "tourism": "hotel",
        "id": "node/1854335161"
      },
      "geometry": {
        "type": "Point",
        "coordinates": [
          -51.9771213,
          -29.459407
        ]
      }
    },
    {
      "type": "Feature",
      "id": "node/2374451669",
      "properties": {
        "timestamp": "2023-04-12T14:38:05Z",
        "version": 3,
        "changeset": 134820916,
        "addr:city": "Lajeado",
        "addr:housenumber": "36",
        "addr:street": "Rua Jacob Alois Altmayer",
        "name": "Zallon Hotel Executivo",
        "phone": "+55 51 3709-1002",
        "tourism": "hotel",
        "wikidata": "Q111882215",
        "id": "node/2374451669"
      },
      "geometry": {
        "type": "Point",
        "coordinates": [
          -51.9659805,
          -29.4535661
        ]
      }
    },
    {
      "type": "Feature",
      "id": "node/4346707508",
      "properties": {
        "timestamp": "2020-04-04T03:19:25Z",
        "version": 2,
        "changeset": 83058680,
        "addr:city": "Lajeado",
        "addr:housenumber": "1175",
        "addr:street": "Avenida Senador Alberto Pasqualini",
        "name": "Aspen Executive Hotel",
        "phone": "+55 51 3729-5510",
        "tourism": "hotel",
        "id": "node/4346707508"
      },
      "geometry": {
        "type": "Point",
        "coordinates": [
          -51.9648613,
          -29.4510935
        ]
      }
    }
  ]
}
