{
  "type": "FeatureCollection",
  "features": [
    {
      "type": "Feature",
      "id": "relation/15810456",
      "properties": {
        "timestamp": "2023-05-05T04:15:38Z",
        "version": 1,
        "changeset": 135723483,
        "addr:city": "Lajeado",
        "addr:country": "BR",
        "addr:housenumber": "2287",
        "addr:postcode": "95903-230",
        "addr:street": "Rua 1º de Maio",
        "addr:suburb": "São Bento",
        "amenity": "kindergarten",
        "contact:phone": "+55 (51) 39821248",
        "name": "EMEI Pequeno Aprendiz",
        "official_name": "Escola de Educação Infantil Pequeno Aprendiz",
        "ref:INEP": "43210058",
        "type": "multipolygon",
        "id": "relation/15810456"
      },
      "geometry": {
        "type": "Polygon",
        "coordinates": [
          [
            [
              -52.024916,
              -29.4559882
            ],
            [
              -52.0246719,
              -29.4561622
            ],
            [
              -52.0245646,
              -29.4561016
            ],
            [
              -52.0244493,
              -29.4560501
            ],
            [
              -52.0243205,
              -29.4560092
            ],
            [
              -52.0240444,
              -29.4559309
            ],
            [
              -52.0240267,
              -29.455584
            ],
            [
              -52.0243299,
              -29.455583
            ],
            [
              -52.0244803,
              -29.4556564
            ],
            [
              -52.0247479,
              -29.4558536
            ],
            [
              -52.024916,
              -29.4559882
            ]
          ]
        ]
      }
    },
    {
      "type": "Feature",
      "id": "way/1135236752",
      "properties": {
        "timestamp": "2024-01-07T20:13:58Z",
        "version": 2,
        "changeset": 146003976,
        "addr:city": "Lajeado",
        "addr:country": "BR",
        "addr:housenumber": "2451",
        "addr:state": "Rio Grande do Sul",
        "addr:street": "Rua Carlos Spohr Filho",
        "addr:suburb": "Moinhos",
        "amenity": "kindergarten",
        "email": "emei.abrincando@lajeado.rs.gov.br",
        "name": "Escola Municipal Ensino Infantil Aprender Brincando",
        "phone": "+55 51 3982-1181",
        "id": "way/1135236752"
      },
      "geometry": {
        "type": "Polygon",
        "coordinates": [
          [
            [
              -51.9882528,
              -29.4633868
            ],
            [
              -51.9877875,
              -29.4635456
            ],
            [
              -51.987758,
              -29.4630353
            ],
            [
              -51.9881737,
              -29.4629594
            ],
            [
              -51.9882327,
              -29.4629897
            ],
            [
              -51.9882528,
              -29.4633868
            ]
          ]
        ]
      }
    },
    {
      "type": "Feature",
      "id": "way/1140617124",
      "properties": {
        "timestamp": "2023-02-09T00:34:52Z",
        "version": 1,
        "changeset": 132282703,
        "addr:city": "Lajeado",
        "addr:country": "BR",
        "addr:housenumber": "2180",
        "addr:state": "Rio Grande do Sul",
        "addr:street": "Rua Arnoldo Uhry",
        "addr:suburb": "Santo Antônio",
        "amenity": "kindergarten",
        "name": "Escola Municipal de Educação Infantil Saber, Educar e Respeitar",
        "operator": "Prefeitura Municipal de Lajeado",
        "id": "way/1140617124"
      },
      "geometry": {
        "type": "Polygon",
        "coordinates": [
          [
            [
              -51.988171,
              -29.4835969
            ],
            [
              -51.9872162,
              -29.4838327
            ],
            [
              -51.9870861,
              -29.4833833
            ],
            [
              -51.9877607,
              -29.483228
            ],
            [
              -51.988171,
              -29.4835969
            ]
          ]
        ]
      }
    },
    {
      "type": "Feature",
      "id": "way/1168875200",
      "properties": {
        "timestamp": "2023-05-05T04:15:38Z",
        "version": 1,
        "changeset": 135723483,
        "addr:city": "Lajeado",
        "addr:country": "BR",
        "addr:housenumber": "3881",
        "addr:postcode": "95905-080",
        "addr:street": "Avenida Benjamin Constant",
        "addr:suburb": "Montanha",
        "amenity": "kindergarten",
        "contact:phone": "+55 (51) 37298789",
        "name": "Escola de Educação Infantil Arco-Íris",
        "ref:INEP": "43213120",
        "id": "way/1168875200"
      },
      "geometry": {
        "type": "Polygon",
        "coordinates": [
          [
            [
              -51.9867689,
              -29.4504514
            ],
            [
              -51.9867332,
              -29.4501502
            ],
            [
              -51.9868629,
              -29.4501386
            ],
            [
              -51.9868985,
              -29.4504397
            ],
            [
              -51.9867689,
              -29.4504514
            ]
          ]
        ]
      }
    },
    {
      "type": "Feature",
      "id": "way/1168875201",
      "properties": {
        "timestamp": "2023-05-05T04:15:38Z",
        "version": 1,
        "changeset": 135723483,
        "addr:city": "Lajeado",
        "addr:country": "BR",
        "addr:housenumber": "597",
        "addr:postcode": "95905-034",
        "addr:street": "Rua das Laranjeiras",
        "addr:suburb": "Montanha",
        "amenity": "kindergarten",
        "contact:phone": "+55 (51) 39821197",
        "name": "EMEI Pequeno Cidadão",
        "official_name": "Escola Municipal de Educação Infantil Pequeno Cidadão",
        "operator": "Prefeitura Municipal de Lajeado",
        "ref:INEP": "43192998",
        "id": "way/1168875201"
      },
      "geometry": {
        "type": "Polygon",
        "coordinates": [
          [
            [
              -51.9877459,
              -29.451038
            ],
            [
              -51.9874495,
              -29.4510777
            ],
            [
              -51.9874106,
              -29.4507017
            ],
            [
              -51.9876735,
              -29.4507449
            ],
            [
              -51.9877459,
              -29.451038
            ]
          ]
        ]
      }
    },
    {
      "type": "Feature",
      "id": "way/1168875206",
      "properties": {
        "timestamp": "2023-05-05T04:15:38Z",
        "version": 1,
        "changeset": 135723483,
        "addr:city": "Lajeado",
        "addr:country": "BR",
        "addr:housenumber": "256",
        "addr:postcode": "95904-336",
        "addr:street": "Rua Waldemar Schossler",
        "addr:suburb": "Moinhos d'Água",
        "amenity": "kindergarten",
        "contact:phone": "+55 (51) 39821306",
        "name": "EMEI Jeito de Criança",
        "operator": "Prefeitura Municipal de Lajeado",
        "ref:INEP": "43242812",
        "id": "way/1168875206"
      },
      "geometry": {
        "type": "Polygon",
        "coordinates": [
          [
            [
              -52.0042174,
              -29.4531552
            ],
            [
              -52.0036487,
              -29.4532054
            ],
            [
              -52.0036072,
              -29.4527768
            ],
            [
              -52.003862,
              -29.4526437
            ],
            [
              -52.0041557,
              -29.4526274
            ],
            [
              -52.0042174,
              -29.4531552
            ]
          ]
        ]
      }
    },
    {
      "type": "Feature",
      "id": "way/1168875217",
      "properties": {
        "timestamp": "2023-05-05T04:15:38Z",
        "version": 1,
        "changeset": 135723483,
        "addr:city": "Lajeado",
        "addr:country": "BR",
        "addr:housenumber": "351",
        "addr:postcode": "95906-332",
        "addr:street": "Rua Benno Schmitt",
        "addr:suburb": "Conventos",
        "amenity": "kindergarten",
        "contact:phone": "+55 (51) 39821194",
        "name": "EMEI Doce Infância",
        "operator": "Prefeitura Municipal de Lajeado",
        "ref:INEP": "43192980",
        "id": "way/1168875217"
      },
      "geometry": {
        "type": "Polygon",
        "coordinates": [
          [
            [
              -52.0237155,
              -29.4353617
            ],
            [
              -52.0237872,
              -29.4359715
            ],
            [
              -52.0232722,
              -29.4360175
            ],
            [
              -52.0232005,
              -29.4354076
            ],
            [
              -52.0237155,
              -29.4353617
            ]
          ]
        ]
      }
    },
    {
      "type": "Feature",
      "id": "way/1205633347",
      "properties": {
        "timestamp": "2024-01-07T20:32:07Z",
        "version": 2,
        "changeset": 146004014,
        "addr:city": "Lajeado",
        "addr:country": "BR",
        "addr:housenumber": "413",
        "addr:state": "Rio Grande do Sul",
        "addr:street": "Rua Eugênia Mello de Oliveira Kirchheim",
        "addr:suburb": "Bom Pastor",
        "amenity": "kindergarten",
        "name": "EMEI Sonho de Criança",
        "official_name": "Escola Municipal de Educação Infantil Sonho de Criança",
        "operator": "Prefeitura Municipal de Lajeado",
        "id": "way/1205633347"
      },
      "geometry": {
        "type": "Polygon",
        "coordinates": [
          [
            [
              -52.0042735,
              -29.4386141
            ],
            [
              -52.0042106,
              -29.4381156
            ],
            [
              -52.0048345,
              -29.4380559
            ],
            [
              -52.0048974,
              -29.4385544
            ],
            [
              -52.0042735,
              -29.4386141
            ]
          ]
        ]
      }
    }
  ]
}
