{
  "type": "FeatureCollection",
  "features": [
    {
      "type": "Feature",
      "id": "way/699929032",
      "properties": {
        "timestamp": "2025-04-07T03:14:12Z",
        "version": 3,
        "changeset": 164614272,
        "addr:city": "Contagem",
        "addr:housenumber": "137",
        "addr:postcode": "32072-180",
        "addr:street": "Rua Refinaria União",
        "addr:suburb": "Petrolândia",
        "amenity": "clinic",
        "building": "hospital",
        "healthcare": "clinic",
        "name": "UPA Petrolândia",
        "operator": "Sistema Único de Saúde",
        "operator:short": "SUS",
        "operator:type": "public",
        "operator:wikidata": "Q7531056",
        "id": "way/699929032"
      },
      "geometry": {
        "type": "Polygon",
        "coordinates": [
          [
            [
              -44.1137342,
              -19.9304815
            ],
            [
              -44.113888,
              -19.9305127
            ],
            [
              -44.1138396,
              -19.9307236
            ],
            [
              -44.1136169,
              -19.9308191
            ],
            [
              -44.1135016,
              -19.9305812
            ],
            [
              -44.1137342,
              -19.9304815
            ]
          ]
        ]
      }
    },
    {
      "type": "Feature",
      "id": "way/1330301888",
      "properties": {
        "timestamp": "2024-11-02T23:55:41Z",
        "version": 1,
        "changeset": 158681113,
        "amenity": "clinic",
        "building": "yes",
        "healthcare": "clinic",
        "healthcare:speciality": "general",
        "name": "UBS Riacho",
        "operator": "Sistema Único de Saúde",
        "operator:short": "SUS",
        "operator:wikidata": "Q7531056",
        "id": "way/1330301888"
      },
      "geometry": {
        "type": "Polygon",
        "coordinates": [
          [
            [
              -44.0501647,
              -19.9480006
            ],
            [
              -44.0501693,
              -19.9481444
            ],
            [
              -44.0498996,
              -19.9481883
            ],
            [
              -44.0498646,
              -19.9480456
            ],
            [
              -44.0501647,
              -19.9480006
            ]
          ]
        ]
      }
    },
    {
      "type": "Feature",
      "id": "way/1375681314",
      "properties": {
        "timestamp": "2025-04-07T20:26:28Z",
        "version": 1,
        "changeset": 164651900,
        "addr:city": "Contagem",
        "addr:housenumber": "242",
        "addr:postcode": "32073-030",
        "addr:street": "Rua Itutinga",
        "addr:suburb": "Industrial São Luiz",
        "amenity": "clinic",
        "building": "yes",
        "healthcare": "clinic",
        "name": "Ubs São Luiz 1",
        "id": "way/1375681314"
      },
      "geometry": {
        "type": "Polygon",
        "coordinates": [
          [
            [
              -44.1278431,
              -19.9255901
            ],
            [
              -44.1280722,
              -19.9256635
            ],
            [
              -44.1280368,
              -19.9257609
            ],
            [
              -44.1278078,
              -19.9256876
            ],
            [
              -44.1278431,
              -19.9255901
            ]
          ]
        ]
      }
    },
    {
      "type": "Feature",
      "id": "node/4617315266",
      "properties": {
        "timestamp": "2017-01-18T23:19:48Z",
        "version": 1,
        "changeset": 45285196,
        "addr:housenumber": "780",
        "addr:street": "Avenida João César de Oliveira",
        "amenity": "clinic",
        "name": "Unidade de Pronto Atendimento JK",
        "phone": "+55 31 33563256;+55 31 33564816",
        "short_name": "Nova UPA JK",
        "source": "note 754999",
        "id": "node/4617315266"
      },
      "geometry": {
        "type": "Point",
        "coordinates": [
          -44.0362809,
          -19.9426579
        ]
      }
    },
    {
      "type": "Feature",
      "id": "node/8479503208",
      "properties": {
        "timestamp": "2025-04-07T14:21:24Z",
        "version": 3,
        "changeset": 164637460,
        "addr:city": "Contagem",
        "addr:housenumber": "105",
        "addr:postcode": "32017170",
        "addr:street": "Rua Bernardo Monteiro",
        "addr:suburb": "Centro",
        "amenity": "clinic",
        "email": "medaqui@medaqui.com.br",
        "healthcare": "clinic",
        "healthcare:speciality": "ophthalmology;general;paediatrics;orthopaedics;dermatology;otolaryngology;urology;vaccination;cardiology;physiotherapy;psychiatry;gynaecology;covid19;neurology;acupuncture;psychology;child_psychiatry",
        "name": "Med Aqui",
        "opening_hours": "Mo-Fr 08:00-18:00",
        "operator": "Gisa Andrade",
        "operator:type": "private",
        "payment:cash": "yes",
        "payment:credit_cards": "yes",
        "phone": "+553120108180",
        "website": "http://www.medaqui.com.br",
        "wheelchair": "yes",
        "id": "node/8479503208"
      },
      "geometry": {
        "type": "Point",
        "coordinates": [
          -44.0861522,
          -19.914294
        ]
      }
    },
    {
      "type": "Feature",
      "id": "node/9080904610",
      "properties": {
        "timestamp": "2023-11-19T01:15:24Z",
        "version": 2,
        "changeset": 144193967,
        "addr:city": "Contagem",
        "addr:housenumber": "581",
        "addr:postcode": "32315-120",
        "addr:street": "Rua Ingás",
        "addr:suburb": "Eldorado",
        "amenity": "clinic",
        "healthcare": "clinic",
        "name": "Gastroclínica Sociedade Médica",
        "opening_hours": "Mo-Fr 08:00-19:00; Sa 08:00-12:00",
        "website": "https://www.gastroclinicacontagem.com.br/",
        "id": "node/9080904610"
      },
      "geometry": {
        "type": "Point",
        "coordinates": [
          -44.0388805,
          -19.9452098
        ]
      }
    },
    {
      "type": "Feature",
      "id": "node/11037607420",
      "properties": {
        "timestamp": "2023-07-10T16:00:42Z",
        "version": 1,
        "changeset": 138344285,
        "addr:housenumber": "83",
        "addr:street": "Rua Rubi",
        "amenity": "clinic",
        "check_date": "2023-07-10",
        "healthcare": "clinic",
        "internet_access": "no",
        "name": "Unidade Básica de Saúde São Joaquim",
        "opening_hours": "Mo-Fr 07:00-17:00; Sa-Su,PH off",
        "operator:type": "government",
        "payment:cards": "no",
        "payment:credit_cards": "no",
        "payment:debit_cards": "no",
        "phone": "+55 31 3352-5723",
        "wheelchair": "yes",
        "id": "node/11037607420"
      },
      "geometry": {
        "type": "Point",
        "coordinates": [
          -44.0266585,
          -19.8826555
        ]
      }
    }
  ]
}
