{
  "type": "FeatureCollection",
  "features": [
    {
      "type": "Feature",
      "id": "way/29185393",
      "properties": {
        "timestamp": "2019-05-24T20:42:09Z",
        "version": 4,
        "changeset": 70598866,
        "addr:city": "Contagem",
        "addr:housenumber": "4495",
        "addr:street": "Avenida João César de Oliveira",
        "addr:suburb": "Novo Eldorado",
        "amenity": "hospital",
        "healthcare": "hospital",
        "name": "Hospital Municipal",
        "id": "way/29185393"
      },
      "geometry": {
        "type": "Polygon",
        "coordinates": [
          [
            [
              -44.0602129,
              -19.936353
            ],
            [
              -44.0609425,
              -19.9357176
            ],
            [
              -44.0612429,
              -19.9356017
            ],
            [
              -44.0625142,
              -19.937054
            ],
            [
              -44.0615433,
              -19.9378003
            ],
            [
              -44.0602129,
              -19.936353
            ]
          ]
        ]
      }
    },
    {
      "type": "Feature",
      "id": "way/834337308",
      "properties": {
        "timestamp": "2020-08-05T21:12:11Z",
        "version": 1,
        "changeset": 89001905,
        "amenity": "hospital",
        "healthcare": "hospital",
        "healthcare:speciality": "general",
        "name": "Unidade Básica de Saúde Amendoeiras",
        "wheelchair": "yes",
        "id": "way/834337308"
      },
      "geometry": {
        "type": "Polygon",
        "coordinates": [
          [
            [
              -44.0359593,
              -19.8518229
            ],
            [
              -44.0356776,
              -19.8517373
            ],
            [
              -44.0358836,
              -19.8512977
            ],
            [
              -44.0361197,
              -19.8511513
            ],
            [
              -44.0361894,
              -19.8512876
            ],
            [
              -44.0359593,
              -19.8518229
            ]
          ]
        ]
      }
    },
    {
      "type": "Feature",
      "id": "node/321510735",
      "properties": {
        "timestamp": "2013-05-24T13:41:14Z",
        "version": 2,
        "changeset": 16265941,
        "amenity": "hospital",
        "name": "Posto de Saúde Bernardo Monteiro",
        "id": "node/321510735"
      },
      "geometry": {
        "type": "Point",
        "coordinates": [
          -44.0815901,
          -19.9321119
        ]
      }
    },
    {
      "type": "Feature",
      "id": "node/453234829",
      "properties": {
        "timestamp": "2019-05-23T20:25:17Z",
        "version": 2,
        "changeset": 70565470,
        "addr:city": "Contagem - MG",
        "addr:housenumber": "64",
        "addr:street": "Rua Casuarinas",
        "addr:suburb": "Eldorado",
        "amenity": "hospital",
        "healthcare": "hospital",
        "name": "Hospital Santa Helena",
        "id": "node/453234829"
      },
      "geometry": {
        "type": "Point",
        "coordinates": [
          -44.0441197,
          -19.9398351
        ]
      }
    },
    {
      "type": "Feature",
      "id": "node/453686209",
      "properties": {
        "timestamp": "2019-10-02T03:10:05Z",
        "version": 4,
        "changeset": 75176321,
        "addr:city": "Contagem",
        "addr:housenumber": "1695",
        "addr:street": "Avenida Babita Camargos",
        "addr:suburb": "Cidade Industrial",
        "amenity": "hospital",
        "healthcare": "hospital",
        "name": "Pronto Socorro Unimed",
        "id": "node/453686209"
      },
      "geometry": {
        "type": "Point",
        "coordinates": [
          -44.0259611,
          -19.9490305
        ]
      }
    },
    {
      "type": "Feature",
      "id": "node/453690483",
      "properties": {
        "timestamp": "2009-08-01T23:37:56Z",
        "version": 1,
        "changeset": 2008758,
        "amenity": "hospital",
        "name": "Hospital São José",
        "id": "node/453690483"
      },
      "geometry": {
        "type": "Point",
        "coordinates": [
          -44.0150767,
          -19.9654834
        ]
      }
    },
    {
      "type": "Feature",
      "id": "node/453690501",
      "properties": {
        "timestamp": "2013-05-22T19:49:14Z",
        "version": 2,
        "changeset": 16243273,
        "amenity": "hospital",
        "name": "Hospital Santa Rita",
        "id": "node/453690501"
      },
      "geometry": {
        "type": "Point",
        "coordinates": [
          -44.0148323,
          -19.9660607
        ]
      }
    },
    {
      "type": "Feature",
      "id": "node/2018564792",
      "properties": {
        "timestamp": "2012-11-17T19:22:01Z",
        "version": 1,
        "changeset": 13909846,
        "amenity": "hospital",
        "name": "Unidade de Referência para a saúde da Família",
        "id": "node/2018564792"
      },
      "geometry": {
        "type": "Point",
        "coordinates": [
          -44.0370629,
          -19.9694636
        ]
      }
    },
    {
      "type": "Feature",
      "id": "node/4327249405",
      "properties": {
        "timestamp": "2019-05-29T15:49:50Z",
        "version": 2,
        "changeset": 70738655,
        "addr:city": "Contagem",
        "addr:housenumber": "200",
        "addr:street": "Rua Extrema",
        "addr:suburb": "Guanabara",
        "amenity": "hospital",
        "emergency": "yes",
        "healthcare": "hospital",
        "name": "UPA Ressaca",
        "id": "node/4327249405"
      },
      "geometry": {
        "type": "Point",
        "coordinates": [
          -44.0307217,
          -19.886973
        ]
      }
    },
    {
      "type": "Feature",
      "id": "node/4561692175",
      "properties": {
        "timestamp": "2016-12-19T12:13:53Z",
        "version": 1,
        "changeset": 44514684,
        "addr:city": "Contagem",
        "addr:housenumber": "1643",
        "addr:postcode": "32115-160",
        "addr:street": "Rua Alvimar Rezende",
        "addr:suburb": "Novo Progresso",
        "amenity": "hospital",
        "name": "Posto de saúde",
        "id": "node/4561692175"
      },
      "geometry": {
        "type": "Point",
        "coordinates": [
          -44.0260436,
          -19.8958266
        ]
      }
    },
    {
      "type": "Feature",
      "id": "node/4562644061",
      "properties": {
        "timestamp": "2022-05-17T13:48:04Z",
        "version": 3,
        "changeset": 121102067,
        "addr:city": "Contagem",
        "addr:housenumber": "47",
        "addr:street": "Rua Joaquim Camargos",
        "addr:suburb": "Centro",
        "amenity": "hospital",
        "emergency": "yes",
        "healthcare": "hospital",
        "internet_access": "no",
        "name": "Unidade de Pronto Atendimento Contagem",
        "phone": "+553131987155",
        "short_name": "UPA Contagem",
        "source": "survey",
        "website": "https://www.contagem.mg.gov.br/",
        "id": "node/4562644061"
      },
      "geometry": {
        "type": "Point",
        "coordinates": [
          -44.082188,
          -19.9107839
        ]
      }
    },
    {
      "type": "Feature",
      "id": "node/7370253085",
      "properties": {
        "timestamp": "2022-07-28T23:44:08Z",
        "version": 2,
        "changeset": 124206819,
        "addr:housenumber": "137",
        "addr:postcode": "31989-353",
        "addr:street": "Rua Refinaria União",
        "amenity": "hospital",
        "healthcare": "hospital",
        "name": "UPA Petrolândia",
        "opening_hours": "24/7",
        "operator": "Sistema Único de Saúde",
        "operator:short": "SUS",
        "operator:wikidata": "Q7531056",
        "phone": "+55 31 3352 5312",
        "id": "node/7370253085"
      },
      "geometry": {
        "type": "Point",
        "coordinates": [
          -44.1136282,
          -19.9305096
        ]
      }
    }
  ]
}
