{
  "type": "FeatureCollection",
  "features": [
    {
      "type": "Feature",
      "id": "way/686747744",
      "properties": {
        "timestamp": "2025-02-23T04:01:40Z",
        "version": 4,
        "changeset": 162838431,
        "addr:city": "Betim",
        "addr:housenumber": "200",
        "addr:postcode": "32677610",
        "addr:street": "Avenida Mato Grosso",
        "addr:suburb": "São Caetano",
        "amenity": "pharmacy",
        "brand": "Banco do Brasil",
        "building": "yes",
        "healthcare": "pharmacy",
        "name": "200 Droga Clara",
        "id": "way/686747744"
      },
      "geometry": {
        "type": "Polygon",
        "coordinates": [
          [
            [
              -44.1120305,
              -19.9347121
            ],
            [
              -44.1121049,
              -19.9348052
            ],
            [
              -44.1118159,
              -19.9350058
            ],
            [
              -44.1117378,
              -19.9349092
            ],
            [
              -44.1120305,
              -19.9347121
            ]
          ]
        ]
      }
    },
    {
      "type": "Feature",
      "id": "way/686747752",
      "properties": {
        "timestamp": "2025-02-12T23:50:36Z",
        "version": 2,
        "changeset": 162448678,
        "addr:city": "Contagem",
        "addr:housenumber": "541",
        "addr:postcode": "32073-740",
        "addr:street": "Avenida Tapajós",
        "addr:suburb": "Industrial São Luiz",
        "amenity": "pharmacy",
        "brand": "Drogaria Araujo",
        "brand:wikidata": "Q10268807",
        "building": "yes",
        "dispensing": "yes",
        "healthcare": "pharmacy",
        "name": "Drogaria Araujo",
        "id": "way/686747752"
      },
      "geometry": {
        "type": "Polygon",
        "coordinates": [
          [
            [
              -44.1154055,
              -19.9353404
            ],
            [
              -44.1156266,
              -19.9352936
            ],
            [
              -44.1156883,
              -19.9355514
            ],
            [
              -44.1154672,
              -19.9355982
            ],
            [
              -44.1154055,
              -19.9353404
            ]
          ]
        ]
      }
    },
    {
      "type": "Feature",
      "id": "way/699483295",
      "properties": {
        "timestamp": "2025-04-07T14:21:24Z",
        "version": 2,
        "changeset": 164637460,
        "addr:city": "Contagem",
        "addr:housenumber": "777",
        "addr:postcode": "32013650",
        "addr:street": "Avenida Prefeito Gil Diniz Júnior",
        "addr:suburb": "Centro",
        "amenity": "pharmacy",
        "brand": "Drogaria Araujo",
        "brand:wikidata": "Q10268807",
        "building": "yes",
        "dispensing": "yes",
        "healthcare": "pharmacy",
        "name": "Drogaria Araujo",
        "id": "way/699483295"
      },
      "geometry": {
        "type": "Polygon",
        "coordinates": [
          [
            [
              -44.0821908,
              -19.9154126
            ],
            [
              -44.0822846,
              -19.9154592
            ],
            [
              -44.0821112,
              -19.9157753
            ],
            [
              -44.0819785,
              -19.9157471
            ],
            [
              -44.0821908,
              -19.9154126
            ]
          ]
        ]
      }
    },
    {
      "type": "Feature",
      "id": "way/1217659237",
      "properties": {
        "timestamp": "2023-10-23T01:35:06Z",
        "version": 1,
        "changeset": 142994421,
        "amenity": "pharmacy",
        "building": "yes",
        "healthcare": "pharmacy",
        "name": "Araujo",
        "id": "way/1217659237"
      },
      "geometry": {
        "type": "Polygon",
        "coordinates": [
          [
            [
              -44.0513621,
              -19.9469994
            ],
            [
              -44.0514627,
              -19.9472352
            ],
            [
              -44.0512991,
              -19.9472957
            ],
            [
              -44.0512253,
              -19.9470221
            ],
            [
              -44.0513621,
              -19.9469994
            ]
          ]
        ]
      }
    },
    {
      "type": "Feature",
      "id": "way/1348729386",
      "properties": {
        "timestamp": "2025-01-05T16:27:06Z",
        "version": 1,
        "changeset": 161027438,
        "addr:city": "Betim",
        "addr:housenumber": "200",
        "addr:postcode": "32677-612",
        "addr:street": "Rua Gentil do Ouro",
        "addr:suburb": "São Caetano",
        "amenity": "pharmacy",
        "brand": "Droga Raia",
        "brand:wikidata": "Q10357101",
        "building": "yes",
        "healthcare": "pharmacy",
        "name": "Droga Raia",
        "id": "way/1348729386"
      },
      "geometry": {
        "type": "Polygon",
        "coordinates": [
          [
            [
              -44.111771,
              -19.9344239
            ],
            [
              -44.1118445,
              -19.9345133
            ],
            [
              -44.1117453,
              -19.9345853
            ],
            [
              -44.1116728,
              -19.93449
            ],
            [
              -44.111771,
              -19.9344239
            ]
          ]
        ]
      }
    },
    {
      "type": "Feature",
      "id": "way/1375463547",
      "properties": {
        "timestamp": "2025-04-07T03:14:12Z",
        "version": 1,
        "changeset": 164614272,
        "addr:city": "Contagem",
        "addr:housenumber": "663",
        "addr:postcode": "32072-170",
        "addr:street": "Rua Refinaria Duque de Caxias",
        "addr:suburb": "Petrolândia",
        "amenity": "pharmacy",
        "brand": "Drogaria Araujo",
        "brand:wikidata": "Q10268807",
        "building": "yes",
        "healthcare": "pharmacy",
        "name": "Drogaria Araujo",
        "id": "way/1375463547"
      },
      "geometry": {
        "type": "Polygon",
        "coordinates": [
          [
            [
              -44.1178085,
              -19.9294755
            ],
            [
              -44.1179146,
              -19.9296894
            ],
            [
              -44.1178085,
              -19.9297359
            ],
            [
              -44.1177024,
              -19.929522
            ],
            [
              -44.1178085,
              -19.9294755
            ]
          ]
        ]
      }
    },
    {
      "type": "Feature",
      "id": "way/1375602977",
      "properties": {
        "timestamp": "2025-04-11T03:56:13Z",
        "version": 2,
        "changeset": 164795519,
        "addr:city": "Contagem",
        "addr:housenumber": "440",
        "addr:postcode": "32015-740",
        "addr:street": "Rua Coronel Augusto Camargos",
        "addr:suburb": "Centro",
        "amenity": "pharmacy",
        "brand": "Droga Raia",
        "brand:wikidata": "Q10357101",
        "building": "yes",
        "healthcare": "pharmacy",
        "name": "Droga Raia",
        "id": "way/1375602977"
      },
      "geometry": {
        "type": "Polygon",
        "coordinates": [
          [
            [
              -44.0840364,
              -19.9180753
            ],
            [
              -44.0840845,
              -19.9183429
            ],
            [
              -44.0839656,
              -19.9183229
            ],
            [
              -44.0839302,
              -19.9180926
            ],
            [
              -44.0840364,
              -19.9180753
            ]
          ]
        ]
      }
    },
    {
      "type": "Feature",
      "id": "way/1375921331",
      "properties": {
        "timestamp": "2025-04-08T18:11:48Z",
        "version": 1,
        "changeset": 164692151,
        "addr:city": "Contagem",
        "addr:housenumber": "127",
        "addr:postcode": "32341-350",
        "addr:street": "Praça Paulo Pinheiro Chagas",
        "addr:suburb": "Novo Eldorado",
        "amenity": "pharmacy",
        "brand": "Droga Raia",
        "brand:wikidata": "Q10357101",
        "building": "yes",
        "healthcare": "pharmacy",
        "name": "Droga Raia",
        "id": "way/1375921331"
      },
      "geometry": {
        "type": "Polygon",
        "coordinates": [
          [
            [
              -44.0526692,
              -19.9373372
            ],
            [
              -44.0528312,
              -19.9373483
            ],
            [
              -44.0528859,
              -19.9374844
            ],
            [
              -44.0527464,
              -19.9375278
            ],
            [
              -44.0526692,
              -19.9373372
            ]
          ]
        ]
      }
    },
    {
      "type": "Feature",
      "id": "node/315970852",
      "properties": {
        "timestamp": "2008-12-01T02:07:59Z",
        "version": 2,
        "changeset": 9818,
        "amenity": "pharmacy",
        "created_by": "Merkaartor 0.12",
        "name": "Drogaria Cinthia",
        "id": "node/315970852"
      },
      "geometry": {
        "type": "Point",
        "coordinates": [
          -44.0831458,
          -19.9318597
        ]
      }
    },
    {
      "type": "Feature",
      "id": "node/320218297",
      "properties": {
        "timestamp": "2008-12-20T16:51:38Z",
        "version": 1,
        "changeset": 505804,
        "amenity": "pharmacy",
        "created_by": "Merkaartor 0.12",
        "id": "node/320218297"
      },
      "geometry": {
        "type": "Point",
        "coordinates": [
          -44.0638661,
          -19.9568966
        ]
      }
    },
    {
      "type": "Feature",
      "id": "node/320228445",
      "properties": {
        "timestamp": "2012-11-18T23:44:09Z",
        "version": 2,
        "changeset": 13926130,
        "amenity": "pharmacy",
        "name": "Droga Norte",
        "id": "node/320228445"
      },
      "geometry": {
        "type": "Point",
        "coordinates": [
          -44.0395545,
          -19.9425457
        ]
      }
    },
    {
      "type": "Feature",
      "id": "node/461425133",
      "properties": {
        "timestamp": "2020-11-04T21:27:09Z",
        "version": 5,
        "changeset": 93563532,
        "addr:city": "contagem",
        "addr:housenumber": "385",
        "addr:postcode": "32013350",
        "addr:street": "Avenida Prefeito Gil Diniz",
        "addr:suburb": "Centro",
        "amenity": "pharmacy",
        "dispensing": "yes",
        "drive_through": "no",
        "healthcare": "pharmacy",
        "name": "Droga Norte",
        "opening_hours": "07:00-23:00",
        "phone": "+553125232229",
        "website": "http://www.droganorte.com.br/",
        "id": "node/461425133"
      },
      "geometry": {
        "type": "Point",
        "coordinates": [
          -44.081831,
          -19.9147443
        ]
      }
    },
    {
      "type": "Feature",
      "id": "node/1307079031",
      "properties": {
        "timestamp": "2011-05-31T18:50:15Z",
        "version": 1,
        "changeset": 8303976,
        "amenity": "pharmacy",
        "id": "node/1307079031"
      },
      "geometry": {
        "type": "Point",
        "coordinates": [
          -44.056643,
          -19.9436369
        ]
      }
    },
    {
      "type": "Feature",
      "id": "node/1832174496",
      "properties": {
        "timestamp": "2012-07-20T15:59:07Z",
        "version": 1,
        "changeset": 12382201,
        "amenity": "pharmacy",
        "name": "Farmácia Santa Rita",
        "id": "node/1832174496"
      },
      "geometry": {
        "type": "Point",
        "coordinates": [
          -44.0151466,
          -19.9662152
        ]
      }
    },
    {
      "type": "Feature",
      "id": "node/1834259848",
      "properties": {
        "timestamp": "2012-07-22T15:09:47Z",
        "version": 1,
        "changeset": 12433948,
        "amenity": "pharmacy",
        "name": "Drogaria Glória",
        "id": "node/1834259848"
      },
      "geometry": {
        "type": "Point",
        "coordinates": [
          -44.0386858,
          -19.971105
        ]
      }
    },
    {
      "type": "Feature",
      "id": "node/1834269001",
      "properties": {
        "timestamp": "2012-07-22T15:16:11Z",
        "version": 1,
        "changeset": 12433948,
        "amenity": "pharmacy",
        "name": "Drogaria Araújo",
        "id": "node/1834269001"
      },
      "geometry": {
        "type": "Point",
        "coordinates": [
          -44.0347779,
          -19.9692899
        ]
      }
    },
    {
      "type": "Feature",
      "id": "node/2022354487",
      "properties": {
        "timestamp": "2019-05-13T17:10:54Z",
        "version": 2,
        "changeset": 70201916,
        "addr:city": "contagem",
        "addr:housenumber": "2600",
        "addr:street": "Avenida João César de Oliveira",
        "addr:suburb": "Eldorado",
        "amenity": "pharmacy",
        "drive_through": "no",
        "name": "Drogaria Araújo",
        "id": "node/2022354487"
      },
      "geometry": {
        "type": "Point",
        "coordinates": [
          -44.0469603,
          -19.939043
        ]
      }
    },
    {
      "type": "Feature",
      "id": "node/2022359832",
      "properties": {
        "timestamp": "2012-11-20T00:33:13Z",
        "version": 1,
        "changeset": 13939718,
        "amenity": "pharmacy",
        "id": "node/2022359832"
      },
      "geometry": {
        "type": "Point",
        "coordinates": [
          -44.0473787,
          -19.9388716
        ]
      }
    },
    {
      "type": "Feature",
      "id": "node/2061910266",
      "properties": {
        "timestamp": "2012-12-11T17:20:05Z",
        "version": 1,
        "changeset": 14240496,
        "amenity": "pharmacy",
        "name": "Drogaria Nova Aliança",
        "id": "node/2061910266"
      },
      "geometry": {
        "type": "Point",
        "coordinates": [
          -44.0199318,
          -19.8390551
        ]
      }
    },
    {
      "type": "Feature",
      "id": "node/5885281486",
      "properties": {
        "timestamp": "2018-09-05T17:52:25Z",
        "version": 1,
        "changeset": 62320157,
        "addr:street": "Avenida Coronel Durval de Barros",
        "amenity": "pharmacy",
        "name": "Drogaria Araújo",
        "name:en": "Drogstory Araújo",
        "opening_hours": "Mo-Su 08:00-22:00",
        "id": "node/5885281486"
      },
      "geometry": {
        "type": "Point",
        "coordinates": [
          -44.066214,
          -19.9758786
        ]
      }
    },
    {
      "type": "Feature",
      "id": "node/6384672162",
      "properties": {
        "timestamp": "2025-02-12T23:50:36Z",
        "version": 3,
        "changeset": 162448678,
        "addr:city": "Contagem",
        "addr:housenumber": "128",
        "addr:postcode": "32073-740",
        "addr:street": "Avenida Tapajós",
        "addr:suburb": "Industrial São Luiz",
        "amenity": "pharmacy",
        "dispensing": "yes",
        "healthcare": "pharmacy",
        "name": "Drogaria Pressão",
        "id": "node/6384672162"
      },
      "geometry": {
        "type": "Point",
        "coordinates": [
          -44.1153853,
          -19.9355729
        ]
      }
    },
    {
      "type": "Feature",
      "id": "node/7108931291",
      "properties": {
        "timestamp": "2020-01-05T12:02:58Z",
        "version": 1,
        "changeset": 79210898,
        "addr:city": "Contagem",
        "addr:housenumber": "384",
        "addr:street": "Rua Leni Amaral",
        "addr:suburb": "Novo Progresso",
        "amenity": "pharmacy",
        "dispensing": "yes",
        "drive_through": "yes",
        "healthcare": "pharmacy",
        "name": "Drogaria Drogagema",
        "phone": "+55 31 3359 7555",
        "wheelchair": "limited",
        "id": "node/7108931291"
      },
      "geometry": {
        "type": "Point",
        "coordinates": [
          -44.019652,
          -19.8929454
        ]
      }
    }
  ]
}
