{
  "type": "FeatureCollection",
  "features": [
    {
      "type": "Feature",
      "id": "way/1270417470",
      "properties": {
        "timestamp": "2024-04-06T18:22:30Z",
        "version": 1,
        "changeset": 149667053,
        "addr:city": "Taió",
        "addr:housenumber": "172",
        "addr:postcode": "89190-000",
        "addr:street": "Rua Walter Schmitz",
        "addr:suburb": "Victor Konder",
        "amenity": "social_facility",
        "name": "PSE - Proteção Social Especial de Média Complexidade",
        "social_facility:for": "homeless",
        "id": "way/1270417470"
      },
      "geometry": {
        "type": "Polygon",
        "coordinates": [
          [
            [
              -50.0046331,
              -27.1155083
            ],
            [
              -50.0046514,
              -27.1156096
            ],
            [
              -50.004442,
              -27.1156313
            ],
            [
              -50.0044278,
              -27.1155282
            ],
            [
              -50.0046331,
              -27.1155083
            ]
          ]
        ]
      }
    }
  ]
}
