{
  "type": "FeatureCollection",
  "features": [
    {
      "type": "Feature",
      "id": "way/252710972",
      "properties": {
        "timestamp": "2023-12-10T20:42:31Z",
        "version": 5,
        "changeset": 144977011,
        "addr:city": "Curitiba",
        "addr:country": "BR",
        "addr:housenumber": "11",
        "addr:postcode": "81510-040",
        "addr:street": "Rua Governador Jorge Lacerda",
        "addr:suburb": "Guabirotuba",
        "email": "pedalebikescuritiba@hotmail.com",
        "internet_access": "wlan",
        "name": "Pedale Bikes",
        "opening_hours": "Mo-Fr 13:00-22:00; Sa 09:00-14:00",
        "phone": "+55 41 4101 8609",
        "service:bicycle:cleaning": "yes",
        "service:bicycle:diy": "no",
        "service:bicycle:pump": "yes",
        "service:bicycle:repair": "yes",
        "service:bicycle:retail": "yes",
        "service:bicycle:second_hand": "yes",
        "shop": "bicycle",
        "website": "http://www.pedalebikes.com/",
        "wheelchair": "yes",
        "id": "way/252710972"
      },
      "geometry": {
        "type": "Polygon",
        "coordinates": [
          [
            [
              -49.2445147,
              -25.4621702
            ],
            [
              -49.2446172,
              -25.4622877
            ],
            [
              -49.2445386,
              -25.4623436
            ],
            [
              -49.244436,
              -25.4622261
            ],
            [
              -49.2445147,
              -25.4621702
            ]
          ]
        ]
      }
    },
    {
      "type": "Feature",
      "id": "way/253920654",
      "properties": {
        "timestamp": "2017-02-12T21:49:06Z",
        "version": 3,
        "changeset": 46031301,
        "addr:housenumber": "3900",
        "addr:street": "Avenida Iguaçu",
        "email": "showbike@showbike.com.br",
        "name": "Show Bike",
        "phone": "+55 (41) 3077-0408",
        "service:bicycle:chain_tool": "yes",
        "service:bicycle:cleaning": "yes",
        "service:bicycle:diy": "no",
        "service:bicycle:pump": "yes",
        "service:bicycle:rental": "no",
        "service:bicycle:repair": "yes",
        "service:bicycle:retail": "yes",
        "service:bicycle:second_hand": "no",
        "shop": "bicycle",
        "website": "http://www.showbike.com.br/",
        "id": "way/253920654"
      },
      "geometry": {
        "type": "Polygon",
        "coordinates": [
          [
            [
              -49.2986495,
              -25.4527255
            ],
            [
              -49.2985826,
              -25.4528727
            ],
            [
              -49.2983423,
              -25.4527858
            ],
            [
              -49.2984126,
              -25.4526387
            ],
            [
              -49.2986495,
              -25.4527255
            ]
          ]
        ]
      }
    },
    {
      "type": "Feature",
      "id": "way/259113297",
      "properties": {
        "timestamp": "2019-10-15T20:53:41Z",
        "version": 2,
        "changeset": 75744066,
        "building": "yes",
        "name": "Bike Service",
        "shop": "bicycle",
        "id": "way/259113297"
      },
      "geometry": {
        "type": "Polygon",
        "coordinates": [
          [
            [
              -49.2762179,
              -25.4512091
            ],
            [
              -49.2761745,
              -25.4513075
            ],
            [
              -49.2760407,
              -25.4512594
            ],
            [
              -49.2760841,
              -25.451161
            ],
            [
              -49.2762179,
              -25.4512091
            ]
          ]
        ]
      }
    },
    {
      "type": "Feature",
      "id": "way/286264898",
      "properties": {
        "timestamp": "2022-07-21T20:38:36Z",
        "version": 2,
        "changeset": 123909334,
        "addr:city": "Curitiba",
        "addr:country": "BR",
        "addr:housenumber": "542",
        "addr:postcode": "81850-000",
        "addr:street": "Rua Eduardo Pinto da Rocha",
        "addr:suburb": "Alto Boqueirão",
        "name": "Cicles Paraná",
        "service:bicycle:cleaning": "yes",
        "service:bicycle:diy": "no",
        "service:bicycle:pump": "yes",
        "service:bicycle:repair": "yes",
        "service:bicycle:retail": "yes",
        "service:bicycle:second_hand": "yes",
        "shop": "bicycle",
        "id": "way/286264898"
      },
      "geometry": {
        "type": "Polygon",
        "coordinates": [
          [
            [
              -49.2426579,
              -25.5356355
            ],
            [
              -49.2426459,
              -25.5356701
            ],
            [
              -49.2425452,
              -25.5356404
            ],
            [
              -49.2425594,
              -25.5356079
            ],
            [
              -49.2426579,
              -25.5356355
            ]
          ]
        ]
      }
    },
    {
      "type": "Feature",
      "id": "way/286268810",
      "properties": {
        "timestamp": "2022-07-30T00:47:06Z",
        "version": 6,
        "changeset": 124251671,
        "addr:city": "Curitiba",
        "addr:country": "BR",
        "addr:housenumber": "1356",
        "addr:postcode": "80045-330",
        "addr:street": "Rua Itupava",
        "addr:suburb": "Alto da Rua XV",
        "building": "yes",
        "email": "baron@baronbikes.com",
        "name": "Baron Bikes",
        "phone": "+55 41 3264 6097",
        "service:bicycle:cleaning": "yes",
        "service:bicycle:diy": "no",
        "service:bicycle:pump": "yes",
        "service:bicycle:rental": "no",
        "service:bicycle:repair": "yes",
        "service:bicycle:retail": "yes",
        "service:bicycle:second_hand": "yes",
        "shop": "bicycle",
        "website": "http://www.baronbikes.com/",
        "id": "way/286268810"
      },
      "geometry": {
        "type": "Polygon",
        "coordinates": [
          [
            [
              -49.2468427,
              -25.4230431
            ],
            [
              -49.2468451,
              -25.4230722
            ],
            [
              -49.2468474,
              -25.4231179
            ],
            [
              -49.2467363,
              -25.4231212
            ],
            [
              -49.2467349,
              -25.423052
            ],
            [
              -49.2468427,
              -25.4230431
            ]
          ]
        ]
      }
    },
    {
      "type": "Feature",
      "id": "way/286271046",
      "properties": {
        "timestamp": "2022-07-30T12:42:55Z",
        "version": 4,
        "changeset": 124266519,
        "addr:city": "Curitiba",
        "addr:country": "BR",
        "addr:street": "Rua Álvaro Botelho",
        "name": "Overall Bikes",
        "phone": "+55 41 3257 9811",
        "service:bicycle:cleaning": "yes",
        "service:bicycle:diy": "no",
        "service:bicycle:pump": "yes",
        "service:bicycle:rental": "no",
        "service:bicycle:repair": "yes",
        "service:bicycle:retail": "yes",
        "service:bicycle:second_hand": "yes",
        "shop": "bicycle",
        "id": "way/286271046"
      },
      "geometry": {
        "type": "Polygon",
        "coordinates": [
          [
            [
              -49.2361327,
              -25.397721
            ],
            [
              -49.236113,
              -25.3977462
            ],
            [
              -49.2360199,
              -25.3976891
            ],
            [
              -49.2360392,
              -25.3976647
            ],
            [
              -49.2361327,
              -25.397721
            ]
          ]
        ]
      }
    },
    {
      "type": "Feature",
      "id": "way/286276832",
      "properties": {
        "timestamp": "2019-03-06T02:58:14Z",
        "version": 5,
        "changeset": 67828187,
        "addr:city": "Curitiba",
        "addr:country": "BR",
        "addr:housenumber": "713",
        "addr:postcode": "80310-100",
        "addr:street": "Avenida Nossa Senhora Aparecida",
        "building": "yes",
        "name": "Biketech",
        "phone": "+55 (41) 3342-5453",
        "service:bicycle:chain_tool": "yes",
        "service:bicycle:cleaning": "yes",
        "service:bicycle:diy": "no",
        "service:bicycle:pump": "yes",
        "service:bicycle:rental": "no",
        "service:bicycle:repair": "yes",
        "service:bicycle:retail": "yes",
        "service:bicycle:second_hand": "yes",
        "shop": "bicycle",
        "website": "https://www.biketechcuritiba.com.br/",
        "id": "way/286276832"
      },
      "geometry": {
        "type": "Polygon",
        "coordinates": [
          [
            [
              -49.3055732,
              -25.4495419
            ],
            [
              -49.3056069,
              -25.4498917
            ],
            [
              -49.3054761,
              -25.449902
            ],
            [
              -49.3054505,
              -25.4496399
            ],
            [
              -49.3054446,
              -25.4495665
            ],
            [
              -49.3054428,
              -25.4495522
            ],
            [
              -49.3055732,
              -25.4495419
            ]
          ]
        ]
      }
    },
    {
      "type": "Feature",
      "id": "way/286278278",
      "properties": {
        "timestamp": "2019-09-26T17:32:07Z",
        "version": 4,
        "changeset": 74975211,
        "addr:city": "Curitiba",
        "addr:country": "BR",
        "addr:housenumber": "2639",
        "addr:postcode": "80730-000",
        "addr:street": "Rua Padre Anchieta",
        "name": "Bike Trip",
        "service:bicycle:cleaning": "yes",
        "service:bicycle:diy": "no",
        "service:bicycle:pump": "yes",
        "service:bicycle:rental": "no",
        "service:bicycle:repair": "yes",
        "service:bicycle:retail": "yes",
        "service:bicycle:second_hand": "yes",
        "shop": "bicycle",
        "id": "way/286278278"
      },
      "geometry": {
        "type": "Polygon",
        "coordinates": [
          [
            [
              -49.3039494,
              -25.4350175
            ],
            [
              -49.30399,
              -25.4350323
            ],
            [
              -49.3039485,
              -25.4351077
            ],
            [
              -49.3039068,
              -25.4350917
            ],
            [
              -49.3039494,
              -25.4350175
            ]
          ]
        ]
      }
    },
    {
      "type": "Feature",
      "id": "way/286280798",
      "properties": {
        "timestamp": "2023-03-16T05:00:10Z",
        "version": 5,
        "changeset": 133732866,
        "addr:city": "Curitiba",
        "addr:country": "BR",
        "addr:housenumber": "1377",
        "addr:postcode": "80710-570",
        "addr:street": "Avenida Cândido Hartmann",
        "addr:suburb": "Bigorrilho",
        "email": "contato@konatrishop.com.br",
        "name": "Kona",
        "phone": "+55 41 3022 8324",
        "service:bicycle:cleaning": "no",
        "service:bicycle:diy": "no",
        "service:bicycle:pump": "no",
        "service:bicycle:rental": "no",
        "service:bicycle:repair": "no",
        "service:bicycle:retail": "yes",
        "service:bicycle:second_hand": "no",
        "shop": "bicycle",
        "website": "https://www.konatrishop.com.br",
        "id": "way/286280798"
      },
      "geometry": {
        "type": "Polygon",
        "coordinates": [
          [
            [
              -49.2989339,
              -25.4270201
            ],
            [
              -49.2990236,
              -25.4270503
            ],
            [
              -49.298971,
              -25.4271129
            ],
            [
              -49.2988527,
              -25.4270708
            ],
            [
              -49.2989339,
              -25.4270201
            ]
          ]
        ]
      }
    },
    {
      "type": "Feature",
      "id": "way/286282878",
      "properties": {
        "timestamp": "2023-03-16T20:54:04Z",
        "version": 4,
        "changeset": 133765153,
        "addr:city": "Curitiba",
        "addr:country": "BR",
        "addr:housename": "Brychta",
        "addr:housenumber": "716",
        "addr:postcode": "80730-290",
        "addr:street": "Rua Jerônimo Durski",
        "addr:suburb": "Bigorrilho",
        "name": "Brychta Bikes",
        "phone": "+55 41 3092 4155",
        "service:bicycle:cleaning": "yes",
        "service:bicycle:diy": "no",
        "service:bicycle:pump": "yes",
        "service:bicycle:rental": "no",
        "service:bicycle:repair": "yes",
        "service:bicycle:retail": "yes",
        "service:bicycle:second_hand": "no",
        "shop": "bicycle",
        "website": "https://www.brychtabikes.com.br/",
        "id": "way/286282878"
      },
      "geometry": {
        "type": "Polygon",
        "coordinates": [
          [
            [
              -49.298869,
              -25.4400015
            ],
            [
              -49.2990046,
              -25.440058
            ],
            [
              -49.2989628,
              -25.4401398
            ],
            [
              -49.2988272,
              -25.4400833
            ],
            [
              -49.298869,
              -25.4400015
            ]
          ]
        ]
      }
    },
    {
      "type": "Feature",
      "id": "way/286295028",
      "properties": {
        "timestamp": "2023-02-17T20:01:37Z",
        "version": 4,
        "changeset": 132692644,
        "addr:city": "Curitiba",
        "addr:country": "BR",
        "addr:housenumber": "31",
        "addr:postcode": "82560-020",
        "addr:street": "Rua João Havro",
        "addr:suburb": "Boa Vista",
        "name": "Klemba",
        "phone": "+55 41 3598 6636",
        "service:bicycle:cleaning": "yes",
        "service:bicycle:diy": "no",
        "service:bicycle:pump": "yes",
        "service:bicycle:rental": "no",
        "service:bicycle:repair": "yes",
        "service:bicycle:retail": "yes",
        "service:bicycle:second_hand": "yes",
        "shop": "bicycle",
        "id": "way/286295028"
      },
      "geometry": {
        "type": "Polygon",
        "coordinates": [
          [
            [
              -49.2413564,
              -25.3936838
            ],
            [
              -49.2414382,
              -25.3937709
            ],
            [
              -49.2413969,
              -25.3938053
            ],
            [
              -49.2413183,
              -25.3937131
            ],
            [
              -49.2413564,
              -25.3936838
            ]
          ]
        ]
      }
    },
    {
      "type": "Feature",
      "id": "way/286297906",
      "properties": {
        "timestamp": "2023-04-06T05:18:04Z",
        "version": 4,
        "changeset": 134561010,
        "addr:city": "Curitiba",
        "addr:country": "BR",
        "addr:housenumber": "791",
        "addr:postcode": "81650-210",
        "addr:street": "Rua Napoleão Laureano",
        "addr:suburb": "Boqueirão",
        "name": "Cidadania Bike",
        "phone": "+55 41 3377 1657",
        "service:bicycle:cleaning": "yes",
        "service:bicycle:diy": "no",
        "service:bicycle:pump": "yes",
        "service:bicycle:rental": "no",
        "service:bicycle:repair": "yes",
        "service:bicycle:retail": "yes",
        "service:bicycle:second_hand": "yes",
        "shop": "bicycle",
        "id": "way/286297906"
      },
      "geometry": {
        "type": "Polygon",
        "coordinates": [
          [
            [
              -49.23562,
              -25.5005388
            ],
            [
              -49.2355764,
              -25.5006226
            ],
            [
              -49.2355103,
              -25.5005972
            ],
            [
              -49.2355567,
              -25.5005147
            ],
            [
              -49.23562,
              -25.5005388
            ]
          ]
        ]
      }
    },
    {
      "type": "Feature",
      "id": "way/286298314",
      "properties": {
        "timestamp": "2023-04-01T05:01:06Z",
        "version": 4,
        "changeset": 134367943,
        "addr:city": "Curitiba",
        "addr:country": "BR",
        "addr:housenumber": "2487",
        "addr:postcode": "81730-080",
        "addr:street": "Rua William Booth",
        "addr:suburb": "Boqueirão",
        "name": "Cicles Deconto",
        "phone": "+55 41 3286 1714",
        "service:bicycle:cleaning": "yes",
        "service:bicycle:diy": "no",
        "service:bicycle:pump": "yes",
        "service:bicycle:rental": "no",
        "service:bicycle:repair": "yes",
        "service:bicycle:retail": "yes",
        "service:bicycle:second_hand": "yes",
        "shop": "bicycle",
        "id": "way/286298314"
      },
      "geometry": {
        "type": "Polygon",
        "coordinates": [
          [
            [
              -49.2227802,
              -25.508739
            ],
            [
              -49.2227364,
              -25.508828
            ],
            [
              -49.2226076,
              -25.5087763
            ],
            [
              -49.2226514,
              -25.5086874
            ],
            [
              -49.2227802,
              -25.508739
            ]
          ]
        ]
      }
    },
    {
      "type": "Feature",
      "id": "way/286299912",
      "properties": {
        "timestamp": "2023-04-09T06:04:04Z",
        "version": 5,
        "changeset": 134674786,
        "addr:city": "Curitiba",
        "addr:country": "BR",
        "addr:housenumber": "1595",
        "addr:postcode": "81670-080",
        "addr:street": "Rua Professor João Soares Barcelos",
        "addr:suburb": "Boqueirão",
        "name": "Paraciclo",
        "phone": "+55 41 3376 4098",
        "service:bicycle:cleaning": "yes",
        "service:bicycle:diy": "no",
        "service:bicycle:pump": "yes",
        "service:bicycle:rental": "no",
        "service:bicycle:repair": "yes",
        "service:bicycle:retail": "no",
        "service:bicycle:second_hand": "yes",
        "shop": "bicycle",
        "id": "way/286299912"
      },
      "geometry": {
        "type": "Polygon",
        "coordinates": [
          [
            [
              -49.2510767,
              -25.4874552
            ],
            [
              -49.2510317,
              -25.4875443
            ],
            [
              -49.2509054,
              -25.4874923
            ],
            [
              -49.2509504,
              -25.4874032
            ],
            [
              -49.2510767,
              -25.4874552
            ]
          ]
        ]
      }
    },
    {
      "type": "Feature",
      "id": "way/286301145",
      "properties": {
        "timestamp": "2023-04-01T04:28:52Z",
        "version": 5,
        "changeset": 134367633,
        "addr:city": "Curitiba",
        "addr:country": "BR",
        "addr:housenumber": "384",
        "addr:postcode": "81650-220",
        "addr:street": "Rua Antônio Schiebel",
        "addr:suburb": "Boqueirão",
        "name": "Pedal Livre",
        "phone": "+55 41 3276 4917",
        "service:bicycle:cleaning": "yes",
        "service:bicycle:diy": "no",
        "service:bicycle:pump": "yes",
        "service:bicycle:rental": "no",
        "service:bicycle:repair": "yes",
        "service:bicycle:retail": "no",
        "service:bicycle:second_hand": "yes",
        "shop": "bicycle",
        "id": "way/286301145"
      },
      "geometry": {
        "type": "Polygon",
        "coordinates": [
          [
            [
              -49.2302133,
              -25.4957898
            ],
            [
              -49.2301801,
              -25.4958618
            ],
            [
              -49.2301362,
              -25.4958453
            ],
            [
              -49.2301694,
              -25.4957733
            ],
            [
              -49.2302133,
              -25.4957898
            ]
          ]
        ]
      }
    },
    {
      "type": "Feature",
      "id": "way/286316578",
      "properties": {
        "timestamp": "2023-03-29T23:21:47Z",
        "version": 6,
        "changeset": 134282049,
        "addr:city": "Curitiba",
        "addr:country": "BR",
        "addr:housenumber": "2690",
        "addr:postcode": "81750-400",
        "addr:street": "Rua Maestro Carlos Frank",
        "addr:suburb": "Boqueirão",
        "building": "commercial",
        "email": "velobikes@r7.com",
        "name": "Velo Bikes",
        "phone": "+55 41 3286 5153",
        "service:bicycle:cleaning": "yes",
        "service:bicycle:diy": "no",
        "service:bicycle:pump": "yes",
        "service:bicycle:rental": "no",
        "service:bicycle:repair": "yes",
        "service:bicycle:retail": "yes",
        "service:bicycle:second_hand": "yes",
        "shop": "bicycle",
        "website": "https://www.velobikes.com.br/",
        "id": "way/286316578"
      },
      "geometry": {
        "type": "Polygon",
        "coordinates": [
          [
            [
              -49.2437135,
              -25.5228941
            ],
            [
              -49.2436138,
              -25.5230933
            ],
            [
              -49.2434933,
              -25.5230442
            ],
            [
              -49.2435929,
              -25.522845
            ],
            [
              -49.2437135,
              -25.5228941
            ]
          ]
        ]
      }
    },
    {
      "type": "Feature",
      "id": "way/286318719",
      "properties": {
        "timestamp": "2014-07-27T01:19:00Z",
        "version": 2,
        "changeset": 24376769,
        "addr:city": "Curitiba",
        "addr:country": "BR",
        "addr:housenumber": "7990",
        "addr:street": "Avenida Manoel Ribas",
        "name": "Bicicletaria",
        "service:bicycle:cleaning": "yes",
        "service:bicycle:diy": "no",
        "service:bicycle:pump": "yes",
        "service:bicycle:rental": "no",
        "service:bicycle:repair": "yes",
        "service:bicycle:retail": "no",
        "service:bicycle:second_hand": "yes",
        "shop": "bicycle",
        "id": "way/286318719"
      },
      "geometry": {
        "type": "Polygon",
        "coordinates": [
          [
            [
              -49.3460539,
              -25.3959586
            ],
            [
              -49.3460139,
              -25.3959843
            ],
            [
              -49.3459536,
              -25.3959075
            ],
            [
              -49.3459937,
              -25.3958818
            ],
            [
              -49.3460539,
              -25.3959586
            ]
          ]
        ]
      }
    },
    {
      "type": "Feature",
      "id": "way/286319822",
      "properties": {
        "timestamp": "2018-12-29T11:04:22Z",
        "version": 3,
        "changeset": 65862316,
        "addr:city": "Curitiba",
        "addr:country": "BR",
        "addr:housenumber": "1180",
        "addr:street": "Rua da Trindade",
        "name": "Cicles Lourenço",
        "service:bicycle:cleaning": "yes",
        "service:bicycle:diy": "no",
        "service:bicycle:pump": "yes",
        "service:bicycle:rental": "no",
        "service:bicycle:repair": "yes",
        "service:bicycle:retail": "no",
        "service:bicycle:second_hand": "yes",
        "shop": "bicycle",
        "id": "way/286319822"
      },
      "geometry": {
        "type": "Polygon",
        "coordinates": [
          [
            [
              -49.2030824,
              -25.4536341
            ],
            [
              -49.2031652,
              -25.4536562
            ],
            [
              -49.2031478,
              -25.4536995
            ],
            [
              -49.2030632,
              -25.4536774
            ],
            [
              -49.2030824,
              -25.4536341
            ]
          ]
        ]
      }
    },
    {
      "type": "Feature",
      "id": "way/286321518",
      "properties": {
        "timestamp": "2018-12-29T11:04:22Z",
        "version": 3,
        "changeset": 65862316,
        "addr:city": "Curitiba",
        "addr:country": "BR",
        "addr:housenumber": "447",
        "addr:street": "Rua Professor Jose Demeterco",
        "name": "Bicicletaria",
        "service:bicycle:cleaning": "yes",
        "service:bicycle:diy": "no",
        "service:bicycle:pump": "yes",
        "service:bicycle:rental": "no",
        "service:bicycle:repair": "yes",
        "service:bicycle:retail": "no",
        "service:bicycle:second_hand": "yes",
        "shop": "bicycle",
        "id": "way/286321518"
      },
      "geometry": {
        "type": "Polygon",
        "coordinates": [
          [
            [
              -49.2243972,
              -25.4473993
            ],
            [
              -49.2244165,
              -25.4474347
            ],
            [
              -49.2243601,
              -25.4474587
            ],
            [
              -49.2243403,
              -25.4474229
            ],
            [
              -49.2243972,
              -25.4473993
            ]
          ]
        ]
      }
    },
    {
      "type": "Feature",
      "id": "way/286322748",
      "properties": {
        "timestamp": "2018-12-29T11:04:23Z",
        "version": 2,
        "changeset": 65862316,
        "addr:city": "Curitiba",
        "addr:country": "BR",
        "addr:housenumber": "782",
        "addr:street": "Rua dos Ferroviários",
        "name": "Mega Bike",
        "service:bicycle:cleaning": "yes",
        "service:bicycle:diy": "no",
        "service:bicycle:pump": "yes",
        "service:bicycle:rental": "no",
        "service:bicycle:repair": "yes",
        "service:bicycle:retail": "no",
        "service:bicycle:second_hand": "yes",
        "shop": "bicycle",
        "id": "way/286322748"
      },
      "geometry": {
        "type": "Polygon",
        "coordinates": [
          [
            [
              -49.2073128,
              -25.4505282
            ],
            [
              -49.2072692,
              -25.4506459
            ],
            [
              -49.2070893,
              -25.4505916
            ],
            [
              -49.2071329,
              -25.4504738
            ],
            [
              -49.2073128,
              -25.4505282
            ]
          ]
        ]
      }
    },
    {
      "type": "Feature",
      "id": "way/286327245",
      "properties": {
        "timestamp": "2014-06-04T20:15:36Z",
        "version": 1,
        "changeset": 22742543,
        "addr:city": "Curitiba",
        "addr:country": "BR",
        "addr:housenumber": "385",
        "addr:street": "Rua Filipinas",
        "name": "Up Hill América Bikes",
        "service:bicycle:cleaning": "yes",
        "service:bicycle:diy": "no",
        "service:bicycle:pump": "yes",
        "service:bicycle:rental": "no",
        "service:bicycle:repair": "yes",
        "service:bicycle:retail": "no",
        "service:bicycle:second_hand": "yes",
        "shop": "bicycle",
        "id": "way/286327245"
      },
      "geometry": {
        "type": "Polygon",
        "coordinates": [
          [
            [
              -49.209067,
              -25.4669091
            ],
            [
              -49.2090428,
              -25.4669908
            ],
            [
              -49.2089721,
              -25.4669737
            ],
            [
              -49.2089963,
              -25.4668921
            ],
            [
              -49.209067,
              -25.4669091
            ]
          ]
        ]
      }
    },
    {
      "type": "Feature",
      "id": "way/286330540",
      "properties": {
        "timestamp": "2019-09-30T13:19:45Z",
        "version": 2,
        "changeset": 75101148,
        "addr:city": "Curitiba",
        "addr:country": "BR",
        "addr:housenumber": "4749",
        "addr:street": "Rua Eduardo Sprada",
        "name": "Nova Bike",
        "service:bicycle:cleaning": "yes",
        "service:bicycle:diy": "no",
        "service:bicycle:pump": "yes",
        "service:bicycle:rental": "no",
        "service:bicycle:repair": "yes",
        "service:bicycle:retail": "no",
        "service:bicycle:second_hand": "yes",
        "shop": "bicycle",
        "id": "way/286330540"
      },
      "geometry": {
        "type": "Polygon",
        "coordinates": [
          [
            [
              -49.3503014,
              -25.4482801
            ],
            [
              -49.3502527,
              -25.4483375
            ],
            [
              -49.3502143,
              -25.4483106
            ],
            [
              -49.3502635,
              -25.4482547
            ],
            [
              -49.3503014,
              -25.4482801
            ]
          ]
        ]
      }
    },
    {
      "type": "Feature",
      "id": "way/286332518",
      "properties": {
        "timestamp": "2023-09-02T19:03:59Z",
        "version": 4,
        "changeset": 140732645,
        "addr:city": "Curitiba",
        "addr:country": "BR",
        "addr:housenumber": "696",
        "addr:postcode": "82810-460",
        "addr:street": "Rua Paulo Kissula",
        "addr:suburb": "Capão da Imbuia",
        "name": "Casa das Bicicletas",
        "phone": "+55 41 3092 5996",
        "service:bicycle:cleaning": "yes",
        "service:bicycle:diy": "no",
        "service:bicycle:pump": "yes",
        "service:bicycle:rental": "no",
        "service:bicycle:repair": "yes",
        "service:bicycle:retail": "no",
        "service:bicycle:second_hand": "yes",
        "shop": "bicycle",
        "id": "way/286332518"
      },
      "geometry": {
        "type": "Polygon",
        "coordinates": [
          [
            [
              -49.2056482,
              -25.4383112
            ],
            [
              -49.2056923,
              -25.4383949
            ],
            [
              -49.2056012,
              -25.4384341
            ],
            [
              -49.2055571,
              -25.4383504
            ],
            [
              -49.2056482,
              -25.4383112
            ]
          ]
        ]
      }
    },
    {
      "type": "Feature",
      "id": "way/286815601",
      "properties": {
        "timestamp": "2022-07-30T12:42:55Z",
        "version": 3,
        "changeset": 124266519,
        "addr:city": "Curitiba",
        "addr:country": "BR",
        "addr:housenumber": "5207",
        "addr:street": "Avenida Presidente Affonso Camargo",
        "name": "Cicles Kusman",
        "phone": "+55 41 3267 8827",
        "service:bicycle:cleaning": "yes",
        "service:bicycle:diy": "no",
        "service:bicycle:pump": "yes",
        "service:bicycle:rental": "no",
        "service:bicycle:repair": "yes",
        "service:bicycle:retail": "yes",
        "service:bicycle:second_hand": "yes",
        "shop": "bicycle",
        "id": "way/286815601"
      },
      "geometry": {
        "type": "Polygon",
        "coordinates": [
          [
            [
              -49.213158,
              -25.4430024
            ],
            [
              -49.213232,
              -25.4431556
            ],
            [
              -49.2131348,
              -25.4431654
            ],
            [
              -49.2130654,
              -25.4430358
            ],
            [
              -49.213158,
              -25.4430024
            ]
          ]
        ]
      }
    },
    {
      "type": "Feature",
      "id": "way/287562119",
      "properties": {
        "timestamp": "2022-07-30T00:20:56Z",
        "version": 3,
        "changeset": 124251457,
        "addr:city": "Curitiba",
        "addr:country": "BR",
        "addr:housenumber": "3251",
        "addr:street": "Rua José Alcides de Lima",
        "name": "EJK Bicicletas",
        "phone": "+55 41 3247 7904",
        "service:bicycle:cleaning": "yes",
        "service:bicycle:diy": "no",
        "service:bicycle:pump": "yes",
        "service:bicycle:rental": "no",
        "service:bicycle:repair": "yes",
        "service:bicycle:retail": "no",
        "service:bicycle:second_hand": "yes",
        "shop": "bicycle",
        "id": "way/287562119"
      },
      "geometry": {
        "type": "Polygon",
        "coordinates": [
          [
            [
              -49.3060979,
              -25.5157386
            ],
            [
              -49.306094,
              -25.5158094
            ],
            [
              -49.305996,
              -25.5158076
            ],
            [
              -49.3060018,
              -25.5157315
            ],
            [
              -49.3060979,
              -25.5157386
            ]
          ]
        ]
      }
    },
    {
      "type": "Feature",
      "id": "way/287568003",
      "properties": {
        "timestamp": "2023-09-06T20:06:01Z",
        "version": 3,
        "changeset": 140911249,
        "addr:city": "Curitiba",
        "addr:country": "BR",
        "addr:housenumber": "517",
        "addr:postcode": "81110-260",
        "addr:street": "Rua Marechal Althayr Roszanniy",
        "addr:suburb": "Capão Raso",
        "name": "Filais",
        "service:bicycle:cleaning": "yes",
        "service:bicycle:diy": "no",
        "service:bicycle:pump": "yes",
        "service:bicycle:rental": "no",
        "service:bicycle:repair": "yes",
        "service:bicycle:retail": "no",
        "service:bicycle:second_hand": "yes",
        "shop": "bicycle",
        "id": "way/287568003"
      },
      "geometry": {
        "type": "Polygon",
        "coordinates": [
          [
            [
              -49.2888425,
              -25.5034379
            ],
            [
              -49.2888222,
              -25.5035333
            ],
            [
              -49.2886996,
              -25.503514
            ],
            [
              -49.2887198,
              -25.5034166
            ],
            [
              -49.2888425,
              -25.5034379
            ]
          ]
        ]
      }
    },
    {
      "type": "Feature",
      "id": "way/288486525",
      "properties": {
        "timestamp": "2022-07-30T12:42:55Z",
        "version": 5,
        "changeset": 124266519,
        "addr:city": "Curitiba",
        "addr:country": "BR",
        "addr:housenumber": "1118",
        "addr:street": "Avenida Cândido Hartmann",
        "name": "Hunger Bikes",
        "phone": "+55 41 3336 0785",
        "service:bicycle:cleaning": "yes",
        "service:bicycle:diy": "no",
        "service:bicycle:pump": "yes",
        "service:bicycle:rental": "no",
        "service:bicycle:repair": "yes",
        "service:bicycle:retail": "yes",
        "service:bicycle:second_hand": "yes",
        "shop": "bicycle",
        "website": "https://www.hungerbikes.com.br/",
        "id": "way/288486525"
      },
      "geometry": {
        "type": "Polygon",
        "coordinates": [
          [
            [
              -49.2964868,
              -25.4277817
            ],
            [
              -49.2965684,
              -25.4279217
            ],
            [
              -49.2964774,
              -25.4279649
            ],
            [
              -49.2963958,
              -25.4278249
            ],
            [
              -49.2964868,
              -25.4277817
            ]
          ]
        ]
      }
    },
    {
      "type": "Feature",
      "id": "way/290249410",
      "properties": {
        "timestamp": "2023-10-25T04:09:03Z",
        "version": 3,
        "changeset": 143092730,
        "addr:city": "Curitiba",
        "addr:country": "BR",
        "addr:housenumber": "25",
        "addr:postcode": "81305-185",
        "addr:street": "Rua Antônio de Oliveira Santos",
        "addr:suburb": "Cidade Industrial de Curitiba",
        "name": "Cicles Central",
        "phone": "+55 41 3346 1989",
        "service:bicycle:cleaning": "yes",
        "service:bicycle:diy": "no",
        "service:bicycle:pump": "yes",
        "service:bicycle:rental": "no",
        "service:bicycle:repair": "yes",
        "service:bicycle:retail": "yes",
        "service:bicycle:second_hand": "yes",
        "shop": "bicycle",
        "id": "way/290249410"
      },
      "geometry": {
        "type": "Polygon",
        "coordinates": [
          [
            [
              -49.3251551,
              -25.5088311
            ],
            [
              -49.3251777,
              -25.5089028
            ],
            [
              -49.3250657,
              -25.5089315
            ],
            [
              -49.3250432,
              -25.5088598
            ],
            [
              -49.3251551,
              -25.5088311
            ]
          ]
        ]
      }
    },
    {
      "type": "Feature",
      "id": "way/290618920",
      "properties": {
        "timestamp": "2014-07-01T00:35:33Z",
        "version": 1,
        "changeset": 23402506,
        "addr:city": "Curitiba",
        "addr:country": "BR",
        "addr:housenumber": "365",
        "addr:street": "Rua Emília Chopacz",
        "name": "Cicles Leomar",
        "service:bicycle:cleaning": "yes",
        "service:bicycle:diy": "no",
        "service:bicycle:pump": "yes",
        "service:bicycle:rental": "no",
        "service:bicycle:repair": "yes",
        "service:bicycle:retail": "yes",
        "service:bicycle:second_hand": "yes",
        "shop": "bicycle",
        "id": "way/290618920"
      },
      "geometry": {
        "type": "Polygon",
        "coordinates": [
          [
            [
              -49.3523083,
              -25.4531832
            ],
            [
              -49.3523027,
              -25.4532099
            ],
            [
              -49.3522649,
              -25.4532074
            ],
            [
              -49.3522667,
              -25.4531791
            ],
            [
              -49.3523083,
              -25.4531832
            ]
          ]
        ]
      }
    },
    {
      "type": "Feature",
      "id": "way/292720230",
      "properties": {
        "timestamp": "2022-07-30T12:42:55Z",
        "version": 2,
        "changeset": 124266519,
        "addr:city": "Curitiba",
        "addr:country": "BR",
        "addr:housenumber": "121",
        "addr:street": "Rua Desembargador Cid Campelo",
        "name": "Cicles Vain",
        "phone": "+55 41 3026 0365",
        "service:bicycle:cleaning": "yes",
        "service:bicycle:diy": "no",
        "service:bicycle:pump": "yes",
        "service:bicycle:rental": "no",
        "service:bicycle:repair": "yes",
        "service:bicycle:retail": "yes",
        "service:bicycle:second_hand": "yes",
        "shop": "bicycle",
        "id": "way/292720230"
      },
      "geometry": {
        "type": "Polygon",
        "coordinates": [
          [
            [
              -49.3380208,
              -25.4988573
            ],
            [
              -49.3381196,
              -25.4988573
            ],
            [
              -49.3381192,
              -25.4989018
            ],
            [
              -49.3380208,
              -25.4989018
            ],
            [
              -49.3380208,
              -25.4988573
            ]
          ]
        ]
      }
    },
    {
      "type": "Feature",
      "id": "way/292877996",
      "properties": {
        "timestamp": "2022-07-30T00:20:56Z",
        "version": 3,
        "changeset": 124251457,
        "addr:city": "Curitiba",
        "addr:country": "BR",
        "addr:housenumber": "3916",
        "addr:street": "Rua Desembargador Cid Campelo",
        "name": "Bike Sstaff",
        "phone": "+55 41 3327 6573",
        "service:bicycle:cleaning": "yes",
        "service:bicycle:diy": "no",
        "service:bicycle:pump": "yes",
        "service:bicycle:rental": "no",
        "service:bicycle:repair": "yes",
        "service:bicycle:retail": "yes",
        "service:bicycle:second_hand": "yes",
        "shop": "bicycle",
        "id": "way/292877996"
      },
      "geometry": {
        "type": "Polygon",
        "coordinates": [
          [
            [
              -49.3297743,
              -25.5138837
            ],
            [
              -49.3297219,
              -25.5139279
            ],
            [
              -49.3296161,
              -25.5138259
            ],
            [
              -49.3296685,
              -25.5137817
            ],
            [
              -49.3297743,
              -25.5138837
            ]
          ]
        ]
      }
    },
    {
      "type": "Feature",
      "id": "way/296788575",
      "properties": {
        "timestamp": "2022-07-30T12:42:55Z",
        "version": 2,
        "changeset": 124266519,
        "addr:city": "Curitiba",
        "addr:country": "BR",
        "addr:housenumber": "2119",
        "addr:street": "Rua Maestro Francisco Antonello",
        "name": "Cicles Radar",
        "phone": "+55 41 3026 5772",
        "service:bicycle:cleaning": "yes",
        "service:bicycle:diy": "no",
        "service:bicycle:pump": "yes",
        "service:bicycle:rental": "no",
        "service:bicycle:repair": "yes",
        "service:bicycle:retail": "yes",
        "service:bicycle:second_hand": "yes",
        "shop": "bicycle",
        "website": "www.ciclesradar.com.br",
        "id": "way/296788575"
      },
      "geometry": {
        "type": "Polygon",
        "coordinates": [
          [
            [
              -49.2741391,
              -25.4877383
            ],
            [
              -49.274009,
              -25.487825
            ],
            [
              -49.273941,
              -25.4877528
            ],
            [
              -49.2740751,
              -25.4876607
            ],
            [
              -49.2741391,
              -25.4877383
            ]
          ]
        ]
      }
    },
    {
      "type": "Feature",
      "id": "way/299278120",
      "properties": {
        "timestamp": "2023-11-25T20:13:35Z",
        "version": 3,
        "changeset": 144452353,
        "addr:city": "Curitiba",
        "addr:country": "BR",
        "addr:housename": "Loja 02",
        "addr:housenumber": "847",
        "addr:street": "Rua Arnaldo Thá",
        "building": "commercial",
        "name": "New Center Bike",
        "phone": "+55 41 3288 1112",
        "service:bicycle:cleaning": "yes",
        "service:bicycle:diy": "no",
        "service:bicycle:pump": "yes",
        "service:bicycle:rental": "no",
        "service:bicycle:repair": "yes",
        "service:bicycle:retail": "no",
        "service:bicycle:second_hand": "yes",
        "shop": "bicycle",
        "id": "way/299278120"
      },
      "geometry": {
        "type": "Polygon",
        "coordinates": [
          [
            [
              -49.3324078,
              -25.4839248
            ],
            [
              -49.3323243,
              -25.4840135
            ],
            [
              -49.3322358,
              -25.4839496
            ],
            [
              -49.3323233,
              -25.4838609
            ],
            [
              -49.3324078,
              -25.4839248
            ]
          ]
        ]
      }
    },
    {
      "type": "Feature",
      "id": "way/360357834",
      "properties": {
        "timestamp": "2023-12-10T20:42:31Z",
        "version": 3,
        "changeset": 144977011,
        "addr:city": "Curitiba",
        "addr:country": "BR",
        "addr:housenumber": "2888",
        "addr:postcode": "81270-730",
        "addr:state": "Paraná",
        "addr:street": "Avenida Comendador Franco",
        "addr:suburb": "Guabirotuba",
        "building": "yes",
        "name": "BK Bikes",
        "service:bicycle:chain_tool": "yes",
        "service:bicycle:cleaning": "yes",
        "service:bicycle:diy": "no",
        "service:bicycle:pump": "yes",
        "service:bicycle:rental": "no",
        "service:bicycle:repair": "yes",
        "service:bicycle:retail": "no",
        "service:bicycle:second_hand": "yes",
        "shop": "bicycle",
        "id": "way/360357834"
      },
      "geometry": {
        "type": "Polygon",
        "coordinates": [
          [
            [
              -49.2393757,
              -25.459013
            ],
            [
              -49.2392933,
              -25.4589621
            ],
            [
              -49.2393311,
              -25.4589123
            ],
            [
              -49.2394134,
              -25.4589631
            ],
            [
              -49.2393757,
              -25.459013
            ]
          ]
        ]
      }
    },
    {
      "type": "Feature",
      "id": "way/413027657",
      "properties": {
        "timestamp": "2023-07-09T05:21:29Z",
        "version": 4,
        "changeset": 138283975,
        "addr:housenumber": "2200",
        "addr:street": "Rua General Mário Tourinho",
        "building": "yes",
        "name": "Heusi",
        "shop": "bicycle",
        "id": "way/413027657"
      },
      "geometry": {
        "type": "Polygon",
        "coordinates": [
          [
            [
              -49.3105452,
              -25.4336699
            ],
            [
              -49.3104833,
              -25.4337286
            ],
            [
              -49.3104089,
              -25.433667
            ],
            [
              -49.3104709,
              -25.4336034
            ],
            [
              -49.3105452,
              -25.4336699
            ]
          ]
        ]
      }
    },
    {
      "type": "Feature",
      "id": "way/421833186",
      "properties": {
        "timestamp": "2023-07-06T17:47:00Z",
        "version": 2,
        "changeset": 138198506,
        "name": "Pedale Bikes",
        "shop": "bicycle",
        "id": "way/421833186"
      },
      "geometry": {
        "type": "Polygon",
        "coordinates": [
          [
            [
              -49.311867,
              -25.4323409
            ],
            [
              -49.3118456,
              -25.4324983
            ],
            [
              -49.3115103,
              -25.432462
            ],
            [
              -49.3113586,
              -25.4325444
            ],
            [
              -49.3112017,
              -25.4323312
            ],
            [
              -49.3113198,
              -25.4322669
            ],
            [
              -49.311867,
              -25.4323409
            ]
          ]
        ]
      }
    },
    {
      "type": "Feature",
      "id": "way/697040660",
      "properties": {
        "timestamp": "2022-04-26T01:43:18Z",
        "version": 3,
        "changeset": 120188755,
        "building": "commercial",
        "name": "Duas Rodas - Levi",
        "second_hand": "yes",
        "shop": "bicycle",
        "id": "way/697040660"
      },
      "geometry": {
        "type": "Polygon",
        "coordinates": [
          [
            [
              -49.2099879,
              -25.4645453
            ],
            [
              -49.2099564,
              -25.4646333
            ],
            [
              -49.2098512,
              -25.4646063
            ],
            [
              -49.2098852,
              -25.4645136
            ],
            [
              -49.2099879,
              -25.4645453
            ]
          ]
        ]
      }
    },
    {
      "type": "Feature",
      "id": "way/699419675",
      "properties": {
        "timestamp": "2019-06-24T13:48:41Z",
        "version": 1,
        "changeset": 71562354,
        "addr:city": "Curitiba",
        "addr:housenumber": "198",
        "addr:street": "Rua Equador",
        "addr:suburb": "Bacacheri",
        "building": "yes",
        "name": "Dataro Sports",
        "shop": "bicycle",
        "id": "way/699419675"
      },
      "geometry": {
        "type": "Polygon",
        "coordinates": [
          [
            [
              -49.2394774,
              -25.4071183
            ],
            [
              -49.2395436,
              -25.4071606
            ],
            [
              -49.239465,
              -25.4072609
            ],
            [
              -49.2395167,
              -25.407294
            ],
            [
              -49.2394197,
              -25.4074177
            ],
            [
              -49.2393018,
              -25.4073423
            ],
            [
              -49.2394774,
              -25.4071183
            ]
          ]
        ]
      }
    },
    {
      "type": "Feature",
      "id": "way/699419676",
      "properties": {
        "timestamp": "2019-06-24T13:48:41Z",
        "version": 1,
        "changeset": 71562354,
        "addr:city": "Curitiba",
        "addr:housenumber": "6200",
        "addr:street": "Avenida Sete de Setembro",
        "addr:suburb": "Seminário",
        "building": "yes",
        "name": "Bravo Bikes - Specialized",
        "shop": "bicycle",
        "id": "way/699419676"
      },
      "geometry": {
        "type": "Polygon",
        "coordinates": [
          [
            [
              -49.2975982,
              -25.4489778
            ],
            [
              -49.297515,
              -25.4491392
            ],
            [
              -49.2973522,
              -25.4490705
            ],
            [
              -49.2974283,
              -25.4489123
            ],
            [
              -49.2975982,
              -25.4489778
            ]
          ]
        ]
      }
    },
    {
      "type": "Feature",
      "id": "way/706407384",
      "properties": {
        "timestamp": "2019-07-22T14:44:15Z",
        "version": 1,
        "changeset": 72519501,
        "building": "yes",
        "name": "No Pedal",
        "shop": "bicycle",
        "id": "way/706407384"
      },
      "geometry": {
        "type": "Polygon",
        "coordinates": [
          [
            [
              -49.2210048,
              -25.4676084
            ],
            [
              -49.2209581,
              -25.4677149
            ],
            [
              -49.2208463,
              -25.4676818
            ],
            [
              -49.2208889,
              -25.4675699
            ],
            [
              -49.2210048,
              -25.4676084
            ]
          ]
        ]
      }
    },
    {
      "type": "Feature",
      "id": "way/734466883",
      "properties": {
        "timestamp": "2022-06-25T05:34:02Z",
        "version": 3,
        "changeset": 122825229,
        "addr:city": "Curitiba",
        "addr:housenumber": "638",
        "addr:postcode": "82210-010",
        "addr:street": "Rua João Guariza",
        "addr:suburb": "São Lourenço",
        "building": "yes",
        "name": "Bike Tour Club - Américo",
        "phone": "+55 (41) 3352-2566",
        "shop": "bicycle",
        "website": "https://www.facebook.com/biketour.biketourclub",
        "id": "way/734466883"
      },
      "geometry": {
        "type": "Polygon",
        "coordinates": [
          [
            [
              -49.2668157,
              -25.391089
            ],
            [
              -49.2668183,
              -25.3911799
            ],
            [
              -49.2667506,
              -25.3911799
            ],
            [
              -49.2667479,
              -25.3910896
            ],
            [
              -49.2668157,
              -25.391089
            ]
          ]
        ]
      }
    },
    {
      "type": "Feature",
      "id": "way/741892224",
      "properties": {
        "timestamp": "2019-11-04T12:54:19Z",
        "version": 1,
        "changeset": 76591743,
        "building": "yes",
        "name": "Rota da Bike",
        "shop": "bicycle",
        "id": "way/741892224"
      },
      "geometry": {
        "type": "Polygon",
        "coordinates": [
          [
            [
              -49.3354375,
              -25.3935712
            ],
            [
              -49.3354496,
              -25.3936804
            ],
            [
              -49.3352494,
              -25.3936991
            ],
            [
              -49.3352338,
              -25.3935868
            ],
            [
              -49.3354375,
              -25.3935712
            ]
          ]
        ]
      }
    },
    {
      "type": "Feature",
      "id": "way/747751877",
      "properties": {
        "timestamp": "2019-11-21T11:35:33Z",
        "version": 1,
        "changeset": 77372997,
        "addr:housenumber": "765",
        "addr:street": "Rua Doutor Aluízio França",
        "building": "yes",
        "name": "KuritBike",
        "shop": "bicycle",
        "id": "way/747751877"
      },
      "geometry": {
        "type": "Polygon",
        "coordinates": [
          [
            [
              -49.3055199,
              -25.4262403
            ],
            [
              -49.3054332,
              -25.4262051
            ],
            [
              -49.3055146,
              -25.4260597
            ],
            [
              -49.305619,
              -25.4260885
            ],
            [
              -49.3055836,
              -25.4261748
            ],
            [
              -49.3055199,
              -25.4262403
            ]
          ]
        ]
      }
    },
    {
      "type": "Feature",
      "id": "way/1077683827",
      "properties": {
        "timestamp": "2024-01-27T20:31:53Z",
        "version": 2,
        "changeset": 146757710,
        "building": "yes",
        "name": "Bike 4U",
        "shop": "bicycle",
        "id": "way/1077683827"
      },
      "geometry": {
        "type": "Polygon",
        "coordinates": [
          [
            [
              -49.2946714,
              -25.4175399
            ],
            [
              -49.2945763,
              -25.4176714
            ],
            [
              -49.294419,
              -25.417589
            ],
            [
              -49.2945219,
              -25.417454
            ],
            [
              -49.2946714,
              -25.4175399
            ]
          ]
        ]
      }
    },
    {
      "type": "Feature",
      "id": "way/1116101504",
      "properties": {
        "timestamp": "2022-11-21T21:07:45Z",
        "version": 1,
        "changeset": 129212201,
        "addr:housenumber": "6851",
        "addr:street": "Avenida Marechal Floriano Peixoto",
        "building": "yes",
        "name": "Cicles Jaime Express",
        "phone": "+55 41 3213 5040",
        "service:bicycle:repair": "yes",
        "service:bicycle:retail": "yes",
        "shop": "bicycle",
        "website": "https://www.ciclesjaimeexpress.com.br/",
        "id": "way/1116101504"
      },
      "geometry": {
        "type": "Polygon",
        "coordinates": [
          [
            [
              -49.244293,
              -25.4872595
            ],
            [
              -49.2442346,
              -25.487379
            ],
            [
              -49.2441229,
              -25.4873346
            ],
            [
              -49.2441813,
              -25.487215
            ],
            [
              -49.244293,
              -25.4872595
            ]
          ]
        ]
      }
    },
    {
      "type": "Feature",
      "id": "way/1240173168",
      "properties": {
        "timestamp": "2024-01-16T14:09:12Z",
        "version": 1,
        "changeset": 146325412,
        "addr:housenumber": "6002",
        "addr:street": "Avenida Sete de Setembro",
        "building": "yes",
        "name": "Bike Batel",
        "shop": "bicycle",
        "id": "way/1240173168"
      },
      "geometry": {
        "type": "Polygon",
        "coordinates": [
          [
            [
              -49.2956243,
              -25.4484725
            ],
            [
              -49.2957782,
              -25.4482496
            ],
            [
              -49.2958791,
              -25.4482999
            ],
            [
              -49.2957305,
              -25.4485228
            ],
            [
              -49.2956243,
              -25.4484725
            ]
          ]
        ]
      }
    },
    {
      "type": "Feature",
      "id": "node/3086805369",
      "properties": {
        "timestamp": "2023-11-25T20:13:35Z",
        "version": 5,
        "changeset": 144452353,
        "addr:city": "Curitiba",
        "addr:country": "BR",
        "addr:housenumber": "39",
        "addr:street": "Avenida Frederico Lambertucci",
        "addr:suburb": "Fazendinha",
        "name": "Cicles Souza",
        "phone": "+55 41 3039 7856",
        "service:bicycle:cleaning": "yes",
        "service:bicycle:diy": "no",
        "service:bicycle:pump": "yes",
        "service:bicycle:rental": "no",
        "service:bicycle:repair": "yes",
        "service:bicycle:retail": "no",
        "service:bicycle:second_hand": "yes",
        "shop": "bicycle",
        "id": "node/3086805369"
      },
      "geometry": {
        "type": "Point",
        "coordinates": [
          -49.3234984,
          -25.4805529
        ]
      }
    },
    {
      "type": "Feature",
      "id": "node/3101885279",
      "properties": {
        "timestamp": "2022-07-30T00:47:06Z",
        "version": 3,
        "changeset": 124251671,
        "addr:city": "Curitiba",
        "addr:country": "BR",
        "addr:housenumber": "4827",
        "addr:street": "Rua Canal Belém",
        "name": "Araújo Bike",
        "phone": "+55 41 3296 1253",
        "service:bicycle:cleaning": "yes",
        "service:bicycle:diy": "no",
        "service:bicycle:pump": "yes",
        "service:bicycle:rental": "no",
        "service:bicycle:repair": "yes",
        "service:bicycle:retail": "no",
        "service:bicycle:second_hand": "yes",
        "shop": "bicycle",
        "id": "node/3101885279"
      },
      "geometry": {
        "type": "Point",
        "coordinates": [
          -49.2451333,
          -25.4719935
        ]
      }
    },
    {
      "type": "Feature",
      "id": "node/3146255189",
      "properties": {
        "timestamp": "2019-03-24T18:01:58Z",
        "version": 2,
        "changeset": 68479492,
        "addr:city": "Curitiba",
        "addr:country": "BR",
        "addr:housenumber": "1878",
        "addr:street": "Rua Professor João Soares Barcelos",
        "name": "Cicles Barcelos",
        "phone": "+55 (41) 3276-0227",
        "service:bicycle:cleaning": "yes",
        "service:bicycle:diy": "no",
        "service:bicycle:pump": "yes",
        "service:bicycle:rental": "no",
        "service:bicycle:repair": "yes",
        "service:bicycle:retail": "no",
        "service:bicycle:second_hand": "yes",
        "shop": "bicycle",
        "id": "node/3146255189"
      },
      "geometry": {
        "type": "Point",
        "coordinates": [
          -49.2501594,
          -25.4900223
        ]
      }
    },
    {
      "type": "Feature",
      "id": "node/3185524347",
      "properties": {
        "timestamp": "2019-03-24T21:32:35Z",
        "version": 2,
        "changeset": 68484971,
        "addr:city": "Curitiba",
        "addr:country": "BR",
        "addr:housenumber": "5233",
        "addr:street": "Avenida Marechal Floriano Peixoto",
        "name": "D Fabris",
        "phone": "+554132764551",
        "service:bicycle:cleaning": "yes",
        "service:bicycle:diy": "no",
        "service:bicycle:pump": "yes",
        "service:bicycle:rental": "no",
        "service:bicycle:repair": "yes",
        "service:bicycle:retail": "no",
        "service:bicycle:second_hand": "yes",
        "shop": "bicycle",
        "id": "node/3185524347"
      },
      "geometry": {
        "type": "Point",
        "coordinates": [
          -49.2507589,
          -25.4739186
        ]
      }
    },
    {
      "type": "Feature",
      "id": "node/3224359953",
      "properties": {
        "timestamp": "2023-12-25T19:52:24Z",
        "version": 4,
        "changeset": 145510027,
        "addr:city": "Curitiba",
        "addr:country": "BR",
        "addr:housenumber": "564",
        "addr:street": "Rua Doutor Júlio César Ribeiro de Souza",
        "name": "RL Bikes",
        "phone": "+55 41 3027 3566",
        "service:bicycle:cleaning": "yes",
        "service:bicycle:diy": "no",
        "service:bicycle:pump": "yes",
        "service:bicycle:rental": "no",
        "service:bicycle:repair": "yes",
        "service:bicycle:retail": "no",
        "service:bicycle:second_hand": "yes",
        "shop": "bicycle",
        "id": "node/3224359953"
      },
      "geometry": {
        "type": "Point",
        "coordinates": [
          -49.2466464,
          -25.4791488
        ]
      }
    },
    {
      "type": "Feature",
      "id": "node/3235479281",
      "properties": {
        "timestamp": "2022-05-26T14:46:50Z",
        "version": 3,
        "changeset": 121530419,
        "addr:city": "Curitiba",
        "addr:country": "BR",
        "addr:housenumber": "1559",
        "addr:state": "PR",
        "addr:street": "Rua Fernandes de Barros",
        "name": "Jamur Bikes",
        "service:bicycle:cleaning": "yes",
        "service:bicycle:diy": "no",
        "service:bicycle:pump": "yes",
        "service:bicycle:rental": "no",
        "service:bicycle:repair": "yes",
        "service:bicycle:retail": "yes",
        "service:bicycle:second_hand": "no",
        "shop": "bicycle",
        "website": "https://www.jamurbikes.com.br/",
        "id": "node/3235479281"
      },
      "geometry": {
        "type": "Point",
        "coordinates": [
          -49.2456307,
          -25.4172657
        ]
      }
    },
    {
      "type": "Feature",
      "id": "node/3254702383",
      "properties": {
        "timestamp": "2022-07-30T00:47:06Z",
        "version": 4,
        "changeset": 124251671,
        "addr:city": "Curitiba",
        "addr:country": "BR",
        "addr:housenumber": "1450",
        "addr:street": "Rua Augusto Stresser",
        "name": "Bike Portella",
        "phone": "+55 41 3262 3707",
        "service:bicycle:cleaning": "yes",
        "service:bicycle:diy": "no",
        "service:bicycle:pump": "yes",
        "service:bicycle:rental": "no",
        "service:bicycle:repair": "yes",
        "service:bicycle:retail": "yes",
        "service:bicycle:second_hand": "yes",
        "shop": "bicycle",
        "website": "https://www.bikeportella.com.br/",
        "id": "node/3254702383"
      },
      "geometry": {
        "type": "Point",
        "coordinates": [
          -49.2475215,
          -25.4175773
        ]
      }
    },
    {
      "type": "Feature",
      "id": "node/3274591344",
      "properties": {
        "timestamp": "2022-07-30T12:42:55Z",
        "version": 3,
        "changeset": 124266519,
        "addr:city": "Curitiba",
        "addr:country": "BR",
        "addr:housenumber": "231",
        "addr:street": "Rua Jacarezinho",
        "email": "s.bikesespecializadas@yahoo.com.br",
        "name": "S Bikes",
        "phone": "+55 41 3339 9615",
        "service:bicycle:cleaning": "yes",
        "service:bicycle:diy": "no",
        "service:bicycle:pump": "yes",
        "service:bicycle:rental": "no",
        "service:bicycle:repair": "yes",
        "service:bicycle:retail": "yes",
        "service:bicycle:second_hand": "yes",
        "shop": "bicycle",
        "id": "node/3274591344"
      },
      "geometry": {
        "type": "Point",
        "coordinates": [
          -49.2974365,
          -25.4252834
        ]
      }
    },
    {
      "type": "Feature",
      "id": "node/3304167063",
      "properties": {
        "timestamp": "2019-03-24T20:01:54Z",
        "version": 3,
        "changeset": 68482572,
        "addr:city": "Curitiba",
        "addr:country": "BR",
        "addr:housenumber": "1578",
        "addr:street": "Rua Pedro Zagonel",
        "name": "Bike Sport",
        "phone": "+55 41 32480535",
        "service:bicycle:cleaning": "yes",
        "service:bicycle:diy": "no",
        "service:bicycle:pump": "yes",
        "service:bicycle:rental": "no",
        "service:bicycle:repair": "yes",
        "service:bicycle:retail": "no",
        "service:bicycle:second_hand": "yes",
        "shop": "bicycle",
        "id": "node/3304167063"
      },
      "geometry": {
        "type": "Point",
        "coordinates": [
          -49.3102607,
          -25.4864144
        ]
      }
    },
    {
      "type": "Feature",
      "id": "node/3329708563",
      "properties": {
        "timestamp": "2022-07-30T00:47:06Z",
        "version": 3,
        "changeset": 124251671,
        "addr:city": "Curitiba",
        "addr:housenumber": "133",
        "addr:street": "Rua João Palomeque",
        "name": "Cicles Muchau",
        "phone": "+55 42 3246 2154",
        "service:bicycle:cleaning": "yes",
        "service:bicycle:diy": "no",
        "service:bicycle:pump": "yes",
        "service:bicycle:rental": "no",
        "service:bicycle:repair": "yes",
        "service:bicycle:retail": "no",
        "service:bicycle:second_hand": "yes",
        "shop": "bicycle",
        "id": "node/3329708563"
      },
      "geometry": {
        "type": "Point",
        "coordinates": [
          -49.2942215,
          -25.4823433
        ]
      }
    },
    {
      "type": "Feature",
      "id": "node/3371192254",
      "properties": {
        "timestamp": "2018-12-16T17:57:30Z",
        "version": 2,
        "changeset": 65527957,
        "addr:city": "Curitiba",
        "addr:housenumber": "451",
        "addr:street": "Rua Professor João Falarz",
        "name": "Cicles Rodolfo",
        "phone": "+55 (41) 3016-3754",
        "service:bicycle:cleaning": "yes",
        "service:bicycle:diy": "no",
        "service:bicycle:pump": "yes",
        "service:bicycle:rental": "no",
        "service:bicycle:repair": "yes",
        "service:bicycle:retail": "no",
        "service:bicycle:second_hand": "yes",
        "shop": "bicycle",
        "id": "node/3371192254"
      },
      "geometry": {
        "type": "Point",
        "coordinates": [
          -49.3511675,
          -25.4341039
        ]
      }
    },
    {
      "type": "Feature",
      "id": "node/3656639133",
      "properties": {
        "timestamp": "2018-12-29T18:13:36Z",
        "version": 3,
        "changeset": 65871804,
        "addr:city": "Curitiba",
        "addr:country": "BR",
        "addr:housenumber": "45",
        "addr:street": "Rua Raposo Tavares",
        "name": "Tecnocicles Bicicletas",
        "service:bicycle:cleaning": "yes",
        "service:bicycle:diy": "no",
        "service:bicycle:pump": "yes",
        "service:bicycle:repair": "yes",
        "service:bicycle:retail": "no",
        "service:bicycle:second_hand": "yes",
        "shop": "bicycle",
        "id": "node/3656639133"
      },
      "geometry": {
        "type": "Point",
        "coordinates": [
          -49.2878711,
          -25.3960271
        ]
      }
    },
    {
      "type": "Feature",
      "id": "node/3663530760",
      "properties": {
        "timestamp": "2022-07-30T00:20:56Z",
        "version": 3,
        "changeset": 124251457,
        "addr:city": "Curitiba",
        "addr:country": "BR",
        "addr:housenumber": "186",
        "addr:street": "Rua Rubem Berta",
        "name": "Bike Langner",
        "phone": "+55 41 3247 0168",
        "service:bicycle:chain_tool": "yes",
        "service:bicycle:cleaning": "yes",
        "service:bicycle:diy": "no",
        "service:bicycle:pump": "yes",
        "service:bicycle:rental": "no",
        "service:bicycle:repair": "yes",
        "service:bicycle:retail": "no",
        "service:bicycle:second_hand": "yes",
        "shop": "bicycle",
        "website": "http://www.cicleslangner.com",
        "id": "node/3663530760"
      },
      "geometry": {
        "type": "Point",
        "coordinates": [
          -49.295857,
          -25.5176457
        ]
      }
    },
    {
      "type": "Feature",
      "id": "node/3680674262",
      "properties": {
        "timestamp": "2019-03-24T18:30:11Z",
        "version": 2,
        "changeset": 68479971,
        "addr:city": "Curitiba",
        "addr:country": "BR",
        "addr:housenumber": "942",
        "addr:street": "Rua Emanuel Voluz",
        "name": "Cicles Langner",
        "phone": "+55 (41) 3349-3319",
        "service:bicycle:chain_tool": "yes",
        "service:bicycle:cleaning": "yes",
        "service:bicycle:diy": "no",
        "service:bicycle:pump": "yes",
        "service:bicycle:rental": "no",
        "service:bicycle:repair": "yes",
        "service:bicycle:retail": "no",
        "service:bicycle:second_hand": "yes",
        "shop": "bicycle",
        "website": "http://www.cicleslangner.com",
        "id": "node/3680674262"
      },
      "geometry": {
        "type": "Point",
        "coordinates": [
          -49.2888671,
          -25.5284909
        ]
      }
    },
    {
      "type": "Feature",
      "id": "node/3725045090",
      "properties": {
        "timestamp": "2019-03-24T20:42:12Z",
        "version": 2,
        "changeset": 68483461,
        "addr:city": "Curitiba",
        "addr:country": "BR",
        "addr:housenumber": "536",
        "addr:street": "Rua João Bettega",
        "name": "BD Bikes",
        "phone": "+55 (41) 3329-2513",
        "service:bicycle:chain_tool": "yes",
        "service:bicycle:cleaning": "yes",
        "service:bicycle:diy": "no",
        "service:bicycle:pump": "yes",
        "service:bicycle:rental": "no",
        "service:bicycle:repair": "yes",
        "service:bicycle:retail": "no",
        "service:bicycle:second_hand": "yes",
        "shop": "bicycle",
        "id": "node/3725045090"
      },
      "geometry": {
        "type": "Point",
        "coordinates": [
          -49.2993387,
          -25.4749477
        ]
      }
    },
    {
      "type": "Feature",
      "id": "node/3746036416",
      "properties": {
        "timestamp": "2019-03-24T20:42:14Z",
        "version": 2,
        "changeset": 68483461,
        "addr:city": "Curitiba",
        "addr:country": "BR",
        "addr:housenumber": "283",
        "addr:street": "Rua Pinheiro Guimarães",
        "name": "World Cicles",
        "phone": "+55 (41) 8415-6870",
        "service:bicycle:chain_tool": "yes",
        "service:bicycle:cleaning": "yes",
        "service:bicycle:diy": "no",
        "service:bicycle:pump": "yes",
        "service:bicycle:rental": "no",
        "service:bicycle:repair": "yes",
        "service:bicycle:retail": "no",
        "service:bicycle:second_hand": "yes",
        "shop": "bicycle",
        "id": "node/3746036416"
      },
      "geometry": {
        "type": "Point",
        "coordinates": [
          -49.3030739,
          -25.466984
        ]
      }
    },
    {
      "type": "Feature",
      "id": "node/3746136967",
      "properties": {
        "timestamp": "2019-03-24T22:43:38Z",
        "version": 2,
        "changeset": 68486560,
        "addr:city": "Curitiba",
        "addr:country": "BR",
        "addr:housenumber": "960",
        "addr:street": "Rua Curupaitis",
        "name": "Martinelli Bikes",
        "phone": "+55 (41) 3013-0202",
        "service:bicycle:chain_tool": "yes",
        "service:bicycle:cleaning": "yes",
        "service:bicycle:diy": "no",
        "service:bicycle:pump": "yes",
        "service:bicycle:rental": "no",
        "service:bicycle:repair": "yes",
        "service:bicycle:retail": "no",
        "service:bicycle:second_hand": "yes",
        "shop": "bicycle",
        "id": "node/3746136967"
      },
      "geometry": {
        "type": "Point",
        "coordinates": [
          -49.3069921,
          -25.4583184
        ]
      }
    },
    {
      "type": "Feature",
      "id": "node/3746668257",
      "properties": {
        "timestamp": "2023-10-15T11:58:09Z",
        "version": 3,
        "changeset": 142614477,
        "addr:city": "Curitiba",
        "addr:country": "BR",
        "addr:housenumber": "1320",
        "addr:street": "Rua João Bettega",
        "name": "Muller Bikes",
        "service:bicycle:chain_tool": "yes",
        "service:bicycle:cleaning": "yes",
        "service:bicycle:diy": "no",
        "service:bicycle:pump": "yes",
        "service:bicycle:rental": "no",
        "service:bicycle:repair": "yes",
        "service:bicycle:retail": "yes",
        "service:bicycle:second_hand": "yes",
        "shop": "bicycle",
        "website": "https://mullerbikes.com.br/",
        "id": "node/3746668257"
      },
      "geometry": {
        "type": "Point",
        "coordinates": [
          -49.3068986,
          -25.4763234
        ]
      }
    },
    {
      "type": "Feature",
      "id": "node/3746743325",
      "properties": {
        "timestamp": "2021-10-26T14:55:48Z",
        "version": 5,
        "changeset": 112998335,
        "addr:city": "Curitiba",
        "addr:housenumber": "1807",
        "addr:postcode": "80230-150",
        "addr:street": "Rua João Negrão",
        "email": "ciclesjaime@hotmail.com",
        "name": "Cicles Jaime",
        "opening_hours": "Mo-Fr 09:00-18:00; Sa 09:00-15:00",
        "phone": "+55 (41) 3333-3456",
        "service:bicycle:chain_tool": "yes",
        "service:bicycle:cleaning": "yes",
        "service:bicycle:diy": "no",
        "service:bicycle:pump": "yes",
        "service:bicycle:rental": "no",
        "service:bicycle:repair": "yes",
        "service:bicycle:retail": "yes",
        "service:bicycle:second_hand": "yes",
        "shop": "bicycle",
        "website": "https://www.ciclesjaime.com.br/",
        "id": "node/3746743325"
      },
      "geometry": {
        "type": "Point",
        "coordinates": [
          -49.2595893,
          -25.4441744
        ]
      }
    },
    {
      "type": "Feature",
      "id": "node/3748011695",
      "properties": {
        "timestamp": "2018-12-29T19:07:11Z",
        "version": 2,
        "changeset": 65872882,
        "addr:city": "Curitiba",
        "addr:country": "BR",
        "addr:housenumber": "1620",
        "addr:street": "Rua Fernando de Noronha",
        "name": "Cicles Paulo",
        "service:bicycle:chain_tool": "yes",
        "service:bicycle:cleaning": "yes",
        "service:bicycle:diy": "no",
        "service:bicycle:pump": "yes",
        "service:bicycle:rental": "no",
        "service:bicycle:repair": "yes",
        "service:bicycle:retail": "no",
        "service:bicycle:second_hand": "yes",
        "shop": "bicycle",
        "id": "node/3748011695"
      },
      "geometry": {
        "type": "Point",
        "coordinates": [
          -49.2441849,
          -25.3760343
        ]
      }
    },
    {
      "type": "Feature",
      "id": "node/3748064090",
      "properties": {
        "timestamp": "2018-12-30T00:13:21Z",
        "version": 2,
        "changeset": 65878305,
        "addr:city": "Curitiba",
        "addr:country": "BR",
        "addr:housenumber": "3855",
        "addr:street": "Avenida Vereador Toaldo Túlio",
        "name": "Cicles Nova Era",
        "phone": "+55 (41) 3272-4391",
        "service:bicycle:chain_tool": "yes",
        "service:bicycle:cleaning": "yes",
        "service:bicycle:diy": "no",
        "service:bicycle:pump": "yes",
        "service:bicycle:rental": "no",
        "service:bicycle:repair": "yes",
        "service:bicycle:retail": "no",
        "service:bicycle:second_hand": "yes",
        "shop": "bicycle",
        "id": "node/3748064090"
      },
      "geometry": {
        "type": "Point",
        "coordinates": [
          -49.3502828,
          -25.4232153
        ]
      }
    },
    {
      "type": "Feature",
      "id": "node/3748104878",
      "properties": {
        "timestamp": "2023-09-20T20:05:26Z",
        "version": 5,
        "changeset": 141530153,
        "addr:city": "Curitiba",
        "addr:country": "BR",
        "addr:housenumber": "731",
        "addr:street": "Rua 13 de Maio",
        "name": "Cicles Renato Romeo",
        "phone": "+55 (41) 3224-9322",
        "service:bicycle:chain_tool": "yes",
        "service:bicycle:cleaning": "no",
        "service:bicycle:diy": "no",
        "service:bicycle:pump": "yes",
        "service:bicycle:rental": "no",
        "service:bicycle:repair": "yes",
        "service:bicycle:retail": "no",
        "service:bicycle:second_hand": "no",
        "shop": "bicycle",
        "id": "node/3748104878"
      },
      "geometry": {
        "type": "Point",
        "coordinates": [
          -49.2731973,
          -25.4266495
        ]
      }
    },
    {
      "type": "Feature",
      "id": "node/3748135988",
      "properties": {
        "timestamp": "2019-03-24T16:04:36Z",
        "version": 2,
        "changeset": 68475710,
        "addr:city": "Curitiba",
        "addr:country": "BR",
        "addr:housenumber": "259",
        "addr:street": "Rua São José dos Pinhais",
        "name": "Cicles Oliveira",
        "phone": "+55 (41) 3349-3512",
        "service:bicycle:chain_tool": "yes",
        "service:bicycle:cleaning": "yes",
        "service:bicycle:diy": "no",
        "service:bicycle:pump": "yes",
        "service:bicycle:rental": "no",
        "service:bicycle:repair": "yes",
        "service:bicycle:retail": "no",
        "service:bicycle:second_hand": "yes",
        "shop": "bicycle",
        "id": "node/3748135988"
      },
      "geometry": {
        "type": "Point",
        "coordinates": [
          -49.2691859,
          -25.5375158
        ]
      }
    },
    {
      "type": "Feature",
      "id": "node/3748143760",
      "properties": {
        "timestamp": "2019-03-24T16:04:36Z",
        "version": 2,
        "changeset": 68475710,
        "addr:city": "Curitiba",
        "addr:country": "BR",
        "addr:housenumber": "2833",
        "addr:street": "Rua Jussara",
        "name": "Cicles Silva",
        "service:bicycle:chain_tool": "yes",
        "service:bicycle:cleaning": "yes",
        "service:bicycle:diy": "no",
        "service:bicycle:pump": "yes",
        "service:bicycle:rental": "no",
        "service:bicycle:repair": "yes",
        "service:bicycle:retail": "no",
        "service:bicycle:second_hand": "yes",
        "shop": "bicycle",
        "id": "node/3748143760"
      },
      "geometry": {
        "type": "Point",
        "coordinates": [
          -49.2585763,
          -25.5442987
        ]
      }
    },
    {
      "type": "Feature",
      "id": "node/3748155899",
      "properties": {
        "timestamp": "2019-03-24T16:04:37Z",
        "version": 2,
        "changeset": 68475710,
        "addr:city": "Curitiba",
        "addr:country": "BR",
        "addr:housenumber": "1053",
        "addr:street": "Rua Celeste Tortato Gabardo",
        "name": "Bike Center Mania",
        "phone": "+55 (41) 3348-0966",
        "service:bicycle:chain_tool": "yes",
        "service:bicycle:cleaning": "yes",
        "service:bicycle:diy": "no",
        "service:bicycle:pump": "yes",
        "service:bicycle:rental": "no",
        "service:bicycle:repair": "yes",
        "service:bicycle:retail": "no",
        "service:bicycle:second_hand": "yes",
        "shop": "bicycle",
        "id": "node/3748155899"
      },
      "geometry": {
        "type": "Point",
        "coordinates": [
          -49.2837577,
          -25.5443868
        ]
      }
    },
    {
      "type": "Feature",
      "id": "node/3748169831",
      "properties": {
        "timestamp": "2019-03-24T16:04:37Z",
        "version": 2,
        "changeset": 68475710,
        "addr:city": "Curitiba",
        "addr:country": "BR",
        "addr:housenumber": "233",
        "addr:street": "Rua Professora Amália Elza Gasparotto Dona",
        "name": "Cicles Ninja",
        "phone": "+55 (41) 3024-5447",
        "service:bicycle:chain_tool": "yes",
        "service:bicycle:cleaning": "yes",
        "service:bicycle:diy": "no",
        "service:bicycle:pump": "yes",
        "service:bicycle:rental": "no",
        "service:bicycle:repair": "yes",
        "service:bicycle:retail": "no",
        "service:bicycle:second_hand": "yes",
        "shop": "bicycle",
        "website": "http://www.ciclesninja.com",
        "id": "node/3748169831"
      },
      "geometry": {
        "type": "Point",
        "coordinates": [
          -49.2814029,
          -25.5391056
        ]
      }
    },
    {
      "type": "Feature",
      "id": "node/3748189647",
      "properties": {
        "timestamp": "2019-03-24T16:04:37Z",
        "version": 2,
        "changeset": 68475710,
        "addr:city": "Curitiba",
        "addr:country": "BR",
        "addr:housenumber": "2215",
        "addr:street": "Rua Celeste Tortato Gabardo",
        "name": "Cicles Malinovski",
        "service:bicycle:chain_tool": "yes",
        "service:bicycle:cleaning": "yes",
        "service:bicycle:diy": "no",
        "service:bicycle:pump": "yes",
        "service:bicycle:rental": "no",
        "service:bicycle:repair": "yes",
        "service:bicycle:retail": "no",
        "service:bicycle:second_hand": "yes",
        "shop": "bicycle",
        "id": "node/3748189647"
      },
      "geometry": {
        "type": "Point",
        "coordinates": [
          -49.2728064,
          -25.541482
        ]
      }
    },
    {
      "type": "Feature",
      "id": "node/3748202534",
      "properties": {
        "timestamp": "2019-03-24T16:04:37Z",
        "version": 2,
        "changeset": 68475710,
        "addr:city": "Curitiba",
        "addr:country": "BR",
        "addr:housenumber": "3956",
        "addr:street": "Rua Izaac Ferreira da Cruz",
        "name": "Bike Mania",
        "phone": "+55 (41) 3286-3972",
        "service:bicycle:chain_tool": "yes",
        "service:bicycle:cleaning": "yes",
        "service:bicycle:diy": "no",
        "service:bicycle:pump": "yes",
        "service:bicycle:rental": "no",
        "service:bicycle:repair": "yes",
        "service:bicycle:retail": "no",
        "service:bicycle:second_hand": "yes",
        "shop": "bicycle",
        "id": "node/3748202534"
      },
      "geometry": {
        "type": "Point",
        "coordinates": [
          -49.2650435,
          -25.5337253
        ]
      }
    },
    {
      "type": "Feature",
      "id": "node/3748208698",
      "properties": {
        "timestamp": "2019-03-24T16:04:37Z",
        "version": 2,
        "changeset": 68475710,
        "addr:city": "Curitiba",
        "addr:country": "BR",
        "addr:housenumber": "2578",
        "addr:street": "Rua Ourizona",
        "name": "Classic Bike",
        "phone": "+55 (41) 3298-6702",
        "service:bicycle:chain_tool": "yes",
        "service:bicycle:cleaning": "yes",
        "service:bicycle:diy": "no",
        "service:bicycle:pump": "yes",
        "service:bicycle:rental": "no",
        "service:bicycle:repair": "yes",
        "service:bicycle:retail": "no",
        "service:bicycle:second_hand": "yes",
        "shop": "bicycle",
        "id": "node/3748208698"
      },
      "geometry": {
        "type": "Point",
        "coordinates": [
          -49.2557671,
          -25.539465
        ]
      }
    },
    {
      "type": "Feature",
      "id": "node/3748279270",
      "properties": {
        "timestamp": "2019-03-24T16:04:38Z",
        "version": 2,
        "changeset": 68475710,
        "addr:city": "Curitiba",
        "addr:country": "BR",
        "addr:housenumber": "403",
        "addr:street": "Rua Tijucas do Sul",
        "service:bicycle:chain_tool": "yes",
        "service:bicycle:cleaning": "yes",
        "service:bicycle:diy": "no",
        "service:bicycle:pump": "yes",
        "service:bicycle:rental": "no",
        "service:bicycle:repair": "yes",
        "service:bicycle:retail": "no",
        "service:bicycle:second_hand": "yes",
        "shop": "bicycle",
        "id": "node/3748279270"
      },
      "geometry": {
        "type": "Point",
        "coordinates": [
          -49.2731506,
          -25.5358983
        ]
      }
    },
    {
      "type": "Feature",
      "id": "node/3748300486",
      "properties": {
        "timestamp": "2019-03-24T16:04:38Z",
        "version": 2,
        "changeset": 68475710,
        "addr:city": "Curitiba",
        "addr:country": "BR",
        "addr:housenumber": "1795",
        "addr:street": "Rua Nova Esperança",
        "name": "Cicles D Silva",
        "service:bicycle:chain_tool": "yes",
        "service:bicycle:cleaning": "yes",
        "service:bicycle:diy": "no",
        "service:bicycle:pump": "yes",
        "service:bicycle:rental": "no",
        "service:bicycle:repair": "yes",
        "service:bicycle:retail": "no",
        "service:bicycle:second_hand": "yes",
        "shop": "bicycle",
        "id": "node/3748300486"
      },
      "geometry": {
        "type": "Point",
        "coordinates": [
          -49.2700233,
          -25.5515979
        ]
      }
    },
    {
      "type": "Feature",
      "id": "node/3748321411",
      "properties": {
        "timestamp": "2019-03-24T22:58:30Z",
        "version": 2,
        "changeset": 68486848,
        "addr:city": "Curitiba",
        "addr:country": "BR",
        "addr:housenumber": "2821",
        "addr:street": "Rua Eduardo Pinto da Rocha",
        "name": "Bicicletaria Rei das Bikes",
        "phone": "+55 (41) 9892-3825",
        "service:bicycle:chain_tool": "yes",
        "service:bicycle:cleaning": "yes",
        "service:bicycle:diy": "no",
        "service:bicycle:pump": "yes",
        "service:bicycle:rental": "no",
        "service:bicycle:repair": "yes",
        "service:bicycle:retail": "no",
        "service:bicycle:second_hand": "yes",
        "shop": "bicycle",
        "id": "node/3748321411"
      },
      "geometry": {
        "type": "Point",
        "coordinates": [
          -49.2498241,
          -25.552395
        ]
      }
    },
    {
      "type": "Feature",
      "id": "node/3748353407",
      "properties": {
        "timestamp": "2019-03-24T16:40:10Z",
        "version": 2,
        "changeset": 68476923,
        "addr:city": "Curitiba",
        "addr:country": "BR",
        "addr:housenumber": "858",
        "addr:street": "Rua Enette Dubard",
        "name": "Clínica das Bikes",
        "service:bicycle:chain_tool": "yes",
        "service:bicycle:cleaning": "yes",
        "service:bicycle:diy": "no",
        "service:bicycle:pump": "yes",
        "service:bicycle:rental": "no",
        "service:bicycle:repair": "yes",
        "service:bicycle:retail": "no",
        "service:bicycle:second_hand": "yes",
        "shop": "bicycle",
        "id": "node/3748353407"
      },
      "geometry": {
        "type": "Point",
        "coordinates": [
          -49.3393222,
          -25.5671219
        ]
      }
    },
    {
      "type": "Feature",
      "id": "node/3748368940",
      "properties": {
        "timestamp": "2019-03-24T16:40:10Z",
        "version": 2,
        "changeset": 68476923,
        "addr:city": "Curitiba",
        "addr:country": "BR",
        "addr:housenumber": "1300",
        "addr:street": "Rua Adriana Ceres Zago Bueno",
        "name": "LF Bike",
        "service:bicycle:chain_tool": "yes",
        "service:bicycle:cleaning": "yes",
        "service:bicycle:diy": "no",
        "service:bicycle:pump": "yes",
        "service:bicycle:rental": "no",
        "service:bicycle:repair": "yes",
        "service:bicycle:retail": "no",
        "service:bicycle:second_hand": "yes",
        "shop": "bicycle",
        "id": "node/3748368940"
      },
      "geometry": {
        "type": "Point",
        "coordinates": [
          -49.3339489,
          -25.5652102
        ]
      }
    },
    {
      "type": "Feature",
      "id": "node/3748372878",
      "properties": {
        "timestamp": "2019-03-24T16:40:10Z",
        "version": 2,
        "changeset": 68476923,
        "addr:city": "Curitiba",
        "addr:country": "BR",
        "addr:housenumber": "92",
        "addr:street": "Rua Albor Pimpão de Almeida",
        "name": "Cicles JD",
        "phone": "+55 (41) 3155-6122",
        "service:bicycle:chain_tool": "yes",
        "service:bicycle:cleaning": "yes",
        "service:bicycle:diy": "no",
        "service:bicycle:pump": "yes",
        "service:bicycle:rental": "no",
        "service:bicycle:repair": "yes",
        "service:bicycle:retail": "no",
        "service:bicycle:second_hand": "yes",
        "shop": "bicycle",
        "id": "node/3748372878"
      },
      "geometry": {
        "type": "Point",
        "coordinates": [
          -49.3391692,
          -25.5733844
        ]
      }
    },
    {
      "type": "Feature",
      "id": "node/3748382975",
      "properties": {
        "timestamp": "2019-03-24T16:40:11Z",
        "version": 2,
        "changeset": 68476923,
        "addr:city": "Curitiba",
        "addr:country": "BR",
        "addr:housenumber": "837",
        "addr:street": "Rua Ernesto Germano Francisco Hannemann",
        "name": "Cicles Ribeiro",
        "phone": "+55 (41) 3396-2446",
        "service:bicycle:chain_tool": "yes",
        "service:bicycle:cleaning": "yes",
        "service:bicycle:diy": "no",
        "service:bicycle:pump": "yes",
        "service:bicycle:rental": "no",
        "service:bicycle:repair": "yes",
        "service:bicycle:retail": "no",
        "service:bicycle:second_hand": "yes",
        "shop": "bicycle",
        "id": "node/3748382975"
      },
      "geometry": {
        "type": "Point",
        "coordinates": [
          -49.3349851,
          -25.5587101
        ]
      }
    },
    {
      "type": "Feature",
      "id": "node/3748393003",
      "properties": {
        "timestamp": "2018-12-29T12:20:12Z",
        "version": 2,
        "changeset": 65863658,
        "addr:city": "Curitiba",
        "addr:country": "BR",
        "addr:housenumber": "1160",
        "addr:street": "Rua Eunice Bettini Bartoszeck",
        "name": "Cicles Farina",
        "service:bicycle:chain_tool": "yes",
        "service:bicycle:cleaning": "yes",
        "service:bicycle:diy": "no",
        "service:bicycle:pump": "yes",
        "service:bicycle:rental": "no",
        "service:bicycle:repair": "yes",
        "service:bicycle:retail": "no",
        "service:bicycle:second_hand": "yes",
        "shop": "bicycle",
        "id": "node/3748393003"
      },
      "geometry": {
        "type": "Point",
        "coordinates": [
          -49.2036607,
          -25.4867508
        ]
      }
    },
    {
      "type": "Feature",
      "id": "node/3748403170",
      "properties": {
        "timestamp": "2018-12-29T12:20:12Z",
        "version": 2,
        "changeset": 65863658,
        "addr:city": "Curitiba",
        "addr:country": "BR",
        "addr:housenumber": "40",
        "addr:street": "Rua José Hauer",
        "name": "Cicles Lima",
        "service:bicycle:chain_tool": "yes",
        "service:bicycle:cleaning": "yes",
        "service:bicycle:diy": "no",
        "service:bicycle:pump": "yes",
        "service:bicycle:rental": "no",
        "service:bicycle:repair": "yes",
        "service:bicycle:retail": "no",
        "service:bicycle:second_hand": "yes",
        "shop": "bicycle",
        "id": "node/3748403170"
      },
      "geometry": {
        "type": "Point",
        "coordinates": [
          -49.2172312,
          -25.4968562
        ]
      }
    },
    {
      "type": "Feature",
      "id": "node/3748413961",
      "properties": {
        "timestamp": "2018-12-29T12:20:13Z",
        "version": 2,
        "changeset": 65863658,
        "addr:city": "Curitiba",
        "addr:country": "BR",
        "addr:housenumber": "4421",
        "addr:street": "Avenida Senador Salgado Filho",
        "name": "Cicles Betin",
        "phone": "+55 (41) 3377-3289",
        "service:bicycle:chain_tool": "yes",
        "service:bicycle:cleaning": "yes",
        "service:bicycle:diy": "no",
        "service:bicycle:pump": "yes",
        "service:bicycle:rental": "no",
        "service:bicycle:repair": "yes",
        "service:bicycle:retail": "no",
        "service:bicycle:second_hand": "yes",
        "shop": "bicycle",
        "id": "node/3748413961"
      },
      "geometry": {
        "type": "Point",
        "coordinates": [
          -49.224331,
          -25.4809732
        ]
      }
    },
    {
      "type": "Feature",
      "id": "node/3748422754",
      "properties": {
        "timestamp": "2018-12-29T12:20:13Z",
        "version": 2,
        "changeset": 65863658,
        "addr:city": "Curitiba",
        "addr:country": "BR",
        "addr:housenumber": "572",
        "addr:street": "Rua Deputado Tenório Cavalcanti",
        "service:bicycle:chain_tool": "yes",
        "service:bicycle:cleaning": "yes",
        "service:bicycle:diy": "no",
        "service:bicycle:pump": "yes",
        "service:bicycle:rental": "no",
        "service:bicycle:repair": "yes",
        "service:bicycle:retail": "no",
        "service:bicycle:second_hand": "yes",
        "shop": "bicycle",
        "id": "node/3748422754"
      },
      "geometry": {
        "type": "Point",
        "coordinates": [
          -49.2052291,
          -25.4832199
        ]
      }
    },
    {
      "type": "Feature",
      "id": "node/3748433361",
      "properties": {
        "timestamp": "2019-08-27T21:54:03Z",
        "version": 4,
        "changeset": 73815433,
        "addr:city": "Curitiba",
        "addr:country": "BR",
        "addr:housenumber": "2385",
        "addr:street": "Rua Francisco Derosso",
        "name": "Cicles Jahn",
        "phone": "+55 (41) 3275-5828",
        "service:bicycle:chain_tool": "yes",
        "service:bicycle:cleaning": "yes",
        "service:bicycle:diy": "no",
        "service:bicycle:pump": "yes",
        "service:bicycle:rental": "no",
        "service:bicycle:repair": "yes",
        "service:bicycle:retail": "no",
        "service:bicycle:second_hand": "yes",
        "shop": "bicycle",
        "website": "https://www.ciclesjahn.com.br/",
        "id": "node/3748433361"
      },
      "geometry": {
        "type": "Point",
        "coordinates": [
          -49.2614682,
          -25.5104049
        ]
      }
    },
    {
      "type": "Feature",
      "id": "node/3767775830",
      "properties": {
        "timestamp": "2022-06-04T04:22:56Z",
        "version": 4,
        "changeset": 121922441,
        "addr:city": "Curitiba",
        "addr:housenumber": "5011",
        "addr:postcode": "80240-000",
        "addr:street": "Avenida Sete de Setembro",
        "addr:suburb": "Água Verde",
        "name": "Voltage Bikes",
        "phone": "+55(41)3535-0330",
        "service:bicycle:chain_tool": "yes",
        "service:bicycle:cleaning": "yes",
        "service:bicycle:diy": "no",
        "service:bicycle:pump": "yes",
        "service:bicycle:rental": "no",
        "service:bicycle:repair": "yes",
        "service:bicycle:retail": "yes",
        "service:bicycle:second_hand": "no",
        "shop": "bicycle",
        "website": "https://www.voltagebikes.com.br/",
        "id": "node/3767775830"
      },
      "geometry": {
        "type": "Point",
        "coordinates": [
          -49.2864256,
          -25.4454951
        ]
      }
    },
    {
      "type": "Feature",
      "id": "node/3771306394",
      "properties": {
        "timestamp": "2018-12-30T00:13:22Z",
        "version": 2,
        "changeset": 65878305,
        "addr:housenumber": "2015",
        "addr:street": "Avenida Vereador Toaldo Túlio",
        "name": "Aero Bike",
        "shop": "bicycle",
        "id": "node/3771306394"
      },
      "geometry": {
        "type": "Point",
        "coordinates": [
          -49.3466939,
          -25.4107222
        ]
      }
    },
    {
      "type": "Feature",
      "id": "node/3792105128",
      "properties": {
        "timestamp": "2016-03-20T00:13:59Z",
        "version": 3,
        "changeset": 37948117,
        "addr:city": "Curitiba",
        "addr:street": "Avenida Vereador Toaldo Túlio",
        "name": "Bike Alla Carte",
        "phone": "+55 41 30450977",
        "shop": "bicycle",
        "id": "node/3792105128"
      },
      "geometry": {
        "type": "Point",
        "coordinates": [
          -49.3529187,
          -25.4263239
        ]
      }
    },
    {
      "type": "Feature",
      "id": "node/3801358922",
      "properties": {
        "timestamp": "2022-07-30T12:42:55Z",
        "version": 5,
        "changeset": 124266519,
        "addr:city": "Curitiba",
        "addr:country": "BR",
        "addr:housename": "Loja 01",
        "addr:housenumber": "3640",
        "addr:street": "Avenida Sete de Setembro",
        "email": "contato@getsciclo.com.br",
        "name": "GetsCiclo",
        "phone": "+55 41 3019 1575",
        "service:bicycle:chain_tool": "yes",
        "service:bicycle:cleaning": "yes",
        "service:bicycle:diy": "no",
        "service:bicycle:pump": "yes",
        "service:bicycle:rental": "no",
        "service:bicycle:repair": "yes",
        "service:bicycle:retail": "no",
        "service:bicycle:second_hand": "no",
        "shop": "bicycle",
        "website": "http://www.getsciclo.com.br",
        "id": "node/3801358922"
      },
      "geometry": {
        "type": "Point",
        "coordinates": [
          -49.2740341,
          -25.4402975
        ]
      }
    },
    {
      "type": "Feature",
      "id": "node/3815546025",
      "properties": {
        "timestamp": "2019-03-24T18:01:59Z",
        "version": 2,
        "changeset": 68479492,
        "addr:city": "Curitiba",
        "addr:country": "BR",
        "addr:housenumber": "1299",
        "addr:street": "Rua Salvador Ferrante",
        "name": "Sport Bike",
        "phone": "+55 (41) 3086-1714",
        "service:bicycle:chain_tool": "yes",
        "service:bicycle:cleaning": "yes",
        "service:bicycle:diy": "no",
        "service:bicycle:pump": "yes",
        "service:bicycle:rental": "no",
        "service:bicycle:repair": "yes",
        "service:bicycle:retail": "no",
        "service:bicycle:second_hand": "yes",
        "shop": "bicycle",
        "id": "node/3815546025"
      },
      "geometry": {
        "type": "Point",
        "coordinates": [
          -49.2397752,
          -25.4978206
        ]
      }
    },
    {
      "type": "Feature",
      "id": "node/4412511289",
      "properties": {
        "timestamp": "2024-07-01T06:55:22Z",
        "version": 2,
        "changeset": 153396677,
        "name": "Multiciclo Bike",
        "name:pt": "Multiciclo Bike",
        "shop": "bicycle",
        "website": "https://www.multiciclo.com.br/",
        "id": "node/4412511289"
      },
      "geometry": {
        "type": "Point",
        "coordinates": [
          -49.3336643,
          -25.4027593
        ]
      }
    },
    {
      "type": "Feature",
      "id": "node/4748854945",
      "properties": {
        "timestamp": "2019-03-24T22:43:38Z",
        "version": 2,
        "changeset": 68486560,
        "addr:city": "Curitiba",
        "addr:housenumber": "990",
        "addr:street": "Rua Curupaitis",
        "addr:suburb": "Santa Quitéria",
        "name": "Müller Bikes",
        "shop": "bicycle",
        "id": "node/4748854945"
      },
      "geometry": {
        "type": "Point",
        "coordinates": [
          -49.3068661,
          -25.4585924
        ]
      }
    },
    {
      "type": "Feature",
      "id": "node/5228268034",
      "properties": {
        "timestamp": "2017-11-14T13:38:41Z",
        "version": 1,
        "changeset": 53771973,
        "addr:street": "Rua Francisco Claudino Pereira",
        "service:bicycle:repair": "yes",
        "shop": "bicycle",
        "id": "node/5228268034"
      },
      "geometry": {
        "type": "Point",
        "coordinates": [
          -49.275005,
          -25.5322438
        ]
      }
    },
    {
      "type": "Feature",
      "id": "node/5268595312",
      "properties": {
        "timestamp": "2019-01-02T00:31:56Z",
        "version": 2,
        "changeset": 65945837,
        "addr:city": "Curitiba",
        "addr:housenumber": "469",
        "addr:postcode": "80020-180",
        "addr:street": "Rua Barão do Serro Azul",
        "addr:suburb": "Centro",
        "name": "Agência Bicicleta",
        "phone": "(41) 3222-6226",
        "shop": "bicycle",
        "id": "node/5268595312"
      },
      "geometry": {
        "type": "Point",
        "coordinates": [
          -49.2704071,
          -25.4248967
        ]
      }
    },
    {
      "type": "Feature",
      "id": "node/6013148665",
      "properties": {
        "timestamp": "2019-06-12T13:53:55Z",
        "version": 2,
        "changeset": 71181824,
        "name": "Byke Station",
        "shop": "bicycle",
        "id": "node/6013148665"
      },
      "geometry": {
        "type": "Point",
        "coordinates": [
          -49.2274725,
          -25.4532601
        ]
      }
    },
    {
      "type": "Feature",
      "id": "node/6013148666",
      "properties": {
        "timestamp": "2019-06-12T13:53:55Z",
        "version": 2,
        "changeset": 71181824,
        "name": "Byke Station",
        "shop": "bicycle",
        "id": "node/6013148666"
      },
      "geometry": {
        "type": "Point",
        "coordinates": [
          -49.2285528,
          -25.4492905
        ]
      }
    },
    {
      "type": "Feature",
      "id": "node/6013149909",
      "properties": {
        "timestamp": "2019-11-21T11:35:33Z",
        "version": 3,
        "changeset": 77372997,
        "name": "Byke Station",
        "shop": "bicycle",
        "id": "node/6013149909"
      },
      "geometry": {
        "type": "Point",
        "coordinates": [
          -49.3107209,
          -25.4336651
        ]
      }
    },
    {
      "type": "Feature",
      "id": "node/6139445135",
      "properties": {
        "timestamp": "2022-02-09T12:21:28Z",
        "version": 2,
        "changeset": 117200107,
        "addr:housenumber": "71",
        "addr:street": "Rua Padre Bernardo Peirick",
        "name": "Foca Bikes",
        "shop": "bicycle",
        "id": "node/6139445135"
      },
      "geometry": {
        "type": "Point",
        "coordinates": [
          -49.2622251,
          -25.3852901
        ]
      }
    },
    {
      "type": "Feature",
      "id": "node/6171356093",
      "properties": {
        "timestamp": "2024-07-05T21:25:41Z",
        "version": 2,
        "changeset": 153605262,
        "addr:housenumber": "1385",
        "addr:street": "Rua Carlos de Campos",
        "contact:instagram": "veloclubcwb",
        "name": "Velo Club",
        "shop": "bicycle",
        "id": "node/6171356093"
      },
      "geometry": {
        "type": "Point",
        "coordinates": [
          -49.2413178,
          -25.389618
        ]
      }
    },
    {
      "type": "Feature",
      "id": "node/6171361169",
      "properties": {
        "timestamp": "2024-02-17T16:15:50Z",
        "version": 2,
        "changeset": 147578370,
        "addr:housenumber": "118",
        "addr:street": "Rua Simão Mansur",
        "name": "YOLO Bike Shop",
        "shop": "bicycle",
        "id": "node/6171361169"
      },
      "geometry": {
        "type": "Point",
        "coordinates": [
          -49.2593602,
          -25.3904073
        ]
      }
    },
    {
      "type": "Feature",
      "id": "node/6171363732",
      "properties": {
        "timestamp": "2020-06-03T18:35:14Z",
        "version": 2,
        "changeset": 86149594,
        "addr:housenumber": "2196",
        "addr:street": "Avenida Anita Garibaldi",
        "addr:suburb": "Boa Vista",
        "name": "Cicles Lago",
        "opening_hours": "Mo-Sa 08:00-19:00",
        "service:bicycle:repair": "yes",
        "service:bicycle:retail": "yes",
        "service:bicycle:second_hand": "yes",
        "shop": "bicycle",
        "id": "node/6171363732"
      },
      "geometry": {
        "type": "Point",
        "coordinates": [
          -49.2594383,
          -25.3934675
        ]
      }
    },
    {
      "type": "Feature",
      "id": "node/6172137458",
      "properties": {
        "timestamp": "2022-07-30T12:42:55Z",
        "version": 2,
        "changeset": 124266519,
        "addr:door": "Loja 5",
        "addr:housenumber": "68",
        "addr:postcode": "82560040",
        "addr:street": "Rua Lodovico Geronazzo",
        "name": "House Bike",
        "phone": "+55 41 3357 6841",
        "service:bicycle:cleaning": "yes",
        "service:bicycle:diy": "no",
        "service:bicycle:pump": "yes",
        "service:bicycle:rental": "no",
        "service:bicycle:repair": "yes",
        "service:bicycle:retail": "yes",
        "service:bicycle:second_hand": "yes",
        "shop": "bicycle",
        "id": "node/6172137458"
      },
      "geometry": {
        "type": "Point",
        "coordinates": [
          -49.2387298,
          -25.3920455
        ]
      }
    },
    {
      "type": "Feature",
      "id": "node/6172142438",
      "properties": {
        "timestamp": "2019-08-05T17:03:47Z",
        "version": 3,
        "changeset": 73033690,
        "addr:housenumber": "269",
        "addr:street": "Rua Estados Unidos",
        "name": "Bike51",
        "shop": "bicycle",
        "id": "node/6172142438"
      },
      "geometry": {
        "type": "Point",
        "coordinates": [
          -49.2392025,
          -25.409279
        ]
      }
    },
    {
      "type": "Feature",
      "id": "node/6173643478",
      "properties": {
        "timestamp": "2024-01-28T10:27:01Z",
        "version": 4,
        "changeset": 146772751,
        "addr:housenumber": "1010",
        "addr:street": "Avenida Paraná",
        "name": "BiCi Bikes Cabral",
        "phone": "+55 41 988984846",
        "shop": "bicycle",
        "website": "https://www.instagram.com/bicibikescabral",
        "id": "node/6173643478"
      },
      "geometry": {
        "type": "Point",
        "coordinates": [
          -49.249408,
          -25.4033878
        ]
      }
    },
    {
      "type": "Feature",
      "id": "node/6173725884",
      "properties": {
        "timestamp": "2022-06-24T19:38:02Z",
        "version": 2,
        "changeset": 122816307,
        "addr:housenumber": "919",
        "addr:street": "Avenida Presidente Affonso Camargo",
        "name": "VS BikeShop",
        "shop": "bicycle",
        "id": "node/6173725884"
      },
      "geometry": {
        "type": "Point",
        "coordinates": [
          -49.2508837,
          -25.4354685
        ]
      }
    },
    {
      "type": "Feature",
      "id": "node/6181964414",
      "properties": {
        "timestamp": "2023-05-10T22:45:59Z",
        "version": 3,
        "changeset": 135954269,
        "addr:housenumber": "2346",
        "addr:street": "Avenida Sete de Setembro",
        "name": "Tao Bikes",
        "opening_hours": "Mo-Fr 07:30-19:00; Sa 08:00-18:00; Su 09:00-18:00",
        "phone": "+55 41 40423002",
        "shop": "bicycle",
        "id": "node/6181964414"
      },
      "geometry": {
        "type": "Point",
        "coordinates": [
          -49.2619504,
          -25.435629
        ]
      }
    },
    {
      "type": "Feature",
      "id": "node/6186196805",
      "properties": {
        "timestamp": "2019-08-30T17:06:26Z",
        "version": 2,
        "changeset": 73932373,
        "addr:housenumber": "531",
        "addr:street": "Rua Dom Pedro I",
        "name": "Strong Bike",
        "shop": "bicycle",
        "id": "node/6186196805"
      },
      "geometry": {
        "type": "Point",
        "coordinates": [
          -49.28355,
          -25.4587842
        ]
      }
    },
    {
      "type": "Feature",
      "id": "node/6358211261",
      "properties": {
        "timestamp": "2024-08-11T23:44:24Z",
        "version": 5,
        "changeset": 155125048,
        "addr:city": "Curitiba",
        "addr:housenumber": "226",
        "addr:street": "Rua Margarida de Andrade Weber",
        "check_date:currency:XBT": "2024-08-11",
        "contact:instagram": "https://www.instagram.com/cr_bikes_",
        "currency:XBT": "yes",
        "description": "Bicicletas, Peças, Acessórios e Serviços em Geral. Experiência de mais de 25 anos, com o melhor preço e qualidade da região.",
        "name": "CR Bikes",
        "opening_hours": "Mo-Fr 08:30-19:00 / Sa 8:30-15:30",
        "payment:coinos": "yes",
        "payment:lightning": "yes",
        "payment:onchain": "yes",
        "phone": "+55 41 95672405",
        "shop": "bicycle",
        "id": "node/6358211261"
      },
      "geometry": {
        "type": "Point",
        "coordinates": [
          -49.3384552,
          -25.5407102
        ]
      }
    },
    {
      "type": "Feature",
      "id": "node/6358709856",
      "properties": {
        "timestamp": "2024-05-09T18:52:52Z",
        "version": 2,
        "changeset": 151115186,
        "addr:housenumber": "828",
        "addr:street": "Rua 1 de Maio",
        "shop": "bicycle",
        "id": "node/6358709856"
      },
      "geometry": {
        "type": "Point",
        "coordinates": [
          -49.2790121,
          -25.5135507
        ]
      }
    },
    {
      "type": "Feature",
      "id": "node/6359336307",
      "properties": {
        "timestamp": "2019-09-30T13:19:45Z",
        "version": 2,
        "changeset": 75101148,
        "addr:housenumber": "4206",
        "addr:street": "Rua Eduardo Sprada",
        "name": "Bike Brothers",
        "shop": "bicycle",
        "id": "node/6359336307"
      },
      "geometry": {
        "type": "Point",
        "coordinates": [
          -49.3460302,
          -25.4452734
        ]
      }
    },
    {
      "type": "Feature",
      "id": "node/6528294679",
      "properties": {
        "timestamp": "2019-06-24T13:48:41Z",
        "version": 2,
        "changeset": 71562354,
        "entrance": "yes",
        "id": "node/6528294679"
      },
      "geometry": {
        "type": "Point",
        "coordinates": [
          -49.2468451,
          -25.4230722
        ]
      }
    },
    {
      "type": "Feature",
      "id": "node/6542536282",
      "properties": {
        "timestamp": "2019-06-12T13:53:55Z",
        "version": 1,
        "changeset": 71181824,
        "name": "Byke Station",
        "shop": "bicycle",
        "id": "node/6542536282"
      },
      "geometry": {
        "type": "Point",
        "coordinates": [
          -49.20458,
          -25.4307925
        ]
      }
    },
    {
      "type": "Feature",
      "id": "node/6542536283",
      "properties": {
        "timestamp": "2019-06-12T13:53:55Z",
        "version": 1,
        "changeset": 71181824,
        "name": "Byke Station",
        "shop": "bicycle",
        "id": "node/6542536283"
      },
      "geometry": {
        "type": "Point",
        "coordinates": [
          -49.2478119,
          -25.4810003
        ]
      }
    },
    {
      "type": "Feature",
      "id": "node/6542564796",
      "properties": {
        "timestamp": "2019-06-21T16:06:37Z",
        "version": 2,
        "changeset": 71487531,
        "name": "Byke Station",
        "shop": "bicycle",
        "id": "node/6542564796"
      },
      "geometry": {
        "type": "Point",
        "coordinates": [
          -49.2267476,
          -25.4118307
        ]
      }
    },
    {
      "type": "Feature",
      "id": "node/6542564798",
      "properties": {
        "timestamp": "2019-06-12T13:53:55Z",
        "version": 1,
        "changeset": 71181824,
        "name": "Byke Station",
        "shop": "bicycle",
        "id": "node/6542564798"
      },
      "geometry": {
        "type": "Point",
        "coordinates": [
          -49.2655351,
          -25.4308047
        ]
      }
    },
    {
      "type": "Feature",
      "id": "node/6545983877",
      "properties": {
        "timestamp": "2019-06-13T21:00:13Z",
        "version": 1,
        "changeset": 71232047,
        "name": "Daniel Bike's",
        "shop": "bicycle",
        "id": "node/6545983877"
      },
      "geometry": {
        "type": "Point",
        "coordinates": [
          -49.24916,
          -25.4306593
        ]
      }
    },
    {
      "type": "Feature",
      "id": "node/6799259527",
      "properties": {
        "timestamp": "2019-11-09T20:27:15Z",
        "version": 2,
        "changeset": 76853683,
        "name": "Byke Station",
        "shop": "bicycle",
        "id": "node/6799259527"
      },
      "geometry": {
        "type": "Point",
        "coordinates": [
          -49.2325688,
          -25.4284348
        ]
      }
    },
    {
      "type": "Feature",
      "id": "node/6837698014",
      "properties": {
        "timestamp": "2019-09-30T13:19:45Z",
        "version": 1,
        "changeset": 75101148,
        "name": "Cicles Universo",
        "shop": "bicycle",
        "id": "node/6837698014"
      },
      "geometry": {
        "type": "Point",
        "coordinates": [
          -49.3504306,
          -25.4522792
        ]
      }
    },
    {
      "type": "Feature",
      "id": "node/6837778430",
      "properties": {
        "timestamp": "2019-09-30T13:56:39Z",
        "version": 1,
        "changeset": 75103408,
        "name": "A Bicicletaria",
        "shop": "bicycle",
        "id": "node/6837778430"
      },
      "geometry": {
        "type": "Point",
        "coordinates": [
          -49.279143,
          -25.4311593
        ]
      }
    },
    {
      "type": "Feature",
      "id": "node/6925009994",
      "properties": {
        "timestamp": "2019-10-28T16:20:31Z",
        "version": 1,
        "changeset": 76307123,
        "name": "Bicicletaria Cultural",
        "shop": "bicycle",
        "id": "node/6925009994"
      },
      "geometry": {
        "type": "Point",
        "coordinates": [
          -49.2681296,
          -25.4284454
        ]
      }
    },
    {
      "type": "Feature",
      "id": "node/7188710467",
      "properties": {
        "timestamp": "2020-02-05T20:28:44Z",
        "version": 1,
        "changeset": 80607211,
        "addr:housenumber": "2270",
        "addr:street": "Avenida Senador Salgado Filho",
        "name": "BeBikes",
        "shop": "bicycle",
        "id": "node/7188710467"
      },
      "geometry": {
        "type": "Point",
        "coordinates": [
          -49.2400707,
          -25.4693447
        ]
      }
    },
    {
      "type": "Feature",
      "id": "node/10293470723",
      "properties": {
        "timestamp": "2022-12-29T15:29:05Z",
        "version": 1,
        "changeset": 130651325,
        "name": "Eleeze",
        "shop": "bicycle",
        "id": "node/10293470723"
      },
      "geometry": {
        "type": "Point",
        "coordinates": [
          -49.3061227,
          -25.423285
        ]
      }
    },
    {
      "type": "Feature",
      "id": "node/10775438981",
      "properties": {
        "timestamp": "2023-03-31T11:31:13Z",
        "version": 1,
        "changeset": 134340931,
        "addr:housenumber": "483",
        "addr:street": "Rua Itatiaia",
        "name": "P12 Bikes, Café e Bar",
        "shop": "bicycle",
        "id": "node/10775438981"
      },
      "geometry": {
        "type": "Point",
        "coordinates": [
          -49.2970744,
          -25.4780822
        ]
      }
    },
    {
      "type": "Feature",
      "id": "node/10778270157",
      "properties": {
        "timestamp": "2023-12-10T20:42:31Z",
        "version": 3,
        "changeset": 144977011,
        "addr:housenumber": "791",
        "addr:street": "Rua Doutor Alcides Vieira Arcoverde",
        "name": "PW Bikes",
        "shop": "bicycle",
        "id": "node/10778270157"
      },
      "geometry": {
        "type": "Point",
        "coordinates": [
          -49.2394049,
          -25.4591914
        ]
      }
    },
    {
      "type": "Feature",
      "id": "node/11634968599",
      "properties": {
        "timestamp": "2024-02-17T16:15:50Z",
        "version": 1,
        "changeset": 147578370,
        "addr:housenumber": "42",
        "addr:street": "Rua Jacob Biron",
        "name": "MT Bikes",
        "shop": "bicycle",
        "id": "node/11634968599"
      },
      "geometry": {
        "type": "Point",
        "coordinates": [
          -49.2620017,
          -25.3842011
        ]
      }
    }
  ]
}
