{
  "type": "FeatureCollection",
  "features": [
    {
      "type": "Feature",
      "id": "node/613831368",
      "properties": {
        "timestamp": "2018-08-09T01:22:23Z",
        "version": 4,
        "changeset": 61484210,
        "amenity": "cinema",
        "name": "Cinesystem",
        "wheelchair": "yes",
        "id": "node/613831368"
      },
      "geometry": {
        "type": "Point",
        "coordinates": [
          -49.2937877,
          -25.4783523
        ]
      }
    },
    {
      "type": "Feature",
      "id": "node/613831369",
      "properties": {
        "timestamp": "2022-05-26T14:50:57Z",
        "version": 6,
        "changeset": 121530711,
        "addr:city": "Curitiba",
        "addr:housenumber": "4121",
        "addr:postcode": "80610-905",
        "addr:street": "Avenida Presidente Kennedy",
        "addr:suburb": "Portão",
        "amenity": "cinema",
        "name": "IMAX",
        "phone": "+55 41 3212-3578",
        "website": "https://www.imaxpalladium.com.br/",
        "id": "node/613831369"
      },
      "geometry": {
        "type": "Point",
        "coordinates": [
          -49.2916453,
          -25.4785678
        ]
      }
    },
    {
      "type": "Feature",
      "id": "node/1148140514",
      "properties": {
        "timestamp": "2015-06-17T16:58:35Z",
        "version": 3,
        "changeset": 32033459,
        "amenity": "cinema",
        "name": "Cinesystem",
        "operator": "Cinesystem",
        "id": "node/1148140514"
      },
      "geometry": {
        "type": "Point",
        "coordinates": [
          -49.2775465,
          -25.4407808
        ]
      }
    },
    {
      "type": "Feature",
      "id": "node/1727801573",
      "properties": {
        "timestamp": "2018-10-31T13:03:58Z",
        "version": 3,
        "changeset": 64037010,
        "amenity": "cinema",
        "name": "Cinemark Barigui",
        "wheelchair": "yes",
        "id": "node/1727801573"
      },
      "geometry": {
        "type": "Point",
        "coordinates": [
          -49.3157005,
          -25.4350362
        ]
      }
    },
    {
      "type": "Feature",
      "id": "node/3596416190",
      "properties": {
        "timestamp": "2019-09-10T17:21:45Z",
        "version": 3,
        "changeset": 74322637,
        "addr:city": "Curitiba",
        "addr:housenumber": "127",
        "addr:postcode": "80530-060",
        "addr:street": "Avenida Cândido de Abreu",
        "addr:suburb": "Centro Cívico",
        "amenity": "cinema",
        "brand": "Cinemark",
        "brand:wikidata": "Q707530",
        "brand:wikipedia": "en:Cinemark Theatres",
        "level": "3",
        "name": "Cinemark",
        "id": "node/3596416190"
      },
      "geometry": {
        "type": "Point",
        "coordinates": [
          -49.2702804,
          -25.4228639
        ]
      }
    },
    {
      "type": "Feature",
      "id": "node/3602495145",
      "properties": {
        "timestamp": "2022-05-26T14:49:12Z",
        "version": 4,
        "changeset": 121530602,
        "addr:city": "Curitiba",
        "addr:housenumber": "200",
        "addr:street": "Avenida Cândido de Abreu",
        "addr:suburb": "Centro Cívico",
        "amenity": "cinema",
        "name": "Cine SESI",
        "website": "https://www.sesipr.org.br/cultura/cinema/",
        "id": "node/3602495145"
      },
      "geometry": {
        "type": "Point",
        "coordinates": [
          -49.2691727,
          -25.4226682
        ]
      }
    },
    {
      "type": "Feature",
      "id": "node/3618651375",
      "properties": {
        "timestamp": "2015-06-26T02:43:07Z",
        "version": 2,
        "changeset": 32217156,
        "amenity": "cinema",
        "name": "FTD Digital Arena",
        "website": "http://www.ftddigitalarena.com.br/",
        "id": "node/3618651375"
      },
      "geometry": {
        "type": "Point",
        "coordinates": [
          -49.2518725,
          -25.4530714
        ]
      }
    },
    {
      "type": "Feature",
      "id": "node/3621580201",
      "properties": {
        "timestamp": "2020-10-14T13:04:27Z",
        "version": 2,
        "changeset": 92475053,
        "amenity": "cinema",
        "name": "Cinemateca de Curitiba",
        "wikidata": "Q100331750",
        "id": "node/3621580201"
      },
      "geometry": {
        "type": "Point",
        "coordinates": [
          -49.2766256,
          -25.4247424
        ]
      }
    },
    {
      "type": "Feature",
      "id": "node/3625098870",
      "properties": {
        "timestamp": "2015-06-29T12:07:25Z",
        "version": 2,
        "changeset": 32283851,
        "amenity": "cinema",
        "name": "Cineplus Água Verde",
        "id": "node/3625098870"
      },
      "geometry": {
        "type": "Point",
        "coordinates": [
          -49.2900088,
          -25.4635927
        ]
      }
    },
    {
      "type": "Feature",
      "id": "node/3625198850",
      "properties": {
        "timestamp": "2022-10-25T17:29:12Z",
        "version": 2,
        "changeset": 128050031,
        "addr:city": "Curitiba",
        "addr:housenumber": "3430",
        "addr:street": "Avenida República Argentina",
        "addr:suburb": "Portão",
        "amenity": "cinema",
        "name": "Cine Guarani",
        "id": "node/3625198850"
      },
      "geometry": {
        "type": "Point",
        "coordinates": [
          -49.2930618,
          -25.4765808
        ]
      }
    },
    {
      "type": "Feature",
      "id": "node/3625253625",
      "properties": {
        "timestamp": "2015-06-29T13:25:54Z",
        "version": 1,
        "changeset": 32285491,
        "amenity": "cinema",
        "name": "UCI",
        "id": "node/3625253625"
      },
      "geometry": {
        "type": "Point",
        "coordinates": [
          -49.2902388,
          -25.4775604
        ]
      }
    },
    {
      "type": "Feature",
      "id": "node/3629122381",
      "properties": {
        "timestamp": "2015-07-01T12:11:33Z",
        "version": 1,
        "changeset": 32330349,
        "amenity": "cinema",
        "name": "Cineplex Batel",
        "id": "node/3629122381"
      },
      "geometry": {
        "type": "Point",
        "coordinates": [
          -49.2835189,
          -25.4383175
        ]
      }
    },
    {
      "type": "Feature",
      "id": "node/4675766469",
      "properties": {
        "timestamp": "2022-12-30T23:26:26Z",
        "version": 2,
        "changeset": 130705715,
        "amenity": "cinema",
        "check_date": "2022-12-30",
        "level": "2",
        "name": "Cine Plus",
        "payment:mastercard": "yes",
        "payment:visa": "yes",
        "id": "node/4675766469"
      },
      "geometry": {
        "type": "Point",
        "coordinates": [
          -49.228075,
          -25.4516008
        ]
      }
    },
    {
      "type": "Feature",
      "id": "node/6181965766",
      "properties": {
        "timestamp": "2019-09-30T20:21:42Z",
        "version": 2,
        "changeset": 75119148,
        "addr:housenumber": "410",
        "addr:street": "Rua Riachuelo",
        "amenity": "cinema",
        "name": "Cine Passeio",
        "id": "node/6181965766"
      },
      "geometry": {
        "type": "Point",
        "coordinates": [
          -49.2694505,
          -25.4265012
        ]
      }
    }
  ]
}
