{
  "type": "FeatureCollection",
  "features": [
    {
      "type": "Feature",
      "id": "way/259216315",
      "properties": {
        "timestamp": "2022-06-06T01:37:52Z",
        "version": 3,
        "changeset": 121999748,
        "addr:city": "Curitiba",
        "addr:housenumber": "590",
        "addr:postcode": "80240-020",
        "addr:street": "Rua Bento Viana",
        "addr:suburb": "Água Verde",
        "amenity": "dentist",
        "building": "yes",
        "name": "Ortoestética",
        "phone": "+55 41 3243-2620",
        "id": "way/259216315"
      },
      "geometry": {
        "type": "Polygon",
        "coordinates": [
          [
            [
              -49.282511,
              -25.4479521
            ],
            [
              -49.2826825,
              -25.448014
            ],
            [
              -49.2826369,
              -25.4481169
            ],
            [
              -49.2824654,
              -25.4480549
            ],
            [
              -49.282511,
              -25.4479521
            ]
          ]
        ]
      }
    },
    {
      "type": "Feature",
      "id": "way/259220427",
      "properties": {
        "timestamp": "2023-08-29T17:29:36Z",
        "version": 7,
        "changeset": 140553296,
        "addr:housenumber": "453",
        "addr:street": "Rua Petit Carneiro",
        "amenity": "dentist",
        "building": "commercial",
        "building:levels": "1",
        "check_date": "2023-08-29",
        "healthcare": "dentist",
        "name": "Verona Odontologia e Estética",
        "roof:shape": "flat",
        "smoking": "no",
        "source": "survey;local knowledge",
        "wheelchair": "limited",
        "id": "way/259220427"
      },
      "geometry": {
        "type": "Polygon",
        "coordinates": [
          [
            [
              -49.2812276,
              -25.4506151
            ],
            [
              -49.2813353,
              -25.450366
            ],
            [
              -49.2814312,
              -25.4503998
            ],
            [
              -49.2813235,
              -25.4506489
            ],
            [
              -49.2812276,
              -25.4506151
            ]
          ]
        ]
      }
    },
    {
      "type": "Feature",
      "id": "way/259637947",
      "properties": {
        "timestamp": "2024-10-08T13:46:37Z",
        "version": 4,
        "changeset": 157627923,
        "addr:city": "Curitiba",
        "addr:housenumber": "3323",
        "addr:postcode": "80250-30",
        "addr:street": "Rua Brigadeiro Franco",
        "addr:suburb": "Água Verde",
        "amenity": "dentist",
        "building": "yes",
        "check_date:currency:XBT": "2024-10-08",
        "contact:email": "ibio@ibio.com.br",
        "contact:instagram": "https://www.instagram.com/ibiocuritiba",
        "currency:XBT": "yes",
        "description": "Clínica Odontológica em Curitiba, atende em todas as especialidades com foco em Implantes Dentários, Lentes de Contato Dental, Aplicação de Botox.",
        "healthcare": "dentist",
        "healthcare:speciality": "orthodontics",
        "name": "IBIO (Instituto Brasileiro de Implantes Odontologicos)",
        "opening_hours": "Mo-Fr 8:15-18 / Th 8:15-20",
        "payment:onchain": "yes",
        "phone": "(41)3026-3323",
        "website": "https://www.ibio.com.br",
        "id": "way/259637947"
      },
      "geometry": {
        "type": "Polygon",
        "coordinates": [
          [
            [
              -49.2727875,
              -25.4490547
            ],
            [
              -49.2727385,
              -25.4491515
            ],
            [
              -49.2726128,
              -25.4491116
            ],
            [
              -49.2726534,
              -25.4490144
            ],
            [
              -49.2727875,
              -25.4490547
            ]
          ]
        ]
      }
    },
    {
      "type": "Feature",
      "id": "way/381460149",
      "properties": {
        "timestamp": "2023-11-24T03:22:46Z",
        "version": 4,
        "changeset": 144389497,
        "addr:city": "Curitiba",
        "addr:housenumber": "532",
        "addr:postcode": "3288-2129",
        "addr:street": "Avenida Frederico Lambertucci",
        "addr:suburb": "Fazendinha",
        "amenity": "dentist",
        "building": "yes",
        "healthcare": "dentist",
        "name": "Maxiclin Clínica Odontológica",
        "opening_hours": "08:00-19:00",
        "phone": "+55 41 3245-4512",
        "id": "way/381460149"
      },
      "geometry": {
        "type": "Polygon",
        "coordinates": [
          [
            [
              -49.3271009,
              -25.4833924
            ],
            [
              -49.327177,
              -25.4834707
            ],
            [
              -49.327016,
              -25.4835937
            ],
            [
              -49.3269452,
              -25.4835091
            ],
            [
              -49.3271009,
              -25.4833924
            ]
          ]
        ]
      }
    },
    {
      "type": "Feature",
      "id": "way/500781899",
      "properties": {
        "timestamp": "2019-01-05T17:18:45Z",
        "version": 3,
        "changeset": 66052419,
        "addr:housenumber": "3333",
        "addr:street": "Avenida Presidente Getúlio Vargas",
        "amenity": "dentist",
        "building": "commercial",
        "healthcare": "dentist",
        "id": "way/500781899"
      },
      "geometry": {
        "type": "Polygon",
        "coordinates": [
          [
            [
              -49.2910658,
              -25.4525069
            ],
            [
              -49.2912044,
              -25.4525582
            ],
            [
              -49.2911333,
              -25.4527147
            ],
            [
              -49.2909947,
              -25.4526634
            ],
            [
              -49.2910658,
              -25.4525069
            ]
          ]
        ]
      }
    },
    {
      "type": "Feature",
      "id": "way/1256582627",
      "properties": {
        "timestamp": "2024-04-24T15:56:26Z",
        "version": 3,
        "changeset": 150454827,
        "amenity": "dentist",
        "building": "yes",
        "check_date": "2024-04-23",
        "healthcare": "dentist",
        "internet_access": "wlan",
        "internet_access:fee": "customers",
        "id": "way/1256582627"
      },
      "geometry": {
        "type": "Polygon",
        "coordinates": [
          [
            [
              -49.2803303,
              -25.4285356
            ],
            [
              -49.2805263,
              -25.4285067
            ],
            [
              -49.280536,
              -25.4285607
            ],
            [
              -49.2805619,
              -25.4285568
            ],
            [
              -49.2805733,
              -25.4286199
            ],
            [
              -49.2803515,
              -25.4286526
            ],
            [
              -49.2803303,
              -25.4285356
            ]
          ]
        ]
      }
    },
    {
      "type": "Feature",
      "id": "way/1280404581",
      "properties": {
        "timestamp": "2024-08-04T23:14:58Z",
        "version": 2,
        "changeset": 154832445,
        "amenity": "dentist",
        "building": "yes",
        "healthcare": "dentist",
        "name": "Dra Anna Carolina Z. de pauli - Odontologia",
        "id": "way/1280404581"
      },
      "geometry": {
        "type": "Polygon",
        "coordinates": [
          [
            [
              -49.2308709,
              -25.4571628
            ],
            [
              -49.2308371,
              -25.4570903
            ],
            [
              -49.2310172,
              -25.4570217
            ],
            [
              -49.2310433,
              -25.4570776
            ],
            [
              -49.230982,
              -25.4571009
            ],
            [
              -49.2309898,
              -25.4571175
            ],
            [
              -49.2308709,
              -25.4571628
            ]
          ]
        ]
      }
    },
    {
      "type": "Feature",
      "id": "way/1282082538",
      "properties": {
        "timestamp": "2024-05-12T04:00:09Z",
        "version": 1,
        "changeset": 151208651,
        "amenity": "dentist",
        "building": "yes",
        "healthcare": "dentist",
        "id": "way/1282082538"
      },
      "geometry": {
        "type": "Polygon",
        "coordinates": [
          [
            [
              -49.2626827,
              -25.5297769
            ],
            [
              -49.262611,
              -25.5299446
            ],
            [
              -49.2625144,
              -25.529911
            ],
            [
              -49.2624982,
              -25.5298913
            ],
            [
              -49.2625647,
              -25.5297358
            ],
            [
              -49.2626827,
              -25.5297769
            ]
          ]
        ]
      }
    },
    {
      "type": "Feature",
      "id": "node/851168615",
      "properties": {
        "timestamp": "2015-11-04T11:18:33Z",
        "version": 3,
        "changeset": 35076353,
        "amenity": "dentist",
        "name": "Clínica Odontológica",
        "id": "node/851168615"
      },
      "geometry": {
        "type": "Point",
        "coordinates": [
          -49.25104,
          -25.451685
        ]
      }
    },
    {
      "type": "Feature",
      "id": "node/3600438603",
      "properties": {
        "timestamp": "2018-12-30T00:13:15Z",
        "version": 3,
        "changeset": 65878305,
        "addr:city": "Curitiba",
        "addr:housenumber": "3158",
        "addr:street": "Avenida Vereador Toaldo Túlio",
        "amenity": "dentist",
        "name": "Bucalle Odontologia",
        "id": "node/3600438603"
      },
      "geometry": {
        "type": "Point",
        "coordinates": [
          -49.3492117,
          -25.4178727
        ]
      }
    },
    {
      "type": "Feature",
      "id": "node/4052717624",
      "properties": {
        "timestamp": "2016-03-22T22:10:58Z",
        "version": 2,
        "changeset": 38009329,
        "amenity": "dentist",
        "name": "Dentville Ortodontia",
        "id": "node/4052717624"
      },
      "geometry": {
        "type": "Point",
        "coordinates": [
          -49.3463409,
          -25.4403065
        ]
      }
    },
    {
      "type": "Feature",
      "id": "node/4244812641",
      "properties": {
        "timestamp": "2022-07-30T00:47:06Z",
        "version": 9,
        "changeset": 124251671,
        "addr:city": "Curitiba",
        "addr:housenumber": "525",
        "addr:postcode": "80020-180",
        "addr:street": "Rua Barão do Serro Azul",
        "addr:suburb": "Centro",
        "amenity": "dentist",
        "healthcare": "dentist",
        "name": "CWB Sorriso",
        "opening_hours": "Mo-Fr 09:00-19:30, 09:00-18:00; Sa 10:00-14:00",
        "phone": "+55 41 3323 1150",
        "id": "node/4244812641"
      },
      "geometry": {
        "type": "Point",
        "coordinates": [
          -49.2703083,
          -25.4245157
        ]
      }
    },
    {
      "type": "Feature",
      "id": "node/4245026078",
      "properties": {
        "timestamp": "2020-10-08T06:02:00Z",
        "version": 8,
        "changeset": 92146496,
        "addr:city": "Curitiba",
        "addr:postcode": "80020-180",
        "addr:street": "Rua Barão do Serro Azul",
        "addr:suburb": "Centro",
        "amenity": "dentist",
        "healthcare": "dentist",
        "name": "iDent",
        "id": "node/4245026078"
      },
      "geometry": {
        "type": "Point",
        "coordinates": [
          -49.2704498,
          -25.4250694
        ]
      }
    },
    {
      "type": "Feature",
      "id": "node/4302457106",
      "properties": {
        "timestamp": "2022-04-25T03:52:01Z",
        "version": 3,
        "changeset": 120144901,
        "addr:street": "Rua Pedro Ivo",
        "amenity": "dentist",
        "healthcare": "dentist",
        "name": "Odonto Centro",
        "id": "node/4302457106"
      },
      "geometry": {
        "type": "Point",
        "coordinates": [
          -49.2724461,
          -25.4345679
        ]
      }
    },
    {
      "type": "Feature",
      "id": "node/4599659966",
      "properties": {
        "timestamp": "2020-02-01T16:12:52Z",
        "version": 2,
        "changeset": 80414397,
        "amenity": "dentist",
        "healthcare": "dentist",
        "name": "Clínica Odontológica 24H",
        "id": "node/4599659966"
      },
      "geometry": {
        "type": "Point",
        "coordinates": [
          -49.2854202,
          -25.4446284
        ]
      }
    },
    {
      "type": "Feature",
      "id": "node/4757582034",
      "properties": {
        "timestamp": "2017-03-27T08:42:06Z",
        "version": 1,
        "changeset": 47194993,
        "amenity": "dentist",
        "id": "node/4757582034"
      },
      "geometry": {
        "type": "Point",
        "coordinates": [
          -49.3078056,
          -25.4561062
        ]
      }
    },
    {
      "type": "Feature",
      "id": "node/4821559422",
      "properties": {
        "timestamp": "2017-04-27T23:55:16Z",
        "version": 1,
        "changeset": 48212002,
        "addr:street": "Rua Guilherme Ihlenfeldt",
        "amenity": "dentist",
        "name": "Gilson",
        "id": "node/4821559422"
      },
      "geometry": {
        "type": "Point",
        "coordinates": [
          -49.2307553,
          -25.3832627
        ]
      }
    },
    {
      "type": "Feature",
      "id": "node/5297499358",
      "properties": {
        "timestamp": "2022-07-30T12:42:55Z",
        "version": 5,
        "changeset": 124266519,
        "addr:city": "Curitiba",
        "addr:housenumber": "350",
        "addr:postcode": "80620-400",
        "addr:street": "Rua Nestor Victor",
        "addr:suburb": "Água Verde",
        "amenity": "dentist",
        "description": "Consultório odontológico",
        "name": "LA'Oro Odontologia",
        "phone": "+55 41 9 9920 5969",
        "id": "node/5297499358"
      },
      "geometry": {
        "type": "Point",
        "coordinates": [
          -49.2777673,
          -25.4549886
        ]
      }
    },
    {
      "type": "Feature",
      "id": "node/5598602944",
      "properties": {
        "timestamp": "2023-10-15T11:57:54Z",
        "version": 3,
        "changeset": 142614461,
        "addr:housenumber": "2303",
        "addr:street": "Rua Alferes Ângelo Sampaio",
        "amenity": "dentist",
        "name": "Instituto Zétola Odontologia",
        "phone": "+554130242202",
        "website": "https://www.institutozetola.com.br/",
        "id": "node/5598602944"
      },
      "geometry": {
        "type": "Point",
        "coordinates": [
          -49.2889144,
          -25.4346561
        ]
      }
    },
    {
      "type": "Feature",
      "id": "node/6171366613",
      "properties": {
        "timestamp": "2019-04-08T17:09:10Z",
        "version": 2,
        "changeset": 69015635,
        "addr:housenumber": "788",
        "addr:street": "Rua Vicente Geronasso",
        "amenity": "dentist",
        "healthcare": "dentist",
        "id": "node/6171366613"
      },
      "geometry": {
        "type": "Point",
        "coordinates": [
          -49.2503827,
          -25.3810324
        ]
      }
    },
    {
      "type": "Feature",
      "id": "node/6175226164",
      "properties": {
        "timestamp": "2023-06-09T17:56:13Z",
        "version": 2,
        "changeset": 137147904,
        "addr:housenumber": "281",
        "addr:street": "Rua Dias da Rocha Filho",
        "amenity": "dentist",
        "healthcare": "dentist",
        "id": "node/6175226164"
      },
      "geometry": {
        "type": "Point",
        "coordinates": [
          -49.2536562,
          -25.4255138
        ]
      }
    },
    {
      "type": "Feature",
      "id": "node/6175227908",
      "properties": {
        "timestamp": "2023-08-19T07:17:07Z",
        "version": 4,
        "changeset": 140083361,
        "addr:housenumber": "970",
        "addr:street": "Avenida Visconde de Guarapuava",
        "amenity": "dentist",
        "healthcare": "dentist",
        "healthcare:speciality": "dentist;Dentista_geral;Harmonização_Facial",
        "name": "Doutora Larissa Carvalho",
        "opening_hours": "Mo-Sa 08:00-18:00",
        "id": "node/6175227908"
      },
      "geometry": {
        "type": "Point",
        "coordinates": [
          -49.2512175,
          -25.4298034
        ]
      }
    },
    {
      "type": "Feature",
      "id": "node/6186206023",
      "properties": {
        "timestamp": "2023-10-05T11:34:32Z",
        "version": 3,
        "changeset": 142185551,
        "addr:housenumber": "39",
        "addr:street": "Rua Goias",
        "amenity": "dentist",
        "healthcare": "dentist",
        "name": "Dra. Daniele Maia",
        "id": "node/6186206023"
      },
      "geometry": {
        "type": "Point",
        "coordinates": [
          -49.2906601,
          -25.4643975
        ]
      }
    },
    {
      "type": "Feature",
      "id": "node/6227025085",
      "properties": {
        "timestamp": "2019-01-22T11:12:32Z",
        "version": 1,
        "changeset": 66533946,
        "addr:housenumber": "7651",
        "addr:street": "Avenida Manoel Ribas",
        "amenity": "dentist",
        "name": "Iolanda Manfron",
        "phone": "+554133745095",
        "id": "node/6227025085"
      },
      "geometry": {
        "type": "Point",
        "coordinates": [
          -49.343498,
          -25.3977258
        ]
      }
    },
    {
      "type": "Feature",
      "id": "node/6358358493",
      "properties": {
        "timestamp": "2023-05-26T14:24:46Z",
        "version": 2,
        "changeset": 136590594,
        "addr:city": "Curitiba",
        "addr:housenumber": "933",
        "addr:postcode": "81925260",
        "addr:street": "Rua Lupionópolis",
        "addr:suburb": "Sítio Cerrado",
        "amenity": "dentist",
        "healthcare": "dentist",
        "healthcare:speciality": "general;adulto;infantil;dentist",
        "name": "Consultório Odontológico",
        "operator": "Thiago Koehier",
        "id": "node/6358358493"
      },
      "geometry": {
        "type": "Point",
        "coordinates": [
          -49.2704902,
          -25.5468023
        ]
      }
    },
    {
      "type": "Feature",
      "id": "node/6359066464",
      "properties": {
        "timestamp": "2023-10-02T14:18:38Z",
        "version": 2,
        "changeset": 142041977,
        "addr:housenumber": "161",
        "addr:street": "Rua Clara Polsin",
        "amenity": "dentist",
        "healthcare": "dentist",
        "name": "Dra. Valéria Karly",
        "id": "node/6359066464"
      },
      "geometry": {
        "type": "Point",
        "coordinates": [
          -49.2884548,
          -25.49138
        ]
      }
    },
    {
      "type": "Feature",
      "id": "node/6605852350",
      "properties": {
        "timestamp": "2019-07-11T15:51:50Z",
        "version": 1,
        "changeset": 72142459,
        "amenity": "dentist",
        "healthcare": "dentist",
        "name": "Cavassin e Boeing",
        "id": "node/6605852350"
      },
      "geometry": {
        "type": "Point",
        "coordinates": [
          -49.2548981,
          -25.426448
        ]
      }
    },
    {
      "type": "Feature",
      "id": "node/6632652404",
      "properties": {
        "timestamp": "2019-07-20T03:25:38Z",
        "version": 1,
        "changeset": 72450913,
        "amenity": "dentist",
        "contact:phone": "+55 41 3023-5051",
        "name": "Orto Implante",
        "id": "node/6632652404"
      },
      "geometry": {
        "type": "Point",
        "coordinates": [
          -49.2657973,
          -25.431808
        ]
      }
    },
    {
      "type": "Feature",
      "id": "node/6636235314",
      "properties": {
        "timestamp": "2019-10-22T18:28:14Z",
        "version": 2,
        "changeset": 76064357,
        "amenity": "dentist",
        "contact:phone": "+55 41 3224-8799",
        "healthcare": "dentist",
        "name": "Odontocot",
        "id": "node/6636235314"
      },
      "geometry": {
        "type": "Point",
        "coordinates": [
          -49.2703208,
          -25.4340995
        ]
      }
    },
    {
      "type": "Feature",
      "id": "node/8815608149",
      "properties": {
        "timestamp": "2021-06-08T20:18:27Z",
        "version": 1,
        "changeset": 106055827,
        "addr:city": "Curitiba",
        "addr:housenumber": "1175",
        "addr:postcode": "81150120",
        "addr:street": "Rua Olindo Sequinel",
        "addr:suburb": "Capão Raso",
        "amenity": "dentist",
        "healthcare": "dentist",
        "healthcare:speciality": "dentist;general;acupuncture;traditional_chinese_medicine",
        "name": "Consultório Odontológico Dra Kelem Alberti",
        "opening_hours": "Mo-Sa 08:00-18:00",
        "operator": "Consultório Odontológico Dra Kelem Alberti",
        "phone": "+554133272198",
        "id": "node/8815608149"
      },
      "geometry": {
        "type": "Point",
        "coordinates": [
          -49.3054211,
          -25.5171335
        ]
      }
    },
    {
      "type": "Feature",
      "id": "node/10013419911",
      "properties": {
        "timestamp": "2024-01-16T19:58:50Z",
        "version": 2,
        "changeset": 146337100,
        "addr:door": "1",
        "amenity": "dentist",
        "check_date": "2022-09-10",
        "healthcare": "dentist",
        "healthcare:speciality": "general",
        "name": "Sidney Marcos Breviglieri",
        "name:pt": "Consultório Odontológico e Implantologia",
        "phone": "+55 41 99977-1345",
        "wheelchair": "limited",
        "id": "node/10013419911"
      },
      "geometry": {
        "type": "Point",
        "coordinates": [
          -49.2290759,
          -25.4619579
        ]
      }
    },
    {
      "type": "Feature",
      "id": "node/11813772614",
      "properties": {
        "timestamp": "2024-04-13T14:18:21Z",
        "version": 1,
        "changeset": 149954233,
        "addr:city": "Curitiba",
        "addr:housenumber": "1750",
        "addr:postcode": "81280-270",
        "addr:street": "Rua Professor João Falarz",
        "amenity": "dentist",
        "check_date": "2024-04-13",
        "contact:email": "specialeodontologia@gmail.com",
        "currency:XBT": "yes",
        "healthcare": "dentist",
        "name": "Speciale Odontologia",
        "opening_hours": "Mo-Fr 08:00-19:00",
        "payment:lightning": "yes",
        "payment:lightning_contactless": "no",
        "payment:onchain": "yes",
        "phone": "+55 04 13373 2029",
        "id": "node/11813772614"
      },
      "geometry": {
        "type": "Point",
        "coordinates": [
          -49.3438813,
          -25.4433374
        ]
      }
    },
    {
      "type": "Feature",
      "id": "node/12121967936",
      "properties": {
        "timestamp": "2024-08-20T10:59:19Z",
        "version": 1,
        "changeset": 155502857,
        "amenity": "dentist",
        "healthcare": "dentist",
        "healthcare:speciality": "dentistry",
        "name": "COI Consultórios Odontológicos Integrados",
        "id": "node/12121967936"
      },
      "geometry": {
        "type": "Point",
        "coordinates": [
          -49.2733976,
          -25.4514815
        ]
      }
    }
  ]
}
