{
  "type": "FeatureCollection",
  "features": [
    {
      "type": "Feature",
      "id": "way/259212769",
      "properties": {
        "timestamp": "2022-06-10T19:40:31Z",
        "version": 3,
        "changeset": 122225827,
        "addr:city": "Curitiba",
        "addr:housenumber": "670",
        "addr:postcode": "80250-100",
        "addr:street": "Rua Alferes Ângelo Sampaio",
        "addr:suburb": "Água Verde",
        "amenity": "doctors",
        "building": "yes",
        "name": "Ortopedia Cemefe",
        "source": "GPS",
        "id": "way/259212769"
      },
      "geometry": {
        "type": "Polygon",
        "coordinates": [
          [
            [
              -49.280511,
              -25.4473374
            ],
            [
              -49.2804575,
              -25.4474557
            ],
            [
              -49.2802391,
              -25.4473753
            ],
            [
              -49.2802925,
              -25.4472569
            ],
            [
              -49.280511,
              -25.4473374
            ]
          ]
        ]
      }
    },
    {
      "type": "Feature",
      "id": "way/359209342",
      "properties": {
        "timestamp": "2017-09-12T12:55:06Z",
        "version": 3,
        "changeset": 51972226,
        "addr:city": "Curitiba",
        "addr:street": "Rua Padre Germano Mayer",
        "addr:suburb": "Cristo Rei",
        "amenity": "doctors",
        "building": "yes",
        "name": "Unimed Terapias",
        "note": "Unidade de Terapias (Psicoterapia, Fonoaudiologia)",
        "wheelchair": "yes",
        "id": "way/359209342"
      },
      "geometry": {
        "type": "Polygon",
        "coordinates": [
          [
            [
              -49.2489099,
              -25.429665
            ],
            [
              -49.2490279,
              -25.4298757
            ],
            [
              -49.249036,
              -25.4299217
            ],
            [
              -49.2489877,
              -25.4299605
            ],
            [
              -49.2489368,
              -25.4299702
            ],
            [
              -49.2487659,
              -25.4299887
            ],
            [
              -49.248757,
              -25.4298951
            ],
            [
              -49.2489107,
              -25.4298749
            ],
            [
              -49.2488241,
              -25.4296965
            ],
            [
              -49.2489099,
              -25.429665
            ]
          ]
        ]
      }
    },
    {
      "type": "Feature",
      "id": "way/363466032",
      "properties": {
        "timestamp": "2022-06-08T05:23:22Z",
        "version": 4,
        "changeset": 122098366,
        "addr:city": "Curitiba",
        "addr:housenumber": "2499",
        "addr:street": "Avenida Presidente Getúlio Vargas",
        "addr:suburb": "Água Verde",
        "amenity": "doctors",
        "building": "yes",
        "name": "GNDI Centro Clínico Água Verde",
        "old_name": "Clinipam - Água Verde",
        "operator": "GNDI Sul - Clinipam",
        "id": "way/363466032"
      },
      "geometry": {
        "type": "Polygon",
        "coordinates": [
          [
            [
              -49.2832431,
              -25.4495034
            ],
            [
              -49.2831519,
              -25.4497139
            ],
            [
              -49.2830621,
              -25.4496821
            ],
            [
              -49.2831533,
              -25.4494716
            ],
            [
              -49.2832431,
              -25.4495034
            ]
          ]
        ]
      }
    },
    {
      "type": "Feature",
      "id": "way/381460467",
      "properties": {
        "timestamp": "2019-01-03T03:04:13Z",
        "version": 3,
        "changeset": 65976542,
        "addr:housenumber": "600",
        "addr:street": "Rua Alcides Munhoz",
        "addr:suburb": "Mercês",
        "amenity": "doctors",
        "building": "yes",
        "healthcare": "doctor",
        "name": "Nossa Saúde",
        "id": "way/381460467"
      },
      "geometry": {
        "type": "Polygon",
        "coordinates": [
          [
            [
              -49.2923432,
              -25.4203204
            ],
            [
              -49.2920776,
              -25.4203713
            ],
            [
              -49.2920079,
              -25.4201145
            ],
            [
              -49.292091,
              -25.4200951
            ],
            [
              -49.2920615,
              -25.4199958
            ],
            [
              -49.2922581,
              -25.4199531
            ],
            [
              -49.2923432,
              -25.4203204
            ]
          ]
        ]
      }
    },
    {
      "type": "Feature",
      "id": "way/725914611",
      "properties": {
        "timestamp": "2019-09-18T16:33:34Z",
        "version": 1,
        "changeset": 74636340,
        "amenity": "doctors",
        "building": "yes",
        "healthcare": "doctor",
        "name": "Eletrofisiologia Cardíada do Paraná",
        "id": "way/725914611"
      },
      "geometry": {
        "type": "Polygon",
        "coordinates": [
          [
            [
              -49.252558,
              -25.4312353
            ],
            [
              -49.2525688,
              -25.4314003
            ],
            [
              -49.2524594,
              -25.4314052
            ],
            [
              -49.2524508,
              -25.4312392
            ],
            [
              -49.252558,
              -25.4312353
            ]
          ]
        ]
      }
    },
    {
      "type": "Feature",
      "id": "node/4219126473",
      "properties": {
        "timestamp": "2016-06-28T11:14:46Z",
        "version": 2,
        "changeset": 40341121,
        "amenity": "doctors",
        "name": "CEOM",
        "id": "node/4219126473"
      },
      "geometry": {
        "type": "Point",
        "coordinates": [
          -49.2277382,
          -25.4530981
        ]
      }
    },
    {
      "type": "Feature",
      "id": "node/4219126474",
      "properties": {
        "timestamp": "2016-06-28T11:14:46Z",
        "version": 2,
        "changeset": 40341121,
        "amenity": "doctors",
        "name": "IPO",
        "id": "node/4219126474"
      },
      "geometry": {
        "type": "Point",
        "coordinates": [
          -49.2278314,
          -25.4531051
        ]
      }
    },
    {
      "type": "Feature",
      "id": "node/6175261868",
      "properties": {
        "timestamp": "2024-06-18T23:09:55Z",
        "version": 2,
        "changeset": 152869036,
        "addr:housenumber": "1111",
        "addr:street": "Rua Jerônimo Durski",
        "amenity": "doctors",
        "check_date:currency:XBT": "2024-06-18",
        "contact:email": "doutorbello@gmail.com",
        "currency:XBT": "yes",
        "description": "Online",
        "healthcare": "doctor",
        "healthcare:speciality": "orthopaedics",
        "name": "Ortopedia - Dr Guilherme Bello",
        "payment:lightning": "yes",
        "payment:onchain": "yes",
        "website": "http://www.drbello.com.br/",
        "id": "node/6175261868"
      },
      "geometry": {
        "type": "Point",
        "coordinates": [
          -49.3024076,
          -25.4383054
        ]
      }
    },
    {
      "type": "Feature",
      "id": "node/6177581047",
      "properties": {
        "timestamp": "2023-08-23T13:38:09Z",
        "version": 2,
        "changeset": 140277132,
        "addr:city": "Curitiba",
        "addr:housenumber": "6647",
        "addr:postcode": "80240-021",
        "addr:street": "Avenida Sete de Setembro",
        "addr:suburb": "Seminário",
        "amenity": "doctors",
        "healthcare": "doctor",
        "name": "CEDAV - Unidade Seminário",
        "id": "node/6177581047"
      },
      "geometry": {
        "type": "Point",
        "coordinates": [
          -49.3013216,
          -25.4511311
        ]
      }
    },
    {
      "type": "Feature",
      "id": "node/6186206025",
      "properties": {
        "timestamp": "2023-08-23T13:32:12Z",
        "version": 2,
        "changeset": 140276850,
        "addr:city": "Curitiba",
        "addr:housenumber": "83",
        "addr:postcode": "80620-060",
        "addr:street": "Rua Goias",
        "addr:suburb": "Agua Verde",
        "amenity": "doctors",
        "healthcare": "doctor",
        "name": "CEDAV - Unidade Matriz",
        "id": "node/6186206025"
      },
      "geometry": {
        "type": "Point",
        "coordinates": [
          -49.2901882,
          -25.4645755
        ]
      }
    },
    {
      "type": "Feature",
      "id": "node/11139018252",
      "properties": {
        "timestamp": "2023-08-23T13:35:00Z",
        "version": 1,
        "changeset": 140276965,
        "addr:city": "Curitiba",
        "addr:housenumber": "92",
        "addr:postcode": "80620-060",
        "addr:street": "Rua Goiás",
        "addr:suburb": "Agua Verde",
        "amenity": "doctors",
        "healthcare": "doctor",
        "name": "CEDAV - Unidade Mulher",
        "id": "node/11139018252"
      },
      "geometry": {
        "type": "Point",
        "coordinates": [
          -49.290356,
          -25.4647329
        ]
      }
    },
    {
      "type": "Feature",
      "id": "node/11139018256",
      "properties": {
        "timestamp": "2023-08-23T13:36:23Z",
        "version": 1,
        "changeset": 140277034,
        "addr:city": "Curitiba",
        "addr:housenumber": "60",
        "addr:postcode": "80620-060",
        "addr:street": "Rua Goiás",
        "addr:suburb": "Agua Verde",
        "amenity": "doctors",
        "healthcare": "doctor",
        "name": "CEDAV - Unidade Hospital IPO",
        "id": "node/11139018256"
      },
      "geometry": {
        "type": "Point",
        "coordinates": [
          -49.2906025,
          -25.4646204
        ]
      }
    },
    {
      "type": "Feature",
      "id": "node/11334816005",
      "properties": {
        "timestamp": "2024-10-08T13:46:37Z",
        "version": 2,
        "changeset": 157627923,
        "addr:city": "Curitiba",
        "addr:housenumber": "369",
        "addr:postcode": "80440-220",
        "addr:street": "Rua Bruno Filgueira",
        "addr:suburb": "Batel",
        "amenity": "doctors",
        "check_date:currency:XBT": "2024-10-08",
        "contact:email": "christian.paz89@gmail.com",
        "contact:instagram": "https://www.instagram.com/clinicaparanaense",
        "currency:XBT": "yes",
        "healthcare": "doctor",
        "healthcare:speciality": "proctology",
        "name": "Clínica Paranaense",
        "opening_hours": "Mo-Fr 8-22 / Sa 8-17",
        "payment:lightning": "yes",
        "payment:onchain": "yes",
        "phone": "41992704363",
        "website": "https://www.clinicaparanaense.com.br",
        "id": "node/11334816005"
      },
      "geometry": {
        "type": "Point",
        "coordinates": [
          -49.2896271,
          -25.4461137
        ]
      }
    }
  ]
}
