{
  "type": "FeatureCollection",
  "features": [
    {
      "type": "Feature",
      "id": "way/404904440",
      "properties": {
        "timestamp": "2016-03-21T11:15:03Z",
        "version": 1,
        "changeset": 37974624,
        "building": "yes",
        "name": "Pousada dos Sonhos",
        "tourism": "guest_house",
        "id": "way/404904440"
      },
      "geometry": {
        "type": "Polygon",
        "coordinates": [
          [
            [
              -49.3637484,
              -25.4307219
            ],
            [
              -49.3637735,
              -25.4312009
            ],
            [
              -49.3637745,
              -25.4314083
            ],
            [
              -49.3634117,
              -25.4313751
            ],
            [
              -49.363446,
              -25.4307177
            ],
            [
              -49.3637484,
              -25.4307219
            ]
          ]
        ]
      }
    },
    {
      "type": "Feature",
      "id": "way/1126771656",
      "properties": {
        "timestamp": "2023-01-03T20:39:27Z",
        "version": 1,
        "changeset": 130841993,
        "building": "dormitory",
        "contact:email": "pensionatojardim@gmail.com",
        "contact:phone": "+5541995724555",
        "contact:website": "https://pensionato-jardim.negocio.site/",
        "email": "pensionatojardim@gmail.com",
        "guest_house": "pension",
        "internet_access": "yes",
        "name": "Pensionato Jardins",
        "phone": "+554130336277",
        "tourism": "guest_house",
        "website": "https://pensionato-jardim.negocio.site/",
        "id": "way/1126771656"
      },
      "geometry": {
        "type": "Polygon",
        "coordinates": [
          [
            [
              -49.2323702,
              -25.4549674
            ],
            [
              -49.2324523,
              -25.4551423
            ],
            [
              -49.2324049,
              -25.4551604
            ],
            [
              -49.2323565,
              -25.4551789
            ],
            [
              -49.2322745,
              -25.455004
            ],
            [
              -49.2323702,
              -25.4549674
            ]
          ]
        ]
      }
    },
    {
      "type": "Feature",
      "id": "node/4508023090",
      "properties": {
        "timestamp": "2022-08-03T02:44:31Z",
        "version": 6,
        "changeset": 124414748,
        "addr:city": "Curitiba",
        "addr:housenumber": "875",
        "addr:postcode": "80040-140",
        "addr:street": "Rua Simão Bolívar",
        "addr:suburb": "Hugo Lange",
        "internet_access": "wlan",
        "name": "Villa Tata",
        "opening_hours": "24/7",
        "phone": "+55 41 3262 2932",
        "tourism": "guest_house",
        "id": "node/4508023090"
      },
      "geometry": {
        "type": "Point",
        "coordinates": [
          -49.2511417,
          -25.4196803
        ]
      }
    },
    {
      "type": "Feature",
      "id": "node/4589343189",
      "properties": {
        "timestamp": "2022-07-30T00:47:06Z",
        "version": 3,
        "changeset": 124251671,
        "addr:housenumber": "2777",
        "addr:postcode": "80610260",
        "addr:street": "Avenida República Argentina",
        "phone": "+55 41 9 9214 2594",
        "tourism": "guest_house",
        "id": "node/4589343189"
      },
      "geometry": {
        "type": "Point",
        "coordinates": [
          -49.294213,
          -25.4707408
        ]
      }
    },
    {
      "type": "Feature",
      "id": "node/6182689829",
      "properties": {
        "timestamp": "2023-01-03T20:39:27Z",
        "version": 2,
        "changeset": 130841993,
        "addr:housenumber": "211",
        "addr:street": "Rua Coronel Joaquim Lacerda",
        "id": "node/6182689829"
      },
      "geometry": {
        "type": "Point",
        "coordinates": [
          -49.2324049,
          -25.4551604
        ]
      }
    }
  ]
}
