{
  "type": "FeatureCollection",
  "features": [
    {
      "type": "Feature",
      "id": "way/1201184939",
      "properties": {
        "timestamp": "2023-08-22T20:29:04Z",
        "version": 1,
        "changeset": 140245973,
        "building": "yes",
        "name": "Fazenda San Francisco",
        "tourism": "hotel",
        "id": "way/1201184939"
      },
      "geometry": {
        "type": "Polygon",
        "coordinates": [
          [
            [
              -56.6146426,
              -20.0860646
            ],
            [
              -56.6146682,
              -20.0863521
            ],
            [
              -56.6144859,
              -20.0863664
            ],
            [
              -56.6144603,
              -20.0860789
            ],
            [
              -56.6146426,
              -20.0860646
            ]
          ]
        ]
      }
    },
    {
      "type": "Feature",
      "id": "way/1309446444",
      "properties": {
        "timestamp": "2024-08-21T18:01:08Z",
        "version": 1,
        "changeset": 155572281,
        "addr:city": "Miranda",
        "addr:country": "BR",
        "addr:postcode": "79380000",
        "addr:street": "Rodovia MS 448, km 20",
        "building": "yes",
        "name": "Fazenda Baía Grande",
        "note": "Pousada rural na região Pantaneira. Inclui pensão completa e passeios.",
        "operator": "Baía Grande",
        "phone": "+556733030162",
        "smoking": "outside",
        "tourism": "hotel",
        "voltage": "110",
        "website": "http://www.fazendabaiagrande.com.br",
        "id": "way/1309446444"
      },
      "geometry": {
        "type": "Polygon",
        "coordinates": [
          [
            [
              -56.3424196,
              -20.4091614
            ],
            [
              -56.3424477,
              -20.4091608
            ],
            [
              -56.3424511,
              -20.4092926
            ],
            [
              -56.3423484,
              -20.4092948
            ],
            [
              -56.3423454,
              -20.4091743
            ],
            [
              -56.3422221,
              -20.4091771
            ],
            [
              -56.342219,
              -20.4090556
            ],
            [
              -56.3424169,
              -20.4090512
            ],
            [
              -56.3424196,
              -20.4091614
            ]
          ]
        ]
      }
    },
    {
      "type": "Feature",
      "id": "node/4358199352",
      "properties": {
        "timestamp": "2016-08-20T02:30:39Z",
        "version": 1,
        "changeset": 41568971,
        "name": "Pousada Meia Lua",
        "tourism": "hotel",
        "id": "node/4358199352"
      },
      "geometry": {
        "type": "Point",
        "coordinates": [
          -56.3038788,
          -20.2660904
        ]
      }
    },
    {
      "type": "Feature",
      "id": "node/4894582822",
      "properties": {
        "timestamp": "2022-05-23T17:43:39Z",
        "version": 3,
        "changeset": 121382714,
        "addr:housenumber": "Km 531",
        "addr:postcode": "79370-000",
        "addr:street": "BR 262",
        "internet_access": "wlan",
        "name": "Pioneiro",
        "name:pt": "Pioneiro",
        "opening_hours": "24/7",
        "phone": "+55 67 3242 1392",
        "tourism": "hotel",
        "website": "https://www.pioneiroturismo.com.br/",
        "id": "node/4894582822"
      },
      "geometry": {
        "type": "Point",
        "coordinates": [
          -56.1559431,
          -20.3504365
        ]
      }
    },
    {
      "type": "Feature",
      "id": "node/11407762373",
      "properties": {
        "timestamp": "2023-12-10T17:16:41Z",
        "version": 1,
        "changeset": 144971776,
        "name": "Village Hotel",
        "tourism": "hotel",
        "id": "node/11407762373"
      },
      "geometry": {
        "type": "Point",
        "coordinates": [
          -56.3902078,
          -20.2387029
        ]
      }
    }
  ]
}
