{
  "type": "FeatureCollection",
  "features": [
    {
      "type": "Feature",
      "id": "node/10578979073",
      "properties": {
        "timestamp": "2023-01-24T12:52:34Z",
        "version": 1,
        "changeset": 131650623,
        "addr:city": "Santo Amaro da Imperatriz",
        "addr:housenumber": "3317",
        "addr:postcode": "88140-000",
        "addr:street": "Rua São Sebastião",
        "addr:suburb": "Sul do Rio",
        "name": "Mundo da Bike",
        "opening_hours": "Mo-Fr 08:00-18:30",
        "phone": "+55 48 3245-6621",
        "service:bicycle:bicycle_sales_and_service": "yes",
        "service:bicycle:chain_tool": "yes",
        "service:bicycle:cleaning": "yes",
        "service:bicycle:parts": "yes",
        "service:bicycle:rental": "yes",
        "service:bicycle:repair": "yes",
        "service:bicycle:screwdriver": "yes",
        "service:bicycle:second_hand": "yes",
        "shop": "bicycle",
        "id": "node/10578979073"
      },
      "geometry": {
        "type": "Point",
        "coordinates": [
          -48.7442297,
          -27.6923749
        ]
      }
    }
  ]
}
