{
  "type": "FeatureCollection",
  "features": [
    {
      "type": "Feature",
      "id": "way/1026457286",
      "properties": {
        "timestamp": "2024-06-09T18:16:28Z",
        "version": 6,
        "changeset": 152466536,
        "access": "yes",
        "addr:city": "Santo Amaro da Imperatriz",
        "addr:street": "Rua Natividade",
        "addr:suburb": "Vila Becker",
        "amenity": "clinic",
        "brand": "Sistema Único de Saúde",
        "brand:short": "SUS",
        "brand:wikidata": "Q7531056",
        "brand:wikipedia": "pt:Sistema Único de Saúde",
        "building": "yes",
        "healthcare": "clinic",
        "loc_name": "Posto de Saúde Maricha Becker",
        "name": "Unidade Básica de Saúde Maricha Becker",
        "opening_hours": "Mo-Sa 07:00-22:00",
        "operator": "Prefeitura Municipal de Santo Amaro da Imperatriz",
        "operator:type": "public",
        "short_name": "UBS Maricha Becker",
        "wheelchair": "yes",
        "id": "way/1026457286"
      },
      "geometry": {
        "type": "Polygon",
        "coordinates": [
          [
            [
              -48.7583869,
              -27.6824152
            ],
            [
              -48.7583361,
              -27.6824856
            ],
            [
              -48.7582498,
              -27.6824366
            ],
            [
              -48.7582189,
              -27.6824793
            ],
            [
              -48.7581071,
              -27.6824174
            ],
            [
              -48.7581204,
              -27.6823963
            ],
            [
              -48.7580974,
              -27.6823822
            ],
            [
              -48.7581185,
              -27.6823556
            ],
            [
              -48.7580575,
              -27.6823177
            ],
            [
              -48.7581059,
              -27.6822528
            ],
            [
              -48.7582162,
              -27.682318
            ],
            [
              -48.758277,
              -27.6822363
            ],
            [
              -48.7583532,
              -27.6822781
            ],
            [
              -48.7582927,
              -27.6823593
            ],
            [
              -48.7583869,
              -27.6824152
            ]
          ]
        ]
      }
    },
    {
      "type": "Feature",
      "id": "way/1134679426",
      "properties": {
        "timestamp": "2023-01-24T02:22:41Z",
        "version": 1,
        "changeset": 131630491,
        "addr:city": "Santo Amaro da Imperatriz",
        "addr:housenumber": "20",
        "addr:postcode": "88140-000",
        "addr:street": "Rua João Jacinto Machado",
        "addr:suburb": "Sul do Rio",
        "amenity": "clinic",
        "building": "yes",
        "healthcare": "clinic",
        "healthcare:speciality": "general;paediatrics;vaccination;biology;community",
        "name": "Unidade Básica de Saúde João Voges",
        "opening_hours": "Mo-Fr 08:00-17:00",
        "operator": "Prefeitura de Santo Amaro da Imperatriz",
        "operator:type": "public",
        "wheelchair": "yes",
        "id": "way/1134679426"
      },
      "geometry": {
        "type": "Polygon",
        "coordinates": [
          [
            [
              -48.7767942,
              -27.6912736
            ],
            [
              -48.7766793,
              -27.6914273
            ],
            [
              -48.7765671,
              -27.6913629
            ],
            [
              -48.7766986,
              -27.6912193
            ],
            [
              -48.7767942,
              -27.6912736
            ]
          ]
        ]
      }
    },
    {
      "type": "Feature",
      "id": "way/1139015047",
      "properties": {
        "timestamp": "2024-07-09T19:06:21Z",
        "version": 4,
        "changeset": 153757036,
        "addr:city": "Santo Amaro da Imperatriz",
        "addr:housenumber": "3429",
        "addr:postcode": "88140-000",
        "addr:street": "Rua Leopoldo Broering",
        "addr:suburb": "Vila Becker",
        "amenity": "clinic",
        "building": "house",
        "building:levels": "2",
        "healthcare": "clinic",
        "healthcare:speciality": "chiropractic;fisioterapia;terapia_manual;liberação_miofascial",
        "height": "6",
        "name": "Clínica Reintegrar",
        "id": "way/1139015047"
      },
      "geometry": {
        "type": "Polygon",
        "coordinates": [
          [
            [
              -48.7558771,
              -27.6815922
            ],
            [
              -48.7558566,
              -27.6816664
            ],
            [
              -48.7558241,
              -27.6817262
            ],
            [
              -48.7557473,
              -27.6817095
            ],
            [
              -48.7557724,
              -27.6815888
            ],
            [
              -48.7558084,
              -27.6815905
            ],
            [
              -48.7558098,
              -27.6815979
            ],
            [
              -48.7558245,
              -27.6815988
            ],
            [
              -48.755831,
              -27.6815916
            ],
            [
              -48.7558771,
              -27.6815922
            ]
          ]
        ]
      }
    },
    {
      "type": "Feature",
      "id": "way/1218842736",
      "properties": {
        "timestamp": "2023-10-27T18:12:34Z",
        "version": 1,
        "changeset": 143223767,
        "addr:city": "Santo Amaro da Imperatriz",
        "addr:postcode": "88140-000",
        "addr:street": "Rua Princesa Leopoldina",
        "addr:suburb": "Caldas da Imperatriz",
        "amenity": "clinic",
        "building": "yes",
        "healthcare": "clinic",
        "name": "UBS Luiz Gonzaga Ramlow",
        "id": "way/1218842736"
      },
      "geometry": {
        "type": "Polygon",
        "coordinates": [
          [
            [
              -48.8086567,
              -27.7162522
            ],
            [
              -48.8086634,
              -27.7163221
            ],
            [
              -48.8084979,
              -27.7163345
            ],
            [
              -48.8084913,
              -27.7162647
            ],
            [
              -48.8086567,
              -27.7162522
            ]
          ]
        ]
      }
    },
    {
      "type": "Feature",
      "id": "way/1332435402",
      "properties": {
        "timestamp": "2024-11-09T16:05:23Z",
        "version": 1,
        "changeset": 158940275,
        "amenity": "clinic",
        "building": "yes",
        "healthcare": "clinic",
        "id": "way/1332435402"
      },
      "geometry": {
        "type": "Polygon",
        "coordinates": [
          [
            [
              -48.7352266,
              -27.692122
            ],
            [
              -48.7352382,
              -27.6922366
            ],
            [
              -48.7351463,
              -27.6922458
            ],
            [
              -48.7351299,
              -27.6921281
            ],
            [
              -48.7352266,
              -27.692122
            ]
          ]
        ]
      }
    },
    {
      "type": "Feature",
      "id": "node/10577493670",
      "properties": {
        "timestamp": "2023-01-23T19:45:00Z",
        "version": 1,
        "changeset": 131622627,
        "addr:city": "Santo Amaro da Imperatriz",
        "addr:housenumber": "4700",
        "addr:postcode": "88140-000",
        "addr:street": "Rua Santana",
        "addr:suburb": "Centro",
        "amenity": "clinic",
        "healthcare": "clinic",
        "healthcare:speciality": "general;ophthalmology;dentist;biology;psychiatry;internal;community",
        "name": "Posto de Saúde Central",
        "opening_hours": "Mo-Fr 08:00-17:00",
        "operator": "Prefeitura de Santo Amaro da Imperatriz",
        "operator:type": "public",
        "id": "node/10577493670"
      },
      "geometry": {
        "type": "Point",
        "coordinates": [
          -48.769899,
          -27.6846753
        ]
      }
    },
    {
      "type": "Feature",
      "id": "node/10580071181",
      "properties": {
        "timestamp": "2023-01-25T01:20:10Z",
        "version": 2,
        "changeset": 131674666,
        "access": "yes",
        "addr:city": "Santo Amaro da Imperatriz",
        "addr:housenumber": "4158",
        "addr:postcode": "88140-000",
        "addr:street": "Rua São Sebastião",
        "addr:suburb": "Sul do Rio",
        "amenity": "clinic",
        "brand": "Sistema Único de Saúde",
        "brand:short": "SUS",
        "brand:wikidata": "Q7531056",
        "brand:wikipedia": "pt:Sistema Único de Saúde",
        "healthcare": "clinic",
        "healthcare:speciality": "general;biology;dentist;vaccination",
        "loc_name": "Posto de Saúde Nicolau Turnes",
        "name": "Unidade Básica de Saúde Nicolau Turnes",
        "opening_hours": "Mo-Fr 08:00-17:00",
        "operator": "Prefeitura de Santo Amaro da Imperatriz",
        "operator:type": "government",
        "short_name": "UBS Nicolau Turnes",
        "id": "node/10580071181"
      },
      "geometry": {
        "type": "Point",
        "coordinates": [
          -48.7351851,
          -27.6921635
        ]
      }
    }
  ]
}
