{
  "type": "FeatureCollection",
  "features": [
    {
      "type": "Feature",
      "id": "node/10577493710",
      "properties": {
        "timestamp": "2023-01-23T19:45:00Z",
        "version": 1,
        "changeset": 131622627,
        "addr:city": "Santo Amaro da Imperatriz",
        "addr:housenumber": "65",
        "addr:postcode": "88140-000",
        "addr:street": "Rua Anadir Melchíades Derner",
        "addr:suburb": "Centro",
        "amenity": "dentist",
        "healthcare": "dentist",
        "healthcare:speciality": "dentist",
        "name": "Adriana Locatelli Odontologia",
        "opening_hours": "Mo-Sa 08:00-18:00",
        "id": "node/10577493710"
      },
      "geometry": {
        "type": "Point",
        "coordinates": [
          -48.777232,
          -27.683207
        ]
      }
    },
    {
      "type": "Feature",
      "id": "node/10584829351",
      "properties": {
        "timestamp": "2023-01-26T19:37:42Z",
        "version": 1,
        "changeset": 131745267,
        "addr:city": "Santo Amaro da Imperatriz",
        "addr:postcode": "88140-000",
        "addr:street": "Rua Prefeito José Kehrig",
        "addr:suburb": "Centro",
        "amenity": "dentist",
        "healthcare": "dentist",
        "healthcare:speciality": "dentist",
        "name": "Carla Hillesheim",
        "id": "node/10584829351"
      },
      "geometry": {
        "type": "Point",
        "coordinates": [
          -48.7781152,
          -27.6903039
        ]
      }
    },
    {
      "type": "Feature",
      "id": "node/11586930384",
      "properties": {
        "timestamp": "2024-02-05T13:32:57Z",
        "version": 1,
        "changeset": 147094178,
        "addr:city": "Santo Amaro da Imperatriz",
        "addr:housenumber": "59",
        "addr:postcode": "88140-000",
        "addr:street": "Rua Clemente Thiago Diniz",
        "addr:suburb": "Centro",
        "amenity": "dentist",
        "description": "Clinica odontológica com dentistas qualificados prezando saúde, bem estar e estética para seus pacientes. Equipe completa e especializada em Implantodontia, Ortodontia, Reabilitação Oral, Endodontia, Odontopediatria e Cirurgia Oral.",
        "healthcare": "dentist",
        "healthcare:speciality": "dentist;orthodontics;dentista;implantes_dentários;facetas",
        "level": "térreo",
        "mobile": "+55 48 9 91110283",
        "name": "Imperatriz Odontologia",
        "opening_hours": "Mo-Fr 09:00-19:00",
        "operator": "Dra. Julia Gonçalves dos Santos",
        "phone": "+55 48 3028 2007",
        "wheelchair": "yes",
        "id": "node/11586930384"
      },
      "geometry": {
        "type": "Point",
        "coordinates": [
          -48.7757266,
          -27.6851953
        ]
      }
    }
  ]
}
