{
  "type": "FeatureCollection",
  "features": [
    {
      "type": "Feature",
      "id": "way/1007463471",
      "properties": {
        "timestamp": "2024-11-05T20:20:34Z",
        "version": 3,
        "changeset": 158793696,
        "addr:city": "Santo Amaro da Imperatriz",
        "addr:housenumber": "177",
        "addr:postcode": "88140-000",
        "addr:street": "Rua Frei Fidêncio Feldmann",
        "addr:suburb": "Centro",
        "amenity": "kindergarten",
        "building:levels": "1",
        "height": "3",
        "name": "Recanto do Cuidado Tia Rose",
        "phone": "+55 48 98444-3548",
        "id": "way/1007463471"
      },
      "geometry": {
        "type": "Polygon",
        "coordinates": [
          [
            [
              -48.7790732,
              -27.6863381
            ],
            [
              -48.7791774,
              -27.6864033
            ],
            [
              -48.7790676,
              -27.6865172
            ],
            [
              -48.7789824,
              -27.6864491
            ],
            [
              -48.7790732,
              -27.6863381
            ]
          ]
        ]
      }
    },
    {
      "type": "Feature",
      "id": "way/1325499404",
      "properties": {
        "timestamp": "2024-10-18T20:53:01Z",
        "version": 1,
        "changeset": 158067634,
        "addr:city": "Santo Amaro da Imperatriz",
        "addr:postcode": "88140-000",
        "addr:street": "Rua São Sebastião",
        "addr:suburb": "Sul do Rio",
        "amenity": "kindergarten",
        "name": "CMEI Recanto Feliz",
        "operator": "Prefeitura de Santo Amaro da Imperatriz",
        "operator:type": "public",
        "id": "way/1325499404"
      },
      "geometry": {
        "type": "Polygon",
        "coordinates": [
          [
            [
              -48.7323061,
              -27.6923043
            ],
            [
              -48.7323861,
              -27.6928083
            ],
            [
              -48.7320282,
              -27.6928515
            ],
            [
              -48.7319916,
              -27.6927093
            ],
            [
              -48.7321118,
              -27.6926934
            ],
            [
              -48.7320559,
              -27.6923381
            ],
            [
              -48.7323061,
              -27.6923043
            ]
          ]
        ]
      }
    },
    {
      "type": "Feature",
      "id": "way/1325499409",
      "properties": {
        "timestamp": "2024-10-23T20:47:55Z",
        "version": 2,
        "changeset": 158271105,
        "addr:city": "Santo Amaro da Imperatriz",
        "addr:postcode": "88140-000",
        "addr:street": "Rua Gustavo João de Farias",
        "addr:suburb": "Fabrício",
        "amenity": "kindergarten",
        "name": "C.E.M Antônio Rodolfo Fabrício",
        "operator": "Prefeitura de Santo Amaro da Imperatriz",
        "operator:type": "public",
        "id": "way/1325499409"
      },
      "geometry": {
        "type": "Polygon",
        "coordinates": [
          [
            [
              -48.7772803,
              -27.6966625
            ],
            [
              -48.7775699,
              -27.6965612
            ],
            [
              -48.7776241,
              -27.6971778
            ],
            [
              -48.7773252,
              -27.6972166
            ],
            [
              -48.7772803,
              -27.6966625
            ]
          ]
        ]
      }
    },
    {
      "type": "Feature",
      "id": "way/1327629759",
      "properties": {
        "timestamp": "2024-10-23T20:47:55Z",
        "version": 1,
        "changeset": 158271105,
        "addr:city": "Santo Amaro da Imperatriz",
        "addr:postcode": "88140-000",
        "addr:street": "Rua Procópio Lohn",
        "addr:suburb": "Alto da Varginha",
        "amenity": "kindergarten",
        "name": "CMEI Professor José Higino Martins",
        "id": "way/1327629759"
      },
      "geometry": {
        "type": "Polygon",
        "coordinates": [
          [
            [
              -48.8007691,
              -27.643124
            ],
            [
              -48.8001578,
              -27.6434721
            ],
            [
              -48.8001274,
              -27.643122
            ],
            [
              -48.8007422,
              -27.6430801
            ],
            [
              -48.8007691,
              -27.643124
            ]
          ]
        ]
      }
    },
    {
      "type": "Feature",
      "id": "way/1327629761",
      "properties": {
        "timestamp": "2024-10-23T20:47:55Z",
        "version": 1,
        "changeset": 158271105,
        "addr:city": "Santo Amaro da Imperatriz",
        "addr:housenumber": "1107",
        "addr:postcode": "88140-000",
        "addr:street": "Rua Vicente Silveira",
        "addr:suburb": "Centro",
        "amenity": "kindergarten",
        "name": "CMEI Estrada Velha",
        "operator": "Prefeitura de Santo Amaro da Imperatriz",
        "operator:type": "public",
        "id": "way/1327629761"
      },
      "geometry": {
        "type": "Polygon",
        "coordinates": [
          [
            [
              -48.7858397,
              -27.7018584
            ],
            [
              -48.7859036,
              -27.7019889
            ],
            [
              -48.7857339,
              -27.7021116
            ],
            [
              -48.7856362,
              -27.7020056
            ],
            [
              -48.7858397,
              -27.7018584
            ]
          ]
        ]
      }
    },
    {
      "type": "Feature",
      "id": "way/1327629763",
      "properties": {
        "timestamp": "2024-10-23T20:47:55Z",
        "version": 1,
        "changeset": 158271105,
        "addr:city": "Santo Amaro da Imperatriz",
        "addr:housenumber": "128",
        "addr:postcode": "88140-000",
        "addr:street": "Rua São Pedro",
        "addr:suburb": "Fabrício",
        "amenity": "kindergarten",
        "name": "CMEI José Rogério Sommer",
        "operator": "Prefeitura de Santo Amaro da Imperatriz",
        "operator:type": "public",
        "id": "way/1327629763"
      },
      "geometry": {
        "type": "Polygon",
        "coordinates": [
          [
            [
              -48.7745033,
              -27.6957934
            ],
            [
              -48.77454,
              -27.6960929
            ],
            [
              -48.7743501,
              -27.6960945
            ],
            [
              -48.7743126,
              -27.6958055
            ],
            [
              -48.7745033,
              -27.6957934
            ]
          ]
        ]
      }
    }
  ]
}
