{
  "type": "FeatureCollection",
  "features": [
    {
      "type": "Feature",
      "id": "way/1319921323",
      "properties": {
        "timestamp": "2024-10-01T17:04:15Z",
        "version": 1,
        "changeset": 157349038,
        "addr:city": "Santo Amaro da Imperatriz",
        "addr:housenumber": "3332",
        "addr:street": "Rua Leopoldo Broering",
        "addr:suburb": "Vila Becker",
        "amenity": "pharmacy",
        "building": "yes",
        "healthcare": "pharmacy",
        "name": "Farmácia Santo Anjo",
        "operator": "Santo Anjo",
        "id": "way/1319921323"
      },
      "geometry": {
        "type": "Polygon",
        "coordinates": [
          [
            [
              -48.7548264,
              -27.6814536
            ],
            [
              -48.7548521,
              -27.681538
            ],
            [
              -48.7547234,
              -27.6815722
            ],
            [
              -48.754697,
              -27.68149
            ],
            [
              -48.7548264,
              -27.6814536
            ]
          ]
        ]
      }
    },
    {
      "type": "Feature",
      "id": "node/6386004662",
      "properties": {
        "timestamp": "2019-04-05T16:25:05Z",
        "version": 1,
        "changeset": 68928047,
        "amenity": "pharmacy",
        "dispensing": "yes",
        "healthcare": "pharmacy",
        "name": "Farmácia Natividade",
        "id": "node/6386004662"
      },
      "geometry": {
        "type": "Point",
        "coordinates": [
          -48.7621496,
          -27.6840359
        ]
      }
    },
    {
      "type": "Feature",
      "id": "node/6386066014",
      "properties": {
        "timestamp": "2023-01-25T19:12:46Z",
        "version": 3,
        "changeset": 131707904,
        "amenity": "pharmacy",
        "dispensing": "yes",
        "healthcare": "pharmacy",
        "name": "Farmácia do Povo",
        "id": "node/6386066014"
      },
      "geometry": {
        "type": "Point",
        "coordinates": [
          -48.7769228,
          -27.6868858
        ]
      }
    },
    {
      "type": "Feature",
      "id": "node/7707465873",
      "properties": {
        "timestamp": "2021-11-25T21:30:29Z",
        "version": 2,
        "changeset": 114238936,
        "amenity": "pharmacy",
        "dispensing": "yes",
        "healthcare": "pharmacy",
        "name": "Farmácia Sul do Rio",
        "id": "node/7707465873"
      },
      "geometry": {
        "type": "Point",
        "coordinates": [
          -48.735696,
          -27.6917365
        ]
      }
    },
    {
      "type": "Feature",
      "id": "node/8310068181",
      "properties": {
        "timestamp": "2023-01-26T19:37:42Z",
        "version": 4,
        "changeset": 131745267,
        "amenity": "pharmacy",
        "dispensing": "yes",
        "healthcare": "pharmacy",
        "name": "Farmácia do Paulinho",
        "id": "node/8310068181"
      },
      "geometry": {
        "type": "Point",
        "coordinates": [
          -48.7780559,
          -27.689992
        ]
      }
    },
    {
      "type": "Feature",
      "id": "node/10577610568",
      "properties": {
        "timestamp": "2023-06-05T19:28:54Z",
        "version": 2,
        "changeset": 136986651,
        "addr:city": "Santo Amaro da Imperatriz",
        "addr:housenumber": "5275",
        "addr:postcode": "88140-000",
        "addr:street": "Rua Prefeito José Kehrig",
        "addr:suburb": "Centro",
        "amenity": "pharmacy",
        "dispensing": "yes",
        "healthcare": "pharmacy",
        "name": "Farmácia Farmatriz",
        "opening_hours": "24/7",
        "operator": "Farmatriz",
        "id": "node/10577610568"
      },
      "geometry": {
        "type": "Point",
        "coordinates": [
          -48.7759901,
          -27.6850005
        ]
      }
    },
    {
      "type": "Feature",
      "id": "node/10580071183",
      "properties": {
        "timestamp": "2023-01-24T20:25:40Z",
        "version": 1,
        "changeset": 131668267,
        "addr:city": "Santo Amaro da Imperatriz",
        "addr:housenumber": "76",
        "addr:postcode": "88140-000",
        "addr:street": "Rua Longino José Turnes",
        "addr:suburb": "Sul do Rio",
        "amenity": "pharmacy",
        "dispensing": "yes",
        "healthcare": "pharmacy",
        "name": "Farmácia Popular",
        "opening_hours": "Mo-Fr 07:30-21:00",
        "operator": "Farmácia Popular",
        "id": "node/10580071183"
      },
      "geometry": {
        "type": "Point",
        "coordinates": [
          -48.7353659,
          -27.691247
        ]
      }
    },
    {
      "type": "Feature",
      "id": "node/10582463659",
      "properties": {
        "timestamp": "2023-01-25T19:12:46Z",
        "version": 1,
        "changeset": 131707904,
        "addr:city": "Santo Amaro da Imperatriz",
        "addr:housenumber": "5567",
        "addr:postcode": "88140-000",
        "addr:street": "Rua Prefeito José Kehrig",
        "addr:suburb": "Centro",
        "amenity": "pharmacy",
        "brand": "Farmácia São João",
        "brand:wikidata": "Q65164556",
        "dispensing": "yes",
        "healthcare": "pharmacy",
        "name": "Farmácia São João",
        "opening_hours": "Mo-Su 07:30-22:00",
        "operator": "Farmácia São João",
        "id": "node/10582463659"
      },
      "geometry": {
        "type": "Point",
        "coordinates": [
          -48.777068,
          -27.687447
        ]
      }
    },
    {
      "type": "Feature",
      "id": "node/10582463671",
      "properties": {
        "timestamp": "2023-01-25T19:12:46Z",
        "version": 1,
        "changeset": 131707904,
        "addr:city": "Santo Amaro da Imperatriz",
        "addr:housenumber": "5627",
        "addr:postcode": "88140-000",
        "addr:street": "Rua Prefeito José Kehrig",
        "addr:suburb": "Centro",
        "amenity": "pharmacy",
        "healthcare": "pharmacy",
        "name": "Preço Popular",
        "opening_hours": "Mo-Sa 07:30-22:00",
        "operator": "Preço Popular",
        "id": "node/10582463671"
      },
      "geometry": {
        "type": "Point",
        "coordinates": [
          -48.7772088,
          -27.6880672
        ]
      }
    },
    {
      "type": "Feature",
      "id": "node/10584606159",
      "properties": {
        "timestamp": "2023-01-27T14:49:19Z",
        "version": 2,
        "changeset": 131776481,
        "amenity": "pharmacy",
        "healthcare": "pharmacy",
        "name": "Farmácia Santo Amaro",
        "opening_hours": "Mo-Fr 08:00-21:00",
        "id": "node/10584606159"
      },
      "geometry": {
        "type": "Point",
        "coordinates": [
          -48.7743006,
          -27.6842121
        ]
      }
    },
    {
      "type": "Feature",
      "id": "node/10990172384",
      "properties": {
        "timestamp": "2023-06-19T20:00:14Z",
        "version": 1,
        "changeset": 137533519,
        "addr:city": "Santo Amaro da Imperatriz",
        "addr:postcode": "88140-000",
        "addr:street": "Rua Major Joaquim Alexandre de Campos",
        "addr:suburb": "Centro",
        "amenity": "pharmacy",
        "healthcare": "pharmacy",
        "name": "Farma e Farma",
        "id": "node/10990172384"
      },
      "geometry": {
        "type": "Point",
        "coordinates": [
          -48.7791243,
          -27.6912398
        ]
      }
    },
    {
      "type": "Feature",
      "id": "node/11584523717",
      "properties": {
        "timestamp": "2024-02-04T15:50:35Z",
        "version": 1,
        "changeset": 147059297,
        "addr:city": "Santo Amaro da Imperatriz",
        "addr:housenumber": "28",
        "addr:postcode": "88140-000",
        "addr:street": "Rua Augusto Pedro Schmitz",
        "addr:suburb": "Fabrício",
        "amenity": "pharmacy",
        "dispensing": "yes",
        "drive_through": "no",
        "healthcare": "pharmacy",
        "name": "FarMac",
        "opening_hours": "Mo-Fr 08:00-20:00",
        "id": "node/11584523717"
      },
      "geometry": {
        "type": "Point",
        "coordinates": [
          -48.7768917,
          -27.6918596
        ]
      }
    },
    {
      "type": "Feature",
      "id": "node/11649560415",
      "properties": {
        "timestamp": "2024-02-21T16:48:21Z",
        "version": 1,
        "changeset": 147741155,
        "addr:city": "Santo Amaro da Imperatriz",
        "addr:postcode": "88140-000",
        "addr:street": "Rua Prefeito José Kehrig",
        "addr:suburb": "Centro",
        "amenity": "pharmacy",
        "healthcare": "pharmacy",
        "name": "Farmácia São João",
        "id": "node/11649560415"
      },
      "geometry": {
        "type": "Point",
        "coordinates": [
          -48.776045,
          -27.6853283
        ]
      }
    }
  ]
}
