{
  "type": "FeatureCollection",
  "features": [
    {
      "type": "Feature",
      "id": "way/1194092108",
      "properties": {
        "timestamp": "2023-08-02T19:53:32Z",
        "version": 1,
        "changeset": 139362632,
        "addr:city": "Santo Amaro da Imperatriz",
        "addr:postcode": "88140-000",
        "addr:street": "Rua Professor Silveira de Matos",
        "addr:suburb": "Centro",
        "amenity": "veterinary",
        "building": "yes",
        "id": "way/1194092108"
      },
      "geometry": {
        "type": "Polygon",
        "coordinates": [
          [
            [
              -48.7752507,
              -27.6836331
            ],
            [
              -48.77535,
              -27.6837225
            ],
            [
              -48.7752696,
              -27.6837925
            ],
            [
              -48.7752889,
              -27.6838099
            ],
            [
              -48.7752605,
              -27.6838346
            ],
            [
              -48.7751419,
              -27.6837277
            ],
            [
              -48.7752507,
              -27.6836331
            ]
          ]
        ]
      }
    },
    {
      "type": "Feature",
      "id": "node/6386092133",
      "properties": {
        "timestamp": "2019-04-05T17:00:27Z",
        "version": 1,
        "changeset": 68929588,
        "amenity": "veterinary",
        "id": "node/6386092133"
      },
      "geometry": {
        "type": "Point",
        "coordinates": [
          -48.775368,
          -27.6836035
        ]
      }
    },
    {
      "type": "Feature",
      "id": "node/10577493703",
      "properties": {
        "timestamp": "2023-01-23T19:45:00Z",
        "version": 1,
        "changeset": 131622627,
        "addr:city": "Santo Amaro da Imperatriz",
        "addr:housenumber": "127",
        "addr:postcode": "88140-000",
        "addr:street": "Rua Vereador Vidal Procópio Lohn",
        "addr:suburb": "Centro",
        "amenity": "veterinary",
        "name": "Cliníca Veterinária Vida Animal",
        "opening_hours": "24/7",
        "id": "node/10577493703"
      },
      "geometry": {
        "type": "Point",
        "coordinates": [
          -48.7741308,
          -27.6835101
        ]
      }
    },
    {
      "type": "Feature",
      "id": "node/10577610545",
      "properties": {
        "timestamp": "2023-01-23T20:32:45Z",
        "version": 1,
        "changeset": 131623836,
        "addr:city": "Santo Amaro da Imperatriz",
        "addr:housenumber": "5005",
        "addr:postcode": "88140-000",
        "addr:street": "Rua Santana",
        "addr:suburb": "Centro",
        "amenity": "veterinary",
        "name": "Clinica Veterinária Santo",
        "opening_hours": "24/7",
        "id": "node/10577610545"
      },
      "geometry": {
        "type": "Point",
        "coordinates": [
          -48.7732205,
          -27.6845514
        ]
      }
    }
  ]
}
