{
  "type": "FeatureCollection",
  "features": [
    {
      "type": "Feature",
      "id": "node/3491299263",
      "properties": {
        "timestamp": "2022-07-05T01:17:11Z",
        "version": 4,
        "changeset": 123212436,
        "IJSN:tipoUnidad": "Hospital Geral",
        "addr:city": "Barra de São Francisco",
        "addr:country": "BR",
        "addr:housenumber": "825",
        "addr:place": "Centro",
        "addr:postcode": "29800-000",
        "addr:state": "ES",
        "addr:street": "Avenida Prefeito Manoel Gonçalves",
        "addr:suburb": "Centro",
        "amenity": "hospital",
        "contact:phone": "(27) 3756-1211",
        "healthcare": "hospital",
        "healthcare:speciality": "general;gynaecology;paediatrics;orthopaedics",
        "name": "Hospital Doutora Rita de Cássia - HDRC",
        "operator": "Secretaria de Estado da Saúde",
        "operator:type": "public",
        "id": "node/3491299263"
      },
      "geometry": {
        "type": "Point",
        "coordinates": [
          -40.8936085,
          -18.7552225
        ]
      }
    }
  ]
}
