{
  "type": "FeatureCollection",
  "features": [
    {
      "type": "Feature",
      "id": "way/272484219",
      "properties": {
        "timestamp": "2016-02-25T02:03:01Z",
        "version": 2,
        "changeset": 37426154,
        "IJSN:administra": "Estadual",
        "IJSN:classeCnae": "Fundamental",
        "addr:city": "Barra de São Francisco",
        "addr:postcode": "29800-000",
        "addr:street": "Rua Francisco de Andrade",
        "addr:suburb": "Monte Senir",
        "alt_name": "Escola Estadual de Ensino Fundamental",
        "amenity": "school",
        "contact:phone": "(27) 3776-3076",
        "name": "EEEF Monte Senir",
        "source": "IJSN",
        "id": "way/272484219"
      },
      "geometry": {
        "type": "Polygon",
        "coordinates": [
          [
            [
              -40.7815944,
              -18.8374714
            ],
            [
              -40.7814723,
              -18.8376942
            ],
            [
              -40.781152,
              -18.83751
            ],
            [
              -40.7812794,
              -18.8373006
            ],
            [
              -40.7815944,
              -18.8374714
            ]
          ]
        ]
      }
    },
    {
      "type": "Feature",
      "id": "node/4024904426",
      "properties": {
        "timestamp": "2016-02-25T01:59:19Z",
        "version": 1,
        "changeset": 37426154,
        "IJSN:administra": "Privada",
        "IJSN:classeCnae": "Infantil, Fundamental e Médio",
        "addr:city": "Barra de São Francisco",
        "addr:housenumber": "100",
        "addr:postcode": "29800-000",
        "addr:street": "Avenida Castelo Branco",
        "addr:suburb": "Centro",
        "amenity": "school",
        "name": "Centro Educacional São Francisco de Assis",
        "source": "IJSN",
        "id": "node/4024904426"
      },
      "geometry": {
        "type": "Point",
        "coordinates": [
          -40.8891066,
          -18.7612879
        ]
      }
    },
    {
      "type": "Feature",
      "id": "node/4024904443",
      "properties": {
        "timestamp": "2016-02-25T01:59:22Z",
        "version": 1,
        "changeset": 37426154,
        "IJSN:administra": "Estadual",
        "IJSN:classeCnae": "Fundamental",
        "addr:city": "Barra de São Francisco",
        "addr:postcode": "29800-000",
        "addr:suburb": "Comunidade São José",
        "alt_name": "Escola Estadual de Ensino Fundamental",
        "amenity": "school",
        "contact:phone": "(27) 9882-2755",
        "name": "EEEF Antônio Cirilo",
        "source": "IJSN",
        "id": "node/4024904443"
      },
      "geometry": {
        "type": "Point",
        "coordinates": [
          -40.7736245,
          -18.5102443
        ]
      }
    },
    {
      "type": "Feature",
      "id": "node/4024904453",
      "properties": {
        "timestamp": "2016-02-25T01:59:23Z",
        "version": 1,
        "changeset": 37426154,
        "IJSN:administra": "Estadual",
        "IJSN:classeCnae": "Fundamental",
        "addr:city": "Barra de São Francisco",
        "addr:postcode": "29800-000",
        "addr:suburb": "Comunidade São José",
        "alt_name": "Escola Estadual de Ensino Fundamental",
        "amenity": "school",
        "contact:phone": "(27) 9845-4251",
        "name": "EEEF Ita",
        "source": "IJSN",
        "id": "node/4024904453"
      },
      "geometry": {
        "type": "Point",
        "coordinates": [
          -40.8690948,
          -18.6280769
        ]
      }
    },
    {
      "type": "Feature",
      "id": "node/4024904468",
      "properties": {
        "timestamp": "2016-02-25T01:59:26Z",
        "version": 1,
        "changeset": 37426154,
        "IJSN:administra": "Estadual",
        "IJSN:classeCnae": "Fundamental",
        "addr:city": "Barra de São Francisco",
        "addr:housenumber": "445",
        "addr:postcode": "29800-000",
        "addr:street": "Rua Alfa",
        "addr:suburb": "Vargem Alegre",
        "alt_name": "Escola Estadual de Ensino Fundamental",
        "amenity": "school",
        "contact:phone": "(27) 3756-9040 / 3756-9024",
        "name": "EEEF Vargem Alegre",
        "source": "IJSN",
        "id": "node/4024904468"
      },
      "geometry": {
        "type": "Point",
        "coordinates": [
          -40.8524494,
          -18.807249
        ]
      }
    },
    {
      "type": "Feature",
      "id": "node/4024904471",
      "properties": {
        "timestamp": "2016-02-25T01:59:26Z",
        "version": 1,
        "changeset": 37426154,
        "IJSN:administra": "Estadual",
        "IJSN:classeCnae": "Fundamental e Médio",
        "addr:city": "Barra de São Francisco",
        "addr:postcode": "29800-000",
        "addr:street": "Rua José Tiago",
        "addr:suburb": "Monte Sinai",
        "alt_name": "Escola Estadual de Ensino Fundamental e Médio",
        "amenity": "school",
        "name": "EEEFM Aladim Silvestre de Almeida",
        "source": "IJSN",
        "id": "node/4024904471"
      },
      "geometry": {
        "type": "Point",
        "coordinates": [
          -40.8870134,
          -18.5854412
        ]
      }
    },
    {
      "type": "Feature",
      "id": "node/4024904802",
      "properties": {
        "timestamp": "2016-02-25T01:59:32Z",
        "version": 1,
        "changeset": 37426154,
        "IJSN:administra": "Estadual",
        "IJSN:classeCnae": "Fundamental",
        "addr:city": "Barra de São Francisco",
        "addr:housenumber": "240",
        "addr:postcode": "29800-000",
        "addr:street": "Rua Dirceu Cardoso",
        "addr:suburb": "Irmãos Fernandes",
        "alt_name": "Escola Estadual de Ensino Fundamental e Médio",
        "amenity": "school",
        "contact:phone": "(27) 3756-1290 / 3756-4896",
        "name": "EEEFM Governador Lindemberg",
        "source": "IJSN",
        "id": "node/4024904802"
      },
      "geometry": {
        "type": "Point",
        "coordinates": [
          -40.8940194,
          -18.7496309
        ]
      }
    },
    {
      "type": "Feature",
      "id": "node/4024904816",
      "properties": {
        "timestamp": "2016-06-19T16:19:15Z",
        "version": 2,
        "changeset": 40139051,
        "IJSN:administra": "Estadual",
        "IJSN:classeCnae": "Fundamental e Médio",
        "addr:city": "Barra de São Francisco",
        "addr:postcode": "29800-000",
        "addr:suburb": "Campo Novo",
        "alt_name": "Escola Estadual de Ensino Fundamental e Médio",
        "amenity": "school",
        "contact:phone": "(27) 3756-1577",
        "name": "EEEFM João XXIII",
        "source": "IJSN",
        "id": "node/4024904816"
      },
      "geometry": {
        "type": "Point",
        "coordinates": [
          -40.898179,
          -18.7557138
        ]
      }
    },
    {
      "type": "Feature",
      "id": "node/4024904840",
      "properties": {
        "timestamp": "2016-02-25T01:59:39Z",
        "version": 1,
        "changeset": 37426154,
        "IJSN:administra": "Estadual",
        "IJSN:classeCnae": "Médio",
        "addr:city": "Barra de São Francisco",
        "addr:housenumber": "5",
        "addr:postcode": "29800-000",
        "addr:street": "Rua Sebastião Caetano de Assis",
        "addr:suburb": "Paulistinha",
        "alt_name": "Escola Estadual de Ensino Fundamental e Médio",
        "amenity": "school",
        "contact:phone": "(27) 3756-6107",
        "name": "EEEFM Professora Ascendina Feitosa",
        "source": "IJSN",
        "id": "node/4024904840"
      },
      "geometry": {
        "type": "Point",
        "coordinates": [
          -40.7966637,
          -18.6657554
        ]
      }
    },
    {
      "type": "Feature",
      "id": "node/4024904990",
      "properties": {
        "timestamp": "2016-02-25T01:59:48Z",
        "version": 1,
        "changeset": 37426154,
        "IJSN:administra": "Estadual",
        "IJSN:classeCnae": "Fundamental",
        "addr:city": "Barra de São Francisco",
        "addr:postcode": "29800-000",
        "addr:suburb": "Comunidade Fervedouro",
        "alt_name": "Escola Estadual Pluridocente de Ensino Fundamental",
        "amenity": "school",
        "name": "EEPEF Córrego Fervedouro",
        "source": "IJSN",
        "id": "node/4024904990"
      },
      "geometry": {
        "type": "Point",
        "coordinates": [
          -40.8762348,
          -18.8653739
        ]
      }
    },
    {
      "type": "Feature",
      "id": "node/4024905013",
      "properties": {
        "timestamp": "2016-02-25T01:59:51Z",
        "version": 1,
        "changeset": 37426154,
        "IJSN:administra": "Estadual",
        "IJSN:classeCnae": "Fundamental",
        "addr:city": "Barra de São Francisco",
        "addr:postcode": "29800-000",
        "addr:suburb": "Comunidade Barra da Boa Sorte",
        "alt_name": "Escola Estadual Unidocente de Ensino Fundamental",
        "amenity": "school",
        "name": "EEUEF Barra da Cambeva",
        "source": "IJSN",
        "id": "node/4024905013"
      },
      "geometry": {
        "type": "Point",
        "coordinates": [
          -40.886728,
          -18.5011833
        ]
      }
    },
    {
      "type": "Feature",
      "id": "node/4024905014",
      "properties": {
        "timestamp": "2016-02-25T01:59:51Z",
        "version": 1,
        "changeset": 37426154,
        "IJSN:administra": "Estadual",
        "IJSN:classeCnae": "Fundamental",
        "addr:city": "Barra de São Francisco",
        "addr:postcode": "29800-000",
        "addr:suburb": "Comunidade Pipoca",
        "alt_name": "Escola Estadual Unidocente de Ensino Fundamental",
        "amenity": "school",
        "name": "EEUEF Barra da Pipoca",
        "source": "IJSN",
        "id": "node/4024905014"
      },
      "geometry": {
        "type": "Point",
        "coordinates": [
          -40.8905523,
          -18.5385216
        ]
      }
    },
    {
      "type": "Feature",
      "id": "node/4024905017",
      "properties": {
        "timestamp": "2016-02-25T01:59:52Z",
        "version": 1,
        "changeset": 37426154,
        "IJSN:administra": "Estadual",
        "IJSN:classeCnae": "Fundamental",
        "addr:city": "Barra de São Francisco",
        "addr:postcode": "29800-000",
        "addr:suburb": "Comunidade Córrego Taperuna",
        "alt_name": "Escola Estadual Unidocente de Ensino Fundamental",
        "amenity": "school",
        "name": "EEUEF Boa Esperança",
        "source": "IJSN",
        "id": "node/4024905017"
      },
      "geometry": {
        "type": "Point",
        "coordinates": [
          -40.7326088,
          -18.7656563
        ]
      }
    },
    {
      "type": "Feature",
      "id": "node/4024905026",
      "properties": {
        "timestamp": "2016-02-25T01:59:53Z",
        "version": 1,
        "changeset": 37426154,
        "IJSN:administra": "Estadual",
        "IJSN:classeCnae": "Fundamental",
        "addr:city": "Barra de São Francisco",
        "addr:postcode": "29800-000",
        "addr:suburb": "Comunidade Boa Sorte II",
        "alt_name": "Escola Estadual Unidocente de Ensino Fundamental",
        "amenity": "school",
        "name": "EEUEF Córrego dos Fagundes",
        "source": "IJSN",
        "id": "node/4024905026"
      },
      "geometry": {
        "type": "Point",
        "coordinates": [
          -40.8969194,
          -18.4742462
        ]
      }
    },
    {
      "type": "Feature",
      "id": "node/4024905030",
      "properties": {
        "timestamp": "2016-02-25T01:59:54Z",
        "version": 1,
        "changeset": 37426154,
        "IJSN:administra": "Estadual",
        "IJSN:classeCnae": "Fundamental",
        "addr:city": "Barra de São Francisco",
        "addr:postcode": "29800-000",
        "addr:suburb": "Comunidade Rio do Campo",
        "alt_name": "Escola Estadual Unidocente de Ensino Fundamental",
        "amenity": "school",
        "name": "EEUEF Fazenda Barra Alegre",
        "source": "IJSN",
        "id": "node/4024905030"
      },
      "geometry": {
        "type": "Point",
        "coordinates": [
          -40.8670738,
          -18.4857321
        ]
      }
    },
    {
      "type": "Feature",
      "id": "node/4024905033",
      "properties": {
        "timestamp": "2016-02-25T01:59:54Z",
        "version": 1,
        "changeset": 37426154,
        "IJSN:administra": "Estadual",
        "IJSN:classeCnae": "Fundamental",
        "addr:city": "Barra de São Francisco",
        "addr:postcode": "29800-000",
        "addr:suburb": "Comunidade Córrego Oswaldo Cruz",
        "alt_name": "Escola Estadual Unidocente de Ensino Fundamental",
        "amenity": "school",
        "name": "EEUEF Fazenda José Lino",
        "source": "IJSN",
        "id": "node/4024905033"
      },
      "geometry": {
        "type": "Point",
        "coordinates": [
          -40.8565512,
          -18.4359211
        ]
      }
    },
    {
      "type": "Feature",
      "id": "node/4024905042",
      "properties": {
        "timestamp": "2016-02-25T01:59:56Z",
        "version": 1,
        "changeset": 37426154,
        "IJSN:administra": "Estadual",
        "IJSN:classeCnae": "Fundamental",
        "addr:city": "Barra de São Francisco",
        "addr:postcode": "29800-000",
        "addr:suburb": "Comunidade Córrego Itauninhas",
        "alt_name": "Escola Estadual Unidocente de Ensino Fundamental",
        "amenity": "school",
        "name": "EEUEF Itaúninhas",
        "source": "IJSN",
        "id": "node/4024905042"
      },
      "geometry": {
        "type": "Point",
        "coordinates": [
          -40.9040305,
          -18.86934
        ]
      }
    },
    {
      "type": "Feature",
      "id": "node/4024905061",
      "properties": {
        "timestamp": "2016-02-25T01:59:58Z",
        "version": 1,
        "changeset": 37426154,
        "IJSN:administra": "Municipal",
        "IJSN:classeCnae": "Fundamental",
        "addr:city": "Barra de São Francisco",
        "addr:postcode": "29800-000",
        "addr:suburb": "Comunidade Fazenda Geraldo Cozer",
        "alt_name": "Escola Família Agrícola Municipal",
        "amenity": "school",
        "contact:phone": "(27) 9813-9553",
        "name": "EFA MUL Normilia Cunha dos Santos",
        "source": "IJSN",
        "id": "node/4024905061"
      },
      "geometry": {
        "type": "Point",
        "coordinates": [
          -40.8230444,
          -18.7772344
        ]
      }
    },
    {
      "type": "Feature",
      "id": "node/4024905075",
      "properties": {
        "timestamp": "2016-02-25T02:00:01Z",
        "version": 1,
        "changeset": 37426154,
        "IJSN:administra": "Municipal",
        "IJSN:classeCnae": "Infantil e Fundamental",
        "addr:city": "Barra de São Francisco",
        "addr:postcode": "29800-000",
        "addr:street": "Rua José Tiago",
        "addr:suburb": "Monte Sinai",
        "alt_name": "Escola Municipal",
        "amenity": "school",
        "contact:phone": "(27) 3776-2090",
        "name": "EM Abel Louback",
        "source": "IJSN",
        "id": "node/4024905075"
      },
      "geometry": {
        "type": "Point",
        "coordinates": [
          -40.8870703,
          -18.5854855
        ]
      }
    },
    {
      "type": "Feature",
      "id": "node/4024905076",
      "properties": {
        "timestamp": "2016-02-25T02:00:01Z",
        "version": 1,
        "changeset": 37426154,
        "IJSN:administra": "Municipal",
        "IJSN:classeCnae": "Fundamental",
        "addr:city": "Barra de São Francisco",
        "addr:postcode": "29800-000",
        "addr:suburb": "Comunidade Vargem Alegre",
        "alt_name": "Escola Municipal",
        "amenity": "school",
        "name": "EM Afluente Vargem Alegre",
        "source": "IJSN",
        "id": "node/4024905076"
      },
      "geometry": {
        "type": "Point",
        "coordinates": [
          -40.8620756,
          -18.8195838
        ]
      }
    },
    {
      "type": "Feature",
      "id": "node/4024905077",
      "properties": {
        "timestamp": "2016-11-08T14:19:39Z",
        "version": 2,
        "changeset": 43488093,
        "IJSN:administra": "Municipal",
        "IJSN:classeCnae": "Fundamental",
        "addr:city": "Barra de São Francisco",
        "addr:postcode": "29800-000",
        "addr:suburb": "Comunidade Engenho",
        "alt_name": "Escola Municipal",
        "amenity": "school",
        "name": "EM Alexandrina de Almeida Castro",
        "source": "IJSN",
        "id": "node/4024905077"
      },
      "geometry": {
        "type": "Point",
        "coordinates": [
          -40.8372754,
          -18.6683804
        ]
      }
    },
    {
      "type": "Feature",
      "id": "node/4024905078",
      "properties": {
        "timestamp": "2016-02-25T02:00:01Z",
        "version": 1,
        "changeset": 37426154,
        "IJSN:administra": "Municipal",
        "IJSN:classeCnae": "Fundamental",
        "addr:city": "Barra de São Francisco",
        "addr:postcode": "29800-000",
        "addr:suburb": "Paulistinha",
        "alt_name": "Escola Municipal",
        "amenity": "school",
        "name": "EM Alto Paulista",
        "source": "IJSN",
        "id": "node/4024905078"
      },
      "geometry": {
        "type": "Point",
        "coordinates": [
          -40.8084048,
          -18.6318297
        ]
      }
    },
    {
      "type": "Feature",
      "id": "node/4024905079",
      "properties": {
        "timestamp": "2016-02-25T02:00:01Z",
        "version": 1,
        "changeset": 37426154,
        "IJSN:administra": "Municipal",
        "IJSN:classeCnae": "Infantil e Fundamental",
        "addr:city": "Barra de São Francisco",
        "addr:postcode": "29800-000",
        "addr:street": "Rua São Mateus",
        "addr:suburb": "Itaperuna",
        "alt_name": "Escola Municipal",
        "amenity": "school",
        "name": "EM Barra de Itaperuna",
        "source": "IJSN",
        "id": "node/4024905079"
      },
      "geometry": {
        "type": "Point",
        "coordinates": [
          -40.7398503,
          -18.7091673
        ]
      }
    },
    {
      "type": "Feature",
      "id": "node/4024905080",
      "properties": {
        "timestamp": "2016-02-25T02:00:01Z",
        "version": 1,
        "changeset": 37426154,
        "IJSN:administra": "Municipal",
        "IJSN:classeCnae": "Fundamental",
        "addr:city": "Barra de São Francisco",
        "addr:postcode": "29800-000",
        "addr:suburb": "Comunidade Córrego Boa União",
        "alt_name": "Escola Municipal",
        "amenity": "school",
        "name": "EM Boa União",
        "source": "IJSN",
        "id": "node/4024905080"
      },
      "geometry": {
        "type": "Point",
        "coordinates": [
          -40.8089783,
          -18.7236346
        ]
      }
    },
    {
      "type": "Feature",
      "id": "node/4024905081",
      "properties": {
        "timestamp": "2016-02-25T02:00:02Z",
        "version": 1,
        "changeset": 37426154,
        "IJSN:administra": "Municipal",
        "IJSN:classeCnae": "Fundamental",
        "addr:city": "Barra de São Francisco",
        "addr:postcode": "29800-000",
        "addr:street": "Rodovia ES 080",
        "addr:suburb": "Comunidade Santo Antônio",
        "alt_name": "Escola Municipal",
        "amenity": "school",
        "name": "EM Cabeçeira de Santo Antônio",
        "source": "IJSN",
        "id": "node/4024905081"
      },
      "geometry": {
        "type": "Point",
        "coordinates": [
          -40.7979531,
          -18.8083728
        ]
      }
    },
    {
      "type": "Feature",
      "id": "node/4024905082",
      "properties": {
        "timestamp": "2016-02-25T02:00:02Z",
        "version": 1,
        "changeset": 37426154,
        "IJSN:administra": "Municipal",
        "IJSN:classeCnae": "Infantil e Fundamental",
        "addr:city": "Barra de São Francisco",
        "addr:postcode": "29800-000",
        "addr:street": "Rua Sete de Setembro",
        "addr:suburb": "Comunidade Cachoeirinha de Itaúna",
        "alt_name": "Escola Municipal",
        "amenity": "school",
        "name": "EM Cachoeirinha de Itaúnas",
        "source": "IJSN",
        "id": "node/4024905082"
      },
      "geometry": {
        "type": "Point",
        "coordinates": [
          -40.9306631,
          -18.8740227
        ]
      }
    },
    {
      "type": "Feature",
      "id": "node/4024905083",
      "properties": {
        "timestamp": "2016-02-25T02:00:02Z",
        "version": 1,
        "changeset": 37426154,
        "IJSN:administra": "Municipal",
        "IJSN:classeCnae": "Fundamental",
        "addr:city": "Barra de São Francisco",
        "addr:postcode": "29800-000",
        "addr:suburb": "Comunidade Boa Esperança I",
        "alt_name": "Escola Municipal",
        "amenity": "school",
        "name": "EM Córrego Areia Branca",
        "source": "IJSN",
        "id": "node/4024905083"
      },
      "geometry": {
        "type": "Point",
        "coordinates": [
          -40.9201719,
          -18.7057129
        ]
      }
    },
    {
      "type": "Feature",
      "id": "node/4024905084",
      "properties": {
        "timestamp": "2016-02-25T02:00:02Z",
        "version": 1,
        "changeset": 37426154,
        "IJSN:administra": "Municipal",
        "IJSN:classeCnae": "Fundamental",
        "addr:city": "Barra de São Francisco",
        "addr:postcode": "29800-000",
        "addr:suburb": "Comunidade Córrego do Baiano",
        "alt_name": "Escola Municipal",
        "amenity": "school",
        "name": "EM Córrego do Baiano",
        "source": "IJSN",
        "id": "node/4024905084"
      },
      "geometry": {
        "type": "Point",
        "coordinates": [
          -40.7888609,
          -18.6393348
        ]
      }
    },
    {
      "type": "Feature",
      "id": "node/4024905085",
      "properties": {
        "timestamp": "2016-02-25T02:00:02Z",
        "version": 1,
        "changeset": 37426154,
        "IJSN:administra": "Municipal",
        "IJSN:classeCnae": "Infantil e Fundamental",
        "addr:city": "Barra de São Francisco",
        "addr:postcode": "29800-000",
        "addr:suburb": "Comunidade Engenho",
        "alt_name": "Escola Municipal",
        "amenity": "school",
        "name": "EM Córrego do Engenho",
        "source": "IJSN",
        "id": "node/4024905085"
      },
      "geometry": {
        "type": "Point",
        "coordinates": [
          -40.8337971,
          -18.641029
        ]
      }
    },
    {
      "type": "Feature",
      "id": "node/4024905086",
      "properties": {
        "timestamp": "2016-02-25T02:00:02Z",
        "version": 1,
        "changeset": 37426154,
        "IJSN:administra": "Municipal",
        "IJSN:classeCnae": "Infantil e Fundamental",
        "addr:city": "Barra de São Francisco",
        "addr:postcode": "29800-000",
        "addr:suburb": "Comunidade São José",
        "alt_name": "Escola Municipal",
        "amenity": "school",
        "name": "EM Daniel Cirilo de Paula",
        "source": "IJSN",
        "id": "node/4024905086"
      },
      "geometry": {
        "type": "Point",
        "coordinates": [
          -40.7732276,
          -18.5111969
        ]
      }
    },
    {
      "type": "Feature",
      "id": "node/4024905088",
      "properties": {
        "timestamp": "2016-02-25T02:00:03Z",
        "version": 1,
        "changeset": 37426154,
        "IJSN:administra": "Municipal",
        "IJSN:classeCnae": "Infantil e Fundamental",
        "addr:city": "Barra de São Francisco",
        "addr:postcode": "29800-000",
        "addr:street": "Rua Camilo Lopes Júnior",
        "addr:suburb": "Paulistinha",
        "alt_name": "Escola Municipal",
        "amenity": "school",
        "contact:phone": "(27) 3756-6301",
        "name": "EM Elizabeth Trzoseki da Silva",
        "source": "IJSN",
        "id": "node/4024905088"
      },
      "geometry": {
        "type": "Point",
        "coordinates": [
          -40.7952068,
          -18.6676026
        ]
      }
    },
    {
      "type": "Feature",
      "id": "node/4024905189",
      "properties": {
        "timestamp": "2016-02-25T02:00:03Z",
        "version": 1,
        "changeset": 37426154,
        "IJSN:administra": "Municipal",
        "IJSN:classeCnae": "Infantil e Fundamental",
        "addr:city": "Barra de São Francisco",
        "addr:housenumber": "100",
        "addr:postcode": "29800-000",
        "addr:street": "Rua Padre Zacarias",
        "addr:suburb": "Cruzeiro",
        "alt_name": "Escola Municipal",
        "amenity": "school",
        "contact:phone": "(27) 3756-7530 / 3756-2375",
        "name": "EM Erasmo Braga",
        "source": "IJSN",
        "id": "node/4024905189"
      },
      "geometry": {
        "type": "Point",
        "coordinates": [
          -40.893434,
          -18.7583343
        ]
      }
    },
    {
      "type": "Feature",
      "id": "node/4024905191",
      "properties": {
        "timestamp": "2016-02-25T02:00:03Z",
        "version": 1,
        "changeset": 37426154,
        "IJSN:administra": "Municipal",
        "IJSN:classeCnae": "Fundamental",
        "addr:city": "Barra de São Francisco",
        "addr:postcode": "29800-000",
        "addr:suburb": "Comunidade Barbosa",
        "alt_name": "Escola Municipal",
        "amenity": "school",
        "name": "EM Fazenda Barbosa",
        "source": "IJSN",
        "id": "node/4024905191"
      },
      "geometry": {
        "type": "Point",
        "coordinates": [
          -40.8495981,
          -18.8241408
        ]
      }
    },
    {
      "type": "Feature",
      "id": "node/4024905192",
      "properties": {
        "timestamp": "2016-02-25T02:00:03Z",
        "version": 1,
        "changeset": 37426154,
        "IJSN:administra": "Municipal",
        "IJSN:classeCnae": "Fundamental",
        "addr:city": "Barra de São Francisco",
        "addr:postcode": "29800-000",
        "addr:suburb": "Comunidade Fazenda Geraldo Cozer",
        "alt_name": "Escola Municipal",
        "amenity": "school",
        "name": "EM Fazenda Geraldo Cozzer",
        "source": "IJSN",
        "id": "node/4024905192"
      },
      "geometry": {
        "type": "Point",
        "coordinates": [
          -40.8303212,
          -18.7841358
        ]
      }
    },
    {
      "type": "Feature",
      "id": "node/4024905193",
      "properties": {
        "timestamp": "2016-02-25T02:00:03Z",
        "version": 1,
        "changeset": 37426154,
        "IJSN:administra": "Municipal",
        "IJSN:classeCnae": "Fundamental",
        "addr:city": "Barra de São Francisco",
        "addr:postcode": "29800-000",
        "addr:suburb": "Comunidade Palmital",
        "alt_name": "Escola Municipal",
        "amenity": "school",
        "name": "EM Fazenda Honório",
        "source": "IJSN",
        "id": "node/4024905193"
      },
      "geometry": {
        "type": "Point",
        "coordinates": [
          -40.8520546,
          -18.5466425
        ]
      }
    },
    {
      "type": "Feature",
      "id": "node/4024905194",
      "properties": {
        "timestamp": "2016-02-25T02:00:04Z",
        "version": 1,
        "changeset": 37426154,
        "IJSN:administra": "Municipal",
        "IJSN:classeCnae": "Fundamental",
        "addr:city": "Barra de São Francisco",
        "addr:postcode": "29800-000",
        "addr:suburb": "Comunidade Córrego Itaúnas",
        "alt_name": "Escola Municipal",
        "amenity": "school",
        "name": "EM Fazenda Itaúnas",
        "source": "IJSN",
        "id": "node/4024905194"
      },
      "geometry": {
        "type": "Point",
        "coordinates": [
          -40.9032683,
          -18.8221949
        ]
      }
    },
    {
      "type": "Feature",
      "id": "node/4024905195",
      "properties": {
        "timestamp": "2016-02-25T02:00:04Z",
        "version": 1,
        "changeset": 37426154,
        "IJSN:administra": "Municipal",
        "IJSN:classeCnae": "Infantil e Fundamental",
        "addr:city": "Barra de São Francisco",
        "addr:housenumber": "194",
        "addr:postcode": "29800-000",
        "addr:street": "Rua Benjamim Costa",
        "addr:suburb": "Vila Landinha",
        "alt_name": "Escola Municipal",
        "amenity": "school",
        "contact:phone": "(27) 3756-1837 / 3756-2913",
        "name": "EM José Francisco da Fonseca",
        "source": "IJSN",
        "id": "node/4024905195"
      },
      "geometry": {
        "type": "Point",
        "coordinates": [
          -40.8858457,
          -18.7597132
        ]
      }
    },
    {
      "type": "Feature",
      "id": "node/4024905196",
      "properties": {
        "timestamp": "2016-02-25T02:00:04Z",
        "version": 1,
        "changeset": 37426154,
        "IJSN:administra": "Municipal",
        "IJSN:classeCnae": "Fundamental",
        "addr:city": "Barra de São Francisco",
        "addr:housenumber": "218",
        "addr:postcode": "29800-000",
        "addr:street": "Avenida Dona Minelvina Garcia de Lima",
        "addr:suburb": "Vila Gonçalves",
        "alt_name": "Escola Municipal",
        "amenity": "school",
        "contact:phone": "(27) 3756-1608",
        "name": "EM João Bastos",
        "source": "IJSN",
        "id": "node/4024905196"
      },
      "geometry": {
        "type": "Point",
        "coordinates": [
          -40.8906657,
          -18.7539174
        ]
      }
    },
    {
      "type": "Feature",
      "id": "node/4024905197",
      "properties": {
        "timestamp": "2016-02-25T02:00:04Z",
        "version": 1,
        "changeset": 37426154,
        "IJSN:administra": "Municipal",
        "IJSN:classeCnae": "Infantil e Fundamental",
        "addr:city": "Barra de São Francisco",
        "addr:postcode": "29800-000",
        "addr:street": "Rodovia ES-080",
        "addr:suburb": "Comunidade Córrego do Ouro",
        "alt_name": "Escola Municipal",
        "amenity": "school",
        "contact:phone": "(27) 3756-1226",
        "name": "EM Luciene Matos Ferreira",
        "source": "IJSN",
        "id": "node/4024905197"
      },
      "geometry": {
        "type": "Point",
        "coordinates": [
          -40.8943859,
          -18.7303183
        ]
      }
    },
    {
      "type": "Feature",
      "id": "node/4024905199",
      "properties": {
        "timestamp": "2016-02-25T02:00:04Z",
        "version": 1,
        "changeset": 37426154,
        "IJSN:administra": "Municipal",
        "IJSN:classeCnae": "Infantil e Fundamental",
        "addr:city": "Barra de São Francisco",
        "addr:housenumber": "17",
        "addr:postcode": "29800-000",
        "addr:street": "Rua Ponciano Fernandes de Jesus",
        "addr:suburb": "Irmãos Fernandes",
        "alt_name": "Escola Municipal",
        "amenity": "school",
        "contact:phone": "(27) 3756-5478",
        "name": "EM Mac Nair",
        "source": "IJSN",
        "id": "node/4024905199"
      },
      "geometry": {
        "type": "Point",
        "coordinates": [
          -40.8908039,
          -18.7522649
        ]
      }
    },
    {
      "type": "Feature",
      "id": "node/4024905200",
      "properties": {
        "timestamp": "2016-02-25T02:00:05Z",
        "version": 1,
        "changeset": 37426154,
        "IJSN:administra": "Municipal",
        "IJSN:classeCnae": "Infantil e Fundamental",
        "addr:city": "Barra de São Francisco",
        "addr:postcode": "29800-000",
        "addr:suburb": "Comunidade Rio do Campo",
        "alt_name": "Escola Municipal",
        "amenity": "school",
        "name": "EM Otto Saar",
        "source": "IJSN",
        "id": "node/4024905200"
      },
      "geometry": {
        "type": "Point",
        "coordinates": [
          -40.8737087,
          -18.4926322
        ]
      }
    },
    {
      "type": "Feature",
      "id": "node/4024905201",
      "properties": {
        "timestamp": "2016-02-25T02:00:05Z",
        "version": 1,
        "changeset": 37426154,
        "IJSN:administra": "Municipal",
        "IJSN:classeCnae": "Fundamental",
        "addr:city": "Barra de São Francisco",
        "addr:postcode": "29800-000",
        "addr:suburb": "Poranga",
        "alt_name": "Escola Municipal",
        "amenity": "school",
        "name": "EM Poranga",
        "source": "IJSN",
        "id": "node/4024905201"
      },
      "geometry": {
        "type": "Point",
        "coordinates": [
          -40.8622834,
          -18.5852055
        ]
      }
    },
    {
      "type": "Feature",
      "id": "node/4024905203",
      "properties": {
        "timestamp": "2016-02-25T02:00:05Z",
        "version": 1,
        "changeset": 37426154,
        "IJSN:administra": "Municipal",
        "IJSN:classeCnae": "Fundamental",
        "addr:city": "Barra de São Francisco",
        "addr:postcode": "29800-000",
        "addr:suburb": "Comunidade Jabuticaba",
        "alt_name": "Escola Municipal",
        "amenity": "school",
        "name": "EM Santa Angélica",
        "source": "IJSN",
        "id": "node/4024905203"
      },
      "geometry": {
        "type": "Point",
        "coordinates": [
          -40.8891278,
          -18.6413428
        ]
      }
    },
    {
      "type": "Feature",
      "id": "node/4024905204",
      "properties": {
        "timestamp": "2016-02-25T02:00:05Z",
        "version": 1,
        "changeset": 37426154,
        "IJSN:administra": "Municipal",
        "IJSN:classeCnae": "Infantil e Fundamental",
        "addr:city": "Barra de São Francisco",
        "addr:postcode": "29800-000",
        "addr:suburb": "Comunidade Córrego São João",
        "alt_name": "Escola Municipal",
        "amenity": "school",
        "name": "EM Santa Tozzi de Palma",
        "source": "IJSN",
        "id": "node/4024905204"
      },
      "geometry": {
        "type": "Point",
        "coordinates": [
          -40.7702822,
          -18.7519379
        ]
      }
    },
    {
      "type": "Feature",
      "id": "node/4024905205",
      "properties": {
        "timestamp": "2016-02-25T02:00:05Z",
        "version": 1,
        "changeset": 37426154,
        "IJSN:administra": "Municipal",
        "IJSN:classeCnae": "Infantil e Fundamental",
        "addr:city": "Barra de São Francisco",
        "addr:postcode": "29800-000",
        "addr:suburb": "Comunidade Córrego Aventureiro",
        "alt_name": "Escola Municipal",
        "amenity": "school",
        "contact:phone": "(27) 9983-5669 / 3756-1844",
        "name": "EM Santo Antônio",
        "source": "IJSN",
        "id": "node/4024905205"
      },
      "geometry": {
        "type": "Point",
        "coordinates": [
          -40.8526402,
          -18.7650494
        ]
      }
    },
    {
      "type": "Feature",
      "id": "node/4024905206",
      "properties": {
        "timestamp": "2016-02-25T02:00:06Z",
        "version": 1,
        "changeset": 37426154,
        "IJSN:administra": "Municipal",
        "IJSN:classeCnae": "Infantil e Fundamental",
        "addr:city": "Barra de São Francisco",
        "addr:housenumber": "267",
        "addr:postcode": "29800-000",
        "addr:street": "Avenida Manoel Alves da Fonseca",
        "addr:suburb": "Bairro Vila Vicente",
        "alt_name": "Escola Municipal",
        "amenity": "school",
        "contact:phone": "(27) 3756-1159",
        "name": "EM Sebastião Albano",
        "source": "IJSN",
        "id": "node/4024905206"
      },
      "geometry": {
        "type": "Point",
        "coordinates": [
          -40.8815469,
          -18.7533798
        ]
      }
    },
    {
      "type": "Feature",
      "id": "node/4024905207",
      "properties": {
        "timestamp": "2016-02-25T02:00:06Z",
        "version": 1,
        "changeset": 37426154,
        "IJSN:administra": "Municipal",
        "IJSN:classeCnae": "Infantil e Fundamental",
        "addr:city": "Barra de São Francisco",
        "addr:housenumber": "30",
        "addr:postcode": "29800-000",
        "addr:street": "Rua Alfa",
        "addr:suburb": "Vargem Alegre",
        "alt_name": "Escola Municipal de Ensino Fundamental",
        "amenity": "school",
        "contact:phone": "(27) 3756-9040 / 3756-9024",
        "name": "EM Vargem Alegre",
        "source": "IJSN",
        "id": "node/4024905207"
      },
      "geometry": {
        "type": "Point",
        "coordinates": [
          -40.8525177,
          -18.8072114
        ]
      }
    },
    {
      "type": "Feature",
      "id": "node/4024905208",
      "properties": {
        "timestamp": "2016-02-25T02:00:06Z",
        "version": 1,
        "changeset": 37426154,
        "IJSN:administra": "Municipal",
        "IJSN:classeCnae": "Fundamental",
        "addr:city": "Barra de São Francisco",
        "addr:postcode": "29800-000",
        "addr:suburb": "Comunidade Vargem Grande",
        "alt_name": "Escola Municipal",
        "amenity": "school",
        "name": "EM Vargem Grande de Itaúnas",
        "source": "IJSN",
        "id": "node/4024905208"
      },
      "geometry": {
        "type": "Point",
        "coordinates": [
          -40.8910657,
          -18.8438706
        ]
      }
    },
    {
      "type": "Feature",
      "id": "node/4024905209",
      "properties": {
        "timestamp": "2016-02-25T02:00:06Z",
        "version": 1,
        "changeset": 37426154,
        "IJSN:administra": "Municipal",
        "IJSN:classeCnae": "Infantil e Fundamental",
        "addr:city": "Barra de São Francisco",
        "addr:postcode": "29800-000",
        "addr:street": "Rua Filomena Rosa dos Santos",
        "addr:suburb": "Bairro Campo Novo",
        "alt_name": "Escola Municipal",
        "amenity": "school",
        "contact:phone": "(27) 3756-2866 / 3756-4923",
        "name": "EM Vicente Amaro da Silva",
        "source": "IJSN",
        "id": "node/4024905209"
      },
      "geometry": {
        "type": "Point",
        "coordinates": [
          -40.8969653,
          -18.7547206
        ]
      }
    },
    {
      "type": "Feature",
      "id": "node/4024906280",
      "properties": {
        "timestamp": "2016-02-25T02:01:55Z",
        "version": 1,
        "changeset": 37426154,
        "IJSN:administra": "Municipal",
        "IJSN:classeCnae": "Fundamental",
        "addr:city": "Ecoporanga",
        "addr:postcode": "29850-000",
        "addr:suburb": "Córrego da Jacutinga",
        "alt_name": "Escola Municipal Unidocente de Ensino Fundamental",
        "amenity": "school",
        "name": "EMUEF Córrego da Jacutinga",
        "source": "IJSN",
        "id": "node/4024906280"
      },
      "geometry": {
        "type": "Point",
        "coordinates": [
          -40.7302955,
          -18.4849028
        ]
      }
    },
    {
      "type": "Feature",
      "id": "node/4024906954",
      "properties": {
        "timestamp": "2016-02-25T02:02:51Z",
        "version": 1,
        "changeset": 37426154,
        "IJSN:administra": "Privada",
        "IJSN:classeCnae": "Infantil e Fundamental",
        "addr:city": "Barra de São Francisco",
        "addr:housenumber": "40",
        "addr:postcode": "29800-000",
        "addr:street": "Rua Gelcino Alves",
        "addr:suburb": "Bambe",
        "amenity": "school",
        "contact:phone": "(27) 3756-2556",
        "name": "Escola Adventista de Barra de São Francisco",
        "source": "IJSN",
        "id": "node/4024906954"
      },
      "geometry": {
        "type": "Point",
        "coordinates": [
          -40.895707,
          -18.758234
        ]
      }
    },
    {
      "type": "Feature",
      "id": "node/4024906966",
      "properties": {
        "timestamp": "2016-02-25T02:02:54Z",
        "version": 1,
        "changeset": 37426154,
        "IJSN:administra": "Estadual",
        "IJSN:classeCnae": "Fundamental",
        "addr:city": "Barra de São Francisco",
        "addr:postcode": "29800-000",
        "addr:suburb": "Vila Luciene",
        "alt_name": "Penitenciária Regional",
        "amenity": "school",
        "name": "PRBSF Penitenciária Regional Barra de São Francisco",
        "source": "IJSN",
        "id": "node/4024906966"
      },
      "geometry": {
        "type": "Point",
        "coordinates": [
          -40.8941593,
          -18.7342786
        ]
      }
    }
  ]
}
