{
  "type": "FeatureCollection",
  "features": [
    {
      "type": "Feature",
      "id": "way/893781867",
      "properties": {
        "timestamp": "2025-03-06T02:00:05Z",
        "version": 3,
        "changeset": 163267117,
        "addr:city": "Barra Velha",
        "addr:housenumber": "125",
        "addr:postcode": "88390-000",
        "addr:street": "Rua Pedro Alcântara Freitas",
        "addr:suburb": "Centro",
        "building": "yes",
        "email": "ouvidoria@barravelha.sc.leg.br",
        "government": "legislative",
        "name": "Câmara de Vereadores de Barra Velha",
        "office": "government",
        "phone": "+55 47 3446-7800",
        "website": "https://www.camarabarravelha.sc.gov.br",
        "id": "way/893781867"
      },
      "geometry": {
        "type": "Polygon",
        "coordinates": [
          [
            [
              -48.6866205,
              -26.6308116
            ],
            [
              -48.6863993,
              -26.6308212
            ],
            [
              -48.6863873,
              -26.630802
            ],
            [
              -48.6862008,
              -26.6308236
            ],
            [
              -48.686178,
              -26.6307157
            ],
            [
              -48.6863765,
              -26.6306868
            ],
            [
              -48.6864279,
              -26.6306711
            ],
            [
              -48.6864252,
              -26.630633
            ],
            [
              -48.6865462,
              -26.6306223
            ],
            [
              -48.6865581,
              -26.6306438
            ],
            [
              -48.6866004,
              -26.6306486
            ],
            [
              -48.6866205,
              -26.6308116
            ]
          ]
        ]
      }
    },
    {
      "type": "Feature",
      "id": "node/5141830921",
      "properties": {
        "timestamp": "2022-09-07T16:56:19Z",
        "version": 3,
        "changeset": 125910247,
        "addr:city": "Barra Velha",
        "addr:housenumber": "100",
        "addr:postcode": "88390-000",
        "addr:street": "Rua Bernardo Aguiar",
        "addr:suburb": "Centro",
        "government": "register_office",
        "name": "Registro de Imóveis de Barra Velha",
        "office": "government",
        "phone": "+55 47 3457 2012",
        "source": "survey",
        "id": "node/5141830921"
      },
      "geometry": {
        "type": "Point",
        "coordinates": [
          -48.6850089,
          -26.6337668
        ]
      }
    }
  ]
}
