{
  "type": "FeatureCollection",
  "features": [
    {
      "type": "Feature",
      "id": "way/504329376",
      "properties": {
        "timestamp": "2017-07-01T00:54:17Z",
        "version": 1,
        "changeset": 49956548,
        "amenity": "school",
        "name": "Escola Alcides Figueiredo Leite",
        "id": "way/504329376"
      },
      "geometry": {
        "type": "Polygon",
        "coordinates": [
          [
            [
              -39.4565927,
              -12.1585997
            ],
            [
              -39.4565156,
              -12.1589054
            ],
            [
              -39.4561815,
              -12.1588248
            ],
            [
              -39.4562314,
              -12.1586269
            ],
            [
              -39.4562932,
              -12.1586418
            ],
            [
              -39.4563204,
              -12.158534
            ],
            [
              -39.4565927,
              -12.1585997
            ]
          ]
        ]
      }
    },
    {
      "type": "Feature",
      "id": "way/504329392",
      "properties": {
        "timestamp": "2017-07-01T00:54:18Z",
        "version": 1,
        "changeset": 49956548,
        "amenity": "school",
        "id": "way/504329392"
      },
      "geometry": {
        "type": "Polygon",
        "coordinates": [
          [
            [
              -39.4577296,
              -12.156247
            ],
            [
              -39.4577039,
              -12.1564829
            ],
            [
              -39.4576181,
              -12.156474
            ],
            [
              -39.4576053,
              -12.1565921
            ],
            [
              -39.4573307,
              -12.1565636
            ],
            [
              -39.4573691,
              -12.1562096
            ],
            [
              -39.4577296,
              -12.156247
            ]
          ]
        ]
      }
    },
    {
      "type": "Feature",
      "id": "way/504329477",
      "properties": {
        "timestamp": "2017-07-01T00:54:23Z",
        "version": 1,
        "changeset": 49956548,
        "amenity": "school",
        "name": "EM do Bravo",
        "id": "way/504329477"
      },
      "geometry": {
        "type": "Polygon",
        "coordinates": [
          [
            [
              -39.4544368,
              -12.1526204
            ],
            [
              -39.454323,
              -12.1536816
            ],
            [
              -39.4542295,
              -12.1536975
            ],
            [
              -39.4528757,
              -12.1531927
            ],
            [
              -39.4531562,
              -12.1521912
            ],
            [
              -39.4544368,
              -12.1526204
            ]
          ]
        ]
      }
    },
    {
      "type": "Feature",
      "id": "node/12206855255",
      "properties": {
        "timestamp": "2024-09-28T12:33:49Z",
        "version": 1,
        "changeset": 157208602,
        "addr:city": "Serra Preta",
        "addr:postcode": "44660-000",
        "addr:suburb": "Sapateiro",
        "amenity": "school",
        "grades": "1-5",
        "internet_access": "wlan",
        "internet_access:ssid": "Escola",
        "name": "Escola Municipal Dr. Henrique Brito Filho",
        "opening_hours": "Mo-Fr 08:00-12:00",
        "operator": "Prefeitura Municipal de Serra Preta",
        "operator:type": "public",
        "phone": "+55 75 3697 2114",
        "polling_station": "yes",
        "wheelchair": "yes",
        "id": "node/12206855255"
      },
      "geometry": {
        "type": "Point",
        "coordinates": [
          -39.2846443,
          -12.078008
        ]
      }
    },
    {
      "type": "Feature",
      "id": "node/12206883309",
      "properties": {
        "timestamp": "2024-09-28T12:49:07Z",
        "version": 1,
        "changeset": 157209256,
        "addr:city": "Serra Preta",
        "addr:postcode": "44660-000",
        "addr:suburb": "Buraco D'Água",
        "amenity": "school",
        "grades": "1-5",
        "internet_access": "wlan",
        "internet_access:ssid": "Escola",
        "name": "Escola Municipal Luiz Correia Costa",
        "opening_hours": "Mo-Fr 08:00-12:00",
        "operator": "Prefeitura Municipal de Serra Preta",
        "operator:type": "public",
        "phone": "+55 75 3697 2114",
        "polling_station": "yes",
        "wheelchair": "yes",
        "id": "node/12206883309"
      },
      "geometry": {
        "type": "Point",
        "coordinates": [
          -39.2884392,
          -12.0976573
        ]
      }
    },
    {
      "type": "Feature",
      "id": "node/12208940540",
      "properties": {
        "timestamp": "2024-09-29T13:39:37Z",
        "version": 1,
        "changeset": 157254034,
        "addr:city": "Serra Preta",
        "addr:postcode": "44660-000",
        "addr:suburb": "Jacu",
        "amenity": "school",
        "grades": "1-5",
        "name": "Escola Municipal José Calisto dos Santos",
        "operator": "Prefeitura Municipal de Serra Preta",
        "operator:type": "public",
        "phone": "+55 75 3697 2114",
        "polling_station": "yes",
        "wheelchair": "yes",
        "id": "node/12208940540"
      },
      "geometry": {
        "type": "Point",
        "coordinates": [
          -39.3105738,
          -12.0303531
        ]
      }
    },
    {
      "type": "Feature",
      "id": "node/12218135866",
      "properties": {
        "timestamp": "2024-10-03T07:49:54Z",
        "version": 1,
        "changeset": 157406450,
        "addr:city": "Serra Preta",
        "addr:postcode": "44660-000",
        "addr:suburb": "Cabeça do Boi",
        "amenity": "school",
        "grades": "1-5",
        "internet_access": "wlan",
        "internet_access:ssid": "Escola",
        "name": "Escola Municipal Liberino Ferreira",
        "opening_hours": "Mo-Fr 08:00-12:00,13:00-17:00",
        "operator": "Prefeitura Municipal de Serra Preta",
        "operator:type": "public",
        "phone": "+55 75 3697 2114",
        "polling_station": "yes",
        "wheelchair": "yes",
        "id": "node/12218135866"
      },
      "geometry": {
        "type": "Point",
        "coordinates": [
          -39.2381979,
          -12.0865686
        ]
      }
    },
    {
      "type": "Feature",
      "id": "node/12218162008",
      "properties": {
        "timestamp": "2024-10-03T08:01:49Z",
        "version": 1,
        "changeset": 157406845,
        "addr:city": "Serra Preta",
        "addr:postcode": "44660-000",
        "addr:suburb": "Pindura Saia",
        "amenity": "school",
        "grades": "1-5",
        "name": "Escola Municipal Henrique Pereira Bispo",
        "operator": "Prefeitura Municipal de Serra Preta",
        "operator:type": "public",
        "phone": "+55 75 3697 2114",
        "polling_station": "yes",
        "wheelchair": "yes",
        "id": "node/12218162008"
      },
      "geometry": {
        "type": "Point",
        "coordinates": [
          -39.2528122,
          -12.0704068
        ]
      }
    },
    {
      "type": "Feature",
      "id": "node/12227644682",
      "properties": {
        "timestamp": "2024-10-05T12:10:13Z",
        "version": 1,
        "changeset": 157497731,
        "addr:city": "Serra Preta",
        "addr:postcode": "44660-000",
        "addr:suburb": "Pistola",
        "amenity": "school",
        "grades": "1-5",
        "name": "Escola Municipal Filomeno Custódio da Costa",
        "operator": "Prefeitura Municipal de Serra Preta",
        "operator:type": "public",
        "phone": "+55 75 3697 2114",
        "polling_station": "yes",
        "wheelchair": "yes",
        "id": "node/12227644682"
      },
      "geometry": {
        "type": "Point",
        "coordinates": [
          -39.3275911,
          -12.00855
        ]
      }
    },
    {
      "type": "Feature",
      "id": "node/12227777026",
      "properties": {
        "timestamp": "2024-10-05T13:12:57Z",
        "version": 1,
        "changeset": 157500302,
        "addr:city": "Serra Preta",
        "addr:postcode": "44660-000",
        "addr:suburb": "Cabaceiras",
        "amenity": "school",
        "grades": "1-5",
        "internet_access": "wlan",
        "internet_access:ssid": "Escola",
        "name": "Escola Municipal Macário Dias",
        "opening_hours": "Mo-Fr 08:00-12:00",
        "operator": "Prefeitura Municipal de Serra Preta",
        "operator:type": "public",
        "phone": "+55 75 3697 2114",
        "polling_station": "yes",
        "wheelchair": "yes",
        "id": "node/12227777026"
      },
      "geometry": {
        "type": "Point",
        "coordinates": [
          -39.3526749,
          -12.1026036
        ]
      }
    },
    {
      "type": "Feature",
      "id": "node/12237907795",
      "properties": {
        "timestamp": "2024-10-09T12:20:55Z",
        "version": 1,
        "changeset": 157669672,
        "addr:city": "Serra Preta",
        "addr:postcode": "44660-000",
        "addr:suburb": "Lagoa da Caiçara",
        "amenity": "school",
        "grades": "1-5",
        "internet_access": "wlan",
        "internet_access:ssid": "Escola",
        "name": "Escola Municipal Cipriano Soares de Lima",
        "opening_hours": "Mo-Fr 08:00-12:00",
        "operator": "Prefeitura Municipal de Serra Preta",
        "operator:type": "public",
        "phone": "+55 75 3697 2114",
        "polling_station": "yes",
        "wheelchair": "yes",
        "id": "node/12237907795"
      },
      "geometry": {
        "type": "Point",
        "coordinates": [
          -39.483849,
          -12.0222738
        ]
      }
    },
    {
      "type": "Feature",
      "id": "node/12244571965",
      "properties": {
        "timestamp": "2024-10-11T17:13:26Z",
        "version": 1,
        "changeset": 157766630,
        "addr:city": "Serra Preta",
        "addr:postcode": "44660-000",
        "addr:suburb": "Pedra Azul",
        "amenity": "school",
        "grades": "1-5",
        "name": "Escola Municipal Egídio Pereira dos Santos",
        "operator": "Prefeitura Municipal de Serra Preta",
        "operator:type": "public",
        "phone": "+55 75 3697 2114",
        "wheelchair": "yes",
        "id": "node/12244571965"
      },
      "geometry": {
        "type": "Point",
        "coordinates": [
          -39.2592706,
          -12.078834
        ]
      }
    },
    {
      "type": "Feature",
      "id": "node/12285634133",
      "properties": {
        "timestamp": "2024-10-24T15:15:06Z",
        "version": 1,
        "changeset": 158301712,
        "addr:city": "Serra Preta",
        "addr:postcode": "44660-000",
        "addr:street": "Rua Coronel João Reis",
        "addr:suburb": "Centro",
        "amenity": "school",
        "grades": "1-5",
        "internet_access": "wlan",
        "name": "Escola Municipal Nossa Senhora do Bom Conselho",
        "opening_hours": "Mo-Fr 08:00-12:00",
        "operator": "Prefeitura Municipal de Serra Preta",
        "operator:type": "public",
        "phone": "+55 75 3697 2114",
        "polling_station": "yes",
        "wheelchair": "yes",
        "id": "node/12285634133"
      },
      "geometry": {
        "type": "Point",
        "coordinates": [
          -39.3327794,
          -12.1615012
        ]
      }
    },
    {
      "type": "Feature",
      "id": "node/12377267858",
      "properties": {
        "timestamp": "2024-11-26T22:02:40Z",
        "version": 1,
        "changeset": 159636260,
        "addr:city": "Serra Preta",
        "addr:postcode": "44660-000",
        "addr:street": "Rua Projetada B",
        "addr:suburb": "Lagoa do Batista",
        "amenity": "school",
        "grades": "1-5",
        "internet_access": "yes",
        "name": "Escola Municipal Leão Simões Leite",
        "operator": "Prefeitura Municipal de Serra Preta",
        "operator:type": "public",
        "phone": "+55 75 3697 2232",
        "polling_station": "yes",
        "wheelchair": "yes",
        "id": "node/12377267858"
      },
      "geometry": {
        "type": "Point",
        "coordinates": [
          -39.2926394,
          -12.0570239
        ]
      }
    }
  ]
}
