{
  "type": "FeatureCollection",
  "features": [
    {
      "type": "Feature",
      "id": "way/1033068648",
      "properties": {
        "timestamp": "2024-12-29T20:20:45Z",
        "version": 3,
        "changeset": 160766669,
        "addr:city": "Palmeirópolis",
        "addr:housenumber": "126",
        "addr:postcode": "77365-000",
        "addr:street": "Rua Três",
        "addr:suburb": "Setor Bom Tempo",
        "amenity": "school",
        "building": "school",
        "grades": "0-6",
        "name": "Escola Municipal Bom Tempo",
        "id": "way/1033068648"
      },
      "geometry": {
        "type": "Polygon",
        "coordinates": [
          [
            [
              -48.394332,
              -13.0506726
            ],
            [
              -48.3942172,
              -13.050958
            ],
            [
              -48.394149,
              -13.0509905
            ],
            [
              -48.3937296,
              -13.0508276
            ],
            [
              -48.3936975,
              -13.0507687
            ],
            [
              -48.3938155,
              -13.0504754
            ],
            [
              -48.394332,
              -13.0506726
            ]
          ]
        ]
      }
    },
    {
      "type": "Feature",
      "id": "way/1033068789",
      "properties": {
        "timestamp": "2022-02-18T22:47:28Z",
        "version": 1,
        "changeset": 117585020,
        "addr:city": "Palmeirópolis",
        "addr:housenumber": "446",
        "addr:postcode": "77365-000",
        "addr:street": "Rua 14",
        "addr:suburb": "Centro",
        "amenity": "school",
        "name": "Colegio Estadual Professora Oneides Rosa De Moura",
        "phone": "+55 63 3386 1300",
        "id": "way/1033068789"
      },
      "geometry": {
        "type": "Polygon",
        "coordinates": [
          [
            [
              -48.4117387,
              -13.043889
            ],
            [
              -48.4117529,
              -13.0444141
            ],
            [
              -48.4113386,
              -13.0444241
            ],
            [
              -48.4113348,
              -13.0438965
            ],
            [
              -48.4117387,
              -13.043889
            ]
          ]
        ]
      }
    },
    {
      "type": "Feature",
      "id": "way/1033070318",
      "properties": {
        "timestamp": "2023-08-28T22:35:02Z",
        "version": 2,
        "changeset": 140515126,
        "addr:city": "Palmeirópolis",
        "addr:housenumber": "902",
        "addr:postcode": "77365-000",
        "addr:street": "Avenida das Palmeiras",
        "addr:suburb": "Centro",
        "amenity": "school",
        "name": "Colégio Militar do Estado do Tocantins - Professora Maria Guedes",
        "phone": "+55 63 3386 1442",
        "id": "way/1033070318"
      },
      "geometry": {
        "type": "Polygon",
        "coordinates": [
          [
            [
              -48.4072906,
              -13.0417805
            ],
            [
              -48.4072993,
              -13.0423863
            ],
            [
              -48.4063623,
              -13.0424
            ],
            [
              -48.4063545,
              -13.0417951
            ],
            [
              -48.4072906,
              -13.0417805
            ]
          ]
        ]
      }
    },
    {
      "type": "Feature",
      "id": "way/1033097236",
      "properties": {
        "timestamp": "2022-02-19T00:23:59Z",
        "version": 1,
        "changeset": 117587228,
        "addr:city": "Palmeirópolis",
        "addr:housenumber": "14",
        "addr:postcode": "77365-000",
        "addr:street": "Rua 05",
        "addr:suburb": "Centro",
        "amenity": "school",
        "name": "Cmei Pequenos Brilhantes",
        "phone": "+55 63 3386 2033",
        "id": "way/1033097236"
      },
      "geometry": {
        "type": "Polygon",
        "coordinates": [
          [
            [
              -48.4028877,
              -13.0401238
            ],
            [
              -48.402885,
              -13.0404295
            ],
            [
              -48.4021984,
              -13.0404191
            ],
            [
              -48.4021984,
              -13.0401264
            ],
            [
              -48.4028877,
              -13.0401238
            ]
          ]
        ]
      }
    },
    {
      "type": "Feature",
      "id": "way/1033231905",
      "properties": {
        "timestamp": "2022-02-19T14:37:48Z",
        "version": 1,
        "changeset": 117606706,
        "addr:city": "Palmeirópolis",
        "addr:postcode": "77365-000",
        "addr:street": "Rua Mato Grosso",
        "addr:suburb": "Alto da Boa Vista",
        "amenity": "school",
        "name": "Escola Municipal Elda Silva Barros",
        "phone": "+55 63 3386 1608",
        "id": "way/1033231905"
      },
      "geometry": {
        "type": "Polygon",
        "coordinates": [
          [
            [
              -48.4127162,
              -13.0381191
            ],
            [
              -48.412711,
              -13.0386691
            ],
            [
              -48.4122553,
              -13.038671
            ],
            [
              -48.4121947,
              -13.0386207
            ],
            [
              -48.4121965,
              -13.0381547
            ],
            [
              -48.4122474,
              -13.0381166
            ],
            [
              -48.4127162,
              -13.0381191
            ]
          ]
        ]
      }
    }
  ]
}
