{
  "type": "FeatureCollection",
  "features": [
    {
      "type": "Feature",
      "id": "way/679150366",
      "properties": {
        "timestamp": "2023-08-17T23:12:46Z",
        "version": 4,
        "changeset": 140033842,
        "addr:city": "Rancharia",
        "addr:housenumber": "1559",
        "addr:postcode": "19600-000",
        "addr:street": "Rua Mario César de Camargo",
        "addr:suburb": "Vila Cantizani",
        "amenity": "hospital",
        "emergency": "yes",
        "fax": "+55 18  3265 9309",
        "healthcare": "hospital",
        "healthcare:speciality": "paediatrics;gynaecology;maternity;surgery;general;oncology;cardiology;ophthalmology;orthopaedics;otolaryngology",
        "name": "Hospital e Maternidade de Rancharia",
        "old_name": "Santa Casa de Misericórdia",
        "phone": "+55 18  3265 9300",
        "ref:CNES": "2081873",
        "ref:vatin": "BR55686786000134",
        "website": "http://www.hospitalhmr.com.br/",
        "id": "way/679150366"
      },
      "geometry": {
        "type": "Polygon",
        "coordinates": [
          [
            [
              -50.8961138,
              -22.2328497
            ],
            [
              -50.8976508,
              -22.2334084
            ],
            [
              -50.8973075,
              -22.2341681
            ],
            [
              -50.8957893,
              -22.2336007
            ],
            [
              -50.8961138,
              -22.2328497
            ]
          ]
        ]
      }
    }
  ]
}
