{
  "type": "FeatureCollection",
  "features": [
    {
      "type": "Feature",
      "id": "way/451058770",
      "properties": {
        "timestamp": "2023-12-09T16:08:46Z",
        "version": 4,
        "changeset": 144940073,
        "addr:city": "Cap√£o da Canoa",
        "addr:housenumber": "2727",
        "addr:street": "Avenida Paraguassu",
        "addr:suburb": "Centro",
        "landuse": "industrial",
        "man_made": "water_works",
        "name": "CORSAN - Companhia Riograndense de Saneamento",
        "office": "government",
        "id": "way/451058770"
      },
      "geometry": {
        "type": "Polygon",
        "coordinates": [
          [
            [
              -50.0217753,
              -29.76429
            ],
            [
              -50.0220944,
              -29.764869
            ],
            [
              -50.0214135,
              -29.7651366
            ],
            [
              -50.0211082,
              -29.7645597
            ],
            [
              -50.0217753,
              -29.76429
            ]
          ]
        ]
      }
    }
  ]
}
