{
  "type": "FeatureCollection",
  "features": [
    {
      "type": "Feature",
      "id": "node/1719327679",
      "properties": {
        "timestamp": "2021-10-17T01:07:29Z",
        "version": 2,
        "changeset": 112596383,
        "amenity": "pharmacy",
        "brand": "Panvel",
        "brand:wikidata": "Q10344254",
        "brand:wikipedia": "pt:Panvel",
        "dispensing": "yes",
        "healthcare": "pharmacy",
        "name": "Panvel",
        "id": "node/1719327679"
      },
      "geometry": {
        "type": "Point",
        "coordinates": [
          -49.9780574,
          -29.6854754
        ]
      }
    },
    {
      "type": "Feature",
      "id": "node/1719327727",
      "properties": {
        "timestamp": "2021-01-25T18:07:32Z",
        "version": 3,
        "changeset": 98138266,
        "amenity": "pharmacy",
        "dispensing": "no",
        "healthcare": "pharmacy",
        "name": "Agafarma",
        "id": "node/1719327727"
      },
      "geometry": {
        "type": "Point",
        "coordinates": [
          -49.9765384,
          -29.6830591
        ]
      }
    },
    {
      "type": "Feature",
      "id": "node/3513058371",
      "properties": {
        "timestamp": "2021-01-25T17:13:07Z",
        "version": 5,
        "changeset": 98136070,
        "addr:street": "Avenida Paraguassu",
        "amenity": "pharmacy",
        "healthcare": "pharmacy",
        "name": "Farmácia São João",
        "id": "node/3513058371"
      },
      "geometry": {
        "type": "Point",
        "coordinates": [
          -50.0194519,
          -29.7622471
        ]
      }
    },
    {
      "type": "Feature",
      "id": "node/9197457267",
      "properties": {
        "timestamp": "2024-02-18T15:22:10Z",
        "version": 2,
        "changeset": 147613512,
        "amenity": "pharmacy",
        "dispensing": "yes",
        "healthcare": "pharmacy",
        "name": "Farmácias Associadas",
        "id": "node/9197457267"
      },
      "geometry": {
        "type": "Point",
        "coordinates": [
          -49.9398751,
          -29.6245823
        ]
      }
    },
    {
      "type": "Feature",
      "id": "node/9311143377",
      "properties": {
        "timestamp": "2023-12-30T15:14:37Z",
        "version": 3,
        "changeset": 145701771,
        "amenity": "pharmacy",
        "check_date": "2023-12-30",
        "healthcare": "pharmacy",
        "name": "Unità Farmácia",
        "id": "node/9311143377"
      },
      "geometry": {
        "type": "Point",
        "coordinates": [
          -50.014521,
          -29.7585096
        ]
      }
    },
    {
      "type": "Feature",
      "id": "node/11609046256",
      "properties": {
        "timestamp": "2024-02-11T02:40:14Z",
        "version": 1,
        "changeset": 147314078,
        "amenity": "pharmacy",
        "brand": "São João",
        "brand:wikidata": "Q62663306",
        "healthcare": "pharmacy",
        "name": "São João",
        "id": "node/11609046256"
      },
      "geometry": {
        "type": "Point",
        "coordinates": [
          -50.0191827,
          -29.7485915
        ]
      }
    },
    {
      "type": "Feature",
      "id": "node/11619217021",
      "properties": {
        "timestamp": "2024-02-14T03:41:57Z",
        "version": 2,
        "changeset": 147433446,
        "amenity": "pharmacy",
        "healthcare": "pharmacy",
        "name": "Farmácias Associadas",
        "id": "node/11619217021"
      },
      "geometry": {
        "type": "Point",
        "coordinates": [
          -49.9994715,
          -29.7250919
        ]
      }
    },
    {
      "type": "Feature",
      "id": "node/11621247105",
      "properties": {
        "timestamp": "2024-02-14T03:45:31Z",
        "version": 1,
        "changeset": 147433481,
        "amenity": "pharmacy",
        "brand": "São João",
        "brand:wikidata": "Q62663306",
        "healthcare": "pharmacy",
        "name": "São João",
        "id": "node/11621247105"
      },
      "geometry": {
        "type": "Point",
        "coordinates": [
          -50.0049589,
          -29.7338309
        ]
      }
    },
    {
      "type": "Feature",
      "id": "node/11622239072",
      "properties": {
        "timestamp": "2024-02-14T11:11:14Z",
        "version": 1,
        "changeset": 147445908,
        "amenity": "pharmacy",
        "brand": "Panvel",
        "brand:wikidata": "Q10344254",
        "healthcare": "pharmacy",
        "name": "Panvel",
        "id": "node/11622239072"
      },
      "geometry": {
        "type": "Point",
        "coordinates": [
          -50.0157338,
          -29.7542339
        ]
      }
    },
    {
      "type": "Feature",
      "id": "node/12475698449",
      "properties": {
        "timestamp": "2025-01-05T14:47:14Z",
        "version": 2,
        "changeset": 161023323,
        "addr:city": "Capão da Canoa",
        "addr:housenumber": "1167",
        "addr:postcode": "95555000",
        "addr:street": "Avenida Venâncio Aires",
        "addr:suburb": "Zona Nova",
        "amenity": "pharmacy",
        "brand": "Farmácia São João",
        "brand:wikidata": "Q65164556",
        "healthcare": "pharmacy",
        "name": "Farmácia São João",
        "id": "node/12475698449"
      },
      "geometry": {
        "type": "Point",
        "coordinates": [
          -50.014163,
          -29.7523512
        ]
      }
    },
    {
      "type": "Feature",
      "id": "node/12475734819",
      "properties": {
        "timestamp": "2025-01-05T14:48:45Z",
        "version": 1,
        "changeset": 161023373,
        "addr:city": "Capão da Canoa",
        "addr:housenumber": "690",
        "addr:postcode": "95555000",
        "addr:street": "Avenida Paraguassu",
        "addr:suburb": "Zona Nova",
        "amenity": "pharmacy",
        "brand": "Panvel",
        "brand:wikidata": "Q10344254",
        "healthcare": "pharmacy",
        "name": "Panvel",
        "id": "node/12475734819"
      },
      "geometry": {
        "type": "Point",
        "coordinates": [
          -50.0121014,
          -29.7484474
        ]
      }
    },
    {
      "type": "Feature",
      "id": "node/12499324854",
      "properties": {
        "timestamp": "2025-01-14T01:19:17Z",
        "version": 1,
        "changeset": 161329656,
        "addr:city": "Capão da Canoa",
        "addr:housenumber": "2696",
        "addr:postcode": "95555-000",
        "addr:street": "Avenida Paraguassu",
        "addr:suburb": "Centro",
        "amenity": "pharmacy",
        "brand": "Panvel",
        "brand:wikidata": "Q10344254",
        "healthcare": "pharmacy",
        "name": "Panvel",
        "id": "node/12499324854"
      },
      "geometry": {
        "type": "Point",
        "coordinates": [
          -50.0208013,
          -29.7647202
        ]
      }
    },
    {
      "type": "Feature",
      "id": "node/12499344132",
      "properties": {
        "timestamp": "2025-01-14T01:20:09Z",
        "version": 1,
        "changeset": 161329674,
        "addr:city": "Capão da Canoa",
        "addr:housenumber": "2786",
        "addr:postcode": "95555-000",
        "addr:street": "Avenida Paraguassu",
        "addr:suburb": "Centro",
        "amenity": "pharmacy",
        "brand": "Panvel",
        "brand:wikidata": "Q10344254",
        "healthcare": "pharmacy",
        "name": "Panvel",
        "id": "node/12499344132"
      },
      "geometry": {
        "type": "Point",
        "coordinates": [
          -50.0212176,
          -29.765536
        ]
      }
    },
    {
      "type": "Feature",
      "id": "node/12511443689",
      "properties": {
        "timestamp": "2025-01-18T04:04:50Z",
        "version": 1,
        "changeset": 161477642,
        "amenity": "pharmacy",
        "brand": "Droga Raia",
        "brand:wikidata": "Q10357101",
        "healthcare": "pharmacy",
        "name": "Droga Raia",
        "id": "node/12511443689"
      },
      "geometry": {
        "type": "Point",
        "coordinates": [
          -50.0156584,
          -29.7551275
        ]
      }
    }
  ]
}
