{
  "type": "FeatureCollection",
  "features": [
    {
      "type": "Feature",
      "id": "way/1198851031",
      "properties": {
        "timestamp": "2023-08-18T02:09:37Z",
        "version": 2,
        "changeset": 140036282,
        "addr:city": "Belmonte",
        "addr:postcode": "45800-000",
        "addr:street": "Travessa Visconde de Cairu",
        "addr:suburb": "Centro",
        "building": "yes",
        "email": "aps04023230@inss.gov.br",
        "government": "social_security",
        "name": "Agência da Previdência Social em Belmonte",
        "office": "government",
        "operator": "Instituto Nacional do Seguro Social",
        "operator:short": "INSS",
        "operator:wikidata": "Q10302614",
        "phone": "+55 73 3287 2042",
        "id": "way/1198851031"
      },
      "geometry": {
        "type": "Polygon",
        "coordinates": [
          [
            [
              -38.8836593,
              -15.8635609
            ],
            [
              -38.883452,
              -15.8636464
            ],
            [
              -38.8834354,
              -15.8636092
            ],
            [
              -38.8834048,
              -15.8636218
            ],
            [
              -38.8833652,
              -15.8635328
            ],
            [
              -38.8833959,
              -15.8635202
            ],
            [
              -38.8834045,
              -15.8635395
            ],
            [
              -38.8836574,
              -15.8634353
            ],
            [
              -38.8836876,
              -15.863503
            ],
            [
              -38.8836419,
              -15.8635219
            ],
            [
              -38.8836593,
              -15.8635609
            ]
          ]
        ]
      }
    },
    {
      "type": "Feature",
      "id": "node/11121119799",
      "properties": {
        "timestamp": "2023-08-17T03:24:55Z",
        "version": 1,
        "changeset": 139991379,
        "addr:city": "Belmonte",
        "addr:postcode": "45800-000",
        "addr:street": "Avenida Marechal Deodoro",
        "addr:suburb": "Centro",
        "government": "education",
        "name": "Secretaria Municipal de Educação",
        "office": "government",
        "id": "node/11121119799"
      },
      "geometry": {
        "type": "Point",
        "coordinates": [
          -38.8824721,
          -15.86017
        ]
      }
    }
  ]
}
