{
  "type": "FeatureCollection",
  "features": [
    {
      "type": "Feature",
      "id": "way/802998719",
      "properties": {
        "timestamp": "2020-05-12T14:58:47Z",
        "version": 1,
        "changeset": 85093417,
        "addr:city": "Araxá",
        "addr:housenumber": "570",
        "addr:street": "Rua Argenita",
        "addr:suburb": "Santo Antônio",
        "amenity": "kindergarten",
        "building": "yes",
        "name": "Centro De Atenção Psicossocial - CAPS Maria Pirola",
        "id": "way/802998719"
      },
      "geometry": {
        "type": "Polygon",
        "coordinates": [
          [
            [
              -46.9232825,
              -19.6041296
            ],
            [
              -46.9234235,
              -19.6043374
            ],
            [
              -46.9233075,
              -19.6044531
            ],
            [
              -46.9231392,
              -19.6042624
            ],
            [
              -46.9232825,
              -19.6041296
            ]
          ]
        ]
      }
    }
  ]
}
