{
  "type": "FeatureCollection",
  "features": [
    {
      "type": "Feature",
      "id": "node/4375752491",
      "properties": {
        "timestamp": "2021-03-05T19:52:19Z",
        "version": 4,
        "changeset": 100512263,
        "amenity": "clinic",
        "healthcare": "clinic",
        "name": "Unidade Saúde da Família - UBS Bela Vista",
        "id": "node/4375752491"
      },
      "geometry": {
        "type": "Point",
        "coordinates": [
          -35.6101851,
          -7.2940005
        ]
      }
    },
    {
      "type": "Feature",
      "id": "node/9897577103",
      "properties": {
        "timestamp": "2022-07-19T14:03:23Z",
        "version": 1,
        "changeset": 123810337,
        "addr:city": "Ingá",
        "addr:postcode": "58380-000",
        "addr:street": "Rua Virgolino de Souza Campos",
        "addr:suburb": "Centro",
        "amenity": "clinic",
        "healthcare": "clinic",
        "name": "UBS - Manoel Valeriano de Oliveira",
        "id": "node/9897577103"
      },
      "geometry": {
        "type": "Point",
        "coordinates": [
          -35.6092609,
          -7.2908113
        ]
      }
    }
  ]
}
