{
  "type": "FeatureCollection",
  "features": [
    {
      "type": "Feature",
      "id": "way/533188162",
      "properties": {
        "timestamp": "2022-09-28T17:05:31Z",
        "version": 3,
        "changeset": 126749212,
        "addr:city": "Carnaubal",
        "addr:street": "Rua Deputado Vicente Ribeiro",
        "addr:suburb": "Centro",
        "amenity": "pharmacy",
        "building": "yes",
        "building:levels": "3",
        "healthcare": "pharmacy",
        "name": "Drogaria São Francisco",
        "id": "way/533188162"
      },
      "geometry": {
        "type": "Polygon",
        "coordinates": [
          [
            [
              -40.9421623,
              -4.1655416
            ],
            [
              -40.9421397,
              -4.165407
            ],
            [
              -40.942247,
              -4.1653891
            ],
            [
              -40.942263,
              -4.1654836
            ],
            [
              -40.9422191,
              -4.1654909
            ],
            [
              -40.9422258,
              -4.1655309
            ],
            [
              -40.9421623,
              -4.1655416
            ]
          ]
        ]
      }
    },
    {
      "type": "Feature",
      "id": "way/828293403",
      "properties": {
        "timestamp": "2020-07-21T00:35:10Z",
        "version": 1,
        "changeset": 88269281,
        "addr:city": "Carnaubal",
        "addr:street": "Rua Deputado Vicente Ribeiro",
        "addr:suburb": "Centro",
        "amenity": "pharmacy",
        "building": "yes",
        "name": "Farmácia Damasceno",
        "id": "way/828293403"
      },
      "geometry": {
        "type": "Polygon",
        "coordinates": [
          [
            [
              -40.9428804,
              -4.1651564
            ],
            [
              -40.9427994,
              -4.1651698
            ],
            [
              -40.9427837,
              -4.1650757
            ],
            [
              -40.9428648,
              -4.1650623
            ],
            [
              -40.9428804,
              -4.1651564
            ]
          ]
        ]
      }
    },
    {
      "type": "Feature",
      "id": "way/847805549",
      "properties": {
        "timestamp": "2020-09-15T23:03:20Z",
        "version": 1,
        "changeset": 90949567,
        "addr:city": "Carnaubal",
        "addr:street": "Avenida Paulo Sarasate",
        "addr:suburb": "Centro",
        "amenity": "pharmacy",
        "building": "yes",
        "dispensing": "yes",
        "healthcare": "pharmacy",
        "name": "Farmácia Hidelbrando",
        "id": "way/847805549"
      },
      "geometry": {
        "type": "Polygon",
        "coordinates": [
          [
            [
              -40.9419383,
              -4.1645913
            ],
            [
              -40.9420243,
              -4.1645702
            ],
            [
              -40.9420367,
              -4.1646205
            ],
            [
              -40.9420473,
              -4.1646636
            ],
            [
              -40.942014,
              -4.1646718
            ],
            [
              -40.9419613,
              -4.1646847
            ],
            [
              -40.9419383,
              -4.1645913
            ]
          ]
        ]
      }
    },
    {
      "type": "Feature",
      "id": "node/5064268656",
      "properties": {
        "timestamp": "2018-08-09T23:27:38Z",
        "version": 3,
        "changeset": 61515540,
        "addr:city": "Carnaubal",
        "addr:street": "Rua 22 de Julho",
        "addr:suburb": "Novo Horizonte",
        "amenity": "pharmacy",
        "name": "Farmácia Básica",
        "id": "node/5064268656"
      },
      "geometry": {
        "type": "Point",
        "coordinates": [
          -40.9424711,
          -4.1618031
        ]
      }
    },
    {
      "type": "Feature",
      "id": "node/5067517219",
      "properties": {
        "timestamp": "2017-11-01T14:05:48Z",
        "version": 2,
        "changeset": 53425132,
        "addr:city": "Carnaubal",
        "addr:street": "Rua Deputado Vicente Ribeiro",
        "addr:suburb": "Centro",
        "amenity": "pharmacy",
        "name": "Farmácia Brito",
        "id": "node/5067517219"
      },
      "geometry": {
        "type": "Point",
        "coordinates": [
          -40.9417859,
          -4.1653294
        ]
      }
    },
    {
      "type": "Feature",
      "id": "node/5115295466",
      "properties": {
        "timestamp": "2017-11-02T12:29:34Z",
        "version": 2,
        "changeset": 53450183,
        "addr:city": "Carnaubal",
        "addr:street": "Rua 22 de Julho",
        "addr:suburb": "Centro",
        "amenity": "pharmacy",
        "name": "Farmavida",
        "id": "node/5115295466"
      },
      "geometry": {
        "type": "Point",
        "coordinates": [
          -40.9427523,
          -4.1645125
        ]
      }
    },
    {
      "type": "Feature",
      "id": "node/5204756480",
      "properties": {
        "timestamp": "2021-12-17T19:34:05Z",
        "version": 4,
        "changeset": 115069584,
        "addr:city": "Carnaubal",
        "addr:street": "Rua Simplício Damasceno",
        "addr:suburb": "Centro",
        "amenity": "pharmacy",
        "dispensing": "yes",
        "healthcare": "pharmacy",
        "name": "Farmácia do Povo",
        "id": "node/5204756480"
      },
      "geometry": {
        "type": "Point",
        "coordinates": [
          -40.9424674,
          -4.164797
        ]
      }
    },
    {
      "type": "Feature",
      "id": "node/9347246575",
      "properties": {
        "timestamp": "2021-12-17T19:34:05Z",
        "version": 1,
        "changeset": 115069584,
        "addr:city": "Carnaubal",
        "addr:street": "Rua Vinte e Dois de Julho",
        "addr:suburb": "Centro",
        "amenity": "pharmacy",
        "dispensing": "yes",
        "healthcare": "pharmacy",
        "name": "Crisfarma",
        "id": "node/9347246575"
      },
      "geometry": {
        "type": "Point",
        "coordinates": [
          -40.942718,
          -4.1642641
        ]
      }
    }
  ]
}
