{
  "type": "FeatureCollection",
  "features": [
    {
      "type": "Feature",
      "id": "node/6189735604",
      "properties": {
        "timestamp": "2023-05-12T00:38:43Z",
        "version": 3,
        "changeset": 135997472,
        "addr:postcode": "75920-000",
        "addr:street": "Avenida Joaquim Jos√© Azevedo",
        "addr:suburb": "Lucilene",
        "amenity": "hospital",
        "healthcare": "hospital",
        "name": "Hospital Municipal Santa Helena",
        "operator:ref:vatin": "BR02056711000103",
        "phone": "+55 64 3641 8722",
        "ref:CNES": "2383209",
        "id": "node/6189735604"
      },
      "geometry": {
        "type": "Point",
        "coordinates": [
          -50.6053716,
          -17.8173192
        ]
      }
    },
    {
      "type": "Feature",
      "id": "node/6846079885",
      "properties": {
        "timestamp": "2019-10-03T03:27:34Z",
        "version": 1,
        "changeset": 75208497,
        "amenity": "hospital",
        "name": "HURSO",
        "id": "node/6846079885"
      },
      "geometry": {
        "type": "Point",
        "coordinates": [
          -50.5823278,
          -17.8048993
        ]
      }
    }
  ]
}
