{
  "type": "FeatureCollection",
  "features": [
    {
      "type": "Feature",
      "id": "node/10707954352",
      "properties": {
        "timestamp": "2023-04-06T03:29:38Z",
        "version": 2,
        "changeset": 134559515,
        "addr:housenumber": "367",
        "addr:street": "Rua São Teófilo",
        "amenity": "clinic",
        "healthcare": "clinic",
        "name": "Unidade de Saúde Canaã",
        "operator:type": "public",
        "id": "node/10707954352"
      },
      "geometry": {
        "type": "Point",
        "coordinates": [
          -49.3210954,
          -25.6566708
        ]
      }
    },
    {
      "type": "Feature",
      "id": "node/10707954353",
      "properties": {
        "timestamp": "2023-04-06T03:29:38Z",
        "version": 2,
        "changeset": 134559515,
        "addr:housenumber": "494",
        "addr:street": "Rua Seringueira",
        "amenity": "clinic",
        "healthcare": "clinic",
        "name": "Unidade de Saúde Eucaliptos",
        "operator:type": "public",
        "id": "node/10707954353"
      },
      "geometry": {
        "type": "Point",
        "coordinates": [
          -49.3013129,
          -25.6483628
        ]
      }
    },
    {
      "type": "Feature",
      "id": "node/10707954354",
      "properties": {
        "timestamp": "2023-04-06T03:29:38Z",
        "version": 2,
        "changeset": 134559515,
        "addr:housenumber": "1866",
        "addr:street": "Avenida Portugal",
        "amenity": "clinic",
        "healthcare": "clinic",
        "name": "Unidade de Saúde Gralha Azul",
        "operator:type": "public",
        "id": "node/10707954354"
      },
      "geometry": {
        "type": "Point",
        "coordinates": [
          -49.3037209,
          -25.6693981
        ]
      }
    },
    {
      "type": "Feature",
      "id": "node/10707954355",
      "properties": {
        "timestamp": "2023-04-06T03:29:38Z",
        "version": 2,
        "changeset": 134559515,
        "addr:housenumber": "227",
        "addr:street": "Rua Pessegueiro",
        "amenity": "clinic",
        "healthcare": "clinic",
        "name": "Unidade de Saúde Hortência",
        "operator:type": "public",
        "id": "node/10707954355"
      },
      "geometry": {
        "type": "Point",
        "coordinates": [
          -49.3007398,
          -25.6413132
        ]
      }
    },
    {
      "type": "Feature",
      "id": "node/10707954356",
      "properties": {
        "timestamp": "2023-04-06T03:29:38Z",
        "version": 2,
        "changeset": 134559515,
        "addr:housenumber": "1984",
        "addr:street": "Rua Rio Tejo",
        "amenity": "clinic",
        "healthcare": "clinic",
        "name": "Unidade de Saúde Iguaçu",
        "operator:type": "public",
        "id": "node/10707954356"
      },
      "geometry": {
        "type": "Point",
        "coordinates": [
          -49.3309148,
          -25.6496715
        ]
      }
    },
    {
      "type": "Feature",
      "id": "node/10707954357",
      "properties": {
        "timestamp": "2023-04-06T03:29:38Z",
        "version": 2,
        "changeset": 134559515,
        "addr:housenumber": "478",
        "addr:street": "Rua Egito",
        "amenity": "clinic",
        "healthcare": "clinic",
        "name": "Unidade de Saúde Nações",
        "operator:type": "public",
        "id": "node/10707954357"
      },
      "geometry": {
        "type": "Point",
        "coordinates": [
          -49.3064194,
          -25.6549006
        ]
      }
    },
    {
      "type": "Feature",
      "id": "node/10707954358",
      "properties": {
        "timestamp": "2023-04-06T03:29:38Z",
        "version": 2,
        "changeset": 134559515,
        "addr:housenumber": "725",
        "addr:street": "Rua Francisco Claudino dos Santos",
        "amenity": "clinic",
        "healthcare": "clinic",
        "name": "Unidade de Saúde Pioneiros",
        "operator:type": "public",
        "id": "node/10707954358"
      },
      "geometry": {
        "type": "Point",
        "coordinates": [
          -49.320535,
          -25.6412004
        ]
      }
    },
    {
      "type": "Feature",
      "id": "node/10707954359",
      "properties": {
        "timestamp": "2023-04-06T03:29:38Z",
        "version": 2,
        "changeset": 134559515,
        "addr:housenumber": "1381",
        "addr:street": "Rua Curitiba",
        "amenity": "clinic",
        "healthcare": "clinic",
        "name": "Unidade de Saúde Santa Maria",
        "operator:type": "public",
        "id": "node/10707954359"
      },
      "geometry": {
        "type": "Point",
        "coordinates": [
          -49.3295589,
          -25.6882658
        ]
      }
    },
    {
      "type": "Feature",
      "id": "node/10707954360",
      "properties": {
        "timestamp": "2023-04-06T03:29:38Z",
        "version": 2,
        "changeset": 134559515,
        "addr:housenumber": "486",
        "addr:street": "Avenida Santa Mônica",
        "amenity": "clinic",
        "healthcare": "clinic",
        "name": "Unidade de Saúde Santa Terezinha",
        "operator:type": "public",
        "id": "node/10707954360"
      },
      "geometry": {
        "type": "Point",
        "coordinates": [
          -49.3275016,
          -25.6630201
        ]
      }
    },
    {
      "type": "Feature",
      "id": "node/10707954361",
      "properties": {
        "timestamp": "2023-04-06T03:29:38Z",
        "version": 2,
        "changeset": 134559515,
        "addr:housenumber": "975",
        "addr:street": "Rua Mário de Andrade",
        "amenity": "clinic",
        "healthcare": "clinic",
        "name": "Unidade de Saúde São Sebastião",
        "operator:type": "public",
        "id": "node/10707954361"
      },
      "geometry": {
        "type": "Point",
        "coordinates": [
          -49.3062871,
          -25.6955684
        ]
      }
    },
    {
      "type": "Feature",
      "id": "node/10707954362",
      "properties": {
        "timestamp": "2023-04-06T03:29:38Z",
        "version": 2,
        "changeset": 134559515,
        "addr:housenumber": "1738",
        "addr:street": "Avenida Paraguai",
        "amenity": "clinic",
        "healthcare": "clinic",
        "name": "Unidade de Saúde Vila Marli",
        "operator:type": "public",
        "id": "node/10707954362"
      },
      "geometry": {
        "type": "Point",
        "coordinates": [
          -49.2945867,
          -25.659337
        ]
      }
    },
    {
      "type": "Feature",
      "id": "node/10707954363",
      "properties": {
        "timestamp": "2023-04-06T03:29:38Z",
        "version": 2,
        "changeset": 134559515,
        "addr:housenumber": "167",
        "addr:street": "Travessa União da Vitória",
        "amenity": "clinic",
        "healthcare": "clinic",
        "name": "Unidade de Saúde Estados",
        "operator:type": "public",
        "id": "node/10707954363"
      },
      "geometry": {
        "type": "Point",
        "coordinates": [
          -49.318964,
          -25.6697236
        ]
      }
    },
    {
      "type": "Feature",
      "id": "node/10707954364",
      "properties": {
        "timestamp": "2023-04-06T03:29:38Z",
        "version": 2,
        "changeset": 134559515,
        "addr:housenumber": "182",
        "addr:street": "Rua Niger",
        "amenity": "clinic",
        "healthcare": "clinic",
        "name": "Unidade de Saúde Santarém",
        "operator:type": "public",
        "id": "node/10707954364"
      },
      "geometry": {
        "type": "Point",
        "coordinates": [
          -49.2915893,
          -25.6720482
        ]
      }
    },
    {
      "type": "Feature",
      "id": "node/10769050141",
      "properties": {
        "timestamp": "2023-04-06T03:29:38Z",
        "version": 2,
        "changeset": 134559515,
        "addr:housenumber": "489",
        "addr:street": "Rua Seringueira",
        "addr:suburb": "Eucaliptos",
        "amenity": "clinic",
        "healthcare": "clinic",
        "name": "Centro de Atenção Psicossocial II",
        "operator:type": "public",
        "id": "node/10769050141"
      },
      "geometry": {
        "type": "Point",
        "coordinates": [
          -49.3011544,
          -25.6481382
        ]
      }
    }
  ]
}
