{
  "type": "FeatureCollection",
  "features": [
    {
      "type": "Feature",
      "id": "node/10707952141",
      "properties": {
        "timestamp": "2023-03-03T23:05:53Z",
        "version": 1,
        "changeset": 133273173,
        "addr:housenumber": "616",
        "addr:street": "Rua Rio Paranapanema",
        "amenity": "social_facility",
        "name": "Centro de Referência da Assistência Social Iguaçu",
        "id": "node/10707952141"
      },
      "geometry": {
        "type": "Point",
        "coordinates": [
          -49.3304842,
          -25.6470539
        ]
      }
    },
    {
      "type": "Feature",
      "id": "node/10707952142",
      "properties": {
        "timestamp": "2023-03-03T23:05:53Z",
        "version": 1,
        "changeset": 133273173,
        "addr:housenumber": "249",
        "addr:street": "Rua Pessegueiro",
        "amenity": "social_facility",
        "name": "Centro de Referência da Assistência Social Eucaliptos",
        "id": "node/10707952142"
      },
      "geometry": {
        "type": "Point",
        "coordinates": [
          -49.3005785,
          -25.6415698
        ]
      }
    },
    {
      "type": "Feature",
      "id": "node/10707952143",
      "properties": {
        "timestamp": "2023-03-03T23:05:53Z",
        "version": 1,
        "changeset": 133273173,
        "addr:housenumber": "6921",
        "addr:street": "Rua Cauré",
        "amenity": "social_facility",
        "name": "Centro de Referência da Assistência Social Gralha Azul",
        "id": "node/10707952143"
      },
      "geometry": {
        "type": "Point",
        "coordinates": [
          -49.309514,
          -25.6740206
        ]
      }
    },
    {
      "type": "Feature",
      "id": "node/10707952144",
      "properties": {
        "timestamp": "2023-03-03T23:05:53Z",
        "version": 1,
        "changeset": 133273173,
        "addr:housenumber": "1459",
        "addr:street": "Rua Silvano José Baldan",
        "amenity": "social_facility",
        "name": "CREAS - Centro de Referência Especializado de Assistência Social",
        "id": "node/10707952144"
      },
      "geometry": {
        "type": "Point",
        "coordinates": [
          -49.3173931,
          -25.6447089
        ]
      }
    }
  ]
}
