{
  "type": "FeatureCollection",
  "features": [
    {
      "type": "Feature",
      "id": "node/3068572347",
      "properties": {
        "timestamp": "2022-10-13T10:58:58Z",
        "version": 6,
        "changeset": 127462908,
        "addr:city": "Alvorada de Minas",
        "addr:postcode": "39140-000",
        "addr:street": "Rua Padre Antônio Alves",
        "addr:suburb": "Jacém",
        "amenity": "school",
        "name": "Escola Estadual São José de Jassem",
        "id": "node/3068572347"
      },
      "geometry": {
        "type": "Point",
        "coordinates": [
          -43.323468,
          -18.8691807
        ]
      }
    },
    {
      "type": "Feature",
      "id": "node/3818138049",
      "properties": {
        "timestamp": "2022-10-13T10:58:58Z",
        "version": 5,
        "changeset": 127462908,
        "addr:city": "Alvorada de Minas",
        "addr:housenumber": "198",
        "addr:postcode": "39140-000",
        "addr:street": "Avenida José Madureira Horta",
        "addr:suburb": "Centro",
        "amenity": "school",
        "name": "Escola Estadual José Madureira Horta",
        "operator": "Secretaria de Estado de Educação de Minas Gerais",
        "source": "IBGE;SEE-MG",
        "id": "node/3818138049"
      },
      "geometry": {
        "type": "Point",
        "coordinates": [
          -43.3635807,
          -18.7336513
        ]
      }
    },
    {
      "type": "Feature",
      "id": "node/9948002337",
      "properties": {
        "timestamp": "2022-08-11T19:10:49Z",
        "version": 1,
        "changeset": 124789376,
        "addr:city": "Alvorada de Minas",
        "addr:housenumber": "260",
        "addr:postcode": "39140-000",
        "addr:street": "Avenida Cônego José Carvalho",
        "addr:suburb": "Itapanhoacanga",
        "amenity": "school",
        "name": "Escola Estadual José Daniel Utsch",
        "id": "node/9948002337"
      },
      "geometry": {
        "type": "Point",
        "coordinates": [
          -43.4329447,
          -18.7833188
        ]
      }
    },
    {
      "type": "Feature",
      "id": "node/10097631474",
      "properties": {
        "timestamp": "2022-10-14T12:49:30Z",
        "version": 2,
        "changeset": 127524054,
        "addr:city": "Alvorada de Minas",
        "addr:postcode": "39140-000",
        "addr:suburb": "Centro",
        "amenity": "school",
        "name": "Centro Esportivo Municipal de Educação Infantil Raio de Sol",
        "operator": "Município de Alvorada de Minas",
        "operator:type": "public",
        "id": "node/10097631474"
      },
      "geometry": {
        "type": "Point",
        "coordinates": [
          -43.3610475,
          -18.7251763
        ]
      }
    },
    {
      "type": "Feature",
      "id": "node/10097977849",
      "properties": {
        "timestamp": "2022-10-13T12:22:59Z",
        "version": 1,
        "changeset": 127467376,
        "addr:city": "Alvorada de Minas",
        "addr:postcode": "39140-000",
        "addr:suburb": "Barbeiro",
        "amenity": "school",
        "name": "Escola Municipal de Barbeiro",
        "operator": "Município de Alvorada de Minas",
        "operator:type": "public",
        "id": "node/10097977849"
      },
      "geometry": {
        "type": "Point",
        "coordinates": [
          -43.411312,
          -18.7642994
        ]
      }
    }
  ]
}
