{
  "type": "FeatureCollection",
  "features": [
    {
      "type": "Feature",
      "id": "node/12572432781",
      "properties": {
        "timestamp": "2025-02-10T11:05:39Z",
        "version": 2,
        "changeset": 162345624,
        "addr:city": "Canudos",
        "addr:housenumber": "3",
        "addr:postcode": "48520-000",
        "addr:street": "Avenida Santo Ant√¥nio",
        "addr:suburb": "Centro",
        "government": "social_services",
        "name": "Secretaria Municipal de Desenvolvimento Social e Combate a Pobreza",
        "office": "government",
        "id": "node/12572432781"
      },
      "geometry": {
        "type": "Point",
        "coordinates": [
          -39.0268653,
          -9.8974762
        ]
      }
    },
    {
      "type": "Feature",
      "id": "node/12583070082",
      "properties": {
        "timestamp": "2025-02-13T12:56:49Z",
        "version": 2,
        "changeset": 162465834,
        "addr:city": "Canudos",
        "addr:postcode": "48520-000",
        "addr:suburb": "Acampamento do Dnocs",
        "government": "administrative",
        "name": "Dnocs - Departamento Nacional de Obras Contra as Secas",
        "office": "government",
        "id": "node/12583070082"
      },
      "geometry": {
        "type": "Point",
        "coordinates": [
          -39.0305727,
          -9.8890067
        ]
      }
    }
  ]
}
