{
  "type": "FeatureCollection",
  "features": [
    {
      "type": "Feature",
      "id": "node/4146829254",
      "properties": {
        "timestamp": "2016-04-25T13:36:24Z",
        "version": 1,
        "changeset": 38857204,
        "amenity": "hospital",
        "id": "node/4146829254"
      },
      "geometry": {
        "type": "Point",
        "coordinates": [
          -39.1646983,
          -9.9648667
        ]
      }
    },
    {
      "type": "Feature",
      "id": "node/12572537981",
      "properties": {
        "timestamp": "2025-02-10T00:17:59Z",
        "version": 1,
        "changeset": 162332383,
        "addr:city": "Canudos",
        "addr:postcode": "48520-000",
        "addr:street": "Avenida Enok Canário",
        "addr:suburb": "Centro",
        "amenity": "hospital",
        "emergency": "yes",
        "healthcare": "hospital",
        "healthcare:speciality": "general",
        "name": "Hospital Municipal Genário Rabelo de Alcântara",
        "operator": "Município de Canudos",
        "operator:type": "public",
        "id": "node/12572537981"
      },
      "geometry": {
        "type": "Point",
        "coordinates": [
          -39.0275967,
          -9.9035079
        ]
      }
    }
  ]
}
