{
  "type": "FeatureCollection",
  "features": [
    {
      "type": "Feature",
      "id": "node/3902714556",
      "properties": {
        "timestamp": "2025-02-12T13:06:32Z",
        "version": 3,
        "changeset": 162429531,
        "addr:city": "Canudos",
        "addr:postcode": "48520-000",
        "addr:street": "Avenida Juscelino Kubitschek",
        "addr:suburb": "Centro",
        "name": "Hotel Brasil",
        "tourism": "hotel",
        "id": "node/3902714556"
      },
      "geometry": {
        "type": "Point",
        "coordinates": [
          -39.0296012,
          -9.8969133
        ]
      }
    },
    {
      "type": "Feature",
      "id": "node/3902715279",
      "properties": {
        "timestamp": "2017-06-20T13:54:46Z",
        "version": 2,
        "changeset": 49694348,
        "tourism": "hotel",
        "id": "node/3902715279"
      },
      "geometry": {
        "type": "Point",
        "coordinates": [
          -39.0321396,
          -9.8955976
        ]
      }
    },
    {
      "type": "Feature",
      "id": "node/6312681888",
      "properties": {
        "timestamp": "2025-02-12T13:06:32Z",
        "version": 2,
        "changeset": 162429531,
        "addr:city": "Canudos",
        "addr:postcode": "48520-000",
        "addr:street": "Avenida Juscelino Kubitschek",
        "addr:suburb": "Centro",
        "internet_access": "wlan",
        "name": "Canudos Palace Hotel",
        "tourism": "hotel",
        "id": "node/6312681888"
      },
      "geometry": {
        "type": "Point",
        "coordinates": [
          -39.0289669,
          -9.8963755
        ]
      }
    }
  ]
}
