{
  "type": "FeatureCollection",
  "features": [
    {
      "type": "Feature",
      "id": "node/3902715259",
      "properties": {
        "timestamp": "2017-06-20T13:54:46Z",
        "version": 2,
        "changeset": 49694348,
        "amenity": "kindergarten",
        "id": "node/3902715259"
      },
      "geometry": {
        "type": "Point",
        "coordinates": [
          -39.0327082,
          -9.8960732
        ]
      }
    },
    {
      "type": "Feature",
      "id": "node/3902715280",
      "properties": {
        "timestamp": "2025-02-12T13:06:32Z",
        "version": 3,
        "changeset": 162429531,
        "addr:city": "Canudos",
        "addr:housenumber": "110",
        "addr:postcode": "48520-000",
        "addr:street": "Rua Alfredo Amorim",
        "addr:suburb": "Centro",
        "amenity": "kindergarten",
        "name": "Escolinha Toca dos Gatinhos",
        "id": "node/3902715280"
      },
      "geometry": {
        "type": "Point",
        "coordinates": [
          -39.0267065,
          -9.8938137
        ]
      }
    },
    {
      "type": "Feature",
      "id": "node/4146829255",
      "properties": {
        "timestamp": "2025-02-12T09:57:55Z",
        "version": 2,
        "changeset": 162422606,
        "addr:city": "Canudos",
        "addr:postcode": "48520-000",
        "addr:street": "Avenida Juazeiro",
        "addr:suburb": "Bedengó",
        "amenity": "kindergarten",
        "name": "Educandário Municipal Nossa Senhora das Graças",
        "operator": "Município de Canudos",
        "operator:type": "public",
        "id": "node/4146829255"
      },
      "geometry": {
        "type": "Point",
        "coordinates": [
          -39.1645964,
          -9.9643478
        ]
      }
    }
  ]
}
