{
  "type": "FeatureCollection",
  "features": [
    {
      "type": "Feature",
      "id": "way/502398859",
      "properties": {
        "timestamp": "2024-12-12T13:16:37Z",
        "version": 3,
        "changeset": 160207731,
        "addr:city": "Paula Cândido",
        "addr:postcode": "36544-000",
        "addr:street": "Praça do Rosário",
        "addr:suburb": "Centro",
        "amenity": "clinic",
        "building": "yes",
        "name": "Posto de Saúde Padre Antônio Mendes",
        "nohousenumber": "yes",
        "id": "way/502398859"
      },
      "geometry": {
        "type": "Polygon",
        "coordinates": [
          [
            [
              -42.9780605,
              -20.8738952
            ],
            [
              -42.9781229,
              -20.8740778
            ],
            [
              -42.9780762,
              -20.8741519
            ],
            [
              -42.9779217,
              -20.8741985
            ],
            [
              -42.9778424,
              -20.8739681
            ],
            [
              -42.9780605,
              -20.8738952
            ]
          ]
        ]
      }
    },
    {
      "type": "Feature",
      "id": "way/502925607",
      "properties": {
        "timestamp": "2017-06-26T06:17:36Z",
        "version": 3,
        "changeset": 49828212,
        "addr:city": "Paula Cândido",
        "addr:postcode": "36544000",
        "addr:street": "Rua Teotônio de Oliveira",
        "addr:suburb": "Centro",
        "amenity": "clinic",
        "building": "yes",
        "name": "Unidade Básica de Saúde Monsenhor Licínio Fernandes",
        "opening_hours": "sunrise-sunset",
        "id": "way/502925607"
      },
      "geometry": {
        "type": "Polygon",
        "coordinates": [
          [
            [
              -42.984179,
              -20.8707962
            ],
            [
              -42.9843631,
              -20.8708543
            ],
            [
              -42.9842959,
              -20.8710404
            ],
            [
              -42.9841117,
              -20.8709823
            ],
            [
              -42.984179,
              -20.8707962
            ]
          ]
        ]
      }
    }
  ]
}
