{
  "type": "FeatureCollection",
  "features": [
    {
      "type": "Feature",
      "id": "way/502895027",
      "properties": {
        "timestamp": "2018-06-19T22:44:51Z",
        "version": 2,
        "changeset": 59992644,
        "addr:city": "Paula Cândido",
        "addr:housenumber": "200",
        "addr:postcode": "36544-000",
        "addr:street": "MG-280",
        "addr:suburb": "Centro",
        "building": "yes",
        "government": "legislative",
        "name": "Câmara Municipal de Paula Cândido",
        "office": "government",
        "id": "way/502895027"
      },
      "geometry": {
        "type": "Polygon",
        "coordinates": [
          [
            [
              -42.9733625,
              -20.8746764
            ],
            [
              -42.9736084,
              -20.8747764
            ],
            [
              -42.9735129,
              -20.8749814
            ],
            [
              -42.973267,
              -20.8748814
            ],
            [
              -42.9733625,
              -20.8746764
            ]
          ]
        ]
      }
    }
  ]
}
