{
  "type": "FeatureCollection",
  "features": [
    {
      "type": "Feature",
      "id": "way/502452837",
      "properties": {
        "timestamp": "2017-06-21T17:31:00Z",
        "version": 1,
        "changeset": 49726381,
        "addr:city": "Paula C창ndido",
        "addr:housenumber": "197",
        "addr:postcode": "36544000",
        "addr:street": "Rua Capit찾o Martinho/MG-280",
        "addr:suburb": "Centro",
        "building": "yes",
        "name": "Hotel Valente",
        "smoking": "outside",
        "tourism": "hotel",
        "id": "way/502452837"
      },
      "geometry": {
        "type": "Polygon",
        "coordinates": [
          [
            [
              -42.9765824,
              -20.8740305
            ],
            [
              -42.9766113,
              -20.8741182
            ],
            [
              -42.9764321,
              -20.8741698
            ],
            [
              -42.9764032,
              -20.874082
            ],
            [
              -42.9765824,
              -20.8740305
            ]
          ]
        ]
      }
    },
    {
      "type": "Feature",
      "id": "way/502453159",
      "properties": {
        "timestamp": "2017-06-21T17:32:37Z",
        "version": 1,
        "changeset": 49726401,
        "addr:city": "Paula C창ndido",
        "addr:housenumber": "204",
        "addr:postcode": "36544000",
        "addr:street": "Rua Capit찾o Martinho/MG-280",
        "addr:suburb": "Centro",
        "building": "yes",
        "name": "Pousada Vento Forte",
        "smoking": "outside",
        "tourism": "hotel",
        "id": "way/502453159"
      },
      "geometry": {
        "type": "Polygon",
        "coordinates": [
          [
            [
              -42.9767439,
              -20.8743097
            ],
            [
              -42.9767996,
              -20.874455
            ],
            [
              -42.9766737,
              -20.8744971
            ],
            [
              -42.976618,
              -20.8743519
            ],
            [
              -42.9767439,
              -20.8743097
            ]
          ]
        ]
      }
    }
  ]
}
