{
  "type": "FeatureCollection",
  "features": [
    {
      "type": "Feature",
      "id": "way/708901886",
      "properties": {
        "timestamp": "2019-07-30T14:25:23Z",
        "version": 1,
        "changeset": 72815592,
        "addr:city": "Domingos Martins",
        "addr:housenumber": "27",
        "addr:postcode": "29260-000",
        "addr:street": "Rua Senador Jefferson Aguiar",
        "addr:suburb": "Centro",
        "building": "yes",
        "email": "cmdmartins@cmaradomingosmartins.es.gov.br",
        "government": "legislative",
        "name": "Câmara Municipal de Domingos Martins",
        "office": "government",
        "opening_hours": "Mo-Fr 08:00-11:30 and Mo-Fr 13:-17:00",
        "phone": "+55 27 3268-1413",
        "website": "www.domingosmartins.es.leg.br",
        "wheelchair": "yes",
        "id": "way/708901886"
      },
      "geometry": {
        "type": "Polygon",
        "coordinates": [
          [
            [
              -40.6596816,
              -20.3636674
            ],
            [
              -40.6597199,
              -20.3636375
            ],
            [
              -40.6597741,
              -20.3636734
            ],
            [
              -40.6598331,
              -20.3636166
            ],
            [
              -40.6599249,
              -20.363691
            ],
            [
              -40.6596223,
              -20.3638581
            ],
            [
              -40.6595086,
              -20.3637622
            ],
            [
              -40.6595651,
              -20.3636873
            ],
            [
              -40.6594344,
              -20.3635971
            ],
            [
              -40.6594982,
              -20.3635298
            ],
            [
              -40.6596816,
              -20.3636674
            ]
          ]
        ]
      }
    },
    {
      "type": "Feature",
      "id": "way/1038383170",
      "properties": {
        "timestamp": "2022-03-08T23:00:33Z",
        "version": 1,
        "changeset": 118255464,
        "addr:city": "Domingos Martins",
        "addr:postcode": "29263-000",
        "addr:suburb": "Santa Isabel",
        "government": "administrative",
        "landuse": "commercial",
        "name": "Departamento Nacional de Infraestrutura de Transportes - Dnit",
        "office": "government",
        "id": "way/1038383170"
      },
      "geometry": {
        "type": "Polygon",
        "coordinates": [
          [
            [
              -40.6225449,
              -20.3830485
            ],
            [
              -40.6225172,
              -20.3831188
            ],
            [
              -40.6224677,
              -20.3831162
            ],
            [
              -40.6221915,
              -20.3831574
            ],
            [
              -40.6218345,
              -20.383129
            ],
            [
              -40.6216814,
              -20.3831261
            ],
            [
              -40.6215688,
              -20.3831413
            ],
            [
              -40.6214362,
              -20.3831685
            ],
            [
              -40.6213617,
              -20.3831594
            ],
            [
              -40.6213815,
              -20.3827521
            ],
            [
              -40.6219864,
              -20.3825837
            ],
            [
              -40.622552,
              -20.382541
            ],
            [
              -40.6225449,
              -20.3830485
            ]
          ]
        ]
      }
    },
    {
      "type": "Feature",
      "id": "way/1040007234",
      "properties": {
        "timestamp": "2022-03-13T19:17:38Z",
        "version": 1,
        "changeset": 118442806,
        "addr:city": "Domingos Martins",
        "addr:postcode": "29260-000",
        "addr:street": "Travessa Xavier",
        "addr:suburb": "Centro",
        "alt_name": "LBA",
        "building": "yes",
        "building:levels": "2",
        "email": "secagp@domingosmartins.es.gov.br",
        "government": "administrative",
        "name": "Secretaria Municipal de Desenvolvimento Rural - Semder",
        "office": "government",
        "phone": "+55 27 3268 1814",
        "website": "http://www.domingosmartins.es.gov.br/",
        "id": "way/1040007234"
      },
      "geometry": {
        "type": "Polygon",
        "coordinates": [
          [
            [
              -40.6612755,
              -20.3635567
            ],
            [
              -40.661147,
              -20.3636875
            ],
            [
              -40.6611186,
              -20.3636629
            ],
            [
              -40.6610535,
              -20.3637292
            ],
            [
              -40.660948,
              -20.3636381
            ],
            [
              -40.6609757,
              -20.3636099
            ],
            [
              -40.6609366,
              -20.3635761
            ],
            [
              -40.6611025,
              -20.3634073
            ],
            [
              -40.6612755,
              -20.3635567
            ]
          ]
        ]
      }
    },
    {
      "type": "Feature",
      "id": "node/9517390668",
      "properties": {
        "timestamp": "2024-01-10T19:26:51Z",
        "version": 3,
        "changeset": 146116317,
        "addr:city": "Domingos Martins",
        "addr:housenumber": "51",
        "addr:postcode": "29260-000",
        "addr:street": "Rua João Batista Wernerbach",
        "addr:suburb": "Centro",
        "government": "prosecutor",
        "name": "Promotoria de Justiça de Domingos Martins",
        "office": "government",
        "operator": "Ministério Público do Estado do Espírito Santo",
        "operator:wikidata": "Q20060323",
        "phone": "+55 27 3268 1528",
        "id": "node/9517390668"
      },
      "geometry": {
        "type": "Point",
        "coordinates": [
          -40.6593285,
          -20.3626525
        ]
      }
    },
    {
      "type": "Feature",
      "id": "node/9552321275",
      "properties": {
        "timestamp": "2022-03-24T18:31:12Z",
        "version": 2,
        "changeset": 118876931,
        "addr:city": "Domingos Martins",
        "addr:housenumber": "86",
        "addr:postcode": "29260-000",
        "addr:street": "Rua Bernardino Monteiro",
        "addr:suburb": "Centro",
        "email": "aps07001150@inss.gov.br",
        "government": "social_security",
        "name": "Agência da Previdência Social",
        "office": "government",
        "operator": "Instituto Nacional do Seguro Social",
        "operator:short": "INSS",
        "operator:wikidata": "Q10302614",
        "operator:wikipedia": "pt:Instituto Nacional do Seguro Social",
        "phone": "+55 27",
        "id": "node/9552321275"
      },
      "geometry": {
        "type": "Point",
        "coordinates": [
          -40.6590161,
          -20.3609868
        ]
      }
    },
    {
      "type": "Feature",
      "id": "node/9563688635",
      "properties": {
        "timestamp": "2022-03-08T23:00:33Z",
        "version": 1,
        "changeset": 118255464,
        "addr:city": "Domingos Martins",
        "addr:postcode": "29263-000",
        "addr:street": "Rua São Judas Tadeu",
        "addr:suburb": "Santa Isabel",
        "government": "register_office",
        "name": "Cartório de Registro Civil e Tabelionato de Santa Isabel",
        "office": "government",
        "id": "node/9563688635"
      },
      "geometry": {
        "type": "Point",
        "coordinates": [
          -40.6242277,
          -20.3827954
        ]
      }
    },
    {
      "type": "Feature",
      "id": "node/9566816806",
      "properties": {
        "timestamp": "2022-03-09T19:38:57Z",
        "version": 1,
        "changeset": 118292222,
        "addr:city": "Domingos Martins",
        "addr:housenumber": "113",
        "addr:postcode": "29260-000",
        "addr:street": "Rua João Batista Wernerbach",
        "addr:suburb": "Centro",
        "government": "register_office",
        "name": "Cartório da Décima Quinta Zona Eleitoral",
        "office": "government",
        "id": "node/9566816806"
      },
      "geometry": {
        "type": "Point",
        "coordinates": [
          -40.6592455,
          -20.3627576
        ]
      }
    },
    {
      "type": "Feature",
      "id": "node/9566816807",
      "properties": {
        "timestamp": "2022-03-09T19:38:57Z",
        "version": 1,
        "changeset": 118292222,
        "addr:city": "Domingos Martins",
        "addr:housenumber": "70",
        "addr:postcode": "29260-000",
        "addr:street": "Avenida Kurt Lewin",
        "addr:suburb": "Centro",
        "government": "register_office",
        "name": "Cartório de Registro Civil e Tabelionato de Domingos Martins",
        "office": "government",
        "phone": "+55 27 3268 1664",
        "id": "node/9566816807"
      },
      "geometry": {
        "type": "Point",
        "coordinates": [
          -40.660072,
          -20.3649714
        ]
      }
    },
    {
      "type": "Feature",
      "id": "node/9566816808",
      "properties": {
        "timestamp": "2022-03-09T19:38:57Z",
        "version": 1,
        "changeset": 118292222,
        "addr:city": "Domingos Martins",
        "addr:housenumber": "590",
        "addr:postcode": "29260-000",
        "addr:street": "Avenida Presidente Vargas",
        "addr:suburb": "Centro",
        "government": "register_office",
        "name": "Cartório do Primeiro Ofício de Domingos Martins",
        "office": "government",
        "phone": "+55 27 3268 3089",
        "id": "node/9566816808"
      },
      "geometry": {
        "type": "Point",
        "coordinates": [
          -40.6589094,
          -20.3624713
        ]
      }
    },
    {
      "type": "Feature",
      "id": "node/9569403536",
      "properties": {
        "timestamp": "2022-03-10T18:38:19Z",
        "version": 1,
        "changeset": 118335038,
        "addr:city": "Domingos Martins",
        "addr:postcode": "29260-000",
        "addr:street": "Rua Bernardino Monteiro",
        "addr:suburb": "Centro",
        "government": "administrative",
        "name": "Secretaria Municipal de Saúde",
        "office": "government",
        "id": "node/9569403536"
      },
      "geometry": {
        "type": "Point",
        "coordinates": [
          -40.6591358,
          -20.360165
        ]
      }
    },
    {
      "type": "Feature",
      "id": "node/9571534193",
      "properties": {
        "timestamp": "2022-03-11T19:35:43Z",
        "version": 1,
        "changeset": 118376935,
        "addr:city": "Domingos Martins",
        "addr:postcode": "29273-000",
        "addr:street": "Rua Celio Pitanga Pinto",
        "addr:suburb": "Parajú",
        "government": "public_service",
        "name": "Instituto Capixaba de Pesquisa, Assistência Técnica e Extensão Rural - Incaper",
        "office": "government",
        "id": "node/9571534193"
      },
      "geometry": {
        "type": "Point",
        "coordinates": [
          -40.8050564,
          -20.3168039
        ]
      }
    },
    {
      "type": "Feature",
      "id": "node/9583379974",
      "properties": {
        "timestamp": "2022-03-16T16:13:38Z",
        "version": 1,
        "changeset": 118558310,
        "addr:city": "Domingos Martins",
        "addr:postcode": "29260-000",
        "addr:suburb": "Pedra Azul",
        "government": "administrative",
        "name": "Posto de Atendimento Veicular do Departamento de Trânsito do Estado do Espírito Santo - Detran",
        "office": "government",
        "id": "node/9583379974"
      },
      "geometry": {
        "type": "Point",
        "coordinates": [
          -41.0329148,
          -20.37932
        ]
      }
    },
    {
      "type": "Feature",
      "id": "node/9583379975",
      "properties": {
        "timestamp": "2022-03-16T16:13:38Z",
        "version": 1,
        "changeset": 118558310,
        "addr:city": "Domingos Martins",
        "addr:postcode": "29260-000",
        "addr:suburb": "Pedra Azul",
        "government": "administrative",
        "name": "Instituto de Defesa Agropecuária e Florestal - Idaf",
        "office": "government",
        "id": "node/9583379975"
      },
      "geometry": {
        "type": "Point",
        "coordinates": [
          -41.032805,
          -20.3792062
        ]
      }
    },
    {
      "type": "Feature",
      "id": "node/9586004277",
      "properties": {
        "timestamp": "2022-03-17T17:37:08Z",
        "version": 1,
        "changeset": 118604856,
        "addr:city": "Domingos Martins",
        "addr:postcode": "29260-000",
        "addr:street": "Avenida Módulo",
        "addr:suburb": "Pedra Azul",
        "government": "register_office",
        "name": "Cártorio do Registro Civil e Tabelionato do Distrito de Aracê",
        "office": "government",
        "id": "node/9586004277"
      },
      "geometry": {
        "type": "Point",
        "coordinates": [
          -41.0324732,
          -20.3790367
        ]
      }
    },
    {
      "type": "Feature",
      "id": "node/9587765942",
      "properties": {
        "timestamp": "2022-03-18T14:01:39Z",
        "version": 2,
        "changeset": 118634286,
        "addr:city": "Domingos Martins",
        "addr:street": "Rodovia Federal Deputado Aloízio Santos",
        "addr:suburb": "Fazenda do Estado",
        "email": "femf@incaper.es.gov.br",
        "government": "government",
        "name": "Fazenda Experimental Mendes da Fonseca - Femf",
        "office": "government",
        "operator": "Instituto Capixaba de Pesquisa, Assistência Técnica e Extensão Rural - Incaper",
        "phone": "+55 27 3248 1891",
        "website": "https://incaper.es.gov.br/fazendas",
        "id": "node/9587765942"
      },
      "geometry": {
        "type": "Point",
        "coordinates": [
          -41.0624767,
          -20.3709294
        ]
      }
    },
    {
      "type": "Feature",
      "id": "node/9604008197",
      "properties": {
        "timestamp": "2024-01-10T19:26:51Z",
        "version": 2,
        "changeset": 146116317,
        "addr:city": "Domingos Martins",
        "addr:housenumber": "89",
        "addr:postcode": "29260-000",
        "addr:street": "Rua Bernardino Monteiro",
        "addr:suburb": "Centro",
        "email": "secobu@domingosmartins.es.gov.br",
        "government": "administrative",
        "name": "Secretaria Municipal de Obras e Serviços Urbanos",
        "office": "government",
        "phone": "+55 27 3268 3179",
        "id": "node/9604008197"
      },
      "geometry": {
        "type": "Point",
        "coordinates": [
          -40.6591205,
          -20.361049
        ]
      }
    }
  ]
}
