{
  "type": "FeatureCollection",
  "features": [
    {
      "type": "Feature",
      "id": "way/830325203",
      "properties": {
        "timestamp": "2022-03-03T12:09:50Z",
        "version": 2,
        "changeset": 118053675,
        "addr:city": "Domingos Martins",
        "building": "yes",
        "building:levels": "1",
        "guest_house": "agritourism",
        "name": "Sítio das Águias",
        "tourism": "guest_house",
        "id": "way/830325203"
      },
      "geometry": {
        "type": "Polygon",
        "coordinates": [
          [
            [
              -41.0386514,
              -20.2872545
            ],
            [
              -41.0386249,
              -20.2872711
            ],
            [
              -41.0386266,
              -20.2873026
            ],
            [
              -41.0386143,
              -20.2873242
            ],
            [
              -41.0385877,
              -20.2873341
            ],
            [
              -41.0385505,
              -20.2873325
            ],
            [
              -41.0385275,
              -20.2873076
            ],
            [
              -41.0385328,
              -20.2872843
            ],
            [
              -41.0385523,
              -20.2872711
            ],
            [
              -41.0385328,
              -20.2872528
            ],
            [
              -41.0385045,
              -20.2872611
            ],
            [
              -41.0384674,
              -20.2872545
            ],
            [
              -41.0384568,
              -20.2872362
            ],
            [
              -41.0384532,
              -20.2872113
            ],
            [
              -41.0384674,
              -20.2871831
            ],
            [
              -41.0384939,
              -20.2871798
            ],
            [
              -41.0385222,
              -20.2871847
            ],
            [
              -41.0385328,
              -20.2871947
            ],
            [
              -41.0385523,
              -20.2871814
            ],
            [
              -41.0385328,
              -20.2871681
            ],
            [
              -41.0385328,
              -20.2871482
            ],
            [
              -41.0385435,
              -20.287125
            ],
            [
              -41.0385523,
              -20.2871084
            ],
            [
              -41.0385718,
              -20.2870968
            ],
            [
              -41.0386019,
              -20.2871018
            ],
            [
              -41.0386302,
              -20.28712
            ],
            [
              -41.038632,
              -20.2871449
            ],
            [
              -41.0386213,
              -20.2871582
            ],
            [
              -41.0386143,
              -20.2871731
            ],
            [
              -41.0386284,
              -20.2871831
            ],
            [
              -41.0386408,
              -20.2871731
            ],
            [
              -41.0386709,
              -20.2871615
            ],
            [
              -41.0387118,
              -20.2871709
            ],
            [
              -41.0387232,
              -20.2872041
            ],
            [
              -41.0387133,
              -20.287227
            ],
            [
              -41.0387072,
              -20.2872419
            ],
            [
              -41.0386931,
              -20.2872548
            ],
            [
              -41.0386692,
              -20.2872604
            ],
            [
              -41.0386514,
              -20.2872545
            ]
          ]
        ]
      }
    },
    {
      "type": "Feature",
      "id": "node/3663888801",
      "properties": {
        "timestamp": "2022-04-10T20:43:07Z",
        "version": 4,
        "changeset": 119550597,
        "addr:city": "Domingos Martins",
        "addr:postcode": "29260-000",
        "addr:street": "Rota do Lagarto",
        "addr:suburb": "Pedra Azul",
        "email": "pousada@pousadapeterle.com.br",
        "guest_house": "agritourism",
        "name": "Pousada Peterle",
        "phone": "+55 27 3248 1171",
        "rooms": "30",
        "source": "survey",
        "tourism": "guest_house",
        "website": "https://www.pousadapeterle.com.br/",
        "id": "node/3663888801"
      },
      "geometry": {
        "type": "Point",
        "coordinates": [
          -41.0156316,
          -20.3896833
        ]
      }
    },
    {
      "type": "Feature",
      "id": "node/3663888802",
      "properties": {
        "timestamp": "2024-10-05T13:35:20Z",
        "version": 3,
        "changeset": 157501518,
        "addr:city": "Domingos Martins",
        "addr:housenumber": "km 01",
        "addr:postcode": "29260-000",
        "addr:street": "Rodovia Ângelo Girardi",
        "addr:suburb": "Pedra Azul",
        "email": "recantodapedra@gmail.com",
        "guest_house": "agritourism",
        "internet_access": "yes",
        "name": "Pousada Recanto da Pedra",
        "phone": "+55 27 99805 0639",
        "rooms": "12",
        "source": "survey",
        "tourism": "guest_house",
        "website": "www.recantodapedra-es.com.br",
        "id": "node/3663888802"
      },
      "geometry": {
        "type": "Point",
        "coordinates": [
          -41.0273684,
          -20.3949142
        ]
      }
    },
    {
      "type": "Feature",
      "id": "node/9525234724",
      "properties": {
        "timestamp": "2022-03-07T17:57:32Z",
        "version": 3,
        "changeset": 118207040,
        "addr:city": "Domingos Martins",
        "addr:postcode": "29260-000",
        "addr:street": "Rodovia João Ricardo Schorling",
        "addr:suburb": "Portal",
        "email": "rancholuagrande@gmail.com",
        "guest_house": "agritourism",
        "internet_access": "yes",
        "mobile": "+55 27 99904 7966",
        "name": "Rancho Lua Grande",
        "operator": "S.M.R. Rangel - Me",
        "phone": "+55 27 3268 1679",
        "rooms": "54",
        "tourism": "guest_house",
        "website": "http://www.rancholuagrande.com.br/",
        "id": "node/9525234724"
      },
      "geometry": {
        "type": "Point",
        "coordinates": [
          -40.6407667,
          -20.3815976
        ]
      }
    },
    {
      "type": "Feature",
      "id": "node/9558280896",
      "properties": {
        "timestamp": "2022-03-06T13:34:34Z",
        "version": 1,
        "changeset": 118159210,
        "addr:city": "Dimingos Martins",
        "addr:postcode": "29260-000",
        "addr:street": "Estrada para o Chapéu",
        "addr:suburb": "Alto Chapéu",
        "guest_house": "agritourism",
        "name": "Pousada da Márcia",
        "tourism": "guest_house",
        "id": "node/9558280896"
      },
      "geometry": {
        "type": "Point",
        "coordinates": [
          -40.68564,
          -20.3404374
        ]
      }
    },
    {
      "type": "Feature",
      "id": "node/9560962173",
      "properties": {
        "timestamp": "2022-05-26T13:58:03Z",
        "version": 2,
        "changeset": 121527646,
        "addr:city": "Domingos Martins",
        "addr:housenumber": "600",
        "addr:postcode": "20260-000",
        "addr:street": "Rodovia João Ricardo Schorling",
        "addr:suburb": "Dulce Ville",
        "email": "agellumbnb@gmail.com",
        "guest_house": "bed_and_breakfast",
        "internet_access": "yes",
        "mobile": "+55 27 99570 7036",
        "name": "Agellum Bed & Breakfast",
        "phone": "+55 27 3268 1683",
        "rooms": "8",
        "tourism": "guest_house",
        "website": "https://www.facebook.com/agellum?filter=2",
        "id": "node/9560962173"
      },
      "geometry": {
        "type": "Point",
        "coordinates": [
          -40.6533354,
          -20.3690025
        ]
      }
    },
    {
      "type": "Feature",
      "id": "node/9569486024",
      "properties": {
        "timestamp": "2022-03-10T19:26:54Z",
        "version": 1,
        "changeset": 118336675,
        "addr:city": "Domingos Martins",
        "addr:postcode": "29260-00",
        "addr:suburb": "Panelas",
        "email": "manoelthiagosuave@gmail.com",
        "guest_house": "guest_house",
        "mobile": "+55 27 99970 3878/99992 2577",
        "name": "Sítio Recanto Suave",
        "tourism": "guest_house",
        "id": "node/9569486024"
      },
      "geometry": {
        "type": "Point",
        "coordinates": [
          -40.6404949,
          -20.3311628
        ]
      }
    },
    {
      "type": "Feature",
      "id": "node/9570726244",
      "properties": {
        "timestamp": "2022-03-11T12:04:31Z",
        "version": 1,
        "changeset": 118361533,
        "addr:city": "Domingos Martins",
        "addr:postcode": "29260-000",
        "addr:suburb": "Panelas",
        "email": "pousadaportaldoceu@gmail.com",
        "guest_house": "agritourism",
        "name": "Sítio e Pousada Portal do Céu",
        "operator": "Marcia de Souza",
        "phone": "+55 27 9988 7987",
        "tourism": "guest_house",
        "id": "node/9570726244"
      },
      "geometry": {
        "type": "Point",
        "coordinates": [
          -40.631815,
          -20.3457587
        ]
      }
    },
    {
      "type": "Feature",
      "id": "node/9571438467",
      "properties": {
        "timestamp": "2022-03-11T18:41:47Z",
        "version": 1,
        "changeset": 118375346,
        "addr:city": "Domingos Martins",
        "addr:postcode": "29260-000",
        "addr:suburb": "Alto Galo",
        "email": "lampier5@yahoo.com.br",
        "guest_house": "agritourism",
        "name": "Pousada Sítio do Galo",
        "phone": "+55 27 99804 9975/99977 0055",
        "tourism": "guest_house",
        "id": "node/9571438467"
      },
      "geometry": {
        "type": "Point",
        "coordinates": [
          -40.6318347,
          -20.2922491
        ]
      }
    },
    {
      "type": "Feature",
      "id": "node/9571438481",
      "properties": {
        "timestamp": "2022-04-10T20:42:43Z",
        "version": 2,
        "changeset": 119550587,
        "addr:city": "Domingos Martins",
        "addr:postcode": "29260-000",
        "addr:street": "Rodovia Estadual Casemiro Costa",
        "addr:suburb": "Pena",
        "email": "reservas@ecomeucantinho.com.br",
        "guest_house": "agritourism",
        "name": "Ecopousada Meu Cantinho",
        "phone": "+55 27 99949 1566",
        "tourism": "guest_house",
        "website": "https://www.ecomeucantinho.com.br/",
        "id": "node/9571438481"
      },
      "geometry": {
        "type": "Point",
        "coordinates": [
          -40.7584572,
          -20.2394696
        ]
      }
    },
    {
      "type": "Feature",
      "id": "node/9581785890",
      "properties": {
        "timestamp": "2022-03-15T23:10:12Z",
        "version": 1,
        "changeset": 118530197,
        "addr:city": "Domingos Martins",
        "addr:postcode": "29260-000",
        "addr:street": "Avenida Hermínio Uliana",
        "addr:suburb": "Aracê",
        "email": "passarinhadach@gmail.com",
        "guest_house": "guest_house",
        "internet_access": "yes",
        "name": "Passarinhada Café e Hospedagem",
        "phone": "+55 27 99991 7171",
        "rooms": "4",
        "tourism": "guest_house",
        "id": "node/9581785890"
      },
      "geometry": {
        "type": "Point",
        "coordinates": [
          -41.0048524,
          -20.3808971
        ]
      }
    },
    {
      "type": "Feature",
      "id": "node/9583379973",
      "properties": {
        "timestamp": "2022-03-16T16:13:38Z",
        "version": 1,
        "changeset": 118558310,
        "addr:city": "Domingos Martins",
        "addr:postcode": "29260-000",
        "addr:street": "Avenida Módulo",
        "addr:suburb": "Pedra Azul",
        "email": "pousadadavomaria@gmail.com",
        "guest_house": "agritourism",
        "name": "Pousada da Vó Maria",
        "phone": "+55 27 99802 3716",
        "rooms": "5",
        "tourism": "guest_house",
        "id": "node/9583379973"
      },
      "geometry": {
        "type": "Point",
        "coordinates": [
          -41.0330339,
          -20.3791733
        ]
      }
    },
    {
      "type": "Feature",
      "id": "node/9583381454",
      "properties": {
        "timestamp": "2022-03-16T16:13:38Z",
        "version": 1,
        "changeset": 118558310,
        "addr:city": "Domingos Martins",
        "addr:postcode": "29260-000",
        "addr:suburb": "Pedra Azul",
        "email": "penhazul@hotmail.com",
        "guest_house": "agritourism",
        "internet_access": "yes",
        "mobile": "+55 27 99945 0932",
        "name": "Pousada Penhazul",
        "phone": "+55 27 3248 1206",
        "rooms": "6",
        "tourism": "guest_house",
        "id": "node/9583381454"
      },
      "geometry": {
        "type": "Point",
        "coordinates": [
          -41.0322008,
          -20.391083
        ]
      }
    },
    {
      "type": "Feature",
      "id": "node/9583486102",
      "properties": {
        "timestamp": "2022-03-16T17:31:45Z",
        "version": 1,
        "changeset": 118561421,
        "addr:city": "Domingos Martins",
        "addr:postcode": "29260-000",
        "addr:suburb": "Pedra Azul",
        "email": "villauliana@gmail.com",
        "guest_house": "agritourism",
        "name": "Villa Uliana Hospedagem",
        "phone": "+55 27 99832 3518;+55 27 99975 3816",
        "tourism": "guest_house",
        "id": "node/9583486102"
      },
      "geometry": {
        "type": "Point",
        "coordinates": [
          -41.0357855,
          -20.3627677
        ]
      }
    },
    {
      "type": "Feature",
      "id": "node/10049285717",
      "properties": {
        "timestamp": "2022-09-24T15:05:53Z",
        "version": 1,
        "changeset": 126585393,
        "name": "Sítio da Ressaca",
        "tourism": "guest_house",
        "id": "node/10049285717"
      },
      "geometry": {
        "type": "Point",
        "coordinates": [
          -40.7943868,
          -20.3394225
        ]
      }
    }
  ]
}
