{
  "type": "FeatureCollection",
  "features": [
    {
      "type": "Feature",
      "id": "node/311245596",
      "properties": {
        "timestamp": "2022-03-07T13:03:59Z",
        "version": 4,
        "changeset": 118196689,
        "addr:city": "Domingos Martins",
        "addr:housenumber": "km 36",
        "addr:postcode": "29260-000",
        "addr:street": "Rodovia Federal Deputado Aloízio Santos",
        "addr:suburb": "Santa Isabel",
        "email": "vistalindaes@gmail.com",
        "name": "Pousada e Restaurante Vista Linda",
        "phone": "55 27 3268 1323",
        "rooms": "46",
        "tourism": "hotel",
        "id": "node/311245596"
      },
      "geometry": {
        "type": "Point",
        "coordinates": [
          -40.6052022,
          -20.3818899
        ]
      }
    },
    {
      "type": "Feature",
      "id": "node/2330069913",
      "properties": {
        "timestamp": "2022-04-10T20:42:53Z",
        "version": 4,
        "changeset": 119550590,
        "addr:city": "Domingos Martins",
        "addr:postcode": "29260-000",
        "addr:suburb": "Alto Chapéu",
        "email": "deliciasdatilapia@hotmail.com",
        "name": "Pousada Delícias da Tilápia",
        "phone": "+55 27 99983 3006/99917 1787/99937 1786",
        "tourism": "hotel",
        "website": "https://www.deliciasdatilapia.com.br/",
        "id": "node/2330069913"
      },
      "geometry": {
        "type": "Point",
        "coordinates": [
          -40.692177,
          -20.3327038
        ]
      }
    },
    {
      "type": "Feature",
      "id": "node/2333455246",
      "properties": {
        "timestamp": "2022-03-16T17:46:47Z",
        "version": 5,
        "changeset": 118561868,
        "addr:city": "Domingos Martins",
        "addr:place": "Ribeirão Capixaba",
        "addr:postcode": "29260-000",
        "addr:street": "Rodovia Federal Deputado Aloísio Santos",
        "addr:suburb": "Ribeirão Capixaba",
        "email": "reservas@parquedochina.com.br",
        "internet_access": "yes",
        "internet_access:fee": "customers",
        "name": "Hotel Fazenda Parque do China",
        "phone": "+55 27 3441 9770",
        "rooms": "60",
        "tourism": "hotel",
        "website": "https://hotelfazendachinapark.com.br/",
        "id": "node/2333455246"
      },
      "geometry": {
        "type": "Point",
        "coordinates": [
          -40.9000622,
          -20.3801335
        ]
      }
    },
    {
      "type": "Feature",
      "id": "node/2396385551",
      "properties": {
        "timestamp": "2022-03-16T16:13:38Z",
        "version": 3,
        "changeset": 118558310,
        "addr:city": "Domingos Martins",
        "addr:postcode": "29260-000",
        "addr:street": "Avenida Módulo",
        "addr:suburb": "Pedra Azul",
        "email": "estalagempetra@yahoo.com.br",
        "internet_access": "yes",
        "mobile": "+55 27 99998 3278",
        "name": "Estalagem Petra",
        "phone": "+55 27 3248 1185",
        "rooms": "20",
        "tourism": "hotel",
        "id": "node/2396385551"
      },
      "geometry": {
        "type": "Point",
        "coordinates": [
          -41.0331821,
          -20.3789272
        ]
      }
    },
    {
      "type": "Feature",
      "id": "node/2625089112",
      "properties": {
        "timestamp": "2022-03-11T18:41:47Z",
        "version": 3,
        "changeset": 118375346,
        "addr:city": "Domingos Martins",
        "addr:postcode": "29260-000",
        "addr:suburb": "Soído de Cima",
        "email": "sitio@arcoirispousada.com.br",
        "name": "Arco-Íris Pousada",
        "phone": "+55 27 99926 4240/99969 0964",
        "tourism": "hotel",
        "website": "www.arcoirispousada.com.br",
        "id": "node/2625089112"
      },
      "geometry": {
        "type": "Point",
        "coordinates": [
          -40.7073714,
          -20.353343
        ]
      }
    },
    {
      "type": "Feature",
      "id": "node/3662343801",
      "properties": {
        "timestamp": "2022-04-10T20:43:42Z",
        "version": 3,
        "changeset": 119550623,
        "addr:city": "Domingos Martins",
        "addr:postcode": "29260-000",
        "addr:street": "Acesso ao Restaurante e Pousada Lusitânia",
        "addr:suburb": "Pedra Azul",
        "email": "lusitania@pousadalusitania.com.br",
        "internet_access": "wlan",
        "internet_access:fee": "no",
        "name": "Pousada Lusitânia",
        "phone": "+55 27 32481184;+55 27 32481234",
        "rooms": "30",
        "source": "survey",
        "tourism": "hotel",
        "website": "https://www.pousadalusitania.com.br/",
        "id": "node/3662343801"
      },
      "geometry": {
        "type": "Point",
        "coordinates": [
          -41.0342064,
          -20.3805674
        ]
      }
    },
    {
      "type": "Feature",
      "id": "node/3663888797",
      "properties": {
        "timestamp": "2022-04-10T20:43:55Z",
        "version": 3,
        "changeset": 119550631,
        "addr:city": "Domingos Martins",
        "addr:housenumber": "km 89",
        "addr:postcode": "29260-000",
        "addr:street": "Rodovia Federal Deputado Aloízio Santos",
        "addr:suburb": "Pedra Azul",
        "email": "reservas@aroso.com.br",
        "internet_access": "yes",
        "mobile": "+55 27 99902 4417",
        "name": "Aroso Paço Hotel",
        "phone": "+55 27 3248 1147",
        "rooms": "48",
        "source": "survey",
        "tourism": "hotel",
        "website": "https://www.aroso.com.br/",
        "id": "node/3663888797"
      },
      "geometry": {
        "type": "Point",
        "coordinates": [
          -41.0208005,
          -20.3797261
        ]
      }
    },
    {
      "type": "Feature",
      "id": "node/3942072332",
      "properties": {
        "timestamp": "2022-05-17T13:44:49Z",
        "version": 5,
        "changeset": 121101872,
        "addr:city": "Domingos Martins",
        "addr:housenumber": "km 70",
        "addr:postcode": "29278-000",
        "addr:street": "Rodovia Estadual Governador Nestor Gomes",
        "addr:suburb": "São Paulinho do Aracê",
        "email": "reservas@rabodolagarto.com.br",
        "name": "Pousada Rabo do Lagarto",
        "phone": "+55 27 3248 2383",
        "rooms": "17",
        "smoking": "no",
        "tourism": "hotel",
        "website": "https://rabodolagarto.com.br/",
        "id": "node/3942072332"
      },
      "geometry": {
        "type": "Point",
        "coordinates": [
          -41.0536531,
          -20.4082662
        ]
      }
    },
    {
      "type": "Feature",
      "id": "node/7093483859",
      "properties": {
        "timestamp": "2022-03-16T16:31:43Z",
        "version": 3,
        "changeset": 118559108,
        "addr:city": "Domingos Martins",
        "addr:housenumber": "km 89",
        "addr:postcode": "29260-000",
        "addr:street": "Rodovia Federal Deputado Aloízio Santos",
        "addr:suburb": "Pedra Azul",
        "brand": "Bristol",
        "email": "reservas.bva@redebristol.com.br",
        "name": "Bristol Vista Azul",
        "phone": "+55 27 2133 0133",
        "rooms": "113",
        "tourism": "hotel",
        "website": "www.bristolvistaazul.com.br",
        "id": "node/7093483859"
      },
      "geometry": {
        "type": "Point",
        "coordinates": [
          -41.0231956,
          -20.3782367
        ]
      }
    },
    {
      "type": "Feature",
      "id": "node/9557788006",
      "properties": {
        "timestamp": "2022-03-07T17:11:38Z",
        "version": 4,
        "changeset": 118205325,
        "addr:city": "Domingos Martins",
        "addr:postcode": "29260-000",
        "addr:street": "Avenida Ayrton Senna",
        "addr:suburb": "Soído",
        "alt_name": "Sesc Domingos Martins",
        "brand": "Serviço Social do Comércio - Sesc",
        "email": "reservasdomingosmartins@es.sesc.com.br",
        "internet_access": "yes",
        "internet_access:fee": "customers",
        "landuse": "recreation_ground",
        "name": "Centro de Turismo Social e Lazer de Domingos Martins - Sesc",
        "phone": "+55 27 3268 5400",
        "rooms": "312",
        "tourism": "hotel",
        "website": "https://sesc-es.com.br/sobre-o-sesc/nossas-unidades/hoteis-do-sesc/centro-de-turismo-social-e-lazer-de-domingos-martins/",
        "id": "node/9557788006"
      },
      "geometry": {
        "type": "Point",
        "coordinates": [
          -40.6721719,
          -20.3718202
        ]
      }
    },
    {
      "type": "Feature",
      "id": "node/9559063050",
      "properties": {
        "timestamp": "2022-03-10T12:21:30Z",
        "version": 2,
        "changeset": 118321868,
        "addr:city": "Domingos Martins",
        "addr:housenumber": "Km 42,5",
        "addr:postcode": "29260-000",
        "addr:street": "Rodovia Federal Deputado Aloízio Santos",
        "addr:suburb": "Córrego Domingos Martins",
        "email": "pousadajapere@pousadajapere.com.br",
        "internet_access": "yes",
        "internet_access:fee": "customers",
        "landuse": "recreation_ground",
        "name": "Pousada Japerê",
        "phone": "+55 27 99617 4549",
        "rooms": "12",
        "tourism": "hotel",
        "id": "node/9559063050"
      },
      "geometry": {
        "type": "Point",
        "coordinates": [
          -40.6547717,
          -20.3847922
        ]
      }
    },
    {
      "type": "Feature",
      "id": "node/9560440757",
      "properties": {
        "timestamp": "2022-04-10T20:43:00Z",
        "version": 2,
        "changeset": 119550592,
        "addr:city": "Domingos Martins",
        "addr:postcode": "29260-000",
        "addr:suburb": "Santa Isabel",
        "email": "pousada@viladoloro.com.br",
        "name": "Pousada Vila do Loro",
        "phone": "+55 27 3268 1791",
        "rooms": "24",
        "tourism": "hotel",
        "website": "https://www.viladoloro.com.br/",
        "id": "node/9560440757"
      },
      "geometry": {
        "type": "Point",
        "coordinates": [
          -40.6168296,
          -20.3545822
        ]
      }
    },
    {
      "type": "Feature",
      "id": "node/9560440772",
      "properties": {
        "timestamp": "2022-04-10T20:43:32Z",
        "version": 3,
        "changeset": 119550617,
        "addr:city": "Domingos Martins",
        "addr:postcode": "29260-000",
        "addr:suburb": "Vale da Estação de Domingos Martins",
        "email": "contato@estacaoverdeeagua.com.br",
        "name": "Hotel Verde & Água",
        "phone": "55 27 99747 1320",
        "tourism": "hotel",
        "website": "https://estacaoverdeeagua.com.br/",
        "id": "node/9560440772"
      },
      "geometry": {
        "type": "Point",
        "coordinates": [
          -40.6128302,
          -20.4129704
        ]
      }
    },
    {
      "type": "Feature",
      "id": "node/9560962172",
      "properties": {
        "timestamp": "2022-03-07T17:57:32Z",
        "version": 1,
        "changeset": 118207040,
        "addr:city": "Domingos Martins",
        "addr:postcode": "29260-000",
        "addr:street": "Rodovia João Ricardo Schorling",
        "addr:suburb": "Dulce Ville",
        "email": "pousadaeadegaalema@hotmail.com",
        "internet_access": "yes",
        "mobile": "+55 27",
        "name": "Pousada e Adega Alemã Schwambach",
        "phone": "+ 55 27 3268 1399",
        "rooms": "35",
        "tourism": "hotel",
        "website": "https://www.facebook.com/AdegaePousadaSchwambach/",
        "id": "node/9560962172"
      },
      "geometry": {
        "type": "Point",
        "coordinates": [
          -40.6488245,
          -20.3723075
        ]
      }
    },
    {
      "type": "Feature",
      "id": "node/9560962174",
      "properties": {
        "timestamp": "2022-03-07T17:57:32Z",
        "version": 1,
        "changeset": 118207040,
        "addr:city": "Domingos Martins",
        "addr:housenumber": "346",
        "addr:postcode": "29260-000",
        "addr:street": "Rua Roberto Carlos Kautsky",
        "addr:suburb": "Centro",
        "email": "pousodobarao@gmail.com",
        "internet_access": "yes",
        "mobile": "+55 27 99981 6241",
        "name": "Pousada Pouso do Barão",
        "phone": "+55 27 3268 1028",
        "rooms": "17",
        "tourism": "hotel",
        "website": "www.pousodobarao.net.br",
        "id": "node/9560962174"
      },
      "geometry": {
        "type": "Point",
        "coordinates": [
          -40.6567306,
          -20.3665804
        ]
      }
    },
    {
      "type": "Feature",
      "id": "node/9563114968",
      "properties": {
        "timestamp": "2022-03-08T17:37:46Z",
        "version": 1,
        "changeset": 118245811,
        "addr:city": "Domingos Martins",
        "addr:housenumber": "471",
        "addr:postcode": "29260-000",
        "addr:street": "Avenida Presidente Vargas",
        "addr:suburb": "Centro",
        "internet_access": "yes",
        "mobile": "+55 27 99946 6812",
        "name": "Dormitório do Posto Martinense",
        "rooms": "13",
        "tourism": "hotel",
        "id": "node/9563114968"
      },
      "geometry": {
        "type": "Point",
        "coordinates": [
          -40.6580949,
          -20.3634763
        ]
      }
    },
    {
      "type": "Feature",
      "id": "node/9563114969",
      "properties": {
        "timestamp": "2022-03-08T17:37:46Z",
        "version": 1,
        "changeset": 118245811,
        "addr:city": "Domingos Martins",
        "addr:housenumber": "191",
        "addr:postcode": "29260-000",
        "addr:street": "Rua Pedro Gerhardt",
        "addr:suburb": "Centro",
        "email": "solardaserra.contato@gmail.com",
        "internet_access": "yes",
        "mobile": "+55 27 99890 3499",
        "name": "Pousada Solar da Serra",
        "phone": "+55 27 3268 1691",
        "rooms": "23",
        "tourism": "hotel",
        "website": "www.hotelpousadasolardaserra.com.br",
        "id": "node/9563114969"
      },
      "geometry": {
        "type": "Point",
        "coordinates": [
          -40.6578778,
          -20.3629689
        ]
      }
    },
    {
      "type": "Feature",
      "id": "node/9563114970",
      "properties": {
        "timestamp": "2022-03-08T17:37:46Z",
        "version": 1,
        "changeset": 118245811,
        "addr:city": "Domingos Martins",
        "addr:housenumber": "666",
        "addr:postcode": "29260-000",
        "addr:street": "Avenida Presidente Vargas",
        "addr:suburb": "Centro",
        "email": "hotelre@hotmail.com",
        "internet_access": "yes",
        "mobile": "+55 27 99793 1749",
        "name": "Hotel Recanto Europeu",
        "phone": "+55 27 3268 1669",
        "rooms": "24",
        "tourism": "hotel",
        "id": "node/9563114970"
      },
      "geometry": {
        "type": "Point",
        "coordinates": [
          -40.6594753,
          -20.3618969
        ]
      }
    },
    {
      "type": "Feature",
      "id": "node/9563114977",
      "properties": {
        "timestamp": "2022-03-08T17:37:46Z",
        "version": 1,
        "changeset": 118245811,
        "addr:city": "Domingos Martins",
        "addr:postcode": "29260-000",
        "addr:street": "Rodovia Estadual Floriano Emílio Guilherme Berger",
        "email": "jaque.nb@gmail.com",
        "name": "Pousada na Montanha",
        "phone": "+55 27 3268 1036",
        "tourism": "hotel",
        "website": "www.pousadanamontanhaes.com.br",
        "id": "node/9563114977"
      },
      "geometry": {
        "type": "Point",
        "coordinates": [
          -40.6595704,
          -20.3528235
        ]
      }
    },
    {
      "type": "Feature",
      "id": "node/9571410413",
      "properties": {
        "timestamp": "2022-03-11T18:41:47Z",
        "version": 1,
        "changeset": 118375346,
        "addr:city": "Domingos Martins",
        "addr:postcode": "29260-000",
        "addr:street": "Estrada do Galo",
        "addr:suburb": "Galo",
        "email": "pousadaencantosdacascata@gmail.com",
        "name": "Pousada Encantos da Cascata",
        "phone": "+55 27 99772 4071",
        "tourism": "hotel",
        "website": "www.pousadaencantosdacascata.com.br",
        "id": "node/9571410413"
      },
      "geometry": {
        "type": "Point",
        "coordinates": [
          -40.6502693,
          -20.2880724
        ]
      }
    },
    {
      "type": "Feature",
      "id": "node/9571410414",
      "properties": {
        "timestamp": "2022-03-11T18:41:47Z",
        "version": 1,
        "changeset": 118375346,
        "addr:city": "Domingos Martins",
        "addr:postcode": "29260-000",
        "addr:suburb": "Alto Galo",
        "email": "sitiorecantodaroca@gmail.com",
        "name": "Pousada Recanto da Roça",
        "phone": "+55 27 99817 9239",
        "tourism": "hotel",
        "website": "www.recantodaroca-es.com.br",
        "id": "node/9571410414"
      },
      "geometry": {
        "type": "Point",
        "coordinates": [
          -40.6241558,
          -20.2797366
        ]
      }
    },
    {
      "type": "Feature",
      "id": "node/9571438475",
      "properties": {
        "timestamp": "2023-11-19T07:01:31Z",
        "version": 2,
        "changeset": 144197510,
        "addr:city": "Domingos Martins",
        "addr:postcode": "29260-000",
        "addr:street": "Estrada para o Chapéu",
        "addr:suburb": "Alto Chapéu",
        "email": "atendimento@pousadaopashaus.com.br",
        "mobile": "+55 27 99924 9976/99620 9242",
        "name": "Pousada Opashaus",
        "phone": "+55 27 3268 3227",
        "tourism": "hotel",
        "website": "https://www.pousadaopashaus.com.br/",
        "id": "node/9571438475"
      },
      "geometry": {
        "type": "Point",
        "coordinates": [
          -40.6759521,
          -20.3485
        ]
      }
    },
    {
      "type": "Feature",
      "id": "node/9571438478",
      "properties": {
        "timestamp": "2023-11-19T07:01:23Z",
        "version": 2,
        "changeset": 144197510,
        "addr:city": "Domingos Martins",
        "addr:postcode": "29260-000",
        "addr:suburb": "Soído de Cima",
        "email": "contato@sitiodoslagos.com.br",
        "mobile": "+55 27 99943 7420",
        "name": "Sítio dos Lagos Pousada",
        "phone": "+55 27 3268 1434",
        "tourism": "hotel",
        "website": "https://www.sitiodoslagos.com.br/",
        "id": "node/9571438478"
      },
      "geometry": {
        "type": "Point",
        "coordinates": [
          -40.6994634,
          -20.3614529
        ]
      }
    },
    {
      "type": "Feature",
      "id": "node/9580682977",
      "properties": {
        "timestamp": "2022-03-15T13:36:06Z",
        "version": 1,
        "changeset": 118512068,
        "email": "pousadaarace@gmail.com",
        "internet_access": "yes",
        "mobile": "+55 27 99986 1386",
        "name": "Pousada Aracê",
        "phone": "+55 27 3248 1386",
        "tourism": "hotel",
        "website": "www.pousadaarace.com.br",
        "id": "node/9580682977"
      },
      "geometry": {
        "type": "Point",
        "coordinates": [
          -41.0000784,
          -20.3923968
        ]
      }
    },
    {
      "type": "Feature",
      "id": "node/9581804008",
      "properties": {
        "timestamp": "2022-03-15T23:10:12Z",
        "version": 1,
        "changeset": 118530197,
        "addr:city": "Domingos Martins",
        "addr:postcode": "29260-000",
        "addr:street": "Avenida Hermínio Uliana",
        "addr:suburb": "Aracê",
        "email": "contato@pousadapontadapedra.com.br",
        "internet_access": "yes",
        "name": "Pousada e Restaurante Ponta da Pedra",
        "phone": "+55 27 3248 1713",
        "rooms": "12",
        "tourism": "hotel",
        "website": "www.pousadapontadapedra.com.br",
        "id": "node/9581804008"
      },
      "geometry": {
        "type": "Point",
        "coordinates": [
          -41.005291,
          -20.3800409
        ]
      }
    },
    {
      "type": "Feature",
      "id": "node/9583381348",
      "properties": {
        "timestamp": "2022-03-16T16:13:38Z",
        "version": 1,
        "changeset": 118558310,
        "addr:city": "Domingos Martins",
        "addr:housenumber": "km 01",
        "addr:postcode": "29260-000",
        "addr:street": "Rota do Lagarto",
        "addr:suburb": "Pedra Azul",
        "email": "reservas@ppazul.com",
        "internet_access": "yes",
        "mobile": "+55 27 99222 5626",
        "name": "Pousada Pedra Azul",
        "phone": "+55 27 3248 1101",
        "rooms": "40",
        "tourism": "hotel",
        "website": "www.ppazul.com",
        "id": "node/9583381348"
      },
      "geometry": {
        "type": "Point",
        "coordinates": [
          -41.0271507,
          -20.3901398
        ]
      }
    },
    {
      "type": "Feature",
      "id": "node/9583381461",
      "properties": {
        "timestamp": "2022-03-16T16:13:38Z",
        "version": 1,
        "changeset": 118558310,
        "addr:city": "Domingos Martins",
        "addr:housenumber": "km 03",
        "addr:postcode": "29260-000",
        "addr:street": "Rodovia Ângelo Girardi",
        "addr:suburb": "Pedra Azul",
        "email": "pousadatrefiori@gmail.com",
        "mobile": "+55 27 99700 1124",
        "name": "Pousada Tre Fiori",
        "phone": "+55 27 3248 1124",
        "rooms": "12",
        "tourism": "hotel",
        "id": "node/9583381461"
      },
      "geometry": {
        "type": "Point",
        "coordinates": [
          -41.0322951,
          -20.4016961
        ]
      }
    },
    {
      "type": "Feature",
      "id": "node/9583381462",
      "properties": {
        "timestamp": "2022-03-16T16:13:38Z",
        "version": 1,
        "changeset": 118558310,
        "addr:city": "Domingos Martins",
        "addr:housenumber": "km 07",
        "addr:postcode": "29260-000",
        "addr:street": "Rodovia Ângelo Girardi",
        "addr:suburb": "São Paulinho do Aracê",
        "email": "pousadavaledamata@gmail.com",
        "name": "Pousada Vale da Mata",
        "phone": "+55 27 3248 2143",
        "rooms": "12",
        "tourism": "hotel",
        "website": "www.pousadavaledamata.com.br",
        "id": "node/9583381462"
      },
      "geometry": {
        "type": "Point",
        "coordinates": [
          -41.0524999,
          -20.4062077
        ]
      }
    },
    {
      "type": "Feature",
      "id": "node/9583486101",
      "properties": {
        "timestamp": "2022-04-10T20:43:52Z",
        "version": 2,
        "changeset": 119550630,
        "addr:city": "Domingos Martins",
        "addr:housenumber": "km 90",
        "addr:postcode": "29260-000",
        "addr:street": "Estrada para Pousada dos Pinhos",
        "addr:suburb": "Pedra Azul",
        "email": "reservas@pousadadospinhos.com.br",
        "internet_access": "yes",
        "mobile": "+55 27 99742 6398",
        "name": "Pousada dos Pinhos",
        "phone": "+55 27 3248 1115",
        "rooms": "86",
        "tourism": "hotel",
        "website": "https://www.pousadadospinhos.com.br/",
        "id": "node/9583486101"
      },
      "geometry": {
        "type": "Point",
        "coordinates": [
          -41.0401301,
          -20.3822924
        ]
      }
    },
    {
      "type": "Feature",
      "id": "node/9586135334",
      "properties": {
        "timestamp": "2022-03-17T18:44:16Z",
        "version": 1,
        "changeset": 118606793,
        "addr:city": "Domingos Martins",
        "addr:postcode": "29260-000",
        "addr:suburb": "Nossa Senhora do Carmo",
        "email": "ecopousadaquaresmeiras@gmail.com",
        "name": "Eco Pousada Quaresmeiras",
        "phone": "+55 27 99777 4747",
        "rooms": "12",
        "tourism": "hotel",
        "website": "www.ecopousadaquaresmeiras.com.br",
        "id": "node/9586135334"
      },
      "geometry": {
        "type": "Point",
        "coordinates": [
          -41.0214026,
          -20.3468896
        ]
      }
    },
    {
      "type": "Feature",
      "id": "node/9586135335",
      "properties": {
        "timestamp": "2022-03-17T18:44:16Z",
        "version": 1,
        "changeset": 118606793,
        "addr:city": "Domingos Martins",
        "addr:postcode": "292260-000",
        "addr:suburb": "Nossa Senhora do Carmo",
        "email": "pousadavistapedraazul@hotmail.com",
        "name": "Pousada Vista Pedra Azul",
        "phone": "+55 27 99782 3233;+55 27 99701 4448",
        "rooms": "15",
        "tourism": "hotel",
        "id": "node/9586135335"
      },
      "geometry": {
        "type": "Point",
        "coordinates": [
          -41.0220477,
          -20.3401862
        ]
      }
    },
    {
      "type": "Feature",
      "id": "node/9586135337",
      "properties": {
        "timestamp": "2022-03-17T18:44:16Z",
        "version": 1,
        "changeset": 118606793,
        "addr:city": "Domingos Martins",
        "addr:postcode": "29260-000",
        "addr:suburb": "Nossa Senhora do Carmo",
        "email": "pousadavaleducarmo@gmail.com",
        "name": "Pousada Vale Du’Carmo",
        "phone": "+55 27 99842 5781",
        "tourism": "hotel",
        "website": "http://pousadavaleducarmo.com.br/",
        "id": "node/9586135337"
      },
      "geometry": {
        "type": "Point",
        "coordinates": [
          -41.0214016,
          -20.3388919
        ]
      }
    },
    {
      "type": "Feature",
      "id": "node/9595692071",
      "properties": {
        "timestamp": "2022-03-21T20:09:18Z",
        "version": 1,
        "changeset": 118751183,
        "addr:city": "Domingos Martins",
        "addr:postcode": "29260-000",
        "addr:street": "Rodovia Federal Deputado Aloízio Santos",
        "addr:suburb": "Vivendas de Pedra Azul",
        "email": "pousadapedradamontanha@gmail.com",
        "name": "Pousada Pedra da Montanha",
        "phone": "+55 27 99615 3679",
        "rooms": "16",
        "tourism": "hotel",
        "id": "node/9595692071"
      },
      "geometry": {
        "type": "Point",
        "coordinates": [
          -41.0537306,
          -20.3758426
        ]
      }
    },
    {
      "type": "Feature",
      "id": "node/9595692075",
      "properties": {
        "timestamp": "2022-03-21T20:09:18Z",
        "version": 1,
        "changeset": 118751183,
        "addr:city": "Domingos Martins",
        "addr:postcode": "29260-000",
        "addr:suburb": "São Paulo do Aracê",
        "email": "estacaopedraazul@gmail.com",
        "mobile": "+55 28 99999 2240",
        "name": "Pousada Estação Pedra Azul",
        "phone": "+55 27 3248 2199",
        "rooms": "5",
        "tourism": "hotel",
        "website": "www.estacaopedraazul.com.br",
        "id": "node/9595692075"
      },
      "geometry": {
        "type": "Point",
        "coordinates": [
          -41.0592282,
          -20.4120625
        ]
      }
    },
    {
      "type": "Feature",
      "id": "node/9595692076",
      "properties": {
        "timestamp": "2022-03-21T20:09:18Z",
        "version": 1,
        "changeset": 118751183,
        "addr:city": "Domingos Martins",
        "addr:postcode": "29260-000",
        "addr:suburb": "São Paulo do Aracê",
        "email": "contato@pousadaaargau.com.br",
        "mobile": "+55 27 99932 4149",
        "name": "Pousada Aargau",
        "phone": "+55 27 3248 2175",
        "rooms": "10",
        "tourism": "hotel",
        "website": "www.pousadaaargau.com.br",
        "id": "node/9595692076"
      },
      "geometry": {
        "type": "Point",
        "coordinates": [
          -41.050196,
          -20.431385
        ]
      }
    },
    {
      "type": "Feature",
      "id": "node/9595692077",
      "properties": {
        "timestamp": "2022-03-21T20:09:18Z",
        "version": 1,
        "changeset": 118751183,
        "addr:city": "Domingos Martins",
        "addr:postcode": "29260-000",
        "addr:street": "Rodovia Estadual Governador Nestor Gomes",
        "addr:suburb": "São Paulo do Aracê",
        "email": "viverte@outlook.com.br",
        "mobile": "+55 27 99945 5010;+55 27 99932-6920",
        "name": "Vivenda Verde",
        "phone": "+55 27 3248 2227",
        "rooms": "4",
        "tourism": "hotel",
        "id": "node/9595692077"
      },
      "geometry": {
        "type": "Point",
        "coordinates": [
          -41.0352561,
          -20.4337074
        ]
      }
    },
    {
      "type": "Feature",
      "id": "node/9595692078",
      "properties": {
        "timestamp": "2022-03-21T20:09:18Z",
        "version": 1,
        "changeset": 118751183,
        "addr:city": "Domingos Martins",
        "addr:postcode": "29278-000",
        "addr:street": "Rodovia Estadual Sebastião Alves de Lima",
        "addr:suburb": "São Bento",
        "email": "contato@sitiodospalmitos.com.br",
        "name": "Sítio dos Palmitos",
        "phone": "+55 27 3248 3163",
        "rooms": "4",
        "tourism": "hotel",
        "website": "www.sitiodospalmitos.com.br",
        "id": "node/9595692078"
      },
      "geometry": {
        "type": "Point",
        "coordinates": [
          -41.0431408,
          -20.3367795
        ]
      }
    },
    {
      "type": "Feature",
      "id": "node/9595692080",
      "properties": {
        "timestamp": "2022-05-17T13:43:44Z",
        "version": 2,
        "changeset": 121101816,
        "addr:city": "Domingos Martins",
        "addr:postcode": "29278-000",
        "addr:suburb": "São Bento",
        "email": "reservas@domaine.com.br",
        "internet_access": "yes",
        "mobile": "+55 27 99523 0316",
        "name": "Chez Domaine Pousada Orgânica",
        "phone": "+55 27 3248 3124",
        "rooms": "18",
        "tourism": "hotel",
        "website": "https://www.domaine.com.br/",
        "id": "node/9595692080"
      },
      "geometry": {
        "type": "Point",
        "coordinates": [
          -41.0560996,
          -20.3092411
        ]
      }
    },
    {
      "type": "Feature",
      "id": "node/9595692081",
      "properties": {
        "timestamp": "2022-03-21T20:09:18Z",
        "version": 1,
        "changeset": 118751183,
        "addr:city": "Domingos Martins",
        "addr:postcode": "29278-000",
        "addr:suburb": "Barcelos",
        "email": "pousadafimdapicada@gmail.com",
        "name": "Pousada Fim da Picada",
        "phone": "+55 27 99727 6667",
        "rooms": "6",
        "tourism": "hotel",
        "website": "www.pousadafimdapicada.com.br",
        "id": "node/9595692081"
      },
      "geometry": {
        "type": "Point",
        "coordinates": [
          -41.0663575,
          -20.3033652
        ]
      }
    },
    {
      "type": "Feature",
      "id": "node/9595692083",
      "properties": {
        "timestamp": "2023-11-13T22:29:49Z",
        "version": 2,
        "changeset": 143989089,
        "addr:city": "Domingos Martins",
        "addr:postcode": "29278-000",
        "addr:street": "Rodovia Federal Deputado Aloízio Santos",
        "addr:suburb": "Fazenda do Estado",
        "email": "contato@ecodafloresta.com.br",
        "internet_access": "yes",
        "name": "Hotel Eco da Floresta",
        "phone": "+55 27 3248 1196",
        "rooms": "90",
        "tourism": "hotel",
        "website": "https://www.ecodafloresta.com.br/",
        "id": "node/9595692083"
      },
      "geometry": {
        "type": "Point",
        "coordinates": [
          -41.0703177,
          -20.3723416
        ]
      }
    },
    {
      "type": "Feature",
      "id": "node/12132301734",
      "properties": {
        "timestamp": "2024-08-23T16:51:38Z",
        "version": 1,
        "changeset": 155663144,
        "name": "Hotel Sítio Prata",
        "tourism": "hotel",
        "id": "node/12132301734"
      },
      "geometry": {
        "type": "Point",
        "coordinates": [
          -40.8226619,
          -20.3678529
        ]
      }
    }
  ]
}
