{
  "type": "FeatureCollection",
  "features": [
    {
      "type": "Feature",
      "id": "node/2396385542",
      "properties": {
        "timestamp": "2022-03-17T17:37:08Z",
        "version": 2,
        "changeset": 118604856,
        "addr:city": "Domingos Martins",
        "addr:postcode": "29260-000",
        "addr:street": "Avenida Módulo",
        "addr:suburb": "Pedra Azul",
        "amenity": "pharmacy",
        "healthcare": "pharmacy",
        "name": "Farmácia Cidade",
        "id": "node/2396385542"
      },
      "geometry": {
        "type": "Point",
        "coordinates": [
          -41.0322355,
          -20.3791069
        ]
      }
    },
    {
      "type": "Feature",
      "id": "node/9552519337",
      "properties": {
        "timestamp": "2022-03-03T19:32:16Z",
        "version": 1,
        "changeset": 118068110,
        "addr:city": "Domingos Martins",
        "addr:postcode": "29260-000",
        "addr:street": "Avenida Adelson Plaster",
        "addr:suburb": "Melgaço",
        "amenity": "pharmacy",
        "dispensing": "yes",
        "healthcare": "pharmacy",
        "mobile": "+55 27 99893 8967",
        "name": "Drogaria Marifarma",
        "id": "node/9552519337"
      },
      "geometry": {
        "type": "Point",
        "coordinates": [
          -40.7613212,
          -20.1880615
        ]
      }
    }
  ]
}
