{
  "type": "FeatureCollection",
  "features": [
    {
      "type": "Feature",
      "id": "way/1033880087",
      "properties": {
        "timestamp": "2022-02-21T16:08:31Z",
        "version": 1,
        "changeset": 117689027,
        "amenity": "school",
        "id": "way/1033880087"
      },
      "geometry": {
        "type": "Polygon",
        "coordinates": [
          [
            [
              -48.4103883,
              -9.5518897
            ],
            [
              -48.4106213,
              -9.5525909
            ],
            [
              -48.4105919,
              -9.5526318
            ],
            [
              -48.4096616,
              -9.552676
            ],
            [
              -48.4094752,
              -9.5521586
            ],
            [
              -48.4103883,
              -9.5518897
            ]
          ]
        ]
      }
    },
    {
      "type": "Feature",
      "id": "way/1033880088",
      "properties": {
        "timestamp": "2022-02-21T16:08:31Z",
        "version": 1,
        "changeset": 117689027,
        "amenity": "school",
        "id": "way/1033880088"
      },
      "geometry": {
        "type": "Polygon",
        "coordinates": [
          [
            [
              -48.4012013,
              -9.554105
            ],
            [
              -48.4018515,
              -9.5537478
            ],
            [
              -48.4020651,
              -9.5540482
            ],
            [
              -48.4014372,
              -9.5544842
            ],
            [
              -48.4012013,
              -9.554105
            ]
          ]
        ]
      }
    },
    {
      "type": "Feature",
      "id": "way/1033881225",
      "properties": {
        "timestamp": "2025-03-17T01:57:44Z",
        "version": 2,
        "changeset": 163712122,
        "addr:city": "Miracema do Tocantins",
        "addr:housenumber": "101",
        "addr:postcode": "77650-000",
        "addr:street": "Rua Colégio Tocantins",
        "addr:suburb": "Centro",
        "amenity": "school",
        "name": "Colégio Tocantins",
        "phone": "+55 63 3366 1218",
        "id": "way/1033881225"
      },
      "geometry": {
        "type": "Polygon",
        "coordinates": [
          [
            [
              -48.3873765,
              -9.5681003
            ],
            [
              -48.3876984,
              -9.5689519
            ],
            [
              -48.3866738,
              -9.5693037
            ],
            [
              -48.3863787,
              -9.56846
            ],
            [
              -48.3873765,
              -9.5681003
            ]
          ]
        ]
      }
    },
    {
      "type": "Feature",
      "id": "way/1033906741",
      "properties": {
        "timestamp": "2022-02-21T16:51:19Z",
        "version": 1,
        "changeset": 117690905,
        "addr:city": "Miracema do Tocantins",
        "addr:housenumber": "79",
        "addr:postcode": "77650-000",
        "addr:street": "Travessa Treze de Maio",
        "addr:suburb": "Centro",
        "amenity": "school",
        "name": "Col Militar Do Estado Do Tocantins - Santa Terezinha",
        "phone": "+55 63 3366 2350",
        "id": "way/1033906741"
      },
      "geometry": {
        "type": "Polygon",
        "coordinates": [
          [
            [
              -48.3895276,
              -9.5647465
            ],
            [
              -48.3896457,
              -9.5651618
            ],
            [
              -48.389018,
              -9.5653813
            ],
            [
              -48.3888973,
              -9.5649555
            ],
            [
              -48.3895276,
              -9.5647465
            ]
          ]
        ]
      }
    },
    {
      "type": "Feature",
      "id": "way/1033907616",
      "properties": {
        "timestamp": "2022-02-21T16:53:26Z",
        "version": 1,
        "changeset": 117690975,
        "addr:city": "Miracema do Tocantins",
        "addr:housenumber": "555",
        "addr:postcode": "77650-000",
        "addr:street": "Rua Elite",
        "amenity": "school",
        "name": "Esc Municipal De Educacao Infantil Professora Dalva Cerqueira Brito",
        "phone": "+55 63 3366 1622",
        "id": "way/1033907616"
      },
      "geometry": {
        "type": "Polygon",
        "coordinates": [
          [
            [
              -48.3864793,
              -9.5589785
            ],
            [
              -48.3865414,
              -9.5592225
            ],
            [
              -48.3860334,
              -9.5593734
            ],
            [
              -48.3859366,
              -9.5591447
            ],
            [
              -48.3864793,
              -9.5589785
            ]
          ]
        ]
      }
    },
    {
      "type": "Feature",
      "id": "way/1033908039",
      "properties": {
        "timestamp": "2022-02-21T16:55:23Z",
        "version": 1,
        "changeset": 117691035,
        "addr:city": "Miracema do Tocantins",
        "addr:housenumber": "1571",
        "addr:postcode": "77650-000",
        "addr:street": "Avenida Industrial",
        "addr:suburb": "Vila Maria",
        "amenity": "school",
        "name": "Escola Estadual Oscar Sardinha",
        "phone": "+55 63 3366 2170",
        "id": "way/1033908039"
      },
      "geometry": {
        "type": "Polygon",
        "coordinates": [
          [
            [
              -48.3963735,
              -9.5584172
            ],
            [
              -48.3964922,
              -9.5587922
            ],
            [
              -48.3960898,
              -9.5589161
            ],
            [
              -48.3959712,
              -9.558541
            ],
            [
              -48.3963735,
              -9.5584172
            ]
          ]
        ]
      }
    },
    {
      "type": "Feature",
      "id": "way/1033908735",
      "properties": {
        "timestamp": "2022-02-21T16:59:21Z",
        "version": 1,
        "changeset": 117691180,
        "addr:city": "Miracema do Tocantins",
        "addr:housenumber": "176",
        "addr:postcode": "77650-000",
        "addr:street": "Rua Hozana Gonçalves Cavalcante",
        "amenity": "school",
        "name": "Centro De Ensino Medio Dona Filomena Moreira De Paula",
        "id": "way/1033908735"
      },
      "geometry": {
        "type": "Polygon",
        "coordinates": [
          [
            [
              -48.4073862,
              -9.5597515
            ],
            [
              -48.4076419,
              -9.5605185
            ],
            [
              -48.4068975,
              -9.5607598
            ],
            [
              -48.406642,
              -9.5599927
            ],
            [
              -48.4073862,
              -9.5597515
            ]
          ]
        ]
      }
    },
    {
      "type": "Feature",
      "id": "way/1033909532",
      "properties": {
        "timestamp": "2022-02-21T17:03:16Z",
        "version": 1,
        "changeset": 117691337,
        "addr:city": "Miracema do Tocantins",
        "addr:housenumber": "202",
        "addr:postcode": "77650-000",
        "addr:street": "Avenida Salvador Noleto",
        "addr:suburb": "Canaã",
        "amenity": "school",
        "name": "Escola Estadual Onesina Bandeira",
        "phone": "+55 63 3366 3921",
        "id": "way/1033909532"
      },
      "geometry": {
        "type": "Polygon",
        "coordinates": [
          [
            [
              -48.4112789,
              -9.5624574
            ],
            [
              -48.4114379,
              -9.562968
            ],
            [
              -48.41098,
              -9.5631067
            ],
            [
              -48.4109236,
              -9.5630829
            ],
            [
              -48.4107762,
              -9.5626097
            ],
            [
              -48.4112789,
              -9.5624574
            ]
          ]
        ]
      }
    },
    {
      "type": "Feature",
      "id": "way/1033909916",
      "properties": {
        "timestamp": "2022-02-21T17:05:22Z",
        "version": 1,
        "changeset": 117691411,
        "addr:city": "Miracema do Tocantins",
        "addr:postcode": "77650-000",
        "addr:street": "Avenida Salomão Tomas de Matos",
        "addr:suburb": "Setor Universitário",
        "amenity": "school",
        "name": "Escola Municipal De Educacao Infantil Vilmar Vasconcelos Feitosa",
        "id": "way/1033909916"
      },
      "geometry": {
        "type": "Polygon",
        "coordinates": [
          [
            [
              -48.4060882,
              -9.5724067
            ],
            [
              -48.405869,
              -9.572632
            ],
            [
              -48.405609,
              -9.5723994
            ],
            [
              -48.4058505,
              -9.572154
            ],
            [
              -48.4060882,
              -9.5724067
            ]
          ]
        ]
      }
    },
    {
      "type": "Feature",
      "id": "way/1033910469",
      "properties": {
        "timestamp": "2022-02-21T17:07:34Z",
        "version": 1,
        "changeset": 117691500,
        "addr:city": "Miracema do Tocantins",
        "addr:postcode": "77650-000",
        "addr:street": "Rua 30",
        "addr:suburb": "Setor Universitário",
        "amenity": "school",
        "name": "Escola Municipal De Ensino Fundamental Francisco Martins Noleto",
        "phone": "+55 63 3366 1419",
        "id": "way/1033910469"
      },
      "geometry": {
        "type": "Polygon",
        "coordinates": [
          [
            [
              -48.4057577,
              -9.5757333
            ],
            [
              -48.4057684,
              -9.5757968
            ],
            [
              -48.4049986,
              -9.5766326
            ],
            [
              -48.4049289,
              -9.5766273
            ],
            [
              -48.4045883,
              -9.5763073
            ],
            [
              -48.4047706,
              -9.575982
            ],
            [
              -48.4044246,
              -9.5757281
            ],
            [
              -48.4046124,
              -9.5747415
            ],
            [
              -48.404658,
              -9.5747389
            ],
            [
              -48.4057577,
              -9.5757333
            ]
          ]
        ]
      }
    },
    {
      "type": "Feature",
      "id": "way/1033910781",
      "properties": {
        "timestamp": "2022-02-21T17:08:49Z",
        "version": 1,
        "changeset": 117691546,
        "addr:city": "Miracema do Tocantins",
        "addr:housenumber": "1820",
        "addr:postcode": "77650-000",
        "addr:street": "Rua Osvaldo Vasconcelos",
        "addr:suburb": "Centro",
        "amenity": "school",
        "name": "Esc Est Jose Damasceno Vasconcelosq",
        "phone": "+55 63 3366 1254",
        "id": "way/1033910781"
      },
      "geometry": {
        "type": "Polygon",
        "coordinates": [
          [
            [
              -48.3949029,
              -9.5733638
            ],
            [
              -48.3950599,
              -9.5739525
            ],
            [
              -48.3948153,
              -9.5740159
            ],
            [
              -48.3947377,
              -9.573725
            ],
            [
              -48.3942044,
              -9.5738634
            ],
            [
              -48.394125,
              -9.5735655
            ],
            [
              -48.3949029,
              -9.5733638
            ]
          ]
        ]
      }
    },
    {
      "type": "Feature",
      "id": "way/1033911123",
      "properties": {
        "timestamp": "2022-02-21T17:09:27Z",
        "version": 1,
        "changeset": 117691579,
        "amenity": "school",
        "name": "Escola Municipal De Ensino Fundamental Brigadeiro Lisias Rodrigues",
        "id": "way/1033911123"
      },
      "geometry": {
        "type": "Polygon",
        "coordinates": [
          [
            [
              -48.4008117,
              -9.5869155
            ],
            [
              -48.4010799,
              -9.5874921
            ],
            [
              -48.4005649,
              -9.5877328
            ],
            [
              -48.4002672,
              -9.5871826
            ],
            [
              -48.4008117,
              -9.5869155
            ]
          ]
        ]
      }
    },
    {
      "type": "Feature",
      "id": "way/1038370304",
      "properties": {
        "timestamp": "2022-03-08T21:40:45Z",
        "version": 1,
        "changeset": 118253725,
        "amenity": "school",
        "name": "Escola Municipal De Educacao Do Campo Boanerges Moreira De Paula",
        "phone": "+55 63 3366 3058",
        "id": "way/1038370304"
      },
      "geometry": {
        "type": "Polygon",
        "coordinates": [
          [
            [
              -48.5933621,
              -9.6962186
            ],
            [
              -48.5934265,
              -9.6966363
            ],
            [
              -48.593051,
              -9.6966971
            ],
            [
              -48.5930081,
              -9.6962688
            ],
            [
              -48.5933621,
              -9.6962186
            ]
          ]
        ]
      }
    },
    {
      "type": "Feature",
      "id": "way/1038387884",
      "properties": {
        "timestamp": "2022-03-08T23:29:43Z",
        "version": 1,
        "changeset": 118255924,
        "amenity": "school",
        "name": "Esc Municipal De Educacao Do Campo Vale Do Tocantins",
        "phone": "+55 63 3366 3058",
        "id": "way/1038387884"
      },
      "geometry": {
        "type": "Polygon",
        "coordinates": [
          [
            [
              -48.5480307,
              -10.0134186
            ],
            [
              -48.5473864,
              -10.014027
            ],
            [
              -48.5467556,
              -10.0133791
            ],
            [
              -48.5474,
              -10.0127708
            ],
            [
              -48.5480307,
              -10.0134186
            ]
          ]
        ]
      }
    },
    {
      "type": "Feature",
      "id": "node/9524912258",
      "properties": {
        "timestamp": "2022-02-21T16:52:33Z",
        "version": 1,
        "changeset": 117690941,
        "amenity": "school",
        "name": "Centro Municipal De Educacao Infantil Dona Regina",
        "id": "node/9524912258"
      },
      "geometry": {
        "type": "Point",
        "coordinates": [
          -48.3905844,
          -9.5605569
        ]
      }
    },
    {
      "type": "Feature",
      "id": "node/9524949205",
      "properties": {
        "timestamp": "2022-02-21T16:51:37Z",
        "version": 1,
        "changeset": 117690915,
        "amenity": "school",
        "name": "Centro Educacional Mundo Feliz",
        "id": "node/9524949205"
      },
      "geometry": {
        "type": "Point",
        "coordinates": [
          -48.3908553,
          -9.5613319
        ]
      }
    },
    {
      "type": "Feature",
      "id": "node/9524949648",
      "properties": {
        "timestamp": "2022-02-21T16:50:15Z",
        "version": 1,
        "changeset": 117690873,
        "addr:city": "Miracema do Tocantins",
        "addr:housenumber": "1330",
        "addr:postcode": "77650-000",
        "addr:street": "Rua Maranhão",
        "addr:suburb": "Centro",
        "amenity": "school",
        "name": "Centro Educacional Tia Ana",
        "id": "node/9524949648"
      },
      "geometry": {
        "type": "Point",
        "coordinates": [
          -48.3905254,
          -9.5671931
        ]
      }
    },
    {
      "type": "Feature",
      "id": "node/9524967893",
      "properties": {
        "timestamp": "2022-02-21T17:04:38Z",
        "version": 1,
        "changeset": 117691387,
        "addr:city": "Miracema do Tocantins",
        "addr:postcode": "77650-000",
        "addr:street": "Avenida Alzelino Luz",
        "addr:suburb": "Setor Universitário",
        "amenity": "school",
        "name": "Centro Municipal De Educacao Infantil Dona Maracaipe",
        "id": "node/9524967893"
      },
      "geometry": {
        "type": "Point",
        "coordinates": [
          -48.4065865,
          -9.5723215
        ]
      }
    },
    {
      "type": "Feature",
      "id": "node/9524972040",
      "properties": {
        "timestamp": "2022-02-21T17:00:31Z",
        "version": 1,
        "changeset": 117691237,
        "addr:city": "Miracema do Tocantins",
        "addr:housenumber": "507",
        "addr:postcode": "77650-000",
        "addr:street": "Rua Dois",
        "amenity": "school",
        "name": "Estacao Da Crianca",
        "id": "node/9524972040"
      },
      "geometry": {
        "type": "Point",
        "coordinates": [
          -48.4062834,
          -9.5630009
        ]
      }
    },
    {
      "type": "Feature",
      "id": "node/9524972041",
      "properties": {
        "timestamp": "2022-02-21T17:01:12Z",
        "version": 1,
        "changeset": 117691262,
        "addr:city": "Miracema do Tocantins",
        "addr:housenumber": "577",
        "addr:postcode": "77650-000",
        "addr:street": "Rua Três",
        "amenity": "school",
        "name": "Centro Educacional Flor De Lirio",
        "phone": "+55 63 3366 3067",
        "id": "node/9524972041"
      },
      "geometry": {
        "type": "Point",
        "coordinates": [
          -48.4068654,
          -9.5637335
        ]
      }
    },
    {
      "type": "Feature",
      "id": "node/9524972717",
      "properties": {
        "timestamp": "2022-02-21T16:57:45Z",
        "version": 1,
        "changeset": 117691115,
        "addr:city": "Miracema do Tocantins",
        "addr:housenumber": "780",
        "addr:postcode": "77650-000",
        "addr:street": "Avenida Rio Branco",
        "addr:suburb": "Santa Filomena",
        "amenity": "school",
        "name": "Associacao De Apoio A Esc Especial Um Raio De Luz",
        "phone": "+55 63 3366 1392",
        "id": "node/9524972717"
      },
      "geometry": {
        "type": "Point",
        "coordinates": [
          -48.4052132,
          -9.5564943
        ]
      }
    },
    {
      "type": "Feature",
      "id": "node/9562752166",
      "properties": {
        "timestamp": "2022-03-08T14:25:13Z",
        "version": 1,
        "changeset": 118238914,
        "addr:city": "Miracema do Tocantins",
        "addr:postcode": "77650-000",
        "addr:street": "Avenida Anora Ribeiro",
        "addr:suburb": "Setor Brasil",
        "amenity": "school",
        "name": "Centro Municipal De Educacao Infantil Isis Sardinha Moraes",
        "phone": "+55 63 3366 1939",
        "id": "node/9562752166"
      },
      "geometry": {
        "type": "Point",
        "coordinates": [
          -48.4101229,
          -9.5515111
        ]
      }
    }
  ]
}
