{
  "type": "FeatureCollection",
  "features": [
    {
      "type": "Feature",
      "id": "way/390105701",
      "properties": {
        "timestamp": "2023-10-26T13:24:37Z",
        "version": 3,
        "changeset": 143162568,
        "addr:city": "Igarapé",
        "addr:postcode": "32900000",
        "addr:street": "Avenida Professor Clóvis Salgado",
        "addr:suburb": "União",
        "building": "yes",
        "government": "transportation",
        "name": "Igaratrans",
        "office": "government",
        "id": "way/390105701"
      },
      "geometry": {
        "type": "Polygon",
        "coordinates": [
          [
            [
              -44.3182653,
              -20.066129
            ],
            [
              -44.3184511,
              -20.0664191
            ],
            [
              -44.3180529,
              -20.0666549
            ],
            [
              -44.3176789,
              -20.06612
            ],
            [
              -44.3180409,
              -20.0660202
            ],
            [
              -44.3182653,
              -20.066129
            ]
          ]
        ]
      }
    },
    {
      "type": "Feature",
      "id": "way/1218094370",
      "properties": {
        "timestamp": "2023-10-24T18:56:28Z",
        "version": 1,
        "changeset": 143079417,
        "addr:city": "Igarapé",
        "addr:housenumber": "421",
        "addr:postcode": "32900000",
        "addr:street": "Rua Joaquim Ribeiro",
        "addr:suburb": "Padre Eustáquio",
        "building": "yes",
        "government": "forestry",
        "name": "Centro de Referência Ambiental Irmão SOl, Irmã Lua",
        "office": "government",
        "id": "way/1218094370"
      },
      "geometry": {
        "type": "Polygon",
        "coordinates": [
          [
            [
              -44.3047804,
              -20.0664223
            ],
            [
              -44.3047311,
              -20.0665757
            ],
            [
              -44.3045832,
              -20.0665323
            ],
            [
              -44.3046048,
              -20.066402
            ],
            [
              -44.3047804,
              -20.0664223
            ]
          ]
        ]
      }
    },
    {
      "type": "Feature",
      "id": "way/1218527393",
      "properties": {
        "timestamp": "2023-10-26T13:24:37Z",
        "version": 1,
        "changeset": 143162568,
        "addr:city": "Igarapé",
        "addr:housenumber": "787",
        "addr:postcode": "32900000",
        "addr:street": "Rua Altidório Amaral",
        "addr:suburb": "Cidade Jardim",
        "building": "yes",
        "government": "prosecutor",
        "name": "Ministério Público do Estado de Minas Gerais",
        "office": "government",
        "id": "way/1218527393"
      },
      "geometry": {
        "type": "Polygon",
        "coordinates": [
          [
            [
              -44.3032727,
              -20.0673885
            ],
            [
              -44.3033558,
              -20.0675144
            ],
            [
              -44.3031251,
              -20.0676429
            ],
            [
              -44.3030474,
              -20.0675321
            ],
            [
              -44.3032727,
              -20.0673885
            ]
          ]
        ]
      }
    },
    {
      "type": "Feature",
      "id": "node/11291020961",
      "properties": {
        "timestamp": "2023-10-26T13:44:09Z",
        "version": 1,
        "changeset": 143163393,
        "addr:city": "Igarapé",
        "addr:housenumber": "468",
        "addr:postcode": "32900000",
        "addr:street": "Rua Manoel Franco Amaral",
        "addr:suburb": "Cidade Jardim",
        "government": "register_office",
        "name": "Cartório Eleitoral - TRE",
        "office": "government",
        "id": "node/11291020961"
      },
      "geometry": {
        "type": "Point",
        "coordinates": [
          -44.3033307,
          -20.0683244
        ]
      }
    },
    {
      "type": "Feature",
      "id": "node/11291020966",
      "properties": {
        "timestamp": "2023-10-26T13:44:09Z",
        "version": 1,
        "changeset": 143163393,
        "addr:city": "Igarapé",
        "addr:housenumber": "285",
        "addr:postcode": "32900000",
        "addr:street": "Rua Manoel Franco Amaral",
        "addr:suburb": "Cidade Jardim",
        "government": "administrative",
        "name": "Procon da Câmara",
        "office": "government",
        "id": "node/11291020966"
      },
      "geometry": {
        "type": "Point",
        "coordinates": [
          -44.302112,
          -20.0668888
        ]
      }
    }
  ]
}
