{
  "type": "FeatureCollection",
  "features": [
    {
      "type": "Feature",
      "id": "way/33968285",
      "properties": {
        "timestamp": "2025-02-28T08:41:55Z",
        "version": 9,
        "changeset": 163041980,
        "amenity": "cinema",
        "name": "Cinemateca Brasileira",
        "old_name": "Matadouro Municipal",
        "wikidata": "Q5120822",
        "wikimedia_commons": "Category:Cinemateca Brasileira",
        "wikipedia": "pt:Cinemateca Brasileira",
        "id": "way/33968285"
      },
      "geometry": {
        "type": "Polygon",
        "coordinates": [
          [
            [
              -46.6469115,
              -23.592339
            ],
            [
              -46.6468257,
              -23.5925109
            ],
            [
              -46.6467819,
              -23.5925553
            ],
            [
              -46.6465869,
              -23.5926853
            ],
            [
              -46.6464236,
              -23.5927159
            ],
            [
              -46.6461358,
              -23.5927364
            ],
            [
              -46.6459112,
              -23.5927523
            ],
            [
              -46.6453655,
              -23.5928106
            ],
            [
              -46.645297,
              -23.5921604
            ],
            [
              -46.645329,
              -23.5921579
            ],
            [
              -46.6453257,
              -23.5921211
            ],
            [
              -46.6452919,
              -23.5921236
            ],
            [
              -46.6452746,
              -23.591933
            ],
            [
              -46.6452288,
              -23.5919365
            ],
            [
              -46.6452184,
              -23.5919373
            ],
            [
              -46.6452062,
              -23.5918022
            ],
            [
              -46.6452242,
              -23.5918008
            ],
            [
              -46.6452189,
              -23.591743
            ],
            [
              -46.6454364,
              -23.591723
            ],
            [
              -46.6454961,
              -23.5917122
            ],
            [
              -46.6455944,
              -23.5916853
            ],
            [
              -46.6456518,
              -23.5916316
            ],
            [
              -46.6456913,
              -23.5915364
            ],
            [
              -46.645683,
              -23.5912427
            ],
            [
              -46.645671,
              -23.5911253
            ],
            [
              -46.6456918,
              -23.5910793
            ],
            [
              -46.6457309,
              -23.5910703
            ],
            [
              -46.6461111,
              -23.5913094
            ],
            [
              -46.6461986,
              -23.591353
            ],
            [
              -46.6463984,
              -23.5914291
            ],
            [
              -46.6464715,
              -23.5915552
            ],
            [
              -46.6465316,
              -23.5916591
            ],
            [
              -46.6465498,
              -23.5916905
            ],
            [
              -46.6465679,
              -23.5917218
            ],
            [
              -46.6466232,
              -23.5918173
            ],
            [
              -46.6466417,
              -23.5918491
            ],
            [
              -46.6466586,
              -23.5918783
            ],
            [
              -46.6467126,
              -23.5919716
            ],
            [
              -46.6467404,
              -23.5920196
            ],
            [
              -46.6467744,
              -23.5920783
            ],
            [
              -46.6468207,
              -23.5921582
            ],
            [
              -46.6468735,
              -23.5922494
            ],
            [
              -46.6468998,
              -23.5922948
            ],
            [
              -46.6469115,
              -23.592339
            ]
          ]
        ]
      }
    },
    {
      "type": "Feature",
      "id": "way/96097803",
      "properties": {
        "timestamp": "2022-01-26T22:35:00Z",
        "version": 3,
        "changeset": 116641725,
        "amenity": "cinema",
        "brand": "Cinemark",
        "brand:wikidata": "Q707530",
        "brand:wikipedia": "en:Cinemark Theatres",
        "building": "yes",
        "name": "Cinemark SP Market",
        "id": "way/96097803"
      },
      "geometry": {
        "type": "Polygon",
        "coordinates": [
          [
            [
              -46.6999716,
              -23.6790479
            ],
            [
              -46.7002002,
              -23.6792108
            ],
            [
              -46.7000315,
              -23.6794094
            ],
            [
              -46.7001632,
              -23.6794823
            ],
            [
              -46.6995342,
              -23.6801483
            ],
            [
              -46.6991948,
              -23.6799627
            ],
            [
              -46.6999716,
              -23.6790479
            ]
          ]
        ]
      }
    },
    {
      "type": "Feature",
      "id": "way/1223669040",
      "properties": {
        "timestamp": "2023-11-15T03:13:46Z",
        "version": 1,
        "changeset": 144033592,
        "addr:city": "São Paulo",
        "addr:housenumber": "2075",
        "addr:postcode": "01413-000",
        "addr:street": "Rua Augusta",
        "addr:suburb": "Consolação",
        "amenity": "cinema",
        "name": "CineSesc",
        "wikidata": "Q37928009",
        "id": "way/1223669040"
      },
      "geometry": {
        "type": "Polygon",
        "coordinates": [
          [
            [
              -46.6624142,
              -23.5604287
            ],
            [
              -46.6624709,
              -23.5603784
            ],
            [
              -46.6625348,
              -23.5604384
            ],
            [
              -46.6624764,
              -23.5604894
            ],
            [
              -46.6624142,
              -23.5604287
            ]
          ]
        ]
      }
    },
    {
      "type": "Feature",
      "id": "node/468410598",
      "properties": {
        "timestamp": "2016-11-03T14:06:45Z",
        "version": 6,
        "changeset": 43379386,
        "amenity": "cinema",
        "name": "IMAX",
        "id": "node/468410598"
      },
      "geometry": {
        "type": "Point",
        "coordinates": [
          -46.6804223,
          -23.5266214
        ]
      }
    },
    {
      "type": "Feature",
      "id": "node/1685187730",
      "properties": {
        "timestamp": "2012-03-21T21:32:55Z",
        "version": 1,
        "changeset": 11057463,
        "amenity": "cinema",
        "name": "Centro de Eventos Vila Mariana",
        "id": "node/1685187730"
      },
      "geometry": {
        "type": "Point",
        "coordinates": [
          -46.6339004,
          -23.5914417
        ]
      }
    },
    {
      "type": "Feature",
      "id": "node/1762480441",
      "properties": {
        "timestamp": "2024-06-28T01:08:34Z",
        "version": 7,
        "changeset": 153270982,
        "addr:door": "Loja 261",
        "addr:floor": "3º Andar",
        "addr:housenumber": "2100",
        "addr:postcode": "05005-900",
        "addr:street": "Rua Turiassú",
        "amenity": "cinema",
        "email": "contato@itaucinemas.com.br",
        "name": "Espaço Itaú de Cinema Pompeia",
        "phone": "+55 11 3673-3949",
        "website": "https://www.itaucinemas.com.br/",
        "wheelchair": "yes",
        "id": "node/1762480441"
      },
      "geometry": {
        "type": "Point",
        "coordinates": [
          -46.6805886,
          -23.5266066
        ]
      }
    },
    {
      "type": "Feature",
      "id": "node/2139992513",
      "properties": {
        "timestamp": "2016-05-19T19:41:15Z",
        "version": 2,
        "changeset": 39432607,
        "barrier": "gate",
        "bicycle": "yes",
        "id": "node/2139992513"
      },
      "geometry": {
        "type": "Point",
        "coordinates": [
          -46.6461986,
          -23.591353
        ]
      }
    },
    {
      "type": "Feature",
      "id": "node/2637738326",
      "properties": {
        "timestamp": "2022-08-25T06:11:21Z",
        "version": 14,
        "changeset": 125342312,
        "alt_name": "Cine Reserva Cultural",
        "amenity": "cinema",
        "loc_name": "Cine Gazeta",
        "name": "Reserva Cultural",
        "opening_hours": "Su-Fr 10:00-22:00; Sa 10:00-00:00",
        "phone": "+55 11 3287-3529",
        "website": "https://www.reservacultural.com.br/",
        "wikidata": "Q37927913",
        "id": "node/2637738326"
      },
      "geometry": {
        "type": "Point",
        "coordinates": [
          -46.6510969,
          -23.5656271
        ]
      }
    },
    {
      "type": "Feature",
      "id": "node/2637741085",
      "properties": {
        "timestamp": "2024-06-28T01:08:35Z",
        "version": 10,
        "changeset": 153270982,
        "addr:city": "São Paulo",
        "addr:housenumber": "1475",
        "addr:postcode": "01305-100",
        "addr:street": "Rua Augusta",
        "amenity": "cinema",
        "name": "Espaço Itaú de Cinema - Augusta",
        "old_name": "Cine Majestic",
        "source": "survey,website",
        "start_date": "1947-06-11",
        "website": "https://www.itaucinemas.com.br/espaco-itau/unidades/sp-augusta",
        "wikidata": "Q37928015",
        "wikimedia_commons": "Category:Espaço Itaú de Cinema Augusta",
        "id": "node/2637741085"
      },
      "geometry": {
        "type": "Point",
        "coordinates": [
          -46.6584682,
          -23.556581
        ]
      }
    },
    {
      "type": "Feature",
      "id": "node/2682845231",
      "properties": {
        "timestamp": "2023-06-17T23:26:02Z",
        "version": 6,
        "changeset": 137463401,
        "addr:city": "São Paulo",
        "addr:housenumber": "361",
        "addr:postcode": "05416-010",
        "addr:street": "Rua Fradique Coutinho",
        "amenity": "cinema",
        "check_date": "2023-06-17",
        "name": "Cine Sala",
        "opening_hours": "Mo-Su 14:00-23:30",
        "phone": "+55 11 5096-0585",
        "website": "http://www.cinesala.com.br",
        "wheelchair": "limited",
        "id": "node/2682845231"
      },
      "geometry": {
        "type": "Point",
        "coordinates": [
          -46.6862973,
          -23.5635416
        ]
      }
    },
    {
      "type": "Feature",
      "id": "node/3653382446",
      "properties": {
        "timestamp": "2023-08-16T06:55:23Z",
        "version": 10,
        "changeset": 139947283,
        "addr:city": "São Paulo",
        "addr:housenumber": "2423",
        "addr:postcode": "01301-100",
        "addr:street": "Rua da Consolação",
        "amenity": "cinema",
        "architect": "Giancarlo Palanti",
        "contact:facebook": "https://www.facebook.com/petrabelasartes",
        "contact:instagram": "https://www.instagram.com/petrabelasartes",
        "email": "contato@cinebelasartes.com.br",
        "name": "Petra Belas Artes",
        "old_name": "Cine Belas Artes",
        "phone": "+55 11 2894-5781",
        "start_date": "1954",
        "website": "https://www.cinebelasartes.com.br",
        "wikidata": "Q37927803",
        "wikimedia_commons": "Category:Cine Belas Artes (São Paulo)",
        "id": "node/3653382446"
      },
      "geometry": {
        "type": "Point",
        "coordinates": [
          -46.6624806,
          -23.5555765
        ]
      }
    },
    {
      "type": "Feature",
      "id": "node/3782545155",
      "properties": {
        "timestamp": "2024-06-28T01:08:46Z",
        "version": 3,
        "changeset": 153270982,
        "addr:city": "São Paulo",
        "addr:housenumber": "1470",
        "addr:postcode": "01305-100",
        "addr:street": "Rua Augusta",
        "amenity": "cinema",
        "name": "Espaço Itaú de Cinema - Augusta (anexo)",
        "source": "survey,website",
        "website": "https://www.itaucinemas.com.br/espaco-itau/unidades/sp-augusta",
        "id": "node/3782545155"
      },
      "geometry": {
        "type": "Point",
        "coordinates": [
          -46.6585034,
          -23.5564114
        ]
      }
    },
    {
      "type": "Feature",
      "id": "node/3875034674",
      "properties": {
        "timestamp": "2024-06-07T21:23:21Z",
        "version": 4,
        "changeset": 152393582,
        "addr:city": "São Paulo",
        "addr:country": "BR",
        "addr:housenumber": "304",
        "addr:postcode": "03634-010",
        "addr:street": "Rua Doutor João Ribeiro",
        "addr:suburb": "Penha",
        "addr:unit": "Ancora G",
        "amenity": "cinema",
        "name": "Moviecon Penha",
        "opening_hours": "Mo-Su 14:00-22:00",
        "phone": "+55 11 2091 6300",
        "website": "https://moviecom.com.br/",
        "id": "node/3875034674"
      },
      "geometry": {
        "type": "Point",
        "coordinates": [
          -46.5463329,
          -23.5246039
        ]
      }
    },
    {
      "type": "Feature",
      "id": "node/3875034675",
      "properties": {
        "timestamp": "2023-07-17T16:31:55Z",
        "version": 3,
        "changeset": 138630025,
        "amenity": "cinema",
        "brand": "Cinemark",
        "brand:wikidata": "Q707530",
        "name": "Cinemark Tucuruvi",
        "id": "node/3875034675"
      },
      "geometry": {
        "type": "Point",
        "coordinates": [
          -46.6029375,
          -23.4804328
        ]
      }
    },
    {
      "type": "Feature",
      "id": "node/4528907389",
      "properties": {
        "timestamp": "2018-01-19T02:09:22Z",
        "version": 2,
        "changeset": 55566285,
        "amenity": "cinema",
        "id": "node/4528907389"
      },
      "geometry": {
        "type": "Point",
        "coordinates": [
          -46.6752158,
          -23.5840198
        ]
      }
    },
    {
      "type": "Feature",
      "id": "node/4557794591",
      "properties": {
        "timestamp": "2019-03-06T03:09:35Z",
        "version": 2,
        "changeset": 67828351,
        "amenity": "cinema",
        "name": "Multiplex Campo Limpo",
        "name:en": "Movietheater",
        "opening_hours": "Mo-Su 10:00-22:30",
        "website": "https://www.shoppingcampolimpo.com.br/",
        "id": "node/4557794591"
      },
      "geometry": {
        "type": "Point",
        "coordinates": [
          -46.7576206,
          -23.6493315
        ]
      }
    },
    {
      "type": "Feature",
      "id": "node/4685190638",
      "properties": {
        "timestamp": "2017-02-14T12:44:22Z",
        "version": 1,
        "changeset": 46078127,
        "addr:city": "São Paulo",
        "addr:housenumber": "767",
        "addr:postcode": "01039-000",
        "addr:street": "Avenida Ipiranga",
        "amenity": "cinema",
        "name": "Play Art",
        "id": "node/4685190638"
      },
      "geometry": {
        "type": "Point",
        "coordinates": [
          -46.6408929,
          -23.5426266
        ]
      }
    },
    {
      "type": "Feature",
      "id": "node/4698295393",
      "properties": {
        "timestamp": "2017-02-22T01:11:55Z",
        "version": 1,
        "changeset": 46291940,
        "amenity": "cinema",
        "id": "node/4698295393"
      },
      "geometry": {
        "type": "Point",
        "coordinates": [
          -46.6389723,
          -23.5434321
        ]
      }
    },
    {
      "type": "Feature",
      "id": "node/4831718247",
      "properties": {
        "timestamp": "2024-08-12T01:23:46Z",
        "version": 3,
        "changeset": 155126321,
        "addr:city": "São Paulo",
        "addr:housenumber": "1081",
        "addr:postcode": "01035-100",
        "addr:street": "Avenida São João",
        "addr:suburb": "Campos Elíseos",
        "air_conditioning": "yes",
        "amenity": "cinema",
        "internet_access": "yes",
        "name": "Cine Hot",
        "phone": "(11) 91042-2418",
        "restaurant": "no",
        "smoking": "dedicated",
        "toilets": "yes",
        "toilets:wheelchair": "no",
        "wheelchair": "no",
        "id": "node/4831718247"
      },
      "geometry": {
        "type": "Point",
        "coordinates": [
          -46.6439219,
          -23.5404681
        ]
      }
    },
    {
      "type": "Feature",
      "id": "node/4908768739",
      "properties": {
        "timestamp": "2023-07-17T16:29:54Z",
        "version": 3,
        "changeset": 138629950,
        "amenity": "cinema",
        "brand": "Cinemark",
        "brand:wikidata": "Q707530",
        "name": "Cinemark",
        "id": "node/4908768739"
      },
      "geometry": {
        "type": "Point",
        "coordinates": [
          -46.6875386,
          -23.5775671
        ]
      }
    },
    {
      "type": "Feature",
      "id": "node/5133848953",
      "properties": {
        "timestamp": "2017-09-27T20:39:45Z",
        "version": 1,
        "changeset": 52425502,
        "addr:city": "São Paulo",
        "addr:housenumber": "7579",
        "addr:street": "Avenida Marechal Tito",
        "amenity": "cinema",
        "name": "Cine Itaim Paulista",
        "id": "node/5133848953"
      },
      "geometry": {
        "type": "Point",
        "coordinates": [
          -46.3800991,
          -23.4852183
        ]
      }
    },
    {
      "type": "Feature",
      "id": "node/5747516556",
      "properties": {
        "timestamp": "2022-03-16T00:29:05Z",
        "version": 2,
        "changeset": 118531182,
        "amenity": "cinema",
        "brand": "Cinemark",
        "brand:wikidata": "Q707530",
        "brand:wikipedia": "en:Cinemark Theatres",
        "name": "Cinemark",
        "id": "node/5747516556"
      },
      "geometry": {
        "type": "Point",
        "coordinates": [
          -46.7507776,
          -23.5884891
        ]
      }
    },
    {
      "type": "Feature",
      "id": "node/5894743785",
      "properties": {
        "timestamp": "2025-01-21T06:08:10Z",
        "version": 4,
        "changeset": 161587360,
        "amenity": "cinema",
        "name": "Centerplex Lapa",
        "wikidata": "Q61678656",
        "id": "node/5894743785"
      },
      "geometry": {
        "type": "Point",
        "coordinates": [
          -46.701035,
          -23.5212413
        ]
      }
    },
    {
      "type": "Feature",
      "id": "node/6391400836",
      "properties": {
        "timestamp": "2025-01-21T06:08:18Z",
        "version": 3,
        "changeset": 161587360,
        "addr:street": "Avenida Raimundo Pereira de Magalhães",
        "amenity": "cinema",
        "name": "Cineflix Cantareira Norte Shopping",
        "website": "https://www.cineflix.com.br/programacao/cantareira-norte-shopping/",
        "wikidata": "Q105812220",
        "id": "node/6391400836"
      },
      "geometry": {
        "type": "Point",
        "coordinates": [
          -46.7228378,
          -23.4437159
        ]
      }
    },
    {
      "type": "Feature",
      "id": "node/7179057685",
      "properties": {
        "timestamp": "2022-10-15T07:12:56Z",
        "version": 2,
        "changeset": 127557390,
        "amenity": "cinema",
        "name": "Espaco Itaú Cinemas Frei Caneca",
        "id": "node/7179057685"
      },
      "geometry": {
        "type": "Point",
        "coordinates": [
          -46.6526761,
          -23.5543163
        ]
      }
    },
    {
      "type": "Feature",
      "id": "node/8313366571",
      "properties": {
        "timestamp": "2021-01-12T00:22:26Z",
        "version": 1,
        "changeset": 97334471,
        "addr:city": "São Paulo",
        "addr:housenumber": "14401",
        "addr:street": "Avenida das Nações Unidas",
        "addr:suburb": "Chácara Santo Antônio (Zona Sul)",
        "amenity": "cinema",
        "name": "Kinoplex - Parque da Cidade",
        "payment:cash": "yes",
        "payment:contactless": "yes",
        "payment:credit_cards": "yes",
        "payment:debit_cards": "yes",
        "payment:mastercard": "yes",
        "payment:visa": "yes",
        "payment:visa_electron": "yes",
        "screen": "6",
        "website": "https://www.kinoplex.com.br/",
        "id": "node/8313366571"
      },
      "geometry": {
        "type": "Point",
        "coordinates": [
          -46.7056177,
          -23.6259867
        ]
      }
    },
    {
      "type": "Feature",
      "id": "node/9456374063",
      "properties": {
        "timestamp": "2022-01-28T20:01:36Z",
        "version": 1,
        "changeset": 116721161,
        "amenity": "cinema",
        "brand": "Cinepolis",
        "brand:wikidata": "Q5686673",
        "brand:wikipedia": "en:Cinépolis",
        "name": "Cinepolis",
        "id": "node/9456374063"
      },
      "geometry": {
        "type": "Point",
        "coordinates": [
          -46.7108225,
          -23.6533293
        ]
      }
    },
    {
      "type": "Feature",
      "id": "node/9717848283",
      "properties": {
        "timestamp": "2022-05-05T11:10:30Z",
        "version": 1,
        "changeset": 120583729,
        "amenity": "cinema",
        "brand": "Cinemark",
        "brand:wikidata": "Q707530",
        "name": "Cinemark",
        "id": "node/9717848283"
      },
      "geometry": {
        "type": "Point",
        "coordinates": [
          -46.5776624,
          -23.5417793
        ]
      }
    },
    {
      "type": "Feature",
      "id": "node/10201144103",
      "properties": {
        "timestamp": "2022-11-21T04:26:56Z",
        "version": 2,
        "changeset": 129178556,
        "amenity": "cinema",
        "name": "CineHebraica",
        "id": "node/10201144103"
      },
      "geometry": {
        "type": "Point",
        "coordinates": [
          -46.6936021,
          -23.5789589
        ]
      }
    },
    {
      "type": "Feature",
      "id": "node/11809589915",
      "properties": {
        "timestamp": "2024-04-11T13:14:54Z",
        "version": 1,
        "changeset": 149864559,
        "amenity": "cinema",
        "brand": "Cinemark",
        "brand:wikidata": "Q707530",
        "name": "Cinemark",
        "id": "node/11809589915"
      },
      "geometry": {
        "type": "Point",
        "coordinates": [
          -46.5943022,
          -23.579953
        ]
      }
    },
    {
      "type": "Feature",
      "id": "node/11918453904",
      "properties": {
        "timestamp": "2024-05-19T20:27:13Z",
        "version": 1,
        "changeset": 151551144,
        "amenity": "cinema",
        "brand": "Cinépolis",
        "brand:wikidata": "Q5686673",
        "name": "Cinépolis",
        "id": "node/11918453904"
      },
      "geometry": {
        "type": "Point",
        "coordinates": [
          -46.68946,
          -23.5911808
        ]
      }
    },
    {
      "type": "Feature",
      "id": "node/12250687602",
      "properties": {
        "timestamp": "2024-10-14T15:16:01Z",
        "version": 1,
        "changeset": 157882899,
        "addr:city": "São Paulo",
        "addr:housenumber": "752",
        "addr:postcode": "01040-000",
        "addr:street": "Avenida Ipiranga",
        "amenity": "cinema",
        "min_age": "18",
        "name": "Cine República",
        "id": "node/12250687602"
      },
      "geometry": {
        "type": "Point",
        "coordinates": [
          -46.6407467,
          -23.5429813
        ]
      }
    },
    {
      "type": "Feature",
      "id": "node/12254113001",
      "properties": {
        "timestamp": "2024-10-16T00:32:31Z",
        "version": 1,
        "changeset": 157942815,
        "amenity": "cinema",
        "name": "Marquise",
        "id": "node/12254113001"
      },
      "geometry": {
        "type": "Point",
        "coordinates": [
          -46.6600447,
          -23.5589833
        ]
      }
    },
    {
      "type": "Feature",
      "id": "node/12316722216",
      "properties": {
        "timestamp": "2025-01-21T06:08:09Z",
        "version": 2,
        "changeset": 161587360,
        "addr:city": "São Paulo",
        "addr:housenumber": "2780",
        "addr:street": "Rua Conselheiro Moreira de Barros",
        "addr:suburb": "Lauzane Paulista",
        "amenity": "cinema",
        "brand": "UCI",
        "brand:wikidata": "Q521922",
        "name": "UCI Santana Parque Shopping",
        "opening_hours": "Mo-Su 13:00-22:30",
        "screen": "8",
        "website": "https://ucicinemas.com.br/Cinemas/UCI-Santana-Parque-Shopping/info",
        "wikidata": "Q61593733",
        "id": "node/12316722216"
      },
      "geometry": {
        "type": "Point",
        "coordinates": [
          -46.6448355,
          -23.4823265
        ]
      }
    }
  ]
}
