{
  "type": "FeatureCollection",
  "features": [
    {
      "type": "Feature",
      "id": "way/409182227",
      "properties": {
        "timestamp": "2025-03-05T10:03:36Z",
        "version": 9,
        "changeset": 163237659,
        "addr:city": "São Paulo",
        "addr:housenumber": "149",
        "addr:postcode": "01311-000",
        "addr:street": "Avenida Paulista",
        "building": "yes",
        "check_date": "2023-06-18",
        "height": "58.9",
        "name": "Itaú Cultural",
        "toilets": "yes",
        "toilets:wheelchair": "yes",
        "tourism": "gallery",
        "website": "https://www.itaucultural.org.br/",
        "wheelchair": "yes",
        "wikidata": "Q10304263",
        "wikimedia_commons": "Category:Itaú Cultural",
        "wikipedia": "pt:Itaú Cultural",
        "id": "way/409182227"
      },
      "geometry": {
        "type": "Polygon",
        "coordinates": [
          [
            [
              -46.6459727,
              -23.5703031
            ],
            [
              -46.6461781,
              -23.5705273
            ],
            [
              -46.6461477,
              -23.570551
            ],
            [
              -46.646186,
              -23.5705927
            ],
            [
              -46.6461834,
              -23.5706045
            ],
            [
              -46.6461759,
              -23.5706103
            ],
            [
              -46.6461619,
              -23.5706101
            ],
            [
              -46.6461249,
              -23.5705697
            ],
            [
              -46.6460898,
              -23.5705962
            ],
            [
              -46.6458875,
              -23.5703693
            ],
            [
              -46.6459727,
              -23.5703031
            ]
          ]
        ]
      }
    },
    {
      "type": "Feature",
      "id": "way/414736253",
      "properties": {
        "timestamp": "2025-01-21T06:08:49Z",
        "version": 3,
        "changeset": 161587360,
        "addr:city": "São Paulo",
        "addr:housenumber": "1494",
        "addr:postcode": "01427-001",
        "addr:street": "Rua Estados Unidos",
        "addr:suburb": "Jardim América",
        "building": "commercial",
        "height": "6.357",
        "name": "Zipper Galeria",
        "opening_hours": "Mo-Sa 11:00-19:00",
        "tourism": "gallery",
        "wikidata": "Q112176146",
        "id": "way/414736253"
      },
      "geometry": {
        "type": "Polygon",
        "coordinates": [
          [
            [
              -46.6683496,
              -23.5667789
            ],
            [
              -46.6683843,
              -23.5668134
            ],
            [
              -46.6683738,
              -23.5668223
            ],
            [
              -46.6683779,
              -23.5668272
            ],
            [
              -46.6683977,
              -23.5668469
            ],
            [
              -46.6683926,
              -23.5668514
            ],
            [
              -46.668318,
              -23.5669151
            ],
            [
              -46.6683128,
              -23.5669173
            ],
            [
              -46.6682438,
              -23.5668487
            ],
            [
              -46.6682425,
              -23.5668482
            ],
            [
              -46.6682418,
              -23.5668506
            ],
            [
              -46.668239,
              -23.5668534
            ],
            [
              -46.6682344,
              -23.5668561
            ],
            [
              -46.6682285,
              -23.5668586
            ],
            [
              -46.6682217,
              -23.5668606
            ],
            [
              -46.6682163,
              -23.5668617
            ],
            [
              -46.6681462,
              -23.5667939
            ],
            [
              -46.6682698,
              -23.5666965
            ],
            [
              -46.6683174,
              -23.5667469
            ],
            [
              -46.6683496,
              -23.5667789
            ]
          ]
        ]
      }
    },
    {
      "type": "Feature",
      "id": "way/521403313",
      "properties": {
        "timestamp": "2024-05-03T22:37:39Z",
        "version": 2,
        "changeset": 150858336,
        "addr:city": "São Paulo",
        "addr:housenumber": "1379",
        "addr:postcode": "04521-005",
        "addr:street": "Rua Canário",
        "addr:suburb": "Moema",
        "building": "yes",
        "height": "5.44",
        "name": "Urban Arts",
        "phone": "(11) 3086-0002",
        "source": "pmsp",
        "tourism": "gallery",
        "website": "https://www.urbanarts.com.br",
        "id": "way/521403313"
      },
      "geometry": {
        "type": "Polygon",
        "coordinates": [
          [
            [
              -46.671463,
              -23.6064008
            ],
            [
              -46.6715187,
              -23.6063547
            ],
            [
              -46.6715593,
              -23.6063211
            ],
            [
              -46.6715643,
              -23.606317
            ],
            [
              -46.6716183,
              -23.6063751
            ],
            [
              -46.671615,
              -23.6063778
            ],
            [
              -46.6716267,
              -23.6063904
            ],
            [
              -46.6715652,
              -23.6064404
            ],
            [
              -46.6715571,
              -23.6064317
            ],
            [
              -46.6715187,
              -23.6064619
            ],
            [
              -46.6715272,
              -23.6064711
            ],
            [
              -46.6715009,
              -23.6064925
            ],
            [
              -46.6714353,
              -23.6064238
            ],
            [
              -46.671463,
              -23.6064008
            ]
          ]
        ]
      }
    },
    {
      "type": "Feature",
      "id": "way/1227496380",
      "properties": {
        "timestamp": "2023-11-29T03:26:41Z",
        "version": 1,
        "changeset": 144571818,
        "addr:city": "São Paulo",
        "addr:housenumber": "1336",
        "addr:postcode": "01422-004",
        "addr:street": "Alameda Franca",
        "name": "Garimpo",
        "tourism": "gallery",
        "id": "way/1227496380"
      },
      "geometry": {
        "type": "Polygon",
        "coordinates": [
          [
            [
              -46.6652764,
              -23.5602003
            ],
            [
              -46.6653257,
              -23.5602477
            ],
            [
              -46.6652893,
              -23.5602801
            ],
            [
              -46.6652402,
              -23.5602348
            ],
            [
              -46.6652764,
              -23.5602003
            ]
          ]
        ]
      }
    },
    {
      "type": "Feature",
      "id": "way/1366056271",
      "properties": {
        "timestamp": "2025-03-10T20:03:07Z",
        "version": 1,
        "changeset": 163458168,
        "building": "yes",
        "tourism": "gallery",
        "id": "way/1366056271"
      },
      "geometry": {
        "type": "Polygon",
        "coordinates": [
          [
            [
              -46.7131045,
              -23.6086684
            ],
            [
              -46.713177,
              -23.6088204
            ],
            [
              -46.7129499,
              -23.6089104
            ],
            [
              -46.7128791,
              -23.6087451
            ],
            [
              -46.7131045,
              -23.6086684
            ]
          ]
        ]
      }
    },
    {
      "type": "Feature",
      "id": "node/4956930531",
      "properties": {
        "timestamp": "2024-12-19T07:13:08Z",
        "version": 4,
        "changeset": 160380000,
        "addr:city": "São Paulo",
        "addr:housenumber": "149",
        "addr:postcode": "01311-000",
        "addr:street": "Avenida Paulista",
        "entrance": "yes",
        "name": "Itaú Cultural",
        "toilets": "yes",
        "toilets:wheelchair": "yes",
        "tourism": "gallery",
        "website": "https://www.itaucultural.org.br/",
        "wheelchair": "yes",
        "wikidata": "Q10304263",
        "wikimedia_commons": "Category:Itaú Cultural",
        "wikipedia": "pt:Itaú Cultural",
        "id": "node/4956930531"
      },
      "geometry": {
        "type": "Point",
        "coordinates": [
          -46.6458364,
          -23.5703557
        ]
      }
    },
    {
      "type": "Feature",
      "id": "node/5058261758",
      "properties": {
        "timestamp": "2019-07-18T23:15:29Z",
        "version": 3,
        "changeset": 72408765,
        "addr:city": "São Paulo",
        "addr:housenumber": "2163",
        "addr:postcode": "01424-007",
        "addr:street": "Alameda Lorena",
        "name": "Arte brasileira",
        "tourism": "gallery",
        "id": "node/5058261758"
      },
      "geometry": {
        "type": "Point",
        "coordinates": [
          -46.6704572,
          -23.5599405
        ]
      }
    },
    {
      "type": "Feature",
      "id": "node/5627377671",
      "properties": {
        "timestamp": "2018-05-18T19:33:43Z",
        "version": 1,
        "changeset": 59088990,
        "name": "Galeria Jaqueline Martins",
        "tourism": "gallery",
        "id": "node/5627377671"
      },
      "geometry": {
        "type": "Point",
        "coordinates": [
          -46.648837,
          -23.545799
        ]
      }
    },
    {
      "type": "Feature",
      "id": "node/6102799985",
      "properties": {
        "timestamp": "2024-10-31T21:54:00Z",
        "version": 3,
        "changeset": 158599252,
        "addr:city": "São Paulo",
        "addr:housenumber": "2280",
        "addr:postcode": "01427-002",
        "addr:street": "Rua Estados Unidos",
        "name": "Galeria de Arte André",
        "tourism": "gallery",
        "id": "node/6102799985"
      },
      "geometry": {
        "type": "Point",
        "coordinates": [
          -46.6747086,
          -23.5624281
        ]
      }
    },
    {
      "type": "Feature",
      "id": "node/6665733084",
      "properties": {
        "timestamp": "2019-07-31T13:31:05Z",
        "version": 1,
        "changeset": 72857177,
        "addr:city": "São Paulo",
        "addr:housenumber": "145",
        "addr:postcode": "05435-000",
        "addr:street": "Rua Harmonia",
        "name": "Eduardo Fernandes",
        "tourism": "gallery",
        "id": "node/6665733084"
      },
      "geometry": {
        "type": "Point",
        "coordinates": [
          -46.6871667,
          -23.5565493
        ]
      }
    },
    {
      "type": "Feature",
      "id": "node/7563454647",
      "properties": {
        "timestamp": "2020-05-27T16:57:24Z",
        "version": 1,
        "changeset": 85844737,
        "addr:city": "São Paulo",
        "addr:housenumber": "303",
        "addr:postcode": "05435-000",
        "addr:street": "Rua Harmonia",
        "name": "ArtShot",
        "tourism": "gallery",
        "id": "node/7563454647"
      },
      "geometry": {
        "type": "Point",
        "coordinates": [
          -46.6880145,
          -23.5554436
        ]
      }
    },
    {
      "type": "Feature",
      "id": "node/8022374169",
      "properties": {
        "timestamp": "2020-10-19T15:20:53Z",
        "version": 1,
        "changeset": 92717464,
        "name": "GMOArts",
        "tourism": "gallery",
        "id": "node/8022374169"
      },
      "geometry": {
        "type": "Point",
        "coordinates": [
          -46.6171265,
          -23.4988902
        ]
      }
    },
    {
      "type": "Feature",
      "id": "node/10067423188",
      "properties": {
        "timestamp": "2022-10-02T00:49:37Z",
        "version": 2,
        "changeset": 126877007,
        "addr:housenumber": "1307",
        "addr:street": "Rua Haddock Lobo",
        "contact:mobile": "+55 11 99620 6067",
        "name": "Val Santinho",
        "phone": "+55 11 3085 9954",
        "tourism": "gallery",
        "id": "node/10067423188"
      },
      "geometry": {
        "type": "Point",
        "coordinates": [
          -46.6664682,
          -23.562683
        ]
      }
    },
    {
      "type": "Feature",
      "id": "node/10914296457",
      "properties": {
        "timestamp": "2023-10-15T03:15:41Z",
        "version": 2,
        "changeset": 142599842,
        "fee": "no",
        "name": "Ponto das Artes",
        "tourism": "gallery",
        "id": "node/10914296457"
      },
      "geometry": {
        "type": "Point",
        "coordinates": [
          -46.6872253,
          -23.5619522
        ]
      }
    },
    {
      "type": "Feature",
      "id": "node/11572527888",
      "properties": {
        "timestamp": "2024-01-31T11:01:00Z",
        "version": 1,
        "changeset": 146898895,
        "name": "Dr Arnaldo",
        "tourism": "gallery",
        "id": "node/11572527888"
      },
      "geometry": {
        "type": "Point",
        "coordinates": [
          -46.6672662,
          -23.5553466
        ]
      }
    },
    {
      "type": "Feature",
      "id": "node/11704381932",
      "properties": {
        "timestamp": "2024-03-08T15:42:00Z",
        "version": 1,
        "changeset": 148389765,
        "name": "Ponto das artes",
        "tourism": "gallery",
        "id": "node/11704381932"
      },
      "geometry": {
        "type": "Point",
        "coordinates": [
          -46.657745,
          -23.5565941
        ]
      }
    },
    {
      "type": "Feature",
      "id": "node/11813892641",
      "properties": {
        "timestamp": "2024-04-13T16:13:10Z",
        "version": 1,
        "changeset": 149959095,
        "tourism": "gallery",
        "id": "node/11813892641"
      },
      "geometry": {
        "type": "Point",
        "coordinates": [
          -46.668033,
          -23.5621194
        ]
      }
    },
    {
      "type": "Feature",
      "id": "node/11999262269",
      "properties": {
        "timestamp": "2024-06-21T16:30:10Z",
        "version": 2,
        "changeset": 153000208,
        "addr:city": "São Paulo",
        "addr:housenumber": "664",
        "addr:postcode": "01156-001",
        "addr:street": "Av. Mário de Andrade",
        "addr:suburb": "Barra Funda",
        "name": "Galeria Marta Tabra de Arte Latino-Americana",
        "opening_hours": "Tu-Su 10:00-17:00",
        "tourism": "gallery",
        "website": "https://memorial.org.br/espacos/galeria-marta-traba/",
        "id": "node/11999262269"
      },
      "geometry": {
        "type": "Point",
        "coordinates": [
          -46.6660753,
          -23.5271309
        ]
      }
    },
    {
      "type": "Feature",
      "id": "node/12036511247",
      "properties": {
        "timestamp": "2024-07-05T19:33:58Z",
        "version": 1,
        "changeset": 153601637,
        "tourism": "gallery",
        "id": "node/12036511247"
      },
      "geometry": {
        "type": "Point",
        "coordinates": [
          -46.6641615,
          -23.5615512
        ]
      }
    }
  ]
}
