{
  "type": "FeatureCollection",
  "features": [
    {
      "type": "Feature",
      "id": "way/450157507",
      "properties": {
        "timestamp": "2022-08-19T22:46:53Z",
        "version": 3,
        "changeset": 125128999,
        "addr:city": "São Paulo",
        "addr:housenumber": "1275",
        "addr:postcode": "05435-001",
        "addr:street": "Rua Harmonia",
        "addr:suburb": "Sumarezinho",
        "building": "yes",
        "email": "info@hostelalice.com.br",
        "height": "5.508",
        "internet_access": "wlan",
        "name": "Hostel Alice",
        "opening_hours": "24/7",
        "phone": "+551143247244",
        "source": "pmsp",
        "tourism": "guest_house",
        "website": "http://www.hostelalice.com",
        "id": "way/450157507"
      },
      "geometry": {
        "type": "Polygon",
        "coordinates": [
          [
            [
              -46.6920121,
              -23.5476444
            ],
            [
              -46.691999,
              -23.5476868
            ],
            [
              -46.691901,
              -23.5476631
            ],
            [
              -46.6919002,
              -23.5476659
            ],
            [
              -46.6918869,
              -23.5476623
            ],
            [
              -46.6918841,
              -23.5476741
            ],
            [
              -46.6918697,
              -23.5476715
            ],
            [
              -46.6918132,
              -23.5476609
            ],
            [
              -46.6918231,
              -23.547626
            ],
            [
              -46.6918606,
              -23.5476346
            ],
            [
              -46.6918682,
              -23.5476086
            ],
            [
              -46.6918307,
              -23.5475992
            ],
            [
              -46.6918422,
              -23.5475585
            ],
            [
              -46.6920156,
              -23.5475993
            ],
            [
              -46.692006,
              -23.547631
            ],
            [
              -46.6920155,
              -23.5476334
            ],
            [
              -46.6920121,
              -23.5476444
            ]
          ]
        ]
      }
    },
    {
      "type": "Feature",
      "id": "node/1004651494",
      "properties": {
        "timestamp": "2010-11-26T00:37:04Z",
        "version": 1,
        "changeset": 6458916,
        "source": "picture",
        "tourism": "guest_house",
        "id": "node/1004651494"
      },
      "geometry": {
        "type": "Point",
        "coordinates": [
          -46.6363125,
          -23.5584639
        ]
      }
    },
    {
      "type": "Feature",
      "id": "node/4011668033",
      "properties": {
        "timestamp": "2023-04-26T04:49:39Z",
        "version": 4,
        "changeset": 135366421,
        "addr:city": "São Paulo",
        "addr:housenumber": "245",
        "addr:postcode": "04707-020",
        "addr:street": "Rua Professor Doutor José Marques da Cruz",
        "addr:suburb": "Jardim das Acácias",
        "name": "Pensão Brooklin",
        "phone": "+55 11 5182-6586",
        "smoking": "outside",
        "tourism": "guest_house",
        "website": "https://sites.google.com/site/pensaobrooklin/",
        "id": "node/4011668033"
      },
      "geometry": {
        "type": "Point",
        "coordinates": [
          -46.6900693,
          -23.6263101
        ]
      }
    },
    {
      "type": "Feature",
      "id": "node/4150245989",
      "properties": {
        "timestamp": "2016-10-29T01:49:33Z",
        "version": 2,
        "changeset": 43258713,
        "addr:street": "Rua Alvorada",
        "name": "Elianete",
        "tourism": "guest_house",
        "id": "node/4150245989"
      },
      "geometry": {
        "type": "Point",
        "coordinates": [
          -46.6825594,
          -23.6007968
        ]
      }
    },
    {
      "type": "Feature",
      "id": "node/4198116690",
      "properties": {
        "timestamp": "2016-05-21T03:05:26Z",
        "version": 1,
        "changeset": 39462803,
        "addr:housenumber": "306",
        "addr:street": "Rua Sérvia",
        "internet_access": "wlan",
        "tourism": "guest_house",
        "id": "node/4198116690"
      },
      "geometry": {
        "type": "Point",
        "coordinates": [
          -46.7186749,
          -23.6709787
        ]
      }
    },
    {
      "type": "Feature",
      "id": "node/4690442289",
      "properties": {
        "timestamp": "2017-04-14T20:57:13Z",
        "version": 2,
        "changeset": 47795887,
        "addr:city": "São Paulo",
        "addr:housenumber": "70",
        "addr:postcode": "01312-000",
        "addr:street": "Avenida Nove de Julho",
        "name": "BRASILAR",
        "name:pt": "BRASILAR",
        "tourism": "guest_house",
        "id": "node/4690442289"
      },
      "geometry": {
        "type": "Point",
        "coordinates": [
          -46.6394956,
          -23.5485961
        ]
      }
    },
    {
      "type": "Feature",
      "id": "node/5003439921",
      "properties": {
        "timestamp": "2019-07-13T13:45:14Z",
        "version": 2,
        "changeset": 72210321,
        "name:en": "Air BnB",
        "tourism": "guest_house",
        "id": "node/5003439921"
      },
      "geometry": {
        "type": "Point",
        "coordinates": [
          -46.6909277,
          -23.5528524
        ]
      }
    },
    {
      "type": "Feature",
      "id": "node/5305069021",
      "properties": {
        "timestamp": "2017-12-26T16:55:17Z",
        "version": 1,
        "changeset": 54934637,
        "addr:street": "Rua Henrique Jacobs",
        "name": "casa cachete",
        "tourism": "guest_house",
        "id": "node/5305069021"
      },
      "geometry": {
        "type": "Point",
        "coordinates": [
          -46.4923182,
          -23.5365126
        ]
      }
    },
    {
      "type": "Feature",
      "id": "node/5506919021",
      "properties": {
        "timestamp": "2018-03-27T01:41:51Z",
        "version": 1,
        "changeset": 57552485,
        "addr:housenumber": "362",
        "addr:street": "Rua Sud Mennucci",
        "name:es": "republica",
        "tourism": "guest_house",
        "id": "node/5506919021"
      },
      "geometry": {
        "type": "Point",
        "coordinates": [
          -46.6380109,
          -23.5868418
        ]
      }
    },
    {
      "type": "Feature",
      "id": "node/7737766785",
      "properties": {
        "timestamp": "2020-07-22T17:57:39Z",
        "version": 1,
        "changeset": 88362633,
        "name": "Casa da Naty",
        "tourism": "guest_house",
        "id": "node/7737766785"
      },
      "geometry": {
        "type": "Point",
        "coordinates": [
          -46.7728288,
          -23.6359945
        ]
      }
    },
    {
      "type": "Feature",
      "id": "node/9399617917",
      "properties": {
        "timestamp": "2022-01-07T13:29:58Z",
        "version": 1,
        "changeset": 115877351,
        "addr:street": "Rua dos Estudantes",
        "name": "airbnb Herval",
        "tourism": "guest_house",
        "id": "node/9399617917"
      },
      "geometry": {
        "type": "Point",
        "coordinates": [
          -46.6317526,
          -23.5552747
        ]
      }
    },
    {
      "type": "Feature",
      "id": "node/10563079609",
      "properties": {
        "timestamp": "2023-01-17T16:59:24Z",
        "version": 1,
        "changeset": 131388924,
        "name": "bnb 2172",
        "tourism": "guest_house",
        "id": "node/10563079609"
      },
      "geometry": {
        "type": "Point",
        "coordinates": [
          -46.6489398,
          -23.6037163
        ]
      }
    }
  ]
}
