{
  "type": "FeatureCollection",
  "features": [
    {
      "type": "Feature",
      "id": "way/1299805757",
      "properties": {
        "timestamp": "2024-07-07T14:25:42Z",
        "version": 1,
        "changeset": 153664469,
        "addr:city": "São José de Piranhas",
        "addr:postcode": "58940-000",
        "addr:street": "Rua Inácio Lira",
        "addr:suburb": "Centro",
        "amenity": "doctors",
        "building": "yes",
        "healthcare": "doctor",
        "healthcare:speciality": "general;ophthalmology;cardiology",
        "name": "Centro médico LACEP",
        "opening_hours": "Mo-Fr 08:00-17:00",
        "operator": "Privado",
        "id": "way/1299805757"
      },
      "geometry": {
        "type": "Polygon",
        "coordinates": [
          [
            [
              -38.4988937,
              -7.1197654
            ],
            [
              -38.4989662,
              -7.1198874
            ],
            [
              -38.4988875,
              -7.1199375
            ],
            [
              -38.4988158,
              -7.119811
            ],
            [
              -38.4988937,
              -7.1197654
            ]
          ]
        ]
      }
    }
  ]
}
