{
  "type": "FeatureCollection",
  "features": [
    {
      "type": "Feature",
      "id": "node/12659385798",
      "properties": {
        "timestamp": "2025-03-13T21:37:45Z",
        "version": 2,
        "changeset": 163589369,
        "addr:city": "Santo Antônio de Jesus",
        "addr:housenumber": "116",
        "addr:postcode": "44571-019",
        "addr:street": "R. do Expedicionário",
        "addr:suburb": "Centro",
        "amenity": "pharmacy",
        "check_date": "2025-03-13",
        "check_date:currency:XBT": "2025-03-13",
        "currency:XBT": "yes",
        "description": "FARMACIA DE MANIPULAÇÃO",
        "dispensing": "yes",
        "healthcare": "pharmacy",
        "name": "FARMANUTRI",
        "opening_hours": "Mo-fri 08:00-18:00",
        "payment:lightning": "yes",
        "payment:lightning_contactless": "yes",
        "payment:onchain": "yes",
        "phone": "(27)991672447",
        "id": "node/12659385798"
      },
      "geometry": {
        "type": "Point",
        "coordinates": [
          -39.2580718,
          -12.9659848
        ]
      }
    }
  ]
}
