{
  "type": "FeatureCollection",
  "features": [
    {
      "type": "Feature",
      "id": "way/325231087",
      "properties": {
        "timestamp": "2022-02-18T15:12:33Z",
        "version": 2,
        "changeset": 117569570,
        "addr:city": "Aurora do Tocantins",
        "addr:postcode": "77325-000",
        "addr:street": "Avenida Ben√≠cio Luiz Tavarez",
        "addr:suburb": "Centro",
        "amenity": "school",
        "name": "Escola Estadual Dona Ines",
        "id": "way/325231087"
      },
      "geometry": {
        "type": "Polygon",
        "coordinates": [
          [
            [
              -46.4100835,
              -12.7120372
            ],
            [
              -46.4101674,
              -12.7121305
            ],
            [
              -46.4101441,
              -12.7122601
            ],
            [
              -46.4094796,
              -12.7121236
            ],
            [
              -46.4095286,
              -12.7119189
            ],
            [
              -46.4100835,
              -12.7120372
            ]
          ]
        ]
      }
    },
    {
      "type": "Feature",
      "id": "way/1032926429",
      "properties": {
        "timestamp": "2022-02-18T15:10:29Z",
        "version": 1,
        "changeset": 117569479,
        "addr:city": "Aurora do Tocantins",
        "addr:postcode": "77325-000",
        "addr:street": "Avenida Vereador Baltazar Izidoro Trigueiro",
        "addr:suburb": "Centro",
        "amenity": "school",
        "name": "Colegio Estadual Professora Ranulfa",
        "phone": "+55 63 3658 1232",
        "id": "way/1032926429"
      },
      "geometry": {
        "type": "Polygon",
        "coordinates": [
          [
            [
              -46.4088665,
              -12.7137193
            ],
            [
              -46.4085875,
              -12.7144597
            ],
            [
              -46.4077695,
              -12.7141379
            ],
            [
              -46.408035,
              -12.7134315
            ],
            [
              -46.4088665,
              -12.7137193
            ]
          ]
        ]
      }
    },
    {
      "type": "Feature",
      "id": "way/1032927511",
      "properties": {
        "timestamp": "2022-02-18T15:17:39Z",
        "version": 1,
        "changeset": 117569799,
        "addr:city": "Aurora do Tocantins",
        "addr:postcode": "77325-000",
        "addr:street": "Avenida Fortaleza",
        "addr:suburb": "Centro",
        "amenity": "school",
        "name": "Escola Municipal Marcolina De Almeida Tavares",
        "phone": "+55 63 3658 1240",
        "id": "way/1032927511"
      },
      "geometry": {
        "type": "Polygon",
        "coordinates": [
          [
            [
              -46.409124,
              -12.7096821
            ],
            [
              -46.4090087,
              -12.710174
            ],
            [
              -46.4081718,
              -12.7099254
            ],
            [
              -46.4082952,
              -12.7094911
            ],
            [
              -46.409124,
              -12.7096821
            ]
          ]
        ]
      }
    },
    {
      "type": "Feature",
      "id": "node/9516718140",
      "properties": {
        "timestamp": "2022-02-18T15:11:52Z",
        "version": 1,
        "changeset": 117569536,
        "addr:city": "Aurora do Tocantins",
        "addr:postcode": "77325-000",
        "addr:suburb": "Centro",
        "amenity": "school",
        "name": "Creche Municipal Joao Lazaro De Oliveira Pereira",
        "phone": "+55 63 3658 1344",
        "id": "node/9516718140"
      },
      "geometry": {
        "type": "Point",
        "coordinates": [
          -46.4092554,
          -12.7123901
        ]
      }
    }
  ]
}
