{
  "type": "FeatureCollection",
  "features": [
    {
      "type": "Feature",
      "id": "way/682258726",
      "properties": {
        "timestamp": "2025-01-29T21:05:40Z",
        "version": 3,
        "changeset": 161914034,
        "addr:city": "Salinas",
        "addr:housenumber": "410",
        "addr:postcode": "39560-000",
        "addr:street": "Rua Aristides Brito",
        "addr:suburb": "Floresta",
        "amenity": "clinic",
        "building": "yes",
        "healthcare": "clinic",
        "healthcare:speciality": "general",
        "name": "Unidade Básica de Saúde Doutor Osvaldo Fernandes",
        "operator": "Município de Salinas",
        "operator:type": "public",
        "id": "way/682258726"
      },
      "geometry": {
        "type": "Polygon",
        "coordinates": [
          [
            [
              -42.2881583,
              -16.1630888
            ],
            [
              -42.2880968,
              -16.1630691
            ],
            [
              -42.2880354,
              -16.1630494
            ],
            [
              -42.2881609,
              -16.1626731
            ],
            [
              -42.2882812,
              -16.1627026
            ],
            [
              -42.2881583,
              -16.1630888
            ]
          ]
        ]
      }
    },
    {
      "type": "Feature",
      "id": "node/12549815568",
      "properties": {
        "timestamp": "2025-02-01T20:59:34Z",
        "version": 1,
        "changeset": 162025956,
        "addr:city": "Salinas",
        "addr:postcode": "39560-000",
        "addr:street": "Praça Baixa Grande",
        "addr:suburb": "Baixa Grande",
        "amenity": "clinic",
        "healthcare": "clinic",
        "healthcare:speciality": "general",
        "name": "Unidade Básica de Saúde de Baixa Grande",
        "operator": "Município de Salinas",
        "operator:type": "public",
        "id": "node/12549815568"
      },
      "geometry": {
        "type": "Point",
        "coordinates": [
          -42.103107,
          -16.1030311
        ]
      }
    },
    {
      "type": "Feature",
      "id": "node/12554374694",
      "properties": {
        "timestamp": "2025-02-03T17:45:47Z",
        "version": 1,
        "changeset": 162096251,
        "IBGE:COD_UNICO_ENDERECO": "37416977",
        "addr:city": "Salinas",
        "addr:housenumber": "55",
        "addr:postcode": "39560-000",
        "addr:street": "Rua do Posto",
        "addr:suburb": "Centro",
        "amenity": "clinic",
        "building": "yes",
        "healthcare": "yes",
        "name": "Unidade de Saúde de Montes Clarinhos",
        "operator": "Município de Salinas",
        "id": "node/12554374694"
      },
      "geometry": {
        "type": "Point",
        "coordinates": [
          -42.1442601,
          -15.9700685
        ]
      }
    }
  ]
}
