{
  "type": "FeatureCollection",
  "features": [
    {
      "type": "Feature",
      "id": "way/510887984",
      "properties": {
        "timestamp": "2022-07-17T18:37:30Z",
        "version": 4,
        "changeset": 123731431,
        "addr:street": "Rodovia Salinas Pedra Azul",
        "building": "yes",
        "name": "Hotel Tamburil",
        "opening_hours": "24/7",
        "phone": "+55 38 3841 3974",
        "tourism": "hotel",
        "id": "way/510887984"
      },
      "geometry": {
        "type": "Polygon",
        "coordinates": [
          [
            [
              -42.2640551,
              -16.1346741
            ],
            [
              -42.2639949,
              -16.1347901
            ],
            [
              -42.2638649,
              -16.1347279
            ],
            [
              -42.2638445,
              -16.1347671
            ],
            [
              -42.2637984,
              -16.1347449
            ],
            [
              -42.2638211,
              -16.1347012
            ],
            [
              -42.2637088,
              -16.1346474
            ],
            [
              -42.2637667,
              -16.1345359
            ],
            [
              -42.2640551,
              -16.1346741
            ]
          ]
        ]
      }
    },
    {
      "type": "Feature",
      "id": "node/2186493996",
      "properties": {
        "timestamp": "2025-01-29T14:29:51Z",
        "version": 2,
        "changeset": 161899874,
        "addr:city": "Salinas",
        "addr:housenumber": "81",
        "addr:postcode": "39560-000",
        "addr:street": "Avenida José Carlos de Pinho",
        "addr:suburb": "Betel",
        "email": "atendimento@hotelrenascerpalace.com.br",
        "name": "Hotel Renascer",
        "phone": "+55 38 3841 4160",
        "source": "survey;GPS",
        "tourism": "hotel",
        "website": "www.hotelrenascerpalace.com.br",
        "id": "node/2186493996"
      },
      "geometry": {
        "type": "Point",
        "coordinates": [
          -42.3105075,
          -16.1667515
        ]
      }
    },
    {
      "type": "Feature",
      "id": "node/5830243521",
      "properties": {
        "timestamp": "2018-08-13T17:35:09Z",
        "version": 1,
        "changeset": 61633664,
        "tourism": "hotel",
        "id": "node/5830243521"
      },
      "geometry": {
        "type": "Point",
        "coordinates": [
          -42.2635013,
          -16.1375903
        ]
      }
    },
    {
      "type": "Feature",
      "id": "node/7868706786",
      "properties": {
        "timestamp": "2020-09-02T13:49:30Z",
        "version": 1,
        "changeset": 90308297,
        "name": "Salinas - Hotel.",
        "name:pt": "Salinas - Hotel Valley Hills",
        "tourism": "hotel",
        "id": "node/7868706786"
      },
      "geometry": {
        "type": "Point",
        "coordinates": [
          -42.2801089,
          -16.1339861
        ]
      }
    },
    {
      "type": "Feature",
      "id": "node/12535134576",
      "properties": {
        "timestamp": "2025-01-26T22:53:38Z",
        "version": 1,
        "changeset": 161798176,
        "addr:city": "Salinas",
        "addr:housenumber": "km 322",
        "addr:postcode": "39560-000",
        "addr:street": "Rodovia Júlio Garcia",
        "addr:suburb": "Trevo do Aeroporto",
        "cuisine": "regional",
        "name": "Hotel, Restaurante e Cachaçaria Sabor de Minas",
        "opening_hours": "Mo-Su 05:00-23:00",
        "phone": "+55 38 3841 2234",
        "source": "survey;GPS;aerial imagery;Pesquisas",
        "tourism": "hotel",
        "website": "https://www.instagram.com/sabordeminassalinas/",
        "id": "node/12535134576"
      },
      "geometry": {
        "type": "Point",
        "coordinates": [
          -42.3425189,
          -16.1919574
        ]
      }
    },
    {
      "type": "Feature",
      "id": "node/12542971176",
      "properties": {
        "timestamp": "2025-02-04T17:24:00Z",
        "version": 2,
        "changeset": 162135228,
        "addr:city": "Salinas",
        "addr:housenumber": "199",
        "addr:postcode": "39560-000",
        "addr:street": "Avenida Sebastião Moreira de Oliveira",
        "addr:suburb": "Raquel",
        "name": "Gran Norte Hotel",
        "phone": "+55 38 3841 3764",
        "tourism": "hotel",
        "id": "node/12542971176"
      },
      "geometry": {
        "type": "Point",
        "coordinates": [
          -42.2934162,
          -16.1654335
        ]
      }
    },
    {
      "type": "Feature",
      "id": "node/12543403381",
      "properties": {
        "timestamp": "2025-01-30T10:07:25Z",
        "version": 1,
        "changeset": 161930714,
        "addr:city": "Salinas",
        "addr:housenumber": "31",
        "addr:postcode": "39560-000",
        "addr:street": "Avenida Antônio Carlos",
        "addr:suburb": "São Geraldo",
        "name": "Hotel Shelton",
        "tourism": "hotel",
        "id": "node/12543403381"
      },
      "geometry": {
        "type": "Point",
        "coordinates": [
          -42.2921154,
          -16.1672679
        ]
      }
    },
    {
      "type": "Feature",
      "id": "node/12544160962",
      "properties": {
        "timestamp": "2025-01-30T17:37:33Z",
        "version": 1,
        "changeset": 161947073,
        "addr:city": "Salinas",
        "addr:housenumber": "626",
        "addr:postcode": "39560-000",
        "addr:street": "Avenida Floripes Crispim",
        "addr:suburb": "Panorama",
        "name": "Hotel Eldorado Palace",
        "phone": "+55 38 98851 9768",
        "tourism": "hotel",
        "id": "node/12544160962"
      },
      "geometry": {
        "type": "Point",
        "coordinates": [
          -42.2997431,
          -16.1671443
        ]
      }
    },
    {
      "type": "Feature",
      "id": "node/12544160963",
      "properties": {
        "timestamp": "2025-01-30T17:37:33Z",
        "version": 1,
        "changeset": 161947073,
        "addr:city": "Salinas",
        "addr:housenumber": "1415",
        "addr:postcode": "39560-000",
        "addr:street": "Avenida Floripes Crispim",
        "addr:suburb": "Betel",
        "name": "Hotel Du Vale",
        "phone": "+55 38 99927 1419",
        "tourism": "hotel",
        "id": "node/12544160963"
      },
      "geometry": {
        "type": "Point",
        "coordinates": [
          -42.3073478,
          -16.1665577
        ]
      }
    },
    {
      "type": "Feature",
      "id": "node/12544160965",
      "properties": {
        "timestamp": "2025-01-30T17:37:33Z",
        "version": 1,
        "changeset": 161947073,
        "addr:city": "Salinas",
        "addr:housenumber": "1689",
        "addr:postcode": "39560-000",
        "addr:street": "Avenida Floripes Crispim",
        "addr:suburb": "Betel",
        "name": "Hotel Royal",
        "phone": "+55 38 99927 1419",
        "tourism": "hotel",
        "id": "node/12544160965"
      },
      "geometry": {
        "type": "Point",
        "coordinates": [
          -42.3092787,
          -16.1663275
        ]
      }
    },
    {
      "type": "Feature",
      "id": "node/12549813557",
      "properties": {
        "timestamp": "2025-02-01T20:59:34Z",
        "version": 1,
        "changeset": 162025956,
        "addr:city": "Salinas",
        "addr:housenumber": "28",
        "addr:postcode": "39560-000",
        "addr:street": "Rua Ailton Brito",
        "addr:suburb": "Centro",
        "name": "Hotel Fá",
        "tourism": "hotel",
        "id": "node/12549813557"
      },
      "geometry": {
        "type": "Point",
        "coordinates": [
          -42.2941183,
          -16.1675822
        ]
      }
    },
    {
      "type": "Feature",
      "id": "node/12549813561",
      "properties": {
        "timestamp": "2025-02-01T20:59:34Z",
        "version": 1,
        "changeset": 162025956,
        "addr:city": "Salinas",
        "addr:housenumber": "61",
        "addr:postcode": "39560-000",
        "addr:street": "Avenida Mendo Corrêa",
        "addr:suburb": "Alvorada",
        "name": "Hotel Salicana",
        "tourism": "hotel",
        "id": "node/12549813561"
      },
      "geometry": {
        "type": "Point",
        "coordinates": [
          -42.2942962,
          -16.1670376
        ]
      }
    },
    {
      "type": "Feature",
      "id": "node/12556929569",
      "properties": {
        "timestamp": "2025-02-04T17:24:00Z",
        "version": 1,
        "changeset": 162135228,
        "addr:city": "Salinas",
        "addr:postcode": "39560-000",
        "addr:street": "Rua Donério Pereira da Silva",
        "addr:suburb": "Alvorada",
        "email": "ado@netkripton.com.br",
        "name": "Panorama Hotel",
        "phone": "+55 38 3841 1574",
        "tourism": "hotel",
        "id": "node/12556929569"
      },
      "geometry": {
        "type": "Point",
        "coordinates": [
          -42.2953014,
          -16.1666058
        ]
      }
    },
    {
      "type": "Feature",
      "id": "node/12556929570",
      "properties": {
        "timestamp": "2025-02-04T17:24:00Z",
        "version": 1,
        "changeset": 162135228,
        "name": "Pousada Real",
        "tourism": "hotel",
        "id": "node/12556929570"
      },
      "geometry": {
        "type": "Point",
        "coordinates": [
          -42.2954772,
          -16.1665399
        ]
      }
    },
    {
      "type": "Feature",
      "id": "node/12560282535",
      "properties": {
        "timestamp": "2025-02-05T23:33:37Z",
        "version": 1,
        "changeset": 162186941,
        "addr:city": "Salinas",
        "addr:housenumber": "500",
        "addr:postcode": "39560-000",
        "addr:street": "Avenida Maroto Ferreira",
        "addr:suburb": "Panorama",
        "name": "Hotel Minas Brasil",
        "tourism": "hotel",
        "id": "node/12560282535"
      },
      "geometry": {
        "type": "Point",
        "coordinates": [
          -42.2982769,
          -16.1653188
        ]
      }
    },
    {
      "type": "Feature",
      "id": "node/12563484270",
      "properties": {
        "timestamp": "2025-02-06T18:29:43Z",
        "version": 1,
        "changeset": 162218683,
        "addr:city": "Salinas",
        "addr:housenumber": "635",
        "addr:postcode": "39560-000",
        "addr:street": "Rua Jardins",
        "addr:suburb": "Primavera",
        "name": "Hotel Primavera",
        "phone": "+55 38 3840 0313",
        "tourism": "hotel",
        "id": "node/12563484270"
      },
      "geometry": {
        "type": "Point",
        "coordinates": [
          -42.3222336,
          -16.1674134
        ]
      }
    },
    {
      "type": "Feature",
      "id": "node/12563484272",
      "properties": {
        "timestamp": "2025-02-06T18:29:43Z",
        "version": 1,
        "changeset": 162218683,
        "addr:city": "Salinas",
        "addr:housenumber": "737",
        "addr:postcode": "39560-000",
        "addr:street": "Rua Jardins",
        "addr:suburb": "Primavera",
        "name": "Hotel Xangrilá",
        "phone": "+55 38 98825 6155",
        "tourism": "hotel",
        "id": "node/12563484272"
      },
      "geometry": {
        "type": "Point",
        "coordinates": [
          -42.3235309,
          -16.1679243
        ]
      }
    },
    {
      "type": "Feature",
      "id": "node/12563484279",
      "properties": {
        "timestamp": "2025-02-06T18:29:43Z",
        "version": 1,
        "changeset": 162218683,
        "addr:city": "Salinas",
        "addr:housenumber": "570",
        "addr:postcode": "39560-000",
        "addr:street": "Avenida João Pena Sobrinho",
        "addr:suburb": "Alvorada",
        "name": "Nb Hotel",
        "tourism": "hotel",
        "id": "node/12563484279"
      },
      "geometry": {
        "type": "Point",
        "coordinates": [
          -42.2992007,
          -16.1671559
        ]
      }
    },
    {
      "type": "Feature",
      "id": "node/12563484280",
      "properties": {
        "timestamp": "2025-02-06T18:29:43Z",
        "version": 1,
        "changeset": 162218683,
        "addr:city": "Salinas",
        "addr:housenumber": "70",
        "addr:postcode": "39560-000",
        "addr:street": "Rua Vereador Corinto Pereira de Castro",
        "addr:suburb": "Alvorada",
        "name": "Hotel Brasil Palace",
        "tourism": "hotel",
        "id": "node/12563484280"
      },
      "geometry": {
        "type": "Point",
        "coordinates": [
          -42.2959191,
          -16.1662963
        ]
      }
    }
  ]
}
