{
  "type": "FeatureCollection",
  "features": [
    {
      "type": "Feature",
      "id": "way/488356563",
      "properties": {
        "timestamp": "2017-04-21T00:19:16Z",
        "version": 1,
        "changeset": 47987488,
        "amenity": "school",
        "id": "way/488356563"
      },
      "geometry": {
        "type": "Polygon",
        "coordinates": [
          [
            [
              -42.0716321,
              -16.1088166
            ],
            [
              -42.0714128,
              -16.1095063
            ],
            [
              -42.0711376,
              -16.1094228
            ],
            [
              -42.0712969,
              -16.1087749
            ],
            [
              -42.0716321,
              -16.1088166
            ]
          ]
        ]
      }
    },
    {
      "type": "Feature",
      "id": "way/488439287",
      "properties": {
        "timestamp": "2017-04-21T11:08:57Z",
        "version": 1,
        "changeset": 47999468,
        "amenity": "school",
        "id": "way/488439287"
      },
      "geometry": {
        "type": "Polygon",
        "coordinates": [
          [
            [
              -42.0737243,
              -16.1752168
            ],
            [
              -42.073749,
              -16.1754062
            ],
            [
              -42.0736565,
              -16.175421
            ],
            [
              -42.0737058,
              -16.1756903
            ],
            [
              -42.0734501,
              -16.1757466
            ],
            [
              -42.0733699,
              -16.1754388
            ],
            [
              -42.0734285,
              -16.1754269
            ],
            [
              -42.0734192,
              -16.1752671
            ],
            [
              -42.0737243,
              -16.1752168
            ]
          ]
        ]
      }
    },
    {
      "type": "Feature",
      "id": "way/1067778198",
      "properties": {
        "timestamp": "2025-01-29T19:32:56Z",
        "version": 3,
        "changeset": 161911135,
        "addr:city": "Salinas",
        "addr:postcode": "39560-000",
        "addr:street": "Praça Doutor João Cardoso de Araújo",
        "addr:suburb": "Centro",
        "amenity": "school",
        "name": "Escola Estadual Doutor João Porfírio",
        "operator": "Secretaria de Estado de Educação de Minas Gerais",
        "operator:type": "government",
        "operator:wikidata": "Q61612780",
        "id": "way/1067778198"
      },
      "geometry": {
        "type": "Polygon",
        "coordinates": [
          [
            [
              -42.290387,
              -16.1695606
            ],
            [
              -42.2901712,
              -16.1699686
            ],
            [
              -42.2898074,
              -16.1697444
            ],
            [
              -42.2898448,
              -16.1696727
            ],
            [
              -42.2901379,
              -16.1694048
            ],
            [
              -42.290387,
              -16.1695606
            ]
          ]
        ]
      }
    },
    {
      "type": "Feature",
      "id": "way/1355183425",
      "properties": {
        "timestamp": "2025-01-29T14:29:51Z",
        "version": 1,
        "changeset": 161899874,
        "addr:city": "Salinas",
        "addr:housenumber": "711",
        "addr:postcode": "39560-000",
        "addr:street": "Avenida Floripes Crispim",
        "addr:suburb": "Boa Vista",
        "amenity": "school",
        "name": "Escola Estadual Professor Elídio Duque",
        "operator": "Secretaria de Estado de Educação de Minas Gerais",
        "operator:type": "government",
        "operator:wikidata": "Q61612780",
        "id": "way/1355183425"
      },
      "geometry": {
        "type": "Polygon",
        "coordinates": [
          [
            [
              -42.300827,
              -16.1672357
            ],
            [
              -42.3009558,
              -16.1681811
            ],
            [
              -42.2997783,
              -16.1683177
            ],
            [
              -42.2996388,
              -16.1673568
            ],
            [
              -42.300827,
              -16.1672357
            ]
          ]
        ]
      }
    },
    {
      "type": "Feature",
      "id": "node/12542491806",
      "properties": {
        "timestamp": "2025-01-29T19:32:56Z",
        "version": 1,
        "changeset": 161911135,
        "addr:city": "Salinas",
        "addr:housenumber": "150",
        "addr:postcode": "39560-000",
        "addr:street": "Rua Teodomiro Sarmento",
        "addr:suburb": "São Pedro",
        "amenity": "school",
        "name": "Escola Estadual Professor José Miranda",
        "operator": "Secretaria de Estado de Educação de Minas Gerais",
        "operator:type": "government",
        "operator:wikidata": "Q61612780",
        "id": "node/12542491806"
      },
      "geometry": {
        "type": "Point",
        "coordinates": [
          -42.2967495,
          -16.1731081
        ]
      }
    },
    {
      "type": "Feature",
      "id": "node/12542491808",
      "properties": {
        "timestamp": "2025-01-29T19:32:56Z",
        "version": 1,
        "changeset": 161911135,
        "addr:city": "Salinas",
        "addr:housenumber": "333",
        "addr:postcode": "39560-000",
        "addr:street": "Rua Padre Salustiano",
        "addr:suburb": "Centro",
        "amenity": "school",
        "name": "Escola Estadual Coronel Idalino Ribeiro",
        "operator": "Secretaria de Estado de Educação de Minas Gerais",
        "operator:type": "government",
        "operator:wikidata": "Q61612780",
        "id": "node/12542491808"
      },
      "geometry": {
        "type": "Point",
        "coordinates": [
          -42.2934479,
          -16.1711591
        ]
      }
    },
    {
      "type": "Feature",
      "id": "node/12542653933",
      "properties": {
        "timestamp": "2025-01-29T21:05:40Z",
        "version": 1,
        "changeset": 161914034,
        "addr:city": "Salinas",
        "addr:housenumber": "1170",
        "addr:postcode": "39560-000",
        "addr:street": "Avenida Antônio Carlos",
        "addr:suburb": "Casablanca",
        "amenity": "school",
        "name": "Escola Municipal Professora Áurea Paula de Souza",
        "operator": "Município de Salinas",
        "operator:type": "public",
        "id": "node/12542653933"
      },
      "geometry": {
        "type": "Point",
        "coordinates": [
          -42.2884029,
          -16.157367
        ]
      }
    },
    {
      "type": "Feature",
      "id": "node/12542653938",
      "properties": {
        "timestamp": "2025-01-30T01:40:35Z",
        "version": 2,
        "changeset": 161920082,
        "addr:city": "Salinas",
        "addr:housenumber": "370",
        "addr:postcode": "39560-000",
        "addr:street": "Alameda dos Oitis",
        "addr:suburb": "Silvio Santiago",
        "amenity": "school",
        "name": "Escola Estadual Doutor Oswaldo Prediliano Santana",
        "operator": "Secretaria de Estado de Educação de Minas Gerais",
        "operator:type": "government",
        "operator:wikidata": "Q61612780",
        "id": "node/12542653938"
      },
      "geometry": {
        "type": "Point",
        "coordinates": [
          -42.2826449,
          -16.1628167
        ]
      }
    },
    {
      "type": "Feature",
      "id": "node/12542653948",
      "properties": {
        "timestamp": "2025-01-29T21:05:40Z",
        "version": 1,
        "changeset": 161914034,
        "addr:city": "Salinas",
        "addr:housenumber": "41",
        "addr:postcode": "39560-000",
        "addr:street": "Rua Joaíma",
        "addr:suburb": "Casa Blanca",
        "amenity": "school",
        "name": "Centro Municipal de Educação Infantil Professor Darcy Freire",
        "operator": "Município de Salinas",
        "operator:type": "public",
        "id": "node/12542653948"
      },
      "geometry": {
        "type": "Point",
        "coordinates": [
          -42.2878972,
          -16.1512461
        ]
      }
    },
    {
      "type": "Feature",
      "id": "node/12542653961",
      "properties": {
        "timestamp": "2025-01-29T21:05:40Z",
        "version": 1,
        "changeset": 161914034,
        "addr:city": "Salinas",
        "addr:housenumber": "282",
        "addr:postcode": "39560-000",
        "addr:street": "Rua Ametista",
        "addr:suburb": "São Geraldo",
        "amenity": "school",
        "name": "Escola Estadual Professor Levindo Lamber",
        "operator": "Secretaria de Estado de Educação de Minas Gerais",
        "operator:type": "government",
        "operator:wikidata": "Q61612780",
        "id": "node/12542653961"
      },
      "geometry": {
        "type": "Point",
        "coordinates": [
          -42.2910661,
          -16.1599271
        ]
      }
    },
    {
      "type": "Feature",
      "id": "node/12543556756",
      "properties": {
        "timestamp": "2025-01-30T12:47:39Z",
        "version": 1,
        "changeset": 161936127,
        "addr:city": "Salinas",
        "addr:housenumber": "536",
        "addr:postcode": "39560-000",
        "addr:street": "Rua José Martins dos Anjos",
        "addr:suburb": "Alvorada",
        "amenity": "school",
        "name": "Pré Escola Municipal Branca de Neve",
        "operator": "Município de Salinas",
        "operator:type": "public",
        "id": "node/12543556756"
      },
      "geometry": {
        "type": "Point",
        "coordinates": [
          -42.2991311,
          -16.171028
        ]
      }
    },
    {
      "type": "Feature",
      "id": "node/12543556763",
      "properties": {
        "timestamp": "2025-01-30T12:47:39Z",
        "version": 1,
        "changeset": 161936127,
        "addr:city": "Salinas",
        "addr:housenumber": "146",
        "addr:postcode": "39560-000",
        "addr:street": "Rua Cônego Benício",
        "addr:suburb": "Alvorada",
        "amenity": "school",
        "name": "Colégio Presbiteriano de Salinas",
        "id": "node/12543556763"
      },
      "geometry": {
        "type": "Point",
        "coordinates": [
          -42.2961232,
          -16.1686313
        ]
      }
    },
    {
      "type": "Feature",
      "id": "node/12544160960",
      "properties": {
        "timestamp": "2025-01-30T17:37:33Z",
        "version": 1,
        "changeset": 161947073,
        "addr:city": "Salinas",
        "addr:housenumber": "278",
        "addr:postcode": "39560-000",
        "addr:street": "Rua Professora Clara Aparecida",
        "addr:suburb": "Raquel",
        "amenity": "school",
        "name": "Pré-Escola Municipal Paraíso da Criança",
        "operator": "Município de Salinas",
        "operator:type": "public",
        "id": "node/12544160960"
      },
      "geometry": {
        "type": "Point",
        "coordinates": [
          -42.2960542,
          -16.1638323
        ]
      }
    }
  ]
}
