{
  "type": "FeatureCollection",
  "features": [
    {
      "type": "Feature",
      "id": "way/682265144",
      "properties": {
        "timestamp": "2019-04-11T07:43:45Z",
        "version": 2,
        "changeset": 69105530,
        "amenity": "social_facility",
        "social_facility": "group_home",
        "social_facility:for": "senior",
        "id": "way/682265144"
      },
      "geometry": {
        "type": "Polygon",
        "coordinates": [
          [
            [
              -42.2964971,
              -16.1623847
            ],
            [
              -42.2972289,
              -16.1627713
            ],
            [
              -42.2968473,
              -16.1636308
            ],
            [
              -42.2967357,
              -16.1635878
            ],
            [
              -42.2962166,
              -16.1633414
            ],
            [
              -42.2960336,
              -16.1632282
            ],
            [
              -42.2964971,
              -16.1623847
            ]
          ]
        ]
      }
    },
    {
      "type": "Feature",
      "id": "node/12540380990",
      "properties": {
        "timestamp": "2025-02-05T00:30:21Z",
        "version": 2,
        "changeset": 162146799,
        "addr:city": "Salinas",
        "addr:housenumber": "300",
        "addr:postcode": "39560-000",
        "addr:street": "Rua Professora Clara Aparecida",
        "addr:suburb": "Raquel",
        "amenity": "social_facility",
        "name": "Centro Comunitário da Paróquia Santo Antônio",
        "operator": "Pastoral da Criança",
        "operator:type": "religious",
        "social_facility": "assisted_living",
        "id": "node/12540380990"
      },
      "geometry": {
        "type": "Point",
        "coordinates": [
          -42.2970568,
          -16.1637058
        ]
      }
    },
    {
      "type": "Feature",
      "id": "node/12542653958",
      "properties": {
        "timestamp": "2025-02-05T00:30:21Z",
        "version": 3,
        "changeset": 162146799,
        "addr:city": "Salinas",
        "addr:housenumber": "339",
        "addr:postcode": "39560-000",
        "addr:street": "Rua Medina",
        "addr:suburb": "Floresta",
        "amenity": "social_facility",
        "name": "Escola de Educação Especial Professora Luzia Nery de Almeida",
        "operator": "Associação de Pais e Amigos dos Excepcionais",
        "operator:type": "ngo",
        "operator:wikidata": "Q16494876",
        "social_facility": "assisted_living",
        "id": "node/12542653958"
      },
      "geometry": {
        "type": "Point",
        "coordinates": [
          -42.2898317,
          -16.1665093
        ]
      }
    },
    {
      "type": "Feature",
      "id": "node/12564234279",
      "properties": {
        "timestamp": "2025-02-07T12:25:01Z",
        "version": 2,
        "changeset": 162243472,
        "addr:city": "Salinas",
        "addr:postcode": "39560-000",
        "addr:street": "Rua Nilson Gonçalves das Neves",
        "addr:suburb": "Floresta",
        "alt_name": "Creas",
        "amenity": "social_facility",
        "name": "Centro de Referência Especializado de Assistência Social Leolina Maria do Rosário",
        "operator": "Município de Salinas",
        "operator:type": "public",
        "id": "node/12564234279"
      },
      "geometry": {
        "type": "Point",
        "coordinates": [
          -42.28928,
          -16.1635061
        ]
      }
    },
    {
      "type": "Feature",
      "id": "node/12565471335",
      "properties": {
        "timestamp": "2025-02-07T12:25:01Z",
        "version": 1,
        "changeset": 162243472,
        "addr:city": "Salinas",
        "addr:housenumber": "1986",
        "addr:postcode": "39560-000",
        "addr:street": "Rua Pedra Azul",
        "addr:suburb": "Casa Blanca",
        "amenity": "social_facility",
        "name": "Centro de Referência em Assistência Social",
        "operator": "Município de Salinas",
        "operator:type": "public",
        "social_facility:for": "underprivileged",
        "id": "node/12565471335"
      },
      "geometry": {
        "type": "Point",
        "coordinates": [
          -42.2874041,
          -16.1512045
        ]
      }
    }
  ]
}
