{
  "type": "FeatureCollection",
  "features": [
    {
      "type": "Feature",
      "id": "node/3404092192",
      "properties": {
        "timestamp": "2016-09-27T13:50:03Z",
        "version": 2,
        "changeset": 42470987,
        "addr:city": "Nova Palma",
        "addr:postcode": "97250-000",
        "addr:street": "Rua Raimundo Aléssio",
        "amenity": "dentist",
        "name": "Alex Cancian",
        "id": "node/3404092192"
      },
      "geometry": {
        "type": "Point",
        "coordinates": [
          -53.4734151,
          -29.4715099
        ]
      }
    },
    {
      "type": "Feature",
      "id": "node/3404105993",
      "properties": {
        "timestamp": "2015-03-17T15:27:44Z",
        "version": 1,
        "changeset": 29543709,
        "addr:city": "Nova Palma",
        "addr:postcode": "97250-000",
        "addr:street": "Rua Almirante Tamandaré",
        "amenity": "dentist",
        "name": "Valternei Ceolin",
        "id": "node/3404105993"
      },
      "geometry": {
        "type": "Point",
        "coordinates": [
          -53.4732728,
          -29.4723396
        ]
      }
    },
    {
      "type": "Feature",
      "id": "node/3404105994",
      "properties": {
        "timestamp": "2024-11-26T14:38:25Z",
        "version": 2,
        "changeset": 159619819,
        "addr:city": "Nova Palma",
        "addr:postcode": "97250-000",
        "addr:street": "Rua Dom Antônio Reis",
        "amenity": "dentist",
        "name": "Felipe Oliveira",
        "id": "node/3404105994"
      },
      "geometry": {
        "type": "Point",
        "coordinates": [
          -53.4726164,
          -29.4719953
        ]
      }
    },
    {
      "type": "Feature",
      "id": "node/3404105995",
      "properties": {
        "timestamp": "2015-03-17T15:27:44Z",
        "version": 1,
        "changeset": 29543709,
        "addr:city": "Nova Palma",
        "addr:postcode": "97250-000",
        "addr:street": "Rua Júlio de Castilhos",
        "amenity": "dentist",
        "name": "Carlos Rossato (Nego)",
        "id": "node/3404105995"
      },
      "geometry": {
        "type": "Point",
        "coordinates": [
          -53.4732649,
          -29.4734275
        ]
      }
    },
    {
      "type": "Feature",
      "id": "node/3404107778",
      "properties": {
        "timestamp": "2024-11-21T18:48:35Z",
        "version": 3,
        "changeset": 159429884,
        "addr:city": "Nova Palma",
        "addr:postcode": "97250-000",
        "addr:street": "Silvio Grotto",
        "amenity": "dentist",
        "name": "Leonaldo Fiori",
        "id": "node/3404107778"
      },
      "geometry": {
        "type": "Point",
        "coordinates": [
          -53.4728299,
          -29.4702293
        ]
      }
    }
  ]
}
