{
  "type": "FeatureCollection",
  "features": [
    {
      "type": "Feature",
      "id": "node/1939216728",
      "properties": {
        "timestamp": "2012-09-30T05:44:12Z",
        "version": 1,
        "changeset": 13304532,
        "name": "CicloBIKE",
        "operator": "ZECA",
        "shop": "bicycle",
        "id": "node/1939216728"
      },
      "geometry": {
        "type": "Point",
        "coordinates": [
          -39.0997755,
          -12.6754449
        ]
      }
    },
    {
      "type": "Feature",
      "id": "node/2022931060",
      "properties": {
        "timestamp": "2017-08-30T01:23:32Z",
        "version": 3,
        "changeset": 51560356,
        "name": "O Ciclista",
        "shop": "bicycle",
        "wheelchair": "yes",
        "id": "node/2022931060"
      },
      "geometry": {
        "type": "Point",
        "coordinates": [
          -39.1024068,
          -12.6729563
        ]
      }
    },
    {
      "type": "Feature",
      "id": "node/2459512929",
      "properties": {
        "timestamp": "2013-09-15T16:29:03Z",
        "version": 1,
        "changeset": 17853280,
        "shop": "bicycle",
        "id": "node/2459512929"
      },
      "geometry": {
        "type": "Point",
        "coordinates": [
          -39.1006088,
          -12.6631452
        ]
      }
    },
    {
      "type": "Feature",
      "id": "node/5336975826",
      "properties": {
        "timestamp": "2018-01-17T12:31:29Z",
        "version": 2,
        "changeset": 55520256,
        "addr:city": "Cruz das Almas",
        "addr:housenumber": "201",
        "addr:postcode": "44380000",
        "addr:street": "Rua Gerson Maia",
        "addr:suburb": "Coplan",
        "name": "Aro Pe√ßas Pereira",
        "shop": "bicycle",
        "id": "node/5336975826"
      },
      "geometry": {
        "type": "Point",
        "coordinates": [
          -39.1211142,
          -12.6570632
        ]
      }
    }
  ]
}
