{
  "type": "FeatureCollection",
  "features": [
    {
      "type": "Feature",
      "id": "way/598674907",
      "properties": {
        "timestamp": "2022-05-23T01:08:42Z",
        "version": 5,
        "changeset": 121340755,
        "addr:city": "Águas Lindas de Goiás",
        "addr:housenumber": "30/32",
        "addr:postcode": "72910-000",
        "addr:street": "Avenida Brasília",
        "addr:suburb": "Parque da Barragem",
        "building": "yes",
        "email": "smsalg.gabinete@gmail.com",
        "government": "public_service",
        "name": "Secretaria Municipal de Saúde de Águas Lindas de Goiás",
        "office": "government",
        "phone": "+55 61 3902-1097 / +55 61 3618-7928",
        "website": "http://aguaslindasdegoias.go.gov.br/secretarias/secretaria-municipal-de-saude/",
        "wheelchair": "limited",
        "id": "way/598674907"
      },
      "geometry": {
        "type": "Polygon",
        "coordinates": [
          [
            [
              -48.2909803,
              -15.7379225
            ],
            [
              -48.2909067,
              -15.738354
            ],
            [
              -48.2906721,
              -15.738309
            ],
            [
              -48.2906834,
              -15.7382474
            ],
            [
              -48.2907477,
              -15.7378856
            ],
            [
              -48.2909803,
              -15.7379225
            ]
          ]
        ]
      }
    },
    {
      "type": "Feature",
      "id": "way/1089726055",
      "properties": {
        "timestamp": "2022-08-27T19:31:05Z",
        "version": 2,
        "changeset": 125454722,
        "addr:city": "Águas Lindas de Goiás - GO",
        "addr:housenumber": "Área Especial 4",
        "addr:postcode": "72910-733",
        "addr:street": "Avenida 2",
        "addr:suburb": "Jardim Querência",
        "air_conditioning": "no",
        "baby_feeding": "no",
        "email": "sic@aguaslindasdegoias.go.gov.br",
        "government": "prefecture",
        "internet_access": "no",
        "layer": "1",
        "name": "Prefeitura Municipal de Águas Lindas de Goiás",
        "office": "government",
        "phone": "+55 61 3618-4007",
        "smoking": "no",
        "website": "https://aguaslindasdegoias.go.gov.br",
        "wheelchair": "limited",
        "id": "way/1089726055"
      },
      "geometry": {
        "type": "Polygon",
        "coordinates": [
          [
            [
              -48.2629029,
              -15.7544072
            ],
            [
              -48.2623311,
              -15.7549705
            ],
            [
              -48.2620026,
              -15.7552941
            ],
            [
              -48.2619912,
              -15.7553054
            ],
            [
              -48.2618118,
              -15.7549469
            ],
            [
              -48.2612799,
              -15.7539044
            ],
            [
              -48.2615141,
              -15.7536589
            ],
            [
              -48.2616796,
              -15.7534968
            ],
            [
              -48.2618176,
              -15.7533652
            ],
            [
              -48.2618311,
              -15.7533523
            ],
            [
              -48.2629456,
              -15.7543649
            ],
            [
              -48.2629334,
              -15.754377
            ],
            [
              -48.2629029,
              -15.7544072
            ]
          ]
        ]
      }
    },
    {
      "type": "Feature",
      "id": "way/1089726056",
      "properties": {
        "timestamp": "2022-08-27T19:06:48Z",
        "version": 1,
        "changeset": 125453983,
        "addr:city": "Águas Lindas de Goiás - GO",
        "addr:housenumber": "AE 4",
        "addr:street": "Avenida 2",
        "addr:suburb": "Jardim Querência",
        "air_conditioning": "no",
        "baby_feeding": "no",
        "building": "yes",
        "email": "financas@aguaslindasdegoias.go.gov.br",
        "government": "administrative",
        "name": "Secretaria Municipal de Economia",
        "office": "government",
        "opening_hours": "Mo-Fr 08:00-17:00",
        "operator": "Prefeitura Municipal de Águas Lindas de Goiás",
        "website": "https://aguaslindasdegoias.go.gov.br/estrutura/secretaria-de-economia/",
        "wheelchair": "no",
        "id": "way/1089726056"
      },
      "geometry": {
        "type": "Polygon",
        "coordinates": [
          [
            [
              -48.2627011,
              -15.7544967
            ],
            [
              -48.2623793,
              -15.7548376
            ],
            [
              -48.2622804,
              -15.7547512
            ],
            [
              -48.2626021,
              -15.7544102
            ],
            [
              -48.2627011,
              -15.7544967
            ]
          ]
        ]
      }
    },
    {
      "type": "Feature",
      "id": "way/1089726057",
      "properties": {
        "timestamp": "2022-08-27T19:06:48Z",
        "version": 1,
        "changeset": 125453983,
        "addr:city": "Águas Lindas de Goiás - GO",
        "addr:housenumber": "AE 4",
        "addr:street": "Avenida 2",
        "addr:suburb": "Jardim Querência",
        "air_conditioning": "no",
        "baby_feeding": "no",
        "building": "yes",
        "government": "yes",
        "internet_access": "no",
        "name": "Secretaria Municipal do Governo",
        "office": "government",
        "opening_hours": "Mo-Fr 08:00-17:00",
        "operator": "Prefeitura Municipal de Águas Lindas de Goiás",
        "phone": "+55 61 3618-1058",
        "smoking": "no",
        "website": "https://aguaslindasdegoias.go.gov.br/estrutura/secretaria-municipal-do-governo/",
        "wheelchair": "limited",
        "id": "way/1089726057"
      },
      "geometry": {
        "type": "Polygon",
        "coordinates": [
          [
            [
              -48.2621771,
              -15.7540042
            ],
            [
              -48.2617808,
              -15.7544398
            ],
            [
              -48.2616353,
              -15.7543172
            ],
            [
              -48.2620317,
              -15.7538816
            ],
            [
              -48.2621771,
              -15.7540042
            ]
          ]
        ]
      }
    },
    {
      "type": "Feature",
      "id": "way/1089726058",
      "properties": {
        "timestamp": "2022-08-27T19:31:05Z",
        "version": 2,
        "changeset": 125454722,
        "addr:city": "Águas Lindas de Goiás - GO",
        "addr:postcode": "72910-733",
        "addr:street": "Avenida 2",
        "addr:suburb": "Jardim Querência",
        "building": "yes",
        "government": "social_security",
        "name": "INSS - Previdência Social de Águas Lindas",
        "office": "government",
        "opening_hours": "Mo-Fr 08:00-17:00",
        "operator": "Instituto Nacional do Seguro Social",
        "operator:short": "INSS",
        "operator:wikidata": "Q10302614",
        "id": "way/1089726058"
      },
      "geometry": {
        "type": "Polygon",
        "coordinates": [
          [
            [
              -48.2618311,
              -15.7533523
            ],
            [
              -48.2618176,
              -15.7533652
            ],
            [
              -48.2616796,
              -15.7534968
            ],
            [
              -48.2615141,
              -15.7536589
            ],
            [
              -48.2615057,
              -15.7536509
            ],
            [
              -48.2613452,
              -15.7534982
            ],
            [
              -48.2616395,
              -15.7531836
            ],
            [
              -48.2618311,
              -15.7533523
            ]
          ]
        ]
      }
    },
    {
      "type": "Feature",
      "id": "way/1089753352",
      "properties": {
        "timestamp": "2022-08-27T21:38:47Z",
        "version": 1,
        "changeset": 125457935,
        "addr:city": "Águas Lindas de Goiás - GO",
        "addr:housenumber": "Lote 30/32",
        "addr:street": "Avenida Brasília",
        "baby_feeding": "no",
        "building": "yes",
        "government": "healthcare",
        "name": "Vigilância em Saúde",
        "office": "government",
        "opening_hours": "Mo-Fr 08:00-17:00",
        "operator": "Secretaria Municipal de Saúde",
        "phone": "+55 61 3618-1409",
        "smoking": "no",
        "website": "https://aguaslindasdegoias.go.gov.br/estrutura/secretaria-de-saude-2/vigilancia-em-saude/",
        "wheelchair": "limited",
        "id": "way/1089753352"
      },
      "geometry": {
        "type": "Polygon",
        "coordinates": [
          [
            [
              -48.2620749,
              -15.7512934
            ],
            [
              -48.261999,
              -15.7513719
            ],
            [
              -48.2617081,
              -15.7511113
            ],
            [
              -48.2617841,
              -15.7510328
            ],
            [
              -48.2620749,
              -15.7512934
            ]
          ]
        ]
      }
    },
    {
      "type": "Feature",
      "id": "node/3271095777",
      "properties": {
        "timestamp": "2021-08-16T17:27:19Z",
        "version": 2,
        "changeset": 109764110,
        "addr:city": "Águas Lindas de Goiás",
        "addr:housenumber": "Lote 01-A",
        "addr:postcode": "72910-000",
        "addr:street": "Avenida 5 setor 08",
        "addr:suburb": "Parque da Barragem",
        "name": "Lab CEU",
        "note": "Inaugurado em novembro de 2014, o CEU de Águas Lindas de Goiás reúne dois edifícios multiuso, um Centro de Referência da Assistência Social (CRAS), biblioteca, telecentro, cineteatro, quadra poliesportiva coberta, pista de skate, equipamentos de ginástica",
        "office": "government",
        "phone": "+55 61 3618 1768",
        "source": "http://culturadigital.br/labceus/2014/11/28/aguas-lindas-de-goias/#!/loc=-15.748671815354848,-48.281795382499695,17",
        "id": "node/3271095777"
      },
      "geometry": {
        "type": "Point",
        "coordinates": [
          -48.2817853,
          -15.7491267
        ]
      }
    }
  ]
}
