{
  "type": "FeatureCollection",
  "features": [
    {
      "type": "Feature",
      "id": "node/3830570456",
      "properties": {
        "timestamp": "2023-04-08T16:26:18Z",
        "version": 3,
        "changeset": 134659771,
        "addr:housenumber": "466",
        "addr:postcode": "37145000",
        "addr:street": "Rua Guarani",
        "addr:suburb": "Centro",
        "amenity": "hospital",
        "emergency": "yes",
        "healthcare": "hospital",
        "name": "Santa Casa de Misericórdia de Alterosa",
        "phone": "+55 35 3294 1293",
        "id": "node/3830570456"
      },
      "geometry": {
        "type": "Point",
        "coordinates": [
          -46.1456295,
          -21.2504826
        ]
      }
    },
    {
      "type": "Feature",
      "id": "node/8623822809",
      "properties": {
        "timestamp": "2021-04-13T01:01:24Z",
        "version": 1,
        "changeset": 102833330,
        "addr:city": "alterosa",
        "addr:housenumber": "683",
        "addr:postcode": "37145000",
        "addr:street": "Rua São Joaquim",
        "addr:suburb": "Centro",
        "amenity": "hospital",
        "healthcare": "hospital",
        "healthcare:speciality": "fisioterapia",
        "name": "Clínica FisioLife - Fisioterapia e Pilates",
        "id": "node/8623822809"
      },
      "geometry": {
        "type": "Point",
        "coordinates": [
          -46.1425316,
          -21.2562967
        ]
      }
    }
  ]
}
