{
  "type": "FeatureCollection",
  "features": [
    {
      "type": "Feature",
      "id": "way/1104825462",
      "properties": {
        "timestamp": "2022-10-17T23:25:08Z",
        "version": 1,
        "changeset": 127697876,
        "addr:city": "Santo André",
        "addr:housenumber": "547",
        "addr:postcode": "09290-730",
        "addr:street": "Avenida Itamarati",
        "addr:suburb": "Jaçatuba",
        "building": "service",
        "name": "DKS Bike",
        "opening_hours": "Mo-Fr 09:00-18:00",
        "payment:cash": "yes",
        "payment:credit_cards": "yes",
        "payment:debit_cards": "yes",
        "payment:pix": "yes",
        "phone": "+55 11 973325676",
        "service:bicycle:bicycle": "yes",
        "service:bicycle:bike": "yes",
        "service:bicycle:cleaning": "yes",
        "service:bicycle:clothing": "yes",
        "service:bicycle:parts": "yes",
        "service:bicycle:repair": "yes",
        "service:bicycle:sales": "yes",
        "service:bicycle:second_hand": "yes",
        "service:bicycle:tools": "yes",
        "service:bicycle:wheel": "yes",
        "shop": "bicycle",
        "id": "way/1104825462"
      },
      "geometry": {
        "type": "Polygon",
        "coordinates": [
          [
            [
              -46.518821,
              -23.6473543
            ],
            [
              -46.5187725,
              -23.6473303
            ],
            [
              -46.5188613,
              -23.6471801
            ],
            [
              -46.5189097,
              -23.6472041
            ],
            [
              -46.5188613,
              -23.6472861
            ],
            [
              -46.518821,
              -23.6473543
            ]
          ]
        ]
      }
    },
    {
      "type": "Feature",
      "id": "node/5610698722",
      "properties": {
        "timestamp": "2023-09-23T01:55:07Z",
        "version": 2,
        "changeset": 141626397,
        "name": "Mbike",
        "shop": "bicycle",
        "id": "node/5610698722"
      },
      "geometry": {
        "type": "Point",
        "coordinates": [
          -46.5434846,
          -23.6543692
        ]
      }
    },
    {
      "type": "Feature",
      "id": "node/5614222287",
      "properties": {
        "timestamp": "2020-01-03T21:56:57Z",
        "version": 3,
        "changeset": 79174811,
        "addr:street": "Avenida Gilda",
        "name": "Speed",
        "shop": "bicycle",
        "id": "node/5614222287"
      },
      "geometry": {
        "type": "Point",
        "coordinates": [
          -46.5398871,
          -23.6739464
        ]
      }
    },
    {
      "type": "Feature",
      "id": "node/6459797388",
      "properties": {
        "timestamp": "2023-07-01T08:30:01Z",
        "version": 2,
        "changeset": 137983600,
        "name": "Concept Bike",
        "shop": "bicycle",
        "id": "node/6459797388"
      },
      "geometry": {
        "type": "Point",
        "coordinates": [
          -46.5364847,
          -23.6598989
        ]
      }
    },
    {
      "type": "Feature",
      "id": "node/6901800150",
      "properties": {
        "timestamp": "2023-06-17T03:12:59Z",
        "version": 3,
        "changeset": 137433629,
        "addr:housenumber": "823",
        "addr:street": "Avenida Guaianazes",
        "name": "Iron Bike",
        "shop": "bicycle",
        "id": "node/6901800150"
      },
      "geometry": {
        "type": "Point",
        "coordinates": [
          -46.5035413,
          -23.6700393
        ]
      }
    },
    {
      "type": "Feature",
      "id": "node/9936530046",
      "properties": {
        "timestamp": "2024-08-31T01:28:54Z",
        "version": 4,
        "changeset": 155996400,
        "addr:city": "Santo André",
        "addr:country": "BR",
        "addr:housenumber": "27",
        "addr:postcode": "09020-270",
        "addr:street": "Rua Guilherme Marconi",
        "addr:suburb": "Vila Assunção",
        "name": "FM Bikes",
        "opening_hours": "Mo-Fr 08:00-18:00; Sa 08:00-14:00",
        "phone": "+55 11 4990-1770",
        "shop": "bicycle",
        "id": "node/9936530046"
      },
      "geometry": {
        "type": "Point",
        "coordinates": [
          -46.5224576,
          -23.666244
        ]
      }
    },
    {
      "type": "Feature",
      "id": "node/10945137658",
      "properties": {
        "timestamp": "2023-12-02T12:42:02Z",
        "version": 2,
        "changeset": 144690442,
        "addr:city": "Santo André",
        "addr:housenumber": "195",
        "addr:postcode": "09080-510",
        "addr:street": "Avenida Industrial",
        "addr:suburb": "Centro",
        "name": "Industrial Bikes",
        "opening_hours": "Mo-Fr 09:00-18:00",
        "payment:cash": "yes",
        "payment:credit_cards": "yes",
        "payment:debit_cards": "yes",
        "phone": "+55 11 44383486",
        "service:bicycle:bicycle": "yes",
        "service:bicycle:bike": "yes",
        "service:bicycle:cleaning": "yes",
        "service:bicycle:clothing": "yes",
        "service:bicycle:parts": "yes",
        "service:bicycle:repair": "yes",
        "service:bicycle:sales": "yes",
        "service:bicycle:service": "yes",
        "service:bicycle:tools": "yes",
        "service:bicycle:wheel": "yes",
        "shop": "bicycle",
        "id": "node/10945137658"
      },
      "geometry": {
        "type": "Point",
        "coordinates": [
          -46.5302465,
          -23.6521205
        ]
      }
    }
  ]
}
