{
  "type": "FeatureCollection",
  "features": [
    {
      "type": "Feature",
      "id": "way/179791732",
      "properties": {
        "timestamp": "2024-09-19T21:02:02Z",
        "version": 3,
        "changeset": 156840492,
        "addr:housenumber": "533",
        "addr:postcode": "09030-340",
        "addr:street": "Rua Guilherme Marconi",
        "addr:suburb": "Vila Assunção",
        "amenity": "doctors",
        "description": "Centro de Diagnóstico",
        "healthcare": "doctor",
        "healthcare:speciality": "general",
        "name": "Casa da Esperança de Santo André",
        "opening_hours": "Mo-Fr 06:00-22:00; Sa 07:00-22:00; Su,PH off",
        "operator": "Rotary Club de Santo André",
        "phone": "+55 11 4979 7333",
        "website": "https://casadaesperanca.com.br/",
        "id": "way/179791732"
      },
      "geometry": {
        "type": "Polygon",
        "coordinates": [
          [
            [
              -46.5265278,
              -23.6677017
            ],
            [
              -46.5266336,
              -23.6677542
            ],
            [
              -46.5266828,
              -23.6677901
            ],
            [
              -46.5267137,
              -23.6678704
            ],
            [
              -46.5267403,
              -23.6679262
            ],
            [
              -46.5267604,
              -23.6679682
            ],
            [
              -46.5265915,
              -23.6680507
            ],
            [
              -46.5265466,
              -23.6680524
            ],
            [
              -46.5263687,
              -23.6679725
            ],
            [
              -46.5263806,
              -23.6679539
            ],
            [
              -46.5263936,
              -23.6679315
            ],
            [
              -46.5264042,
              -23.6679134
            ],
            [
              -46.5264422,
              -23.6678484
            ],
            [
              -46.5265236,
              -23.6677089
            ],
            [
              -46.5265278,
              -23.6677017
            ]
          ]
        ]
      }
    },
    {
      "type": "Feature",
      "id": "way/1224872407",
      "properties": {
        "timestamp": "2023-11-17T20:21:52Z",
        "version": 1,
        "changeset": 144153538,
        "addr:housenumber": "3970",
        "addr:postcode": "09132-032",
        "addr:street": "Avenida Dom Pedro I",
        "addr:suburb": "Vila Luzita",
        "amenity": "doctors",
        "building": "yes",
        "email": "clinicacoleman@outlook.com",
        "healthcare": "doctor",
        "healthcare:speciality": "general",
        "mobile": "+55 11 93803 0855",
        "name": "Clínica Médica Dr. Coleman",
        "id": "way/1224872407"
      },
      "geometry": {
        "type": "Polygon",
        "coordinates": [
          [
            [
              -46.505717,
              -23.6989191
            ],
            [
              -46.5057117,
              -23.6989732
            ],
            [
              -46.5055454,
              -23.6989634
            ],
            [
              -46.5055507,
              -23.698902
            ],
            [
              -46.505717,
              -23.6989191
            ]
          ]
        ]
      }
    },
    {
      "type": "Feature",
      "id": "node/5613584045",
      "properties": {
        "timestamp": "2023-09-06T05:33:02Z",
        "version": 4,
        "changeset": 140877055,
        "amenity": "doctors",
        "healthcare": "doctor",
        "id": "node/5613584045"
      },
      "geometry": {
        "type": "Point",
        "coordinates": [
          -46.5198283,
          -23.6383407
        ]
      }
    },
    {
      "type": "Feature",
      "id": "node/5613755074",
      "properties": {
        "timestamp": "2023-12-30T16:46:07Z",
        "version": 5,
        "changeset": 145705249,
        "addr:housenumber": "1676",
        "addr:street": "Avenida Portugal",
        "amenity": "doctors",
        "healthcare": "doctor",
        "healthcare:speciality": "general;vaccination;andrologia;cirurgia_plástica;infertilidade_masculina;paediatrics;urology;cardiology;dermatology;neurology;angiology",
        "name": "Clínica Portugal",
        "phone": "+55 11 4438 6333",
        "website": "https://clinicaportugal.net/",
        "id": "node/5613755074"
      },
      "geometry": {
        "type": "Point",
        "coordinates": [
          -46.5382388,
          -23.6686299
        ]
      }
    },
    {
      "type": "Feature",
      "id": "node/6459613487",
      "properties": {
        "timestamp": "2024-02-17T14:18:34Z",
        "version": 7,
        "changeset": 147573623,
        "addr:city": "Santo André",
        "addr:street": "Avenida Lino Jardim",
        "amenity": "doctors",
        "healthcare": "doctor",
        "id": "node/6459613487"
      },
      "geometry": {
        "type": "Point",
        "coordinates": [
          -46.5361854,
          -23.6586199
        ]
      }
    },
    {
      "type": "Feature",
      "id": "node/6459613488",
      "properties": {
        "timestamp": "2023-09-12T18:45:30Z",
        "version": 5,
        "changeset": 141177084,
        "addr:city": "Santo André",
        "addr:street": "Avenida Lino Jardim",
        "amenity": "doctors",
        "healthcare": "physiotherapist",
        "name": "Institut Long Tao",
        "id": "node/6459613488"
      },
      "geometry": {
        "type": "Point",
        "coordinates": [
          -46.5361251,
          -23.658549
        ]
      }
    },
    {
      "type": "Feature",
      "id": "node/6466863085",
      "properties": {
        "timestamp": "2023-07-22T23:09:07Z",
        "version": 3,
        "changeset": 138874019,
        "amenity": "doctors",
        "healthcare": "doctor",
        "id": "node/6466863085"
      },
      "geometry": {
        "type": "Point",
        "coordinates": [
          -46.5417814,
          -23.6481843
        ]
      }
    },
    {
      "type": "Feature",
      "id": "node/7084775585",
      "properties": {
        "timestamp": "2023-12-30T17:58:14Z",
        "version": 5,
        "changeset": 145707580,
        "addr:housenumber": "1513",
        "addr:street": "Avenida Portugal",
        "amenity": "doctors",
        "healthcare": "doctor",
        "healthcare:speciality": "apnéia;audição",
        "mobile": "+55 11 97237 9348",
        "name": "Centro Especializado Micro Som",
        "phone": "+55 11 4433 3999",
        "survey:date": "2019-12-25",
        "website": "https://www.microsom.com.br/",
        "id": "node/7084775585"
      },
      "geometry": {
        "type": "Point",
        "coordinates": [
          -46.5369488,
          -23.6681629
        ]
      }
    },
    {
      "type": "Feature",
      "id": "node/11137103545",
      "properties": {
        "timestamp": "2023-08-23T03:26:58Z",
        "version": 2,
        "changeset": 140254053,
        "addr:city": "Santo André",
        "addr:housenumber": "125",
        "addr:street": "Avenida Dom Pedro II",
        "addr:suburb": "Jardim",
        "amenity": "doctors",
        "healthcare": "doctor",
        "healthcare:speciality": "general",
        "mobile": "+55 11 99887 3377",
        "name": "Clinica Cim",
        "phone": "+55 11 4436 3377",
        "id": "node/11137103545"
      },
      "geometry": {
        "type": "Point",
        "coordinates": [
          -46.533053,
          -23.6541402
        ]
      }
    },
    {
      "type": "Feature",
      "id": "node/11140004004",
      "properties": {
        "timestamp": "2023-08-23T22:33:40Z",
        "version": 1,
        "changeset": 140295364,
        "addr:housenumber": "224",
        "addr:street": "Rua Siqueira Campos",
        "addr:suburb": "Centro",
        "amenity": "doctors",
        "contact:phone": "+55 11 4433 6450",
        "healthcare": "doctor",
        "healthcare:speciality": "general",
        "name": "Cemerp",
        "phone": "+55 11 4433 6455",
        "id": "node/11140004004"
      },
      "geometry": {
        "type": "Point",
        "coordinates": [
          -46.5231722,
          -23.6580271
        ]
      }
    },
    {
      "type": "Feature",
      "id": "node/11149285318",
      "properties": {
        "timestamp": "2023-08-28T02:03:31Z",
        "version": 1,
        "changeset": 140472946,
        "addr:city": "Santo André",
        "addr:housenumber": "117",
        "addr:street": "Rua Catequese",
        "addr:suburb": "Jardim",
        "amenity": "doctors",
        "healthcare": "doctor",
        "name": "Alliance",
        "id": "node/11149285318"
      },
      "geometry": {
        "type": "Point",
        "coordinates": [
          -46.5309519,
          -23.6536266
        ]
      }
    },
    {
      "type": "Feature",
      "id": "node/12500868090",
      "properties": {
        "timestamp": "2025-01-14T16:03:05Z",
        "version": 2,
        "changeset": 161350591,
        "addr:city": "Santo André",
        "addr:housenumber": "186",
        "addr:postcode": "09070-210",
        "addr:street": "Alameda São Caetano",
        "addr:suburb": "Jardim",
        "amenity": "doctors",
        "currency:XBT": "yes",
        "healthcare": "doctor",
        "healthcare:speciality": "especialista_em_dor;anaesthetics",
        "name": "Dr Daniel Landim - Especialista em Dor",
        "payment:bitcoin": "yes",
        "payment:lightning": "yes",
        "phone": "+55 11 99373-9270",
        "website": "https://www.instagram.com/drdaniellandim/",
        "id": "node/12500868090"
      },
      "geometry": {
        "type": "Point",
        "coordinates": [
          -46.5407874,
          -23.6445757
        ]
      }
    }
  ]
}
