{
  "type": "FeatureCollection",
  "features": [
    {
      "type": "Feature",
      "id": "way/538809293",
      "properties": {
        "timestamp": "2022-04-16T23:51:53Z",
        "version": 2,
        "changeset": 119801313,
        "amenity": "library",
        "building": "university",
        "id": "way/538809293"
      },
      "geometry": {
        "type": "Polygon",
        "coordinates": [
          [
            [
              -46.528209,
              -23.6439109
            ],
            [
              -46.5280028,
              -23.6439628
            ],
            [
              -46.5279241,
              -23.6437003
            ],
            [
              -46.5281303,
              -23.6436484
            ],
            [
              -46.528209,
              -23.6439109
            ]
          ]
        ]
      }
    },
    {
      "type": "Feature",
      "id": "way/655033945",
      "properties": {
        "timestamp": "2019-10-24T07:09:38Z",
        "version": 2,
        "changeset": 76136427,
        "amenity": "library",
        "building": "university",
        "operator": "Centro Universitário Fundação Santo André",
        "id": "way/655033945"
      },
      "geometry": {
        "type": "Polygon",
        "coordinates": [
          [
            [
              -46.5543989,
              -23.6602684
            ],
            [
              -46.5545318,
              -23.6606302
            ],
            [
              -46.5543614,
              -23.6606827
            ],
            [
              -46.5542285,
              -23.6603209
            ],
            [
              -46.5543989,
              -23.6602684
            ]
          ]
        ]
      }
    },
    {
      "type": "Feature",
      "id": "way/1205394631",
      "properties": {
        "timestamp": "2023-09-06T05:02:30Z",
        "version": 1,
        "changeset": 140876316,
        "amenity": "library",
        "building": "public",
        "name": "Biblioteca Cecilia Meireles",
        "id": "way/1205394631"
      },
      "geometry": {
        "type": "Polygon",
        "coordinates": [
          [
            [
              -46.5190304,
              -23.6393354
            ],
            [
              -46.5188942,
              -23.6393778
            ],
            [
              -46.518802,
              -23.6391294
            ],
            [
              -46.5189382,
              -23.639087
            ],
            [
              -46.5190304,
              -23.6393354
            ]
          ]
        ]
      }
    },
    {
      "type": "Feature",
      "id": "node/1668181786",
      "properties": {
        "timestamp": "2023-12-26T09:08:36Z",
        "version": 12,
        "changeset": 145524418,
        "addr:city": "Santo André",
        "addr:postcode": "09015-080",
        "addr:street": "Praça IV Centenário",
        "addr:suburb": "Centro",
        "alt_name": "Biblioteca Municipal de Santo André",
        "amenity": "library",
        "level": "0",
        "name": "Biblioteca Nair Lacerda",
        "nohousenumber": "yes",
        "opening_hours": "Mo-Fr 09:00-18:00; Sa 08:00-12:00; PH off",
        "operator": "Prefeitura Municipal de Santo André",
        "operator:type": "public",
        "phone": "+55 11 4433 0768",
        "website": "https://culturaz.santoandre.sp.gov.br/espaco/21/",
        "wheelchair": "yes",
        "wikidata": "Q89215702",
        "id": "node/1668181786"
      },
      "geometry": {
        "type": "Point",
        "coordinates": [
          -46.5324207,
          -23.6568867
        ]
      }
    },
    {
      "type": "Feature",
      "id": "node/6553215154",
      "properties": {
        "timestamp": "2022-05-16T22:24:42Z",
        "version": 9,
        "changeset": 121071816,
        "addr:city": "Santo André",
        "addr:postcode": "09150-090",
        "addr:street": "Avenida Rodrigues Alves",
        "addr:suburb": "Paranapiacaba",
        "alt_name": "Biblioteca de Paranapiacaba",
        "amenity": "library",
        "image": "File:At Paranapiacaba 2018 111.jpg",
        "name": "Biblioteca Ábia Ferreira Francisco",
        "nohousenumber": "yes",
        "opening_hours": "Mo-Fr 08:00-17:00; PH off",
        "operator": "Prefeitura Municipal de Santo André",
        "operator:type": "public",
        "short_name": "Biblioteca",
        "website": "https://culturaz.santoandre.sp.gov.br/espaco/28/",
        "wheelchair": "yes",
        "id": "node/6553215154"
      },
      "geometry": {
        "type": "Point",
        "coordinates": [
          -46.2994781,
          -23.778705
        ]
      }
    },
    {
      "type": "Feature",
      "id": "node/6860012750",
      "properties": {
        "timestamp": "2023-10-28T01:29:40Z",
        "version": 9,
        "changeset": 143236643,
        "addr:city": "Santo André",
        "addr:housenumber": "171",
        "addr:postcode": "09010-020",
        "addr:street": "Praça do Carmo",
        "addr:suburb": "Centro",
        "amenity": "library",
        "description": "Biblioteca especializada e espaço cultural aberto às manifestações da palavra como linguagem. Antiga residência de Dona Paulina Isabel de Queiroz.",
        "name": "Casa da Palavra Mário Quintana",
        "name:en": "Literary Center Mário Quintana",
        "name:pt": "Casa da Palavra Mário Quintana",
        "opening_hours": "Tu-Fr 09:30-17:00; PH off",
        "operator": "Prefeitura Municipal de Santo André",
        "operator:type": "public",
        "phone": "+55 11 4427 7701",
        "short_name": "Casa da Palavra",
        "toilets:wheelchair": "yes",
        "website": "https://culturaz.santoandre.sp.gov.br/espaco/135/",
        "wikidata": "Q122717450",
        "id": "node/6860012750"
      },
      "geometry": {
        "type": "Point",
        "coordinates": [
          -46.5260229,
          -23.6575924
        ]
      }
    },
    {
      "type": "Feature",
      "id": "node/6899251153",
      "properties": {
        "timestamp": "2023-10-28T01:29:28Z",
        "version": 6,
        "changeset": 143236635,
        "addr:street": "Rua Guerra Junqueira",
        "amenity": "library",
        "indoor": "room",
        "name": "Biblioteca Vila Humaitá",
        "opening_hours": "Mo-Fr 08:00-11:00, 12:00-17:00; Sa,Su,PH off",
        "website": "https://culturaz.santoandre.sp.gov.br/espaco/27",
        "wheelchair": "yes",
        "id": "node/6899251153"
      },
      "geometry": {
        "type": "Point",
        "coordinates": [
          -46.5053093,
          -23.6752366
        ]
      }
    }
  ]
}
