{
  "type": "FeatureCollection",
  "features": [
    {
      "type": "Feature",
      "id": "way/958700325",
      "properties": {
        "timestamp": "2022-09-28T13:07:48Z",
        "version": 4,
        "changeset": 126740477,
        "building": "yes",
        "building:levels": "2",
        "name": "Pousada Casa Verde",
        "tourism": "guest_house",
        "id": "way/958700325"
      },
      "geometry": {
        "type": "Polygon",
        "coordinates": [
          [
            [
              -48.6634597,
              -26.8127287
            ],
            [
              -48.6633417,
              -26.8127384
            ],
            [
              -48.6633352,
              -26.8126756
            ],
            [
              -48.6634532,
              -26.8126658
            ],
            [
              -48.6634597,
              -26.8127287
            ]
          ]
        ]
      }
    },
    {
      "type": "Feature",
      "id": "way/972140301",
      "properties": {
        "timestamp": "2023-11-14T02:32:26Z",
        "version": 2,
        "changeset": 143992402,
        "addr:city": "Penha",
        "addr:housenumber": "105",
        "addr:postcode": "88385-000",
        "addr:street": "Rua Miguel Inácio da Silva",
        "addr:suburb": "Praia da Armação do Itapocorói",
        "building": "yes",
        "building:levels": "2",
        "contact:email": "contato@paraisotropicalsc.com.br",
        "contact:phone": "+55 47 99127-3730",
        "contact:website": "https://paraisotropicalsc.com.br/",
        "name": "Pousada Paraíso Tropical",
        "name:en": "Pousada Tropical Paradise",
        "tourism": "guest_house",
        "id": "way/972140301"
      },
      "geometry": {
        "type": "Polygon",
        "coordinates": [
          [
            [
              -48.6121066,
              -26.7968931
            ],
            [
              -48.6121313,
              -26.7969909
            ],
            [
              -48.6120681,
              -26.7970036
            ],
            [
              -48.6120959,
              -26.7971134
            ],
            [
              -48.6120363,
              -26.7971254
            ],
            [
              -48.6119837,
              -26.7969179
            ],
            [
              -48.6121066,
              -26.7968931
            ]
          ]
        ]
      }
    },
    {
      "type": "Feature",
      "id": "node/3052284710",
      "properties": {
        "timestamp": "2016-07-04T01:17:29Z",
        "version": 8,
        "changeset": 40468855,
        "addr:city": "Penha",
        "addr:housenumber": "48",
        "addr:postcode": "88385-000",
        "addr:street": "Avenida São João",
        "addr:suburb": "Praia da Armação de Itapocorói",
        "contact:facebook": "https://www.facebook.com/pages/Solar-da-Vov%C3%B3-Emma-Apart/629247370441013",
        "name": "Solar da Vovó Emma House",
        "tourism": "guest_house",
        "id": "node/3052284710"
      },
      "geometry": {
        "type": "Point",
        "coordinates": [
          -48.6064178,
          -26.7898931
        ]
      }
    },
    {
      "type": "Feature",
      "id": "node/5273631965",
      "properties": {
        "timestamp": "2021-05-14T00:17:46Z",
        "version": 5,
        "changeset": 104663040,
        "addr:city": "Penha",
        "addr:housenumber": "674",
        "addr:postcode": "88385-000",
        "addr:street": "Rua São Bento do Sul",
        "addr:suburb": "Praia de Armação do Itapocorói",
        "name": "Pousada Maria Beatriz",
        "tourism": "guest_house",
        "id": "node/5273631965"
      },
      "geometry": {
        "type": "Point",
        "coordinates": [
          -48.6272662,
          -26.7939183
        ]
      }
    },
    {
      "type": "Feature",
      "id": "node/5552547863",
      "properties": {
        "timestamp": "2018-05-11T23:13:26Z",
        "version": 2,
        "changeset": 58891985,
        "addr:housenumber": "4933",
        "addr:street": "Estrada Geral Santa Lídia",
        "breakfast": "yes",
        "contact:facebook": "https://www.facebook.com/chaledoisamores.com.br",
        "contact:phone": "+55 47 3348-1344",
        "contact:website": "http://www.pousadachaledoisamores.com.br/",
        "contact:whatsapp": "+55 47 99687-7900",
        "internet_access": "wlan",
        "name": "Pousada Chalé Dois Amores",
        "rooms": "5",
        "tourism": "guest_house",
        "id": "node/5552547863"
      },
      "geometry": {
        "type": "Point",
        "coordinates": [
          -48.6466034,
          -26.8079314
        ]
      }
    },
    {
      "type": "Feature",
      "id": "node/9393165873",
      "properties": {
        "timestamp": "2023-11-14T02:32:26Z",
        "version": 3,
        "changeset": 143992402,
        "addr:city": "Penha",
        "addr:housenumber": "4",
        "addr:postcode": "88385-000",
        "addr:street": "Rua Pedro Domiciano Pereira",
        "addr:suburb": "Praia da Armação do Itapocorói",
        "internet_access": "yes",
        "internet_access:fee": "no",
        "name": "Beto Pousada",
        "rooms": "5",
        "tourism": "guest_house",
        "id": "node/9393165873"
      },
      "geometry": {
        "type": "Point",
        "coordinates": [
          -48.5994033,
          -26.783381
        ]
      }
    },
    {
      "type": "Feature",
      "id": "node/10709746579",
      "properties": {
        "timestamp": "2023-03-05T21:46:11Z",
        "version": 2,
        "changeset": 133341822,
        "name": "Pousada Canto da Vigia",
        "tourism": "guest_house",
        "id": "node/10709746579"
      },
      "geometry": {
        "type": "Point",
        "coordinates": [
          -48.5992428,
          -26.7762377
        ]
      }
    }
  ]
}
