{
  "type": "FeatureCollection",
  "features": [
    {
      "type": "Feature",
      "id": "node/5600024701",
      "properties": {
        "timestamp": "2018-05-06T12:11:35Z",
        "version": 1,
        "changeset": 58728555,
        "addr:city": "Moraújo",
        "addr:street": "Rua Quinina Moreira",
        "addr:suburb": "CENTRO",
        "amenity": "hospital",
        "healthcare": "hospital",
        "name": "HOSPITAL MUNICIPAL",
        "id": "node/5600024701"
      },
      "geometry": {
        "type": "Point",
        "coordinates": [
          -40.6781736,
          -3.4668612
        ]
      }
    },
    {
      "type": "Feature",
      "id": "node/5600029770",
      "properties": {
        "timestamp": "2022-07-14T00:41:30Z",
        "version": 2,
        "changeset": 123585022,
        "addr:city": "MORAÚJO",
        "addr:street": "Rua Manoel Francisco",
        "amenity": "hospital",
        "healthcare": "hospital",
        "healthcare:speciality": "general",
        "name": "Centro de Saúde da Família Moraújo",
        "id": "node/5600029770"
      },
      "geometry": {
        "type": "Point",
        "coordinates": [
          -40.6803408,
          -3.4622991
        ]
      }
    }
  ]
}
