{
  "type": "FeatureCollection",
  "features": [
    {
      "type": "Feature",
      "id": "node/6983456367",
      "properties": {
        "timestamp": "2021-01-10T12:41:02Z",
        "version": 3,
        "changeset": 97245882,
        "addr:city": "Timon",
        "addr:housenumber": "277",
        "addr:postcode": "65631-390",
        "addr:street": "Avenida Presidente Médici",
        "addr:suburb": "Parque Piauí I",
        "amenity": "dentist",
        "healthcare": "dentist",
        "name": "CT Odontológia",
        "phone": "+55 99 3212 4483",
        "id": "node/6983456367"
      },
      "geometry": {
        "type": "Point",
        "coordinates": [
          -42.8341489,
          -5.0909025
        ]
      }
    },
    {
      "type": "Feature",
      "id": "node/7105419063",
      "properties": {
        "timestamp": "2021-01-10T12:41:02Z",
        "version": 3,
        "changeset": 97245882,
        "addr:city": "Timon",
        "addr:housenumber": "1050",
        "addr:postcode": "65631-240",
        "addr:street": "Avenida Francisco Carlos Jansen",
        "addr:suburb": "Parque Piauí I",
        "amenity": "dentist",
        "healthcare": "dentist",
        "name": "Meu Dentista",
        "id": "node/7105419063"
      },
      "geometry": {
        "type": "Point",
        "coordinates": [
          -42.8339716,
          -5.0901466
        ]
      }
    },
    {
      "type": "Feature",
      "id": "node/7158904171",
      "properties": {
        "timestamp": "2020-01-25T15:50:23Z",
        "version": 1,
        "changeset": 80076355,
        "addr:street": "Avenida Teresina",
        "amenity": "dentist",
        "healthcare": "dentist",
        "healthcare:speciality": "dentist",
        "name": "Sorisso Fácil",
        "id": "node/7158904171"
      },
      "geometry": {
        "type": "Point",
        "coordinates": [
          -42.8377805,
          -5.0949575
        ]
      }
    },
    {
      "type": "Feature",
      "id": "node/7177767968",
      "properties": {
        "timestamp": "2020-12-24T01:03:21Z",
        "version": 3,
        "changeset": 96351652,
        "addr:city": "Timon",
        "addr:housenumber": "367",
        "addr:postcode": "65631-200",
        "addr:street": "Avenida Teresina",
        "addr:suburb": "Parque Piauí I",
        "amenity": "dentist",
        "healthcare": "dentist",
        "name": "Odonto Top",
        "id": "node/7177767968"
      },
      "geometry": {
        "type": "Point",
        "coordinates": [
          -42.8325776,
          -5.0925785
        ]
      }
    },
    {
      "type": "Feature",
      "id": "node/7177798613",
      "properties": {
        "timestamp": "2024-12-07T22:32:54Z",
        "version": 6,
        "changeset": 160041605,
        "addr:city": "Timon",
        "addr:postcode": "65631-390",
        "addr:street": "Avenida Presidente Médici",
        "addr:suburb": "Parque Piauí I",
        "amenity": "dentist",
        "healthcare": "dentist",
        "name": "Rede Orto Estetica",
        "nohousenumber": "yes",
        "phone": "+55 86 9 8186 9000",
        "id": "node/7177798613"
      },
      "geometry": {
        "type": "Point",
        "coordinates": [
          -42.8330244,
          -5.0931182
        ]
      }
    },
    {
      "type": "Feature",
      "id": "node/8221720732",
      "properties": {
        "timestamp": "2021-01-10T12:41:02Z",
        "version": 4,
        "changeset": 97245882,
        "addr:city": "Timon",
        "addr:postcode": "65636-696",
        "addr:street": "Avenida Francisco Carlos Jansen",
        "addr:suburb": "Guarita",
        "amenity": "dentist",
        "healthcare": "dentist",
        "name": "Centro de Especialidades Odontológicas",
        "id": "node/8221720732"
      },
      "geometry": {
        "type": "Point",
        "coordinates": [
          -42.8274125,
          -5.0900388
        ]
      }
    },
    {
      "type": "Feature",
      "id": "node/8221720737",
      "properties": {
        "timestamp": "2021-01-10T12:41:02Z",
        "version": 4,
        "changeset": 97245882,
        "addr:city": "Timon",
        "addr:housenumber": "261",
        "addr:postcode": "65636-696",
        "addr:street": "Avenida Francisco Carlos Jansen",
        "addr:suburb": "Guarita",
        "amenity": "dentist",
        "healthcare": "dentist",
        "name": "Pronto Dente",
        "id": "node/8221720737"
      },
      "geometry": {
        "type": "Point",
        "coordinates": [
          -42.8270305,
          -5.0896894
        ]
      }
    },
    {
      "type": "Feature",
      "id": "node/8242989737",
      "properties": {
        "timestamp": "2021-01-10T12:41:02Z",
        "version": 2,
        "changeset": 97245882,
        "addr:city": "Timon",
        "addr:housenumber": "672",
        "addr:postcode": "65631-240",
        "addr:street": "Avenida Francisco Carlos Jansen",
        "addr:suburb": "Parque Piauí I",
        "amenity": "dentist",
        "healthcare": "dentist",
        "name": "Dentistas Márcia e Márcio",
        "id": "node/8242989737"
      },
      "geometry": {
        "type": "Point",
        "coordinates": [
          -42.8310625,
          -5.0912535
        ]
      }
    },
    {
      "type": "Feature",
      "id": "node/8255317015",
      "properties": {
        "timestamp": "2021-01-10T12:41:02Z",
        "version": 2,
        "changeset": 97245882,
        "addr:city": "Timon",
        "addr:postcode": "65631-390",
        "addr:street": "Avenida Presidente Médici",
        "addr:suburb": "Parque Piauí I",
        "amenity": "dentist",
        "healthcare": "dentist",
        "name": "Odonto Compasny",
        "id": "node/8255317015"
      },
      "geometry": {
        "type": "Point",
        "coordinates": [
          -42.8307808,
          -5.0974263
        ]
      }
    },
    {
      "type": "Feature",
      "id": "node/8256110563",
      "properties": {
        "timestamp": "2021-01-10T12:41:02Z",
        "version": 2,
        "changeset": 97245882,
        "addr:city": "Timon",
        "addr:housenumber": "645",
        "addr:postcode": "65631-390",
        "addr:street": "Avenida Presidente Médici",
        "addr:suburb": "Parque Piauí I",
        "amenity": "dentist",
        "healthcare": "dentist",
        "name": "Coifeodonto",
        "id": "node/8256110563"
      },
      "geometry": {
        "type": "Point",
        "coordinates": [
          -42.832875,
          -5.0933836
        ]
      }
    },
    {
      "type": "Feature",
      "id": "node/8268400340",
      "properties": {
        "timestamp": "2021-01-10T12:41:02Z",
        "version": 2,
        "changeset": 97245882,
        "addr:city": "Timon",
        "addr:postcode": "65631-390",
        "addr:street": "Avenida Presidente Médici",
        "addr:suburb": "Parque Piauí I",
        "amenity": "dentist",
        "healthcare": "dentist",
        "name": "Odonto Clínica Timon",
        "id": "node/8268400340"
      },
      "geometry": {
        "type": "Point",
        "coordinates": [
          -42.8320058,
          -5.0951091
        ]
      }
    },
    {
      "type": "Feature",
      "id": "node/8286082037",
      "properties": {
        "timestamp": "2021-01-10T12:41:02Z",
        "version": 2,
        "changeset": 97245882,
        "addr:postcode": "65631-240",
        "addr:street": "Avenida Francisco Carlos Jansen",
        "addr:suburb": "Parque Piauí I",
        "amenity": "dentist",
        "healthcare": "dentist",
        "name": "Odonto X",
        "id": "node/8286082037"
      },
      "geometry": {
        "type": "Point",
        "coordinates": [
          -42.8342347,
          -5.0899329
        ]
      }
    },
    {
      "type": "Feature",
      "id": "node/9347885398",
      "properties": {
        "timestamp": "2021-12-18T04:39:02Z",
        "version": 1,
        "changeset": 115079859,
        "amenity": "dentist",
        "healthcare": "dentist",
        "id": "node/9347885398"
      },
      "geometry": {
        "type": "Point",
        "coordinates": [
          -42.8384066,
          -5.0952839
        ]
      }
    }
  ]
}
