{
  "type": "FeatureCollection",
  "features": [
    {
      "type": "Feature",
      "id": "node/8242989745",
      "properties": {
        "timestamp": "2021-01-10T12:41:02Z",
        "version": 2,
        "changeset": 97245882,
        "addr:city": "Timon",
        "addr:housenumber": "550",
        "addr:postcode": "65631-210",
        "addr:street": "Avenida Jaime Rios",
        "addr:suburb": "Parque Piauí I",
        "amenity": "doctors",
        "denomination": "baptist",
        "healthcare": "doctor",
        "name": "Ecomed",
        "id": "node/8242989745"
      },
      "geometry": {
        "type": "Point",
        "coordinates": [
          -42.8270779,
          -5.095589
        ]
      }
    },
    {
      "type": "Feature",
      "id": "node/8256110566",
      "properties": {
        "timestamp": "2022-10-08T19:28:03Z",
        "version": 3,
        "changeset": 127218303,
        "addr:city": "Timon",
        "addr:housenumber": "392",
        "addr:postcode": "65631-205",
        "addr:street": "Avenida Teresina",
        "addr:suburb": "Parque Piauí I",
        "amenity": "doctors",
        "healthcare": "doctor",
        "name": "CETI- Oftalmologia, otorrino e neurologista",
        "id": "node/8256110566"
      },
      "geometry": {
        "type": "Point",
        "coordinates": [
          -42.8331005,
          -5.0925326
        ]
      }
    }
  ]
}
