{
  "type": "FeatureCollection",
  "features": [
    {
      "type": "Feature",
      "id": "way/767923159",
      "properties": {
        "timestamp": "2024-12-07T18:54:03Z",
        "version": 4,
        "changeset": 160036604,
        "addr:city": "Timon",
        "addr:street": "Rua Antônio Marques",
        "name": "CIRETRAN - DETRAN",
        "nohousenumber": "yes",
        "office": "government",
        "id": "way/767923159"
      },
      "geometry": {
        "type": "Polygon",
        "coordinates": [
          [
            [
              -42.8334057,
              -5.0948459
            ],
            [
              -42.8335758,
              -5.0945035
            ],
            [
              -42.8336176,
              -5.0944951
            ],
            [
              -42.8339083,
              -5.0946415
            ],
            [
              -42.8337246,
              -5.095006
            ],
            [
              -42.8337231,
              -5.095009
            ],
            [
              -42.8334147,
              -5.0948609
            ],
            [
              -42.8334057,
              -5.0948459
            ]
          ]
        ]
      }
    },
    {
      "type": "Feature",
      "id": "way/882842700",
      "properties": {
        "timestamp": "2021-01-03T10:15:57Z",
        "version": 2,
        "changeset": 96839312,
        "addr:city": "Timon",
        "addr:postcode": "65631-391",
        "addr:street": "Avenida Presidente Médici",
        "addr:suburb": "Parque Piauí I",
        "building": "service",
        "government": "register_office",
        "name": "Catório 2° Oficio",
        "office": "government",
        "id": "way/882842700"
      },
      "geometry": {
        "type": "Polygon",
        "coordinates": [
          [
            [
              -42.8338822,
              -5.092598
            ],
            [
              -42.8338513,
              -5.0926547
            ],
            [
              -42.8336315,
              -5.0925361
            ],
            [
              -42.8336623,
              -5.0924794
            ],
            [
              -42.8338822,
              -5.092598
            ]
          ]
        ]
      }
    },
    {
      "type": "Feature",
      "id": "way/883022464",
      "properties": {
        "timestamp": "2022-03-14T01:19:00Z",
        "version": 4,
        "changeset": 118450109,
        "addr:city": "Timon",
        "addr:street": "Rua Maria Carlos da Silva",
        "addr:suburb": "Parque Piauí",
        "building": "yes",
        "name": "Centro de Treinamento Prof° Wall Ferraz",
        "office": "government",
        "id": "way/883022464"
      },
      "geometry": {
        "type": "Polygon",
        "coordinates": [
          [
            [
              -42.8362929,
              -5.0952339
            ],
            [
              -42.8360838,
              -5.0956365
            ],
            [
              -42.8359689,
              -5.0955773
            ],
            [
              -42.8361781,
              -5.0951747
            ],
            [
              -42.8362929,
              -5.0952339
            ]
          ]
        ]
      }
    },
    {
      "type": "Feature",
      "id": "way/883022474",
      "properties": {
        "timestamp": "2022-03-14T01:19:00Z",
        "version": 5,
        "changeset": 118450109,
        "addr:city": "Timon",
        "addr:postcode": "65636-230",
        "addr:street": "Rua Maria Carlos da Silva",
        "addr:suburb": "Parque Piauí",
        "building": "yes",
        "name": "SEMED - Secretaria Municipal de Edução",
        "office": "government",
        "id": "way/883022474"
      },
      "geometry": {
        "type": "Polygon",
        "coordinates": [
          [
            [
              -42.8368665,
              -5.0953647
            ],
            [
              -42.8368385,
              -5.095419
            ],
            [
              -42.8368064,
              -5.0954027
            ],
            [
              -42.836788,
              -5.0954385
            ],
            [
              -42.8364211,
              -5.0952514
            ],
            [
              -42.8364125,
              -5.0952682
            ],
            [
              -42.8362045,
              -5.0951621
            ],
            [
              -42.8362691,
              -5.0950363
            ],
            [
              -42.8364332,
              -5.09512
            ],
            [
              -42.836451,
              -5.0950855
            ],
            [
              -42.8364983,
              -5.0951096
            ],
            [
              -42.8364708,
              -5.095163
            ],
            [
              -42.8368665,
              -5.0953647
            ]
          ]
        ]
      }
    },
    {
      "type": "Feature",
      "id": "way/1063365439",
      "properties": {
        "timestamp": "2022-05-24T18:42:45Z",
        "version": 1,
        "changeset": 121439468,
        "addr:city": "Timon",
        "addr:housenumber": "825",
        "addr:street": "Rua Miguel Simão",
        "addr:suburb": "Centro",
        "government": "social_services",
        "name": "SEMDS - Secretaria Municipal de Densenvolvimento Social",
        "office": "government",
        "id": "way/1063365439"
      },
      "geometry": {
        "type": "Polygon",
        "coordinates": [
          [
            [
              -42.8280669,
              -5.100206
            ],
            [
              -42.8280931,
              -5.1006412
            ],
            [
              -42.8276246,
              -5.1006106
            ],
            [
              -42.8276385,
              -5.1001095
            ],
            [
              -42.8280669,
              -5.100206
            ]
          ]
        ]
      }
    },
    {
      "type": "Feature",
      "id": "node/7124420613",
      "properties": {
        "timestamp": "2020-12-24T01:05:31Z",
        "version": 5,
        "changeset": 96351689,
        "addr:city": "Timon",
        "addr:housenumber": "689",
        "addr:postcode": "65631-390",
        "addr:street": "Avenida Presidente Médici",
        "addr:suburb": "Parque Piauí I",
        "government": "register_office",
        "name": "Cartório do 3° Oficio de Timon",
        "office": "government",
        "id": "node/7124420613"
      },
      "geometry": {
        "type": "Point",
        "coordinates": [
          -42.8326621,
          -5.0937902
        ]
      }
    },
    {
      "type": "Feature",
      "id": "node/8239136848",
      "properties": {
        "timestamp": "2020-12-18T03:44:39Z",
        "version": 1,
        "changeset": 96036972,
        "addr:city": "Timon",
        "addr:housenumber": "537",
        "addr:postcode": "65631-210",
        "addr:street": "Avenida Jaime Rios",
        "addr:suburb": "Parque Piauí I",
        "denomination": "seventh_day_adventist",
        "name": "AGERT",
        "office": "government",
        "id": "node/8239136848"
      },
      "geometry": {
        "type": "Point",
        "coordinates": [
          -42.8268853,
          -5.0953721
        ]
      }
    },
    {
      "type": "Feature",
      "id": "node/8256025609",
      "properties": {
        "timestamp": "2020-12-23T23:33:13Z",
        "version": 1,
        "changeset": 96350295,
        "addr:city": "Timon",
        "addr:housenumber": "467",
        "addr:postcode": "65631-270",
        "addr:street": "Rua Rufino da Costa Sousa",
        "addr:suburb": "Parque Piauí I",
        "name": "Consórcio Intermunicipal de Mobilidade Urbana",
        "office": "government",
        "id": "node/8256025609"
      },
      "geometry": {
        "type": "Point",
        "coordinates": [
          -42.8296123,
          -5.0941669
        ]
      }
    },
    {
      "type": "Feature",
      "id": "node/8256225192",
      "properties": {
        "timestamp": "2020-12-24T02:12:24Z",
        "version": 1,
        "changeset": 96352760,
        "addr:city": "Timon",
        "addr:housenumber": "659",
        "addr:postcode": "65631-350",
        "addr:street": "Rua Joaquim Pedreiras",
        "addr:suburb": "Parque Piauí I",
        "name": "Vigilância Sanitária e Ambiental",
        "office": "government",
        "id": "node/8256225192"
      },
      "geometry": {
        "type": "Point",
        "coordinates": [
          -42.8320412,
          -5.093146
        ]
      }
    },
    {
      "type": "Feature",
      "id": "node/8256225209",
      "properties": {
        "timestamp": "2020-12-24T02:12:24Z",
        "version": 1,
        "changeset": 96352760,
        "addr:city": "Timon",
        "addr:housenumber": "708",
        "addr:postcode": "65631-350",
        "addr:street": "Rua Joaquim Pedreiras",
        "addr:suburb": "Parque Piauí I",
        "name": "Dep. de Vigilância Epidemiológica",
        "office": "government",
        "id": "node/8256225209"
      },
      "geometry": {
        "type": "Point",
        "coordinates": [
          -42.8317236,
          -5.0940907
        ]
      }
    },
    {
      "type": "Feature",
      "id": "node/8256248704",
      "properties": {
        "timestamp": "2021-01-10T12:41:02Z",
        "version": 3,
        "changeset": 97245882,
        "addr:city": "Timon",
        "addr:postcode": "65631-310",
        "addr:street": "Rua Eulálio da Costa Sousa",
        "addr:suburb": "Parque Piauí I",
        "government": "healthcare",
        "name": "Secretaria Municipal de Saúde",
        "office": "government",
        "id": "node/8256248704"
      },
      "geometry": {
        "type": "Point",
        "coordinates": [
          -42.8303021,
          -5.0949843
        ]
      }
    },
    {
      "type": "Feature",
      "id": "node/9767875856",
      "properties": {
        "timestamp": "2022-05-24T18:42:45Z",
        "version": 1,
        "changeset": 121439468,
        "office": "government",
        "id": "node/9767875856"
      },
      "geometry": {
        "type": "Point",
        "coordinates": [
          -42.8281995,
          -5.0986971
        ]
      }
    }
  ]
}
