{
  "type": "FeatureCollection",
  "features": [
    {
      "type": "Feature",
      "id": "node/6983487649",
      "properties": {
        "timestamp": "2020-12-29T01:04:31Z",
        "version": 2,
        "changeset": 96564835,
        "addr:city": "Timon",
        "addr:housenumber": "499",
        "addr:postcode": "65631-390",
        "addr:street": "Avenida Presidente Médici",
        "addr:suburb": "Parque Piauí I",
        "name": "Hotel Cocais",
        "phone": "+55 99 3212 0205",
        "tourism": "hotel",
        "id": "node/6983487649"
      },
      "geometry": {
        "type": "Point",
        "coordinates": [
          -42.8334289,
          -5.0922797
        ]
      }
    },
    {
      "type": "Feature",
      "id": "node/7160834807",
      "properties": {
        "timestamp": "2020-01-26T18:03:03Z",
        "version": 1,
        "changeset": 80105014,
        "name": "Parnaíba",
        "tourism": "hotel",
        "id": "node/7160834807"
      },
      "geometry": {
        "type": "Point",
        "coordinates": [
          -42.8198333,
          -5.1012003
        ]
      }
    },
    {
      "type": "Feature",
      "id": "node/8285814695",
      "properties": {
        "timestamp": "2021-01-10T12:41:02Z",
        "version": 2,
        "changeset": 97245882,
        "addr:city": "Timon",
        "addr:housenumber": "100",
        "addr:postcode": "65631-391",
        "addr:street": "Avenida Presidente Médici",
        "addr:suburb": "Parque Piauí I",
        "name": "Dormitório Familiar",
        "tourism": "hotel",
        "id": "node/8285814695"
      },
      "geometry": {
        "type": "Point",
        "coordinates": [
          -42.8349718,
          -5.0899359
        ]
      }
    },
    {
      "type": "Feature",
      "id": "node/8285889452",
      "properties": {
        "timestamp": "2021-01-10T12:41:02Z",
        "version": 2,
        "changeset": 97245882,
        "addr:city": "Timon",
        "addr:postcode": "65631-240",
        "addr:street": "Avenida Francisco Carlos Jansen",
        "addr:suburb": "Parque Piauí I",
        "name": "Hotel e Restaurante São José",
        "tourism": "hotel",
        "id": "node/8285889452"
      },
      "geometry": {
        "type": "Point",
        "coordinates": [
          -42.8352014,
          -5.0894967
        ]
      }
    }
  ]
}
