{
  "type": "FeatureCollection",
  "features": [
    {
      "type": "Feature",
      "id": "relation/13899190",
      "properties": {
        "timestamp": "2022-03-06T23:47:44Z",
        "version": 1,
        "changeset": 118177726,
        "addr:city": "Timon",
        "addr:housenumber": "415",
        "addr:postcode": "65631-390",
        "addr:street": "Avenida Presidente Médici",
        "addr:suburb": "Parque Piauí I",
        "amenity": "pharmacy",
        "brand": "Drogasil",
        "brand:wikidata": "Q5308185",
        "brand:wikipedia": "pt:Drogasil",
        "building": "yes",
        "dispensing": "yes",
        "healthcare": "pharmacy",
        "name": "Drogasil",
        "type": "multipolygon",
        "wheelchair": "yes",
        "id": "relation/13899190"
      },
      "geometry": {
        "type": "Polygon",
        "coordinates": [
          [
            [
              -42.8337428,
              -5.0914152
            ],
            [
              -42.8336916,
              -5.0915086
            ],
            [
              -42.83349,
              -5.0913989
            ],
            [
              -42.8335373,
              -5.0913084
            ],
            [
              -42.8337428,
              -5.0914152
            ]
          ]
        ]
      }
    },
    {
      "type": "Feature",
      "id": "way/894687746",
      "properties": {
        "timestamp": "2021-12-18T20:31:25Z",
        "version": 5,
        "changeset": 115108292,
        "addr:city": "Timon",
        "addr:street": "Avenida Teresina",
        "addr:suburb": "Parque Piauí",
        "amenity": "pharmacy",
        "building": "yes",
        "building:levels": "0",
        "dispensing": "yes",
        "drive_through": "no",
        "healthcare": "pharmacy",
        "name": "Drograria Mais Saúde",
        "roof:levels": "0",
        "id": "way/894687746"
      },
      "geometry": {
        "type": "Polygon",
        "coordinates": [
          [
            [
              -42.8378216,
              -5.095268
            ],
            [
              -42.8377911,
              -5.0953304
            ],
            [
              -42.8377309,
              -5.0953013
            ],
            [
              -42.8377615,
              -5.0952388
            ],
            [
              -42.8378216,
              -5.095268
            ]
          ]
        ]
      }
    },
    {
      "type": "Feature",
      "id": "way/1320403731",
      "properties": {
        "timestamp": "2024-10-03T14:41:50Z",
        "version": 1,
        "changeset": 157422587,
        "addr:city": "Timon",
        "addr:postcode": "65636-395",
        "addr:street": "Avenida Luís Firmino de Sousa",
        "addr:suburb": "Vila João Reis",
        "amenity": "pharmacy",
        "building": "yes",
        "healthcare": "pharmacy",
        "name": "Drogaria Barbosa",
        "id": "way/1320403731"
      },
      "geometry": {
        "type": "Polygon",
        "coordinates": [
          [
            [
              -42.8498084,
              -5.1090975
            ],
            [
              -42.8498221,
              -5.1092674
            ],
            [
              -42.8497388,
              -5.109274
            ],
            [
              -42.8497219,
              -5.1090648
            ],
            [
              -42.8498084,
              -5.1090975
            ]
          ]
        ]
      }
    },
    {
      "type": "Feature",
      "id": "node/6978550143",
      "properties": {
        "timestamp": "2021-05-26T19:47:37Z",
        "version": 3,
        "changeset": 105377303,
        "addr:city": "Timon",
        "addr:housenumber": "946",
        "addr:street": "Avenida Teresina",
        "addr:suburb": "Parque Piaui",
        "amenity": "pharmacy",
        "dispensing": "yes",
        "healthcare": "pharmacy",
        "name": "Drogaria Castro",
        "operator": "Drogaria Castro",
        "payment:cash": "yes",
        "payment:credit_cards": "yes",
        "payment:debit_cards": "yes",
        "id": "node/6978550143"
      },
      "geometry": {
        "type": "Point",
        "coordinates": [
          -42.837517,
          -5.0948115
        ]
      }
    },
    {
      "type": "Feature",
      "id": "node/6982414537",
      "properties": {
        "timestamp": "2021-01-10T12:41:02Z",
        "version": 3,
        "changeset": 97245882,
        "addr:city": "Timon",
        "addr:housenumber": "270",
        "addr:postcode": "65631-391",
        "addr:street": "Avenida Presidente Médici",
        "addr:suburb": "Parque Piauí I",
        "amenity": "pharmacy",
        "brand": "Pague Menos",
        "brand:wikidata": "Q7124466",
        "brand:wikipedia": "pt:Pague Menos",
        "dispensing": "yes",
        "healthcare": "pharmacy",
        "name": "Pague Menos",
        "opening_hours": "Mo-Su 09:00-21:00",
        "payment:cash": "yes",
        "payment:credit_cards": "yes",
        "payment:debit_cards": "yes",
        "phone": "+55 98 3212 1540",
        "website": "https://www.paguemenos.com.br/",
        "id": "node/6982414537"
      },
      "geometry": {
        "type": "Point",
        "coordinates": [
          -42.8343752,
          -5.0911399
        ]
      }
    },
    {
      "type": "Feature",
      "id": "node/6983456362",
      "properties": {
        "timestamp": "2020-12-29T01:04:31Z",
        "version": 3,
        "changeset": 96564835,
        "addr:city": "Timon",
        "addr:postcode": "65631-390",
        "addr:street": "Avenida Presidente Médici",
        "addr:suburb": "Parque Piauí I",
        "amenity": "pharmacy",
        "dispensing": "yes",
        "email": "redefabio@drogariasultrapopular.com.br",
        "healthcare": "pharmacy",
        "name": "Ultra Popular",
        "operator": "HIPER FARMA LTDA",
        "website": "https://www.drogariasultrapopular.com.br",
        "id": "node/6983456362"
      },
      "geometry": {
        "type": "Point",
        "coordinates": [
          -42.8340353,
          -5.0911359
        ]
      }
    },
    {
      "type": "Feature",
      "id": "node/6983486456",
      "properties": {
        "timestamp": "2022-10-21T00:28:25Z",
        "version": 5,
        "changeset": 127859388,
        "addr:city": "Timon",
        "addr:housenumber": "310",
        "addr:postcode": "65631-391",
        "addr:street": "Avenida Presidente Médici",
        "addr:suburb": "Parque Piauí I",
        "amenity": "pharmacy",
        "brand": "Drogaria Globo",
        "brand:wikidata": "Q56351623",
        "dispensing": "yes",
        "drive_through": "no",
        "healthcare": "pharmacy",
        "name": "Drogaria Globo",
        "website": "https://www.drogariasglobo.com.br/",
        "id": "node/6983486456"
      },
      "geometry": {
        "type": "Point",
        "coordinates": [
          -42.8342727,
          -5.0912731
        ]
      }
    },
    {
      "type": "Feature",
      "id": "node/6983487638",
      "properties": {
        "timestamp": "2020-12-29T01:04:31Z",
        "version": 2,
        "changeset": 96564835,
        "addr:city": "Timon",
        "addr:postcode": "65631-390",
        "addr:street": "Avenida Presidente Médici",
        "addr:suburb": "Parque Piauí I",
        "amenity": "pharmacy",
        "dispensing": "yes",
        "healthcare": "pharmacy",
        "name": "Drogaria Hortelina",
        "id": "node/6983487638"
      },
      "geometry": {
        "type": "Point",
        "coordinates": [
          -42.8335657,
          -5.0920065
        ]
      }
    },
    {
      "type": "Feature",
      "id": "node/7184816517",
      "properties": {
        "timestamp": "2020-02-04T17:06:23Z",
        "version": 1,
        "changeset": 80546090,
        "addr:city": "Timon",
        "addr:housenumber": "1695",
        "addr:street": "Avenida Presidente Médici",
        "addr:suburb": "Formosa",
        "amenity": "pharmacy",
        "dispensing": "yes",
        "healthcare": "pharmacy",
        "name": "Fórmula - Farmácia de manipulação",
        "phone": "+55 99 3212 8204",
        "id": "node/7184816517"
      },
      "geometry": {
        "type": "Point",
        "coordinates": [
          -42.8289017,
          -5.1029113
        ]
      }
    },
    {
      "type": "Feature",
      "id": "node/7184816518",
      "properties": {
        "timestamp": "2021-01-10T12:41:02Z",
        "version": 3,
        "changeset": 97245882,
        "addr:city": "Timon",
        "addr:housenumber": "1269",
        "addr:postcode": "65631-240",
        "addr:street": "Avenida Francisco Carlos Jansen",
        "addr:suburb": "Parque Piauí I",
        "amenity": "pharmacy",
        "dispensing": "yes",
        "healthcare": "pharmacy",
        "name": "Fórmula - Farmácia de manipulação",
        "id": "node/7184816518"
      },
      "geometry": {
        "type": "Point",
        "coordinates": [
          -42.8356487,
          -5.08886
        ]
      }
    },
    {
      "type": "Feature",
      "id": "node/8250136773",
      "properties": {
        "timestamp": "2020-12-21T22:34:07Z",
        "version": 1,
        "changeset": 96219715,
        "amenity": "pharmacy",
        "dispensing": "no",
        "healthcare": "pharmacy",
        "name": "Drogaria Wilson",
        "payment:cash": "yes",
        "payment:credit_cards": "yes",
        "payment:debit_cards": "yes",
        "id": "node/8250136773"
      },
      "geometry": {
        "type": "Point",
        "coordinates": [
          -42.835635,
          -5.1021219
        ]
      }
    },
    {
      "type": "Feature",
      "id": "node/8268130549",
      "properties": {
        "timestamp": "2021-01-10T12:41:02Z",
        "version": 2,
        "changeset": 97245882,
        "addr:city": "Timon",
        "addr:housenumber": "879",
        "addr:postcode": "65631-240",
        "addr:street": "Avenida Francisco Carlos Jansen",
        "addr:suburb": "Parque Piauí I",
        "amenity": "pharmacy",
        "dispensing": "yes",
        "healthcare": "pharmacy",
        "name": "Drogarias Bem Barato",
        "id": "node/8268130549"
      },
      "geometry": {
        "type": "Point",
        "coordinates": [
          -42.8324081,
          -5.0910393
        ]
      }
    },
    {
      "type": "Feature",
      "id": "node/8285814685",
      "properties": {
        "timestamp": "2021-01-10T12:41:02Z",
        "version": 2,
        "changeset": 97245882,
        "addr:city": "Timon",
        "addr:housenumber": "138",
        "addr:postcode": "65631-391",
        "addr:street": "Avenida Presidente Médici",
        "addr:suburb": "Parque Piauí I",
        "amenity": "pharmacy",
        "dispensing": "yes",
        "healthcare": "pharmacy",
        "name": "Drogaria N.S. do Carmo",
        "id": "node/8285814685"
      },
      "geometry": {
        "type": "Point",
        "coordinates": [
          -42.8347851,
          -5.0903089
        ]
      }
    },
    {
      "type": "Feature",
      "id": "node/8286082026",
      "properties": {
        "timestamp": "2021-02-08T10:47:16Z",
        "version": 3,
        "changeset": 98902976,
        "addr:postcode": "65631-240",
        "addr:street": "Avenida Francisco Carlos Jansen",
        "addr:suburb": "Parque Piauí I",
        "amenity": "pharmacy",
        "beds": "0",
        "dispensing": "yes",
        "electricity": "grid",
        "emergency": "no",
        "healthcare": "pharmacy",
        "healthcare:speciality": "pharmacology",
        "name": "Equilíbrio Farmácia",
        "operational_status": "operational",
        "operator:type": "private",
        "part_time_beds": "0",
        "wheelchair": "yes",
        "id": "node/8286082026"
      },
      "geometry": {
        "type": "Point",
        "coordinates": [
          -42.8346758,
          -5.0895818
        ]
      }
    },
    {
      "type": "Feature",
      "id": "node/8307505280",
      "properties": {
        "timestamp": "2021-01-10T12:41:02Z",
        "version": 2,
        "changeset": 97245882,
        "addr:city": "Timon",
        "addr:housenumber": "1490",
        "addr:postcode": "65630-000",
        "addr:street": "Avenida Francisco Carlos Jansen",
        "addr:suburb": "Parque São Francisco III",
        "amenity": "pharmacy",
        "dispensing": "yes",
        "healthcare": "pharmacy",
        "name": "Drogaria Joãozinho",
        "id": "node/8307505280"
      },
      "geometry": {
        "type": "Point",
        "coordinates": [
          -42.836682,
          -5.0870904
        ]
      }
    },
    {
      "type": "Feature",
      "id": "node/8307505293",
      "properties": {
        "timestamp": "2021-01-10T12:41:02Z",
        "version": 2,
        "changeset": 97245882,
        "addr:city": "Timon",
        "addr:housenumber": "1588A",
        "addr:postcode": "65630-000",
        "addr:street": "Avenida Francisco Carlos Jansen",
        "addr:suburb": "Parque São Francisco III",
        "amenity": "pharmacy",
        "dispensing": "yes",
        "healthcare": "pharmacy",
        "name": "Óticca Athitude",
        "id": "node/8307505293"
      },
      "geometry": {
        "type": "Point",
        "coordinates": [
          -42.8372496,
          -5.0864246
        ]
      }
    },
    {
      "type": "Feature",
      "id": "node/8307585721",
      "properties": {
        "timestamp": "2021-01-10T12:41:02Z",
        "version": 2,
        "changeset": 97245882,
        "addr:city": "Timon",
        "addr:housenumber": "1780",
        "addr:postcode": "65630-000",
        "addr:street": "Avenida Francisco Carlos Jansen",
        "addr:suburb": "Parque São Francisco III",
        "amenity": "pharmacy",
        "dispensing": "yes",
        "healthcare": "pharmacy",
        "name": "Droga Farma",
        "id": "node/8307585721"
      },
      "geometry": {
        "type": "Point",
        "coordinates": [
          -42.83815,
          -5.0853328
        ]
      }
    },
    {
      "type": "Feature",
      "id": "node/8307611139",
      "properties": {
        "timestamp": "2021-01-10T12:41:02Z",
        "version": 2,
        "changeset": 97245882,
        "addr:city": "Timon",
        "addr:postcode": "65630-000",
        "addr:street": "Avenida Francisco Carlos Jansen",
        "addr:suburb": "Parque São Francisco III",
        "amenity": "pharmacy",
        "dispensing": "yes",
        "healthcare": "pharmacy",
        "name": "Bem Barato Drogarias",
        "id": "node/8307611139"
      },
      "geometry": {
        "type": "Point",
        "coordinates": [
          -42.8402259,
          -5.0826693
        ]
      }
    },
    {
      "type": "Feature",
      "id": "node/9045633361",
      "properties": {
        "timestamp": "2021-08-29T17:58:26Z",
        "version": 1,
        "changeset": 110422606,
        "addr:city": "Timon",
        "addr:street": "Avenida Teresina",
        "addr:suburb": "Parque Piauí I",
        "amenity": "pharmacy",
        "dispensing": "yes",
        "healthcare": "pharmacy",
        "name": "Drogaria Alencar",
        "id": "node/9045633361"
      },
      "geometry": {
        "type": "Point",
        "coordinates": [
          -42.8347744,
          -5.0934011
        ]
      }
    },
    {
      "type": "Feature",
      "id": "node/9045642491",
      "properties": {
        "timestamp": "2021-08-29T17:47:13Z",
        "version": 2,
        "changeset": 110422293,
        "addr:city": "Timon",
        "addr:street": "Avenida Teresina",
        "addr:suburb": "Parque Piauí I",
        "amenity": "pharmacy",
        "dispensing": "yes",
        "healthcare": "pharmacy",
        "name": "Botica Navi",
        "id": "node/9045642491"
      },
      "geometry": {
        "type": "Point",
        "coordinates": [
          -42.8359729,
          -5.0939342
        ]
      }
    },
    {
      "type": "Feature",
      "id": "node/12218844652",
      "properties": {
        "timestamp": "2024-10-03T14:41:50Z",
        "version": 1,
        "changeset": 157422587,
        "amenity": "pharmacy",
        "healthcare": "pharmacy",
        "id": "node/12218844652"
      },
      "geometry": {
        "type": "Point",
        "coordinates": [
          -42.8485802,
          -5.1083367
        ]
      }
    }
  ]
}
