{
  "type": "FeatureCollection",
  "features": [
    {
      "type": "Feature",
      "id": "node/7125047732",
      "properties": {
        "timestamp": "2021-01-13T00:26:58Z",
        "version": 3,
        "changeset": 97401781,
        "addr:city": "Timon",
        "addr:housenumber": "1126",
        "addr:street": "Avenida Francisco Vitorino da Assunção",
        "addr:suburb": "Parque Piaui II",
        "amenity": "social_facility",
        "name": "CRAS - Centro de Referência da Assistência Social",
        "operator": "Prefeitura de Timon",
        "social_facility": "assisted_living",
        "social_facility:for": "underprivileged",
        "wheelchair": "yes",
        "id": "node/7125047732"
      },
      "geometry": {
        "type": "Point",
        "coordinates": [
          -42.8384809,
          -5.0965805
        ]
      }
    },
    {
      "type": "Feature",
      "id": "node/7159265004",
      "properties": {
        "timestamp": "2020-12-23T19:23:52Z",
        "version": 5,
        "changeset": 96343970,
        "addr:city": "Timon",
        "addr:postcode": "65631-100",
        "addr:street": "Rua Antônio Guimarães",
        "addr:suburb": "Parque Piauí",
        "amenity": "social_facility",
        "name": "A.A Alcoólicos Anónimos",
        "social_facility": "social_club",
        "social_facility:for": "drug_addicted",
        "wikidata": "Q18231",
        "wikipedia": "pt:Alcoólicos Anónimos",
        "id": "node/7159265004"
      },
      "geometry": {
        "type": "Point",
        "coordinates": [
          -42.8371627,
          -5.0975267
        ]
      }
    },
    {
      "type": "Feature",
      "id": "node/7169475087",
      "properties": {
        "timestamp": "2024-12-07T22:32:54Z",
        "version": 2,
        "changeset": 160041605,
        "addr:city": "Timon",
        "addr:street": "Rua João Joca Assunção",
        "addr:suburb": "Parque Piauí",
        "amenity": "social_facility",
        "name": "Conselho Tutelar",
        "nohousenumber": "yes",
        "operator": "Prefeitura de Timon",
        "social_facility": "assisted_living",
        "social_facility:for": "child",
        "wheelchair": "yes",
        "id": "node/7169475087"
      },
      "geometry": {
        "type": "Point",
        "coordinates": [
          -42.8359673,
          -5.0984655
        ]
      }
    },
    {
      "type": "Feature",
      "id": "node/8268256750",
      "properties": {
        "timestamp": "2023-02-01T15:06:46Z",
        "version": 5,
        "changeset": 131967314,
        "addr:city": "Timon",
        "addr:postcode": "65631-200",
        "addr:street": "Avenida Teresina",
        "addr:suburb": "Parque Piauí I",
        "alt_name": "Centro de Referência Especializado de Assistência Social",
        "amenity": "social_facility",
        "name": "CREAS",
        "social_facility": "outreach",
        "social_facility:for": "underprivileged;abused;victim",
        "id": "node/8268256750"
      },
      "geometry": {
        "type": "Point",
        "coordinates": [
          -42.8314549,
          -5.0917371
        ]
      }
    },
    {
      "type": "Feature",
      "id": "node/9123377352",
      "properties": {
        "timestamp": "2024-12-07T22:32:54Z",
        "version": 2,
        "changeset": 160041605,
        "addr:street": "Sem Denononacao",
        "amenity": "social_facility",
        "name": "Sítio Uchoa",
        "nohousenumber": "yes",
        "social_facility": "group_home",
        "social_facility:for": "senior",
        "id": "node/9123377352"
      },
      "geometry": {
        "type": "Point",
        "coordinates": [
          -42.9104607,
          -5.0592806
        ]
      }
    }
  ]
}
