{
  "type": "FeatureCollection",
  "features": [
    {
      "type": "Feature",
      "id": "way/685088571",
      "properties": {
        "timestamp": "2019-04-21T15:42:31Z",
        "version": 1,
        "changeset": 69427844,
        "addr:housenumber": "168",
        "addr:postcode": "06502-165",
        "addr:street": "Rua Professor Edgar de Moraes",
        "addr:suburb": "Centro",
        "amenity": "dentist",
        "building": "yes",
        "contact:mobile": "+55 11 97201 4510",
        "email": "sp.santanadeparnaiba@sorridents.com.br",
        "healthcare": "dentist",
        "name": "Sorrident's Clínicas Odontológicas",
        "opening_hours": "Mo-Fr 08:00-19:00; Sa 08:00-13:00; Su,PH off",
        "phone": "+55 11 4154 6422",
        "website": "https://sorridents.com.br/santana-de-parnaiba/",
        "id": "way/685088571"
      },
      "geometry": {
        "type": "Polygon",
        "coordinates": [
          [
            [
              -46.9208788,
              -23.4439918
            ],
            [
              -46.9208068,
              -23.4440209
            ],
            [
              -46.9206829,
              -23.4437512
            ],
            [
              -46.9207491,
              -23.4437234
            ],
            [
              -46.9208788,
              -23.4439918
            ]
          ]
        ]
      }
    }
  ]
}
