{
  "type": "FeatureCollection",
  "features": [
    {
      "type": "Feature",
      "id": "node/6762930108",
      "properties": {
        "timestamp": "2019-09-12T04:46:40Z",
        "version": 2,
        "changeset": 74377565,
        "addr:city": "Santana de Parnaíba",
        "addr:housenumber": "338",
        "addr:street": "Rua Suzana Dias",
        "amenity": "arts_centre",
        "name": "Galeria do Artista",
        "tourism": "gallery",
        "wikidata": "Q65936681",
        "id": "node/6762930108"
      },
      "geometry": {
        "type": "Point",
        "coordinates": [
          -46.9140827,
          -23.4449524
        ]
      }
    },
    {
      "type": "Feature",
      "id": "node/6875478218",
      "properties": {
        "timestamp": "2023-10-16T02:16:39Z",
        "version": 2,
        "changeset": 142641190,
        "addr:city": "Santana de Parnaíba",
        "addr:housenumber": "86",
        "addr:postcode": "06501-005",
        "addr:street": "Largo da Matriz",
        "addr:suburb": "Centro",
        "amenity": "arts_centre",
        "name": "Casa do Artesão",
        "official_name": "Centro de Apoio ao Artesão",
        "phone": "+55 11 4154 2377",
        "short_name": "CAA",
        "tourism": "gallery",
        "website": "https://www.santanadeparnaiba.sp.gov.br/culturaeturismo/caa.html",
        "wikidata": "Q65936675",
        "id": "node/6875478218"
      },
      "geometry": {
        "type": "Point",
        "coordinates": [
          -46.9134951,
          -23.4451625
        ]
      }
    }
  ]
}
