{
  "type": "FeatureCollection",
  "features": [
    {
      "type": "Feature",
      "id": "way/544221184",
      "properties": {
        "timestamp": "2019-03-01T19:44:38Z",
        "version": 5,
        "changeset": 67697483,
        "addr:city": "Santana de Parnaíba",
        "addr:housenumber": "10",
        "addr:postcode": "06502-156",
        "addr:street": "Rua Nelson Piccinini Miguel",
        "addr:suburb": "Jardim Frediani",
        "amenity": "school",
        "contact:phone": "+55 11 4154 2276",
        "email": "sme.albademello@edu.santanadeparnaiba.sp.gov.br",
        "name": "Colegio Municipal Professora Alba de Mello Bonilha",
        "phone": "+55 11 4154 1072",
        "ref": "35218054",
        "id": "way/544221184"
      },
      "geometry": {
        "type": "Polygon",
        "coordinates": [
          [
            [
              -46.9251452,
              -23.4415261
            ],
            [
              -46.9249304,
              -23.4415232
            ],
            [
              -46.9245481,
              -23.4415381
            ],
            [
              -46.9239695,
              -23.441554
            ],
            [
              -46.9239426,
              -23.4415245
            ],
            [
              -46.9239265,
              -23.4414949
            ],
            [
              -46.9239406,
              -23.4410514
            ],
            [
              -46.9244785,
              -23.4410647
            ],
            [
              -46.9248167,
              -23.4410776
            ],
            [
              -46.9252089,
              -23.4411119
            ],
            [
              -46.9251402,
              -23.4414365
            ],
            [
              -46.9251452,
              -23.4415261
            ]
          ]
        ]
      }
    },
    {
      "type": "Feature",
      "id": "way/552175357",
      "properties": {
        "timestamp": "2019-04-21T01:00:29Z",
        "version": 6,
        "changeset": 69414339,
        "addr:city": "Santana de Parnaíba",
        "addr:housenumber": "5300",
        "addr:postcode": "06529-001",
        "addr:street": "Estrada Tenente Marques",
        "addr:suburb": "Fazendinha",
        "amenity": "school",
        "contact:mobile": "+55 11 99721 1974",
        "email": "e262acad@cps.sp.gov.br",
        "name": "Escola Senai Suzana Dias",
        "operator": "Serviço Nacional de Aprendizagem Indústrial",
        "phone": "+55 11 4156 9350",
        "ref": "296485",
        "start_date": "2006",
        "website": "https://santanadeparnaiba.sp.senai.br/",
        "id": "way/552175357"
      },
      "geometry": {
        "type": "Polygon",
        "coordinates": [
          [
            [
              -46.8771882,
              -23.4065307
            ],
            [
              -46.8772399,
              -23.4065207
            ],
            [
              -46.8774014,
              -23.4074935
            ],
            [
              -46.8772127,
              -23.4075224
            ],
            [
              -46.876924,
              -23.4075526
            ],
            [
              -46.8766905,
              -23.4075847
            ],
            [
              -46.8766671,
              -23.407419
            ],
            [
              -46.8766384,
              -23.4072198
            ],
            [
              -46.8765914,
              -23.4068929
            ],
            [
              -46.8765755,
              -23.406623
            ],
            [
              -46.876938,
              -23.4065684
            ],
            [
              -46.8771882,
              -23.4065307
            ]
          ]
        ]
      }
    },
    {
      "type": "Feature",
      "id": "way/552177894",
      "properties": {
        "timestamp": "2019-03-02T21:44:21Z",
        "version": 4,
        "changeset": 67724306,
        "addr:city": "Santana de Parnaíba",
        "addr:country": "BR",
        "addr:housenumber": "191",
        "addr:postcode": "06530-001",
        "addr:street": "Rua Lua Minguante",
        "addr:suburb": "Várzea dos Souzas",
        "amenity": "school",
        "contact:phone": "+55 11 4705 2083",
        "email": "sme.ledacaira@edu.santanadeparnaiba.sp.gov.br",
        "name": "Colégio Municipal Professora Leda Caira",
        "operator": "Secretaria Municipal de Educação",
        "phone": "+55 11 4156 3688",
        "ref": "35273685",
        "id": "way/552177894"
      },
      "geometry": {
        "type": "Polygon",
        "coordinates": [
          [
            [
              -46.8893836,
              -23.4057574
            ],
            [
              -46.8890165,
              -23.4065611
            ],
            [
              -46.888665,
              -23.4064377
            ],
            [
              -46.8889332,
              -23.4059224
            ],
            [
              -46.8890677,
              -23.4056335
            ],
            [
              -46.8893836,
              -23.4057574
            ]
          ]
        ]
      }
    },
    {
      "type": "Feature",
      "id": "way/555487564",
      "properties": {
        "timestamp": "2020-07-08T14:56:17Z",
        "version": 6,
        "changeset": 87717268,
        "addr:city": "Santana de Parnaiba",
        "addr:housenumber": "55",
        "addr:postcode": "06531-065",
        "addr:street": "Rua Via Láctea",
        "addr:suburb": "Chácara Solar II",
        "amenity": "school",
        "contact:phone": "+55 11 4705 1263",
        "email": "sme.ricarda@edu.santanadeparnaiba.sp.gov.br",
        "name": "Colégio Municipal Professora Ricarda dos Santos Branco",
        "operator": "Secretaria Municipal de Educação",
        "operator:type": "government",
        "phone": "+55 11 4156 3656",
        "ref": "INEP-35240916",
        "id": "way/555487564"
      },
      "geometry": {
        "type": "Polygon",
        "coordinates": [
          [
            [
              -46.8808628,
              -23.4154882
            ],
            [
              -46.8812464,
              -23.4159066
            ],
            [
              -46.8809701,
              -23.4162167
            ],
            [
              -46.8804203,
              -23.4157244
            ],
            [
              -46.8806437,
              -23.4153657
            ],
            [
              -46.8806563,
              -23.4153503
            ],
            [
              -46.8808628,
              -23.4154882
            ]
          ]
        ]
      }
    },
    {
      "type": "Feature",
      "id": "way/555489276",
      "properties": {
        "timestamp": "2024-07-09T17:14:02Z",
        "version": 9,
        "changeset": 153753201,
        "addr:city": "Santana de Parnaíba",
        "addr:country": "BR",
        "addr:housenumber": "476",
        "addr:postcode": "06530-005",
        "addr:street": "Rua Gabriel Jorge Salomão",
        "addr:suburb": "Fazendinha",
        "amenity": "school",
        "email": "sme.zildaarns@edu.santanadeparnaiba.sp.gov.br",
        "name": "Colégio Municipal Doutora Zilda Arns Neumann",
        "operator": "Secretaria Municipal de Educação",
        "phone": "+55 11 4705 3219",
        "ref": "35448941",
        "id": "way/555489276"
      },
      "geometry": {
        "type": "Polygon",
        "coordinates": [
          [
            [
              -46.8862459,
              -23.409528
            ],
            [
              -46.8862655,
              -23.4095337
            ],
            [
              -46.8862807,
              -23.4095578
            ],
            [
              -46.8862595,
              -23.4096144
            ],
            [
              -46.8862329,
              -23.409633
            ],
            [
              -46.885674,
              -23.4100477
            ],
            [
              -46.8852601,
              -23.4103283
            ],
            [
              -46.8852183,
              -23.4100395
            ],
            [
              -46.8851673,
              -23.4096877
            ],
            [
              -46.8862459,
              -23.409528
            ]
          ]
        ]
      }
    },
    {
      "type": "Feature",
      "id": "way/555490378",
      "properties": {
        "timestamp": "2023-01-11T13:10:46Z",
        "version": 4,
        "changeset": 131145641,
        "addr:city": "Santana de Parnaíba",
        "addr:country": "BR",
        "addr:housenumber": "150",
        "addr:postcode": "06530-245",
        "addr:street": "Rua Alagoas",
        "addr:suburb": "Recanto das Flores",
        "amenity": "school",
        "contact:phone": "+55 11 4705 1200",
        "email": "sme.abelardo@edu.santanadeparnaiba.sp.gov.br",
        "name": "Colégio Municipal Abelardo Marques da Silva",
        "operator": "Secfretaria Municipal de Educação",
        "phone": "+55 11 4156 3744",
        "ref": "35218054",
        "id": "way/555490378"
      },
      "geometry": {
        "type": "Polygon",
        "coordinates": [
          [
            [
              -46.8824964,
              -23.410065
            ],
            [
              -46.8826171,
              -23.4107591
            ],
            [
              -46.881411,
              -23.4102157
            ],
            [
              -46.8814503,
              -23.4101265
            ],
            [
              -46.8824964,
              -23.410065
            ]
          ]
        ]
      }
    },
    {
      "type": "Feature",
      "id": "way/555501082",
      "properties": {
        "timestamp": "2024-07-08T22:06:10Z",
        "version": 11,
        "changeset": 153722644,
        "addr:city": "Santana de Parnaíba",
        "addr:housenumber": "105",
        "addr:postcode": "06528-088",
        "addr:street": "Rua Espacial",
        "addr:suburb": "Cento e Vinte",
        "amenity": "school",
        "contact:phone": "+55 11 4156 3133",
        "email": "sme.joaojose@edu.santanadeparnaiba.sp.gov.br",
        "name": "Colégio Municipal Prefeito João José de Oliveira",
        "operator": "Secretaria Municipal de Educação",
        "operator:type": "government",
        "phone": "+55 11 4156 1137",
        "ref": "INEP-35240898",
        "religion": "none",
        "id": "way/555501082"
      },
      "geometry": {
        "type": "Polygon",
        "coordinates": [
          [
            [
              -46.9004014,
              -23.4048549
            ],
            [
              -46.9007849,
              -23.4049558
            ],
            [
              -46.9005677,
              -23.4057435
            ],
            [
              -46.899973,
              -23.4056457
            ],
            [
              -46.9000688,
              -23.4053152
            ],
            [
              -46.9000956,
              -23.4051995
            ],
            [
              -46.9001439,
              -23.4051059
            ],
            [
              -46.9002217,
              -23.4050099
            ],
            [
              -46.9002968,
              -23.4049459
            ],
            [
              -46.9003638,
              -23.4048819
            ],
            [
              -46.9004014,
              -23.4048549
            ]
          ]
        ]
      }
    },
    {
      "type": "Feature",
      "id": "way/555502183",
      "properties": {
        "timestamp": "2023-01-10T18:21:34Z",
        "version": 8,
        "changeset": 131117470,
        "addr:city": "Santana de Parnaíba",
        "addr:postcode": "06528-201",
        "addr:street": "Rua Ricardo",
        "addr:suburb": "Cento e Vinte",
        "amenity": "school",
        "contact:phone": "+55 11 4156 6384",
        "email": "sme.andrefernandes@edu.santanadeparnaiba.sp.gov.br",
        "name": "Colégio Municipal André Fernandes",
        "note": "Sem numeração",
        "operator": "Secretaria Municipal de Educação",
        "operator:type": "government",
        "phone": "+55 11 4156 0628",
        "ref": "INEP-35286953",
        "religion": "none",
        "id": "way/555502183"
      },
      "geometry": {
        "type": "Polygon",
        "coordinates": [
          [
            [
              -46.9023915,
              -23.4063786
            ],
            [
              -46.9025336,
              -23.4068331
            ],
            [
              -46.9018903,
              -23.4069901
            ],
            [
              -46.9017101,
              -23.406502
            ],
            [
              -46.901743,
              -23.4064611
            ],
            [
              -46.9023915,
              -23.4063786
            ]
          ]
        ]
      }
    },
    {
      "type": "Feature",
      "id": "way/555517128",
      "properties": {
        "timestamp": "2023-05-16T16:53:51Z",
        "version": 6,
        "changeset": 136178583,
        "addr:city": "Santana de Parnaíba",
        "addr:housenumber": "659",
        "addr:postcode": "06528-330",
        "addr:street": "Rua Estrela D'Alva",
        "addr:suburb": "Jardim Alagoas",
        "amenity": "school",
        "email": "sme.mariazinhafernandes@edu.santanadeparnaiba.sp.gov.br",
        "loc_name": "Colégio Municipal Mariazinha Fernandes",
        "name": "Colégio Municipal Maria Isabel Fernandes Barbosa",
        "operator": "Secretaria Muncipal de Educação",
        "operator:type": "government",
        "phone": "+55 11 4154 6616",
        "ref": "INEP-35568922",
        "id": "way/555517128"
      },
      "geometry": {
        "type": "Polygon",
        "coordinates": [
          [
            [
              -46.9001831,
              -23.4029869
            ],
            [
              -46.900313,
              -23.4031267
            ],
            [
              -46.9000017,
              -23.4033702
            ],
            [
              -46.8998719,
              -23.4032305
            ],
            [
              -46.9001831,
              -23.4029869
            ]
          ]
        ]
      }
    },
    {
      "type": "Feature",
      "id": "way/597374642",
      "properties": {
        "timestamp": "2023-01-11T14:30:23Z",
        "version": 5,
        "changeset": 131148715,
        "addr:city": "Santana de Parnaíba",
        "addr:housenumber": "1001",
        "addr:postcode": "06525-075",
        "addr:street": "Rua da Fartura",
        "addr:suburb": "Vila Poupança",
        "amenity": "school",
        "contact:phone": "+55 11 4705 2814",
        "email": "sme.paulofreire@edu.santanadeparnaiba.sp.gov.br",
        "name": "Colégio Municipal Educador Paulo Freire",
        "operator": "Secretaria Municipal de Educação",
        "operator:type": "government",
        "phone": "+55 11 4156 3410",
        "id": "way/597374642"
      },
      "geometry": {
        "type": "Polygon",
        "coordinates": [
          [
            [
              -46.8972939,
              -23.4151391
            ],
            [
              -46.8974888,
              -23.4152247
            ],
            [
              -46.8976792,
              -23.4154265
            ],
            [
              -46.8977498,
              -23.4157056
            ],
            [
              -46.8975331,
              -23.4157868
            ],
            [
              -46.8972214,
              -23.4158835
            ],
            [
              -46.8970908,
              -23.4158241
            ],
            [
              -46.8967017,
              -23.4153783
            ],
            [
              -46.8967318,
              -23.4153387
            ],
            [
              -46.89705,
              -23.415223
            ],
            [
              -46.8972939,
              -23.4151391
            ]
          ]
        ]
      }
    },
    {
      "type": "Feature",
      "id": "way/611343653",
      "properties": {
        "timestamp": "2022-03-19T17:10:03Z",
        "version": 6,
        "changeset": 118672979,
        "addr:city": "Santana de Parnaíba",
        "addr:housenumber": "13",
        "addr:postcode": "06530-005",
        "addr:street": "Rua Gabriel Jorge Salomão",
        "addr:suburb": "Fazendinha",
        "amenity": "school",
        "email": "sme.imideo@edu.santanadeparnaiba.sp.gov.br",
        "name": "Colégio Municipal Professor Imideo Giuseppe Nerici",
        "operator": "Secretaria Municipal de Educação",
        "operator:type": "government",
        "phone": "+55 11 4156 1108",
        "ref": "INEP-35249622",
        "religion": "none",
        "id": "way/611343653"
      },
      "geometry": {
        "type": "Polygon",
        "coordinates": [
          [
            [
              -46.8903339,
              -23.4090177
            ],
            [
              -46.8910186,
              -23.4089266
            ],
            [
              -46.891048,
              -23.4090275
            ],
            [
              -46.8911511,
              -23.4094238
            ],
            [
              -46.8904232,
              -23.4095211
            ],
            [
              -46.8903339,
              -23.4090177
            ]
          ]
        ]
      }
    },
    {
      "type": "Feature",
      "id": "way/611695915",
      "properties": {
        "timestamp": "2019-03-03T01:28:38Z",
        "version": 3,
        "changeset": 67726756,
        "addr:city": "Santana de Parnaíba",
        "addr:housenumber": "230",
        "addr:postcode": "06530-551",
        "addr:street": "Rua Piauí",
        "addr:suburb": "Fazendinha",
        "amenity": "school",
        "contact:phone": "+55 11 4156 6601",
        "email": "sme.hortencia@edu.santanadeparnaiba.sp.gov.br",
        "name": "Colégio Municipal Professora Hortência Alves dos Santos",
        "phone": "+55 11 4156 6096",
        "ref": "35287349",
        "id": "way/611695915"
      },
      "geometry": {
        "type": "Polygon",
        "coordinates": [
          [
            [
              -46.8855178,
              -23.4130545
            ],
            [
              -46.8855661,
              -23.4135343
            ],
            [
              -46.8852818,
              -23.4135688
            ],
            [
              -46.8852898,
              -23.4136574
            ],
            [
              -46.8852255,
              -23.4136648
            ],
            [
              -46.8852281,
              -23.4135811
            ],
            [
              -46.8850672,
              -23.4135934
            ],
            [
              -46.8849894,
              -23.4130963
            ],
            [
              -46.8855178,
              -23.4130545
            ]
          ]
        ]
      }
    },
    {
      "type": "Feature",
      "id": "way/623133391",
      "properties": {
        "timestamp": "2019-03-18T21:02:09Z",
        "version": 2,
        "changeset": 68272847,
        "addr:city": "Santana de Parnaíba",
        "addr:housenumber": "11",
        "addr:postcode": "06515-055",
        "addr:street": "Rua dos Caquizeiros",
        "addr:suburb": "Parque Santana",
        "amenity": "school",
        "contact:phone": "+55 11 4151 3034",
        "email": "sme.pingodegente@edu.santanadeparnaiba.sp.gov.br",
        "name": "Colégio Municipal Pingo de Gente",
        "phone": "+55 11 4151 1591",
        "ref": "35208059",
        "id": "way/623133391"
      },
      "geometry": {
        "type": "Polygon",
        "coordinates": [
          [
            [
              -46.8998293,
              -23.4771876
            ],
            [
              -46.8997756,
              -23.4775124
            ],
            [
              -46.8995825,
              -23.4779011
            ],
            [
              -46.8991708,
              -23.4777141
            ],
            [
              -46.8991507,
              -23.47766
            ],
            [
              -46.899266,
              -23.4774681
            ],
            [
              -46.8993223,
              -23.4771704
            ],
            [
              -46.8993894,
              -23.4771187
            ],
            [
              -46.8996335,
              -23.4771655
            ],
            [
              -46.8996013,
              -23.477259
            ],
            [
              -46.899629,
              -23.4772689
            ],
            [
              -46.8996495,
              -23.4772762
            ],
            [
              -46.8997568,
              -23.4771778
            ],
            [
              -46.8998293,
              -23.4771876
            ]
          ]
        ]
      }
    },
    {
      "type": "Feature",
      "id": "way/623133392",
      "properties": {
        "timestamp": "2019-03-18T21:02:09Z",
        "version": 2,
        "changeset": 68272847,
        "addr:city": "Santana de Parnaíba",
        "addr:housenumber": "45",
        "addr:postcode": "06515-055",
        "addr:street": "Rua dos Caquizeiros",
        "addr:suburb": "Parque Santana",
        "amenity": "school",
        "contact:phone": "+55 11 4151 3195",
        "email": "sme.montanhaencanta@edu.santanadeparnaiba.sp.gov.br",
        "name": "Colégio Municipal Montanha Encantada",
        "phone": "+55 11 4151 2420",
        "ref": "35235647",
        "id": "way/623133392"
      },
      "geometry": {
        "type": "Polygon",
        "coordinates": [
          [
            [
              -46.9000184,
              -23.477254
            ],
            [
              -46.9000385,
              -23.4774607
            ],
            [
              -46.9000331,
              -23.4776723
            ],
            [
              -46.8999915,
              -23.4778408
            ],
            [
              -46.8999191,
              -23.4779699
            ],
            [
              -46.8997904,
              -23.4780868
            ],
            [
              -46.8996321,
              -23.4781446
            ],
            [
              -46.8996227,
              -23.4780376
            ],
            [
              -46.8996294,
              -23.4778851
            ],
            [
              -46.8997984,
              -23.4775308
            ],
            [
              -46.8998333,
              -23.4773463
            ],
            [
              -46.8999406,
              -23.477238
            ],
            [
              -46.8999862,
              -23.4772474
            ],
            [
              -46.9000184,
              -23.477254
            ]
          ]
        ]
      }
    },
    {
      "type": "Feature",
      "id": "way/623135743",
      "properties": {
        "timestamp": "2023-05-18T13:04:14Z",
        "version": 3,
        "changeset": 136254432,
        "addr:city": "Santana de Parnaíba",
        "addr:housenumber": "1445",
        "addr:postcode": "06515-005",
        "addr:street": "Rua das Bananeiras",
        "addr:suburb": "Parque Santana",
        "amenity": "school",
        "contact:phone": "+55 11 4151 7753",
        "email": "sme.mariocovas@edu.santanadeparnaiba.sp.gov.br",
        "name": "Colégio Municipal Governador Mario Covas Júnior",
        "phone": "+55 11 4151 3778",
        "ref": "35278853",
        "id": "way/623135743"
      },
      "geometry": {
        "type": "Polygon",
        "coordinates": [
          [
            [
              -46.9021668,
              -23.469118
            ],
            [
              -46.9017672,
              -23.4698143
            ],
            [
              -46.9015526,
              -23.4697749
            ],
            [
              -46.9013273,
              -23.4697355
            ],
            [
              -46.9012253,
              -23.4697454
            ],
            [
              -46.9011824,
              -23.4696937
            ],
            [
              -46.9012522,
              -23.4695461
            ],
            [
              -46.9014721,
              -23.4691451
            ],
            [
              -46.9016204,
              -23.4688838
            ],
            [
              -46.901668,
              -23.468904
            ],
            [
              -46.9021668,
              -23.469118
            ]
          ]
        ]
      }
    },
    {
      "type": "Feature",
      "id": "way/638903942",
      "properties": {
        "timestamp": "2022-03-24T14:11:52Z",
        "version": 5,
        "changeset": 118866831,
        "addr:city": "Santana de Parnaíba",
        "addr:housenumber": "17",
        "addr:postcode": "06528-075",
        "addr:street": "Rua do Zodíaco",
        "addr:suburb": "Bairro 120",
        "amenity": "school",
        "contact:phone": "+55 11 4156 4651",
        "email": "sme.francomontoro@edu.santanadeparnaiba.sp.gov.br",
        "name": "Colégio Municipal Governador André Franco Montoro",
        "operator": "Secretaria Municipal de Educação",
        "operator:type": "government",
        "phone": "+55 11 4156 1497",
        "ref": "INEP-35281451",
        "religion": "none",
        "id": "way/638903942"
      },
      "geometry": {
        "type": "Polygon",
        "coordinates": [
          [
            [
              -46.8975054,
              -23.4068627
            ],
            [
              -46.8977253,
              -23.4068577
            ],
            [
              -46.8978085,
              -23.4068971
            ],
            [
              -46.8978728,
              -23.4069562
            ],
            [
              -46.8980981,
              -23.4074165
            ],
            [
              -46.8978487,
              -23.4076331
            ],
            [
              -46.897492,
              -23.4073845
            ],
            [
              -46.8973203,
              -23.4075642
            ],
            [
              -46.897036,
              -23.4073427
            ],
            [
              -46.8975054,
              -23.4068627
            ]
          ]
        ]
      }
    },
    {
      "type": "Feature",
      "id": "way/639251994",
      "properties": {
        "timestamp": "2022-03-19T17:10:03Z",
        "version": 3,
        "changeset": 118672979,
        "addr:city": "Santana de Parnaíba",
        "addr:housenumber": "222",
        "addr:street": "Rua Doutor Alessandro Carmine",
        "amenity": "school",
        "email": "sme.joaodebarro@edu.santanadeparnaiba.sp.gov.br",
        "name": "Colégio Municipal João de Barro",
        "operator": "Secretaria Municipal de Educação",
        "operator:type": "government",
        "phone": "+55 11 4705 1325",
        "id": "way/639251994"
      },
      "geometry": {
        "type": "Polygon",
        "coordinates": [
          [
            [
              -46.8898677,
              -23.4214273
            ],
            [
              -46.889865,
              -23.4216156
            ],
            [
              -46.8893353,
              -23.4216377
            ],
            [
              -46.8893326,
              -23.4214556
            ],
            [
              -46.8898677,
              -23.4214273
            ]
          ]
        ]
      }
    },
    {
      "type": "Feature",
      "id": "way/674333088",
      "properties": {
        "timestamp": "2023-05-16T13:41:22Z",
        "version": 3,
        "changeset": 136170279,
        "addr:housenumber": "418",
        "addr:postcode": "06535-115",
        "addr:street": "Avenida Joaquim Teixeira",
        "addr:suburb": "Cidade São Pedro",
        "amenity": "school",
        "contact:phone": "+55 11 4156 5174",
        "email": "sme.curumim1@edu.santanadeparnaiba.sp.gov.br",
        "name": "Colégio Municipal Cora Coralina",
        "operator": "Secretaria Municipal da Educação",
        "phone": "+55 11 4156 1419",
        "ref": "35437724",
        "roof:colour": "blue",
        "id": "way/674333088"
      },
      "geometry": {
        "type": "Polygon",
        "coordinates": [
          [
            [
              -46.8592276,
              -23.426551
            ],
            [
              -46.8592222,
              -23.4266593
            ],
            [
              -46.8592464,
              -23.4266494
            ],
            [
              -46.8592464,
              -23.4267503
            ],
            [
              -46.8592222,
              -23.4267528
            ],
            [
              -46.8592196,
              -23.4268586
            ],
            [
              -46.8591793,
              -23.4268611
            ],
            [
              -46.8591819,
              -23.4268906
            ],
            [
              -46.8590801,
              -23.4268906
            ],
            [
              -46.8590801,
              -23.4268611
            ],
            [
              -46.858954,
              -23.4268611
            ],
            [
              -46.8589567,
              -23.4268094
            ],
            [
              -46.8588923,
              -23.4268119
            ],
            [
              -46.8588843,
              -23.4267725
            ],
            [
              -46.858954,
              -23.4267676
            ],
            [
              -46.8589446,
              -23.426615
            ],
            [
              -46.8590264,
              -23.4265608
            ],
            [
              -46.8592276,
              -23.426551
            ]
          ]
        ]
      }
    },
    {
      "type": "Feature",
      "id": "way/677752885",
      "properties": {
        "timestamp": "2023-12-27T14:22:53Z",
        "version": 3,
        "changeset": 145577921,
        "addr:housenumber": "377",
        "addr:postcode": "06516-055",
        "addr:street": "Rua Veneza",
        "addr:suburb": "Jardim Isaura",
        "amenity": "school",
        "email": "sme.alvaroribeiro@edu.santanadeparnaiba.sp.gov.br",
        "name": "Colégio Municipal Doutor Álvaro Ribeiro",
        "phone": "+55 11 4151 1046",
        "ref": "INEP-35240862",
        "religion": "none",
        "id": "way/677752885"
      },
      "geometry": {
        "type": "Polygon",
        "coordinates": [
          [
            [
              -46.8907904,
              -23.4830575
            ],
            [
              -46.8911433,
              -23.4832117
            ],
            [
              -46.8909309,
              -23.4839692
            ],
            [
              -46.8908588,
              -23.4840319
            ],
            [
              -46.8904006,
              -23.4839658
            ],
            [
              -46.8904708,
              -23.4837726
            ],
            [
              -46.8904191,
              -23.4837489
            ],
            [
              -46.8904801,
              -23.4836015
            ],
            [
              -46.8904708,
              -23.4835201
            ],
            [
              -46.8905133,
              -23.4834693
            ],
            [
              -46.8905983,
              -23.4834117
            ],
            [
              -46.8906223,
              -23.4833558
            ],
            [
              -46.8907036,
              -23.4833236
            ],
            [
              -46.8907387,
              -23.4831796
            ],
            [
              -46.8907867,
              -23.4831084
            ],
            [
              -46.8907904,
              -23.4830575
            ]
          ]
        ]
      }
    },
    {
      "type": "Feature",
      "id": "way/677759784",
      "properties": {
        "timestamp": "2021-09-14T21:26:51Z",
        "version": 3,
        "changeset": 111215434,
        "addr:housenumber": "854",
        "addr:postcode": "06516-050",
        "addr:street": "Avenida Moacir da Silveira",
        "addr:suburb": "Jardim Isaura",
        "amenity": "school",
        "contact:phone": "+55 11 4151 7585",
        "email": "sme.adrianoteixeira@edu.santanadeparnaiba.sp.gov.br",
        "name": "Colégio Municipal Adriano Teixeira de Santana",
        "operator": "Secretaria de Educação",
        "operator:type": "government",
        "phone": "+55 11 4151 7576",
        "ref": "INEP-35437876",
        "id": "way/677759784"
      },
      "geometry": {
        "type": "Polygon",
        "coordinates": [
          [
            [
              -46.8930832,
              -23.4779683
            ],
            [
              -46.8929078,
              -23.4780073
            ],
            [
              -46.8928056,
              -23.4775447
            ],
            [
              -46.8929196,
              -23.4775533
            ],
            [
              -46.8930014,
              -23.4775718
            ],
            [
              -46.8930832,
              -23.4779683
            ]
          ]
        ]
      }
    },
    {
      "type": "Feature",
      "id": "way/684472731",
      "properties": {
        "timestamp": "2019-04-18T03:31:16Z",
        "version": 3,
        "changeset": 69328965,
        "addr:housenumber": "151",
        "addr:postcode": "06535-205",
        "addr:street": "Avenida das Conchas",
        "addr:suburb": "Cidade São Pedro",
        "amenity": "school",
        "contact:phone": "+55 11 4156 5995",
        "email": "sme.anaasantanna@edu.santanadeparnaiba.sp.gov.br",
        "name": "Colégio Municipal Professora Ana Aparecida Sant'Ana",
        "phone": "+55 11 4156 3328",
        "ref": "35273661",
        "id": "way/684472731"
      },
      "geometry": {
        "type": "Polygon",
        "coordinates": [
          [
            [
              -46.851929,
              -23.4242525
            ],
            [
              -46.8519503,
              -23.424238
            ],
            [
              -46.851993,
              -23.424209
            ],
            [
              -46.8520309,
              -23.4241938
            ],
            [
              -46.8520735,
              -23.424209
            ],
            [
              -46.8521019,
              -23.4242329
            ],
            [
              -46.8523729,
              -23.4245616
            ],
            [
              -46.8519052,
              -23.4248036
            ],
            [
              -46.8517821,
              -23.4243959
            ],
            [
              -46.8518151,
              -23.4243753
            ],
            [
              -46.8518342,
              -23.4243633
            ],
            [
              -46.8518106,
              -23.4243242
            ],
            [
              -46.851929,
              -23.4242525
            ]
          ]
        ]
      }
    },
    {
      "type": "Feature",
      "id": "way/684493756",
      "properties": {
        "timestamp": "2019-04-18T03:00:06Z",
        "version": 1,
        "changeset": 69328568,
        "addr:housenumber": "10",
        "addr:postcode": "06535-245",
        "addr:street": "Rua da Taínha",
        "addr:suburb": "Cidade São Pedro",
        "amenity": "school",
        "email": "sme.anaserra@edu.santanadeparnaiba.sp.gov.br",
        "name": "Colégio Municipal Ana Serra de Freitas",
        "phone": "+55 11 4622 3537",
        "ref": "35004311",
        "id": "way/684493756"
      },
      "geometry": {
        "type": "Polygon",
        "coordinates": [
          [
            [
              -46.8490741,
              -23.4297618
            ],
            [
              -46.8485482,
              -23.4300943
            ],
            [
              -46.8482379,
              -23.4297074
            ],
            [
              -46.848534,
              -23.429514
            ],
            [
              -46.8487827,
              -23.4293706
            ],
            [
              -46.8488443,
              -23.4293314
            ],
            [
              -46.8488964,
              -23.4293097
            ],
            [
              -46.8489438,
              -23.4293032
            ],
            [
              -46.8489841,
              -23.4293119
            ],
            [
              -46.849003,
              -23.429338
            ],
            [
              -46.8490244,
              -23.4293684
            ],
            [
              -46.8490433,
              -23.4293901
            ],
            [
              -46.8490907,
              -23.4296705
            ],
            [
              -46.8490907,
              -23.4297161
            ],
            [
              -46.8490741,
              -23.4297618
            ]
          ]
        ]
      }
    },
    {
      "type": "Feature",
      "id": "way/684493760",
      "properties": {
        "timestamp": "2019-04-18T03:00:06Z",
        "version": 1,
        "changeset": 69328568,
        "addr:housenumber": "25",
        "addr:postcode": "06535-245",
        "addr:street": "Rua da Taínha",
        "addr:suburb": "Cidade São Pedro",
        "amenity": "school",
        "contact:phone": "+55 11 4705 1123",
        "email": "sme.papajoaopaulo@edu.santanadeparnaiba.sp.gov.br",
        "name": "Colégio Municipal Papa João Paulo II",
        "phone": "+55 11 4156 6154",
        "ref": "35287350",
        "id": "way/684493760"
      },
      "geometry": {
        "type": "Polygon",
        "coordinates": [
          [
            [
              -46.850005,
              -23.4291184
            ],
            [
              -46.8498819,
              -23.4292575
            ],
            [
              -46.8497895,
              -23.4293184
            ],
            [
              -46.8493892,
              -23.429577
            ],
            [
              -46.8493276,
              -23.4295966
            ],
            [
              -46.8492707,
              -23.4295988
            ],
            [
              -46.8492352,
              -23.4295749
            ],
            [
              -46.8491191,
              -23.4292923
            ],
            [
              -46.8491191,
              -23.4292554
            ],
            [
              -46.8491239,
              -23.4292162
            ],
            [
              -46.8491357,
              -23.4291706
            ],
            [
              -46.8491546,
              -23.4291445
            ],
            [
              -46.849176,
              -23.4291249
            ],
            [
              -46.8492162,
              -23.429101
            ],
            [
              -46.8494223,
              -23.4289706
            ],
            [
              -46.8496402,
              -23.4288141
            ],
            [
              -46.8498534,
              -23.4289163
            ],
            [
              -46.8498226,
              -23.4289489
            ],
            [
              -46.850005,
              -23.4291184
            ]
          ]
        ]
      }
    },
    {
      "type": "Feature",
      "id": "way/684496941",
      "properties": {
        "timestamp": "2019-04-18T03:31:15Z",
        "version": 1,
        "changeset": 69328965,
        "addr:housenumber": "1000",
        "addr:postcode": "06535-205",
        "addr:street": "Avenida das Conchas",
        "addr:suburb": "Cidade São Pedro",
        "amenity": "school",
        "contact:phone": "+55 11 4705 3242",
        "email": "sme.aquarela@edu.santanadeparnaiba.sp.gov.br",
        "name": "Colégio Municipal Aquarela",
        "phone": "+55 11 4156 5986",
        "ref": "35208012",
        "id": "way/684496941"
      },
      "geometry": {
        "type": "Polygon",
        "coordinates": [
          [
            [
              -46.8523948,
              -23.4245752
            ],
            [
              -46.8524952,
              -23.4247115
            ],
            [
              -46.8525077,
              -23.4247249
            ],
            [
              -46.8525266,
              -23.4247748
            ],
            [
              -46.8525266,
              -23.4248247
            ],
            [
              -46.8525077,
              -23.4248612
            ],
            [
              -46.8524826,
              -23.4248861
            ],
            [
              -46.8522462,
              -23.4250128
            ],
            [
              -46.8521835,
              -23.425032
            ],
            [
              -46.8521437,
              -23.4250167
            ],
            [
              -46.8521269,
              -23.4250223
            ],
            [
              -46.8520977,
              -23.425032
            ],
            [
              -46.8520893,
              -23.4250704
            ],
            [
              -46.8520831,
              -23.4250973
            ],
            [
              -46.8520621,
              -23.4251146
            ],
            [
              -46.8520203,
              -23.425128
            ],
            [
              -46.8519868,
              -23.4251318
            ],
            [
              -46.8519596,
              -23.4251242
            ],
            [
              -46.8519366,
              -23.4251069
            ],
            [
              -46.8519199,
              -23.424961
            ],
            [
              -46.8519176,
              -23.4249447
            ],
            [
              -46.8519011,
              -23.4248247
            ],
            [
              -46.8523948,
              -23.4245752
            ]
          ]
        ]
      }
    },
    {
      "type": "Feature",
      "id": "way/684627833",
      "properties": {
        "timestamp": "2021-09-13T19:03:25Z",
        "version": 3,
        "changeset": 111161253,
        "addr:housenumber": "330",
        "addr:postcode": "06506-030",
        "addr:street": "Rua Rubi",
        "addr:suburb": "Refúgio dos Bandeirantes",
        "amenity": "school",
        "contact:phone": "+55 11",
        "email": "sme.mariafernandes@edu.santanadeparnaiba.sp.gov.br",
        "name": "Colégio Municipal Maria Fernandes Machado de Oliveira",
        "phone": "+55 11 4154 5917",
        "ref": "INEP-35218085",
        "source": "INEP",
        "id": "way/684627833"
      },
      "geometry": {
        "type": "Polygon",
        "coordinates": [
          [
            [
              -46.9582337,
              -23.417294
            ],
            [
              -46.9582671,
              -23.4173358
            ],
            [
              -46.9582611,
              -23.4173692
            ],
            [
              -46.9582307,
              -23.4173832
            ],
            [
              -46.9581791,
              -23.4173859
            ],
            [
              -46.9575322,
              -23.4174166
            ],
            [
              -46.9574562,
              -23.4171602
            ],
            [
              -46.9571009,
              -23.4170543
            ],
            [
              -46.9570098,
              -23.4171853
            ],
            [
              -46.9567152,
              -23.417032
            ],
            [
              -46.9568093,
              -23.4168982
            ],
            [
              -46.9568792,
              -23.4168285
            ],
            [
              -46.9569642,
              -23.4167617
            ],
            [
              -46.9570219,
              -23.4167449
            ],
            [
              -46.9570827,
              -23.4167449
            ],
            [
              -46.9571586,
              -23.4167561
            ],
            [
              -46.9572224,
              -23.4167812
            ],
            [
              -46.9574289,
              -23.4168676
            ],
            [
              -46.9582337,
              -23.417294
            ]
          ]
        ]
      }
    },
    {
      "type": "Feature",
      "id": "way/684642819",
      "properties": {
        "timestamp": "2020-09-23T15:29:30Z",
        "version": 2,
        "changeset": 91377463,
        "addr:housenumber": "888",
        "addr:street": "Rua Di Cavalcanti",
        "addr:suburb": "Colinas da Anhanguera",
        "amenity": "school",
        "contact:phone": "+55 11 4157 1607",
        "email": "sme.padreanacleto@edu.santanadeparnaiba.sp.gov.br",
        "name": "Colégio Municipal Padre Anacleto de Camargo",
        "phone": "+55 11 4157 0219",
        "ref": "INEP-35273659",
        "id": "way/684642819"
      },
      "geometry": {
        "type": "Polygon",
        "coordinates": [
          [
            [
              -46.8280523,
              -23.4319284
            ],
            [
              -46.8281297,
              -23.4320818
            ],
            [
              -46.8281297,
              -23.4321585
            ],
            [
              -46.8281173,
              -23.4322636
            ],
            [
              -46.8280492,
              -23.4323034
            ],
            [
              -46.8279253,
              -23.4323062
            ],
            [
              -46.8278355,
              -23.4323034
            ],
            [
              -46.8277581,
              -23.4323119
            ],
            [
              -46.8276652,
              -23.4323517
            ],
            [
              -46.8276064,
              -23.4323688
            ],
            [
              -46.8275568,
              -23.4323517
            ],
            [
              -46.8275847,
              -23.4322778
            ],
            [
              -46.8273834,
              -23.432079
            ],
            [
              -46.8273308,
              -23.4321102
            ],
            [
              -46.8271109,
              -23.4318488
            ],
            [
              -46.8270892,
              -23.4317238
            ],
            [
              -46.827114,
              -23.4316329
            ],
            [
              -46.8271852,
              -23.4315335
            ],
            [
              -46.827275,
              -23.4314624
            ],
            [
              -46.8273432,
              -23.4314482
            ],
            [
              -46.8274949,
              -23.4314567
            ],
            [
              -46.827594,
              -23.4314681
            ],
            [
              -46.8280523,
              -23.4319284
            ]
          ]
        ]
      }
    },
    {
      "type": "Feature",
      "id": "way/684674284",
      "properties": {
        "timestamp": "2019-04-18T21:38:52Z",
        "version": 1,
        "changeset": 69360582,
        "addr:housenumber": "626",
        "addr:postcode": "06502-210",
        "addr:street": "Avenida Brasil",
        "addr:suburb": "Jardim São Luís",
        "amenity": "school",
        "contact:phone": "+55 11 4154 6037",
        "email": "sme.raiodesol@edu.santanadeparnaiba.sp.gov.br",
        "name": "Colégio Municipal Raio de Sol",
        "phone": "+55 11 4154 5771",
        "ref": "35270349",
        "id": "way/684674284"
      },
      "geometry": {
        "type": "Polygon",
        "coordinates": [
          [
            [
              -46.9287334,
              -23.4433594
            ],
            [
              -46.92861,
              -23.4434874
            ],
            [
              -46.9285108,
              -23.443453
            ],
            [
              -46.9285054,
              -23.4435096
            ],
            [
              -46.9284196,
              -23.4434849
            ],
            [
              -46.9284464,
              -23.443448
            ],
            [
              -46.9284598,
              -23.4434087
            ],
            [
              -46.9284813,
              -23.4434111
            ],
            [
              -46.928484,
              -23.4433594
            ],
            [
              -46.9285054,
              -23.4433693
            ],
            [
              -46.9285349,
              -23.4432856
            ],
            [
              -46.9285725,
              -23.4433004
            ],
            [
              -46.9285886,
              -23.4432635
            ],
            [
              -46.9286851,
              -23.4433004
            ],
            [
              -46.9286717,
              -23.4433324
            ],
            [
              -46.9287334,
              -23.4433594
            ]
          ]
        ]
      }
    },
    {
      "type": "Feature",
      "id": "way/684869488",
      "properties": {
        "timestamp": "2019-04-19T20:44:43Z",
        "version": 1,
        "changeset": 69388810,
        "addr:housenumber": "771",
        "addr:postcode": "06535-205",
        "addr:street": "Avenida das Conchas",
        "addr:suburb": "Cidade São Pedro",
        "amenity": "school",
        "contact:phone": "+55 11 4705 2499",
        "email": "sme.carrosseldourado@edu.santanadeparnaiba.sp.gov.br",
        "name": "Colégio Municipal Carrossel Dourado",
        "phone": "+55 11 4156 1109",
        "ref": "Avenida das Conchas 777",
        "id": "way/684869488"
      },
      "geometry": {
        "type": "Polygon",
        "coordinates": [
          [
            [
              -46.8517413,
              -23.4264873
            ],
            [
              -46.8514405,
              -23.4266872
            ],
            [
              -46.8512865,
              -23.4265177
            ],
            [
              -46.851386,
              -23.4264568
            ],
            [
              -46.8512344,
              -23.4262721
            ],
            [
              -46.8515921,
              -23.4260395
            ],
            [
              -46.8516442,
              -23.4261004
            ],
            [
              -46.8515045,
              -23.4262221
            ],
            [
              -46.8517413,
              -23.4264873
            ]
          ]
        ]
      }
    },
    {
      "type": "Feature",
      "id": "way/684897560",
      "properties": {
        "timestamp": "2019-04-20T03:21:58Z",
        "version": 1,
        "changeset": 69393786,
        "addr:housenumber": "360",
        "addr:postcode": "06535-165",
        "addr:street": "Rua do Gavião",
        "addr:suburb": "Cidade São Pedro",
        "amenity": "school",
        "contact:phone": "+55 11 4156 4250",
        "email": "sme.bernardinomarques@edu.santanadeparnaiba.sp.gov.br",
        "name": "Colégio Municipal Prefeito Bernadino Marques da Silva",
        "operator": "Secretaria Municipal da Educação",
        "phone": "+55 11 4156 3577",
        "ref": "35240874",
        "id": "way/684897560"
      },
      "geometry": {
        "type": "Polygon",
        "coordinates": [
          [
            [
              -46.8603223,
              -23.4230755
            ],
            [
              -46.8599709,
              -23.423489
            ],
            [
              -46.8596303,
              -23.4232774
            ],
            [
              -46.8597255,
              -23.4231383
            ],
            [
              -46.8598126,
              -23.4230214
            ],
            [
              -46.8598904,
              -23.42305
            ],
            [
              -46.8599521,
              -23.423054
            ],
            [
              -46.8600621,
              -23.4229242
            ],
            [
              -46.8603223,
              -23.4230755
            ]
          ]
        ]
      }
    },
    {
      "type": "Feature",
      "id": "way/684897564",
      "properties": {
        "timestamp": "2019-04-20T03:21:59Z",
        "version": 1,
        "changeset": 69393786,
        "addr:housenumber": "179",
        "addr:postcode": "06535-165",
        "addr:street": "Rua do Gavião",
        "addr:suburb": "Cidade São Pedro",
        "amenity": "school",
        "contact:phone": "+55 11 4705 2638",
        "email": "sme.ulyssesguimaraes@edu.santanadeparnaiba.sp.gov.br",
        "name": "Colégio Municipal Deputado Ulysses Silveira Guimarães",
        "operator": "Secretaria Municipal da Educação",
        "phone": "+55 11 4705 1011",
        "ref": "35056169",
        "id": "way/684897564"
      },
      "geometry": {
        "type": "Polygon",
        "coordinates": [
          [
            [
              -46.8610652,
              -23.4213266
            ],
            [
              -46.8610841,
              -23.4215186
            ],
            [
              -46.8610318,
              -23.4215263
            ],
            [
              -46.8610548,
              -23.4217413
            ],
            [
              -46.8605715,
              -23.4217912
            ],
            [
              -46.8605506,
              -23.4215896
            ],
            [
              -46.860605,
              -23.4215723
            ],
            [
              -46.8605883,
              -23.421509
            ],
            [
              -46.8605464,
              -23.4215109
            ],
            [
              -46.8605046,
              -23.4213842
            ],
            [
              -46.8605485,
              -23.4213669
            ],
            [
              -46.8605673,
              -23.4213785
            ],
            [
              -46.8610652,
              -23.4213266
            ]
          ]
        ]
      }
    },
    {
      "type": "Feature",
      "id": "way/685017435",
      "properties": {
        "timestamp": "2019-04-20T23:05:08Z",
        "version": 1,
        "changeset": 69413261,
        "addr:housenumber": "2000",
        "addr:postcode": "06535-020",
        "addr:street": "Avenida Fortunato Camargo",
        "addr:suburb": "Cidade São Pedro",
        "amenity": "school",
        "contact:phone": "+55 11 4705 1971",
        "email": "sme.paulobotelhoO@edu.santanadeparnaiba.sp.gov.br",
        "name": "Colégio Municipal Doutor Paulo Octávio Botelho",
        "phone": "+55 11 4705 1801",
        "ref": "35276170",
        "id": "way/685017435"
      },
      "geometry": {
        "type": "Polygon",
        "coordinates": [
          [
            [
              -46.8599964,
              -23.4289779
            ],
            [
              -46.8600082,
              -23.4292112
            ],
            [
              -46.8593394,
              -23.4293278
            ],
            [
              -46.8592123,
              -23.4294283
            ],
            [
              -46.858784,
              -23.4288254
            ],
            [
              -46.8588212,
              -23.4287537
            ],
            [
              -46.8588642,
              -23.4286837
            ],
            [
              -46.8588994,
              -23.4286406
            ],
            [
              -46.8589209,
              -23.4286227
            ],
            [
              -46.8589483,
              -23.4286137
            ],
            [
              -46.8589757,
              -23.4286101
            ],
            [
              -46.8590187,
              -23.4286155
            ],
            [
              -46.859357,
              -23.4288829
            ],
            [
              -46.8594137,
              -23.4289169
            ],
            [
              -46.8595046,
              -23.4289555
            ],
            [
              -46.8596112,
              -23.4289762
            ],
            [
              -46.8599964,
              -23.4289779
            ]
          ]
        ]
      }
    },
    {
      "type": "Feature",
      "id": "way/720697296",
      "properties": {
        "timestamp": "2019-09-18T04:03:19Z",
        "version": 6,
        "changeset": 74604450,
        "amenity": "school",
        "name": "Colégio Municipal Tenente General Gaspar de Godoi Colaco",
        "wikidata": "Q65936737",
        "id": "way/720697296"
      },
      "geometry": {
        "type": "Polygon",
        "coordinates": [
          [
            [
              -46.9129961,
              -23.446416
            ],
            [
              -46.9129839,
              -23.4462171
            ],
            [
              -46.9129599,
              -23.4458234
            ],
            [
              -46.9129562,
              -23.4457628
            ],
            [
              -46.9134591,
              -23.4457322
            ],
            [
              -46.9135208,
              -23.4457285
            ],
            [
              -46.9134953,
              -23.4460136
            ],
            [
              -46.9135687,
              -23.4460191
            ],
            [
              -46.913529,
              -23.4464629
            ],
            [
              -46.9133577,
              -23.4464578
            ],
            [
              -46.9133552,
              -23.4465279
            ],
            [
              -46.9132838,
              -23.4465215
            ],
            [
              -46.9130581,
              -23.446459
            ],
            [
              -46.9129961,
              -23.446416
            ]
          ]
        ]
      }
    },
    {
      "type": "Feature",
      "id": "way/768951249",
      "properties": {
        "timestamp": "2021-09-14T21:26:51Z",
        "version": 2,
        "changeset": 111215434,
        "addr:housenumber": "898",
        "addr:postcode": "65160-50",
        "addr:street": "Rua Moacir da Silveira",
        "addr:suburb": "Jardim Isaura",
        "amenity": "school",
        "contact:phone": "+55 11 4151 3417",
        "email": "sme.tancredoneves@edu.santanadeparnaiba.sp.gov.br",
        "name": "Colégio Municipal Presidente Tancredo de Almeida Neves",
        "phone": "+55 11 4151 2060",
        "ref": "INEP-35132073",
        "id": "way/768951249"
      },
      "geometry": {
        "type": "Polygon",
        "coordinates": [
          [
            [
              -46.8934012,
              -23.4778253
            ],
            [
              -46.893179,
              -23.4779382
            ],
            [
              -46.8931114,
              -23.4779604
            ],
            [
              -46.8930414,
              -23.4775661
            ],
            [
              -46.8929907,
              -23.4775174
            ],
            [
              -46.8929979,
              -23.4773158
            ],
            [
              -46.8933892,
              -23.4773246
            ],
            [
              -46.8934012,
              -23.4778253
            ]
          ]
        ]
      }
    },
    {
      "type": "Feature",
      "id": "way/770657564",
      "properties": {
        "timestamp": "2023-05-18T13:04:14Z",
        "version": 2,
        "changeset": 136254432,
        "addr:housenumber": "421",
        "addr:postcode": "06513-300",
        "addr:street": "Estrada Sítio do Moinho",
        "addr:suburb": "Germano",
        "amenity": "school",
        "email": "sme.daisy@edu.santanadeparnaiba.sp.gov.br",
        "name": "Colégio Municipal Professora Daisy Moraes Chaves Nicolas",
        "phone": "+55 11 4151 2017",
        "ref": "35407860",
        "id": "way/770657564"
      },
      "geometry": {
        "type": "Polygon",
        "coordinates": [
          [
            [
              -46.9052807,
              -23.4677156
            ],
            [
              -46.9056947,
              -23.4683335
            ],
            [
              -46.905663,
              -23.4683947
            ],
            [
              -46.9056041,
              -23.4684194
            ],
            [
              -46.9051372,
              -23.4684785
            ],
            [
              -46.9048338,
              -23.4679589
            ],
            [
              -46.9052807,
              -23.4677156
            ]
          ]
        ]
      }
    },
    {
      "type": "Feature",
      "id": "way/1173183230",
      "properties": {
        "timestamp": "2023-05-16T00:39:06Z",
        "version": 1,
        "changeset": 136146494,
        "addr:street": "Rua China",
        "addr:suburb": "Recanto Maravilha III",
        "amenity": "school",
        "official_name": "Colégio Municipal Aurélio Gianini Teixeira",
        "phone": "+55 11 4192 2950",
        "religion": "none",
        "id": "way/1173183230"
      },
      "geometry": {
        "type": "Polygon",
        "coordinates": [
          [
            [
              -46.9951787,
              -23.4863622
            ],
            [
              -46.9955784,
              -23.4870657
            ],
            [
              -46.9952002,
              -23.487201
            ],
            [
              -46.9948998,
              -23.4864999
            ],
            [
              -46.9951787,
              -23.4863622
            ]
          ]
        ]
      }
    },
    {
      "type": "Feature",
      "id": "way/1173404109",
      "properties": {
        "timestamp": "2023-05-16T16:08:13Z",
        "version": 1,
        "changeset": 136176531,
        "addr:street": "Rua Orbita",
        "amenity": "school",
        "id": "way/1173404109"
      },
      "geometry": {
        "type": "Polygon",
        "coordinates": [
          [
            [
              -46.8760979,
              -23.4189639
            ],
            [
              -46.876015,
              -23.4192767
            ],
            [
              -46.8755368,
              -23.4191529
            ],
            [
              -46.8755036,
              -23.419192
            ],
            [
              -46.875229,
              -23.4191572
            ],
            [
              -46.8753284,
              -23.4188292
            ],
            [
              -46.8754705,
              -23.4188227
            ],
            [
              -46.8760979,
              -23.4189639
            ]
          ]
        ]
      }
    },
    {
      "type": "Feature",
      "id": "way/1173407313",
      "properties": {
        "timestamp": "2023-05-16T16:15:24Z",
        "version": 1,
        "changeset": 136176909,
        "addr:street": "Rua Órbita",
        "amenity": "school",
        "id": "way/1173407313"
      },
      "geometry": {
        "type": "Polygon",
        "coordinates": [
          [
            [
              -46.8796922,
              -23.4175373
            ],
            [
              -46.8804079,
              -23.4175225
            ],
            [
              -46.8803444,
              -23.4176328
            ],
            [
              -46.8803404,
              -23.4180132
            ],
            [
              -46.880308,
              -23.4181396
            ],
            [
              -46.8802189,
              -23.4182412
            ],
            [
              -46.8801162,
              -23.4185213
            ],
            [
              -46.8800244,
              -23.4185659
            ],
            [
              -46.8796274,
              -23.4184915
            ],
            [
              -46.8796922,
              -23.4175373
            ]
          ]
        ]
      }
    },
    {
      "type": "Feature",
      "id": "way/1173525962",
      "properties": {
        "timestamp": "2023-05-16T21:42:04Z",
        "version": 1,
        "changeset": 136187163,
        "addr:street": "Estrada Velocino de Araujo Bastos",
        "amenity": "school",
        "official_name": "Colégio Municipal Georgina de Andrade Nadatini",
        "id": "way/1173525962"
      },
      "geometry": {
        "type": "Polygon",
        "coordinates": [
          [
            [
              -46.93888,
              -23.479902
            ],
            [
              -46.9391884,
              -23.4797864
            ],
            [
              -46.9392649,
              -23.479822
            ],
            [
              -46.9393413,
              -23.4798675
            ],
            [
              -46.9394808,
              -23.4801012
            ],
            [
              -46.9390302,
              -23.4802981
            ],
            [
              -46.93888,
              -23.479902
            ]
          ]
        ]
      }
    },
    {
      "type": "Feature",
      "id": "way/1173984482",
      "properties": {
        "timestamp": "2023-05-18T14:10:55Z",
        "version": 1,
        "changeset": 136257634,
        "addr:housenumber": "1006",
        "addr:postcode": "06532-301",
        "addr:street": "Estrada de Ipanema",
        "addr:suburb": "Jardim Paula",
        "amenity": "school",
        "contact:mobile": "+55 11 96170 3778",
        "contact:phone": "+55 11 4154 4717",
        "official_name": "Escola Vila Alpha",
        "phone": "+55 11 4154 4715",
        "website": "https://www.vilaalpha.com.br/",
        "id": "way/1173984482"
      },
      "geometry": {
        "type": "Polygon",
        "coordinates": [
          [
            [
              -46.8978908,
              -23.4437163
            ],
            [
              -46.8982842,
              -23.4449595
            ],
            [
              -46.8981116,
              -23.4450061
            ],
            [
              -46.8977665,
              -23.4448548
            ],
            [
              -46.8974671,
              -23.4439096
            ],
            [
              -46.8978908,
              -23.4437163
            ]
          ]
        ]
      }
    },
    {
      "type": "Feature",
      "id": "way/1174166207",
      "properties": {
        "timestamp": "2023-05-19T01:03:36Z",
        "version": 1,
        "changeset": 136277487,
        "addr:housenumber": "710",
        "addr:street": "Alameda América",
        "addr:suburb": "Polo Industrial Tamboré",
        "amenity": "school",
        "email": "contato@escolamorumbi.com.br",
        "official_name": "Escola Morumbi",
        "phone": "+55 11 2666 2888",
        "website": "https://www.escolamorumbi.com.br/",
        "id": "way/1174166207"
      },
      "geometry": {
        "type": "Polygon",
        "coordinates": [
          [
            [
              -46.8303654,
              -23.4719918
            ],
            [
              -46.8305608,
              -23.4719291
            ],
            [
              -46.8304859,
              -23.4725026
            ],
            [
              -46.8291555,
              -23.4730194
            ],
            [
              -46.828947,
              -23.4725504
            ],
            [
              -46.8303654,
              -23.4719918
            ]
          ]
        ]
      }
    },
    {
      "type": "Feature",
      "id": "way/1174166210",
      "properties": {
        "timestamp": "2023-05-19T01:03:36Z",
        "version": 1,
        "changeset": 136277487,
        "addr:street": "Alameda Europa",
        "amenity": "school",
        "official_name": "Primeiro Passo",
        "id": "way/1174166210"
      },
      "geometry": {
        "type": "Polygon",
        "coordinates": [
          [
            [
              -46.8290463,
              -23.4730646
            ],
            [
              -46.8295228,
              -23.474117
            ],
            [
              -46.8294591,
              -23.4742214
            ],
            [
              -46.8292114,
              -23.4741572
            ],
            [
              -46.8290735,
              -23.4741227
            ],
            [
              -46.8289021,
              -23.4740192
            ],
            [
              -46.8287517,
              -23.4739176
            ],
            [
              -46.8283379,
              -23.4736186
            ],
            [
              -46.8280892,
              -23.473425
            ],
            [
              -46.8290463,
              -23.4730646
            ]
          ]
        ]
      }
    },
    {
      "type": "Feature",
      "id": "way/1174573319",
      "properties": {
        "timestamp": "2023-05-20T15:43:46Z",
        "version": 1,
        "changeset": 136343000,
        "addr:housenumber": "3482",
        "addr:street": "Avenida Marcos Penteado de Ulhôa Rodrigues",
        "amenity": "school",
        "contact:mobile": "+55 11 97401 2637",
        "official_name": "Colégio Anglo Leonardo Da Vinc",
        "operator": "Anglo Leonardo da Vinci",
        "operator:type": "private",
        "phone": "+55 11 4153 7739",
        "id": "way/1174573319"
      },
      "geometry": {
        "type": "Polygon",
        "coordinates": [
          [
            [
              -46.8461589,
              -23.4660156
            ],
            [
              -46.8460999,
              -23.4664318
            ],
            [
              -46.8460335,
              -23.4667432
            ],
            [
              -46.8456424,
              -23.4667601
            ],
            [
              -46.8456535,
              -23.4657956
            ],
            [
              -46.8461589,
              -23.4660156
            ]
          ]
        ]
      }
    },
    {
      "type": "Feature",
      "id": "way/1174605292",
      "properties": {
        "timestamp": "2023-05-31T00:18:13Z",
        "version": 2,
        "changeset": 136766707,
        "addr:housenumber": "2",
        "addr:postcode": "06541-025",
        "addr:street": "Rua Largo da Igreja Prebesteriana",
        "addr:suburb": "Alphaville",
        "amenity": "school",
        "email": "contato@fernaogaivota.com.br",
        "official_name": "Escola Fernão Gaivota",
        "phone": "+55 11 4153 0033",
        "website": "https://fernaogaivota.com.br/",
        "id": "way/1174605292"
      },
      "geometry": {
        "type": "Polygon",
        "coordinates": [
          [
            [
              -46.8734864,
              -23.4625953
            ],
            [
              -46.873647,
              -23.4629209
            ],
            [
              -46.8729203,
              -23.463151
            ],
            [
              -46.8728132,
              -23.4628507
            ],
            [
              -46.8734864,
              -23.4625953
            ]
          ]
        ]
      }
    },
    {
      "type": "Feature",
      "id": "way/1174837491",
      "properties": {
        "timestamp": "2023-05-21T17:44:04Z",
        "version": 1,
        "changeset": 136381690,
        "addr:housenumber": "362",
        "addr:street": "Estrada de Ipanema",
        "amenity": "school",
        "official_name": "Escola Arapoti",
        "phone": "+55 11 99335 0776",
        "website": "https://www.escolaarapoti.com.br/",
        "id": "way/1174837491"
      },
      "geometry": {
        "type": "Polygon",
        "coordinates": [
          [
            [
              -46.9027905,
              -23.4421917
            ],
            [
              -46.9027108,
              -23.4426186
            ],
            [
              -46.902584,
              -23.4430588
            ],
            [
              -46.9020314,
              -23.4430758
            ],
            [
              -46.9018222,
              -23.4430574
            ],
            [
              -46.9016294,
              -23.4429982
            ],
            [
              -46.901225,
              -23.4428242
            ],
            [
              -46.901243,
              -23.4424629
            ],
            [
              -46.901153,
              -23.4423512
            ],
            [
              -46.9010303,
              -23.4422844
            ],
            [
              -46.9008959,
              -23.4422069
            ],
            [
              -46.9007844,
              -23.4421296
            ],
            [
              -46.9008199,
              -23.4420395
            ],
            [
              -46.901367,
              -23.442017
            ],
            [
              -46.9019198,
              -23.4420426
            ],
            [
              -46.9027905,
              -23.4421917
            ]
          ]
        ]
      }
    },
    {
      "type": "Feature",
      "id": "way/1177899662",
      "properties": {
        "timestamp": "2023-05-31T14:24:57Z",
        "version": 1,
        "changeset": 136792064,
        "addr:street": "Estrada Municipal do Ingay",
        "amenity": "school",
        "official_name": "Colégio Municipal Manoel Jacob Cremm",
        "id": "way/1177899662"
      },
      "geometry": {
        "type": "Polygon",
        "coordinates": [
          [
            [
              -46.9753147,
              -23.4877129
            ],
            [
              -46.9747122,
              -23.4873908
            ],
            [
              -46.9747027,
              -23.4869474
            ],
            [
              -46.9747449,
              -23.4869113
            ],
            [
              -46.9753365,
              -23.4868274
            ],
            [
              -46.9753147,
              -23.4877129
            ]
          ]
        ]
      }
    },
    {
      "type": "Feature",
      "id": "way/1177899663",
      "properties": {
        "timestamp": "2023-05-31T14:24:57Z",
        "version": 1,
        "changeset": 136792064,
        "amenity": "school",
        "official_name": "Colégio Municipal Professor Fábio Leandro Ponso",
        "id": "way/1177899663"
      },
      "geometry": {
        "type": "Polygon",
        "coordinates": [
          [
            [
              -46.974012,
              -23.4870319
            ],
            [
              -46.9743628,
              -23.4871691
            ],
            [
              -46.9744227,
              -23.4872689
            ],
            [
              -46.9745913,
              -23.4874834
            ],
            [
              -46.9746049,
              -23.4876156
            ],
            [
              -46.9740038,
              -23.4876181
            ],
            [
              -46.974012,
              -23.4870319
            ]
          ]
        ]
      }
    },
    {
      "type": "Feature",
      "id": "node/5885123381",
      "properties": {
        "timestamp": "2018-09-05T16:03:38Z",
        "version": 1,
        "changeset": 62317058,
        "entrance": "yes",
        "id": "node/5885123381"
      },
      "geometry": {
        "type": "Point",
        "coordinates": [
          -46.8996495,
          -23.4772762
        ]
      }
    },
    {
      "type": "Feature",
      "id": "node/5885123606",
      "properties": {
        "timestamp": "2018-09-05T16:03:38Z",
        "version": 1,
        "changeset": 62317058,
        "entrance": "yes",
        "id": "node/5885123606"
      },
      "geometry": {
        "type": "Point",
        "coordinates": [
          -46.8999862,
          -23.4772474
        ]
      }
    },
    {
      "type": "Feature",
      "id": "node/6412792864",
      "properties": {
        "timestamp": "2019-04-17T21:59:32Z",
        "version": 1,
        "changeset": 69325018,
        "entrance": "yes",
        "id": "node/6412792864"
      },
      "geometry": {
        "type": "Point",
        "coordinates": [
          -46.8519503,
          -23.424238
        ]
      }
    },
    {
      "type": "Feature",
      "id": "node/6413105061",
      "properties": {
        "timestamp": "2019-04-18T03:31:15Z",
        "version": 1,
        "changeset": 69328965,
        "entrance": "yes",
        "id": "node/6413105061"
      },
      "geometry": {
        "type": "Point",
        "coordinates": [
          -46.8519176,
          -23.4249447
        ]
      }
    },
    {
      "type": "Feature",
      "id": "node/6413105062",
      "properties": {
        "timestamp": "2019-04-18T03:31:15Z",
        "version": 1,
        "changeset": 69328965,
        "entrance": "yes",
        "id": "node/6413105062"
      },
      "geometry": {
        "type": "Point",
        "coordinates": [
          -46.8521269,
          -23.4250223
        ]
      }
    },
    {
      "type": "Feature",
      "id": "node/6413105063",
      "properties": {
        "timestamp": "2019-04-18T03:31:15Z",
        "version": 1,
        "changeset": 69328965,
        "entrance": "yes",
        "id": "node/6413105063"
      },
      "geometry": {
        "type": "Point",
        "coordinates": [
          -46.8518151,
          -23.4243753
        ]
      }
    },
    {
      "type": "Feature",
      "id": "node/6762717472",
      "properties": {
        "timestamp": "2019-09-01T03:57:00Z",
        "version": 2,
        "changeset": 73962059,
        "barrier": "gate",
        "id": "node/6762717472"
      },
      "geometry": {
        "type": "Point",
        "coordinates": [
          -46.9134591,
          -23.4457322
        ]
      }
    }
  ]
}
