{
  "type": "FeatureCollection",
  "features": [
    {
      "type": "Feature",
      "id": "node/6576877501",
      "properties": {
        "timestamp": "2021-12-07T12:19:31Z",
        "version": 4,
        "changeset": 114658837,
        "addr:street": "Rua Coronel Pio Gadelha",
        "amenity": "clinic",
        "healthcare": "clinic",
        "name": "Citolab",
        "phone": "88 9716-2019",
        "id": "node/6576877501"
      },
      "geometry": {
        "type": "Point",
        "coordinates": [
          -38.1279023,
          -5.2473913
        ]
      }
    },
    {
      "type": "Feature",
      "id": "node/6848884122",
      "properties": {
        "timestamp": "2022-08-24T11:45:40Z",
        "version": 3,
        "changeset": 125311878,
        "addr:housenumber": "830",
        "addr:street": "Rua Manuel Franklin",
        "amenity": "clinic",
        "healthcare": "clinic",
        "name": "Centro de Abastecimentos Farmacêuticos - CAF",
        "id": "node/6848884122"
      },
      "geometry": {
        "type": "Point",
        "coordinates": [
          -38.1296883,
          -5.2438126
        ]
      }
    },
    {
      "type": "Feature",
      "id": "node/8379640584",
      "properties": {
        "timestamp": "2021-08-09T18:39:15Z",
        "version": 2,
        "changeset": 109424138,
        "addr:street": "Rua São José",
        "amenity": "clinic",
        "healthcare": "clinic",
        "name": "Unidade de Atenção Primária á Saude - José Mendes Sobrinho",
        "id": "node/8379640584"
      },
      "geometry": {
        "type": "Point",
        "coordinates": [
          -38.1321175,
          -5.2361755
        ]
      }
    },
    {
      "type": "Feature",
      "id": "node/10244261099",
      "properties": {
        "timestamp": "2023-06-12T12:07:07Z",
        "version": 2,
        "changeset": 137242170,
        "addr:street": "Rua Ziltamir Chaves",
        "amenity": "clinic",
        "healthcare": "clinic",
        "name": "Posto De Saúde Alcides Monteiro Chaves",
        "opening_hours": "Mo-Fr 07:00-17:00",
        "phone": "(88) 3424-1091",
        "id": "node/10244261099"
      },
      "geometry": {
        "type": "Point",
        "coordinates": [
          -38.1296482,
          -5.2615965
        ]
      }
    }
  ]
}
