{
  "type": "FeatureCollection",
  "features": [
    {
      "type": "Feature",
      "id": "way/759647516",
      "properties": {
        "timestamp": "2023-09-10T10:32:58Z",
        "version": 2,
        "changeset": 141056458,
        "addr:city": "Tabuleiro do Norte",
        "addr:street": "Rua Pedro Pessoa",
        "building": "yes",
        "government": "social_security",
        "name": "Inss",
        "office": "government",
        "operator": "Instituto Nacional do Seguro Social",
        "operator:short": "INSS",
        "operator:wikidata": "Q10302614",
        "id": "way/759647516"
      },
      "geometry": {
        "type": "Polygon",
        "coordinates": [
          [
            [
              -38.13014,
              -5.2424776
            ],
            [
              -38.1300609,
              -5.242555
            ],
            [
              -38.1299134,
              -5.2423921
            ],
            [
              -38.1299925,
              -5.2423173
            ],
            [
              -38.13014,
              -5.2424776
            ]
          ]
        ]
      }
    },
    {
      "type": "Feature",
      "id": "node/6418540801",
      "properties": {
        "timestamp": "2022-10-25T11:16:26Z",
        "version": 3,
        "changeset": 128034792,
        "addr:street": "Rua Capitão José Rodrigues",
        "name": "Detran",
        "office": "government",
        "opening_hours": "Mo-Fr 08:00-13:00",
        "id": "node/6418540801"
      },
      "geometry": {
        "type": "Point",
        "coordinates": [
          -38.1309975,
          -5.2470722
        ]
      }
    },
    {
      "type": "Feature",
      "id": "node/7893574348",
      "properties": {
        "timestamp": "2024-09-26T11:56:04Z",
        "version": 3,
        "changeset": 157124983,
        "addr:housenumber": "486",
        "addr:street": "Rua Monsenhor Otávio Santiago",
        "name": "Sindicato dos Servidores Públicos e Municipais de Tabuleiro do Norte",
        "office": "government",
        "id": "node/7893574348"
      },
      "geometry": {
        "type": "Point",
        "coordinates": [
          -38.1235212,
          -5.2486295
        ]
      }
    },
    {
      "type": "Feature",
      "id": "node/7905031969",
      "properties": {
        "timestamp": "2022-11-08T16:09:10Z",
        "version": 3,
        "changeset": 128647922,
        "addr:street": "Rua Emilia Chaves",
        "name": "Cras Urbano - Tabuleiro do Norte",
        "office": "government",
        "phone": "+55 88 3424 2328",
        "id": "node/7905031969"
      },
      "geometry": {
        "type": "Point",
        "coordinates": [
          -38.1276907,
          -5.2500732
        ]
      }
    },
    {
      "type": "Feature",
      "id": "node/8524140009",
      "properties": {
        "timestamp": "2022-09-02T11:38:04Z",
        "version": 2,
        "changeset": 125694895,
        "addr:housenumber": "4710",
        "addr:street": "Rua Batista Maia",
        "name": "Cartório Carlos 1 Ofício",
        "office": "government",
        "id": "node/8524140009"
      },
      "geometry": {
        "type": "Point",
        "coordinates": [
          -38.1283946,
          -5.2484095
        ]
      }
    },
    {
      "type": "Feature",
      "id": "node/9313330347",
      "properties": {
        "timestamp": "2021-12-06T00:03:00Z",
        "version": 1,
        "changeset": 114598354,
        "name": "Conselho Tutelar",
        "office": "government",
        "id": "node/9313330347"
      },
      "geometry": {
        "type": "Point",
        "coordinates": [
          -38.1292481,
          -5.2468434
        ]
      }
    },
    {
      "type": "Feature",
      "id": "node/11180792091",
      "properties": {
        "timestamp": "2023-09-10T10:32:58Z",
        "version": 1,
        "changeset": 141056458,
        "addr:city": "Tabuleiro do Norte",
        "addr:street": "Rua Pedro Pessoa",
        "government": "public_service",
        "name": "Secretaria de Obras e Planejamento Urbano de Tabuleiro do Norte",
        "office": "government",
        "id": "node/11180792091"
      },
      "geometry": {
        "type": "Point",
        "coordinates": [
          -38.1298103,
          -5.2428811
        ]
      }
    },
    {
      "type": "Feature",
      "id": "node/11180792094",
      "properties": {
        "timestamp": "2023-09-10T10:32:58Z",
        "version": 1,
        "changeset": 141056458,
        "addr:city": "Tabuleiro do Norte",
        "addr:street": "Rua Acelino Maia",
        "addr:suburb": "Centro",
        "government": "yes",
        "name": "Detran",
        "office": "government",
        "id": "node/11180792094"
      },
      "geometry": {
        "type": "Point",
        "coordinates": [
          -38.1243566,
          -5.246508
        ]
      }
    },
    {
      "type": "Feature",
      "id": "node/11728825709",
      "properties": {
        "timestamp": "2024-03-13T22:08:01Z",
        "version": 1,
        "changeset": 148614883,
        "addr:street": "Rua Manoel Guerreiro",
        "name": "Cras",
        "office": "government",
        "id": "node/11728825709"
      },
      "geometry": {
        "type": "Point",
        "coordinates": [
          -38.1352604,
          -5.2528872
        ]
      }
    },
    {
      "type": "Feature",
      "id": "node/11862184917",
      "properties": {
        "timestamp": "2024-04-28T12:42:48Z",
        "version": 1,
        "changeset": 150616948,
        "addr:city": "Tabuleiro do Norte",
        "addr:street": "Rua Maia Alarcon",
        "addr:suburb": "Centro",
        "government": "register_office",
        "name": "Cartorio do 1 Oficio",
        "office": "government",
        "id": "node/11862184917"
      },
      "geometry": {
        "type": "Point",
        "coordinates": [
          -38.1296832,
          -5.2466273
        ]
      }
    }
  ]
}
