{
  "type": "FeatureCollection",
  "features": [
    {
      "type": "Feature",
      "id": "node/6419811219",
      "properties": {
        "timestamp": "2021-08-04T01:53:03Z",
        "version": 3,
        "changeset": 109118406,
        "addr:city": "Tabuleiro do Norte",
        "addr:street": "Rua Maia Alarcon",
        "addr:suburb": "Centro",
        "amenity": "pharmacy",
        "healthcare": "pharmacy",
        "name": "Farmacia iracema",
        "id": "node/6419811219"
      },
      "geometry": {
        "type": "Point",
        "coordinates": [
          -38.1296253,
          -5.2468508
        ]
      }
    },
    {
      "type": "Feature",
      "id": "node/6783839868",
      "properties": {
        "timestamp": "2024-09-30T16:14:02Z",
        "version": 3,
        "changeset": 157305135,
        "addr:city": "Tabuleiro do Norte",
        "addr:postcode": "62960000",
        "addr:street": "Rua Batista Maia",
        "addr:suburb": "Centro",
        "amenity": "pharmacy",
        "healthcare": "pharmacy",
        "name": "Medfarma",
        "id": "node/6783839868"
      },
      "geometry": {
        "type": "Point",
        "coordinates": [
          -38.1300621,
          -5.2469373
        ]
      }
    },
    {
      "type": "Feature",
      "id": "node/6786709307",
      "properties": {
        "timestamp": "2022-09-02T11:38:04Z",
        "version": 3,
        "changeset": 125694895,
        "addr:housenumber": "490",
        "addr:street": "Rua Maia Alarcon",
        "amenity": "pharmacy",
        "healthcare": "pharmacy",
        "name": "Disk Saude",
        "id": "node/6786709307"
      },
      "geometry": {
        "type": "Point",
        "coordinates": [
          -38.1290962,
          -5.2474442
        ]
      }
    },
    {
      "type": "Feature",
      "id": "node/6813206811",
      "properties": {
        "timestamp": "2022-11-27T11:19:21Z",
        "version": 3,
        "changeset": 129430441,
        "addr:street": "Rua Maia Batista",
        "amenity": "pharmacy",
        "healthcare": "pharmacy",
        "name": "Farma Freitas",
        "id": "node/6813206811"
      },
      "geometry": {
        "type": "Point",
        "coordinates": [
          -38.1313562,
          -5.2455257
        ]
      }
    },
    {
      "type": "Feature",
      "id": "node/6959893579",
      "properties": {
        "timestamp": "2025-04-04T20:57:05Z",
        "version": 4,
        "changeset": 164528486,
        "addr:city": "Tabuleiro do Norte",
        "addr:street": "Rua Maia Alarcon",
        "addr:suburb": "Centro",
        "amenity": "pharmacy",
        "dispensing": "yes",
        "drive_through": "no",
        "healthcare": "pharmacy",
        "name": "Farmácia do Trabalhador",
        "id": "node/6959893579"
      },
      "geometry": {
        "type": "Point",
        "coordinates": [
          -38.1287496,
          -5.2477818
        ]
      }
    },
    {
      "type": "Feature",
      "id": "node/7176313608",
      "properties": {
        "timestamp": "2020-01-31T22:30:28Z",
        "version": 1,
        "changeset": 80395453,
        "addr:housenumber": "299",
        "addr:street": "Rua Silvestre Reboças",
        "amenity": "pharmacy",
        "name": "Farmácia",
        "id": "node/7176313608"
      },
      "geometry": {
        "type": "Point",
        "coordinates": [
          -38.0144277,
          -5.3887513
        ]
      }
    },
    {
      "type": "Feature",
      "id": "node/7182656758",
      "properties": {
        "timestamp": "2021-08-12T21:23:57Z",
        "version": 2,
        "changeset": 109594666,
        "addr:street": "Rua José dos Reis",
        "amenity": "pharmacy",
        "healthcare": "pharmacy",
        "name": "Farmed",
        "phone": "+55 88 3424 4116",
        "id": "node/7182656758"
      },
      "geometry": {
        "type": "Point",
        "coordinates": [
          -38.0139389,
          -5.3883123
        ]
      }
    },
    {
      "type": "Feature",
      "id": "node/7913048349",
      "properties": {
        "timestamp": "2021-08-04T01:53:03Z",
        "version": 2,
        "changeset": 109118406,
        "addr:housenumber": "520",
        "addr:street": "Rua Maia Alarcon",
        "amenity": "pharmacy",
        "healthcare": "pharmacy",
        "name": "Farmácia Tabuleirense",
        "id": "node/7913048349"
      },
      "geometry": {
        "type": "Point",
        "coordinates": [
          -38.1280672,
          -5.2483144
        ]
      }
    },
    {
      "type": "Feature",
      "id": "node/9321550989",
      "properties": {
        "timestamp": "2021-12-08T17:26:51Z",
        "version": 1,
        "changeset": 114711399,
        "addr:street": "Rua Maia Batista",
        "amenity": "pharmacy",
        "name": "Du Valle",
        "id": "node/9321550989"
      },
      "geometry": {
        "type": "Point",
        "coordinates": [
          -38.1301219,
          -5.2467479
        ]
      }
    },
    {
      "type": "Feature",
      "id": "node/9957013202",
      "properties": {
        "timestamp": "2024-09-26T11:56:04Z",
        "version": 2,
        "changeset": 157124983,
        "addr:street": "Rua Emília Chaves",
        "amenity": "pharmacy",
        "name": "Farmácia",
        "id": "node/9957013202"
      },
      "geometry": {
        "type": "Point",
        "coordinates": [
          -38.1304703,
          -5.2471871
        ]
      }
    },
    {
      "type": "Feature",
      "id": "node/10287873073",
      "properties": {
        "timestamp": "2022-12-26T17:14:38Z",
        "version": 1,
        "changeset": 130525002,
        "addr:housenumber": "162",
        "addr:street": "Rua Lino Fernandes Pessoa",
        "amenity": "pharmacy",
        "name": "Farma + Saúde",
        "phone": "(88) 99637-2554",
        "id": "node/10287873073"
      },
      "geometry": {
        "type": "Point",
        "coordinates": [
          -38.1297597,
          -5.2452387
        ]
      }
    }
  ]
}
