{
  "type": "FeatureCollection",
  "features": [
    {
      "type": "Feature",
      "id": "way/776503276",
      "properties": {
        "timestamp": "2021-08-11T23:59:18Z",
        "version": 2,
        "changeset": 109540838,
        "amenity": "school",
        "id": "way/776503276"
      },
      "geometry": {
        "type": "Polygon",
        "coordinates": [
          [
            [
              -38.1276045,
              -5.2468867
            ],
            [
              -38.1278072,
              -5.2470911
            ],
            [
              -38.1273014,
              -5.2475887
            ],
            [
              -38.1270986,
              -5.2473843
            ],
            [
              -38.1276045,
              -5.2468867
            ]
          ]
        ]
      }
    },
    {
      "type": "Feature",
      "id": "way/947753557",
      "properties": {
        "timestamp": "2024-08-14T13:37:13Z",
        "version": 3,
        "changeset": 155241668,
        "addr:city": "Tabuleiro do Norte",
        "addr:housenumber": "77",
        "addr:street": "Rua Pio Afonso Chaves",
        "addr:suburb": "Centro",
        "amenity": "school",
        "name": "Colégio Alternativo",
        "office": "educational_institution",
        "phone": "+55 88 9 9840 0014",
        "id": "way/947753557"
      },
      "geometry": {
        "type": "Polygon",
        "coordinates": [
          [
            [
              -38.1354995,
              -5.2444658
            ],
            [
              -38.1357892,
              -5.2447837
            ],
            [
              -38.1353949,
              -5.2451656
            ],
            [
              -38.1350945,
              -5.2448344
            ],
            [
              -38.1354995,
              -5.2444658
            ]
          ]
        ]
      }
    },
    {
      "type": "Feature",
      "id": "way/972964683",
      "properties": {
        "timestamp": "2024-08-14T13:37:13Z",
        "version": 2,
        "changeset": 155241668,
        "addr:city": "Tabuleiro do Norte",
        "addr:housenumber": "775",
        "addr:street": "Rua Pio Afonso Chaves",
        "addr:suburb": "Centro",
        "amenity": "school",
        "name": "Escolinha Paraíso Da Criança",
        "phone": "+55 88 2146 0189",
        "id": "way/972964683"
      },
      "geometry": {
        "type": "Polygon",
        "coordinates": [
          [
            [
              -38.1356612,
              -5.2456792
            ],
            [
              -38.1352273,
              -5.24608
            ],
            [
              -38.1349366,
              -5.245768
            ],
            [
              -38.1353705,
              -5.2453671
            ],
            [
              -38.1356612,
              -5.2456792
            ]
          ]
        ]
      }
    },
    {
      "type": "Feature",
      "id": "way/1193998159",
      "properties": {
        "timestamp": "2024-04-09T16:31:22Z",
        "version": 2,
        "changeset": 149785484,
        "amenity": "school",
        "building": "house",
        "id": "way/1193998159"
      },
      "geometry": {
        "type": "Polygon",
        "coordinates": [
          [
            [
              -38.1384857,
              -5.217891
            ],
            [
              -38.1383372,
              -5.2179703
            ],
            [
              -38.1381798,
              -5.217678
            ],
            [
              -38.1383284,
              -5.2175986
            ],
            [
              -38.1384857,
              -5.217891
            ]
          ]
        ]
      }
    },
    {
      "type": "Feature",
      "id": "node/7178199623",
      "properties": {
        "timestamp": "2020-02-01T22:18:32Z",
        "version": 1,
        "changeset": 80422485,
        "addr:street": "CE-358",
        "amenity": "school",
        "name": "EEMTI Antônio Vidal Malveira",
        "id": "node/7178199623"
      },
      "geometry": {
        "type": "Point",
        "coordinates": [
          -38.0160637,
          -5.3874373
        ]
      }
    },
    {
      "type": "Feature",
      "id": "node/7893577332",
      "properties": {
        "timestamp": "2021-08-12T00:06:58Z",
        "version": 2,
        "changeset": 109540954,
        "addr:housenumber": "1",
        "addr:street": "Rua Coronel Pio Gadelha",
        "amenity": "school",
        "name": "Unidade Executora Educação Escola Municipal Evidencia da Escola",
        "phone": "+55 88 3424 3081",
        "id": "node/7893577332"
      },
      "geometry": {
        "type": "Point",
        "coordinates": [
          -38.1251869,
          -5.2496877
        ]
      }
    },
    {
      "type": "Feature",
      "id": "node/9750258793",
      "properties": {
        "timestamp": "2023-11-10T11:43:50Z",
        "version": 3,
        "changeset": 143859473,
        "addr:city": "Tabuleiro do Norte",
        "addr:postcode": "62960-000",
        "addr:street": "Travessa Manoel Tavares",
        "addr:suburb": "São Francisco",
        "amenity": "school",
        "name": "Escolinha Turma da Mônica",
        "phone": "+55 88 3424 2136",
        "id": "node/9750258793"
      },
      "geometry": {
        "type": "Point",
        "coordinates": [
          -38.1298235,
          -5.2490921
        ]
      }
    },
    {
      "type": "Feature",
      "id": "node/10234627279",
      "properties": {
        "timestamp": "2022-12-02T23:16:34Z",
        "version": 1,
        "changeset": 129662104,
        "addr:housenumber": "100",
        "addr:street": "Rua José Pessoa da Silva",
        "amenity": "school",
        "name": "KDX Reforço Escolar",
        "id": "node/10234627279"
      },
      "geometry": {
        "type": "Point",
        "coordinates": [
          -38.133564,
          -5.2529373
        ]
      }
    },
    {
      "type": "Feature",
      "id": "node/11180792090",
      "properties": {
        "timestamp": "2023-09-10T10:32:58Z",
        "version": 1,
        "changeset": 141056458,
        "addr:city": "Tabuleiro do Norte",
        "addr:street": "Rua Raimundo Pinto",
        "amenity": "school",
        "name": "EMEF Nossa Senhora De Fátima",
        "id": "node/11180792090"
      },
      "geometry": {
        "type": "Point",
        "coordinates": [
          -38.1293157,
          -5.2423472
        ]
      }
    },
    {
      "type": "Feature",
      "id": "node/11180792092",
      "properties": {
        "timestamp": "2023-09-10T10:32:58Z",
        "version": 1,
        "changeset": 141056458,
        "addr:city": "Tabuleiro do Norte",
        "addr:street": "Rua Francisco Moreira",
        "addr:suburb": "8 de Setembro",
        "amenity": "school",
        "name": "Colégio Nossa Senhora das Brotas",
        "id": "node/11180792092"
      },
      "geometry": {
        "type": "Point",
        "coordinates": [
          -38.1277442,
          -5.2416228
        ]
      }
    },
    {
      "type": "Feature",
      "id": "node/11180792095",
      "properties": {
        "timestamp": "2023-09-10T10:32:58Z",
        "version": 1,
        "changeset": 141056458,
        "addr:city": "Tabuleiro do Norte",
        "addr:street": "Rua Monsenhor Otávio Santiago",
        "addr:suburb": "Centro",
        "amenity": "school",
        "name": "Escola E. I. Raquel Monteiro Chaves",
        "id": "node/11180792095"
      },
      "geometry": {
        "type": "Point",
        "coordinates": [
          -38.1248019,
          -5.246922
        ]
      }
    }
  ]
}
