{
  "type": "FeatureCollection",
  "features": [
    {
      "type": "Feature",
      "id": "way/888770642",
      "properties": {
        "timestamp": "2020-12-27T01:41:06Z",
        "version": 1,
        "changeset": 96470571,
        "addr:city": "Sorocaba",
        "addr:housenumber": "339",
        "addr:postcode": "18080-000",
        "addr:street": "Rua Comendador Hemelino Matarazzo",
        "addr:suburb": "Vila Santa Rita",
        "amenity": "dentist",
        "building": "yes",
        "healthcare": "dentist",
        "healthcare:speciality": "general",
        "name": "Gou Odonto Sorocaba",
        "phone": "+55 15 3031-3360",
        "website": "https://www.gouodonto.com.br/",
        "id": "way/888770642"
      },
      "geometry": {
        "type": "Polygon",
        "coordinates": [
          [
            [
              -47.4585756,
              -23.4927597
            ],
            [
              -47.4587512,
              -23.4928809
            ],
            [
              -47.4587149,
              -23.4929251
            ],
            [
              -47.4585393,
              -23.4928039
            ],
            [
              -47.4585756,
              -23.4927597
            ]
          ]
        ]
      }
    },
    {
      "type": "Feature",
      "id": "way/907961931",
      "properties": {
        "timestamp": "2021-02-17T06:18:20Z",
        "version": 1,
        "changeset": 99425278,
        "addr:city": "Sorocaba",
        "addr:housenumber": "398",
        "addr:postcode": "18090-500",
        "addr:street": "Rua Pascoal Leite Paes",
        "addr:suburb": "Vila Progresso",
        "amenity": "dentist",
        "building": "yes",
        "healthcare": "dentist",
        "name": "SorriClinic Odontologia Especializada",
        "opening_hours": "Mo-Fr 09:00-19:00",
        "phone": "+55 15 3233-7111",
        "id": "way/907961931"
      },
      "geometry": {
        "type": "Polygon",
        "coordinates": [
          [
            [
              -47.4490297,
              -23.4797249
            ],
            [
              -47.449001,
              -23.4797837
            ],
            [
              -47.4489311,
              -23.4797549
            ],
            [
              -47.4489597,
              -23.4796962
            ],
            [
              -47.4490297,
              -23.4797249
            ]
          ]
        ]
      }
    },
    {
      "type": "Feature",
      "id": "way/909763924",
      "properties": {
        "timestamp": "2021-02-22T21:12:57Z",
        "version": 1,
        "changeset": 99772528,
        "addr:city": "Sorocaba",
        "addr:housenumber": "328",
        "addr:postcode": "18095-110",
        "addr:street": "Rua Máximo Campanini",
        "addr:suburb": "Jardim Santa Rosália",
        "amenity": "dentist",
        "building": "yes",
        "healthcare": "dentist",
        "name": "Ortodontista Doutora Ana Lucia",
        "opening_hours": "Mo-Th 08:00-19:00",
        "phone": "+55 15 3231-1079",
        "id": "way/909763924"
      },
      "geometry": {
        "type": "Polygon",
        "coordinates": [
          [
            [
              -47.4500946,
              -23.4903847
            ],
            [
              -47.4501023,
              -23.4904433
            ],
            [
              -47.4500838,
              -23.490444
            ],
            [
              -47.4500815,
              -23.4904553
            ],
            [
              -47.4500538,
              -23.4904539
            ],
            [
              -47.4500545,
              -23.4904631
            ],
            [
              -47.4499983,
              -23.4904645
            ],
            [
              -47.4499968,
              -23.4903882
            ],
            [
              -47.4500946,
              -23.4903847
            ]
          ]
        ]
      }
    },
    {
      "type": "Feature",
      "id": "way/990304110",
      "properties": {
        "timestamp": "2021-10-06T11:03:36Z",
        "version": 1,
        "changeset": 112164401,
        "addr:city": "Sorocaba",
        "addr:housenumber": "209",
        "addr:postcode": "18035-085",
        "addr:street": "Rua Senador Feijó",
        "addr:suburb": "Centro",
        "amenity": "dentist",
        "building": "service",
        "healthcare": "dentist",
        "name": "Odontec",
        "opening_hours": "Mo-Sa 08:00-18:00",
        "opening_hours:covid19": "restricted",
        "operator": "Desconhecido",
        "id": "way/990304110"
      },
      "geometry": {
        "type": "Polygon",
        "coordinates": [
          [
            [
              -47.4564892,
              -23.5030171
            ],
            [
              -47.4566857,
              -23.5030934
            ],
            [
              -47.4566575,
              -23.5031703
            ],
            [
              -47.4566146,
              -23.5031739
            ],
            [
              -47.4564744,
              -23.5031414
            ],
            [
              -47.4564892,
              -23.5030171
            ]
          ]
        ]
      }
    },
    {
      "type": "Feature",
      "id": "way/990304115",
      "properties": {
        "timestamp": "2023-08-19T08:56:52Z",
        "version": 2,
        "changeset": 140085881,
        "addr:city": "Sorocaba",
        "addr:housenumber": "177",
        "addr:postcode": "18035-085",
        "addr:street": "Rua Senador Feijó",
        "addr:suburb": "Centro",
        "amenity": "dentist",
        "building": "service",
        "healthcare": "dentist",
        "healthcare:speciality": "prótese_e_implante",
        "name": "Odontogênese",
        "opening_hours": "Mo-Sa 08:00-18:00",
        "operator": "Desconhecido",
        "id": "way/990304115"
      },
      "geometry": {
        "type": "Polygon",
        "coordinates": [
          [
            [
              -47.4567949,
              -23.5028348
            ],
            [
              -47.4567834,
              -23.502868
            ],
            [
              -47.4565708,
              -23.5027938
            ],
            [
              -47.4565839,
              -23.502762
            ],
            [
              -47.4567949,
              -23.5028348
            ]
          ]
        ]
      }
    },
    {
      "type": "Feature",
      "id": "way/990304122",
      "properties": {
        "timestamp": "2023-08-19T08:57:39Z",
        "version": 2,
        "changeset": 140085881,
        "addr:city": "Sorocaba",
        "addr:housenumber": "432",
        "addr:postcode": "18035-085",
        "addr:street": "Rua Brigadeiros Tobias",
        "addr:suburb": "Centro",
        "amenity": "dentist",
        "building": "yes",
        "healthcare": "dentist",
        "healthcare:speciality": "general",
        "name": "Odonto Plent",
        "opening_hours": "Mo-Sa 08:00-18:00",
        "operator": "Tiago Gimenez",
        "id": "way/990304122"
      },
      "geometry": {
        "type": "Polygon",
        "coordinates": [
          [
            [
              -47.4557464,
              -23.5027011
            ],
            [
              -47.4557601,
              -23.5026361
            ],
            [
              -47.4560016,
              -23.5026822
            ],
            [
              -47.4560655,
              -23.5026944
            ],
            [
              -47.4560529,
              -23.5027516
            ],
            [
              -47.4557464,
              -23.5027011
            ]
          ]
        ]
      }
    },
    {
      "type": "Feature",
      "id": "way/991020904",
      "properties": {
        "timestamp": "2021-10-08T01:20:18Z",
        "version": 1,
        "changeset": 112239777,
        "addr:city": "Sorocaba",
        "addr:housenumber": "108",
        "addr:street": "Rua Saldanha da Gama",
        "addr:suburb": "Centro",
        "amenity": "dentist",
        "building": "yes",
        "healthcare": "dentist",
        "healthcare:speciality": "dentistry",
        "name": "Odontologia",
        "id": "way/991020904"
      },
      "geometry": {
        "type": "Polygon",
        "coordinates": [
          [
            [
              -47.4630368,
              -23.4971362
            ],
            [
              -47.4631106,
              -23.4970237
            ],
            [
              -47.4631512,
              -23.4970462
            ],
            [
              -47.4630774,
              -23.4971586
            ],
            [
              -47.4630368,
              -23.4971362
            ]
          ]
        ]
      }
    },
    {
      "type": "Feature",
      "id": "way/991020910",
      "properties": {
        "timestamp": "2021-10-08T01:20:18Z",
        "version": 1,
        "changeset": 112239777,
        "addr:city": "Sorocaba",
        "addr:housenumber": "68",
        "addr:street": "Rua Saldanha da Gama",
        "addr:suburb": "Centro",
        "amenity": "dentist",
        "building": "yes",
        "healthcare": "dentist",
        "healthcare:speciality": "dentistry",
        "name": "Odontologia",
        "id": "way/991020910"
      },
      "geometry": {
        "type": "Polygon",
        "coordinates": [
          [
            [
              -47.462699,
              -23.4969307
            ],
            [
              -47.4628229,
              -23.4967532
            ],
            [
              -47.462868,
              -23.4967797
            ],
            [
              -47.4627441,
              -23.4969571
            ],
            [
              -47.462699,
              -23.4969307
            ]
          ]
        ]
      }
    },
    {
      "type": "Feature",
      "id": "way/991020912",
      "properties": {
        "timestamp": "2021-10-08T01:20:18Z",
        "version": 1,
        "changeset": 112239777,
        "addr:city": "Sorocaba",
        "addr:street": "Rua Saldanha da Gama",
        "addr:suburb": "Centro",
        "amenity": "dentist",
        "building": "yes",
        "healthcare": "dentist",
        "healthcare:speciality": "dentistry",
        "name": "Odontofamily",
        "id": "way/991020912"
      },
      "geometry": {
        "type": "Polygon",
        "coordinates": [
          [
            [
              -47.4626036,
              -23.4970059
            ],
            [
              -47.4626495,
              -23.4970378
            ],
            [
              -47.4624899,
              -23.4972306
            ],
            [
              -47.462444,
              -23.4971987
            ],
            [
              -47.4626036,
              -23.4970059
            ]
          ]
        ]
      }
    },
    {
      "type": "Feature",
      "id": "way/991020919",
      "properties": {
        "timestamp": "2021-10-08T01:20:18Z",
        "version": 1,
        "changeset": 112239777,
        "addr:city": "Sorocaba",
        "addr:street": "Rua Saldanha da Gama",
        "addr:suburb": "Centro",
        "amenity": "dentist",
        "building": "yes",
        "healthcare": "dentist",
        "healthcare:speciality": "dentistry",
        "name": "Cirurgião Dentista",
        "id": "way/991020919"
      },
      "geometry": {
        "type": "Polygon",
        "coordinates": [
          [
            [
              -47.4622319,
              -23.496777
            ],
            [
              -47.4621477,
              -23.4968841
            ],
            [
              -47.4621176,
              -23.4968642
            ],
            [
              -47.462202,
              -23.4967571
            ],
            [
              -47.4622319,
              -23.496777
            ]
          ]
        ]
      }
    },
    {
      "type": "Feature",
      "id": "way/991029823",
      "properties": {
        "timestamp": "2021-10-08T02:27:53Z",
        "version": 1,
        "changeset": 112240586,
        "addr:city": "Sorocaba",
        "addr:housenumber": "355",
        "addr:postcode": "18035-630",
        "addr:street": "Rua Santa Cruz",
        "addr:suburb": "Centro",
        "amenity": "dentist",
        "building": "yes",
        "healthcare": "dentist",
        "id": "way/991029823"
      },
      "geometry": {
        "type": "Polygon",
        "coordinates": [
          [
            [
              -47.45353,
              -23.5037261
            ],
            [
              -47.4534615,
              -23.5037158
            ],
            [
              -47.453484,
              -23.5035895
            ],
            [
              -47.4534578,
              -23.5035857
            ],
            [
              -47.4534342,
              -23.5035823
            ],
            [
              -47.4534562,
              -23.5034506
            ],
            [
              -47.4535404,
              -23.5034629
            ],
            [
              -47.4535761,
              -23.5034673
            ],
            [
              -47.4535364,
              -23.5036936
            ],
            [
              -47.45353,
              -23.5037261
            ]
          ]
        ]
      }
    },
    {
      "type": "Feature",
      "id": "way/991029887",
      "properties": {
        "timestamp": "2021-10-08T02:27:53Z",
        "version": 1,
        "changeset": 112240586,
        "addr:city": "Sorocaba",
        "addr:housenumber": "79",
        "addr:postcode": "18035-630",
        "addr:street": "Rua Santa Cruz",
        "addr:suburb": "Centro",
        "amenity": "dentist",
        "building": "yes",
        "healthcare": "dentist",
        "id": "way/991029887"
      },
      "geometry": {
        "type": "Polygon",
        "coordinates": [
          [
            [
              -47.4561512,
              -23.5040702
            ],
            [
              -47.4561685,
              -23.5039904
            ],
            [
              -47.456234,
              -23.5039996
            ],
            [
              -47.4562209,
              -23.5040762
            ],
            [
              -47.4561512,
              -23.5040702
            ]
          ]
        ]
      }
    },
    {
      "type": "Feature",
      "id": "way/991364056",
      "properties": {
        "timestamp": "2021-10-09T00:05:57Z",
        "version": 1,
        "changeset": 112285639,
        "amenity": "dentist",
        "building": "yes",
        "healthcare": "dentist",
        "id": "way/991364056"
      },
      "geometry": {
        "type": "Polygon",
        "coordinates": [
          [
            [
              -47.4631129,
              -23.4981114
            ],
            [
              -47.4630622,
              -23.4981726
            ],
            [
              -47.4630202,
              -23.4981461
            ],
            [
              -47.4630699,
              -23.49808
            ],
            [
              -47.4631129,
              -23.4981114
            ]
          ]
        ]
      }
    },
    {
      "type": "Feature",
      "id": "way/991367185",
      "properties": {
        "timestamp": "2021-10-09T00:44:15Z",
        "version": 1,
        "changeset": 112286021,
        "addr:city": "Sorocaba",
        "addr:housenumber": "318",
        "addr:street": "Rua Saldanha Marinho",
        "addr:suburb": "Centro",
        "amenity": "dentist",
        "building": "yes",
        "healthcare": "dentist",
        "name": "Odontologia",
        "id": "way/991367185"
      },
      "geometry": {
        "type": "Polygon",
        "coordinates": [
          [
            [
              -47.4641791,
              -23.4986194
            ],
            [
              -47.4642713,
              -23.4984985
            ],
            [
              -47.4643063,
              -23.4985255
            ],
            [
              -47.4642174,
              -23.4986424
            ],
            [
              -47.4641791,
              -23.4986194
            ]
          ]
        ]
      }
    },
    {
      "type": "Feature",
      "id": "way/991367200",
      "properties": {
        "timestamp": "2021-10-09T00:44:15Z",
        "version": 1,
        "changeset": 112286021,
        "addr:city": "Sorocaba",
        "addr:housenumber": "212",
        "addr:street": "Rua Saldanha Marinho",
        "addr:suburb": "Centro",
        "amenity": "dentist",
        "building": "yes",
        "healthcare": "dentist",
        "healthcare:speciality": "dentistry",
        "id": "way/991367200"
      },
      "geometry": {
        "type": "Polygon",
        "coordinates": [
          [
            [
              -47.4633091,
              -23.4980908
            ],
            [
              -47.4634723,
              -23.4978775
            ],
            [
              -47.4635159,
              -23.4979056
            ],
            [
              -47.4633526,
              -23.4981188
            ],
            [
              -47.4633091,
              -23.4980908
            ]
          ]
        ]
      }
    },
    {
      "type": "Feature",
      "id": "way/991370178",
      "properties": {
        "timestamp": "2021-10-09T01:16:08Z",
        "version": 1,
        "changeset": 112286290,
        "amenity": "dentist",
        "building": "yes",
        "building:levels": "2",
        "healthcare": "dentist",
        "name": "Dentista - Dr. Everton Dias - Clínica Odontológica Odonto Sete",
        "id": "way/991370178"
      },
      "geometry": {
        "type": "Polygon",
        "coordinates": [
          [
            [
              -47.4644079,
              -23.5008669
            ],
            [
              -47.4643916,
              -23.5008583
            ],
            [
              -47.4644165,
              -23.5008185
            ],
            [
              -47.4644707,
              -23.500847
            ],
            [
              -47.4643996,
              -23.5009605
            ],
            [
              -47.4643618,
              -23.5009406
            ],
            [
              -47.4644079,
              -23.5008669
            ]
          ]
        ]
      }
    },
    {
      "type": "Feature",
      "id": "way/991382598",
      "properties": {
        "timestamp": "2021-10-09T02:23:50Z",
        "version": 1,
        "changeset": 112287109,
        "amenity": "dentist",
        "building": "yes",
        "healthcare": "dentist",
        "id": "way/991382598"
      },
      "geometry": {
        "type": "Polygon",
        "coordinates": [
          [
            [
              -47.4643061,
              -23.4993092
            ],
            [
              -47.4644402,
              -23.4993761
            ],
            [
              -47.4643973,
              -23.4994485
            ],
            [
              -47.4642448,
              -23.4993724
            ],
            [
              -47.4642747,
              -23.4993221
            ],
            [
              -47.464293,
              -23.4993312
            ],
            [
              -47.4643061,
              -23.4993092
            ]
          ]
        ]
      }
    },
    {
      "type": "Feature",
      "id": "way/991382602",
      "properties": {
        "timestamp": "2021-10-09T02:23:50Z",
        "version": 1,
        "changeset": 112287109,
        "amenity": "dentist",
        "building": "yes",
        "healthcare": "dentist",
        "name": "REDEORTO Sorocaba",
        "id": "way/991382602"
      },
      "geometry": {
        "type": "Polygon",
        "coordinates": [
          [
            [
              -47.4646523,
              -23.4991231
            ],
            [
              -47.4645013,
              -23.4990369
            ],
            [
              -47.4645191,
              -23.4990106
            ],
            [
              -47.4644763,
              -23.4989861
            ],
            [
              -47.4645048,
              -23.4989441
            ],
            [
              -47.4646598,
              -23.4990325
            ],
            [
              -47.4646417,
              -23.4990592
            ],
            [
              -47.4646806,
              -23.4990814
            ],
            [
              -47.4646523,
              -23.4991231
            ]
          ]
        ]
      }
    },
    {
      "type": "Feature",
      "id": "way/991382603",
      "properties": {
        "timestamp": "2021-10-09T02:23:50Z",
        "version": 1,
        "changeset": 112287109,
        "amenity": "dentist",
        "building": "yes",
        "healthcare": "dentist",
        "name": "Odontologia Estética e Acupúntura",
        "id": "way/991382603"
      },
      "geometry": {
        "type": "Polygon",
        "coordinates": [
          [
            [
              -47.4645363,
              -23.4989035
            ],
            [
              -47.4646764,
              -23.4989871
            ],
            [
              -47.4646499,
              -23.4990244
            ],
            [
              -47.4645098,
              -23.4989409
            ],
            [
              -47.4645363,
              -23.4989035
            ]
          ]
        ]
      }
    },
    {
      "type": "Feature",
      "id": "way/995637298",
      "properties": {
        "timestamp": "2021-10-22T17:23:35Z",
        "version": 1,
        "changeset": 112848803,
        "amenity": "dentist",
        "building": "yes",
        "building:levels": "1",
        "healthcare": "dentist",
        "height": "2",
        "name": "Odontologia - Dra. Vanessa Lage de Almeida",
        "id": "way/995637298"
      },
      "geometry": {
        "type": "Polygon",
        "coordinates": [
          [
            [
              -47.4919601,
              -23.5172264
            ],
            [
              -47.4919998,
              -23.5172847
            ],
            [
              -47.4918567,
              -23.5173665
            ],
            [
              -47.4918187,
              -23.5173108
            ],
            [
              -47.4918963,
              -23.5172664
            ],
            [
              -47.4919005,
              -23.5172605
            ],
            [
              -47.4919601,
              -23.5172264
            ]
          ]
        ]
      }
    },
    {
      "type": "Feature",
      "id": "way/1042771687",
      "properties": {
        "timestamp": "2022-03-23T00:23:20Z",
        "version": 1,
        "changeset": 118798646,
        "amenity": "dentist",
        "building": "yes",
        "healthcare": "dentist",
        "layer": "1",
        "id": "way/1042771687"
      },
      "geometry": {
        "type": "Polygon",
        "coordinates": [
          [
            [
              -47.4879723,
              -23.4895388
            ],
            [
              -47.4877571,
              -23.4897597
            ],
            [
              -47.4877386,
              -23.4895297
            ],
            [
              -47.4879723,
              -23.4895388
            ]
          ]
        ]
      }
    },
    {
      "type": "Feature",
      "id": "way/1043519861",
      "properties": {
        "timestamp": "2022-03-24T18:33:56Z",
        "version": 1,
        "changeset": 118877026,
        "amenity": "dentist",
        "building": "yes",
        "building:levels": "1",
        "healthcare": "dentist",
        "height": "3",
        "name": "Dra. Maritércia",
        "id": "way/1043519861"
      },
      "geometry": {
        "type": "Polygon",
        "coordinates": [
          [
            [
              -47.4836011,
              -23.4923861
            ],
            [
              -47.4836374,
              -23.4924387
            ],
            [
              -47.4834997,
              -23.4925224
            ],
            [
              -47.4834612,
              -23.4924674
            ],
            [
              -47.4836011,
              -23.4923861
            ]
          ]
        ]
      }
    },
    {
      "type": "Feature",
      "id": "way/1043533094",
      "properties": {
        "timestamp": "2022-03-24T19:17:01Z",
        "version": 1,
        "changeset": 118879080,
        "addr:city": "Sorocaba",
        "addr:housenumber": "37",
        "addr:street": "Rua Doutor Lauro Sodré",
        "addr:suburb": "Vila Carvalho",
        "amenity": "dentist",
        "building": "yes",
        "healthcare": "dentist",
        "healthcare:speciality": "dentistry",
        "name": "Clínica Dental Dotto",
        "opening_hours": "Mo-Fr 08:00-18:00",
        "id": "way/1043533094"
      },
      "geometry": {
        "type": "Polygon",
        "coordinates": [
          [
            [
              -47.4615541,
              -23.4914419
            ],
            [
              -47.4614631,
              -23.4915393
            ],
            [
              -47.4613979,
              -23.4915059
            ],
            [
              -47.4615082,
              -23.4914033
            ],
            [
              -47.4615541,
              -23.4914419
            ]
          ]
        ]
      }
    },
    {
      "type": "Feature",
      "id": "way/1046499385",
      "properties": {
        "timestamp": "2022-03-30T12:12:47Z",
        "version": 1,
        "changeset": 119114010,
        "addr:housenumber": "434",
        "amenity": "dentist",
        "building": "yes",
        "building:levels": "1",
        "healthcare": "dentist",
        "name": "Consultório Odontológico",
        "id": "way/1046499385"
      },
      "geometry": {
        "type": "Polygon",
        "coordinates": [
          [
            [
              -47.4813667,
              -23.4900189
            ],
            [
              -47.4812869,
              -23.4899728
            ],
            [
              -47.4813224,
              -23.4899211
            ],
            [
              -47.4813385,
              -23.489931
            ],
            [
              -47.481364,
              -23.4898984
            ],
            [
              -47.4813539,
              -23.4898885
            ],
            [
              -47.4813962,
              -23.4898307
            ],
            [
              -47.4814672,
              -23.4898725
            ],
            [
              -47.481427,
              -23.4899316
            ],
            [
              -47.4814116,
              -23.4899205
            ],
            [
              -47.4813941,
              -23.4899433
            ],
            [
              -47.4814116,
              -23.4899562
            ],
            [
              -47.4813667,
              -23.4900189
            ]
          ]
        ]
      }
    },
    {
      "type": "Feature",
      "id": "way/1171610231",
      "properties": {
        "timestamp": "2023-06-15T12:01:08Z",
        "version": 2,
        "changeset": 137367281,
        "addr:city": "Sorocaba",
        "addr:housenumber": "35",
        "addr:postcode": "18010-240",
        "addr:street": "Rua Jośe Bonifácio",
        "addr:suburb": "Centro",
        "amenity": "dentist",
        "building": "yes",
        "healthcare": "dentist",
        "healthcare:speciality": "orthodontics",
        "name": "Orthopride",
        "opening_hours": "Mo-Fr 09:00-16:00; Sa 09:00-13:00",
        "operator": "GISELE CAROLINE SANTOS",
        "phone": "+55 15 3357-4340",
        "website": "https://orthopride.com.br",
        "wheelchair": "limited",
        "id": "way/1171610231"
      },
      "geometry": {
        "type": "Polygon",
        "coordinates": [
          [
            [
              -47.4575014,
              -23.4982225
            ],
            [
              -47.4576007,
              -23.4980435
            ],
            [
              -47.4576895,
              -23.4980839
            ],
            [
              -47.4575857,
              -23.4982685
            ],
            [
              -47.4575014,
              -23.4982225
            ]
          ]
        ]
      }
    },
    {
      "type": "Feature",
      "id": "way/1174574702",
      "properties": {
        "timestamp": "2023-05-22T23:13:09Z",
        "version": 2,
        "changeset": 136432712,
        "addr:city": "Sorocaba",
        "addr:postcode": "18072-080",
        "addr:street": "Rua José Carlos Ramalho",
        "addr:suburb": "São Bento",
        "amenity": "dentist",
        "building": "yes",
        "healthcare": "dentist",
        "healthcare:speciality": "orthodontics",
        "name": "Consultório Odontológico",
        "id": "way/1174574702"
      },
      "geometry": {
        "type": "Polygon",
        "coordinates": [
          [
            [
              -47.5064284,
              -23.4347202
            ],
            [
              -47.5065202,
              -23.4347498
            ],
            [
              -47.5064669,
              -23.4348976
            ],
            [
              -47.5064023,
              -23.4348815
            ],
            [
              -47.5064284,
              -23.4347202
            ]
          ]
        ]
      }
    },
    {
      "type": "Feature",
      "id": "way/1199238292",
      "properties": {
        "timestamp": "2023-09-03T23:07:50Z",
        "version": 2,
        "changeset": 140779821,
        "amenity": "dentist",
        "building": "yes",
        "building:levels": "1",
        "healthcare": "dentist",
        "height": "3",
        "id": "way/1199238292"
      },
      "geometry": {
        "type": "Polygon",
        "coordinates": [
          [
            [
              -47.4674163,
              -23.5099135
            ],
            [
              -47.4673809,
              -23.5099997
            ],
            [
              -47.4671683,
              -23.5099347
            ],
            [
              -47.4671929,
              -23.5098542
            ],
            [
              -47.4674163,
              -23.5099135
            ]
          ]
        ]
      }
    },
    {
      "type": "Feature",
      "id": "way/1208655742",
      "properties": {
        "timestamp": "2023-11-29T00:44:48Z",
        "version": 3,
        "changeset": 144569280,
        "addr:housenumber": "69",
        "addr:street": "Avenida Edward Fru-Fru Marciano da Silva",
        "amenity": "dentist",
        "building": "yes",
        "healthcare": "dentist",
        "name": "Sorille Odontologia",
        "id": "way/1208655742"
      },
      "geometry": {
        "type": "Polygon",
        "coordinates": [
          [
            [
              -47.4850144,
              -23.4535193
            ],
            [
              -47.4850631,
              -23.4534938
            ],
            [
              -47.4850683,
              -23.4534975
            ],
            [
              -47.4851578,
              -23.4536417
            ],
            [
              -47.4851069,
              -23.4536683
            ],
            [
              -47.4850144,
              -23.4535193
            ]
          ]
        ]
      }
    },
    {
      "type": "Feature",
      "id": "way/1217067896",
      "properties": {
        "timestamp": "2023-12-22T11:57:00Z",
        "version": 2,
        "changeset": 145403965,
        "addr:housenumber": "3826",
        "addr:street": "Avenida Ipanema",
        "amenity": "dentist",
        "building": "yes",
        "healthcare": "dentist",
        "healthcare:speciality": "dentistry;orthodontics",
        "name": "Sorridents",
        "opening_hours": "Mo-Fr 08:00-19:00; Sa 08:00-15:00",
        "phone": "+55 15 9974-0020",
        "id": "way/1217067896"
      },
      "geometry": {
        "type": "Polygon",
        "coordinates": [
          [
            [
              -47.4966375,
              -23.4641348
            ],
            [
              -47.4967045,
              -23.46406
            ],
            [
              -47.4968017,
              -23.4641332
            ],
            [
              -47.4967469,
              -23.4641944
            ],
            [
              -47.4967081,
              -23.4641881
            ],
            [
              -47.4966375,
              -23.4641348
            ]
          ]
        ]
      }
    },
    {
      "type": "Feature",
      "id": "way/1223431727",
      "properties": {
        "timestamp": "2023-11-14T11:50:34Z",
        "version": 1,
        "changeset": 144007134,
        "addr:housenumber": "451",
        "addr:street": "Avenida Itavuvu",
        "amenity": "dentist",
        "building": "yes",
        "healthcare": "dentist",
        "name": "Sorilha",
        "id": "way/1223431727"
      },
      "geometry": {
        "type": "Polygon",
        "coordinates": [
          [
            [
              -47.4739029,
              -23.4805791
            ],
            [
              -47.4738726,
              -23.4805623
            ],
            [
              -47.4739134,
              -23.4805003
            ],
            [
              -47.4739438,
              -23.4805171
            ],
            [
              -47.4739029,
              -23.4805791
            ]
          ]
        ]
      }
    },
    {
      "type": "Feature",
      "id": "node/4837876161",
      "properties": {
        "timestamp": "2021-05-29T21:47:55Z",
        "version": 4,
        "changeset": 105549808,
        "addr:city": "Sorocaba",
        "addr:housenumber": "1270",
        "addr:postcode": "18077-391",
        "addr:street": "Avenida Doutor Ulisses Guimarães",
        "addr:suburb": "Parque das Laranjeiras",
        "amenity": "dentist",
        "check_date:opening_hours": "2021-05-29",
        "healthcare": "dentist",
        "name": "Consultório Odontológico - Dra. Haline de Lima Carneiro",
        "opening_hours": "Mo-Fr 08:00-18:00; Sa 08:00-12:00",
        "phone": "+55 15 3326 3902",
        "id": "node/4837876161"
      },
      "geometry": {
        "type": "Point",
        "coordinates": [
          -47.4706731,
          -23.4531249
        ]
      }
    }
  ]
}
